{
    "type": "FeatureCollection",
    "features": [
        {
            "id": 83382,
            "type": "Feature",
            "geometry": {
                "type": "Point",
                "coordinates": [
                    21.64178,
                    52.0294
                ]
            },
            "properties": {
                "isced:level": "1;2",
                "ref:rspo": 83382,
                "official_name": "Publiczna Szko\u0142a Podstawowa im. Kornela Makuszy\u0144skiego w Starogrodzie",
                "name": "Publiczna Szko\u0142a Podstawowa",
                "addr:country": "PL",
                "addr:postcode": "05-332",
                "addr:place": "Starogr\u00f3d",
                "addr:housenumber": "9B",
                "addr:teryt:sym_ul": 687310,
                "contact:phone": "+48 257991976",
                "contact:email": "pspstarogrod@poczta.fm",
                "contact:website": "http:\/\/pspstarogrod.edupage.org",
                "ref:regon": "001127955",
                "operator": "Gmina Siennica",
                "operator:type": "government",
                "amenity": "school"
            }
        },
        {
            "id": 92449,
            "type": "Feature",
            "geometry": {
                "type": "Point",
                "coordinates": [
                    21.6624,
                    52.06504
                ]
            },
            "properties": {
                "isced:level": "1;2",
                "ref:rspo": 92449,
                "official_name": "Publiczna Szko\u0142a Podstawowa im. Zawiszy Czarnego w \u017bakowie",
                "name": "Publiczna Szko\u0142a Podstawowa",
                "addr:country": "PL",
                "addr:postcode": "05-332",
                "addr:place": "\u017bak\u00f3w",
                "addr:housenumber": "48A",
                "addr:teryt:sym_ul": 687439,
                "contact:phone": "+48 257572270",
                "contact:email": "zakow@vp.pl",
                "contact:website": "http:\/\/www.zakow.edu.pl",
                "ref:regon": "001127978",
                "operator": "Gmina Siennica",
                "operator:type": "government",
                "amenity": "school"
            }
        },
        {
            "id": 83381,
            "type": "Feature",
            "geometry": {
                "type": "Point",
                "coordinates": [
                    21.62124,
                    52.09021
                ]
            },
            "properties": {
                "isced:level": "1;2",
                "ref:rspo": 83381,
                "official_name": "Publiczna Szko\u0142a Podstawowa im. Henryka Sienkiewicza w Siennicy",
                "name": "Publiczna Szko\u0142a Podstawowa",
                "addr:country": "PL",
                "addr:postcode": "05-332",
                "addr:city": "Siennica",
                "addr:street": "ul. Latowicka",
                "addr:housenumber": "16",
                "addr:teryt:simc": 10708,
                "addr:teryt:sym_ul": 687273,
                "contact:phone": "+48 257572279",
                "contact:email": "pspsiennica@tlen.pl",
                "contact:website": "http:\/\/pspsiennica.edu.pl",
                "ref:regon": "000636962",
                "operator": "Gmina Siennica",
                "operator:type": "government",
                "amenity": "school"
            }
        },
        {
            "id": 83383,
            "type": "Feature",
            "geometry": {
                "type": "Point",
                "coordinates": [
                    21.62146,
                    52.09164
                ]
            },
            "properties": {
                "ref:rspo": 83383,
                "official_name": "Gminne Przedszkole w Siennicy",
                "name": "Gminne Przedszkole w Siennicy",
                "addr:country": "PL",
                "addr:postcode": "05-332",
                "addr:city": "Siennica",
                "addr:street": "ul. Latowicka",
                "addr:housenumber": "15",
                "addr:teryt:simc": 10708,
                "addr:teryt:sym_ul": 687273,
                "contact:phone": "+48 257572280",
                "contact:email": "gpsiennica@wp.pl",
                "ref:regon": "712366224",
                "operator": "Gmina Siennica",
                "operator:type": "government",
                "amenity": "kindergarten"
            }
        },
        {
            "id": 83824,
            "type": "Feature",
            "geometry": {
                "type": "Point",
                "coordinates": [
                    21.61778,
                    52.09278
                ]
            },
            "properties": {
                "ref:rspo": 83824,
                "official_name": "Niepubliczne Przedszkole \"Chatka Puchatka\"",
                "name": "Niepubliczne Przedszkole \"Chatka Puchatka\"",
                "addr:country": "PL",
                "addr:postcode": "05-332",
                "addr:city": "Siennica",
                "addr:street": "ul. Mi\u0144ska",
                "addr:housenumber": "32A",
                "addr:teryt:simc": 12989,
                "addr:teryt:sym_ul": 687273,
                "contact:phone": "+48 692482450",
                "contact:email": "chatka-puchatka2@wp.pl",
                "ref:regon": "146413016",
                "operator": "Wies\u0142awa Kami\u0144ska",
                "operator:type": "private",
                "amenity": "kindergarten"
            }
        },
        {
            "id": 7653,
            "type": "Feature",
            "geometry": {
                "type": "Point",
                "coordinates": [
                    21.61599,
                    52.09396
                ]
            },
            "properties": {
                "ref:rspo": 7653,
                "official_name": "Zesp\u00f3\u0142 Szk\u00f3\u0142 im. H. I K. Gnoi\u0144skich w Siennicy",
                "name": "Zesp\u00f3\u0142 Szk\u00f3\u0142",
                "addr:country": "PL",
                "addr:postcode": "05-332",
                "addr:city": "Siennica",
                "addr:street": "ul. Mi\u0144ska",
                "addr:housenumber": "38",
                "addr:teryt:simc": 12989,
                "addr:teryt:sym_ul": 687273,
                "contact:phone": "+48 257572224",
                "contact:email": "sekretariat@zssiennica.pl",
                "contact:website": "http:\/\/www.zssiennica.pl",
                "ref:regon": "000187889",
                "ref:vatin": "PL8221465049",
                "operator": "Gmina Siennica",
                "operator:type": "government",
                "landuse": "education",
                "fixme": "amenity=school, amenity=college albo landuse=education w zale\u017cno\u015bci od tego, jakie plac\u00f3wki wchodz\u0105 w sk\u0142ad zespo\u0142u. Sprawd\u017a, kiedy stosowa\u0107 amenity=* a kiedy landuse=education.",
                "note": "Children RSPO: 53619;53621;53622"
            }
        },
        {
            "id": 53619,
            "type": "Feature",
            "geometry": {
                "type": "Point",
                "coordinates": [
                    21.61599,
                    52.09393
                ]
            },
            "properties": {
                "isced:level": "3",
                "ref:rspo": 53619,
                "official_name": "Zesp\u00f3\u0142 Szk\u00f3\u0142 im. H. I K. Gnoi\u0144skich w Siennicy - Liceum Og\u00f3lnokszta\u0142c\u0105ce",
                "name": "Zesp\u00f3\u0142 Szk\u00f3\u0142",
                "addr:country": "PL",
                "addr:postcode": "05-332",
                "addr:city": "Siennica",
                "addr:street": "ul. Mi\u0144ska",
                "addr:housenumber": "38",
                "addr:teryt:simc": 12989,
                "addr:teryt:sym_ul": 687273,
                "contact:phone": "+48 257572224",
                "contact:email": "sekretariat@zssiennica.pl",
                "contact:website": "http:\/\/zssiennica.pl",
                "ref:regon": "710017130",
                "operator": "Gmina Siennica",
                "operator:type": "government",
                "amenity": "school",
                "note": "Parent RSPO: 7653"
            }
        },
        {
            "id": 53621,
            "type": "Feature",
            "geometry": {
                "type": "Point",
                "coordinates": [
                    21.61599,
                    52.093900000000005
                ]
            },
            "properties": {
                "isced:level": "3",
                "ref:rspo": 53621,
                "official_name": "Zesp\u00f3\u0142 Szk\u00f3\u0142 H.I K. Gnoi\u0144skich w Siennicy Technikum",
                "name": "Zesp\u00f3\u0142 Szk\u00f3\u0142 H.I K. Gnoi\u0144skich w Siennicy Technikum",
                "addr:country": "PL",
                "addr:postcode": "05-332",
                "addr:city": "Siennica",
                "addr:street": "ul. Mi\u0144ska",
                "addr:housenumber": "38",
                "addr:teryt:simc": 12989,
                "addr:teryt:sym_ul": 687273,
                "contact:phone": "+48 257572224",
                "contact:email": "sekretariat@zssiennica.pl",
                "contact:website": "http:\/\/zssiennica.pl",
                "ref:regon": "142536259",
                "operator": "Gmina Siennica",
                "operator:type": "government",
                "amenity": "school",
                "note": "Parent RSPO: 7653"
            }
        },
        {
            "id": 53622,
            "type": "Feature",
            "geometry": {
                "type": "Point",
                "coordinates": [
                    21.61599,
                    52.09387
                ]
            },
            "properties": {
                "isced:level": "3",
                "ref:rspo": 53622,
                "official_name": "Zesp\u00f3\u0142 Szk\u00f3\u0142 im. H. I K. Gnoi\u0144skich w Siennicy Bran\u017cowa Szko\u0142a I Stopnia",
                "name": "Zesp\u00f3\u0142 Szk\u00f3\u0142",
                "addr:country": "PL",
                "addr:postcode": "05-332",
                "addr:city": "Siennica",
                "addr:street": "ul. Mi\u0144ska",
                "addr:housenumber": "38",
                "addr:teryt:simc": 12989,
                "addr:teryt:sym_ul": 687273,
                "contact:phone": "+48 257572224",
                "contact:email": "sekretaria@zssiennica.pl",
                "contact:website": "http:\/\/zssiennica.pl",
                "ref:regon": "141557650",
                "operator": "Gmina Siennica",
                "operator:type": "government",
                "amenity": "school",
                "note": "Parent RSPO: 7653"
            }
        },
        {
            "id": 119319,
            "type": "Feature",
            "geometry": {
                "type": "Point",
                "coordinates": [
                    21.67146,
                    52.0964
                ]
            },
            "properties": {
                "isced:level": "1;2",
                "ref:rspo": 119319,
                "official_name": "Szko\u0142a Podstawowa Specjalna w Zespole Niepublicznych Specjalnych Plac\u00f3wek O\u015bwiatowych ,, Mo\u017cesz Wi\u0119cej'' w Nowym Zglechowie",
                "name": "Szko\u0142a Podstawowa Specjalna w Zespole Niepublicznych Specjalnych Plac\u00f3wek O\u015bwiatowych ,, Mo\u017cesz Wi\u0119cej'' w Nowym Zglechowie",
                "addr:country": "PL",
                "addr:postcode": "05-332",
                "addr:place": "Nowy Zglech\u00f3w",
                "addr:housenumber": "27",
                "addr:teryt:sym_ul": 687244,
                "contact:phone": "+48 511968427",
                "contact:email": "szkolazglechow@o2.pl",
                "ref:regon": "146844064",
                "operator": "Stowarzyszenie Pomocy Dzieciom Niepe\u0142nosprawnym \"Mo\u017cesz Wi\u0119cej\" Z Siedzib\u0105 W Mi\u0144sku Mazowieckim                      Ul. Pi\u0142sudskiego 24\/2",
                "operator:type": "ngo",
                "amenity": "school"
            }
        },
        {
            "id": 119658,
            "type": "Feature",
            "geometry": {
                "type": "Point",
                "coordinates": [
                    21.67146,
                    52.09637
                ]
            },
            "properties": {
                "ref:rspo": 119658,
                "official_name": "Przedszkole Specjalne w Zespole Niepublicznych Specjalnych Plac\u00f3wek O\u015bwiatowych \"Mo\u017cesz Wi\u0119cej\" w Nowym Zglechowie",
                "name": "Przedszkole Specjalne w Zespole Niepublicznych Specjalnych Plac\u00f3wek O\u015bwiatowych \"Mo\u017cesz Wi\u0119cej\" w Nowym Zglechowie",
                "addr:country": "PL",
                "addr:postcode": "05-332",
                "addr:place": "Nowy Zglech\u00f3w",
                "addr:housenumber": "27",
                "addr:teryt:sym_ul": 687244,
                "contact:email": "szkolazglechow@o2.pl",
                "ref:regon": "146856423",
                "operator": "Stowarzyszenie Pomocy Dzieciom Niepe\u0142nosprawnym \"Mo\u017cesz Wi\u0119cej\" Z Siedzib\u0105 W Mi\u0144sku Mazowieckim                      Ul. Pi\u0142sudskiego 24\/2",
                "operator:type": "ngo",
                "amenity": "kindergarten"
            }
        },
        {
            "id": 125613,
            "type": "Feature",
            "geometry": {
                "type": "Point",
                "coordinates": [
                    21.67146,
                    52.096340000000005
                ]
            },
            "properties": {
                "ref:rspo": 125613,
                "official_name": "Szko\u0142a Specjalna Przysposabiaj\u0105ca Do Pracy w Zespole Niepublicznych Specjalnych Plac\u00f3wek O\u015bwiatowych ,,Mo\u017cesz Wi\u0119cej''",
                "name": "Szko\u0142a Specjalna Przysposabiaj\u0105ca Do Pracy w Zespole Niepublicznych Specjalnych Plac\u00f3wek O\u015bwiatowych ,,Mo\u017cesz Wi\u0119cej''",
                "addr:country": "PL",
                "addr:postcode": "05-332",
                "addr:place": "Nowy Zglech\u00f3w",
                "addr:housenumber": "27",
                "addr:teryt:sym_ul": 687244,
                "contact:phone": "+48 789161879",
                "contact:email": "szkolazglechow@o2.pl",
                "ref:regon": "147459894",
                "operator": "Stowarzyszenie Pomocy Dzieciom Niepe\u0142nosprawnym \"Mo\u017cesz Wi\u0119cej\" Z Siedzib\u0105 W Mi\u0144sku Mazowieckim                      Ul. Pi\u0142sudskiego 24\/2",
                "operator:type": "ngo",
                "amenity": "school"
            }
        },
        {
            "id": 83823,
            "type": "Feature",
            "geometry": {
                "type": "Point",
                "coordinates": [
                    21.58594,
                    52.11265
                ]
            },
            "properties": {
                "ref:rspo": 83823,
                "official_name": "Przedszkole Niepublicze \"Akademia Smyka\"",
                "name": "Przedszkole Niepublicze \"Akademia Smyka\"",
                "addr:country": "PL",
                "addr:postcode": "05-332",
                "addr:city": "Siennica",
                "addr:street": "ul. Ogrodowa",
                "addr:housenumber": "2",
                "addr:teryt:simc": 14834,
                "addr:teryt:sym_ul": 687273,
                "contact:phone": "+48 508081099",
                "contact:email": "przedszkole@akademiasmyka.eu",
                "ref:regon": "146413921",
                "operator": "Krzysztof Sibilski",
                "operator:type": "private",
                "amenity": "kindergarten"
            }
        },
        {
            "id": 83384,
            "type": "Feature",
            "geometry": {
                "type": "Point",
                "coordinates": [
                    21.54242,
                    52.11342
                ]
            },
            "properties": {
                "isced:level": "1;2",
                "ref:rspo": 83384,
                "official_name": "Publiczna Szko\u0142a Podstawowa im. Edwarda Szma\u0144skiego w Grzebowilku",
                "name": "Publiczna Szko\u0142a Podstawowa",
                "addr:country": "PL",
                "addr:postcode": "05-332",
                "addr:city": "Grzebowilk",
                "addr:street": "ul. Mazowiecka",
                "addr:housenumber": "37",
                "addr:teryt:simc": 12540,
                "addr:teryt:sym_ul": 687089,
                "contact:phone": "+48 257565151",
                "contact:email": "sp-grzebowilk@wp.pl",
                "contact:website": "http:\/\/spgrzebowilk.edu.pl",
                "ref:regon": "001127926",
                "operator": "Gmina Siennica",
                "operator:type": "government",
                "amenity": "school"
            }
        },
        {
            "id": 83629,
            "type": "Feature",
            "geometry": {
                "type": "Point",
                "coordinates": [
                    21.58258,
                    52.11603
                ]
            },
            "properties": {
                "isced:level": "1;2",
                "ref:rspo": 83629,
                "official_name": "Publiczna Szko\u0142a Podstawowa im.absolwent\u00f3w Siennickich Szk\u00f3\u0142 Pedagogicznych",
                "name": "Publiczna Szko\u0142a Podstawowa im.absolwent\u00f3w Siennickich Szk\u00f3\u0142 Pedagogicznych",
                "addr:country": "PL",
                "addr:postcode": "05-332",
                "addr:city": "Nowa Pogorzel",
                "addr:street": "ul. Pa\u0142acowa",
                "addr:housenumber": "17",
                "addr:teryt:simc": 15590,
                "addr:teryt:sym_ul": 687190,
                "contact:email": "sp.pogorzel@wp.pl",
                "ref:regon": "146413855",
                "operator": "Stowarzyszenie Rozwoju Wsi Pogorzel, Nowa Pogorzel I Okolic",
                "operator:type": "ngo",
                "amenity": "school"
            }
        }
    ]
}