{
    "type": "FeatureCollection",
    "features": [
        {
            "id": 92845,
            "type": "Feature",
            "geometry": {
                "type": "Point",
                "coordinates": [
                    21.5417944,
                    52.2429755
                ]
            },
            "properties": {
                "ref:rspo": 92845,
                "official_name": "Zesp\u00f3\u0142 Szkolny w \u0141adzyniu",
                "name": "Zesp\u00f3\u0142 Szkolny w \u0141adzyniu",
                "addr:country": "PL",
                "addr:postcode": "05-304",
                "addr:city": "\u0141adzy\u0144",
                "addr:street": "Szkolna",
                "addr:housenumber": "4",
                "addr:teryt:simc": 689970,
                "addr:teryt:sym_ul": 21970,
                "contact:phone": "+48 257575096",
                "contact:email": "sp-ladzyn@o2.pl",
                "contact:website": "http:\/\/www.spladzyn.stanislawow.pl",
                "ref:regon": "140093875",
                "ref:vatin": "PL8222247018",
                "operator": "Gmina Stanis\u0142aw\u00f3w",
                "operator:type": "government",
                "landuse": "education",
                "fixme": "amenity=school, amenity=college albo landuse=education w zale\u017cno\u015bci od tego, jakie plac\u00f3wki wchodz\u0105 w sk\u0142ad zespo\u0142u. Sprawd\u017a, kiedy stosowa\u0107 amenity=* a kiedy landuse=education.",
                "note": "Children RSPO: 109879;109928"
            }
        },
        {
            "id": 109879,
            "type": "Feature",
            "geometry": {
                "type": "Point",
                "coordinates": [
                    21.5417944,
                    52.2429455
                ]
            },
            "properties": {
                "ref:rspo": 109879,
                "official_name": "Gminne Przedszkole w \u0141adzyniu",
                "name": "Gminne Przedszkole w \u0141adzyniu",
                "addr:country": "PL",
                "addr:postcode": "05-304",
                "addr:city": "\u0141adzy\u0144",
                "addr:street": "Szkolna",
                "addr:housenumber": "4",
                "addr:teryt:simc": 689970,
                "addr:teryt:sym_ul": 21970,
                "contact:phone": "+48 257575096",
                "contact:email": "sp_ladzyn@o2.pl",
                "ref:regon": "710007550",
                "operator": "Gmina Stanis\u0142aw\u00f3w",
                "operator:type": "government",
                "amenity": "kindergarten",
                "note": "Parent RSPO: 92845"
            }
        },
        {
            "id": 109928,
            "type": "Feature",
            "geometry": {
                "type": "Point",
                "coordinates": [
                    21.5417944,
                    52.2429155
                ]
            },
            "properties": {
                "isced:level": "1;2",
                "ref:rspo": 109928,
                "official_name": "Szko\u0142a Podstawowa im. K.k. Baczy\u0144skiego w \u0141adzyniu",
                "name": "Szko\u0142a Podstawowa",
                "addr:country": "PL",
                "addr:postcode": "05-304",
                "addr:city": "\u0141adzy\u0144",
                "addr:street": "Szkolna",
                "addr:housenumber": "4",
                "addr:teryt:simc": 689970,
                "addr:teryt:sym_ul": 21970,
                "contact:phone": "+48 257575096",
                "contact:email": "sp-ladzyn@o2.pl",
                "ref:regon": "001128357",
                "operator": "Gmina Stanis\u0142aw\u00f3w",
                "operator:type": "government",
                "amenity": "school",
                "note": "Parent RSPO: 92845"
            }
        },
        {
            "id": 110227,
            "type": "Feature",
            "geometry": {
                "type": "Point",
                "coordinates": [
                    21.4614,
                    52.26704
                ]
            },
            "properties": {
                "isced:level": "1;2",
                "ref:rspo": 110227,
                "official_name": "Szko\u0142a Podstawowa im. Armii Krajowej w Pustelniku",
                "name": "Szko\u0142a Podstawowa",
                "addr:country": "PL",
                "addr:postcode": "05-304",
                "addr:city": "Pustelnik",
                "addr:street": "Szkolna",
                "addr:housenumber": "16",
                "addr:teryt:simc": 690111,
                "addr:teryt:sym_ul": 21970,
                "contact:phone": "+48 257575679",
                "contact:email": "sppustel@poczta.onet.pl",
                "contact:website": "http:\/\/zspustelnik.stanislawow.pl\/",
                "ref:regon": "001128363",
                "operator": "Gmina Stanis\u0142aw\u00f3w",
                "operator:type": "government",
                "amenity": "school"
            }
        },
        {
            "id": 120909,
            "type": "Feature",
            "geometry": {
                "type": "Point",
                "coordinates": [
                    21.4614,
                    52.26701
                ]
            },
            "properties": {
                "ref:rspo": 120909,
                "official_name": "Przedszkole Promyczek",
                "name": "Przedszkole Promyczek",
                "addr:country": "PL",
                "addr:postcode": "05-304",
                "addr:city": "Pustelnik",
                "addr:street": "Szkolna",
                "addr:housenumber": "16",
                "addr:teryt:simc": 690111,
                "addr:teryt:sym_ul": 21970,
                "contact:phone": "+48 696989964",
                "contact:email": "promyczek.duo@gmail.com",
                "ref:regon": "146983506",
                "ref:vatin": "PL8221123395",
                "operator": "Dorota \u015awiadek",
                "operator:type": "private",
                "amenity": "kindergarten"
            }
        },
        {
            "id": 274966,
            "type": "Feature",
            "geometry": {
                "type": "Point",
                "coordinates": [
                    21.461,
                    52.27072
                ]
            },
            "properties": {
                "ref:rspo": 274966,
                "official_name": "Przedszkole Niepubliczne \"Raj Malucha\"",
                "name": "Przedszkole Niepubliczne \"Raj Malucha\"",
                "addr:country": "PL",
                "addr:postcode": "05-304",
                "addr:city": "Stanis\u0142aw\u00f3w",
                "addr:street": "Warszawska",
                "addr:housenumber": "31",
                "addr:teryt:simc": 690186,
                "addr:teryt:sym_ul": 23682,
                "contact:email": "przedszkole.rajmalucha@wp.pl",
                "ref:regon": "386445384",
                "operator": "Anna \u0141ysiak",
                "operator:type": "private",
                "amenity": "kindergarten"
            }
        },
        {
            "id": 132287,
            "type": "Feature",
            "geometry": {
                "type": "Point",
                "coordinates": [
                    21.46601,
                    52.27188
                ]
            },
            "properties": {
                "ref:rspo": 132287,
                "official_name": "Punkt Przedszkolny \"Dolina Mumink\u00f3w\"",
                "name": "Punkt Przedszkolny \"Dolina Mumink\u00f3w\"",
                "addr:country": "PL",
                "addr:postcode": "05-304",
                "addr:city": "Pustelnik",
                "addr:street": "Warszawska",
                "addr:housenumber": "11",
                "addr:teryt:simc": 690111,
                "addr:teryt:sym_ul": 23682,
                "contact:phone": "+48 794222573",
                "contact:email": "wiola.wieczorek@op.pl",
                "ref:regon": "365529350",
                "operator": "Stowarzyszenie Aktywny D\u0105bek",
                "operator:type": "ngo",
                "amenity": "kindergarten"
            }
        },
        {
            "id": 115194,
            "type": "Feature",
            "geometry": {
                "type": "Point",
                "coordinates": [
                    21.53724,
                    52.28995
                ]
            },
            "properties": {
                "ref:rspo": 115194,
                "official_name": "Przedszkole Niepubliczne \"T\u0119czowa Dolina\"",
                "name": "Przedszkole Niepubliczne \"T\u0119czowa Dolina\"",
                "addr:country": "PL",
                "addr:postcode": "05-304",
                "addr:city": "Stanis\u0142aw\u00f3w",
                "addr:street": "Zachodnia",
                "addr:housenumber": "2",
                "addr:teryt:simc": 690186,
                "addr:teryt:sym_ul": 25305,
                "contact:phone": "+48 509048460",
                "contact:email": "mkruk1@o2.pl",
                "ref:regon": "146732490",
                "operator": "Marta Kowalczyk",
                "operator:type": "private",
                "amenity": "kindergarten"
            }
        },
        {
            "id": 92847,
            "type": "Feature",
            "geometry": {
                "type": "Point",
                "coordinates": [
                    21.54574,
                    52.29183
                ]
            },
            "properties": {
                "ref:rspo": 92847,
                "official_name": "Zesp\u00f3\u0142 Szkolny w Stanis\u0142awowie",
                "name": "Zesp\u00f3\u0142 Szkolny w Stanis\u0142awowie",
                "addr:country": "PL",
                "addr:postcode": "05-304",
                "addr:city": "Stanis\u0142aw\u00f3w",
                "addr:street": "Szkolna",
                "addr:housenumber": "4",
                "addr:teryt:simc": 690186,
                "addr:teryt:sym_ul": 21970,
                "contact:phone": "+48 257575479",
                "contact:email": "zss@stanislawow.pl",
                "ref:regon": "140093852",
                "ref:vatin": "PL8222247001",
                "operator": "Gmina Stanis\u0142aw\u00f3w",
                "operator:type": "government",
                "landuse": "education",
                "fixme": "amenity=school, amenity=college albo landuse=education w zale\u017cno\u015bci od tego, jakie plac\u00f3wki wchodz\u0105 w sk\u0142ad zespo\u0142u. Sprawd\u017a, kiedy stosowa\u0107 amenity=* a kiedy landuse=education.",
                "note": "Children RSPO: 109880;109927"
            }
        },
        {
            "id": 109880,
            "type": "Feature",
            "geometry": {
                "type": "Point",
                "coordinates": [
                    21.54574,
                    52.291799999999995
                ]
            },
            "properties": {
                "ref:rspo": 109880,
                "official_name": "Gminne Przedszkole w Stanis\u0142awowie",
                "name": "Gminne Przedszkole w Stanis\u0142awowie",
                "addr:country": "PL",
                "addr:postcode": "05-304",
                "addr:city": "Stanis\u0142aw\u00f3w",
                "addr:street": "Szkolna",
                "addr:housenumber": "4",
                "addr:teryt:simc": 690186,
                "addr:teryt:sym_ul": 21970,
                "contact:phone": "+48 257575479",
                "contact:email": "zss@stanislawow.pl",
                "ref:regon": "710007580",
                "operator": "Gmina Stanis\u0142aw\u00f3w",
                "operator:type": "government",
                "amenity": "kindergarten",
                "note": "Parent RSPO: 92847"
            }
        },
        {
            "id": 109927,
            "type": "Feature",
            "geometry": {
                "type": "Point",
                "coordinates": [
                    21.54574,
                    52.29177
                ]
            },
            "properties": {
                "isced:level": "1;2",
                "ref:rspo": 109927,
                "official_name": "Szko\u0142a Podstawowa im. Henryka Sienkiewicza w Stanis\u0142awowie",
                "name": "Szko\u0142a Podstawowa",
                "addr:country": "PL",
                "addr:postcode": "05-304",
                "addr:city": "Stanis\u0142aw\u00f3w",
                "addr:street": "Szkolna",
                "addr:housenumber": "4",
                "addr:teryt:simc": 690186,
                "addr:teryt:sym_ul": 21970,
                "contact:phone": "+48 257575479",
                "contact:email": "zss@stanislawow.pl",
                "ref:regon": "000559486",
                "operator": "Gmina Stanis\u0142aw\u00f3w",
                "operator:type": "government",
                "amenity": "school",
                "note": "Parent RSPO: 92847"
            }
        }
    ]
}