{
    "type": "FeatureCollection",
    "features": [
        {
            "id": 110272,
            "type": "Feature",
            "geometry": {
                "type": "Point",
                "coordinates": [
                    21.51937,
                    52.14011
                ]
            },
            "properties": {
                "isced:level": "1;2",
                "ref:rspo": 110272,
                "official_name": "Szko\u0142a Podstawowa im.gen. J\u00f3zefa Hallera w Mariance",
                "name": "Szko\u0142a Podstawowa im.gen. J\u00f3zefa Hallera w Mariance",
                "addr:country": "PL",
                "addr:postcode": "05-300",
                "addr:city": "Marianka",
                "addr:street": "Wsp\u00f3lna",
                "addr:housenumber": "70",
                "addr:teryt:simc": 24885,
                "addr:teryt:sym_ul": 681840,
                "contact:phone": "+48 257580763",
                "contact:email": "sphaller@wp.pl",
                "contact:website": "http:\/\/sphaller.szkolnastrona.pl",
                "ref:regon": "001124885",
                "ref:vatin": "PL8221965415",
                "operator": "Gmina Mi\u0144sk Mazowiecki",
                "operator:type": "government",
                "amenity": "school"
            }
        },
        {
            "id": 111180,
            "type": "Feature",
            "geometry": {
                "type": "Point",
                "coordinates": [
                    21.50653,
                    52.15138
                ]
            },
            "properties": {
                "isced:level": "1;2",
                "ref:rspo": 111180,
                "official_name": "Szko\u0142a Podstawowa im.marsza\u0142ka J\u00f3zefa Pi\u0142sudskiego w Zamieniu",
                "name": "Szko\u0142a Podstawowa im.marsza\u0142ka J\u00f3zefa Pi\u0142sudskiego w Zamieniu",
                "addr:country": "PL",
                "addr:postcode": "05-300",
                "addr:city": "Zamienie",
                "addr:street": "Ko\u0142bielska",
                "addr:housenumber": "34",
                "addr:teryt:simc": 8997,
                "addr:teryt:sym_ul": 682034,
                "contact:phone": "+48 257593598",
                "contact:email": "zszamienie@wp.pl",
                "contact:website": "http:\/\/www.zamienie.internetdsl.pl",
                "ref:regon": "001124840",
                "ref:vatin": "PL8221964781",
                "operator": "Gmina Mi\u0144sk Mazowiecki",
                "operator:type": "government",
                "amenity": "school"
            }
        },
        {
            "id": 111161,
            "type": "Feature",
            "geometry": {
                "type": "Point",
                "coordinates": [
                    21.56262,
                    52.15219
                ]
            },
            "properties": {
                "isced:level": "1;2",
                "ref:rspo": 111161,
                "official_name": "Szko\u0142a Podstawowa im. Karola Wojty\u0142y w Hucie Mi\u0144skiej Z\/S w Cielechowi\u017anie",
                "name": "Szko\u0142a Podstawowa",
                "addr:country": "PL",
                "addr:postcode": "05-300",
                "addr:place": "Cielechowizna",
                "addr:housenumber": "1a",
                "addr:teryt:sym_ul": 681610,
                "contact:phone": "+48 257584978",
                "contact:email": "sekretariat@sphuta.edu.pl",
                "contact:website": "http:\/\/www.sphuta.edu.pl",
                "ref:regon": "001123957",
                "ref:vatin": "PL8222099339",
                "operator": "Gmina Mi\u0144sk Mazowiecki",
                "operator:type": "government",
                "amenity": "school"
            }
        },
        {
            "id": 269976,
            "type": "Feature",
            "geometry": {
                "type": "Point",
                "coordinates": [
                    21.60752,
                    52.17944
                ]
            },
            "properties": {
                "ref:rspo": 269976,
                "official_name": "Przedszkole Niepubliczne \"Centrum Ma\u0142ych Odkrywc\u00f3w\"",
                "name": "Przedszkole Niepubliczne \"Centrum Ma\u0142ych Odkrywc\u00f3w\"",
                "addr:country": "PL",
                "addr:postcode": "05-300",
                "addr:city": "Nowe Osiny",
                "addr:street": "Warszawska",
                "addr:housenumber": "17",
                "addr:teryt:simc": 23682,
                "addr:teryt:sym_ul": 681885,
                "ref:regon": "385300590",
                "ref:vatin": "PL8222179156",
                "operator": "Magdalena Lewandowska",
                "operator:type": "private",
                "amenity": "kindergarten"
            }
        },
        {
            "id": 82681,
            "type": "Feature",
            "geometry": {
                "type": "Point",
                "coordinates": [
                    21.68023,
                    52.18061
                ]
            },
            "properties": {
                "ref:rspo": 82681,
                "official_name": "Specjalny O\u015brodek Wychowawczy w Ignacowie",
                "name": "Specjalny O\u015brodek Wychowawczy w Ignacowie",
                "addr:country": "PL",
                "addr:postcode": "05-300",
                "addr:place": "Ignac\u00f3w",
                "addr:housenumber": "10",
                "addr:teryt:sym_ul": 681690,
                "contact:phone": "+48 257592382",
                "contact:email": "sow@opoka.net.pl",
                "contact:website": "http:\/\/www.isow.pl",
                "ref:regon": "146414659",
                "ref:vatin": "PL5251575226",
                "operator": "Zg.ss.mi\u0142osierdzia \u015aw.wincentego A Paulo, Prowincja Warszawska",
                "operator:type": "religious",
                "amenity": "social_facility",
                "social_facility": "group_home",
                "social_facility:for": "child;juvenile"
            }
        },
        {
            "id": 9426,
            "type": "Feature",
            "geometry": {
                "type": "Point",
                "coordinates": [
                    21.67884,
                    52.18114
                ]
            },
            "properties": {
                "ref:rspo": 9426,
                "official_name": "Zesp\u00f3\u0142 Szk\u00f3\u0142 Specjalnych im.janiny Porazi\u0144skiej w Ignacowie",
                "name": "Zesp\u00f3\u0142 Szk\u00f3\u0142 Specjalnych im.janiny Porazi\u0144skiej w Ignacowie",
                "addr:country": "PL",
                "addr:postcode": "05-300",
                "addr:place": "Ignac\u00f3w",
                "addr:housenumber": "8",
                "addr:teryt:sym_ul": 681690,
                "contact:phone": "+48 257592623",
                "contact:email": "zssignacow@wp.pl",
                "contact:website": "http:\/\/www.zssignacow.szkolnastrona.pl",
                "ref:regon": "711647524",
                "ref:vatin": "PL8221897493",
                "operator": "Powiat Mi\u0144ski",
                "operator:type": "government",
                "landuse": "education",
                "fixme": "amenity=school, amenity=college albo landuse=education w zale\u017cno\u015bci od tego, jakie plac\u00f3wki wchodz\u0105 w sk\u0142ad zespo\u0142u. Sprawd\u017a, kiedy stosowa\u0107 amenity=* a kiedy landuse=education.",
                "note": "Children RSPO: 53627;53629;123382"
            }
        },
        {
            "id": 53627,
            "type": "Feature",
            "geometry": {
                "type": "Point",
                "coordinates": [
                    21.67884,
                    52.18111
                ]
            },
            "properties": {
                "isced:level": "1;2",
                "ref:rspo": 53627,
                "official_name": "Zesp\u00f3\u0142 Szk\u00f3\u0142 Specjalnych im.janiny Porazi\u0144skiej Szko\u0142a Podstawowa Specjalna",
                "name": "Zesp\u00f3\u0142 Szk\u00f3\u0142 Specjalnych im.janiny Porazi\u0144skiej Szko\u0142a Podstawowa Specjalna",
                "addr:country": "PL",
                "addr:postcode": "05-300",
                "addr:place": "Ignac\u00f3w",
                "addr:housenumber": "8",
                "addr:teryt:sym_ul": 681690,
                "contact:phone": "+48 257592623",
                "contact:email": "zssignacow@wp.pl",
                "contact:website": "http:\/\/www.zssignacow.szkolnastrona.pl\/",
                "ref:regon": "712372294",
                "operator": "Powiat Mi\u0144ski",
                "operator:type": "government",
                "amenity": "school",
                "note": "Parent RSPO: 9426"
            }
        },
        {
            "id": 53629,
            "type": "Feature",
            "geometry": {
                "type": "Point",
                "coordinates": [
                    21.67884,
                    52.18108
                ]
            },
            "properties": {
                "ref:rspo": 53629,
                "official_name": "Szko\u0142a Specjalna Przysposabiaj\u0105ca Do Pracy",
                "name": "Szko\u0142a Specjalna Przysposabiaj\u0105ca Do Pracy",
                "addr:country": "PL",
                "addr:postcode": "05-300",
                "addr:place": "Ignac\u00f3w",
                "addr:housenumber": "8",
                "addr:teryt:sym_ul": 681690,
                "contact:phone": "+48 257592623",
                "contact:email": "zssignacow@wp.pl",
                "contact:website": "http:\/\/www.zssignacow.szkolnastrona.pl\/",
                "ref:regon": "712571332",
                "operator": "Powiat Mi\u0144ski",
                "operator:type": "government",
                "amenity": "school",
                "note": "Parent RSPO: 9426"
            }
        },
        {
            "id": 123382,
            "type": "Feature",
            "geometry": {
                "type": "Point",
                "coordinates": [
                    21.67884,
                    52.18105
                ]
            },
            "properties": {
                "ref:rspo": 123382,
                "official_name": "Przedszkole Specjalne w Zespole Szk\u00f3\u0142 Specjalnych im. Janiny Porazi\u0144skiej w Ignacowie",
                "name": "Przedszkole Specjalne w Zespole Szk\u00f3\u0142 Specjalnych",
                "addr:country": "PL",
                "addr:postcode": "05-300",
                "addr:place": "Ignac\u00f3w",
                "addr:housenumber": "8",
                "addr:teryt:sym_ul": 681690,
                "contact:phone": "+48 257592623",
                "contact:email": "zssignacow@wp.pl",
                "contact:website": "http:\/\/www.zssignacow.szkolnastrona.pl\/",
                "ref:regon": "147309427",
                "operator": "Powiat Mi\u0144ski",
                "operator:type": "government",
                "amenity": "kindergarten",
                "note": "Parent RSPO: 9426"
            }
        },
        {
            "id": 68375,
            "type": "Feature",
            "geometry": {
                "type": "Point",
                "coordinates": [
                    21.61367,
                    52.18216
                ]
            },
            "properties": {
                "ref:rspo": 68375,
                "official_name": "Publiczne Przedszkole ''Akwarelka'' w Nowych Osinach",
                "name": "Publiczne Przedszkole ''Akwarelka'' w Nowych Osinach",
                "addr:country": "PL",
                "addr:postcode": "05-300",
                "addr:city": "Nowe Osiny",
                "addr:street": "Pi\u0119kna",
                "addr:housenumber": "21",
                "addr:teryt:simc": 16191,
                "addr:teryt:sym_ul": 681885,
                "contact:phone": "+48 257592551",
                "contact:email": "akwarelka.przedszkole@wp.pl",
                "ref:regon": "712543896",
                "ref:vatin": "PL8222095956",
                "operator": "Gmina Mi\u0144sk Mazowiecki",
                "operator:type": "government",
                "amenity": "kindergarten"
            }
        },
        {
            "id": 111186,
            "type": "Feature",
            "geometry": {
                "type": "Point",
                "coordinates": [
                    21.5369,
                    52.18451
                ]
            },
            "properties": {
                "isced:level": "1;2",
                "ref:rspo": 111186,
                "official_name": "Szko\u0142a Podstawowa im. Kar. Stefana Wyszy\u0144skiego w Stojad\u0142ach",
                "name": "Szko\u0142a Podstawowa",
                "addr:country": "PL",
                "addr:postcode": "05-300",
                "addr:city": "Stojad\u0142a",
                "addr:street": "Po\u0142udniowa",
                "addr:housenumber": "20",
                "addr:teryt:simc": 17070,
                "addr:teryt:sym_ul": 681968,
                "contact:phone": "+48 257582246",
                "contact:email": "spstojadla@op.pl",
                "contact:website": "http:\/\/www.zsstojadla.szkolnastrona.pl\/",
                "ref:regon": "001124856",
                "ref:vatin": "PL8222235417",
                "operator": "Gmina Mi\u0144sk Mazowiecki",
                "operator:type": "government",
                "amenity": "school"
            }
        },
        {
            "id": 110271,
            "type": "Feature",
            "geometry": {
                "type": "Point",
                "coordinates": [
                    21.6602,
                    52.18781
                ]
            },
            "properties": {
                "isced:level": "1;2",
                "ref:rspo": 110271,
                "official_name": "Szko\u0142a Podstawowa im. Ks. A.tyszki w Janowie",
                "name": "Szko\u0142a Podstawowa",
                "addr:country": "PL",
                "addr:postcode": "05-300",
                "addr:city": "Jan\u00f3w",
                "addr:street": "Stra\u017cacka",
                "addr:housenumber": "18",
                "addr:teryt:simc": 21271,
                "addr:teryt:sym_ul": 681715,
                "contact:phone": "+48 257592644",
                "contact:email": "janow.szkola@poczta.onet.pl",
                "contact:website": "http:\/\/janow.szkolnastrona.pl\/",
                "ref:regon": "001123940",
                "ref:vatin": "PL8221965556",
                "operator": "Gmina Mi\u0144sk Mazowiecki",
                "operator:type": "government",
                "amenity": "school"
            }
        },
        {
            "id": 111148,
            "type": "Feature",
            "geometry": {
                "type": "Point",
                "coordinates": [
                    21.59281,
                    52.19711
                ]
            },
            "properties": {
                "isced:level": "1;2",
                "ref:rspo": 111148,
                "official_name": "Szko\u0142a Podstawowa Im Rodziny Sa\u017cy\u0144skich w Starej Niedzia\u0142ce",
                "name": "Szko\u0142a Podstawowa Im Rodziny Sa\u017cy\u0144skich w Starej Niedzia\u0142ce",
                "addr:country": "PL",
                "addr:postcode": "05-300",
                "addr:city": "Stara Niedzia\u0142ka",
                "addr:street": "Mazowiecka",
                "addr:housenumber": "154",
                "addr:teryt:simc": 12540,
                "addr:teryt:sym_ul": 681922,
                "contact:phone": "+48 794021304",
                "contact:email": "spniedzialka@op.pl",
                "contact:website": "http:\/\/spniedzialka.edupage.org",
                "ref:regon": "001124879",
                "ref:vatin": "PL8221955687",
                "operator": "Gmina Mi\u0144sk Mazowiecki",
                "operator:type": "government",
                "amenity": "school"
            }
        },
        {
            "id": 110270,
            "type": "Feature",
            "geometry": {
                "type": "Point",
                "coordinates": [
                    21.54369,
                    52.22052
                ]
            },
            "properties": {
                "isced:level": "1;2",
                "ref:rspo": 110270,
                "official_name": "Szko\u0142a Podstawowa im. Marii Konopnickiej",
                "name": "Szko\u0142a Podstawowa",
                "addr:country": "PL",
                "addr:postcode": "05-300",
                "addr:city": "Brz\u00f3ze",
                "addr:street": "Szkolna",
                "addr:housenumber": "20",
                "addr:teryt:simc": 21970,
                "addr:teryt:sym_ul": 681520,
                "contact:phone": "+48 257582960",
                "contact:email": "spbrzoze@op.pl",
                "contact:website": "http:\/\/www.spbrzoze.szkolnastrona.pl",
                "ref:regon": "001123963",
                "ref:vatin": "PL8221964485",
                "operator": "Gmina Mi\u0144sk Mazowiecki",
                "operator:type": "government",
                "amenity": "school"
            }
        },
        {
            "id": 269974,
            "type": "Feature",
            "geometry": {
                "type": "Point",
                "coordinates": [
                    21.530281046272,
                    52.221052521589
                ]
            },
            "properties": {
                "ref:rspo": 269974,
                "official_name": "Przedszkole Niepubliczne \"Rogalik\"",
                "name": "Przedszkole Niepubliczne \"Rogalik\"",
                "addr:country": "PL",
                "addr:postcode": "05-300",
                "addr:city": "Brz\u00f3ze",
                "addr:street": "Ogrodowa",
                "addr:housenumber": "39",
                "addr:teryt:simc": 14834,
                "addr:teryt:sym_ul": 681520,
                "ref:regon": "385300614",
                "ref:vatin": "PL8222233571",
                "operator": "Agnieszka Rogala",
                "operator:type": "private",
                "amenity": "kindergarten"
            }
        }
    ]
}