{
    "type": "FeatureCollection",
    "features": [
        {
            "id": 71506,
            "type": "Feature",
            "geometry": {
                "type": "Point",
                "coordinates": [
                    21.4165,
                    52.17629
                ]
            },
            "properties": {
                "isced:level": "1;2",
                "ref:rspo": 71506,
                "official_name": "Szko\u0142a Podstawowa im. Szarych Szereg\u00f3w w G\u00f3rkach",
                "name": "Szko\u0142a Podstawowa",
                "addr:country": "PL",
                "addr:postcode": "05-311",
                "addr:city": "G\u00f3rki",
                "addr:street": "Szkolna",
                "addr:housenumber": "3",
                "addr:teryt:simc": 21970,
                "addr:teryt:sym_ul": 670077,
                "contact:phone": "+48 257577856",
                "contact:email": "sekretariat@szkolagorki.edu.pl",
                "ref:regon": "710019116",
                "ref:vatin": "PL8221957947",
                "operator": "Gmina D\u0119be Wielkie",
                "operator:type": "government",
                "amenity": "school"
            }
        },
        {
            "id": 73573,
            "type": "Feature",
            "geometry": {
                "type": "Point",
                "coordinates": [
                    21.4165,
                    52.17626
                ]
            },
            "properties": {
                "ref:rspo": 73573,
                "official_name": "Punkt Przedszkolny \n\" Klub Przedszkolaka'",
                "name": "Punkt Przedszkolny \n\" Klub Przedszkolaka'",
                "addr:country": "PL",
                "addr:postcode": "05-311",
                "addr:city": "G\u00f3rki",
                "addr:street": "Szkolna",
                "addr:housenumber": "3",
                "addr:teryt:simc": 21970,
                "addr:teryt:sym_ul": 670077,
                "contact:phone": "+48 257577856",
                "contact:email": "martek38@op.pl",
                "ref:regon": "146403354",
                "ref:vatin": "PL8222254952",
                "operator": "Stowarzyszenie \"Sosenka\"",
                "operator:type": "ngo",
                "amenity": "kindergarten"
            }
        },
        {
            "id": 91710,
            "type": "Feature",
            "geometry": {
                "type": "Point",
                "coordinates": [
                    21.46445,
                    52.18241
                ]
            },
            "properties": {
                "isced:level": "1;2",
                "ref:rspo": 91710,
                "official_name": "Szko\u0142a Podstawowa im. Gen.j\u00f3zefa Bema w Rudzie",
                "name": "Szko\u0142a Podstawowa",
                "addr:country": "PL",
                "addr:postcode": "05-311",
                "addr:city": "Ruda",
                "addr:street": "Szkolna",
                "addr:housenumber": "7",
                "addr:teryt:simc": 21970,
                "addr:teryt:sym_ul": 670166,
                "contact:phone": "+48 257577727",
                "contact:email": "sp_ruda@o2.pl",
                "contact:website": "http:\/\/www.spruda.szkolnastrona.pl",
                "ref:regon": "001117520",
                "ref:vatin": "PL8221957918",
                "operator": "Gmina D\u0119be Wielkie",
                "operator:type": "government",
                "amenity": "school"
            }
        },
        {
            "id": 91495,
            "type": "Feature",
            "geometry": {
                "type": "Point",
                "coordinates": [
                    21.47573,
                    52.18294
                ]
            },
            "properties": {
                "ref:rspo": 91495,
                "official_name": "Niepubliczne Przedszkole\n\"U Cioci Ewy\"",
                "name": "Niepubliczne Przedszkole\n\"U Cioci Ewy\"",
                "addr:country": "PL",
                "addr:postcode": "05-311",
                "addr:city": "Ruda",
                "addr:street": "Wsp\u00f3lna",
                "addr:housenumber": "40",
                "addr:teryt:simc": 24885,
                "addr:teryt:sym_ul": 670166,
                "contact:phone": "+48 257577207",
                "contact:email": "ewa.rucinska@wp.pl",
                "contact:website": "http:\/\/www.uciociewy.przyjdz.com",
                "ref:regon": "146414004",
                "ref:vatin": "PL8221627747",
                "operator": "Ewa Ruci\u0144ska",
                "operator:type": "private",
                "amenity": "kindergarten"
            }
        },
        {
            "id": 120411,
            "type": "Feature",
            "geometry": {
                "type": "Point",
                "coordinates": [
                    21.47717,
                    52.18664
                ]
            },
            "properties": {
                "ref:rspo": 120411,
                "official_name": "Przedszkole Niepubliczne Do-Re-Mi",
                "name": "Przedszkole Niepubliczne Do-Re-Mi",
                "addr:country": "PL",
                "addr:postcode": "05-311",
                "addr:city": "Chro\u015bla",
                "addr:street": "Mazowiecka",
                "addr:housenumber": "68",
                "addr:teryt:simc": 12540,
                "addr:teryt:sym_ul": 669973,
                "contact:phone": "+48 500222841",
                "contact:email": "t.szwajkowski@gmail.com",
                "ref:regon": "146900970",
                "ref:vatin": "PL8221840197",
                "operator": "Tomasz Szwajkowski",
                "operator:type": "private",
                "amenity": "kindergarten"
            }
        },
        {
            "id": 111755,
            "type": "Feature",
            "geometry": {
                "type": "Point",
                "coordinates": [
                    21.43681,
                    52.19693
                ]
            },
            "properties": {
                "isced:level": "1;2",
                "ref:rspo": 111755,
                "official_name": "Szko\u0142a Podstawowa im. Wo\u0142y\u0144skiej Brygady Kawalerii w D\u0119bem Wielkim",
                "name": "Szko\u0142a Podstawowa",
                "addr:country": "PL",
                "addr:postcode": "05-311",
                "addr:city": "D\u0119be Wielkie",
                "addr:street": "Warszawska",
                "addr:housenumber": "78A",
                "addr:teryt:simc": 23682,
                "addr:teryt:sym_ul": 670054,
                "contact:phone": "+48 257577481",
                "contact:email": "sekretariat@spdebewielkie.pl",
                "ref:regon": "000266962",
                "ref:vatin": "PL8222343472",
                "operator": "Gmina D\u0119be Wielkie",
                "operator:type": "government",
                "amenity": "school"
            }
        },
        {
            "id": 270482,
            "type": "Feature",
            "geometry": {
                "type": "Point",
                "coordinates": [
                    21.4401,
                    52.19786
                ]
            },
            "properties": {
                "isced:level": "3",
                "ref:rspo": 270482,
                "official_name": "I Liceum Og\u00f3lnokszta\u0142c\u0105ce Pul w D\u0119bem Wielkim",
                "name": "I Liceum Og\u00f3lnokszta\u0142c\u0105ce Pul w D\u0119bem Wielkim",
                "addr:country": "PL",
                "addr:postcode": "05-311",
                "addr:city": "D\u0119be Wielkie",
                "addr:street": "Ko\u015bcielna",
                "addr:housenumber": "2",
                "addr:teryt:simc": 9546,
                "addr:teryt:sym_ul": 670054,
                "contact:phone": "+48 695898740",
                "contact:email": "debewielkie@pulliceum.edu.pl",
                "contact:website": "http:\/\/www.pulliceum.edu.pl",
                "ref:regon": "382620815",
                "operator": "P\u0142ocki Uniwersytet Ludowy Im.wincentego Witosa",
                "operator:type": "ngo",
                "amenity": "school"
            }
        },
        {
            "id": 71631,
            "type": "Feature",
            "geometry": {
                "type": "Point",
                "coordinates": [
                    21.44424,
                    52.19812
                ]
            },
            "properties": {
                "ref:rspo": 71631,
                "official_name": "Gminne Przedszkole im. D\u0119bowej Krainy w D\u0119bem Wielkim",
                "name": "Gminne Przedszkole",
                "addr:country": "PL",
                "addr:postcode": "05-311",
                "addr:city": "D\u0119be Wielkie",
                "addr:street": "Stra\u017cacka",
                "addr:housenumber": "3",
                "addr:teryt:simc": 21271,
                "addr:teryt:sym_ul": 670054,
                "contact:phone": "+48 257564724",
                "contact:email": "przedszkole@debewielkie.pl",
                "ref:regon": "710006527",
                "ref:vatin": "PL8221957924",
                "operator": "Gmina D\u0119be Wielkie",
                "operator:type": "government",
                "amenity": "kindergarten"
            }
        },
        {
            "id": 266175,
            "type": "Feature",
            "geometry": {
                "type": "Point",
                "coordinates": [
                    21.44351,
                    52.19887
                ]
            },
            "properties": {
                "ref:rspo": 266175,
                "official_name": "Przedszkole Bajkolandia. Bis w D\u0119bem Wielkim",
                "name": "Przedszkole Bajkolandia. Bis w D\u0119bem Wielkim",
                "addr:country": "PL",
                "addr:postcode": "05-311",
                "addr:city": "D\u0119be Wielkie",
                "addr:street": "Stra\u017cacka",
                "addr:housenumber": "1",
                "addr:teryt:simc": 21271,
                "addr:teryt:sym_ul": 670054,
                "contact:phone": "+48 504151128",
                "contact:email": "bajkolandia.klubmalucha@wp.pl",
                "ref:regon": "369332101",
                "operator": "Sylwia Kosakowska",
                "operator:type": "private",
                "amenity": "kindergarten"
            }
        },
        {
            "id": 71253,
            "type": "Feature",
            "geometry": {
                "type": "Point",
                "coordinates": [
                    21.50647,
                    52.2202399
                ]
            },
            "properties": {
                "isced:level": "1;2",
                "ref:rspo": 71253,
                "official_name": "Szko\u0142a Podstawowa im. Tadeusza Ko\u015bciuszki w Cygance",
                "name": "Szko\u0142a Podstawowa",
                "addr:country": "PL",
                "addr:postcode": "05-300",
                "addr:city": "Cyganka",
                "addr:street": "Szkolna",
                "addr:housenumber": "21",
                "addr:teryt:simc": 21970,
                "addr:teryt:sym_ul": 669996,
                "contact:phone": "+48 257525682",
                "contact:email": "sekretariat@cyganka.mazowsze.me",
                "contact:website": "http:\/\/www.cyganka.mazowsze.me",
                "ref:regon": "001117112",
                "ref:vatin": "PL8221957953",
                "operator": "Gmina D\u0119be Wielkie",
                "operator:type": "government",
                "amenity": "school"
            }
        }
    ]
}