{
    "type": "FeatureCollection",
    "features": [
        {
            "id": 120441,
            "type": "Feature",
            "geometry": {
                "type": "Point",
                "coordinates": [
                    21.5705,
                    52.16822
                ]
            },
            "properties": {
                "ref:rspo": 120441,
                "official_name": "Punkt Przedszkolny \"Sportowe Maluchy\"",
                "name": "Punkt Przedszkolny \"Sportowe Maluchy\"",
                "addr:postcode": "05-300",
                "addr:city": "Mi\u0144sk Mazowiecki",
                "addr:street": "Siennicka",
                "addr:housenumber": "57C",
                "addr:teryt:simc": 975687,
                "addr:teryt:sym_ul": 19838,
                "phone": "+48 664762702",
                "email": "sportowemaluchy@o2.pl",
                "ref:regon": "146904470",
                "operator": "Magdalena Lewandowska",
                "operator:type": "private",
                "amenity": "kindergarten"
            }
        },
        {
            "id": 7651,
            "type": "Feature",
            "geometry": {
                "type": "Point",
                "coordinates": [
                    21.54499,
                    52.1717
                ]
            },
            "properties": {
                "ref:rspo": 7651,
                "official_name": "Zesp\u00f3\u0142 Szk\u00f3\u0142 Zawodowych Nr 2 im.powsta\u0144c\u00f3w Warszawy w Mi\u0144sku Mazowieckim",
                "name": "Zesp\u00f3\u0142 Szk\u00f3\u0142 Zawodowych Nr 2 im.powsta\u0144c\u00f3w Warszawy w Mi\u0144sku Mazowieckim",
                "addr:postcode": "05-300",
                "addr:city": "Mi\u0144sk Mazowiecki",
                "addr:street": "Genera\u0142a Kazimierza Sosnkowskiego",
                "addr:housenumber": "43",
                "addr:teryt:simc": 975687,
                "addr:teryt:sym_ul": 20596,
                "phone": "+48 257593477",
                "email": "sekretariat@mechanikszkola.com.pl",
                "website": "http:\/\/www.mechanikszkola.com.pl\/",
                "ref:regon": "000186980",
                "ref:vatin": "PL8221135234",
                "operator": "Powiat Mi\u0144ski",
                "operator:type": "government",
                "landuse": "education",
                "fixme": "amenity=school, amenity=college albo landuse=education w zale\u017cno\u015bci od tego, jakie plac\u00f3wki wchodz\u0105 w sk\u0142ad zespo\u0142u. Sprawd\u017a, kiedy stosowa\u0107 amenity=* a kiedy landuse=education.",
                "note": "Children RSPO: 53604;53607"
            }
        },
        {
            "id": 53604,
            "type": "Feature",
            "geometry": {
                "type": "Point",
                "coordinates": [
                    21.54499,
                    52.17167
                ]
            },
            "properties": {
                "isced:level": "3",
                "ref:rspo": 53604,
                "official_name": "Zesp\u00f3\u0142 Szk\u00f3\u0142 Zawodowych Nr 2 im. Powsta\u0144c\u00f3w Warszawy w Mi\u0144sku Mazowieckim Technikum",
                "name": "Zesp\u00f3\u0142 Szk\u00f3\u0142 Zawodowych Nr 2",
                "addr:postcode": "05-300",
                "addr:city": "Mi\u0144sk Mazowiecki",
                "addr:street": "Genera\u0142a Kazimierza Sosnkowskiego",
                "addr:housenumber": "43",
                "addr:teryt:simc": 975687,
                "addr:teryt:sym_ul": 20596,
                "phone": "+48 257593477",
                "email": "sekretariat@mechanikszkola.com.pl",
                "website": "http:\/\/mechanikszkola.com.pl",
                "ref:regon": "712541727",
                "operator": "Powiat Mi\u0144ski",
                "operator:type": "government",
                "amenity": "school",
                "note": "Parent RSPO: 7651"
            }
        },
        {
            "id": 53607,
            "type": "Feature",
            "geometry": {
                "type": "Point",
                "coordinates": [
                    21.54499,
                    52.171640000000004
                ]
            },
            "properties": {
                "isced:level": "3",
                "ref:rspo": 53607,
                "official_name": "Bran\u017cowa Szko\u0142a I Stopnia w Zespole Szk\u00f3\u0142 Zawodowych Nr 2 im. Powsta\u0144c\u00f3w Warszawy w Mi\u0144sku Mazowieckim",
                "name": "Bran\u017cowa Szko\u0142a I Stopnia w Zespole Szk\u00f3\u0142 Zawodowych Nr 2",
                "addr:postcode": "05-300",
                "addr:city": "Mi\u0144sk Mazowiecki",
                "addr:street": "Genera\u0142a Kazimierza Sosnkowskiego",
                "addr:housenumber": "43",
                "addr:teryt:simc": 975687,
                "addr:teryt:sym_ul": 20596,
                "phone": "+48 257593477",
                "email": "mechanik@home.pl",
                "website": "http:\/\/www.mechanik.home.pl",
                "ref:regon": "712541733",
                "operator": "Powiat Mi\u0144ski",
                "operator:type": "government",
                "amenity": "school",
                "note": "Parent RSPO: 7651"
            }
        },
        {
            "id": 270214,
            "type": "Feature",
            "geometry": {
                "type": "Point",
                "coordinates": [
                    21.58627,
                    52.17412
                ]
            },
            "properties": {
                "ref:rspo": 270214,
                "official_name": "Przedszkole Publiczne \"Micha\u0142ek\"",
                "name": "Przedszkole Publiczne \"Micha\u0142ek\"",
                "addr:postcode": "05-300",
                "addr:city": "Mi\u0144sk Mazowiecki",
                "addr:street": "D\u0105br\u00f3wki",
                "addr:housenumber": "41A",
                "addr:teryt:simc": 975687,
                "addr:teryt:sym_ul": 3701,
                "phone": "+48 604515306",
                "email": "przedszkolemichalek@op.pl",
                "website": "http:\/\/przedszkolemichalek.pl",
                "ref:regon": "382197854",
                "operator": "El\u017cbieta Nowicka",
                "operator:type": "private",
                "amenity": "kindergarten"
            }
        },
        {
            "id": 263840,
            "type": "Feature",
            "geometry": {
                "type": "Point",
                "coordinates": [
                    21.5666699,
                    52.17421
                ]
            },
            "properties": {
                "ref:rspo": 263840,
                "official_name": "Przedszkole Niepubliczne \"Tik-Tak\"",
                "name": "Przedszkole Niepubliczne \"Tik-Tak\"",
                "addr:postcode": "05-300",
                "addr:city": "Mi\u0144sk Mazowiecki",
                "addr:street": "G\u00f3rki",
                "addr:housenumber": "18A",
                "addr:teryt:simc": 975687,
                "addr:teryt:sym_ul": 5939,
                "phone": "+48 503027227",
                "email": "tiktakprzedszkole@onet.pl",
                "ref:regon": "368230090",
                "operator": "Krzysztof Golec",
                "operator:type": "private",
                "amenity": "kindergarten"
            }
        },
        {
            "id": 263933,
            "type": "Feature",
            "geometry": {
                "type": "Point",
                "coordinates": [
                    21.55613,
                    52.17429
                ]
            },
            "properties": {
                "ref:rspo": 263933,
                "official_name": "Publiczne Przedszkole \"Weso\u0142a Ciuchcia\"",
                "name": "Publiczne Przedszkole \"Weso\u0142a Ciuchcia\"",
                "addr:postcode": "05-300",
                "addr:city": "Mi\u0144sk Mazowiecki",
                "addr:street": "D\u017awigowa",
                "addr:housenumber": "4",
                "addr:teryt:simc": 975687,
                "addr:teryt:sym_ul": 4722,
                "phone": "+48 509317599",
                "email": "mg.ciuchcia@wp.pl",
                "website": "http:\/\/www.ppwesolaciuchcia.pl",
                "ref:regon": "368242608",
                "operator": "Ma\u0142gorzata G\u0105sior",
                "operator:type": "private",
                "amenity": "kindergarten"
            }
        },
        {
            "id": 15341,
            "type": "Feature",
            "geometry": {
                "type": "Point",
                "coordinates": [
                    21.56953,
                    52.17476
                ]
            },
            "properties": {
                "isced:level": "1;2",
                "ref:rspo": 15341,
                "official_name": "Szko\u0142a Podstawowa Nr 4 im. Powsta\u0144c\u00f3w Styczniowych",
                "name": "Szko\u0142a Podstawowa Nr 4",
                "addr:postcode": "05-300",
                "addr:city": "Mi\u0144sk Mazowiecki",
                "addr:street": "Siennicka",
                "addr:housenumber": "17",
                "addr:teryt:simc": 975687,
                "addr:teryt:sym_ul": 19838,
                "phone": "+48 257585611",
                "email": "sekretariat@sp4mm.edu.pl",
                "website": "http:\/\/sp4mm.szkolnastrona.pl\/",
                "ref:regon": "146099005",
                "ref:vatin": "PL8222343354",
                "operator": "Miasto Mi\u0144sk Mazowiecki",
                "operator:type": "government",
                "amenity": "school"
            }
        },
        {
            "id": 15765,
            "type": "Feature",
            "geometry": {
                "type": "Point",
                "coordinates": [
                    21.55567,
                    52.17489
                ]
            },
            "properties": {
                "isced:level": "1;2",
                "ref:rspo": 15765,
                "official_name": "Szko\u0142a Podstawowa Nr 6 im. Henryka Sienkiewicza",
                "name": "Szko\u0142a Podstawowa Nr 6",
                "addr:postcode": "05-300",
                "addr:city": "Mi\u0144sk Mazowiecki",
                "addr:street": "Genera\u0142a Kazimierza Sosnkowskiego",
                "addr:housenumber": "1",
                "addr:teryt:simc": 975687,
                "addr:teryt:sym_ul": 20596,
                "phone": "+48 257593508",
                "email": "sekretariat@sp6.edu.pl",
                "website": "http:\/\/www.sp6.edu.pl",
                "ref:regon": "005173700",
                "ref:vatin": "PL8221066272",
                "operator": "Miasto Mi\u0144sk Mazowiecki",
                "operator:type": "government",
                "amenity": "school"
            }
        },
        {
            "id": 14723,
            "type": "Feature",
            "geometry": {
                "type": "Point",
                "coordinates": [
                    21.58602,
                    52.17613
                ]
            },
            "properties": {
                "ref:rspo": 14723,
                "official_name": "Przedszkole Miejskie Nr 6",
                "name": "Przedszkole Miejskie Nr 6",
                "addr:postcode": "05-300",
                "addr:city": "Mi\u0144sk Mazowiecki",
                "addr:street": "Warszawska",
                "addr:housenumber": "250\/81",
                "addr:teryt:simc": 975687,
                "addr:teryt:sym_ul": 23682,
                "phone": "+48 257591880",
                "email": "pm6mm@onet.pl",
                "website": "http:\/\/www.pm6mm.pl",
                "ref:regon": "142706626",
                "ref:vatin": "PL8222326858",
                "operator": "Miasto Mi\u0144sk Mazowiecki",
                "operator:type": "government",
                "amenity": "kindergarten"
            }
        },
        {
            "id": 270212,
            "type": "Feature",
            "geometry": {
                "type": "Point",
                "coordinates": [
                    21.55911,
                    52.17657
                ]
            },
            "properties": {
                "ref:rspo": 270212,
                "official_name": "Przedszkole Publiczne \"Kleksik\"",
                "name": "Przedszkole Publiczne \"Kleksik\"",
                "addr:postcode": "05-300",
                "addr:city": "Mi\u0144sk Mazowiecki",
                "addr:street": "J\u00f3zefa Pi\u0142sudskiego",
                "addr:housenumber": "39B",
                "addr:teryt:simc": 975687,
                "addr:teryt:sym_ul": 16264,
                "phone": "+48 668874144",
                "email": "ac.1031@wp.pl",
                "ref:regon": "382196754",
                "operator": "Aneta Ciszkowska",
                "operator:type": "private",
                "amenity": "kindergarten"
            }
        },
        {
            "id": 65129,
            "type": "Feature",
            "geometry": {
                "type": "Point",
                "coordinates": [
                    21.56811,
                    52.1769
                ]
            },
            "properties": {
                "ref:rspo": 65129,
                "official_name": "Przedszkole Niepubliczne Klub Malucha",
                "name": "Przedszkole Niepubliczne Klub Malucha",
                "addr:postcode": "05-300",
                "addr:city": "Mi\u0144sk Mazowiecki",
                "addr:street": "Nadrzeczna",
                "addr:housenumber": "22",
                "addr:teryt:simc": 975687,
                "addr:teryt:sym_ul": 13902,
                "phone": "+48 257593257",
                "email": "rooka2@wp.pl",
                "website": "http:\/\/www.klubmalucha.edu.pl",
                "ref:regon": "146374782",
                "ref:vatin": "PL8222104804",
                "operator": "Renata Karwowska",
                "operator:type": "private",
                "amenity": "kindergarten"
            }
        },
        {
            "id": 39758,
            "type": "Feature",
            "geometry": {
                "type": "Point",
                "coordinates": [
                    21.5549,
                    52.17705
                ]
            },
            "properties": {
                "isced:level": "1;2",
                "ref:rspo": 39758,
                "official_name": "Publiczna Salezja\u0144ska Szko\u0142a Podstawowa im. \u015aw. Dominika Savio",
                "name": "Publiczna Salezja\u0144ska Szko\u0142a Podstawowa",
                "addr:postcode": "05-300",
                "addr:city": "Mi\u0144sk Mazowiecki",
                "addr:street": "Tadeusza Ko\u015bciuszki",
                "addr:housenumber": "27",
                "addr:teryt:simc": 975687,
                "addr:teryt:sym_ul": 9582,
                "phone": "+48 257410600",
                "email": "szkoly@salezjanieminsk.pl",
                "website": "http:\/\/www.salezjanieminsk.pl",
                "ref:regon": "146399865",
                "ref:vatin": "PL8222281110",
                "operator": "Towarzystwo Salezja\u0144skie - Inspektoria (Prowincja) \u015aw.stanis\u0142awa Kostki",
                "operator:type": "religious",
                "amenity": "school"
            }
        },
        {
            "id": 64656,
            "type": "Feature",
            "geometry": {
                "type": "Point",
                "coordinates": [
                    21.5549,
                    52.17702
                ]
            },
            "properties": {
                "isced:level": "3",
                "ref:rspo": 64656,
                "official_name": "Salezja\u0144skie Liceum Og\u00f3lnoksztalc\u0105ce im. Ks. Augusta Czartoryskiego w Mi\u0144sku Mazowieckim",
                "name": "Salezja\u0144skie Liceum Og\u00f3lnoksztalc\u0105ce",
                "addr:postcode": "05-300",
                "addr:city": "Mi\u0144sk Mazowiecki",
                "addr:street": "Tadeusza Ko\u015bciuszki",
                "addr:housenumber": "27",
                "addr:teryt:simc": 975687,
                "addr:teryt:sym_ul": 9582,
                "phone": "+48 257410600",
                "email": "szkoly@salezjanieminsk.pl",
                "website": "http:\/\/www.salezjanieminsk.pl",
                "ref:regon": "146413708",
                "operator": "Towarzystwo Salezja\u0144skie - Inspektoria (Prowincja) \u015aw.stanis\u0142awa Kostki",
                "operator:type": "religious",
                "amenity": "school"
            }
        },
        {
            "id": 274857,
            "type": "Feature",
            "geometry": {
                "type": "Point",
                "coordinates": [
                    21.56091,
                    52.17708
                ]
            },
            "properties": {
                "ref:rspo": 274857,
                "official_name": "Niepubliczna Poradnia Psychologiczno - Pedagogiczna Centrum Terapii Dzieci I M\u0142odzie\u017cy",
                "name": "Niepubliczna Poradnia Psychologiczno - Pedagogiczna Centrum Terapii Dzieci I M\u0142odzie\u017cy",
                "addr:postcode": "05-300",
                "addr:city": "Mi\u0144sk Mazowiecki",
                "addr:street": "J\u00f3zefa Pi\u0142sudskiego",
                "addr:housenumber": "33d",
                "addr:teryt:simc": 975687,
                "addr:teryt:sym_ul": 16264,
                "phone": "+48 515522451",
                "email": "kontakt@centrumterapiidzieci.pl",
                "ref:regon": "386342626",
                "operator": "Paulina Dobosz",
                "operator:type": "private",
                "healthcare": "counselling",
                "counselling_type": "education",
                "fixme": "w zale\u017cno\u015bci od przedmiotu dzia\u0142alno\u015bci (np. healthcare=counselling + counselling_type=education albo healthcare=psychotherapist)"
            }
        },
        {
            "id": 130196,
            "type": "Feature",
            "geometry": {
                "type": "Point",
                "coordinates": [
                    21.57492,
                    52.1771699
                ]
            },
            "properties": {
                "ref:rspo": 130196,
                "official_name": "Zesp\u00f3\u0142 Szkolno-Przedszkolny Nr 1 w Mi\u0144sku Mazowieckim",
                "name": "Zesp\u00f3\u0142 Szkolno-Przedszkolny Nr 1 w Mi\u0144sku Mazowieckim",
                "addr:postcode": "05-300",
                "addr:city": "Mi\u0144sk Mazowiecki",
                "addr:street": "D\u0105br\u00f3wki",
                "addr:housenumber": "10",
                "addr:teryt:simc": 975687,
                "addr:teryt:sym_ul": 3701,
                "phone": "+48 257582544",
                "email": "zsp1mm@zsp1mm.pl",
                "website": "http:\/\/sp2mm.pl",
                "ref:regon": "363631334",
                "ref:vatin": "PL8222354659",
                "operator": "Miasto Mi\u0144sk Mazowiecki",
                "operator:type": "government",
                "landuse": "education",
                "fixme": "amenity=school, amenity=college albo landuse=education w zale\u017cno\u015bci od tego, jakie plac\u00f3wki wchodz\u0105 w sk\u0142ad zespo\u0142u. Sprawd\u017a, kiedy stosowa\u0107 amenity=* a kiedy landuse=education.",
                "note": "Children RSPO: 12253;15188"
            }
        },
        {
            "id": 15188,
            "type": "Feature",
            "geometry": {
                "type": "Point",
                "coordinates": [
                    21.57492,
                    52.1771399
                ]
            },
            "properties": {
                "isced:level": "1;2",
                "ref:rspo": 15188,
                "official_name": "Szko\u0142a Podstawowa Nr 2 im. D\u0105br\u00f3wki",
                "name": "Szko\u0142a Podstawowa Nr 2",
                "addr:postcode": "05-300",
                "addr:city": "Mi\u0144sk Mazowiecki",
                "addr:street": "D\u0105br\u00f3wki",
                "addr:housenumber": "10",
                "addr:teryt:simc": 975687,
                "addr:teryt:sym_ul": 3701,
                "phone": "+48 257582544",
                "email": "zsp1mm@zsp1mm.pl",
                "website": "http:\/\/sp2mm.pl",
                "ref:regon": "000717880",
                "ref:vatin": "PL8221066295",
                "operator": "Miasto Mi\u0144sk Mazowiecki",
                "operator:type": "government",
                "amenity": "school",
                "note": "Parent RSPO: 130196"
            }
        },
        {
            "id": 53617,
            "type": "Feature",
            "geometry": {
                "type": "Point",
                "coordinates": [
                    21.55017,
                    52.17749
                ]
            },
            "properties": {
                "isced:level": "3",
                "ref:rspo": 53617,
                "official_name": "Liceum Og\u00f3lnokszta\u0142c\u0105ce im.polskiej Macierzy Szkolnej w Mi\u0144sku Mazowieckim",
                "name": "Liceum Og\u00f3lnokszta\u0142c\u0105ce im.polskiej Macierzy Szkolnej w Mi\u0144sku Mazowieckim",
                "addr:postcode": "05-300",
                "addr:city": "Mi\u0144sk Mazowiecki",
                "addr:street": "Pi\u0119kna",
                "addr:housenumber": "7A",
                "addr:teryt:simc": 975687,
                "addr:teryt:sym_ul": 16191,
                "phone": "+48 257585102",
                "email": "lo1pms@lo1pms.pol.pl",
                "website": "http:\/\/www.piekna.edu.pl",
                "ref:regon": "712371478",
                "operator": "Powiat Mi\u0144ski",
                "operator:type": "government",
                "amenity": "school"
            }
        },
        {
            "id": 125870,
            "type": "Feature",
            "geometry": {
                "type": "Point",
                "coordinates": [
                    21.57501,
                    52.17768
                ]
            },
            "properties": {
                "ref:rspo": 125870,
                "official_name": "Yamaha Szko\u0142a Muzyczna w Mi\u0144sku Mazowieckim",
                "name": "Yamaha Szko\u0142a Muzyczna w Mi\u0144sku Mazowieckim",
                "addr:postcode": "05-300",
                "addr:city": "Mi\u0144sk Mazowiecki",
                "addr:street": "D\u0105br\u00f3wki",
                "addr:housenumber": "8",
                "addr:teryt:simc": 975687,
                "addr:teryt:sym_ul": 3701,
                "phone": "+48 662681616",
                "email": "biuro@yamahaminsk.pl",
                "website": "http:\/\/www.yamahaminsk.pl",
                "ref:regon": "360046428",
                "operator": "Wojciech Ko\u017cuchowski",
                "operator:type": "private",
                "fixme": "w zale\u017cno\u015bci od przedmiotu dzia\u0142alno\u015bci (np. amenity=training + training=*, amenity=dancing_school, amenity=language_school, amenity=music_school)"
            }
        },
        {
            "id": 125871,
            "type": "Feature",
            "geometry": {
                "type": "Point",
                "coordinates": [
                    21.57501,
                    52.17765
                ]
            },
            "properties": {
                "ref:rspo": 125871,
                "official_name": "Yamaha Szko\u0142a Muzyczna w Mi\u0144ksu Mazowieckim",
                "name": "Yamaha Szko\u0142a Muzyczna w Mi\u0144ksu Mazowieckim",
                "addr:postcode": "05-300",
                "addr:city": "Mi\u0144sk Mazowiecki",
                "addr:street": "D\u0105br\u00f3wki",
                "addr:housenumber": "8",
                "addr:teryt:simc": 975687,
                "addr:teryt:sym_ul": 3701,
                "phone": "+48 662681616",
                "email": "biuro@yamahaminsk.pl",
                "website": "http:\/\/www.yamahaminsk.pl",
                "ref:regon": "360045245",
                "operator": "Wojciech Ko\u017cuchowski",
                "operator:type": "private",
                "fixme": "w zale\u017cno\u015bci od przedmiotu dzia\u0142alno\u015bci (np. amenity=training + training=*, amenity=dancing_school, amenity=language_school, amenity=music_school)"
            }
        },
        {
            "id": 132136,
            "type": "Feature",
            "geometry": {
                "type": "Point",
                "coordinates": [
                    21.55256,
                    52.17794
                ]
            },
            "properties": {
                "ref:rspo": 132136,
                "official_name": "Przedszkole Niepubliczne \"Nasza Akademia\"",
                "name": "Przedszkole Niepubliczne \"Nasza Akademia\"",
                "addr:postcode": "05-300",
                "addr:city": "Mi\u0144sk Mazowiecki",
                "addr:street": "Pi\u0119kna",
                "addr:housenumber": "8",
                "addr:teryt:simc": 975687,
                "addr:teryt:sym_ul": 16191,
                "phone": "+48 784748900",
                "email": "przedszkolenaszaakademia@gmail.com",
                "website": "http:\/\/naszaakademia.edu.pl\/",
                "ref:regon": "365485227",
                "operator": "Anna Budkiewicz",
                "operator:type": "private",
                "amenity": "kindergarten"
            }
        },
        {
            "id": 15552,
            "type": "Feature",
            "geometry": {
                "type": "Point",
                "coordinates": [
                    21.55577,
                    52.17844
                ]
            },
            "properties": {
                "ref:rspo": 15552,
                "official_name": "Przedszkole Miejskie Nr 1 im. Stanis\u0142awa Jachowicza",
                "name": "Przedszkole Miejskie Nr 1",
                "addr:postcode": "05-300",
                "addr:city": "Mi\u0144sk Mazowiecki",
                "addr:street": "Tadeusza Ko\u015bciuszki",
                "addr:housenumber": "22",
                "addr:teryt:simc": 975687,
                "addr:teryt:sym_ul": 9582,
                "phone": "+48 257584945",
                "email": "pm1mmz@gmail.com",
                "website": "http:\/\/www.przedszkole1mm.pl",
                "ref:regon": "142717720",
                "ref:vatin": "PL8222326982",
                "operator": "Miasto Mi\u0144sk Mazowiecki",
                "operator:type": "government",
                "amenity": "kindergarten"
            }
        },
        {
            "id": 12078,
            "type": "Feature",
            "geometry": {
                "type": "Point",
                "coordinates": [
                    21.5627,
                    52.17877
                ]
            },
            "properties": {
                "ref:rspo": 12078,
                "official_name": "Funny Kids",
                "name": "Funny Kids",
                "addr:postcode": "05-300",
                "addr:city": "Mi\u0144sk Mazowiecki",
                "addr:street": "Ma\u0142a",
                "addr:housenumber": "2B",
                "addr:teryt:simc": 975687,
                "addr:teryt:sym_ul": 12098,
                "phone": "+48 257563530",
                "email": "funnykidsmm@gmail.com",
                "website": "http:\/\/www.funny-kids.pl",
                "ref:regon": "146292966",
                "ref:vatin": "PL8222284410",
                "operator": "Funny Kids Sp\u00f3\u0142ka Z Ograniczon\u0105 Odpowiedzialno\u015bci\u0105",
                "operator:type": "private",
                "amenity": "kindergarten"
            }
        },
        {
            "id": 39757,
            "type": "Feature",
            "geometry": {
                "type": "Point",
                "coordinates": [
                    21.56322,
                    52.17893
                ]
            },
            "properties": {
                "ref:rspo": 39757,
                "official_name": "Przedszkole Niepubliczne \"\u015awiat Odkrywc\u00f3w\"",
                "name": "Przedszkole Niepubliczne \"\u015awiat Odkrywc\u00f3w\"",
                "addr:postcode": "05-300",
                "addr:city": "Mi\u0144sk Mazowiecki",
                "addr:street": "Ma\u0142a",
                "addr:housenumber": "4",
                "addr:teryt:simc": 975687,
                "addr:teryt:sym_ul": 12098,
                "phone": "+48 509992489",
                "email": "info@swiatodkrywcow.pl",
                "website": "http:\/\/www.swiatodkrywcow.pl",
                "ref:regon": "146399776",
                "ref:vatin": "PL8222308895",
                "operator": "\u015awiat Odkrywc\u00f3w Ilona Karpi\u0144ska, Aneta Krzymowska Sp\u00f3\u0142ka Cywilna",
                "operator:type": "cooperative",
                "amenity": "kindergarten"
            }
        },
        {
            "id": 272763,
            "type": "Feature",
            "geometry": {
                "type": "Point",
                "coordinates": [
                    21.5700499,
                    52.17893
                ]
            },
            "properties": {
                "ref:rspo": 272763,
                "official_name": "Punkt Przedszkolny \"Pimpu\u015b\"",
                "name": "Punkt Przedszkolny \"Pimpu\u015b\"",
                "addr:postcode": "05-300",
                "addr:city": "Mi\u0144sk Mazowiecki",
                "addr:street": "Nadrzeczna",
                "addr:housenumber": "4",
                "addr:door": "56",
                "addr:teryt:simc": 975687,
                "addr:teryt:sym_ul": 13902,
                "phone": "+48 668640566",
                "email": "przedszkole.pimpus@wp.pl",
                "website": "https:\/\/przedszkole-pimpus.business.site\/",
                "ref:regon": "384285634",
                "operator": "Beata Kulhawik",
                "operator:type": "private",
                "amenity": "kindergarten"
            }
        },
        {
            "id": 89226,
            "type": "Feature",
            "geometry": {
                "type": "Point",
                "coordinates": [
                    21.56704,
                    52.17917
                ]
            },
            "properties": {
                "ref:rspo": 89226,
                "official_name": "Biblioteka Pedagogiczna im. Heleny Radli\u0144skiej w Siedlcach Filia w Mi\u0144sku Mazowieckim",
                "name": "Biblioteka Pedagogiczna",
                "addr:postcode": "05-300",
                "addr:city": "Mi\u0144sk Mazowiecki",
                "addr:street": "J\u00f3zefa Pi\u0142sudskiego",
                "addr:housenumber": "1a",
                "addr:teryt:simc": 975687,
                "addr:teryt:sym_ul": 16264,
                "phone": "+48 257405048",
                "email": "minsk-maz@bpsiedlce.pl",
                "website": "http:\/\/www.bpsiedlce.pl",
                "ref:regon": "711690885",
                "ref:vatin": "PL8211061132",
                "operator": "Wojew\u00f3dztwo Mazowieckie",
                "operator:type": "government",
                "amenity": "library",
                "note": "Parent RSPO: 28040"
            }
        },
        {
            "id": 7649,
            "type": "Feature",
            "geometry": {
                "type": "Point",
                "coordinates": [
                    21.56091,
                    52.17921
                ]
            },
            "properties": {
                "ref:rspo": 7649,
                "official_name": "Zesp\u00f3\u0142 Szk\u00f3\u0142 Ekonomicznych w Mi\u0144sku Mazowieckim",
                "name": "Zesp\u00f3\u0142 Szk\u00f3\u0142 Ekonomicznych w Mi\u0144sku Mazowieckim",
                "addr:postcode": "05-300",
                "addr:city": "Mi\u0144sk Mazowiecki",
                "addr:street": "Zygmunta Kazikowskiego",
                "addr:housenumber": "18",
                "addr:teryt:simc": 975687,
                "addr:teryt:sym_ul": 8245,
                "phone": "+48 257584708",
                "email": "zsemm@zsemm.edu.pl",
                "website": "http:\/\/www.zsemm.edu.pl",
                "ref:regon": "000333227",
                "ref:vatin": "PL8221100632",
                "operator": "Powiat Mi\u0144ski",
                "operator:type": "government",
                "landuse": "education",
                "fixme": "amenity=school, amenity=college albo landuse=education w zale\u017cno\u015bci od tego, jakie plac\u00f3wki wchodz\u0105 w sk\u0142ad zespo\u0142u. Sprawd\u017a, kiedy stosowa\u0107 amenity=* a kiedy landuse=education.",
                "note": "Children RSPO: 53609;53610;53611"
            }
        },
        {
            "id": 53609,
            "type": "Feature",
            "geometry": {
                "type": "Point",
                "coordinates": [
                    21.56091,
                    52.179179999999995
                ]
            },
            "properties": {
                "isced:level": "3",
                "ref:rspo": 53609,
                "official_name": "Zesp\u00f3\u0142 Szk\u00f3\u0142 Ekonomicznych Liceum Og\u00f3lnokszta\u0142c\u0105ce",
                "name": "Zesp\u00f3\u0142 Szk\u00f3\u0142 Ekonomicznych Liceum Og\u00f3lnokszta\u0142c\u0105ce",
                "addr:postcode": "05-300",
                "addr:city": "Mi\u0144sk Mazowiecki",
                "addr:street": "Zygmunta Kazikowskiego",
                "addr:housenumber": "18",
                "addr:teryt:simc": 975687,
                "addr:teryt:sym_ul": 8245,
                "phone": "+48 257584708",
                "email": "zsemm@zsemm.edu.pl",
                "ref:regon": "712541348",
                "operator": "Powiat Mi\u0144ski",
                "operator:type": "government",
                "amenity": "school",
                "note": "Parent RSPO: 7649"
            }
        },
        {
            "id": 53610,
            "type": "Feature",
            "geometry": {
                "type": "Point",
                "coordinates": [
                    21.56091,
                    52.17915
                ]
            },
            "properties": {
                "isced:level": "3",
                "ref:rspo": 53610,
                "official_name": "Liceum Sztuk Plastycznych im. Elwiro Micha\u0142a Andriollego w Zespole Szk\u00f3\u0142 Ekonomicznych w Mi\u0144sku Mazowieckim",
                "name": "Liceum Sztuk Plastycznych",
                "addr:postcode": "05-300",
                "addr:city": "Mi\u0144sk Mazowiecki",
                "addr:street": "Zygmunta Kazikowskiego",
                "addr:housenumber": "18",
                "addr:teryt:simc": 975687,
                "addr:teryt:sym_ul": 8245,
                "phone": "+48 257584708",
                "email": "zsemm@zsemm.edu.pl",
                "website": "http:\/\/www.zse.edu.pl",
                "ref:regon": "712541331",
                "operator": "Powiat Mi\u0144ski",
                "operator:type": "government",
                "amenity": "school",
                "note": "Parent RSPO: 7649"
            }
        },
        {
            "id": 53611,
            "type": "Feature",
            "geometry": {
                "type": "Point",
                "coordinates": [
                    21.56091,
                    52.17912
                ]
            },
            "properties": {
                "isced:level": "3",
                "ref:rspo": 53611,
                "official_name": "Zesp\u00f3\u0142 Szk\u00f3\u0142 Ekonomicznych Technikum",
                "name": "Zesp\u00f3\u0142 Szk\u00f3\u0142 Ekonomicznych Technikum",
                "addr:postcode": "05-300",
                "addr:city": "Mi\u0144sk Mazowiecki",
                "addr:street": "Zygmunta Kazikowskiego",
                "addr:housenumber": "18",
                "addr:teryt:simc": 975687,
                "addr:teryt:sym_ul": 8245,
                "phone": "+48 257584708",
                "email": "zsemm@zsemm.edu.pl",
                "ref:regon": "712569625",
                "operator": "Powiat Mi\u0144ski",
                "operator:type": "government",
                "amenity": "school",
                "note": "Parent RSPO: 7649"
            }
        },
        {
            "id": 12253,
            "type": "Feature",
            "geometry": {
                "type": "Point",
                "coordinates": [
                    21.563150405884,
                    52.179229736328
                ]
            },
            "properties": {
                "ref:rspo": 12253,
                "official_name": "Przedszkole Miejskie Nr 2",
                "name": "Przedszkole Miejskie Nr 2",
                "addr:postcode": "05-300",
                "addr:city": "Mi\u0144sk Mazowiecki",
                "addr:street": "Szkolna",
                "addr:housenumber": "3",
                "addr:teryt:simc": 975687,
                "addr:teryt:sym_ul": 21970,
                "phone": "+48 257585400",
                "email": "zsp1mm@zsp1mm.pl",
                "website": "http:\/\/p2mm.pl",
                "ref:regon": "142702781",
                "ref:vatin": "PL8222326746",
                "operator": "Miasto Mi\u0144sk Mazowiecki",
                "operator:type": "government",
                "amenity": "kindergarten",
                "note": "Parent RSPO: 130196"
            }
        },
        {
            "id": 59768,
            "type": "Feature",
            "geometry": {
                "type": "Point",
                "coordinates": [
                    21.56329,
                    52.17932
                ]
            },
            "properties": {
                "ref:rspo": 59768,
                "official_name": "Studium J\u0119zyk\u00f3w Obcych Paudyna Tomasz Leon",
                "name": "Studium J\u0119zyk\u00f3w Obcych Paudyna Tomasz Leon",
                "addr:postcode": "05-300",
                "addr:city": "Mi\u0144sk Mazowiecki",
                "addr:street": "Ma\u0142a",
                "addr:housenumber": "6",
                "addr:teryt:simc": 975687,
                "addr:teryt:sym_ul": 12098,
                "phone": "+48 257580080",
                "email": "studium@pro.onet.pl",
                "website": "http:\/\/www.sjo.edu.pl",
                "ref:regon": "146382221",
                "operator": "Tomasz Paudyna",
                "operator:type": "private",
                "fixme": "w zale\u017cno\u015bci od przedmiotu dzia\u0142alno\u015bci (np. amenity=training + training=*, amenity=dancing_school, amenity=language_school, amenity=music_school)"
            }
        },
        {
            "id": 53572,
            "type": "Feature",
            "geometry": {
                "type": "Point",
                "coordinates": [
                    21.56263,
                    52.17954
                ]
            },
            "properties": {
                "ref:rspo": 53572,
                "official_name": "Poradnia Psychologiczno-Pedagogiczna w Mi\u0144sku Mazowieckim",
                "name": "Poradnia Psychologiczno-Pedagogiczna w Mi\u0144sku Mazowieckim",
                "addr:postcode": "05-300",
                "addr:city": "Mi\u0144sk Mazowiecki",
                "addr:street": "Konstytucji 3 Maja",
                "addr:housenumber": "16",
                "addr:teryt:simc": 975687,
                "addr:teryt:sym_ul": 9213,
                "phone": "+48 257564005",
                "email": "sekretariat@poradniamm.edu.pl",
                "website": "http:\/\/www.poradniamm.edu.pl",
                "ref:regon": "000994420",
                "ref:vatin": "PL8221046039",
                "operator": "Powiat Mi\u0144ski",
                "operator:type": "government",
                "healthcare": "counselling",
                "counselling_type": "education",
                "fixme": "w zale\u017cno\u015bci od przedmiotu dzia\u0142alno\u015bci (np. healthcare=counselling + counselling_type=education albo healthcare=psychotherapist)"
            }
        },
        {
            "id": 123383,
            "type": "Feature",
            "geometry": {
                "type": "Point",
                "coordinates": [
                    21.55716,
                    52.1796999
                ]
            },
            "properties": {
                "ref:rspo": 123383,
                "official_name": "Niepubliczna Poradnia Psychologiczno-Pedagogiczna Strefa Rozwoju",
                "name": "Niepubliczna Poradnia Psychologiczno-Pedagogiczna Strefa Rozwoju",
                "addr:postcode": "05-300",
                "addr:city": "Mi\u0144sk Mazowiecki",
                "addr:street": "Tadeusza Ko\u015bciuszki",
                "addr:housenumber": "14",
                "addr:door": "U9",
                "addr:teryt:simc": 975687,
                "addr:teryt:sym_ul": 9582,
                "phone": "+48 257520335",
                "email": "poradnia@strefarozwoju.edu.pl",
                "website": "http:\/\/www.strefarozwoju.edu.pl",
                "ref:regon": "147309462",
                "operator": "Leszek Szel\u0105g",
                "operator:type": "private",
                "healthcare": "counselling",
                "counselling_type": "education",
                "fixme": "w zale\u017cno\u015bci od przedmiotu dzia\u0142alno\u015bci (np. healthcare=counselling + counselling_type=education albo healthcare=psychotherapist)"
            }
        },
        {
            "id": 14722,
            "type": "Feature",
            "geometry": {
                "type": "Point",
                "coordinates": [
                    21.5642299,
                    52.17983
                ]
            },
            "properties": {
                "ref:rspo": 14722,
                "official_name": "Przedszkole Miejskie Nr 5 \"T\u0119czowa Dolina\"",
                "name": "Przedszkole Miejskie Nr 5 \"T\u0119czowa Dolina\"",
                "addr:postcode": "05-300",
                "addr:city": "Mi\u0144sk Mazowiecki",
                "addr:street": "Konstytucji 3 Maja",
                "addr:housenumber": "11",
                "addr:teryt:simc": 975687,
                "addr:teryt:sym_ul": 9213,
                "phone": "+48 257583540",
                "email": "p5m@op.pl",
                "website": "http:\/\/www.pm5minskmazowiecki.superszkolna.pl",
                "ref:regon": "142742600",
                "ref:vatin": "PL8222327639",
                "operator": "Miasto Mi\u0144sk Mazowiecki",
                "operator:type": "government",
                "amenity": "kindergarten"
            }
        },
        {
            "id": 13326,
            "type": "Feature",
            "geometry": {
                "type": "Point",
                "coordinates": [
                    21.5607,
                    52.18009
                ]
            },
            "properties": {
                "ref:rspo": 13326,
                "official_name": "Przedszkole Miejskie Nr 3",
                "name": "Przedszkole Miejskie Nr 3",
                "addr:postcode": "05-300",
                "addr:city": "Mi\u0144sk Mazowiecki",
                "addr:street": "Konstytucji 3 Maja",
                "addr:housenumber": "10",
                "addr:teryt:simc": 975687,
                "addr:teryt:sym_ul": 9213,
                "phone": "+48 257582509",
                "email": "pm3wmm@interia.pl",
                "website": "http:\/\/www.pm3wmm.pl",
                "ref:regon": "142715861",
                "ref:vatin": "PL8222326953",
                "operator": "Miasto Mi\u0144sk Mazowiecki",
                "operator:type": "government",
                "amenity": "kindergarten"
            }
        },
        {
            "id": 63398,
            "type": "Feature",
            "geometry": {
                "type": "Point",
                "coordinates": [
                    21.5654499,
                    52.18116
                ]
            },
            "properties": {
                "isced:level": "4",
                "ref:rspo": 63398,
                "official_name": "Policealna Szko\u0142a Zawodowa ,,Edukator\"",
                "name": "Policealna Szko\u0142a Zawodowa ,,Edukator\"",
                "addr:postcode": "05-300",
                "addr:city": "Mi\u0144sk Mazowiecki",
                "addr:street": "Warszawska",
                "addr:housenumber": "157",
                "addr:teryt:simc": 975687,
                "addr:teryt:sym_ul": 23682,
                "phone": "+48 728728290",
                "email": "kontakt@edukatorminsk.pl",
                "ref:regon": "146413364",
                "operator": "Marta \u0141agowska",
                "operator:type": "private",
                "amenity": "college"
            }
        },
        {
            "id": 64674,
            "type": "Feature",
            "geometry": {
                "type": "Point",
                "coordinates": [
                    21.5654499,
                    52.181129999999996
                ]
            },
            "properties": {
                "isced:level": "3",
                "ref:rspo": 64674,
                "official_name": "Liceum Og\u00f3lnokszta\u0142c\u0105ce dla Doros\u0142ych ,,Edukator\"",
                "name": "Liceum Og\u00f3lnokszta\u0142c\u0105ce dla Doros\u0142ych ,,Edukator\"",
                "addr:postcode": "05-300",
                "addr:city": "Mi\u0144sk Mazowiecki",
                "addr:street": "Warszawska",
                "addr:housenumber": "157",
                "addr:teryt:simc": 975687,
                "addr:teryt:sym_ul": 23682,
                "phone": "+48 728728290",
                "email": "kontakt@edukatorminsk.pl",
                "ref:regon": "146413393",
                "operator": "Marta \u0141agowska",
                "operator:type": "private",
                "amenity": "school"
            }
        },
        {
            "id": 39756,
            "type": "Feature",
            "geometry": {
                "type": "Point",
                "coordinates": [
                    21.5543,
                    52.18126
                ]
            },
            "properties": {
                "isced:level": "1;2",
                "ref:rspo": 39756,
                "official_name": "Szko\u0142a Podstawowa Nr 1 im. Miko\u0142aja Kopernika",
                "name": "Szko\u0142a Podstawowa Nr 1",
                "addr:postcode": "05-300",
                "addr:city": "Mi\u0144sk Mazowiecki",
                "addr:street": "Miko\u0142aja Kopernika",
                "addr:housenumber": "9",
                "addr:teryt:simc": 975687,
                "addr:teryt:sym_ul": 9282,
                "phone": "+48 257582122",
                "email": "sp1minskmaz@op.pl",
                "website": "http:\/\/www.sp1kopernik.pl",
                "ref:regon": "000717873",
                "ref:vatin": "PL8221068822",
                "operator": "Miasto Mi\u0144sk Mazowiecki",
                "operator:type": "government",
                "amenity": "school"
            }
        },
        {
            "id": 16340,
            "type": "Feature",
            "geometry": {
                "type": "Point",
                "coordinates": [
                    21.562929153442,
                    52.181640625
                ]
            },
            "properties": {
                "ref:rspo": 16340,
                "official_name": "Miejska Szko\u0142a Artystyczna I Stopnia im. Konstantego Ryszarda Domaga\u0142y",
                "name": "Miejska Szko\u0142a Artystyczna I Stopnia",
                "addr:postcode": "05-300",
                "addr:city": "Mi\u0144sk Mazowiecki",
                "addr:street": "Jana Paw\u0142a II",
                "addr:housenumber": "23",
                "addr:teryt:simc": 975687,
                "addr:teryt:sym_ul": 7123,
                "phone": "+48 257584452",
                "email": "sekretariat@msamm.pl",
                "website": "http:\/\/www.msamm.pl",
                "ref:regon": "711659378",
                "ref:vatin": "PL8221512381",
                "operator": "Miasto Mi\u0144sk Mazowiecki",
                "operator:type": "government",
                "amenity": "music_school"
            }
        },
        {
            "id": 67782,
            "type": "Feature",
            "geometry": {
                "type": "Point",
                "coordinates": [
                    21.56531,
                    52.18189
                ]
            },
            "properties": {
                "ref:rspo": 67782,
                "official_name": "Zak\u0142ad Us\u0142ug Szkoleniowych ''Behapek Stanis\u0142aw Fory\u015b",
                "name": "Zak\u0142ad Us\u0142ug Szkoleniowych ''Behapek Stanis\u0142aw Fory\u015b",
                "addr:postcode": "05-300",
                "addr:city": "Mi\u0144sk Mazowiecki",
                "addr:street": "Topolowa",
                "addr:housenumber": "9",
                "addr:door": "6",
                "addr:teryt:simc": 975687,
                "addr:teryt:sym_ul": 22880,
                "phone": "+48 257586902",
                "email": "behapek@minskmaz.pl",
                "website": "http:\/\/www.behapek.pl",
                "ref:regon": "146374919",
                "ref:vatin": "PL8221028461",
                "operator": "Stanis\u0142aw Fory\u015b",
                "operator:type": "private",
                "fixme": "w zale\u017cno\u015bci od przedmiotu dzia\u0142alno\u015bci (np. amenity=training + training=*, amenity=dancing_school, amenity=language_school, amenity=music_school)"
            }
        },
        {
            "id": 132182,
            "type": "Feature",
            "geometry": {
                "type": "Point",
                "coordinates": [
                    21.5661999,
                    52.18204
                ]
            },
            "properties": {
                "ref:rspo": 132182,
                "official_name": "Niepubliczne Przedszkole \"Mali Giganci\"",
                "name": "Niepubliczne Przedszkole \"Mali Giganci\"",
                "addr:postcode": "05-300",
                "addr:city": "Mi\u0144sk Mazowiecki",
                "addr:street": "Topolowa",
                "addr:housenumber": "4",
                "addr:door": "U1",
                "addr:teryt:simc": 975687,
                "addr:teryt:sym_ul": 22880,
                "phone": "+48 698566830",
                "email": "justyna.bogdanowicz@gmail.com",
                "ref:regon": "365497147",
                "operator": "Justyna Bogdanowicz",
                "operator:type": "private",
                "amenity": "kindergarten"
            }
        },
        {
            "id": 279169,
            "type": "Feature",
            "geometry": {
                "type": "Point",
                "coordinates": [
                    21.5661999,
                    52.18201
                ]
            },
            "properties": {
                "ref:rspo": 279169,
                "official_name": "Przedszkole Publiczne Kompozycja Rado\u015bci",
                "name": "Przedszkole Publiczne Kompozycja Rado\u015bci",
                "addr:postcode": "05-300",
                "addr:city": "Mi\u0144sk Mazowiecki",
                "addr:street": "Topolowa",
                "addr:housenumber": "4",
                "addr:door": "U1",
                "addr:teryt:simc": 975687,
                "addr:teryt:sym_ul": 22880,
                "email": "justyna.bogdanowicz@gmail.com",
                "ref:regon": "520796344",
                "operator": "Justyna Bogdanowicz",
                "operator:type": "private",
                "amenity": "kindergarten"
            }
        },
        {
            "id": 278636,
            "type": "Feature",
            "geometry": {
                "type": "Point",
                "coordinates": [
                    21.56208,
                    52.1821
                ]
            },
            "properties": {
                "ref:rspo": 278636,
                "official_name": "Niepubliczny Punkt Przedszkolny Aperta Te",
                "name": "Niepubliczny Punkt Przedszkolny Aperta Te",
                "addr:postcode": "05-300",
                "addr:city": "Mi\u0144sk Mazowiecki",
                "addr:street": "Warszawska",
                "addr:housenumber": "135",
                "addr:teryt:simc": 975687,
                "addr:teryt:sym_ul": 23682,
                "phone": "+48 788988177",
                "email": "apertate.biuro@gmail.com",
                "website": "http:\/\/apertate.pl",
                "ref:regon": "520007181",
                "operator": "Natalia Wawryszuk",
                "operator:type": "private",
                "amenity": "kindergarten"
            }
        },
        {
            "id": 115556,
            "type": "Feature",
            "geometry": {
                "type": "Point",
                "coordinates": [
                    21.56485,
                    52.18212
                ]
            },
            "properties": {
                "ref:rspo": 115556,
                "official_name": "Akademia Kosmetyki I Podologii Cosmet",
                "name": "Akademia Kosmetyki I Podologii Cosmet",
                "addr:postcode": "05-300",
                "addr:city": "Mi\u0144sk Mazowiecki",
                "addr:street": "Topolowa",
                "addr:housenumber": "11",
                "addr:door": "12",
                "addr:teryt:simc": 975687,
                "addr:teryt:sym_ul": 22880,
                "phone": "+48 663411342",
                "email": "biuro@akcosmet.pl",
                "ref:regon": "146768417",
                "operator": "Joanna Rytel",
                "operator:type": "private",
                "fixme": "w zale\u017cno\u015bci od przedmiotu dzia\u0142alno\u015bci (np. amenity=training + training=*, amenity=dancing_school, amenity=language_school, amenity=music_school)"
            }
        },
        {
            "id": 14075,
            "type": "Feature",
            "geometry": {
                "type": "Point",
                "coordinates": [
                    21.56626,
                    52.18257
                ]
            },
            "properties": {
                "ref:rspo": 14075,
                "official_name": "Przedszkole Miejskie Z Oddzia\u0142em Specjalnym I Oddzia\u0142em Integracyjnym Nr 4 im. Urszuli Smoczy\u0144skiej",
                "name": "Przedszkole Miejskie Z Oddzia\u0142em Specjalnym I Oddzia\u0142em Integracyjnym Nr 4",
                "addr:postcode": "05-300",
                "addr:city": "Mi\u0144sk Mazowiecki",
                "addr:street": "Juliana Tuwima",
                "addr:housenumber": "2",
                "addr:teryt:simc": 975687,
                "addr:teryt:sym_ul": 23196,
                "phone": "+48 257582414",
                "email": "sekretariat@pm4.com.pl",
                "website": "http:\/\/www.pm4.com.pl",
                "ref:regon": "142714229",
                "ref:vatin": "PL8222326976",
                "operator": "Miasto Mi\u0144sk Mazowiecki",
                "operator:type": "government",
                "amenity": "kindergarten"
            }
        },
        {
            "id": 132201,
            "type": "Feature",
            "geometry": {
                "type": "Point",
                "coordinates": [
                    21.55431,
                    52.18336
                ]
            },
            "properties": {
                "ref:rspo": 132201,
                "official_name": "Domowe Przedszkole",
                "name": "Domowe Przedszkole",
                "addr:postcode": "05-300",
                "addr:city": "Mi\u0144sk Mazowiecki",
                "addr:street": "Warszawska",
                "addr:housenumber": "74",
                "addr:teryt:simc": 975687,
                "addr:teryt:sym_ul": 23682,
                "phone": "+48 606364169",
                "email": "domoweprzedszkole1@op.pl",
                "ref:regon": "365507450",
                "operator": "Zofia Gierdal",
                "operator:type": "private",
                "amenity": "kindergarten"
            }
        },
        {
            "id": 263842,
            "type": "Feature",
            "geometry": {
                "type": "Point",
                "coordinates": [
                    21.55386,
                    52.1837
                ]
            },
            "properties": {
                "ref:rspo": 263842,
                "official_name": "Punkt Przedszkolny \"Domowe Nutki\"",
                "name": "Punkt Przedszkolny \"Domowe Nutki\"",
                "addr:postcode": "05-300",
                "addr:city": "Mi\u0144sk Mazowiecki",
                "addr:street": "Warszawska",
                "addr:housenumber": "68",
                "addr:teryt:simc": 975687,
                "addr:teryt:sym_ul": 23682,
                "phone": "+48 606364169",
                "email": "domoweprzedszkole1@op.pl",
                "ref:regon": "368230166",
                "operator": "Zofia Gierdal",
                "operator:type": "private",
                "amenity": "kindergarten"
            }
        },
        {
            "id": 133872,
            "type": "Feature",
            "geometry": {
                "type": "Point",
                "coordinates": [
                    21.57289,
                    52.18435
                ]
            },
            "properties": {
                "isced:level": "1;2",
                "ref:rspo": 133872,
                "official_name": "Szko\u0142a Podstawowa Nr 3 im. Jana Paw\u0142a Ii",
                "name": "Szko\u0142a Podstawowa Nr 3",
                "addr:postcode": "05-300",
                "addr:city": "Mi\u0144sk Mazowiecki",
                "addr:street": "Budowlana",
                "addr:housenumber": "2",
                "addr:teryt:simc": 975687,
                "addr:teryt:sym_ul": 2335,
                "phone": "+48 257589547",
                "email": "szkola@sp3mm.pl",
                "ref:regon": "367705845",
                "operator": "Miasto Mi\u0144sk Mazowiecki",
                "operator:type": "government",
                "amenity": "school"
            }
        },
        {
            "id": 6318,
            "type": "Feature",
            "geometry": {
                "type": "Point",
                "coordinates": [
                    21.57013,
                    52.18509
                ]
            },
            "properties": {
                "ref:rspo": 6318,
                "official_name": "Centrum Kszta\u0142cenia Zawodowego I Ustawicznego w Mi\u0144sku Mazowieckim",
                "name": "Centrum Kszta\u0142cenia Zawodowego I Ustawicznego w Mi\u0144sku Mazowieckim",
                "addr:postcode": "05-300",
                "addr:city": "Mi\u0144sk Mazowiecki",
                "addr:street": "Budowlana",
                "addr:housenumber": "4",
                "addr:teryt:simc": 975687,
                "addr:teryt:sym_ul": 2335,
                "phone": "+48 257582908",
                "email": "ckziu@ckziumm.edu.pl",
                "website": "http:\/\/www.ckziumm.edu.pl",
                "ref:regon": "146274371",
                "operator": "Powiat Mi\u0144ski",
                "operator:type": "government",
                "landuse": "education",
                "fixme": "amenity=school, amenity=college albo landuse=education w zale\u017cno\u015bci od tego, jakie plac\u00f3wki wchodz\u0105 w sk\u0142ad zespo\u0142u. Sprawd\u017a, kiedy stosowa\u0107 amenity=* a kiedy landuse=education.",
                "note": "Children RSPO: 6011;119954;264960"
            }
        },
        {
            "id": 7650,
            "type": "Feature",
            "geometry": {
                "type": "Point",
                "coordinates": [
                    21.57013,
                    52.18506
                ]
            },
            "properties": {
                "ref:rspo": 7650,
                "official_name": "Zesp\u00f3\u0142 Szk\u00f3\u0142 Turystyczno - Gastronomicznych w Mi\u0144sku Mazowieckim",
                "name": "Zesp\u00f3\u0142 Szk\u00f3\u0142 Turystyczno - Gastronomicznych w Mi\u0144sku Mazowieckim",
                "addr:postcode": "05-300",
                "addr:city": "Mi\u0144sk Mazowiecki",
                "addr:street": "Budowlana",
                "addr:housenumber": "4",
                "addr:teryt:simc": 975687,
                "addr:teryt:sym_ul": 2335,
                "phone": "+48 257592651",
                "email": "mail@zst-g.pl",
                "website": "http:\/\/www.zst-g.pl",
                "ref:regon": "710360039",
                "ref:vatin": "PL8221512122",
                "operator": "Powiat Mi\u0144ski",
                "operator:type": "government",
                "landuse": "education",
                "fixme": "amenity=school, amenity=college albo landuse=education w zale\u017cno\u015bci od tego, jakie plac\u00f3wki wchodz\u0105 w sk\u0142ad zespo\u0142u. Sprawd\u017a, kiedy stosowa\u0107 amenity=* a kiedy landuse=education.",
                "note": "Children RSPO: 53614;53615"
            }
        },
        {
            "id": 54078,
            "type": "Feature",
            "geometry": {
                "type": "Point",
                "coordinates": [
                    21.57013,
                    52.185030000000005
                ]
            },
            "properties": {
                "ref:rspo": 54078,
                "official_name": "Zesp\u00f3\u0142 Szk\u00f3\u0142 Nr 1 im.kazimierza Wielkiego w Mi\u0144sku Mazowieckim",
                "name": "Zesp\u00f3\u0142 Szk\u00f3\u0142 Nr 1 im.kazimierza Wielkiego w Mi\u0144sku Mazowieckim",
                "addr:postcode": "05-300",
                "addr:city": "Mi\u0144sk Mazowiecki",
                "addr:street": "Budowlana",
                "addr:housenumber": "4",
                "addr:teryt:simc": 975687,
                "addr:teryt:sym_ul": 2335,
                "phone": "+48 257582564",
                "email": "zs1mm@zs1mm.edu.pl",
                "website": "http:\/\/www.zs1mm.edu.pl",
                "ref:regon": "000186743",
                "ref:vatin": "PL8221470731",
                "operator": "Powiat Mi\u0144ski",
                "operator:type": "government",
                "landuse": "education",
                "fixme": "amenity=school, amenity=college albo landuse=education w zale\u017cno\u015bci od tego, jakie plac\u00f3wki wchodz\u0105 w sk\u0142ad zespo\u0142u. Sprawd\u017a, kiedy stosowa\u0107 amenity=* a kiedy landuse=education.",
                "note": "Children RSPO: 73660;73661;73662;73663"
            }
        },
        {
            "id": 124505,
            "type": "Feature",
            "geometry": {
                "type": "Point",
                "coordinates": [
                    21.57013,
                    52.185
                ]
            },
            "properties": {
                "isced:level": "4",
                "ref:rspo": 124505,
                "official_name": "Policealna Szko\u0142a Przy Collegium Masoviense",
                "name": "Policealna Szko\u0142a Przy Collegium Masoviense",
                "addr:postcode": "05-300",
                "addr:city": "Mi\u0144sk Mazowiecki",
                "addr:street": "Budowlana",
                "addr:housenumber": "4",
                "addr:teryt:simc": 975687,
                "addr:teryt:sym_ul": 2335,
                "phone": "+48 785624708",
                "email": "info@cnoz.edu.pl",
                "website": "http:\/\/www.cnoz.edu.pl",
                "ref:regon": "147396751",
                "operator": "Collegium Masoviense Wy\u017cszej Szko\u0142y Nauk O Zdrowiu",
                "operator:type": "private",
                "amenity": "college"
            }
        },
        {
            "id": 53630,
            "type": "Feature",
            "geometry": {
                "type": "Point",
                "coordinates": [
                    21.57013,
                    52.18497
                ]
            },
            "properties": {
                "isced:level": "3",
                "ref:rspo": 53630,
                "official_name": "Liceum Og\u00f3lnokszta\u0142c\u0105ce dla Doros\u0142ych w Mi\u0144sku Mazowieckim",
                "name": "Liceum Og\u00f3lnokszta\u0142c\u0105ce dla Doros\u0142ych w Mi\u0144sku Mazowieckim",
                "addr:postcode": "05-300",
                "addr:city": "Mi\u0144sk Mazowiecki",
                "addr:street": "Budowlana",
                "addr:housenumber": "4",
                "addr:teryt:simc": 975687,
                "addr:teryt:sym_ul": 2335,
                "phone": "+48 257583415",
                "email": "ckziu@ckziumm.edu.pl",
                "website": "http:\/\/ckziumm.edu.pl",
                "ref:regon": "712542980",
                "operator": "Powiat Mi\u0144ski",
                "operator:type": "government",
                "amenity": "school",
                "note": "Parent RSPO: 6011"
            }
        },
        {
            "id": 53632,
            "type": "Feature",
            "geometry": {
                "type": "Point",
                "coordinates": [
                    21.57013,
                    52.184940000000005
                ]
            },
            "properties": {
                "isced:level": "4",
                "ref:rspo": 53632,
                "official_name": "Szko\u0142a Policealna",
                "name": "Szko\u0142a Policealna",
                "addr:postcode": "05-300",
                "addr:city": "Mi\u0144sk Mazowiecki",
                "addr:street": "Budowlana",
                "addr:housenumber": "4",
                "addr:teryt:simc": 975687,
                "addr:teryt:sym_ul": 2335,
                "phone": "+48 257583415",
                "email": "ckziu@ckziumm.edu.pl",
                "website": "http:\/\/ckziumm.edu.pl",
                "ref:regon": "712543005",
                "operator": "Powiat Mi\u0144ski",
                "operator:type": "government",
                "amenity": "college",
                "note": "Parent RSPO: 6011"
            }
        },
        {
            "id": 6011,
            "type": "Feature",
            "geometry": {
                "type": "Point",
                "coordinates": [
                    21.57013,
                    52.18491
                ]
            },
            "properties": {
                "ref:rspo": 6011,
                "official_name": "Centrum Kszta\u0142cenia Ustawicznego w Mi\u0144sku Mazowieckim",
                "name": "Centrum Kszta\u0142cenia Ustawicznego w Mi\u0144sku Mazowieckim",
                "addr:postcode": "05-300",
                "addr:city": "Mi\u0144sk Mazowiecki",
                "addr:street": "Budowlana",
                "addr:housenumber": "4",
                "addr:teryt:simc": 975687,
                "addr:teryt:sym_ul": 2335,
                "phone": "+48 257583415",
                "email": "ckziu@ckziumm.edu.pl",
                "website": "http:\/\/www.ckziumm.edu.pl",
                "ref:regon": "000771269",
                "ref:vatin": "PL8221003001",
                "operator": "Powiat Mi\u0144ski",
                "operator:type": "government",
                "amenity": "school",
                "fixme": "amenity=school lub amenity=college",
                "note": "Children RSPO: 53630;53632Parent RSPO: 6318"
            }
        },
        {
            "id": 119954,
            "type": "Feature",
            "geometry": {
                "type": "Point",
                "coordinates": [
                    21.57013,
                    52.18488
                ]
            },
            "properties": {
                "ref:rspo": 119954,
                "official_name": "Centrum Kszta\u0142cenia Zawodowego w Mi\u0144sku Mazowieckim",
                "name": "Centrum Kszta\u0142cenia Zawodowego w Mi\u0144sku Mazowieckim",
                "addr:postcode": "05-300",
                "addr:city": "Mi\u0144sk Mazowiecki",
                "addr:street": "Budowlana",
                "addr:housenumber": "4",
                "addr:teryt:simc": 975687,
                "addr:teryt:sym_ul": 2335,
                "phone": "+48 257582908",
                "email": "ckziu@ckziumm.edu.pl",
                "website": "http:\/\/ckziumm.edu.pl",
                "ref:regon": "712571674",
                "operator": "Powiat Mi\u0144ski",
                "operator:type": "government",
                "fixme": "w zale\u017cno\u015bci od przedmiotu dzia\u0142alno\u015bci (np. amenity=training + training=*, amenity=dancing_school, amenity=language_school, amenity=music_school) albo amenity=school, amenity=college, albo landuse=education w zale\u017cno\u015bci od tego, jakie plac\u00f3wki wchodz\u0105 w sk\u0142ad zespo\u0142u. Sprawd\u017a, kiedy stosowa\u0107 amenity=* a kiedy landuse=education.",
                "note": "Parent RSPO: 6318"
            }
        },
        {
            "id": 264960,
            "type": "Feature",
            "geometry": {
                "type": "Point",
                "coordinates": [
                    21.57013,
                    52.184850000000004
                ]
            },
            "properties": {
                "isced:level": "1;2",
                "ref:rspo": 264960,
                "official_name": "Szko\u0142a Podstawowa dla Doros\u0142ych w Centrum Kszta\u0142cenia Zawodowego I Ustawicznego w Mi\u0144sku Mazowieckim",
                "name": "Szko\u0142a Podstawowa dla Doros\u0142ych w Centrum Kszta\u0142cenia Zawodowego I Ustawicznego w Mi\u0144sku Mazowieckim",
                "addr:postcode": "05-300",
                "addr:city": "Mi\u0144sk Mazowiecki",
                "addr:street": "Budowlana",
                "addr:housenumber": "4",
                "addr:teryt:simc": 975687,
                "addr:teryt:sym_ul": 2335,
                "phone": "+48 257582908",
                "email": "ckziu@ckziumm.edu.pl",
                "ref:regon": "368527825",
                "operator": "Powiat Mi\u0144ski",
                "operator:type": "government",
                "amenity": "school",
                "note": "Parent RSPO: 6318"
            }
        },
        {
            "id": 53614,
            "type": "Feature",
            "geometry": {
                "type": "Point",
                "coordinates": [
                    21.57013,
                    52.18482
                ]
            },
            "properties": {
                "isced:level": "3",
                "ref:rspo": 53614,
                "official_name": "Technikum im. Zygmunta Glogera w Zespole Szk\u00f3\u0142 Turystyczno - Gastronomicznych w Mi\u0144sku Mazowieckim",
                "name": "Technikum",
                "addr:postcode": "05-300",
                "addr:city": "Mi\u0144sk Mazowiecki",
                "addr:street": "Budowlana",
                "addr:housenumber": "4",
                "addr:teryt:simc": 975687,
                "addr:teryt:sym_ul": 2335,
                "phone": "+48 257592651",
                "email": "mail@zst-g.pl",
                "website": "http:\/\/www.zst-g.pl",
                "ref:regon": "712541160",
                "operator": "Powiat Mi\u0144ski",
                "operator:type": "government",
                "amenity": "school",
                "note": "Parent RSPO: 7650"
            }
        },
        {
            "id": 53615,
            "type": "Feature",
            "geometry": {
                "type": "Point",
                "coordinates": [
                    21.57013,
                    52.18479
                ]
            },
            "properties": {
                "isced:level": "3",
                "ref:rspo": 53615,
                "official_name": "Bran\u017cowa Szko\u0142a I Stopnia im. Zygmunta Glogera w Zespole Szk\u00f3\u0142 Turystyczno - Gastronomicznych w Mi\u0144sku Mazowieckim",
                "name": "Bran\u017cowa Szko\u0142a I Stopnia",
                "addr:postcode": "05-300",
                "addr:city": "Mi\u0144sk Mazowiecki",
                "addr:street": "Budowlana",
                "addr:housenumber": "4",
                "addr:teryt:simc": 975687,
                "addr:teryt:sym_ul": 2335,
                "phone": "+48 257592651",
                "email": "mail@zst-g.pl",
                "website": "http:\/\/www.zst-g.pl",
                "ref:regon": "710360068",
                "operator": "Powiat Mi\u0144ski",
                "operator:type": "government",
                "amenity": "school",
                "note": "Parent RSPO: 7650"
            }
        },
        {
            "id": 73660,
            "type": "Feature",
            "geometry": {
                "type": "Point",
                "coordinates": [
                    21.57013,
                    52.184760000000004
                ]
            },
            "properties": {
                "isced:level": "3",
                "ref:rspo": 73660,
                "official_name": "Bran\u017cowa Szko\u0142a I Stopnia Specjalna w Zespole Szk\u00f3\u0142 Nr 1 im. Kazimierza Wielkiego w Mi\u0144sku Mazowieckim",
                "name": "Bran\u017cowa Szko\u0142a I Stopnia Specjalna w Zespole Szk\u00f3\u0142 Nr 1",
                "addr:postcode": "05-300",
                "addr:city": "Mi\u0144sk Mazowiecki",
                "addr:street": "Budowlana",
                "addr:housenumber": "4",
                "addr:teryt:simc": 975687,
                "addr:teryt:sym_ul": 2335,
                "phone": "+48 257582564",
                "email": "zs1mm@zs1mm.edu.pl",
                "website": "http:\/\/www.zs1mm.edu.pl",
                "ref:regon": "001250650",
                "operator": "Powiat Mi\u0144ski",
                "operator:type": "government",
                "amenity": "school",
                "note": "Parent RSPO: 54078"
            }
        },
        {
            "id": 73661,
            "type": "Feature",
            "geometry": {
                "type": "Point",
                "coordinates": [
                    21.57013,
                    52.18473
                ]
            },
            "properties": {
                "isced:level": "3",
                "ref:rspo": 73661,
                "official_name": "Zesp\u00f3\u0142 Szk\u00f3\u0142 Nr 1 im.kazimierza Wielkiego Technikum",
                "name": "Zesp\u00f3\u0142 Szk\u00f3\u0142 Nr 1 im.kazimierza Wielkiego Technikum",
                "addr:postcode": "05-300",
                "addr:city": "Mi\u0144sk Mazowiecki",
                "addr:street": "Budowlana",
                "addr:housenumber": "4",
                "addr:teryt:simc": 975687,
                "addr:teryt:sym_ul": 2335,
                "phone": "+48 257582564",
                "email": "zs1mm@zs1mm.edu.pl",
                "website": "http:\/\/www.zs1mm.edu.pl",
                "ref:regon": "712542158",
                "operator": "Powiat Mi\u0144ski",
                "operator:type": "government",
                "amenity": "school",
                "note": "Parent RSPO: 54078"
            }
        },
        {
            "id": 73662,
            "type": "Feature",
            "geometry": {
                "type": "Point",
                "coordinates": [
                    21.57013,
                    52.1847
                ]
            },
            "properties": {
                "isced:level": "3",
                "ref:rspo": 73662,
                "official_name": "Zesp\u00f3\u0142 Szk\u00f3\u0142 Nr 1 im.kazimierza Wielkiego Liceum Og\u00f3lnokszta\u0142c\u0105ce",
                "name": "Zesp\u00f3\u0142 Szk\u00f3\u0142 Nr 1 im.kazimierza Wielkiego Liceum Og\u00f3lnokszta\u0142c\u0105ce",
                "addr:postcode": "05-300",
                "addr:city": "Mi\u0144sk Mazowiecki",
                "addr:street": "Budowlana",
                "addr:housenumber": "4",
                "addr:teryt:simc": 975687,
                "addr:teryt:sym_ul": 2335,
                "phone": "+48 257582564",
                "email": "zs1mm@zs1mm.edu.pl",
                "website": "http:\/\/www.zs1mm.edu.pl",
                "ref:regon": "712542170",
                "operator": "Powiat Mi\u0144ski",
                "operator:type": "government",
                "amenity": "school",
                "note": "Parent RSPO: 54078"
            }
        },
        {
            "id": 73663,
            "type": "Feature",
            "geometry": {
                "type": "Point",
                "coordinates": [
                    21.57013,
                    52.184670000000004
                ]
            },
            "properties": {
                "isced:level": "3",
                "ref:rspo": 73663,
                "official_name": "Bran\u017cowa Szko\u0142a I Stopnia w Zespole Szk\u00f3\u0142 Nr 1 im. Kazimierza Wielkiego w Mi\u0144sku Mazowieckim",
                "name": "Bran\u017cowa Szko\u0142a I Stopnia w Zespole Szk\u00f3\u0142 Nr 1",
                "addr:postcode": "05-300",
                "addr:city": "Mi\u0144sk Mazowiecki",
                "addr:street": "Budowlana",
                "addr:housenumber": "4",
                "addr:teryt:simc": 975687,
                "addr:teryt:sym_ul": 2335,
                "phone": "+48 257582564",
                "email": "zs1mm@zs1mm.edu.pl",
                "website": "http:\/\/www.zs1mm.edu.pl",
                "ref:regon": "712542164",
                "operator": "Powiat Mi\u0144ski",
                "operator:type": "government",
                "amenity": "school",
                "note": "Parent RSPO: 54078"
            }
        },
        {
            "id": 6334,
            "type": "Feature",
            "geometry": {
                "type": "Point",
                "coordinates": [
                    21.54888,
                    52.18524
                ]
            },
            "properties": {
                "ref:rspo": 6334,
                "official_name": "Zesp\u00f3\u0142 Szk\u00f3\u0142 im. Marii Sk\u0142odowskiej-Curie w Mi\u0144sku Mazowieckim",
                "name": "Zesp\u00f3\u0142 Szk\u00f3\u0142",
                "addr:postcode": "05-300",
                "addr:city": "Mi\u0144sk Mazowiecki",
                "addr:street": "1 PLM Warszawa",
                "addr:housenumber": "1",
                "addr:teryt:simc": 975687,
                "addr:teryt:sym_ul": 34500,
                "phone": "+48 257582382",
                "email": "sekretariat@zsmsc.edu.pl",
                "website": "http:\/\/www.zsmsc.edu.pl",
                "ref:regon": "000187369",
                "ref:vatin": "PL8221068667",
                "operator": "Powiat Mi\u0144ski",
                "operator:type": "government",
                "landuse": "education",
                "fixme": "amenity=school, amenity=college albo landuse=education w zale\u017cno\u015bci od tego, jakie plac\u00f3wki wchodz\u0105 w sk\u0142ad zespo\u0142u. Sprawd\u017a, kiedy stosowa\u0107 amenity=* a kiedy landuse=education.",
                "note": "Children RSPO: 7681;53612;53613"
            }
        },
        {
            "id": 60749,
            "type": "Feature",
            "geometry": {
                "type": "Point",
                "coordinates": [
                    21.54888,
                    52.18521
                ]
            },
            "properties": {
                "isced:level": "4",
                "ref:rspo": 60749,
                "official_name": "Medyczna Szko\u0142a Policealna w Mi\u0144sku Mazowieckim",
                "name": "Medyczna Szko\u0142a Policealna w Mi\u0144sku Mazowieckim",
                "addr:postcode": "05-300",
                "addr:city": "Mi\u0144sk Mazowiecki",
                "addr:street": "1 PLM Warszawa",
                "addr:housenumber": "1",
                "addr:teryt:simc": 975687,
                "addr:teryt:sym_ul": 34500,
                "phone": "+48 257585485",
                "email": "sekretariat@mspmm.edu.pl",
                "website": "http:\/\/www.mspmm.edu.pl",
                "ref:regon": "000297804",
                "ref:vatin": "PL8222382880",
                "operator": "Wojew\u00f3dztwo Mazowieckie",
                "operator:type": "government",
                "amenity": "college"
            }
        },
        {
            "id": 7681,
            "type": "Feature",
            "geometry": {
                "type": "Point",
                "coordinates": [
                    21.54888,
                    52.18518
                ]
            },
            "properties": {
                "isced:level": "3",
                "ref:rspo": 7681,
                "official_name": "Zesp\u00f3\u0142 Szk\u00f3\u0142 im. Marii Sk\u0142odowskiej Curie w Mi\u0144sku Mazowieckim Technikum",
                "name": "Zesp\u00f3\u0142 Szk\u00f3\u0142",
                "addr:postcode": "05-300",
                "addr:city": "Mi\u0144sk Mazowiecki",
                "addr:street": "1 PLM Warszawa",
                "addr:housenumber": "1",
                "addr:teryt:simc": 975687,
                "addr:teryt:sym_ul": 34500,
                "phone": "+48 257582382",
                "email": "sekretariat@zsmsc.edu.pl",
                "website": "http:\/\/www.zsmsc.edu.pl",
                "ref:regon": "146274589",
                "operator": "Powiat Mi\u0144ski",
                "operator:type": "government",
                "amenity": "school",
                "note": "Parent RSPO: 6334"
            }
        },
        {
            "id": 53612,
            "type": "Feature",
            "geometry": {
                "type": "Point",
                "coordinates": [
                    21.54888,
                    52.18515
                ]
            },
            "properties": {
                "isced:level": "3",
                "ref:rspo": 53612,
                "official_name": "Zesp\u00f3\u0142 Szk\u00f3\u0142 im.marii Sk\u0142odowskiej-Curie Liceum Og\u00f3lnokszta\u0142c\u0105ce",
                "name": "Zesp\u00f3\u0142 Szk\u00f3\u0142 im.marii Sk\u0142odowskiej-Curie Liceum Og\u00f3lnokszta\u0142c\u0105ce",
                "addr:postcode": "05-300",
                "addr:city": "Mi\u0144sk Mazowiecki",
                "addr:street": "1 PLM Warszawa",
                "addr:housenumber": "1",
                "addr:teryt:simc": 975687,
                "addr:teryt:sym_ul": 34500,
                "phone": "+48 257582382",
                "email": "sekretariat@zsmsc.edu.pl",
                "website": "http:\/\/www.zsmsc.edu.pl",
                "ref:regon": "710019122",
                "operator": "Powiat Mi\u0144ski",
                "operator:type": "government",
                "amenity": "school",
                "note": "Parent RSPO: 6334"
            }
        },
        {
            "id": 53613,
            "type": "Feature",
            "geometry": {
                "type": "Point",
                "coordinates": [
                    21.54888,
                    52.18512
                ]
            },
            "properties": {
                "isced:level": "3",
                "ref:rspo": 53613,
                "official_name": "Bran\u017cowa Szko\u0142a I Stopnia w Zespole Szk\u00f3\u0142 im. Marii Sk\u0142odowskiej -Curie w Mi\u0144sku Mazowieckim",
                "name": "Bran\u017cowa Szko\u0142a I Stopnia w Zespole Szk\u00f3\u0142",
                "addr:postcode": "05-300",
                "addr:city": "Mi\u0144sk Mazowiecki",
                "addr:street": "1 PLM Warszawa",
                "addr:housenumber": "1",
                "addr:teryt:simc": 975687,
                "addr:teryt:sym_ul": 34500,
                "phone": "+48 257582382",
                "email": "sekretariat@zsmsc.edu.pl",
                "website": "http:\/\/www.zsmsc.edu.pl",
                "ref:regon": "712541118",
                "operator": "Powiat Mi\u0144ski",
                "operator:type": "government",
                "amenity": "school",
                "note": "Parent RSPO: 6334"
            }
        },
        {
            "id": 276855,
            "type": "Feature",
            "geometry": {
                "type": "Point",
                "coordinates": [
                    21.55976,
                    52.18675
                ]
            },
            "properties": {
                "ref:rspo": 276855,
                "official_name": "Przedszkole Publiczne \"Kredka\"",
                "name": "Przedszkole Publiczne \"Kredka\"",
                "addr:postcode": "05-300",
                "addr:city": "Mi\u0144sk Mazowiecki",
                "addr:street": "Boczna",
                "addr:housenumber": "12",
                "addr:teryt:simc": 975687,
                "addr:teryt:sym_ul": 1528,
                "phone": "+48 253070003",
                "email": "pnkredka@gmail.com",
                "website": "http:\/\/pnkredka.pl",
                "ref:regon": "387725625",
                "operator": "Katarzyna Baku\u0142a-Dro\u017cak",
                "operator:type": "private",
                "amenity": "kindergarten"
            }
        },
        {
            "id": 120439,
            "type": "Feature",
            "geometry": {
                "type": "Point",
                "coordinates": [
                    21.54364,
                    52.18716
                ]
            },
            "properties": {
                "ref:rspo": 120439,
                "official_name": "Przedszkole Niepubliczne \"Dobry Start\"",
                "name": "Przedszkole Niepubliczne \"Dobry Start\"",
                "addr:postcode": "05-300",
                "addr:city": "Mi\u0144sk Mazowiecki",
                "addr:street": "1 PLM Warszawa",
                "addr:housenumber": "5",
                "addr:door": "10",
                "addr:teryt:simc": 975687,
                "addr:teryt:sym_ul": 34500,
                "phone": "+48 690477373",
                "email": "stelmaszczykbeata@gmail.com",
                "ref:regon": "146904464",
                "operator": "Beata Stelmaszczyk",
                "operator:type": "private",
                "amenity": "kindergarten"
            }
        },
        {
            "id": 12049,
            "type": "Feature",
            "geometry": {
                "type": "Point",
                "coordinates": [
                    21.55675,
                    52.18794
                ]
            },
            "properties": {
                "ref:rspo": 12049,
                "official_name": "Niepubliczne Przedszkole Montessori \"Delfinek\"",
                "name": "Niepubliczne Przedszkole Montessori \"Delfinek\"",
                "addr:postcode": "05-300",
                "addr:city": "Mi\u0144sk Mazowiecki",
                "addr:street": "\u015awi\u0119tokrzyska",
                "addr:housenumber": "23",
                "addr:teryt:simc": 975687,
                "addr:teryt:sym_ul": 22552,
                "phone": "+48 257592679",
                "email": "wiedan@o2.pl",
                "website": "http:\/\/www.przedszkoledelfinek.com",
                "ref:regon": "146309649",
                "ref:vatin": "PL8221451917",
                "operator": "Danuta Sawicka-Ku\u015b",
                "operator:type": "private",
                "amenity": "kindergarten"
            }
        },
        {
            "id": 7111,
            "type": "Feature",
            "geometry": {
                "type": "Point",
                "coordinates": [
                    21.55836,
                    52.18859
                ]
            },
            "properties": {
                "ref:rspo": 7111,
                "official_name": "Przedszkole Prywatne \"Chatka Puchatka\"",
                "name": "Przedszkole Prywatne \"Chatka Puchatka\"",
                "addr:postcode": "05-300",
                "addr:city": "Mi\u0144sk Mazowiecki",
                "addr:street": "Kaszubska",
                "addr:housenumber": "8",
                "addr:teryt:simc": 975687,
                "addr:teryt:sym_ul": 8183,
                "phone": "+48 692482450",
                "email": "chatka-puchatka2@wp.pl",
                "website": "http:\/\/www.przedszkole-chatkapuchatka.pl",
                "ref:regon": "146294920",
                "ref:vatin": "PL8221884208",
                "operator": "Wies\u0142awa Kami\u0144ska",
                "operator:type": "private",
                "amenity": "kindergarten"
            }
        },
        {
            "id": 279176,
            "type": "Feature",
            "geometry": {
                "type": "Point",
                "coordinates": [
                    21.55836,
                    52.188559999999995
                ]
            },
            "properties": {
                "ref:rspo": 279176,
                "official_name": "Przedszkole Publiczne \"Chatka Puchatka\"",
                "name": "Przedszkole Publiczne \"Chatka Puchatka\"",
                "addr:postcode": "05-300",
                "addr:city": "Mi\u0144sk Mazowiecki",
                "addr:street": "Kaszubska",
                "addr:housenumber": "8",
                "addr:teryt:simc": 975687,
                "addr:teryt:sym_ul": 8183,
                "email": "chatka-puchatka2@wp.pl",
                "ref:regon": "520802688",
                "operator": "Wies\u0142awa Kami\u0144ska",
                "operator:type": "private",
                "amenity": "kindergarten"
            }
        },
        {
            "id": 65127,
            "type": "Feature",
            "geometry": {
                "type": "Point",
                "coordinates": [
                    21.54582,
                    52.18861
                ]
            },
            "properties": {
                "ref:rspo": 65127,
                "official_name": "Przedszkole Prywatne \"Mini Raj\" Beata Laskowska",
                "name": "Przedszkole Prywatne \"Mini Raj\" Beata Laskowska",
                "addr:postcode": "05-300",
                "addr:city": "Mi\u0144sk Mazowiecki",
                "addr:street": "Warszawskie Przedmie\u015bcie",
                "addr:housenumber": "32",
                "addr:teryt:simc": 975687,
                "addr:teryt:sym_ul": 23687,
                "phone": "+48 602471741",
                "email": "przedszkole@miniraj.pl",
                "ref:regon": "146374836",
                "ref:vatin": "PL9521028431",
                "operator": "Beata Laskowska",
                "operator:type": "private",
                "amenity": "kindergarten"
            }
        },
        {
            "id": 15466,
            "type": "Feature",
            "geometry": {
                "type": "Point",
                "coordinates": [
                    21.55628,
                    52.18945
                ]
            },
            "properties": {
                "isced:level": "1;2",
                "ref:rspo": 15466,
                "official_name": "Szko\u0142a Podstawowa Nr 5 im. J\u00f3zefa Wybickiego",
                "name": "Szko\u0142a Podstawowa Nr 5",
                "addr:postcode": "05-300",
                "addr:city": "Mi\u0144sk Mazowiecki",
                "addr:street": "Ma\u0142opolska",
                "addr:housenumber": "11",
                "addr:teryt:simc": 975687,
                "addr:teryt:sym_ul": 12189,
                "phone": "+48 257582957",
                "email": "sp5@post.pl",
                "website": "http:\/\/www.sp5minskmaz.edu.pl",
                "ref:regon": "000584449",
                "ref:vatin": "PL8221046051",
                "operator": "Miasto Mi\u0144sk Mazowiecki",
                "operator:type": "government",
                "amenity": "school"
            }
        },
        {
            "id": 12217,
            "type": "Feature",
            "geometry": {
                "type": "Point",
                "coordinates": [
                    21.55567,
                    52.19
                ]
            },
            "properties": {
                "ref:rspo": 12217,
                "official_name": "Przedszkole Angielskoj\u0119zyczne \"Happy Kids\"",
                "name": "Przedszkole Angielskoj\u0119zyczne \"Happy Kids\"",
                "addr:postcode": "05-300",
                "addr:city": "Mi\u0144sk Mazowiecki",
                "addr:street": "Ma\u0142opolska",
                "addr:housenumber": "30",
                "addr:teryt:simc": 975687,
                "addr:teryt:sym_ul": 12189,
                "phone": "+48 604575827",
                "email": "agnesesw@op.pl",
                "ref:regon": "146293180",
                "ref:vatin": "PL8221055251",
                "operator": "Jacek Wojty\u0144ski",
                "operator:type": "private",
                "amenity": "kindergarten"
            }
        }
    ]
}