{
    "type": "FeatureCollection",
    "features": [
        {
            "id": 62427,
            "type": "Feature",
            "geometry": {
                "type": "Point",
                "coordinates": [
                    21.84929,
                    52.0676
                ]
            },
            "properties": {
                "isced:level": "1;2",
                "ref:rspo": 62427,
                "official_name": "Szko\u0142a Podstawowa im. Henryka Sienkiewicza w Jeruzalu",
                "name": "Szko\u0142a Podstawowa",
                "addr:country": "PL",
                "addr:postcode": "05-317",
                "addr:city": "Jeruzal",
                "addr:street": "ul. Szkolna",
                "addr:housenumber": "8",
                "addr:teryt:simc": 21970,
                "addr:teryt:sym_ul": 682790,
                "contact:phone": "+48 257523279",
                "contact:email": "szkola@jeruzal.edu.pl",
                "contact:website": "http:\/\/szkola.jeruzal.edu.pl\/",
                "ref:regon": "001124796",
                "ref:vatin": "PL8221531438",
                "operator": "Gmina Mrozy",
                "operator:type": "government",
                "amenity": "school"
            }
        },
        {
            "id": 105091,
            "type": "Feature",
            "geometry": {
                "type": "Point",
                "coordinates": [
                    21.8496099,
                    52.07077
                ]
            },
            "properties": {
                "ref:rspo": 105091,
                "official_name": "Zak\u0142ad Poprawczy I Schronisko dla Nieletnich w Mrozach",
                "name": "Zak\u0142ad Poprawczy I Schronisko dla Nieletnich w Mrozach",
                "addr:country": "PL",
                "addr:postcode": "05-320",
                "addr:city": "Mrozy",
                "addr:street": "ul. Le\u015bna",
                "addr:housenumber": "8",
                "addr:teryt:simc": 10898,
                "addr:teryt:sym_ul": 682940,
                "contact:phone": "+48 257574268",
                "contact:email": "sekretariat@mrozy.zpisdn.gov.pl",
                "contact:website": "http:\/\/www.mrozy.zpisdn.gov.pl",
                "ref:regon": "000325021",
                "operator": "Ministerstwo Sprawiedliwo\u015bci",
                "operator:type": "public",
                "note": "Children RSPO: 125097;125099"
            }
        },
        {
            "id": 125097,
            "type": "Feature",
            "geometry": {
                "type": "Point",
                "coordinates": [
                    21.8496099,
                    52.07074
                ]
            },
            "properties": {
                "isced:level": "1;2",
                "ref:rspo": 125097,
                "official_name": "Szko\u0142a Podstawowa Nr 2 w Zak\u0142adzie Poprawczym I w Schronisku dla Nieletnich w Mrozach",
                "name": "Szko\u0142a Podstawowa Nr 2 w Zak\u0142adzie Poprawczym I w Schronisku dla Nieletnich w Mrozach",
                "addr:country": "PL",
                "addr:postcode": "05-320",
                "addr:city": "Mrozy",
                "addr:street": "ul. Le\u015bna",
                "addr:housenumber": "8",
                "addr:teryt:simc": 10898,
                "addr:teryt:sym_ul": 682940,
                "contact:phone": "+48 257574024",
                "contact:email": "sekretariat@zpmrozy.pl",
                "contact:website": "http:\/\/zpmrozy.edupage.org\/",
                "ref:regon": "712568063",
                "operator": "Ministerstwo Sprawiedliwo\u015bci",
                "operator:type": "public",
                "amenity": "school",
                "note": "Parent RSPO: 105091"
            }
        },
        {
            "id": 125099,
            "type": "Feature",
            "geometry": {
                "type": "Point",
                "coordinates": [
                    21.8496099,
                    52.070710000000005
                ]
            },
            "properties": {
                "isced:level": "3",
                "ref:rspo": 125099,
                "official_name": "Bran\u017cowa Szko\u0142a I Stopnia w Zak\u0142adzie Poprawczym I Schronisku dla Nieletnich w Mrozach",
                "name": "Bran\u017cowa Szko\u0142a I Stopnia w Zak\u0142adzie Poprawczym I Schronisku dla Nieletnich w Mrozach",
                "addr:country": "PL",
                "addr:postcode": "05-320",
                "addr:city": "Mrozy",
                "addr:street": "ul. Le\u015bna",
                "addr:housenumber": "8",
                "addr:teryt:simc": 10898,
                "addr:teryt:sym_ul": 682940,
                "contact:phone": "+48 257574024",
                "contact:email": "sekretariat@zpmrozy.pl",
                "contact:website": "http:\/\/zpmrozy.edupage.org\/",
                "ref:regon": "712568086",
                "operator": "Ministerstwo Sprawiedliwo\u015bci",
                "operator:type": "public",
                "amenity": "school",
                "note": "Parent RSPO: 105091"
            }
        },
        {
            "id": 26982,
            "type": "Feature",
            "geometry": {
                "type": "Point",
                "coordinates": [
                    21.80263,
                    52.15704
                ]
            },
            "properties": {
                "ref:rspo": 26982,
                "official_name": "Zesp\u00f3\u0142 Szk\u00f3\u0142 im. Adama Mickiewicza w Mrozach",
                "name": "Zesp\u00f3\u0142 Szk\u00f3\u0142",
                "addr:country": "PL",
                "addr:postcode": "05-320",
                "addr:city": "Mrozy",
                "addr:street": "ul. Licealna",
                "addr:housenumber": "3",
                "addr:teryt:simc": 11033,
                "addr:teryt:sym_ul": 682940,
                "contact:phone": "+48 257574194",
                "contact:email": "zespolszkol@mrozy.pl",
                "contact:website": "http:\/\/zespolszkol.mrozy.pl",
                "ref:regon": "711653051",
                "ref:vatin": "PL8221884384",
                "operator": "Gmina Mrozy",
                "operator:type": "government",
                "landuse": "education",
                "fixme": "amenity=school, amenity=college albo landuse=education w zale\u017cno\u015bci od tego, jakie plac\u00f3wki wchodz\u0105 w sk\u0142ad zespo\u0142u. Sprawd\u017a, kiedy stosowa\u0107 amenity=* a kiedy landuse=education.",
                "note": "Children RSPO: 58149;263439"
            }
        },
        {
            "id": 58149,
            "type": "Feature",
            "geometry": {
                "type": "Point",
                "coordinates": [
                    21.80263,
                    52.15701
                ]
            },
            "properties": {
                "isced:level": "3",
                "ref:rspo": 58149,
                "official_name": "Liceum Og\u00f3lnokszta\u0142c\u0105ce im. Adama Mickiewicza w Mrozach",
                "name": "Liceum Og\u00f3lnokszta\u0142c\u0105ce",
                "addr:country": "PL",
                "addr:postcode": "05-320",
                "addr:city": "Mrozy",
                "addr:street": "ul. Licealna",
                "addr:housenumber": "3",
                "addr:teryt:simc": 11033,
                "addr:teryt:sym_ul": 682940,
                "contact:phone": "+48 257574194",
                "contact:email": "zespolszkol@mrozy.pl",
                "contact:website": "http:\/\/zespolszkol.mrozy.pl\/",
                "ref:regon": "712539950",
                "ref:vatin": "PL8221884384",
                "operator": "Gmina Mrozy",
                "operator:type": "government",
                "amenity": "school",
                "note": "Parent RSPO: 26982"
            }
        },
        {
            "id": 263439,
            "type": "Feature",
            "geometry": {
                "type": "Point",
                "coordinates": [
                    21.80263,
                    52.156980000000004
                ]
            },
            "properties": {
                "isced:level": "1;2",
                "ref:rspo": 263439,
                "official_name": "Szko\u0142a Podstawowa Nr 2 w Mrozach w Zespole Szk\u00f3\u0142 im. Adama Mickiewicza w Mrozach",
                "name": "Szko\u0142a Podstawowa Nr 2 w Mrozach w Zespole Szk\u00f3\u0142",
                "addr:country": "PL",
                "addr:postcode": "05-320",
                "addr:city": "Mrozy",
                "addr:street": "ul. Licealna",
                "addr:housenumber": "3",
                "addr:teryt:simc": 11033,
                "addr:teryt:sym_ul": 682940,
                "contact:phone": "+48 257574194",
                "contact:email": "zespolszkol@mrozy.pl",
                "contact:website": "http:\/\/www.zespolszkol.mrozy.pl",
                "ref:regon": "368190640",
                "operator": "Gmina Mrozy",
                "operator:type": "government",
                "amenity": "school",
                "note": "Parent RSPO: 26982"
            }
        },
        {
            "id": 60929,
            "type": "Feature",
            "geometry": {
                "type": "Point",
                "coordinates": [
                    21.8551,
                    52.15993
                ]
            },
            "properties": {
                "isced:level": "1;2",
                "ref:rspo": 60929,
                "official_name": "Szko\u0142a Podstawowa w Grodzisku im. Bohater\u00f3w Wrze\u015bnia 1939 R.",
                "name": "Szko\u0142a Podstawowa w Grodzisku",
                "addr:country": "PL",
                "addr:postcode": "05-320",
                "addr:city": "Grodzisk",
                "addr:street": "ul. Mazowiecka",
                "addr:housenumber": "86",
                "addr:teryt:simc": 12540,
                "addr:teryt:sym_ul": 682749,
                "contact:phone": "+48 257574127",
                "contact:email": "sekretariat@spgrodzisk.edu.pl",
                "contact:website": "https:\/\/spgrodzisk.edupage.org",
                "ref:regon": "001124810",
                "ref:vatin": "PL8221531349",
                "operator": "Gmina Mrozy",
                "operator:type": "government",
                "amenity": "school"
            }
        },
        {
            "id": 55940,
            "type": "Feature",
            "geometry": {
                "type": "Point",
                "coordinates": [
                    21.79702,
                    52.15998
                ]
            },
            "properties": {
                "ref:rspo": 55940,
                "official_name": "Niepubliczne Przedszkole \"T\u0119czowa Kraina\"",
                "name": "Niepubliczne Przedszkole \"T\u0119czowa Kraina\"",
                "addr:country": "PL",
                "addr:postcode": "05-320",
                "addr:city": "Mrozy",
                "addr:street": "ul. G\u00f3rna",
                "addr:housenumber": "11a",
                "addr:teryt:simc": 5948,
                "addr:teryt:sym_ul": 682940,
                "contact:email": "marlena.serafin@op.pl",
                "ref:regon": "146377119",
                "ref:vatin": "PL8222269184",
                "operator": "Marlena Serafin-Michalik",
                "operator:type": "private",
                "amenity": "kindergarten"
            }
        },
        {
            "id": 70918,
            "type": "Feature",
            "geometry": {
                "type": "Point",
                "coordinates": [
                    21.80437,
                    52.16778
                ]
            },
            "properties": {
                "ref:rspo": 70918,
                "official_name": "Gminne Przedszkole w Mrozach",
                "name": "Gminne Przedszkole w Mrozach",
                "addr:country": "PL",
                "addr:postcode": "05-320",
                "addr:city": "Mrozy",
                "addr:street": "ul. Armii Krajowej",
                "addr:housenumber": "12",
                "addr:teryt:simc": 432,
                "addr:teryt:sym_ul": 682940,
                "contact:phone": "+48 257574114",
                "contact:email": "przedszkolemrozy1@op.pl",
                "contact:website": "http:\/\/przedszkole.mrozy.pl\/",
                "ref:regon": "142666654",
                "ref:vatin": "PL8222326752",
                "operator": "Gmina Mrozy",
                "operator:type": "government",
                "amenity": "kindergarten"
            }
        },
        {
            "id": 61894,
            "type": "Feature",
            "geometry": {
                "type": "Point",
                "coordinates": [
                    21.80662,
                    52.16845
                ]
            },
            "properties": {
                "isced:level": "1;2",
                "ref:rspo": 61894,
                "official_name": "Szko\u0142a Podstawowa Nr 1 im. Romualda Traugutta w Mrozach",
                "name": "Szko\u0142a Podstawowa Nr 1",
                "addr:country": "PL",
                "addr:postcode": "05-320",
                "addr:city": "Mrozy",
                "addr:street": "ul. Szkolna",
                "addr:housenumber": "2",
                "addr:teryt:simc": 21970,
                "addr:teryt:sym_ul": 682940,
                "contact:phone": "+48 257574179",
                "contact:email": "spmrozy@spmrozy.pl",
                "contact:website": "http:\/\/spmrozy.pl\/",
                "ref:regon": "000273436",
                "ref:vatin": "PL8221530410",
                "operator": "Gmina Mrozy",
                "operator:type": "government",
                "amenity": "school"
            }
        },
        {
            "id": 55938,
            "type": "Feature",
            "geometry": {
                "type": "Point",
                "coordinates": [
                    21.80018,
                    52.17149
                ]
            },
            "properties": {
                "ref:rspo": 55938,
                "official_name": "Przedszkole Niepubliczne \"Promyczek\"",
                "name": "Przedszkole Niepubliczne \"Promyczek\"",
                "addr:country": "PL",
                "addr:postcode": "05-320",
                "addr:city": "Mrozy",
                "addr:street": "ul. Willowa",
                "addr:housenumber": "49",
                "addr:teryt:simc": 24317,
                "addr:teryt:sym_ul": 682940,
                "contact:phone": "+48 505940939",
                "contact:email": "malgorzata.ptaszynska@gmail.com",
                "ref:regon": "146379800",
                "ref:vatin": "PL8211212329",
                "operator": "Dariusz Ptaszy\u0144ski",
                "operator:type": "private",
                "amenity": "kindergarten"
            }
        },
        {
            "id": 55939,
            "type": "Feature",
            "geometry": {
                "type": "Point",
                "coordinates": [
                    21.80424,
                    52.17333
                ]
            },
            "properties": {
                "ref:rspo": 55939,
                "official_name": "Niepubliczne Przedszkole Ogrodowe \"Le\u015bne Ludki\"",
                "name": "Niepubliczne Przedszkole Ogrodowe \"Le\u015bne Ludki\"",
                "addr:country": "PL",
                "addr:postcode": "05-320",
                "addr:city": "Wola Paprotnia",
                "addr:street": "ul. Jana Kili\u0144skiego",
                "addr:housenumber": "2",
                "addr:teryt:simc": 8435,
                "addr:teryt:sym_ul": 683080,
                "contact:phone": "+48 508116955",
                "contact:email": "agapolan@gmail.com",
                "ref:regon": "146413648",
                "ref:vatin": "PL8221892509",
                "operator": "Agnieszka Polankiewicz",
                "operator:type": "private",
                "amenity": "kindergarten"
            }
        }
    ]
}