{
    "type": "FeatureCollection",
    "features": [
        {
            "id": 268518,
            "type": "Feature",
            "geometry": {
                "type": "Point",
                "coordinates": [
                    21.2869,
                    52.22736
                ]
            },
            "properties": {
                "ref:rspo": 268518,
                "official_name": "Niepubliczne Przedszkole Gagatek",
                "name": "Niepubliczne Przedszkole Gagatek",
                "addr:country": "PL",
                "addr:postcode": "05-070",
                "addr:city": "Sulej\u00f3wek",
                "addr:street": "ul. Asfaltowa",
                "addr:housenumber": "9b",
                "addr:teryt:simc": 464,
                "addr:teryt:sym_ul": 921668,
                "contact:email": "kontakt@przedszkolegagatek.pl",
                "contact:website": "http:\/\/www.przedszkolegagatek.pl",
                "ref:regon": "381198840",
                "operator": "Katarzyna Gawry\u015b",
                "operator:type": "private",
                "amenity": "kindergarten"
            }
        },
        {
            "id": 87975,
            "type": "Feature",
            "geometry": {
                "type": "Point",
                "coordinates": [
                    21.25379,
                    52.23207
                ]
            },
            "properties": {
                "ref:rspo": 87975,
                "official_name": "Niepubliczne Przedszkole Delfinek",
                "name": "Niepubliczne Przedszkole Delfinek",
                "addr:country": "PL",
                "addr:postcode": "05-070",
                "addr:city": "Sulej\u00f3wek",
                "addr:street": "ul. Drobiarska",
                "addr:housenumber": "56",
                "addr:teryt:simc": 4188,
                "addr:teryt:sym_ul": 921668,
                "contact:phone": "+48 227833639",
                "ref:regon": "146390798",
                "ref:vatin": "PL1132738973",
                "operator": "Fundacja M\u00f3j Dom - Europa",
                "operator:type": "ngo",
                "amenity": "kindergarten"
            }
        },
        {
            "id": 263841,
            "type": "Feature",
            "geometry": {
                "type": "Point",
                "coordinates": [
                    21.25379,
                    52.23204
                ]
            },
            "properties": {
                "ref:rspo": 263841,
                "official_name": "Niepubliczna Poradnia Psychologiczno-Pedagogiczna Fontanna",
                "name": "Niepubliczna Poradnia Psychologiczno-Pedagogiczna Fontanna",
                "addr:country": "PL",
                "addr:postcode": "05-070",
                "addr:city": "Sulej\u00f3wek",
                "addr:street": "ul. Drobiarska",
                "addr:housenumber": "56",
                "addr:teryt:simc": 4188,
                "addr:teryt:sym_ul": 921668,
                "contact:phone": "+48 600284032",
                "contact:email": "poradnia@fontanna.pl",
                "ref:regon": "368230232",
                "operator": "Fundacja M\u00f3j Dom - Europa",
                "operator:type": "ngo",
                "healthcare": "counselling",
                "counselling_type": "education",
                "fixme": "w zale\u017cno\u015bci od przedmiotu dzia\u0142alno\u015bci (np. healthcare=counselling + counselling_type=education albo healthcare=psychotherapist)"
            }
        },
        {
            "id": 123027,
            "type": "Feature",
            "geometry": {
                "type": "Point",
                "coordinates": [
                    21.28887,
                    52.2365
                ]
            },
            "properties": {
                "isced:level": "1;2",
                "ref:rspo": 123027,
                "official_name": "Niepubliczna Szko\u0142a Podstawowa Centrum Edukacyjne",
                "name": "Niepubliczna Szko\u0142a Podstawowa Centrum Edukacyjne",
                "addr:country": "PL",
                "addr:postcode": "05-070",
                "addr:city": "Sulej\u00f3wek",
                "addr:street": "ul. Ja\u015bminowa",
                "addr:housenumber": "7",
                "addr:teryt:simc": 7380,
                "addr:teryt:sym_ul": 921668,
                "contact:phone": "+48 222993232",
                "contact:email": "szkolyedukacyjne@gmail.com",
                "contact:website": "http:\/\/szkolyedukacyjne.pl",
                "ref:regon": "147234362",
                "ref:vatin": "PL8212282036",
                "operator": "Anna Zakrzewska",
                "operator:type": "private",
                "amenity": "school"
            }
        },
        {
            "id": 126054,
            "type": "Feature",
            "geometry": {
                "type": "Point",
                "coordinates": [
                    21.28887,
                    52.23647
                ]
            },
            "properties": {
                "isced:level": "3",
                "ref:rspo": 126054,
                "official_name": "Prywatne Liceum Og\u00f3lnokszta\u0142c\u0105ce Centrum Edukacyjne",
                "name": "Prywatne Liceum Og\u00f3lnokszta\u0142c\u0105ce Centrum Edukacyjne",
                "addr:country": "PL",
                "addr:postcode": "05-070",
                "addr:city": "Sulej\u00f3wek",
                "addr:street": "ul. Ja\u015bminowa",
                "addr:housenumber": "7",
                "addr:teryt:simc": 7380,
                "addr:teryt:sym_ul": 921668,
                "contact:phone": "+48 222993505",
                "contact:email": "szkolyedukacyjne@gmail.com",
                "ref:regon": "360138917",
                "operator": "Anna Zakrzewska",
                "operator:type": "private",
                "amenity": "school"
            }
        },
        {
            "id": 274359,
            "type": "Feature",
            "geometry": {
                "type": "Point",
                "coordinates": [
                    21.28887,
                    52.23644
                ]
            },
            "properties": {
                "ref:rspo": 274359,
                "official_name": "Niepubliczna Poradnia Psychologiczno - Pedagogiczna Lepsze Jutro",
                "name": "Niepubliczna Poradnia Psychologiczno - Pedagogiczna Lepsze Jutro",
                "addr:country": "PL",
                "addr:postcode": "05-070",
                "addr:city": "Sulej\u00f3wek",
                "addr:street": "ul. Ja\u015bminowa",
                "addr:housenumber": "7",
                "addr:teryt:simc": 7380,
                "addr:teryt:sym_ul": 921668,
                "contact:phone": "+48 697997277",
                "ref:regon": "385620514",
                "operator": "Karol Zakrzewski",
                "operator:type": "private",
                "healthcare": "counselling",
                "counselling_type": "education",
                "fixme": "w zale\u017cno\u015bci od przedmiotu dzia\u0142alno\u015bci (np. healthcare=counselling + counselling_type=education albo healthcare=psychotherapist)"
            }
        },
        {
            "id": 68684,
            "type": "Feature",
            "geometry": {
                "type": "Point",
                "coordinates": [
                    21.2699399,
                    52.23942
                ]
            },
            "properties": {
                "ref:rspo": 68684,
                "official_name": "Prywatna Szko\u0142a Muzyczna I St. w Sulej\u00f3wku",
                "name": "Prywatna Szko\u0142a Muzyczna I St. w Sulej\u00f3wku",
                "addr:country": "PL",
                "addr:postcode": "05-070",
                "addr:city": "Sulej\u00f3wek",
                "addr:street": "ul. Krasickiego",
                "addr:housenumber": "59",
                "addr:teryt:simc": 9826,
                "addr:teryt:sym_ul": 921668,
                "contact:phone": "+48 227832659",
                "ref:regon": "146408038",
                "operator": "Gra\u017cyna Szarecka",
                "operator:type": "private",
                "amenity": "music_school"
            }
        },
        {
            "id": 106286,
            "type": "Feature",
            "geometry": {
                "type": "Point",
                "coordinates": [
                    21.2699399,
                    52.23939
                ]
            },
            "properties": {
                "ref:rspo": 106286,
                "official_name": "Prywatna Szko\u0142a Muzyczna II St. w Sulej\u00f3wku",
                "name": "Prywatna Szko\u0142a Muzyczna II St. w Sulej\u00f3wku",
                "addr:country": "PL",
                "addr:postcode": "05-070",
                "addr:city": "Sulej\u00f3wek",
                "addr:street": "ul. Krasickiego",
                "addr:housenumber": "59",
                "addr:teryt:simc": 9826,
                "addr:teryt:sym_ul": 921668,
                "contact:phone": "+48 227832659",
                "ref:regon": "146472020",
                "operator": "Gra\u017cyna Szarecka",
                "operator:type": "private",
                "amenity": "music_school"
            }
        },
        {
            "id": 121627,
            "type": "Feature",
            "geometry": {
                "type": "Point",
                "coordinates": [
                    21.2699399,
                    52.239360000000005
                ]
            },
            "properties": {
                "ref:rspo": 121627,
                "official_name": "Niepubliczna Poradnia Psychologiczno - Pedagogiczna Centrum Edukacyjne",
                "name": "Niepubliczna Poradnia Psychologiczno - Pedagogiczna Centrum Edukacyjne",
                "addr:country": "PL",
                "addr:postcode": "05-070",
                "addr:city": "Sulej\u00f3wek",
                "addr:street": "ul. Krasickiego",
                "addr:housenumber": "59",
                "addr:teryt:simc": 9826,
                "addr:teryt:sym_ul": 921668,
                "contact:phone": "+48 503892171",
                "ref:regon": "147068277",
                "operator": "Anna Zakrzewska",
                "operator:type": "private",
                "healthcare": "counselling",
                "counselling_type": "education",
                "fixme": "w zale\u017cno\u015bci od przedmiotu dzia\u0142alno\u015bci (np. healthcare=counselling + counselling_type=education albo healthcare=psychotherapist)"
            }
        },
        {
            "id": 275893,
            "type": "Feature",
            "geometry": {
                "type": "Point",
                "coordinates": [
                    21.2699399,
                    52.23933
                ]
            },
            "properties": {
                "isced:level": "3",
                "ref:rspo": 275893,
                "official_name": "Prywatne Liceum Og\u00f3lnokszta\u0142c\u0105ce Insygnia",
                "name": "Prywatne Liceum Og\u00f3lnokszta\u0142c\u0105ce Insygnia",
                "addr:country": "PL",
                "addr:postcode": "05-070",
                "addr:city": "Sulej\u00f3wek",
                "addr:street": "ul. Krasickiego",
                "addr:housenumber": "59",
                "addr:teryt:simc": 9826,
                "addr:teryt:sym_ul": 921668,
                "contact:phone": "+48 697997277",
                "contact:email": "szkolyinsygnia@gmail.com",
                "ref:regon": "386949570",
                "operator": "Karol Zakrzewski",
                "operator:type": "private",
                "amenity": "school"
            }
        },
        {
            "id": 276102,
            "type": "Feature",
            "geometry": {
                "type": "Point",
                "coordinates": [
                    21.2699399,
                    52.2393
                ]
            },
            "properties": {
                "isced:level": "1;2",
                "ref:rspo": 276102,
                "official_name": "Prywatna Szko\u0142a Podstawowa Insygnia",
                "name": "Prywatna Szko\u0142a Podstawowa Insygnia",
                "addr:country": "PL",
                "addr:postcode": "05-070",
                "addr:city": "Sulej\u00f3wek",
                "addr:street": "ul. Krasickiego",
                "addr:housenumber": "59",
                "addr:teryt:simc": 9826,
                "addr:teryt:sym_ul": 921668,
                "contact:phone": "+48 697997277",
                "contact:email": "szkolyinsygnia@gmail.com",
                "ref:regon": "386990420",
                "operator": "Karol Zakrzewski",
                "operator:type": "private",
                "amenity": "school"
            }
        },
        {
            "id": 133910,
            "type": "Feature",
            "geometry": {
                "type": "Point",
                "coordinates": [
                    21.30531,
                    52.24294
                ]
            },
            "properties": {
                "isced:level": "1;2",
                "ref:rspo": 133910,
                "official_name": "Szko\u0142a Podstawowa Nr 4 Im Janusza Korczaka",
                "name": "Szko\u0142a Podstawowa Nr 4 Im Janusza Korczaka",
                "addr:country": "PL",
                "addr:postcode": "05-071",
                "addr:city": "Sulej\u00f3wek",
                "addr:street": "ul. Narutowicza",
                "addr:housenumber": "10",
                "addr:teryt:simc": 14015,
                "addr:teryt:sym_ul": 921668,
                "contact:phone": "+48 227835057",
                "contact:email": "sp4sulejowek@gmail.com",
                "contact:website": "http:\/\/www.sp4sulejowek.pl",
                "ref:regon": "367721086",
                "ref:vatin": "PL8222362328",
                "operator": "Miasto Sulej\u00f3wek",
                "operator:type": "government",
                "amenity": "school"
            }
        },
        {
            "id": 39751,
            "type": "Feature",
            "geometry": {
                "type": "Point",
                "coordinates": [
                    21.26473,
                    52.24385
                ]
            },
            "properties": {
                "ref:rspo": 39751,
                "official_name": "Poradnia Psychologiczno-Pedagogiczna",
                "name": "Poradnia Psychologiczno-Pedagogiczna",
                "addr:country": "PL",
                "addr:postcode": "05-070",
                "addr:city": "Sulej\u00f3wek",
                "addr:street": "ul. Idzikowskiego",
                "addr:housenumber": "7b",
                "addr:teryt:simc": 6850,
                "addr:teryt:sym_ul": 921668,
                "contact:phone": "+48 227839771",
                "contact:email": "poradnia@poradniapsych.pl",
                "contact:website": "http:\/\/www.poradniapsych.pl",
                "ref:regon": "711665108",
                "ref:vatin": "PL9521275862",
                "operator": "Powiat Mi\u0144ski",
                "operator:type": "government",
                "healthcare": "counselling",
                "counselling_type": "education",
                "fixme": "w zale\u017cno\u015bci od przedmiotu dzia\u0142alno\u015bci (np. healthcare=counselling + counselling_type=education albo healthcare=psychotherapist)"
            }
        },
        {
            "id": 119011,
            "type": "Feature",
            "geometry": {
                "type": "Point",
                "coordinates": [
                    21.27544,
                    52.24411
                ]
            },
            "properties": {
                "isced:level": "1;2",
                "ref:rspo": 119011,
                "official_name": "Prywatna Szko\u0142a Podstawowa im. Rodziny Moraczewskich",
                "name": "Prywatna Szko\u0142a Podstawowa",
                "addr:country": "PL",
                "addr:postcode": "05-070",
                "addr:city": "Sulej\u00f3wek",
                "addr:street": "ul. Paderewskiego",
                "addr:housenumber": "29",
                "addr:teryt:simc": 15524,
                "addr:teryt:sym_ul": 921668,
                "contact:phone": "+48 227833020",
                "contact:email": "prywatneszkoly@rodzinymoraczewskich.edu.pl",
                "contact:website": "http:\/\/www.rodzinymoraczewskich.edu.pl",
                "ref:regon": "146831506",
                "ref:vatin": "PL8222343294",
                "operator": "Mga Consulting Sp\u00f3\u0142ka Z Ograniczon\u0105 Odpowiedzialno\u015bci\u0105",
                "operator:type": "private",
                "amenity": "school"
            }
        },
        {
            "id": 130879,
            "type": "Feature",
            "geometry": {
                "type": "Point",
                "coordinates": [
                    21.27544,
                    52.24408
                ]
            },
            "properties": {
                "ref:rspo": 130879,
                "official_name": "Zesp\u00f3\u0142 Szk\u00f3\u0142 Ponadpodstawowych",
                "name": "Zesp\u00f3\u0142 Szk\u00f3\u0142 Ponadpodstawowych",
                "addr:country": "PL",
                "addr:postcode": "05-070",
                "addr:city": "Sulej\u00f3wek",
                "addr:street": "ul. Paderewskiego",
                "addr:housenumber": "29",
                "addr:teryt:simc": 15524,
                "addr:teryt:sym_ul": 921668,
                "contact:phone": "+48 227831459",
                "contact:email": "losulejowek@wp.pl",
                "contact:website": "http:\/\/www.paderewski.edu.pl",
                "ref:regon": "011179832",
                "ref:vatin": "PL9521241805",
                "operator": "Miasto Sulej\u00f3wek",
                "operator:type": "government",
                "landuse": "education",
                "fixme": "amenity=school, amenity=college albo landuse=education w zale\u017cno\u015bci od tego, jakie plac\u00f3wki wchodz\u0105 w sk\u0142ad zespo\u0142u. Sprawd\u017a, kiedy stosowa\u0107 amenity=* a kiedy landuse=education.",
                "note": "Children RSPO: 89964;89995;90004;90011;113647"
            }
        },
        {
            "id": 89964,
            "type": "Feature",
            "geometry": {
                "type": "Point",
                "coordinates": [
                    21.27544,
                    52.24405
                ]
            },
            "properties": {
                "isced:level": "3",
                "ref:rspo": 89964,
                "official_name": "Liceum Og\u00f3lnokszta\u0142c\u0105ce im. Ignacego Jana Paderewskiego",
                "name": "Liceum Og\u00f3lnokszta\u0142c\u0105ce",
                "addr:country": "PL",
                "addr:postcode": "05-070",
                "addr:city": "Sulej\u00f3wek",
                "addr:street": "ul. Paderewskiego",
                "addr:housenumber": "29",
                "addr:teryt:simc": 15524,
                "addr:teryt:sym_ul": 921668,
                "contact:phone": "+48 227831459",
                "contact:email": "losulejowek@wp.pl",
                "ref:regon": "015226333",
                "ref:vatin": "PL8222272140",
                "operator": "Miasto Sulej\u00f3wek",
                "operator:type": "government",
                "amenity": "school",
                "note": "Parent RSPO: 130879"
            }
        },
        {
            "id": 89995,
            "type": "Feature",
            "geometry": {
                "type": "Point",
                "coordinates": [
                    21.27544,
                    52.24402
                ]
            },
            "properties": {
                "isced:level": "3",
                "ref:rspo": 89995,
                "official_name": "Bran\u017cowa Szko\u0142a I Stopnia",
                "name": "Bran\u017cowa Szko\u0142a I Stopnia",
                "addr:country": "PL",
                "addr:postcode": "05-070",
                "addr:city": "Sulej\u00f3wek",
                "addr:street": "ul. Paderewskiego",
                "addr:housenumber": "29",
                "addr:teryt:simc": 15524,
                "addr:teryt:sym_ul": 921668,
                "contact:phone": "+48 227831459",
                "contact:email": "losulejowek@wp.pl",
                "ref:regon": "141559241",
                "ref:vatin": "PL8222272128",
                "operator": "Miasto Sulej\u00f3wek",
                "operator:type": "government",
                "amenity": "school",
                "note": "Parent RSPO: 130879"
            }
        },
        {
            "id": 90004,
            "type": "Feature",
            "geometry": {
                "type": "Point",
                "coordinates": [
                    21.27544,
                    52.24399
                ]
            },
            "properties": {
                "isced:level": "3",
                "ref:rspo": 90004,
                "official_name": "Liceum Og\u00f3lnokszta\u0142c\u0105ce dla Doros\u0142ych",
                "name": "Liceum Og\u00f3lnokszta\u0142c\u0105ce dla Doros\u0142ych",
                "addr:country": "PL",
                "addr:postcode": "05-070",
                "addr:city": "Sulej\u00f3wek",
                "addr:street": "ul. Paderewskiego",
                "addr:housenumber": "29",
                "addr:teryt:simc": 15524,
                "addr:teryt:sym_ul": 921668,
                "contact:phone": "+48 227831459",
                "contact:email": "losulejowek@wp.pl",
                "ref:regon": "712576743",
                "ref:vatin": "PL8222142992",
                "operator": "Miasto Sulej\u00f3wek",
                "operator:type": "government",
                "amenity": "school",
                "note": "Parent RSPO: 130879"
            }
        },
        {
            "id": 90011,
            "type": "Feature",
            "geometry": {
                "type": "Point",
                "coordinates": [
                    21.27544,
                    52.24396
                ]
            },
            "properties": {
                "isced:level": "4",
                "ref:rspo": 90011,
                "official_name": "Szko\u0142a Policealna",
                "name": "Szko\u0142a Policealna",
                "addr:country": "PL",
                "addr:postcode": "05-070",
                "addr:city": "Sulej\u00f3wek",
                "addr:street": "ul. Paderewskiego",
                "addr:housenumber": "29",
                "addr:teryt:simc": 15524,
                "addr:teryt:sym_ul": 921668,
                "contact:phone": "+48 227831459",
                "contact:email": "losulejowek@wp.pl",
                "ref:regon": "141559270",
                "ref:vatin": "PL8222272111",
                "operator": "Miasto Sulej\u00f3wek",
                "operator:type": "government",
                "amenity": "college",
                "note": "Parent RSPO: 130879"
            }
        },
        {
            "id": 113647,
            "type": "Feature",
            "geometry": {
                "type": "Point",
                "coordinates": [
                    21.27544,
                    52.24393
                ]
            },
            "properties": {
                "isced:level": "3",
                "ref:rspo": 113647,
                "official_name": "Technikum Reklamy I Handlu",
                "name": "Technikum Reklamy I Handlu",
                "addr:country": "PL",
                "addr:postcode": "05-070",
                "addr:city": "Sulej\u00f3wek",
                "addr:street": "ul. Paderewskiego",
                "addr:housenumber": "29",
                "addr:teryt:simc": 15524,
                "addr:teryt:sym_ul": 921668,
                "contact:phone": "+48 227831459",
                "contact:email": "losulejowek@wp.pl",
                "ref:regon": "146625586",
                "operator": "Miasto Sulej\u00f3wek",
                "operator:type": "government",
                "amenity": "school",
                "note": "Parent RSPO: 130879"
            }
        },
        {
            "id": 87969,
            "type": "Feature",
            "geometry": {
                "type": "Point",
                "coordinates": [
                    21.30371,
                    52.24418
                ]
            },
            "properties": {
                "isced:level": "1;2",
                "ref:rspo": 87969,
                "official_name": "Szko\u0142a Podstawowa Nr 3 im.marsza\u0142ka J\u00f3zefa Pi\u0142sudskiego",
                "name": "Szko\u0142a Podstawowa Nr 3 im.marsza\u0142ka J\u00f3zefa Pi\u0142sudskiego",
                "addr:country": "PL",
                "addr:postcode": "05-071",
                "addr:city": "Sulej\u00f3wek",
                "addr:street": "ul. G\u0142owackiego",
                "addr:housenumber": "47",
                "addr:teryt:simc": 5623,
                "addr:teryt:sym_ul": 921668,
                "contact:phone": "+48 227835019",
                "contact:email": "sekretariat@sp3sulejowek.pl",
                "contact:website": "http:\/\/www.sp3sulejowek.edupage.org",
                "ref:regon": "011179803",
                "ref:vatin": "PL9521397045",
                "operator": "Miasto Sulej\u00f3wek",
                "operator:type": "government",
                "amenity": "school"
            }
        },
        {
            "id": 87971,
            "type": "Feature",
            "geometry": {
                "type": "Point",
                "coordinates": [
                    21.27267,
                    52.24426
                ]
            },
            "properties": {
                "isced:level": "1;2",
                "ref:rspo": 87971,
                "official_name": "Prywatna Szko\u0142a Podstawowa im. Zofii I J\u0119drzeja Moraczewskich",
                "name": "Prywatna Szko\u0142a Podstawowa",
                "addr:country": "PL",
                "addr:postcode": "05-070",
                "addr:city": "Sulej\u00f3wek",
                "addr:street": "ul. \u017beromskiego",
                "addr:housenumber": "18",
                "addr:teryt:simc": 26464,
                "addr:teryt:sym_ul": 921668,
                "contact:phone": "+48 227832659",
                "ref:regon": "146390485",
                "ref:vatin": "PL5631318091",
                "operator": "Artur Abramowicz",
                "operator:type": "private",
                "amenity": "school"
            }
        },
        {
            "id": 90047,
            "type": "Feature",
            "geometry": {
                "type": "Point",
                "coordinates": [
                    21.2682499,
                    52.2443
                ]
            },
            "properties": {
                "isced:level": "1;2",
                "ref:rspo": 90047,
                "official_name": "Szko\u0142a Podstawowa Nr 1 Im Pierwszego Marsza\u0142ka Polski J\u00f3zefa Pi\u0142sudskiego",
                "name": "Szko\u0142a Podstawowa Nr 1 Im Pierwszego Marsza\u0142ka Polski J\u00f3zefa Pi\u0142sudskiego",
                "addr:country": "PL",
                "addr:postcode": "05-070",
                "addr:city": "Sulej\u00f3wek",
                "addr:street": "ul. Idzikowskiego",
                "addr:housenumber": "2a",
                "addr:teryt:simc": 6850,
                "addr:teryt:sym_ul": 921668,
                "contact:phone": "+48 227833558",
                "contact:email": "sulzs1@wp.pl",
                "contact:website": "http:\/\/www.sulsp1.pl",
                "ref:regon": "011179772",
                "ref:vatin": "PL8221899322",
                "operator": "Miasto Sulej\u00f3wek",
                "operator:type": "government",
                "amenity": "school"
            }
        },
        {
            "id": 87981,
            "type": "Feature",
            "geometry": {
                "type": "Point",
                "coordinates": [
                    21.30117,
                    52.24526
                ]
            },
            "properties": {
                "ref:rspo": 87981,
                "official_name": "Niepubliczne Przedszkole Ole\u0144ka",
                "name": "Niepubliczne Przedszkole Ole\u0144ka",
                "addr:country": "PL",
                "addr:postcode": "05-071",
                "addr:city": "Sulej\u00f3wek",
                "addr:street": "ul. Armii Krajowej",
                "addr:housenumber": "34",
                "addr:teryt:simc": 432,
                "addr:teryt:sym_ul": 921668,
                "contact:phone": "+48 695343635",
                "contact:email": "przedszkole.olenka@gmail.com",
                "ref:regon": "146390982",
                "ref:vatin": "PL7392538955",
                "operator": "Julita Kwapis",
                "operator:type": "private",
                "amenity": "kindergarten"
            }
        },
        {
            "id": 277319,
            "type": "Feature",
            "geometry": {
                "type": "Point",
                "coordinates": [
                    21.30117,
                    52.24523
                ]
            },
            "properties": {
                "ref:rspo": 277319,
                "official_name": "Niepubliczna Poradnia Psychologiczno - Pedagogiczna \"Ole\u0144ka\"",
                "name": "Niepubliczna Poradnia Psychologiczno - Pedagogiczna \"Ole\u0144ka\"",
                "addr:country": "PL",
                "addr:postcode": "05-071",
                "addr:city": "Sulej\u00f3wek",
                "addr:street": "ul. Armii Krajowej",
                "addr:housenumber": "34",
                "addr:teryt:simc": 432,
                "addr:teryt:sym_ul": 921668,
                "contact:phone": "+48 695343635",
                "contact:email": "jchrzast@interia.eu",
                "ref:regon": "388618452",
                "operator": "Julita Kwapis",
                "operator:type": "private",
                "healthcare": "counselling",
                "counselling_type": "education",
                "fixme": "w zale\u017cno\u015bci od przedmiotu dzia\u0142alno\u015bci (np. healthcare=counselling + counselling_type=education albo healthcare=psychotherapist)"
            }
        },
        {
            "id": 87973,
            "type": "Feature",
            "geometry": {
                "type": "Point",
                "coordinates": [
                    21.27107,
                    52.24557
                ]
            },
            "properties": {
                "ref:rspo": 87973,
                "official_name": "Miejskie Przedszkole Nr 1",
                "name": "Miejskie Przedszkole Nr 1",
                "addr:country": "PL",
                "addr:postcode": "05-070",
                "addr:city": "Sulej\u00f3wek",
                "addr:street": "ul. Paderewskiego",
                "addr:housenumber": "47",
                "addr:teryt:simc": 15524,
                "addr:teryt:sym_ul": 921668,
                "contact:phone": "+48 227831043",
                "ref:regon": "011179737",
                "ref:vatin": "PL9521174121",
                "operator": "Miasto Sulej\u00f3wek",
                "operator:type": "government",
                "amenity": "kindergarten"
            }
        },
        {
            "id": 82674,
            "type": "Feature",
            "geometry": {
                "type": "Point",
                "coordinates": [
                    21.29575,
                    52.24565
                ]
            },
            "properties": {
                "isced:level": "1;2",
                "ref:rspo": 82674,
                "official_name": "Spo\u0142eczna Szko\u0142a Podstawowa Specjalna - Otwartych Serc",
                "name": "Spo\u0142eczna Szko\u0142a Podstawowa Specjalna - Otwartych Serc",
                "addr:country": "PL",
                "addr:postcode": "05-071",
                "addr:city": "Sulej\u00f3wek",
                "addr:street": "ul. 3 Maja",
                "addr:housenumber": "36",
                "addr:teryt:simc": 11937,
                "addr:teryt:sym_ul": 921668,
                "contact:phone": "+48 227835021",
                "contact:email": "szkola@fundacjaotwartychserc.pl",
                "contact:website": "http:\/\/www.fundacjaotwartychserc.pl",
                "ref:regon": "146414317",
                "ref:vatin": "PL9521743168",
                "operator": "Fundacja \"Otwartych Serc\"",
                "operator:type": "ngo",
                "amenity": "school"
            }
        },
        {
            "id": 272878,
            "type": "Feature",
            "geometry": {
                "type": "Point",
                "coordinates": [
                    21.29575,
                    52.245619999999995
                ]
            },
            "properties": {
                "ref:rspo": 272878,
                "official_name": "Spo\u0142eczna Szko\u0142a Specjalna Przysposabiaj\u0105ca Do Pracy ,,Otwartych Serc''",
                "name": "Spo\u0142eczna Szko\u0142a Specjalna Przysposabiaj\u0105ca Do Pracy ,,Otwartych Serc''",
                "addr:country": "PL",
                "addr:postcode": "05-071",
                "addr:city": "Sulej\u00f3wek",
                "addr:street": "ul. 3 Maja",
                "addr:housenumber": "36",
                "addr:teryt:simc": 11937,
                "addr:teryt:sym_ul": 921668,
                "contact:phone": "+48 227835021",
                "contact:email": "szkola@fundacjaotwartychserc.pl",
                "contact:website": "http:\/\/www.fundacjaotwartychserc.pl",
                "ref:regon": "384308068",
                "operator": "Fundacja \"Otwartych Serc\"",
                "operator:type": "ngo",
                "amenity": "school"
            }
        },
        {
            "id": 268308,
            "type": "Feature",
            "geometry": {
                "type": "Point",
                "coordinates": [
                    21.26902,
                    52.24579
                ]
            },
            "properties": {
                "isced:level": "1;2",
                "ref:rspo": 268308,
                "official_name": "Szko\u0142a Podstawowa Benedykta w Sulej\u00f3wku",
                "name": "Szko\u0142a Podstawowa Benedykta w Sulej\u00f3wku",
                "addr:country": "PL",
                "addr:postcode": "05-071",
                "addr:city": "Sulej\u00f3wek",
                "addr:street": "ul. Krasickiego",
                "addr:housenumber": "16",
                "addr:teryt:simc": 9826,
                "addr:teryt:sym_ul": 921668,
                "contact:email": "podstawowa@szkolybenedykta.pl",
                "contact:website": "http:\/\/szkolybenedykta.pl\/",
                "ref:regon": "381092047",
                "operator": "Instytut M Jak M\u0142odzie\u017c",
                "operator:type": "ngo",
                "amenity": "school"
            }
        },
        {
            "id": 268421,
            "type": "Feature",
            "geometry": {
                "type": "Point",
                "coordinates": [
                    21.26902,
                    52.24576
                ]
            },
            "properties": {
                "isced:level": "3",
                "ref:rspo": 268421,
                "official_name": "Liceum Og\u00f3lnokszta\u0142c\u0105ce Benedykta w Sulej\u00f3wku",
                "name": "Liceum Og\u00f3lnokszta\u0142c\u0105ce Benedykta w Sulej\u00f3wku",
                "addr:country": "PL",
                "addr:postcode": "05-070",
                "addr:city": "Sulej\u00f3wek",
                "addr:street": "ul. Krasickiego",
                "addr:housenumber": "16",
                "addr:teryt:simc": 9826,
                "addr:teryt:sym_ul": 921668,
                "contact:phone": "+48 790306402",
                "contact:email": "teresamoskal@o2.pl",
                "contact:website": "http:\/\/www.szkolybenedykta.pl",
                "ref:regon": "381157746",
                "operator": "Instytut M Jak M\u0142odzie\u017c",
                "operator:type": "ngo",
                "amenity": "school"
            }
        },
        {
            "id": 87974,
            "type": "Feature",
            "geometry": {
                "type": "Point",
                "coordinates": [
                    21.29455,
                    52.2484899
                ]
            },
            "properties": {
                "ref:rspo": 87974,
                "official_name": "Miejskie Przedszkole Nr2",
                "name": "Miejskie Przedszkole Nr2",
                "addr:country": "PL",
                "addr:postcode": "05-071",
                "addr:city": "Sulej\u00f3wek",
                "addr:street": "ul. Szosowa",
                "addr:housenumber": "7",
                "addr:teryt:simc": 22050,
                "addr:teryt:sym_ul": 921668,
                "contact:phone": "+48 227835024",
                "ref:regon": "011179766",
                "ref:vatin": "PL9521097082",
                "operator": "Miasto Sulej\u00f3wek",
                "operator:type": "government",
                "amenity": "kindergarten"
            }
        },
        {
            "id": 57362,
            "type": "Feature",
            "geometry": {
                "type": "Point",
                "coordinates": [
                    21.30283,
                    52.25066
                ]
            },
            "properties": {
                "ref:rspo": 57362,
                "official_name": ",,Strzelanie.pl\"",
                "name": ",,Strzelanie.pl\"",
                "addr:country": "PL",
                "addr:postcode": "05-071",
                "addr:city": "Sulej\u00f3wek",
                "addr:street": "ul. Armii Krajowej",
                "addr:housenumber": "77",
                "addr:teryt:simc": 432,
                "addr:teryt:sym_ul": 921668,
                "contact:phone": "+48 600400000",
                "contact:email": "grisza@4mind.pl",
                "ref:regon": "146381865",
                "operator": "Grzegorz Ba\u0142ysz",
                "operator:type": "private",
                "fixme": "w zale\u017cno\u015bci od przedmiotu dzia\u0142alno\u015bci (np. amenity=training + training=*, amenity=dancing_school, amenity=language_school, amenity=music_school)"
            }
        },
        {
            "id": 130455,
            "type": "Feature",
            "geometry": {
                "type": "Point",
                "coordinates": [
                    21.26642,
                    52.25176
                ]
            },
            "properties": {
                "ref:rspo": 130455,
                "official_name": "Przedszkole Niepubliczne \"Koci \u0141apci\"",
                "name": "Przedszkole Niepubliczne \"Koci \u0141apci\"",
                "addr:country": "PL",
                "addr:postcode": "05-070",
                "addr:city": "Sulej\u00f3wek",
                "addr:street": "ul. Krucza",
                "addr:housenumber": "4",
                "addr:teryt:simc": 10013,
                "addr:teryt:sym_ul": 921668,
                "contact:phone": "+48 513338007",
                "contact:email": "kontakt@przedszkole-kocilapci.pl",
                "ref:regon": "364053968",
                "ref:vatin": "PL9521875912",
                "operator": "Dominika K\u0142osi\u0144ska",
                "operator:type": "private",
                "amenity": "kindergarten"
            }
        },
        {
            "id": 90025,
            "type": "Feature",
            "geometry": {
                "type": "Point",
                "coordinates": [
                    21.2777,
                    52.25231
                ]
            },
            "properties": {
                "isced:level": "1;2",
                "ref:rspo": 90025,
                "official_name": "Szko\u0142a Podstawowa Nr 2 Z Oddzia\u0142ami Integracyjnymi",
                "name": "Szko\u0142a Podstawowa Nr 2 Z Oddzia\u0142ami Integracyjnymi",
                "addr:country": "PL",
                "addr:postcode": "05-070",
                "addr:city": "Sulej\u00f3wek",
                "addr:street": "ul. Okuniewska",
                "addr:housenumber": "2",
                "addr:teryt:simc": 14933,
                "addr:teryt:sym_ul": 921668,
                "contact:phone": "+48 227831197",
                "contact:email": "sp2sulejowek@op.pl",
                "contact:website": "http:\/\/sp2sulejowek.pl",
                "ref:regon": "011179789",
                "ref:vatin": "PL8222207102",
                "operator": "Miasto Sulej\u00f3wek",
                "operator:type": "government",
                "amenity": "school"
            }
        },
        {
            "id": 87978,
            "type": "Feature",
            "geometry": {
                "type": "Point",
                "coordinates": [
                    21.30154,
                    52.25373
                ]
            },
            "properties": {
                "ref:rspo": 87978,
                "official_name": "Niepubliczne Przedszkole Przytulanka",
                "name": "Niepubliczne Przedszkole Przytulanka",
                "addr:country": "PL",
                "addr:postcode": "05-070",
                "addr:city": "Sulej\u00f3wek",
                "addr:street": "ul. Kolbego",
                "addr:housenumber": "10b",
                "addr:teryt:simc": 8802,
                "addr:teryt:sym_ul": 921668,
                "contact:phone": "+48 506121072",
                "contact:email": "agatabal64@gmail.com",
                "ref:regon": "146390841",
                "ref:vatin": "PL9521459651",
                "operator": "Agata Bal",
                "operator:type": "private",
                "amenity": "kindergarten"
            }
        }
    ]
}