{
    "type": "FeatureCollection",
    "features": [
        {
            "id": 31599,
            "type": "Feature",
            "geometry": {
                "type": "Point",
                "coordinates": [
                    21.3693098,
                    52.0110307
                ]
            },
            "properties": {
                "isced:level": "1;2",
                "ref:rspo": 31599,
                "official_name": "Publiczna Szko\u0142a Podstawowa Stowarzyszenia Rozwoju Wsi Podbiel",
                "name": "Publiczna Szko\u0142a Podstawowa Stowarzyszenia Rozwoju Wsi Podbiel",
                "addr:postcode": "05-430",
                "addr:place": "Podbiel",
                "addr:housenumber": "87",
                "addr:teryt:simc": 980,
                "phone": "+48 227897002",
                "email": "podbiel@wp.pl",
                "ref:regon": "146350540",
                "operator": "Stowarzyszenie Rozwoju Wsi Podbiel",
                "operator:type": "ngo",
                "amenity": "school"
            }
        },
        {
            "id": 28020,
            "type": "Feature",
            "geometry": {
                "type": "Point",
                "coordinates": [
                    21.3784706,
                    52.0376289
                ]
            },
            "properties": {
                "isced:level": "1;2",
                "ref:rspo": 28020,
                "official_name": "Szko\u0142a Podstawowa w Regucie",
                "name": "Szko\u0142a Podstawowa w Regucie",
                "addr:postcode": "05-430",
                "addr:city": "Regut",
                "addr:street": "Wiatraczna",
                "addr:housenumber": "13",
                "addr:teryt:simc": 1063,
                "addr:teryt:sym_ul": 23972,
                "phone": "+48 227897049",
                "email": "spregut@celestynow.pl",
                "ref:regon": "001327298",
                "operator": "Gmina Celestyn\u00f3w",
                "operator:type": "government",
                "amenity": "school"
            }
        },
        {
            "id": 31464,
            "type": "Feature",
            "geometry": {
                "type": "Point",
                "coordinates": [
                    21.3784706,
                    52.0375989
                ]
            },
            "properties": {
                "ref:rspo": 31464,
                "official_name": "Punkt Przedszkolny w Regucie",
                "name": "Punkt Przedszkolny w Regucie",
                "addr:postcode": "05-430",
                "addr:city": "Regut",
                "addr:street": "Wiatraczna",
                "addr:housenumber": "13",
                "addr:teryt:simc": 1063,
                "addr:teryt:sym_ul": 23972,
                "phone": "+48 227897049",
                "email": "spregut@celestynow.pl",
                "ref:regon": "146350712",
                "operator": "Gmina Celestyn\u00f3w",
                "operator:type": "government",
                "amenity": "kindergarten"
            }
        },
        {
            "id": 120407,
            "type": "Feature",
            "geometry": {
                "type": "Point",
                "coordinates": [
                    21.3893269,
                    52.056891
                ]
            },
            "properties": {
                "ref:rspo": 120407,
                "official_name": "Niepubliczny Punkt Przedszkolny \"Kubu\u015b\"",
                "name": "Niepubliczny Punkt Przedszkolny \"Kubu\u015b\"",
                "addr:postcode": "05-430",
                "addr:city": "Celestyn\u00f3w",
                "addr:street": "Miodowa",
                "addr:housenumber": "5",
                "addr:teryt:simc": 780,
                "addr:teryt:sym_ul": 12991,
                "phone": "+48 227897137",
                "email": "biuro.przedszkolekubus@gmail.com",
                "ref:regon": "146899792",
                "operator": "Bogdan Krupa",
                "operator:type": "private",
                "amenity": "kindergarten"
            }
        },
        {
            "id": 30396,
            "type": "Feature",
            "geometry": {
                "type": "Point",
                "coordinates": [
                    21.382488,
                    52.0582269
                ]
            },
            "properties": {
                "isced:level": "1;2",
                "ref:rspo": 30396,
                "official_name": "Szko\u0142a Podstawowa w Celestynowie",
                "name": "Szko\u0142a Podstawowa w Celestynowie",
                "addr:postcode": "05-430",
                "addr:city": "Celestyn\u00f3w",
                "addr:street": "Wrzosowa",
                "addr:housenumber": "42",
                "addr:teryt:simc": 780,
                "addr:teryt:sym_ul": 24870,
                "phone": "+48 227897022",
                "email": "spcelestynow@celestynow.pl",
                "ref:regon": "000266264",
                "operator": "Gmina Celestyn\u00f3w",
                "operator:type": "government",
                "amenity": "school"
            }
        },
        {
            "id": 30474,
            "type": "Feature",
            "geometry": {
                "type": "Point",
                "coordinates": [
                    21.3776926,
                    52.0601968
                ]
            },
            "properties": {
                "ref:rspo": 30474,
                "official_name": "Przedszkole Samorz\u0105dowe w Celestynowie",
                "name": "Przedszkole Samorz\u0105dowe w Celestynowie",
                "addr:postcode": "05-430",
                "addr:city": "Celestyn\u00f3w",
                "addr:street": "Szkolna",
                "addr:housenumber": "2",
                "addr:teryt:simc": 780,
                "addr:teryt:sym_ul": 21970,
                "phone": "+48 227897039",
                "email": "celestynowprzedszkole@o2.pl",
                "ref:regon": "013000636",
                "ref:vatin": "PL5321733803",
                "operator": "Gmina Celestyn\u00f3w",
                "operator:type": "government",
                "amenity": "kindergarten"
            }
        },
        {
            "id": 120406,
            "type": "Feature",
            "geometry": {
                "type": "Point",
                "coordinates": [
                    21.3766623,
                    52.0604795
                ]
            },
            "properties": {
                "ref:rspo": 120406,
                "official_name": "Niepubliczny Punkt Przedszkolny \"Le\u015bne Skrzaty\"",
                "name": "Niepubliczny Punkt Przedszkolny \"Le\u015bne Skrzaty\"",
                "addr:postcode": "05-430",
                "addr:place": "Dyzin",
                "addr:housenumber": "7",
                "addr:teryt:simc": 862,
                "phone": "+48 508104205",
                "ref:regon": "146899763",
                "operator": "Barbara Regulska",
                "operator:type": "private",
                "amenity": "kindergarten"
            }
        },
        {
            "id": 126701,
            "type": "Feature",
            "geometry": {
                "type": "Point",
                "coordinates": [
                    21.390252,
                    52.0822609
                ]
            },
            "properties": {
                "ref:rspo": 126701,
                "official_name": "Niepubliczne Przedszkole \"Le\u015bne Skrzaty\"",
                "name": "Niepubliczne Przedszkole \"Le\u015bne Skrzaty\"",
                "addr:postcode": "05-430",
                "addr:place": "Dyzin",
                "addr:housenumber": "15 i",
                "addr:teryt:simc": 862,
                "phone": "+48 508104205",
                "email": "mitares@mitares.pl",
                "ref:regon": "360631457",
                "operator": "Barbara Regulska",
                "operator:type": "private",
                "amenity": "kindergarten"
            }
        },
        {
            "id": 28493,
            "type": "Feature",
            "geometry": {
                "type": "Point",
                "coordinates": [
                    21.357191,
                    52.0829509
                ]
            },
            "properties": {
                "ref:rspo": 28493,
                "official_name": "Przedszkole Samorz\u0105dowe w Starej Wsi",
                "name": "Przedszkole Samorz\u0105dowe w Starej Wsi",
                "addr:postcode": "05-430",
                "addr:city": "Stara Wie\u015b",
                "addr:street": "Adama Mickiewicza",
                "addr:housenumber": "1",
                "addr:teryt:simc": 1070,
                "addr:teryt:sym_ul": 12734,
                "phone": "+48 227897480",
                "email": "spstarawies@celestynow.pl",
                "ref:regon": "013000642",
                "operator": "Gmina Celestyn\u00f3w",
                "operator:type": "government",
                "amenity": "kindergarten",
                "note": "Parent RSPO: 196300"
            }
        },
        {
            "id": 196300,
            "type": "Feature",
            "geometry": {
                "type": "Point",
                "coordinates": [
                    21.3572373,
                    52.0835246
                ]
            },
            "properties": {
                "ref:rspo": 196300,
                "official_name": "Zesp\u00f3\u0142 Szkolno-Przedszkolny w Starej Wsi",
                "name": "Zesp\u00f3\u0142 Szkolno-Przedszkolny w Starej Wsi",
                "addr:postcode": "05-430",
                "addr:city": "Stara Wie\u015b",
                "addr:street": "Fabryczna",
                "addr:housenumber": "6",
                "addr:teryt:simc": 1070,
                "addr:teryt:sym_ul": 4863,
                "phone": "+48 227897046",
                "email": "spstarawies@celestynow.pl",
                "ref:regon": "367991472",
                "operator": "Gmina Celestyn\u00f3w",
                "operator:type": "government",
                "landuse": "education",
                "fixme": "amenity=school, amenity=college albo landuse=education w zale\u017cno\u015bci od tego, jakie plac\u00f3wki wchodz\u0105 w sk\u0142ad zespo\u0142u. Sprawd\u017a, kiedy stosowa\u0107 amenity=* a kiedy landuse=education.",
                "note": "Children RSPO: 28037;28493"
            }
        },
        {
            "id": 28037,
            "type": "Feature",
            "geometry": {
                "type": "Point",
                "coordinates": [
                    21.3572373,
                    52.083494599999995
                ]
            },
            "properties": {
                "isced:level": "1;2",
                "ref:rspo": 28037,
                "official_name": "Szko\u0142a Podstawowa w Starej Wsi",
                "name": "Szko\u0142a Podstawowa w Starej Wsi",
                "addr:postcode": "05-430",
                "addr:city": "Stara Wie\u015b",
                "addr:street": "Fabryczna",
                "addr:housenumber": "6",
                "addr:teryt:simc": 1070,
                "addr:teryt:sym_ul": 4863,
                "phone": "+48 227897046",
                "email": "spstarawies@celestynow.pl",
                "ref:regon": "001146711",
                "operator": "Gmina Celestyn\u00f3w",
                "operator:type": "government",
                "amenity": "school",
                "note": "Parent RSPO: 196300"
            }
        },
        {
            "id": 27983,
            "type": "Feature",
            "geometry": {
                "type": "Point",
                "coordinates": [
                    21.257917,
                    52.12329
                ]
            },
            "properties": {
                "isced:level": "1;2",
                "ref:rspo": 27983,
                "official_name": "Szko\u0142a Podstawowa im. Miko\u0142aja Kopernika w Ostrowie",
                "name": "Szko\u0142a Podstawowa",
                "addr:postcode": "05-430",
                "addr:place": "Ostr\u00f3w",
                "addr:housenumber": "15",
                "addr:teryt:simc": 974,
                "phone": "+48 227897107",
                "email": "spostrow@celestynow.pl",
                "website": "http:\/\/www.spostrow.szkolnastrona.pl",
                "ref:regon": "001147225",
                "operator": "Gmina Celestyn\u00f3w",
                "operator:type": "government",
                "amenity": "school"
            }
        }
    ]
}