{
    "type": "FeatureCollection",
    "features": [
        {
            "id": 268942,
            "type": "Feature",
            "geometry": {
                "type": "Point",
                "coordinates": [
                    21.19969,
                    52.12527
                ]
            },
            "properties": {
                "ref:rspo": 268942,
                "official_name": "Fundament Niepubliczne Przedszkole Montessori",
                "name": "Fundament Niepubliczne Przedszkole Montessori",
                "addr:postcode": "05-420",
                "addr:city": "J\u00f3zef\u00f3w",
                "addr:street": "Nadwi\u015bla\u0144ska",
                "addr:housenumber": "137",
                "addr:city:simc": 920404,
                "addr:street:sym_ul": 13915,
                "phone": "+48 785182057",
                "email": "info@fundament.edu.pl",
                "website": "http:\/\/fundament.edu.pl",
                "ref:regon": "381298524",
                "operator": "M&M Coaching  Sp\u00f3\u0142ka Z Ograniczon\u0105 Odpowiedzialno\u015bci\u0105",
                "operator:type": "consortium",
                "amenity": "kindergarten"
            }
        },
        {
            "id": 23854,
            "type": "Feature",
            "geometry": {
                "type": "Point",
                "coordinates": [
                    21.23532,
                    52.12738
                ]
            },
            "properties": {
                "isced:level": "3",
                "ref:rspo": 23854,
                "official_name": "\"Strumienie\" Liceum Og\u00f3lnokszta\u0142c\u0105ce Stowarzyszenia Sternik",
                "name": "\"Strumienie\" Liceum Og\u00f3lnokszta\u0142c\u0105ce Stowarzyszenia Sternik",
                "addr:postcode": "05-420",
                "addr:city": "J\u00f3zef\u00f3w",
                "addr:street": "3 Maja",
                "addr:housenumber": "129",
                "addr:city:simc": 920404,
                "addr:street:sym_ul": 11937,
                "phone": "+48 223980810",
                "email": "liceum@sternik.edu.pl",
                "website": "http:\/\/www.sternik.edu.pl",
                "ref:regon": "146338094",
                "operator": "Stowarzyszenie Wspierania Edukacji I Rodziny \"Sternik\"",
                "operator:type": "ngo",
                "amenity": "school"
            }
        },
        {
            "id": 69787,
            "type": "Feature",
            "geometry": {
                "type": "Point",
                "coordinates": [
                    21.23532,
                    52.12735
                ]
            },
            "properties": {
                "isced:level": "1;2",
                "ref:rspo": 69787,
                "official_name": "\"Strumienie\" Szko\u0142a Podstawowa Stowarzyszenia Sternik",
                "name": "\"Strumienie\" Szko\u0142a Podstawowa Stowarzyszenia Sternik",
                "addr:postcode": "05-420",
                "addr:city": "J\u00f3zef\u00f3w",
                "addr:street": "3 Maja",
                "addr:housenumber": "129",
                "addr:city:simc": 920404,
                "addr:street:sym_ul": 11937,
                "phone": "+48 223980810",
                "email": "szkola.strumienie@sternik.edu.pl",
                "website": "http:\/\/www.sternik.edu.pl",
                "ref:regon": "146414205",
                "operator": "Stowarzyszenie Wspierania Edukacji I Rodziny \"Sternik\"",
                "operator:type": "ngo",
                "amenity": "school"
            }
        },
        {
            "id": 90732,
            "type": "Feature",
            "geometry": {
                "type": "Point",
                "coordinates": [
                    21.23532,
                    52.127320000000005
                ]
            },
            "properties": {
                "ref:rspo": 90732,
                "official_name": "Strumienie Przedszkole Stowarzyszenia Sternik",
                "name": "Strumienie Przedszkole Stowarzyszenia Sternik",
                "addr:postcode": "05-420",
                "addr:city": "J\u00f3zef\u00f3w",
                "addr:street": "3 Maja",
                "addr:housenumber": "129",
                "addr:city:simc": 920404,
                "addr:street:sym_ul": 11937,
                "phone": "+48 227693090",
                "email": "przedszkole.strumienie@sternik.edu.pl",
                "website": "http:\/\/www.sternik.edu.pl",
                "ref:regon": "146412146",
                "operator": "Stowarzyszenie Wspierania Edukacji I Rodziny \"Sternik\"",
                "operator:type": "ngo",
                "amenity": "kindergarten"
            }
        },
        {
            "id": 40641,
            "type": "Feature",
            "geometry": {
                "type": "Point",
                "coordinates": [
                    21.2345,
                    52.12793
                ]
            },
            "properties": {
                "ref:rspo": 40641,
                "official_name": "Zesp\u00f3\u0142 Szk\u00f3\u0142 Og\u00f3lnokszta\u0142c\u0105cych w Mazowieckim Centrum Neuropsychiatrii w J\u00f3zefowie",
                "name": "Zesp\u00f3\u0142 Szk\u00f3\u0142 Og\u00f3lnokszta\u0142c\u0105cych w Mazowieckim Centrum Neuropsychiatrii w J\u00f3zefowie",
                "addr:postcode": "05-420",
                "addr:city": "J\u00f3zef\u00f3w",
                "addr:street": "3 Maja",
                "addr:housenumber": "127",
                "addr:city:simc": 920404,
                "addr:street:sym_ul": 11937,
                "phone": "+48 227896034",
                "email": "sekretariat@zsojozefow.pl",
                "website": "http:\/\/www.zsojozefow.pl",
                "ref:regon": "016380527",
                "ref:vatin": "PL5321747917",
                "operator": "Wojew\u00f3dztwo Mazowieckie",
                "operator:type": "government",
                "landuse": "education",
                "fixme": "amenity=school, amenity=college albo landuse=education w zale\u017cno\u015bci od tego, jakie plac\u00f3wki wchodz\u0105 w sk\u0142ad zespo\u0142u. Sprawd\u017a, kiedy stosowa\u0107 amenity=* a kiedy landuse=education.",
                "note": "Children RSPO: 83876;119847;131794"
            }
        },
        {
            "id": 83876,
            "type": "Feature",
            "geometry": {
                "type": "Point",
                "coordinates": [
                    21.2345,
                    52.1279
                ]
            },
            "properties": {
                "isced:level": "1;2",
                "ref:rspo": 83876,
                "official_name": "Zesp\u00f3\u0142 Szk\u00f3\u0142 Og\u00f3lnokszta\u0142c\u0105cych w Mazowieckim Centrum Neuropsychiatrii w J\u00f3zefowie - Szko\u0142a Podstawowa",
                "name": "Zesp\u00f3\u0142 Szk\u00f3\u0142 Og\u00f3lnokszta\u0142c\u0105cych w Mazowieckim Centrum Neuropsychiatrii w J\u00f3zefowie - Szko\u0142a Podstawowa",
                "addr:postcode": "05-420",
                "addr:city": "J\u00f3zef\u00f3w",
                "addr:street": "3 Maja",
                "addr:housenumber": "127",
                "addr:city:simc": 920404,
                "addr:street:sym_ul": 11937,
                "phone": "+48 227896034",
                "email": "sekretariat@zsojozefow.pl",
                "website": "http:\/\/www.zsojozefow.pl",
                "ref:regon": "001009865",
                "ref:vatin": "PL5321747917",
                "operator": "Wojew\u00f3dztwo Mazowieckie",
                "operator:type": "government",
                "amenity": "school",
                "note": "Parent RSPO: 40641"
            }
        },
        {
            "id": 119847,
            "type": "Feature",
            "geometry": {
                "type": "Point",
                "coordinates": [
                    21.2345,
                    52.12787
                ]
            },
            "properties": {
                "isced:level": "3",
                "ref:rspo": 119847,
                "official_name": "Liceum Og\u00f3lnokszta\u0142c\u0105ce w Mazowieckim Centrum Neuropsychiatrii w J\u00f3zefowie",
                "name": "Liceum Og\u00f3lnokszta\u0142c\u0105ce w Mazowieckim Centrum Neuropsychiatrii w J\u00f3zefowie",
                "addr:postcode": "05-420",
                "addr:city": "J\u00f3zef\u00f3w",
                "addr:street": "3 Maja",
                "addr:housenumber": "127",
                "addr:city:simc": 920404,
                "addr:street:sym_ul": 11937,
                "phone": "+48 227896034",
                "email": "sekretariat@zsojozefow.pl",
                "website": "http:\/\/www.zsojozefow.pl",
                "ref:regon": "146864167",
                "operator": "Wojew\u00f3dztwo Mazowieckie",
                "operator:type": "government",
                "amenity": "school",
                "note": "Parent RSPO: 40641"
            }
        },
        {
            "id": 131794,
            "type": "Feature",
            "geometry": {
                "type": "Point",
                "coordinates": [
                    21.2345,
                    52.12784
                ]
            },
            "properties": {
                "ref:rspo": 131794,
                "official_name": "Przedszkole Specjalne w Mazowieckim Centrum Neuropsychiatrii w J\u00f3zefowie",
                "name": "Przedszkole Specjalne w Mazowieckim Centrum Neuropsychiatrii w J\u00f3zefowie",
                "addr:postcode": "05-420",
                "addr:city": "J\u00f3zef\u00f3w",
                "addr:street": "3 Maja",
                "addr:housenumber": "127",
                "addr:city:simc": 920404,
                "addr:street:sym_ul": 11937,
                "phone": "+48 227896034",
                "email": "sekretariat@zsojozefow.pl",
                "website": "http:\/\/www.zsojozefow.pl",
                "ref:regon": "365349040",
                "operator": "Wojew\u00f3dztwo Mazowieckie",
                "operator:type": "government",
                "amenity": "kindergarten",
                "note": "Parent RSPO: 40641"
            }
        },
        {
            "id": 262464,
            "type": "Feature",
            "geometry": {
                "type": "Point",
                "coordinates": [
                    21.22748,
                    52.12946
                ]
            },
            "properties": {
                "isced:level": "1;2",
                "ref:rspo": 262464,
                "official_name": "Szko\u0142a Podstawowa nr 3 im. \u0141\u0105czniczek Armii Krajowej w J\u00f3zefowie",
                "name": "Szko\u0142a Podstawowa nr 3",
                "addr:postcode": "05-420",
                "addr:city": "J\u00f3zef\u00f3w",
                "addr:street": "Le\u015bna",
                "addr:housenumber": "39",
                "addr:city:simc": 920404,
                "addr:street:sym_ul": 10898,
                "phone": "+48 227896931",
                "email": "sp3@sp3.jozefow.pl",
                "website": "http:\/\/www.sp3.jozefow.pl",
                "ref:regon": "368018644",
                "operator": "Miasto J\u00f3zef\u00f3w",
                "operator:type": "government",
                "amenity": "school"
            }
        },
        {
            "id": 130255,
            "type": "Feature",
            "geometry": {
                "type": "Point",
                "coordinates": [
                    21.23177,
                    52.1311899
                ]
            },
            "properties": {
                "ref:rspo": 130255,
                "official_name": "Publiczne Przedszkole \"Willa Jakub\u00f3wka\"",
                "name": "Publiczne Przedszkole \"Willa Jakub\u00f3wka\"",
                "addr:postcode": "05-420",
                "addr:city": "J\u00f3zef\u00f3w",
                "addr:street": "D\u0142uga",
                "addr:housenumber": "26A",
                "addr:city:simc": 920404,
                "addr:street:sym_ul": 3839,
                "phone": "+48 501016061",
                "email": "joannachojnowskagorczyca@gmail.com",
                "website": "http:\/\/www.przedszkole-willajakobowka.pl",
                "ref:regon": "363721557",
                "operator": "Joanne Chojnowska-Gorczyca",
                "operator:type": "private",
                "amenity": "kindergarten"
            }
        },
        {
            "id": 109393,
            "type": "Feature",
            "geometry": {
                "type": "Point",
                "coordinates": [
                    21.23199,
                    52.13195
                ]
            },
            "properties": {
                "ref:rspo": 109393,
                "official_name": "Akademia Ruchu",
                "name": "Akademia Ruchu",
                "addr:postcode": "05-420",
                "addr:city": "J\u00f3zef\u00f3w",
                "addr:street": "Le\u015bna",
                "addr:housenumber": "17",
                "addr:city:simc": 920404,
                "addr:street:sym_ul": 10898,
                "phone": "+48 223920533",
                "email": "szkolenia@aktywni.info",
                "website": "http:\/\/www.aktywni.info",
                "ref:regon": "146527599",
                "operator": "Fundacja Aktywni",
                "operator:type": "ngo",
                "fixme": "w zale\u017cno\u015bci od przedmiotu dzia\u0142alno\u015bci (np. amenity=training + training=*, amenity=dancing_school, amenity=language_school, amenity=music_school)"
            }
        },
        {
            "id": 92937,
            "type": "Feature",
            "geometry": {
                "type": "Point",
                "coordinates": [
                    21.24337,
                    52.13357
                ]
            },
            "properties": {
                "ref:rspo": 92937,
                "official_name": "Niepubliczne Przedszkole Smart Kids",
                "name": "Niepubliczne Przedszkole Smart Kids",
                "addr:postcode": "05-420",
                "addr:city": "J\u00f3zef\u00f3w",
                "addr:street": "Szczygla",
                "addr:housenumber": "2A",
                "addr:city:simc": 920404,
                "addr:street:sym_ul": 21869,
                "phone": "+48 223711716",
                "email": "i.tarnowska@smartkids.com.pl",
                "website": "http:\/\/www.smartkids.com.pl",
                "ref:regon": "146415759",
                "operator": "Iwona Tarnowska Wsp\u00f3lnik Sp\u00f3\u0142ki Cywilnej \"Smart Kids\"",
                "operator:type": "consortium",
                "amenity": "kindergarten"
            }
        },
        {
            "id": 61861,
            "type": "Feature",
            "geometry": {
                "type": "Point",
                "coordinates": [
                    21.2328699,
                    52.13387
                ]
            },
            "properties": {
                "ref:rspo": 61861,
                "official_name": "Miejskie Przedszkole nr 2",
                "name": "Miejskie Przedszkole nr 2",
                "addr:postcode": "05-420",
                "addr:city": "J\u00f3zef\u00f3w",
                "addr:street": "Sosnowa",
                "addr:housenumber": "17",
                "addr:city:simc": 920404,
                "addr:street:sym_ul": 20598,
                "phone": "+48 227892139",
                "email": "przedszkole@przedszkole.jozefow.pl",
                "website": "http:\/\/mp2jozefow.szkolnastrona.pl",
                "ref:regon": "013006136",
                "ref:vatin": "PL5321639406",
                "operator": "Miasto J\u00f3zef\u00f3w",
                "operator:type": "government",
                "amenity": "kindergarten"
            }
        },
        {
            "id": 271925,
            "type": "Feature",
            "geometry": {
                "type": "Point",
                "coordinates": [
                    21.23372,
                    52.13522
                ]
            },
            "properties": {
                "isced:level": "3",
                "ref:rspo": 271925,
                "official_name": "Niepubliczne Liceum Og\u00f3lnokszta\u0142c\u0105ce w J\u00f3zefowie",
                "name": "Niepubliczne Liceum Og\u00f3lnokszta\u0142c\u0105ce w J\u00f3zefowie",
                "addr:postcode": "05-420",
                "addr:city": "J\u00f3zef\u00f3w",
                "addr:street": "Parkowa",
                "addr:housenumber": "4",
                "addr:city:simc": 920404,
                "addr:street:sym_ul": 15710,
                "phone": "+48 222994450",
                "email": "sekretariat@teamworkschool.pl",
                "website": "http:\/\/www.teamworkschool.pl",
                "ref:regon": "383792524",
                "operator": "Ma\u0142gorzata K\u0142osowicz",
                "operator:type": "private",
                "amenity": "school"
            }
        },
        {
            "id": 272422,
            "type": "Feature",
            "geometry": {
                "type": "Point",
                "coordinates": [
                    21.23372,
                    52.135189999999994
                ]
            },
            "properties": {
                "isced:level": "1;2",
                "ref:rspo": 272422,
                "official_name": "Niepubliczna Szko\u0142a Podstawowa w J\u00f3zefowie",
                "name": "Niepubliczna Szko\u0142a Podstawowa w J\u00f3zefowie",
                "addr:postcode": "05-420",
                "addr:city": "J\u00f3zef\u00f3w",
                "addr:street": "Parkowa",
                "addr:housenumber": "4",
                "addr:city:simc": 920404,
                "addr:street:sym_ul": 15710,
                "phone": "+48 791024562",
                "email": "sekretariat@teamworkschool.pl",
                "website": "http:\/\/www.teamworkschool.pl",
                "ref:regon": "384178022",
                "ref:vatin": "PL6731224059",
                "operator": "Ma\u0142gorzata K\u0142osowicz",
                "operator:type": "private",
                "amenity": "school"
            }
        },
        {
            "id": 61858,
            "type": "Feature",
            "geometry": {
                "type": "Point",
                "coordinates": [
                    21.24081,
                    52.13594
                ]
            },
            "properties": {
                "isced:level": "1;2",
                "ref:rspo": 61858,
                "official_name": "Szko\u0142a Podstawowa nr 1 im. Olofa Palmego",
                "name": "Szko\u0142a Podstawowa nr 1",
                "addr:postcode": "05-420",
                "addr:city": "J\u00f3zef\u00f3w",
                "addr:street": "Adama Mickiewicza",
                "addr:housenumber": "11",
                "addr:city:simc": 920404,
                "addr:street:sym_ul": 12734,
                "phone": "+48 227892112",
                "email": "sekretariat@sp1.jozefow.pl",
                "website": "http:\/\/sp1.jozefow.pl",
                "ref:regon": "011326339",
                "ref:vatin": "PL5321604810",
                "operator": "Miasto J\u00f3zef\u00f3w",
                "operator:type": "government",
                "amenity": "school"
            }
        },
        {
            "id": 130798,
            "type": "Feature",
            "geometry": {
                "type": "Point",
                "coordinates": [
                    21.24221,
                    52.13763
                ]
            },
            "properties": {
                "ref:rspo": 130798,
                "official_name": "Publiczne Przedszkole \"D\u0119bowe Ludki\"",
                "name": "Publiczne Przedszkole \"D\u0119bowe Ludki\"",
                "addr:postcode": "05-420",
                "addr:city": "J\u00f3zef\u00f3w",
                "addr:street": "Jasna",
                "addr:housenumber": "6",
                "addr:city:simc": 920404,
                "addr:street:sym_ul": 7335,
                "phone": "+48 226154370",
                "email": "przedszkoledeboweludki@gmail.com",
                "website": "http:\/\/www.deboweludki.pl",
                "ref:regon": "364535360",
                "operator": "Bo\u017cena Szczech-Banasik",
                "operator:type": "private",
                "amenity": "kindergarten"
            }
        },
        {
            "id": 90734,
            "type": "Feature",
            "geometry": {
                "type": "Point",
                "coordinates": [
                    21.23781,
                    52.13794
                ]
            },
            "properties": {
                "ref:rspo": 90734,
                "official_name": "Niepubliczne Przedszkole \"J\u00f3zefinka\"",
                "name": "Niepubliczne Przedszkole \"J\u00f3zefinka\"",
                "addr:postcode": "05-420",
                "addr:city": "J\u00f3zef\u00f3w",
                "addr:street": "Marii Sk\u0142odowskiej-Curie",
                "addr:housenumber": "12",
                "addr:city:simc": 920404,
                "addr:street:sym_ul": 20064,
                "phone": "+48 227893453",
                "email": "biuro@przedszkole-jozefinka.pl",
                "website": "http:\/\/www.przedszkole-jozefinka.pl",
                "ref:regon": "146412092",
                "operator": "Lidia Niko\u0142ow",
                "operator:type": "private",
                "amenity": "kindergarten"
            }
        },
        {
            "id": 61866,
            "type": "Feature",
            "geometry": {
                "type": "Point",
                "coordinates": [
                    21.24716,
                    52.13836
                ]
            },
            "properties": {
                "ref:rspo": 61866,
                "official_name": "Przedszkole Szcz\u0119\u015bliwych Dzieci",
                "name": "Przedszkole Szcz\u0119\u015bliwych Dzieci",
                "addr:postcode": "05-420",
                "addr:city": "J\u00f3zef\u00f3w",
                "addr:street": "Adama Mickiewicza",
                "addr:housenumber": "35",
                "addr:city:simc": 920404,
                "addr:street:sym_ul": 12734,
                "phone": "+48 601806307",
                "email": "biuro@szczesliweprzedszkole.pl",
                "website": "http:\/\/www.szczesliweprzedszkol.pl",
                "ref:regon": "146373073",
                "ref:vatin": "PL5321611230",
                "operator": "Akm Edu Sp\u00f3\u0142ka Z Ograniczon\u0105 Odpowiedzialno\u015bci\u0105 Sp\u00f3\u0142ka Komandytowa",
                "operator:type": "private",
                "amenity": "kindergarten"
            }
        },
        {
            "id": 262600,
            "type": "Feature",
            "geometry": {
                "type": "Point",
                "coordinates": [
                    21.21629,
                    52.13863
                ]
            },
            "properties": {
                "isced:level": "1;2",
                "ref:rspo": 262600,
                "official_name": "Niezwyczajna Szko\u0142a. Spo\u0142eczna Szko\u0142a Podstawowa Specjalna z Oddzia\u0142ami Przedszkolnymi w J\u00f3zefowie.",
                "name": "Niezwyczajna Szko\u0142a. Spo\u0142eczna Szko\u0142a Podstawowa Specjalna z Oddzia\u0142ami Przedszkolnymi w J\u00f3zefowie.",
                "addr:postcode": "05-420",
                "addr:city": "J\u00f3zef\u00f3w",
                "addr:street": "Wawerska",
                "addr:housenumber": "41",
                "addr:city:simc": 920404,
                "addr:street:sym_ul": 23750,
                "phone": "+48 511960501",
                "email": "prywatnaszkolaspecjalna@gmail.com",
                "ref:regon": "368041494",
                "operator": "Fundacja Niezwyczajni",
                "operator:type": "ngo",
                "amenity": "school"
            }
        },
        {
            "id": 49074,
            "type": "Feature",
            "geometry": {
                "type": "Point",
                "coordinates": [
                    21.22751,
                    52.13884
                ]
            },
            "properties": {
                "isced:level": "3",
                "ref:rspo": 49074,
                "official_name": "Liceum Og\u00f3lnokszta\u0142c\u0105ce im. \u015aw. Tomasza z Akwinu",
                "name": "Liceum Og\u00f3lnokszta\u0142c\u0105ce",
                "addr:postcode": "05-420",
                "addr:city": "J\u00f3zef\u00f3w",
                "addr:street": "Piotra Skargi",
                "addr:housenumber": "13",
                "addr:city:simc": 920404,
                "addr:street:sym_ul": 20012,
                "phone": "+48 698963300",
                "email": "sekretariat@akwinata.edu.pl",
                "website": "http:\/\/www.akwinata.edu.pl",
                "ref:regon": "146404690",
                "operator": "Fundacja Sancti Iosephi",
                "operator:type": "ngo",
                "amenity": "school"
            }
        },
        {
            "id": 262935,
            "type": "Feature",
            "geometry": {
                "type": "Point",
                "coordinates": [
                    21.22751,
                    52.13881
                ]
            },
            "properties": {
                "isced:level": "1;2",
                "ref:rspo": 262935,
                "official_name": "Szko\u0142a Podstawowa \u015aw. Tomasza z Akwinu",
                "name": "Szko\u0142a Podstawowa \u015aw. Tomasza z Akwinu",
                "addr:postcode": "05-420",
                "addr:city": "J\u00f3zef\u00f3w",
                "addr:street": "Piotra Skargi",
                "addr:housenumber": "13",
                "addr:city:simc": 920404,
                "addr:street:sym_ul": 20012,
                "phone": "+48 698963300",
                "email": "sekretariat@akwinata.edu.pl",
                "website": "http:\/\/www.akwinata.edu.pl",
                "ref:regon": "368075441",
                "operator": "Fundacja Sancti Iosephi",
                "operator:type": "ngo",
                "amenity": "school"
            }
        },
        {
            "id": 44200,
            "type": "Feature",
            "geometry": {
                "type": "Point",
                "coordinates": [
                    21.24004,
                    52.13979
                ]
            },
            "properties": {
                "ref:rspo": 44200,
                "official_name": "Prywatna Szko\u0142a Muzyczna I St. Bart\u0142omieja Budzy\u0144skiego w J\u00f3zefowie",
                "name": "Prywatna Szko\u0142a Muzyczna I St. Bart\u0142omieja Budzy\u0144skiego w J\u00f3zefowie",
                "addr:postcode": "05-420",
                "addr:city": "J\u00f3zef\u00f3w",
                "addr:street": "\u015awierkowa",
                "addr:housenumber": "11",
                "addr:city:simc": 920404,
                "addr:street:sym_ul": 22508,
                "email": "szkola.muzyczna@budzynski.waw.pl",
                "website": "http:\/\/www.budzynski.waw.pl",
                "ref:regon": "146364312",
                "operator": "Bart\u0142omiej Budzy\u0144ski",
                "operator:type": "private",
                "amenity": "music_school"
            }
        },
        {
            "id": 61863,
            "type": "Feature",
            "geometry": {
                "type": "Point",
                "coordinates": [
                    21.21373,
                    52.14075
                ]
            },
            "properties": {
                "ref:rspo": 61863,
                "official_name": "Przedszkole Krasnoludk\u00f3w",
                "name": "Przedszkole Krasnoludk\u00f3w",
                "addr:postcode": "05-420",
                "addr:city": "J\u00f3zef\u00f3w",
                "addr:street": "Puszkina",
                "addr:housenumber": "25",
                "addr:city:simc": 920404,
                "addr:street:sym_ul": 18208,
                "phone": "+48 502962739",
                "email": "biuro@naszekrasnale.pl",
                "ref:regon": "146391579",
                "ref:vatin": "PL5321863960",
                "operator": "Liwia Idziak",
                "operator:type": "private",
                "amenity": "kindergarten"
            }
        },
        {
            "id": 61864,
            "type": "Feature",
            "geometry": {
                "type": "Point",
                "coordinates": [
                    21.21397,
                    52.1421599
                ]
            },
            "properties": {
                "ref:rspo": 61864,
                "official_name": "Niepubliczne Przedszkole J\u0119zykowo-Artystyczne Ma\u0142y \u015awiat",
                "name": "Niepubliczne Przedszkole J\u0119zykowo-Artystyczne Ma\u0142y \u015awiat",
                "addr:postcode": "05-420",
                "addr:city": "J\u00f3zef\u00f3w",
                "addr:street": "Samorz\u0105dowa",
                "addr:housenumber": "30",
                "addr:city:simc": 920404,
                "addr:street:sym_ul": 19472,
                "phone": "+48 227893299",
                "email": "malyswiat@wp.pl",
                "website": "http:\/\/www.malyswiat.pl",
                "ref:regon": "146391295",
                "ref:vatin": "PL1230062620",
                "operator": "Ma\u0142gorzata Kowalik",
                "operator:type": "private",
                "amenity": "kindergarten"
            }
        },
        {
            "id": 103954,
            "type": "Feature",
            "geometry": {
                "type": "Point",
                "coordinates": [
                    21.21497,
                    52.14563
                ]
            },
            "properties": {
                "isced:level": "1;2",
                "ref:rspo": 103954,
                "official_name": "Szko\u0142a Podstawowa nr 2 im. Romualda Traugutta",
                "name": "Szko\u0142a Podstawowa nr 2",
                "addr:postcode": "05-410",
                "addr:city": "J\u00f3zef\u00f3w",
                "addr:street": "Graniczna",
                "addr:housenumber": "26",
                "addr:city:simc": 920404,
                "addr:street:sym_ul": 6075,
                "phone": "+48 227894050",
                "email": "sekretariat@sp2jozefow.szkolnastrona.pl",
                "website": "http:\/\/www.sp2jozefow.szkolnastrona.pl",
                "ref:regon": "011326368",
                "ref:vatin": "PL5321315218",
                "operator": "Miasto J\u00f3zef\u00f3w",
                "operator:type": "government",
                "amenity": "school"
            }
        },
        {
            "id": 126670,
            "type": "Feature",
            "geometry": {
                "type": "Point",
                "coordinates": [
                    21.18889,
                    52.14598
                ]
            },
            "properties": {
                "ref:rspo": 126670,
                "official_name": "Niepubliczne Przedszkole Mini Przedszkolak",
                "name": "Niepubliczne Przedszkole Mini Przedszkolak",
                "addr:postcode": "05-420",
                "addr:city": "J\u00f3zef\u00f3w",
                "addr:street": "Nadwi\u015bla\u0144ska",
                "addr:housenumber": "54",
                "addr:city:simc": 920404,
                "addr:street:sym_ul": 13915,
                "phone": "+48 223946774",
                "email": "j.milczarczyk@interia.pl",
                "website": "http:\/\/www.miniprzedszkolak.pl",
                "ref:regon": "360599417",
                "operator": "Miniprzedszkolak Sp\u00f3\u0142ka Z Ograniczon\u0105 Odpowiedzialno\u015bci\u0105",
                "operator:type": "private",
                "amenity": "kindergarten"
            }
        },
        {
            "id": 273104,
            "type": "Feature",
            "geometry": {
                "type": "Point",
                "coordinates": [
                    21.21967,
                    52.146
                ]
            },
            "properties": {
                "ref:rspo": 273104,
                "official_name": "Niepubliczna Poradnia Psychologiczno-Pedagogiczna \"Kangurek\" w J\u00f3zefowie",
                "name": "Niepubliczna Poradnia Psychologiczno-Pedagogiczna \"Kangurek\" w J\u00f3zefowie",
                "addr:postcode": "05-410",
                "addr:city": "J\u00f3zef\u00f3w",
                "addr:street": "Graniczna",
                "addr:housenumber": "10",
                "addr:city:simc": 920404,
                "addr:street:sym_ul": 6075,
                "email": "poradnia@kangurek-terapia.pl",
                "website": "http:\/\/www.kangurek-terapia.pl",
                "ref:regon": "384377543",
                "operator": "Agnieszka \u015awi\u0105tek",
                "operator:type": "private",
                "healthcare": "counselling",
                "counselling_type": "education",
                "fixme": "w zale\u017cno\u015bci od przedmiotu dzia\u0142alno\u015bci (np. healthcare=counselling + counselling_type=education albo healthcare=psychotherapist)"
            }
        },
        {
            "id": 130301,
            "type": "Feature",
            "geometry": {
                "type": "Point",
                "coordinates": [
                    21.225910186768,
                    52.146450042725
                ]
            },
            "properties": {
                "ref:rspo": 130301,
                "official_name": "Publiczne Przedszkole Babyland",
                "name": "Publiczne Przedszkole Babyland",
                "addr:postcode": "05-420",
                "addr:city": "J\u00f3zef\u00f3w",
                "addr:street": "J\u00f3zefa Bema",
                "addr:housenumber": "43A",
                "addr:city:simc": 920404,
                "addr:street:sym_ul": 1010,
                "phone": "+48 728504651",
                "email": "biuro.przedszkole@onet.pl",
                "website": "http:\/\/www.przedszkolebabyland.pl",
                "ref:regon": "363810835",
                "operator": "Aldona Ko\u015bcianek",
                "operator:type": "private",
                "amenity": "kindergarten"
            }
        },
        {
            "id": 30089,
            "type": "Feature",
            "geometry": {
                "type": "Point",
                "coordinates": [
                    21.24231,
                    52.14868
                ]
            },
            "properties": {
                "ref:rspo": 30089,
                "official_name": "M\u0142odzie\u017cowy O\u015brodek Socjoterapii \"J\u0119dru\u015b\" w J\u00f3zefowie",
                "name": "M\u0142odzie\u017cowy O\u015brodek Socjoterapii \"J\u0119dru\u015b\" w J\u00f3zefowie",
                "addr:postcode": "05-410",
                "addr:city": "J\u00f3zef\u00f3w",
                "addr:street": "G\u0142\u00f3wna",
                "addr:housenumber": "10",
                "addr:city:simc": 920404,
                "addr:street:sym_ul": 5635,
                "phone": "+48 227894148",
                "email": "mos@jedrus.net",
                "website": "http:\/\/www.jedrus.net",
                "ref:regon": "016349894",
                "ref:vatin": "PL5321434816",
                "operator": "Powiat Otwocki",
                "operator:type": "government",
                "fixme": "amenity=social_facility + social_facility=group_home + social_facility:for=juvenile",
                "note": "Children RSPO: 56655"
            }
        },
        {
            "id": 56655,
            "type": "Feature",
            "geometry": {
                "type": "Point",
                "coordinates": [
                    21.24231,
                    52.148649999999996
                ]
            },
            "properties": {
                "isced:level": "1;2",
                "ref:rspo": 56655,
                "official_name": "Szko\u0142a Podstawowa Specjalna nr 4 w J\u00f3zefowie M\u0142odzie\u017cowy O\u015brodek Socjoterapii \u201eJ\u0119dru\u015b\u201d w J\u00f3zefowie",
                "name": "Szko\u0142a Podstawowa Specjalna nr 4 w J\u00f3zefowie M\u0142odzie\u017cowy O\u015brodek Socjoterapii \u201eJ\u0119dru\u015b\u201d w J\u00f3zefowie",
                "addr:postcode": "05-410",
                "addr:city": "J\u00f3zef\u00f3w",
                "addr:street": "G\u0142\u00f3wna",
                "addr:housenumber": "10",
                "addr:city:simc": 920404,
                "addr:street:sym_ul": 5635,
                "phone": "+48 227894114",
                "email": "mos@jedrus.net",
                "website": "http:\/\/www.jedrus.net",
                "ref:regon": "015442605",
                "operator": "Powiat Otwocki",
                "operator:type": "government",
                "amenity": "school",
                "note": "Parent RSPO: 30089"
            }
        },
        {
            "id": 61865,
            "type": "Feature",
            "geometry": {
                "type": "Point",
                "coordinates": [
                    21.18684,
                    52.14895
                ]
            },
            "properties": {
                "ref:rspo": 61865,
                "official_name": "Przedszkole Biedroneczki",
                "name": "Przedszkole Biedroneczki",
                "addr:postcode": "05-420",
                "addr:city": "J\u00f3zef\u00f3w",
                "addr:street": "Podsto\u0142eczna",
                "addr:housenumber": "6",
                "addr:city:simc": 920404,
                "addr:street:sym_ul": 16863,
                "phone": "+48 668676797",
                "email": "info@przedszkolebiedroneczki.pl",
                "website": "http:\/\/www.przedszkolebiedroneczki.pl",
                "ref:regon": "146373140",
                "operator": "Biedroneczki Sp\u00f3\u0142ka Z Ograniczon\u0105 Odpowiedzialno\u015bci\u0105",
                "operator:type": "private",
                "amenity": "kindergarten"
            }
        },
        {
            "id": 61860,
            "type": "Feature",
            "geometry": {
                "type": "Point",
                "coordinates": [
                    21.23092,
                    52.15022
                ]
            },
            "properties": {
                "ref:rspo": 61860,
                "official_name": "Miejskie Przedszkole nr 1",
                "name": "Miejskie Przedszkole nr 1",
                "addr:postcode": "05-410",
                "addr:city": "J\u00f3zef\u00f3w",
                "addr:street": "Kossaka",
                "addr:housenumber": "14",
                "addr:city:simc": 920404,
                "addr:street:sym_ul": 9459,
                "phone": "+48 227894452",
                "email": "przedszkole.kossaka@michalin1.pl",
                "website": "http:\/\/przedszkolen1.michalin.szkolnastrona.pl",
                "ref:regon": "013006120",
                "ref:vatin": "PL5321640071",
                "operator": "Miasto J\u00f3zef\u00f3w",
                "operator:type": "government",
                "amenity": "kindergarten"
            }
        }
    ]
}