{
    "type": "FeatureCollection",
    "features": [
        {
            "id": 88740,
            "type": "Feature",
            "geometry": {
                "type": "Point",
                "coordinates": [
                    21.27828,
                    52.08618
                ]
            },
            "properties": {
                "isced:level": "4",
                "ref:rspo": 88740,
                "official_name": "Medyczna Szko\u0142a Policealna w Otwocku",
                "name": "Medyczna Szko\u0142a Policealna w Otwocku",
                "addr:postcode": "05-400",
                "addr:city": "Otwock",
                "addr:street": "Micha\u0142a Andriollego",
                "addr:housenumber": "90",
                "addr:city:simc": 921237,
                "addr:street:sym_ul": 292,
                "phone": "+48 227795089",
                "email": "sekretariat@medyk-otwock.pl",
                "website": "http:\/\/www.medyk-otwock.pl",
                "ref:regon": "011575025",
                "ref:vatin": "PL5322089646",
                "operator": "Wojew\u00f3dztwo Mazowieckie",
                "operator:type": "government",
                "amenity": "college"
            }
        },
        {
            "id": 120699,
            "type": "Feature",
            "geometry": {
                "type": "Point",
                "coordinates": [
                    21.24625,
                    52.0965
                ]
            },
            "properties": {
                "ref:rspo": 120699,
                "official_name": "Przedszkole Niepubliczne \u201eWeso\u0142e Misie\u201d",
                "name": "Przedszkole Niepubliczne \u201eWeso\u0142e Misie\u201d",
                "addr:postcode": "05-400",
                "addr:city": "Otwock",
                "addr:street": "Genera\u0142a J\u00f3zefa Hallera",
                "addr:housenumber": "9",
                "addr:city:simc": 921237,
                "addr:street:sym_ul": 37657,
                "phone": "+48 605211696",
                "email": "perspective@onet.eu",
                "website": "http:\/\/www.wesolemisie.edu.pl",
                "ref:regon": "146941092",
                "ref:vatin": "PL5322044419",
                "operator": "Weso\u0142e Misie S.c.",
                "operator:type": "consortium",
                "amenity": "kindergarten"
            }
        },
        {
            "id": 79709,
            "type": "Feature",
            "geometry": {
                "type": "Point",
                "coordinates": [
                    21.26954,
                    52.09718
                ]
            },
            "properties": {
                "isced:level": "1;2",
                "ref:rspo": 79709,
                "official_name": "Szko\u0142a Podstawowa nr 12 im.kornela Makuszy\u0144skiego w Otwocku",
                "name": "Szko\u0142a Podstawowa nr 12 im.kornela Makuszy\u0144skiego w Otwocku",
                "addr:postcode": "05-400",
                "addr:city": "Otwock",
                "addr:street": "Micha\u0142a Andriollego",
                "addr:housenumber": "76",
                "addr:city:simc": 921237,
                "addr:street:sym_ul": 292,
                "phone": "+48 227793844",
                "email": "sp12@oswiata-otwock.pl",
                "website": "http:\/\/sp12otwock.edu.pl",
                "ref:regon": "011494864",
                "ref:vatin": "PL5321645648",
                "operator": "Miasto Otwock",
                "operator:type": "government",
                "amenity": "school"
            }
        },
        {
            "id": 196450,
            "type": "Feature",
            "geometry": {
                "type": "Point",
                "coordinates": [
                    21.2868,
                    52.09718
                ]
            },
            "properties": {
                "isced:level": "1;2",
                "ref:rspo": 196450,
                "official_name": "Szko\u0142a Podstawowa nr 2 im. Ireny Sendlerowej",
                "name": "Szko\u0142a Podstawowa nr 2",
                "addr:postcode": "05-400",
                "addr:city": "Otwock",
                "addr:street": "J\u00f3zefa Poniatowskiego",
                "addr:housenumber": "47\/49",
                "addr:city:simc": 921237,
                "addr:street:sym_ul": 17107,
                "phone": "+48 227793232",
                "email": "sp2@oswiata-otwock.pl",
                "ref:regon": "367997990",
                "operator": "Miasto Otwock",
                "operator:type": "government",
                "amenity": "school"
            }
        },
        {
            "id": 26405,
            "type": "Feature",
            "geometry": {
                "type": "Point",
                "coordinates": [
                    21.27306,
                    52.0976799
                ]
            },
            "properties": {
                "ref:rspo": 26405,
                "official_name": "Zesp\u00f3\u0142 Szk\u00f3\u0142 nr 2 im. Marii Sk\u0142odowskiej-Curie w Otwocku",
                "name": "Zesp\u00f3\u0142 Szk\u00f3\u0142 nr 2",
                "addr:postcode": "05-400",
                "addr:city": "Otwock",
                "addr:street": "Kazimierza Pu\u0142askiego",
                "addr:housenumber": "7",
                "addr:city:simc": 921237,
                "addr:street:sym_ul": 18099,
                "phone": "+48 227793070",
                "email": "sekretariat@nukleonik.pl",
                "website": "http:\/\/nukleonik.pl",
                "ref:regon": "000786704",
                "ref:vatin": "PL5321026483",
                "operator": "Powiat Otwocki",
                "operator:type": "government",
                "landuse": "education",
                "fixme": "amenity=school, amenity=college albo landuse=education w zale\u017cno\u015bci od tego, jakie plac\u00f3wki wchodz\u0105 w sk\u0142ad zespo\u0142u. Sprawd\u017a, kiedy stosowa\u0107 amenity=* a kiedy landuse=education.",
                "note": "Children RSPO: 72446;72447;72448;72449"
            }
        },
        {
            "id": 72446,
            "type": "Feature",
            "geometry": {
                "type": "Point",
                "coordinates": [
                    21.27306,
                    52.0976499
                ]
            },
            "properties": {
                "isced:level": "3",
                "ref:rspo": 72446,
                "official_name": "Liceum Og\u00f3lnokszta\u0142c\u0105ce nr II w Otwocku Zesp\u00f3\u0142 Szk\u00f3\u0142 nr 2 im. Marii Sk\u0142odowskiej-Curie w Otwocku",
                "name": "Liceum Og\u00f3lnokszta\u0142c\u0105ce nr II w Otwocku Zesp\u00f3\u0142 Szk\u00f3\u0142 nr 2",
                "addr:postcode": "05-400",
                "addr:city": "Otwock",
                "addr:street": "Kazimierza Pu\u0142askiego",
                "addr:housenumber": "7",
                "addr:city:simc": 921237,
                "addr:street:sym_ul": 18099,
                "phone": "+48 227793070",
                "email": "sekretariat@nukleonik.pl",
                "website": "http:\/\/nukleonik.pl",
                "ref:regon": "015463398",
                "operator": "Powiat Otwocki",
                "operator:type": "government",
                "amenity": "school",
                "note": "Parent RSPO: 26405"
            }
        },
        {
            "id": 72447,
            "type": "Feature",
            "geometry": {
                "type": "Point",
                "coordinates": [
                    21.27306,
                    52.097619900000005
                ]
            },
            "properties": {
                "isced:level": "3",
                "ref:rspo": 72447,
                "official_name": "Technikum nr 2 w Otwocku Zesp\u00f3\u0142 Szk\u00f3\u0142 nr 2 im. Marii Sk\u0142odowskiej-Curie w Otwocku",
                "name": "Technikum nr 2 w Otwocku Zesp\u00f3\u0142 Szk\u00f3\u0142 nr 2",
                "addr:postcode": "05-400",
                "addr:city": "Otwock",
                "addr:street": "Kazimierza Pu\u0142askiego",
                "addr:housenumber": "7",
                "addr:city:simc": 921237,
                "addr:street:sym_ul": 18099,
                "phone": "+48 227793070",
                "email": "sekretariat@nukleonik.pl",
                "website": "http:\/\/nukleonik.pl",
                "ref:regon": "015464110",
                "operator": "Powiat Otwocki",
                "operator:type": "government",
                "amenity": "school",
                "note": "Parent RSPO: 26405"
            }
        },
        {
            "id": 72448,
            "type": "Feature",
            "geometry": {
                "type": "Point",
                "coordinates": [
                    21.27306,
                    52.0975899
                ]
            },
            "properties": {
                "isced:level": "3",
                "ref:rspo": 72448,
                "official_name": "Bran\u017cowa Szko\u0142a I Stopnia nr 2 w Otwocku Zesp\u00f3\u0142 Szk\u00f3\u0142 nr 2 im. Marii Sk\u0142odowskiej - Curie w Otwocku",
                "name": "Bran\u017cowa Szko\u0142a I Stopnia nr 2 w Otwocku Zesp\u00f3\u0142 Szk\u00f3\u0142 nr 2",
                "addr:postcode": "05-400",
                "addr:city": "Otwock",
                "addr:street": "Kazimierza Pu\u0142askiego",
                "addr:housenumber": "7",
                "addr:city:simc": 921237,
                "addr:street:sym_ul": 18099,
                "phone": "+48 227793070",
                "email": "sekretariat@nukleonik.pl",
                "website": "http:\/\/nukleonik.pl",
                "ref:regon": "015464179",
                "operator": "Powiat Otwocki",
                "operator:type": "government",
                "amenity": "school",
                "note": "Parent RSPO: 26405"
            }
        },
        {
            "id": 72449,
            "type": "Feature",
            "geometry": {
                "type": "Point",
                "coordinates": [
                    21.27306,
                    52.0975599
                ]
            },
            "properties": {
                "isced:level": "4",
                "ref:rspo": 72449,
                "official_name": "Zesp\u00f3\u0142 Szk\u00f3\u0142 nr 2 im. Marii Sk\u0142odowskiej-Curie w Otwocku Szko\u0142a Policealna nr 2 w Otwocku",
                "name": "Zesp\u00f3\u0142 Szk\u00f3\u0142 nr 2",
                "addr:postcode": "05-400",
                "addr:city": "Otwock",
                "addr:street": "Kazimierza Pu\u0142askiego",
                "addr:housenumber": "7",
                "addr:city:simc": 921237,
                "addr:street:sym_ul": 18099,
                "phone": "+48 227793070",
                "email": "sekretariat@nukleonik.pl",
                "website": "http:\/\/nukleonik.pl",
                "ref:regon": "146400769",
                "operator": "Powiat Otwocki",
                "operator:type": "government",
                "amenity": "college",
                "note": "Parent RSPO: 26405"
            }
        },
        {
            "id": 79689,
            "type": "Feature",
            "geometry": {
                "type": "Point",
                "coordinates": [
                    21.27471,
                    52.09805
                ]
            },
            "properties": {
                "ref:rspo": 79689,
                "official_name": "Przedszkole nr 4",
                "name": "Przedszkole nr 4",
                "addr:postcode": "05-400",
                "addr:city": "Otwock",
                "addr:street": "J\u00f3zefa Dwernickiego",
                "addr:housenumber": "1",
                "addr:city:simc": 921237,
                "addr:street:sym_ul": 4430,
                "phone": "+48 227793273",
                "email": "p4@oswiata-otwock.pl",
                "website": "http:\/\/www.przedszkole4.otwock.pl",
                "ref:regon": "013002546",
                "ref:vatin": "PL5321713551",
                "operator": "Miasto Otwock",
                "operator:type": "government",
                "amenity": "kindergarten"
            }
        },
        {
            "id": 82669,
            "type": "Feature",
            "geometry": {
                "type": "Point",
                "coordinates": [
                    21.27875,
                    52.0990899
                ]
            },
            "properties": {
                "ref:rspo": 82669,
                "official_name": "S\u00f3wka M\u0105dra G\u0142\u00f3wka Anna Osuchowska",
                "name": "S\u00f3wka M\u0105dra G\u0142\u00f3wka Anna Osuchowska",
                "addr:postcode": "05-400",
                "addr:city": "Otwock",
                "addr:street": "Legion\u00f3w",
                "addr:housenumber": "2",
                "addr:city:simc": 921237,
                "addr:street:sym_ul": 10769,
                "phone": "+48 227791358",
                "email": "sowkamadraglowka@wp.pl",
                "ref:regon": "146429520",
                "ref:vatin": "PL5321222801",
                "operator": "Anna Osuchowska",
                "operator:type": "private",
                "amenity": "kindergarten"
            }
        },
        {
            "id": 52412,
            "type": "Feature",
            "geometry": {
                "type": "Point",
                "coordinates": [
                    21.2706,
                    52.0994
                ]
            },
            "properties": {
                "isced:level": "3",
                "ref:rspo": 52412,
                "official_name": "Liceum Og\u00f3lnokszta\u0142c\u0105ce nr I im. K. I. Ga\u0142czy\u0144skiego w Otwocku",
                "name": "Liceum Og\u00f3lnokszta\u0142c\u0105ce nr I",
                "addr:postcode": "05-400",
                "addr:city": "Otwock",
                "addr:street": "Genera\u0142a Juliana Filipowicza",
                "addr:housenumber": "9",
                "addr:city:simc": 921237,
                "addr:street:sym_ul": 5007,
                "phone": "+48 227793184",
                "email": "lootwock@lootwock.pl",
                "website": "http:\/\/www.lootwock.pl",
                "ref:regon": "015470932",
                "ref:vatin": "PL5321026336",
                "operator": "Powiat Otwocki",
                "operator:type": "government",
                "amenity": "school"
            }
        },
        {
            "id": 125579,
            "type": "Feature",
            "geometry": {
                "type": "Point",
                "coordinates": [
                    21.2706,
                    52.09937
                ]
            },
            "properties": {
                "isced:level": "4",
                "ref:rspo": 125579,
                "official_name": "Policealna Szko\u0142a dla Doros\u0142ych Compass Otwock w Otwocku",
                "name": "Policealna Szko\u0142a dla Doros\u0142ych Compass Otwock w Otwocku",
                "addr:postcode": "05-400",
                "addr:city": "Otwock",
                "addr:street": "Genera\u0142a Juliana Filipowicza",
                "addr:housenumber": "9",
                "addr:city:simc": 921237,
                "addr:street:sym_ul": 5007,
                "phone": "+48 693590216",
                "ref:regon": "147459291",
                "operator": "Compass Instytut Edukacji I Szkole\u0144 Sp\u00f3\u0142ka Z Ograniczon\u0105 Odpowiedzialno\u015bci\u0105",
                "operator:type": "private",
                "amenity": "college"
            }
        },
        {
            "id": 80548,
            "type": "Feature",
            "geometry": {
                "type": "Point",
                "coordinates": [
                    21.25749,
                    52.09966
                ]
            },
            "properties": {
                "ref:rspo": 80548,
                "official_name": "Przedszkole nr 12",
                "name": "Przedszkole nr 12",
                "addr:postcode": "05-400",
                "addr:city": "Otwock",
                "addr:street": "Stefana Batorego",
                "addr:housenumber": "34",
                "addr:city:simc": 921237,
                "addr:street:sym_ul": 891,
                "phone": "+48 227795101",
                "email": "p12@oswiata-otwock.pl",
                "ref:regon": "013002612",
                "ref:vatin": "PL5321715395",
                "operator": "Miasto Otwock",
                "operator:type": "government",
                "amenity": "kindergarten"
            }
        },
        {
            "id": 26911,
            "type": "Feature",
            "geometry": {
                "type": "Point",
                "coordinates": [
                    21.26954,
                    52.10092
                ]
            },
            "properties": {
                "ref:rspo": 26911,
                "official_name": "Powiatowy M\u0142odzie\u017cowy Dom Kultury im. Micha\u0142a Elwiro Andriollego w Otwocku",
                "name": "Powiatowy M\u0142odzie\u017cowy Dom Kultury",
                "addr:postcode": "05-400",
                "addr:city": "Otwock",
                "addr:street": "J\u00f3zefa Poniatowskiego",
                "addr:housenumber": "10",
                "addr:city:simc": 921237,
                "addr:street:sym_ul": 17107,
                "phone": "+48 227793357",
                "email": "mdk@pmdk-otwock.pl",
                "website": "http:\/\/www.pmdk-otwock.pl",
                "ref:regon": "000959352",
                "ref:vatin": "PL5321576901",
                "operator": "Powiat Otwocki",
                "operator:type": "government",
                "amenity": "community_centre",
                "community_centre:for": "juvenile"
            }
        },
        {
            "id": 264508,
            "type": "Feature",
            "geometry": {
                "type": "Point",
                "coordinates": [
                    21.26954,
                    52.10089
                ]
            },
            "properties": {
                "ref:rspo": 264508,
                "official_name": "Punkt Przedszkolny \"Kalejdoskop\"",
                "name": "Punkt Przedszkolny \"Kalejdoskop\"",
                "addr:postcode": "05-400",
                "addr:city": "Otwock",
                "addr:street": "J\u00f3zefa Poniatowskiego",
                "addr:housenumber": "10",
                "addr:city:simc": 921237,
                "addr:street:sym_ul": 17107,
                "phone": "+48 883240123",
                "email": "biuro@pracownia-kalejdoskop.pl",
                "website": "http:\/\/www.pracownia-kalejdoskop.pl",
                "ref:regon": "368370789",
                "ref:vatin": "PL5322044980",
                "operator": "Sp\u00f3\u0142dzielnia Socjalna Pracownia Rozwoju \"Kalejdoskop\"",
                "operator:type": "cooperative",
                "amenity": "kindergarten"
            }
        },
        {
            "id": 133746,
            "type": "Feature",
            "geometry": {
                "type": "Point",
                "coordinates": [
                    21.27556,
                    52.10172
                ]
            },
            "properties": {
                "ref:rspo": 133746,
                "official_name": "Akademia O\u015bwiaty",
                "name": "Akademia O\u015bwiaty",
                "addr:postcode": "05-400",
                "addr:city": "Otwock",
                "addr:street": "Armii Krajowej",
                "addr:housenumber": "13",
                "addr:city:simc": 921237,
                "addr:street:sym_ul": 432,
                "phone": "+48 507442085",
                "email": "robert.wilczek@sfb.biz.pl",
                "ref:regon": "367580556",
                "operator": "Robert Wilczek",
                "operator:type": "private",
                "fixme": "w zale\u017cno\u015bci od przedmiotu dzia\u0142alno\u015bci (np. amenity=training + training=*, amenity=dancing_school, amenity=language_school, amenity=music_school)"
            }
        },
        {
            "id": 4200,
            "type": "Feature",
            "geometry": {
                "type": "Point",
                "coordinates": [
                    21.30177,
                    52.10189
                ]
            },
            "properties": {
                "ref:rspo": 4200,
                "official_name": "Specjalny O\u015brodek Szkolno-Wychowawczy nr 2 w Otwocku",
                "name": "Specjalny O\u015brodek Szkolno-Wychowawczy nr 2 w Otwocku",
                "addr:postcode": "05-400",
                "addr:city": "Otwock",
                "addr:street": "Literacka",
                "addr:housenumber": "8",
                "addr:door": "-",
                "addr:city:simc": 921237,
                "addr:street:sym_ul": 11221,
                "phone": "+48 227793504",
                "email": "srodborow@o2.pl",
                "website": "http:\/\/glusiotwock.pl",
                "ref:regon": "017085820",
                "ref:vatin": "PL5321303103",
                "operator": "Powiat Otwocki",
                "operator:type": "government",
                "amenity": "school",
                "note": "Children RSPO: 68097;70163;70358;72454;72457;72458"
            }
        },
        {
            "id": 68097,
            "type": "Feature",
            "geometry": {
                "type": "Point",
                "coordinates": [
                    21.30177,
                    52.101859999999995
                ]
            },
            "properties": {
                "isced:level": "3",
                "ref:rspo": 68097,
                "official_name": "Technikum Specjalne nr 3 dla M\u0142odzie\u017cy Nies\u0142ysz\u0105cej, S\u0142abos\u0142ysz\u0105cej Oraz z Autyzmem, w Tym z Zespo\u0142em Aspergera w Otwocku Specjalny O\u015brodek Szkolno-Wychowawczy nr 2 w Otwocku",
                "name": "Technikum Specjalne nr 3 dla M\u0142odzie\u017cy Nies\u0142ysz\u0105cej, S\u0142abos\u0142ysz\u0105cej Oraz z Autyzmem, w Tym z Zespo\u0142em Aspergera w Otwocku Specjalny O\u015brodek Szkolno-Wychowawczy nr 2 w Otwocku",
                "addr:postcode": "05-400",
                "addr:city": "Otwock",
                "addr:street": "Literacka",
                "addr:housenumber": "8",
                "addr:city:simc": 921237,
                "addr:street:sym_ul": 11221,
                "phone": "+48 227793504",
                "email": "srodborow@o2.pl",
                "website": "http:\/\/glusiotwock.pl",
                "ref:regon": "146395962",
                "operator": "Powiat Otwocki",
                "operator:type": "government",
                "amenity": "school",
                "note": "Parent RSPO: 4200"
            }
        },
        {
            "id": 70163,
            "type": "Feature",
            "geometry": {
                "type": "Point",
                "coordinates": [
                    21.30177,
                    52.10183
                ]
            },
            "properties": {
                "isced:level": "3",
                "ref:rspo": 70163,
                "official_name": "Bran\u017cowa Szko\u0142a Specjalna I Stopnia nr 4 dla Uczni\u00f3w Nies\u0142ysz\u0105cych, S\u0142abos\u0142ysz\u0105cych Oraz z Autyzmem, w Tym z Zespo\u0142em Aspergera w Otwocku Specjalny O\u015brodek Szkolno-Wychowawczy nr 2 w Otwocku",
                "name": "Bran\u017cowa Szko\u0142a Specjalna I Stopnia nr 4 dla Uczni\u00f3w Nies\u0142ysz\u0105cych, S\u0142abos\u0142ysz\u0105cych Oraz z Autyzmem, w Tym z Zespo\u0142em Aspergera w Otwocku Specjalny O\u015brodek Szkolno-Wychowawczy nr 2 w Otwocku",
                "addr:postcode": "05-400",
                "addr:city": "Otwock",
                "addr:street": "Literacka",
                "addr:housenumber": "8",
                "addr:city:simc": 921237,
                "addr:street:sym_ul": 11221,
                "phone": "+48 227793504",
                "email": "srodborow@o2.pl",
                "website": "http:\/\/glusiotwock.pl",
                "ref:regon": "015606053",
                "operator": "Powiat Otwocki",
                "operator:type": "government",
                "amenity": "school",
                "note": "Parent RSPO: 4200"
            }
        },
        {
            "id": 70358,
            "type": "Feature",
            "geometry": {
                "type": "Point",
                "coordinates": [
                    21.30177,
                    52.1018
                ]
            },
            "properties": {
                "isced:level": "4",
                "ref:rspo": 70358,
                "official_name": "Specjalny O\u015brodek Szkolno-Wychowawczy nr 2 w Otwocku Szko\u0142a Policealna Specjalna nr 3 dla M\u0142odzie\u017cy Nies\u0142ysz\u0105cej, S\u0142abos\u0142ysz\u0105cej Oraz z Autyzmem, w Tym Zespo\u0142em Aspergera w Otwocku",
                "name": "Specjalny O\u015brodek Szkolno-Wychowawczy nr 2 w Otwocku Szko\u0142a Policealna Specjalna nr 3 dla M\u0142odzie\u017cy Nies\u0142ysz\u0105cej, S\u0142abos\u0142ysz\u0105cej Oraz z Autyzmem, w Tym Zespo\u0142em Aspergera w Otwocku",
                "addr:postcode": "05-400",
                "addr:city": "Otwock",
                "addr:street": "Literacka",
                "addr:housenumber": "8",
                "addr:city:simc": 921237,
                "addr:street:sym_ul": 11221,
                "phone": "+48 227793504",
                "email": "srodborow@oo2.pl",
                "website": "http:\/\/glusiotwock.pl",
                "ref:regon": "144316272",
                "operator": "Powiat Otwocki",
                "operator:type": "government",
                "amenity": "college",
                "note": "Parent RSPO: 4200"
            }
        },
        {
            "id": 72454,
            "type": "Feature",
            "geometry": {
                "type": "Point",
                "coordinates": [
                    21.30177,
                    52.101769999999995
                ]
            },
            "properties": {
                "isced:level": "3",
                "ref:rspo": 72454,
                "official_name": "Liceum Og\u00f3lnokszta\u0142c\u0105ce Specjalne nr IV dla M\u0142odzie\u017cy Nies\u0142ysz\u0105cej, S\u0142abos\u0142ysz\u0105cej Oraz z Autyzmem, w Tym z Zespo\u0142em Aspergera w Otwocku Specjalny O\u015brodek Szkolno-Wychowawczy nr 2 w Otwocku",
                "name": "Liceum Og\u00f3lnokszta\u0142c\u0105ce Specjalne nr IV dla M\u0142odzie\u017cy Nies\u0142ysz\u0105cej, S\u0142abos\u0142ysz\u0105cej Oraz z Autyzmem, w Tym z Zespo\u0142em Aspergera w Otwocku Specjalny O\u015brodek Szkolno-Wychowawczy nr 2 w Otwocku",
                "addr:postcode": "05-400",
                "addr:city": "Otwock",
                "addr:street": "Literacka",
                "addr:housenumber": "8",
                "addr:city:simc": 921237,
                "addr:street:sym_ul": 11221,
                "phone": "+48 227793504",
                "email": "srodborow@o2.pl",
                "website": "http:\/\/glusiotwock.pl",
                "ref:regon": "141482142",
                "operator": "Powiat Otwocki",
                "operator:type": "government",
                "amenity": "school",
                "note": "Parent RSPO: 4200"
            }
        },
        {
            "id": 72457,
            "type": "Feature",
            "geometry": {
                "type": "Point",
                "coordinates": [
                    21.30177,
                    52.10174
                ]
            },
            "properties": {
                "ref:rspo": 72457,
                "official_name": "Przedszkole Specjalne nr 2 dla Dzieci Nies\u0142ysz\u0105cych, S\u0142abos\u0142ysz\u0105cych, z Niepe\u0142nosprawno\u015bci\u0105 Ruchow\u0105, z Niepe\u0142nosprawno\u015bci\u0105 Intelektualn\u0105 w Stopniu Umiarkowanym Lub Znacznym, z Autyzmem, w Tym z Zespo\u0142em Aspergera Oraz z Niepe\u0142nosprawno\u015bci",
                "name": "Przedszkole Specjalne nr 2 dla Dzieci Nies\u0142ysz\u0105cych, S\u0142abos\u0142ysz\u0105cych, z Niepe\u0142nosprawno\u015bci\u0105 Ruchow\u0105, z Niepe\u0142nosprawno\u015bci\u0105 Intelektualn\u0105 w Stopniu Umiarkowanym Lub Znacznym, z Autyzmem, w Tym z Zespo\u0142em Aspergera Oraz z Niepe\u0142nosprawno\u015bci",
                "addr:postcode": "05-400",
                "addr:city": "Otwock",
                "addr:street": "Literacka",
                "addr:housenumber": "8",
                "addr:city:simc": 921237,
                "addr:street:sym_ul": 11221,
                "phone": "+48 227793504",
                "email": "srodborow@o2.pl",
                "website": "http:\/\/glusiotwock.pl",
                "ref:regon": "015816247",
                "operator": "Powiat Otwocki",
                "operator:type": "government",
                "amenity": "kindergarten",
                "note": "Parent RSPO: 4200"
            }
        },
        {
            "id": 72458,
            "type": "Feature",
            "geometry": {
                "type": "Point",
                "coordinates": [
                    21.30177,
                    52.10171
                ]
            },
            "properties": {
                "isced:level": "1;2",
                "ref:rspo": 72458,
                "official_name": "Szko\u0142a Podstawowa Specjalna nr 2 dla Uczni\u00f3w Nies\u0142ysz\u0105cych, S\u0142abos\u0142ysz\u0105cych Oraz z Autyzmem, w Tym z Zespo\u0142em Aspergera w Otwocku Specjalny O\u015brodek Szkolno-Wychowawczy nr 2 w Otwocku",
                "name": "Szko\u0142a Podstawowa Specjalna nr 2 dla Uczni\u00f3w Nies\u0142ysz\u0105cych, S\u0142abos\u0142ysz\u0105cych Oraz z Autyzmem, w Tym z Zespo\u0142em Aspergera w Otwocku Specjalny O\u015brodek Szkolno-Wychowawczy nr 2 w Otwocku",
                "addr:postcode": "05-400",
                "addr:city": "Otwock",
                "addr:street": "Literacka",
                "addr:housenumber": "8",
                "addr:city:simc": 921237,
                "addr:street:sym_ul": 11221,
                "phone": "+48 227793504",
                "email": "srodborow@o2.pl",
                "website": "http:\/\/glusiotwock.pl",
                "ref:regon": "015611522",
                "operator": "Powiat Otwocki",
                "operator:type": "government",
                "amenity": "school",
                "note": "Parent RSPO: 4200"
            }
        },
        {
            "id": 79701,
            "type": "Feature",
            "geometry": {
                "type": "Point",
                "coordinates": [
                    21.26289,
                    52.10196
                ]
            },
            "properties": {
                "isced:level": "1;2",
                "ref:rspo": 79701,
                "official_name": "Szko\u0142a Podstawowa nr 1 im. W\u0142adys\u0142awa Reymonta w Otwocku",
                "name": "Szko\u0142a Podstawowa nr 1",
                "addr:postcode": "05-400",
                "addr:city": "Otwock",
                "addr:street": "Karczewska",
                "addr:housenumber": "14\/16",
                "addr:city:simc": 921237,
                "addr:street:sym_ul": 8025,
                "phone": "+48 227792414",
                "email": "sp1@oswiata-otwock.pl",
                "ref:regon": "000800261",
                "ref:vatin": "PL5321648428",
                "operator": "Miasto Otwock",
                "operator:type": "government",
                "amenity": "school"
            }
        },
        {
            "id": 86327,
            "type": "Feature",
            "geometry": {
                "type": "Point",
                "coordinates": [
                    21.26289,
                    52.101929999999996
                ]
            },
            "properties": {
                "ref:rspo": 86327,
                "official_name": "Prywatna Szko\u0142a Muzyczna I St. nr 1 w Otwocku",
                "name": "Prywatna Szko\u0142a Muzyczna I St. nr 1 w Otwocku",
                "addr:postcode": "05-400",
                "addr:city": "Otwock",
                "addr:street": "Karczewska",
                "addr:housenumber": "14\/16",
                "addr:city:simc": 921237,
                "addr:street:sym_ul": 8025,
                "phone": "+48 227804026",
                "ref:regon": "146453487",
                "operator": "Agnieszka Michalczyk",
                "operator:type": "private",
                "amenity": "music_school"
            }
        },
        {
            "id": 79693,
            "type": "Feature",
            "geometry": {
                "type": "Point",
                "coordinates": [
                    21.26428,
                    52.10259
                ]
            },
            "properties": {
                "ref:rspo": 79693,
                "official_name": "Przedszkole nr 16 \"Grymu\u015b\"",
                "name": "Przedszkole nr 16 \"Grymu\u015b\"",
                "addr:postcode": "05-400",
                "addr:city": "Otwock",
                "addr:street": "Karczewska",
                "addr:housenumber": "27a",
                "addr:city:simc": 921237,
                "addr:street:sym_ul": 8025,
                "phone": "+48 227795411",
                "email": "p16@oswiata-otwock.pl",
                "ref:regon": "013002658",
                "ref:vatin": "PL5321713019",
                "operator": "Miasto Otwock",
                "operator:type": "government",
                "amenity": "kindergarten"
            }
        },
        {
            "id": 119008,
            "type": "Feature",
            "geometry": {
                "type": "Point",
                "coordinates": [
                    21.24783,
                    52.1030299
                ]
            },
            "properties": {
                "isced:level": "1;2",
                "ref:rspo": 119008,
                "official_name": "Niepubliczna Szko\u0142a Podstawowa im. Noblist\u00f3w Polskich",
                "name": "Niepubliczna Szko\u0142a Podstawowa",
                "addr:postcode": "05-400",
                "addr:city": "Otwock",
                "addr:street": "Czerska",
                "addr:housenumber": "21",
                "addr:city:simc": 921237,
                "addr:street:sym_ul": 3403,
                "phone": "+48 883700315",
                "email": "sekretariat@noblisci.edu.pl",
                "website": "http:\/\/www.noblisci.edu.pl",
                "ref:regon": "146831340",
                "ref:vatin": "PL9860085549",
                "operator": "Kubajek.pl Piotr Kubajek",
                "operator:type": "consortium",
                "amenity": "school"
            }
        },
        {
            "id": 196452,
            "type": "Feature",
            "geometry": {
                "type": "Point",
                "coordinates": [
                    21.25548,
                    52.10357
                ]
            },
            "properties": {
                "isced:level": "1;2",
                "ref:rspo": 196452,
                "official_name": "Szko\u0142a Podstawowa nr 4 im. J\u00f3zefa Pi\u0142sudskiego",
                "name": "Szko\u0142a Podstawowa nr 4",
                "addr:postcode": "05-400",
                "addr:city": "Otwock",
                "addr:street": "Szkolna",
                "addr:housenumber": "31",
                "addr:city:simc": 921237,
                "addr:street:sym_ul": 21970,
                "phone": "+48 227792463",
                "email": "sp4@oswiata-otwock.pl",
                "ref:regon": "367998244",
                "operator": "Miasto Otwock",
                "operator:type": "government",
                "amenity": "school"
            }
        },
        {
            "id": 130677,
            "type": "Feature",
            "geometry": {
                "type": "Point",
                "coordinates": [
                    21.26237,
                    52.10394
                ]
            },
            "properties": {
                "ref:rspo": 130677,
                "official_name": "Niepubliczna Poradnia Psychologiczno - Pedagogiczna Laudame",
                "name": "Niepubliczna Poradnia Psychologiczno - Pedagogiczna Laudame",
                "addr:postcode": "05-400",
                "addr:city": "Otwock",
                "addr:street": "Radosna",
                "addr:housenumber": "2 B",
                "addr:city:simc": 921237,
                "addr:street:sym_ul": 18322,
                "phone": "+48 660260304",
                "email": "biuro.laudame@gmail.com",
                "website": "http:\/\/www.laudame.pl",
                "ref:regon": "364323238",
                "operator": "Roksana Kosmala-Kwiatkowska",
                "operator:type": "private",
                "healthcare": "counselling",
                "counselling_type": "education",
                "fixme": "w zale\u017cno\u015bci od przedmiotu dzia\u0142alno\u015bci (np. healthcare=counselling + counselling_type=education albo healthcare=psychotherapist)"
            }
        },
        {
            "id": 130852,
            "type": "Feature",
            "geometry": {
                "type": "Point",
                "coordinates": [
                    21.26237,
                    52.10391
                ]
            },
            "properties": {
                "ref:rspo": 130852,
                "official_name": "Niepubliczny Terapeutyczny Punkt Przedszkolny Laudame",
                "name": "Niepubliczny Terapeutyczny Punkt Przedszkolny Laudame",
                "addr:postcode": "05-400",
                "addr:city": "Otwock",
                "addr:street": "Radosna",
                "addr:housenumber": "2B",
                "addr:city:simc": 921237,
                "addr:street:sym_ul": 18322,
                "phone": "+48 570122006",
                "email": "biuro.laudame@gmail.com",
                "website": "http:\/\/www.laudame.pl",
                "ref:regon": "364622225",
                "ref:vatin": "PL5213717925",
                "operator": "Roksana Kosmala-Kwiatkowska",
                "operator:type": "private",
                "amenity": "kindergarten"
            }
        },
        {
            "id": 107657,
            "type": "Feature",
            "geometry": {
                "type": "Point",
                "coordinates": [
                    21.25467,
                    52.10398
                ]
            },
            "properties": {
                "ref:rspo": 107657,
                "official_name": "Domowe Przedszkole. Niepubliczne Przedszkole O Profilu J\u0119zykowym",
                "name": "Domowe Przedszkole. Niepubliczne Przedszkole O Profilu J\u0119zykowym",
                "addr:postcode": "05-400",
                "addr:city": "Otwock",
                "addr:street": "Szkolna",
                "addr:housenumber": "50",
                "addr:city:simc": 921237,
                "addr:street:sym_ul": 21970,
                "phone": "+48 882165475",
                "email": "domowe@przedszkole-otwock.pl",
                "ref:regon": "146508366",
                "ref:vatin": "PL5321791427",
                "operator": "Anna Ros\u0142aniec",
                "operator:type": "private",
                "amenity": "kindergarten"
            }
        },
        {
            "id": 124017,
            "type": "Feature",
            "geometry": {
                "type": "Point",
                "coordinates": [
                    21.26595,
                    52.10418
                ]
            },
            "properties": {
                "ref:rspo": 124017,
                "official_name": "Niepubliczna Szko\u0142a Muzyczna I Stopnia Tumigra w Otwocku",
                "name": "Niepubliczna Szko\u0142a Muzyczna I Stopnia Tumigra w Otwocku",
                "addr:postcode": "05-400",
                "addr:city": "Otwock",
                "addr:street": "Sosnowa",
                "addr:housenumber": "3",
                "addr:city:simc": 921237,
                "addr:street:sym_ul": 20598,
                "email": "joannaurbanska82@wp.pl",
                "ref:regon": "147368915",
                "operator": "Joanna Urba\u0144ska",
                "operator:type": "private",
                "amenity": "music_school"
            }
        },
        {
            "id": 56670,
            "type": "Feature",
            "geometry": {
                "type": "Point",
                "coordinates": [
                    21.27487,
                    52.10436
                ]
            },
            "properties": {
                "isced:level": "3",
                "ref:rspo": 56670,
                "official_name": "Katolickie Liceum Humanistyczne im. \u015awi\u0119tej Jadwigi Kr\u00f3lowej Polski",
                "name": "Katolickie Liceum Humanistyczne",
                "addr:postcode": "05-400",
                "addr:city": "Otwock",
                "addr:street": "Stefana \u017beromskiego",
                "addr:housenumber": "6",
                "addr:city:simc": 921237,
                "addr:street:sym_ul": 26469,
                "phone": "+48 227793696",
                "email": "dyrektor@klhotwock.pl",
                "website": "http:\/\/www.klhotwock.pl",
                "ref:regon": "146437086",
                "ref:vatin": "PL5321203270",
                "operator": "Otwockie Towarzystwo Przyjaci\u00f3\u0142 Szko\u0142y Katolickiej Im. \u015aw. Jadwigi Kr\u00f3lowej Polski",
                "operator:type": "ngo",
                "amenity": "school"
            }
        },
        {
            "id": 79691,
            "type": "Feature",
            "geometry": {
                "type": "Point",
                "coordinates": [
                    21.29996,
                    52.10454
                ]
            },
            "properties": {
                "ref:rspo": 79691,
                "official_name": "Przedszkole nr 6",
                "name": "Przedszkole nr 6",
                "addr:postcode": "05-400",
                "addr:city": "Otwock",
                "addr:street": "Kubusia Puchatka",
                "addr:housenumber": "28",
                "addr:city:simc": 921237,
                "addr:street:sym_ul": 10316,
                "phone": "+48 227794123",
                "email": "p6@oswiata-otwock.pl",
                "ref:regon": "013002569",
                "ref:vatin": "PL5321766961",
                "operator": "Miasto Otwock",
                "operator:type": "government",
                "amenity": "kindergarten"
            }
        },
        {
            "id": 106720,
            "type": "Feature",
            "geometry": {
                "type": "Point",
                "coordinates": [
                    21.26401,
                    52.10581
                ]
            },
            "properties": {
                "ref:rspo": 106720,
                "official_name": "Otwockie Centrum J\u0119zykowe Barbara I Ernesto Menin",
                "name": "Otwockie Centrum J\u0119zykowe Barbara I Ernesto Menin",
                "addr:postcode": "05-400",
                "addr:city": "Otwock",
                "addr:street": "Powsta\u0144c\u00f3w Warszawy",
                "addr:housenumber": "13",
                "addr:city:simc": 921237,
                "addr:street:sym_ul": 17372,
                "phone": "+48 227792258",
                "email": "biuro@menin.pl",
                "website": "http:\/\/www.menin.pl",
                "ref:regon": "146484542",
                "ref:vatin": "PL5321920480",
                "operator": "Barbara Dylejko-Menin",
                "operator:type": "private",
                "fixme": "w zale\u017cno\u015bci od przedmiotu dzia\u0142alno\u015bci (np. amenity=training + training=*, amenity=dancing_school, amenity=language_school, amenity=music_school)"
            }
        },
        {
            "id": 196451,
            "type": "Feature",
            "geometry": {
                "type": "Point",
                "coordinates": [
                    21.27209,
                    52.1064999
                ]
            },
            "properties": {
                "isced:level": "1;2",
                "ref:rspo": 196451,
                "official_name": "Szko\u0142a Podstawowa nr 3 im. Tomasza Morusa",
                "name": "Szko\u0142a Podstawowa nr 3",
                "addr:postcode": "05-400",
                "addr:city": "Otwock",
                "addr:street": "Tadeusza Ko\u015bciuszki",
                "addr:housenumber": "28",
                "addr:city:simc": 921237,
                "addr:street:sym_ul": 9582,
                "phone": "+48 227886461",
                "email": "gm3@oswiata-otwock.pl",
                "ref:regon": "367998215",
                "operator": "Miasto Otwock",
                "operator:type": "government",
                "amenity": "school"
            }
        },
        {
            "id": 25796,
            "type": "Feature",
            "geometry": {
                "type": "Point",
                "coordinates": [
                    21.27818,
                    52.10689
                ]
            },
            "properties": {
                "ref:rspo": 25796,
                "official_name": "Zesp\u00f3\u0142 Szk\u00f3\u0142 Ekonomiczno-Gastronomicznych im. Stanis\u0142awa Staszica w Otwocku",
                "name": "Zesp\u00f3\u0142 Szk\u00f3\u0142 Ekonomiczno-Gastronomicznych",
                "addr:postcode": "05-400",
                "addr:city": "Otwock",
                "addr:street": "Marii Konopnickiej",
                "addr:housenumber": "3",
                "addr:city:simc": 921237,
                "addr:street:sym_ul": 9186,
                "phone": "+48 227793786",
                "email": "sekretariat@zseg.edu.pl",
                "website": "http:\/\/www.zseg.edu.pl",
                "ref:regon": "000683720",
                "ref:vatin": "PL5321578082",
                "operator": "Powiat Otwocki",
                "operator:type": "government",
                "landuse": "education",
                "fixme": "amenity=school, amenity=college albo landuse=education w zale\u017cno\u015bci od tego, jakie plac\u00f3wki wchodz\u0105 w sk\u0142ad zespo\u0142u. Sprawd\u017a, kiedy stosowa\u0107 amenity=* a kiedy landuse=education.",
                "note": "Children RSPO: 57835;62563;72445;119683"
            }
        },
        {
            "id": 57835,
            "type": "Feature",
            "geometry": {
                "type": "Point",
                "coordinates": [
                    21.27818,
                    52.10686
                ]
            },
            "properties": {
                "isced:level": "3",
                "ref:rspo": 57835,
                "official_name": "Technikum nr 1 w Otwocku Zesp\u00f3\u0142 Szk\u00f3\u0142 Ekonomiczno-Gastronomicznych im. Stanis\u0142awa Staszica w Otwocku",
                "name": "Technikum nr 1 w Otwocku Zesp\u00f3\u0142 Szk\u00f3\u0142 Ekonomiczno-Gastronomicznych",
                "addr:postcode": "05-400",
                "addr:city": "Otwock",
                "addr:street": "Marii Konopnickiej",
                "addr:housenumber": "3",
                "addr:city:simc": 921237,
                "addr:street:sym_ul": 9186,
                "phone": "+48 227792644",
                "email": "sekretariat@zseg.edu.pl",
                "website": "http:\/\/www.zseg.edu.pl",
                "ref:regon": "015495620",
                "operator": "Powiat Otwocki",
                "operator:type": "government",
                "amenity": "school",
                "note": "Parent RSPO: 25796"
            }
        },
        {
            "id": 62563,
            "type": "Feature",
            "geometry": {
                "type": "Point",
                "coordinates": [
                    21.27818,
                    52.10683
                ]
            },
            "properties": {
                "isced:level": "4",
                "ref:rspo": 62563,
                "official_name": "Zesp\u00f3\u0142 Szk\u00f3\u0142 Ekonomiczno-Gastronomicznych im. Stanis\u0142awa Staszica w Otwocku Szko\u0142a Policealna nr 1 w Otwocku",
                "name": "Zesp\u00f3\u0142 Szk\u00f3\u0142 Ekonomiczno-Gastronomicznych",
                "addr:postcode": "05-400",
                "addr:city": "Otwock",
                "addr:street": "Marii Konopnickiej",
                "addr:housenumber": "3",
                "addr:city:simc": 921237,
                "addr:street:sym_ul": 9186,
                "phone": "+48 227792644",
                "email": "sekretariat@zseg.edu.pl",
                "website": "http:\/\/www.zseg.edu.pl",
                "ref:regon": "015816342",
                "operator": "Powiat Otwocki",
                "operator:type": "government",
                "amenity": "college",
                "note": "Parent RSPO: 25796"
            }
        },
        {
            "id": 72445,
            "type": "Feature",
            "geometry": {
                "type": "Point",
                "coordinates": [
                    21.27818,
                    52.1068
                ]
            },
            "properties": {
                "isced:level": "3",
                "ref:rspo": 72445,
                "official_name": "Bran\u017cowa Szko\u0142a I Stopnia nr 1 w Otwocku Zesp\u00f3\u0142 Szk\u00f3\u0142 Ekonomiczno-Gastronomicznych im. Stanis\u0142awa Staszica w Otwocku",
                "name": "Bran\u017cowa Szko\u0142a I Stopnia nr 1 w Otwocku Zesp\u00f3\u0142 Szk\u00f3\u0142 Ekonomiczno-Gastronomicznych",
                "addr:postcode": "05-400",
                "addr:city": "Otwock",
                "addr:street": "Marii Konopnickiej",
                "addr:housenumber": "3",
                "addr:city:simc": 921237,
                "addr:street:sym_ul": 9186,
                "phone": "+48 227792644",
                "email": "sekretariat@zseg.edu.pl",
                "website": "http:\/\/www.zseg.edu.pl",
                "ref:regon": "015497078",
                "operator": "Powiat Otwocki",
                "operator:type": "government",
                "amenity": "school",
                "note": "Parent RSPO: 25796"
            }
        },
        {
            "id": 119683,
            "type": "Feature",
            "geometry": {
                "type": "Point",
                "coordinates": [
                    21.27818,
                    52.10677
                ]
            },
            "properties": {
                "ref:rspo": 119683,
                "official_name": "Centrum Kszta\u0142cenia Zawodowego w Otwocku",
                "name": "Centrum Kszta\u0142cenia Zawodowego w Otwocku",
                "addr:postcode": "05-400",
                "addr:city": "Otwock",
                "addr:street": "Marii Konopnickiej",
                "addr:housenumber": "3",
                "addr:city:simc": 921237,
                "addr:street:sym_ul": 9186,
                "phone": "+48 227792644",
                "email": "sekretariat@zseg.edu.pl",
                "website": "http:\/\/www.zseg.edu.pl",
                "ref:regon": "146857180",
                "operator": "Powiat Otwocki",
                "operator:type": "government",
                "fixme": "w zale\u017cno\u015bci od przedmiotu dzia\u0142alno\u015bci (np. amenity=training + training=*, amenity=dancing_school, amenity=language_school, amenity=music_school) albo amenity=school, amenity=college, albo landuse=education w zale\u017cno\u015bci od tego, jakie plac\u00f3wki wchodz\u0105 w sk\u0142ad zespo\u0142u. Sprawd\u017a, kiedy stosowa\u0107 amenity=* a kiedy landuse=education.",
                "note": "Parent RSPO: 25796"
            }
        },
        {
            "id": 121272,
            "type": "Feature",
            "geometry": {
                "type": "Point",
                "coordinates": [
                    21.26183,
                    52.1077
                ]
            },
            "properties": {
                "ref:rspo": 121272,
                "official_name": "Zesp\u00f3\u0142 Szk\u00f3\u0142 \"Pascal\" w Otwocku",
                "name": "Zesp\u00f3\u0142 Szk\u00f3\u0142 \"Pascal\" w Otwocku",
                "addr:postcode": "05-400",
                "addr:city": "Otwock",
                "addr:street": "Micha\u0142a Andriollego",
                "addr:housenumber": "8\/2",
                "addr:city:simc": 921237,
                "addr:street:sym_ul": 292,
                "phone": "+48 222435552",
                "email": "otwock@pascal.edu.pl",
                "website": "http:\/\/www.pascal.edu.pl",
                "ref:regon": "147024506",
                "operator": "Grupa Pascal Sp\u00f3\u0142ka Z Ograniczon\u0105 Odpowiedzialno\u015bci\u0105",
                "operator:type": "private",
                "landuse": "education",
                "fixme": "amenity=school, amenity=college albo landuse=education w zale\u017cno\u015bci od tego, jakie plac\u00f3wki wchodz\u0105 w sk\u0142ad zespo\u0142u. Sprawd\u017a, kiedy stosowa\u0107 amenity=* a kiedy landuse=education.",
                "note": "Children RSPO: 43356;47469;126262;127298"
            }
        },
        {
            "id": 43356,
            "type": "Feature",
            "geometry": {
                "type": "Point",
                "coordinates": [
                    21.26183,
                    52.10767
                ]
            },
            "properties": {
                "isced:level": "3",
                "ref:rspo": 43356,
                "official_name": "Liceum Og\u00f3lnokszta\u0142c\u0105ce dla Doros\u0142ych \"Pascal\" w Otwocku",
                "name": "Liceum Og\u00f3lnokszta\u0142c\u0105ce dla Doros\u0142ych \"Pascal\" w Otwocku",
                "addr:postcode": "05-400",
                "addr:city": "Otwock",
                "addr:street": "Micha\u0142a Andriollego",
                "addr:housenumber": "8",
                "addr:door": "2",
                "addr:city:simc": 921237,
                "addr:street:sym_ul": 292,
                "phone": "+48 222435552",
                "email": "otwock@pascal.edu.pl",
                "website": "http:\/\/www.pascal.edu.pl",
                "ref:regon": "146411997",
                "operator": "Grupa Pascal Sp\u00f3\u0142ka Z Ograniczon\u0105 Odpowiedzialno\u015bci\u0105",
                "operator:type": "private",
                "amenity": "school",
                "note": "Parent RSPO: 121272"
            }
        },
        {
            "id": 47469,
            "type": "Feature",
            "geometry": {
                "type": "Point",
                "coordinates": [
                    21.26183,
                    52.10764
                ]
            },
            "properties": {
                "isced:level": "4",
                "ref:rspo": 47469,
                "official_name": "Policealna Szko\u0142a Zawodowa \"Pascal\" w Otwocku",
                "name": "Policealna Szko\u0142a Zawodowa \"Pascal\" w Otwocku",
                "addr:postcode": "05-400",
                "addr:city": "Otwock",
                "addr:street": "Micha\u0142a Andriollego",
                "addr:housenumber": "8",
                "addr:door": "2",
                "addr:city:simc": 921237,
                "addr:street:sym_ul": 292,
                "phone": "+48 222435552",
                "email": "otwock@pascal.edu.pl",
                "website": "http:\/\/www.pascal.edu.pl",
                "ref:regon": "146407412",
                "operator": "Grupa Pascal Sp\u00f3\u0142ka Z Ograniczon\u0105 Odpowiedzialno\u015bci\u0105",
                "operator:type": "private",
                "amenity": "college",
                "note": "Parent RSPO: 121272"
            }
        },
        {
            "id": 126262,
            "type": "Feature",
            "geometry": {
                "type": "Point",
                "coordinates": [
                    21.26183,
                    52.10761
                ]
            },
            "properties": {
                "isced:level": "4",
                "ref:rspo": 126262,
                "official_name": "Policealna Szko\u0142a Medyczna \"Pascal\" w Otwocku",
                "name": "Policealna Szko\u0142a Medyczna \"Pascal\" w Otwocku",
                "addr:postcode": "05-400",
                "addr:city": "Otwock",
                "addr:street": "Micha\u0142a Andriollego",
                "addr:housenumber": "8",
                "addr:door": "2",
                "addr:city:simc": 921237,
                "addr:street:sym_ul": 292,
                "phone": "+48 222435552",
                "email": "otwock@pascal.edu.pl",
                "website": "http:\/\/www.pascal.edu.pl",
                "ref:regon": "360192348",
                "operator": "Grupa Pascal Sp\u00f3\u0142ka Z Ograniczon\u0105 Odpowiedzialno\u015bci\u0105",
                "operator:type": "private",
                "amenity": "college",
                "note": "Parent RSPO: 121272"
            }
        },
        {
            "id": 127298,
            "type": "Feature",
            "geometry": {
                "type": "Point",
                "coordinates": [
                    21.26183,
                    52.10758
                ]
            },
            "properties": {
                "isced:level": "4",
                "ref:rspo": 127298,
                "official_name": "Stacjonarna Policealna Szko\u0142a Medyczna \"Pascal\" w Otwocku",
                "name": "Stacjonarna Policealna Szko\u0142a Medyczna \"Pascal\" w Otwocku",
                "addr:postcode": "05-400",
                "addr:city": "Otwock",
                "addr:street": "Micha\u0142a Andriollego",
                "addr:housenumber": "8",
                "addr:door": "2",
                "addr:city:simc": 921237,
                "addr:street:sym_ul": 292,
                "phone": "+48 222435552",
                "email": "otwock@pascal.edu.pl",
                "website": "http:\/\/www.pascal.edu.pl",
                "ref:regon": "361321836",
                "operator": "Grupa Pascal Sp\u00f3\u0142ka Z Ograniczon\u0105 Odpowiedzialno\u015bci\u0105",
                "operator:type": "private",
                "amenity": "college",
                "note": "Parent RSPO: 121272"
            }
        },
        {
            "id": 79687,
            "type": "Feature",
            "geometry": {
                "type": "Point",
                "coordinates": [
                    21.24375,
                    52.1079099
                ]
            },
            "properties": {
                "ref:rspo": 79687,
                "official_name": "Przedzkole nr 3",
                "name": "Przedzkole nr 3",
                "addr:postcode": "05-400",
                "addr:city": "Otwock",
                "addr:street": "Jod\u0142owa",
                "addr:housenumber": "14",
                "addr:city:simc": 921237,
                "addr:street:sym_ul": 7582,
                "phone": "+48 227792984",
                "email": "p3@oswiata-otwock.pl",
                "ref:regon": "140631730",
                "ref:vatin": "PL5321918052",
                "operator": "Miasto Otwock",
                "operator:type": "government",
                "amenity": "kindergarten"
            }
        },
        {
            "id": 79703,
            "type": "Feature",
            "geometry": {
                "type": "Point",
                "coordinates": [
                    21.23838,
                    52.10799
                ]
            },
            "properties": {
                "isced:level": "1;2",
                "ref:rspo": 79703,
                "official_name": "Szko\u0142a Podstawowa nr 6 im. Micha\u0142a Elwiro Andriollego w Otwocku",
                "name": "Szko\u0142a Podstawowa nr 6",
                "addr:postcode": "05-402",
                "addr:city": "Otwock",
                "addr:street": "Ambasadorska",
                "addr:housenumber": "1",
                "addr:city:simc": 921237,
                "addr:street:sym_ul": 260,
                "phone": "+48 227793431",
                "email": "sp6@oswiata-otwock.pl",
                "website": "http:\/\/sp6otwock.superszkolna.pl",
                "ref:regon": "000800114",
                "ref:vatin": "PL5321647802",
                "operator": "Miasto Otwock",
                "operator:type": "government",
                "amenity": "school"
            }
        },
        {
            "id": 82474,
            "type": "Feature",
            "geometry": {
                "type": "Point",
                "coordinates": [
                    21.23838,
                    52.10796
                ]
            },
            "properties": {
                "ref:rspo": 82474,
                "official_name": "Niepubliczne Przedszkole Ekologiczne nr 4 \"Otwockie Maluchy\" Gra\u017cyna Wojda-P\u0142ochowska",
                "name": "Niepubliczne Przedszkole Ekologiczne nr 4 \"Otwockie Maluchy\" Gra\u017cyna Wojda-P\u0142ochowska",
                "addr:postcode": "05-400",
                "addr:city": "Otwock",
                "addr:street": "Ambasadorska",
                "addr:housenumber": "1",
                "addr:city:simc": 921237,
                "addr:street:sym_ul": 260,
                "phone": "+48 227793160",
                "email": "otwockiemaluchy@wp.pl",
                "ref:regon": "146428354",
                "ref:vatin": "PL5321348175",
                "operator": "Dane Do Uzupe\u0142nienia",
                "operator:type": "private",
                "amenity": "kindergarten"
            }
        },
        {
            "id": 104039,
            "type": "Feature",
            "geometry": {
                "type": "Point",
                "coordinates": [
                    21.29053,
                    52.10922
                ]
            },
            "properties": {
                "ref:rspo": 104039,
                "official_name": "Przedszkole Niepubliczne \"Anielinek\" Prowadzone Przez Zgromadzenie Si\u00f3str Benedyktynek Misjonarek",
                "name": "Przedszkole Niepubliczne \"Anielinek\" Prowadzone Przez Zgromadzenie Si\u00f3str Benedyktynek Misjonarek",
                "addr:postcode": "05-400",
                "addr:city": "Otwock",
                "addr:street": "W\u0142adys\u0142awa Stanis\u0142awa Reymonta",
                "addr:housenumber": "68\/70",
                "addr:city:simc": 921237,
                "addr:street:sym_ul": 18652,
                "phone": "+48 227790080",
                "email": "przedszkole@anielinek.com.pl",
                "ref:regon": "146453547",
                "ref:vatin": "PL5321618143",
                "operator": "Zgromadzenie Si\u00f3str Benedyktynek Misjonarek,Dom Generalny",
                "operator:type": "religious",
                "amenity": "kindergarten"
            }
        },
        {
            "id": 275917,
            "type": "Feature",
            "geometry": {
                "type": "Point",
                "coordinates": [
                    21.26908,
                    52.10943
                ]
            },
            "properties": {
                "ref:rspo": 275917,
                "official_name": "Niepubliczny Punkt Przedszkolny w Dobrych R\u0119kach",
                "name": "Niepubliczny Punkt Przedszkolny w Dobrych R\u0119kach",
                "addr:postcode": "05-400",
                "addr:city": "Otwock",
                "addr:street": "Tadeusza Ko\u015bciuszki",
                "addr:housenumber": "18",
                "addr:city:simc": 921237,
                "addr:street:sym_ul": 9582,
                "phone": "+48 507638419",
                "email": "wdobrychrekach.otwock@gmail.com",
                "ref:regon": "386952247",
                "operator": "W Dobrych R\u0119kach S.c. Hanna M\u0119trak-Cygan  Agnieszka Francman-Jastrz\u0119bska",
                "operator:type": "consortium",
                "amenity": "kindergarten"
            }
        },
        {
            "id": 277625,
            "type": "Feature",
            "geometry": {
                "type": "Point",
                "coordinates": [
                    21.25713,
                    52.11004
                ]
            },
            "properties": {
                "ref:rspo": 277625,
                "official_name": "Niepubliczna Plac\u00f3wka O\u015bwiatowo-Wychowawcza Giganci Programowania",
                "name": "Niepubliczna Plac\u00f3wka O\u015bwiatowo-Wychowawcza Giganci Programowania",
                "addr:postcode": "05-400",
                "addr:city": "Otwock",
                "addr:street": "Hugona Ko\u0142\u0142\u0105taja",
                "addr:housenumber": "4",
                "addr:city:simc": 921237,
                "addr:street:sym_ul": 9003,
                "phone": "+48 223784948",
                "email": "biuro@giganci.edu.pl",
                "website": "http:\/\/www.giganciprogramowania.edu.pl",
                "ref:regon": "389210316",
                "operator": "For Kids Sp\u00f3\u0142ka Z Ograniczon\u0105 Odpowiedzialno\u015bci\u0105",
                "operator:type": "private",
                "fixme": "w zale\u017cno\u015bci od przedmiotu dzia\u0142alno\u015bci (np. amenity=training + training=*, amenity=dancing_school, amenity=language_school, amenity=music_school)"
            }
        },
        {
            "id": 40708,
            "type": "Feature",
            "geometry": {
                "type": "Point",
                "coordinates": [
                    21.2969079,
                    52.1113231
                ]
            },
            "properties": {
                "ref:rspo": 40708,
                "official_name": "Zesp\u00f3\u0142 Szk\u00f3\u0142 Og\u00f3lnokszta\u0142c\u0105cych w Mazowieckim Centrum Leczenia Chor\u00f3b P\u0142uc I Gru\u017alicy w Otwocku",
                "name": "Zesp\u00f3\u0142 Szk\u00f3\u0142 Og\u00f3lnokszta\u0142c\u0105cych w Mazowieckim Centrum Leczenia Chor\u00f3b P\u0142uc I Gru\u017alicy w Otwocku",
                "addr:postcode": "05-400",
                "addr:city": "Otwock",
                "addr:street": "W\u0142adys\u0142awa Stanis\u0142awa Reymonta",
                "addr:housenumber": "83",
                "addr:door": "91",
                "addr:city:simc": 921237,
                "addr:street:sym_ul": 18652,
                "phone": "+48 223446384",
                "email": "sekretariat@zsootwock.pl",
                "website": "http:\/\/www.zsootwock.pl",
                "ref:regon": "011922395",
                "ref:vatin": "PL5321850331",
                "operator": "Wojew\u00f3dztwo Mazowieckie",
                "operator:type": "government",
                "landuse": "education",
                "fixme": "amenity=school, amenity=college albo landuse=education w zale\u017cno\u015bci od tego, jakie plac\u00f3wki wchodz\u0105 w sk\u0142ad zespo\u0142u. Sprawd\u017a, kiedy stosowa\u0107 amenity=* a kiedy landuse=education.",
                "note": "Children RSPO: 74939;131795;131796"
            }
        },
        {
            "id": 74939,
            "type": "Feature",
            "geometry": {
                "type": "Point",
                "coordinates": [
                    21.2969079,
                    52.1112931
                ]
            },
            "properties": {
                "isced:level": "1;2",
                "ref:rspo": 74939,
                "official_name": "Szko\u0142a Podstawowa im. C. Freineta w Zesp\u00f3le Szk\u00f3\u0142 Og\u00f3lnokszta\u0142c\u0105cych w Mazowieckim Centrum Leczenia Chor\u00f3b P\u0142uc I Gru\u017alicy w Otwocku",
                "name": "Szko\u0142a Podstawowa",
                "addr:postcode": "05-400",
                "addr:city": "Otwock",
                "addr:street": "W\u0142adys\u0142awa Stanis\u0142awa Reymonta",
                "addr:housenumber": "83",
                "addr:door": "91",
                "addr:city:simc": 921237,
                "addr:street:sym_ul": 18652,
                "phone": "+48 223446384",
                "email": "sekretariat@zsootwock.pl",
                "website": "http:\/\/www.zsootwock.pl",
                "ref:regon": "015645892",
                "ref:vatin": "PL5321850331",
                "operator": "Wojew\u00f3dztwo Mazowieckie",
                "operator:type": "government",
                "amenity": "school",
                "note": "Parent RSPO: 40708"
            }
        },
        {
            "id": 131795,
            "type": "Feature",
            "geometry": {
                "type": "Point",
                "coordinates": [
                    21.2969079,
                    52.1112631
                ]
            },
            "properties": {
                "ref:rspo": 131795,
                "official_name": "Przedszkole Specjalne w Mazowieckim Centrum Leczenia Chor\u00f3b P\u0142uc I Gru\u017alicy w Otwocku",
                "name": "Przedszkole Specjalne w Mazowieckim Centrum Leczenia Chor\u00f3b P\u0142uc I Gru\u017alicy w Otwocku",
                "addr:postcode": "05-400",
                "addr:city": "Otwock",
                "addr:street": "W\u0142adys\u0142awa Stanis\u0142awa Reymonta",
                "addr:housenumber": "83",
                "addr:door": "91",
                "addr:city:simc": 921237,
                "addr:street:sym_ul": 18652,
                "phone": "+48 223446384",
                "email": "sekretariat@zsootwock.pl",
                "website": "http:\/\/www.zsootwock.pl",
                "ref:regon": "365351320",
                "operator": "Wojew\u00f3dztwo Mazowieckie",
                "operator:type": "government",
                "amenity": "kindergarten",
                "note": "Parent RSPO: 40708"
            }
        },
        {
            "id": 131796,
            "type": "Feature",
            "geometry": {
                "type": "Point",
                "coordinates": [
                    21.2969079,
                    52.1112331
                ]
            },
            "properties": {
                "isced:level": "3",
                "ref:rspo": 131796,
                "official_name": "Liceum Og\u00f3lnokszta\u0142c\u0105ce Specjalne w Mazowieckim Centrum Leczenia Chor\u00f3b P\u0142uc I Gru\u017alicy w Otwocku",
                "name": "Liceum Og\u00f3lnokszta\u0142c\u0105ce Specjalne w Mazowieckim Centrum Leczenia Chor\u00f3b P\u0142uc I Gru\u017alicy w Otwocku",
                "addr:postcode": "05-400",
                "addr:city": "Otwock",
                "addr:street": "W\u0142adys\u0142awa Stanis\u0142awa Reymonta",
                "addr:housenumber": "83",
                "addr:door": "91",
                "addr:city:simc": 921237,
                "addr:street:sym_ul": 18652,
                "phone": "+48 223446384",
                "email": "sekretariat@zsootwock.pl",
                "website": "http:\/\/www.zsootwock.pl",
                "ref:regon": "365351366",
                "operator": "Wojew\u00f3dztwo Mazowieckie",
                "operator:type": "government",
                "amenity": "school",
                "note": "Parent RSPO: 40708"
            }
        },
        {
            "id": 79694,
            "type": "Feature",
            "geometry": {
                "type": "Point",
                "coordinates": [
                    21.26569,
                    52.11169
                ]
            },
            "properties": {
                "ref:rspo": 79694,
                "official_name": "Przedszkole nr 17",
                "name": "Przedszkole nr 17",
                "addr:postcode": "05-400",
                "addr:city": "Otwock",
                "addr:street": "W\u0142adys\u0142awa Czaplickiego",
                "addr:housenumber": "7A",
                "addr:city:simc": 921237,
                "addr:street:sym_ul": 3247,
                "phone": "+48 227795040",
                "email": "p17@oswiata-otwock.pl",
                "ref:regon": "013002664",
                "ref:vatin": "PL5321725347",
                "operator": "Miasto Otwock",
                "operator:type": "government",
                "amenity": "kindergarten"
            }
        },
        {
            "id": 103427,
            "type": "Feature",
            "geometry": {
                "type": "Point",
                "coordinates": [
                    21.25427,
                    52.11172
                ]
            },
            "properties": {
                "ref:rspo": 103427,
                "official_name": "Przedszkole Niepublicze Si\u00f3str El\u017cbietanek nr 2",
                "name": "Przedszkole Niepublicze Si\u00f3str El\u017cbietanek nr 2",
                "addr:postcode": "05-400",
                "addr:city": "Otwock",
                "addr:street": "Hugona Ko\u0142\u0142\u0105taja",
                "addr:housenumber": "13",
                "addr:city:simc": 921237,
                "addr:street:sym_ul": 9003,
                "phone": "+48 227792235",
                "email": "przedszkole@elzbietanki-otwock.pl",
                "website": "http:\/\/www.elzbietanki-otwock.pl",
                "ref:regon": "146436550",
                "ref:vatin": "PL5321835679",
                "operator": "Zgromadzenie Si\u00f3str \u015awi\u0119tej El\u017cbiety, Prowincja Warszawska",
                "operator:type": "religious",
                "amenity": "kindergarten"
            }
        },
        {
            "id": 80547,
            "type": "Feature",
            "geometry": {
                "type": "Point",
                "coordinates": [
                    21.2887996,
                    52.111998
                ]
            },
            "properties": {
                "ref:rspo": 80547,
                "official_name": "Przedszkole nr 10 \"Le\u015bne Skrzaty\"",
                "name": "Przedszkole nr 10 \"Le\u015bne Skrzaty\"",
                "addr:postcode": "05-400",
                "addr:city": "Otwock",
                "addr:street": "Jana Kochanowskiego",
                "addr:housenumber": "6",
                "addr:city:simc": 921237,
                "addr:street:sym_ul": 8728,
                "phone": "+48 227793712",
                "email": "p10@oswiata-otwock.pl",
                "ref:regon": "013002598",
                "ref:vatin": "PL5321759151",
                "operator": "Miasto Otwock",
                "operator:type": "government",
                "amenity": "kindergarten"
            }
        },
        {
            "id": 82564,
            "type": "Feature",
            "geometry": {
                "type": "Point",
                "coordinates": [
                    21.33464,
                    52.1126
                ]
            },
            "properties": {
                "isced:level": "1;2",
                "ref:rspo": 82564,
                "official_name": "Szko\u0142a Podstawowa nr 9 im. Jana Paw\u0142a Ii",
                "name": "Szko\u0142a Podstawowa nr 9",
                "addr:postcode": "05-400",
                "addr:city": "Otwock",
                "addr:street": "Gabriela Narutowicza",
                "addr:housenumber": "275",
                "addr:city:simc": 921237,
                "addr:street:sym_ul": 14018,
                "phone": "+48 227793533",
                "email": "sp9@oswiata-otwock.pl",
                "ref:regon": "000800143",
                "ref:vatin": "PL5321648397",
                "operator": "Miasto Otwock",
                "operator:type": "government",
                "amenity": "school"
            }
        },
        {
            "id": 79697,
            "type": "Feature",
            "geometry": {
                "type": "Point",
                "coordinates": [
                    21.24656,
                    52.11687
                ]
            },
            "properties": {
                "ref:rspo": 79697,
                "official_name": "Przedszkole nr 18 im. Kubusia Puchatka",
                "name": "Przedszkole nr 18",
                "addr:postcode": "05-402",
                "addr:city": "Otwock",
                "addr:street": "Komunard\u00f3w",
                "addr:housenumber": "4",
                "addr:city:simc": 921237,
                "addr:street:sym_ul": 9099,
                "phone": "+48 227797253",
                "email": "p18@oswiata-otwock.pl",
                "ref:regon": "013002670",
                "ref:vatin": "PL5321715509",
                "operator": "Miasto Otwock",
                "operator:type": "government",
                "amenity": "kindergarten"
            }
        },
        {
            "id": 30187,
            "type": "Feature",
            "geometry": {
                "type": "Point",
                "coordinates": [
                    21.2453499,
                    52.11807
                ]
            },
            "properties": {
                "ref:rspo": 30187,
                "official_name": "Specjalny O\u015brodek Szkolno-Wychowawczy nr 1 im. Marii Konopnickiej w Otwocku",
                "name": "Specjalny O\u015brodek Szkolno-Wychowawczy nr 1",
                "addr:postcode": "05-400",
                "addr:city": "Otwock",
                "addr:street": "Majowa",
                "addr:housenumber": "17\/19",
                "addr:city:simc": 921237,
                "addr:street:sym_ul": 11988,
                "phone": "+48 227792089",
                "email": "sekretariat@soswotwock.pl",
                "website": "http:\/\/www.soswotwock.pl",
                "ref:regon": "000868075",
                "ref:vatin": "PL5321086835",
                "operator": "Powiat Otwocki",
                "operator:type": "government",
                "amenity": "school",
                "note": "Children RSPO: 66215;72450;72451;72453"
            }
        },
        {
            "id": 30390,
            "type": "Feature",
            "geometry": {
                "type": "Point",
                "coordinates": [
                    21.2453499,
                    52.11804
                ]
            },
            "properties": {
                "ref:rspo": 30390,
                "official_name": "Powiatowa Poradnia Psychologiczno-Pedagogiczna w Otwocku",
                "name": "Powiatowa Poradnia Psychologiczno-Pedagogiczna w Otwocku",
                "addr:postcode": "05-400",
                "addr:city": "Otwock",
                "addr:street": "Majowa",
                "addr:housenumber": "17\/19",
                "addr:city:simc": 921237,
                "addr:street:sym_ul": 11988,
                "phone": "+48 227101550",
                "email": "pppp.otwock@op.pl",
                "website": "http:\/\/www.ppppotwock.pl",
                "ref:regon": "017255824",
                "ref:vatin": "PL5322048506",
                "operator": "Powiat Otwocki",
                "operator:type": "government",
                "healthcare": "counselling",
                "counselling_type": "education",
                "fixme": "w zale\u017cno\u015bci od przedmiotu dzia\u0142alno\u015bci (np. healthcare=counselling + counselling_type=education albo healthcare=psychotherapist)"
            }
        },
        {
            "id": 66215,
            "type": "Feature",
            "geometry": {
                "type": "Point",
                "coordinates": [
                    21.2453499,
                    52.118010000000005
                ]
            },
            "properties": {
                "ref:rspo": 66215,
                "official_name": "Szko\u0142a Specjalna Przysposabiaj\u0105ca do Pracy dla Uczni\u00f3w z Niepe\u0142nosprawno\u015bci\u0105 Intelektualn\u0105 w Stopniu Umiarkowanym Lub Znacznym Oraz dla Uczni\u00f3w z Niepe\u0142nosprawno\u015bciami Sprz\u0119\u017conymi w Otwocku Specjalny O\u015brodek Szkolno-Wychowawczy nr 1 im. Mari",
                "name": "Szko\u0142a Specjalna Przysposabiaj\u0105ca do Pracy dla Uczni\u00f3w z Niepe\u0142nosprawno\u015bci\u0105 Intelektualn\u0105 w Stopniu Umiarkowanym Lub Znacznym Oraz dla Uczni\u00f3w z Niepe\u0142nosprawno\u015bciami Sprz\u0119\u017conymi w Otwocku Specjalny O\u015brodek Szkolno-Wychowawczy nr 1",
                "addr:postcode": "05-400",
                "addr:city": "Otwock",
                "addr:street": "Majowa",
                "addr:housenumber": "17\/19",
                "addr:city:simc": 921237,
                "addr:street:sym_ul": 11988,
                "phone": "+48 227792089",
                "email": "kontakt_soswotwock@tlen.pl",
                "website": "http:\/\/www.soswotwock.pl",
                "ref:regon": "140406966",
                "operator": "Powiat Otwocki",
                "operator:type": "government",
                "amenity": "school",
                "note": "Parent RSPO: 30187"
            }
        },
        {
            "id": 72450,
            "type": "Feature",
            "geometry": {
                "type": "Point",
                "coordinates": [
                    21.2453499,
                    52.11798
                ]
            },
            "properties": {
                "ref:rspo": 72450,
                "official_name": "Specjalny O\u015brodek Szkolno-Wychowawczy nr 1 im. Marii Konopnickiej w Otwocku Przedszkole Specjalne nr 1 dla Dzieci z Niepe\u0142nosprawno\u015bci\u0105 Intelektualn\u0105 w Stopniu Umiarkowanym Lub Znacznym, z Autyzmem, w Tym z Zespo\u0142em Aspergera Oraz dla Dzieci z Niep",
                "name": "Specjalny O\u015brodek Szkolno-Wychowawczy nr 1",
                "addr:postcode": "05-400",
                "addr:city": "Otwock",
                "addr:street": "Majowa",
                "addr:housenumber": "17\/19",
                "addr:city:simc": 921237,
                "addr:street:sym_ul": 11988,
                "phone": "+48 227792089",
                "email": "kontakt_soswotwock@tlen.pl",
                "website": "http:\/\/www.soswotwock.pl",
                "ref:regon": "141548444",
                "operator": "Powiat Otwocki",
                "operator:type": "government",
                "amenity": "kindergarten",
                "note": "Parent RSPO: 30187"
            }
        },
        {
            "id": 72451,
            "type": "Feature",
            "geometry": {
                "type": "Point",
                "coordinates": [
                    21.2453499,
                    52.11795
                ]
            },
            "properties": {
                "isced:level": "1;2",
                "ref:rspo": 72451,
                "official_name": "Szko\u0142a Podstawowa Specjalna nr 1 dla Uczni\u00f3w z Niepe\u0142nosprawno\u015bci\u0105 Intelektualn\u0105 Oraz dla Uczni\u00f3w z Niepe\u0142nosprawno\u015bciami Sprz\u0119\u017conymi w Otwocku Specjalny O\u015brodek Szkolno-Wychowawczy nr 1 im. Marii Konopnickiej w Otwocku",
                "name": "Szko\u0142a Podstawowa Specjalna nr 1 dla Uczni\u00f3w z Niepe\u0142nosprawno\u015bci\u0105 Intelektualn\u0105 Oraz dla Uczni\u00f3w z Niepe\u0142nosprawno\u015bciami Sprz\u0119\u017conymi w Otwocku Specjalny O\u015brodek Szkolno-Wychowawczy nr 1",
                "addr:postcode": "05-400",
                "addr:city": "Otwock",
                "addr:street": "Majowa",
                "addr:housenumber": "17\/19",
                "addr:city:simc": 921237,
                "addr:street:sym_ul": 11988,
                "phone": "+48 227792089",
                "email": "kontakt_soswotwock@tlen.pl",
                "website": "http:\/\/www.soswotwock.pl",
                "ref:regon": "000959754",
                "operator": "Powiat Otwocki",
                "operator:type": "government",
                "amenity": "school",
                "note": "Parent RSPO: 30187"
            }
        },
        {
            "id": 72453,
            "type": "Feature",
            "geometry": {
                "type": "Point",
                "coordinates": [
                    21.2453499,
                    52.117920000000005
                ]
            },
            "properties": {
                "isced:level": "3",
                "ref:rspo": 72453,
                "official_name": "Bran\u017cowa Szko\u0142a Specjalna I Stopnia nr 3 dla Uczni\u00f3w z Niepe\u0142nosprawno\u015bci\u0105 Intelektualn\u0105 Oraz dla Uczni\u00f3w z Niepe\u0142nosprawno\u015bciami Sprz\u0119\u017conymi w Otwocku Specjalny O\u015brodek Szkolno-Wychowawczy nr 1 im. Marii Konopnickiej w Otwocku",
                "name": "Bran\u017cowa Szko\u0142a Specjalna I Stopnia nr 3 dla Uczni\u00f3w z Niepe\u0142nosprawno\u015bci\u0105 Intelektualn\u0105 Oraz dla Uczni\u00f3w z Niepe\u0142nosprawno\u015bciami Sprz\u0119\u017conymi w Otwocku Specjalny O\u015brodek Szkolno-Wychowawczy nr 1",
                "addr:postcode": "05-400",
                "addr:city": "Otwock",
                "addr:street": "Majowa",
                "addr:housenumber": "17\/19",
                "addr:city:simc": 921237,
                "addr:street:sym_ul": 11988,
                "phone": "+48 227792089",
                "email": "sekretariat@soswotwock.pl",
                "website": "http:\/\/www.soswotwock.pl",
                "ref:regon": "000959760",
                "operator": "Powiat Otwocki",
                "operator:type": "government",
                "amenity": "school",
                "note": "Parent RSPO: 30187"
            }
        },
        {
            "id": 25364,
            "type": "Feature",
            "geometry": {
                "type": "Point",
                "coordinates": [
                    21.26297,
                    52.11813
                ]
            },
            "properties": {
                "ref:rspo": 25364,
                "official_name": "Zesp\u00f3\u0142 Szk\u00f3\u0142 nr 1 w Otwocku",
                "name": "Zesp\u00f3\u0142 Szk\u00f3\u0142 nr 1 w Otwocku",
                "addr:postcode": "05-400",
                "addr:city": "Otwock",
                "addr:street": "Juliusza S\u0142owackiego",
                "addr:housenumber": "4\/10",
                "addr:city:simc": 921237,
                "addr:street:sym_ul": 20291,
                "phone": "+48 227792201",
                "email": "sekretariat@lo3otwock.eu",
                "website": "http:\/\/www.slowacki.eu",
                "ref:regon": "011086846",
                "ref:vatin": "PL5321088076",
                "operator": "Powiat Otwocki",
                "operator:type": "government",
                "landuse": "education",
                "fixme": "amenity=school, amenity=college albo landuse=education w zale\u017cno\u015bci od tego, jakie plac\u00f3wki wchodz\u0105 w sk\u0142ad zespo\u0142u. Sprawd\u017a, kiedy stosowa\u0107 amenity=* a kiedy landuse=education.",
                "note": "Children RSPO: 56671;56672"
            }
        },
        {
            "id": 56671,
            "type": "Feature",
            "geometry": {
                "type": "Point",
                "coordinates": [
                    21.26297,
                    52.1181
                ]
            },
            "properties": {
                "isced:level": "3",
                "ref:rspo": 56671,
                "official_name": "Liceum Og\u00f3lnokszta\u0142c\u0105ce nr III im. Juliusza S\u0142owackiego w Otwocku Zesp\u00f3\u0142 Szk\u00f3\u0142 nr 1 w Otwocku",
                "name": "Liceum Og\u00f3lnokszta\u0142c\u0105ce nr III",
                "addr:postcode": "05-400",
                "addr:city": "Otwock",
                "addr:street": "Juliusza S\u0142owackiego",
                "addr:housenumber": "4\/10",
                "addr:city:simc": 921237,
                "addr:street:sym_ul": 20291,
                "phone": "+48 227792201",
                "email": "robert.pielak@lo3otwock.eu",
                "website": "http:\/\/www.slowacki.eu",
                "ref:regon": "015818973",
                "operator": "Powiat Otwocki",
                "operator:type": "government",
                "amenity": "school",
                "note": "Parent RSPO: 25364"
            }
        },
        {
            "id": 56672,
            "type": "Feature",
            "geometry": {
                "type": "Point",
                "coordinates": [
                    21.26297,
                    52.11807
                ]
            },
            "properties": {
                "isced:level": "3",
                "ref:rspo": 56672,
                "official_name": "Liceum Og\u00f3lnokszta\u0142c\u0105ce dla Doros\u0142ych w Otwocku Zesp\u00f3\u0142 Szk\u00f3\u0142 nr 1 w Otwocku",
                "name": "Liceum Og\u00f3lnokszta\u0142c\u0105ce dla Doros\u0142ych w Otwocku Zesp\u00f3\u0142 Szk\u00f3\u0142 nr 1 w Otwocku",
                "addr:postcode": "05-400",
                "addr:city": "Otwock",
                "addr:street": "Juliusza S\u0142owackiego",
                "addr:housenumber": "4\/10",
                "addr:city:simc": 921237,
                "addr:street:sym_ul": 20291,
                "phone": "+48 227792201",
                "email": "robert.pielak@lo3otwock.eu",
                "website": "http:\/\/www.slowacki.eu",
                "ref:regon": "140269475",
                "operator": "Powiat Otwocki",
                "operator:type": "government",
                "amenity": "school",
                "note": "Parent RSPO: 25364"
            }
        },
        {
            "id": 80549,
            "type": "Feature",
            "geometry": {
                "type": "Point",
                "coordinates": [
                    21.25473,
                    52.12091
                ]
            },
            "properties": {
                "ref:rspo": 80549,
                "official_name": "Przedszkole nr 15",
                "name": "Przedszkole nr 15",
                "addr:postcode": "05-402",
                "addr:city": "Otwock",
                "addr:street": "Majowa",
                "addr:housenumber": "44",
                "addr:city:simc": 921237,
                "addr:street:sym_ul": 11988,
                "phone": "+48 227794078",
                "email": "p15@oswiata-otwock.pl",
                "ref:regon": "013002641",
                "ref:vatin": "PL5321715716",
                "operator": "Miasto Otwock",
                "operator:type": "government",
                "amenity": "kindergarten"
            }
        },
        {
            "id": 103425,
            "type": "Feature",
            "geometry": {
                "type": "Point",
                "coordinates": [
                    21.24627,
                    52.12148
                ]
            },
            "properties": {
                "isced:level": "1;2",
                "ref:rspo": 103425,
                "official_name": "Spo\u0142eczna Szko\u0142a Podstawowa nr 96 im.\u015bwi\u0119tej Rodziny",
                "name": "Spo\u0142eczna Szko\u0142a Podstawowa nr 96 im.\u015bwi\u0119tej Rodziny",
                "addr:postcode": "05-402",
                "addr:city": "Otwock",
                "addr:street": "Hugona Ko\u0142\u0142\u0105taja",
                "addr:housenumber": "80\/82",
                "addr:city:simc": 921237,
                "addr:street:sym_ul": 9003,
                "phone": "+48 227882978",
                "email": "sekretariat@swietarodzina.edu.pl",
                "website": "http:\/\/www.swietarodzina.edu.pl",
                "ref:regon": "146453524",
                "ref:vatin": "PL5321743575",
                "operator": "Fundacja Pos\u0142aniec",
                "operator:type": "ngo",
                "amenity": "school"
            }
        },
        {
            "id": 109892,
            "type": "Feature",
            "geometry": {
                "type": "Point",
                "coordinates": [
                    21.25838,
                    52.12154
                ]
            },
            "properties": {
                "ref:rspo": 109892,
                "official_name": "Niepubliczne Integracyjne Przedszkole \"Patkowe Przedszkole\"",
                "name": "Niepubliczne Integracyjne Przedszkole \"Patkowe Przedszkole\"",
                "addr:postcode": "05-402",
                "addr:city": "Otwock",
                "addr:street": "Ostrowska",
                "addr:housenumber": "2",
                "addr:city:simc": 921237,
                "addr:street:sym_ul": 15390,
                "phone": "+48 505030240",
                "email": "patka@patka.com.pl",
                "ref:regon": "146543871",
                "operator": "Fundacja Patka Dzieciom",
                "operator:type": "ngo",
                "amenity": "kindergarten"
            }
        },
        {
            "id": 79704,
            "type": "Feature",
            "geometry": {
                "type": "Point",
                "coordinates": [
                    21.25659,
                    52.12204
                ]
            },
            "properties": {
                "isced:level": "1;2",
                "ref:rspo": 79704,
                "official_name": "Szko\u0142a Podstawowa nr 5 z Oddzia\u0142ami Integracyjnymi im. Jadwigi Korczakowskiej",
                "name": "Szko\u0142a Podstawowa nr 5 z Oddzia\u0142ami Integracyjnymi",
                "addr:postcode": "05-402",
                "addr:city": "Otwock",
                "addr:street": "Juliusza S\u0142owackiego",
                "addr:housenumber": "66",
                "addr:city:simc": 921237,
                "addr:street:sym_ul": 20291,
                "phone": "+48 227792945",
                "email": "sp5@oswiata-otwock.pl",
                "website": "http:\/\/www.sp5otwock.edupage.org",
                "ref:regon": "000800309",
                "ref:vatin": "PL5321322537",
                "operator": "Miasto Otwock",
                "operator:type": "government",
                "amenity": "school"
            }
        },
        {
            "id": 82666,
            "type": "Feature",
            "geometry": {
                "type": "Point",
                "coordinates": [
                    21.24719,
                    52.12341
                ]
            },
            "properties": {
                "ref:rspo": 82666,
                "official_name": "Niepubliczne Przedszkole nr 3 Ma\u0142ych Odkrywc\u00f3w Joanna Junczyk",
                "name": "Niepubliczne Przedszkole nr 3 Ma\u0142ych Odkrywc\u00f3w Joanna Junczyk",
                "addr:postcode": "05-402",
                "addr:city": "Otwock",
                "addr:street": "G\u00f3rna",
                "addr:housenumber": "94a",
                "addr:city:simc": 921237,
                "addr:street:sym_ul": 5948,
                "phone": "+48 608305822",
                "email": "przedszkole@montessori-otwock.pl",
                "website": "http:\/\/montessori-otwock.pl",
                "ref:regon": "146429359",
                "ref:vatin": "PL5321609629",
                "operator": "Dane Do Uzupe\u0142nienia",
                "operator:type": "private",
                "amenity": "kindergarten"
            }
        },
        {
            "id": 92213,
            "type": "Feature",
            "geometry": {
                "type": "Point",
                "coordinates": [
                    21.26009,
                    52.12547
                ]
            },
            "properties": {
                "ref:rspo": 92213,
                "official_name": "Bursa im. \u015aw. J\u00f3zefa",
                "name": "Bursa",
                "addr:postcode": "05-402",
                "addr:city": "Otwock",
                "addr:street": "Majowa",
                "addr:housenumber": "64",
                "addr:city:simc": 921237,
                "addr:street:sym_ul": 11988,
                "phone": "+48 727715888",
                "email": "bursa.meska@akwinata.edu.pl",
                "ref:regon": "146453518",
                "operator": "Fundacja Sancti Iosephi",
                "operator:type": "ngo",
                "building": "dormitory"
            }
        },
        {
            "id": 79708,
            "type": "Feature",
            "geometry": {
                "type": "Point",
                "coordinates": [
                    21.33261,
                    52.13602
                ]
            },
            "properties": {
                "isced:level": "1;2",
                "ref:rspo": 79708,
                "official_name": "Szko\u0142a Podstawowa nr 8 im.gen.juliana Filipowicza w Otwocku",
                "name": "Szko\u0142a Podstawowa nr 8 im.gen.juliana Filipowicza w Otwocku",
                "addr:postcode": "05-400",
                "addr:city": "Otwock",
                "addr:street": "Stefana \u017beromskiego",
                "addr:housenumber": "235",
                "addr:city:simc": 921237,
                "addr:street:sym_ul": 26469,
                "phone": "+48 227792522",
                "email": "sp8@oswiata-otwock.pl",
                "ref:regon": "000800137",
                "ref:vatin": "PL5321641544",
                "operator": "Miasto Otwock",
                "operator:type": "government",
                "amenity": "school"
            }
        },
        {
            "id": 196445,
            "type": "Feature",
            "geometry": {
                "type": "Point",
                "coordinates": [
                    21.29324,
                    52.14197
                ]
            },
            "properties": {
                "isced:level": "1;2",
                "ref:rspo": 196445,
                "official_name": "Szko\u0142a Podstawowa nr 7 im. Batalionu \"Zo\u015bka\" z Oddzia\u0142ami Integracyjnymi",
                "name": "Szko\u0142a Podstawowa nr 7",
                "addr:postcode": "05-400",
                "addr:city": "Otwock",
                "addr:street": "Majowa",
                "addr:housenumber": "267",
                "addr:city:simc": 921237,
                "addr:street:sym_ul": 11988,
                "phone": "+48 227792701",
                "email": "gm1@oswiata-otwock.pl",
                "ref:regon": "367997925",
                "operator": "Miasto Otwock",
                "operator:type": "government",
                "amenity": "school"
            }
        },
        {
            "id": 79698,
            "type": "Feature",
            "geometry": {
                "type": "Point",
                "coordinates": [
                    21.29829,
                    52.1423599
                ]
            },
            "properties": {
                "ref:rspo": 79698,
                "official_name": "Przedszkole nr 20",
                "name": "Przedszkole nr 20",
                "addr:postcode": "05-400",
                "addr:city": "Otwock",
                "addr:street": "Majowa",
                "addr:housenumber": "230",
                "addr:city:simc": 921237,
                "addr:street:sym_ul": 11988,
                "phone": "+48 227797168",
                "email": "p20@oswiata-otwock.pl",
                "ref:regon": "013002693",
                "operator": "Miasto Otwock",
                "operator:type": "government",
                "amenity": "kindergarten"
            }
        }
    ]
}