{
    "type": "FeatureCollection",
    "features": [
        {
            "id": 11677,
            "type": "Feature",
            "geometry": {
                "type": "Point",
                "coordinates": [
                    21.47598,
                    52.01782
                ]
            },
            "properties": {
                "isced:level": "1;2",
                "ref:rspo": 11677,
                "official_name": "Szko\u0142a Podstawowa w K\u0105tach",
                "name": "Szko\u0142a Podstawowa w K\u0105tach",
                "addr:country": "PL",
                "addr:postcode": "05-340",
                "addr:city": "K\u0105ty",
                "addr:street": "Kr\u00f3lewska",
                "addr:housenumber": "58",
                "addr:teryt:simc": 9987,
                "addr:teryt:sym_ul": 674738,
                "contact:phone": "+48 257573166",
                "contact:email": "spkaty@kolbiel.pl",
                "ref:regon": "001125620",
                "ref:vatin": "PL8221463369",
                "operator": "Gmina Ko\u0142biel",
                "operator:type": "government",
                "amenity": "school"
            }
        },
        {
            "id": 11679,
            "type": "Feature",
            "geometry": {
                "type": "Point",
                "coordinates": [
                    21.4449599,
                    52.04605
                ]
            },
            "properties": {
                "isced:level": "1;2",
                "ref:rspo": 11679,
                "official_name": "Szko\u0142a Podstawowa im. Ks. Jana Twardowskiego w Cz\u0142ek\u00f3wce",
                "name": "Szko\u0142a Podstawowa",
                "addr:country": "PL",
                "addr:postcode": "05-340",
                "addr:place": "Cz\u0142ek\u00f3wka",
                "addr:housenumber": "62",
                "addr:teryt:sym_ul": 674632,
                "contact:phone": "+48 257573185",
                "contact:email": "spczlekowka@kolbiel.pl",
                "contact:website": "http:\/\/www.spczlekowka.edupage.org",
                "ref:regon": "001125614",
                "ref:vatin": "PL8221463234",
                "operator": "Gmina Ko\u0142biel",
                "operator:type": "government",
                "amenity": "school"
            }
        },
        {
            "id": 11680,
            "type": "Feature",
            "geometry": {
                "type": "Point",
                "coordinates": [
                    21.48376,
                    52.06213
                ]
            },
            "properties": {
                "ref:rspo": 11680,
                "official_name": "Gminne Przedszkole w Ko\u0142bieli",
                "name": "Gminne Przedszkole w Ko\u0142bieli",
                "addr:country": "PL",
                "addr:postcode": "05-340",
                "addr:city": "Ko\u0142biel",
                "addr:street": "Szkolna",
                "addr:housenumber": "8",
                "addr:teryt:simc": 21970,
                "addr:teryt:sym_ul": 674767,
                "contact:phone": "+48 257573182",
                "contact:email": "przedszkolekolbiel@kolbiel.pl",
                "contact:website": "http:\/\/przedszkolekolbiel.edupage.org",
                "ref:regon": "710006510",
                "ref:vatin": "PL8221164307",
                "operator": "Gmina Ko\u0142biel",
                "operator:type": "government",
                "amenity": "kindergarten"
            }
        },
        {
            "id": 11676,
            "type": "Feature",
            "geometry": {
                "type": "Point",
                "coordinates": [
                    21.4843699,
                    52.06282
                ]
            },
            "properties": {
                "isced:level": "1;2",
                "ref:rspo": 11676,
                "official_name": "Szko\u0142a Podstawowa im. Armii Krajowej w Ko\u0142bieli",
                "name": "Szko\u0142a Podstawowa",
                "addr:country": "PL",
                "addr:postcode": "05-340",
                "addr:city": "Ko\u0142biel",
                "addr:street": "Szkolna",
                "addr:housenumber": "5",
                "addr:teryt:simc": 21970,
                "addr:teryt:sym_ul": 674767,
                "contact:phone": "+48 257573025",
                "contact:email": "spkolbiel@kolbiel.pl",
                "contact:website": "http:\/\/www.spkolbiel.pl",
                "ref:regon": "000268659",
                "ref:vatin": "PL8221463292",
                "operator": "Gmina Ko\u0142biel",
                "operator:type": "government",
                "amenity": "school"
            }
        },
        {
            "id": 278511,
            "type": "Feature",
            "geometry": {
                "type": "Point",
                "coordinates": [
                    21.47769,
                    52.06522
                ]
            },
            "properties": {
                "ref:rspo": 278511,
                "official_name": "Niepubliczne Przedszkole \"Akademia Smyka\"",
                "name": "Niepubliczne Przedszkole \"Akademia Smyka\"",
                "addr:country": "PL",
                "addr:postcode": "05-340",
                "addr:city": "Ko\u0142biel",
                "addr:street": "Jana Kili\u0144skiego",
                "addr:housenumber": "7",
                "addr:teryt:simc": 8435,
                "addr:teryt:sym_ul": 674767,
                "contact:phone": "+48 508081099",
                "ref:regon": "389939187",
                "ref:vatin": "PL5321776238",
                "operator": "Krzysztof Sibilski",
                "operator:type": "private",
                "amenity": "kindergarten"
            }
        },
        {
            "id": 11678,
            "type": "Feature",
            "geometry": {
                "type": "Point",
                "coordinates": [
                    21.4939399,
                    52.10559
                ]
            },
            "properties": {
                "isced:level": "1;2",
                "ref:rspo": 11678,
                "official_name": "Szko\u0142a Podstawowa im. Kawaler\u00f3w Orderu U\u015bmiechu w Rudzienku",
                "name": "Szko\u0142a Podstawowa",
                "addr:country": "PL",
                "addr:postcode": "05-340",
                "addr:city": "Rudzienko",
                "addr:street": "Szkolna",
                "addr:housenumber": "11",
                "addr:teryt:simc": 21970,
                "addr:teryt:sym_ul": 674900,
                "contact:phone": "+48 257573115",
                "contact:email": "sprudzienko@kolbiel.pl",
                "contact:website": "http:\/\/www.rudzienko.schoolpage.pl",
                "ref:regon": "001124141",
                "ref:vatin": "PL8221463323",
                "operator": "Gmina Ko\u0142biel",
                "operator:type": "government",
                "amenity": "school"
            }
        }
    ]
}