{
    "type": "FeatureCollection",
    "features": [
        {
            "id": 17798,
            "type": "Feature",
            "geometry": {
                "type": "Point",
                "coordinates": [
                    21.42041,
                    51.95856
                ]
            },
            "properties": {
                "isced:level": "1;2",
                "ref:rspo": 17798,
                "official_name": "Szko\u0142a Podstawowa im. Powsta\u0144c\u00f3w Styczniowych",
                "name": "Szko\u0142a Podstawowa",
                "addr:country": "PL",
                "addr:postcode": "08-445",
                "addr:city": "Osieck",
                "addr:street": "ul. Warszawska",
                "addr:housenumber": "61",
                "addr:teryt:simc": 23682,
                "addr:teryt:sym_ul": 683192,
                "contact:phone": "+48 256857079",
                "contact:email": "osiecksp@gmail.com",
                "contact:website": "http:\/\/www.osiecksp.edupage.org",
                "ref:regon": "000269819",
                "ref:vatin": "PL5322046252",
                "operator": "Gmina Osieck",
                "operator:type": "government",
                "amenity": "school"
            }
        },
        {
            "id": 24778,
            "type": "Feature",
            "geometry": {
                "type": "Point",
                "coordinates": [
                    21.42261,
                    51.96671
                ]
            },
            "properties": {
                "ref:rspo": 24778,
                "official_name": "Niepubliczny Punkt Przedszkolny \"Osieckie Maluchy\"",
                "name": "Niepubliczny Punkt Przedszkolny \"Osieckie Maluchy\"",
                "addr:country": "PL",
                "addr:postcode": "08-445",
                "addr:city": "Osieck",
                "addr:street": "ul. Pilawska",
                "addr:housenumber": "23",
                "addr:teryt:simc": 16217,
                "addr:teryt:sym_ul": 683192,
                "contact:phone": "+48 603586183",
                "contact:email": "otwockiemaluchy@wp.pl",
                "ref:regon": "146333814",
                "operator": "Gra\u017cyna Wojda-P\u0142ochowska",
                "operator:type": "private",
                "amenity": "kindergarten"
            }
        },
        {
            "id": 271953,
            "type": "Feature",
            "geometry": {
                "type": "Point",
                "coordinates": [
                    21.49224,
                    51.98554
                ]
            },
            "properties": {
                "ref:rspo": 271953,
                "official_name": "Zesp\u00f3\u0142 Szkolno-Przedszkolny w August\u00f3wce",
                "name": "Zesp\u00f3\u0142 Szkolno-Przedszkolny w August\u00f3wce",
                "addr:country": "PL",
                "addr:postcode": "08-445",
                "addr:city": "August\u00f3wka",
                "addr:street": "ul. Kolejowa",
                "addr:housenumber": "2",
                "addr:teryt:simc": 8828,
                "addr:teryt:sym_ul": 683105,
                "contact:phone": "+48 256857027",
                "contact:email": "spaugustowka@gmail.com",
                "contact:website": "http:\/\/www.spaugustowka.pl",
                "ref:regon": "383832100",
                "operator": "Gmina Osieck",
                "operator:type": "government",
                "landuse": "education",
                "fixme": "amenity=school, amenity=college albo landuse=education w zale\u017cno\u015bci od tego, jakie plac\u00f3wki wchodz\u0105 w sk\u0142ad zespo\u0142u. Sprawd\u017a, kiedy stosowa\u0107 amenity=* a kiedy landuse=education.",
                "note": "Children RSPO: 20094;271949"
            }
        },
        {
            "id": 20094,
            "type": "Feature",
            "geometry": {
                "type": "Point",
                "coordinates": [
                    21.49224,
                    51.98551
                ]
            },
            "properties": {
                "isced:level": "1;2",
                "ref:rspo": 20094,
                "official_name": "Szko\u0142a Podstawowa im. Or\u0142a Bia\u0142ego w August\u00f3wce",
                "name": "Szko\u0142a Podstawowa",
                "addr:country": "PL",
                "addr:postcode": "08-445",
                "addr:city": "August\u00f3wka",
                "addr:street": "ul. Kolejowa",
                "addr:housenumber": "2",
                "addr:teryt:simc": 8828,
                "addr:teryt:sym_ul": 683105,
                "contact:phone": "+48 256857027",
                "contact:email": "spaugustowka@gmail.com",
                "ref:regon": "001124750",
                "ref:vatin": "PL5321725270",
                "operator": "Gmina Osieck",
                "operator:type": "government",
                "amenity": "school",
                "note": "Parent RSPO: 271953"
            }
        },
        {
            "id": 271949,
            "type": "Feature",
            "geometry": {
                "type": "Point",
                "coordinates": [
                    21.49224,
                    51.98548
                ]
            },
            "properties": {
                "ref:rspo": 271949,
                "official_name": "Publiczne Przedszkole w August\u00f3wce",
                "name": "Publiczne Przedszkole w August\u00f3wce",
                "addr:country": "PL",
                "addr:postcode": "08-445",
                "addr:city": "August\u00f3wka",
                "addr:street": "ul. Kolejowa",
                "addr:housenumber": "2",
                "addr:teryt:simc": 8828,
                "addr:teryt:sym_ul": 683105,
                "contact:phone": "+48 256857027",
                "ref:regon": "383832146",
                "operator": "Gmina Osieck",
                "operator:type": "government",
                "amenity": "kindergarten",
                "note": "Parent RSPO: 271953"
            }
        },
        {
            "id": 133602,
            "type": "Feature",
            "geometry": {
                "type": "Point",
                "coordinates": [
                    21.263010025024,
                    52.105739593506
                ]
            },
            "properties": {
                "ref:rspo": 133602,
                "official_name": "Publiczne Przedszkole w Sobienkach",
                "name": "Publiczne Przedszkole w Sobienkach",
                "addr:country": "PL",
                "addr:postcode": "08-445",
                "addr:place": "Sobienki",
                "addr:housenumber": "13A",
                "addr:teryt:sym_ul": 683364,
                "contact:phone": "+48 256857404",
                "contact:email": "przedszkole@gminaosieck.pl",
                "ref:regon": "367482606",
                "operator": "Gmina Osieck",
                "operator:type": "government",
                "amenity": "kindergarten"
            }
        }
    ]
}