{
    "type": "FeatureCollection",
    "features": [
        {
            "id": 20536,
            "type": "Feature",
            "geometry": {
                "type": "Point",
                "coordinates": [
                    23.2168761,
                    53.4086511
                ]
            },
            "properties": {
                "isced:level": "1;2",
                "ref:rspo": 20536,
                "official_name": "Szko\u0142a Podstawowa w Bia\u0142ousach",
                "name": "Szko\u0142a Podstawowa w Bia\u0142ousach",
                "addr:country": "PL",
                "addr:postcode": "16-130",
                "addr:place": "Bia\u0142ousy",
                "addr:housenumber": "59",
                "addr:teryt:sym_ul": 30283,
                "contact:phone": "+48 857215002",
                "contact:email": "spbialousy@poczta.fm",
                "contact:website": "http:\/\/bialousy.edupage.org\/",
                "ref:regon": "001163336",
                "ref:vatin": "PL5451611168",
                "operator": "Gmina Jan\u00f3w",
                "operator:type": "government",
                "amenity": "school"
            }
        },
        {
            "id": 41288,
            "type": "Feature",
            "geometry": {
                "type": "Point",
                "coordinates": [
                    23.23029,
                    53.4622
                ]
            },
            "properties": {
                "ref:rspo": 41288,
                "official_name": "Zesp\u00f3\u0142 Szk\u00f3\u0142 Centrum Kszta\u0142cenia Rolniczego w Janowie",
                "name": "Zesp\u00f3\u0142 Szk\u00f3\u0142 Centrum Kszta\u0142cenia Rolniczego w Janowie",
                "addr:country": "PL",
                "addr:postcode": "16-130",
                "addr:city": "Jan\u00f3w",
                "addr:street": "ul. Bia\u0142ostocka",
                "addr:housenumber": "22",
                "addr:teryt:simc": 1184,
                "addr:teryt:sym_ul": 30350,
                "contact:phone": "+48 857216216",
                "contact:email": "sekretariat@zsckrjanow.edu.pl",
                "contact:website": "http:\/\/www.zsckrjanow.edu.pl",
                "ref:regon": "001059082",
                "ref:vatin": "PL5451447148",
                "operator": "Ministerstwo Rolnictwa I Rozwoju Wsi",
                "operator:type": "public",
                "landuse": "education",
                "fixme": "amenity=school, amenity=college albo landuse=education w zale\u017cno\u015bci od tego, jakie plac\u00f3wki wchodz\u0105 w sk\u0142ad zespo\u0142u. Sprawd\u017a, kiedy stosowa\u0107 amenity=* a kiedy landuse=education.",
                "note": "Children RSPO: 105553;105554;105750;105751"
            }
        },
        {
            "id": 105553,
            "type": "Feature",
            "geometry": {
                "type": "Point",
                "coordinates": [
                    23.23029,
                    53.46217
                ]
            },
            "properties": {
                "isced:level": "3",
                "ref:rspo": 105553,
                "official_name": "Technikum im. Prof. J\u00f3zefa Marcinkiewicza w Janowie",
                "name": "Technikum",
                "addr:country": "PL",
                "addr:postcode": "16-130",
                "addr:city": "Jan\u00f3w",
                "addr:street": "ul. Bia\u0142ostocka",
                "addr:housenumber": "22",
                "addr:teryt:simc": 1184,
                "addr:teryt:sym_ul": 30350,
                "contact:phone": "+48 857216216",
                "contact:email": "sekretariat@zsckrjanow.edu.pl",
                "contact:website": "http:\/\/www.zsrjanow.edu.pl",
                "ref:regon": "052134094",
                "operator": "Ministerstwo Rolnictwa I Rozwoju Wsi",
                "operator:type": "public",
                "amenity": "school",
                "note": "Parent RSPO: 41288"
            }
        },
        {
            "id": 105554,
            "type": "Feature",
            "geometry": {
                "type": "Point",
                "coordinates": [
                    23.23029,
                    53.462140000000005
                ]
            },
            "properties": {
                "isced:level": "3",
                "ref:rspo": 105554,
                "official_name": "Bran\u017cowa Szko\u0142a I Stopinia im.prof. J\u00f3zefa Marcinkiewicza w Janowie",
                "name": "Bran\u017cowa Szko\u0142a I Stopinia im.prof. J\u00f3zefa Marcinkiewicza w Janowie",
                "addr:country": "PL",
                "addr:postcode": "16-130",
                "addr:city": "Jan\u00f3w",
                "addr:street": "ul. Bia\u0142ostocka",
                "addr:housenumber": "22",
                "addr:teryt:simc": 1184,
                "addr:teryt:sym_ul": 30350,
                "contact:phone": "+48 857216216",
                "contact:email": "sekretariat@zsckrjanow.edu.pl",
                "contact:website": "http:\/\/www.zsckrjanow.edu.pl",
                "ref:regon": "200162660",
                "operator": "Ministerstwo Rolnictwa I Rozwoju Wsi",
                "operator:type": "public",
                "amenity": "school",
                "note": "Parent RSPO: 41288"
            }
        },
        {
            "id": 105750,
            "type": "Feature",
            "geometry": {
                "type": "Point",
                "coordinates": [
                    23.23029,
                    53.46211
                ]
            },
            "properties": {
                "isced:level": "4",
                "ref:rspo": 105750,
                "official_name": "Szko\u0142a Policealna im. Prof. J\u00f3zefa Marcinkiewicza w Janowie",
                "name": "Szko\u0142a Policealna",
                "addr:country": "PL",
                "addr:postcode": "16-130",
                "addr:city": "Jan\u00f3w",
                "addr:street": "ul. Bia\u0142ostocka",
                "addr:housenumber": "22",
                "addr:teryt:simc": 1184,
                "addr:teryt:sym_ul": 30350,
                "contact:phone": "+48 857216216",
                "contact:email": "sekretariat@zsckrjanow.edu.pl",
                "contact:website": "http:\/\/www.zsckrjanow.edu.pl",
                "ref:regon": "200014830",
                "operator": "Ministerstwo Rolnictwa I Rozwoju Wsi",
                "operator:type": "public",
                "amenity": "college",
                "note": "Parent RSPO: 41288"
            }
        },
        {
            "id": 105751,
            "type": "Feature",
            "geometry": {
                "type": "Point",
                "coordinates": [
                    23.23029,
                    53.46208
                ]
            },
            "properties": {
                "ref:rspo": 105751,
                "official_name": "Centrum Kszta\u0142cenia Ustawicznego w Janowie",
                "name": "Centrum Kszta\u0142cenia Ustawicznego w Janowie",
                "addr:country": "PL",
                "addr:postcode": "16-130",
                "addr:city": "Jan\u00f3w",
                "addr:street": "ul. Bia\u0142ostocka",
                "addr:housenumber": "22",
                "addr:teryt:simc": 1184,
                "addr:teryt:sym_ul": 30350,
                "contact:phone": "+48 857216216",
                "contact:email": "sekretariat@zsckrjanow.edu.pl",
                "contact:website": "http:\/\/www.zsrjanow.edu.pl",
                "ref:regon": "200161369",
                "operator": "Ministerstwo Rolnictwa I Rozwoju Wsi",
                "operator:type": "public",
                "fixme": "w zale\u017cno\u015bci od przedmiotu dzia\u0142alno\u015bci (np. amenity=training + training=*, amenity=dancing_school, amenity=language_school, amenity=music_school)",
                "note": "Parent RSPO: 41288"
            }
        },
        {
            "id": 20535,
            "type": "Feature",
            "geometry": {
                "type": "Point",
                "coordinates": [
                    23.22986,
                    53.46393
                ]
            },
            "properties": {
                "ref:rspo": 20535,
                "official_name": "Zesp\u00f3\u0142 Szk\u00f3\u0142 Samorz\u0105dowych w Janowie",
                "name": "Zesp\u00f3\u0142 Szk\u00f3\u0142 Samorz\u0105dowych w Janowie",
                "addr:country": "PL",
                "addr:postcode": "16-130",
                "addr:city": "Jan\u00f3w",
                "addr:street": "ul. Bia\u0142ostocka",
                "addr:housenumber": "16",
                "addr:teryt:simc": 1184,
                "addr:teryt:sym_ul": 30350,
                "contact:phone": "+48 857216013",
                "contact:email": "spjanow@wp.pl",
                "contact:website": "http:\/\/www.zssjanow.pl",
                "ref:regon": "200431923",
                "ref:vatin": "PL5451807500",
                "operator": "Gmina Jan\u00f3w",
                "operator:type": "government",
                "landuse": "education",
                "fixme": "amenity=school, amenity=college albo landuse=education w zale\u017cno\u015bci od tego, jakie plac\u00f3wki wchodz\u0105 w sk\u0142ad zespo\u0142u. Sprawd\u017a, kiedy stosowa\u0107 amenity=* a kiedy landuse=education.",
                "note": "Children RSPO: 31554;52446"
            }
        },
        {
            "id": 31554,
            "type": "Feature",
            "geometry": {
                "type": "Point",
                "coordinates": [
                    23.22986,
                    53.463899999999995
                ]
            },
            "properties": {
                "ref:rspo": 31554,
                "official_name": "Przedszkole Samorz\u0105dowe w Janowie",
                "name": "Przedszkole Samorz\u0105dowe w Janowie",
                "addr:country": "PL",
                "addr:postcode": "16-130",
                "addr:city": "Jan\u00f3w",
                "addr:street": "ul. Bia\u0142ostocka",
                "addr:housenumber": "16",
                "addr:teryt:simc": 1184,
                "addr:teryt:sym_ul": 30350,
                "contact:phone": "+48 857216013",
                "contact:email": "spjanow@wp.pl",
                "contact:website": "http:\/\/www.zssjanow.pl",
                "ref:regon": "000942676",
                "operator": "Gmina Jan\u00f3w",
                "operator:type": "government",
                "amenity": "kindergarten",
                "note": "Parent RSPO: 20535"
            }
        },
        {
            "id": 52446,
            "type": "Feature",
            "geometry": {
                "type": "Point",
                "coordinates": [
                    23.22986,
                    53.46387
                ]
            },
            "properties": {
                "isced:level": "1;2",
                "ref:rspo": 52446,
                "official_name": "Szko\u0142a Podstawowa im. Batalion\u00f3w Ch\u0142opskich w Janowie",
                "name": "Szko\u0142a Podstawowa",
                "addr:country": "PL",
                "addr:postcode": "16-130",
                "addr:city": "Jan\u00f3w",
                "addr:street": "ul. Bia\u0142ostocka",
                "addr:housenumber": "16",
                "addr:teryt:simc": 1184,
                "addr:teryt:sym_ul": 30350,
                "contact:phone": "+48 857216013",
                "contact:email": "spjanow@wp.pl",
                "contact:website": "http:\/\/www.zssjanow.pl",
                "ref:regon": "000266407",
                "ref:vatin": "PL5451611151",
                "operator": "Gmina Jan\u00f3w",
                "operator:type": "government",
                "amenity": "school",
                "note": "Parent RSPO: 20535"
            }
        }
    ]
}