{
    "type": "FeatureCollection",
    "features": [
        {
            "id": 30437,
            "type": "Feature",
            "geometry": {
                "type": "Point",
                "coordinates": [
                    23.105738,
                    53.5346849
                ]
            },
            "properties": {
                "isced:level": "1;2",
                "ref:rspo": 30437,
                "official_name": "Szko\u0142a Podstawowa w Chodor\u00f3wce Nowej",
                "name": "Szko\u0142a Podstawowa w Chodor\u00f3wce Nowej",
                "addr:country": "PL",
                "addr:postcode": "16-150",
                "addr:place": "Chodor\u00f3wka Nowa",
                "addr:housenumber": "17",
                "addr:teryt:sym_ul": 41140,
                "contact:phone": "+48 857125402",
                "contact:email": "chodorowka.nowa@interia.pl",
                "ref:regon": "001162822",
                "ref:vatin": "PL5451585502",
                "operator": "Gmina Suchowola",
                "operator:type": "government",
                "amenity": "school"
            }
        },
        {
            "id": 64516,
            "type": "Feature",
            "geometry": {
                "type": "Point",
                "coordinates": [
                    23.2119689,
                    53.5757199
                ]
            },
            "properties": {
                "isced:level": "1;2",
                "ref:rspo": 64516,
                "official_name": "Szko\u0142a Podstawowa w Czerwonce",
                "name": "Szko\u0142a Podstawowa w Czerwonce",
                "addr:country": "PL",
                "addr:postcode": "16-150",
                "addr:place": "Czerwonka",
                "addr:housenumber": "42A",
                "addr:teryt:sym_ul": 40927,
                "contact:phone": "+48 857124031",
                "contact:email": "spczerwonka@wp.pl",
                "contact:website": "http:\/\/www.spczerwonka.w.interia.pl",
                "ref:regon": "001162839",
                "ref:vatin": "PL5451585442",
                "operator": "Gmina Suchowola",
                "operator:type": "government",
                "amenity": "school"
            }
        },
        {
            "id": 43820,
            "type": "Feature",
            "geometry": {
                "type": "Point",
                "coordinates": [
                    23.10932,
                    53.57587
                ]
            },
            "properties": {
                "ref:rspo": 43820,
                "official_name": "Zesp\u00f3\u0142 Plac\u00f3wek O\u015bwiatowych w Suchowoli",
                "name": "Zesp\u00f3\u0142 Plac\u00f3wek O\u015bwiatowych w Suchowoli",
                "addr:country": "PL",
                "addr:postcode": "16-150",
                "addr:city": "Suchowola",
                "addr:street": "ul. Szkolna",
                "addr:housenumber": "1",
                "addr:teryt:simc": 21970,
                "addr:teryt:sym_ul": 41312,
                "contact:phone": "+48 857124100",
                "contact:email": "zpo@suchowola.net",
                "contact:website": "http:\/\/www.suchowola.net",
                "ref:regon": "050695167",
                "ref:vatin": "PL5451602689",
                "operator": "Gmina Suchowola",
                "operator:type": "government",
                "landuse": "education",
                "fixme": "amenity=school, amenity=college albo landuse=education w zale\u017cno\u015bci od tego, jakie plac\u00f3wki wchodz\u0105 w sk\u0142ad zespo\u0142u. Sprawd\u017a, kiedy stosowa\u0107 amenity=* a kiedy landuse=education.",
                "note": "Children RSPO: 64517;64518"
            }
        },
        {
            "id": 64517,
            "type": "Feature",
            "geometry": {
                "type": "Point",
                "coordinates": [
                    23.10932,
                    53.57584
                ]
            },
            "properties": {
                "isced:level": "1;2",
                "ref:rspo": 64517,
                "official_name": "Szko\u0142a Podstawowa im. Stanis\u0142awa Staszica w Suchowoli",
                "name": "Szko\u0142a Podstawowa",
                "addr:country": "PL",
                "addr:postcode": "16-150",
                "addr:city": "Suchowola",
                "addr:street": "ul. Szkolna",
                "addr:housenumber": "1",
                "addr:teryt:simc": 21970,
                "addr:teryt:sym_ul": 41312,
                "contact:phone": "+48 857124100",
                "contact:email": "zpo@suchowola.net",
                "contact:website": "http:\/\/www.suchowola.net",
                "ref:regon": "000645470",
                "ref:vatin": "PL5451264519",
                "operator": "Gmina Suchowola",
                "operator:type": "government",
                "amenity": "school",
                "note": "Parent RSPO: 43820"
            }
        },
        {
            "id": 64518,
            "type": "Feature",
            "geometry": {
                "type": "Point",
                "coordinates": [
                    23.10932,
                    53.575810000000004
                ]
            },
            "properties": {
                "ref:rspo": 64518,
                "official_name": "Przedszkole Samorz\u0105dowe w Suchowoli",
                "name": "Przedszkole Samorz\u0105dowe w Suchowoli",
                "addr:country": "PL",
                "addr:postcode": "16-150",
                "addr:city": "Suchowola",
                "addr:street": "ul. Szkolna",
                "addr:housenumber": "1",
                "addr:teryt:simc": 21970,
                "addr:teryt:sym_ul": 41312,
                "contact:phone": "+48 857124100",
                "contact:email": "zpo@suchowola.net",
                "contact:website": "http:\/\/www.suchowola.net",
                "ref:regon": "050695291",
                "ref:vatin": "PL5451781261",
                "operator": "Gmina Suchowola",
                "operator:type": "government",
                "amenity": "kindergarten",
                "note": "Parent RSPO: 43820"
            }
        },
        {
            "id": 122452,
            "type": "Feature",
            "geometry": {
                "type": "Point",
                "coordinates": [
                    23.1003,
                    53.57756
                ]
            },
            "properties": {
                "ref:rspo": 122452,
                "official_name": "Centrum Edukacji Ustawicznej \"Perfect - Krzywosz\"",
                "name": "Centrum Edukacji Ustawicznej \"Perfect - Krzywosz\"",
                "addr:country": "PL",
                "addr:postcode": "16-150",
                "addr:city": "Suchowola",
                "addr:street": "ul. Goni\u0105dzka",
                "addr:housenumber": "33",
                "addr:teryt:simc": 5795,
                "addr:teryt:sym_ul": 41312,
                "contact:phone": "+48 857114971",
                "contact:email": "perfect.krzywosz@op.pl",
                "ref:regon": "200841762",
                "ref:vatin": "PL5261034785",
                "operator": "Zenon Krzywosz",
                "operator:type": "private",
                "fixme": "w zale\u017cno\u015bci od przedmiotu dzia\u0142alno\u015bci (np. amenity=training + training=*, amenity=dancing_school, amenity=language_school, amenity=music_school)"
            }
        },
        {
            "id": 10232,
            "type": "Feature",
            "geometry": {
                "type": "Point",
                "coordinates": [
                    23.10832,
                    53.57908
                ]
            },
            "properties": {
                "ref:rspo": 10232,
                "official_name": "Zesp\u00f3\u0142 Szk\u00f3\u0142 w Suchowoli",
                "name": "Zesp\u00f3\u0142 Szk\u00f3\u0142 w Suchowoli",
                "addr:country": "PL",
                "addr:postcode": "16-150",
                "addr:city": "Suchowola",
                "addr:street": "ul. Augustowska",
                "addr:housenumber": "2",
                "addr:teryt:simc": 493,
                "addr:teryt:sym_ul": 41312,
                "contact:phone": "+48 857124010",
                "contact:email": "sekretariat@losuchowola.edu.pl",
                "contact:website": "http:\/\/www.losuchowola.edu.pl",
                "ref:regon": "001143049",
                "ref:vatin": "PL5451447183",
                "operator": "Powiat Sok\u00f3lski",
                "operator:type": "government",
                "landuse": "education",
                "fixme": "amenity=school, amenity=college albo landuse=education w zale\u017cno\u015bci od tego, jakie plac\u00f3wki wchodz\u0105 w sk\u0142ad zespo\u0142u. Sprawd\u017a, kiedy stosowa\u0107 amenity=* a kiedy landuse=education.",
                "note": "Children RSPO: 21072;21074;278337"
            }
        },
        {
            "id": 21072,
            "type": "Feature",
            "geometry": {
                "type": "Point",
                "coordinates": [
                    23.10832,
                    53.579049999999995
                ]
            },
            "properties": {
                "isced:level": "3",
                "ref:rspo": 21072,
                "official_name": "Liceum Og\u00f3lnokszta\u0142c\u0105ce im. Ks. Jerzego Popie\u0142uszki w Suchowoli",
                "name": "Liceum Og\u00f3lnokszta\u0142c\u0105ce",
                "addr:country": "PL",
                "addr:postcode": "16-150",
                "addr:city": "Suchowola",
                "addr:street": "ul. Augustowska",
                "addr:housenumber": "2",
                "addr:teryt:simc": 493,
                "addr:teryt:sym_ul": 41312,
                "contact:phone": "+48 857124010",
                "contact:email": "sekretariat@losuchowola.edu.pl",
                "contact:website": "http:\/\/www.losuchowola.edu.pl",
                "ref:regon": "052133500",
                "operator": "Powiat Sok\u00f3lski",
                "operator:type": "government",
                "amenity": "school",
                "note": "Parent RSPO: 10232"
            }
        },
        {
            "id": 21074,
            "type": "Feature",
            "geometry": {
                "type": "Point",
                "coordinates": [
                    23.10832,
                    53.57902
                ]
            },
            "properties": {
                "isced:level": "3",
                "ref:rspo": 21074,
                "official_name": "Technikum w Suchowoli",
                "name": "Technikum w Suchowoli",
                "addr:country": "PL",
                "addr:postcode": "16-150",
                "addr:city": "Suchowola",
                "addr:street": "ul. Augustowska",
                "addr:housenumber": "2",
                "addr:teryt:simc": 493,
                "addr:teryt:sym_ul": 41312,
                "contact:phone": "+48 857124010",
                "contact:email": "sekretariat@losuchowola.edu.pl",
                "contact:website": "http:\/\/www.losuchowola.edu.pl",
                "ref:regon": "200099305",
                "operator": "Powiat Sok\u00f3lski",
                "operator:type": "government",
                "amenity": "school",
                "note": "Parent RSPO: 10232"
            }
        },
        {
            "id": 278337,
            "type": "Feature",
            "geometry": {
                "type": "Point",
                "coordinates": [
                    23.10832,
                    53.57899
                ]
            },
            "properties": {
                "isced:level": "3",
                "ref:rspo": 278337,
                "official_name": "Bran\u017cowa Szko\u0142a I Stopnia w Suchowoli",
                "name": "Bran\u017cowa Szko\u0142a I Stopnia w Suchowoli",
                "addr:country": "PL",
                "addr:postcode": "16-150",
                "addr:city": "Suchowola",
                "addr:street": "ul. Augustowska",
                "addr:housenumber": "2",
                "addr:teryt:simc": 493,
                "addr:teryt:sym_ul": 41312,
                "contact:phone": "+48 857124010",
                "contact:email": "sekretariat@losuchowola.edu.pl",
                "ref:regon": "389868642",
                "operator": "Powiat Sok\u00f3lski",
                "operator:type": "government",
                "amenity": "school",
                "note": "Parent RSPO: 10232"
            }
        }
    ]
}