{
    "type": "FeatureCollection",
    "features": [
        {
            "id": 278461,
            "type": "Feature",
            "geometry": {
                "type": "Point",
                "coordinates": [
                    18.294852,
                    51.6319329
                ]
            },
            "properties": {
                "ref:rspo": 278461,
                "official_name": "Przedszkole w Sobies\u0119kach Drugich",
                "name": "Przedszkole w Sobies\u0119kach Drugich",
                "addr:country": "PL",
                "addr:postcode": "62-862",
                "addr:place": "Sobies\u0119ki Drugie",
                "addr:housenumber": "13",
                "addr:teryt:simc": 210068,
                "contact:phone": "+48 627626803",
                "contact:email": "spiwanowice@op.pl",
                "ref:regon": "389904438",
                "operator": "Gmina Szczytniki",
                "operator:type": "government",
                "amenity": "kindergarten",
                "note": "Parent RSPO: 7971"
            }
        },
        {
            "id": 92210,
            "type": "Feature",
            "geometry": {
                "type": "Point",
                "coordinates": [
                    18.294852,
                    51.6319029
                ]
            },
            "properties": {
                "isced:level": "1;2",
                "ref:rspo": 92210,
                "official_name": "Szko\u0142a Filialna",
                "name": "Szko\u0142a Filialna",
                "addr:country": "PL",
                "addr:postcode": "62-862",
                "addr:place": "Sobies\u0119ki Drugie",
                "addr:housenumber": "13",
                "addr:teryt:simc": 210068,
                "contact:phone": "+48 627626803",
                "contact:email": "spiwanowice@op.pl",
                "ref:regon": "117136000",
                "operator": "Gmina Szczytniki",
                "operator:type": "government",
                "amenity": "school",
                "note": "Parent RSPO: 42227"
            }
        },
        {
            "id": 7971,
            "type": "Feature",
            "geometry": {
                "type": "Point",
                "coordinates": [
                    18.3260599,
                    51.65443
                ]
            },
            "properties": {
                "ref:rspo": 7971,
                "official_name": "Zesp\u00f3\u0142 Szk\u00f3\u0142 w Iwanowicach",
                "name": "Zesp\u00f3\u0142 Szk\u00f3\u0142 w Iwanowicach",
                "addr:country": "PL",
                "addr:postcode": "62-862",
                "addr:city": "Iwanowice",
                "addr:street": "Ksi\u0119dza Augustyna Kordeckiego",
                "addr:housenumber": "11",
                "addr:teryt:simc": 209757,
                "addr:teryt:sym_ul": 9345,
                "contact:phone": "+48 627626803",
                "contact:email": "spiwanowice@op.pl",
                "contact:website": "http:\/\/www.zsiwanowice.szkolnastrona.pl",
                "ref:regon": "302201779",
                "ref:vatin": "PL9680972728",
                "operator": "Gmina Szczytniki",
                "operator:type": "government",
                "landuse": "education",
                "fixme": "amenity=school, amenity=college albo landuse=education w zale\u017cno\u015bci od tego, jakie plac\u00f3wki wchodz\u0105 w sk\u0142ad zespo\u0142u. Sprawd\u017a, kiedy stosowa\u0107 amenity=* a kiedy landuse=education.",
                "note": "Children RSPO: 42227;42935;278461"
            }
        },
        {
            "id": 42227,
            "type": "Feature",
            "geometry": {
                "type": "Point",
                "coordinates": [
                    18.3260599,
                    51.654399999999995
                ]
            },
            "properties": {
                "isced:level": "1;2",
                "ref:rspo": 42227,
                "official_name": "Szko\u0142a Podstawowa im. Ks. Augustyna Kordeckiego w Iwanowicach",
                "name": "Szko\u0142a Podstawowa",
                "addr:country": "PL",
                "addr:postcode": "62-862",
                "addr:city": "Iwanowice",
                "addr:street": "Ksi\u0119dza Augustyna Kordeckiego",
                "addr:housenumber": "11",
                "addr:teryt:simc": 209757,
                "addr:teryt:sym_ul": 9345,
                "contact:phone": "+48 627626803",
                "contact:email": "spiwanowice@op.pl",
                "ref:regon": "001171360",
                "ref:vatin": "PL9680944985",
                "operator": "Gmina Szczytniki",
                "operator:type": "government",
                "amenity": "school",
                "note": "Children RSPO: 92210Parent RSPO: 7971"
            }
        },
        {
            "id": 42935,
            "type": "Feature",
            "geometry": {
                "type": "Point",
                "coordinates": [
                    18.32747,
                    51.65499
                ]
            },
            "properties": {
                "ref:rspo": 42935,
                "official_name": "Przedszkole w Iwanowicach",
                "name": "Przedszkole w Iwanowicach",
                "addr:country": "PL",
                "addr:postcode": "62-862",
                "addr:city": "Iwanowice",
                "addr:street": "Ksi\u0119dza Augustyna Kordeckiego",
                "addr:housenumber": "4",
                "addr:teryt:simc": 209757,
                "addr:teryt:sym_ul": 9345,
                "contact:phone": "+48 627626848",
                "contact:email": "spiwanowice@op.pl",
                "ref:regon": "251589751",
                "ref:vatin": "PL9680945045",
                "operator": "Gmina Szczytniki",
                "operator:type": "government",
                "amenity": "kindergarten",
                "note": "Parent RSPO: 7971"
            }
        },
        {
            "id": 92715,
            "type": "Feature",
            "geometry": {
                "type": "Point",
                "coordinates": [
                    18.257647,
                    51.668923
                ]
            },
            "properties": {
                "isced:level": "1;2",
                "ref:rspo": 92715,
                "official_name": "Szko\u0142a Filialna",
                "name": "Szko\u0142a Filialna",
                "addr:country": "PL",
                "addr:postcode": "62-862",
                "addr:place": "Po\u015brednik",
                "addr:housenumber": "8",
                "addr:teryt:simc": 210016,
                "contact:phone": "+48 627625002",
                "contact:email": "sp-szczytniki@wp.pl",
                "ref:regon": "117132400",
                "operator": "Gmina Szczytniki",
                "operator:type": "government",
                "amenity": "school",
                "note": "Parent RSPO: 42234"
            }
        },
        {
            "id": 24229,
            "type": "Feature",
            "geometry": {
                "type": "Point",
                "coordinates": [
                    18.326783,
                    51.6853799
                ]
            },
            "properties": {
                "ref:rspo": 24229,
                "official_name": "Zesp\u00f3\u0142 Szk\u00f3\u0142 w Szczytnikach",
                "name": "Zesp\u00f3\u0142 Szk\u00f3\u0142 w Szczytnikach",
                "addr:country": "PL",
                "addr:postcode": "62-865",
                "addr:place": "Pop\u00f3w",
                "addr:housenumber": "54",
                "addr:teryt:simc": 209993,
                "contact:phone": "+48 627625002",
                "contact:email": "sp-szczytniki@wp.pl",
                "contact:website": "http:\/\/www.zsszczytniki.szkolnastrona.pl",
                "ref:regon": "300634020",
                "ref:vatin": "PL9680959857",
                "operator": "Gmina Szczytniki",
                "operator:type": "government",
                "landuse": "education",
                "fixme": "amenity=school, amenity=college albo landuse=education w zale\u017cno\u015bci od tego, jakie plac\u00f3wki wchodz\u0105 w sk\u0142ad zespo\u0142u. Sprawd\u017a, kiedy stosowa\u0107 amenity=* a kiedy landuse=education.",
                "note": "Children RSPO: 42234;42934"
            }
        },
        {
            "id": 42234,
            "type": "Feature",
            "geometry": {
                "type": "Point",
                "coordinates": [
                    18.326783,
                    51.6853499
                ]
            },
            "properties": {
                "isced:level": "1;2",
                "ref:rspo": 42234,
                "official_name": "Szko\u0142a Podstawowa w Szczytnikach",
                "name": "Szko\u0142a Podstawowa w Szczytnikach",
                "addr:country": "PL",
                "addr:postcode": "62-865",
                "addr:place": "Pop\u00f3w",
                "addr:housenumber": "54",
                "addr:teryt:simc": 209993,
                "contact:phone": "+48 627625002",
                "contact:email": "sp-szczytniki@wp.pl",
                "ref:regon": "001171324",
                "ref:vatin": "PL9680944991",
                "operator": "Gmina Szczytniki",
                "operator:type": "government",
                "amenity": "school",
                "note": "Children RSPO: 92715Parent RSPO: 24229"
            }
        },
        {
            "id": 42934,
            "type": "Feature",
            "geometry": {
                "type": "Point",
                "coordinates": [
                    18.330837,
                    51.687711
                ]
            },
            "properties": {
                "ref:rspo": 42934,
                "official_name": "Przedszkole \"T\u0119cza\" w Szczytnikach",
                "name": "Przedszkole \"T\u0119cza\" w Szczytnikach",
                "addr:country": "PL",
                "addr:postcode": "62-865",
                "addr:place": "Szczytniki",
                "addr:housenumber": "138",
                "addr:teryt:simc": 210134,
                "contact:phone": "+48 627625043",
                "contact:email": "sp-szczytniki@wp.pl",
                "ref:regon": "251589780",
                "ref:vatin": "PL9680940964",
                "operator": "Gmina Szczytniki",
                "operator:type": "government",
                "amenity": "kindergarten",
                "note": "Parent RSPO: 24229"
            }
        },
        {
            "id": 24227,
            "type": "Feature",
            "geometry": {
                "type": "Point",
                "coordinates": [
                    18.3317688,
                    51.700611
                ]
            },
            "properties": {
                "ref:rspo": 24227,
                "official_name": "Zesp\u00f3\u0142 Szk\u00f3\u0142 im. Jana Paw\u0142a II w Marchwaczu",
                "name": "Zesp\u00f3\u0142 Szk\u00f3\u0142",
                "addr:country": "PL",
                "addr:postcode": "62-865",
                "addr:place": "Marchwacz",
                "addr:housenumber": "27",
                "addr:teryt:simc": 209875,
                "contact:phone": "+48 627625025",
                "contact:email": "spmarchwacz@vp.pl",
                "ref:regon": "300631300",
                "ref:vatin": "PL9680960085",
                "operator": "Gmina Szczytniki",
                "operator:type": "government",
                "landuse": "education",
                "fixme": "amenity=school, amenity=college albo landuse=education w zale\u017cno\u015bci od tego, jakie plac\u00f3wki wchodz\u0105 w sk\u0142ad zespo\u0142u. Sprawd\u017a, kiedy stosowa\u0107 amenity=* a kiedy landuse=education.",
                "note": "Children RSPO: 42226;266059"
            }
        },
        {
            "id": 42226,
            "type": "Feature",
            "geometry": {
                "type": "Point",
                "coordinates": [
                    18.3317688,
                    51.700581
                ]
            },
            "properties": {
                "isced:level": "1;2",
                "ref:rspo": 42226,
                "official_name": "Szko\u0142a Podstawowa im. Stanis\u0142awa Aleksandrzaka w Marchwaczu",
                "name": "Szko\u0142a Podstawowa",
                "addr:country": "PL",
                "addr:postcode": "62-865",
                "addr:place": "Marchwacz",
                "addr:housenumber": "27",
                "addr:teryt:simc": 209875,
                "contact:phone": "+48 627625025",
                "contact:email": "spmarchwacz@vp.pl",
                "ref:regon": "001171353",
                "ref:vatin": "PL9680940935",
                "operator": "Gmina Szczytniki",
                "operator:type": "government",
                "amenity": "school",
                "note": "Parent RSPO: 24227"
            }
        },
        {
            "id": 266059,
            "type": "Feature",
            "geometry": {
                "type": "Point",
                "coordinates": [
                    18.3317688,
                    51.700551000000004
                ]
            },
            "properties": {
                "ref:rspo": 266059,
                "official_name": "Zesp\u00f3\u0142 Szk\u00f3\u0142 im. Jana Paw\u0142a II w Marchwaczu - Przedszkole w Marchwaczu",
                "name": "Zesp\u00f3\u0142 Szk\u00f3\u0142",
                "addr:country": "PL",
                "addr:postcode": "62-865",
                "addr:place": "Marchwacz",
                "addr:housenumber": "27",
                "addr:teryt:simc": 209875,
                "contact:phone": "+48 627625025",
                "contact:email": "spmarchwacz@vp.pl",
                "ref:regon": "369217067",
                "operator": "Gmina Szczytniki",
                "operator:type": "government",
                "amenity": "kindergarten",
                "note": "Parent RSPO: 24227"
            }
        },
        {
            "id": 24228,
            "type": "Feature",
            "geometry": {
                "type": "Point",
                "coordinates": [
                    18.345909,
                    51.727297
                ]
            },
            "properties": {
                "ref:rspo": 24228,
                "official_name": "Zesp\u00f3\u0142 Szk\u00f3\u0142 w Radliczycach",
                "name": "Zesp\u00f3\u0142 Szk\u00f3\u0142 w Radliczycach",
                "addr:country": "PL",
                "addr:postcode": "62-865",
                "addr:place": "Radliczyce",
                "addr:housenumber": "72",
                "addr:teryt:simc": 210039,
                "contact:phone": "+48 627627134",
                "contact:email": "szpradliczyce@op.pl",
                "ref:regon": "300635195",
                "ref:vatin": "PL9680959863",
                "operator": "Gmina Szczytniki",
                "operator:type": "government",
                "landuse": "education",
                "fixme": "amenity=school, amenity=college albo landuse=education w zale\u017cno\u015bci od tego, jakie plac\u00f3wki wchodz\u0105 w sk\u0142ad zespo\u0142u. Sprawd\u017a, kiedy stosowa\u0107 amenity=* a kiedy landuse=education.",
                "note": "Children RSPO: 42230;266058"
            }
        },
        {
            "id": 42230,
            "type": "Feature",
            "geometry": {
                "type": "Point",
                "coordinates": [
                    18.345909,
                    51.727267
                ]
            },
            "properties": {
                "isced:level": "1;2",
                "ref:rspo": 42230,
                "official_name": "Szko\u0142a Podstawowa w Radliczycach",
                "name": "Szko\u0142a Podstawowa w Radliczycach",
                "addr:country": "PL",
                "addr:postcode": "62-865",
                "addr:place": "Radliczyce",
                "addr:housenumber": "72",
                "addr:teryt:simc": 210039,
                "contact:phone": "+48 627627134",
                "contact:email": "szpradliczyce@op.pl",
                "ref:regon": "001171330",
                "ref:vatin": "PL9680940958",
                "operator": "Gmina Szczytniki",
                "operator:type": "government",
                "amenity": "school",
                "note": "Children RSPO: 92716Parent RSPO: 24228"
            }
        },
        {
            "id": 266058,
            "type": "Feature",
            "geometry": {
                "type": "Point",
                "coordinates": [
                    18.345909,
                    51.727237
                ]
            },
            "properties": {
                "ref:rspo": 266058,
                "official_name": "Zesp\u00f3\u0142 Szk\u00f3\u0142 w Radliczycach Przedszkole w Radliczycach",
                "name": "Zesp\u00f3\u0142 Szk\u00f3\u0142 w Radliczycach Przedszkole w Radliczycach",
                "addr:country": "PL",
                "addr:postcode": "62-865",
                "addr:place": "Radliczyce",
                "addr:housenumber": "72",
                "addr:teryt:simc": 210039,
                "contact:phone": "+48 627627134",
                "contact:email": "szpradliczyce@op.pl",
                "ref:regon": "369216837",
                "operator": "Gmina Szczytniki",
                "operator:type": "government",
                "amenity": "kindergarten",
                "note": "Parent RSPO: 24228"
            }
        },
        {
            "id": 92716,
            "type": "Feature",
            "geometry": {
                "type": "Point",
                "coordinates": [
                    18.4096193,
                    51.7306428
                ]
            },
            "properties": {
                "isced:level": "1;2",
                "ref:rspo": 92716,
                "official_name": "Szko\u0142a Filialna",
                "name": "Szko\u0142a Filialna",
                "addr:country": "PL",
                "addr:postcode": "62-865",
                "addr:place": "Mroczki Wielkie",
                "addr:housenumber": "3",
                "addr:teryt:simc": 209970,
                "contact:phone": "+48 627627134",
                "contact:email": "szpradliczyce@op.pl",
                "ref:regon": "117133000",
                "operator": "Gmina Szczytniki",
                "operator:type": "government",
                "amenity": "school",
                "note": "Parent RSPO: 42230"
            }
        },
        {
            "id": 8057,
            "type": "Feature",
            "geometry": {
                "type": "Point",
                "coordinates": [
                    18.20546,
                    51.73877
                ]
            },
            "properties": {
                "ref:rspo": 8057,
                "official_name": "Zesp\u00f3\u0142 Szk\u00f3\u0142 w Stawie",
                "name": "Zesp\u00f3\u0142 Szk\u00f3\u0142 w Stawie",
                "addr:country": "PL",
                "addr:postcode": "62-865",
                "addr:city": "Staw",
                "addr:street": "Szkolna",
                "addr:housenumber": "3",
                "addr:teryt:simc": 210128,
                "addr:teryt:sym_ul": 21970,
                "contact:phone": "+48 627626460",
                "contact:email": "gimstaw@wp.pl",
                "ref:regon": "302201791",
                "ref:vatin": "PL9680972711",
                "operator": "Gmina Szczytniki",
                "operator:type": "government",
                "landuse": "education",
                "fixme": "amenity=school, amenity=college albo landuse=education w zale\u017cno\u015bci od tego, jakie plac\u00f3wki wchodz\u0105 w sk\u0142ad zespo\u0142u. Sprawd\u017a, kiedy stosowa\u0107 amenity=* a kiedy landuse=education.",
                "note": "Children RSPO: 42232;42933"
            }
        },
        {
            "id": 42232,
            "type": "Feature",
            "geometry": {
                "type": "Point",
                "coordinates": [
                    18.20546,
                    51.73874
                ]
            },
            "properties": {
                "isced:level": "1;2",
                "ref:rspo": 42232,
                "official_name": "Szko\u0142a Podstawowa w Stawie",
                "name": "Szko\u0142a Podstawowa w Stawie",
                "addr:country": "PL",
                "addr:postcode": "62-865",
                "addr:city": "Staw",
                "addr:street": "Szkolna",
                "addr:housenumber": "3",
                "addr:teryt:simc": 210128,
                "addr:teryt:sym_ul": 21970,
                "contact:phone": "+48 627626460",
                "contact:email": "gimstaw@wp.pl",
                "ref:regon": "000648273",
                "ref:vatin": "PL9680932031",
                "operator": "Gmina Szczytniki",
                "operator:type": "government",
                "amenity": "school",
                "note": "Parent RSPO: 8057"
            }
        },
        {
            "id": 42933,
            "type": "Feature",
            "geometry": {
                "type": "Point",
                "coordinates": [
                    18.20546,
                    51.738710000000005
                ]
            },
            "properties": {
                "ref:rspo": 42933,
                "official_name": "Przedszkole w Stawie",
                "name": "Przedszkole w Stawie",
                "addr:country": "PL",
                "addr:postcode": "62-865",
                "addr:city": "Staw",
                "addr:street": "Szkolna",
                "addr:housenumber": "3",
                "addr:teryt:simc": 210128,
                "addr:teryt:sym_ul": 21970,
                "contact:phone": "+48 627626460",
                "contact:email": "gimstaw@wp.pl",
                "ref:regon": "251589768",
                "ref:vatin": "PL9680940929",
                "operator": "Gmina Szczytniki",
                "operator:type": "government",
                "amenity": "kindergarten",
                "note": "Parent RSPO: 8057"
            }
        }
    ]
}