{
    "type": "FeatureCollection",
    "features": [
        {
            "id": 104791,
            "type": "Feature",
            "geometry": {
                "type": "Point",
                "coordinates": [
                    18.235381,
                    51.818777
                ]
            },
            "properties": {
                "isced:level": "1;2",
                "ref:rspo": 104791,
                "official_name": "Szko\u0142a Podstawowa im. Mieczys\u0142awa Ja\u0142owieckiego w Kamieniu",
                "name": "Szko\u0142a Podstawowa",
                "addr:postcode": "62-834",
                "addr:place": "Kamie\u0144",
                "addr:housenumber": "34a",
                "addr:teryt:simc": 195274,
                "phone": "+48 627631475",
                "email": "zskam@gazeta.pl",
                "ref:regon": "001165536",
                "ref:vatin": "PL9680854058",
                "operator": "Gmina Cek\u00f3w-Kolonia",
                "operator:type": "government",
                "amenity": "school"
            }
        },
        {
            "id": 54004,
            "type": "Feature",
            "geometry": {
                "type": "Point",
                "coordinates": [
                    18.2726521,
                    51.8469229
                ]
            },
            "properties": {
                "isced:level": "1;2",
                "ref:rspo": 54004,
                "official_name": "Szko\u0142a Podstawowa w Morawinie",
                "name": "Szko\u0142a Podstawowa w Morawinie",
                "addr:postcode": "62-834",
                "addr:place": "Morawin",
                "addr:housenumber": "27",
                "addr:teryt:simc": 195386,
                "phone": "+48 627631472",
                "email": "spmorawin@wp.pl",
                "website": "http:\/\/www.spmorawin.edu.pl",
                "ref:regon": "001165542",
                "ref:vatin": "PL9680854064",
                "operator": "Gmina Cek\u00f3w-Kolonia",
                "operator:type": "government",
                "amenity": "school"
            }
        },
        {
            "id": 72777,
            "type": "Feature",
            "geometry": {
                "type": "Point",
                "coordinates": [
                    18.2761182,
                    51.8794645
                ]
            },
            "properties": {
                "isced:level": "1;2",
                "ref:rspo": 72777,
                "official_name": "Szko\u0142a Podstawowa w Kosmowie",
                "name": "Szko\u0142a Podstawowa w Kosmowie",
                "addr:postcode": "62-834",
                "addr:place": "Kosm\u00f3w-Kolonia",
                "addr:housenumber": "46",
                "addr:teryt:simc": 195357,
                "phone": "+48 627631083",
                "email": "spkosmow@poczta.onet.pl",
                "ref:regon": "001165743",
                "ref:vatin": "PL9680854035",
                "operator": "Gmina Cek\u00f3w-Kolonia",
                "operator:type": "government",
                "amenity": "school"
            }
        },
        {
            "id": 104734,
            "type": "Feature",
            "geometry": {
                "type": "Point",
                "coordinates": [
                    18.298312,
                    51.891504
                ]
            },
            "properties": {
                "isced:level": "1;2",
                "ref:rspo": 104734,
                "official_name": "Szko\u0142a Podstawowa im. Adama Chody\u0144skiego w Cekowie-Kolonii",
                "name": "Szko\u0142a Podstawowa",
                "addr:postcode": "62-834",
                "addr:place": "Cek\u00f3w-Kolonia",
                "addr:housenumber": "2",
                "addr:teryt:simc": 195239,
                "phone": "+48 627631013",
                "email": "gimcekow1@wp.pl",
                "website": "http:\/\/zscekowkolonia.superszkolna.pl",
                "ref:regon": "302157216",
                "ref:vatin": "PL9680972562",
                "operator": "Gmina Cek\u00f3w-Kolonia",
                "operator:type": "government",
                "amenity": "school"
            }
        },
        {
            "id": 72778,
            "type": "Feature",
            "geometry": {
                "type": "Point",
                "coordinates": [
                    18.293907,
                    51.8921069
                ]
            },
            "properties": {
                "ref:rspo": 72778,
                "official_name": "Publiczne Przedszkole w Cekowie-Kolonii",
                "name": "Publiczne Przedszkole w Cekowie-Kolonii",
                "addr:postcode": "62-834",
                "addr:place": "Cek\u00f3w-Kolonia",
                "addr:housenumber": "41b",
                "addr:teryt:simc": 195239,
                "phone": "+48 627631088",
                "email": "ppcekow@poczta.onet.pl",
                "ref:regon": "251591535",
                "ref:vatin": "PL9680854087",
                "operator": "Gmina Cek\u00f3w-Kolonia",
                "operator:type": "government",
                "amenity": "kindergarten"
            }
        }
    ]
}