{"type":"FeatureCollection","features":[{"id":7638,"type":"Feature","geometry":{"type":"Point","coordinates":[18.1019159,51.7734632]},"properties":{"isced:level":"1;2","ref:rspo":7638,"official_name":"Szko\u0142a Podstawowa im.armii Krajowej w Skarszewie","name":"Szko\u0142a Podstawowa im.armii Krajowej w Skarszewie","addr:country":"PL","addr:postcode":"62-817","addr:place":"Skarszew","addr:housenumber":"50","addr:teryt:sym_ul":211292,"contact:phone":"+48 627614274","contact:email":"spskarszew@wp.pl","contact:website":"http:\/\/www.spskarszew.pl","ref:regon":"001174067","ref:vatin":"PL9680806757","operator":"Gmina \u017belazk\u00f3w","operator:type":"government","amenity":"school"}},{"id":268773,"type":"Feature","geometry":{"type":"Point","coordinates":[18.12667,51.78]},"properties":{"ref:rspo":268773,"official_name":"Niepubliczne Przedszkole ,,Mi\u015b I Lala\"","name":"Niepubliczne Przedszkole ,,Mi\u015b I Lala\"","addr:country":"PL","addr:postcode":"62-800","addr:place":"Szosa Turecka","addr:housenumber":"36B","addr:teryt:sym_ul":211346,"contact:phone":"+48 780066606","contact:email":"misilala@onet.pl","ref:regon":"381246993","operator":"Katarzyna Wojtynka-Kryszak","operator:type":"private","amenity":"kindergarten"}},{"id":130913,"type":"Feature","geometry":{"type":"Point","coordinates":[18.1971101,51.796319]},"properties":{"ref:rspo":130913,"official_name":"Zesp\u00f3\u0142 Szkolno -Przedszkolny w D\u0119bem","name":"Zesp\u00f3\u0142 Szkolno -Przedszkolny w D\u0119bem","addr:country":"PL","addr:postcode":"62-817","addr:place":"D\u0119be","addr:housenumber":"34a","addr:teryt:sym_ul":211122,"contact:phone":"+48 627694207","contact:email":"sp.debe@wp.pl","contact:website":"http:\/\/zsd.debe.zobaczsam.drl.pl","ref:regon":"364708139","operator":"Gmina \u017belazk\u00f3w","operator:type":"government","landuse":"education","fixme":"amenity=school, amenity=college albo landuse=education w zale\u017cno\u015bci od tego, jakie plac\u00f3wki wchodz\u0105 w sk\u0142ad zespo\u0142u. Sprawd\u017a, kiedy stosowa\u0107 amenity=* a kiedy landuse=education.","note":"Children RSPO: 7538;130912"}},{"id":7538,"type":"Feature","geometry":{"type":"Point","coordinates":[18.1971101,51.796288999999994]},"properties":{"isced:level":"1;2","ref:rspo":7538,"official_name":"Szko\u0142a Podstawowa im.\u015bw. Jana Paw\u0142a II w D\u0119bem","name":"Szko\u0142a Podstawowa im.\u015bw. Jana Paw\u0142a II w D\u0119bem","addr:country":"PL","addr:postcode":"62-817","addr:place":"D\u0119be","addr:housenumber":"34A","addr:teryt:sym_ul":211122,"contact:phone":"+48 627694207","contact:email":"sp.debe@wp.pl","contact:website":"http:\/\/zsd.zobaczsam.drl.pl","ref:regon":"001174104","ref:vatin":"PL9680973231","operator":"Gmina \u017belazk\u00f3w","operator:type":"government","amenity":"school","note":"Parent RSPO: 130913"}},{"id":130912,"type":"Feature","geometry":{"type":"Point","coordinates":[18.1971101,51.796259]},"properties":{"ref:rspo":130912,"official_name":"Publiczne Przedszkole Samorz\u0105dowe w D\u0119bem","name":"Publiczne Przedszkole Samorz\u0105dowe w D\u0119bem","addr:country":"PL","addr:postcode":"62-817","addr:place":"D\u0119be","addr:housenumber":"34 a","addr:teryt:sym_ul":211122,"contact:phone":"+48 627694207","contact:email":"sp.debe@wp.pl","contact:website":"http:\/\/zsd.zobaczsam.drl.pl","ref:regon":"364708033","operator":"Gmina \u017belazk\u00f3w","operator:type":"government","amenity":"kindergarten","note":"Parent RSPO: 130913"}},{"id":133435,"type":"Feature","geometry":{"type":"Point","coordinates":[18.093843,51.810159]},"properties":{"ref:rspo":133435,"official_name":"Zesp\u00f3\u0142 Szkolno-Przedszkolny w Kokaninie","name":"Zesp\u00f3\u0142 Szkolno-Przedszkolny w Kokaninie","addr:country":"PL","addr:postcode":"62-817","addr:place":"Kokanin","addr:housenumber":"67","addr:teryt:sym_ul":211211,"contact:phone":"+48 627612921","contact:email":"zspkokanin@gmail.com","contact:website":"http:\/\/www.zspkokanin.pl","ref:regon":"367297582","operator":"Gmina \u017belazk\u00f3w","operator:type":"government","landuse":"education","fixme":"amenity=school, amenity=college albo landuse=education w zale\u017cno\u015bci od tego, jakie plac\u00f3wki wchodz\u0105 w sk\u0142ad zespo\u0142u. Sprawd\u017a, kiedy stosowa\u0107 amenity=* a kiedy landuse=education.","note":"Children RSPO: 7035;133433"}},{"id":7035,"type":"Feature","geometry":{"type":"Point","coordinates":[18.093843,51.810128999999996]},"properties":{"ref:rspo":7035,"official_name":"Publiczne Przedszkole Samorz\u0105dowe","name":"Publiczne Przedszkole Samorz\u0105dowe","addr:country":"PL","addr:postcode":"62-817","addr:place":"Kokanin","addr:housenumber":"67","addr:teryt:sym_ul":211211,"contact:phone":"+48 627612921","contact:email":"zspkokanin@gmail.com","ref:regon":"301524492","operator":"Gmina \u017belazk\u00f3w","operator:type":"government","amenity":"kindergarten","note":"Parent RSPO: 133435"}},{"id":133433,"type":"Feature","geometry":{"type":"Point","coordinates":[18.093843,51.810099]},"properties":{"isced:level":"1;2","ref:rspo":133433,"official_name":"Szko\u0142a Podstawowa w Kokaninie","name":"Szko\u0142a Podstawowa w Kokaninie","addr:country":"PL","addr:postcode":"62-817","addr:place":"Kokanin","addr:housenumber":"67","addr:teryt:sym_ul":211211,"contact:phone":"+48 627612921","contact:email":"zspkokanin@gmail.com","ref:regon":"367294661","operator":"Gmina \u017belazk\u00f3w","operator:type":"government","amenity":"school","note":"Parent RSPO: 133435"}},{"id":6928,"type":"Feature","geometry":{"type":"Point","coordinates":[18.1824379,51.8271448]},"properties":{"isced:level":"1;2","ref:rspo":6928,"official_name":"Niepubliczna Szko\u0142a Podstawowa w Biernatkach","name":"Niepubliczna Szko\u0142a Podstawowa w Biernatkach","addr:country":"PL","addr:postcode":"62-817","addr:place":"Biernatki","addr:housenumber":"18","addr:teryt:sym_ul":211151,"contact:phone":"+48 627691021","contact:email":"spbiernatki@op.pl","contact:website":"http:\/\/www.biernatki.szkolnastrona.pl","ref:regon":"302199516","operator":"Stowarzyszenie Przyjaci\u00f3\u0142 Szko\u0142y \"Nasze Dzieci\" W Biernatkach","operator:type":"ngo","amenity":"school"}},{"id":196357,"type":"Feature","geometry":{"type":"Point","coordinates":[18.097309,51.8454089]},"properties":{"ref:rspo":196357,"official_name":"Zesp\u00f3\u0142 Szkolno-Przedszkolny w Russowie","name":"Zesp\u00f3\u0142 Szkolno-Przedszkolny w Russowie","addr:country":"PL","addr:postcode":"62-817","addr:place":"Russ\u00f3w","addr:housenumber":"6","addr:teryt:sym_ul":211270,"contact:phone":"+48 627692160","contact:email":"gimrussow@op.pl","ref:regon":"367994140","operator":"Gmina \u017belazk\u00f3w","operator:type":"government","landuse":"education","fixme":"amenity=school, amenity=college albo landuse=education w zale\u017cno\u015bci od tego, jakie plac\u00f3wki wchodz\u0105 w sk\u0142ad zespo\u0142u. Sprawd\u017a, kiedy stosowa\u0107 amenity=* a kiedy landuse=education.","note":"Children RSPO: 7637;196353"}},{"id":7637,"type":"Feature","geometry":{"type":"Point","coordinates":[18.097309,51.8453789]},"properties":{"isced:level":"1;2","ref:rspo":7637,"official_name":"Szko\u0142a Podstawowa Im Marii D\u0105browskiej","name":"Szko\u0142a Podstawowa Im Marii D\u0105browskiej","addr:country":"PL","addr:postcode":"62-817","addr:place":"Russ\u00f3w","addr:housenumber":"6","addr:teryt:sym_ul":211270,"contact:phone":"+48 627692160","contact:email":"gimrussow@op.pl","contact:website":"https:\/\/zsprussow.szkolnastrona.pl\/","ref:regon":"001174080","ref:vatin":"PL9680806734","operator":"Gmina \u017belazk\u00f3w","operator:type":"government","amenity":"school","note":"Parent RSPO: 196357"}},{"id":196353,"type":"Feature","geometry":{"type":"Point","coordinates":[18.097309,51.845348900000005]},"properties":{"ref:rspo":196353,"official_name":"Publiczne Przedszkole Samorz\u0105dowe w Russowie","name":"Publiczne Przedszkole Samorz\u0105dowe w Russowie","addr:country":"PL","addr:postcode":"62-817","addr:place":"Russ\u00f3w","addr:housenumber":"6","addr:teryt:sym_ul":211270,"contact:phone":"+48 627692160","contact:email":"gimrussow@op.pl","ref:regon":"367991710","operator":"Gmina \u017belazk\u00f3w","operator:type":"government","amenity":"kindergarten","note":"Parent RSPO: 196357"}},{"id":7290,"type":"Feature","geometry":{"type":"Point","coordinates":[18.1751938,51.850539]},"properties":{"ref:rspo":7290,"official_name":"Zesp\u00f3\u0142 Szk\u00f3\u0142 w \u017belazkowie Publiczne Przedszkole Samorz\u0105dowe","name":"Zesp\u00f3\u0142 Szk\u00f3\u0142 w \u017belazkowie Publiczne Przedszkole Samorz\u0105dowe","addr:country":"PL","addr:postcode":"62-817","addr:place":"\u017belazk\u00f3w","addr:housenumber":"110","addr:teryt:sym_ul":211435,"contact:phone":"+48 627691030","contact:email":"zs.zelazkow@wp.pl","ref:regon":"251590530","operator":"Gmina \u017belazk\u00f3w","operator:type":"government","amenity":"kindergarten","note":"Parent RSPO: 6473"}},{"id":6473,"type":"Feature","geometry":{"type":"Point","coordinates":[18.174516,51.850809]},"properties":{"ref:rspo":6473,"official_name":"Zesp\u00f3\u0142 Szk\u00f3\u0142 w \u017belazkowie","name":"Zesp\u00f3\u0142 Szk\u00f3\u0142 w \u017belazkowie","addr:country":"PL","addr:postcode":"62-817","addr:place":"\u017belazk\u00f3w","addr:housenumber":"108","addr:teryt:sym_ul":211435,"contact:phone":"+48 627691010","contact:email":"zs.zelazkow@wp.pl","ref:regon":"251454181","ref:vatin":"PL9680805019","operator":"Gmina \u017belazk\u00f3w","operator:type":"government","landuse":"education","fixme":"amenity=school, amenity=college albo landuse=education w zale\u017cno\u015bci od tego, jakie plac\u00f3wki wchodz\u0105 w sk\u0142ad zespo\u0142u. Sprawd\u017a, kiedy stosowa\u0107 amenity=* a kiedy landuse=education.","note":"Children RSPO: 7287;7290"}},{"id":7287,"type":"Feature","geometry":{"type":"Point","coordinates":[18.174516,51.850778999999996]},"properties":{"isced:level":"1;2","ref:rspo":7287,"official_name":"Zesp\u00f3\u0142 Szk\u00f3\u0142 w \u017belazkowie Szko\u0142a Podstawowa","name":"Zesp\u00f3\u0142 Szk\u00f3\u0142 w \u017belazkowie Szko\u0142a Podstawowa","addr:country":"PL","addr:postcode":"62-817","addr:place":"\u017belazk\u00f3w","addr:housenumber":"108","addr:teryt:sym_ul":211435,"contact:phone":"+48 627691010","contact:email":"zs.zelazkow@wp.pl","ref:regon":"000631404","operator":"Gmina \u017belazk\u00f3w","operator:type":"government","amenity":"school","note":"Parent RSPO: 6473"}},{"id":6597,"type":"Feature","geometry":{"type":"Point","coordinates":[18.1814839,51.8722829]},"properties":{"isced:level":"1;2","ref:rspo":6597,"official_name":"Szko\u0142a Podstawowa im. Ks.jana Twardowskiego w Goliszewie","name":"Szko\u0142a Podstawowa","addr:country":"PL","addr:postcode":"62-817","addr:place":"Goliszew","addr:housenumber":"17","addr:teryt:sym_ul":211174,"contact:phone":"+48 627691013","contact:email":"spgoliszew@op.pl","contact:website":"http:\/\/spgoliszew.szkolnastrona.pl\/","ref:regon":"001174073","ref:vatin":"PL9680804994","operator":"Gmina \u017belazk\u00f3w","operator:type":"government","amenity":"school"}},{"id":31189,"type":"Feature","geometry":{"type":"Point","coordinates":[18.1814839,51.8722529]},"properties":{"isced:level":"4","ref:rspo":31189,"official_name":"Szko\u0142a Policealna \"Lider\" w Goliszewie","name":"Szko\u0142a Policealna \"Lider\" w Goliszewie","addr:country":"PL","addr:postcode":"62-817","addr:place":"Goliszew","addr:housenumber":"17","addr:teryt:sym_ul":211174,"contact:phone":"+48 627691013","contact:email":"biuro@cds-lider.com.pl","ref:regon":"302250080","operator":"Ma\u0142gorzata Szl\u0105zak","operator:type":"private","amenity":"college"}},{"id":277746,"type":"Feature","geometry":{"type":"Point","coordinates":[18.1814839,51.872222900000004]},"properties":{"isced:level":"3","ref:rspo":277746,"official_name":"Szko\u0142a Bran\u017cowa II Stopnia Lider w Goliszewie","name":"Szko\u0142a Bran\u017cowa II Stopnia Lider w Goliszewie","addr:country":"PL","addr:postcode":"62-817","addr:place":"Goliszew","addr:housenumber":"17","addr:teryt:sym_ul":211174,"contact:email":"biuro@cds-lider.com.pl","ref:regon":"389423555","operator":"Ma\u0142gorzata Szl\u0105zak","operator:type":"private","amenity":"school"}}]}