{
    "type": "FeatureCollection",
    "features": [
        {
            "id": 21585,
            "type": "Feature",
            "geometry": {
                "type": "Point",
                "coordinates": [
                    18.2859513,
                    51.5747537
                ]
            },
            "properties": {
                "isced:level": "1;2",
                "ref:rspo": 21585,
                "official_name": "Publiczna Szko\u0142a Podstawowa Stowarzyszenia Przyjaci\u00f3\u0142 Szk\u00f3\u0142 Katolickichh",
                "name": "Publiczna Szko\u0142a Podstawowa Stowarzyszenia Przyjaci\u00f3\u0142 Szk\u00f3\u0142 Katolickichh",
                "addr:postcode": "62-874",
                "addr:place": "Czempisz",
                "addr:housenumber": "38",
                "addr:city:simc": 194866,
                "phone": "+48 627698016",
                "email": "pspczempisz@wp.pl",
                "ref:regon": "302231007",
                "ref:vatin": "PL9680807188",
                "operator": "Stowarzyszenie Przyjaci\u00f3\u0142 Szk\u00f3\u0142 Katolickich",
                "operator:type": "ngo",
                "amenity": "school"
            }
        },
        {
            "id": 21733,
            "type": "Feature",
            "geometry": {
                "type": "Point",
                "coordinates": [
                    18.25276,
                    51.5933
                ]
            },
            "properties": {
                "isced:level": "1;2",
                "ref:rspo": 21733,
                "official_name": "Szko\u0142a Podstawowa w Brzezinach",
                "name": "Szko\u0142a Podstawowa w Brzezinach",
                "addr:postcode": "62-874",
                "addr:city": "Brzeziny",
                "addr:street": "Wroc\u0142awska",
                "addr:housenumber": "17",
                "addr:city:simc": 194850,
                "addr:street:sym_ul": 24806,
                "phone": "+48 627698101",
                "email": "zs.brzeziny@poczta.onet.pl",
                "website": "http:\/\/www.zsbrzeziny.szkolnastrona.pl",
                "ref:regon": "251589509",
                "ref:vatin": "PL9680995770",
                "operator": "Gmina Brzeziny",
                "operator:type": "government",
                "amenity": "school"
            }
        },
        {
            "id": 133970,
            "type": "Feature",
            "geometry": {
                "type": "Point",
                "coordinates": [
                    18.25413,
                    51.59587
                ]
            },
            "properties": {
                "ref:rspo": 133970,
                "official_name": "Niepubliczne Przedszkole Bajlandia",
                "name": "Niepubliczne Przedszkole Bajlandia",
                "addr:postcode": "62-874",
                "addr:city": "Brzeziny",
                "addr:street": "Ksi\u0119dza J\u00f3zefa Kurzawy",
                "addr:housenumber": "5",
                "addr:city:simc": 194850,
                "addr:street:sym_ul": 34987,
                "phone": "+48 609126024",
                "email": "bajlandia2016@wp.pl",
                "ref:regon": "367758095",
                "ref:vatin": "PL9680980490",
                "operator": "Fundacja Bajlandia",
                "operator:type": "ngo",
                "amenity": "kindergarten"
            }
        },
        {
            "id": 267297,
            "type": "Feature",
            "geometry": {
                "type": "Point",
                "coordinates": [
                    18.26559,
                    51.59916
                ]
            },
            "properties": {
                "ref:rspo": 267297,
                "official_name": "Przedszkole w Brzezinach",
                "name": "Przedszkole w Brzezinach",
                "addr:postcode": "62-874",
                "addr:city": "Brzeziny",
                "addr:street": "Gimnazjalna",
                "addr:housenumber": "1",
                "addr:city:simc": 194850,
                "addr:street:sym_ul": 5527,
                "phone": "+48 627698660",
                "email": "przedszkole_brzeziny@wp.pl",
                "website": "http:\/\/przedszkolebrzeziny.szkolnastrona.pl",
                "ref:regon": "380072143",
                "ref:vatin": "PL9680991252",
                "operator": "Gmina Brzeziny",
                "operator:type": "government",
                "amenity": "kindergarten"
            }
        },
        {
            "id": 18429,
            "type": "Feature",
            "geometry": {
                "type": "Point",
                "coordinates": [
                    18.2131299,
                    51.616571
                ]
            },
            "properties": {
                "isced:level": "1;2",
                "ref:rspo": 18429,
                "official_name": "Szko\u0142a Podstawowa w Aleksandrii",
                "name": "Szko\u0142a Podstawowa w Aleksandrii",
                "addr:postcode": "62-874",
                "addr:place": "Aleksandria",
                "addr:housenumber": "122",
                "addr:city:simc": 194843,
                "phone": "+48 627698028",
                "email": "spaleksandria@gmail.com",
                "website": "http:\/\/aleksandriaszkola.szkolnastrona.pl",
                "ref:regon": "001165677",
                "ref:vatin": "PL9680790619",
                "operator": "Gmina Brzeziny",
                "operator:type": "government",
                "amenity": "school"
            }
        },
        {
            "id": 18432,
            "type": "Feature",
            "geometry": {
                "type": "Point",
                "coordinates": [
                    18.3532659,
                    51.6193139
                ]
            },
            "properties": {
                "isced:level": "1;2",
                "ref:rspo": 18432,
                "official_name": "Szko\u0142a Podstawowa w Sobies\u0119kach",
                "name": "Szko\u0142a Podstawowa w Sobies\u0119kach",
                "addr:postcode": "62-874",
                "addr:place": "Sobies\u0119ki",
                "addr:housenumber": "11",
                "addr:city:simc": 195133,
                "phone": "+48 627697609",
                "email": "szkol_sobieseki@op.pl",
                "website": "http:\/\/www.spsobieseki.edupage.org",
                "ref:regon": "000648221",
                "ref:vatin": "PL9680790074",
                "operator": "Gmina Brzeziny",
                "operator:type": "government",
                "amenity": "school"
            }
        }
    ]
}