{
    "type": "FeatureCollection",
    "features": [
        {
            "id": 278935,
            "type": "Feature",
            "geometry": {
                "type": "Point",
                "coordinates": [
                    22.30001,
                    52.14191
                ]
            },
            "properties": {
                "ref:rspo": 278935,
                "official_name": "Centrum Kszta\u0142cenia Ustawicznego Stadler",
                "name": "Centrum Kszta\u0142cenia Ustawicznego Stadler",
                "addr:country": "PL",
                "addr:postcode": "08-110",
                "addr:city": "Siedlce",
                "addr:street": "ul. Targowa",
                "addr:housenumber": "50",
                "addr:teryt:simc": 22659,
                "addr:teryt:sym_ul": 975173,
                "contact:phone": "+48 257464500",
                "ref:regon": "520232446",
                "operator": "Stadler Polska Sp\u00f3\u0142ka Z Ograniczon\u0105 Odpowiedzialno\u015bci\u0105",
                "operator:type": "private",
                "fixme": "w zale\u017cno\u015bci od przedmiotu dzia\u0142alno\u015bci (np. amenity=training + training=*, amenity=dancing_school, amenity=language_school, amenity=music_school)"
            }
        },
        {
            "id": 70455,
            "type": "Feature",
            "geometry": {
                "type": "Point",
                "coordinates": [
                    22.27685,
                    52.15195
                ]
            },
            "properties": {
                "ref:rspo": 70455,
                "official_name": "Niepubliczne Przedszkole \"Weso\u0142e Skrzaty\"",
                "name": "Niepubliczne Przedszkole \"Weso\u0142e Skrzaty\"",
                "addr:country": "PL",
                "addr:postcode": "08-110",
                "addr:city": "Siedlce",
                "addr:street": "ul. Po\u0142udniowa",
                "addr:housenumber": "90",
                "addr:teryt:simc": 17070,
                "addr:teryt:sym_ul": 975173,
                "contact:phone": "+48 532442053",
                "contact:email": "bocian000@o2.pl",
                "ref:regon": "146396683",
                "operator": "Dane Do Uzupe\u0142nienia",
                "operator:type": "private",
                "amenity": "kindergarten"
            }
        },
        {
            "id": 70463,
            "type": "Feature",
            "geometry": {
                "type": "Point",
                "coordinates": [
                    22.27476,
                    52.15375
                ]
            },
            "properties": {
                "ref:rspo": 70463,
                "official_name": "\"Zameczek\" Niepubliczne Przedszkole Aktywno\u015bci Tw\u00f3rczej Montessori w Siedlcach",
                "name": "\"Zameczek\" Niepubliczne Przedszkole Aktywno\u015bci Tw\u00f3rczej Montessori w Siedlcach",
                "addr:country": "PL",
                "addr:postcode": "08-110",
                "addr:city": "Siedlce",
                "addr:street": "ul. Grabianowska",
                "addr:housenumber": "50",
                "addr:teryt:simc": 6009,
                "addr:teryt:sym_ul": 975173,
                "contact:phone": "+48 600247476",
                "contact:email": "zameczek50@wp.pl",
                "contact:website": "http:\/\/www.przedszkolezameczek.pl",
                "ref:regon": "146399411",
                "operator": "Maria Dr\u00f3\u017cd\u017c",
                "operator:type": "private",
                "amenity": "kindergarten"
            }
        },
        {
            "id": 70464,
            "type": "Feature",
            "geometry": {
                "type": "Point",
                "coordinates": [
                    22.2799,
                    52.15397
                ]
            },
            "properties": {
                "ref:rspo": 70464,
                "official_name": "Niepubliczne Przedszkole \"\u017b\u00f3\u0142ty Latawiec\"",
                "name": "Niepubliczne Przedszkole \"\u017b\u00f3\u0142ty Latawiec\"",
                "addr:country": "PL",
                "addr:postcode": "08-110",
                "addr:city": "Siedlce",
                "addr:street": "ul. Janusza Korczaka",
                "addr:housenumber": "11",
                "addr:teryt:simc": 9329,
                "addr:teryt:sym_ul": 975173,
                "contact:phone": "+48 662170590",
                "contact:email": "przedszkole@zoltylatawiec.pl",
                "contact:website": "http:\/\/www.zoltylatawiec.pl",
                "ref:regon": "146399463",
                "operator": "Barbara Sienkiewicz",
                "operator:type": "private",
                "amenity": "kindergarten"
            }
        },
        {
            "id": 70459,
            "type": "Feature",
            "geometry": {
                "type": "Point",
                "coordinates": [
                    22.27751,
                    52.15508
                ]
            },
            "properties": {
                "ref:rspo": 70459,
                "official_name": "Przedszkole Niepubliczne \"Bajkowa Kraina\"",
                "name": "Przedszkole Niepubliczne \"Bajkowa Kraina\"",
                "addr:country": "PL",
                "addr:postcode": "08-110",
                "addr:city": "Siedlce",
                "addr:street": "ul. Bajkowa",
                "addr:housenumber": "12",
                "addr:teryt:simc": 608,
                "addr:teryt:sym_ul": 975173,
                "contact:phone": "+48 604204400",
                "contact:email": "d.dziewulska@wp.pl",
                "contact:website": "http:\/\/www.bajkowakraina-siedlce.pl",
                "ref:regon": "146398995",
                "operator": "Dorota Dziewulska",
                "operator:type": "private",
                "amenity": "kindergarten"
            }
        },
        {
            "id": 70442,
            "type": "Feature",
            "geometry": {
                "type": "Point",
                "coordinates": [
                    22.24337,
                    52.15533
                ]
            },
            "properties": {
                "isced:level": "1;2",
                "ref:rspo": 70442,
                "official_name": "Szko\u0142a Podstawowa Nr 12 im. Kornela Makuszy\u0144skiego w Siedlcach",
                "name": "Szko\u0142a Podstawowa Nr 12",
                "addr:country": "PL",
                "addr:postcode": "08-110",
                "addr:city": "Siedlce",
                "addr:street": "ul. Unit\u00f3w Podlaskich",
                "addr:housenumber": "16",
                "addr:teryt:simc": 23371,
                "addr:teryt:sym_ul": 975173,
                "contact:phone": "+48 257943551",
                "contact:email": "sp12sekretariat@poczta.onet.pl",
                "contact:website": "http:\/\/www.sp12.siedlce.pl",
                "ref:regon": "710244400",
                "ref:vatin": "PL8211020995",
                "operator": "Miasto Siedlce",
                "operator:type": "government",
                "amenity": "school"
            }
        },
        {
            "id": 64297,
            "type": "Feature",
            "geometry": {
                "type": "Point",
                "coordinates": [
                    22.28025,
                    52.15534
                ]
            },
            "properties": {
                "ref:rspo": 64297,
                "official_name": "Miejskie Przedszkole Nr 21 Z Oddzia\u0142ami Integracyjnymi w Siedlcach",
                "name": "Miejskie Przedszkole Nr 21 Z Oddzia\u0142ami Integracyjnymi w Siedlcach",
                "addr:country": "PL",
                "addr:postcode": "08-110",
                "addr:city": "Siedlce",
                "addr:street": "ul. \u017bwirowa",
                "addr:housenumber": "20",
                "addr:teryt:simc": 26611,
                "addr:teryt:sym_ul": 975173,
                "contact:phone": "+48 257943421",
                "contact:email": "mp21@mp21.siedlce.pl",
                "contact:website": "http:\/\/www.przedszkole21siedlce.pl",
                "ref:regon": "142607479",
                "ref:vatin": "PL8212610167",
                "operator": "Miasto Siedlce",
                "operator:type": "government",
                "amenity": "kindergarten"
            }
        },
        {
            "id": 129664,
            "type": "Feature",
            "geometry": {
                "type": "Point",
                "coordinates": [
                    22.25454,
                    52.1558
                ]
            },
            "properties": {
                "ref:rspo": 129664,
                "official_name": "Przedszkole Niepubliczne - Ochronka Zgromadzenia Si\u00f3str S\u0142u\u017cebniczek Nmp",
                "name": "Przedszkole Niepubliczne - Ochronka Zgromadzenia Si\u00f3str S\u0142u\u017cebniczek Nmp",
                "addr:country": "PL",
                "addr:postcode": "08-110",
                "addr:city": "Siedlce",
                "addr:street": "ul. Strzelecka",
                "addr:housenumber": "10",
                "addr:teryt:simc": 21381,
                "addr:teryt:sym_ul": 975173,
                "contact:phone": "+48 533086668",
                "contact:email": "ochronka.siedlce@gmail.com",
                "contact:website": "http:\/\/ochronkasiedlce.pl",
                "ref:regon": "362728238",
                "operator": "Zgromadzenie Si\u00f3str S\u0142u\u017cebniczek Naj\u015bwi\u0119tszej Maryi Panny Niepokalanie Pocz\u0119tej-\u015al\u0105skie",
                "operator:type": "religious",
                "amenity": "kindergarten"
            }
        },
        {
            "id": 92730,
            "type": "Feature",
            "geometry": {
                "type": "Point",
                "coordinates": [
                    22.25381,
                    52.15784
                ]
            },
            "properties": {
                "ref:rspo": 92730,
                "official_name": "Instytut S\u0142u\u017cby Spo\u0142ecznej im. Hansa Christiana Kofoeda w Siedlcach",
                "name": "Instytut S\u0142u\u017cby Spo\u0142ecznej",
                "addr:country": "PL",
                "addr:postcode": "08-110",
                "addr:city": "Siedlce",
                "addr:street": "ul. Podmiejska",
                "addr:housenumber": "3",
                "addr:teryt:simc": 16816,
                "addr:teryt:sym_ul": 975173,
                "contact:phone": "+48 256324190",
                "contact:email": "kofoed@wp.pl",
                "contact:website": "http:\/\/www.kofoed.cpg.pl",
                "ref:regon": "146462925",
                "operator": "Stowarzyszenie Pomocy Spo\u0142ecznej, Rehabilitacji I Resocjalizacji Im. Hansa Christiana Kofoeda W Siedlcach",
                "operator:type": "ngo",
                "fixme": "w zale\u017cno\u015bci od przedmiotu dzia\u0142alno\u015bci (np. amenity=training + training=*, amenity=dancing_school, amenity=language_school, amenity=music_school)"
            }
        },
        {
            "id": 64852,
            "type": "Feature",
            "geometry": {
                "type": "Point",
                "coordinates": [
                    22.2929299,
                    52.15824
                ]
            },
            "properties": {
                "ref:rspo": 64852,
                "official_name": "Zesp\u00f3\u0142 Szk\u00f3\u0142 Ponadgimnazjalnych Nr 5 im. Gen. W\u0142adys\u0142awa Sikorskiego w Siedlcach",
                "name": "Zesp\u00f3\u0142 Szk\u00f3\u0142 Ponadgimnazjalnych Nr 5",
                "addr:country": "PL",
                "addr:postcode": "08-110",
                "addr:city": "Siedlce",
                "addr:street": "ul. Brzeska",
                "addr:housenumber": "95",
                "addr:teryt:simc": 2230,
                "addr:teryt:sym_ul": 975173,
                "contact:phone": "+48 257943600",
                "contact:email": "zsp5@adres.pl",
                "contact:website": "http:\/\/www.zsp5.edu.pl",
                "ref:regon": "001031942",
                "ref:vatin": "PL8211959123",
                "operator": "Miasto Siedlce",
                "operator:type": "government",
                "landuse": "education",
                "fixme": "amenity=school, amenity=college albo landuse=education w zale\u017cno\u015bci od tego, jakie plac\u00f3wki wchodz\u0105 w sk\u0142ad zespo\u0142u. Sprawd\u017a, kiedy stosowa\u0107 amenity=* a kiedy landuse=education.",
                "note": "Children RSPO: 105493;110015;277303"
            }
        },
        {
            "id": 105493,
            "type": "Feature",
            "geometry": {
                "type": "Point",
                "coordinates": [
                    22.2929299,
                    52.15821
                ]
            },
            "properties": {
                "isced:level": "3",
                "ref:rspo": 105493,
                "official_name": "Bran\u017cowa Szko\u0142a I Stopnia Nr 5 w Zespole Szk\u00f3\u0142 Ponadgimnazjalnych Nr 5 im. Gen. W\u0142adys\u0142awa Sikorskiego w Siedlcach",
                "name": "Bran\u017cowa Szko\u0142a I Stopnia Nr 5 w Zespole Szk\u00f3\u0142 Ponadgimnazjalnych Nr 5",
                "addr:country": "PL",
                "addr:postcode": "08-110",
                "addr:city": "Siedlce",
                "addr:street": "ul. Brzeska",
                "addr:housenumber": "95",
                "addr:teryt:simc": 2230,
                "addr:teryt:sym_ul": 975173,
                "contact:phone": "+48 257943600",
                "contact:email": "zsp5@adres.pl",
                "contact:website": "http:\/\/www.zsp5.edu.pl",
                "ref:regon": "712487867",
                "operator": "Miasto Siedlce",
                "operator:type": "government",
                "amenity": "school",
                "note": "Parent RSPO: 64852"
            }
        },
        {
            "id": 110015,
            "type": "Feature",
            "geometry": {
                "type": "Point",
                "coordinates": [
                    22.2929299,
                    52.15818
                ]
            },
            "properties": {
                "isced:level": "3",
                "ref:rspo": 110015,
                "official_name": "Technikum Nr 5 w Siedlcach",
                "name": "Technikum Nr 5 w Siedlcach",
                "addr:country": "PL",
                "addr:postcode": "08-110",
                "addr:city": "Siedlce",
                "addr:street": "ul. Brzeska",
                "addr:housenumber": "95",
                "addr:teryt:simc": 2230,
                "addr:teryt:sym_ul": 975173,
                "contact:phone": "+48 257943600",
                "contact:email": "zsp5@adres.pl",
                "contact:website": "http:\/\/www.zsp5.edu.pl",
                "ref:regon": "712487838",
                "operator": "Miasto Siedlce",
                "operator:type": "government",
                "amenity": "school",
                "note": "Parent RSPO: 64852"
            }
        },
        {
            "id": 277303,
            "type": "Feature",
            "geometry": {
                "type": "Point",
                "coordinates": [
                    22.2929299,
                    52.15815
                ]
            },
            "properties": {
                "isced:level": "3",
                "ref:rspo": 277303,
                "official_name": "Bran\u017cowa Szko\u0142a II Stopnia Nr 5 w Siedlcach",
                "name": "Bran\u017cowa Szko\u0142a II Stopnia Nr 5 w Siedlcach",
                "addr:country": "PL",
                "addr:postcode": "08-110",
                "addr:city": "Siedlce",
                "addr:street": "ul. Brzeska",
                "addr:housenumber": "95",
                "addr:teryt:simc": 2230,
                "addr:teryt:sym_ul": 975173,
                "contact:phone": "+48 257943600",
                "contact:email": "zsp5@adres.pl",
                "contact:website": "http:\/\/zsp5.edu.pl\/",
                "ref:regon": "388558075",
                "operator": "Miasto Siedlce",
                "operator:type": "government",
                "amenity": "school",
                "note": "Parent RSPO: 64852"
            }
        },
        {
            "id": 70449,
            "type": "Feature",
            "geometry": {
                "type": "Point",
                "coordinates": [
                    22.24663,
                    52.1591
                ]
            },
            "properties": {
                "ref:rspo": 70449,
                "official_name": "Niepubliczne Przedszkole \"Stokrotka\"",
                "name": "Niepubliczne Przedszkole \"Stokrotka\"",
                "addr:country": "PL",
                "addr:postcode": "08-110",
                "addr:city": "Siedlce",
                "addr:street": "ul. Pomorska",
                "addr:housenumber": "7",
                "addr:teryt:simc": 17088,
                "addr:teryt:sym_ul": 975173,
                "contact:phone": "+48 256329919",
                "contact:email": "np_stokrotka@interia.pl",
                "contact:website": "http:\/\/www.npstokrotka.pl",
                "ref:regon": "146396625",
                "operator": "Jolanta Olszewska",
                "operator:type": "private",
                "amenity": "kindergarten"
            }
        },
        {
            "id": 14310,
            "type": "Feature",
            "geometry": {
                "type": "Point",
                "coordinates": [
                    22.25349,
                    52.15911
                ]
            },
            "properties": {
                "ref:rspo": 14310,
                "official_name": "Zesp\u00f3\u0142 Szk\u00f3\u0142 Muzycznych w Siedlcach",
                "name": "Zesp\u00f3\u0142 Szk\u00f3\u0142 Muzycznych w Siedlcach",
                "addr:country": "PL",
                "addr:postcode": "08-101",
                "addr:city": "Siedlce",
                "addr:street": "ul. Podlaska",
                "addr:housenumber": "14",
                "addr:teryt:simc": 16793,
                "addr:teryt:sym_ul": 975173,
                "contact:phone": "+48 256436830",
                "contact:email": "zsmsiedlce@wp.pl",
                "contact:website": "http:\/\/zsmsiedlce.pl",
                "ref:regon": "000285735",
                "operator": "Ministerstwo Kultury I Dziedzictwa Narodowego",
                "operator:type": "public",
                "landuse": "education",
                "fixme": "amenity=school, amenity=college albo landuse=education w zale\u017cno\u015bci od tego, jakie plac\u00f3wki wchodz\u0105 w sk\u0142ad zespo\u0142u. Sprawd\u017a, kiedy stosowa\u0107 amenity=* a kiedy landuse=education.",
                "note": "Children RSPO: 103576;103577"
            }
        },
        {
            "id": 103576,
            "type": "Feature",
            "geometry": {
                "type": "Point",
                "coordinates": [
                    22.25349,
                    52.159079999999996
                ]
            },
            "properties": {
                "ref:rspo": 103576,
                "official_name": "Pa\u0144stwowa Szko\u0142a Muzyczna I St. w Siedlcach",
                "name": "Pa\u0144stwowa Szko\u0142a Muzyczna I St. w Siedlcach",
                "addr:country": "PL",
                "addr:postcode": "08-101",
                "addr:city": "Siedlce",
                "addr:street": "ul. Podlaska",
                "addr:housenumber": "14",
                "addr:teryt:simc": 16793,
                "addr:teryt:sym_ul": 975173,
                "contact:phone": "+48 256436830",
                "ref:regon": "712550726",
                "operator": "Ministerstwo Kultury I Dziedzictwa Narodowego",
                "operator:type": "public",
                "amenity": "music_school",
                "note": "Parent RSPO: 14310"
            }
        },
        {
            "id": 103577,
            "type": "Feature",
            "geometry": {
                "type": "Point",
                "coordinates": [
                    22.25349,
                    52.15905
                ]
            },
            "properties": {
                "ref:rspo": 103577,
                "official_name": "Pa\u0144stwowa Szko\u0142a Muzyczna II St. w Siedlcach",
                "name": "Pa\u0144stwowa Szko\u0142a Muzyczna II St. w Siedlcach",
                "addr:country": "PL",
                "addr:postcode": "08-101",
                "addr:city": "Siedlce",
                "addr:street": "ul. Podlaska",
                "addr:housenumber": "14",
                "addr:teryt:simc": 16793,
                "addr:teryt:sym_ul": 975173,
                "contact:phone": "+48 256436830",
                "ref:regon": "712550732",
                "operator": "Ministerstwo Kultury I Dziedzictwa Narodowego",
                "operator:type": "public",
                "amenity": "music_school",
                "note": "Parent RSPO: 14310"
            }
        },
        {
            "id": 73850,
            "type": "Feature",
            "geometry": {
                "type": "Point",
                "coordinates": [
                    22.32134,
                    52.15981
                ]
            },
            "properties": {
                "ref:rspo": 73850,
                "official_name": "Akademia M\u0142odego Cz\u0142owieka Przedszkole Niepubliczne",
                "name": "Akademia M\u0142odego Cz\u0142owieka Przedszkole Niepubliczne",
                "addr:country": "PL",
                "addr:postcode": "08-110",
                "addr:city": "Siedlce",
                "addr:street": "ul. Starowiejska",
                "addr:housenumber": "303",
                "addr:teryt:simc": 20998,
                "addr:teryt:sym_ul": 975173,
                "contact:phone": "+48 517866010",
                "contact:email": "przedszkole@akademiamc.pl",
                "contact:website": "http:\/\/www.akademiamc.pl",
                "ref:regon": "146403153",
                "operator": "Agnieszka Pogonowska - Macha\u0142a",
                "operator:type": "private",
                "amenity": "kindergarten"
            }
        },
        {
            "id": 263096,
            "type": "Feature",
            "geometry": {
                "type": "Point",
                "coordinates": [
                    22.24471,
                    52.1601
                ]
            },
            "properties": {
                "isced:level": "1;2",
                "ref:rspo": 263096,
                "official_name": "Szko\u0142a Podstawowa Nr 8 im. Stefana Kardyna\u0142a Wyszy\u0144skiego w Siedlcach",
                "name": "Szko\u0142a Podstawowa Nr 8",
                "addr:country": "PL",
                "addr:postcode": "08-110",
                "addr:city": "Siedlce",
                "addr:street": "ul. Pescantina",
                "addr:housenumber": "2",
                "addr:teryt:simc": 36977,
                "addr:teryt:sym_ul": 975173,
                "contact:phone": "+48 257943441",
                "contact:email": "sekretariat@sp8.siedlce.pl",
                "contact:website": "http:\/\/www.sp8.siedlce.pl",
                "ref:regon": "368103350",
                "ref:vatin": "PL8212653768",
                "operator": "Miasto Siedlce",
                "operator:type": "government",
                "amenity": "school"
            }
        },
        {
            "id": 70456,
            "type": "Feature",
            "geometry": {
                "type": "Point",
                "coordinates": [
                    22.25726,
                    52.16011
                ]
            },
            "properties": {
                "ref:rspo": 70456,
                "official_name": "Prywatne Przedszkole Muzyczne \"Nutka\"",
                "name": "Prywatne Przedszkole Muzyczne \"Nutka\"",
                "addr:country": "PL",
                "addr:postcode": "08-110",
                "addr:city": "Siedlce",
                "addr:street": "ul. Zygmunta Vogla",
                "addr:housenumber": "41",
                "addr:teryt:simc": 23466,
                "addr:teryt:sym_ul": 975173,
                "contact:phone": "+48 257850077",
                "contact:email": "nutka@tsfeniks.com",
                "contact:website": "http:\/\/www.przedszkolenutka-siedlce.home.pl\/",
                "ref:regon": "146398239",
                "operator": "T.s. Feniks Sp\u00f3\u0142ka Z Ograniczon\u0105 Odpowiedzialno\u015bci\u0105",
                "operator:type": "private",
                "amenity": "kindergarten"
            }
        },
        {
            "id": 128678,
            "type": "Feature",
            "geometry": {
                "type": "Point",
                "coordinates": [
                    22.28972,
                    52.16046
                ]
            },
            "properties": {
                "isced:level": "1;2",
                "ref:rspo": 128678,
                "official_name": "Niepubliczna Szko\u0142a Podstawowa Aleksander w Siedlcach",
                "name": "Niepubliczna Szko\u0142a Podstawowa Aleksander w Siedlcach",
                "addr:country": "PL",
                "addr:postcode": "08-110",
                "addr:city": "Siedlce",
                "addr:street": "ul. Brzeska",
                "addr:housenumber": "65",
                "addr:teryt:simc": 2230,
                "addr:teryt:sym_ul": 975173,
                "contact:phone": "+48 692296444",
                "contact:email": "sekretariat@szkolaaleksander.pl",
                "contact:website": "http:\/\/www.szkolaaleksander.pl",
                "ref:regon": "362380781",
                "operator": "Agnieszka Teodorczuk",
                "operator:type": "private",
                "amenity": "school"
            }
        },
        {
            "id": 266386,
            "type": "Feature",
            "geometry": {
                "type": "Point",
                "coordinates": [
                    22.28972,
                    52.16043
                ]
            },
            "properties": {
                "ref:rspo": 266386,
                "official_name": "Niepubliczne Przedszkole Aleksandra w Siedlcach",
                "name": "Niepubliczne Przedszkole Aleksandra w Siedlcach",
                "addr:country": "PL",
                "addr:postcode": "08-110",
                "addr:city": "Siedlce",
                "addr:street": "ul. Brzeska",
                "addr:housenumber": "65",
                "addr:teryt:simc": 2230,
                "addr:teryt:sym_ul": 975173,
                "contact:phone": "+48 784436284",
                "contact:email": "teodorczuk.agnieszka@wp.pl",
                "contact:website": "http:\/\/www.przedszkolealeksandra.pl",
                "ref:regon": "369465210",
                "operator": "Agnieszka Teodorczuk",
                "operator:type": "private",
                "amenity": "kindergarten"
            }
        },
        {
            "id": 64289,
            "type": "Feature",
            "geometry": {
                "type": "Point",
                "coordinates": [
                    22.26666,
                    52.16054
                ]
            },
            "properties": {
                "ref:rspo": 64289,
                "official_name": "Miejskie Przedszkole Nr 9 w Siedlcach",
                "name": "Miejskie Przedszkole Nr 9 w Siedlcach",
                "addr:country": "PL",
                "addr:postcode": "08-110",
                "addr:city": "Siedlce",
                "addr:street": "ul. Genera\u0142a Gustawa Orlicz-Dreszera",
                "addr:housenumber": "7",
                "addr:teryt:simc": 51825,
                "addr:teryt:sym_ul": 975173,
                "contact:phone": "+48 257943526",
                "contact:email": "dyrektor@mp9.siedlce.pl",
                "contact:website": "http:\/\/www.mp9.siedlce.pl",
                "ref:regon": "142595530",
                "ref:vatin": "PL8212609336",
                "operator": "Miasto Siedlce",
                "operator:type": "government",
                "amenity": "kindergarten"
            }
        },
        {
            "id": 64301,
            "type": "Feature",
            "geometry": {
                "type": "Point",
                "coordinates": [
                    22.24593,
                    52.16071
                ]
            },
            "properties": {
                "ref:rspo": 64301,
                "official_name": "Miejskie Przedszkole Nr 27 Z Oddzia\u0142ami Integracyjnymi w Siedlcach",
                "name": "Miejskie Przedszkole Nr 27 Z Oddzia\u0142ami Integracyjnymi w Siedlcach",
                "addr:country": "PL",
                "addr:postcode": "08-110",
                "addr:city": "Siedlce",
                "addr:street": "ul. Karpacka",
                "addr:housenumber": "2",
                "addr:teryt:simc": 8096,
                "addr:teryt:sym_ul": 975173,
                "contact:phone": "+48 257943376",
                "contact:email": "przedszkole27@op.pl",
                "ref:regon": "142600170",
                "ref:vatin": "PL8212610121",
                "operator": "Miasto Siedlce",
                "operator:type": "government",
                "amenity": "kindergarten"
            }
        },
        {
            "id": 64012,
            "type": "Feature",
            "geometry": {
                "type": "Point",
                "coordinates": [
                    22.25522,
                    52.16076
                ]
            },
            "properties": {
                "ref:rspo": 64012,
                "official_name": "Miejskie Przedszkole Nr 22 w Siedlcach",
                "name": "Miejskie Przedszkole Nr 22 w Siedlcach",
                "addr:country": "PL",
                "addr:postcode": "08-110",
                "addr:city": "Siedlce",
                "addr:street": "ul. Podlaska",
                "addr:housenumber": "8",
                "addr:teryt:simc": 16793,
                "addr:teryt:sym_ul": 975173,
                "contact:phone": "+48 257943322",
                "contact:email": "przedszkole22@o2.pl",
                "contact:website": "http:\/\/www.mp22.siedlce.pl",
                "ref:regon": "142591382",
                "ref:vatin": "PL8212609891",
                "operator": "Miasto Siedlce",
                "operator:type": "government",
                "amenity": "kindergarten"
            }
        },
        {
            "id": 263094,
            "type": "Feature",
            "geometry": {
                "type": "Point",
                "coordinates": [
                    22.28145,
                    52.16113
                ]
            },
            "properties": {
                "isced:level": "1;2",
                "ref:rspo": 263094,
                "official_name": "Szko\u0142a Podstawowa Nr 3 Z Oddzia\u0142ami Integracyjnymi im. Tadeusza Ko\u015bciuszki w Siedlcach",
                "name": "Szko\u0142a Podstawowa Nr 3 Z Oddzia\u0142ami Integracyjnymi",
                "addr:country": "PL",
                "addr:postcode": "08-110",
                "addr:city": "Siedlce",
                "addr:street": "ul. Sekulska",
                "addr:housenumber": "10",
                "addr:teryt:simc": 19652,
                "addr:teryt:sym_ul": 975173,
                "contact:phone": "+48 257943431",
                "contact:email": "sekretariat@sp3.siedlce.pl",
                "contact:website": "http:\/\/www.sp3.siedlce.pl",
                "ref:regon": "368103338",
                "ref:vatin": "PL8212653780",
                "operator": "Miasto Siedlce",
                "operator:type": "government",
                "amenity": "school"
            }
        },
        {
            "id": 64284,
            "type": "Feature",
            "geometry": {
                "type": "Point",
                "coordinates": [
                    22.28008,
                    52.16124
                ]
            },
            "properties": {
                "ref:rspo": 64284,
                "official_name": "Miejskie Przedszkole Nr 4 w Siedlcach",
                "name": "Miejskie Przedszkole Nr 4 w Siedlcach",
                "addr:country": "PL",
                "addr:postcode": "08-110",
                "addr:city": "Siedlce",
                "addr:street": "ul. Ksi\u0119dza Piotra \u015aciegiennego",
                "addr:housenumber": "19",
                "addr:teryt:simc": 39077,
                "addr:teryt:sym_ul": 975173,
                "contact:phone": "+48 257943566",
                "contact:email": "mp4@poczta.onet.pl",
                "contact:website": "http:\/\/www.mp4siedlce.pl",
                "ref:regon": "142613190",
                "ref:vatin": "PL8212609885",
                "operator": "Miasto Siedlce",
                "operator:type": "government",
                "amenity": "kindergarten"
            }
        },
        {
            "id": 92370,
            "type": "Feature",
            "geometry": {
                "type": "Point",
                "coordinates": [
                    22.26686,
                    52.16202
                ]
            },
            "properties": {
                "isced:level": "1;2",
                "ref:rspo": 92370,
                "official_name": "Szko\u0142a Podstawowa Nr 5 im. W\u0142adys\u0142awa Rawicza w Siedlcach",
                "name": "Szko\u0142a Podstawowa Nr 5",
                "addr:country": "PL",
                "addr:postcode": "08-110",
                "addr:city": "Siedlce",
                "addr:street": "ul. Genera\u0142a Gustawa Orlicz-Dreszera",
                "addr:housenumber": "3",
                "addr:teryt:simc": 51825,
                "addr:teryt:sym_ul": 975173,
                "contact:phone": "+48 257943401",
                "contact:email": "sekretariat@sp5.siedlce.pl",
                "contact:website": "http:\/\/www.sp5siedlce.pl",
                "ref:regon": "000717927",
                "ref:vatin": "PL8212492905",
                "operator": "Miasto Siedlce",
                "operator:type": "government",
                "amenity": "school"
            }
        },
        {
            "id": 70462,
            "type": "Feature",
            "geometry": {
                "type": "Point",
                "coordinates": [
                    22.31242,
                    52.16204
                ]
            },
            "properties": {
                "ref:rspo": 70462,
                "official_name": "Przedszkole Niepubliczne \"Weso\u0142y Smyk\"",
                "name": "Przedszkole Niepubliczne \"Weso\u0142y Smyk\"",
                "addr:country": "PL",
                "addr:postcode": "08-110",
                "addr:city": "Siedlce",
                "addr:street": "ul. Starowiejska",
                "addr:housenumber": "223",
                "addr:teryt:simc": 20998,
                "addr:teryt:sym_ul": 975173,
                "contact:phone": "+48 793989889",
                "contact:email": "wesolysmyk@wp.pl",
                "contact:website": "http:\/\/www.wesolysmyk.pl",
                "ref:regon": "146399380",
                "operator": "Jolanta Bartoszewicz",
                "operator:type": "private",
                "amenity": "kindergarten"
            }
        },
        {
            "id": 263347,
            "type": "Feature",
            "geometry": {
                "type": "Point",
                "coordinates": [
                    22.26303,
                    52.16208
                ]
            },
            "properties": {
                "ref:rspo": 263347,
                "official_name": "Przedszkole Niepubliczne \"Widzi Mi Sie\"",
                "name": "Przedszkole Niepubliczne \"Widzi Mi Sie\"",
                "addr:country": "PL",
                "addr:postcode": "08-110",
                "addr:city": "Siedlce",
                "addr:street": "ul. Partyzant\u00f3w",
                "addr:housenumber": "14A",
                "addr:door": "72",
                "addr:teryt:simc": 15733,
                "addr:teryt:sym_ul": 975173,
                "contact:phone": "+48 692466690",
                "contact:email": "biuro@przedszkolewidzimisie.pl",
                "contact:website": "http:\/\/www.przedszkolewidzimisie.pl",
                "ref:regon": "368182450",
                "operator": "Anna Frank",
                "operator:type": "private",
                "amenity": "kindergarten"
            }
        },
        {
            "id": 64280,
            "type": "Feature",
            "geometry": {
                "type": "Point",
                "coordinates": [
                    22.28362,
                    52.16238
                ]
            },
            "properties": {
                "isced:level": "3",
                "ref:rspo": 64280,
                "official_name": "I Liceum Og\u00f3lnokszta\u0142c\u0105ce im. Boles\u0142awa Prusa",
                "name": "I Liceum Og\u00f3lnokszta\u0142c\u0105ce",
                "addr:country": "PL",
                "addr:postcode": "08-110",
                "addr:city": "Siedlce",
                "addr:street": "ul. Floria\u0144ska",
                "addr:housenumber": "10",
                "addr:teryt:simc": 5085,
                "addr:teryt:sym_ul": 975173,
                "contact:phone": "+48 257943450",
                "contact:email": "liceum@prus.siedlce.pl",
                "contact:website": "http:\/\/www.prus.siedlce.pl",
                "ref:regon": "000239089",
                "ref:vatin": "PL8211664422",
                "operator": "Miasto Siedlce",
                "operator:type": "government",
                "amenity": "school"
            }
        },
        {
            "id": 64759,
            "type": "Feature",
            "geometry": {
                "type": "Point",
                "coordinates": [
                    22.271879196167,
                    52.162509918213
                ]
            },
            "properties": {
                "ref:rspo": 64759,
                "official_name": "Zesp\u00f3\u0142 Szk\u00f3\u0142 Ponadgimnazjalnych Nr 4 im. Kazimierza Wielkiego w Siedlcach",
                "name": "Zesp\u00f3\u0142 Szk\u00f3\u0142 Ponadgimnazjalnych Nr 4",
                "addr:country": "PL",
                "addr:postcode": "08-110",
                "addr:city": "Siedlce",
                "addr:street": "ul. Genera\u0142a J\u00f3zefa Bema",
                "addr:housenumber": "4",
                "addr:teryt:simc": 37883,
                "addr:teryt:sym_ul": 975173,
                "contact:phone": "+48 257943640",
                "contact:email": "dyrektor@zspnr4.com.pl",
                "contact:website": "http:\/\/www.zspnr4.com.pl",
                "ref:regon": "000095940",
                "ref:vatin": "PL8211045133",
                "operator": "Miasto Siedlce",
                "operator:type": "government",
                "landuse": "education",
                "fixme": "amenity=school, amenity=college albo landuse=education w zale\u017cno\u015bci od tego, jakie plac\u00f3wki wchodz\u0105 w sk\u0142ad zespo\u0142u. Sprawd\u017a, kiedy stosowa\u0107 amenity=* a kiedy landuse=education.",
                "note": "Children RSPO: 105255;105275;105281;132125;276143"
            }
        },
        {
            "id": 128636,
            "type": "Feature",
            "geometry": {
                "type": "Point",
                "coordinates": [
                    22.271879196167,
                    52.162479918212995
                ]
            },
            "properties": {
                "ref:rspo": 128636,
                "official_name": "Niepubliczne Przedszkole Chatka Pikabu",
                "name": "Niepubliczne Przedszkole Chatka Pikabu",
                "addr:country": "PL",
                "addr:postcode": "08-110",
                "addr:city": "Siedlce",
                "addr:street": "ul. Genera\u0142a Stanis\u0142awa Maczka",
                "addr:housenumber": "39",
                "addr:teryt:simc": 39356,
                "addr:teryt:sym_ul": 975173,
                "contact:phone": "+48 530331600",
                "contact:email": "wojtkowskaanna@o2.pl",
                "contact:website": "http:\/\/www.chatkapikabu.pl",
                "ref:regon": "362336478",
                "operator": "Anna Wojtkowska",
                "operator:type": "private",
                "amenity": "kindergarten"
            }
        },
        {
            "id": 105255,
            "type": "Feature",
            "geometry": {
                "type": "Point",
                "coordinates": [
                    22.271879196167,
                    52.162449918213
                ]
            },
            "properties": {
                "isced:level": "3",
                "ref:rspo": 105255,
                "official_name": "Ix Liceum Og\u00f3lnokszta\u0142c\u0105ce w Siedlcach",
                "name": "Ix Liceum Og\u00f3lnokszta\u0142c\u0105ce w Siedlcach",
                "addr:country": "PL",
                "addr:postcode": "08-110",
                "addr:city": "Siedlce",
                "addr:street": "ul. Genera\u0142a J\u00f3zefa Bema",
                "addr:housenumber": "4",
                "addr:teryt:simc": 37883,
                "addr:teryt:sym_ul": 975173,
                "contact:phone": "+48 257943640",
                "contact:email": "dyrektor@zspnr4.com.pl",
                "contact:website": "http:\/\/www.zspnr4.com.pl",
                "ref:regon": "712485093",
                "operator": "Miasto Siedlce",
                "operator:type": "government",
                "amenity": "school",
                "note": "Parent RSPO: 64759"
            }
        },
        {
            "id": 105275,
            "type": "Feature",
            "geometry": {
                "type": "Point",
                "coordinates": [
                    22.271879196167,
                    52.162419918213
                ]
            },
            "properties": {
                "isced:level": "3",
                "ref:rspo": 105275,
                "official_name": "Technikum Nr 4 w Siedlcach",
                "name": "Technikum Nr 4 w Siedlcach",
                "addr:country": "PL",
                "addr:postcode": "08-110",
                "addr:city": "Siedlce",
                "addr:street": "ul. Genera\u0142a J\u00f3zefa Bema",
                "addr:housenumber": "4",
                "addr:teryt:simc": 37883,
                "addr:teryt:sym_ul": 975173,
                "contact:phone": "+48 257943640",
                "contact:email": "dyrektor@zspnr4.com.pl",
                "contact:website": "http:\/\/www.zspnr4.com.pl",
                "ref:regon": "712569476",
                "operator": "Miasto Siedlce",
                "operator:type": "government",
                "amenity": "school",
                "note": "Parent RSPO: 64759"
            }
        },
        {
            "id": 105281,
            "type": "Feature",
            "geometry": {
                "type": "Point",
                "coordinates": [
                    22.271879196167,
                    52.162389918212995
                ]
            },
            "properties": {
                "isced:level": "3",
                "ref:rspo": 105281,
                "official_name": "Bran\u017cowa Szko\u0142a I Stopnia Nr 4 w Zespole Szk\u00f3\u0142 Ponadgimnazjalnych Nr 4 im. Kazimierza Wielkiego w Siedlcach",
                "name": "Bran\u017cowa Szko\u0142a I Stopnia Nr 4 w Zespole Szk\u00f3\u0142 Ponadgimnazjalnych Nr 4",
                "addr:country": "PL",
                "addr:postcode": "08-110",
                "addr:city": "Siedlce",
                "addr:street": "ul. Genera\u0142a J\u00f3zefa Bema",
                "addr:housenumber": "4",
                "addr:teryt:simc": 37883,
                "addr:teryt:sym_ul": 975173,
                "contact:phone": "+48 257943640",
                "contact:email": "dyrektor@zspnr4.com.pl",
                "contact:website": "http:\/\/www.zspnr4.com.pl",
                "ref:regon": "712485029",
                "operator": "Miasto Siedlce",
                "operator:type": "government",
                "amenity": "school",
                "note": "Parent RSPO: 64759"
            }
        },
        {
            "id": 276143,
            "type": "Feature",
            "geometry": {
                "type": "Point",
                "coordinates": [
                    22.271879196167,
                    52.162359918213
                ]
            },
            "properties": {
                "isced:level": "3",
                "ref:rspo": 276143,
                "official_name": "Bran\u017cowa Szko\u0142a II Stopnia Nr 4",
                "name": "Bran\u017cowa Szko\u0142a II Stopnia Nr 4",
                "addr:country": "PL",
                "addr:postcode": "08-110",
                "addr:city": "Siedlce",
                "addr:street": "ul. Genera\u0142a J\u00f3zefa Bema",
                "addr:housenumber": "4",
                "addr:teryt:simc": 37883,
                "addr:teryt:sym_ul": 975173,
                "contact:phone": "+48 257943640",
                "contact:email": "dyrektor@zspnr4.com.pl",
                "contact:website": "http:\/\/www.zspnr4.com.pl",
                "ref:regon": "387000365",
                "operator": "Miasto Siedlce",
                "operator:type": "government",
                "amenity": "school",
                "note": "Parent RSPO: 64759"
            }
        },
        {
            "id": 64300,
            "type": "Feature",
            "geometry": {
                "type": "Point",
                "coordinates": [
                    22.25212,
                    52.16251
                ]
            },
            "properties": {
                "ref:rspo": 64300,
                "official_name": "Miejskie Przedszkole Nr 26 w Siedlcach",
                "name": "Miejskie Przedszkole Nr 26 w Siedlcach",
                "addr:country": "PL",
                "addr:postcode": "08-110",
                "addr:city": "Siedlce",
                "addr:street": "ul. Mazurska",
                "addr:housenumber": "6",
                "addr:teryt:simc": 12555,
                "addr:teryt:sym_ul": 975173,
                "contact:phone": "+48 257943167",
                "contact:email": "mp26siedlce@post.pl",
                "contact:website": "http:\/\/www.mp26.siedlce.pl",
                "ref:regon": "142596801",
                "ref:vatin": "PL8212609649",
                "operator": "Miasto Siedlce",
                "operator:type": "government",
                "amenity": "kindergarten"
            }
        },
        {
            "id": 106027,
            "type": "Feature",
            "geometry": {
                "type": "Point",
                "coordinates": [
                    22.28266,
                    52.16258
                ]
            },
            "properties": {
                "ref:rspo": 106027,
                "official_name": "Przedszkole Niepubliczne \"Kraina Fantazji\"",
                "name": "Przedszkole Niepubliczne \"Kraina Fantazji\"",
                "addr:country": "PL",
                "addr:postcode": "08-110",
                "addr:city": "Siedlce",
                "addr:street": "ul. Sekulska",
                "addr:housenumber": "5",
                "addr:teryt:simc": 19652,
                "addr:teryt:sym_ul": 975173,
                "contact:phone": "+48 50113470",
                "contact:email": "krainafantazji@gmail.com",
                "contact:website": "http:\/\/www.krainafantazji.com.pl",
                "ref:regon": "146470037",
                "operator": "Magdalena Miros",
                "operator:type": "private",
                "amenity": "kindergarten"
            }
        },
        {
            "id": 70447,
            "type": "Feature",
            "geometry": {
                "type": "Point",
                "coordinates": [
                    22.28898,
                    52.16294
                ]
            },
            "properties": {
                "ref:rspo": 70447,
                "official_name": "Niepubliczne Przedszkole im. Kubusia Puchatka w Siedlcach",
                "name": "Niepubliczne Przedszkole",
                "addr:country": "PL",
                "addr:postcode": "08-110",
                "addr:city": "Siedlce",
                "addr:street": "ul. Prymasa Stefana Wyszy\u0144skiego",
                "addr:housenumber": "21",
                "addr:teryt:simc": 25119,
                "addr:teryt:sym_ul": 975173,
                "contact:phone": "+48 256338182",
                "contact:email": "przedszkolepuchatek@tlen.pl",
                "contact:website": "http:\/\/www.przedszkole-puchatek.edu.pl",
                "ref:regon": "146396565",
                "operator": "El\u017cbieta Trojecka",
                "operator:type": "private",
                "amenity": "kindergarten"
            }
        },
        {
            "id": 273148,
            "type": "Feature",
            "geometry": {
                "type": "Point",
                "coordinates": [
                    22.26412,
                    52.16297
                ]
            },
            "properties": {
                "ref:rspo": 273148,
                "official_name": "Niepubliczne Przedszkole Mali Giganci",
                "name": "Niepubliczne Przedszkole Mali Giganci",
                "addr:country": "PL",
                "addr:postcode": "08-110",
                "addr:city": "Siedlce",
                "addr:street": "ul. J\u00f3zefa Che\u0142mo\u0144skiego",
                "addr:housenumber": "13",
                "addr:teryt:simc": 2706,
                "addr:teryt:sym_ul": 975173,
                "contact:phone": "+48 662867410",
                "contact:email": "maligigancisiedlce@gmail.com",
                "ref:regon": "384384253",
                "operator": "Katarzyna Krasuska",
                "operator:type": "private",
                "amenity": "kindergarten"
            }
        },
        {
            "id": 70439,
            "type": "Feature",
            "geometry": {
                "type": "Point",
                "coordinates": [
                    22.25326,
                    52.16352
                ]
            },
            "properties": {
                "isced:level": "1;2",
                "ref:rspo": 70439,
                "official_name": "Szko\u0142a Podstawowa Nr 10 im. Ksi\u0119\u017cnej Aleksandry Ogi\u0144skiej w Siedlcach",
                "name": "Szko\u0142a Podstawowa Nr 10",
                "addr:country": "PL",
                "addr:postcode": "08-110",
                "addr:city": "Siedlce",
                "addr:street": "ul. Mazurska",
                "addr:housenumber": "10",
                "addr:teryt:simc": 12555,
                "addr:teryt:sym_ul": 975173,
                "contact:phone": "+48 257943661",
                "contact:email": "sekretariat@sp10siedlce.edu.pl",
                "contact:website": "http:\/\/www.sp10siedlce.pl",
                "ref:regon": "001104374",
                "ref:vatin": "PL8211045972",
                "operator": "Miasto Siedlce",
                "operator:type": "government",
                "amenity": "school"
            }
        },
        {
            "id": 64292,
            "type": "Feature",
            "geometry": {
                "type": "Point",
                "coordinates": [
                    22.27997,
                    52.16467
                ]
            },
            "properties": {
                "ref:rspo": 64292,
                "official_name": "Miejskie Przedszkole Nr 13 im. Doroty Gellner w Siedlcach",
                "name": "Miejskie Przedszkole Nr 13",
                "addr:country": "PL",
                "addr:postcode": "08-110",
                "addr:city": "Siedlce",
                "addr:street": "ul. Jacka Woszczerowicza",
                "addr:housenumber": "9",
                "addr:teryt:simc": 24753,
                "addr:teryt:sym_ul": 975173,
                "contact:phone": "+48 257943615",
                "contact:email": "przedbasia13@poczta.fm",
                "contact:website": "http:\/\/www.mp13.siedlce.pl",
                "ref:regon": "142609580",
                "ref:vatin": "PL8212609945",
                "operator": "Miasto Siedlce",
                "operator:type": "government",
                "amenity": "kindergarten"
            }
        },
        {
            "id": 76284,
            "type": "Feature",
            "geometry": {
                "type": "Point",
                "coordinates": [
                    22.27023,
                    52.1648
                ]
            },
            "properties": {
                "ref:rspo": 76284,
                "official_name": "Stowarzyszenie Ksi\u0119gowych w Polsce Oddzia\u0142 Okr\u0119gowy w Warszawie Centrum Edukacji Zawodowej",
                "name": "Stowarzyszenie Ksi\u0119gowych w Polsce Oddzia\u0142 Okr\u0119gowy w Warszawie Centrum Edukacji Zawodowej",
                "addr:country": "PL",
                "addr:postcode": "08-110",
                "addr:city": "Siedlce",
                "addr:street": "ul. \u015awi\u0119toja\u0144ska",
                "addr:housenumber": "7",
                "addr:teryt:simc": 22548,
                "addr:teryt:sym_ul": 975173,
                "contact:phone": "+48 256333654",
                "contact:email": "biuro.siedlce@skp-ow.com.pl",
                "contact:website": "http:\/\/siedlce.skp-ow.com.pl",
                "ref:regon": "146413447",
                "operator": "Stowarzyszenie Ksi\u0119gowych W Polsce",
                "operator:type": "ngo",
                "fixme": "w zale\u017cno\u015bci od przedmiotu dzia\u0142alno\u015bci (np. amenity=training + training=*, amenity=dancing_school, amenity=language_school, amenity=music_school)"
            }
        },
        {
            "id": 70448,
            "type": "Feature",
            "geometry": {
                "type": "Point",
                "coordinates": [
                    22.28125,
                    52.1648
                ]
            },
            "properties": {
                "ref:rspo": 70448,
                "official_name": "Przedszkole Niepubliczne \"Pinokio\" w Siedlcach",
                "name": "Przedszkole Niepubliczne \"Pinokio\" w Siedlcach",
                "addr:country": "PL",
                "addr:postcode": "08-110",
                "addr:city": "Siedlce",
                "addr:street": "ul. Jacka Woszczerowicza",
                "addr:housenumber": "5",
                "addr:teryt:simc": 24753,
                "addr:teryt:sym_ul": 975173,
                "contact:phone": "+48 256328604",
                "contact:email": "przedszkoleniepublicznepinokio@op.pl",
                "contact:website": "http:\/\/www.pinokio.org",
                "ref:regon": "146396594",
                "operator": "Justyna \u015awiderska-Kami\u0144ska",
                "operator:type": "private",
                "amenity": "kindergarten"
            }
        },
        {
            "id": 70436,
            "type": "Feature",
            "geometry": {
                "type": "Point",
                "coordinates": [
                    22.2735,
                    52.16503
                ]
            },
            "properties": {
                "isced:level": "1;2",
                "ref:rspo": 70436,
                "official_name": "Szko\u0142a Podstawowa Z Oddzia\u0142ami Integracyjnymi Nr 6 im. W\u0142adys\u0142awa Broniewskiego w Siedlcach",
                "name": "Szko\u0142a Podstawowa Z Oddzia\u0142ami Integracyjnymi Nr 6",
                "addr:country": "PL",
                "addr:postcode": "08-110",
                "addr:city": "Siedlce",
                "addr:street": "ul. Henryka Sienkiewicza",
                "addr:housenumber": "49",
                "addr:teryt:simc": 19834,
                "addr:teryt:sym_ul": 975173,
                "contact:phone": "+48 257943591",
                "contact:email": "sekretariat@sp6.siedlce.pl",
                "contact:website": "https:\/\/sp6siedlce.edupage.org\/",
                "ref:regon": "000235737",
                "ref:vatin": "PL8211021256",
                "operator": "Miasto Siedlce",
                "operator:type": "government",
                "amenity": "school"
            }
        },
        {
            "id": 64302,
            "type": "Feature",
            "geometry": {
                "type": "Point",
                "coordinates": [
                    22.31307,
                    52.16516
                ]
            },
            "properties": {
                "ref:rspo": 64302,
                "official_name": "Miejskie Przedszkole Nr 1",
                "name": "Miejskie Przedszkole Nr 1",
                "addr:country": "PL",
                "addr:postcode": "08-110",
                "addr:city": "Siedlce",
                "addr:street": "ul. Wi\u0105zowa",
                "addr:housenumber": "7",
                "addr:teryt:simc": 23983,
                "addr:teryt:sym_ul": 975173,
                "contact:phone": "+48 256447313",
                "contact:email": "mprzedszkole01@gmail.com",
                "contact:website": "http:\/\/www.jedyneczka.siedlce.pl",
                "ref:regon": "142624064",
                "ref:vatin": "PL8212611988",
                "operator": "Miasto Siedlce",
                "operator:type": "government",
                "amenity": "kindergarten"
            }
        },
        {
            "id": 125693,
            "type": "Feature",
            "geometry": {
                "type": "Point",
                "coordinates": [
                    22.26817,
                    52.16522
                ]
            },
            "properties": {
                "ref:rspo": 125693,
                "official_name": "Niepubliczna Poradnia Psychologiczno - Pedagogiczna Cogito w Siedlcach",
                "name": "Niepubliczna Poradnia Psychologiczno - Pedagogiczna Cogito w Siedlcach",
                "addr:country": "PL",
                "addr:postcode": "08-110",
                "addr:city": "Siedlce",
                "addr:street": "ul. Wojska Polskiego",
                "addr:housenumber": "58",
                "addr:teryt:simc": 24628,
                "addr:teryt:sym_ul": 975173,
                "contact:phone": "+48 570133333",
                "contact:email": "m_barton@o2.pl",
                "contact:website": "http:\/\/www.terapiasiedlce.pl",
                "ref:regon": "147466470",
                "operator": "Anna Siekierka",
                "operator:type": "private",
                "healthcare": "counselling",
                "counselling_type": "education",
                "fixme": "w zale\u017cno\u015bci od przedmiotu dzia\u0142alno\u015bci (np. healthcare=counselling + counselling_type=education albo healthcare=psychotherapist)"
            }
        },
        {
            "id": 278534,
            "type": "Feature",
            "geometry": {
                "type": "Point",
                "coordinates": [
                    22.28994,
                    52.16527
                ]
            },
            "properties": {
                "ref:rspo": 278534,
                "official_name": "Niepubliczne Przedszkole \"Z U\u015bmiechem\"",
                "name": "Niepubliczne Przedszkole \"Z U\u015bmiechem\"",
                "addr:country": "PL",
                "addr:postcode": "08-110",
                "addr:city": "Siedlce",
                "addr:street": "ul. Prymasa Stefana Wyszy\u0144skiego",
                "addr:housenumber": "3",
                "addr:teryt:simc": 25119,
                "addr:teryt:sym_ul": 975173,
                "contact:phone": "+48 694905523",
                "contact:email": "n.przedszkole.zusmiechem@gmail.com",
                "ref:regon": "389951751",
                "operator": "Izabela M\u0119dza",
                "operator:type": "private",
                "amenity": "kindergarten"
            }
        },
        {
            "id": 276142,
            "type": "Feature",
            "geometry": {
                "type": "Point",
                "coordinates": [
                    22.26968,
                    52.16554
                ]
            },
            "properties": {
                "ref:rspo": 276142,
                "official_name": "Niepubliczny Punkt Przedszkolny \"\u017b\u00f3\u0142ty Latawiec\"",
                "name": "Niepubliczny Punkt Przedszkolny \"\u017b\u00f3\u0142ty Latawiec\"",
                "addr:country": "PL",
                "addr:postcode": "08-110",
                "addr:city": "Siedlce",
                "addr:street": "ul. Henryka Sienkiewicza",
                "addr:housenumber": "52A",
                "addr:teryt:simc": 19834,
                "addr:teryt:sym_ul": 975173,
                "contact:email": "biuro@zoltylatawiec.pl",
                "ref:regon": "387000359",
                "operator": "Barbara Sienkiewicz",
                "operator:type": "private",
                "amenity": "kindergarten"
            }
        },
        {
            "id": 78963,
            "type": "Feature",
            "geometry": {
                "type": "Point",
                "coordinates": [
                    22.27572,
                    52.16574
                ]
            },
            "properties": {
                "ref:rspo": 78963,
                "official_name": "Redicus Szkolenia",
                "name": "Redicus Szkolenia",
                "addr:country": "PL",
                "addr:postcode": "08-110",
                "addr:city": "Siedlce",
                "addr:street": "pl. Plac Tysi\u0105clecia",
                "addr:housenumber": "23",
                "addr:teryt:simc": 49077,
                "addr:teryt:sym_ul": 975173,
                "contact:phone": "+48 256443242",
                "contact:email": "siedlce@redicus.pl",
                "contact:website": "http:\/\/www.redicus.pl",
                "ref:regon": "146465020",
                "operator": "Dominik Szwab",
                "operator:type": "private",
                "fixme": "w zale\u017cno\u015bci od przedmiotu dzia\u0142alno\u015bci (np. amenity=training + training=*, amenity=dancing_school, amenity=language_school, amenity=music_school)"
            }
        },
        {
            "id": 70453,
            "type": "Feature",
            "geometry": {
                "type": "Point",
                "coordinates": [
                    22.27664,
                    52.16585
                ]
            },
            "properties": {
                "ref:rspo": 70453,
                "official_name": "Niepubliczne Przedszkole \"Si\u00f3demka\"",
                "name": "Niepubliczne Przedszkole \"Si\u00f3demka\"",
                "addr:country": "PL",
                "addr:postcode": "08-110",
                "addr:city": "Siedlce",
                "addr:street": "ul. Jana Kili\u0144skiego",
                "addr:housenumber": "13",
                "addr:teryt:simc": 8435,
                "addr:teryt:sym_ul": 975173,
                "contact:phone": "+48 256446804",
                "contact:email": "marzena.galecka@op.pl",
                "ref:regon": "146396631",
                "operator": "Agata Ga\u0142ecka",
                "operator:type": "private",
                "amenity": "kindergarten"
            }
        },
        {
            "id": 73880,
            "type": "Feature",
            "geometry": {
                "type": "Point",
                "coordinates": [
                    22.27625,
                    52.16601
                ]
            },
            "properties": {
                "isced:level": "3",
                "ref:rspo": 73880,
                "official_name": "Liceum Og\u00f3lnokszta\u0142c\u0105ce dla Doros\u0142ych \"\u017bak\" w Siedlcach",
                "name": "Liceum Og\u00f3lnokszta\u0142c\u0105ce dla Doros\u0142ych \"\u017bak\" w Siedlcach",
                "addr:country": "PL",
                "addr:postcode": "08-110",
                "addr:city": "Siedlce",
                "addr:street": "ul. Jana Kili\u0144skiego",
                "addr:housenumber": "16",
                "addr:door": "9",
                "addr:teryt:simc": 8435,
                "addr:teryt:sym_ul": 975173,
                "contact:phone": "+48 256447815",
                "contact:email": "siedlce@zak.edu.pl",
                "contact:website": "http:\/\/www.zak.edu.pl",
                "ref:regon": "146460145",
                "operator": "Centrum Nauki I Biznesu \"\u017bak\" Sp\u00f3\u0142ka Z Ograniczon\u0105 Odpowiedzialno\u015bci\u0105",
                "operator:type": "private",
                "amenity": "school"
            }
        },
        {
            "id": 73882,
            "type": "Feature",
            "geometry": {
                "type": "Point",
                "coordinates": [
                    22.27625,
                    52.16598
                ]
            },
            "properties": {
                "isced:level": "4",
                "ref:rspo": 73882,
                "official_name": "Szko\u0142a Policealna Administracji \"\u017bak\" w Siedlcach",
                "name": "Szko\u0142a Policealna Administracji \"\u017bak\" w Siedlcach",
                "addr:country": "PL",
                "addr:postcode": "08-110",
                "addr:city": "Siedlce",
                "addr:street": "ul. Jana Kili\u0144skiego",
                "addr:housenumber": "16",
                "addr:door": "9",
                "addr:teryt:simc": 8435,
                "addr:teryt:sym_ul": 975173,
                "contact:phone": "+48 256447815",
                "contact:email": "siedlce@zak.edu.pl",
                "contact:website": "http:\/\/www.zak.edu.pl",
                "ref:regon": "146460056",
                "operator": "Centrum Nauki I Biznesu \"\u017bak\" Sp\u00f3\u0142ka Z Ograniczon\u0105 Odpowiedzialno\u015bci\u0105",
                "operator:type": "private",
                "amenity": "college"
            }
        },
        {
            "id": 73883,
            "type": "Feature",
            "geometry": {
                "type": "Point",
                "coordinates": [
                    22.27625,
                    52.16595
                ]
            },
            "properties": {
                "isced:level": "4",
                "ref:rspo": 73883,
                "official_name": "Szko\u0142a Policealna Kosmetyki \"\u017bak\" w Siedlcach",
                "name": "Szko\u0142a Policealna Kosmetyki \"\u017bak\" w Siedlcach",
                "addr:country": "PL",
                "addr:postcode": "08-110",
                "addr:city": "Siedlce",
                "addr:street": "ul. Jana Kili\u0144skiego",
                "addr:housenumber": "16",
                "addr:door": "9",
                "addr:teryt:simc": 8435,
                "addr:teryt:sym_ul": 975173,
                "contact:phone": "+48 256447815",
                "contact:email": "siedlce@zak.edu.pl",
                "contact:website": "http:\/\/www.zak.edu.pl",
                "ref:regon": "146460151",
                "operator": "Centrum Nauki I Biznesu \"\u017bak\" Sp\u00f3\u0142ka Z Ograniczon\u0105 Odpowiedzialno\u015bci\u0105",
                "operator:type": "private",
                "amenity": "college"
            }
        },
        {
            "id": 74744,
            "type": "Feature",
            "geometry": {
                "type": "Point",
                "coordinates": [
                    22.27625,
                    52.16592
                ]
            },
            "properties": {
                "isced:level": "4",
                "ref:rspo": 74744,
                "official_name": "Szko\u0142a Policealna Centrum Nauki I Biznesu \"\u017bak\" w Siedlcach",
                "name": "Szko\u0142a Policealna Centrum Nauki I Biznesu \"\u017bak\" w Siedlcach",
                "addr:country": "PL",
                "addr:postcode": "08-110",
                "addr:city": "Siedlce",
                "addr:street": "ul. Jana Kili\u0144skiego",
                "addr:housenumber": "16",
                "addr:door": "9",
                "addr:teryt:simc": 8435,
                "addr:teryt:sym_ul": 975173,
                "contact:phone": "+48 256447815",
                "contact:email": "siedlce@zak.edu.pl",
                "contact:website": "http:\/\/www.zak.edu.pl",
                "ref:regon": "146473308",
                "operator": "Centrum Nauki I Biznesu \"\u017bak\" Sp\u00f3\u0142ka Z Ograniczon\u0105 Odpowiedzialno\u015bci\u0105",
                "operator:type": "private",
                "amenity": "college"
            }
        },
        {
            "id": 75155,
            "type": "Feature",
            "geometry": {
                "type": "Point",
                "coordinates": [
                    22.27625,
                    52.16589
                ]
            },
            "properties": {
                "ref:rspo": 75155,
                "official_name": "O\u015brodek Szkoleniowy Centrum Nauki I Biznesu \"\u017bak\" w Siedlcach",
                "name": "O\u015brodek Szkoleniowy Centrum Nauki I Biznesu \"\u017bak\" w Siedlcach",
                "addr:country": "PL",
                "addr:postcode": "08-110",
                "addr:city": "Siedlce",
                "addr:street": "ul. Jana Kili\u0144skiego",
                "addr:housenumber": "16",
                "addr:door": "9",
                "addr:teryt:simc": 8435,
                "addr:teryt:sym_ul": 975173,
                "contact:phone": "+48 256447815",
                "contact:email": "siedlce@zak.edu.pl",
                "contact:website": "http:\/\/www.zak.edu.pl",
                "ref:regon": "146473254",
                "operator": "Centrum Nauki I Biznesu \"\u017bak\" Sp\u00f3\u0142ka Z Ograniczon\u0105 Odpowiedzialno\u015bci\u0105",
                "operator:type": "private",
                "fixme": "w zale\u017cno\u015bci od przedmiotu dzia\u0142alno\u015bci (np. amenity=training + training=*, amenity=dancing_school, amenity=language_school, amenity=music_school)"
            }
        },
        {
            "id": 130026,
            "type": "Feature",
            "geometry": {
                "type": "Point",
                "coordinates": [
                    22.27625,
                    52.16586
                ]
            },
            "properties": {
                "isced:level": "4",
                "ref:rspo": 130026,
                "official_name": "Szko\u0142a Policealna Medyczna \"\u017bak\" w Siedlcach",
                "name": "Szko\u0142a Policealna Medyczna \"\u017bak\" w Siedlcach",
                "addr:country": "PL",
                "addr:postcode": "08-110",
                "addr:city": "Siedlce",
                "addr:street": "ul. Jana Kili\u0144skiego",
                "addr:housenumber": "16",
                "addr:door": "9",
                "addr:teryt:simc": 8435,
                "addr:teryt:sym_ul": 975173,
                "contact:phone": "+48 256447815",
                "contact:email": "siedlce@zak.edu.pl",
                "ref:regon": "363499030",
                "operator": "Centrum Nauki I Biznesu \"\u017bak\" Sp\u00f3\u0142ka Z Ograniczon\u0105 Odpowiedzialno\u015bci\u0105",
                "operator:type": "private",
                "amenity": "college"
            }
        },
        {
            "id": 130027,
            "type": "Feature",
            "geometry": {
                "type": "Point",
                "coordinates": [
                    22.27625,
                    52.16583
                ]
            },
            "properties": {
                "isced:level": "4",
                "ref:rspo": 130027,
                "official_name": "Szko\u0142a Policealna Opieki Medycznej \"\u017bak\" w Siedlcach",
                "name": "Szko\u0142a Policealna Opieki Medycznej \"\u017bak\" w Siedlcach",
                "addr:country": "PL",
                "addr:postcode": "08-110",
                "addr:city": "Siedlce",
                "addr:street": "ul. Jana Kili\u0144skiego",
                "addr:housenumber": "16",
                "addr:door": "9",
                "addr:teryt:simc": 8435,
                "addr:teryt:sym_ul": 975173,
                "contact:phone": "+48 256447815",
                "contact:email": "siedlce@zak.edu.pl",
                "contact:website": "http:\/\/www.zak.edu.pl",
                "ref:regon": "363499053",
                "operator": "Centrum Nauki I Biznesu \"\u017bak\" Sp\u00f3\u0142ka Z Ograniczon\u0105 Odpowiedzialno\u015bci\u0105",
                "operator:type": "private",
                "amenity": "college"
            }
        },
        {
            "id": 64286,
            "type": "Feature",
            "geometry": {
                "type": "Point",
                "coordinates": [
                    22.27424,
                    52.16677
                ]
            },
            "properties": {
                "ref:rspo": 64286,
                "official_name": "Miejskie Przedszkole Nr 6 w Siedlcach",
                "name": "Miejskie Przedszkole Nr 6 w Siedlcach",
                "addr:country": "PL",
                "addr:postcode": "08-110",
                "addr:city": "Siedlce",
                "addr:street": "ul. Kazimierza Pu\u0142askiego",
                "addr:housenumber": "59",
                "addr:teryt:simc": 18099,
                "addr:teryt:sym_ul": 975173,
                "contact:phone": "+48 257943586",
                "contact:email": "mp6.siedlce@gmail.com",
                "contact:website": "http:\/\/www.mp6.siedlce.pl",
                "ref:regon": "142609544",
                "ref:vatin": "PL8212609951",
                "operator": "Miasto Siedlce",
                "operator:type": "government",
                "amenity": "kindergarten"
            }
        },
        {
            "id": 64295,
            "type": "Feature",
            "geometry": {
                "type": "Point",
                "coordinates": [
                    22.2878599,
                    52.16677
                ]
            },
            "properties": {
                "ref:rspo": 64295,
                "official_name": "Miejskie Przedszkole Nr 17 w Siedlcach",
                "name": "Miejskie Przedszkole Nr 17 w Siedlcach",
                "addr:country": "PL",
                "addr:postcode": "08-110",
                "addr:city": "Siedlce",
                "addr:street": "ul. Prymasa Stefana Wyszy\u0144skiego",
                "addr:housenumber": "6",
                "addr:teryt:simc": 25119,
                "addr:teryt:sym_ul": 975173,
                "contact:phone": "+48 257943694",
                "contact:email": "przedszkole17@mp17.siedlce.pl",
                "contact:website": "http:\/\/www.mp17.siedlce.pl",
                "ref:regon": "142689112",
                "ref:vatin": "PL8212613160",
                "operator": "Miasto Siedlce",
                "operator:type": "government",
                "amenity": "kindergarten"
            }
        },
        {
            "id": 128359,
            "type": "Feature",
            "geometry": {
                "type": "Point",
                "coordinates": [
                    22.28596,
                    52.1670299
                ]
            },
            "properties": {
                "ref:rspo": 128359,
                "official_name": "Centrum Kszta\u0142cenia Zawodowego I Ustawicznego w Siedlcach",
                "name": "Centrum Kszta\u0142cenia Zawodowego I Ustawicznego w Siedlcach",
                "addr:country": "PL",
                "addr:postcode": "08-110",
                "addr:city": "Siedlce",
                "addr:street": "ul. M\u0142ynarska",
                "addr:housenumber": "17",
                "addr:teryt:simc": 13112,
                "addr:teryt:sym_ul": 975173,
                "contact:phone": "+48 256447817",
                "contact:email": "sekretariat@ckziu.siedlce.pl",
                "contact:website": "http:\/\/www.ckziu.siedlce.pl",
                "ref:regon": "362248461",
                "operator": "Wojew\u00f3dztwo Mazowieckie",
                "operator:type": "government",
                "landuse": "education",
                "fixme": "amenity=school, amenity=college albo landuse=education w zale\u017cno\u015bci od tego, jakie plac\u00f3wki wchodz\u0105 w sk\u0142ad zespo\u0142u. Sprawd\u017a, kiedy stosowa\u0107 amenity=* a kiedy landuse=education.",
                "note": "Children RSPO: 82540;128360"
            }
        },
        {
            "id": 82540,
            "type": "Feature",
            "geometry": {
                "type": "Point",
                "coordinates": [
                    22.28596,
                    52.1669999
                ]
            },
            "properties": {
                "isced:level": "4",
                "ref:rspo": 82540,
                "official_name": "Medyczna Szko\u0142a Policealna im. Prof Zbigniewa Religi w Siedlcach",
                "name": "Medyczna Szko\u0142a Policealna",
                "addr:country": "PL",
                "addr:postcode": "08-110",
                "addr:city": "Siedlce",
                "addr:street": "ul. M\u0142ynarska",
                "addr:housenumber": "17",
                "addr:teryt:simc": 13112,
                "addr:teryt:sym_ul": 975173,
                "contact:phone": "+48 256447817",
                "contact:email": "sekretariat@ckziu.siedlce.pl",
                "contact:website": "http:\/\/www.ckziu.siedlce.pl",
                "ref:regon": "000687540",
                "ref:vatin": "PL8212406024",
                "operator": "Wojew\u00f3dztwo Mazowieckie",
                "operator:type": "government",
                "amenity": "college",
                "note": "Parent RSPO: 128359"
            }
        },
        {
            "id": 128360,
            "type": "Feature",
            "geometry": {
                "type": "Point",
                "coordinates": [
                    22.28596,
                    52.166969900000005
                ]
            },
            "properties": {
                "ref:rspo": 128360,
                "official_name": "Centrum Kszta\u0142cenia Ustawicznego w Siedlcach",
                "name": "Centrum Kszta\u0142cenia Ustawicznego w Siedlcach",
                "addr:country": "PL",
                "addr:postcode": "08-110",
                "addr:city": "Siedlce",
                "addr:street": "ul. M\u0142ynarska",
                "addr:housenumber": "17",
                "addr:teryt:simc": 13112,
                "addr:teryt:sym_ul": 975173,
                "contact:phone": "+48 256447817",
                "contact:email": "sekretariat@ckziu.siedlce.pl",
                "contact:website": "http:\/\/www.ckziu.siedlce.pl",
                "ref:regon": "362249791",
                "operator": "Wojew\u00f3dztwo Mazowieckie",
                "operator:type": "government",
                "fixme": "w zale\u017cno\u015bci od przedmiotu dzia\u0142alno\u015bci (np. amenity=training + training=*, amenity=dancing_school, amenity=language_school, amenity=music_school)",
                "note": "Parent RSPO: 128359"
            }
        },
        {
            "id": 80756,
            "type": "Feature",
            "geometry": {
                "type": "Point",
                "coordinates": [
                    22.28735,
                    52.16787
                ]
            },
            "properties": {
                "ref:rspo": 80756,
                "official_name": "Centrum Kszta\u0142cenia Kadr Sportu",
                "name": "Centrum Kszta\u0142cenia Kadr Sportu",
                "addr:country": "PL",
                "addr:postcode": "08-110",
                "addr:city": "Siedlce",
                "addr:street": "ul. Starowiejska",
                "addr:housenumber": "24",
                "addr:door": "18A",
                "addr:teryt:simc": 20998,
                "addr:teryt:sym_ul": 975173,
                "contact:phone": "+48 608287139",
                "contact:email": "arek@sportpromotion.pl",
                "contact:website": "http:\/\/www.sportpromotion.pl",
                "ref:regon": "146416345",
                "operator": "Arkadiusz M\u0105czka",
                "operator:type": "private",
                "fixme": "w zale\u017cno\u015bci od przedmiotu dzia\u0142alno\u015bci (np. amenity=training + training=*, amenity=dancing_school, amenity=language_school, amenity=music_school)"
            }
        },
        {
            "id": 263091,
            "type": "Feature",
            "geometry": {
                "type": "Point",
                "coordinates": [
                    22.26355,
                    52.1678799
                ]
            },
            "properties": {
                "isced:level": "1;2",
                "ref:rspo": 263091,
                "official_name": "Szko\u0142a Podstawowa Nr 2 im.gabriela Narutowicza w Siedlcach",
                "name": "Szko\u0142a Podstawowa Nr 2 im.gabriela Narutowicza w Siedlcach",
                "addr:country": "PL",
                "addr:postcode": "08-110",
                "addr:city": "Siedlce",
                "addr:street": "ul. Szkolna",
                "addr:housenumber": "2",
                "addr:teryt:simc": 21970,
                "addr:teryt:sym_ul": 975173,
                "contact:phone": "+48 257943311",
                "contact:email": "sekretariat@sp2.siedlce.pl",
                "contact:website": "http:\/\/sp2.siedlce.pl\/",
                "ref:regon": "368103189",
                "ref:vatin": "PL8212653716",
                "operator": "Miasto Siedlce",
                "operator:type": "government",
                "amenity": "school"
            }
        },
        {
            "id": 70438,
            "type": "Feature",
            "geometry": {
                "type": "Point",
                "coordinates": [
                    22.2898299,
                    52.16795
                ]
            },
            "properties": {
                "isced:level": "1;2",
                "ref:rspo": 70438,
                "official_name": "Szko\u0142a Podstawowa Nr 7 im. Czes\u0142awa Kami\u0144skiego w Siedlcach",
                "name": "Szko\u0142a Podstawowa Nr 7",
                "addr:country": "PL",
                "addr:postcode": "08-110",
                "addr:city": "Siedlce",
                "addr:street": "ul. Starowiejska",
                "addr:housenumber": "23",
                "addr:teryt:simc": 20998,
                "addr:teryt:sym_ul": 975173,
                "contact:phone": "+48 257943571",
                "contact:email": "sekretariat@sp7.siedlce.pl",
                "contact:website": "http:\/\/www.sp7.siedlce.pl",
                "ref:regon": "001066018",
                "ref:vatin": "PL8211045015",
                "operator": "Miasto Siedlce",
                "operator:type": "government",
                "amenity": "school"
            }
        },
        {
            "id": 73038,
            "type": "Feature",
            "geometry": {
                "type": "Point",
                "coordinates": [
                    22.26024,
                    52.16849
                ]
            },
            "properties": {
                "isced:level": "3",
                "ref:rspo": 73038,
                "official_name": "Niepubliczna Bran\u017cowa Szko\u0142a I Stopnia Siedlce Ul.szkolna 33",
                "name": "Niepubliczna Bran\u017cowa Szko\u0142a I Stopnia Siedlce Ul.szkolna 33",
                "addr:country": "PL",
                "addr:postcode": "08-110",
                "addr:city": "Siedlce",
                "addr:street": "ul. Szkolna",
                "addr:housenumber": "33",
                "addr:teryt:simc": 21970,
                "addr:teryt:sym_ul": 975173,
                "contact:phone": "+48 256322662",
                "contact:email": "zawod4@wp.pl",
                "ref:regon": "146450767",
                "operator": "Stowarzyszenie Polski Ruch Spo\u0142eczno-Humanitarny",
                "operator:type": "ngo",
                "amenity": "school"
            }
        },
        {
            "id": 80753,
            "type": "Feature",
            "geometry": {
                "type": "Point",
                "coordinates": [
                    22.26024,
                    52.168459999999996
                ]
            },
            "properties": {
                "isced:level": "3",
                "ref:rspo": 80753,
                "official_name": "Prywatne Liceum Og\u00f3lnokszta\u0142c\u0105ce dla Doros\u0142ych \"Twoja - Szko\u0142a\" w Siedlcach",
                "name": "Prywatne Liceum Og\u00f3lnokszta\u0142c\u0105ce dla Doros\u0142ych \"Twoja - Szko\u0142a\" w Siedlcach",
                "addr:country": "PL",
                "addr:postcode": "08-110",
                "addr:city": "Siedlce",
                "addr:street": "ul. Szkolna",
                "addr:housenumber": "33",
                "addr:teryt:simc": 21970,
                "addr:teryt:sym_ul": 975173,
                "contact:phone": "+48 253070808",
                "contact:email": "siedlce@twoja-szkola.pl",
                "contact:website": "http:\/\/www.twoja-szkola.pl",
                "ref:regon": "146464404",
                "operator": "Angelika Kubala",
                "operator:type": "private",
                "amenity": "school"
            }
        },
        {
            "id": 120600,
            "type": "Feature",
            "geometry": {
                "type": "Point",
                "coordinates": [
                    22.26024,
                    52.16843
                ]
            },
            "properties": {
                "isced:level": "4",
                "ref:rspo": 120600,
                "official_name": "Prywatna Szko\u0142a Policealna \"Twoja - Szko\u0142a\" w Siedlcach",
                "name": "Prywatna Szko\u0142a Policealna \"Twoja - Szko\u0142a\" w Siedlcach",
                "addr:country": "PL",
                "addr:postcode": "08-110",
                "addr:city": "Siedlce",
                "addr:street": "ul. Szkolna",
                "addr:housenumber": "33",
                "addr:teryt:simc": 21970,
                "addr:teryt:sym_ul": 975173,
                "contact:phone": "+48 253070808",
                "contact:email": "siedlce@twoja-szkola.pl",
                "contact:website": "http:\/\/www.twoja-szkola.pl",
                "ref:regon": "146925526",
                "operator": "Angelika Kubala",
                "operator:type": "private",
                "amenity": "college"
            }
        },
        {
            "id": 263110,
            "type": "Feature",
            "geometry": {
                "type": "Point",
                "coordinates": [
                    22.26024,
                    52.1684
                ]
            },
            "properties": {
                "isced:level": "1;2",
                "ref:rspo": 263110,
                "official_name": "Niepubliczna O\u015bmioletnia Szko\u0142a Podstawowa Z Oddzia\u0142ami Przysposabiaj\u0105cymi Do Pracy w Siedlcach",
                "name": "Niepubliczna O\u015bmioletnia Szko\u0142a Podstawowa Z Oddzia\u0142ami Przysposabiaj\u0105cymi Do Pracy w Siedlcach",
                "addr:country": "PL",
                "addr:postcode": "08-110",
                "addr:city": "Siedlce",
                "addr:street": "ul. Szkolna",
                "addr:housenumber": "33",
                "addr:teryt:simc": 21970,
                "addr:teryt:sym_ul": 975173,
                "contact:phone": "+48 256322662",
                "contact:email": "podstpraca@wp.pl",
                "contact:website": "http:\/\/www.prsh.info",
                "ref:regon": "368105981",
                "operator": "Stowarzyszenie Polski Ruch Spo\u0142eczno-Humanitarny",
                "operator:type": "ngo",
                "amenity": "school"
            }
        },
        {
            "id": 273144,
            "type": "Feature",
            "geometry": {
                "type": "Point",
                "coordinates": [
                    22.26024,
                    52.168369999999996
                ]
            },
            "properties": {
                "isced:level": "3",
                "ref:rspo": 273144,
                "official_name": "Prywatne Liceum Og\u00f3lnokszta\u0142c\u0105ce dla Doros\u0142ych \"Awans\"",
                "name": "Prywatne Liceum Og\u00f3lnokszta\u0142c\u0105ce dla Doros\u0142ych \"Awans\"",
                "addr:country": "PL",
                "addr:postcode": "08-110",
                "addr:city": "Siedlce",
                "addr:street": "ul. Szkolna",
                "addr:housenumber": "33",
                "addr:teryt:simc": 21970,
                "addr:teryt:sym_ul": 975173,
                "contact:phone": "+48 256322662",
                "contact:email": "szkola-awans@wp.pl",
                "ref:regon": "384384106",
                "operator": "Stowarzyszenie Polski Ruch Spo\u0142eczno-Humanitarny",
                "operator:type": "ngo",
                "amenity": "school"
            }
        },
        {
            "id": 273439,
            "type": "Feature",
            "geometry": {
                "type": "Point",
                "coordinates": [
                    22.26024,
                    52.16834
                ]
            },
            "properties": {
                "isced:level": "4",
                "ref:rspo": 273439,
                "official_name": "Prywatna Szko\u0142a Policealna Awans",
                "name": "Prywatna Szko\u0142a Policealna Awans",
                "addr:country": "PL",
                "addr:postcode": "08-110",
                "addr:city": "Siedlce",
                "addr:street": "ul. Szkolna",
                "addr:housenumber": "33",
                "addr:teryt:simc": 21970,
                "addr:teryt:sym_ul": 975173,
                "contact:phone": "+48 256322662",
                "contact:email": "szkola-awans@wp.pl",
                "ref:regon": "384469937",
                "operator": "Stowarzyszenie Polski Ruch Spo\u0142eczno-Humanitarny",
                "operator:type": "ngo",
                "amenity": "college"
            }
        },
        {
            "id": 263329,
            "type": "Feature",
            "geometry": {
                "type": "Point",
                "coordinates": [
                    22.24316,
                    52.16872
                ]
            },
            "properties": {
                "ref:rspo": 263329,
                "official_name": "Niepubliczne Przedszkole \"Tulinkowo\"",
                "name": "Niepubliczne Przedszkole \"Tulinkowo\"",
                "addr:country": "PL",
                "addr:postcode": "08-110",
                "addr:city": "Siedlce",
                "addr:street": "ul. Warszawska",
                "addr:housenumber": "110",
                "addr:teryt:simc": 23682,
                "addr:teryt:sym_ul": 975173,
                "contact:phone": "+48 698929913",
                "contact:email": "tulinkoweprzedszkole@wp.pl",
                "contact:website": "http:\/\/www.tulinkowo.pl",
                "ref:regon": "368180646",
                "operator": "Magdalena Stolarzak",
                "operator:type": "private",
                "amenity": "kindergarten"
            }
        },
        {
            "id": 64980,
            "type": "Feature",
            "geometry": {
                "type": "Point",
                "coordinates": [
                    22.2673,
                    52.16876
                ]
            },
            "properties": {
                "ref:rspo": 64980,
                "official_name": "Zesp\u00f3\u0142 Szk\u00f3\u0142 Ponadgimnazjalnych Nr 6 im. Gen. J\u00f3zefa Bema w Siedlcach",
                "name": "Zesp\u00f3\u0142 Szk\u00f3\u0142 Ponadgimnazjalnych Nr 6",
                "addr:country": "PL",
                "addr:postcode": "08-110",
                "addr:city": "Siedlce",
                "addr:street": "ul. Fryderyka Chopina",
                "addr:housenumber": "10",
                "addr:teryt:simc": 2849,
                "addr:teryt:sym_ul": 975173,
                "contact:phone": "+48 257943512",
                "contact:email": "sekretariat@zsp6siedlce.pl",
                "contact:website": "http:\/\/www.zsp6siedlce.pl",
                "ref:regon": "000405493",
                "ref:vatin": "PL8211045742",
                "operator": "Miasto Siedlce",
                "operator:type": "government",
                "landuse": "education",
                "fixme": "amenity=school, amenity=college albo landuse=education w zale\u017cno\u015bci od tego, jakie plac\u00f3wki wchodz\u0105 w sk\u0142ad zespo\u0142u. Sprawd\u017a, kiedy stosowa\u0107 amenity=* a kiedy landuse=education.",
                "note": "Children RSPO: 105791;121414;271262"
            }
        },
        {
            "id": 105791,
            "type": "Feature",
            "geometry": {
                "type": "Point",
                "coordinates": [
                    22.2673,
                    52.16873
                ]
            },
            "properties": {
                "isced:level": "3",
                "ref:rspo": 105791,
                "official_name": "Vii Liceum Og\u00f3lnokszta\u0142c\u0105ce w Siedlcach",
                "name": "Vii Liceum Og\u00f3lnokszta\u0142c\u0105ce w Siedlcach",
                "addr:country": "PL",
                "addr:postcode": "08-110",
                "addr:city": "Siedlce",
                "addr:street": "ul. Fryderyka Chopina",
                "addr:housenumber": "10",
                "addr:teryt:simc": 2849,
                "addr:teryt:sym_ul": 975173,
                "contact:phone": "+48 256322654",
                "contact:email": "sekretariat@zsp6siedlce.pl",
                "contact:website": "http:\/\/www.zsp6siedlce.pl",
                "ref:regon": "710499062",
                "operator": "Miasto Siedlce",
                "operator:type": "government",
                "amenity": "school",
                "note": "Parent RSPO: 64980"
            }
        },
        {
            "id": 121414,
            "type": "Feature",
            "geometry": {
                "type": "Point",
                "coordinates": [
                    22.2673,
                    52.1687
                ]
            },
            "properties": {
                "isced:level": "3",
                "ref:rspo": 121414,
                "official_name": "Technikum Nr 6 w Siedlcach",
                "name": "Technikum Nr 6 w Siedlcach",
                "addr:country": "PL",
                "addr:postcode": "08-110",
                "addr:city": "Siedlce",
                "addr:street": "ul. Fryderyka Chopina",
                "addr:housenumber": "10",
                "addr:teryt:simc": 2849,
                "addr:teryt:sym_ul": 975173,
                "contact:phone": "+48 257943512",
                "contact:email": "sekretariat@zsp6siedlce.pl",
                "contact:website": "http:\/\/zsp6siedlce.pl",
                "ref:regon": "712485963",
                "operator": "Miasto Siedlce",
                "operator:type": "government",
                "amenity": "school",
                "note": "Parent RSPO: 64980"
            }
        },
        {
            "id": 271262,
            "type": "Feature",
            "geometry": {
                "type": "Point",
                "coordinates": [
                    22.2673,
                    52.16867
                ]
            },
            "properties": {
                "isced:level": "3",
                "ref:rspo": 271262,
                "official_name": "Bran\u017cowa Szko\u0142a I Stopnia Nr 6 w Siedlcach",
                "name": "Bran\u017cowa Szko\u0142a I Stopnia Nr 6 w Siedlcach",
                "addr:country": "PL",
                "addr:postcode": "08-110",
                "addr:city": "Siedlce",
                "addr:street": "ul. Fryderyka Chopina",
                "addr:housenumber": "10",
                "addr:teryt:simc": 2849,
                "addr:teryt:sym_ul": 975173,
                "contact:phone": "+48 257943512",
                "contact:email": "sekretariat@zsp6siedlce.pl",
                "contact:website": "http:\/\/www.zsp6siedlce.pl",
                "ref:regon": "383214780",
                "operator": "Miasto Siedlce",
                "operator:type": "government",
                "amenity": "school",
                "note": "Parent RSPO: 64980"
            }
        },
        {
            "id": 80323,
            "type": "Feature",
            "geometry": {
                "type": "Point",
                "coordinates": [
                    22.27134,
                    52.16912
                ]
            },
            "properties": {
                "ref:rspo": 80323,
                "official_name": "Prywatna Plac\u00f3wka O\u015bwiatowo-Wychowawcza \"Szko\u0142a J\u0119zyk\u00f3w Obcych Alma Mater\" w Siedlcach",
                "name": "Prywatna Plac\u00f3wka O\u015bwiatowo-Wychowawcza \"Szko\u0142a J\u0119zyk\u00f3w Obcych Alma Mater\" w Siedlcach",
                "addr:country": "PL",
                "addr:postcode": "08-110",
                "addr:city": "Siedlce",
                "addr:street": "ul. Wojskowa",
                "addr:housenumber": "3",
                "addr:teryt:simc": 24634,
                "addr:teryt:sym_ul": 975173,
                "contact:phone": "+48 56445080",
                "contact:email": "siedlce@almamater.com.pl",
                "ref:regon": "146416055",
                "operator": "Dane Do Uzupe\u0142nienia",
                "operator:type": "private",
                "fixme": "w zale\u017cno\u015bci od przedmiotu dzia\u0142alno\u015bci (np. amenity=training + training=*, amenity=dancing_school, amenity=language_school, amenity=music_school)"
            }
        },
        {
            "id": 73851,
            "type": "Feature",
            "geometry": {
                "type": "Point",
                "coordinates": [
                    22.27183,
                    52.16915
                ]
            },
            "properties": {
                "ref:rspo": 73851,
                "official_name": "Szko\u0142a J\u0119zyk\u00f3w Obcych Euroschool Grupa",
                "name": "Szko\u0142a J\u0119zyk\u00f3w Obcych Euroschool Grupa",
                "addr:country": "PL",
                "addr:postcode": "08-110",
                "addr:city": "Siedlce",
                "addr:street": "ul. Wojskowa",
                "addr:housenumber": "16",
                "addr:door": "2",
                "addr:teryt:simc": 24634,
                "addr:teryt:sym_ul": 975173,
                "contact:phone": "+48 256449336",
                "contact:email": "biuro@euroschool.com.pl",
                "contact:website": "http:\/\/www.euroschool.com.pl",
                "ref:regon": "146403160",
                "operator": "Jacek Taraszewski",
                "operator:type": "private",
                "fixme": "w zale\u017cno\u015bci od przedmiotu dzia\u0142alno\u015bci (np. amenity=training + training=*, amenity=dancing_school, amenity=language_school, amenity=music_school)"
            }
        },
        {
            "id": 70460,
            "type": "Feature",
            "geometry": {
                "type": "Point",
                "coordinates": [
                    22.23734,
                    52.16949
                ]
            },
            "properties": {
                "ref:rspo": 70460,
                "official_name": "Niepubliczne Przedszkole \"T\u0119czowe Przedszkole\"",
                "name": "Niepubliczne Przedszkole \"T\u0119czowe Przedszkole\"",
                "addr:country": "PL",
                "addr:postcode": "08-110",
                "addr:city": "Siedlce",
                "addr:street": "ul. Warszawska",
                "addr:housenumber": "160",
                "addr:teryt:simc": 23682,
                "addr:teryt:sym_ul": 975173,
                "contact:phone": "+48 600414951",
                "contact:email": "tecza.siedlce10@onet.pl",
                "contact:website": "http:\/\/www.teczoweprzedszkole.edu.pl",
                "ref:regon": "146399345",
                "operator": "Gra\u017cyna Zieli\u0144ska",
                "operator:type": "private",
                "amenity": "kindergarten"
            }
        },
        {
            "id": 68717,
            "type": "Feature",
            "geometry": {
                "type": "Point",
                "coordinates": [
                    22.27515,
                    52.16991
                ]
            },
            "properties": {
                "isced:level": "3",
                "ref:rspo": 68717,
                "official_name": "I Katolickie Liceum Og\u00f3lnokszta\u0142c\u0105ce im. \u015awi\u0119tej Rodziny",
                "name": "I Katolickie Liceum Og\u00f3lnokszta\u0142c\u0105ce",
                "addr:country": "PL",
                "addr:postcode": "08-110",
                "addr:city": "Siedlce",
                "addr:street": "ul. Biskupa Ignacego \u015awirskiego",
                "addr:housenumber": "54",
                "addr:teryt:simc": 49860,
                "addr:teryt:sym_ul": 975173,
                "contact:phone": "+48 256321077",
                "contact:email": "sekretariat@klosiedlce.pl",
                "contact:website": "http:\/\/www.klosiedlce.pl",
                "ref:regon": "146433361",
                "operator": "Diecezja Siedlecka Kuria Diecezjalna W Siedlcach",
                "operator:type": "religious",
                "amenity": "school"
            }
        },
        {
            "id": 68725,
            "type": "Feature",
            "geometry": {
                "type": "Point",
                "coordinates": [
                    22.27464,
                    52.16996
                ]
            },
            "properties": {
                "ref:rspo": 68725,
                "official_name": "Bursa \u015aw. Stanis\u0142awa Kostki dla M\u0142odzie\u017cy M\u0119skiej Szk\u00f3\u0142 Ponadpodstawowych",
                "name": "Bursa \u015aw. Stanis\u0142awa Kostki dla M\u0142odzie\u017cy M\u0119skiej Szk\u00f3\u0142 Ponadpodstawowych",
                "addr:country": "PL",
                "addr:postcode": "08-110",
                "addr:city": "Siedlce",
                "addr:street": "ul. Biskupa Ignacego \u015awirskiego",
                "addr:housenumber": "56",
                "addr:teryt:simc": 49860,
                "addr:teryt:sym_ul": 975173,
                "contact:phone": "+48 256325447",
                "contact:email": "bursa.siedlce@wp.pl",
                "contact:website": "http:\/\/www.bursa.siedlce.pl",
                "ref:regon": "146433349",
                "ref:vatin": "PL8211680102",
                "operator": "Diecezja Siedlecka Kuria Diecezjalna W Siedlcach",
                "operator:type": "religious",
                "building": "dormitory"
            }
        },
        {
            "id": 28040,
            "type": "Feature",
            "geometry": {
                "type": "Point",
                "coordinates": [
                    22.28233,
                    52.17017
                ]
            },
            "properties": {
                "ref:rspo": 28040,
                "official_name": "Biblioteka Pedagogiczna im. Heleny Radli\u0144skiej w Siedlcach",
                "name": "Biblioteka Pedagogiczna",
                "addr:country": "PL",
                "addr:postcode": "08-110",
                "addr:city": "Siedlce",
                "addr:street": "ul. Mieczys\u0142awa As\u0142anowicza",
                "addr:housenumber": "2",
                "addr:teryt:simc": 466,
                "addr:teryt:sym_ul": 975173,
                "contact:phone": "+48 256441716",
                "contact:email": "sekretariat@bpsiedlce.pl",
                "contact:website": "http:\/\/www.bpsiedlce.pl",
                "ref:regon": "711690885",
                "ref:vatin": "PL8211061132",
                "operator": "Wojew\u00f3dztwo Mazowieckie",
                "operator:type": "government",
                "amenity": "library",
                "note": "Children RSPO: 63299;63400;68698;68699;89226"
            }
        },
        {
            "id": 76281,
            "type": "Feature",
            "geometry": {
                "type": "Point",
                "coordinates": [
                    22.23605,
                    52.17019
                ]
            },
            "properties": {
                "isced:level": "4",
                "ref:rspo": 76281,
                "official_name": "Centrum Kszta\u0142cenia Plejada Szko\u0142a Policealna Novum w Siedlcach",
                "name": "Centrum Kszta\u0142cenia Plejada Szko\u0142a Policealna Novum w Siedlcach",
                "addr:country": "PL",
                "addr:postcode": "08-110",
                "addr:city": "Siedlce",
                "addr:street": "ul. Czes\u0142awa Dylewicza",
                "addr:housenumber": "10",
                "addr:teryt:simc": 31413,
                "addr:teryt:sym_ul": 975173,
                "contact:phone": "+48 256329131",
                "contact:email": "siedlce@eck.com.pl",
                "contact:website": "http:\/\/www.plejada.pl",
                "ref:regon": "146462664",
                "operator": "Bo\u017cena Sugalska",
                "operator:type": "private",
                "amenity": "college"
            }
        },
        {
            "id": 76283,
            "type": "Feature",
            "geometry": {
                "type": "Point",
                "coordinates": [
                    22.23605,
                    52.170159999999996
                ]
            },
            "properties": {
                "isced:level": "3",
                "ref:rspo": 76283,
                "official_name": "Niepubliczne Liceum Og\u00f3lnokszta\u0142c\u0105ce dla Doros\u0142ych w Siedlcach",
                "name": "Niepubliczne Liceum Og\u00f3lnokszta\u0142c\u0105ce dla Doros\u0142ych w Siedlcach",
                "addr:country": "PL",
                "addr:postcode": "08-110",
                "addr:city": "Siedlce",
                "addr:street": "ul. Czes\u0142awa Dylewicza",
                "addr:housenumber": "10",
                "addr:teryt:simc": 31413,
                "addr:teryt:sym_ul": 975173,
                "contact:phone": "+48 256329131",
                "contact:email": "siedlce@eck.com.pl",
                "contact:website": "http:\/\/www.plejada.pl",
                "ref:regon": "146462687",
                "operator": "Bo\u017cena Sugalska",
                "operator:type": "private",
                "amenity": "school"
            }
        },
        {
            "id": 126808,
            "type": "Feature",
            "geometry": {
                "type": "Point",
                "coordinates": [
                    22.23605,
                    52.17013
                ]
            },
            "properties": {
                "isced:level": "4",
                "ref:rspo": 126808,
                "official_name": "Centrum Kszta\u0142cenia Plejada Medyczna Szko\u0142a Policealna w Siedlcach",
                "name": "Centrum Kszta\u0142cenia Plejada Medyczna Szko\u0142a Policealna w Siedlcach",
                "addr:country": "PL",
                "addr:postcode": "08-110",
                "addr:city": "Siedlce",
                "addr:street": "ul. Czes\u0142awa Dylewicza",
                "addr:housenumber": "10",
                "addr:teryt:simc": 31413,
                "addr:teryt:sym_ul": 975173,
                "contact:phone": "+48 256329131",
                "contact:email": "siedlce@eck.com.pl",
                "contact:website": "http:\/\/www.plejada.edu.pl",
                "ref:regon": "360811969",
                "operator": "Bo\u017cena Sugalska",
                "operator:type": "private",
                "amenity": "college"
            }
        },
        {
            "id": 268643,
            "type": "Feature",
            "geometry": {
                "type": "Point",
                "coordinates": [
                    22.23605,
                    52.1701
                ]
            },
            "properties": {
                "isced:level": "1;2",
                "ref:rspo": 268643,
                "official_name": "Niepubliczna Szko\u0142a Podstawowa \"\u017b\u00f3\u0142ty Latawiec\" w Siedlcach",
                "name": "Niepubliczna Szko\u0142a Podstawowa \"\u017b\u00f3\u0142ty Latawiec\" w Siedlcach",
                "addr:country": "PL",
                "addr:postcode": "08-110",
                "addr:city": "Siedlce",
                "addr:street": "ul. Czes\u0142awa Dylewicza",
                "addr:housenumber": "10",
                "addr:teryt:simc": 31413,
                "addr:teryt:sym_ul": 975173,
                "contact:phone": "+48 792977477",
                "contact:email": "fundacja@zoltylatawiec.pl",
                "contact:website": "http:\/\/www.fundacja.zoltylatawiec.pl",
                "ref:regon": "381222550",
                "operator": "Fundacja \"\u017b\u00f3\u0142ty Latawiec\"",
                "operator:type": "ngo",
                "amenity": "school"
            }
        },
        {
            "id": 276895,
            "type": "Feature",
            "geometry": {
                "type": "Point",
                "coordinates": [
                    22.23605,
                    52.170069999999996
                ]
            },
            "properties": {
                "isced:level": "1;2",
                "ref:rspo": 276895,
                "official_name": "Szko\u0142a Podstawowa 77 w Siedlcach",
                "name": "Szko\u0142a Podstawowa 77 w Siedlcach",
                "addr:country": "PL",
                "addr:postcode": "08-110",
                "addr:city": "Siedlce",
                "addr:street": "ul. Czes\u0142awa Dylewicza",
                "addr:housenumber": "10",
                "addr:teryt:simc": 31413,
                "addr:teryt:sym_ul": 975173,
                "contact:phone": "+48 256329131",
                "ref:regon": "387793443",
                "operator": "Bo\u017cena Sugalska",
                "operator:type": "private",
                "amenity": "school"
            }
        },
        {
            "id": 70458,
            "type": "Feature",
            "geometry": {
                "type": "Point",
                "coordinates": [
                    22.3034633,
                    52.170425
                ]
            },
            "properties": {
                "ref:rspo": 70458,
                "official_name": "Przedszkole Niepubliczne \"T\u0119czowa Chatka\"",
                "name": "Przedszkole Niepubliczne \"T\u0119czowa Chatka\"",
                "addr:country": "PL",
                "addr:postcode": "08-110",
                "addr:city": "Siedlce",
                "addr:street": "ul. Ogrodowa",
                "addr:housenumber": "82",
                "addr:teryt:simc": 14834,
                "addr:teryt:sym_ul": 975173,
                "contact:phone": "+48 256322217",
                "contact:email": "s.tarasiuk@wp.pl",
                "ref:regon": "146399285",
                "operator": "Sylwia Tarasiuk",
                "operator:type": "private",
                "amenity": "kindergarten"
            }
        },
        {
            "id": 65273,
            "type": "Feature",
            "geometry": {
                "type": "Point",
                "coordinates": [
                    22.27689,
                    52.17051
                ]
            },
            "properties": {
                "ref:rspo": 65273,
                "official_name": "Centrum Kszta\u0142cenia Ustawicznego w Siedlcach",
                "name": "Centrum Kszta\u0142cenia Ustawicznego w Siedlcach",
                "addr:country": "PL",
                "addr:postcode": "08-110",
                "addr:city": "Siedlce",
                "addr:street": "ul. Browarna",
                "addr:housenumber": "4",
                "addr:teryt:simc": 2148,
                "addr:teryt:sym_ul": 975173,
                "contact:phone": "+48 257943360",
                "contact:email": "cku@cku.siedlce.pl",
                "contact:website": "http:\/\/www.cku.siedlce.pl",
                "ref:regon": "710357280",
                "ref:vatin": "PL8211667194",
                "operator": "Miasto Siedlce",
                "operator:type": "government",
                "amenity": "school",
                "fixme": "amenity=school lub amenity=college",
                "note": "Children RSPO: 110009;110011"
            }
        },
        {
            "id": 110009,
            "type": "Feature",
            "geometry": {
                "type": "Point",
                "coordinates": [
                    22.27689,
                    52.17048
                ]
            },
            "properties": {
                "isced:level": "3",
                "ref:rspo": 110009,
                "official_name": "Xi Liceum Og\u00f3lnokszta\u0142c\u0105ce dla Doros\u0142ych w Siedlcach",
                "name": "Xi Liceum Og\u00f3lnokszta\u0142c\u0105ce dla Doros\u0142ych w Siedlcach",
                "addr:country": "PL",
                "addr:postcode": "08-110",
                "addr:city": "Siedlce",
                "addr:street": "ul. Browarna",
                "addr:housenumber": "4",
                "addr:teryt:simc": 2148,
                "addr:teryt:sym_ul": 975173,
                "contact:phone": "+48 257943360",
                "contact:email": "cku@cku.siedlce.pl",
                "contact:website": "http:\/\/www.cku.siedlce.pl",
                "ref:regon": "140238960",
                "operator": "Miasto Siedlce",
                "operator:type": "government",
                "amenity": "school",
                "note": "Parent RSPO: 65273"
            }
        },
        {
            "id": 110011,
            "type": "Feature",
            "geometry": {
                "type": "Point",
                "coordinates": [
                    22.27689,
                    52.17045
                ]
            },
            "properties": {
                "isced:level": "4",
                "ref:rspo": 110011,
                "official_name": "Szko\u0142a Policealna Nr 6 dla Doros\u0142ych w Siedlcach",
                "name": "Szko\u0142a Policealna Nr 6 dla Doros\u0142ych w Siedlcach",
                "addr:country": "PL",
                "addr:postcode": "08-110",
                "addr:city": "Siedlce",
                "addr:street": "ul. Browarna",
                "addr:housenumber": "4",
                "addr:teryt:simc": 2148,
                "addr:teryt:sym_ul": 975173,
                "contact:phone": "+48 257943360",
                "contact:email": "cku@cku.siedlce.pl",
                "contact:website": "http:\/\/www.cku.siedlce.pl",
                "ref:regon": "712548770",
                "operator": "Miasto Siedlce",
                "operator:type": "government",
                "amenity": "college",
                "note": "Parent RSPO: 65273"
            }
        },
        {
            "id": 70435,
            "type": "Feature",
            "geometry": {
                "type": "Point",
                "coordinates": [
                    22.26648,
                    52.17067
                ]
            },
            "properties": {
                "isced:level": "1;2",
                "ref:rspo": 70435,
                "official_name": "Szko\u0142a Podstawowa Nr 4 im. Adama Mickiewicza w Siedlcach",
                "name": "Szko\u0142a Podstawowa Nr 4",
                "addr:country": "PL",
                "addr:postcode": "08-110",
                "addr:city": "Siedlce",
                "addr:street": "ul. 10 Lutego",
                "addr:housenumber": "18",
                "addr:teryt:simc": 11430,
                "addr:teryt:sym_ul": 975173,
                "contact:phone": "+48 257943391",
                "contact:email": "sekretariat@czworka.siedlce.pl",
                "contact:website": "http:\/\/www.czworka.siedlce.pl",
                "ref:regon": "000233448",
                "ref:vatin": "PL8211663457",
                "operator": "Miasto Siedlce",
                "operator:type": "government",
                "amenity": "school"
            }
        },
        {
            "id": 263088,
            "type": "Feature",
            "geometry": {
                "type": "Point",
                "coordinates": [
                    22.28293,
                    52.17085
                ]
            },
            "properties": {
                "isced:level": "1;2",
                "ref:rspo": 263088,
                "official_name": "Szko\u0142a Podstawowa Nr 1 im. Komisji Edukacji Narodowej w Siedlcach",
                "name": "Szko\u0142a Podstawowa Nr 1",
                "addr:country": "PL",
                "addr:postcode": "08-110",
                "addr:city": "Siedlce",
                "addr:street": "ul. Stanis\u0142awa Konarskiego",
                "addr:housenumber": "5",
                "addr:door": "7",
                "addr:teryt:simc": 9111,
                "addr:teryt:sym_ul": 975173,
                "contact:phone": "+48 257943501",
                "contact:email": "sekretariat@sp1.siedlce.pl",
                "contact:website": "http:\/\/www.sp1.siedlce.pl",
                "ref:regon": "368103137",
                "ref:vatin": "PL8212653774",
                "operator": "Miasto Siedlce",
                "operator:type": "government",
                "amenity": "school"
            }
        },
        {
            "id": 76287,
            "type": "Feature",
            "geometry": {
                "type": "Point",
                "coordinates": [
                    22.28316,
                    52.17143
                ]
            },
            "properties": {
                "ref:rspo": 76287,
                "official_name": "Centrum Kszta\u0142cenia Zawodowego w Siedlcach",
                "name": "Centrum Kszta\u0142cenia Zawodowego w Siedlcach",
                "addr:country": "PL",
                "addr:postcode": "08-110",
                "addr:city": "Siedlce",
                "addr:street": "ul. Stanis\u0142awa Konarskiego",
                "addr:housenumber": "9",
                "addr:teryt:simc": 9111,
                "addr:teryt:sym_ul": 975173,
                "contact:phone": "+48 257943330",
                "contact:email": "sekretariat@ckz.siedlce.pl",
                "contact:website": "http:\/\/www.ckz.siedlce.pl",
                "ref:regon": "710426695",
                "ref:vatin": "PL8211575032",
                "operator": "Miasto Siedlce",
                "operator:type": "government",
                "fixme": "w zale\u017cno\u015bci od przedmiotu dzia\u0142alno\u015bci (np. amenity=training + training=*, amenity=dancing_school, amenity=language_school, amenity=music_school) albo amenity=school, amenity=college, albo landuse=education w zale\u017cno\u015bci od tego, jakie plac\u00f3wki wchodz\u0105 w sk\u0142ad zespo\u0142u. Sprawd\u017a, kiedy stosowa\u0107 amenity=* a kiedy landuse=education."
            }
        },
        {
            "id": 64282,
            "type": "Feature",
            "geometry": {
                "type": "Point",
                "coordinates": [
                    22.28359,
                    52.17168
                ]
            },
            "properties": {
                "isced:level": "3",
                "ref:rspo": 64282,
                "official_name": "Iv Liceum Og\u00f3lnokszta\u0142c\u0105ce im.hetmana Stanis\u0142awa \u017b\u00f3\u0142kiewskiego w Siedlcach",
                "name": "Iv Liceum Og\u00f3lnokszta\u0142c\u0105ce im.hetmana Stanis\u0142awa \u017b\u00f3\u0142kiewskiego w Siedlcach",
                "addr:country": "PL",
                "addr:postcode": "08-110",
                "addr:city": "Siedlce",
                "addr:street": "ul. Stanis\u0142awa Konarskiego",
                "addr:housenumber": "1",
                "addr:teryt:simc": 9111,
                "addr:teryt:sym_ul": 975173,
                "contact:phone": "+48 257943040",
                "contact:email": "lo4@zolkiewski.siedlce.pl",
                "contact:website": "http:\/\/www.lo4.siedlce.net",
                "ref:regon": "710018938",
                "ref:vatin": "PL8211958804",
                "operator": "Miasto Siedlce",
                "operator:type": "government",
                "amenity": "school"
            }
        },
        {
            "id": 125068,
            "type": "Feature",
            "geometry": {
                "type": "Point",
                "coordinates": [
                    22.27813,
                    52.17173
                ]
            },
            "properties": {
                "ref:rspo": 125068,
                "official_name": "I Niepubliczna Specjalistyczna Poradnia Psychologiczno - Pedagogiczna \"Budzik\" w Siedlcach",
                "name": "I Niepubliczna Specjalistyczna Poradnia Psychologiczno - Pedagogiczna \"Budzik\" w Siedlcach",
                "addr:country": "PL",
                "addr:postcode": "08-110",
                "addr:city": "Siedlce",
                "addr:street": "ul. Czerwonego Krzy\u017ca",
                "addr:housenumber": "32",
                "addr:teryt:simc": 3434,
                "addr:teryt:sym_ul": 975173,
                "contact:phone": "+48 606394228",
                "contact:email": "anna.jagiello90@gmail.com",
                "contact:website": "http:\/\/www.budzik-siedlce.pl",
                "ref:regon": "147423710",
                "operator": "Anna Jagie\u0142\u0142o",
                "operator:type": "private",
                "healthcare": "counselling",
                "counselling_type": "education",
                "fixme": "w zale\u017cno\u015bci od przedmiotu dzia\u0142alno\u015bci (np. healthcare=counselling + counselling_type=education albo healthcare=psychotherapist)"
            }
        },
        {
            "id": 111324,
            "type": "Feature",
            "geometry": {
                "type": "Point",
                "coordinates": [
                    22.2749,
                    52.17181
                ]
            },
            "properties": {
                "ref:rspo": 111324,
                "official_name": "Niepubliczne Przedszkole 11 Krasnoludk\u00f3w w Siedlcach",
                "name": "Niepubliczne Przedszkole 11 Krasnoludk\u00f3w w Siedlcach",
                "addr:country": "PL",
                "addr:postcode": "08-110",
                "addr:city": "Siedlce",
                "addr:street": "ul. 11 Listopada",
                "addr:housenumber": "16",
                "addr:teryt:simc": 11205,
                "addr:teryt:sym_ul": 975173,
                "contact:email": "niepubliczneprzedszkole@wp.pl",
                "contact:website": "http:\/\/www.11krasnoludkow.strefa.pl",
                "ref:regon": "146571459",
                "ref:vatin": "PL8211217338",
                "operator": "Ma\u0142gorzata Burknap",
                "operator:type": "private",
                "amenity": "kindergarten"
            }
        },
        {
            "id": 64276,
            "type": "Feature",
            "geometry": {
                "type": "Point",
                "coordinates": [
                    22.28302,
                    52.17203
                ]
            },
            "properties": {
                "ref:rspo": 64276,
                "official_name": "Zesp\u00f3\u0142 Szk\u00f3\u0142 Ponadgimnazjalnych Nr 1 im. Stanis\u0142awa Staszica w Siedlcach",
                "name": "Zesp\u00f3\u0142 Szk\u00f3\u0142 Ponadgimnazjalnych Nr 1",
                "addr:country": "PL",
                "addr:postcode": "08-110",
                "addr:city": "Siedlce",
                "addr:street": "ul. Stanis\u0142awa Konarskiego",
                "addr:housenumber": "11",
                "addr:teryt:simc": 9111,
                "addr:teryt:sym_ul": 975173,
                "contact:phone": "+48 257943251",
                "contact:email": "dyrektor@zsp1.siedlce.pl",
                "contact:website": "http:\/\/www.zsp1.siedlce.pl",
                "ref:regon": "000200704",
                "ref:vatin": "PL8211047095",
                "operator": "Miasto Siedlce",
                "operator:type": "government",
                "landuse": "education",
                "fixme": "amenity=school, amenity=college albo landuse=education w zale\u017cno\u015bci od tego, jakie plac\u00f3wki wchodz\u0105 w sk\u0142ad zespo\u0142u. Sprawd\u017a, kiedy stosowa\u0107 amenity=* a kiedy landuse=education.",
                "note": "Children RSPO: 92591;92592;103532"
            }
        },
        {
            "id": 92591,
            "type": "Feature",
            "geometry": {
                "type": "Point",
                "coordinates": [
                    22.28302,
                    52.172
                ]
            },
            "properties": {
                "isced:level": "3",
                "ref:rspo": 92591,
                "official_name": "Iii Liceum Og\u00f3lnokszta\u0142c\u0105ce w Siedlcach",
                "name": "Iii Liceum Og\u00f3lnokszta\u0142c\u0105ce w Siedlcach",
                "addr:country": "PL",
                "addr:postcode": "08-110",
                "addr:city": "Siedlce",
                "addr:street": "ul. Stanis\u0142awa Konarskiego",
                "addr:housenumber": "11",
                "addr:teryt:simc": 9111,
                "addr:teryt:sym_ul": 975173,
                "contact:phone": "+48 257943251",
                "contact:email": "dyrektor@zsp1.siedlce.pl",
                "contact:website": "http:\/\/www.zsp1.siedlce.pl",
                "ref:regon": "710016767",
                "operator": "Miasto Siedlce",
                "operator:type": "government",
                "amenity": "school",
                "note": "Parent RSPO: 64276"
            }
        },
        {
            "id": 92592,
            "type": "Feature",
            "geometry": {
                "type": "Point",
                "coordinates": [
                    22.28302,
                    52.17197
                ]
            },
            "properties": {
                "isced:level": "3",
                "ref:rspo": 92592,
                "official_name": "Technikum Nr 1 w Siedlcach",
                "name": "Technikum Nr 1 w Siedlcach",
                "addr:country": "PL",
                "addr:postcode": "08-110",
                "addr:city": "Siedlce",
                "addr:street": "ul. Stanis\u0142awa Konarskiego",
                "addr:housenumber": "11",
                "addr:teryt:simc": 9111,
                "addr:teryt:sym_ul": 975173,
                "contact:phone": "+48 257943251",
                "contact:email": "dyrektor@zsp1.siedlce.pl",
                "contact:website": "http:\/\/www.zsp1.siedlce.pl",
                "ref:regon": "712572780",
                "operator": "Miasto Siedlce",
                "operator:type": "government",
                "amenity": "school",
                "note": "Parent RSPO: 64276"
            }
        },
        {
            "id": 103532,
            "type": "Feature",
            "geometry": {
                "type": "Point",
                "coordinates": [
                    22.28302,
                    52.17194
                ]
            },
            "properties": {
                "isced:level": "3",
                "ref:rspo": 103532,
                "official_name": "Bran\u017cowa Szko\u0142a I Stopnia Nr 1 w Zespole Szk\u00f3\u0142 Ponadgimnazjalnych Nr 1 im. Stanis\u0142awa Staszica w Siedlcach",
                "name": "Bran\u017cowa Szko\u0142a I Stopnia Nr 1 w Zespole Szk\u00f3\u0142 Ponadgimnazjalnych Nr 1",
                "addr:country": "PL",
                "addr:postcode": "08-110",
                "addr:city": "Siedlce",
                "addr:street": "ul. Stanis\u0142awa Konarskiego",
                "addr:housenumber": "11",
                "addr:teryt:simc": 9111,
                "addr:teryt:sym_ul": 975173,
                "contact:phone": "+48 257943251",
                "contact:email": "dyrektor@zsp1.siedlce.pl",
                "contact:website": "http:\/\/www.zsp1.siedlce.pl",
                "ref:regon": "712488766",
                "operator": "Miasto Siedlce",
                "operator:type": "government",
                "amenity": "school",
                "note": "Parent RSPO: 64276"
            }
        },
        {
            "id": 64298,
            "type": "Feature",
            "geometry": {
                "type": "Point",
                "coordinates": [
                    22.30155,
                    52.1721999
                ]
            },
            "properties": {
                "ref:rspo": 64298,
                "official_name": "Miejskie Przedszkole Nr 23 im. Jana Brzechwy w Siedlcach",
                "name": "Miejskie Przedszkole Nr 23",
                "addr:country": "PL",
                "addr:postcode": "08-110",
                "addr:city": "Siedlce",
                "addr:street": "ul. Ogrodowa",
                "addr:housenumber": "43a",
                "addr:teryt:simc": 14834,
                "addr:teryt:sym_ul": 975173,
                "contact:phone": "+48 257943326",
                "contact:email": "przedszkole23@siedlce.cc",
                "contact:website": "http:\/\/www.mp23siedlce.ugu.pl",
                "ref:regon": "142607545",
                "ref:vatin": "PL8212610144",
                "operator": "Miasto Siedlce",
                "operator:type": "government",
                "amenity": "kindergarten"
            }
        },
        {
            "id": 64281,
            "type": "Feature",
            "geometry": {
                "type": "Point",
                "coordinates": [
                    22.28902,
                    52.17233
                ]
            },
            "properties": {
                "isced:level": "3",
                "ref:rspo": 64281,
                "official_name": "Ii Liceum Og\u00f3lnokszta\u0142c\u0105ce im. \u015aw. Kr\u00f3lowej Jadwigi w Siedlcach",
                "name": "Ii Liceum Og\u00f3lnokszta\u0142c\u0105ce",
                "addr:country": "PL",
                "addr:postcode": "08-110",
                "addr:city": "Siedlce",
                "addr:street": "ul. Boles\u0142awa Prusa",
                "addr:housenumber": "12",
                "addr:teryt:simc": 17577,
                "addr:teryt:sym_ul": 975173,
                "contact:phone": "+48 257943470",
                "contact:email": "sekretariat@krolowka.siedlce.pl",
                "contact:website": "http:\/\/www.krolowka.siedlce.pl",
                "ref:regon": "000890956",
                "ref:vatin": "PL8211641355",
                "operator": "Miasto Siedlce",
                "operator:type": "government",
                "amenity": "school"
            }
        },
        {
            "id": 64296,
            "type": "Feature",
            "geometry": {
                "type": "Point",
                "coordinates": [
                    22.27724,
                    52.1725
                ]
            },
            "properties": {
                "ref:rspo": 64296,
                "official_name": "Miejskie Przedszkole Integracyjne Nr 20 w Siedlcach",
                "name": "Miejskie Przedszkole Integracyjne Nr 20 w Siedlcach",
                "addr:country": "PL",
                "addr:postcode": "08-110",
                "addr:city": "Siedlce",
                "addr:street": "ul. Osiedlowa",
                "addr:housenumber": "3",
                "addr:teryt:simc": 15300,
                "addr:teryt:sym_ul": 975173,
                "contact:phone": "+48 257943677",
                "contact:email": "osiedlowa@mpi20.siedlce.pl",
                "contact:website": "http:\/\/www.mpi20.siedlce.pl",
                "ref:regon": "142611788",
                "ref:vatin": "PL8212610150",
                "operator": "Miasto Siedlce",
                "operator:type": "government",
                "amenity": "kindergarten"
            }
        },
        {
            "id": 272994,
            "type": "Feature",
            "geometry": {
                "type": "Point",
                "coordinates": [
                    22.23918,
                    52.17264
                ]
            },
            "properties": {
                "ref:rspo": 272994,
                "official_name": "Katolickie Przedszkole \"Ogr\u00f3dek \u015aw. Franciszka\"",
                "name": "Katolickie Przedszkole \"Ogr\u00f3dek \u015aw. Franciszka\"",
                "addr:country": "PL",
                "addr:postcode": "08-103",
                "addr:city": "Siedlce",
                "addr:street": "ul. Feliksa H\u0142asko",
                "addr:housenumber": "53",
                "addr:teryt:simc": 31415,
                "addr:teryt:sym_ul": 975173,
                "contact:phone": "+48 538332802",
                "contact:email": "dyrektor@knp-ogrodek.pl",
                "contact:website": "http:\/\/www.knp-ogr\u00f3dek.pl",
                "ref:regon": "384348553",
                "operator": "Parafia Rzymskokatolicka P.w. B\u0142ogos\u0142awionych M\u0119czennik\u00f3w Podlaskich",
                "operator:type": "religious",
                "amenity": "kindergarten"
            }
        },
        {
            "id": 64294,
            "type": "Feature",
            "geometry": {
                "type": "Point",
                "coordinates": [
                    22.27637,
                    52.17272
                ]
            },
            "properties": {
                "ref:rspo": 64294,
                "official_name": "Miejskie Przedszkole Nr 15 w Siedlcach",
                "name": "Miejskie Przedszkole Nr 15 w Siedlcach",
                "addr:country": "PL",
                "addr:postcode": "08-110",
                "addr:city": "Siedlce",
                "addr:street": "ul. Osiedlowa",
                "addr:housenumber": "5",
                "addr:teryt:simc": 15300,
                "addr:teryt:sym_ul": 975173,
                "contact:phone": "+48 257943656",
                "contact:email": "przedszkole15@onet.pl",
                "contact:website": "http:\/\/www.mp15.siedlce.pl",
                "ref:regon": "142591347",
                "ref:vatin": "PL8212609939",
                "operator": "Miasto Siedlce",
                "operator:type": "government",
                "amenity": "kindergarten"
            }
        },
        {
            "id": 76288,
            "type": "Feature",
            "geometry": {
                "type": "Point",
                "coordinates": [
                    22.2728499,
                    52.1728
                ]
            },
            "properties": {
                "isced:level": "3",
                "ref:rspo": 76288,
                "official_name": "Niepubliczna Bran\u017cowa Szko\u0142a I Stopnia Zak\u0142adu Doskonalenia Zawodowego",
                "name": "Niepubliczna Bran\u017cowa Szko\u0142a I Stopnia Zak\u0142adu Doskonalenia Zawodowego",
                "addr:country": "PL",
                "addr:postcode": "08-110",
                "addr:city": "Siedlce",
                "addr:street": "ul. Soko\u0142owska",
                "addr:housenumber": "28",
                "addr:teryt:simc": 20500,
                "addr:teryt:sym_ul": 975173,
                "contact:phone": "+48 256326382",
                "contact:email": "info@zdz.siedlce.pl",
                "contact:website": "http:\/\/www.zdz.siedlce.pl",
                "ref:regon": "146451407",
                "operator": "Zak\u0142ad Doskonalenia Zawodowego W Warszawie",
                "operator:type": "ngo",
                "amenity": "school"
            }
        },
        {
            "id": 76289,
            "type": "Feature",
            "geometry": {
                "type": "Point",
                "coordinates": [
                    22.2728499,
                    52.17277
                ]
            },
            "properties": {
                "isced:level": "3",
                "ref:rspo": 76289,
                "official_name": "Niepubliczne Technikum Zawodowe Zak\u0142adu Doskonalenia Zawodowego",
                "name": "Niepubliczne Technikum Zawodowe Zak\u0142adu Doskonalenia Zawodowego",
                "addr:country": "PL",
                "addr:postcode": "08-110",
                "addr:city": "Siedlce",
                "addr:street": "ul. Soko\u0142owska",
                "addr:housenumber": "28",
                "addr:teryt:simc": 20500,
                "addr:teryt:sym_ul": 975173,
                "contact:phone": "+48 256326382",
                "contact:email": "info@zdz.siedlce.pl",
                "contact:website": "http:\/\/www.zdz.siedlce.pl",
                "ref:regon": "146439607",
                "operator": "Zak\u0142ad Doskonalenia Zawodowego W Warszawie",
                "operator:type": "ngo",
                "amenity": "school"
            }
        },
        {
            "id": 76291,
            "type": "Feature",
            "geometry": {
                "type": "Point",
                "coordinates": [
                    22.2728499,
                    52.172740000000005
                ]
            },
            "properties": {
                "isced:level": "4",
                "ref:rspo": 76291,
                "official_name": "Policealne Studium Zawodowe dla Doros\u0142ych Zak\u0142adu Doskonalenia Zawodowego",
                "name": "Policealne Studium Zawodowe dla Doros\u0142ych Zak\u0142adu Doskonalenia Zawodowego",
                "addr:country": "PL",
                "addr:postcode": "08-110",
                "addr:city": "Siedlce",
                "addr:street": "ul. Soko\u0142owska",
                "addr:housenumber": "28",
                "addr:teryt:simc": 20500,
                "addr:teryt:sym_ul": 975173,
                "contact:phone": "+48 256326382",
                "contact:email": "info@zdz.siedlce.pl",
                "contact:website": "http:\/\/www.zdz.siedlce.pl",
                "ref:regon": "146439754",
                "operator": "Zak\u0142ad Doskonalenia Zawodowego W Warszawie",
                "operator:type": "ngo",
                "amenity": "college"
            }
        },
        {
            "id": 76292,
            "type": "Feature",
            "geometry": {
                "type": "Point",
                "coordinates": [
                    22.2728499,
                    52.17271
                ]
            },
            "properties": {
                "ref:rspo": 76292,
                "official_name": "Zak\u0142ad Doskonalenia Zawodowego w Warszawie - Centrum Kszta\u0142cenia w Siedlcach",
                "name": "Zak\u0142ad Doskonalenia Zawodowego w Warszawie - Centrum Kszta\u0142cenia w Siedlcach",
                "addr:country": "PL",
                "addr:postcode": "08-110",
                "addr:city": "Siedlce",
                "addr:street": "ul. Soko\u0142owska",
                "addr:housenumber": "28",
                "addr:teryt:simc": 20500,
                "addr:teryt:sym_ul": 975173,
                "contact:phone": "+48 256326382",
                "contact:email": "info@zdz.siedlce.pl",
                "contact:website": "http:\/\/www.zdz.siedlce.pl",
                "ref:regon": "146439731",
                "operator": "Zak\u0142ad Doskonalenia Zawodowego W Warszawie",
                "operator:type": "ngo",
                "fixme": "w zale\u017cno\u015bci od przedmiotu dzia\u0142alno\u015bci (np. amenity=training + training=*, amenity=dancing_school, amenity=language_school, amenity=music_school)"
            }
        },
        {
            "id": 64584,
            "type": "Feature",
            "geometry": {
                "type": "Point",
                "coordinates": [
                    22.26786,
                    52.17283
                ]
            },
            "properties": {
                "ref:rspo": 64584,
                "official_name": "Zesp\u00f3\u0142 Szk\u00f3\u0142 Ponadgimnazjalnych Nr 2 im. Miko\u0142aja Kopernika w Siedlcach",
                "name": "Zesp\u00f3\u0142 Szk\u00f3\u0142 Ponadgimnazjalnych Nr 2",
                "addr:country": "PL",
                "addr:postcode": "08-110",
                "addr:city": "Siedlce",
                "addr:street": "ul. Krystyny Osi\u0144skiej",
                "addr:housenumber": "8",
                "addr:teryt:simc": 52215,
                "addr:teryt:sym_ul": 975173,
                "contact:phone": "+48 257943620",
                "contact:email": "zsp2siedlce@wp.pl",
                "contact:website": "http:\/\/www.zsp2siedlce.pl",
                "ref:regon": "000200733",
                "ref:vatin": "PL8211618008",
                "operator": "Miasto Siedlce",
                "operator:type": "government",
                "landuse": "education",
                "fixme": "amenity=school, amenity=college albo landuse=education w zale\u017cno\u015bci od tego, jakie plac\u00f3wki wchodz\u0105 w sk\u0142ad zespo\u0142u. Sprawd\u017a, kiedy stosowa\u0107 amenity=* a kiedy landuse=education.",
                "note": "Children RSPO: 103533;103535"
            }
        },
        {
            "id": 66142,
            "type": "Feature",
            "geometry": {
                "type": "Point",
                "coordinates": [
                    22.26786,
                    52.172799999999995
                ]
            },
            "properties": {
                "ref:rspo": 66142,
                "official_name": "Poradnia Psychologiczno-Pedagogiczna w Siedlcach",
                "name": "Poradnia Psychologiczno-Pedagogiczna w Siedlcach",
                "addr:country": "PL",
                "addr:postcode": "08-110",
                "addr:city": "Siedlce",
                "addr:street": "ul. Krystyny Osi\u0144skiej",
                "addr:housenumber": "6",
                "addr:teryt:simc": 52215,
                "addr:teryt:sym_ul": 975173,
                "contact:phone": "+48 257943304",
                "contact:email": "poradnia_siedlce@o2.pl",
                "contact:website": "http:\/\/poradnia.siedlce.pl",
                "ref:regon": "711563891",
                "ref:vatin": "PL8212044532",
                "operator": "Miasto Siedlce",
                "operator:type": "government",
                "healthcare": "counselling",
                "counselling_type": "education",
                "fixme": "w zale\u017cno\u015bci od przedmiotu dzia\u0142alno\u015bci (np. healthcare=counselling + counselling_type=education albo healthcare=psychotherapist)"
            }
        },
        {
            "id": 76286,
            "type": "Feature",
            "geometry": {
                "type": "Point",
                "coordinates": [
                    22.26786,
                    52.17277
                ]
            },
            "properties": {
                "ref:rspo": 76286,
                "official_name": "Samorz\u0105dowe Centrum Doradztwa I Doskonalenia Nauczycieli w Siedlcach",
                "name": "Samorz\u0105dowe Centrum Doradztwa I Doskonalenia Nauczycieli w Siedlcach",
                "addr:country": "PL",
                "addr:postcode": "08-110",
                "addr:city": "Siedlce",
                "addr:street": "ul. Krystyny Osi\u0144skiej",
                "addr:housenumber": "6",
                "addr:teryt:simc": 52215,
                "addr:teryt:sym_ul": 975173,
                "contact:phone": "+48 257943370",
                "contact:email": "scdidn@scdidn.siedlce.pl",
                "contact:website": "http:\/\/www.scdidn.siedlce.pl",
                "ref:regon": "712369620",
                "ref:vatin": "PL8212257475",
                "operator": "Miasto Siedlce",
                "operator:type": "government",
                "amenity": "training"
            }
        },
        {
            "id": 103533,
            "type": "Feature",
            "geometry": {
                "type": "Point",
                "coordinates": [
                    22.26786,
                    52.17274
                ]
            },
            "properties": {
                "isced:level": "3",
                "ref:rspo": 103533,
                "official_name": "Vi Liceum Og\u00f3lnokszta\u0142c\u0105ce w Siedlcach",
                "name": "Vi Liceum Og\u00f3lnokszta\u0142c\u0105ce w Siedlcach",
                "addr:country": "PL",
                "addr:postcode": "08-110",
                "addr:city": "Siedlce",
                "addr:street": "ul. Krystyny Osi\u0144skiej",
                "addr:housenumber": "8",
                "addr:teryt:simc": 52215,
                "addr:teryt:sym_ul": 975173,
                "contact:phone": "+48 257943620",
                "contact:email": "zsp2siedlce@wp.pl",
                "contact:website": "http:\/\/www.zsp2siedlce.pl",
                "ref:regon": "712486112",
                "operator": "Miasto Siedlce",
                "operator:type": "government",
                "amenity": "school",
                "note": "Parent RSPO: 64584"
            }
        },
        {
            "id": 103535,
            "type": "Feature",
            "geometry": {
                "type": "Point",
                "coordinates": [
                    22.26786,
                    52.172709999999995
                ]
            },
            "properties": {
                "isced:level": "3",
                "ref:rspo": 103535,
                "official_name": "Technikum Nr 2 w Siedlcach",
                "name": "Technikum Nr 2 w Siedlcach",
                "addr:country": "PL",
                "addr:postcode": "08-110",
                "addr:city": "Siedlce",
                "addr:street": "ul. Krystyny Osi\u0144skiej",
                "addr:housenumber": "8",
                "addr:teryt:simc": 52215,
                "addr:teryt:sym_ul": 975173,
                "contact:phone": "+48 257943620",
                "contact:email": "zsp2siedlce@wp.pl",
                "contact:website": "http:\/\/www.zsp2siedlce.pl",
                "ref:regon": "140275381",
                "operator": "Miasto Siedlce",
                "operator:type": "government",
                "amenity": "school",
                "note": "Parent RSPO: 64584"
            }
        },
        {
            "id": 70450,
            "type": "Feature",
            "geometry": {
                "type": "Point",
                "coordinates": [
                    22.27326,
                    52.17319
                ]
            },
            "properties": {
                "ref:rspo": 70450,
                "official_name": "Niepubliczne Przedszkole \"S\u0142oneczna Dolina\" w Siedlcach",
                "name": "Niepubliczne Przedszkole \"S\u0142oneczna Dolina\" w Siedlcach",
                "addr:country": "PL",
                "addr:postcode": "08-110",
                "addr:city": "Siedlce",
                "addr:street": "ul. Soko\u0142owska",
                "addr:housenumber": "30",
                "addr:teryt:simc": 20500,
                "addr:teryt:sym_ul": 975173,
                "contact:phone": "+48 256443931",
                "contact:email": "sloneczna1234@interia.pl",
                "ref:regon": "146396520",
                "operator": "Monika Polak",
                "operator:type": "private",
                "amenity": "kindergarten"
            }
        },
        {
            "id": 132125,
            "type": "Feature",
            "geometry": {
                "type": "Point",
                "coordinates": [
                    22.29746,
                    52.17359
                ]
            },
            "properties": {
                "ref:rspo": 132125,
                "official_name": "Szkolne Schronisko M\u0142odzie\u017cowe w Zespole Szk\u00f3\u0142 Ponadgimnazjalnych Nr 4 w Siedlcach",
                "name": "Szkolne Schronisko M\u0142odzie\u017cowe w Zespole Szk\u00f3\u0142 Ponadgimnazjalnych Nr 4 w Siedlcach",
                "addr:country": "PL",
                "addr:postcode": "08-110",
                "addr:city": "Siedlce",
                "addr:street": "ul. Kazimierzowska",
                "addr:housenumber": "23",
                "addr:teryt:simc": 8268,
                "addr:teryt:sym_ul": 975173,
                "contact:phone": "+48 257943640",
                "contact:email": "dyrektor@zspnr4.com.pl",
                "contact:website": "http:\/\/www.zspnr4.com.pl",
                "ref:regon": "365484742",
                "operator": "Miasto Siedlce",
                "operator:type": "government",
                "tourism": "hostel",
                "note": "Parent RSPO: 64759"
            }
        },
        {
            "id": 76285,
            "type": "Feature",
            "geometry": {
                "type": "Point",
                "coordinates": [
                    22.29792,
                    52.17392
                ]
            },
            "properties": {
                "ref:rspo": 76285,
                "official_name": "Specjalny O\u015brodek Szkolno-Wychowawczy im. Marii Grzegorzewskiej w Siedlcach",
                "name": "Specjalny O\u015brodek Szkolno-Wychowawczy",
                "addr:country": "PL",
                "addr:postcode": "08-110",
                "addr:city": "Siedlce",
                "addr:street": "ul. Kazimierzowska",
                "addr:housenumber": "23 A",
                "addr:teryt:simc": 8268,
                "addr:teryt:sym_ul": 975173,
                "contact:phone": "+48 257943287",
                "contact:email": "soszw@soszw.siedlce.pl",
                "contact:website": "http:\/\/www.soszw.siedlce.pl",
                "ref:regon": "000243777",
                "ref:vatin": "PL8211066856",
                "operator": "Miasto Siedlce",
                "operator:type": "government",
                "amenity": "school",
                "note": "Children RSPO: 105788;105790;105792"
            }
        },
        {
            "id": 105788,
            "type": "Feature",
            "geometry": {
                "type": "Point",
                "coordinates": [
                    22.29792,
                    52.17389
                ]
            },
            "properties": {
                "isced:level": "1;2",
                "ref:rspo": 105788,
                "official_name": "Szko\u0142a Podstawowa Specjalna w Siedlcach",
                "name": "Szko\u0142a Podstawowa Specjalna w Siedlcach",
                "addr:country": "PL",
                "addr:postcode": "08-110",
                "addr:city": "Siedlce",
                "addr:street": "ul. Kazimierzowska",
                "addr:housenumber": "23A",
                "addr:teryt:simc": 8268,
                "addr:teryt:sym_ul": 975173,
                "contact:phone": "+48 257943287",
                "contact:email": "soszw@soszw.siedlce.pl",
                "contact:website": "http:\/\/www.soszw.siedlce.pl",
                "ref:regon": "000891163",
                "operator": "Miasto Siedlce",
                "operator:type": "government",
                "amenity": "school",
                "note": "Parent RSPO: 76285"
            }
        },
        {
            "id": 105790,
            "type": "Feature",
            "geometry": {
                "type": "Point",
                "coordinates": [
                    22.29792,
                    52.173860000000005
                ]
            },
            "properties": {
                "isced:level": "3",
                "ref:rspo": 105790,
                "official_name": "Bran\u017cowa Szko\u0142a I Stopnia Specjalna w Siedlcach",
                "name": "Bran\u017cowa Szko\u0142a I Stopnia Specjalna w Siedlcach",
                "addr:country": "PL",
                "addr:postcode": "08-110",
                "addr:city": "Siedlce",
                "addr:street": "ul. Kazimierzowska",
                "addr:housenumber": "23A",
                "addr:teryt:simc": 8268,
                "addr:teryt:sym_ul": 975173,
                "contact:phone": "+48 257943287",
                "contact:email": "soszw@soszw.siedlce.pl",
                "contact:website": "http:\/\/www.soszw.siedlce.pl",
                "ref:regon": "000201052",
                "operator": "Miasto Siedlce",
                "operator:type": "government",
                "amenity": "school",
                "note": "Parent RSPO: 76285"
            }
        },
        {
            "id": 105792,
            "type": "Feature",
            "geometry": {
                "type": "Point",
                "coordinates": [
                    22.29792,
                    52.17383
                ]
            },
            "properties": {
                "ref:rspo": 105792,
                "official_name": "Szko\u0142a Specjalna Przyspasabiaj\u0105ca Do Pracy",
                "name": "Szko\u0142a Specjalna Przyspasabiaj\u0105ca Do Pracy",
                "addr:country": "PL",
                "addr:postcode": "08-110",
                "addr:city": "Siedlce",
                "addr:street": "ul. Kazimierzowska",
                "addr:housenumber": "23A",
                "addr:teryt:simc": 8268,
                "addr:teryt:sym_ul": 975173,
                "contact:phone": "+48 257943287",
                "contact:email": "soszw@soszw.siedlce.pl",
                "contact:website": "http:\/\/www.soszw.siedlce.pl",
                "ref:regon": "141102903",
                "operator": "Miasto Siedlce",
                "operator:type": "government",
                "amenity": "school",
                "note": "Parent RSPO: 76285"
            }
        },
        {
            "id": 70550,
            "type": "Feature",
            "geometry": {
                "type": "Point",
                "coordinates": [
                    22.2718,
                    52.17397
                ]
            },
            "properties": {
                "isced:level": "4",
                "ref:rspo": 70550,
                "official_name": "Szko\u0142a Policealna Twp w Siedlcach",
                "name": "Szko\u0142a Policealna Twp w Siedlcach",
                "addr:country": "PL",
                "addr:postcode": "08-110",
                "addr:city": "Siedlce",
                "addr:street": "ul. Soko\u0142owska",
                "addr:housenumber": "37",
                "addr:teryt:simc": 20500,
                "addr:teryt:sym_ul": 975173,
                "contact:phone": "+48 256447690",
                "contact:email": "biuro@twp.siedlce.pl",
                "contact:website": "http:\/\/www.twp.siedlce.pl",
                "ref:regon": "146442408",
                "operator": "Towarzystwo Wiedzy Powszechnej Oddzia\u0142 Regionalny W Siedlcach",
                "operator:type": "ngo",
                "amenity": "college"
            }
        },
        {
            "id": 75035,
            "type": "Feature",
            "geometry": {
                "type": "Point",
                "coordinates": [
                    22.2718,
                    52.173939999999995
                ]
            },
            "properties": {
                "isced:level": "3",
                "ref:rspo": 75035,
                "official_name": "Liceum Og\u00f3lnokszta\u0142c\u0105ce dla Doros\u0142ych Towarzystwa Wiedzy Powszechnej w Siedlcach",
                "name": "Liceum Og\u00f3lnokszta\u0142c\u0105ce dla Doros\u0142ych Towarzystwa Wiedzy Powszechnej w Siedlcach",
                "addr:country": "PL",
                "addr:postcode": "08-110",
                "addr:city": "Siedlce",
                "addr:street": "ul. Soko\u0142owska",
                "addr:housenumber": "37",
                "addr:teryt:simc": 20500,
                "addr:teryt:sym_ul": 975173,
                "contact:phone": "+48 256447690",
                "contact:email": "biuro@twp.siedlce.pl",
                "contact:website": "http:\/\/www.twp.siedlce.net",
                "ref:regon": "146451011",
                "operator": "Towarzystwo Wiedzy Powszechnej Oddzia\u0142 Regionalny W Siedlcach",
                "operator:type": "ngo",
                "amenity": "school"
            }
        },
        {
            "id": 64660,
            "type": "Feature",
            "geometry": {
                "type": "Point",
                "coordinates": [
                    22.26977,
                    52.17441
                ]
            },
            "properties": {
                "ref:rspo": 64660,
                "official_name": "Zesp\u00f3\u0142 Szk\u00f3\u0142 Ponadgimnazjalnych Nr 3 im. Stanis\u0142awa Staszica w Siedlcach",
                "name": "Zesp\u00f3\u0142 Szk\u00f3\u0142 Ponadgimnazjalnych Nr 3",
                "addr:country": "PL",
                "addr:postcode": "08-110",
                "addr:city": "Siedlce",
                "addr:street": "ul. Ksi\u0119dza Jerzego Popie\u0142uszki",
                "addr:housenumber": "8",
                "addr:teryt:simc": 39974,
                "addr:teryt:sym_ul": 975173,
                "contact:phone": "+48 257943480",
                "contact:email": "zsp3@zsp3.siedlce.pl",
                "contact:website": "http:\/\/www.zsp3.siedlce.pl",
                "ref:regon": "000200934",
                "ref:vatin": "PL8211046807",
                "operator": "Miasto Siedlce",
                "operator:type": "government",
                "landuse": "education",
                "fixme": "amenity=school, amenity=college albo landuse=education w zale\u017cno\u015bci od tego, jakie plac\u00f3wki wchodz\u0105 w sk\u0142ad zespo\u0142u. Sprawd\u017a, kiedy stosowa\u0107 amenity=* a kiedy landuse=education.",
                "note": "Children RSPO: 103541;104852;105256"
            }
        },
        {
            "id": 103541,
            "type": "Feature",
            "geometry": {
                "type": "Point",
                "coordinates": [
                    22.26977,
                    52.17438
                ]
            },
            "properties": {
                "isced:level": "3",
                "ref:rspo": 103541,
                "official_name": "Viii Liceum Og\u00f3lnokszta\u0142c\u0105ce Z Oddzia\u0142ami Integracyjnymi",
                "name": "Viii Liceum Og\u00f3lnokszta\u0142c\u0105ce Z Oddzia\u0142ami Integracyjnymi",
                "addr:country": "PL",
                "addr:postcode": "08-110",
                "addr:city": "Siedlce",
                "addr:street": "ul. Ksi\u0119dza Jerzego Popie\u0142uszki",
                "addr:housenumber": "8",
                "addr:teryt:simc": 39974,
                "addr:teryt:sym_ul": 975173,
                "contact:phone": "+48 257943480",
                "contact:email": "zsp3@zsp3.siedlce.pl",
                "contact:website": "http:\/\/www.zsp3.siedlce.pl",
                "ref:regon": "712485006",
                "operator": "Miasto Siedlce",
                "operator:type": "government",
                "amenity": "school",
                "note": "Parent RSPO: 64660"
            }
        },
        {
            "id": 104852,
            "type": "Feature",
            "geometry": {
                "type": "Point",
                "coordinates": [
                    22.26977,
                    52.174350000000004
                ]
            },
            "properties": {
                "isced:level": "3",
                "ref:rspo": 104852,
                "official_name": "Technikum Nr 3 Z Oddzia\u0142ami Integracyjnymi w Siedlcach",
                "name": "Technikum Nr 3 Z Oddzia\u0142ami Integracyjnymi w Siedlcach",
                "addr:country": "PL",
                "addr:postcode": "08-110",
                "addr:city": "Siedlce",
                "addr:street": "ul. Ksi\u0119dza Jerzego Popie\u0142uszki",
                "addr:housenumber": "8",
                "addr:teryt:simc": 39974,
                "addr:teryt:sym_ul": 975173,
                "contact:phone": "+48 257943480",
                "contact:email": "zsp3@zsp3.siedlce.pl",
                "contact:website": "http:\/\/www.zsp3.siedlce.pl",
                "ref:regon": "712571869",
                "operator": "Miasto Siedlce",
                "operator:type": "government",
                "amenity": "school",
                "note": "Parent RSPO: 64660"
            }
        },
        {
            "id": 105256,
            "type": "Feature",
            "geometry": {
                "type": "Point",
                "coordinates": [
                    22.26977,
                    52.17432
                ]
            },
            "properties": {
                "isced:level": "3",
                "ref:rspo": 105256,
                "official_name": "Bran\u017cowa Szko\u0142a I Stopnia Nr 3 Z Oddzia\u0142ami Integracyjnymi w Zespole Szk\u00f3\u0142 Ponadgimnazjalnych Nr 3 im. Stanis\u0142awa Staszica w Siedlcach",
                "name": "Bran\u017cowa Szko\u0142a I Stopnia Nr 3 Z Oddzia\u0142ami Integracyjnymi w Zespole Szk\u00f3\u0142 Ponadgimnazjalnych Nr 3",
                "addr:country": "PL",
                "addr:postcode": "08-110",
                "addr:city": "Siedlce",
                "addr:street": "ul. Ksi\u0119dza Jerzego Popie\u0142uszki",
                "addr:housenumber": "8",
                "addr:teryt:simc": 39974,
                "addr:teryt:sym_ul": 975173,
                "contact:phone": "+48 257943480",
                "contact:email": "zsp3@zsp3.siedlce.pl",
                "contact:website": "http:\/\/www.zsp3.siedlce.pl",
                "ref:regon": "712484870",
                "operator": "Miasto Siedlce",
                "operator:type": "government",
                "amenity": "school",
                "note": "Parent RSPO: 64660"
            }
        },
        {
            "id": 70441,
            "type": "Feature",
            "geometry": {
                "type": "Point",
                "coordinates": [
                    22.28059,
                    52.1748199
                ]
            },
            "properties": {
                "isced:level": "1;2",
                "ref:rspo": 70441,
                "official_name": "Szko\u0142a Podstawowa Nr 11 im. Jana Paw\u0142a II w Siedlcach",
                "name": "Szko\u0142a Podstawowa Nr 11",
                "addr:country": "PL",
                "addr:postcode": "08-110",
                "addr:city": "Siedlce",
                "addr:street": "ul. Wi\u015bniowa",
                "addr:housenumber": "5",
                "addr:teryt:simc": 24412,
                "addr:teryt:sym_ul": 975173,
                "contact:phone": "+48 257943681",
                "contact:email": "sekretariat@sp11.siedlce.pl",
                "contact:website": "http:\/\/www.sp11siedlce.pl",
                "ref:regon": "001104380",
                "ref:vatin": "PL8211046428",
                "operator": "Miasto Siedlce",
                "operator:type": "government",
                "amenity": "school"
            }
        },
        {
            "id": 268600,
            "type": "Feature",
            "geometry": {
                "type": "Point",
                "coordinates": [
                    22.2829799,
                    52.17501
                ]
            },
            "properties": {
                "ref:rspo": 268600,
                "official_name": "Niepubliczne Przedszkole \"Mali Arty\u015bci\" Iwona Lipi\u0144ska",
                "name": "Niepubliczne Przedszkole \"Mali Arty\u015bci\" Iwona Lipi\u0144ska",
                "addr:country": "PL",
                "addr:postcode": "08-110",
                "addr:city": "Siedlce",
                "addr:street": "ul. Boles\u0142awa Prusa",
                "addr:housenumber": "46",
                "addr:teryt:simc": 17577,
                "addr:teryt:sym_ul": 975173,
                "contact:phone": "+48 533801300",
                "contact:email": "maliartyscisiedlce@gmail.com",
                "contact:website": "http:\/\/www.maliartysci-siedlce.pl",
                "ref:regon": "381211552",
                "operator": "Iwona Lipi\u0144ska",
                "operator:type": "private",
                "amenity": "kindergarten"
            }
        },
        {
            "id": 76044,
            "type": "Feature",
            "geometry": {
                "type": "Point",
                "coordinates": [
                    22.27152,
                    52.17513
                ]
            },
            "properties": {
                "isced:level": "3",
                "ref:rspo": 76044,
                "official_name": "Zaoczne Liceum Og\u00f3lnokszta\u0142c\u0105ce \"Cosinus\" w Siedlcach",
                "name": "Zaoczne Liceum Og\u00f3lnokszta\u0142c\u0105ce \"Cosinus\" w Siedlcach",
                "addr:country": "PL",
                "addr:postcode": "08-110",
                "addr:city": "Siedlce",
                "addr:street": "ul. Soko\u0142owska",
                "addr:housenumber": "47",
                "addr:teryt:simc": 20500,
                "addr:teryt:sym_ul": 975173,
                "contact:phone": "+48 256325579",
                "contact:email": "siedlce@cosinus.pl",
                "contact:website": "http:\/\/www.cosinus.pl",
                "ref:regon": "146451070",
                "operator": "\"Fundacja Equamp-Fiz\"",
                "operator:type": "ngo",
                "amenity": "school"
            }
        },
        {
            "id": 76046,
            "type": "Feature",
            "geometry": {
                "type": "Point",
                "coordinates": [
                    22.27152,
                    52.1751
                ]
            },
            "properties": {
                "isced:level": "4",
                "ref:rspo": 76046,
                "official_name": "Szko\u0142a Policealna \"Cosinus\" w Siedlcach",
                "name": "Szko\u0142a Policealna \"Cosinus\" w Siedlcach",
                "addr:country": "PL",
                "addr:postcode": "08-110",
                "addr:city": "Siedlce",
                "addr:street": "ul. Soko\u0142owska",
                "addr:housenumber": "47",
                "addr:teryt:simc": 20500,
                "addr:teryt:sym_ul": 975173,
                "contact:phone": "+48 256325579",
                "contact:email": "siedlce@cosinus.pl",
                "contact:website": "http:\/\/www.cosinus.pl",
                "ref:regon": "146451264",
                "operator": "\"Fundacja Equamp-Fiz\"",
                "operator:type": "ngo",
                "amenity": "college"
            }
        },
        {
            "id": 76048,
            "type": "Feature",
            "geometry": {
                "type": "Point",
                "coordinates": [
                    22.27152,
                    52.175070000000005
                ]
            },
            "properties": {
                "isced:level": "4",
                "ref:rspo": 76048,
                "official_name": "Policealna Szko\u0142a \"Cosinus I\" w Siedlcach",
                "name": "Policealna Szko\u0142a \"Cosinus I\" w Siedlcach",
                "addr:country": "PL",
                "addr:postcode": "08-110",
                "addr:city": "Siedlce",
                "addr:street": "ul. Soko\u0142owska",
                "addr:housenumber": "47",
                "addr:teryt:simc": 20500,
                "addr:teryt:sym_ul": 975173,
                "contact:phone": "+48 256325579",
                "contact:email": "siedlce@cosinus.pl",
                "contact:website": "http:\/\/www.cosinus.pl",
                "ref:regon": "146439719",
                "operator": "\"Fundacja Equamp-Fiz\"",
                "operator:type": "ngo",
                "amenity": "college"
            }
        },
        {
            "id": 76294,
            "type": "Feature",
            "geometry": {
                "type": "Point",
                "coordinates": [
                    22.27152,
                    52.17504
                ]
            },
            "properties": {
                "isced:level": "4",
                "ref:rspo": 76294,
                "official_name": "Szko\u0142a Policealna \"Cosinus II\" w Siedlcach",
                "name": "Szko\u0142a Policealna \"Cosinus II\" w Siedlcach",
                "addr:country": "PL",
                "addr:postcode": "08-110",
                "addr:city": "Siedlce",
                "addr:street": "ul. Soko\u0142owska",
                "addr:housenumber": "47",
                "addr:teryt:simc": 20500,
                "addr:teryt:sym_ul": 975173,
                "contact:phone": "+48 256325579",
                "contact:email": "siedlce@cosinus.pl",
                "contact:website": "http:\/\/www.cosinus.pl",
                "ref:regon": "146464427",
                "operator": "\"Fundacja Equamp-Fiz\"",
                "operator:type": "ngo",
                "amenity": "college"
            }
        },
        {
            "id": 272021,
            "type": "Feature",
            "geometry": {
                "type": "Point",
                "coordinates": [
                    22.27152,
                    52.17501
                ]
            },
            "properties": {
                "ref:rspo": 272021,
                "official_name": "Niepubliczna Poradnia Psychologiczno - Pedagogiczna \"Niezapominajka\" w Siedlcach",
                "name": "Niepubliczna Poradnia Psychologiczno - Pedagogiczna \"Niezapominajka\" w Siedlcach",
                "addr:country": "PL",
                "addr:postcode": "08-110",
                "addr:city": "Siedlce",
                "addr:street": "ul. Soko\u0142owska",
                "addr:housenumber": "47",
                "addr:teryt:simc": 20500,
                "addr:teryt:sym_ul": 975173,
                "contact:phone": "+48 508377753",
                "contact:email": "biuro@niezapominajka.siedlce.pl",
                "contact:website": "http:\/\/niezapominajka.siedlce.pl",
                "ref:regon": "383875598",
                "operator": "Katarzyna Tarasiuk",
                "operator:type": "private",
                "healthcare": "counselling",
                "counselling_type": "education",
                "fixme": "w zale\u017cno\u015bci od przedmiotu dzia\u0142alno\u015bci (np. healthcare=counselling + counselling_type=education albo healthcare=psychotherapist)"
            }
        },
        {
            "id": 272859,
            "type": "Feature",
            "geometry": {
                "type": "Point",
                "coordinates": [
                    22.27256,
                    52.17524
                ]
            },
            "properties": {
                "ref:rspo": 272859,
                "official_name": "Niepubliczna Szko\u0142a Sztuki Ta\u0144ca w Siedlcach",
                "name": "Niepubliczna Szko\u0142a Sztuki Ta\u0144ca w Siedlcach",
                "addr:country": "PL",
                "addr:postcode": "08-110",
                "addr:city": "Siedlce",
                "addr:street": "ul. Rynkowa",
                "addr:housenumber": "24",
                "addr:teryt:simc": 19285,
                "addr:teryt:sym_ul": 975173,
                "contact:phone": "+48 256444966",
                "contact:email": "carodance@carodance.pl",
                "contact:website": "http:\/\/carodance.pl",
                "ref:regon": "384307991",
                "operator": "Stowarzyszenie Taneczne Caro Dance",
                "operator:type": "ngo",
                "amenity": "dancing_school"
            }
        },
        {
            "id": 64283,
            "type": "Feature",
            "geometry": {
                "type": "Point",
                "coordinates": [
                    22.27309,
                    52.17718
                ]
            },
            "properties": {
                "ref:rspo": 64283,
                "official_name": "Miejskie Przedszkole Nr 3 w Siedlcach",
                "name": "Miejskie Przedszkole Nr 3 w Siedlcach",
                "addr:country": "PL",
                "addr:postcode": "08-110",
                "addr:city": "Siedlce",
                "addr:street": "ul. Stefana Batorego",
                "addr:housenumber": "4",
                "addr:teryt:simc": 891,
                "addr:teryt:sym_ul": 975173,
                "contact:phone": "+48 257943546",
                "contact:email": "przed3@siedlce.home.pl",
                "contact:website": "http:\/\/www.mp3.siedlce.pl",
                "ref:regon": "142613149",
                "ref:vatin": "PL8212609879",
                "operator": "Miasto Siedlce",
                "operator:type": "government",
                "amenity": "kindergarten"
            }
        },
        {
            "id": 73849,
            "type": "Feature",
            "geometry": {
                "type": "Point",
                "coordinates": [
                    22.26574,
                    52.17788
                ]
            },
            "properties": {
                "ref:rspo": 73849,
                "official_name": "Niepubliczne Przedszkole \"Akademia Maluszka\"",
                "name": "Niepubliczne Przedszkole \"Akademia Maluszka\"",
                "addr:country": "PL",
                "addr:postcode": "08-110",
                "addr:city": "Siedlce",
                "addr:street": "ul. Nowy \u015awiat",
                "addr:housenumber": "4",
                "addr:teryt:simc": 14535,
                "addr:teryt:sym_ul": 975173,
                "contact:phone": "+48 607351113",
                "contact:email": "akademiamaluszka@poczta.fm",
                "contact:website": "http:\/\/www.akademiamaluszka.eprzedszkola.pl",
                "ref:regon": "146403124",
                "operator": "Magdalena Skorupka",
                "operator:type": "private",
                "amenity": "kindergarten"
            }
        },
        {
            "id": 64380,
            "type": "Feature",
            "geometry": {
                "type": "Point",
                "coordinates": [
                    22.27453,
                    52.18037
                ]
            },
            "properties": {
                "isced:level": "1;2",
                "ref:rspo": 64380,
                "official_name": "Szko\u0142a Podstawowa Nr 9 im. Henryka Sienkiewicza w Siedlcach",
                "name": "Szko\u0142a Podstawowa Nr 9",
                "addr:country": "PL",
                "addr:postcode": "08-110",
                "addr:city": "Siedlce",
                "addr:street": "ul. Graniczna",
                "addr:housenumber": "1",
                "addr:teryt:simc": 6075,
                "addr:teryt:sym_ul": 975173,
                "contact:phone": "+48 257943531",
                "contact:email": "sekretariat@sp9.siedlce.pl",
                "contact:website": "http:\/\/www.sp9.siedlce.pl",
                "ref:regon": "001080509",
                "ref:vatin": "PL8212369688",
                "operator": "Miasto Siedlce",
                "operator:type": "government",
                "amenity": "school"
            }
        },
        {
            "id": 64299,
            "type": "Feature",
            "geometry": {
                "type": "Point",
                "coordinates": [
                    22.2807299,
                    52.18042
                ]
            },
            "properties": {
                "ref:rspo": 64299,
                "official_name": "Miejskie Przedszkole Nr 25 w Siedlcach",
                "name": "Miejskie Przedszkole Nr 25 w Siedlcach",
                "addr:country": "PL",
                "addr:postcode": "08-110",
                "addr:city": "Siedlce",
                "addr:street": "ul. Stefana Okrzei",
                "addr:housenumber": "22",
                "addr:teryt:simc": 14914,
                "addr:teryt:sym_ul": 975173,
                "contact:phone": "+48 257943427",
                "contact:email": "mp25@post.pl",
                "contact:website": "http:\/\/www.mp25.siedlce.pl",
                "ref:regon": "142611825",
                "ref:vatin": "PL8212611994",
                "operator": "Miasto Siedlce",
                "operator:type": "government",
                "amenity": "kindergarten"
            }
        },
        {
            "id": 70020,
            "type": "Feature",
            "geometry": {
                "type": "Point",
                "coordinates": [
                    22.28235,
                    52.18219
                ]
            },
            "properties": {
                "isced:level": "1;2",
                "ref:rspo": 70020,
                "official_name": "Spo\u0142eczna Szko\u0142a Podstawowa Spo\u0142ecznego Towarzystwa O\u015bwiatowego w Siedlcach",
                "name": "Spo\u0142eczna Szko\u0142a Podstawowa Spo\u0142ecznego Towarzystwa O\u015bwiatowego w Siedlcach",
                "addr:country": "PL",
                "addr:postcode": "08-110",
                "addr:city": "Siedlce",
                "addr:street": "ul. J\u00f3zefa Mireckiego",
                "addr:housenumber": "28",
                "addr:teryt:simc": 13004,
                "addr:teryt:sym_ul": 975173,
                "contact:phone": "+48 256328118",
                "contact:email": "sspsto_sekretariat@wp.pl",
                "contact:website": "http:\/\/www.stosiedlce.pl",
                "ref:regon": "146438625",
                "operator": "Samodzielne Ko\u0142o Terenowe Nr 161 Spo\u0142ecznego Towarzystwa O\u015bwiatowego",
                "operator:type": "ngo",
                "amenity": "school"
            }
        },
        {
            "id": 70461,
            "type": "Feature",
            "geometry": {
                "type": "Point",
                "coordinates": [
                    22.27268,
                    52.18285
                ]
            },
            "properties": {
                "ref:rspo": 70461,
                "official_name": "Przedszkole Niepubliczne \"Ma\u0142y Europejczyk\"",
                "name": "Przedszkole Niepubliczne \"Ma\u0142y Europejczyk\"",
                "addr:country": "PL",
                "addr:postcode": "08-110",
                "addr:city": "Siedlce",
                "addr:street": "ul. Boles\u0142awa Chrobrego",
                "addr:housenumber": "13",
                "addr:teryt:simc": 1742,
                "addr:teryt:sym_ul": 975173,
                "contact:phone": "+48 257553110",
                "contact:email": "biuro@malyeuropejczyk.com",
                "contact:website": "http:\/\/www.malyeuropejczyk.com",
                "ref:regon": "146399026",
                "operator": "Dane Do Uzupe\u0142nienia",
                "operator:type": "private",
                "amenity": "kindergarten"
            }
        },
        {
            "id": 64293,
            "type": "Feature",
            "geometry": {
                "type": "Point",
                "coordinates": [
                    22.27242,
                    52.1838399
                ]
            },
            "properties": {
                "ref:rspo": 64293,
                "official_name": "Miejskie Przedszkole Nr 14 w Siedlcach",
                "name": "Miejskie Przedszkole Nr 14 w Siedlcach",
                "addr:country": "PL",
                "addr:postcode": "08-110",
                "addr:city": "Siedlce",
                "addr:street": "ul. Mieszka I",
                "addr:housenumber": "12",
                "addr:teryt:simc": 12832,
                "addr:teryt:sym_ul": 975173,
                "contact:phone": "+48 257943637",
                "contact:email": "przedszkole14siedlce@poczta.onet.pl",
                "contact:website": "http:\/\/www.przedszkole14.siedlce.edu.pl",
                "ref:regon": "142609662",
                "ref:vatin": "PL8212610138",
                "operator": "Miasto Siedlce",
                "operator:type": "government",
                "amenity": "kindergarten"
            }
        },
        {
            "id": 68720,
            "type": "Feature",
            "geometry": {
                "type": "Point",
                "coordinates": [
                    22.26689,
                    52.19117
                ]
            },
            "properties": {
                "isced:level": "1;2",
                "ref:rspo": 68720,
                "official_name": "Katolicka Szko\u0142a Podstawowa im. B\u0142. Ks. Jerzego Popie\u0142uszki w Siedlcach",
                "name": "Katolicka Szko\u0142a Podstawowa",
                "addr:country": "PL",
                "addr:postcode": "08-110",
                "addr:city": "Siedlce",
                "addr:street": "ul. Soko\u0142owska",
                "addr:housenumber": "172",
                "addr:teryt:simc": 20500,
                "addr:teryt:sym_ul": 975173,
                "contact:phone": "+48 257533084",
                "contact:email": "sekretariat@kspsiedlce.pl",
                "contact:website": "http:\/\/www.kspig.pl",
                "ref:regon": "146433510",
                "operator": "Diecezja Siedlecka Kuria Diecezjalna W Siedlcach",
                "operator:type": "religious",
                "amenity": "school"
            }
        }
    ]
}