{
    "type": "FeatureCollection",
    "features": [
        {
            "id": 87183,
            "type": "Feature",
            "geometry": {
                "type": "Point",
                "coordinates": [
                    15.95025,
                    51.23312
                ]
            },
            "properties": {
                "isced:level": "1;2",
                "ref:rspo": 87183,
                "official_name": "Szko\u0142a Podstawowa im. Jana Brzechwy w Budziwojowie",
                "name": "Szko\u0142a Podstawowa",
                "addr:postcode": "59-225",
                "addr:place": "Budziwoj\u00f3w",
                "addr:housenumber": "21a",
                "addr:teryt:simc": 363323,
                "phone": "+48 768186649",
                "email": "spbudziwojow@gmina-chojnow.pl",
                "website": "https:\/\/spbudziwojow.edupage.org",
                "ref:regon": "001239996",
                "ref:vatin": "PL6912093052",
                "operator": "Gmina Chojn\u00f3w",
                "operator:type": "government",
                "amenity": "school"
            }
        },
        {
            "id": 80570,
            "type": "Feature",
            "geometry": {
                "type": "Point",
                "coordinates": [
                    15.78619,
                    51.2547
                ]
            },
            "properties": {
                "isced:level": "1;2",
                "ref:rspo": 80570,
                "official_name": "Szko\u0142a Podstawowa w Okmianach",
                "name": "Szko\u0142a Podstawowa w Okmianach",
                "addr:postcode": "59-225",
                "addr:place": "Okmiany",
                "addr:housenumber": "65",
                "addr:teryt:simc": 363501,
                "phone": "+48 768188926",
                "email": "spokmiany@gmina-chojnow.pl",
                "ref:regon": "001240628",
                "operator": "Gmina Chojn\u00f3w",
                "operator:type": "government",
                "amenity": "school"
            }
        },
        {
            "id": 104744,
            "type": "Feature",
            "geometry": {
                "type": "Point",
                "coordinates": [
                    15.8118,
                    51.2802999
                ]
            },
            "properties": {
                "isced:level": "1;2",
                "ref:rspo": 104744,
                "official_name": "Szko\u0142a Podstawowa w Krzywej im. 10 Brygady Kawalerii Pancernej",
                "name": "Szko\u0142a Podstawowa w Krzywej",
                "addr:postcode": "59-225",
                "addr:place": "Krzywa",
                "addr:housenumber": "52",
                "addr:teryt:simc": 363464,
                "phone": "+48 768188958",
                "email": "spkrzywa@gmina-chojnow.pl",
                "ref:regon": "001249724",
                "ref:vatin": "PL6941371157",
                "operator": "Gmina Chojn\u00f3w",
                "operator:type": "government",
                "amenity": "school"
            }
        },
        {
            "id": 107659,
            "type": "Feature",
            "geometry": {
                "type": "Point",
                "coordinates": [
                    15.8118,
                    51.2802699
                ]
            },
            "properties": {
                "ref:rspo": 107659,
                "official_name": "Punkt Przedszkolny w Krzywej",
                "name": "Punkt Przedszkolny w Krzywej",
                "addr:postcode": "59-225",
                "addr:place": "Krzywa",
                "addr:housenumber": "52",
                "addr:teryt:simc": 363464,
                "phone": "+48 768188958",
                "email": "spkrzywa@gmina-chojnow.pl",
                "ref:regon": "022062627",
                "operator": "Gmina Chojn\u00f3w",
                "operator:type": "government",
                "amenity": "kindergarten"
            }
        },
        {
            "id": 104261,
            "type": "Feature",
            "geometry": {
                "type": "Point",
                "coordinates": [
                    15.98371,
                    51.2816
                ]
            },
            "properties": {
                "ref:rspo": 104261,
                "official_name": "Punkt Przedszkolny w Goliszowie",
                "name": "Punkt Przedszkolny w Goliszowie",
                "addr:postcode": "59-225",
                "addr:place": "Golisz\u00f3w",
                "addr:housenumber": "35",
                "addr:teryt:simc": 363381,
                "phone": "+48 768186910",
                "email": "spniedzwiedzce@gmina-chojnow.pl",
                "ref:regon": "022031058",
                "operator": "Gmina Chojn\u00f3w",
                "operator:type": "government",
                "amenity": "kindergarten"
            }
        },
        {
            "id": 87154,
            "type": "Feature",
            "geometry": {
                "type": "Point",
                "coordinates": [
                    16.02178,
                    51.28643
                ]
            },
            "properties": {
                "isced:level": "1;2",
                "ref:rspo": 87154,
                "official_name": "Szko\u0142a Podstawowa w Nied\u017awiedzicach",
                "name": "Szko\u0142a Podstawowa w Nied\u017awiedzicach",
                "addr:postcode": "59-225",
                "addr:place": "Nied\u017awiedzice",
                "addr:housenumber": "16",
                "addr:teryt:simc": 363487,
                "phone": "+48 768186910",
                "email": "spniedzwiedzice@gmina-chojnow.pl",
                "ref:regon": "001240427",
                "ref:vatin": "PL6912093098",
                "operator": "Gmina Chojn\u00f3w",
                "operator:type": "government",
                "amenity": "school"
            }
        },
        {
            "id": 80849,
            "type": "Feature",
            "geometry": {
                "type": "Point",
                "coordinates": [
                    15.80239,
                    51.3137
                ]
            },
            "properties": {
                "isced:level": "1;2",
                "ref:rspo": 80849,
                "official_name": "Szko\u0142a Podstawowa w Starym \u0141omie",
                "name": "Szko\u0142a Podstawowa w Starym \u0141omie",
                "addr:postcode": "59-225",
                "addr:place": "Stary \u0141om",
                "addr:housenumber": "42",
                "addr:teryt:simc": 363582,
                "phone": "+48 768177157",
                "email": "spstarylom@gmina-chojnow.pl",
                "ref:regon": "001240611",
                "ref:vatin": "PL6912093075",
                "operator": "Gmina Chojn\u00f3w",
                "operator:type": "government",
                "amenity": "school"
            }
        },
        {
            "id": 80850,
            "type": "Feature",
            "geometry": {
                "type": "Point",
                "coordinates": [
                    15.89953,
                    51.3409
                ]
            },
            "properties": {
                "ref:rspo": 80850,
                "official_name": "Zesp\u00f3\u0142 Szkolno-Przedszkolny im. Jana Paw\u0142a II w Rokitkach",
                "name": "Zesp\u00f3\u0142 Szkolno-Przedszkolny",
                "addr:postcode": "59-225",
                "addr:place": "Rokitki",
                "addr:housenumber": "32a",
                "addr:teryt:simc": 363560,
                "phone": "+48 768178824",
                "email": "zsprokitki@gmina-chojnow.pl",
                "website": "http:\/\/www.rokitki.net",
                "ref:regon": "001239980",
                "ref:vatin": "PL6912093069",
                "operator": "Gmina Chojn\u00f3w",
                "operator:type": "government",
                "landuse": "education",
                "fixme": "amenity=school, amenity=college albo landuse=education w zale\u017cno\u015bci od tego, jakie plac\u00f3wki wchodz\u0105 w sk\u0142ad zespo\u0142u. Sprawd\u017a, kiedy stosowa\u0107 amenity=* a kiedy landuse=education.",
                "note": "Children RSPO: 50310;87243"
            }
        },
        {
            "id": 50310,
            "type": "Feature",
            "geometry": {
                "type": "Point",
                "coordinates": [
                    15.89953,
                    51.340869999999995
                ]
            },
            "properties": {
                "ref:rspo": 50310,
                "official_name": "Gminne Przedszkole w Rokitkach",
                "name": "Gminne Przedszkole w Rokitkach",
                "addr:postcode": "59-225",
                "addr:place": "Rokitki",
                "addr:housenumber": "32a",
                "addr:teryt:simc": 363560,
                "phone": "+48 768178824",
                "email": "zsprokitki@gmina-chojnow.pl",
                "website": "http:\/\/www.rokitki.net",
                "ref:regon": "021815987",
                "operator": "Gmina Chojn\u00f3w",
                "operator:type": "government",
                "amenity": "kindergarten",
                "note": "Parent RSPO: 80850"
            }
        },
        {
            "id": 87243,
            "type": "Feature",
            "geometry": {
                "type": "Point",
                "coordinates": [
                    15.89953,
                    51.34084
                ]
            },
            "properties": {
                "isced:level": "1;2",
                "ref:rspo": 87243,
                "official_name": "Szko\u0142a Podstawowa im. Jana Paw\u0142a II w Rokitkach",
                "name": "Szko\u0142a Podstawowa",
                "addr:postcode": "59-225",
                "addr:place": "Rokitki",
                "addr:housenumber": "32a",
                "addr:teryt:simc": 363560,
                "phone": "+48 768178824",
                "email": "zsprokitki@gmina-chojnow.pl",
                "website": "http:\/\/www.rokitki.net",
                "ref:regon": "021815993",
                "operator": "Gmina Chojn\u00f3w",
                "operator:type": "government",
                "amenity": "school",
                "note": "Parent RSPO: 80850"
            }
        }
    ]
}