{
    "type": "FeatureCollection",
    "features": [
        {
            "id": 20466,
            "type": "Feature",
            "geometry": {
                "type": "Point",
                "coordinates": [
                    16.36334,
                    51.22449
                ]
            },
            "properties": {
                "isced:level": "1;2",
                "ref:rspo": 20466,
                "official_name": "Szko\u0142a Podstawowa im. Ksi\u0119dza Jana Twardowskiego w D\u0105biu",
                "name": "Szko\u0142a Podstawowa",
                "addr:country": "PL",
                "addr:postcode": "59-230",
                "addr:place": "D\u0105bie",
                "addr:housenumber": "5a",
                "addr:teryt:simc": 366681,
                "contact:phone": "+48 768584322",
                "contact:email": "szkola@szkoladabie.pl",
                "contact:website": "http:\/\/www.szkoladabie.szkolnastrona.pl",
                "ref:regon": "001239878",
                "ref:vatin": "PL6912478958",
                "operator": "Gmina Prochowice",
                "operator:type": "government",
                "amenity": "school"
            }
        },
        {
            "id": 20469,
            "type": "Feature",
            "geometry": {
                "type": "Point",
                "coordinates": [
                    16.36646,
                    51.27405
                ]
            },
            "properties": {
                "isced:level": "1;2",
                "ref:rspo": 20469,
                "official_name": "Szko\u0142a Podstawowa Nr 1 im. Miko\u0142aja Kopernika w Prochowicach",
                "name": "Szko\u0142a Podstawowa Nr 1",
                "addr:country": "PL",
                "addr:postcode": "59-230",
                "addr:city": "Prochowice",
                "addr:street": "M\u0142y\u0144ska",
                "addr:housenumber": "3",
                "addr:teryt:simc": 954171,
                "addr:teryt:sym_ul": 13132,
                "contact:phone": "+48 768584464",
                "contact:email": "spprochowice@gmail.com",
                "contact:website": "http:\/\/www.spprochowice.szkolnastrona.pl",
                "ref:regon": "000261829",
                "ref:vatin": "PL6911244448",
                "operator": "Gmina Prochowice",
                "operator:type": "government",
                "amenity": "school"
            }
        },
        {
            "id": 20468,
            "type": "Feature",
            "geometry": {
                "type": "Point",
                "coordinates": [
                    16.36412,
                    51.28018
                ]
            },
            "properties": {
                "ref:rspo": 20468,
                "official_name": "Miejskie Przedszkole w Prochowicach",
                "name": "Miejskie Przedszkole w Prochowicach",
                "addr:country": "PL",
                "addr:postcode": "59-230",
                "addr:city": "Prochowice",
                "addr:street": "Tadeusza Ko\u015bciuszki",
                "addr:housenumber": "1",
                "addr:teryt:simc": 954171,
                "addr:teryt:sym_ul": 9572,
                "contact:phone": "+48 768584541",
                "ref:regon": "021394238",
                "ref:vatin": "PL6912477640",
                "operator": "Gmina Prochowice",
                "operator:type": "government",
                "amenity": "kindergarten"
            }
        },
        {
            "id": 123817,
            "type": "Feature",
            "geometry": {
                "type": "Point",
                "coordinates": [
                    16.36489,
                    51.28028
                ]
            },
            "properties": {
                "ref:rspo": 123817,
                "official_name": "Niepubliczna Plac\u00f3wka Kszta\u0142cenia Ustawicznego Amicorum",
                "name": "Niepubliczna Plac\u00f3wka Kszta\u0142cenia Ustawicznego Amicorum",
                "addr:country": "PL",
                "addr:postcode": "59-230",
                "addr:city": "Prochowice",
                "addr:street": "Tadeusza Ko\u015bciuszki",
                "addr:housenumber": "2",
                "addr:teryt:simc": 954171,
                "addr:teryt:sym_ul": 9572,
                "contact:phone": "+48 692142066",
                "contact:email": "akademia@amicorum.edu.pl",
                "contact:website": "http:\/\/amicorum.edu.pl",
                "ref:regon": "022464739",
                "ref:vatin": "PL6912503751",
                "operator": "Amicorum",
                "operator:type": "ngo",
                "fixme": "w zale\u017cno\u015bci od przedmiotu dzia\u0142alno\u015bci (np. amenity=training + training=*, amenity=dancing_school, amenity=language_school, amenity=music_school)"
            }
        },
        {
            "id": 262451,
            "type": "Feature",
            "geometry": {
                "type": "Point",
                "coordinates": [
                    16.36489,
                    51.280249999999995
                ]
            },
            "properties": {
                "isced:level": "1;2",
                "ref:rspo": 262451,
                "official_name": "Szko\u0142a Podstawowa Nr 2 im. Tadeusza Ko\u015bciuszki w Prochowicach",
                "name": "Szko\u0142a Podstawowa Nr 2",
                "addr:country": "PL",
                "addr:postcode": "59-230",
                "addr:city": "Prochowice",
                "addr:street": "Tadeusza Ko\u015bciuszki",
                "addr:housenumber": "2",
                "addr:teryt:simc": 954171,
                "addr:teryt:sym_ul": 9572,
                "contact:phone": "+48 768584644",
                "contact:email": "sp2prochowice@gmail.com",
                "ref:regon": "368017685",
                "operator": "Gmina Prochowice",
                "operator:type": "government",
                "amenity": "school"
            }
        }
    ]
}