{"type":"FeatureCollection","features":[{"id":56233,"type":"Feature","geometry":{"type":"Point","coordinates":[16.3129199,51.20133]},"properties":{"isced:level":"1;2","ref:rspo":56233,"official_name":"Szko\u0142a Podstawowa w Rosochatej","name":"Szko\u0142a Podstawowa w Rosochatej","addr:country":"PL","addr:postcode":"59-216","addr:place":"Rosochata","addr:housenumber":"65","addr:door":"65","addr:teryt:sym_ul":364937,"contact:phone":"+48 768575346","contact:email":"sprosochata@interia.pl","ref:regon":"001239565","ref:vatin":"PL6912412764","operator":"Gmina Kunice","operator:type":"government","amenity":"school"}},{"id":130607,"type":"Feature","geometry":{"type":"Point","coordinates":[16.252099990845,51.223609924316]},"properties":{"ref:rspo":130607,"official_name":"Przedszkole Samorz\u0105dowe \"Wyspa Marze\u0144\" w Kunicach","name":"Przedszkole Samorz\u0105dowe \"Wyspa Marze\u0144\" w Kunicach","addr:country":"PL","addr:postcode":"59-216","addr:city":"Kunice","addr:street":"ul. Przedszkolna","addr:housenumber":"2","addr:teryt:simc":17683,"addr:teryt:sym_ul":364883,"contact:phone":"+48 768575706","contact:email":"przedszkolekunice@interia.pl","contact:website":"http:\/\/www.przedszkolekunice.szkolnastrona.pl","ref:regon":"364236380","ref:vatin":"PL6912515375","operator":"Gmina Kunice","operator:type":"government","amenity":"kindergarten"}},{"id":56238,"type":"Feature","geometry":{"type":"Point","coordinates":[16.2479799,51.22387]},"properties":{"isced:level":"1;2","ref:rspo":56238,"official_name":"Szko\u0142a Podstawowa im. \u015awi\u0119tej Jadwigi \u015aL\u0105skiej w Kunicach","name":"Szko\u0142a Podstawowa","addr:country":"PL","addr:postcode":"59-216","addr:city":"Kunice","addr:street":"ul. Staropolska","addr:housenumber":"4","addr:door":"4","addr:teryt:simc":20971,"addr:teryt:sym_ul":364883,"contact:phone":"+48 768575466","contact:email":"sekretariat@spkunice.edu.pl","ref:regon":"001239387","ref:vatin":"PL6911975519","operator":"Gmina Kunice","operator:type":"government","amenity":"school"}},{"id":262458,"type":"Feature","geometry":{"type":"Point","coordinates":[16.28481,51.2436999]},"properties":{"isced:level":"1;2","ref:rspo":262458,"official_name":"Szko\u0142a Podstawowa w Spalonej","name":"Szko\u0142a Podstawowa w Spalonej","addr:country":"PL","addr:postcode":"59-216","addr:city":"Spalona","addr:street":"ul. Legnicka","addr:housenumber":"52","addr:teryt:simc":10780,"addr:teryt:sym_ul":364943,"contact:phone":"+48 768575327","contact:email":"spspalona@wp.pl","ref:regon":"368017811","operator":"Gmina Kunice","operator:type":"government","amenity":"school"}},{"id":56237,"type":"Feature","geometry":{"type":"Point","coordinates":[16.25648,51.25874]},"properties":{"isced:level":"1;2","ref:rspo":56237,"official_name":"Szko\u0142a Podstawowa w Bieniowicach","name":"Szko\u0142a Podstawowa w Bieniowicach","addr:country":"PL","addr:postcode":"59-216","addr:place":"Bieniowice","addr:housenumber":"57","addr:door":"57","addr:teryt:sym_ul":364831,"contact:phone":"+48 768575306","contact:email":"spbieniowice@wp.pl","contact:website":"http:\/\/spbieniowice.szkolnastrona.pl","ref:regon":"001239571","ref:vatin":"PL6912413290","operator":"Gmina Kunice","operator:type":"government","amenity":"school"}}]}