{
    "type": "FeatureCollection",
    "features": [
        {
            "id": 12213,
            "type": "Feature",
            "geometry": {
                "type": "Point",
                "coordinates": [
                    22.956999,
                    52.395449
                ]
            },
            "properties": {
                "isced:level": "1;2",
                "ref:rspo": 12213,
                "official_name": "Szko\u0142a Podstawowa w Szerszeniach",
                "name": "Szko\u0142a Podstawowa w Szerszeniach",
                "addr:postcode": "17-300",
                "addr:place": "Szerszenie",
                "addr:housenumber": "38",
                "addr:teryt:simc": 39841,
                "phone": "+48 856550012",
                "email": "masze@poczta.fm",
                "ref:regon": "000734570",
                "ref:vatin": "PL5441266497",
                "operator": "Gmina Siemiatycze",
                "operator:type": "government",
                "amenity": "school"
            }
        },
        {
            "id": 106105,
            "type": "Feature",
            "geometry": {
                "type": "Point",
                "coordinates": [
                    22.91067,
                    52.4579804
                ]
            },
            "properties": {
                "isced:level": "1;2",
                "ref:rspo": 106105,
                "official_name": "Szko\u0142a Filialna Przy Zol dla Dzieci I M\u0142odzie\u017cy w Bacikach \u015arednich Szko\u0142y Podstawowej Specjalnej w Siemiatyczach O Strukturze Organizacyjnej Obejmuj\u0105cej Klasy I-Vi",
                "name": "Szko\u0142a Filialna Przy Zol dla Dzieci I M\u0142odzie\u017cy w Bacikach \u015arednich Szko\u0142y Podstawowej Specjalnej w Siemiatyczach O Strukturze Organizacyjnej Obejmuj\u0105cej Klasy I-Vi",
                "addr:postcode": "17-300",
                "addr:place": "Baciki \u015arednie",
                "addr:housenumber": "68",
                "addr:teryt:simc": 39456,
                "phone": "+48 856552126",
                "email": "zss@st.siemiatycze.wrotapodlasia.pl",
                "website": "http:\/\/www.zsssiemiatycze.edupage.org",
                "ref:regon": "522126120",
                "operator": "Powiat Siemiatycki",
                "operator:type": "government",
                "amenity": "school",
                "note": "Parent RSPO: 82821"
            }
        },
        {
            "id": 12744,
            "type": "Feature",
            "geometry": {
                "type": "Point",
                "coordinates": [
                    22.8382676,
                    52.4613508
                ]
            },
            "properties": {
                "isced:level": "1;2",
                "ref:rspo": 12744,
                "official_name": "Szko\u0142a Podstawowa w Czartajewie",
                "name": "Szko\u0142a Podstawowa w Czartajewie",
                "addr:postcode": "17-300",
                "addr:city": "Czartajew",
                "addr:street": "Szkolna",
                "addr:housenumber": "4",
                "addr:teryt:simc": 39500,
                "addr:teryt:sym_ul": 21970,
                "phone": "+48 856560003",
                "email": "spczartajew@list.pl",
                "website": "http:\/\/www.spczartajew.edu.pl",
                "ref:regon": "000734587",
                "ref:vatin": "PL5441175671",
                "operator": "Gmina Siemiatycze",
                "operator:type": "government",
                "amenity": "school"
            }
        },
        {
            "id": 34782,
            "type": "Feature",
            "geometry": {
                "type": "Point",
                "coordinates": [
                    22.83389,
                    52.46209
                ]
            },
            "properties": {
                "ref:rspo": 34782,
                "official_name": "Zesp\u00f3\u0142 Szk\u00f3\u0142 Technicznych im.w.st. Reymonta w Czartajewie",
                "name": "Zesp\u00f3\u0142 Szk\u00f3\u0142 Technicznych im.w.st. Reymonta w Czartajewie",
                "addr:postcode": "17-300",
                "addr:city": "Czartajew",
                "addr:street": "D\u0142uga",
                "addr:housenumber": "130",
                "addr:teryt:simc": 39500,
                "addr:teryt:sym_ul": 3839,
                "phone": "+48 856552870",
                "email": "sekretariat@zst.czartajew.pl",
                "website": "http:\/\/www.zsr-czartajew.pl",
                "ref:regon": "000097258",
                "ref:vatin": "PL5441294594",
                "operator": "Powiat Siemiatycki",
                "operator:type": "government",
                "landuse": "education",
                "fixme": "amenity=school, amenity=college albo landuse=education w zale\u017cno\u015bci od tego, jakie plac\u00f3wki wchodz\u0105 w sk\u0142ad zespo\u0142u. Sprawd\u017a, kiedy stosowa\u0107 amenity=* a kiedy landuse=education.",
                "note": "Children RSPO: 82823;82825;82826;82827"
            }
        },
        {
            "id": 82823,
            "type": "Feature",
            "geometry": {
                "type": "Point",
                "coordinates": [
                    22.83389,
                    52.46206
                ]
            },
            "properties": {
                "isced:level": "3",
                "ref:rspo": 82823,
                "official_name": "Technikum w Czartajewie",
                "name": "Technikum w Czartajewie",
                "addr:postcode": "17-300",
                "addr:city": "Czartajew",
                "addr:street": "D\u0142uga",
                "addr:housenumber": "130",
                "addr:teryt:simc": 39500,
                "addr:teryt:sym_ul": 3839,
                "phone": "+48 856552870",
                "email": "sekretariat@zst.czartajew.pl",
                "website": "http:\/\/www.zst.czartajew.pl",
                "ref:regon": "052205701",
                "operator": "Powiat Siemiatycki",
                "operator:type": "government",
                "amenity": "school",
                "note": "Parent RSPO: 34782"
            }
        },
        {
            "id": 82825,
            "type": "Feature",
            "geometry": {
                "type": "Point",
                "coordinates": [
                    22.83389,
                    52.462030000000006
                ]
            },
            "properties": {
                "isced:level": "3",
                "ref:rspo": 82825,
                "official_name": "Bran\u017cowa Szko\u0142a I Stopnia w Czartajewie",
                "name": "Bran\u017cowa Szko\u0142a I Stopnia w Czartajewie",
                "addr:postcode": "17-300",
                "addr:city": "Czartajew",
                "addr:street": "D\u0142uga",
                "addr:housenumber": "130",
                "addr:teryt:simc": 39500,
                "addr:teryt:sym_ul": 3839,
                "phone": "+48 856552870",
                "email": "czartajew@poczta.onet.pl",
                "website": "http:\/\/www.zsr-czartajew.pl",
                "ref:regon": "052205718",
                "operator": "Powiat Siemiatycki",
                "operator:type": "government",
                "amenity": "school",
                "note": "Parent RSPO: 34782"
            }
        },
        {
            "id": 82826,
            "type": "Feature",
            "geometry": {
                "type": "Point",
                "coordinates": [
                    22.83389,
                    52.462
                ]
            },
            "properties": {
                "isced:level": "4",
                "ref:rspo": 82826,
                "official_name": "Szko\u0142a Policealna w Czartajewie",
                "name": "Szko\u0142a Policealna w Czartajewie",
                "addr:postcode": "17-300",
                "addr:city": "Czartajew",
                "addr:street": "D\u0142uga",
                "addr:housenumber": "130",
                "addr:teryt:simc": 39500,
                "addr:teryt:sym_ul": 3839,
                "phone": "+48 856552870",
                "email": "czartajew@poczta.onet.pl",
                "website": "http:\/\/www.zsr-czartajew.pl",
                "ref:regon": "200226666",
                "operator": "Powiat Siemiatycki",
                "operator:type": "government",
                "amenity": "college",
                "note": "Parent RSPO: 34782"
            }
        },
        {
            "id": 82827,
            "type": "Feature",
            "geometry": {
                "type": "Point",
                "coordinates": [
                    22.83389,
                    52.46197
                ]
            },
            "properties": {
                "isced:level": "3",
                "ref:rspo": 82827,
                "official_name": "Liceum Og\u00f3lnokszta\u0142c\u0105ce w Czartajewie",
                "name": "Liceum Og\u00f3lnokszta\u0142c\u0105ce w Czartajewie",
                "addr:postcode": "17-300",
                "addr:city": "Czartajew",
                "addr:street": "D\u0142uga",
                "addr:housenumber": "130",
                "addr:teryt:simc": 39500,
                "addr:teryt:sym_ul": 3839,
                "phone": "+48 856552870",
                "email": "czartajew@poczta.onet.pl",
                "website": "http:\/\/www.zst.czartajew.pl",
                "ref:regon": "200226650",
                "operator": "Powiat Siemiatycki",
                "operator:type": "government",
                "amenity": "school",
                "note": "Parent RSPO: 34782"
            }
        },
        {
            "id": 13010,
            "type": "Feature",
            "geometry": {
                "type": "Point",
                "coordinates": [
                    22.9357598,
                    52.4865451
                ]
            },
            "properties": {
                "isced:level": "1;2",
                "ref:rspo": 13010,
                "official_name": "Szko\u0142a Podstawowa w To\u0142winie",
                "name": "Szko\u0142a Podstawowa w To\u0142winie",
                "addr:postcode": "17-300",
                "addr:place": "To\u0142win",
                "addr:housenumber": "1",
                "addr:teryt:simc": 39858,
                "phone": "+48 856553022",
                "email": "tolwin@wp.pl",
                "website": "http:\/\/www.tolwin.pl",
                "ref:regon": "001083287",
                "ref:vatin": "PL5441266882",
                "operator": "Gmina Siemiatycze",
                "operator:type": "government",
                "amenity": "school"
            }
        }
    ]
}