{
    "type": "FeatureCollection",
    "features": [
        {
            "id": 268129,
            "type": "Feature",
            "geometry": {
                "type": "Point",
                "coordinates": [
                    22.87587,
                    52.41577
                ]
            },
            "properties": {
                "ref:rspo": 268129,
                "official_name": "Przedszkole Gminne Magiczne Miejsce w Siemiatyczach",
                "name": "Przedszkole Gminne Magiczne Miejsce w Siemiatyczach",
                "addr:country": "PL",
                "addr:postcode": "17-300",
                "addr:city": "Siemiatycze",
                "addr:street": "ul. Tadeusza Ko\u015bciuszki",
                "addr:housenumber": "88",
                "addr:teryt:simc": 9582,
                "addr:teryt:sym_ul": 923360,
                "contact:phone": "+48 856561552",
                "contact:email": "przedszkole@gminasiemiatycze.pl",
                "contact:website": "http:\/\/www.przedszkolegminasiemiatycze.pl",
                "ref:regon": "380959969",
                "ref:vatin": "PL5441539742",
                "operator": "Gmina Siemiatycze",
                "operator:type": "government",
                "amenity": "kindergarten"
            }
        },
        {
            "id": 276417,
            "type": "Feature",
            "geometry": {
                "type": "Point",
                "coordinates": [
                    22.86828,
                    52.4192
                ]
            },
            "properties": {
                "ref:rspo": 276417,
                "official_name": "Niepubliczna Poradnia Psychologiczno-Pedagogiczna Ab-Ba",
                "name": "Niepubliczna Poradnia Psychologiczno-Pedagogiczna Ab-Ba",
                "addr:country": "PL",
                "addr:postcode": "17-300",
                "addr:city": "Siemiatycze",
                "addr:street": "ul. 11 Listopada",
                "addr:housenumber": "73",
                "addr:teryt:simc": 11205,
                "addr:teryt:sym_ul": 923360,
                "contact:phone": "+48 537009739",
                "contact:email": "centrum@poradnia-abba.pl",
                "contact:website": "http:\/\/www.poradnia-abba.pl",
                "ref:regon": "387141901",
                "operator": "Beata Arcimowicz",
                "operator:type": "private",
                "healthcare": "counselling",
                "counselling_type": "education",
                "fixme": "w zale\u017cno\u015bci od przedmiotu dzia\u0142alno\u015bci (np. healthcare=counselling + counselling_type=education albo healthcare=psychotherapist)"
            }
        },
        {
            "id": 56543,
            "type": "Feature",
            "geometry": {
                "type": "Point",
                "coordinates": [
                    22.86647,
                    52.42215
                ]
            },
            "properties": {
                "ref:rspo": 56543,
                "official_name": "Przedszkole Nr 3 \"Weso\u0142a Tr\u00f3jeczka\" w Siemiatyczach",
                "name": "Przedszkole Nr 3 \"Weso\u0142a Tr\u00f3jeczka\" w Siemiatyczach",
                "addr:country": "PL",
                "addr:postcode": "17-300",
                "addr:city": "Siemiatycze",
                "addr:street": "ul. 11 Listopada",
                "addr:housenumber": "24",
                "addr:teryt:simc": 11205,
                "addr:teryt:sym_ul": 923360,
                "contact:phone": "+48 856552157",
                "contact:email": "przedszkole3@siemiatycze.eu",
                "contact:website": "http:\/\/www.przedszkole3siemiatycze.edupage.org",
                "ref:regon": "200357664",
                "ref:vatin": "PL5441502130",
                "operator": "Miasto Siemiatycze",
                "operator:type": "government",
                "amenity": "kindergarten"
            }
        },
        {
            "id": 55414,
            "type": "Feature",
            "geometry": {
                "type": "Point",
                "coordinates": [
                    22.86504,
                    52.42252
                ]
            },
            "properties": {
                "ref:rspo": 55414,
                "official_name": "Szko\u0142a Muzyczna I Stopnia im. Wojciecha Kilara",
                "name": "Szko\u0142a Muzyczna I Stopnia",
                "addr:country": "PL",
                "addr:postcode": "17-300",
                "addr:city": "Siemiatycze",
                "addr:street": "ul. Legion\u00f3w Pi\u0142sudskiego",
                "addr:housenumber": "1",
                "addr:teryt:simc": 10772,
                "addr:teryt:sym_ul": 923360,
                "contact:phone": "+48 856560303",
                "contact:email": "sm@siemiatycze.eu",
                "contact:website": "http:\/\/sm1siemiatycze.edupage.org",
                "ref:regon": "200227559",
                "ref:vatin": "PL5441511382",
                "operator": "Miasto Siemiatycze",
                "operator:type": "government",
                "amenity": "music_school"
            }
        },
        {
            "id": 34786,
            "type": "Feature",
            "geometry": {
                "type": "Point",
                "coordinates": [
                    22.8631,
                    52.4233
                ]
            },
            "properties": {
                "isced:level": "3",
                "ref:rspo": 34786,
                "official_name": "Liceum Og\u00f3lnokszta\u0142c\u0105ce dla Doros\u0142ych w Siemiatyczach Zak\u0142adu Doskonalenia Zawodowego w Bia\u0142ymstoku",
                "name": "Liceum Og\u00f3lnokszta\u0142c\u0105ce dla Doros\u0142ych w Siemiatyczach Zak\u0142adu Doskonalenia Zawodowego w Bia\u0142ymstoku",
                "addr:country": "PL",
                "addr:postcode": "17-300",
                "addr:city": "Siemiatycze",
                "addr:street": "ul. Pa\u0142acowa",
                "addr:housenumber": "24",
                "addr:teryt:simc": 15590,
                "addr:teryt:sym_ul": 923360,
                "contact:phone": "+48 856552143",
                "contact:email": "siemiatycze@zdz.bialystok.pl",
                "contact:website": "http:\/\/szkolenia.zdz.bialystok.pl\/siemiatycze\/",
                "ref:regon": "200735735",
                "ref:vatin": "PL5420000305",
                "operator": "Zak\u0142ad Doskonalenia Zawodowego",
                "operator:type": "ngo",
                "amenity": "school"
            }
        },
        {
            "id": 34780,
            "type": "Feature",
            "geometry": {
                "type": "Point",
                "coordinates": [
                    22.87411,
                    52.42356
                ]
            },
            "properties": {
                "ref:rspo": 34780,
                "official_name": "Zesp\u00f3\u0142 Szk\u00f3\u0142 w Siemiatyczach",
                "name": "Zesp\u00f3\u0142 Szk\u00f3\u0142 w Siemiatyczach",
                "addr:country": "PL",
                "addr:postcode": "17-300",
                "addr:city": "Siemiatycze",
                "addr:street": "ul. Tadeusza Ko\u015bciuszki",
                "addr:housenumber": "43",
                "addr:teryt:simc": 9582,
                "addr:teryt:sym_ul": 923360,
                "contact:phone": "+48 856552562",
                "contact:email": "sekretariat@lo-siemiatycze.edu.pl",
                "contact:website": "http:\/\/www.lo-siemiatycze.edu.pl",
                "ref:regon": "050508857",
                "ref:vatin": "PL5441207678",
                "operator": "Powiat Siemiatycki",
                "operator:type": "government",
                "landuse": "education",
                "fixme": "amenity=school, amenity=college albo landuse=education w zale\u017cno\u015bci od tego, jakie plac\u00f3wki wchodz\u0105 w sk\u0142ad zespo\u0142u. Sprawd\u017a, kiedy stosowa\u0107 amenity=* a kiedy landuse=education.",
                "note": "Children RSPO: 82828;82829;83541"
            }
        },
        {
            "id": 105588,
            "type": "Feature",
            "geometry": {
                "type": "Point",
                "coordinates": [
                    22.87411,
                    52.42353
                ]
            },
            "properties": {
                "ref:rspo": 105588,
                "official_name": "Powiatowa Poradnia Psychologiczno-Pedagogiczna w Siemiatyczach",
                "name": "Powiatowa Poradnia Psychologiczno-Pedagogiczna w Siemiatyczach",
                "addr:country": "PL",
                "addr:postcode": "17-300",
                "addr:city": "Siemiatycze",
                "addr:street": "ul. Tadeusza Ko\u015bciuszki",
                "addr:housenumber": "43",
                "addr:door": "a",
                "addr:teryt:simc": 9582,
                "addr:teryt:sym_ul": 923360,
                "contact:phone": "+48 856552612",
                "contact:email": "poradniapp@siemiatycze.pl",
                "contact:website": "http:\/\/psychped.prv.pl\/",
                "ref:regon": "000734601",
                "ref:vatin": "PL5441320630",
                "operator": "Powiat Siemiatycki",
                "operator:type": "government",
                "healthcare": "counselling",
                "counselling_type": "education",
                "fixme": "w zale\u017cno\u015bci od przedmiotu dzia\u0142alno\u015bci (np. healthcare=counselling + counselling_type=education albo healthcare=psychotherapist)"
            }
        },
        {
            "id": 82828,
            "type": "Feature",
            "geometry": {
                "type": "Point",
                "coordinates": [
                    22.87411,
                    52.423500000000004
                ]
            },
            "properties": {
                "isced:level": "3",
                "ref:rspo": 82828,
                "official_name": "Liceum Og\u00f3lnokszta\u0142c\u0105ce w Siemiatyczach",
                "name": "Liceum Og\u00f3lnokszta\u0142c\u0105ce w Siemiatyczach",
                "addr:country": "PL",
                "addr:postcode": "17-300",
                "addr:city": "Siemiatycze",
                "addr:street": "ul. Tadeusza Ko\u015bciuszki",
                "addr:housenumber": "43",
                "addr:teryt:simc": 9582,
                "addr:teryt:sym_ul": 923360,
                "contact:phone": "+48 856552562",
                "contact:email": "sekretariat@lo-siemiatycze.edu.pl",
                "contact:website": "http:\/\/www.lo-siemiatycze.edu.pl",
                "ref:regon": "052205760",
                "operator": "Powiat Siemiatycki",
                "operator:type": "government",
                "amenity": "school",
                "note": "Parent RSPO: 34780"
            }
        },
        {
            "id": 82829,
            "type": "Feature",
            "geometry": {
                "type": "Point",
                "coordinates": [
                    22.87411,
                    52.42347
                ]
            },
            "properties": {
                "isced:level": "3",
                "ref:rspo": 82829,
                "official_name": "Technikum w Siemiatyczach",
                "name": "Technikum w Siemiatyczach",
                "addr:country": "PL",
                "addr:postcode": "17-300",
                "addr:city": "Siemiatycze",
                "addr:street": "ul. Tadeusza Ko\u015bciuszki",
                "addr:housenumber": "43",
                "addr:teryt:simc": 9582,
                "addr:teryt:sym_ul": 923360,
                "contact:phone": "+48 856552562",
                "contact:email": "sek.lo@wp.pl",
                "ref:regon": "052205753",
                "operator": "Powiat Siemiatycki",
                "operator:type": "government",
                "amenity": "school",
                "note": "Parent RSPO: 34780"
            }
        },
        {
            "id": 83541,
            "type": "Feature",
            "geometry": {
                "type": "Point",
                "coordinates": [
                    22.87411,
                    52.42344
                ]
            },
            "properties": {
                "isced:level": "3",
                "ref:rspo": 83541,
                "official_name": "Bran\u017cowa Szko\u0142a I Stopnia w Siemiatyczach",
                "name": "Bran\u017cowa Szko\u0142a I Stopnia w Siemiatyczach",
                "addr:country": "PL",
                "addr:postcode": "17-300",
                "addr:city": "Siemiatycze",
                "addr:street": "ul. Tadeusza Ko\u015bciuszki",
                "addr:housenumber": "43",
                "addr:teryt:simc": 9582,
                "addr:teryt:sym_ul": 923360,
                "contact:phone": "+48 856552562",
                "contact:email": "sekretariat@lo-siemiatycze.edu.pl",
                "ref:regon": "200621530",
                "operator": "Powiat Siemiatycki",
                "operator:type": "government",
                "amenity": "school",
                "note": "Parent RSPO: 34780"
            }
        },
        {
            "id": 34778,
            "type": "Feature",
            "geometry": {
                "type": "Point",
                "coordinates": [
                    22.87346,
                    52.42369
                ]
            },
            "properties": {
                "ref:rspo": 34778,
                "official_name": "Zesp\u00f3\u0142 Szk\u00f3\u0142 Specjalnych w Siemiatyczach",
                "name": "Zesp\u00f3\u0142 Szk\u00f3\u0142 Specjalnych w Siemiatyczach",
                "addr:country": "PL",
                "addr:postcode": "17-300",
                "addr:city": "Siemiatycze",
                "addr:street": "ul. Tadeusza Ko\u015bciuszki",
                "addr:housenumber": "43A",
                "addr:teryt:simc": 9582,
                "addr:teryt:sym_ul": 923360,
                "contact:phone": "+48 856552126",
                "contact:email": "zss@st.siemiatycze.wrotapodlasia.pl",
                "contact:website": "http:\/\/zsssiemiatycze.edupage.org\/",
                "ref:regon": "200031371",
                "ref:vatin": "PL5441464091",
                "operator": "Powiat Siemiatycki",
                "operator:type": "government",
                "landuse": "education",
                "fixme": "amenity=school, amenity=college albo landuse=education w zale\u017cno\u015bci od tego, jakie plac\u00f3wki wchodz\u0105 w sk\u0142ad zespo\u0142u. Sprawd\u017a, kiedy stosowa\u0107 amenity=* a kiedy landuse=education.",
                "note": "Children RSPO: 82821;128552"
            }
        },
        {
            "id": 82821,
            "type": "Feature",
            "geometry": {
                "type": "Point",
                "coordinates": [
                    22.87346,
                    52.42366
                ]
            },
            "properties": {
                "isced:level": "1;2",
                "ref:rspo": 82821,
                "official_name": "Szko\u0142a Podstawowa Specjalna w Siemiatyczach",
                "name": "Szko\u0142a Podstawowa Specjalna w Siemiatyczach",
                "addr:country": "PL",
                "addr:postcode": "17-300",
                "addr:city": "Siemiatycze",
                "addr:street": "ul. Tadeusza Ko\u015bciuszki",
                "addr:housenumber": "43A",
                "addr:teryt:simc": 9582,
                "addr:teryt:sym_ul": 923360,
                "contact:phone": "+48 856552126",
                "contact:email": "zss@st.siemiatycze.wrotapodlasia.pl",
                "contact:website": "http:\/\/zsssiemiatycze.edupage.org",
                "ref:regon": "052212612",
                "operator": "Powiat Siemiatycki",
                "operator:type": "government",
                "amenity": "school",
                "note": "Children RSPO: 106105Parent RSPO: 34778"
            }
        },
        {
            "id": 128552,
            "type": "Feature",
            "geometry": {
                "type": "Point",
                "coordinates": [
                    22.87346,
                    52.42363
                ]
            },
            "properties": {
                "ref:rspo": 128552,
                "official_name": "Szko\u0142a Specjalna Przysposabiaj\u0105ca Do Pracy w Siemiatyczach w Zespole Szk\u00f3\u0142 Specjalnych w Siemiatyczach",
                "name": "Szko\u0142a Specjalna Przysposabiaj\u0105ca Do Pracy w Siemiatyczach w Zespole Szk\u00f3\u0142 Specjalnych w Siemiatyczach",
                "addr:country": "PL",
                "addr:postcode": "17-300",
                "addr:city": "Siemiatycze",
                "addr:street": "ul. Tadeusza Ko\u015bciuszki",
                "addr:housenumber": "43A",
                "addr:teryt:simc": 9582,
                "addr:teryt:sym_ul": 923360,
                "contact:phone": "+48 856552126",
                "contact:email": "zss@st.siemiatycze.wrotapodlasia.pl",
                "contact:website": "http:\/\/www.zsssiemiatycze.edupage.org",
                "ref:regon": "362323257",
                "operator": "Powiat Siemiatycki",
                "operator:type": "government",
                "amenity": "school",
                "note": "Parent RSPO: 34778"
            }
        },
        {
            "id": 56540,
            "type": "Feature",
            "geometry": {
                "type": "Point",
                "coordinates": [
                    22.8587,
                    52.42504
                ]
            },
            "properties": {
                "ref:rspo": 56540,
                "official_name": "Przedszkole Nr1 w Siemiatyczach",
                "name": "Przedszkole Nr1 w Siemiatyczach",
                "addr:country": "PL",
                "addr:postcode": "17-300",
                "addr:city": "Siemiatycze",
                "addr:street": "ul. Ogrodowa",
                "addr:housenumber": "6",
                "addr:teryt:simc": 14834,
                "addr:teryt:sym_ul": 923360,
                "contact:phone": "+48 856552587",
                "contact:email": "przedszkole1@siemiatycze.eu",
                "ref:regon": "200384307",
                "ref:vatin": "PL5441502147",
                "operator": "Miasto Siemiatycze",
                "operator:type": "government",
                "amenity": "kindergarten"
            }
        },
        {
            "id": 109723,
            "type": "Feature",
            "geometry": {
                "type": "Point",
                "coordinates": [
                    22.86231,
                    52.4259
                ]
            },
            "properties": {
                "isced:level": "3",
                "ref:rspo": 109723,
                "official_name": "Bran\u017cowa Szko\u0142a I Stopnia w Siemiatyczach",
                "name": "Bran\u017cowa Szko\u0142a I Stopnia w Siemiatyczach",
                "addr:country": "PL",
                "addr:postcode": "17-300",
                "addr:city": "Siemiatycze",
                "addr:street": "ul. Pa\u0142acowa",
                "addr:housenumber": "10",
                "addr:teryt:simc": 15590,
                "addr:teryt:sym_ul": 923360,
                "contact:phone": "+48 856553317",
                "contact:email": "zsz_siemiatycze@wp.pl",
                "ref:regon": "200756743",
                "operator": "Stowarzyszenie Wspierania Edukacji I Rynku Pracy",
                "operator:type": "ngo",
                "amenity": "school"
            }
        },
        {
            "id": 55408,
            "type": "Feature",
            "geometry": {
                "type": "Point",
                "coordinates": [
                    22.85848,
                    52.42594
                ]
            },
            "properties": {
                "isced:level": "1;2",
                "ref:rspo": 55408,
                "official_name": "Szko\u0142a Podstawowa Nr 1 im.ksi\u0119\u017cnej Anny Z Sapieh\u00f3w Jab\u0142onowskiej w Siemiatyczach",
                "name": "Szko\u0142a Podstawowa Nr 1 im.ksi\u0119\u017cnej Anny Z Sapieh\u00f3w Jab\u0142onowskiej w Siemiatyczach",
                "addr:country": "PL",
                "addr:postcode": "17-300",
                "addr:city": "Siemiatycze",
                "addr:street": "ul. Ogrodowa",
                "addr:housenumber": "2",
                "addr:teryt:simc": 14834,
                "addr:teryt:sym_ul": 923360,
                "contact:phone": "+48 856552379",
                "contact:email": "sp1@siemiatycze.eu",
                "contact:website": "https:\/\/sp1siemiatycze.edupage.org",
                "ref:regon": "000734558",
                "ref:vatin": "PL5441096374",
                "operator": "Miasto Siemiatycze",
                "operator:type": "government",
                "amenity": "school"
            }
        },
        {
            "id": 265727,
            "type": "Feature",
            "geometry": {
                "type": "Point",
                "coordinates": [
                    22.863969802856,
                    52.426940917969
                ]
            },
            "properties": {
                "ref:rspo": 265727,
                "official_name": "In-Progres Niepubliczne Integr.przedszkole Specjal.",
                "name": "In-Progres Niepubliczne Integr.przedszkole Specjal.",
                "addr:country": "PL",
                "addr:postcode": "17-300",
                "addr:city": "Siemiatycze",
                "addr:street": "ul. Emila Fieldorfa",
                "addr:housenumber": "16",
                "addr:teryt:simc": 28473,
                "addr:teryt:sym_ul": 923360,
                "contact:email": "przedszkole@in-progres.pl",
                "contact:website": "http:\/\/www.przedszkole-in-progres.pl",
                "ref:regon": "368878737",
                "operator": "\"In-Progres\" Sp\u00f3\u0142ka Z Ograniczon\u0105 Odpowiedzialno\u015bci\u0105",
                "operator:type": "private",
                "amenity": "kindergarten"
            }
        },
        {
            "id": 273342,
            "type": "Feature",
            "geometry": {
                "type": "Point",
                "coordinates": [
                    22.86117,
                    52.42872
                ]
            },
            "properties": {
                "ref:rspo": 273342,
                "official_name": "Niepubliczne Przedszkole \u015aw. \u015aw. Cyryla I Metodego",
                "name": "Niepubliczne Przedszkole \u015aw. \u015aw. Cyryla I Metodego",
                "addr:country": "PL",
                "addr:postcode": "17-300",
                "addr:city": "Siemiatycze",
                "addr:street": "ul. Jana Kili\u0144skiego",
                "addr:housenumber": "4",
                "addr:teryt:simc": 8435,
                "addr:teryt:sym_ul": 923360,
                "contact:email": "przedszkole.cim@interia.pl",
                "contact:website": "http:\/\/bractwocim.pl",
                "ref:regon": "384460072",
                "ref:vatin": "PL9660787821",
                "operator": "Stowarzyszenie Bractwo Prawos\u0142awne \u015aw. \u015aw. Cyryla I Metodego",
                "operator:type": "ngo",
                "amenity": "kindergarten"
            }
        },
        {
            "id": 69079,
            "type": "Feature",
            "geometry": {
                "type": "Point",
                "coordinates": [
                    22.88391,
                    52.4287599
                ]
            },
            "properties": {
                "isced:level": "1;2",
                "ref:rspo": 69079,
                "official_name": "Szko\u0142a Podstawowa Nr 3 im. Jana Paw\u0142a II w Siemiatyczach",
                "name": "Szko\u0142a Podstawowa Nr 3",
                "addr:country": "PL",
                "addr:postcode": "17-300",
                "addr:city": "Siemiatycze",
                "addr:street": "ul. gen. W\u0142adys\u0142awa Andersa",
                "addr:housenumber": "4",
                "addr:teryt:simc": 285,
                "addr:teryt:sym_ul": 923360,
                "contact:phone": "+48 856556771",
                "contact:email": "sp3@siemiatycze.eu",
                "contact:website": "http:\/\/www.andersa4siemiatycze.edupage.org",
                "ref:regon": "050019450",
                "ref:vatin": "PL5441409844",
                "operator": "Miasto Siemiatycze",
                "operator:type": "government",
                "amenity": "school"
            }
        },
        {
            "id": 56546,
            "type": "Feature",
            "geometry": {
                "type": "Point",
                "coordinates": [
                    22.88134,
                    52.42942
                ]
            },
            "properties": {
                "ref:rspo": 56546,
                "official_name": "Przedszkole Nr 5 \"W Zaczarowanym Lesie\" w Siemiatyczach",
                "name": "Przedszkole Nr 5 \"W Zaczarowanym Lesie\" w Siemiatyczach",
                "addr:country": "PL",
                "addr:postcode": "17-300",
                "addr:city": "Siemiatycze",
                "addr:street": "ul. gen. W\u0142adys\u0142awa Andersa",
                "addr:housenumber": "9",
                "addr:teryt:simc": 285,
                "addr:teryt:sym_ul": 923360,
                "contact:phone": "+48 856552903",
                "contact:email": "przedszkole5@siemiatycze.eu",
                "contact:website": "https:\/\/przedszkole5siemiatycze.edupage.org\/",
                "ref:regon": "200360962",
                "ref:vatin": "PL5441502153",
                "operator": "Miasto Siemiatycze",
                "operator:type": "government",
                "amenity": "kindergarten"
            }
        },
        {
            "id": 130215,
            "type": "Feature",
            "geometry": {
                "type": "Point",
                "coordinates": [
                    22.86064,
                    52.4311
                ]
            },
            "properties": {
                "ref:rspo": 130215,
                "official_name": "Niepubliczna Poradnia Psychologiczno- Pedagogiczna Centrum Psychoedukacji I Rozwoju Biznesu In Progres",
                "name": "Niepubliczna Poradnia Psychologiczno- Pedagogiczna Centrum Psychoedukacji I Rozwoju Biznesu In Progres",
                "addr:country": "PL",
                "addr:postcode": "17-300",
                "addr:city": "Siemiatycze",
                "addr:street": "ul. Ciechanowiecka",
                "addr:housenumber": "19 E",
                "addr:teryt:simc": 2992,
                "addr:teryt:sym_ul": 923360,
                "contact:phone": "+48 509766501",
                "contact:email": "poradnia@in-progres.pl",
                "ref:regon": "363658913",
                "operator": "\"In-Progres\" Sp\u00f3\u0142ka Z Ograniczon\u0105 Odpowiedzialno\u015bci\u0105",
                "operator:type": "private",
                "healthcare": "counselling",
                "counselling_type": "education",
                "fixme": "w zale\u017cno\u015bci od przedmiotu dzia\u0142alno\u015bci (np. healthcare=counselling + counselling_type=education albo healthcare=psychotherapist)"
            }
        }
    ]
}