{
    "type": "FeatureCollection",
    "features": [
        {
            "id": 25030,
            "type": "Feature",
            "geometry": {
                "type": "Point",
                "coordinates": [
                    23.4719,
                    51.11875
                ]
            },
            "properties": {
                "ref:rspo": 25030,
                "official_name": "Przedszkole Niepubliczne \"Akademia Juniora\"",
                "name": "Przedszkole Niepubliczne \"Akademia Juniora\"",
                "addr:postcode": "22-100",
                "addr:city": "Che\u0142m",
                "addr:street": "Aleja 3 Maja",
                "addr:housenumber": "10",
                "addr:teryt:simc": 929902,
                "addr:teryt:sym_ul": 11932,
                "phone": "+48 825706746",
                "email": "akademia.juniora@gmail.com.pl",
                "website": "http:\/\/www.akademiajuniora.com.pl",
                "ref:regon": "061467489",
                "operator": "Community Danuta Sidor, Tomasz Bryga\u0142a Sp\u00f3\u0142ka Jawna",
                "operator:type": "private",
                "amenity": "kindergarten"
            }
        },
        {
            "id": 14776,
            "type": "Feature",
            "geometry": {
                "type": "Point",
                "coordinates": [
                    23.47646,
                    51.12228
                ]
            },
            "properties": {
                "ref:rspo": 14776,
                "official_name": "Przedszkole Miejskie Nr 13 Z Oddzia\u0142ami Integracyjnymi w Che\u0142mie",
                "name": "Przedszkole Miejskie Nr 13 Z Oddzia\u0142ami Integracyjnymi w Che\u0142mie",
                "addr:postcode": "22-100",
                "addr:city": "Che\u0142m",
                "addr:street": "Po\u0142aniecka",
                "addr:housenumber": "5",
                "addr:teryt:simc": 929902,
                "addr:teryt:sym_ul": 17054,
                "phone": "+48 825645945",
                "email": "pmnr13@wp.pl",
                "ref:regon": "110003111",
                "ref:vatin": "PL5631120733",
                "operator": "Miasto Che\u0142m",
                "operator:type": "government",
                "amenity": "kindergarten"
            }
        },
        {
            "id": 28140,
            "type": "Feature",
            "geometry": {
                "type": "Point",
                "coordinates": [
                    23.47646,
                    51.12225
                ]
            },
            "properties": {
                "ref:rspo": 28140,
                "official_name": "Poradnia Psychologiczno-Pedagogiczna Nr 1 w Che\u0142mie",
                "name": "Poradnia Psychologiczno-Pedagogiczna Nr 1 w Che\u0142mie",
                "addr:postcode": "22-100",
                "addr:city": "Che\u0142m",
                "addr:street": "Po\u0142aniecka",
                "addr:housenumber": "5",
                "addr:teryt:simc": 929902,
                "addr:teryt:sym_ul": 17054,
                "phone": "+48 825659461",
                "email": "ppp1chelm@o2.pl",
                "ref:regon": "000712723",
                "operator": "Miasto Che\u0142m",
                "operator:type": "government",
                "healthcare": "counselling",
                "counselling_type": "education",
                "fixme": "w zale\u017cno\u015bci od przedmiotu dzia\u0142alno\u015bci (np. healthcare=counselling + counselling_type=education albo healthcare=psychotherapist)"
            }
        },
        {
            "id": 52867,
            "type": "Feature",
            "geometry": {
                "type": "Point",
                "coordinates": [
                    23.47701,
                    51.12294
                ]
            },
            "properties": {
                "isced:level": "1;2",
                "ref:rspo": 52867,
                "official_name": "Szko\u0142a Podstawowa Nr 8 im. Boles\u0142awa Zygmunta Wirskiego w Che\u0142mie",
                "name": "Szko\u0142a Podstawowa Nr 8",
                "addr:postcode": "22-100",
                "addr:city": "Che\u0142m",
                "addr:street": "Po\u0142aniecka",
                "addr:housenumber": "10",
                "addr:teryt:simc": 929902,
                "addr:teryt:sym_ul": 17054,
                "phone": "+48 825637311",
                "email": "sekretariat@sp8chelm.pl",
                "website": "http:\/\/www.sp8chelm.pl",
                "ref:regon": "110598699",
                "operator": "Miasto Che\u0142m",
                "operator:type": "government",
                "amenity": "school"
            }
        },
        {
            "id": 16927,
            "type": "Feature",
            "geometry": {
                "type": "Point",
                "coordinates": [
                    23.49842,
                    51.12323
                ]
            },
            "properties": {
                "isced:level": "1;2",
                "ref:rspo": 16927,
                "official_name": "Pierwsza Spo\u0142eczna Szko\u0142a Podstawowa w Che\u0142mie",
                "name": "Pierwsza Spo\u0142eczna Szko\u0142a Podstawowa w Che\u0142mie",
                "addr:postcode": "22-100",
                "addr:city": "Che\u0142m",
                "addr:street": "Hrubieszowska",
                "addr:housenumber": "102",
                "addr:door": "2",
                "addr:teryt:simc": 929902,
                "addr:teryt:sym_ul": 6761,
                "phone": "+48 825654554",
                "email": "spoleczna_chelm@wp.pl",
                "website": "http:\/\/www.sapereaude.edu.pl",
                "ref:regon": "061464982",
                "operator": "Che\u0142mskie Towarzystwo Edukacyjne - Stowarzyszenie W Che\u0142mie",
                "operator:type": "ngo",
                "amenity": "school"
            }
        },
        {
            "id": 21551,
            "type": "Feature",
            "geometry": {
                "type": "Point",
                "coordinates": [
                    23.49842,
                    51.1232
                ]
            },
            "properties": {
                "ref:rspo": 21551,
                "official_name": "Pa\u0144stwowa Szko\u0142a Muzyczna I I II St. im. Ignacego Jana Paderewskiego w Che\u0142mie",
                "name": "Pa\u0144stwowa Szko\u0142a Muzyczna I I II St.",
                "addr:postcode": "22-100",
                "addr:city": "Che\u0142m",
                "addr:street": "Hrubieszowska",
                "addr:housenumber": "102",
                "addr:teryt:simc": 929902,
                "addr:teryt:sym_ul": 6761,
                "phone": "+48 825653887",
                "email": "psm.chelm@vp.pl",
                "website": "http:\/\/muzycznachelm.pl",
                "ref:regon": "000280666",
                "operator": "Ministerstwo Kultury I Dziedzictwa Narodowego",
                "operator:type": "public",
                "landuse": "education",
                "fixme": "amenity=school, amenity=college albo landuse=education w zale\u017cno\u015bci od tego, jakie plac\u00f3wki wchodz\u0105 w sk\u0142ad zespo\u0142u. Sprawd\u017a, kiedy stosowa\u0107 amenity=* a kiedy landuse=education.",
                "note": "Children RSPO: 72682;121544"
            }
        },
        {
            "id": 271604,
            "type": "Feature",
            "geometry": {
                "type": "Point",
                "coordinates": [
                    23.49842,
                    51.12317
                ]
            },
            "properties": {
                "isced:level": "3",
                "ref:rspo": 271604,
                "official_name": "Pierwsze Spo\u0142eczne Liceum Og\u00f3lnokszta\u0142c\u0105ce w Che\u0142mie",
                "name": "Pierwsze Spo\u0142eczne Liceum Og\u00f3lnokszta\u0142c\u0105ce w Che\u0142mie",
                "addr:postcode": "22-100",
                "addr:city": "Che\u0142m",
                "addr:street": "Hrubieszowska",
                "addr:housenumber": "102",
                "addr:door": "2",
                "addr:teryt:simc": 929902,
                "addr:teryt:sym_ul": 6761,
                "phone": "+48 825654554",
                "ref:regon": "383445372",
                "operator": "Che\u0142mskie Towarzystwo Edukacyjne - Stowarzyszenie W Che\u0142mie",
                "operator:type": "ngo",
                "amenity": "school"
            }
        },
        {
            "id": 72682,
            "type": "Feature",
            "geometry": {
                "type": "Point",
                "coordinates": [
                    23.49842,
                    51.12314
                ]
            },
            "properties": {
                "ref:rspo": 72682,
                "official_name": "Pa\u0144stwowa Szko\u0142a Muzyczna I St. im. Ignacego Jana Paderewskiego w Che\u0142mie",
                "name": "Pa\u0144stwowa Szko\u0142a Muzyczna I St.",
                "addr:postcode": "22-100",
                "addr:city": "Che\u0142m",
                "addr:street": "Hrubieszowska",
                "addr:housenumber": "102",
                "addr:teryt:simc": 929902,
                "addr:teryt:sym_ul": 6761,
                "phone": "+48 825653887",
                "ref:regon": "060056034",
                "operator": "Ministerstwo Kultury I Dziedzictwa Narodowego",
                "operator:type": "public",
                "amenity": "music_school",
                "note": "Parent RSPO: 21551"
            }
        },
        {
            "id": 121544,
            "type": "Feature",
            "geometry": {
                "type": "Point",
                "coordinates": [
                    23.49842,
                    51.12311
                ]
            },
            "properties": {
                "ref:rspo": 121544,
                "official_name": "Pa\u0144stwowa Szko\u0142a Muzyczna II St. w Che\u0142mie",
                "name": "Pa\u0144stwowa Szko\u0142a Muzyczna II St. w Che\u0142mie",
                "addr:postcode": "22-100",
                "addr:city": "Che\u0142m",
                "addr:street": "Hrubieszowska",
                "addr:housenumber": "102",
                "addr:teryt:simc": 929902,
                "addr:teryt:sym_ul": 6761,
                "phone": "+48 825653887",
                "ref:regon": "060056040",
                "operator": "Ministerstwo Kultury I Dziedzictwa Narodowego",
                "operator:type": "public",
                "amenity": "music_school",
                "note": "Parent RSPO: 21551"
            }
        },
        {
            "id": 123335,
            "type": "Feature",
            "geometry": {
                "type": "Point",
                "coordinates": [
                    23.48229,
                    51.12446
                ]
            },
            "properties": {
                "isced:level": "1;2",
                "ref:rspo": 123335,
                "official_name": "Niepubliczna Integracyjna Szko\u0142a Podstawowa Nowoczesnych Technologii I J\u0119zyk\u00f3w Obcych \"Arka\" w Che\u0142mie",
                "name": "Niepubliczna Integracyjna Szko\u0142a Podstawowa Nowoczesnych Technologii I J\u0119zyk\u00f3w Obcych \"Arka\" w Che\u0142mie",
                "addr:postcode": "22-100",
                "addr:city": "Che\u0142m",
                "addr:street": "Wojs\u0142awicka",
                "addr:housenumber": "8A",
                "addr:teryt:simc": 929902,
                "addr:teryt:sym_ul": 24637,
                "phone": "+48 825421514",
                "email": "szkola@arkaprzyszlosci.pl",
                "ref:regon": "061698852",
                "operator": "Integral Arka Sp\u00f3\u0142ka Z Ograniczon\u0105 Odpowiedzialno\u015bci\u0105",
                "operator:type": "private",
                "amenity": "school"
            }
        },
        {
            "id": 131106,
            "type": "Feature",
            "geometry": {
                "type": "Point",
                "coordinates": [
                    23.48229,
                    51.12443
                ]
            },
            "properties": {
                "isced:level": "1;2",
                "ref:rspo": 131106,
                "official_name": "Niepubliczna Szko\u0142a Podstawowa dla Dzieci I M\u0142odzie\u017cy Niepe\u0142nosprawnej \"Arka Nasz Dom\" Z Oddzia\u0142ami Przedszkolnymi",
                "name": "Niepubliczna Szko\u0142a Podstawowa dla Dzieci I M\u0142odzie\u017cy Niepe\u0142nosprawnej \"Arka Nasz Dom\" Z Oddzia\u0142ami Przedszkolnymi",
                "addr:postcode": "22-100",
                "addr:city": "Che\u0142m",
                "addr:street": "Wojs\u0142awicka",
                "addr:housenumber": "8A",
                "addr:teryt:simc": 929902,
                "addr:teryt:sym_ul": 24637,
                "phone": "+48 825421514",
                "email": "krola@arkaprzyszlosci.pl",
                "ref:regon": "364953270",
                "operator": "Integral Arka Sp\u00f3\u0142ka Z Ograniczon\u0105 Odpowiedzialno\u015bci\u0105",
                "operator:type": "private",
                "amenity": "school"
            }
        },
        {
            "id": 17984,
            "type": "Feature",
            "geometry": {
                "type": "Point",
                "coordinates": [
                    23.4743,
                    51.12468
                ]
            },
            "properties": {
                "ref:rspo": 17984,
                "official_name": "Spo\u0142eczny O\u015brodek Rehabilitacji I Edukacji \"Nadzieja\"",
                "name": "Spo\u0142eczny O\u015brodek Rehabilitacji I Edukacji \"Nadzieja\"",
                "addr:postcode": "22-100",
                "addr:city": "Che\u0142m",
                "addr:street": "Powsta\u0144c\u00f3w Warszawy",
                "addr:housenumber": "2",
                "addr:teryt:simc": 929902,
                "addr:teryt:sym_ul": 17372,
                "phone": "+48 825639038",
                "email": "nadzieja.chelm@wp.pl",
                "website": "http:\/\/www.podajmysobierece.com.pl",
                "ref:regon": "061465295",
                "ref:vatin": "PL5632387881",
                "operator": "Stowarzyszenie Pomocy Dzieciom I Osobom Niepe\u0142nosprawnym \"Podajmy Sobie R\u0119ce\"",
                "operator:type": "ngo",
                "amenity": "school"
            }
        },
        {
            "id": 14777,
            "type": "Feature",
            "geometry": {
                "type": "Point",
                "coordinates": [
                    23.46576,
                    51.12497
                ]
            },
            "properties": {
                "ref:rspo": 14777,
                "official_name": "Przedszkole Miejskie Nr 15 w Che\u0142mie",
                "name": "Przedszkole Miejskie Nr 15 w Che\u0142mie",
                "addr:postcode": "22-100",
                "addr:city": "Che\u0142m",
                "addr:street": "Henryka Wieniawskiego",
                "addr:housenumber": "3",
                "addr:teryt:simc": 929902,
                "addr:teryt:sym_ul": 24123,
                "phone": "+48 825659080",
                "email": "pm15@data.pl",
                "website": "http:\/\/www.przedszkole15chelm.pl",
                "ref:regon": "110003128",
                "ref:vatin": "PL5631619616",
                "operator": "Miasto Che\u0142m",
                "operator:type": "government",
                "amenity": "kindergarten"
            }
        },
        {
            "id": 11573,
            "type": "Feature",
            "geometry": {
                "type": "Point",
                "coordinates": [
                    23.47167,
                    51.12532
                ]
            },
            "properties": {
                "ref:rspo": 11573,
                "official_name": "Przedszkole Miejskie Nr 14 w Che\u0142mie",
                "name": "Przedszkole Miejskie Nr 14 w Che\u0142mie",
                "addr:postcode": "22-100",
                "addr:city": "Che\u0142m",
                "addr:street": "Genera\u0142a Stefana Grota-Roweckiego",
                "addr:housenumber": "4a",
                "addr:teryt:simc": 929902,
                "addr:teryt:sym_ul": 6191,
                "phone": "+48 825657032",
                "email": "pm14.chelm@wp.pl",
                "website": "http:\/\/www.pm14chelm.szkolnastrona.pl",
                "ref:regon": "110003186",
                "ref:vatin": "PL5631388335",
                "operator": "Miasto Che\u0142m",
                "operator:type": "government",
                "amenity": "kindergarten"
            }
        },
        {
            "id": 130337,
            "type": "Feature",
            "geometry": {
                "type": "Point",
                "coordinates": [
                    23.48339,
                    51.12567
                ]
            },
            "properties": {
                "ref:rspo": 130337,
                "official_name": "Niepubliczna Szko\u0142a Specjalna Przysposabiaj\u0105ca Do Pracy w Che\u0142mie",
                "name": "Niepubliczna Szko\u0142a Specjalna Przysposabiaj\u0105ca Do Pracy w Che\u0142mie",
                "addr:postcode": "22-100",
                "addr:city": "Che\u0142m",
                "addr:street": "Wojs\u0142awicka",
                "addr:housenumber": "7",
                "addr:teryt:simc": 929902,
                "addr:teryt:sym_ul": 24637,
                "phone": "+48 825696669",
                "email": "d.wrobel@podgorka.home.pl",
                "ref:regon": "363876461",
                "operator": "Ewa Sp\u00f3\u0142ka Z Ograniczon\u0105 Odpowiedzialno\u015bci\u0105 Sp\u00f3\u0142ka Komandytowa",
                "operator:type": "private",
                "amenity": "school"
            }
        },
        {
            "id": 15066,
            "type": "Feature",
            "geometry": {
                "type": "Point",
                "coordinates": [
                    23.47919,
                    51.12611
                ]
            },
            "properties": {
                "isced:level": "1;2",
                "ref:rspo": 15066,
                "official_name": "Szko\u0142a Podstawowa Nr 6 im. Ireny Sendlerowej w Che\u0142mie",
                "name": "Szko\u0142a Podstawowa Nr 6",
                "addr:postcode": "22-100",
                "addr:city": "Che\u0142m",
                "addr:street": "Powsta\u0144c\u00f3w Warszawy",
                "addr:housenumber": "10",
                "addr:teryt:simc": 929902,
                "addr:teryt:sym_ul": 17372,
                "phone": "+48 825657137",
                "email": "sp6chelm@gmail.com",
                "website": "http:\/\/sp6chelm.szkolnastrona.pl",
                "ref:regon": "110003832",
                "ref:vatin": "PL5631567842",
                "operator": "Miasto Che\u0142m",
                "operator:type": "government",
                "amenity": "school"
            }
        },
        {
            "id": 25034,
            "type": "Feature",
            "geometry": {
                "type": "Point",
                "coordinates": [
                    23.47919,
                    51.126079999999995
                ]
            },
            "properties": {
                "ref:rspo": 25034,
                "official_name": "Ns-Niepubliczne Centrum Kszta\u0142cenia",
                "name": "Ns-Niepubliczne Centrum Kszta\u0142cenia",
                "addr:postcode": "22-100",
                "addr:city": "Che\u0142m",
                "addr:street": "Powsta\u0144c\u00f3w Warszawy",
                "addr:housenumber": "10",
                "addr:teryt:simc": 929902,
                "addr:teryt:sym_ul": 17372,
                "phone": "+48 815333979",
                "email": "ns-ncku.chelm@nsconsulting.pl",
                "ref:regon": "061467503",
                "operator": "Ns Konsulting Sp\u00f3\u0142ka Z Ograniczon\u0105 Odpowiedzialno\u015bci\u0105",
                "operator:type": "private",
                "fixme": "w zale\u017cno\u015bci od przedmiotu dzia\u0142alno\u015bci (np. amenity=training + training=*, amenity=dancing_school, amenity=language_school, amenity=music_school)"
            }
        },
        {
            "id": 264753,
            "type": "Feature",
            "geometry": {
                "type": "Point",
                "coordinates": [
                    23.4629,
                    51.12627
                ]
            },
            "properties": {
                "ref:rspo": 264753,
                "official_name": "Przedszkole Montessori S\u0142oneczko",
                "name": "Przedszkole Montessori S\u0142oneczko",
                "addr:postcode": "22-100",
                "addr:city": "Che\u0142m",
                "addr:street": "Karola Szymanowskiego",
                "addr:housenumber": "8",
                "addr:teryt:simc": 929902,
                "addr:teryt:sym_ul": 22238,
                "email": "kontakt@sloneczko.com.pl",
                "website": "http:\/\/www.sloneczko.com.pl",
                "ref:regon": "368444625",
                "operator": "Data Company Sp\u00f3\u0142ka Z Ograniczon\u0105 Odpowiedzialno\u015bci\u0105",
                "operator:type": "private",
                "amenity": "kindergarten"
            }
        },
        {
            "id": 17978,
            "type": "Feature",
            "geometry": {
                "type": "Point",
                "coordinates": [
                    23.47744,
                    51.12628
                ]
            },
            "properties": {
                "ref:rspo": 17978,
                "official_name": "Zesp\u00f3\u0142 Wychowania I Pomocy Psychologiczno-Pedagogicznej Nr 2 w Che\u0142mie",
                "name": "Zesp\u00f3\u0142 Wychowania I Pomocy Psychologiczno-Pedagogicznej Nr 2 w Che\u0142mie",
                "addr:postcode": "22-100",
                "addr:city": "Che\u0142m",
                "addr:street": "Powsta\u0144c\u00f3w Warszawy",
                "addr:housenumber": "8",
                "addr:teryt:simc": 929902,
                "addr:teryt:sym_ul": 17372,
                "phone": "+48 825657369",
                "email": "pppch2@poczta.onet.pl",
                "website": "http:\/\/www.zwippp2.szkolnastrona.pl",
                "ref:regon": "110710788",
                "ref:vatin": "PL5632141252",
                "operator": "Miasto Che\u0142m",
                "operator:type": "government",
                "landuse": "education",
                "fixme": "amenity=school, amenity=college albo landuse=education w zale\u017cno\u015bci od tego, jakie plac\u00f3wki wchodz\u0105 w sk\u0142ad zespo\u0142u. Sprawd\u017a, kiedy stosowa\u0107 amenity=* a kiedy landuse=education.",
                "note": "Children RSPO: 23165;23167;25032"
            }
        },
        {
            "id": 23165,
            "type": "Feature",
            "geometry": {
                "type": "Point",
                "coordinates": [
                    23.47744,
                    51.12625
                ]
            },
            "properties": {
                "ref:rspo": 23165,
                "official_name": "Bursa Szkolna",
                "name": "Bursa Szkolna",
                "addr:postcode": "22-100",
                "addr:city": "Che\u0142m",
                "addr:street": "Powsta\u0144c\u00f3w Warszawy",
                "addr:housenumber": "8",
                "addr:teryt:simc": 929902,
                "addr:teryt:sym_ul": 17372,
                "phone": "+48 825657369",
                "email": "pppch2@poczta.onet.pl",
                "ref:regon": "001251164",
                "operator": "Miasto Che\u0142m",
                "operator:type": "government",
                "building": "dormitory",
                "note": "Parent RSPO: 17978"
            }
        },
        {
            "id": 25032,
            "type": "Feature",
            "geometry": {
                "type": "Point",
                "coordinates": [
                    23.47744,
                    51.12622
                ]
            },
            "properties": {
                "ref:rspo": 25032,
                "official_name": "Poradnia Psychologiczno-Pedagogiczna Nr 2 w Che\u0142mie",
                "name": "Poradnia Psychologiczno-Pedagogiczna Nr 2 w Che\u0142mie",
                "addr:postcode": "22-100",
                "addr:city": "Che\u0142m",
                "addr:street": "Powsta\u0144c\u00f3w Warszawy",
                "addr:housenumber": "8",
                "addr:teryt:simc": 929902,
                "addr:teryt:sym_ul": 17372,
                "phone": "+48 825657369",
                "email": "pppch2@poczta.onet.pl",
                "ref:regon": "000898998",
                "operator": "Miasto Che\u0142m",
                "operator:type": "government",
                "healthcare": "counselling",
                "counselling_type": "education",
                "fixme": "w zale\u017cno\u015bci od przedmiotu dzia\u0142alno\u015bci (np. healthcare=counselling + counselling_type=education albo healthcare=psychotherapist)",
                "note": "Parent RSPO: 17978"
            }
        },
        {
            "id": 25163,
            "type": "Feature",
            "geometry": {
                "type": "Point",
                "coordinates": [
                    23.47587,
                    51.1264899
                ]
            },
            "properties": {
                "ref:rspo": 25163,
                "official_name": "Przedszkole Miejskie Nr 12 w Che\u0142mie",
                "name": "Przedszkole Miejskie Nr 12 w Che\u0142mie",
                "addr:postcode": "22-100",
                "addr:city": "Che\u0142m",
                "addr:street": "Powsta\u0144c\u00f3w Warszawy",
                "addr:housenumber": "6",
                "addr:teryt:simc": 929902,
                "addr:teryt:sym_ul": 17372,
                "phone": "+48 825657529",
                "email": "pm12.chelm@wp.pl",
                "website": "http:\/\/pm12chelm.szkolnastrona.pl",
                "ref:regon": "110003097",
                "ref:vatin": "PL5631612353",
                "operator": "Miasto Che\u0142m",
                "operator:type": "government",
                "amenity": "kindergarten"
            }
        },
        {
            "id": 41049,
            "type": "Feature",
            "geometry": {
                "type": "Point",
                "coordinates": [
                    23.46251,
                    51.12737
                ]
            },
            "properties": {
                "ref:rspo": 41049,
                "official_name": "Biblioteka Pedagogiczna w Che\u0142mie",
                "name": "Biblioteka Pedagogiczna w Che\u0142mie",
                "addr:postcode": "22-100",
                "addr:city": "Che\u0142m",
                "addr:street": "Henryka Wieniawskiego",
                "addr:housenumber": "15",
                "addr:teryt:simc": 929902,
                "addr:teryt:sym_ul": 24123,
                "phone": "+48 825659655",
                "email": "biblioteka@bpchelm.pl",
                "website": "http:\/\/www.bpchelm.pl",
                "ref:regon": "000712730",
                "ref:vatin": "PL5631543830",
                "operator": "Wojew\u00f3dztwo Lubelskie",
                "operator:type": "government",
                "amenity": "library"
            }
        },
        {
            "id": 17980,
            "type": "Feature",
            "geometry": {
                "type": "Point",
                "coordinates": [
                    23.50377,
                    51.12757
                ]
            },
            "properties": {
                "ref:rspo": 17980,
                "official_name": "Przedszkole Niepubliczne Z Oddzia\u0142ami Integracyjnymi \"Razem\" w Che\u0142mie",
                "name": "Przedszkole Niepubliczne Z Oddzia\u0142ami Integracyjnymi \"Razem\" w Che\u0142mie",
                "addr:postcode": "22-100",
                "addr:city": "Che\u0142m",
                "addr:street": "Botaniczna",
                "addr:housenumber": "16",
                "addr:teryt:simc": 929902,
                "addr:teryt:sym_ul": 1920,
                "phone": "+48 825631459",
                "email": "pm4@data.pl",
                "ref:regon": "061465289",
                "ref:vatin": "PL5632302703",
                "operator": "Joanna G\u0119bal",
                "operator:type": "private",
                "amenity": "kindergarten"
            }
        },
        {
            "id": 18999,
            "type": "Feature",
            "geometry": {
                "type": "Point",
                "coordinates": [
                    23.49183,
                    51.12797
                ]
            },
            "properties": {
                "ref:rspo": 18999,
                "official_name": "Zesp\u00f3\u0142 Szk\u00f3\u0142 Technicznych im. Gen. Zygmunta Bohusza-Szyszko w Che\u0142mie",
                "name": "Zesp\u00f3\u0142 Szk\u00f3\u0142 Technicznych",
                "addr:postcode": "22-100",
                "addr:city": "Che\u0142m",
                "addr:street": "Graniczna",
                "addr:housenumber": "2",
                "addr:teryt:simc": 929902,
                "addr:teryt:sym_ul": 6075,
                "phone": "+48 825603931",
                "email": "zstchelm@onet.pl",
                "website": "http:\/\/www.zst.chelm.pl",
                "ref:regon": "000182780",
                "ref:vatin": "PL5631543770",
                "operator": "Miasto Che\u0142m",
                "operator:type": "government",
                "landuse": "education",
                "fixme": "amenity=school, amenity=college albo landuse=education w zale\u017cno\u015bci od tego, jakie plac\u00f3wki wchodz\u0105 w sk\u0142ad zespo\u0142u. Sprawd\u017a, kiedy stosowa\u0107 amenity=* a kiedy landuse=education.",
                "note": "Children RSPO: 29944;29945"
            }
        },
        {
            "id": 29944,
            "type": "Feature",
            "geometry": {
                "type": "Point",
                "coordinates": [
                    23.49183,
                    51.127939999999995
                ]
            },
            "properties": {
                "isced:level": "3",
                "ref:rspo": 29944,
                "official_name": "Bran\u017cowa Szko\u0142a I Stopnia Nr 2 im. Bohater\u00f3w Ko\u0142obrzeskiego Pu\u0142ku Artylerii w Che\u0142mie",
                "name": "Bran\u017cowa Szko\u0142a I Stopnia Nr 2",
                "addr:postcode": "22-100",
                "addr:city": "Che\u0142m",
                "addr:street": "Graniczna",
                "addr:housenumber": "2",
                "addr:teryt:simc": 929902,
                "addr:teryt:sym_ul": 6075,
                "phone": "+48 825603931",
                "email": "zstchelm@onet.pl",
                "ref:regon": "110606660",
                "operator": "Miasto Che\u0142m",
                "operator:type": "government",
                "amenity": "school",
                "note": "Parent RSPO: 18999"
            }
        },
        {
            "id": 29945,
            "type": "Feature",
            "geometry": {
                "type": "Point",
                "coordinates": [
                    23.49183,
                    51.12791
                ]
            },
            "properties": {
                "isced:level": "3",
                "ref:rspo": 29945,
                "official_name": "Technikum Nr 2",
                "name": "Technikum Nr 2",
                "addr:postcode": "22-100",
                "addr:city": "Che\u0142m",
                "addr:street": "Graniczna",
                "addr:housenumber": "2",
                "addr:teryt:simc": 929902,
                "addr:teryt:sym_ul": 6075,
                "phone": "+48 825603931",
                "email": "zstchelm@onet.pl",
                "ref:regon": "060050907",
                "operator": "Miasto Che\u0142m",
                "operator:type": "government",
                "amenity": "school",
                "note": "Parent RSPO: 18999"
            }
        },
        {
            "id": 130873,
            "type": "Feature",
            "geometry": {
                "type": "Point",
                "coordinates": [
                    23.48633,
                    51.12836
                ]
            },
            "properties": {
                "ref:rspo": 130873,
                "official_name": "Niepubliczne Przedszkole Integracyjne \"Mini Oxford\"",
                "name": "Niepubliczne Przedszkole Integracyjne \"Mini Oxford\"",
                "addr:postcode": "22-100",
                "addr:city": "Che\u0142m",
                "addr:street": "Hrubieszowska",
                "addr:housenumber": "37",
                "addr:teryt:simc": 929902,
                "addr:teryt:sym_ul": 6761,
                "phone": "+48 693721512",
                "email": "biuro@minioxford.pl",
                "website": "http:\/\/minioxford.pl",
                "ref:regon": "364668440",
                "operator": "Innovum Sp\u00f3\u0142ka Z Ograniczon\u0105 Odpowiedzialno\u015bci\u0105",
                "operator:type": "private",
                "amenity": "kindergarten"
            }
        },
        {
            "id": 16931,
            "type": "Feature",
            "geometry": {
                "type": "Point",
                "coordinates": [
                    23.47113,
                    51.12845
                ]
            },
            "properties": {
                "isced:level": "3",
                "ref:rspo": 16931,
                "official_name": "Technikum Zak\u0142adu Doskonalenia Zawodowego w Che\u0142mie",
                "name": "Technikum Zak\u0142adu Doskonalenia Zawodowego w Che\u0142mie",
                "addr:postcode": "22-100",
                "addr:city": "Che\u0142m",
                "addr:street": "Lwowska",
                "addr:housenumber": "37",
                "addr:teryt:simc": 929902,
                "addr:teryt:sym_ul": 11467,
                "phone": "+48 825642201",
                "email": "sekretariat@zdz.chelm.pl",
                "website": "http:\/\/www.zdz.chelm.pl",
                "ref:regon": "061465007",
                "ref:vatin": "PL7120104912",
                "operator": "Zak\u0142ad Doskonalenia Zawodowego W Lublinie",
                "operator:type": "ngo",
                "amenity": "school"
            }
        },
        {
            "id": 25888,
            "type": "Feature",
            "geometry": {
                "type": "Point",
                "coordinates": [
                    23.47113,
                    51.12842
                ]
            },
            "properties": {
                "isced:level": "3",
                "ref:rspo": 25888,
                "official_name": "Bran\u017cowa Szko\u0142a I Stopnia w Che\u0142mie Zak\u0142adu Doskonalenia Zawodowego w Lublinie",
                "name": "Bran\u017cowa Szko\u0142a I Stopnia w Che\u0142mie Zak\u0142adu Doskonalenia Zawodowego w Lublinie",
                "addr:postcode": "22-100",
                "addr:city": "Che\u0142m",
                "addr:street": "Lwowska",
                "addr:housenumber": "37",
                "addr:teryt:simc": 929902,
                "addr:teryt:sym_ul": 11467,
                "phone": "+48 825642201",
                "email": "sekretariat@zdz.chelm.pl",
                "website": "http:\/\/www.zdz.chelm.pl",
                "ref:regon": "061475388",
                "ref:vatin": "PL7120104912",
                "operator": "Zak\u0142ad Doskonalenia Zawodowego W Lublinie",
                "operator:type": "ngo",
                "amenity": "school"
            }
        },
        {
            "id": 28097,
            "type": "Feature",
            "geometry": {
                "type": "Point",
                "coordinates": [
                    23.47113,
                    51.12839
                ]
            },
            "properties": {
                "ref:rspo": 28097,
                "official_name": "Zak\u0142ad Doskonalenia Zawodowego w Lublinie Oddzia\u0142 w Che\u0142mie Centrum Kszta\u0142cenia",
                "name": "Zak\u0142ad Doskonalenia Zawodowego w Lublinie Oddzia\u0142 w Che\u0142mie Centrum Kszta\u0142cenia",
                "addr:postcode": "22-100",
                "addr:city": "Che\u0142m",
                "addr:street": "Lwowska",
                "addr:housenumber": "37",
                "addr:teryt:simc": 929902,
                "addr:teryt:sym_ul": 11467,
                "phone": "+48 825642201",
                "email": "sekretariat@zdz.chelm.pl",
                "website": "http:\/\/www.zdz.chelm.pl",
                "ref:regon": "061471516",
                "ref:vatin": "PL7120104912",
                "operator": "Zak\u0142ad Doskonalenia Zawodowego W Lublinie",
                "operator:type": "ngo",
                "fixme": "w zale\u017cno\u015bci od przedmiotu dzia\u0142alno\u015bci (np. amenity=training + training=*, amenity=dancing_school, amenity=language_school, amenity=music_school)"
            }
        },
        {
            "id": 11574,
            "type": "Feature",
            "geometry": {
                "type": "Point",
                "coordinates": [
                    23.49702,
                    51.12845
                ]
            },
            "properties": {
                "isced:level": "1;2",
                "ref:rspo": 11574,
                "official_name": "Szko\u0142a Podstawowa Nr 4 Z Oddzia\u0142ami Integracyjnymi im. Kardyna\u0142a Stefana Wyszy\u0144skiego w Che\u0142mie",
                "name": "Szko\u0142a Podstawowa Nr 4 Z Oddzia\u0142ami Integracyjnymi",
                "addr:postcode": "22-100",
                "addr:city": "Che\u0142m",
                "addr:street": "Prymasa Stefana Wyszy\u0144skiego",
                "addr:housenumber": "15",
                "addr:teryt:simc": 929902,
                "addr:teryt:sym_ul": 25119,
                "phone": "+48 825603928",
                "email": "sp4@sp4chelm.pl",
                "website": "http:\/\/www.sp4chelm.pl",
                "ref:regon": "000712829",
                "ref:vatin": "PL5631567813",
                "operator": "Miasto Che\u0142m",
                "operator:type": "government",
                "amenity": "school"
            }
        },
        {
            "id": 19002,
            "type": "Feature",
            "geometry": {
                "type": "Point",
                "coordinates": [
                    23.4781,
                    51.12945
                ]
            },
            "properties": {
                "ref:rspo": 19002,
                "official_name": "Niepubliczna Poradnia Psychologiczno-Pedagogiczna Nr 5 w Che\u0142mie",
                "name": "Niepubliczna Poradnia Psychologiczno-Pedagogiczna Nr 5 w Che\u0142mie",
                "addr:postcode": "22-100",
                "addr:city": "Che\u0142m",
                "addr:street": "Partyzant\u00f3w",
                "addr:housenumber": "27-29",
                "addr:teryt:simc": 929902,
                "addr:teryt:sym_ul": 15733,
                "phone": "+48 825648814",
                "email": "poradnia5chelm@poczta.fm",
                "ref:regon": "061464309",
                "ref:vatin": "PL5651103330",
                "operator": "Irmina Postawska",
                "operator:type": "private",
                "healthcare": "counselling",
                "counselling_type": "education",
                "fixme": "w zale\u017cno\u015bci od przedmiotu dzia\u0142alno\u015bci (np. healthcare=counselling + counselling_type=education albo healthcare=psychotherapist)"
            }
        },
        {
            "id": 25891,
            "type": "Feature",
            "geometry": {
                "type": "Point",
                "coordinates": [
                    23.4781,
                    51.129419999999996
                ]
            },
            "properties": {
                "isced:level": "1;2",
                "ref:rspo": 25891,
                "official_name": "Niepubliczna Szko\u0142a Podstawowa Nr 2 Z Oddzia\u0142ami Integracyjnymi w Che\u0142mie",
                "name": "Niepubliczna Szko\u0142a Podstawowa Nr 2 Z Oddzia\u0142ami Integracyjnymi w Che\u0142mie",
                "addr:postcode": "22-100",
                "addr:city": "Che\u0142m",
                "addr:street": "Partyzant\u00f3w",
                "addr:housenumber": "27-29",
                "addr:teryt:simc": 929902,
                "addr:teryt:sym_ul": 15733,
                "phone": "+48 825650563",
                "email": "niepubliczna2@interia.eu",
                "ref:regon": "061468419",
                "ref:vatin": "PL5631202299",
                "operator": "Barbara Samonek",
                "operator:type": "private",
                "amenity": "school"
            }
        },
        {
            "id": 270446,
            "type": "Feature",
            "geometry": {
                "type": "Point",
                "coordinates": [
                    23.4781,
                    51.12939
                ]
            },
            "properties": {
                "isced:level": "1;2",
                "ref:rspo": 270446,
                "official_name": "Niepubliczna Specjalna Szko\u0142a Podstawowa w Che\u0142mie",
                "name": "Niepubliczna Specjalna Szko\u0142a Podstawowa w Che\u0142mie",
                "addr:postcode": "22-100",
                "addr:city": "Che\u0142m",
                "addr:street": "Partyzant\u00f3w",
                "addr:housenumber": "27-29",
                "addr:teryt:simc": 929902,
                "addr:teryt:sym_ul": 15733,
                "ref:regon": "382585177",
                "operator": "Ewa Sp\u00f3\u0142ka Z Ograniczon\u0105 Odpowiedzialno\u015bci\u0105",
                "operator:type": "private",
                "amenity": "school"
            }
        },
        {
            "id": 271605,
            "type": "Feature",
            "geometry": {
                "type": "Point",
                "coordinates": [
                    23.4781,
                    51.12936
                ]
            },
            "properties": {
                "ref:rspo": 271605,
                "official_name": "J\u0119zykowe Przedszkole Integracyjne \"Jacu\u015b\" w Che\u0142mie",
                "name": "J\u0119zykowe Przedszkole Integracyjne \"Jacu\u015b\" w Che\u0142mie",
                "addr:postcode": "22-100",
                "addr:city": "Che\u0142m",
                "addr:street": "Partyzant\u00f3w",
                "addr:housenumber": "27-29",
                "addr:teryt:simc": 929902,
                "addr:teryt:sym_ul": 15733,
                "ref:regon": "383450692",
                "operator": "Ewa Sp\u00f3\u0142ka Z Ograniczon\u0105 Odpowiedzialno\u015bci\u0105",
                "operator:type": "private",
                "amenity": "kindergarten"
            }
        },
        {
            "id": 273088,
            "type": "Feature",
            "geometry": {
                "type": "Point",
                "coordinates": [
                    23.4781,
                    51.129329999999996
                ]
            },
            "properties": {
                "ref:rspo": 273088,
                "official_name": "Niepubliczna Poradnia Psychologiczno-Pedagogiczna w Che\u0142mie",
                "name": "Niepubliczna Poradnia Psychologiczno-Pedagogiczna w Che\u0142mie",
                "addr:postcode": "22-100",
                "addr:city": "Che\u0142m",
                "addr:street": "Partyzant\u00f3w",
                "addr:housenumber": "27-29",
                "addr:teryt:simc": 929902,
                "addr:teryt:sym_ul": 15733,
                "phone": "+48 825650563",
                "email": "i.kalinska@podgorka.home.pl",
                "ref:regon": "384372830",
                "operator": "Ewa Sp\u00f3\u0142ka Z Ograniczon\u0105 Odpowiedzialno\u015bci\u0105 Sp\u00f3\u0142ka Komandytowa",
                "operator:type": "private",
                "healthcare": "counselling",
                "counselling_type": "education",
                "fixme": "w zale\u017cno\u015bci od przedmiotu dzia\u0142alno\u015bci (np. healthcare=counselling + counselling_type=education albo healthcare=psychotherapist)"
            }
        },
        {
            "id": 274066,
            "type": "Feature",
            "geometry": {
                "type": "Point",
                "coordinates": [
                    23.4781,
                    51.1293
                ]
            },
            "properties": {
                "isced:level": "3",
                "ref:rspo": 274066,
                "official_name": "Niepubliczne Specjalne Liceum Og\u00f3lnokszta\u0142c\u0105ce",
                "name": "Niepubliczne Specjalne Liceum Og\u00f3lnokszta\u0142c\u0105ce",
                "addr:postcode": "22-100",
                "addr:city": "Che\u0142m",
                "addr:street": "Partyzant\u00f3w",
                "addr:housenumber": "27-29",
                "addr:teryt:simc": 929902,
                "addr:teryt:sym_ul": 15733,
                "phone": "+48 825650563",
                "email": "d.wrobel@podgorka.home.pl",
                "ref:regon": "385139930",
                "operator": "Ewa Sp\u00f3\u0142ka Z Ograniczon\u0105 Odpowiedzialno\u015bci\u0105",
                "operator:type": "private",
                "amenity": "school"
            }
        },
        {
            "id": 274562,
            "type": "Feature",
            "geometry": {
                "type": "Point",
                "coordinates": [
                    23.47283,
                    51.13049
                ]
            },
            "properties": {
                "ref:rspo": 274562,
                "official_name": "Centrum Doskonalenia Nauczycieli I Kszta\u0142cenia Ustawicznego Centrum Edukacji",
                "name": "Centrum Doskonalenia Nauczycieli I Kszta\u0142cenia Ustawicznego Centrum Edukacji",
                "addr:postcode": "22-100",
                "addr:city": "Che\u0142m",
                "addr:street": "Lwowska",
                "addr:housenumber": "13 R",
                "addr:teryt:simc": 929902,
                "addr:teryt:sym_ul": 11467,
                "email": "jacek.daniel@gada.pl",
                "website": "http:\/\/www.e-csd.biz",
                "ref:regon": "385963154",
                "ref:vatin": "PL5631447701",
                "operator": "Centrum Szkoleniowo Doradcze Jacek Daniel",
                "operator:type": "cooperative",
                "amenity": "training"
            }
        },
        {
            "id": 14775,
            "type": "Feature",
            "geometry": {
                "type": "Point",
                "coordinates": [
                    23.46962928772,
                    51.131000518799
                ]
            },
            "properties": {
                "ref:rspo": 14775,
                "official_name": "Przedszkole Miejskie Nr 8 w Che\u0142mie",
                "name": "Przedszkole Miejskie Nr 8 w Che\u0142mie",
                "addr:postcode": "22-100",
                "addr:city": "Che\u0142m",
                "addr:street": "Miko\u0142aja Reja",
                "addr:housenumber": "54",
                "addr:teryt:simc": 929902,
                "addr:teryt:sym_ul": 18565,
                "phone": "+48 825630151",
                "email": "pm8@data.pl",
                "website": "http:\/\/www.pm8.pl",
                "ref:regon": "110003170",
                "ref:vatin": "PL5631612436",
                "operator": "Miasto Che\u0142m",
                "operator:type": "government",
                "amenity": "kindergarten"
            }
        },
        {
            "id": 25042,
            "type": "Feature",
            "geometry": {
                "type": "Point",
                "coordinates": [
                    23.46962928772,
                    51.130970518798996
                ]
            },
            "properties": {
                "isced:level": "1;2",
                "ref:rspo": 25042,
                "official_name": "Niepubliczna Szko\u0142a Podstawowa Z Oddzia\u0142ami Integracyjnymi \"Razem\" w Che\u0142mie",
                "name": "Niepubliczna Szko\u0142a Podstawowa Z Oddzia\u0142ami Integracyjnymi \"Razem\" w Che\u0142mie",
                "addr:postcode": "22-100",
                "addr:city": "Che\u0142m",
                "addr:street": "Miko\u0142aja Reja",
                "addr:housenumber": "54",
                "addr:teryt:simc": 929902,
                "addr:teryt:sym_ul": 18565,
                "phone": "+48 825630651",
                "email": "sprazem@o2.pl",
                "website": "http:\/\/www.razem.szkola.pl",
                "ref:regon": "061469100",
                "operator": "Joanna G\u0119bal",
                "operator:type": "private",
                "amenity": "school"
            }
        },
        {
            "id": 14778,
            "type": "Feature",
            "geometry": {
                "type": "Point",
                "coordinates": [
                    23.478,
                    51.13113
                ]
            },
            "properties": {
                "ref:rspo": 14778,
                "official_name": "M\u0142odzie\u017cowy Dom Kultury w Che\u0142mie",
                "name": "M\u0142odzie\u017cowy Dom Kultury w Che\u0142mie",
                "addr:postcode": "22-100",
                "addr:city": "Che\u0142m",
                "addr:street": "Pocztowa",
                "addr:housenumber": "41",
                "addr:teryt:simc": 929902,
                "addr:teryt:sym_ul": 16579,
                "phone": "+48 825652157",
                "email": "mdk.chelm@gmail.com",
                "website": "http:\/\/www.mdkchelm.pl",
                "ref:regon": "000712752",
                "ref:vatin": "PL5631543876",
                "operator": "Miasto Che\u0142m",
                "operator:type": "government",
                "amenity": "community_centre",
                "community_centre:for": "juvenile"
            }
        },
        {
            "id": 19003,
            "type": "Feature",
            "geometry": {
                "type": "Point",
                "coordinates": [
                    23.47175,
                    51.13136
                ]
            },
            "properties": {
                "isced:level": "4",
                "ref:rspo": 19003,
                "official_name": "Szko\u0142a Policealna Centrum Nauki I Biznesu \"\u017bak\"",
                "name": "Szko\u0142a Policealna Centrum Nauki I Biznesu \"\u017bak\"",
                "addr:postcode": "22-100",
                "addr:city": "Che\u0142m",
                "addr:street": "Lwowska",
                "addr:housenumber": "12",
                "addr:teryt:simc": 929902,
                "addr:teryt:sym_ul": 11467,
                "phone": "+48 825642349",
                "email": "chelm@zak.edu.pl",
                "website": "http:\/\/www.zak.edu.pl",
                "ref:regon": "061465065",
                "ref:vatin": "PL7292597869",
                "operator": "Centrum Nauki I Biznesu \"\u017bak\" Sp\u00f3\u0142ka Z Ograniczon\u0105 Odpowiedzialno\u015bci\u0105",
                "operator:type": "private",
                "amenity": "college"
            }
        },
        {
            "id": 19008,
            "type": "Feature",
            "geometry": {
                "type": "Point",
                "coordinates": [
                    23.47175,
                    51.13133
                ]
            },
            "properties": {
                "ref:rspo": 19008,
                "official_name": "O\u015brodek Szkoleniowy Centrum Nauki I Biznesu \"\u017bak\" w Che\u0142mie",
                "name": "O\u015brodek Szkoleniowy Centrum Nauki I Biznesu \"\u017bak\" w Che\u0142mie",
                "addr:postcode": "22-100",
                "addr:city": "Che\u0142m",
                "addr:street": "Lwowska",
                "addr:housenumber": "12",
                "addr:teryt:simc": 929902,
                "addr:teryt:sym_ul": 11467,
                "phone": "+48 825642349",
                "email": "chelm@zak.edu.pl",
                "website": "http:\/\/www.zak.edu.pl",
                "ref:regon": "061465094",
                "ref:vatin": "PL7292597869",
                "operator": "Centrum Nauki I Biznesu \"\u017bak\" Sp\u00f3\u0142ka Z Ograniczon\u0105 Odpowiedzialno\u015bci\u0105",
                "operator:type": "private",
                "fixme": "w zale\u017cno\u015bci od przedmiotu dzia\u0142alno\u015bci (np. amenity=training + training=*, amenity=dancing_school, amenity=language_school, amenity=music_school)"
            }
        },
        {
            "id": 128485,
            "type": "Feature",
            "geometry": {
                "type": "Point",
                "coordinates": [
                    23.47175,
                    51.1313
                ]
            },
            "properties": {
                "isced:level": "4",
                "ref:rspo": 128485,
                "official_name": "Szko\u0142a Policealna Medyczna \"\u017bak\" w Che\u0142mie",
                "name": "Szko\u0142a Policealna Medyczna \"\u017bak\" w Che\u0142mie",
                "addr:postcode": "22-100",
                "addr:city": "Che\u0142m",
                "addr:street": "Lwowska",
                "addr:housenumber": "12",
                "addr:teryt:simc": 929902,
                "addr:teryt:sym_ul": 11467,
                "phone": "+48 825642349",
                "email": "chelm@zak.edu.pl",
                "website": "http:\/\/www.zak.edu.pl",
                "ref:regon": "362301474",
                "operator": "Centrum Nauki I Biznesu \"\u017bak\" Sp\u00f3\u0142ka Z Ograniczon\u0105 Odpowiedzialno\u015bci\u0105",
                "operator:type": "private",
                "amenity": "college"
            }
        },
        {
            "id": 128487,
            "type": "Feature",
            "geometry": {
                "type": "Point",
                "coordinates": [
                    23.47175,
                    51.13127
                ]
            },
            "properties": {
                "isced:level": "4",
                "ref:rspo": 128487,
                "official_name": "Szko\u0142a Policealna Opieki Medycznej \"\u017bak\" w Che\u0142mie",
                "name": "Szko\u0142a Policealna Opieki Medycznej \"\u017bak\" w Che\u0142mie",
                "addr:postcode": "22-100",
                "addr:city": "Che\u0142m",
                "addr:street": "Lwowska",
                "addr:housenumber": "12",
                "addr:teryt:simc": 929902,
                "addr:teryt:sym_ul": 11467,
                "phone": "+48 825642349",
                "email": "chelm@zak.edu.pl",
                "website": "http:\/\/www.zak.edu.pl",
                "ref:regon": "362301770",
                "operator": "Centrum Nauki I Biznesu \"\u017bak\" Sp\u00f3\u0142ka Z Ograniczon\u0105 Odpowiedzialno\u015bci\u0105",
                "operator:type": "private",
                "amenity": "college"
            }
        },
        {
            "id": 131623,
            "type": "Feature",
            "geometry": {
                "type": "Point",
                "coordinates": [
                    23.47175,
                    51.13124
                ]
            },
            "properties": {
                "isced:level": "3",
                "ref:rspo": 131623,
                "official_name": "Liceum Og\u00f3lnokszta\u0142c\u0105ce dla Doros\u0142ych \"\u017bak\" w Che\u0142mie",
                "name": "Liceum Og\u00f3lnokszta\u0142c\u0105ce dla Doros\u0142ych \"\u017bak\" w Che\u0142mie",
                "addr:postcode": "22-100",
                "addr:city": "Che\u0142m",
                "addr:street": "Lwowska",
                "addr:housenumber": "12",
                "addr:teryt:simc": 929902,
                "addr:teryt:sym_ul": 11467,
                "phone": "+48 825642349",
                "email": "chelm@zak.edu.pl",
                "website": "http:\/\/www.chelm.zak.edu.pl",
                "ref:regon": "365318512",
                "operator": "Centrum Nauki I Biznesu \"\u017bak\" Sp\u00f3\u0142ka Z Ograniczon\u0105 Odpowiedzialno\u015bci\u0105",
                "operator:type": "private",
                "amenity": "school"
            }
        },
        {
            "id": 14178,
            "type": "Feature",
            "geometry": {
                "type": "Point",
                "coordinates": [
                    23.50803,
                    51.13147
                ]
            },
            "properties": {
                "ref:rspo": 14178,
                "official_name": "Zesp\u00f3\u0142 Szk\u00f3\u0142 Energetycznych I Transportowych im. Ks. Stanis\u0142awa Staszica w Che\u0142mie",
                "name": "Zesp\u00f3\u0142 Szk\u00f3\u0142 Energetycznych I Transportowych",
                "addr:postcode": "22-100",
                "addr:city": "Che\u0142m",
                "addr:street": "Jagiello\u0144ska",
                "addr:housenumber": "29",
                "addr:teryt:simc": 929902,
                "addr:teryt:sym_ul": 7029,
                "phone": "+48 825632838",
                "email": "sekretariat@zseit-chelm.pl",
                "website": "http:\/\/www.zseit-chelm.pl",
                "ref:regon": "000200940",
                "ref:vatin": "PL5631808062",
                "operator": "Miasto Che\u0142m",
                "operator:type": "government",
                "landuse": "education",
                "fixme": "amenity=school, amenity=college albo landuse=education w zale\u017cno\u015bci od tego, jakie plac\u00f3wki wchodz\u0105 w sk\u0142ad zespo\u0142u. Sprawd\u017a, kiedy stosowa\u0107 amenity=* a kiedy landuse=education.",
                "note": "Children RSPO: 25893;25895;275667"
            }
        },
        {
            "id": 25036,
            "type": "Feature",
            "geometry": {
                "type": "Point",
                "coordinates": [
                    23.50803,
                    51.13144
                ]
            },
            "properties": {
                "ref:rspo": 25036,
                "official_name": "O.k-Niepubliczne Centrum Kszta\u0142cenia w Che\u0142mie",
                "name": "O.k-Niepubliczne Centrum Kszta\u0142cenia w Che\u0142mie",
                "addr:postcode": "22-100",
                "addr:city": "Che\u0142m",
                "addr:street": "Jagiello\u0144ska",
                "addr:housenumber": "29",
                "addr:teryt:simc": 929902,
                "addr:teryt:sym_ul": 7029,
                "email": "ok-ncku@okcjo.com.pl",
                "ref:regon": "061467905",
                "operator": "\"O.k. Centrum J\u0119zyk\u00f3w Obcych\" Sp\u00f3\u0142ka Z Ograniczon\u0105 Odpowiedzialno\u015bci\u0105",
                "operator:type": "private",
                "fixme": "w zale\u017cno\u015bci od przedmiotu dzia\u0142alno\u015bci (np. amenity=training + training=*, amenity=dancing_school, amenity=language_school, amenity=music_school)"
            }
        },
        {
            "id": 25037,
            "type": "Feature",
            "geometry": {
                "type": "Point",
                "coordinates": [
                    23.50803,
                    51.13141
                ]
            },
            "properties": {
                "ref:rspo": 25037,
                "official_name": "Terra-Niepubliczne Centrum Kszta\u0142cenia w Che\u0142mie",
                "name": "Terra-Niepubliczne Centrum Kszta\u0142cenia w Che\u0142mie",
                "addr:postcode": "22-100",
                "addr:city": "Che\u0142m",
                "addr:street": "Jagiello\u0144ska",
                "addr:housenumber": "29",
                "addr:teryt:simc": 929902,
                "addr:teryt:sym_ul": 7029,
                "email": "terra-ncku@terra-szkolenia.pl",
                "ref:regon": "061467940",
                "operator": "Przemys\u0142aw Omieczy\u0144ski",
                "operator:type": "private",
                "fixme": "w zale\u017cno\u015bci od przedmiotu dzia\u0142alno\u015bci (np. amenity=training + training=*, amenity=dancing_school, amenity=language_school, amenity=music_school)"
            }
        },
        {
            "id": 132392,
            "type": "Feature",
            "geometry": {
                "type": "Point",
                "coordinates": [
                    23.50803,
                    51.13138
                ]
            },
            "properties": {
                "ref:rspo": 132392,
                "official_name": "Terra Niepubliczna Poradnia Psychologiczno-Pedagogiczna",
                "name": "Terra Niepubliczna Poradnia Psychologiczno-Pedagogiczna",
                "addr:postcode": "22-100",
                "addr:city": "Che\u0142m",
                "addr:street": "Jagiello\u0144ska",
                "addr:housenumber": "29",
                "addr:teryt:simc": 929902,
                "addr:teryt:sym_ul": 7029,
                "email": "biuro@terra-szkolenia.pl",
                "ref:regon": "365588803",
                "operator": "Przemys\u0142aw Omieczy\u0144ski",
                "operator:type": "private",
                "healthcare": "counselling",
                "counselling_type": "education",
                "fixme": "w zale\u017cno\u015bci od przedmiotu dzia\u0142alno\u015bci (np. healthcare=counselling + counselling_type=education albo healthcare=psychotherapist)"
            }
        },
        {
            "id": 275501,
            "type": "Feature",
            "geometry": {
                "type": "Point",
                "coordinates": [
                    23.50803,
                    51.13135
                ]
            },
            "properties": {
                "ref:rspo": 275501,
                "official_name": "Centrum Kszta\u0142cenia Zawodowego I Ustawicznego w Che\u0142mie",
                "name": "Centrum Kszta\u0142cenia Zawodowego I Ustawicznego w Che\u0142mie",
                "addr:postcode": "22-100",
                "addr:city": "Che\u0142m",
                "addr:street": "Jagiello\u0144ska",
                "addr:housenumber": "29",
                "addr:teryt:simc": 929902,
                "addr:teryt:sym_ul": 7029,
                "phone": "+48 825631323",
                "email": "sekretariat@ckziuchelm.pl",
                "website": "http:\/\/www.ckziuchelm.pl",
                "ref:regon": "386921643",
                "operator": "Miasto Che\u0142m",
                "operator:type": "government",
                "amenity": "school",
                "fixme": "amenity=school lub amenity=college",
                "note": "Children RSPO: 31684;31685"
            }
        },
        {
            "id": 25893,
            "type": "Feature",
            "geometry": {
                "type": "Point",
                "coordinates": [
                    23.50803,
                    51.13132
                ]
            },
            "properties": {
                "isced:level": "3",
                "ref:rspo": 25893,
                "official_name": "Technikum Nr 5 w Che\u0142mie",
                "name": "Technikum Nr 5 w Che\u0142mie",
                "addr:postcode": "22-100",
                "addr:city": "Che\u0142m",
                "addr:street": "Jagiello\u0144ska",
                "addr:housenumber": "29",
                "addr:teryt:simc": 929902,
                "addr:teryt:sym_ul": 7029,
                "phone": "+48 825632838",
                "email": "sekretariat@zseit-chelm.pl",
                "website": "http:\/\/www.zseit-chelm.pl",
                "ref:regon": "110604715",
                "operator": "Miasto Che\u0142m",
                "operator:type": "government",
                "amenity": "school",
                "note": "Parent RSPO: 14178"
            }
        },
        {
            "id": 25895,
            "type": "Feature",
            "geometry": {
                "type": "Point",
                "coordinates": [
                    23.50803,
                    51.13129
                ]
            },
            "properties": {
                "isced:level": "3",
                "ref:rspo": 25895,
                "official_name": "Bran\u017cowa Szko\u0142a I Stopnia Nr 5 w Che\u0142mie",
                "name": "Bran\u017cowa Szko\u0142a I Stopnia Nr 5 w Che\u0142mie",
                "addr:postcode": "22-100",
                "addr:city": "Che\u0142m",
                "addr:street": "Jagiello\u0144ska",
                "addr:housenumber": "29",
                "addr:teryt:simc": 929902,
                "addr:teryt:sym_ul": 7029,
                "phone": "+48 825632838",
                "email": "sekretariat@zseit-chelm.pl",
                "website": "http:\/\/www.zseit-chelm.pl",
                "ref:regon": "110604750",
                "operator": "Miasto Che\u0142m",
                "operator:type": "government",
                "amenity": "school",
                "note": "Parent RSPO: 14178"
            }
        },
        {
            "id": 275667,
            "type": "Feature",
            "geometry": {
                "type": "Point",
                "coordinates": [
                    23.50803,
                    51.13126
                ]
            },
            "properties": {
                "isced:level": "3",
                "ref:rspo": 275667,
                "official_name": "Bran\u017cowa Szko\u0142a II Stopnia Nr 5 w Che\u0142mie",
                "name": "Bran\u017cowa Szko\u0142a II Stopnia Nr 5 w Che\u0142mie",
                "addr:postcode": "22-100",
                "addr:city": "Che\u0142m",
                "addr:street": "Jagiello\u0144ska",
                "addr:housenumber": "29",
                "addr:teryt:simc": 929902,
                "addr:teryt:sym_ul": 7029,
                "phone": "+48 825632838",
                "email": "sekretariat@zseit-chelm.pl",
                "ref:regon": "386930850",
                "operator": "Miasto Che\u0142m",
                "operator:type": "government",
                "amenity": "school",
                "note": "Parent RSPO: 14178"
            }
        },
        {
            "id": 9367,
            "type": "Feature",
            "geometry": {
                "type": "Point",
                "coordinates": [
                    23.4743824,
                    51.1315556
                ]
            },
            "properties": {
                "ref:rspo": 9367,
                "official_name": "Przedszkole Miejskie Nr 6 w Che\u0142mie",
                "name": "Przedszkole Miejskie Nr 6 w Che\u0142mie",
                "addr:postcode": "22-100",
                "addr:city": "Che\u0142m",
                "addr:street": "Pocztowa",
                "addr:housenumber": "18A",
                "addr:teryt:simc": 929902,
                "addr:teryt:sym_ul": 16579,
                "phone": "+48 825653880",
                "email": "pm6chelm@interia.pl",
                "website": "http:\/\/www.pm6chelm.szkolnastrona.pl",
                "ref:regon": "110003022",
                "ref:vatin": "PL5631531732",
                "operator": "Miasto Che\u0142m",
                "operator:type": "government",
                "amenity": "kindergarten"
            }
        },
        {
            "id": 130539,
            "type": "Feature",
            "geometry": {
                "type": "Point",
                "coordinates": [
                    23.47824,
                    51.13167
                ]
            },
            "properties": {
                "ref:rspo": 130539,
                "official_name": "Niepubliczne Przedszkole Integracyjne \"Arka Przysz\u0142o\u015bci\"",
                "name": "Niepubliczne Przedszkole Integracyjne \"Arka Przysz\u0142o\u015bci\"",
                "addr:postcode": "22-100",
                "addr:city": "Che\u0142m",
                "addr:street": "Lubelska",
                "addr:housenumber": "2",
                "addr:teryt:simc": 929902,
                "addr:teryt:sym_ul": 11307,
                "phone": "+48 825425135",
                "ref:regon": "364167896",
                "operator": "Integral Arka Sp\u00f3\u0142ka Z Ograniczon\u0105 Odpowiedzialno\u015bci\u0105",
                "operator:type": "private",
                "amenity": "kindergarten"
            }
        },
        {
            "id": 14177,
            "type": "Feature",
            "geometry": {
                "type": "Point",
                "coordinates": [
                    23.49741,
                    51.1317499
                ]
            },
            "properties": {
                "ref:rspo": 14177,
                "official_name": "Zesp\u00f3\u0142 Szk\u00f3\u0142 Budowlanych I Geodezyjnych im. \u017bo\u0142nierzy 24 Pu\u0142ku Artylerii Pancernej w Che\u0142mie",
                "name": "Zesp\u00f3\u0142 Szk\u00f3\u0142 Budowlanych I Geodezyjnych",
                "addr:postcode": "22-100",
                "addr:city": "Che\u0142m",
                "addr:street": "Stefana Batorego",
                "addr:housenumber": "1",
                "addr:teryt:simc": 929902,
                "addr:teryt:sym_ul": 891,
                "phone": "+48 825631891",
                "email": "zsb.chelm@wp.pl",
                "website": "http:\/\/www.zsb.chelm.pl",
                "ref:regon": "000183288",
                "ref:vatin": "PL5631810521",
                "operator": "Miasto Che\u0142m",
                "operator:type": "government",
                "landuse": "education",
                "fixme": "amenity=school, amenity=college albo landuse=education w zale\u017cno\u015bci od tego, jakie plac\u00f3wki wchodz\u0105 w sk\u0142ad zespo\u0142u. Sprawd\u017a, kiedy stosowa\u0107 amenity=* a kiedy landuse=education.",
                "note": "Children RSPO: 20819;25892;275639"
            }
        },
        {
            "id": 20819,
            "type": "Feature",
            "geometry": {
                "type": "Point",
                "coordinates": [
                    23.49741,
                    51.1317199
                ]
            },
            "properties": {
                "isced:level": "3",
                "ref:rspo": 20819,
                "official_name": "Bran\u017cowa Szko\u0142a I Stopnia Nr 1 w Che\u0142mie",
                "name": "Bran\u017cowa Szko\u0142a I Stopnia Nr 1 w Che\u0142mie",
                "addr:postcode": "22-100",
                "addr:city": "Che\u0142m",
                "addr:street": "Stefana Batorego",
                "addr:housenumber": "1",
                "addr:teryt:simc": 929902,
                "addr:teryt:sym_ul": 891,
                "phone": "+48 825631891",
                "email": "zsb.chelm@wp.pl",
                "website": "http:\/\/www.zsb.chelm.pl",
                "ref:regon": "110598877",
                "ref:vatin": "PL5631810521",
                "operator": "Miasto Che\u0142m",
                "operator:type": "government",
                "amenity": "school",
                "note": "Parent RSPO: 14177"
            }
        },
        {
            "id": 25892,
            "type": "Feature",
            "geometry": {
                "type": "Point",
                "coordinates": [
                    23.49741,
                    51.131689900000005
                ]
            },
            "properties": {
                "isced:level": "3",
                "ref:rspo": 25892,
                "official_name": "Technikum Nr 1 w Che\u0142mie",
                "name": "Technikum Nr 1 w Che\u0142mie",
                "addr:postcode": "22-100",
                "addr:city": "Che\u0142m",
                "addr:street": "Stefana Batorego",
                "addr:housenumber": "1",
                "addr:teryt:simc": 929902,
                "addr:teryt:sym_ul": 891,
                "phone": "+48 825631891",
                "email": "zsb.chelm@wp.pl",
                "website": "http:\/\/www.zsb.chelm.pl",
                "ref:regon": "110598854",
                "ref:vatin": "PL5631810521",
                "operator": "Miasto Che\u0142m",
                "operator:type": "government",
                "amenity": "school",
                "note": "Parent RSPO: 14177"
            }
        },
        {
            "id": 275639,
            "type": "Feature",
            "geometry": {
                "type": "Point",
                "coordinates": [
                    23.49741,
                    51.1316599
                ]
            },
            "properties": {
                "isced:level": "3",
                "ref:rspo": 275639,
                "official_name": "Bran\u017cowa Szko\u0142a II Stopnia Nr 1 w Che\u0142mie",
                "name": "Bran\u017cowa Szko\u0142a II Stopnia Nr 1 w Che\u0142mie",
                "addr:postcode": "22-100",
                "addr:city": "Che\u0142m",
                "addr:street": "Stefana Batorego",
                "addr:housenumber": "1",
                "addr:teryt:simc": 929902,
                "addr:teryt:sym_ul": 891,
                "phone": "+48 825631891",
                "email": "zsb.chelm@wp.pl",
                "ref:regon": "386929981",
                "operator": "Miasto Che\u0142m",
                "operator:type": "government",
                "amenity": "school",
                "note": "Parent RSPO: 14177"
            }
        },
        {
            "id": 31684,
            "type": "Feature",
            "geometry": {
                "type": "Point",
                "coordinates": [
                    23.49741,
                    51.1316299
                ]
            },
            "properties": {
                "isced:level": "4",
                "ref:rspo": 31684,
                "official_name": "Szko\u0142a Policealna w Che\u0142mie",
                "name": "Szko\u0142a Policealna w Che\u0142mie",
                "addr:postcode": "22-100",
                "addr:city": "Che\u0142m",
                "addr:street": "Stefana Batorego",
                "addr:housenumber": "1",
                "addr:teryt:simc": 929902,
                "addr:teryt:sym_ul": 891,
                "phone": "+48 825631285",
                "email": "sekretariat@ckziuchelm.pl",
                "website": "http:\/\/www.ckziuchelm.pl",
                "ref:regon": "110609026",
                "operator": "Miasto Che\u0142m",
                "operator:type": "government",
                "amenity": "college",
                "note": "Parent RSPO: 275501"
            }
        },
        {
            "id": 31685,
            "type": "Feature",
            "geometry": {
                "type": "Point",
                "coordinates": [
                    23.49741,
                    51.131599900000005
                ]
            },
            "properties": {
                "isced:level": "3",
                "ref:rspo": 31685,
                "official_name": "Liceum Og\u00f3lnokszta\u0142c\u0105ce dla Doros\u0142ych Nr Vii",
                "name": "Liceum Og\u00f3lnokszta\u0142c\u0105ce dla Doros\u0142ych Nr Vii",
                "addr:postcode": "22-100",
                "addr:city": "Che\u0142m",
                "addr:street": "Stefana Batorego",
                "addr:housenumber": "1",
                "addr:teryt:simc": 929902,
                "addr:teryt:sym_ul": 891,
                "phone": "+48 825631285",
                "email": "sekretariat@ckziuchelm.pl",
                "website": "http:\/\/www.ckziuchelm.pl",
                "ref:regon": "110609010",
                "operator": "Miasto Che\u0142m",
                "operator:type": "government",
                "amenity": "school",
                "note": "Parent RSPO: 275501"
            }
        },
        {
            "id": 44645,
            "type": "Feature",
            "geometry": {
                "type": "Point",
                "coordinates": [
                    23.4728,
                    51.13229
                ]
            },
            "properties": {
                "ref:rspo": 44645,
                "official_name": "Spo\u0142eczna Szko\u0142a Muzyczna I St. w Che\u0142mie",
                "name": "Spo\u0142eczna Szko\u0142a Muzyczna I St. w Che\u0142mie",
                "addr:postcode": "22-100",
                "addr:city": "Che\u0142m",
                "addr:street": "U\u015bci\u0142ugska",
                "addr:housenumber": "1",
                "addr:teryt:simc": 929902,
                "addr:teryt:sym_ul": 23445,
                "phone": "+48 825653185",
                "email": "ssmchelm@poczta.onet.pl",
                "website": "http:\/\/www.muzycznachelm.szkolnastrona.pl",
                "ref:regon": "061484128",
                "operator": "Samodzielne Ko\u0142o Terenowe Nr 122 Spo\u0142ecznego Towarzystwa O\u015bwiatowego W Che\u0142mie",
                "operator:type": "ngo",
                "amenity": "music_school"
            }
        },
        {
            "id": 14533,
            "type": "Feature",
            "geometry": {
                "type": "Point",
                "coordinates": [
                    23.47038,
                    51.13245
                ]
            },
            "properties": {
                "ref:rspo": 14533,
                "official_name": "Zesp\u00f3\u0142 Szk\u00f3\u0142 Gastronomicznych I Hotelarskich im. Kazimierza Andrzeja Jaworskiego w Che\u0142mie",
                "name": "Zesp\u00f3\u0142 Szk\u00f3\u0142 Gastronomicznych I Hotelarskich",
                "addr:postcode": "22-100",
                "addr:city": "Che\u0142m",
                "addr:street": "Reformacka",
                "addr:housenumber": "13",
                "addr:teryt:simc": 929902,
                "addr:teryt:sym_ul": 18541,
                "phone": "+48 825652706",
                "email": "zsgihchelm@wp.pl",
                "website": "http:\/\/www.zsgihchelm.pl",
                "ref:regon": "000200696",
                "ref:vatin": "PL5631811006",
                "operator": "Miasto Che\u0142m",
                "operator:type": "government",
                "landuse": "education",
                "fixme": "amenity=school, amenity=college albo landuse=education w zale\u017cno\u015bci od tego, jakie plac\u00f3wki wchodz\u0105 w sk\u0142ad zespo\u0142u. Sprawd\u017a, kiedy stosowa\u0107 amenity=* a kiedy landuse=education.",
                "note": "Children RSPO: 27085;27086;275503"
            }
        },
        {
            "id": 27085,
            "type": "Feature",
            "geometry": {
                "type": "Point",
                "coordinates": [
                    23.47038,
                    51.132419999999996
                ]
            },
            "properties": {
                "isced:level": "3",
                "ref:rspo": 27085,
                "official_name": "Technikum Nr 4 w Che\u0142mie",
                "name": "Technikum Nr 4 w Che\u0142mie",
                "addr:postcode": "22-100",
                "addr:city": "Che\u0142m",
                "addr:street": "Reformacka",
                "addr:housenumber": "13",
                "addr:teryt:simc": 929902,
                "addr:teryt:sym_ul": 18541,
                "phone": "+48 825652706",
                "email": "zsgihchelm@wp.pl",
                "website": "http:\/\/www.zsgihchelm.pl",
                "ref:regon": "110602248",
                "operator": "Miasto Che\u0142m",
                "operator:type": "government",
                "amenity": "school",
                "note": "Parent RSPO: 14533"
            }
        },
        {
            "id": 27086,
            "type": "Feature",
            "geometry": {
                "type": "Point",
                "coordinates": [
                    23.47038,
                    51.13239
                ]
            },
            "properties": {
                "isced:level": "3",
                "ref:rspo": 27086,
                "official_name": "Bran\u017cowa Szko\u0142a I Stopnia Nr 4 w Che\u0142mie",
                "name": "Bran\u017cowa Szko\u0142a I Stopnia Nr 4 w Che\u0142mie",
                "addr:postcode": "22-100",
                "addr:city": "Che\u0142m",
                "addr:street": "Reformacka",
                "addr:housenumber": "13",
                "addr:teryt:simc": 929902,
                "addr:teryt:sym_ul": 18541,
                "phone": "+48 825652706",
                "email": "zsgihchelm@wp.pl",
                "website": "http:\/\/www.zsgihchelm.pl",
                "ref:regon": "110602350",
                "operator": "Miasto Che\u0142m",
                "operator:type": "government",
                "amenity": "school",
                "note": "Parent RSPO: 14533"
            }
        },
        {
            "id": 275503,
            "type": "Feature",
            "geometry": {
                "type": "Point",
                "coordinates": [
                    23.47038,
                    51.13236
                ]
            },
            "properties": {
                "isced:level": "3",
                "ref:rspo": 275503,
                "official_name": "Bran\u017cowa Szko\u0142a II Stopnia Nr 4 w Che\u0142mie",
                "name": "Bran\u017cowa Szko\u0142a II Stopnia Nr 4 w Che\u0142mie",
                "addr:postcode": "22-100",
                "addr:city": "Che\u0142m",
                "addr:street": "Reformacka",
                "addr:housenumber": "13",
                "addr:teryt:simc": 929902,
                "addr:teryt:sym_ul": 18541,
                "phone": "+48 825652706",
                "email": "zsgihchelm@wp.pl",
                "website": "http:\/\/www.zsgihchelm.pl",
                "ref:regon": "386922134",
                "operator": "Miasto Che\u0142m",
                "operator:type": "government",
                "amenity": "school",
                "note": "Parent RSPO: 14533"
            }
        },
        {
            "id": 19001,
            "type": "Feature",
            "geometry": {
                "type": "Point",
                "coordinates": [
                    23.476855,
                    51.1325123
                ]
            },
            "properties": {
                "ref:rspo": 19001,
                "official_name": "Niepubliczne J\u0119zykowe Przedszkole \"W Kasztanowym Parku\" w Che\u0142mie",
                "name": "Niepubliczne J\u0119zykowe Przedszkole \"W Kasztanowym Parku\" w Che\u0142mie",
                "addr:postcode": "22-100",
                "addr:city": "Che\u0142m",
                "addr:street": "Lubelska",
                "addr:housenumber": "4",
                "addr:teryt:simc": 929902,
                "addr:teryt:sym_ul": 11307,
                "phone": "+48 825652595",
                "email": "przedszkole@podgorka.home.pl",
                "website": "http:\/\/www.podgorka.pl",
                "ref:regon": "061464290",
                "ref:vatin": "PL5632161332",
                "operator": "Ewa Sp\u00f3\u0142ka Z Ograniczon\u0105 Odpowiedzialno\u015bci\u0105 Sp\u00f3\u0142ka Komandytowa",
                "operator:type": "private",
                "amenity": "kindergarten"
            }
        },
        {
            "id": 18677,
            "type": "Feature",
            "geometry": {
                "type": "Point",
                "coordinates": [
                    23.47429,
                    51.13285
                ]
            },
            "properties": {
                "isced:level": "3",
                "ref:rspo": 18677,
                "official_name": "Liceum Og\u00f3lnokszta\u0142c\u0105ce dla Doros\u0142ych Wiliams w Che\u0142mie",
                "name": "Liceum Og\u00f3lnokszta\u0142c\u0105ce dla Doros\u0142ych Wiliams w Che\u0142mie",
                "addr:postcode": "22-100",
                "addr:city": "Che\u0142m",
                "addr:street": "Plac Doktora Edwarda \u0141uczkowskiego",
                "addr:housenumber": "15",
                "addr:teryt:simc": 929902,
                "addr:teryt:sym_ul": 35281,
                "phone": "+48 825696741",
                "email": "wiliamschelm@gmail.com",
                "website": "http:\/\/www.wiliams.pl",
                "ref:regon": "061464172",
                "operator": "Wiliams Sp\u00f3\u0142ka Z Ograniczon\u0105 Odpowiedzialno\u015bci\u0105",
                "operator:type": "private",
                "amenity": "school"
            }
        },
        {
            "id": 22249,
            "type": "Feature",
            "geometry": {
                "type": "Point",
                "coordinates": [
                    23.47429,
                    51.132819999999995
                ]
            },
            "properties": {
                "isced:level": "4",
                "ref:rspo": 22249,
                "official_name": "Szko\u0142a Policealna Wiliams w Che\u0142mie",
                "name": "Szko\u0142a Policealna Wiliams w Che\u0142mie",
                "addr:postcode": "22-100",
                "addr:city": "Che\u0142m",
                "addr:street": "Plac Doktora Edwarda \u0141uczkowskiego",
                "addr:housenumber": "15",
                "addr:teryt:simc": 929902,
                "addr:teryt:sym_ul": 35281,
                "phone": "+48 825696741",
                "email": "wiliamschelm@gmail.com",
                "website": "http:\/\/www.wiliams.pl",
                "ref:regon": "061466490",
                "ref:vatin": "PL5262881033",
                "operator": "Wiliams Sp\u00f3\u0142ka Z Ograniczon\u0105 Odpowiedzialno\u015bci\u0105",
                "operator:type": "private",
                "amenity": "college"
            }
        },
        {
            "id": 268521,
            "type": "Feature",
            "geometry": {
                "type": "Point",
                "coordinates": [
                    23.47429,
                    51.13279
                ]
            },
            "properties": {
                "isced:level": "4",
                "ref:rspo": 268521,
                "official_name": "Szko\u0142a Policealna Medyczna Wiliams w Che\u0142mie",
                "name": "Szko\u0142a Policealna Medyczna Wiliams w Che\u0142mie",
                "addr:postcode": "22-100",
                "addr:city": "Che\u0142m",
                "addr:street": "Plac Doktora Edwarda \u0141uczkowskiego",
                "addr:housenumber": "15",
                "addr:teryt:simc": 929902,
                "addr:teryt:sym_ul": 35281,
                "phone": "+48 825696741",
                "email": "wiliamschelm@gmail.com",
                "website": "http:\/\/www.wiliams.pl",
                "ref:regon": "381198969",
                "operator": "Wiliams Sp\u00f3\u0142ka Z Ograniczon\u0105 Odpowiedzialno\u015bci\u0105",
                "operator:type": "private",
                "amenity": "college"
            }
        },
        {
            "id": 277649,
            "type": "Feature",
            "geometry": {
                "type": "Point",
                "coordinates": [
                    23.47429,
                    51.13276
                ]
            },
            "properties": {
                "ref:rspo": 277649,
                "official_name": "Centrum Kszta\u0142cenia Zawodowego Wiliams w Che\u0142mie",
                "name": "Centrum Kszta\u0142cenia Zawodowego Wiliams w Che\u0142mie",
                "addr:postcode": "22-100",
                "addr:city": "Che\u0142m",
                "addr:street": "Plac Doktora Edwarda \u0141uczkowskiego",
                "addr:housenumber": "15",
                "addr:teryt:simc": 929902,
                "addr:teryt:sym_ul": 35281,
                "phone": "+48 516099889",
                "ref:regon": "389255796",
                "operator": "Wiliams Sp\u00f3\u0142ka Z Ograniczon\u0105 Odpowiedzialno\u015bci\u0105",
                "operator:type": "private",
                "fixme": "w zale\u017cno\u015bci od przedmiotu dzia\u0142alno\u015bci (np. amenity=training + training=*, amenity=dancing_school, amenity=language_school, amenity=music_school) albo amenity=school, amenity=college, albo landuse=education w zale\u017cno\u015bci od tego, jakie plac\u00f3wki wchodz\u0105 w sk\u0142ad zespo\u0142u. Sprawd\u017a, kiedy stosowa\u0107 amenity=* a kiedy landuse=education."
            }
        },
        {
            "id": 11576,
            "type": "Feature",
            "geometry": {
                "type": "Point",
                "coordinates": [
                    23.4769599,
                    51.13288
                ]
            },
            "properties": {
                "isced:level": "3",
                "ref:rspo": 11576,
                "official_name": "Iv Liceum Og\u00f3lnokszta\u0142c\u0105ce Z Oddzia\u0142ami Integracyjnymi im. Dr. Jadwigi M\u0142odowskiej w Che\u0142mie",
                "name": "Iv Liceum Og\u00f3lnokszta\u0142c\u0105ce Z Oddzia\u0142ami Integracyjnymi",
                "addr:postcode": "22-100",
                "addr:city": "Che\u0142m",
                "addr:street": "\u015awi\u0119tego Miko\u0142aja",
                "addr:housenumber": "4",
                "addr:teryt:simc": 929902,
                "addr:teryt:sym_ul": 12885,
                "phone": "+48 825653889",
                "email": "lo4chelm@poczta.fm",
                "website": "http:\/\/www.4lochelm.pl",
                "ref:regon": "110004292",
                "ref:vatin": "PL5631764169",
                "operator": "Miasto Che\u0142m",
                "operator:type": "government",
                "amenity": "school"
            }
        },
        {
            "id": 28141,
            "type": "Feature",
            "geometry": {
                "type": "Point",
                "coordinates": [
                    23.47375,
                    51.1334
                ]
            },
            "properties": {
                "ref:rspo": 28141,
                "official_name": "Stowarzyszenie Elektryk\u00f3w Polskich Oddzia\u0142 Che\u0142mski",
                "name": "Stowarzyszenie Elektryk\u00f3w Polskich Oddzia\u0142 Che\u0142mski",
                "addr:postcode": "22-100",
                "addr:city": "Che\u0142m",
                "addr:street": "Miko\u0142aja Kopernika",
                "addr:housenumber": "8",
                "addr:teryt:simc": 929902,
                "addr:teryt:sym_ul": 9282,
                "phone": "+48 825652224",
                "email": "sepchelm@sep.com.pl",
                "website": "http:\/\/sepchelm.sep.com.pl",
                "ref:regon": "061508001",
                "operator": "Stowarzyszenie Elektryk\u00f3w Polskich",
                "operator:type": "ngo",
                "fixme": "w zale\u017cno\u015bci od przedmiotu dzia\u0142alno\u015bci (np. amenity=training + training=*, amenity=dancing_school, amenity=language_school, amenity=music_school)"
            }
        },
        {
            "id": 14774,
            "type": "Feature",
            "geometry": {
                "type": "Point",
                "coordinates": [
                    23.46151,
                    51.13411
                ]
            },
            "properties": {
                "ref:rspo": 14774,
                "official_name": "Przedszkole Miejskie Nr 5 w Che\u0142mie",
                "name": "Przedszkole Miejskie Nr 5 w Che\u0142mie",
                "addr:postcode": "22-100",
                "addr:city": "Che\u0142m",
                "addr:street": "Kwiatowa",
                "addr:housenumber": "1",
                "addr:teryt:simc": 929902,
                "addr:teryt:sym_ul": 10562,
                "phone": "+48 825652534",
                "email": "pm5kwiatowa@op.pl",
                "website": "http:\/\/www.pm5chelm.szkolnastrona.pl",
                "ref:regon": "110003192",
                "ref:vatin": "PL5631612459",
                "operator": "Miasto Che\u0142m",
                "operator:type": "government",
                "amenity": "kindergarten"
            }
        },
        {
            "id": 17982,
            "type": "Feature",
            "geometry": {
                "type": "Point",
                "coordinates": [
                    23.49572,
                    51.13413
                ]
            },
            "properties": {
                "ref:rspo": 17982,
                "official_name": "Niepubliczne Przedszkole Integracyjne \"Arka\" w Che\u0142mie",
                "name": "Niepubliczne Przedszkole Integracyjne \"Arka\" w Che\u0142mie",
                "addr:postcode": "22-100",
                "addr:city": "Che\u0142m",
                "addr:street": "11 Listopada",
                "addr:housenumber": "2",
                "addr:teryt:simc": 929902,
                "addr:teryt:sym_ul": 11205,
                "phone": "+48 825425135",
                "email": "arka@arka.chelm.pl",
                "website": "http:\/\/www.arka.chelm.pl",
                "ref:regon": "061463830",
                "ref:vatin": "PL5632393812",
                "operator": "Integra Sp\u00f3\u0142ka Z Ograniczon\u0105 Odpowiedzialno\u015bci\u0105",
                "operator:type": "private",
                "amenity": "kindergarten"
            }
        },
        {
            "id": 130540,
            "type": "Feature",
            "geometry": {
                "type": "Point",
                "coordinates": [
                    23.49572,
                    51.1341
                ]
            },
            "properties": {
                "ref:rspo": 130540,
                "official_name": "Niepubliczna Poradnia Psychologiczno-Pedagogiczna \"Arka Przysz\u0142o\u015bci\"",
                "name": "Niepubliczna Poradnia Psychologiczno-Pedagogiczna \"Arka Przysz\u0142o\u015bci\"",
                "addr:postcode": "22-100",
                "addr:city": "Che\u0142m",
                "addr:street": "11 Listopada",
                "addr:housenumber": "2",
                "addr:teryt:simc": 929902,
                "addr:teryt:sym_ul": 11205,
                "phone": "+48 825421472",
                "ref:regon": "364167933",
                "operator": "Integral Arka Sp\u00f3\u0142ka Z Ograniczon\u0105 Odpowiedzialno\u015bci\u0105",
                "operator:type": "private",
                "healthcare": "counselling",
                "counselling_type": "education",
                "fixme": "w zale\u017cno\u015bci od przedmiotu dzia\u0142alno\u015bci (np. healthcare=counselling + counselling_type=education albo healthcare=psychotherapist)"
            }
        },
        {
            "id": 115067,
            "type": "Feature",
            "geometry": {
                "type": "Point",
                "coordinates": [
                    23.47479,
                    51.13446
                ]
            },
            "properties": {
                "ref:rspo": 115067,
                "official_name": "O\u015brodek Dokszta\u0142cania Zawodowego Przedsi\u0119biorstwo Wielobran\u017cowe \"Azymut\" w Che\u0142mie",
                "name": "O\u015brodek Dokszta\u0142cania Zawodowego Przedsi\u0119biorstwo Wielobran\u017cowe \"Azymut\" w Che\u0142mie",
                "addr:postcode": "22-100",
                "addr:city": "Che\u0142m",
                "addr:street": "Szkolna",
                "addr:housenumber": "15A",
                "addr:teryt:simc": 929902,
                "addr:teryt:sym_ul": 21970,
                "phone": "+48 825652756",
                "email": "azymut1@gazeta.pl",
                "ref:regon": "061571867",
                "ref:vatin": "PL5630001541",
                "operator": "Przedsi\u0119biorstwo Wielobran\u017cowe \"Azymut\" Sp\u00f3\u0142ka Z Ograniczon\u0105 Odpowiedzialno\u015bci\u0105",
                "operator:type": "private",
                "fixme": "w zale\u017cno\u015bci od przedmiotu dzia\u0142alno\u015bci (np. amenity=training + training=*, amenity=dancing_school, amenity=language_school, amenity=music_school)"
            }
        },
        {
            "id": 18998,
            "type": "Feature",
            "geometry": {
                "type": "Point",
                "coordinates": [
                    23.47766,
                    51.13468
                ]
            },
            "properties": {
                "isced:level": "3",
                "ref:rspo": 18998,
                "official_name": "I Liceum Og\u00f3lnokszta\u0142c\u0105ce im. Stefana Czarnieckiego w Che\u0142mie",
                "name": "I Liceum Og\u00f3lnokszta\u0142c\u0105ce",
                "addr:postcode": "22-100",
                "addr:city": "Che\u0142m",
                "addr:street": "Stefana Czarnieckiego",
                "addr:housenumber": "8",
                "addr:teryt:simc": 929902,
                "addr:teryt:sym_ul": 3283,
                "phone": "+48 825653884",
                "email": "liceum@1lo.chelm.pl",
                "website": "http:\/\/www.1lo.chelm.pl",
                "ref:regon": "000712775",
                "ref:vatin": "PL5631084641",
                "operator": "Miasto Che\u0142m",
                "operator:type": "government",
                "amenity": "school"
            }
        },
        {
            "id": 23167,
            "type": "Feature",
            "geometry": {
                "type": "Point",
                "coordinates": [
                    23.47766,
                    51.13465
                ]
            },
            "properties": {
                "ref:rspo": 23167,
                "official_name": "Szkolne Schronisko M\u0142odzie\u017cowe",
                "name": "Szkolne Schronisko M\u0142odzie\u017cowe",
                "addr:postcode": "22-100",
                "addr:city": "Che\u0142m",
                "addr:street": "Stefana Czarnieckiego",
                "addr:housenumber": "8",
                "addr:teryt:simc": 929902,
                "addr:teryt:sym_ul": 3283,
                "phone": "+48 825640022",
                "ref:regon": "060166366",
                "operator": "Miasto Che\u0142m",
                "operator:type": "government",
                "tourism": "hostel",
                "note": "Parent RSPO: 17978"
            }
        },
        {
            "id": 11575,
            "type": "Feature",
            "geometry": {
                "type": "Point",
                "coordinates": [
                    23.48101,
                    51.13469
                ]
            },
            "properties": {
                "isced:level": "1;2",
                "ref:rspo": 11575,
                "official_name": "Szko\u0142a Podstawowa Nr 5 im. Marii Konopnickiej w Che\u0142mie",
                "name": "Szko\u0142a Podstawowa Nr 5",
                "addr:postcode": "22-100",
                "addr:city": "Che\u0142m",
                "addr:street": "I Pu\u0142ku Szwole\u017cer\u00f3w",
                "addr:housenumber": "1",
                "addr:teryt:simc": 929902,
                "addr:teryt:sym_ul": 18153,
                "phone": "+48 825653929",
                "email": "bakcys@interia.pl",
                "website": "http:\/\/www.sp5chelm.internetdsl.pl",
                "ref:regon": "000712835",
                "ref:vatin": "PL5631567753",
                "operator": "Miasto Che\u0142m",
                "operator:type": "government",
                "amenity": "school"
            }
        },
        {
            "id": 19000,
            "type": "Feature",
            "geometry": {
                "type": "Point",
                "coordinates": [
                    23.44564,
                    51.13534
                ]
            },
            "properties": {
                "ref:rspo": 19000,
                "official_name": "Specjalny O\u015brodek Szkolno-Wychowawczy w Che\u0142mie",
                "name": "Specjalny O\u015brodek Szkolno-Wychowawczy w Che\u0142mie",
                "addr:postcode": "22-100",
                "addr:city": "Che\u0142m",
                "addr:street": "Trubakowska",
                "addr:housenumber": "59",
                "addr:teryt:simc": 929902,
                "addr:teryt:sym_ul": 23025,
                "phone": "+48 825633451",
                "email": "zwippp1@o2.pl",
                "website": "http:\/\/www.zwippp1.szkolnastrona.pl",
                "ref:regon": "000183696",
                "ref:vatin": "PL5632139775",
                "operator": "Miasto Che\u0142m",
                "operator:type": "government",
                "amenity": "school",
                "note": "Children RSPO: 28134;28136;28137;28139"
            }
        },
        {
            "id": 28134,
            "type": "Feature",
            "geometry": {
                "type": "Point",
                "coordinates": [
                    23.44564,
                    51.13531
                ]
            },
            "properties": {
                "isced:level": "1;2",
                "ref:rspo": 28134,
                "official_name": "Szko\u0142a Podstawowa Specjalna Nr 12 w Che\u0142mie",
                "name": "Szko\u0142a Podstawowa Specjalna Nr 12 w Che\u0142mie",
                "addr:postcode": "22-100",
                "addr:city": "Che\u0142m",
                "addr:street": "Trubakowska",
                "addr:housenumber": "59",
                "addr:teryt:simc": 929902,
                "addr:teryt:sym_ul": 23025,
                "phone": "+48 825633451",
                "email": "zwippp1@o2.pl",
                "ref:regon": "000712769",
                "operator": "Miasto Che\u0142m",
                "operator:type": "government",
                "amenity": "school",
                "note": "Parent RSPO: 19000"
            }
        },
        {
            "id": 28136,
            "type": "Feature",
            "geometry": {
                "type": "Point",
                "coordinates": [
                    23.44564,
                    51.13528
                ]
            },
            "properties": {
                "ref:rspo": 28136,
                "official_name": "Przedszkole Specjalne Nr 18 w Che\u0142mie",
                "name": "Przedszkole Specjalne Nr 18 w Che\u0142mie",
                "addr:postcode": "22-100",
                "addr:city": "Che\u0142m",
                "addr:street": "Trubakowska",
                "addr:housenumber": "59",
                "addr:teryt:simc": 929902,
                "addr:teryt:sym_ul": 23025,
                "phone": "+48 825633451",
                "email": "zwippp1@o2.pl",
                "ref:regon": "110711641",
                "operator": "Miasto Che\u0142m",
                "operator:type": "government",
                "amenity": "kindergarten",
                "note": "Parent RSPO: 19000"
            }
        },
        {
            "id": 28137,
            "type": "Feature",
            "geometry": {
                "type": "Point",
                "coordinates": [
                    23.44564,
                    51.13525
                ]
            },
            "properties": {
                "isced:level": "3",
                "ref:rspo": 28137,
                "official_name": "Bran\u017cowa Szko\u0142a I Stopnia Specjalna Nr 6 w Che\u0142mie",
                "name": "Bran\u017cowa Szko\u0142a I Stopnia Specjalna Nr 6 w Che\u0142mie",
                "addr:postcode": "22-100",
                "addr:city": "Che\u0142m",
                "addr:street": "Trubakowska",
                "addr:housenumber": "59",
                "addr:teryt:simc": 929902,
                "addr:teryt:sym_ul": 23025,
                "phone": "+48 825633451",
                "email": "zwippp1@o2.pl",
                "ref:regon": "000834509",
                "operator": "Miasto Che\u0142m",
                "operator:type": "government",
                "amenity": "school",
                "note": "Parent RSPO: 19000"
            }
        },
        {
            "id": 28139,
            "type": "Feature",
            "geometry": {
                "type": "Point",
                "coordinates": [
                    23.44564,
                    51.13522
                ]
            },
            "properties": {
                "ref:rspo": 28139,
                "official_name": "Szko\u0142a Specjalna Przysposabiaj\u0105ca Do Pracy w Che\u0142mie",
                "name": "Szko\u0142a Specjalna Przysposabiaj\u0105ca Do Pracy w Che\u0142mie",
                "addr:postcode": "22-100",
                "addr:city": "Che\u0142m",
                "addr:street": "Trubakowska",
                "addr:housenumber": "59",
                "addr:teryt:simc": 929902,
                "addr:teryt:sym_ul": 23025,
                "phone": "+48 825633451",
                "email": "zwippp1@o2.pl",
                "ref:regon": "110723450",
                "operator": "Miasto Che\u0142m",
                "operator:type": "government",
                "amenity": "school",
                "note": "Parent RSPO: 19000"
            }
        },
        {
            "id": 11406,
            "type": "Feature",
            "geometry": {
                "type": "Point",
                "coordinates": [
                    23.48482,
                    51.13586
                ]
            },
            "properties": {
                "ref:rspo": 11406,
                "official_name": "Przedszkole Miejskie Nr 2 w Che\u0142mie",
                "name": "Przedszkole Miejskie Nr 2 w Che\u0142mie",
                "addr:postcode": "22-100",
                "addr:city": "Che\u0142m",
                "addr:street": "Staro\u015bci\u0144ska",
                "addr:housenumber": "4B",
                "addr:teryt:simc": 929902,
                "addr:teryt:sym_ul": 20991,
                "phone": "+48 825653808",
                "email": "przedszkole2chelm@poczta.onet.pl",
                "website": "http:\/\/www.pm2chelm.szkolnastrona.pl",
                "ref:regon": "110003068",
                "ref:vatin": "PL5631807826",
                "operator": "Miasto Che\u0142m",
                "operator:type": "government",
                "amenity": "kindergarten"
            }
        },
        {
            "id": 127797,
            "type": "Feature",
            "geometry": {
                "type": "Point",
                "coordinates": [
                    23.47044,
                    51.13609
                ]
            },
            "properties": {
                "ref:rspo": 127797,
                "official_name": "Niepubliczna Poradnia Psychologiczno-Pedagogiczna \"Carpe Diem\" w Che\u0142mie",
                "name": "Niepubliczna Poradnia Psychologiczno-Pedagogiczna \"Carpe Diem\" w Che\u0142mie",
                "addr:postcode": "22-100",
                "addr:city": "Che\u0142m",
                "addr:street": "Ob\u0142o\u0144ska",
                "addr:housenumber": "9",
                "addr:teryt:simc": 929902,
                "addr:teryt:sym_ul": 14587,
                "phone": "+48 501693846",
                "ref:regon": "361857755",
                "operator": "Fundacja Carpe Diem",
                "operator:type": "ngo",
                "healthcare": "counselling",
                "counselling_type": "education",
                "fixme": "w zale\u017cno\u015bci od przedmiotu dzia\u0142alno\u015bci (np. healthcare=counselling + counselling_type=education albo healthcare=psychotherapist)"
            }
        },
        {
            "id": 14773,
            "type": "Feature",
            "geometry": {
                "type": "Point",
                "coordinates": [
                    23.4765,
                    51.1362499
                ]
            },
            "properties": {
                "ref:rspo": 14773,
                "official_name": "Zesp\u00f3\u0142 Szk\u00f3\u0142 Ekonomicznych I Mundurowych im. Genera\u0142a W\u0142adys\u0142awa Andersa w Che\u0142mie",
                "name": "Zesp\u00f3\u0142 Szk\u00f3\u0142 Ekonomicznych I Mundurowych",
                "addr:postcode": "22-100",
                "addr:city": "Che\u0142m",
                "addr:street": "Henryka Sienkiewicza",
                "addr:housenumber": "22",
                "addr:teryt:simc": 929902,
                "addr:teryt:sym_ul": 19834,
                "phone": "+48 825655254",
                "email": "zse3lo.chelm@gmail.com",
                "website": "http:\/\/www.ekonomy.pl",
                "ref:regon": "000182478",
                "ref:vatin": "PL5631687463",
                "operator": "Miasto Che\u0142m",
                "operator:type": "government",
                "landuse": "education",
                "fixme": "amenity=school, amenity=college albo landuse=education w zale\u017cno\u015bci od tego, jakie plac\u00f3wki wchodz\u0105 w sk\u0142ad zespo\u0142u. Sprawd\u017a, kiedy stosowa\u0107 amenity=* a kiedy landuse=education.",
                "note": "Children RSPO: 20821;20822"
            }
        },
        {
            "id": 20821,
            "type": "Feature",
            "geometry": {
                "type": "Point",
                "coordinates": [
                    23.4765,
                    51.1362199
                ]
            },
            "properties": {
                "isced:level": "3",
                "ref:rspo": 20821,
                "official_name": "Iii Liceum Og\u00f3lnokszta\u0142c\u0105ce w Che\u0142mie",
                "name": "Iii Liceum Og\u00f3lnokszta\u0142c\u0105ce w Che\u0142mie",
                "addr:postcode": "22-100",
                "addr:city": "Che\u0142m",
                "addr:street": "Henryka Sienkiewicza",
                "addr:housenumber": "22",
                "addr:teryt:simc": 929902,
                "addr:teryt:sym_ul": 19834,
                "phone": "+48 825655254",
                "email": "zse3lo.chelm@gmail.com",
                "website": "http:\/\/www.ekonomy.pl",
                "ref:regon": "002683090",
                "operator": "Miasto Che\u0142m",
                "operator:type": "government",
                "amenity": "school",
                "note": "Parent RSPO: 14773"
            }
        },
        {
            "id": 20822,
            "type": "Feature",
            "geometry": {
                "type": "Point",
                "coordinates": [
                    23.4765,
                    51.136189900000005
                ]
            },
            "properties": {
                "isced:level": "3",
                "ref:rspo": 20822,
                "official_name": "Technikum Ekonomiczne Nr 3 w Che\u0142mie",
                "name": "Technikum Ekonomiczne Nr 3 w Che\u0142mie",
                "addr:postcode": "22-100",
                "addr:city": "Che\u0142m",
                "addr:street": "Henryka Sienkiewicza",
                "addr:housenumber": "22",
                "addr:teryt:simc": 929902,
                "addr:teryt:sym_ul": 19834,
                "phone": "+48 825655254",
                "email": "zse3lo.chelm@gmail.com",
                "website": "http:\/\/www.ekonomy.pl",
                "ref:regon": "110709118",
                "operator": "Miasto Che\u0142m",
                "operator:type": "government",
                "amenity": "school",
                "note": "Parent RSPO: 14773"
            }
        },
        {
            "id": 25898,
            "type": "Feature",
            "geometry": {
                "type": "Point",
                "coordinates": [
                    23.49153,
                    51.13627
                ]
            },
            "properties": {
                "isced:level": "1;2",
                "ref:rspo": 25898,
                "official_name": "Szko\u0142a Podstawowa Nr 1 im. Tadeusza Ko\u015bciuszki Z Oddzia\u0142ami Integracyjnymi w Che\u0142mie",
                "name": "Szko\u0142a Podstawowa Nr 1",
                "addr:postcode": "22-100",
                "addr:city": "Che\u0142m",
                "addr:street": "Wo\u0142y\u0144ska",
                "addr:housenumber": "1",
                "addr:teryt:simc": 929902,
                "addr:teryt:sym_ul": 24733,
                "phone": "+48 825632233",
                "email": "dyrektorzso1chelm@op.pl",
                "website": "http:\/\/www.sp1chelm.internetdsl.pl",
                "ref:regon": "000712806",
                "operator": "Miasto Che\u0142m",
                "operator:type": "government",
                "amenity": "school"
            }
        },
        {
            "id": 17983,
            "type": "Feature",
            "geometry": {
                "type": "Point",
                "coordinates": [
                    23.5397399,
                    51.1365399
                ]
            },
            "properties": {
                "ref:rspo": 17983,
                "official_name": "Plac\u00f3wka Kszta\u0142cenia Ustawicznego \"Mjm\" Sp. Z O.o.",
                "name": "Plac\u00f3wka Kszta\u0142cenia Ustawicznego \"Mjm\" Sp. Z O.o.",
                "addr:postcode": "22-100",
                "addr:city": "Che\u0142m",
                "addr:street": "Fabryczna",
                "addr:housenumber": "6",
                "addr:teryt:simc": 929902,
                "addr:teryt:sym_ul": 4863,
                "phone": "+48 825646541",
                "email": "mjm@mjm.chelm.pl",
                "website": "http:\/\/www.mjm.chelm.pl",
                "ref:regon": "061463847",
                "ref:vatin": "PL5630015537",
                "operator": "\"Mjm\" Sp\u00f3\u0142ka Z Ograniczon\u0105 Odpowiedzialno\u015bci\u0105",
                "operator:type": "private",
                "fixme": "w zale\u017cno\u015bci od przedmiotu dzia\u0142alno\u015bci (np. amenity=training + training=*, amenity=dancing_school, amenity=language_school, amenity=music_school)"
            }
        },
        {
            "id": 14175,
            "type": "Feature",
            "geometry": {
                "type": "Point",
                "coordinates": [
                    23.47558,
                    51.13786
                ]
            },
            "properties": {
                "isced:level": "1;2",
                "ref:rspo": 14175,
                "official_name": "Szko\u0142a Podstawowa Nr 2 im. Ks. Stanis\u0142awa Staszica w Che\u0142mie",
                "name": "Szko\u0142a Podstawowa Nr 2",
                "addr:postcode": "22-100",
                "addr:city": "Che\u0142m",
                "addr:street": "Ob\u0142o\u0144ska",
                "addr:housenumber": "51",
                "addr:teryt:simc": 929902,
                "addr:teryt:sym_ul": 14587,
                "phone": "+48 825653922",
                "email": "sp2chelm@post.pl",
                "website": "http:\/\/www.sp2chelm.pl",
                "ref:regon": "000712812",
                "ref:vatin": "PL5631567894",
                "operator": "Miasto Che\u0142m",
                "operator:type": "government",
                "amenity": "school"
            }
        },
        {
            "id": 11408,
            "type": "Feature",
            "geometry": {
                "type": "Point",
                "coordinates": [
                    23.49308,
                    51.13833
                ]
            },
            "properties": {
                "ref:rspo": 11408,
                "official_name": "Przedszkole Miejskie Nr 11 w Che\u0142mie",
                "name": "Przedszkole Miejskie Nr 11 w Che\u0142mie",
                "addr:postcode": "22-100",
                "addr:city": "Che\u0142m",
                "addr:street": "Aleja Marsza\u0142ka J\u00f3zefa Pi\u0142sudskiego",
                "addr:housenumber": "25A",
                "addr:teryt:simc": 929902,
                "addr:teryt:sym_ul": 16270,
                "phone": "+48 825656028",
                "email": "pm_11@wp.pl",
                "ref:regon": "110002979",
                "ref:vatin": "PL5631388387",
                "operator": "Miasto Che\u0142m",
                "operator:type": "government",
                "amenity": "kindergarten"
            }
        },
        {
            "id": 25044,
            "type": "Feature",
            "geometry": {
                "type": "Point",
                "coordinates": [
                    23.49435,
                    51.13977
                ]
            },
            "properties": {
                "isced:level": "4",
                "ref:rspo": 25044,
                "official_name": "Szko\u0142a Policealna Jobs w Che\u0142mie",
                "name": "Szko\u0142a Policealna Jobs w Che\u0142mie",
                "addr:postcode": "22-100",
                "addr:city": "Che\u0142m",
                "addr:street": "Aleja Marsza\u0142ka J\u00f3zefa Pi\u0142sudskiego",
                "addr:housenumber": "32",
                "addr:teryt:simc": 929902,
                "addr:teryt:sym_ul": 16270,
                "phone": "+48 825645563",
                "email": "jobs@jobs.edu.pl",
                "website": "http:\/\/www.jobs.edu.pl",
                "ref:regon": "061467986",
                "operator": "Centrum Coachingu I Przedsi\u0119biorczo\u015bci Sp\u00f3\u0142ka Cywilna",
                "operator:type": "consortium",
                "amenity": "college"
            }
        },
        {
            "id": 11572,
            "type": "Feature",
            "geometry": {
                "type": "Point",
                "coordinates": [
                    23.43221,
                    51.14171
                ]
            },
            "properties": {
                "ref:rspo": 11572,
                "official_name": "Przedszkole Miejskie Nr 10 w Che\u0142mie",
                "name": "Przedszkole Miejskie Nr 10 w Che\u0142mie",
                "addr:postcode": "22-100",
                "addr:city": "Che\u0142m",
                "addr:street": "Zachodnia",
                "addr:housenumber": "49",
                "addr:teryt:simc": 929902,
                "addr:teryt:sym_ul": 25305,
                "phone": "+48 825634871",
                "email": "przedszkole10chelm@o2.pl",
                "website": "http:\/\/www.pmchelm10.szkolnastrona.pl",
                "ref:regon": "110031870",
                "ref:vatin": "PL5631600114",
                "operator": "Miasto Che\u0142m",
                "operator:type": "government",
                "amenity": "kindergarten"
            }
        },
        {
            "id": 29956,
            "type": "Feature",
            "geometry": {
                "type": "Point",
                "coordinates": [
                    23.43975,
                    51.14197
                ]
            },
            "properties": {
                "isced:level": "1;2",
                "ref:rspo": 29956,
                "official_name": "Szko\u0142a Podstawowa Nr 7 im. Gen. W\u0142adys\u0142awa Sikorskiego w Che\u0142mie",
                "name": "Szko\u0142a Podstawowa Nr 7",
                "addr:postcode": "22-100",
                "addr:city": "Che\u0142m",
                "addr:street": "Syn\u00f3w Pu\u0142ku",
                "addr:housenumber": "15",
                "addr:teryt:simc": 929902,
                "addr:teryt:sym_ul": 21670,
                "phone": "+48 825634884",
                "email": "sekretariat.zso7@op.pl",
                "website": "http:\/\/www.sp7chelm.pl",
                "ref:regon": "000712858",
                "operator": "Miasto Che\u0142m",
                "operator:type": "government",
                "amenity": "school"
            }
        },
        {
            "id": 14961,
            "type": "Feature",
            "geometry": {
                "type": "Point",
                "coordinates": [
                    23.45587,
                    51.14257
                ]
            },
            "properties": {
                "isced:level": "3",
                "ref:rspo": 14961,
                "official_name": "Ii Liceum Og\u00f3lnokszta\u0142c\u0105ce im. Gen. Gustawa Orlicz-Dreszera w Che\u0142mie",
                "name": "Ii Liceum Og\u00f3lnokszta\u0142c\u0105ce",
                "addr:postcode": "22-100",
                "addr:city": "Che\u0142m",
                "addr:street": "Szpitalna",
                "addr:housenumber": "14",
                "addr:teryt:simc": 929902,
                "addr:teryt:sym_ul": 22073,
                "phone": "+48 825653888",
                "email": "szkola@2lo.chelm.pl",
                "website": "http:\/\/www.2lochelm.pl",
                "ref:regon": "000712781",
                "ref:vatin": "PL5631573067",
                "operator": "Miasto Che\u0142m",
                "operator:type": "government",
                "amenity": "school"
            }
        },
        {
            "id": 123464,
            "type": "Feature",
            "geometry": {
                "type": "Point",
                "coordinates": [
                    23.45031,
                    51.14486
                ]
            },
            "properties": {
                "ref:rspo": 123464,
                "official_name": "Zesp\u00f3\u0142 Szkolno-Przedszkolny Nr 3 Z Oddzia\u0142ami Integracyjnymi w Che\u0142mie",
                "name": "Zesp\u00f3\u0142 Szkolno-Przedszkolny Nr 3 Z Oddzia\u0142ami Integracyjnymi w Che\u0142mie",
                "addr:postcode": "22-100",
                "addr:city": "Che\u0142m",
                "addr:street": "Rejowiecka",
                "addr:housenumber": "76",
                "addr:teryt:simc": 929902,
                "addr:teryt:sym_ul": 18569,
                "phone": "+48 825621062",
                "email": "zsp3chelm@op.pl",
                "website": "http:\/\/www.zsp3chelm.szkolnastrona.pl",
                "ref:regon": "061705530",
                "ref:vatin": "PL5632424949",
                "operator": "Miasto Che\u0142m",
                "operator:type": "government",
                "landuse": "education",
                "fixme": "amenity=school, amenity=college albo landuse=education w zale\u017cno\u015bci od tego, jakie plac\u00f3wki wchodz\u0105 w sk\u0142ad zespo\u0142u. Sprawd\u017a, kiedy stosowa\u0107 amenity=* a kiedy landuse=education.",
                "note": "Children RSPO: 11407;27083"
            }
        },
        {
            "id": 11407,
            "type": "Feature",
            "geometry": {
                "type": "Point",
                "coordinates": [
                    23.45031,
                    51.14483
                ]
            },
            "properties": {
                "ref:rspo": 11407,
                "official_name": "Przedszkole Miejskie Nr 3 Z Oddzia\u0142ami Integracyjnymi w Che\u0142mie",
                "name": "Przedszkole Miejskie Nr 3 Z Oddzia\u0142ami Integracyjnymi w Che\u0142mie",
                "addr:postcode": "22-100",
                "addr:city": "Che\u0142m",
                "addr:street": "Rejowiecka",
                "addr:housenumber": "76",
                "addr:teryt:simc": 929902,
                "addr:teryt:sym_ul": 18569,
                "phone": "+48 825656927",
                "email": "zsp3chelm@op.pl",
                "website": "http:\/\/www.zsp3chelm.pl",
                "ref:regon": "110003163",
                "ref:vatin": "PL5631806040",
                "operator": "Miasto Che\u0142m",
                "operator:type": "government",
                "amenity": "kindergarten",
                "note": "Parent RSPO: 123464"
            }
        },
        {
            "id": 27083,
            "type": "Feature",
            "geometry": {
                "type": "Point",
                "coordinates": [
                    23.45031,
                    51.144800000000004
                ]
            },
            "properties": {
                "isced:level": "1;2",
                "ref:rspo": 27083,
                "official_name": "Szko\u0142a Podstawowa Nr 3 Z Oddzia\u0142ami Integracyjnymi im. Adama Mickiewicza w Che\u0142mie",
                "name": "Szko\u0142a Podstawowa Nr 3 Z Oddzia\u0142ami Integracyjnymi",
                "addr:postcode": "22-100",
                "addr:city": "Che\u0142m",
                "addr:street": "Rejowiecka",
                "addr:housenumber": "76",
                "addr:teryt:simc": 929902,
                "addr:teryt:sym_ul": 18569,
                "phone": "+48 825621062",
                "email": "zsp3chelm@op.pl",
                "website": "http:\/\/www.zsp3chelm.szkolnastrona.pl",
                "ref:regon": "000561566",
                "ref:vatin": "PL5632142642",
                "operator": "Miasto Che\u0142m",
                "operator:type": "government",
                "amenity": "school",
                "note": "Parent RSPO: 123464"
            }
        },
        {
            "id": 123912,
            "type": "Feature",
            "geometry": {
                "type": "Point",
                "coordinates": [
                    23.45458,
                    51.1450699
                ]
            },
            "properties": {
                "ref:rspo": 123912,
                "official_name": "Niepubliczne Przedszkole \"Przyjazny \u015awiat Malucha\"",
                "name": "Niepubliczne Przedszkole \"Przyjazny \u015awiat Malucha\"",
                "addr:postcode": "22-100",
                "addr:city": "Che\u0142m",
                "addr:street": "Rejowiecka",
                "addr:housenumber": "103",
                "addr:teryt:simc": 929902,
                "addr:teryt:sym_ul": 18569,
                "phone": "+48 517821953",
                "email": "stow.civis@gmail.com",
                "ref:regon": "061715208",
                "operator": "Che\u0142mskie Stowarzyszenie Inicjatyw Lokalnych",
                "operator:type": "ngo",
                "amenity": "kindergarten"
            }
        },
        {
            "id": 80988,
            "type": "Feature",
            "geometry": {
                "type": "Point",
                "coordinates": [
                    23.45757,
                    51.15134
                ]
            },
            "properties": {
                "isced:level": "4",
                "ref:rspo": 80988,
                "official_name": "Szko\u0142a Policealna - Medyczne Studium Zawodowe im. W\u0142adys\u0142awy Szoc w Che\u0142mie",
                "name": "Szko\u0142a Policealna - Medyczne Studium Zawodowe",
                "addr:postcode": "22-100",
                "addr:city": "Che\u0142m",
                "addr:street": "Szpitalna",
                "addr:housenumber": "50",
                "addr:teryt:simc": 929902,
                "addr:teryt:sym_ul": 22073,
                "phone": "+48 825652651",
                "email": "sekretariat@medyki-chelm.pl",
                "website": "http:\/\/www.medyki-chelm.pl",
                "ref:regon": "000289851",
                "ref:vatin": "PL5631543764",
                "operator": "Wojew\u00f3dztwo Lubelskie",
                "operator:type": "government",
                "amenity": "college"
            }
        },
        {
            "id": 275370,
            "type": "Feature",
            "geometry": {
                "type": "Point",
                "coordinates": [
                    23.459227151753,
                    51.152983276394
                ]
            },
            "properties": {
                "ref:rspo": 275370,
                "official_name": "O\u015brodek Rewalidacyjno-Wychowawczy \"Piotru\u015b Pan\"",
                "name": "O\u015brodek Rewalidacyjno-Wychowawczy \"Piotru\u015b Pan\"",
                "addr:postcode": "22-100",
                "addr:city": "Che\u0142m",
                "addr:street": "Ceramiczna",
                "addr:housenumber": "22 A",
                "addr:teryt:simc": 929902,
                "addr:teryt:sym_ul": 2629,
                "email": "piel-med.plus@wp.pl",
                "website": "http:\/\/www.piel-med.plus",
                "ref:regon": "386828292",
                "operator": "Piel\u0119gniarska Opieka Domowa \"Piel-Med.plus\" B.p.j. Stelmachowicz, Sp\u00f3\u0142ka Jawna",
                "operator:type": "private",
                "amenity": "school"
            }
        },
        {
            "id": 129414,
            "type": "Feature",
            "geometry": {
                "type": "Point",
                "coordinates": [
                    23.45853,
                    51.15345
                ]
            },
            "properties": {
                "ref:rspo": 129414,
                "official_name": "Niepubliczna Poradnia Psychologiczno-Pedagogiczna",
                "name": "Niepubliczna Poradnia Psychologiczno-Pedagogiczna",
                "addr:postcode": "22-100",
                "addr:city": "Che\u0142m",
                "addr:street": "Ceramiczna",
                "addr:housenumber": "22A",
                "addr:teryt:simc": 929902,
                "addr:teryt:sym_ul": 2629,
                "phone": "+48 823070330",
                "ref:regon": "362604803",
                "operator": "Piel\u0119gniarska Opieka Domowa \"Piel-Med.plus\" B.p.j. Stelmachowicz, Sp\u00f3\u0142ka Jawna",
                "operator:type": "private",
                "healthcare": "counselling",
                "counselling_type": "education",
                "fixme": "w zale\u017cno\u015bci od przedmiotu dzia\u0142alno\u015bci (np. healthcare=counselling + counselling_type=education albo healthcare=psychotherapist)"
            }
        },
        {
            "id": 272417,
            "type": "Feature",
            "geometry": {
                "type": "Point",
                "coordinates": [
                    23.45853,
                    51.15342
                ]
            },
            "properties": {
                "ref:rspo": 272417,
                "official_name": "Specjalny Punkt Przedszkolny \"Piotru\u015b Pan\"",
                "name": "Specjalny Punkt Przedszkolny \"Piotru\u015b Pan\"",
                "addr:postcode": "22-100",
                "addr:city": "Che\u0142m",
                "addr:street": "Ceramiczna",
                "addr:housenumber": "22A",
                "addr:teryt:simc": 929902,
                "addr:teryt:sym_ul": 2629,
                "phone": "+48 823070330",
                "email": "piel-med.plus@wp.pl",
                "website": "http:\/\/www.piel-med.plus",
                "ref:regon": "384169141",
                "operator": "Piel\u0119gniarska Opieka Domowa \"Piel-Med.plus\" B.p.j. Stelmachowicz, Sp\u00f3\u0142ka Jawna",
                "operator:type": "private",
                "amenity": "kindergarten"
            }
        }
    ]
}