{
    "type": "FeatureCollection",
    "features": [
        {
            "id": 128623,
            "type": "Feature",
            "geometry": {
                "type": "Point",
                "coordinates": [
                    17.0533,
                    51.17293
                ]
            },
            "properties": {
                "ref:rspo": 128623,
                "official_name": "Niepubliczne Przedszkole Weso\u0142e Skrzaty",
                "name": "Niepubliczne Przedszkole Weso\u0142e Skrzaty",
                "addr:country": "PL",
                "addr:postcode": "51-188",
                "addr:city": "Krzy\u017canowice",
                "addr:street": "ul. Parkowa",
                "addr:housenumber": "27",
                "addr:teryt:simc": 15710,
                "addr:teryt:sym_ul": 882997,
                "contact:phone": "+48 600965681",
                "ref:regon": "362363624",
                "operator": "Ilona Magierowska",
                "operator:type": "private",
                "amenity": "kindergarten"
            }
        },
        {
            "id": 124958,
            "type": "Feature",
            "geometry": {
                "type": "Point",
                "coordinates": [
                    17.02809,
                    51.18582
                ]
            },
            "properties": {
                "ref:rspo": 124958,
                "official_name": "Artystyczne Przedszkole Niepubliczne Maluszkowo",
                "name": "Artystyczne Przedszkole Niepubliczne Maluszkowo",
                "addr:country": "PL",
                "addr:postcode": "51-180",
                "addr:city": "Psary",
                "addr:street": "ul. Kasztanowa",
                "addr:housenumber": "18",
                "addr:teryt:simc": 8171,
                "addr:teryt:sym_ul": 883086,
                "contact:email": "biuro.maluszkowo@gmail.com",
                "ref:regon": "022496700",
                "ref:vatin": "PL9131109357",
                "operator": "Beata Dobrza\u0144ska",
                "operator:type": "private",
                "amenity": "kindergarten"
            }
        },
        {
            "id": 56401,
            "type": "Feature",
            "geometry": {
                "type": "Point",
                "coordinates": [
                    17.03131,
                    51.18752
                ]
            },
            "properties": {
                "isced:level": "1;2",
                "ref:rspo": 56401,
                "official_name": "Szko\u0142a Podstawowa im. Jana Paw\u0142a II w Psarach",
                "name": "Szko\u0142a Podstawowa",
                "addr:country": "PL",
                "addr:postcode": "51-180",
                "addr:city": "Psary",
                "addr:street": "ul. G\u0142\u00f3wna",
                "addr:housenumber": "40",
                "addr:teryt:simc": 5635,
                "addr:teryt:sym_ul": 883086,
                "contact:phone": "+48 713878692",
                "contact:email": "spsary@wp.pl",
                "contact:website": "http:\/\/www.spsary.edupage.org",
                "ref:regon": "001181191",
                "ref:vatin": "PL9151605007",
                "operator": "Gmina Wisznia Ma\u0142a",
                "operator:type": "government",
                "amenity": "school"
            }
        },
        {
            "id": 56322,
            "type": "Feature",
            "geometry": {
                "type": "Point",
                "coordinates": [
                    17.03846,
                    51.20857
                ]
            },
            "properties": {
                "isced:level": "1;2",
                "ref:rspo": 56322,
                "official_name": "Szko\u0142a Podstawowa w Krynicznie",
                "name": "Szko\u0142a Podstawowa w Krynicznie",
                "addr:country": "PL",
                "addr:postcode": "55-114",
                "addr:city": "Kryniczno",
                "addr:street": "ul. Szkolna",
                "addr:housenumber": "6",
                "addr:teryt:simc": 21970,
                "addr:teryt:sym_ul": 882968,
                "contact:phone": "+48 713878610",
                "contact:email": "kryniczno@gmail.com",
                "ref:regon": "001181185",
                "ref:vatin": "PL9151604999",
                "operator": "Gmina Wisznia Ma\u0142a",
                "operator:type": "government",
                "amenity": "school"
            }
        },
        {
            "id": 56398,
            "type": "Feature",
            "geometry": {
                "type": "Point",
                "coordinates": [
                    16.96922,
                    51.22261
                ]
            },
            "properties": {
                "ref:rspo": 56398,
                "official_name": "Zesp\u00f3\u0142 Szkolno Przedszkolny w Szewcach",
                "name": "Zesp\u00f3\u0142 Szkolno Przedszkolny w Szewcach",
                "addr:country": "PL",
                "addr:postcode": "55-114",
                "addr:city": "Szewce",
                "addr:street": "ul. Strzeszowska",
                "addr:housenumber": "7",
                "addr:teryt:simc": 21394,
                "addr:teryt:sym_ul": 883117,
                "contact:phone": "+48 713107129",
                "contact:email": "zsp.szewce@wiszniamala.pl",
                "ref:regon": "021670046",
                "ref:vatin": "PL9151785073",
                "operator": "Gmina Wisznia Ma\u0142a",
                "operator:type": "government",
                "landuse": "education",
                "fixme": "amenity=school, amenity=college albo landuse=education w zale\u017cno\u015bci od tego, jakie plac\u00f3wki wchodz\u0105 w sk\u0142ad zespo\u0142u. Sprawd\u017a, kiedy stosowa\u0107 amenity=* a kiedy landuse=education.",
                "note": "Children RSPO: 56324;111615"
            }
        },
        {
            "id": 56324,
            "type": "Feature",
            "geometry": {
                "type": "Point",
                "coordinates": [
                    16.96922,
                    51.22258
                ]
            },
            "properties": {
                "isced:level": "1;2",
                "ref:rspo": 56324,
                "official_name": "Szko\u0142a Podstawowa w Szewcach",
                "name": "Szko\u0142a Podstawowa w Szewcach",
                "addr:country": "PL",
                "addr:postcode": "55-114",
                "addr:city": "Szewce",
                "addr:street": "ul. Strzeszowska",
                "addr:housenumber": "7",
                "addr:teryt:simc": 21394,
                "addr:teryt:sym_ul": 883117,
                "contact:phone": "+48 713107129",
                "contact:email": "zsp.szewce@wiszniamala.pl",
                "contact:website": "http:\/\/zsszewce.edupage.org",
                "ref:regon": "001181200",
                "ref:vatin": "PL9151605071",
                "operator": "Gmina Wisznia Ma\u0142a",
                "operator:type": "government",
                "amenity": "school",
                "note": "Parent RSPO: 56398"
            }
        },
        {
            "id": 111615,
            "type": "Feature",
            "geometry": {
                "type": "Point",
                "coordinates": [
                    17.01025,
                    51.2436099
                ]
            },
            "properties": {
                "ref:rspo": 111615,
                "official_name": "Przedszkole Publiczne w Strzeszowie",
                "name": "Przedszkole Publiczne w Strzeszowie",
                "addr:country": "PL",
                "addr:postcode": "55-114",
                "addr:city": "Strzesz\u00f3w",
                "addr:street": "ul. Lipowa",
                "addr:housenumber": "35",
                "addr:teryt:simc": 11139,
                "addr:teryt:sym_ul": 883100,
                "contact:phone": "+48 713128215",
                "contact:email": "przedstrzeszow@wp.pl",
                "contact:website": "http:\/\/www.szkolastrzeszow.pl",
                "ref:regon": "001012376",
                "ref:vatin": "PL9151607242",
                "operator": "Gmina Wisznia Ma\u0142a",
                "operator:type": "government",
                "amenity": "kindergarten",
                "note": "Parent RSPO: 56398"
            }
        },
        {
            "id": 266326,
            "type": "Feature",
            "geometry": {
                "type": "Point",
                "coordinates": [
                    17.04947,
                    51.2563
                ]
            },
            "properties": {
                "ref:rspo": 266326,
                "official_name": "Zesp\u00f3\u0142 Szkolno - Przedszkolny w Wiszni Ma\u0142ej",
                "name": "Zesp\u00f3\u0142 Szkolno - Przedszkolny w Wiszni Ma\u0142ej",
                "addr:country": "PL",
                "addr:postcode": "55-114",
                "addr:city": "Wisznia Ma\u0142a",
                "addr:street": "ul. Szkolna",
                "addr:housenumber": "51",
                "addr:teryt:simc": 21970,
                "addr:teryt:sym_ul": 883130,
                "contact:phone": "+48 713127079",
                "contact:email": "sp.wisznia@wiszniamala.pl",
                "contact:website": "http:\/\/www.zspwiszniamala.pl",
                "ref:regon": "369449501",
                "ref:vatin": "PL9151798236",
                "operator": "Gmina Wisznia Ma\u0142a",
                "operator:type": "government",
                "landuse": "education",
                "fixme": "amenity=school, amenity=college albo landuse=education w zale\u017cno\u015bci od tego, jakie plac\u00f3wki wchodz\u0105 w sk\u0142ad zespo\u0142u. Sprawd\u017a, kiedy stosowa\u0107 amenity=* a kiedy landuse=education.",
                "note": "Children RSPO: 55597;113603"
            }
        },
        {
            "id": 55597,
            "type": "Feature",
            "geometry": {
                "type": "Point",
                "coordinates": [
                    17.04947,
                    51.25627
                ]
            },
            "properties": {
                "isced:level": "1;2",
                "ref:rspo": 55597,
                "official_name": "Szko\u0142a Podstawowa w Wiszni Ma\u0142ej",
                "name": "Szko\u0142a Podstawowa w Wiszni Ma\u0142ej",
                "addr:country": "PL",
                "addr:postcode": "55-114",
                "addr:city": "Wisznia Ma\u0142a",
                "addr:street": "ul. Szkolna",
                "addr:housenumber": "51",
                "addr:teryt:simc": 21970,
                "addr:teryt:sym_ul": 883130,
                "contact:phone": "+48 713127079",
                "contact:email": "sp.wisznia@wiszniamala.pl",
                "ref:regon": "000586572",
                "ref:vatin": "PL9151597118",
                "operator": "Gmina Wisznia Ma\u0142a",
                "operator:type": "government",
                "amenity": "school",
                "note": "Parent RSPO: 266326"
            }
        },
        {
            "id": 113603,
            "type": "Feature",
            "geometry": {
                "type": "Point",
                "coordinates": [
                    17.04947,
                    51.256240000000005
                ]
            },
            "properties": {
                "ref:rspo": 113603,
                "official_name": "Przedszkole Publiczne w Ligocie Pi\u0119knej",
                "name": "Przedszkole Publiczne w Ligocie Pi\u0119knej",
                "addr:country": "PL",
                "addr:postcode": "55-114",
                "addr:city": "Wisznia Ma\u0142a",
                "addr:street": "ul. Szkolna",
                "addr:housenumber": "51",
                "addr:teryt:simc": 21970,
                "addr:teryt:sym_ul": 883130,
                "contact:phone": "+48 713127079",
                "ref:regon": "022115690",
                "operator": "Gmina Wisznia Ma\u0142a",
                "operator:type": "government",
                "amenity": "kindergarten",
                "note": "Parent RSPO: 266326"
            }
        },
        {
            "id": 104014,
            "type": "Feature",
            "geometry": {
                "type": "Point",
                "coordinates": [
                    16.998371124268,
                    51.373100280762
                ]
            },
            "properties": {
                "ref:rspo": 104014,
                "official_name": "Prywatne Przedszkole Bajka",
                "name": "Prywatne Przedszkole Bajka",
                "addr:country": "PL",
                "addr:postcode": "55-114",
                "addr:place": "Kryniczno",
                "addr:housenumber": "1",
                "addr:teryt:sym_ul": 882968,
                "contact:phone": "+48 664734664",
                "contact:email": "biuro@centrumbajka.pl",
                "contact:website": "http:\/\/www.centrumbajka.pl",
                "ref:regon": "022030923",
                "ref:vatin": "PL6181932175",
                "operator": "Agnieszka Ja\u015bniewicz-Ko\u0142odziejczyk",
                "operator:type": "private",
                "amenity": "kindergarten"
            }
        }
    ]
}