{
    "type": "FeatureCollection",
    "features": [
        {
            "id": 70719,
            "type": "Feature",
            "geometry": {
                "type": "Point",
                "coordinates": [
                    16.96862,
                    51.44119
                ]
            },
            "properties": {
                "isced:level": "1;2",
                "ref:rspo": 70719,
                "official_name": "Szko\u0142a Podstawowa im. Ks. Jana Twardowskiego w Powidzku",
                "name": "Szko\u0142a Podstawowa",
                "addr:country": "PL",
                "addr:postcode": "55-140",
                "addr:place": "Powidzko",
                "addr:housenumber": "49",
                "addr:teryt:sym_ul": 884358,
                "contact:phone": "+48 713856693",
                "contact:email": "sppowidzko_49@op.pl",
                "contact:website": "http:\/\/www.sppowidzko49.edupage.org",
                "ref:regon": "001181297",
                "ref:vatin": "PL9151584682",
                "operator": "Gmina \u017bmigr\u00f3d",
                "operator:type": "government",
                "amenity": "school"
            }
        },
        {
            "id": 129869,
            "type": "Feature",
            "geometry": {
                "type": "Point",
                "coordinates": [
                    16.96862,
                    51.441159999999996
                ]
            },
            "properties": {
                "ref:rspo": 129869,
                "official_name": "Punkt Przedszkolny Przy Szkole Podstawowej im. Ks. Jana Twardowskiego w Powidzku",
                "name": "Punkt Przedszkolny Przy Szkole Podstawowej",
                "addr:country": "PL",
                "addr:postcode": "55-140",
                "addr:place": "Powidzko",
                "addr:housenumber": "49",
                "addr:teryt:sym_ul": 884358,
                "contact:phone": "+48 713856693",
                "contact:email": "sppowidzko_49@op.pl",
                "contact:website": "http:\/\/sppowidzko49.edupage.org",
                "ref:regon": "363077330",
                "operator": "Gmina \u017bmigr\u00f3d",
                "operator:type": "government",
                "amenity": "kindergarten"
            }
        },
        {
            "id": 16470,
            "type": "Feature",
            "geometry": {
                "type": "Point",
                "coordinates": [
                    16.90375,
                    51.4634799
                ]
            },
            "properties": {
                "ref:rspo": 16470,
                "official_name": "Powiatowy Zesp\u00f3\u0142 Szk\u00f3\u0142 im. Jana Paw\u0142a II w \u017bmigrodzie",
                "name": "Powiatowy Zesp\u00f3\u0142 Szk\u00f3\u0142",
                "addr:country": "PL",
                "addr:postcode": "55-140",
                "addr:city": "\u017bmigr\u00f3d",
                "addr:street": "Willowa",
                "addr:housenumber": "5",
                "addr:teryt:simc": 24317,
                "addr:teryt:sym_ul": 987503,
                "contact:phone": "+48 713853666",
                "contact:email": "sekretariat@pzszmigrod.pl",
                "ref:regon": "000816693",
                "ref:vatin": "PL9151166281",
                "operator": "Powiat Trzebnicki",
                "operator:type": "government",
                "landuse": "education",
                "fixme": "amenity=school, amenity=college albo landuse=education w zale\u017cno\u015bci od tego, jakie plac\u00f3wki wchodz\u0105 w sk\u0142ad zespo\u0142u. Sprawd\u017a, kiedy stosowa\u0107 amenity=* a kiedy landuse=education.",
                "note": "Children RSPO: 34793;34794;34795"
            }
        },
        {
            "id": 34793,
            "type": "Feature",
            "geometry": {
                "type": "Point",
                "coordinates": [
                    16.90375,
                    51.4634499
                ]
            },
            "properties": {
                "isced:level": "3",
                "ref:rspo": 34793,
                "official_name": "Liceum Og\u00f3lnokszta\u0142c\u0105ce w Powiatowym Zespole Szk\u00f3\u0142 w \u017bmigrodzie",
                "name": "Liceum Og\u00f3lnokszta\u0142c\u0105ce w Powiatowym Zespole Szk\u00f3\u0142 w \u017bmigrodzie",
                "addr:country": "PL",
                "addr:postcode": "55-140",
                "addr:city": "\u017bmigr\u00f3d",
                "addr:street": "Willowa",
                "addr:housenumber": "5",
                "addr:teryt:simc": 24317,
                "addr:teryt:sym_ul": 987503,
                "contact:phone": "+48 713853666",
                "contact:email": "sekretariat@pzszmigrod.pl",
                "ref:regon": "932835950",
                "operator": "Powiat Trzebnicki",
                "operator:type": "government",
                "amenity": "school",
                "note": "Parent RSPO: 16470"
            }
        },
        {
            "id": 34794,
            "type": "Feature",
            "geometry": {
                "type": "Point",
                "coordinates": [
                    16.90375,
                    51.463419900000005
                ]
            },
            "properties": {
                "isced:level": "3",
                "ref:rspo": 34794,
                "official_name": "Technikum w Powiatowym Zespole Szk\u00f3\u0142 im. Jana Paw\u0142a II w \u017bmigrodzie",
                "name": "Technikum w Powiatowym Zespole Szk\u00f3\u0142",
                "addr:country": "PL",
                "addr:postcode": "55-140",
                "addr:city": "\u017bmigr\u00f3d",
                "addr:street": "Willowa",
                "addr:housenumber": "5",
                "addr:teryt:simc": 24317,
                "addr:teryt:sym_ul": 987503,
                "contact:phone": "+48 713853666",
                "contact:email": "sekretariat@pzszmigrod.pl",
                "ref:regon": "020617618",
                "operator": "Powiat Trzebnicki",
                "operator:type": "government",
                "amenity": "school",
                "note": "Parent RSPO: 16470"
            }
        },
        {
            "id": 34795,
            "type": "Feature",
            "geometry": {
                "type": "Point",
                "coordinates": [
                    16.90375,
                    51.4633899
                ]
            },
            "properties": {
                "isced:level": "3",
                "ref:rspo": 34795,
                "official_name": "Bran\u017cowa Szko\u0142a I Stopnia w Powiatowym Zespole Szk\u00f3\u0142 w \u017bmigrodzie",
                "name": "Bran\u017cowa Szko\u0142a I Stopnia w Powiatowym Zespole Szk\u00f3\u0142 w \u017bmigrodzie",
                "addr:country": "PL",
                "addr:postcode": "55-140",
                "addr:city": "\u017bmigr\u00f3d",
                "addr:street": "Willowa",
                "addr:housenumber": "5",
                "addr:teryt:simc": 24317,
                "addr:teryt:sym_ul": 987503,
                "contact:phone": "+48 713853666",
                "contact:email": "sekretariat@pzszmigrod.pl",
                "ref:regon": "932836004",
                "operator": "Powiat Trzebnicki",
                "operator:type": "government",
                "amenity": "school",
                "note": "Parent RSPO: 16470"
            }
        },
        {
            "id": 70723,
            "type": "Feature",
            "geometry": {
                "type": "Point",
                "coordinates": [
                    16.9025399,
                    51.46751
                ]
            },
            "properties": {
                "isced:level": "1;2",
                "ref:rspo": 70723,
                "official_name": "Szko\u0142a Podstawowa im. Boles\u0142awa Chrobrego w \u017bmigrodzie",
                "name": "Szko\u0142a Podstawowa",
                "addr:country": "PL",
                "addr:postcode": "55-140",
                "addr:city": "\u017bmigr\u00f3d",
                "addr:street": "Henryka Sienkiewicza",
                "addr:housenumber": "6",
                "addr:teryt:simc": 19834,
                "addr:teryt:sym_ul": 987503,
                "contact:phone": "+48 713853525",
                "contact:email": "spzmigrod@superszkolna.pl",
                "contact:website": "http:\/\/www.spzmigrod.superszkolna.pl",
                "ref:regon": "000592331",
                "ref:vatin": "PL9151584630",
                "operator": "Gmina \u017bmigr\u00f3d",
                "operator:type": "government",
                "amenity": "school"
            }
        },
        {
            "id": 17031,
            "type": "Feature",
            "geometry": {
                "type": "Point",
                "coordinates": [
                    16.90662,
                    51.47226
                ]
            },
            "properties": {
                "ref:rspo": 17031,
                "official_name": "Zesp\u00f3\u0142 Szk\u00f3\u0142 Specjalnych w \u017bmigrodzie",
                "name": "Zesp\u00f3\u0142 Szk\u00f3\u0142 Specjalnych w \u017bmigrodzie",
                "addr:country": "PL",
                "addr:postcode": "55-140",
                "addr:city": "\u017bmigr\u00f3d",
                "addr:street": "Rybacka",
                "addr:housenumber": "17",
                "addr:teryt:simc": 19142,
                "addr:teryt:sym_ul": 987503,
                "contact:phone": "+48 713853331",
                "contact:email": "zsszmigrod@wp.pl",
                "contact:website": "http:\/\/zsszmigrod.edupage.org",
                "ref:regon": "932687805",
                "ref:vatin": "PL9151622425",
                "operator": "Powiat Trzebnicki",
                "operator:type": "government",
                "landuse": "education",
                "fixme": "amenity=school, amenity=college albo landuse=education w zale\u017cno\u015bci od tego, jakie plac\u00f3wki wchodz\u0105 w sk\u0142ad zespo\u0142u. Sprawd\u017a, kiedy stosowa\u0107 amenity=* a kiedy landuse=education.",
                "note": "Children RSPO: 105502;105504;129114"
            }
        },
        {
            "id": 105502,
            "type": "Feature",
            "geometry": {
                "type": "Point",
                "coordinates": [
                    16.90662,
                    51.472229999999996
                ]
            },
            "properties": {
                "isced:level": "1;2",
                "ref:rspo": 105502,
                "official_name": "Szko\u0142a Podstawowa Specjalna w Zespole Szk\u00f3\u0142 Specjalnych w \u017bmigrodzie",
                "name": "Szko\u0142a Podstawowa Specjalna w Zespole Szk\u00f3\u0142 Specjalnych w \u017bmigrodzie",
                "addr:country": "PL",
                "addr:postcode": "55-140",
                "addr:city": "\u017bmigr\u00f3d",
                "addr:street": "Rybacka",
                "addr:housenumber": "17",
                "addr:teryt:simc": 19142,
                "addr:teryt:sym_ul": 987503,
                "contact:phone": "+48 713853331",
                "contact:email": "zsszmigrod@wp.pl",
                "ref:regon": "001067093",
                "operator": "Powiat Trzebnicki",
                "operator:type": "government",
                "amenity": "school",
                "note": "Parent RSPO: 17031"
            }
        },
        {
            "id": 105504,
            "type": "Feature",
            "geometry": {
                "type": "Point",
                "coordinates": [
                    16.90662,
                    51.4722
                ]
            },
            "properties": {
                "ref:rspo": 105504,
                "official_name": "Szko\u0142a Specjalna Przysposabiaj\u0105ca Do Pracy w Zespole Szk\u00f3\u0142 Specjalnych w \u017bmigrodzie",
                "name": "Szko\u0142a Specjalna Przysposabiaj\u0105ca Do Pracy w Zespole Szk\u00f3\u0142 Specjalnych w \u017bmigrodzie",
                "addr:country": "PL",
                "addr:postcode": "55-140",
                "addr:city": "\u017bmigr\u00f3d",
                "addr:street": "Rybacka",
                "addr:housenumber": "17",
                "addr:teryt:simc": 19142,
                "addr:teryt:sym_ul": 987503,
                "contact:phone": "+48 713853331",
                "contact:email": "zsszmigrod@wp.pl",
                "ref:regon": "020143853",
                "operator": "Powiat Trzebnicki",
                "operator:type": "government",
                "amenity": "school",
                "note": "Parent RSPO: 17031"
            }
        },
        {
            "id": 129114,
            "type": "Feature",
            "geometry": {
                "type": "Point",
                "coordinates": [
                    16.90662,
                    51.47217
                ]
            },
            "properties": {
                "isced:level": "3",
                "ref:rspo": 129114,
                "official_name": "Bran\u017cowa Szko\u0142a I Stopnia w Zespole Szk\u00f3\u0142 Specjalnych w \u017bmigrodzie",
                "name": "Bran\u017cowa Szko\u0142a I Stopnia w Zespole Szk\u00f3\u0142 Specjalnych w \u017bmigrodzie",
                "addr:country": "PL",
                "addr:postcode": "55-140",
                "addr:city": "\u017bmigr\u00f3d",
                "addr:street": "Rybacka",
                "addr:housenumber": "17",
                "addr:teryt:simc": 19142,
                "addr:teryt:sym_ul": 987503,
                "contact:phone": "+48 713853331",
                "contact:email": "zsszmigrod@wp.pl",
                "contact:website": "http:\/\/www.zsszmigrod.edupage.org",
                "ref:regon": "362502818",
                "ref:vatin": "PL9151622425",
                "operator": "Powiat Trzebnicki",
                "operator:type": "government",
                "amenity": "school",
                "note": "Parent RSPO: 17031"
            }
        },
        {
            "id": 70722,
            "type": "Feature",
            "geometry": {
                "type": "Point",
                "coordinates": [
                    16.9112,
                    51.47401
                ]
            },
            "properties": {
                "ref:rspo": 70722,
                "official_name": "Publiczne Przedszkole w \u017bmigrodzie \"Zielona Dolina\"",
                "name": "Publiczne Przedszkole w \u017bmigrodzie \"Zielona Dolina\"",
                "addr:country": "PL",
                "addr:postcode": "55-140",
                "addr:city": "\u017bmigr\u00f3d",
                "addr:street": "Czere\u015bniowa",
                "addr:housenumber": "9",
                "addr:teryt:simc": 3376,
                "addr:teryt:sym_ul": 987503,
                "contact:phone": "+48 713853159",
                "contact:email": "sekretariat@zdolina.pl",
                "contact:website": "http:\/\/www.zielonadolinazmigrod.przedszkolna.net",
                "ref:regon": "931004193",
                "ref:vatin": "PL9151584618",
                "operator": "Gmina \u017bmigr\u00f3d",
                "operator:type": "government",
                "amenity": "kindergarten"
            }
        },
        {
            "id": 70717,
            "type": "Feature",
            "geometry": {
                "type": "Point",
                "coordinates": [
                    16.80464,
                    51.4760599
                ]
            },
            "properties": {
                "isced:level": "1;2",
                "ref:rspo": 70717,
                "official_name": "Szko\u0142a Podstawowa im. Janusza Korczaka w Barkowie",
                "name": "Szko\u0142a Podstawowa",
                "addr:country": "PL",
                "addr:postcode": "55-140",
                "addr:place": "Barkowo",
                "addr:housenumber": "75",
                "addr:teryt:sym_ul": 883933,
                "contact:phone": "+48 713856424",
                "contact:email": "spbarkowo75@superszkolna.pl",
                "contact:website": "http:\/\/spbarkowo.superszkolna.pl",
                "ref:regon": "001181280",
                "ref:vatin": "PL9151584647",
                "operator": "Gmina \u017bmigr\u00f3d",
                "operator:type": "government",
                "amenity": "school"
            }
        },
        {
            "id": 129867,
            "type": "Feature",
            "geometry": {
                "type": "Point",
                "coordinates": [
                    16.80464,
                    51.4760299
                ]
            },
            "properties": {
                "ref:rspo": 129867,
                "official_name": "Punkt Przedszkolny Przy Szkole Podstawowej im. Janusza Korczaka w Barkowie",
                "name": "Punkt Przedszkolny Przy Szkole Podstawowej",
                "addr:country": "PL",
                "addr:postcode": "55-140",
                "addr:place": "Barkowo",
                "addr:housenumber": "75",
                "addr:teryt:sym_ul": 883933,
                "contact:phone": "+48 713856424",
                "contact:email": "spbarkowo75@superszkolna.pl",
                "ref:regon": "363077228",
                "operator": "Gmina \u017bmigr\u00f3d",
                "operator:type": "government",
                "amenity": "kindergarten"
            }
        },
        {
            "id": 70720,
            "type": "Feature",
            "geometry": {
                "type": "Point",
                "coordinates": [
                    16.96478,
                    51.50909
                ]
            },
            "properties": {
                "isced:level": "1;2",
                "ref:rspo": 70720,
                "official_name": "Szko\u0142a Podstawowa w Radzi\u0105dzu",
                "name": "Szko\u0142a Podstawowa w Radzi\u0105dzu",
                "addr:country": "PL",
                "addr:postcode": "55-140",
                "addr:city": "Radzi\u0105dz",
                "addr:street": "Szkolna",
                "addr:housenumber": "2",
                "addr:teryt:simc": 21970,
                "addr:teryt:sym_ul": 884387,
                "contact:phone": "+48 713856027",
                "contact:email": "sp.radziadz@interia.pl",
                "contact:website": "http:\/\/www.spradziadz.szkolnastrona.pl",
                "ref:regon": "001181311",
                "ref:vatin": "PL9151584699",
                "operator": "Gmina \u017bmigr\u00f3d",
                "operator:type": "government",
                "amenity": "school"
            }
        },
        {
            "id": 129870,
            "type": "Feature",
            "geometry": {
                "type": "Point",
                "coordinates": [
                    16.96478,
                    51.50906
                ]
            },
            "properties": {
                "ref:rspo": 129870,
                "official_name": "Punkt Przedszkolny Przy Szkole Podstawowej w Radzi\u0105dzu",
                "name": "Punkt Przedszkolny Przy Szkole Podstawowej w Radzi\u0105dzu",
                "addr:country": "PL",
                "addr:postcode": "55-140",
                "addr:city": "Radzi\u0105dz",
                "addr:street": "Szkolna",
                "addr:housenumber": "2",
                "addr:teryt:simc": 21970,
                "addr:teryt:sym_ul": 884387,
                "contact:phone": "+48 713856027",
                "contact:email": "sp.radziadz@interia.pl",
                "ref:regon": "363077346",
                "operator": "Gmina \u017bmigr\u00f3d",
                "operator:type": "government",
                "amenity": "kindergarten"
            }
        },
        {
            "id": 70718,
            "type": "Feature",
            "geometry": {
                "type": "Point",
                "coordinates": [
                    16.86969,
                    51.54359
                ]
            },
            "properties": {
                "isced:level": "1;2",
                "ref:rspo": 70718,
                "official_name": "Szko\u0142a Podstawowa im. Polskich Olimpijczyk\u00f3w w Korze\u0144sku",
                "name": "Szko\u0142a Podstawowa",
                "addr:country": "PL",
                "addr:postcode": "55-140",
                "addr:city": "Korze\u0144sko",
                "addr:street": "Kolejowa",
                "addr:housenumber": "14",
                "addr:teryt:simc": 8828,
                "addr:teryt:sym_ul": 884217,
                "contact:phone": "+48 713856168",
                "contact:email": "sekretariat@spkorzensko.pl",
                "contact:website": "http:\/\/www.spkorzensko.pl",
                "ref:regon": "001181305",
                "ref:vatin": "PL9151584676",
                "operator": "Gmina \u017bmigr\u00f3d",
                "operator:type": "government",
                "amenity": "school"
            }
        },
        {
            "id": 129868,
            "type": "Feature",
            "geometry": {
                "type": "Point",
                "coordinates": [
                    16.86969,
                    51.54356
                ]
            },
            "properties": {
                "ref:rspo": 129868,
                "official_name": "Punkt Przedszkolny Przy Szkole Podstawowej im. Polskich Olimpijczyk\u00f3w w Korze\u0144sku",
                "name": "Punkt Przedszkolny Przy Szkole Podstawowej",
                "addr:country": "PL",
                "addr:postcode": "55-140",
                "addr:city": "Korze\u0144sko",
                "addr:street": "Kolejowa",
                "addr:housenumber": "14",
                "addr:teryt:simc": 8828,
                "addr:teryt:sym_ul": 884217,
                "contact:phone": "+48 713856168",
                "contact:email": "sekretariat@spkorzensko.pl",
                "contact:website": "http:\/\/spkorzensko.pl",
                "ref:regon": "363077292",
                "operator": "Gmina \u017bmigr\u00f3d",
                "operator:type": "government",
                "amenity": "kindergarten"
            }
        }
    ]
}