{
    "type": "FeatureCollection",
    "features": [
        {
            "id": 107444,
            "type": "Feature",
            "geometry": {
                "type": "Point",
                "coordinates": [
                    16.93031,
                    51.25145
                ]
            },
            "properties": {
                "isced:level": "1;2",
                "ref:rspo": 107444,
                "official_name": "Szko\u0142a Podstawowa im. Adama Mickiewicza w P\u0119gowie",
                "name": "Szko\u0142a Podstawowa",
                "addr:postcode": "55-120",
                "addr:city": "P\u0119g\u00f3w",
                "addr:street": "G\u0142\u00f3wna",
                "addr:housenumber": "101",
                "addr:teryt:simc": 878748,
                "addr:teryt:sym_ul": 5635,
                "phone": "+48 713107419",
                "email": "szkolapegow@gmail.com",
                "website": "http:\/\/szkolapegow.pl",
                "ref:regon": "001181860",
                "ref:vatin": "PL9151391523",
                "operator": "Gmina Oborniki \u015al\u0105skie",
                "operator:type": "government",
                "amenity": "school"
            }
        },
        {
            "id": 111648,
            "type": "Feature",
            "geometry": {
                "type": "Point",
                "coordinates": [
                    16.93031,
                    51.251419999999996
                ]
            },
            "properties": {
                "ref:rspo": 111648,
                "official_name": "Przedszkole Publiczne w P\u0119gowie",
                "name": "Przedszkole Publiczne w P\u0119gowie",
                "addr:postcode": "55-120",
                "addr:city": "P\u0119g\u00f3w",
                "addr:street": "G\u0142\u00f3wna",
                "addr:housenumber": "101",
                "addr:teryt:simc": 878748,
                "addr:teryt:sym_ul": 5635,
                "phone": "+48 713107194",
                "email": "ppegow@wp.pl",
                "website": "http:\/\/www.ppegow.szkolnastrona.pl",
                "ref:regon": "930305254",
                "ref:vatin": "PL9151320919",
                "operator": "Gmina Oborniki \u015al\u0105skie",
                "operator:type": "government",
                "amenity": "kindergarten"
            }
        },
        {
            "id": 107446,
            "type": "Feature",
            "geometry": {
                "type": "Point",
                "coordinates": [
                    16.85189,
                    51.2527
                ]
            },
            "properties": {
                "isced:level": "1;2",
                "ref:rspo": 107446,
                "official_name": "Szko\u0142a Podstawowa im. Unii Europejskiej w Urazie",
                "name": "Szko\u0142a Podstawowa",
                "addr:postcode": "55-120",
                "addr:city": "Uraz",
                "addr:street": "Wo\u0142owska",
                "addr:housenumber": "55",
                "addr:teryt:simc": 878820,
                "addr:teryt:sym_ul": 24728,
                "phone": "+48 713108128",
                "email": "spuraz@gmail.com",
                "website": "https:\/\/spuraz.edupage.org\/",
                "ref:regon": "001181877",
                "ref:vatin": "PL9151321221",
                "operator": "Gmina Oborniki \u015al\u0105skie",
                "operator:type": "government",
                "amenity": "school"
            }
        },
        {
            "id": 266902,
            "type": "Feature",
            "geometry": {
                "type": "Point",
                "coordinates": [
                    16.92313,
                    51.26678
                ]
            },
            "properties": {
                "ref:rspo": 266902,
                "official_name": "Punkt Przedszkolny \"Ma\u0142e Przedszkole w Gol\u0119dzinowie\"",
                "name": "Punkt Przedszkolny \"Ma\u0142e Przedszkole w Gol\u0119dzinowie\"",
                "addr:postcode": "55-120",
                "addr:city": "Gol\u0119dzin\u00f3w",
                "addr:street": "Miko\u0142aja Kopernika",
                "addr:housenumber": "1",
                "addr:teryt:simc": 878560,
                "addr:teryt:sym_ul": 9282,
                "email": "a.mazij@pacon.com.pl",
                "ref:regon": "369735744",
                "operator": "Stowarzyszenie Rozwoju Wsi Gol\u0119dzin\u00f3w",
                "operator:type": "ngo",
                "amenity": "kindergarten"
            }
        },
        {
            "id": 115495,
            "type": "Feature",
            "geometry": {
                "type": "Point",
                "coordinates": [
                    16.92807,
                    51.29347
                ]
            },
            "properties": {
                "ref:rspo": 115495,
                "official_name": "Przedszkole Niepubliczne Zielona \u017babka",
                "name": "Przedszkole Niepubliczne Zielona \u017babka",
                "addr:postcode": "55-120",
                "addr:city": "Oborniki \u015al\u0105skie",
                "addr:street": "\u0141\u0105kowa",
                "addr:housenumber": "25",
                "addr:teryt:simc": 987182,
                "addr:teryt:sym_ul": 11596,
                "phone": "+48 667277725",
                "email": "przedszkole@zielonazabka.pl",
                "website": "http:\/\/zielonazabka.pl",
                "ref:regon": "022190176",
                "ref:vatin": "PL9151769447",
                "operator": "Przedszkole Niepubliczne \"Zielona \u017babka\" Maria Konieczna, Piotr Konieczny, Dorota Pietrzak",
                "operator:type": "private",
                "amenity": "kindergarten"
            }
        },
        {
            "id": 38754,
            "type": "Feature",
            "geometry": {
                "type": "Point",
                "coordinates": [
                    16.91071,
                    51.29685
                ]
            },
            "properties": {
                "isced:level": "3",
                "ref:rspo": 38754,
                "official_name": "Liceum Og\u00f3lnokszta\u0142c\u0105ce Im Karola Holteia w Obornikach \u015aL\u0105skich",
                "name": "Liceum Og\u00f3lnokszta\u0142c\u0105ce Im Karola Holteia w Obornikach \u015aL\u0105skich",
                "addr:postcode": "55-120",
                "addr:city": "Oborniki \u015al\u0105skie",
                "addr:street": "Wroc\u0142awska",
                "addr:housenumber": "18",
                "addr:teryt:simc": 987182,
                "addr:teryt:sym_ul": 24806,
                "phone": "+48 713102223",
                "email": "szkolazsz@interia.pl",
                "ref:regon": "930662327",
                "operator": "Powiat Trzebnicki",
                "operator:type": "government",
                "amenity": "school",
                "note": "Parent RSPO: 16550"
            }
        },
        {
            "id": 107477,
            "type": "Feature",
            "geometry": {
                "type": "Point",
                "coordinates": [
                    16.9189599,
                    51.2984
                ]
            },
            "properties": {
                "isced:level": "1;2",
                "ref:rspo": 107477,
                "official_name": "Szko\u0142a Podstawowa Nr 3 im. Jana Paw\u0142a II w Obornikach \u015aL\u0105skich",
                "name": "Szko\u0142a Podstawowa Nr 3",
                "addr:postcode": "55-120",
                "addr:city": "Oborniki \u015al\u0105skie",
                "addr:street": "Trzebnicka",
                "addr:housenumber": "33",
                "addr:teryt:simc": 987182,
                "addr:teryt:sym_ul": 23073,
                "phone": "+48 713101481",
                "email": "sp3obornikisl@wp.pl",
                "website": "http:\/\/www.sp3obornikisl.edupage.org",
                "ref:regon": "931062546",
                "ref:vatin": "PL9151432179",
                "operator": "Gmina Oborniki \u015al\u0105skie",
                "operator:type": "government",
                "amenity": "school"
            }
        },
        {
            "id": 115496,
            "type": "Feature",
            "geometry": {
                "type": "Point",
                "coordinates": [
                    16.9284,
                    51.2995
                ]
            },
            "properties": {
                "ref:rspo": 115496,
                "official_name": "Niepubliczne Przedszkole J\u0119zykowe Gadu\u0142a",
                "name": "Niepubliczne Przedszkole J\u0119zykowe Gadu\u0142a",
                "addr:postcode": "55-120",
                "addr:city": "Oborniki \u015al\u0105skie",
                "addr:street": "Nowowiejska",
                "addr:housenumber": "2",
                "addr:teryt:simc": 987182,
                "addr:teryt:sym_ul": 14495,
                "phone": "+48 713103114",
                "email": "info@gadula.com.pl",
                "ref:regon": "022190160",
                "ref:vatin": "PL9151749597",
                "operator": "Urszula Galewska",
                "operator:type": "private",
                "amenity": "kindergarten"
            }
        },
        {
            "id": 266702,
            "type": "Feature",
            "geometry": {
                "type": "Point",
                "coordinates": [
                    16.9222499,
                    51.30061
                ]
            },
            "properties": {
                "ref:rspo": 266702,
                "official_name": "Prywatny Zesp\u00f3\u0142 Szk\u00f3\u0142 \"Edukator\"",
                "name": "Prywatny Zesp\u00f3\u0142 Szk\u00f3\u0142 \"Edukator\"",
                "addr:postcode": "55-120",
                "addr:city": "Oborniki \u015al\u0105skie",
                "addr:street": "Kazimierza Kownackiego",
                "addr:housenumber": "4",
                "addr:teryt:simc": 987182,
                "addr:teryt:sym_ul": 9693,
                "phone": "+48 507044568",
                "email": "edukator.oborniki@gmail.com",
                "ref:regon": "369691165",
                "ref:vatin": "PL9151756634",
                "operator": "Jolantaimiros\u0142aw Ma\u0142kiewicz",
                "operator:type": "private",
                "landuse": "education",
                "fixme": "amenity=school, amenity=college albo landuse=education w zale\u017cno\u015bci od tego, jakie plac\u00f3wki wchodz\u0105 w sk\u0142ad zespo\u0142u. Sprawd\u017a, kiedy stosowa\u0107 amenity=* a kiedy landuse=education.",
                "note": "Children RSPO: 92683;275358"
            }
        },
        {
            "id": 275161,
            "type": "Feature",
            "geometry": {
                "type": "Point",
                "coordinates": [
                    16.9222499,
                    51.30058
                ]
            },
            "properties": {
                "ref:rspo": 275161,
                "official_name": "Zesp\u00f3\u0142 Szkolno-Przedszkolny w Obornikach \u015aL\u0105skich",
                "name": "Zesp\u00f3\u0142 Szkolno-Przedszkolny w Obornikach \u015aL\u0105skich",
                "addr:postcode": "55-120",
                "addr:city": "Oborniki \u015al\u0105skie",
                "addr:street": "Kazimierza Kownackiego",
                "addr:housenumber": "4",
                "addr:teryt:simc": 987182,
                "addr:teryt:sym_ul": 9693,
                "phone": "+48 713102358",
                "email": "zspobornikisl@gmail.com",
                "website": "http:\/\/zspobornikisl.edupage.org",
                "ref:regon": "386655012",
                "operator": "Gmina Oborniki \u015al\u0105skie",
                "operator:type": "government",
                "landuse": "education",
                "fixme": "amenity=school, amenity=college albo landuse=education w zale\u017cno\u015bci od tego, jakie plac\u00f3wki wchodz\u0105 w sk\u0142ad zespo\u0142u. Sprawd\u017a, kiedy stosowa\u0107 amenity=* a kiedy landuse=education.",
                "note": "Children RSPO: 262369;275168"
            }
        },
        {
            "id": 92683,
            "type": "Feature",
            "geometry": {
                "type": "Point",
                "coordinates": [
                    16.9222499,
                    51.30055
                ]
            },
            "properties": {
                "isced:level": "4",
                "ref:rspo": 92683,
                "official_name": "Policealne Studium \"Edukator\"",
                "name": "Policealne Studium \"Edukator\"",
                "addr:postcode": "55-120",
                "addr:city": "Oborniki \u015al\u0105skie",
                "addr:street": "Kazimierza Kownackiego",
                "addr:housenumber": "4",
                "addr:teryt:simc": 987182,
                "addr:teryt:sym_ul": 9693,
                "phone": "+48 713102358",
                "ref:regon": "022025980",
                "operator": "Jolantaimiros\u0142aw Ma\u0142kiewicz",
                "operator:type": "private",
                "amenity": "college",
                "note": "Parent RSPO: 266702"
            }
        },
        {
            "id": 275358,
            "type": "Feature",
            "geometry": {
                "type": "Point",
                "coordinates": [
                    16.9222499,
                    51.30052
                ]
            },
            "properties": {
                "isced:level": "3",
                "ref:rspo": 275358,
                "official_name": "Prywatne Liceum Og\u00f3lnokszta\u0142c\u0105ce dla Doros\u0142ych w Obornikach \u015aL\u0105skich",
                "name": "Prywatne Liceum Og\u00f3lnokszta\u0142c\u0105ce dla Doros\u0142ych w Obornikach \u015aL\u0105skich",
                "addr:postcode": "55-120",
                "addr:city": "Oborniki \u015al\u0105skie",
                "addr:street": "Kazimierza Kownackiego",
                "addr:housenumber": "4",
                "addr:teryt:simc": 987182,
                "addr:teryt:sym_ul": 9693,
                "phone": "+48 713102358",
                "ref:regon": "386827223",
                "operator": "Jolantaimiros\u0142aw Ma\u0142kiewicz",
                "operator:type": "private",
                "amenity": "school",
                "note": "Parent RSPO: 266702"
            }
        },
        {
            "id": 262369,
            "type": "Feature",
            "geometry": {
                "type": "Point",
                "coordinates": [
                    16.92341,
                    51.30093
                ]
            },
            "properties": {
                "isced:level": "1;2",
                "ref:rspo": 262369,
                "official_name": "Szko\u0142a Podstawowa Nr 1 Im Polskich Laureat\u00f3w Nagrody Nobla",
                "name": "Szko\u0142a Podstawowa Nr 1 Im Polskich Laureat\u00f3w Nagrody Nobla",
                "addr:postcode": "55-120",
                "addr:city": "Oborniki \u015al\u0105skie",
                "addr:street": "Kazimierza Kownackiego",
                "addr:housenumber": "3",
                "addr:teryt:simc": 987182,
                "addr:teryt:sym_ul": 9693,
                "phone": "+48 713102358",
                "email": "zspobornikisl@gmail.com",
                "website": "http:\/\/zspobornikisl.edupage.org",
                "ref:regon": "367993732",
                "operator": "Gmina Oborniki \u015al\u0105skie",
                "operator:type": "government",
                "amenity": "school",
                "note": "Parent RSPO: 275161"
            }
        },
        {
            "id": 275168,
            "type": "Feature",
            "geometry": {
                "type": "Point",
                "coordinates": [
                    16.9238,
                    51.30099
                ]
            },
            "properties": {
                "ref:rspo": 275168,
                "official_name": "Przedszkole Nr 2 w Obornikach \u015aL\u0105skich",
                "name": "Przedszkole Nr 2 w Obornikach \u015aL\u0105skich",
                "addr:postcode": "55-120",
                "addr:city": "Oborniki \u015al\u0105skie",
                "addr:street": "Kasztanowa",
                "addr:housenumber": "33",
                "addr:teryt:simc": 987182,
                "addr:teryt:sym_ul": 8171,
                "phone": "+48 713102358",
                "email": "zspobornikisl@gmail.com",
                "website": "http:\/\/zspobornikisl.edupage.org",
                "ref:regon": "386656833",
                "operator": "Gmina Oborniki \u015al\u0105skie",
                "operator:type": "government",
                "amenity": "kindergarten",
                "note": "Parent RSPO: 275161"
            }
        },
        {
            "id": 20740,
            "type": "Feature",
            "geometry": {
                "type": "Point",
                "coordinates": [
                    16.91452,
                    51.30409
                ]
            },
            "properties": {
                "ref:rspo": 20740,
                "official_name": "Centrum Doskonalenia Zawodowego E-Edukator",
                "name": "Centrum Doskonalenia Zawodowego E-Edukator",
                "addr:postcode": "55-120",
                "addr:city": "Oborniki \u015al\u0105skie",
                "addr:street": "Kardyna\u0142a Stefana Wyszy\u0144skiego",
                "addr:housenumber": "24",
                "addr:teryt:simc": 987182,
                "addr:teryt:sym_ul": 25107,
                "phone": "+48 731111079",
                "email": "kierownik@csk.waw.pl",
                "ref:regon": "021977997",
                "operator": "Adrian Miko\u0142ajczak",
                "operator:type": "private",
                "fixme": "w zale\u017cno\u015bci od przedmiotu dzia\u0142alno\u015bci (np. amenity=training + training=*, amenity=dancing_school, amenity=language_school, amenity=music_school)"
            }
        },
        {
            "id": 107471,
            "type": "Feature",
            "geometry": {
                "type": "Point",
                "coordinates": [
                    16.91452,
                    51.30406
                ]
            },
            "properties": {
                "isced:level": "1;2",
                "ref:rspo": 107471,
                "official_name": "Szko\u0142a Podstawowa Nr 2 im. Ppor. J\u00f3zefa Krysi\u0144skiego w Obornikach \u015aL\u0105skich",
                "name": "Szko\u0142a Podstawowa Nr 2",
                "addr:postcode": "55-120",
                "addr:city": "Oborniki \u015al\u0105skie",
                "addr:street": "Kardyna\u0142a Stefana Wyszy\u0144skiego",
                "addr:housenumber": "24",
                "addr:teryt:simc": 987182,
                "addr:teryt:sym_ul": 25107,
                "phone": "+48 713102156",
                "email": "sp2oborniki@o2.pl",
                "website": "https:\/\/sp2obornikisl.edupage.org",
                "ref:regon": "001181423",
                "ref:vatin": "PL9151321244",
                "operator": "Gmina Oborniki \u015al\u0105skie",
                "operator:type": "government",
                "amenity": "school"
            }
        },
        {
            "id": 130140,
            "type": "Feature",
            "geometry": {
                "type": "Point",
                "coordinates": [
                    16.91452,
                    51.304030000000004
                ]
            },
            "properties": {
                "ref:rspo": 130140,
                "official_name": "Centrum Doskonalenia Zawodowego - Cdz",
                "name": "Centrum Doskonalenia Zawodowego - Cdz",
                "addr:postcode": "55-120",
                "addr:city": "Oborniki \u015al\u0105skie",
                "addr:street": "Kardyna\u0142a Stefana Wyszy\u0144skiego",
                "addr:housenumber": "24",
                "addr:teryt:simc": 987182,
                "addr:teryt:sym_ul": 25107,
                "phone": "+48 731111079",
                "ref:regon": "363542100",
                "operator": "Maksym Grabarczyk",
                "operator:type": "private",
                "fixme": "w zale\u017cno\u015bci od przedmiotu dzia\u0142alno\u015bci (np. amenity=training + training=*, amenity=dancing_school, amenity=language_school, amenity=music_school)"
            }
        },
        {
            "id": 268307,
            "type": "Feature",
            "geometry": {
                "type": "Point",
                "coordinates": [
                    16.91452,
                    51.304
                ]
            },
            "properties": {
                "isced:level": "4",
                "ref:rspo": 268307,
                "official_name": "Kkz Szko\u0142a Policealna",
                "name": "Kkz Szko\u0142a Policealna",
                "addr:postcode": "55-120",
                "addr:city": "Oborniki \u015al\u0105skie",
                "addr:street": "Kardyna\u0142a Stefana Wyszy\u0144skiego",
                "addr:housenumber": "24",
                "addr:teryt:simc": 987182,
                "addr:teryt:sym_ul": 25107,
                "email": "kierownik@csk.waw.pl",
                "ref:regon": "381104550",
                "operator": "Adrian Miko\u0142ajczak",
                "operator:type": "private",
                "amenity": "college"
            }
        },
        {
            "id": 271158,
            "type": "Feature",
            "geometry": {
                "type": "Point",
                "coordinates": [
                    16.91452,
                    51.30397
                ]
            },
            "properties": {
                "ref:rspo": 271158,
                "official_name": "Centrum Doskonalenia Zawodowego",
                "name": "Centrum Doskonalenia Zawodowego",
                "addr:postcode": "55-120",
                "addr:city": "Oborniki \u015al\u0105skie",
                "addr:street": "Kardyna\u0142a Stefana Wyszy\u0144skiego",
                "addr:housenumber": "24",
                "addr:teryt:simc": 987182,
                "addr:teryt:sym_ul": 25107,
                "ref:regon": "383134011",
                "ref:vatin": "PL9151814159",
                "operator": "Adrian Miko\u0142ajczak",
                "operator:type": "private",
                "fixme": "w zale\u017cno\u015bci od przedmiotu dzia\u0142alno\u015bci (np. amenity=training + training=*, amenity=dancing_school, amenity=language_school, amenity=music_school)"
            }
        },
        {
            "id": 271159,
            "type": "Feature",
            "geometry": {
                "type": "Point",
                "coordinates": [
                    16.91452,
                    51.303940000000004
                ]
            },
            "properties": {
                "ref:rspo": 271159,
                "official_name": "Polski Instytut Dietetyki",
                "name": "Polski Instytut Dietetyki",
                "addr:postcode": "55-120",
                "addr:city": "Oborniki \u015al\u0105skie",
                "addr:street": "Kardyna\u0142a Stefana Wyszy\u0144skiego",
                "addr:housenumber": "24",
                "addr:teryt:simc": 987182,
                "addr:teryt:sym_ul": 25107,
                "ref:regon": "383127790",
                "ref:vatin": "PL9151814142",
                "operator": "Ise Sp\u00f3\u0142ka Z Ograniczon\u0105 Odpowiedzialno\u015bci\u0105",
                "operator:type": "private",
                "fixme": "w zale\u017cno\u015bci od przedmiotu dzia\u0142alno\u015bci (np. amenity=training + training=*, amenity=dancing_school, amenity=language_school, amenity=music_school)"
            }
        },
        {
            "id": 271160,
            "type": "Feature",
            "geometry": {
                "type": "Point",
                "coordinates": [
                    16.91452,
                    51.30391
                ]
            },
            "properties": {
                "ref:rspo": 271160,
                "official_name": "Krajowy Instytut Medyczny",
                "name": "Krajowy Instytut Medyczny",
                "addr:postcode": "55-120",
                "addr:city": "Oborniki \u015al\u0105skie",
                "addr:street": "Kardyna\u0142a Stefana Wyszy\u0144skiego",
                "addr:housenumber": "24",
                "addr:teryt:simc": 987182,
                "addr:teryt:sym_ul": 25107,
                "ref:regon": "383127755",
                "ref:vatin": "PL9151814171",
                "operator": "Adrian Miko\u0142ajczak",
                "operator:type": "private",
                "fixme": "w zale\u017cno\u015bci od przedmiotu dzia\u0142alno\u015bci (np. amenity=training + training=*, amenity=dancing_school, amenity=language_school, amenity=music_school)"
            }
        },
        {
            "id": 276925,
            "type": "Feature",
            "geometry": {
                "type": "Point",
                "coordinates": [
                    16.91452,
                    51.30388
                ]
            },
            "properties": {
                "ref:rspo": 276925,
                "official_name": "Kwalifikacyjne Kursy Zawodowe Kkz",
                "name": "Kwalifikacyjne Kursy Zawodowe Kkz",
                "addr:postcode": "55-120",
                "addr:city": "Oborniki \u015al\u0105skie",
                "addr:street": "Kardyna\u0142a Stefana Wyszy\u0144skiego",
                "addr:housenumber": "24",
                "addr:teryt:simc": 987182,
                "addr:teryt:sym_ul": 25107,
                "phone": "+48 173111079",
                "ref:regon": "387830753",
                "ref:vatin": "PL9151817689",
                "operator": "Ise Sp\u00f3\u0142ka Z Ograniczon\u0105 Odpowiedzialno\u015bci\u0105",
                "operator:type": "private",
                "fixme": "w zale\u017cno\u015bci od przedmiotu dzia\u0142alno\u015bci (np. amenity=training + training=*, amenity=dancing_school, amenity=language_school, amenity=music_school)"
            }
        },
        {
            "id": 119069,
            "type": "Feature",
            "geometry": {
                "type": "Point",
                "coordinates": [
                    16.91225,
                    51.30473
                ]
            },
            "properties": {
                "ref:rspo": 119069,
                "official_name": "Polska Akademia Kultury I Sportu",
                "name": "Polska Akademia Kultury I Sportu",
                "addr:postcode": "55-120",
                "addr:city": "Oborniki \u015al\u0105skie",
                "addr:street": "J\u00f3zefa Poniatowskiego",
                "addr:housenumber": "22",
                "addr:teryt:simc": 987182,
                "addr:teryt:sym_ul": 17107,
                "phone": "+48 731111079",
                "email": "kierownik@csk.waw.pl",
                "ref:regon": "022220026",
                "operator": "Ise Sp\u00f3\u0142ka Z Ograniczon\u0105 Odpowiedzialno\u015bci\u0105",
                "operator:type": "private",
                "fixme": "w zale\u017cno\u015bci od przedmiotu dzia\u0142alno\u015bci (np. amenity=training + training=*, amenity=dancing_school, amenity=language_school, amenity=music_school)"
            }
        },
        {
            "id": 111647,
            "type": "Feature",
            "geometry": {
                "type": "Point",
                "coordinates": [
                    16.91303,
                    51.30759
                ]
            },
            "properties": {
                "ref:rspo": 111647,
                "official_name": "Przedszkole Publiczne w Obornikach \u015aL\u0105skich",
                "name": "Przedszkole Publiczne w Obornikach \u015aL\u0105skich",
                "addr:postcode": "55-120",
                "addr:city": "Oborniki \u015al\u0105skie",
                "addr:street": "W\u0142adys\u0142awa Sikorskiego",
                "addr:housenumber": "2",
                "addr:teryt:simc": 987182,
                "addr:teryt:sym_ul": 19914,
                "phone": "+48 713102491",
                "email": "przedszkoleobornikislaskie@onet.pl",
                "website": "http:\/\/przedszkoleoborniki.szkolnastrona.pl",
                "ref:regon": "000924750",
                "ref:vatin": "PL9151320859",
                "operator": "Gmina Oborniki \u015al\u0105skie",
                "operator:type": "government",
                "amenity": "kindergarten"
            }
        },
        {
            "id": 16550,
            "type": "Feature",
            "geometry": {
                "type": "Point",
                "coordinates": [
                    16.91664,
                    51.30878
                ]
            },
            "properties": {
                "ref:rspo": 16550,
                "official_name": "Powiatowy Zesp\u00f3\u0142 Szk\u00f3\u0142 im. W\u0142adys\u0142awa Stanis\u0142awa Reymonta w Obornikach \u015aL\u0105skich",
                "name": "Powiatowy Zesp\u00f3\u0142 Szk\u00f3\u0142",
                "addr:postcode": "55-120",
                "addr:city": "Oborniki \u015al\u0105skie",
                "addr:street": "Parkowa",
                "addr:housenumber": "8",
                "addr:teryt:simc": 987182,
                "addr:teryt:sym_ul": 15710,
                "phone": "+48 713102223",
                "email": "pzsoborniki@powiat.trzebnica.pl",
                "website": "http:\/\/www.pzs-obornikislaskie.pl",
                "ref:regon": "932621574",
                "ref:vatin": "PL9151606260",
                "operator": "Powiat Trzebnicki",
                "operator:type": "government",
                "landuse": "education",
                "fixme": "amenity=school, amenity=college albo landuse=education w zale\u017cno\u015bci od tego, jakie plac\u00f3wki wchodz\u0105 w sk\u0142ad zespo\u0142u. Sprawd\u017a, kiedy stosowa\u0107 amenity=* a kiedy landuse=education.",
                "note": "Children RSPO: 38754;38755;38756"
            }
        },
        {
            "id": 38755,
            "type": "Feature",
            "geometry": {
                "type": "Point",
                "coordinates": [
                    16.91664,
                    51.308749999999996
                ]
            },
            "properties": {
                "isced:level": "3",
                "ref:rspo": 38755,
                "official_name": "Technikum w Powiatowym Zespole Szk\u00f3\u0142 w Obornikach Sl\u0105skich",
                "name": "Technikum w Powiatowym Zespole Szk\u00f3\u0142 w Obornikach Sl\u0105skich",
                "addr:postcode": "55-120",
                "addr:city": "Oborniki \u015al\u0105skie",
                "addr:street": "Parkowa",
                "addr:housenumber": "8",
                "addr:teryt:simc": 987182,
                "addr:teryt:sym_ul": 15710,
                "phone": "+48 713102223",
                "email": "pzsobornki@powiat.trzebnica.pl",
                "ref:regon": "932944410",
                "operator": "Powiat Trzebnicki",
                "operator:type": "government",
                "amenity": "school",
                "note": "Parent RSPO: 16550"
            }
        },
        {
            "id": 38756,
            "type": "Feature",
            "geometry": {
                "type": "Point",
                "coordinates": [
                    16.91664,
                    51.30872
                ]
            },
            "properties": {
                "isced:level": "3",
                "ref:rspo": 38756,
                "official_name": "Bran\u017cowa Szko\u0142a I Stopnia w Powiatowym Zespole Szk\u00f3\u0142 w Obornikach \u015aL\u0105skich",
                "name": "Bran\u017cowa Szko\u0142a I Stopnia w Powiatowym Zespole Szk\u00f3\u0142 w Obornikach \u015aL\u0105skich",
                "addr:postcode": "55-120",
                "addr:city": "Oborniki \u015al\u0105skie",
                "addr:street": "Parkowa",
                "addr:housenumber": "8",
                "addr:teryt:simc": 987182,
                "addr:teryt:sym_ul": 15710,
                "phone": "+48 713102223",
                "email": "pzsoborniki@powiat.trzebnica.pl",
                "ref:regon": "020608588",
                "operator": "Powiat Trzebnicki",
                "operator:type": "government",
                "amenity": "school",
                "note": "Parent RSPO: 16550"
            }
        },
        {
            "id": 21788,
            "type": "Feature",
            "geometry": {
                "type": "Point",
                "coordinates": [
                    16.94367,
                    51.31735
                ]
            },
            "properties": {
                "ref:rspo": 21788,
                "official_name": "Szkolne Schronisko M\u0142odzie\u017cowe Dworek",
                "name": "Szkolne Schronisko M\u0142odzie\u017cowe Dworek",
                "addr:postcode": "55-120",
                "addr:city": "Kuraszk\u00f3w",
                "addr:street": "Turystyczna",
                "addr:housenumber": "2",
                "addr:teryt:simc": 878636,
                "addr:teryt:sym_ul": 23184,
                "phone": "+48 713102571",
                "email": "dworek@kuraszkow.pl",
                "website": "http:\/\/www.kuraszkow.pl",
                "ref:regon": "001040935",
                "ref:vatin": "PL9151606254",
                "operator": "Powiat Trzebnicki",
                "operator:type": "government",
                "tourism": "hostel"
            }
        },
        {
            "id": 107441,
            "type": "Feature",
            "geometry": {
                "type": "Point",
                "coordinates": [
                    16.84697,
                    51.33953
                ]
            },
            "properties": {
                "isced:level": "1;2",
                "ref:rspo": 107441,
                "official_name": "Szko\u0142a Podstawowa im. Jana Brzechwy w Osolinie",
                "name": "Szko\u0142a Podstawowa",
                "addr:postcode": "55-120",
                "addr:city": "Osolin",
                "addr:street": "Marsza\u0142ka J\u00f3zefa Pi\u0142sudskiego",
                "addr:housenumber": "5",
                "addr:teryt:simc": 878719,
                "addr:teryt:sym_ul": 16274,
                "phone": "+48 713106128",
                "email": "sposolin@wp.pl",
                "website": "http:\/\/www.sposolin.edu.pl",
                "ref:regon": "001181883",
                "ref:vatin": "PL9151321178",
                "operator": "Gmina Oborniki \u015al\u0105skie",
                "operator:type": "government",
                "amenity": "school"
            }
        }
    ]
}