{
    "type": "FeatureCollection",
    "features": [
        {
            "id": 9609,
            "type": "Feature",
            "geometry": {
                "type": "Point",
                "coordinates": [
                    16.57378,
                    50.5099
                ]
            },
            "properties": {
                "ref:rspo": 9609,
                "official_name": "Przedszkole Samorz\u0105dowe w Bo\u017ckowie",
                "name": "Przedszkole Samorz\u0105dowe w Bo\u017ckowie",
                "addr:country": "PL",
                "addr:postcode": "57-441",
                "addr:place": "Bo\u017ck\u00f3w",
                "addr:housenumber": "55",
                "addr:teryt:sym_ul": 854038,
                "contact:phone": "+48 748714229",
                "contact:email": "przedszkole.bozkow@wp.pl",
                "ref:regon": "890544481",
                "ref:vatin": "PL8851523251",
                "operator": "Gmina Nowa Ruda",
                "operator:type": "government",
                "amenity": "kindergarten",
                "note": "Parent RSPO: 9489"
            }
        },
        {
            "id": 9489,
            "type": "Feature",
            "geometry": {
                "type": "Point",
                "coordinates": [
                    16.57177,
                    50.51274
                ]
            },
            "properties": {
                "ref:rspo": 9489,
                "official_name": "Zesp\u00f3\u0142 Szk\u00f3\u0142 Nr 3 Z Oddzia\u0142ami Integracyjnymi w Bo\u017ckowie",
                "name": "Zesp\u00f3\u0142 Szk\u00f3\u0142 Nr 3 Z Oddzia\u0142ami Integracyjnymi w Bo\u017ckowie",
                "addr:country": "PL",
                "addr:postcode": "57-441",
                "addr:place": "Bo\u017ck\u00f3w",
                "addr:housenumber": "89E",
                "addr:teryt:sym_ul": 854038,
                "contact:phone": "+48 748714209",
                "contact:email": "spbozkow@wp.pl",
                "ref:regon": "020570325",
                "ref:vatin": "PL8851601867",
                "operator": "Gmina Nowa Ruda",
                "operator:type": "government",
                "landuse": "education",
                "fixme": "amenity=school, amenity=college albo landuse=education w zale\u017cno\u015bci od tego, jakie plac\u00f3wki wchodz\u0105 w sk\u0142ad zespo\u0142u. Sprawd\u017a, kiedy stosowa\u0107 amenity=* a kiedy landuse=education.",
                "note": "Children RSPO: 9582;9609"
            }
        },
        {
            "id": 9582,
            "type": "Feature",
            "geometry": {
                "type": "Point",
                "coordinates": [
                    16.57177,
                    50.51271
                ]
            },
            "properties": {
                "isced:level": "1;2",
                "ref:rspo": 9582,
                "official_name": "Szko\u0142a Podstawowa Z Oddzia\u0142ami Integracyjnymi im. Kornela Makuszy\u0144skiego w Bo\u017ckowie",
                "name": "Szko\u0142a Podstawowa Z Oddzia\u0142ami Integracyjnymi",
                "addr:country": "PL",
                "addr:postcode": "57-441",
                "addr:place": "Bo\u017ck\u00f3w",
                "addr:housenumber": "89E",
                "addr:teryt:sym_ul": 854038,
                "contact:phone": "+48 748714209",
                "contact:email": "spbozkow@wp.pl",
                "ref:regon": "001193410",
                "ref:vatin": "PL8851473441",
                "operator": "Gmina Nowa Ruda",
                "operator:type": "government",
                "amenity": "school",
                "note": "Parent RSPO: 9489"
            }
        },
        {
            "id": 57092,
            "type": "Feature",
            "geometry": {
                "type": "Point",
                "coordinates": [
                    16.57574,
                    50.5141
                ]
            },
            "properties": {
                "ref:rspo": 57092,
                "official_name": "Dolno\u015bL\u0105ski Zesp\u00f3\u0142 Szk\u00f3\u0142 w Bo\u017ckowie",
                "name": "Dolno\u015bL\u0105ski Zesp\u00f3\u0142 Szk\u00f3\u0142 w Bo\u017ckowie",
                "addr:country": "PL",
                "addr:postcode": "57-441",
                "addr:place": "Bo\u017ck\u00f3w",
                "addr:housenumber": "89a",
                "addr:teryt:sym_ul": 854038,
                "contact:phone": "+48 748714275",
                "contact:email": "zsa@netgate.com.pl",
                "contact:website": "http:\/\/www.zsa-bozkow.prv.pl",
                "ref:regon": "000115252",
                "operator": "Wojew\u00f3dztwo Dolno\u015bl\u0105skie",
                "operator:type": "government",
                "landuse": "education",
                "fixme": "amenity=school, amenity=college albo landuse=education w zale\u017cno\u015bci od tego, jakie plac\u00f3wki wchodz\u0105 w sk\u0142ad zespo\u0142u. Sprawd\u017a, kiedy stosowa\u0107 amenity=* a kiedy landuse=education.",
                "note": "Children RSPO: 68225;72540"
            }
        },
        {
            "id": 68225,
            "type": "Feature",
            "geometry": {
                "type": "Point",
                "coordinates": [
                    16.57574,
                    50.51407
                ]
            },
            "properties": {
                "isced:level": "3",
                "ref:rspo": 68225,
                "official_name": "Technikum im. W. S. Reymonta w Bo\u017ckowie",
                "name": "Technikum",
                "addr:country": "PL",
                "addr:postcode": "57-441",
                "addr:place": "Bo\u017ck\u00f3w",
                "addr:housenumber": "89",
                "addr:teryt:sym_ul": 854038,
                "contact:phone": "+48 748714275",
                "contact:email": "zsa@netgate.com.pl",
                "ref:regon": "891419140",
                "operator": "Wojew\u00f3dztwo Dolno\u015bl\u0105skie",
                "operator:type": "government",
                "amenity": "school",
                "note": "Parent RSPO: 57092"
            }
        },
        {
            "id": 72540,
            "type": "Feature",
            "geometry": {
                "type": "Point",
                "coordinates": [
                    16.57574,
                    50.51404
                ]
            },
            "properties": {
                "isced:level": "3",
                "ref:rspo": 72540,
                "official_name": "Bran\u017cowa Szko\u0142a I Stopnia w Bo\u017ckowie",
                "name": "Bran\u017cowa Szko\u0142a I Stopnia w Bo\u017ckowie",
                "addr:country": "PL",
                "addr:postcode": "57-441",
                "addr:place": "Bo\u017ck\u00f3w",
                "addr:housenumber": "89a",
                "addr:teryt:sym_ul": 854038,
                "contact:phone": "+48 748714275",
                "contact:email": "zsa@netgate.com.pl",
                "ref:regon": "022002565",
                "operator": "Wojew\u00f3dztwo Dolno\u015bl\u0105skie",
                "operator:type": "government",
                "amenity": "school",
                "note": "Parent RSPO: 57092"
            }
        },
        {
            "id": 3555,
            "type": "Feature",
            "geometry": {
                "type": "Point",
                "coordinates": [
                    16.5829,
                    50.56533
                ]
            },
            "properties": {
                "ref:rspo": 3555,
                "official_name": "Zesp\u00f3\u0142 Szk\u00f3\u0142 Spo\u0142ecznych w Dzikowcu",
                "name": "Zesp\u00f3\u0142 Szk\u00f3\u0142 Spo\u0142ecznych w Dzikowcu",
                "addr:country": "PL",
                "addr:postcode": "57-432",
                "addr:place": "Dzikowiec",
                "addr:housenumber": "95",
                "addr:teryt:sym_ul": 854140,
                "contact:phone": "+48 748722465",
                "contact:email": "zsp.dzikowiec@wp.pl",
                "ref:regon": "021941806",
                "ref:vatin": "PL8851636133",
                "operator": "Ochotnicza Stra\u017c Po\u017carna W Dzikowcu",
                "operator:type": "ngo",
                "landuse": "education",
                "fixme": "amenity=school, amenity=college albo landuse=education w zale\u017cno\u015bci od tego, jakie plac\u00f3wki wchodz\u0105 w sk\u0142ad zespo\u0142u. Sprawd\u017a, kiedy stosowa\u0107 amenity=* a kiedy landuse=education.",
                "note": "Children RSPO: 4076;4077"
            }
        },
        {
            "id": 4076,
            "type": "Feature",
            "geometry": {
                "type": "Point",
                "coordinates": [
                    16.5829,
                    50.5653
                ]
            },
            "properties": {
                "isced:level": "1;2",
                "ref:rspo": 4076,
                "official_name": "Niepubliczna Szko\u0142a Podstawowa w Dzikowcu",
                "name": "Niepubliczna Szko\u0142a Podstawowa w Dzikowcu",
                "addr:country": "PL",
                "addr:postcode": "57-432",
                "addr:place": "Dzikowiec",
                "addr:housenumber": "95",
                "addr:teryt:sym_ul": 854140,
                "contact:phone": "+48 748722465",
                "contact:email": "zsp.dzikowiec@wp.pl",
                "ref:regon": "021943410",
                "operator": "Ochotnicza Stra\u017c Po\u017carna W Dzikowcu",
                "operator:type": "ngo",
                "amenity": "school",
                "note": "Parent RSPO: 3555"
            }
        },
        {
            "id": 4077,
            "type": "Feature",
            "geometry": {
                "type": "Point",
                "coordinates": [
                    16.5829,
                    50.565270000000005
                ]
            },
            "properties": {
                "ref:rspo": 4077,
                "official_name": "Niepubliczne Przedszkole w Dzikowcu",
                "name": "Niepubliczne Przedszkole w Dzikowcu",
                "addr:country": "PL",
                "addr:postcode": "57-432",
                "addr:place": "Dzikowiec",
                "addr:housenumber": "94",
                "addr:teryt:sym_ul": 854140,
                "contact:phone": "+48 748722465",
                "contact:email": "zsp.dzikowiec@wp.pl",
                "ref:regon": "021943350",
                "operator": "Ochotnicza Stra\u017c Po\u017carna W Dzikowcu",
                "operator:type": "ngo",
                "amenity": "kindergarten",
                "note": "Parent RSPO: 3555"
            }
        },
        {
            "id": 119386,
            "type": "Feature",
            "geometry": {
                "type": "Point",
                "coordinates": [
                    16.47365,
                    50.57124
                ]
            },
            "properties": {
                "ref:rspo": 119386,
                "official_name": "Niepubliczne Przedszkole we W\u0142odowicach",
                "name": "Niepubliczne Przedszkole we W\u0142odowicach",
                "addr:country": "PL",
                "addr:postcode": "57-400",
                "addr:place": "W\u0142odowice",
                "addr:housenumber": "50",
                "addr:teryt:sym_ul": 854529,
                "contact:phone": "+48 748110525",
                "contact:email": "przedszkolewlodowice@gmail.com",
                "ref:regon": "022235170",
                "operator": "Fundacja Wspierania Aktywno\u015bci Lokalnej \"Fala\"",
                "operator:type": "ngo",
                "amenity": "kindergarten",
                "note": "Parent RSPO: 126618"
            }
        },
        {
            "id": 126618,
            "type": "Feature",
            "geometry": {
                "type": "Point",
                "coordinates": [
                    16.47759,
                    50.57578
                ]
            },
            "properties": {
                "ref:rspo": 126618,
                "official_name": "Zesp\u00f3\u0142 Edukacyjny W\u0142odowice",
                "name": "Zesp\u00f3\u0142 Edukacyjny W\u0142odowice",
                "addr:country": "PL",
                "addr:postcode": "57-400",
                "addr:place": "W\u0142odowice",
                "addr:housenumber": "25",
                "addr:teryt:sym_ul": 854529,
                "contact:phone": "+48 748721006",
                "contact:email": "spwlodowice@gmail.com",
                "ref:regon": "360577031",
                "ref:vatin": "PL8851637581",
                "operator": "Fundacja Wspierania Aktywno\u015bci Lokalnej \"Fala\"",
                "operator:type": "ngo",
                "landuse": "education",
                "fixme": "amenity=school, amenity=college albo landuse=education w zale\u017cno\u015bci od tego, jakie plac\u00f3wki wchodz\u0105 w sk\u0142ad zespo\u0142u. Sprawd\u017a, kiedy stosowa\u0107 amenity=* a kiedy landuse=education.",
                "note": "Children RSPO: 4891;119386"
            }
        },
        {
            "id": 4891,
            "type": "Feature",
            "geometry": {
                "type": "Point",
                "coordinates": [
                    16.47759,
                    50.57575
                ]
            },
            "properties": {
                "isced:level": "1;2",
                "ref:rspo": 4891,
                "official_name": "Szko\u0142a Podstawowa im. \u015aw. Wojciecha we W\u0142odowicach",
                "name": "Szko\u0142a Podstawowa",
                "addr:country": "PL",
                "addr:postcode": "57-400",
                "addr:place": "W\u0142odowice",
                "addr:housenumber": "25",
                "addr:teryt:sym_ul": 854529,
                "contact:phone": "+48 748721006",
                "contact:email": "spwlodowice@gmail.com",
                "contact:website": "http:\/\/www.zsp.wlodowice.szkolnastrona.pl",
                "ref:regon": "021946070",
                "ref:vatin": "PL8851636191",
                "operator": "Fundacja Wspierania Aktywno\u015bci Lokalnej \"Fala\"",
                "operator:type": "ngo",
                "amenity": "school",
                "note": "Parent RSPO: 126618"
            }
        },
        {
            "id": 128751,
            "type": "Feature",
            "geometry": {
                "type": "Point",
                "coordinates": [
                    16.598,
                    50.57647
                ]
            },
            "properties": {
                "isced:level": "1;2",
                "ref:rspo": 128751,
                "official_name": "Szko\u0142a Podstawowa Ams w Woliborzu",
                "name": "Szko\u0142a Podstawowa Ams w Woliborzu",
                "addr:country": "PL",
                "addr:postcode": "57-431",
                "addr:place": "Wolib\u00f3rz",
                "addr:housenumber": "55",
                "addr:teryt:sym_ul": 854564,
                "contact:phone": "+48 748139946",
                "contact:email": "ams.woliborz@fala.edu.pl",
                "ref:regon": "362382892",
                "ref:vatin": "PL8851638706",
                "operator": "Fundacja Wspierania Aktywno\u015bci Lokalnej \"Fala\"",
                "operator:type": "ngo",
                "amenity": "school"
            }
        },
        {
            "id": 267914,
            "type": "Feature",
            "geometry": {
                "type": "Point",
                "coordinates": [
                    16.598,
                    50.57644
                ]
            },
            "properties": {
                "ref:rspo": 267914,
                "official_name": "Zesp\u00f3\u0142 Przedszkolny w Woliborzu",
                "name": "Zesp\u00f3\u0142 Przedszkolny w Woliborzu",
                "addr:country": "PL",
                "addr:postcode": "57-431",
                "addr:place": "Wolib\u00f3rz",
                "addr:housenumber": "106",
                "addr:teryt:sym_ul": 854564,
                "contact:phone": "+48 748724759",
                "contact:email": "przedszkole.woliborz@gmina.nowaruda.pl",
                "ref:regon": "380754581",
                "ref:vatin": "PL8851640005",
                "operator": "Gmina Nowa Ruda",
                "operator:type": "government",
                "landuse": "education",
                "fixme": "amenity=school, amenity=college albo landuse=education w zale\u017cno\u015bci od tego, jakie plac\u00f3wki wchodz\u0105 w sk\u0142ad zespo\u0142u. Sprawd\u017a, kiedy stosowa\u0107 amenity=* a kiedy landuse=education.",
                "note": "Children RSPO: 10309;10310"
            }
        },
        {
            "id": 10309,
            "type": "Feature",
            "geometry": {
                "type": "Point",
                "coordinates": [
                    16.598,
                    50.57641
                ]
            },
            "properties": {
                "ref:rspo": 10309,
                "official_name": "Przedszkole Samorz\u0105dowe w Woliborzu",
                "name": "Przedszkole Samorz\u0105dowe w Woliborzu",
                "addr:country": "PL",
                "addr:postcode": "57-431",
                "addr:place": "Wolib\u00f3rz",
                "addr:housenumber": "106",
                "addr:teryt:sym_ul": 854564,
                "contact:phone": "+48 748724759",
                "ref:regon": "890544506",
                "ref:vatin": "PL8851636104",
                "operator": "Gmina Nowa Ruda",
                "operator:type": "government",
                "amenity": "kindergarten",
                "note": "Parent RSPO: 267914"
            }
        },
        {
            "id": 10310,
            "type": "Feature",
            "geometry": {
                "type": "Point",
                "coordinates": [
                    16.55732,
                    50.60714
                ]
            },
            "properties": {
                "ref:rspo": 10310,
                "official_name": "Przedszkole Samorz\u0105dowe w Przyg\u00f3rzu",
                "name": "Przedszkole Samorz\u0105dowe w Przyg\u00f3rzu",
                "addr:country": "PL",
                "addr:postcode": "57-431",
                "addr:place": "Przyg\u00f3rze",
                "addr:housenumber": "207A",
                "addr:teryt:sym_ul": 854587,
                "contact:phone": "+48 748722338",
                "ref:regon": "890544469",
                "ref:vatin": "PL8851636110",
                "operator": "Gmina Nowa Ruda",
                "operator:type": "government",
                "amenity": "kindergarten",
                "note": "Parent RSPO: 267914"
            }
        },
        {
            "id": 9264,
            "type": "Feature",
            "geometry": {
                "type": "Point",
                "coordinates": [
                    16.48453,
                    50.61521
                ]
            },
            "properties": {
                "ref:rspo": 9264,
                "official_name": "Zesp\u00f3\u0142 Szk\u00f3\u0142 Nr 2 w Ludwikowicach K\u0142odzkich",
                "name": "Zesp\u00f3\u0142 Szk\u00f3\u0142 Nr 2 w Ludwikowicach K\u0142odzkich",
                "addr:country": "PL",
                "addr:postcode": "57-450",
                "addr:city": "Ludwikowice K\u0142odzkie",
                "addr:street": "ul. Wiejska",
                "addr:housenumber": "1",
                "addr:teryt:simc": 24048,
                "addr:teryt:sym_ul": 854328,
                "contact:phone": "+48 748724700",
                "contact:email": "sp.ludwikowice@op.pl",
                "ref:regon": "021646711",
                "ref:vatin": "PL8851634476",
                "operator": "Gmina Nowa Ruda",
                "operator:type": "government",
                "landuse": "education",
                "fixme": "amenity=school, amenity=college albo landuse=education w zale\u017cno\u015bci od tego, jakie plac\u00f3wki wchodz\u0105 w sk\u0142ad zespo\u0142u. Sprawd\u017a, kiedy stosowa\u0107 amenity=* a kiedy landuse=education.",
                "note": "Children RSPO: 9351;9458"
            }
        },
        {
            "id": 9351,
            "type": "Feature",
            "geometry": {
                "type": "Point",
                "coordinates": [
                    16.48453,
                    50.615179999999995
                ]
            },
            "properties": {
                "isced:level": "1;2",
                "ref:rspo": 9351,
                "official_name": "Szko\u0142a Podstawowa im. \u015aw. Franciszka Z Asy\u017cu w Ludwikowicach K\u0142odzkich",
                "name": "Szko\u0142a Podstawowa",
                "addr:country": "PL",
                "addr:postcode": "57-450",
                "addr:city": "Ludwikowice K\u0142odzkie",
                "addr:street": "ul. Wiejska",
                "addr:housenumber": "1",
                "addr:teryt:simc": 24048,
                "addr:teryt:sym_ul": 854328,
                "contact:phone": "+48 748724700",
                "contact:email": "sp.ludwikowice@op.pl",
                "contact:website": "http:\/\/sp.ludwikowice.szkolnastrona.pl",
                "ref:regon": "001193449",
                "ref:vatin": "PL8851013596",
                "operator": "Gmina Nowa Ruda",
                "operator:type": "government",
                "amenity": "school",
                "note": "Parent RSPO: 9264"
            }
        },
        {
            "id": 9458,
            "type": "Feature",
            "geometry": {
                "type": "Point",
                "coordinates": [
                    16.47904,
                    50.61752
                ]
            },
            "properties": {
                "ref:rspo": 9458,
                "official_name": "Przedszkole Samorz\u0105dowe w Ludwikowicach K\u0142odzkich",
                "name": "Przedszkole Samorz\u0105dowe w Ludwikowicach K\u0142odzkich",
                "addr:country": "PL",
                "addr:postcode": "57-450",
                "addr:city": "Ludwikowice K\u0142odzkie",
                "addr:street": "ul. G\u0142\u00f3wna",
                "addr:housenumber": "38",
                "addr:teryt:simc": 5635,
                "addr:teryt:sym_ul": 854328,
                "contact:phone": "+48 748722363",
                "contact:email": "sp.ludwikowice@op.pl",
                "contact:website": "http:\/\/sp.ludwikowice.szkolnastrona",
                "ref:regon": "890544475",
                "ref:vatin": "PL8851523009",
                "operator": "Gmina Nowa Ruda",
                "operator:type": "government",
                "amenity": "kindergarten",
                "note": "Parent RSPO: 9264"
            }
        },
        {
            "id": 87142,
            "type": "Feature",
            "geometry": {
                "type": "Point",
                "coordinates": [
                    16.4740499,
                    50.6189899
                ]
            },
            "properties": {
                "isced:level": "1;2",
                "ref:rspo": 87142,
                "official_name": "Niepubliczna Szko\u0142a Podstawowa Specjalna Prowadzona Przez Siostry Franciszkanki w Ludwikowicach K\u0142odzkich",
                "name": "Niepubliczna Szko\u0142a Podstawowa Specjalna Prowadzona Przez Siostry Franciszkanki w Ludwikowicach K\u0142odzkich",
                "addr:country": "PL",
                "addr:postcode": "57-450",
                "addr:city": "Ludwikowice K\u0142odzkie",
                "addr:street": "ul. Wiejska",
                "addr:housenumber": "9",
                "addr:teryt:simc": 24048,
                "addr:teryt:sym_ul": 854328,
                "contact:phone": "+48 748716715",
                "contact:email": "nsps@poczta.onet.pl",
                "contact:website": "http:\/\/www.naszeszkoly.ng.pl",
                "ref:regon": "022016662",
                "ref:vatin": "PL8851457815",
                "operator": "Prowincja Polska Zgromadzenia Si\u00f3str Piel\u0119gniarek Trzeciego Zakonu Regularnego \u015aw. Franciszka",
                "operator:type": "religious",
                "amenity": "school"
            }
        },
        {
            "id": 87413,
            "type": "Feature",
            "geometry": {
                "type": "Point",
                "coordinates": [
                    16.4740499,
                    50.6189599
                ]
            },
            "properties": {
                "ref:rspo": 87413,
                "official_name": "Niepubliczna Szko\u0142a Specjalna Przysposabiaj\u0105ca Do Pracy Prowadzona Przez Siostry Franciszkanki",
                "name": "Niepubliczna Szko\u0142a Specjalna Przysposabiaj\u0105ca Do Pracy Prowadzona Przez Siostry Franciszkanki",
                "addr:country": "PL",
                "addr:postcode": "57-450",
                "addr:city": "Ludwikowice K\u0142odzkie",
                "addr:street": "ul. Wiejska",
                "addr:housenumber": "9",
                "addr:teryt:simc": 24048,
                "addr:teryt:sym_ul": 854328,
                "contact:phone": "+48 748716715",
                "contact:email": "nsps@poczta.onet.pl",
                "contact:website": "http:\/\/www.naszeszkoly.ng.pl",
                "ref:regon": "022016610",
                "ref:vatin": "PL8851602039",
                "operator": "Prowincja Polska Zgromadzenia Si\u00f3str Piel\u0119gniarek Trzeciego Zakonu Regularnego \u015aw. Franciszka",
                "operator:type": "religious",
                "amenity": "school"
            }
        },
        {
            "id": 10218,
            "type": "Feature",
            "geometry": {
                "type": "Point",
                "coordinates": [
                    16.51763,
                    50.62693
                ]
            },
            "properties": {
                "ref:rspo": 10218,
                "official_name": "Zesp\u00f3\u0142 Szk\u00f3\u0142 Nr 1 w Jugowie",
                "name": "Zesp\u00f3\u0142 Szk\u00f3\u0142 Nr 1 w Jugowie",
                "addr:country": "PL",
                "addr:postcode": "57-430",
                "addr:city": "Jug\u00f3w",
                "addr:street": "ul. G\u0142\u00f3wna",
                "addr:housenumber": "85",
                "addr:teryt:simc": 5635,
                "addr:teryt:sym_ul": 854179,
                "contact:phone": "+48 748724768",
                "contact:email": "szkola.jug@gmail.com",
                "contact:website": "http:\/\/spjugow.szkolnastrona.pl\/",
                "ref:regon": "021646668",
                "ref:vatin": "PL8851634631",
                "operator": "Gmina Nowa Ruda",
                "operator:type": "government",
                "landuse": "education",
                "fixme": "amenity=school, amenity=college albo landuse=education w zale\u017cno\u015bci od tego, jakie plac\u00f3wki wchodz\u0105 w sk\u0142ad zespo\u0142u. Sprawd\u017a, kiedy stosowa\u0107 amenity=* a kiedy landuse=education.",
                "note": "Children RSPO: 52916;52917"
            }
        },
        {
            "id": 52916,
            "type": "Feature",
            "geometry": {
                "type": "Point",
                "coordinates": [
                    16.51763,
                    50.6269
                ]
            },
            "properties": {
                "isced:level": "1;2",
                "ref:rspo": 52916,
                "official_name": "Szko\u0142a Podstawowa w Jugowie",
                "name": "Szko\u0142a Podstawowa w Jugowie",
                "addr:country": "PL",
                "addr:postcode": "57-430",
                "addr:city": "Jug\u00f3w",
                "addr:street": "ul. G\u0142\u00f3wna",
                "addr:housenumber": "85",
                "addr:teryt:simc": 5635,
                "addr:teryt:sym_ul": 854179,
                "contact:phone": "+48 748724768",
                "contact:email": "szkola.jug@gmail.com",
                "contact:website": "http:\/\/spjugow.szkolnastrona.pl\/",
                "ref:regon": "001193426",
                "ref:vatin": "PL8851473375",
                "operator": "Gmina Nowa Ruda",
                "operator:type": "government",
                "amenity": "school",
                "note": "Parent RSPO: 10218"
            }
        },
        {
            "id": 52917,
            "type": "Feature",
            "geometry": {
                "type": "Point",
                "coordinates": [
                    16.51327,
                    50.63276
                ]
            },
            "properties": {
                "ref:rspo": 52917,
                "official_name": "Przedszkole Samorz\u0105dowe w Jugowie",
                "name": "Przedszkole Samorz\u0105dowe w Jugowie",
                "addr:country": "PL",
                "addr:postcode": "57-430",
                "addr:city": "Jug\u00f3w",
                "addr:street": "ul. G\u0142\u00f3wna",
                "addr:housenumber": "131",
                "addr:teryt:simc": 5635,
                "addr:teryt:sym_ul": 854179,
                "contact:phone": "+48 748722418",
                "contact:email": "szkola.jug@gmail.com",
                "contact:website": "https:\/\/spjugow.szkolnastrona.pl",
                "ref:regon": "890544498",
                "ref:vatin": "PL8851269887",
                "operator": "Gmina Nowa Ruda",
                "operator:type": "government",
                "amenity": "kindergarten",
                "note": "Parent RSPO: 10218"
            }
        }
    ]
}