{
    "type": "FeatureCollection",
    "features": [
        {
            "id": 11485,
            "type": "Feature",
            "geometry": {
                "type": "Point",
                "coordinates": [
                    16.38367,
                    50.38886
                ]
            },
            "properties": {
                "ref:rspo": 11485,
                "official_name": "Dom Wczas\u00f3w Dzieci\u0119cych w Dusznikach Zdroju",
                "name": "Dom Wczas\u00f3w Dzieci\u0119cych w Dusznikach Zdroju",
                "addr:postcode": "57-340",
                "addr:city": "Duszniki-Zdr\u00f3j",
                "addr:street": "Wojska Polskiego",
                "addr:housenumber": "37",
                "addr:teryt:simc": 983913,
                "addr:teryt:sym_ul": 24628,
                "phone": "+48 748669293",
                "email": "dwd@dwd-duszniki.pl",
                "website": "http:\/\/dwd-duszniki.pl\/",
                "ref:regon": "000208048",
                "ref:vatin": "PL8831021687",
                "operator": "Powiat K\u0142odzki",
                "operator:type": "government",
                "leisure": "resort"
            }
        },
        {
            "id": 105505,
            "type": "Feature",
            "geometry": {
                "type": "Point",
                "coordinates": [
                    16.3828569,
                    50.3911104
                ]
            },
            "properties": {
                "ref:rspo": 105505,
                "official_name": "Dom Wczas\u00f3w Dzieci\u0119cych \"Green Rest\" w Dusznikach Zdroju",
                "name": "Dom Wczas\u00f3w Dzieci\u0119cych \"Green Rest\" w Dusznikach Zdroju",
                "addr:postcode": "57-340",
                "addr:city": "Duszniki-Zdr\u00f3j",
                "addr:street": "Wojska Polskiego",
                "addr:housenumber": "33",
                "addr:teryt:simc": 983913,
                "addr:teryt:sym_ul": 24628,
                "phone": "+48 748669356",
                "email": "greenrest@dwdgreenrest.pl",
                "website": "http:\/\/www.dwdgreenrest.pl",
                "ref:regon": "022041803",
                "ref:vatin": "PL8831850604",
                "operator": "Centrum Nauki I Wypoczynku Green Rest  Sp\u00f3\u0142ka Cywilna \u0141ugowska, Cymba\u0142a",
                "operator:type": "private",
                "leisure": "resort"
            }
        },
        {
            "id": 20075,
            "type": "Feature",
            "geometry": {
                "type": "Point",
                "coordinates": [
                    16.39383,
                    50.40163
                ]
            },
            "properties": {
                "isced:level": "1;2",
                "ref:rspo": 20075,
                "official_name": "Szko\u0142a Podstawowa Z Oddzia\u0142ami Integracyjnymi im. B. Czecha I H. Marusarz\u00f3wnyw Dusznikach-Zdroju",
                "name": "Szko\u0142a Podstawowa Z Oddzia\u0142ami Integracyjnymi",
                "addr:postcode": "57-340",
                "addr:city": "Duszniki-Zdr\u00f3j",
                "addr:street": "Sprzymierzonych",
                "addr:housenumber": "6",
                "addr:teryt:simc": 983913,
                "addr:teryt:sym_ul": 20716,
                "phone": "+48 748669216",
                "email": "sekretariat.sp@mzs.duszniki.pl",
                "website": "http:\/\/www.mzs.duszniki.pl",
                "ref:regon": "000691211",
                "operator": "Gmina Miejska Duszniki-Zdr\u00f3j",
                "operator:type": "government",
                "amenity": "school",
                "note": "Parent RSPO: 10560"
            }
        },
        {
            "id": 275930,
            "type": "Feature",
            "geometry": {
                "type": "Point",
                "coordinates": [
                    16.39383,
                    50.401599999999995
                ]
            },
            "properties": {
                "ref:rspo": 275930,
                "official_name": "Powiatowa Poradnia Psychologiczno-Pedagogiczna w K\u0142odzku Filia Duszniki-Zdr\u00f3j",
                "name": "Powiatowa Poradnia Psychologiczno-Pedagogiczna w K\u0142odzku Filia Duszniki-Zdr\u00f3j",
                "addr:postcode": "57-540",
                "addr:city": "Duszniki-Zdr\u00f3j",
                "addr:street": "Sprzymierzonych",
                "addr:housenumber": "6",
                "addr:teryt:simc": 983913,
                "addr:teryt:sym_ul": 20716,
                "phone": "+48 748669812",
                "email": "por.dusz@pcpp.klodzko.pl",
                "ref:regon": "890040390",
                "operator": "Powiat K\u0142odzki",
                "operator:type": "government",
                "healthcare": "counselling",
                "counselling_type": "education",
                "fixme": "w zale\u017cno\u015bci od przedmiotu dzia\u0142alno\u015bci (np. healthcare=counselling + counselling_type=education albo healthcare=psychotherapist)",
                "note": "Parent RSPO: 90208"
            }
        },
        {
            "id": 11107,
            "type": "Feature",
            "geometry": {
                "type": "Point",
                "coordinates": [
                    16.39042,
                    50.40336
                ]
            },
            "properties": {
                "ref:rspo": 11107,
                "official_name": "Przedszkole w Dusznikach-Zdroju",
                "name": "Przedszkole w Dusznikach-Zdroju",
                "addr:postcode": "57-340",
                "addr:city": "Duszniki-Zdr\u00f3j",
                "addr:street": "Krakowska",
                "addr:housenumber": "3",
                "addr:teryt:simc": 983913,
                "addr:teryt:sym_ul": 9796,
                "phone": "+48 748669377",
                "email": "przedszkole.duszniki@poczta.onet.pl",
                "website": "http:\/\/www.przedszkole.duszniki.pl",
                "ref:regon": "890044100",
                "ref:vatin": "PL8831696646",
                "operator": "Gmina Miejska Duszniki-Zdr\u00f3j",
                "operator:type": "government",
                "amenity": "kindergarten"
            }
        },
        {
            "id": 10560,
            "type": "Feature",
            "geometry": {
                "type": "Point",
                "coordinates": [
                    16.38785,
                    50.40393
                ]
            },
            "properties": {
                "ref:rspo": 10560,
                "official_name": "Miejski Zesp\u00f3\u0142 Szk\u00f3\u0142 w Dusznikach-Zdroju",
                "name": "Miejski Zesp\u00f3\u0142 Szk\u00f3\u0142 w Dusznikach-Zdroju",
                "addr:postcode": "57-340",
                "addr:city": "Duszniki-Zdr\u00f3j",
                "addr:street": "J\u00f3zefa Wybickiego",
                "addr:housenumber": "2a",
                "addr:teryt:simc": 983913,
                "addr:teryt:sym_ul": 24908,
                "phone": "+48 748669368",
                "email": "sekretariat@mzs.duszniki.pl",
                "website": "http:\/\/www.mzs.duszniki.pl",
                "ref:regon": "021955458",
                "ref:vatin": "PL8831084110",
                "operator": "Gmina Miejska Duszniki-Zdr\u00f3j",
                "operator:type": "government",
                "landuse": "education",
                "fixme": "amenity=school, amenity=college albo landuse=education w zale\u017cno\u015bci od tego, jakie plac\u00f3wki wchodz\u0105 w sk\u0142ad zespo\u0142u. Sprawd\u017a, kiedy stosowa\u0107 amenity=* a kiedy landuse=education.",
                "note": "Children RSPO: 20075;20077"
            }
        },
        {
            "id": 20077,
            "type": "Feature",
            "geometry": {
                "type": "Point",
                "coordinates": [
                    16.38785,
                    50.4039
                ]
            },
            "properties": {
                "isced:level": "3",
                "ref:rspo": 20077,
                "official_name": "Liceum Og\u00f3lnokszta\u0142c\u0105ce Mistrzostwa Sportowego w Dusznikach-Zdroju",
                "name": "Liceum Og\u00f3lnokszta\u0142c\u0105ce Mistrzostwa Sportowego w Dusznikach-Zdroju",
                "addr:postcode": "57-340",
                "addr:city": "Duszniki-Zdr\u00f3j",
                "addr:street": "J\u00f3zefa Wybickiego",
                "addr:housenumber": "2A",
                "addr:teryt:simc": 983913,
                "addr:teryt:sym_ul": 24908,
                "phone": "+48 748669368",
                "email": "sekretariat@mzs.duszniki.pl",
                "website": "http:\/\/www.mzs.duszniki.pl",
                "ref:regon": "891077515",
                "operator": "Gmina Miejska Duszniki-Zdr\u00f3j",
                "operator:type": "government",
                "amenity": "school",
                "note": "Parent RSPO: 10560"
            }
        }
    ]
}