{
    "type": "FeatureCollection",
    "features": [
        {
            "id": 3532,
            "type": "Feature",
            "geometry": {
                "type": "Point",
                "coordinates": [
                    16.64627,
                    50.2103899
                ]
            },
            "properties": {
                "isced:level": "1;2",
                "ref:rspo": 3532,
                "official_name": "Szko\u0142a Podstawowa w D\u0142ugopolu Dolnym",
                "name": "Szko\u0142a Podstawowa w D\u0142ugopolu Dolnym",
                "addr:postcode": "57-520",
                "addr:place": "D\u0142ugopole Dolne",
                "addr:housenumber": "36",
                "addr:city:simc": 851318,
                "phone": "+48 748139046",
                "email": "szpdd@interia.pl",
                "ref:regon": "021942036",
                "operator": "Stowarzyszenie Przyjaci\u00f3\u0142 Szko\u0142y W D\u0142ugopolu Dolnym \"Kleks\"",
                "operator:type": "ngo",
                "amenity": "school"
            }
        },
        {
            "id": 87840,
            "type": "Feature",
            "geometry": {
                "type": "Point",
                "coordinates": [
                    16.7629899,
                    50.2283199
                ]
            },
            "properties": {
                "isced:level": "3",
                "ref:rspo": 87840,
                "official_name": "Liceum Og\u00f3lnokszta\u0142c\u0105ce dla Doros\u0142ych \"Omega\" w Bystrzycy K\u0142odzkiej",
                "name": "Liceum Og\u00f3lnokszta\u0142c\u0105ce dla Doros\u0142ych \"Omega\" w Bystrzycy K\u0142odzkiej",
                "addr:postcode": "57-500",
                "addr:city": "Bystrzyca K\u0142odzka",
                "addr:street": "Wojska Polskiego",
                "addr:housenumber": "8",
                "addr:city:simc": 983899,
                "addr:street:sym_ul": 24628,
                "phone": "+48 728913808",
                "email": "omega-lo@wp.pl",
                "ref:regon": "022016627",
                "ref:vatin": "PL8951362505",
                "operator": "Ryszard Cie\u015blik",
                "operator:type": "private",
                "amenity": "school"
            }
        },
        {
            "id": 56131,
            "type": "Feature",
            "geometry": {
                "type": "Point",
                "coordinates": [
                    16.7629899,
                    50.2282899
                ]
            },
            "properties": {
                "isced:level": "1;2",
                "ref:rspo": 56131,
                "official_name": "Szko\u0142a Podstawowa nr 1 im. Gen. J\u00f3zefa Bema w Bystrzycy K\u0142odzkiej",
                "name": "Szko\u0142a Podstawowa nr 1",
                "addr:postcode": "57-500",
                "addr:city": "Bystrzyca K\u0142odzka",
                "addr:street": "Wojska Polskiego",
                "addr:housenumber": "8",
                "addr:city:simc": 983899,
                "addr:street:sym_ul": 24628,
                "phone": "+48 748111465",
                "email": "sekretariat@zso.bystrzyca.eu",
                "ref:regon": "000850081",
                "ref:vatin": "PL8811375123",
                "operator": "Gmina Bystrzyca K\u0142odzka",
                "operator:type": "government",
                "amenity": "school",
                "note": "Parent RSPO: 84640"
            }
        },
        {
            "id": 118786,
            "type": "Feature",
            "geometry": {
                "type": "Point",
                "coordinates": [
                    16.63142,
                    50.24341
                ]
            },
            "properties": {
                "ref:rspo": 118786,
                "official_name": "Centrum Kszta\u0142cenia - Hotel Service w D\u0142ugopolu",
                "name": "Centrum Kszta\u0142cenia - Hotel Service w D\u0142ugopolu",
                "addr:postcode": "57-520",
                "addr:city": "D\u0142ugopole-Zdr\u00f3j",
                "addr:street": "Zdrojowa",
                "addr:housenumber": "22",
                "addr:city:simc": 851324,
                "addr:street:sym_ul": 25944,
                "phone": "+48 602781036",
                "email": "d.ratajczak@dwor-elizy.com",
                "ref:regon": "022208686",
                "operator": "Hotel Service Sp\u00f3\u0142ka Z Ograniczon\u0105 Odpowiedzialno\u015bci\u0105",
                "operator:type": "private",
                "fixme": "w zale\u017cno\u015bci od przedmiotu dzia\u0142alno\u015bci (np. amenity=training + training=*, amenity=dancing_school, amenity=language_school, amenity=music_school)"
            }
        },
        {
            "id": 105869,
            "type": "Feature",
            "geometry": {
                "type": "Point",
                "coordinates": [
                    16.6324,
                    50.24718
                ]
            },
            "properties": {
                "ref:rspo": 105869,
                "official_name": "Specjalny O\u015brodek Szkolno-Wychowawczy im. Przyjaci\u00f3\u0142 \u015arodowiska w D\u0142ugopolu Zdroju",
                "name": "Specjalny O\u015brodek Szkolno-Wychowawczy",
                "addr:postcode": "57-520",
                "addr:city": "D\u0142ugopole-Zdr\u00f3j",
                "addr:street": "Zdrojowa",
                "addr:housenumber": "11",
                "addr:city:simc": 851324,
                "addr:street:sym_ul": 25944,
                "phone": "+48 748139169",
                "email": "soszwdlugopole@o2.pl",
                "website": "http:\/\/www.oszwdlugopole.pl",
                "ref:regon": "022041921",
                "operator": "Powiat K\u0142odzki",
                "operator:type": "government",
                "amenity": "school",
                "note": "Children RSPO: 106214;106227;130490;268493"
            }
        },
        {
            "id": 106214,
            "type": "Feature",
            "geometry": {
                "type": "Point",
                "coordinates": [
                    16.6324,
                    50.24715
                ]
            },
            "properties": {
                "isced:level": "1;2",
                "ref:rspo": 106214,
                "official_name": "Szko\u0142a Podstawowa Specjalna w D\u0142ugopolu Zdroju",
                "name": "Szko\u0142a Podstawowa Specjalna w D\u0142ugopolu Zdroju",
                "addr:postcode": "57-520",
                "addr:city": "D\u0142ugopole-Zdr\u00f3j",
                "addr:street": "Zdrojowa",
                "addr:housenumber": "11",
                "addr:city:simc": 851324,
                "addr:street:sym_ul": 25944,
                "phone": "+48 748139169",
                "email": "soszwdlugopole@o2.pl",
                "website": "http:\/\/www.oszwdlugopole.pl",
                "ref:regon": "891068025",
                "operator": "Powiat K\u0142odzki",
                "operator:type": "government",
                "amenity": "school",
                "note": "Parent RSPO: 105869"
            }
        },
        {
            "id": 106227,
            "type": "Feature",
            "geometry": {
                "type": "Point",
                "coordinates": [
                    16.6324,
                    50.24712
                ]
            },
            "properties": {
                "ref:rspo": 106227,
                "official_name": "Trzyletnia Szko\u0142a Specjalna Przysposabiaj\u0105ca do Pracy w D\u0142ugopolu Zdroju",
                "name": "Trzyletnia Szko\u0142a Specjalna Przysposabiaj\u0105ca do Pracy w D\u0142ugopolu Zdroju",
                "addr:postcode": "57-520",
                "addr:city": "D\u0142ugopole-Zdr\u00f3j",
                "addr:street": "Zdrojowa",
                "addr:housenumber": "11",
                "addr:city:simc": 851324,
                "addr:street:sym_ul": 25944,
                "phone": "+48 748139169",
                "email": "soszwdlugopole@o2.pl",
                "website": "http:\/\/www.oszwdlugopole.pl",
                "ref:regon": "020854382",
                "operator": "Powiat K\u0142odzki",
                "operator:type": "government",
                "amenity": "school",
                "note": "Parent RSPO: 105869"
            }
        },
        {
            "id": 130490,
            "type": "Feature",
            "geometry": {
                "type": "Point",
                "coordinates": [
                    16.6324,
                    50.24709
                ]
            },
            "properties": {
                "isced:level": "3",
                "ref:rspo": 130490,
                "official_name": "Bran\u017cowa Szko\u0142a I Stopnia Specjalna w Specjalnym O\u015brodku Szkolno-Wychowawczym im. Przyjaci\u00f3\u0142 \u015arodowiska w D\u0142ugopolu-Zdroju",
                "name": "Bran\u017cowa Szko\u0142a I Stopnia Specjalna w Specjalnym O\u015brodku Szkolno-Wychowawczym",
                "addr:postcode": "57-520",
                "addr:city": "D\u0142ugopole-Zdr\u00f3j",
                "addr:street": "Zdrojowa",
                "addr:housenumber": "11",
                "addr:city:simc": 851324,
                "addr:street:sym_ul": 25944,
                "phone": "+48 748139159",
                "email": "soszwdlugopole@o2.pl",
                "ref:regon": "364091377",
                "operator": "Powiat K\u0142odzki",
                "operator:type": "government",
                "amenity": "school",
                "note": "Parent RSPO: 105869"
            }
        },
        {
            "id": 268493,
            "type": "Feature",
            "geometry": {
                "type": "Point",
                "coordinates": [
                    16.6324,
                    50.24706
                ]
            },
            "properties": {
                "ref:rspo": 268493,
                "official_name": "Przedszkole Specjalne w Specjalnym O\u015brodku Szkolno-Wychowawczym im. Przyjaci\u00f3\u0142 \u015arodowiska w D\u0142ugopolu-Zdroju",
                "name": "Przedszkole Specjalne w Specjalnym O\u015brodku Szkolno-Wychowawczym",
                "addr:postcode": "57-520",
                "addr:city": "D\u0142ugopole-Zdr\u00f3j",
                "addr:street": "Zdrojowa",
                "addr:housenumber": "11",
                "addr:city:simc": 851324,
                "addr:street:sym_ul": 25944,
                "phone": "+48 748139169",
                "email": "glusi@wp.pl",
                "website": "http:\/\/www.oszwdlugopole.szkolnastrona.pl\/",
                "ref:regon": "381199466",
                "operator": "Powiat K\u0142odzki",
                "operator:type": "government",
                "amenity": "kindergarten",
                "note": "Parent RSPO: 105869"
            }
        },
        {
            "id": 105812,
            "type": "Feature",
            "geometry": {
                "type": "Point",
                "coordinates": [
                    16.6537599,
                    50.29812
                ]
            },
            "properties": {
                "ref:rspo": 105812,
                "official_name": "Niepubliczna Poradnia Psychologiczno-Pedagogiczna w Bystrzycy K\u0142odzkiej",
                "name": "Niepubliczna Poradnia Psychologiczno-Pedagogiczna w Bystrzycy K\u0142odzkiej",
                "addr:postcode": "57-500",
                "addr:city": "Bystrzyca K\u0142odzka",
                "addr:street": "Stefana Okrzei",
                "addr:housenumber": "20",
                "addr:door": "9",
                "addr:city:simc": 983899,
                "addr:street:sym_ul": 14914,
                "phone": "+48 605175434",
                "email": "terapie1@o2.pl",
                "website": "http:\/\/www.bystrzyca.info.pl\/terapie",
                "ref:regon": "022041890",
                "ref:vatin": "PL8811152073",
                "operator": "Jolanta Terlecka",
                "operator:type": "private",
                "healthcare": "counselling",
                "counselling_type": "education",
                "fixme": "w zale\u017cno\u015bci od przedmiotu dzia\u0142alno\u015bci (np. healthcare=counselling + counselling_type=education albo healthcare=psychotherapist)"
            }
        },
        {
            "id": 86765,
            "type": "Feature",
            "geometry": {
                "type": "Point",
                "coordinates": [
                    16.6500999,
                    50.29896
                ]
            },
            "properties": {
                "ref:rspo": 86765,
                "official_name": "Zesp\u00f3\u0142 Szk\u00f3\u0142 Ponadpodstawowych",
                "name": "Zesp\u00f3\u0142 Szk\u00f3\u0142 Ponadpodstawowych",
                "addr:postcode": "57-500",
                "addr:city": "Bystrzyca K\u0142odzka",
                "addr:street": "Juliusza S\u0142owackiego",
                "addr:housenumber": "4",
                "addr:city:simc": 983899,
                "addr:street:sym_ul": 20291,
                "phone": "+48 748111546",
                "email": "sekretariat@zspbystrzyca.com.pl",
                "website": "http:\/\/www.zspbystrzyca.com.pl",
                "ref:regon": "000179520",
                "ref:vatin": "PL8811311413",
                "operator": "Powiat K\u0142odzki",
                "operator:type": "government",
                "landuse": "education",
                "fixme": "amenity=school, amenity=college albo landuse=education w zale\u017cno\u015bci od tego, jakie plac\u00f3wki wchodz\u0105 w sk\u0142ad zespo\u0142u. Sprawd\u017a, kiedy stosowa\u0107 amenity=* a kiedy landuse=education.",
                "note": "Children RSPO: 92044;92045;122858"
            }
        },
        {
            "id": 92044,
            "type": "Feature",
            "geometry": {
                "type": "Point",
                "coordinates": [
                    16.6500999,
                    50.29893
                ]
            },
            "properties": {
                "isced:level": "3",
                "ref:rspo": 92044,
                "official_name": "Technikum im. Prof. Sylwestra Kaliskiego w Bystrzycy K\u0142odzkiej",
                "name": "Technikum",
                "addr:postcode": "57-500",
                "addr:city": "Bystrzyca K\u0142odzka",
                "addr:street": "Juliusza S\u0142owackiego",
                "addr:housenumber": "4",
                "addr:city:simc": 983899,
                "addr:street:sym_ul": 20291,
                "phone": "+48 748111546",
                "email": "sekretariat@zspbystrzyca.com.pl",
                "website": "http:\/\/www.zspbystrzyca.com.pl",
                "ref:regon": "890533490",
                "operator": "Powiat K\u0142odzki",
                "operator:type": "government",
                "amenity": "school",
                "note": "Parent RSPO: 86765"
            }
        },
        {
            "id": 92045,
            "type": "Feature",
            "geometry": {
                "type": "Point",
                "coordinates": [
                    16.6500999,
                    50.2989
                ]
            },
            "properties": {
                "isced:level": "3",
                "ref:rspo": 92045,
                "official_name": "Bran\u017cowa Szko\u0142a I Stopnia im. Prof. Sylwestra Kaliskiego w Bystrzycy K\u0142odzkiej",
                "name": "Bran\u017cowa Szko\u0142a I Stopnia",
                "addr:postcode": "57-500",
                "addr:city": "Bystrzyca K\u0142odzka",
                "addr:street": "Juliusza S\u0142owackiego",
                "addr:housenumber": "4",
                "addr:city:simc": 983899,
                "addr:street:sym_ul": 20291,
                "phone": "+48 748111546",
                "email": "sekretariat@zspbystrzyca.com.pl",
                "website": "http:\/\/www.zspbystrzyca.com.pl",
                "ref:regon": "890533514",
                "operator": "Powiat K\u0142odzki",
                "operator:type": "government",
                "amenity": "school",
                "note": "Parent RSPO: 86765"
            }
        },
        {
            "id": 122858,
            "type": "Feature",
            "geometry": {
                "type": "Point",
                "coordinates": [
                    16.6500999,
                    50.29887
                ]
            },
            "properties": {
                "isced:level": "4",
                "ref:rspo": 122858,
                "official_name": "Szko\u0142a Policealna nr 1 w Bystrzycy K\u0142odzkiej",
                "name": "Szko\u0142a Policealna nr 1 w Bystrzycy K\u0142odzkiej",
                "addr:postcode": "57-500",
                "addr:city": "Bystrzyca K\u0142odzka",
                "addr:street": "Juliusza S\u0142owackiego",
                "addr:housenumber": "4",
                "addr:city:simc": 983899,
                "addr:street:sym_ul": 20291,
                "phone": "+48 748111546",
                "email": "zspbystrzycakl@neostrada.pl",
                "website": "http:\/\/www.zspbystrzyca.pl",
                "ref:regon": "022396475",
                "operator": "Powiat K\u0142odzki",
                "operator:type": "government",
                "amenity": "college",
                "note": "Parent RSPO: 86765"
            }
        },
        {
            "id": 275928,
            "type": "Feature",
            "geometry": {
                "type": "Point",
                "coordinates": [
                    16.6500999,
                    50.29884
                ]
            },
            "properties": {
                "ref:rspo": 275928,
                "official_name": "Powiatowa Poradnia Psychologiczno-Pedagogiczna w K\u0142odzku Filia Bystrzyca K\u0142odzka",
                "name": "Powiatowa Poradnia Psychologiczno-Pedagogiczna w K\u0142odzku Filia Bystrzyca K\u0142odzka",
                "addr:postcode": "57-500",
                "addr:city": "Bystrzyca K\u0142odzka",
                "addr:street": "Juliusza S\u0142owackiego",
                "addr:housenumber": "4",
                "addr:city:simc": 983899,
                "addr:street:sym_ul": 20291,
                "phone": "+48 746442882",
                "email": "por.bk@pcpp.klodzko.pl",
                "ref:regon": "890040390",
                "operator": "Powiat K\u0142odzki",
                "operator:type": "government",
                "healthcare": "counselling",
                "counselling_type": "education",
                "fixme": "w zale\u017cno\u015bci od przedmiotu dzia\u0142alno\u015bci (np. healthcare=counselling + counselling_type=education albo healthcare=psychotherapist)",
                "note": "Parent RSPO: 90208"
            }
        },
        {
            "id": 275189,
            "type": "Feature",
            "geometry": {
                "type": "Point",
                "coordinates": [
                    16.65447,
                    50.2999
                ]
            },
            "properties": {
                "ref:rspo": 275189,
                "official_name": "Pa\u0144stwowa Szko\u0142a Muzyczna I I II Stopnia w Bystrzycy K\u0142odzkiej",
                "name": "Pa\u0144stwowa Szko\u0142a Muzyczna I I II Stopnia w Bystrzycy K\u0142odzkiej",
                "addr:postcode": "57-500",
                "addr:city": "Bystrzyca K\u0142odzka",
                "addr:street": "Stefana Okrzei",
                "addr:housenumber": "34",
                "addr:city:simc": 983899,
                "addr:street:sym_ul": 14914,
                "ref:regon": "386673642",
                "operator": "Ministerstwo Kultury I Dziedzictwa Narodowego",
                "operator:type": "public",
                "landuse": "education",
                "fixme": "amenity=school, amenity=college albo landuse=education w zale\u017cno\u015bci od tego, jakie plac\u00f3wki wchodz\u0105 w sk\u0142ad zespo\u0142u. Sprawd\u017a, kiedy stosowa\u0107 amenity=* a kiedy landuse=education.",
                "note": "Children RSPO: 74466;127974"
            }
        },
        {
            "id": 74466,
            "type": "Feature",
            "geometry": {
                "type": "Point",
                "coordinates": [
                    16.65447,
                    50.29987
                ]
            },
            "properties": {
                "ref:rspo": 74466,
                "official_name": "Pa\u0144stwowa Szko\u0142a Muzyczna I St. im. Karola Szymanowskiego w Bystrzycy K\u0142odzkiej",
                "name": "Pa\u0144stwowa Szko\u0142a Muzyczna I St.",
                "addr:postcode": "57-500",
                "addr:city": "Bystrzyca K\u0142odzka",
                "addr:street": "Stefana Okrzei",
                "addr:housenumber": "34",
                "addr:city:simc": 983899,
                "addr:street:sym_ul": 14914,
                "phone": "+48 748110349",
                "email": "psm-bk@kki.net.pl",
                "website": "http:\/\/www.psm.bystrzyca.pl",
                "ref:regon": "000280755",
                "operator": "Ministerstwo Kultury I Dziedzictwa Narodowego",
                "operator:type": "public",
                "amenity": "music_school",
                "note": "Parent RSPO: 275189"
            }
        },
        {
            "id": 84640,
            "type": "Feature",
            "geometry": {
                "type": "Point",
                "coordinates": [
                    16.6520699,
                    50.30074
                ]
            },
            "properties": {
                "ref:rspo": 84640,
                "official_name": "Zesp\u00f3\u0142 Szk\u00f3\u0142 Og\u00f3lnokszta\u0142c\u0105cych w Bystrzycy K\u0142odzkiej",
                "name": "Zesp\u00f3\u0142 Szk\u00f3\u0142 Og\u00f3lnokszta\u0142c\u0105cych w Bystrzycy K\u0142odzkiej",
                "addr:postcode": "57-500",
                "addr:city": "Bystrzyca K\u0142odzka",
                "addr:street": "Stefanii Sempo\u0142owskiej",
                "addr:housenumber": "13",
                "addr:city:simc": 983899,
                "addr:street:sym_ul": 19674,
                "phone": "+48 746442840",
                "email": "sekretariat@zso.bystrzyca.eu",
                "website": "http:\/\/www.liceum.bystrzyca.eu",
                "ref:regon": "000691984",
                "ref:vatin": "PL8811042580",
                "operator": "Gmina Bystrzyca K\u0142odzka",
                "operator:type": "government",
                "landuse": "education",
                "fixme": "amenity=school, amenity=college albo landuse=education w zale\u017cno\u015bci od tego, jakie plac\u00f3wki wchodz\u0105 w sk\u0142ad zespo\u0142u. Sprawd\u017a, kiedy stosowa\u0107 amenity=* a kiedy landuse=education.",
                "note": "Children RSPO: 56131;91201"
            }
        },
        {
            "id": 91201,
            "type": "Feature",
            "geometry": {
                "type": "Point",
                "coordinates": [
                    16.6520699,
                    50.300709999999995
                ]
            },
            "properties": {
                "isced:level": "3",
                "ref:rspo": 91201,
                "official_name": "I Liceum Og\u00f3lnokszta\u0142c\u0105ce im. Powsta\u0144c\u00f3w \u015aL\u0105skich w Bystrzycy K\u0142odzkiej",
                "name": "I Liceum Og\u00f3lnokszta\u0142c\u0105ce",
                "addr:postcode": "57-500",
                "addr:city": "Bystrzyca K\u0142odzka",
                "addr:street": "Stefanii Sempo\u0142owskiej",
                "addr:housenumber": "13",
                "addr:city:simc": 983899,
                "addr:street:sym_ul": 19674,
                "phone": "+48 746442840",
                "email": "sekretariat@zso.bystrzyca.eu",
                "website": "http:\/\/www.liceum.bystrzyca.eu",
                "ref:regon": "891419393",
                "operator": "Gmina Bystrzyca K\u0142odzka",
                "operator:type": "government",
                "amenity": "school",
                "note": "Parent RSPO: 84640"
            }
        },
        {
            "id": 127974,
            "type": "Feature",
            "geometry": {
                "type": "Point",
                "coordinates": [
                    16.6520699,
                    50.30068
                ]
            },
            "properties": {
                "ref:rspo": 127974,
                "official_name": "Szko\u0142a Muzyczna II Stopnia w Bystrzycy K\u0142odzkiej",
                "name": "Szko\u0142a Muzyczna II Stopnia w Bystrzycy K\u0142odzkiej",
                "addr:postcode": "57-500",
                "addr:city": "Bystrzyca K\u0142odzka",
                "addr:street": "Stefanii Sempo\u0142owskiej",
                "addr:housenumber": "13",
                "addr:city:simc": 983899,
                "addr:street:sym_ul": 19674,
                "phone": "+48 748716829",
                "email": "secundusgradus2@gmail.com",
                "website": "http:\/\/www.sm2bystrzyca.pl",
                "ref:regon": "362023213",
                "operator": "Ministerstwo Kultury I Dziedzictwa Narodowego",
                "operator:type": "public",
                "amenity": "music_school",
                "note": "Parent RSPO: 275189"
            }
        },
        {
            "id": 51856,
            "type": "Feature",
            "geometry": {
                "type": "Point",
                "coordinates": [
                    16.63653,
                    50.30081
                ]
            },
            "properties": {
                "isced:level": "1;2",
                "ref:rspo": 51856,
                "official_name": "Szko\u0142a Podstawowa nr 2 im. Obro\u0144c\u00f3w Warszawy",
                "name": "Szko\u0142a Podstawowa nr 2",
                "addr:postcode": "57-500",
                "addr:city": "Bystrzyca K\u0142odzka",
                "addr:street": "Wojska Polskiego",
                "addr:housenumber": "68",
                "addr:city:simc": 983899,
                "addr:street:sym_ul": 24628,
                "phone": "+48 748111721",
                "email": "sekretariat@sp2bystrzyca.pl",
                "website": "http:\/\/sp2bystrzyca.pl",
                "ref:regon": "000240218",
                "ref:vatin": "PL8811375175",
                "operator": "Gmina Bystrzyca K\u0142odzka",
                "operator:type": "government",
                "amenity": "school"
            }
        },
        {
            "id": 92745,
            "type": "Feature",
            "geometry": {
                "type": "Point",
                "coordinates": [
                    16.63653,
                    50.300779999999996
                ]
            },
            "properties": {
                "ref:rspo": 92745,
                "official_name": "Centrum O\u015bwiatowe \"Prymus\" w Bystrzycy K\u0142odzkiej",
                "name": "Centrum O\u015bwiatowe \"Prymus\" w Bystrzycy K\u0142odzkiej",
                "addr:postcode": "57-500",
                "addr:city": "Bystrzyca K\u0142odzka",
                "addr:street": "Wojska Polskiego",
                "addr:housenumber": "68",
                "addr:city:simc": 983899,
                "addr:street:sym_ul": 24628,
                "phone": "+48 608672813",
                "ref:regon": "022026904",
                "ref:vatin": "PL8811006621",
                "operator": "Zofia Kozaryn",
                "operator:type": "private",
                "landuse": "education",
                "fixme": "amenity=school, amenity=college albo landuse=education w zale\u017cno\u015bci od tego, jakie plac\u00f3wki wchodz\u0105 w sk\u0142ad zespo\u0142u. Sprawd\u017a, kiedy stosowa\u0107 amenity=* a kiedy landuse=education."
            }
        },
        {
            "id": 61481,
            "type": "Feature",
            "geometry": {
                "type": "Point",
                "coordinates": [
                    16.6470999,
                    50.30136
                ]
            },
            "properties": {
                "ref:rspo": 61481,
                "official_name": "Przedszkole nr 2",
                "name": "Przedszkole nr 2",
                "addr:postcode": "57-500",
                "addr:city": "Bystrzyca K\u0142odzka",
                "addr:street": "Adama Mickiewicza",
                "addr:housenumber": "10",
                "addr:city:simc": 983899,
                "addr:street:sym_ul": 12740,
                "phone": "+48 748135360",
                "email": "przedszkole@bystrzycaklodzka.pl",
                "ref:regon": "890524490",
                "ref:vatin": "PL8811369022",
                "operator": "Gmina Bystrzyca K\u0142odzka",
                "operator:type": "government",
                "amenity": "kindergarten"
            }
        },
        {
            "id": 278686,
            "type": "Feature",
            "geometry": {
                "type": "Point",
                "coordinates": [
                    16.63818,
                    50.30279
                ]
            },
            "properties": {
                "ref:rspo": 278686,
                "official_name": "Kid's Club",
                "name": "Kid's Club",
                "addr:postcode": "57-500",
                "addr:city": "Bystrzyca K\u0142odzka",
                "addr:street": "Osiedle Szkolne",
                "addr:housenumber": "10a",
                "addr:city:simc": 983899,
                "addr:street:sym_ul": 21971,
                "email": "amiraodeh.kidsclub@gmail.com",
                "website": "http:\/\/www.kidsclubbystrzyca.pl",
                "ref:regon": "520040296",
                "operator": "Amira Odeh",
                "operator:type": "private",
                "amenity": "kindergarten"
            }
        },
        {
            "id": 274401,
            "type": "Feature",
            "geometry": {
                "type": "Point",
                "coordinates": [
                    16.635891,
                    50.3049149
                ]
            },
            "properties": {
                "ref:rspo": 274401,
                "official_name": "Alphaone",
                "name": "Alphaone",
                "addr:postcode": "57-500",
                "addr:city": "Bystrzyca K\u0142odzka",
                "addr:street": "Stra\u017cacka",
                "addr:housenumber": "28",
                "addr:city:simc": 983899,
                "addr:street:sym_ul": 21271,
                "phone": "+48 604129570",
                "email": "kontakt@alphaone.pl",
                "website": "http:\/\/www.alphaone.pl",
                "ref:regon": "385720747",
                "operator": "S\u0142awomir Pacze\u015bny",
                "operator:type": "private",
                "fixme": "w zale\u017cno\u015bci od przedmiotu dzia\u0142alno\u015bci (np. amenity=training + training=*, amenity=dancing_school, amenity=language_school, amenity=music_school)"
            }
        },
        {
            "id": 61352,
            "type": "Feature",
            "geometry": {
                "type": "Point",
                "coordinates": [
                    16.633890151977,
                    50.342781066895
                ]
            },
            "properties": {
                "isced:level": "1;2",
                "ref:rspo": 61352,
                "official_name": "Szko\u0142a Podstawowa w Gorzanowie",
                "name": "Szko\u0142a Podstawowa w Gorzanowie",
                "addr:postcode": "57-521",
                "addr:city": "Gorzan\u00f3w",
                "addr:street": "K\u0142odzka",
                "addr:housenumber": "8",
                "addr:city:simc": 851330,
                "addr:street:sym_ul": 8622,
                "phone": "+48 748121006",
                "email": "spgorzanow@o2.pl",
                "website": "http:\/\/www.tmggorzanow.pl",
                "ref:regon": "021997439",
                "operator": "Towarzystwo Mi\u0142o\u015bnik\u00f3w Gorzanowa",
                "operator:type": "ngo",
                "amenity": "school"
            }
        },
        {
            "id": 61358,
            "type": "Feature",
            "geometry": {
                "type": "Point",
                "coordinates": [
                    16.633890151977,
                    50.342751066895
                ]
            },
            "properties": {
                "ref:rspo": 61358,
                "official_name": "Bajkowe Przedszkole",
                "name": "Bajkowe Przedszkole",
                "addr:postcode": "57-521",
                "addr:city": "Gorzan\u00f3w",
                "addr:street": "K\u0142odzka",
                "addr:housenumber": "8",
                "addr:city:simc": 851330,
                "addr:street:sym_ul": 8622,
                "phone": "+48 748121006",
                "email": "spgorzanow@o2.pl",
                "website": "http:\/\/tmggorzanow.pl",
                "ref:regon": "021997712",
                "operator": "Towarzystwo Mi\u0142o\u015bnik\u00f3w Gorzanowa",
                "operator:type": "ngo",
                "amenity": "kindergarten"
            }
        },
        {
            "id": 3557,
            "type": "Feature",
            "geometry": {
                "type": "Point",
                "coordinates": [
                    16.613620758057,
                    50.372875213623
                ]
            },
            "properties": {
                "isced:level": "1;2",
                "ref:rspo": 3557,
                "official_name": "Szko\u0142a Podstawowa z Oddzia\u0142ami Integracyjnymi im. M. Konopnickiej",
                "name": "Szko\u0142a Podstawowa z Oddzia\u0142ami Integracyjnymi",
                "addr:postcode": "57-500",
                "addr:place": "P\u0142awnica",
                "addr:housenumber": "2",
                "addr:city:simc": 851525,
                "phone": "+48 748130026",
                "email": "sp.plawnica@interia.pl",
                "ref:regon": "021942013",
                "operator": "R\u00f3wni, Cho\u0107 R\u00f3\u017cni",
                "operator:type": "ngo",
                "amenity": "school"
            }
        },
        {
            "id": 3568,
            "type": "Feature",
            "geometry": {
                "type": "Point",
                "coordinates": [
                    16.613620758057,
                    50.372845213622995
                ]
            },
            "properties": {
                "isced:level": "1;2",
                "ref:rspo": 3568,
                "official_name": "Publiczna Szko\u0142a Podstawowa Stowarzyszenia \"Stara \u0141omnica Dzieciom\"",
                "name": "Publiczna Szko\u0142a Podstawowa Stowarzyszenia \"Stara \u0141omnica Dzieciom\"",
                "addr:postcode": "57-521",
                "addr:place": "Stara \u0141omnica",
                "addr:housenumber": "64",
                "addr:city:simc": 851608,
                "phone": "+48 748121018",
                "email": "sp_lomnica@interia.pl",
                "website": "http:\/\/www.pspstaralomnica.superszkolna.pl",
                "ref:regon": "021942042",
                "ref:vatin": "PL8811462721",
                "operator": "Stowarzyszenie \"Stara \u0141omnica Dzieciom\"",
                "operator:type": "ngo",
                "amenity": "school"
            }
        },
        {
            "id": 50475,
            "type": "Feature",
            "geometry": {
                "type": "Point",
                "coordinates": [
                    16.613620758057,
                    50.372815213623
                ]
            },
            "properties": {
                "isced:level": "1;2",
                "ref:rspo": 50475,
                "official_name": "Szko\u0142a Podstawowa Waliszowskiego Stowarzyszenia Edukacyjnego",
                "name": "Szko\u0142a Podstawowa Waliszowskiego Stowarzyszenia Edukacyjnego",
                "addr:postcode": "57-500",
                "addr:place": "Stary Walisz\u00f3w",
                "addr:housenumber": "7",
                "addr:city:simc": 851637,
                "phone": "+48 748110461",
                "email": "wsestarywaliszow@poczta.onet.pl",
                "website": "http:\/\/www.wsestarywaliszow.szkolnastrona.pl",
                "ref:regon": "021999094",
                "ref:vatin": "PL8811429445",
                "operator": "Waliszowskie Stowarzyszenie Edukacyjne",
                "operator:type": "ngo",
                "amenity": "school"
            }
        },
        {
            "id": 61345,
            "type": "Feature",
            "geometry": {
                "type": "Point",
                "coordinates": [
                    16.613620758057,
                    50.372785213623
                ]
            },
            "properties": {
                "ref:rspo": 61345,
                "official_name": "Ma\u0142e Przedszkole \"Krasnoludki\"",
                "name": "Ma\u0142e Przedszkole \"Krasnoludki\"",
                "addr:postcode": "57-521",
                "addr:place": "Stara \u0141omnica",
                "addr:housenumber": "64",
                "addr:city:simc": 851608,
                "phone": "+48 748121018",
                "email": "sp_lomnica@interia.pl",
                "ref:regon": "021995268",
                "operator": "Stowarzyszenie \"Stara \u0141omnica Dzieciom\"",
                "operator:type": "ngo",
                "amenity": "kindergarten"
            }
        },
        {
            "id": 61357,
            "type": "Feature",
            "geometry": {
                "type": "Point",
                "coordinates": [
                    16.613620758057,
                    50.372755213622995
                ]
            },
            "properties": {
                "isced:level": "1;2",
                "ref:rspo": 61357,
                "official_name": "Szko\u0142a Podstawowa w Wilkanowie",
                "name": "Szko\u0142a Podstawowa w Wilkanowie",
                "addr:postcode": "57-500",
                "addr:place": "Wilkan\u00f3w",
                "addr:housenumber": "138D",
                "addr:city:simc": 851689,
                "phone": "+48 748136231",
                "email": "szkola_zrozumienia@life.pl",
                "ref:regon": "001080018",
                "ref:vatin": "PL8811488896",
                "operator": "Gmina Bystrzyca K\u0142odzka",
                "operator:type": "government",
                "amenity": "school"
            }
        }
    ]
}