{
    "type": "FeatureCollection",
    "features": [
        {
            "id": 17415,
            "type": "Feature",
            "geometry": {
                "type": "Point",
                "coordinates": [
                    16.446599960327,
                    50.485431671143
                ]
            },
            "properties": {
                "ref:rspo": 17415,
                "official_name": "Zesp\u00f3\u0142 Szkolno-Przedszkolny",
                "name": "Zesp\u00f3\u0142 Szkolno-Przedszkolny",
                "addr:country": "PL",
                "addr:postcode": "57-420",
                "addr:city": "Wambierzyce",
                "addr:street": "Ksi\u0119dza Tadeusza Michalika",
                "addr:housenumber": "5",
                "addr:teryt:simc": 855180,
                "addr:teryt:sym_ul": 49902,
                "contact:phone": "+48 748719213",
                "contact:email": "wambierzycezsp@gmail.com",
                "ref:regon": "891539482",
                "ref:vatin": "PL8851573533",
                "operator": "Gmina Radk\u00f3w",
                "operator:type": "government",
                "landuse": "education",
                "fixme": "amenity=school, amenity=college albo landuse=education w zale\u017cno\u015bci od tego, jakie plac\u00f3wki wchodz\u0105 w sk\u0142ad zespo\u0142u. Sprawd\u017a, kiedy stosowa\u0107 amenity=* a kiedy landuse=education.",
                "note": "Children RSPO: 21192;21193"
            }
        },
        {
            "id": 21192,
            "type": "Feature",
            "geometry": {
                "type": "Point",
                "coordinates": [
                    16.446599960327,
                    50.485401671142995
                ]
            },
            "properties": {
                "isced:level": "1;2",
                "ref:rspo": 21192,
                "official_name": "Szko\u0142a Podstawowa im.kardyna\u0142a Stefana Wyszy\u0144skiego",
                "name": "Szko\u0142a Podstawowa im.kardyna\u0142a Stefana Wyszy\u0144skiego",
                "addr:country": "PL",
                "addr:postcode": "57-411",
                "addr:city": "Wambierzyce",
                "addr:street": "Ksi\u0119dza Tadeusza Michalika",
                "addr:housenumber": "5",
                "addr:teryt:simc": 855180,
                "addr:teryt:sym_ul": 49902,
                "contact:phone": "+48 748719213",
                "contact:email": "wambierzycezsp@gmail.com",
                "ref:regon": "001194302",
                "operator": "Gmina Radk\u00f3w",
                "operator:type": "government",
                "amenity": "school",
                "note": "Parent RSPO: 17415"
            }
        },
        {
            "id": 21193,
            "type": "Feature",
            "geometry": {
                "type": "Point",
                "coordinates": [
                    16.446599960327,
                    50.485371671143
                ]
            },
            "properties": {
                "ref:rspo": 21193,
                "official_name": "Przedszkole Publiczne",
                "name": "Przedszkole Publiczne",
                "addr:country": "PL",
                "addr:postcode": "57-411",
                "addr:city": "Wambierzyce",
                "addr:street": "Ksi\u0119dza Tadeusza Michalika",
                "addr:housenumber": "5",
                "addr:teryt:simc": 855180,
                "addr:teryt:sym_ul": 49902,
                "contact:phone": "+48 748719213",
                "contact:email": "wambierzyce@gmail.com",
                "ref:regon": "891542001",
                "operator": "Gmina Radk\u00f3w",
                "operator:type": "government",
                "amenity": "kindergarten",
                "note": "Parent RSPO: 17415"
            }
        },
        {
            "id": 66124,
            "type": "Feature",
            "geometry": {
                "type": "Point",
                "coordinates": [
                    16.53567,
                    50.49628
                ]
            },
            "properties": {
                "ref:rspo": 66124,
                "official_name": "Zesp\u00f3\u0142 Szk\u00f3\u0142 Specjalnych w \u015acinawce Dolnej",
                "name": "Zesp\u00f3\u0142 Szk\u00f3\u0142 Specjalnych w \u015acinawce Dolnej",
                "addr:country": "PL",
                "addr:postcode": "57-420",
                "addr:place": "\u015acinawka Dolna",
                "addr:housenumber": "21B",
                "addr:teryt:simc": 855032,
                "contact:phone": "+48 516183471",
                "contact:email": "zetspec@gmail.com",
                "contact:website": "http:\/\/www.szkolascinawka.pl",
                "ref:regon": "022012196",
                "ref:vatin": "PL8851602022",
                "operator": "Zg.ss.\u015bw.teresy Od Dzieci\u0105tka Jezus, Dom Generalny",
                "operator:type": "religious",
                "landuse": "education",
                "fixme": "amenity=school, amenity=college albo landuse=education w zale\u017cno\u015bci od tego, jakie plac\u00f3wki wchodz\u0105 w sk\u0142ad zespo\u0142u. Sprawd\u017a, kiedy stosowa\u0107 amenity=* a kiedy landuse=education.",
                "note": "Children RSPO: 81128;81131"
            }
        },
        {
            "id": 81128,
            "type": "Feature",
            "geometry": {
                "type": "Point",
                "coordinates": [
                    16.53567,
                    50.496249999999996
                ]
            },
            "properties": {
                "isced:level": "1;2",
                "ref:rspo": 81128,
                "official_name": "Szko\u0142a Podstawowa Specjalna im. \u015aw. Zelii I Ludwika Martin w \u015acinawce Dolnej",
                "name": "Szko\u0142a Podstawowa Specjalna",
                "addr:country": "PL",
                "addr:postcode": "57-420",
                "addr:place": "\u015acinawka Dolna",
                "addr:housenumber": "21B",
                "addr:teryt:simc": 855032,
                "contact:phone": "+48 516183471",
                "contact:email": "zetspec@gmail.com",
                "contact:website": "http:\/\/www.szkolascinawka.pl",
                "ref:regon": "022021433",
                "ref:vatin": "PL8851582360",
                "operator": "Zg.ss.\u015bw.teresy Od Dzieci\u0105tka Jezus, Dom Generalny",
                "operator:type": "religious",
                "amenity": "school",
                "note": "Parent RSPO: 66124"
            }
        },
        {
            "id": 81131,
            "type": "Feature",
            "geometry": {
                "type": "Point",
                "coordinates": [
                    16.53567,
                    50.49622
                ]
            },
            "properties": {
                "ref:rspo": 81131,
                "official_name": "Szko\u0142a Specjalna Przysposabiaj\u0105ca Do Pracy im. \u015aw. Zelii I Ludwika Martin w \u015acinawce Dolnej",
                "name": "Szko\u0142a Specjalna Przysposabiaj\u0105ca Do Pracy",
                "addr:country": "PL",
                "addr:postcode": "57-420",
                "addr:place": "\u015acinawka Dolna",
                "addr:housenumber": "21B",
                "addr:teryt:simc": 855032,
                "contact:phone": "+48 516183471",
                "contact:email": "zetspec@gmail.com",
                "contact:website": "http:\/\/www.szkolascinawka.pl",
                "ref:regon": "022021410",
                "ref:vatin": "PL8851591927",
                "operator": "Zg.ss.\u015bw.teresy Od Dzieci\u0105tka Jezus, Dom Generalny",
                "operator:type": "religious",
                "amenity": "school",
                "note": "Parent RSPO: 66124"
            }
        },
        {
            "id": 17414,
            "type": "Feature",
            "geometry": {
                "type": "Point",
                "coordinates": [
                    16.53603,
                    50.4966099
                ]
            },
            "properties": {
                "ref:rspo": 17414,
                "official_name": "Zesp\u00f3\u0142 Szkolno-Przedszkolny",
                "name": "Zesp\u00f3\u0142 Szkolno-Przedszkolny",
                "addr:country": "PL",
                "addr:postcode": "57-409",
                "addr:place": "\u015acinawka Dolna",
                "addr:housenumber": "21A",
                "addr:teryt:simc": 855032,
                "contact:phone": "+48 748715347",
                "contact:email": "zspscinawkadolna21a@wp.pl",
                "contact:website": "http:\/\/www.zspscinawkadolna.szkolnastrona.pl",
                "ref:regon": "891539460",
                "operator": "Gmina Radk\u00f3w",
                "operator:type": "government",
                "landuse": "education",
                "fixme": "amenity=school, amenity=college albo landuse=education w zale\u017cno\u015bci od tego, jakie plac\u00f3wki wchodz\u0105 w sk\u0142ad zespo\u0142u. Sprawd\u017a, kiedy stosowa\u0107 amenity=* a kiedy landuse=education.",
                "note": "Children RSPO: 21194;21196"
            }
        },
        {
            "id": 21194,
            "type": "Feature",
            "geometry": {
                "type": "Point",
                "coordinates": [
                    16.53603,
                    50.4965799
                ]
            },
            "properties": {
                "isced:level": "1;2",
                "ref:rspo": 21194,
                "official_name": "Szko\u0142a Podstawowa",
                "name": "Szko\u0142a Podstawowa",
                "addr:country": "PL",
                "addr:postcode": "57-409",
                "addr:place": "\u015acinawka Dolna",
                "addr:housenumber": "21A",
                "addr:teryt:simc": 855032,
                "contact:phone": "+48 748715347",
                "contact:email": "zspscinawkadolna21a@wp.pl",
                "contact:website": "http:\/\/www.zspscinawkadolna.szkolnastrona.pl",
                "ref:regon": "001194791",
                "operator": "Gmina Radk\u00f3w",
                "operator:type": "government",
                "amenity": "school",
                "note": "Parent RSPO: 17414"
            }
        },
        {
            "id": 21196,
            "type": "Feature",
            "geometry": {
                "type": "Point",
                "coordinates": [
                    16.53603,
                    50.496549900000005
                ]
            },
            "properties": {
                "ref:rspo": 21196,
                "official_name": "Przedszkole Publiczne",
                "name": "Przedszkole Publiczne",
                "addr:country": "PL",
                "addr:postcode": "57-409",
                "addr:place": "\u015acinawka Dolna",
                "addr:housenumber": "21A",
                "addr:teryt:simc": 855032,
                "contact:phone": "+48 748715347",
                "contact:email": "zspscinawkadolna21a@wp.pl",
                "ref:regon": "891541993",
                "operator": "Gmina Radk\u00f3w",
                "operator:type": "government",
                "amenity": "kindergarten",
                "note": "Parent RSPO: 17414"
            }
        },
        {
            "id": 272580,
            "type": "Feature",
            "geometry": {
                "type": "Point",
                "coordinates": [
                    16.39686,
                    50.50331
                ]
            },
            "properties": {
                "ref:rspo": 272580,
                "official_name": "Zesp\u00f3\u0142 Szkolno-Przedszkolny",
                "name": "Zesp\u00f3\u0142 Szkolno-Przedszkolny",
                "addr:country": "PL",
                "addr:postcode": "57-420",
                "addr:city": "Radk\u00f3w",
                "addr:street": "Jagiello\u0144ska",
                "addr:housenumber": "2",
                "addr:teryt:simc": 984539,
                "addr:teryt:sym_ul": 7029,
                "contact:phone": "+48 748712269",
                "contact:email": "sekretariat@zspradkow.pl",
                "contact:website": "http:\/\/www.zsradkow.szkolnastrona.pl",
                "ref:regon": "384279830",
                "operator": "Gmina Radk\u00f3w",
                "operator:type": "government",
                "landuse": "education",
                "fixme": "amenity=school, amenity=college albo landuse=education w zale\u017cno\u015bci od tego, jakie plac\u00f3wki wchodz\u0105 w sk\u0142ad zespo\u0142u. Sprawd\u017a, kiedy stosowa\u0107 amenity=* a kiedy landuse=education.",
                "note": "Children RSPO: 17416;21197"
            }
        },
        {
            "id": 17416,
            "type": "Feature",
            "geometry": {
                "type": "Point",
                "coordinates": [
                    16.40332,
                    50.50357
                ]
            },
            "properties": {
                "ref:rspo": 17416,
                "official_name": "Gminne Przedszkole Publiczne Z Oddzia\u0142ami Integracyjnymi w Radkowie",
                "name": "Gminne Przedszkole Publiczne Z Oddzia\u0142ami Integracyjnymi w Radkowie",
                "addr:country": "PL",
                "addr:postcode": "57-420",
                "addr:city": "Radk\u00f3w",
                "addr:street": "Konstytucji 3 Maja",
                "addr:housenumber": "1",
                "addr:teryt:simc": 984539,
                "addr:teryt:sym_ul": 9213,
                "contact:phone": "+48 748712269",
                "contact:email": "sekretariat@zspradkow.pl",
                "ref:regon": "021325361",
                "operator": "Gmina Radk\u00f3w",
                "operator:type": "government",
                "amenity": "kindergarten",
                "note": "Parent RSPO: 272580"
            }
        },
        {
            "id": 21197,
            "type": "Feature",
            "geometry": {
                "type": "Point",
                "coordinates": [
                    16.39629,
                    50.504
                ]
            },
            "properties": {
                "isced:level": "1;2",
                "ref:rspo": 21197,
                "official_name": "Szko\u0142a Podstawowa im.miko\u0142aja Kopernika Z Oddzia\u0142ami Integracyjnymi",
                "name": "Szko\u0142a Podstawowa im.miko\u0142aja Kopernika Z Oddzia\u0142ami Integracyjnymi",
                "addr:country": "PL",
                "addr:postcode": "57-420",
                "addr:city": "Radk\u00f3w",
                "addr:street": "Jagiello\u0144ska",
                "addr:housenumber": "5",
                "addr:teryt:simc": 984539,
                "addr:teryt:sym_ul": 7029,
                "contact:phone": "+48 748712269",
                "contact:email": "sekretariat@zspradkow.pl",
                "ref:regon": "000560673",
                "ref:vatin": "PL8851634542",
                "operator": "Gmina Radk\u00f3w",
                "operator:type": "government",
                "amenity": "school",
                "note": "Parent RSPO: 272580"
            }
        },
        {
            "id": 268596,
            "type": "Feature",
            "geometry": {
                "type": "Point",
                "coordinates": [
                    16.4948799,
                    50.52248
                ]
            },
            "properties": {
                "ref:rspo": 268596,
                "official_name": "Zesp\u00f3\u0142 Szkolno-Przedszkolny",
                "name": "Zesp\u00f3\u0142 Szkolno-Przedszkolny",
                "addr:country": "PL",
                "addr:postcode": "57-410",
                "addr:city": "\u015acinawka \u015arednia",
                "addr:street": "Sikorskiego",
                "addr:housenumber": "34",
                "addr:door": "C",
                "addr:teryt:simc": 855109,
                "addr:teryt:sym_ul": 19900,
                "contact:phone": "+48 748680060",
                "contact:email": "zssekretariat@op.pl",
                "contact:website": "http:\/\/www.zsradkowklodzki.pl",
                "ref:regon": "381220338",
                "operator": "Gmina Radk\u00f3w",
                "operator:type": "government",
                "landuse": "education",
                "fixme": "amenity=school, amenity=college albo landuse=education w zale\u017cno\u015bci od tego, jakie plac\u00f3wki wchodz\u0105 w sk\u0142ad zespo\u0142u. Sprawd\u017a, kiedy stosowa\u0107 amenity=* a kiedy landuse=education.",
                "note": "Children RSPO: 21191;268652"
            }
        },
        {
            "id": 21191,
            "type": "Feature",
            "geometry": {
                "type": "Point",
                "coordinates": [
                    16.4948799,
                    50.52245
                ]
            },
            "properties": {
                "isced:level": "1;2",
                "ref:rspo": 21191,
                "official_name": "Szko\u0142a Podstawowa im.jaros\u0142awa Iwaszkiewicza Z Oddzia\u0142ami Integracyjnymi",
                "name": "Szko\u0142a Podstawowa im.jaros\u0142awa Iwaszkiewicza Z Oddzia\u0142ami Integracyjnymi",
                "addr:country": "PL",
                "addr:postcode": "57-410",
                "addr:city": "\u015acinawka \u015arednia",
                "addr:street": "Sikorskiego",
                "addr:housenumber": "34C",
                "addr:teryt:simc": 855109,
                "addr:teryt:sym_ul": 19900,
                "contact:phone": "+48 748680030",
                "contact:email": "zssekretariat@op.pl",
                "contact:website": "http:\/\/www.zsradkowklodzki.pl",
                "ref:regon": "001194294",
                "ref:vatin": "PL8851573527",
                "operator": "Gmina Radk\u00f3w",
                "operator:type": "government",
                "amenity": "school",
                "note": "Parent RSPO: 268596"
            }
        },
        {
            "id": 268652,
            "type": "Feature",
            "geometry": {
                "type": "Point",
                "coordinates": [
                    16.4948799,
                    50.522420000000004
                ]
            },
            "properties": {
                "ref:rspo": 268652,
                "official_name": "Gminne Przedszkole Publiczne Z Oddzia\u0142ami Integracyjnymi",
                "name": "Gminne Przedszkole Publiczne Z Oddzia\u0142ami Integracyjnymi",
                "addr:country": "PL",
                "addr:postcode": "57-410",
                "addr:city": "\u015acinawka \u015arednia",
                "addr:street": "Sikorskiego",
                "addr:housenumber": "34",
                "addr:door": "C",
                "addr:teryt:simc": 855109,
                "addr:teryt:sym_ul": 19900,
                "contact:phone": "+48 748715314",
                "contact:email": "zssekretariat@op.pl",
                "contact:website": "http:\/\/www.zsradkowklodzki.pl",
                "ref:regon": "381226619",
                "operator": "Gmina Radk\u00f3w",
                "operator:type": "government",
                "amenity": "kindergarten",
                "note": "Parent RSPO: 268596"
            }
        }
    ]
}