{
    "type": "FeatureCollection",
    "features": [
        {
            "id": 105168,
            "type": "Feature",
            "geometry": {
                "type": "Point",
                "coordinates": [
                    16.66115,
                    50.14259
                ]
            },
            "properties": {
                "ref:rspo": 105168,
                "official_name": "Samorz\u0105dowe Przedszkole w Mi\u0119dzylesiu",
                "name": "Samorz\u0105dowe Przedszkole w Mi\u0119dzylesiu",
                "addr:postcode": "57-530",
                "addr:city": "Mi\u0119dzylesie",
                "addr:street": "Wojska Polskiego",
                "addr:housenumber": "25",
                "addr:city:simc": 984226,
                "addr:street:sym_ul": 24628,
                "phone": "+48 748126358",
                "email": "przedszkolemiedzylesie@op.pl",
                "website": "http:\/\/www.spmiedzylesie.przedszkolna.net",
                "ref:regon": "890524596",
                "ref:vatin": "PL8811389160",
                "operator": "Gmina Mi\u0119dzylesie",
                "operator:type": "government",
                "amenity": "kindergarten"
            }
        },
        {
            "id": 263325,
            "type": "Feature",
            "geometry": {
                "type": "Point",
                "coordinates": [
                    16.6713099,
                    50.14646
                ]
            },
            "properties": {
                "isced:level": "1;2",
                "ref:rspo": 263325,
                "official_name": "Samorz\u0105dowa Szko\u0142a Podstawowa w Mi\u0119dzylesiu",
                "name": "Samorz\u0105dowa Szko\u0142a Podstawowa w Mi\u0119dzylesiu",
                "addr:postcode": "57-530",
                "addr:city": "Mi\u0119dzylesie",
                "addr:street": "Boles\u0142awa Chrobrego",
                "addr:housenumber": "2",
                "addr:city:simc": 984226,
                "addr:street:sym_ul": 1742,
                "phone": "+48 748126328",
                "email": "mieszkola@op.pl",
                "website": "http:\/\/mieszkola.szkolnastrona.pl",
                "ref:regon": "368180184",
                "ref:vatin": "PL8811439449",
                "operator": "Gmina Mi\u0119dzylesie",
                "operator:type": "government",
                "amenity": "school"
            }
        },
        {
            "id": 105151,
            "type": "Feature",
            "geometry": {
                "type": "Point",
                "coordinates": [
                    16.6765599,
                    50.21548
                ]
            },
            "properties": {
                "ref:rspo": 105151,
                "official_name": "Zesp\u00f3\u0142 Szkolno-Przedszkolny im.przyjaci\u00f3\u0142 Dzieci w Domaszkowie",
                "name": "Zesp\u00f3\u0142 Szkolno-Przedszkolny im.przyjaci\u00f3\u0142 Dzieci w Domaszkowie",
                "addr:postcode": "57-522",
                "addr:city": "Domaszk\u00f3w",
                "addr:street": "Kolejowa",
                "addr:housenumber": "10",
                "addr:city:simc": 853702,
                "addr:street:sym_ul": 8828,
                "phone": "+48 748132047",
                "email": "zsp_domaszkow@wp.eu",
                "website": "http:\/\/zspdomaszkow.szkolnastrona.pl",
                "ref:regon": "891541125",
                "ref:vatin": "PL8811428894",
                "operator": "Gmina Mi\u0119dzylesie",
                "operator:type": "government",
                "landuse": "education",
                "fixme": "amenity=school, amenity=college albo landuse=education w zale\u017cno\u015bci od tego, jakie plac\u00f3wki wchodz\u0105 w sk\u0142ad zespo\u0142u. Sprawd\u017a, kiedy stosowa\u0107 amenity=* a kiedy landuse=education.",
                "note": "Children RSPO: 106291;106292"
            }
        },
        {
            "id": 106291,
            "type": "Feature",
            "geometry": {
                "type": "Point",
                "coordinates": [
                    16.6765599,
                    50.21545
                ]
            },
            "properties": {
                "isced:level": "1;2",
                "ref:rspo": 106291,
                "official_name": "Zesp\u00f3\u0142 Szkolno-Przedszkolny im. Przyjaci\u00f3\u0142 Dzieci w Domaszkowie Samorz\u0105dowa Szko\u0142a Podstawowa",
                "name": "Zesp\u00f3\u0142 Szkolno-Przedszkolny",
                "addr:postcode": "57-522",
                "addr:city": "Domaszk\u00f3w",
                "addr:street": "Kolejowa",
                "addr:housenumber": "10",
                "addr:city:simc": 853702,
                "addr:street:sym_ul": 8828,
                "phone": "+48 748132047",
                "email": "zsp_domaszkow@wp.eu",
                "website": "http:\/\/zspdomaszkow.szkolnastrona.pl",
                "ref:regon": "000595424",
                "ref:vatin": "PL8811428894",
                "operator": "Gmina Mi\u0119dzylesie",
                "operator:type": "government",
                "amenity": "school",
                "note": "Parent RSPO: 105151"
            }
        },
        {
            "id": 106292,
            "type": "Feature",
            "geometry": {
                "type": "Point",
                "coordinates": [
                    16.6772887,
                    50.2157669
                ]
            },
            "properties": {
                "ref:rspo": 106292,
                "official_name": "Zesp\u00f3\u0142 Szkolno-Przedszkolny im.przyjaci\u00f3\u0142 Dzieci Samorz\u0105dowe Przedszkole w Domaszkowie",
                "name": "Zesp\u00f3\u0142 Szkolno-Przedszkolny im.przyjaci\u00f3\u0142 Dzieci Samorz\u0105dowe Przedszkole w Domaszkowie",
                "addr:postcode": "57-522",
                "addr:city": "Domaszk\u00f3w",
                "addr:street": "Kolejowa",
                "addr:housenumber": "4",
                "addr:city:simc": 853702,
                "addr:street:sym_ul": 8828,
                "phone": "+48 748132048",
                "email": "zsp_domaszkow@wp.eu",
                "ref:regon": "890524604",
                "ref:vatin": "PL8811428894",
                "operator": "Gmina Mi\u0119dzylesie",
                "operator:type": "government",
                "amenity": "kindergarten",
                "note": "Parent RSPO: 105151"
            }
        }
    ]
}