{
    "type": "FeatureCollection",
    "features": [
        {
            "id": 126040,
            "type": "Feature",
            "geometry": {
                "type": "Point",
                "coordinates": [
                    16.23921,
                    50.43673
                ]
            },
            "properties": {
                "ref:rspo": 126040,
                "official_name": "Biuro Us\u0142ug Szkoleniowo-Turystycznych \"Sport-Tur\" Baczma\u0144ski & Cygan Niepubliczna Plac\u00f3wka Doskonalenia Zawodowego Sp\u00f3\u0142ka Cywilna",
                "name": "Biuro Us\u0142ug Szkoleniowo-Turystycznych \"Sport-Tur\" Baczma\u0144ski & Cygan Niepubliczna Plac\u00f3wka Doskonalenia Zawodowego Sp\u00f3\u0142ka Cywilna",
                "addr:country": "PL",
                "addr:postcode": "57-350",
                "addr:city": "Kudowa-Zdr\u00f3j",
                "addr:street": "Zdrojowa",
                "addr:housenumber": "16\/18",
                "addr:door": "1",
                "addr:teryt:simc": 25944,
                "addr:teryt:sym_ul": 984120,
                "contact:phone": "+48 600417614",
                "contact:email": "sport-tur@wp.pl",
                "contact:website": "http:\/\/www.sport-tur.eu",
                "ref:regon": "360140080",
                "operator": "Damian Baczma\u0144ski",
                "operator:type": "private",
                "fixme": "w zale\u017cno\u015bci od przedmiotu dzia\u0142alno\u015bci (np. amenity=training + training=*, amenity=dancing_school, amenity=language_school, amenity=music_school)"
            }
        },
        {
            "id": 49065,
            "type": "Feature",
            "geometry": {
                "type": "Point",
                "coordinates": [
                    16.21261,
                    50.43757
                ]
            },
            "properties": {
                "ref:rspo": 49065,
                "official_name": "Spo\u0142eczny Zesp\u00f3\u0142 Szkolno-Przedszkolny w Kudowie-Zdroju",
                "name": "Spo\u0142eczny Zesp\u00f3\u0142 Szkolno-Przedszkolny w Kudowie-Zdroju",
                "addr:country": "PL",
                "addr:postcode": "57-350",
                "addr:city": "Kudowa-Zdr\u00f3j",
                "addr:street": "S\u0142one",
                "addr:housenumber": "72",
                "addr:teryt:simc": 36275,
                "addr:teryt:sym_ul": 984120,
                "contact:phone": "+48 748661264",
                "contact:email": "zsskudowa@o2.pl",
                "ref:regon": "021998829",
                "operator": "\"Nasza Szko\u0142a\"",
                "operator:type": "ngo",
                "landuse": "education",
                "fixme": "amenity=school, amenity=college albo landuse=education w zale\u017cno\u015bci od tego, jakie plac\u00f3wki wchodz\u0105 w sk\u0142ad zespo\u0142u. Sprawd\u017a, kiedy stosowa\u0107 amenity=* a kiedy landuse=education.",
                "note": "Children RSPO: 48705;48716"
            }
        },
        {
            "id": 48705,
            "type": "Feature",
            "geometry": {
                "type": "Point",
                "coordinates": [
                    16.21261,
                    50.43754
                ]
            },
            "properties": {
                "isced:level": "1;2",
                "ref:rspo": 48705,
                "official_name": "Spo\u0142eczna Szko\u0142a Podstawowa im. Stanis\u0142awa Mon Iuszki",
                "name": "Spo\u0142eczna Szko\u0142a Podstawowa",
                "addr:country": "PL",
                "addr:postcode": "57-350",
                "addr:city": "Kudowa-Zdr\u00f3j",
                "addr:street": "S\u0142one",
                "addr:housenumber": "72",
                "addr:teryt:simc": 36275,
                "addr:teryt:sym_ul": 984120,
                "contact:phone": "+48 748661264",
                "ref:regon": "021994760",
                "operator": "\"Nasza Szko\u0142a\"",
                "operator:type": "ngo",
                "amenity": "school",
                "note": "Parent RSPO: 49065"
            }
        },
        {
            "id": 48716,
            "type": "Feature",
            "geometry": {
                "type": "Point",
                "coordinates": [
                    16.21261,
                    50.43751
                ]
            },
            "properties": {
                "ref:rspo": 48716,
                "official_name": "Spo\u0142eczne Przedszkole im. Stanis\u0142awa Moniuszki",
                "name": "Spo\u0142eczne Przedszkole",
                "addr:country": "PL",
                "addr:postcode": "57-350",
                "addr:city": "Kudowa-Zdr\u00f3j",
                "addr:street": "S\u0142one",
                "addr:housenumber": "72",
                "addr:teryt:simc": 36275,
                "addr:teryt:sym_ul": 984120,
                "contact:phone": "+48 748661264",
                "ref:regon": "021994731",
                "operator": "\"Nasza Szko\u0142a\"",
                "operator:type": "ngo",
                "amenity": "kindergarten",
                "note": "Parent RSPO: 49065"
            }
        },
        {
            "id": 48002,
            "type": "Feature",
            "geometry": {
                "type": "Point",
                "coordinates": [
                    16.24377,
                    50.43885
                ]
            },
            "properties": {
                "ref:rspo": 48002,
                "official_name": "Zesp\u00f3\u0142 Szk\u00f3\u0142 Publicznych im. Jana Paw\u0142a Ii",
                "name": "Zesp\u00f3\u0142 Szk\u00f3\u0142 Publicznych",
                "addr:country": "PL",
                "addr:postcode": "57-350",
                "addr:city": "Kudowa-Zdr\u00f3j",
                "addr:street": "Szkolna",
                "addr:housenumber": "8",
                "addr:teryt:simc": 21970,
                "addr:teryt:sym_ul": 984120,
                "contact:phone": "+48 748661700",
                "contact:email": "sekretariat@zsp-kudowa.pl",
                "ref:regon": "020103233",
                "operator": "Gmina Kudowa-Zdr\u00f3j",
                "operator:type": "government",
                "landuse": "education",
                "fixme": "amenity=school, amenity=college albo landuse=education w zale\u017cno\u015bci od tego, jakie plac\u00f3wki wchodz\u0105 w sk\u0142ad zespo\u0142u. Sprawd\u017a, kiedy stosowa\u0107 amenity=* a kiedy landuse=education.",
                "note": "Children RSPO: 91926;91927;91928;122998"
            }
        },
        {
            "id": 92895,
            "type": "Feature",
            "geometry": {
                "type": "Point",
                "coordinates": [
                    16.24377,
                    50.43882
                ]
            },
            "properties": {
                "isced:level": "4",
                "ref:rspo": 92895,
                "official_name": "Policealna Szko\u0142a Kosmetyczna Barbara Reimann-Miedziak w Kudowie Zdroju",
                "name": "Policealna Szko\u0142a Kosmetyczna Barbara Reimann-Miedziak w Kudowie Zdroju",
                "addr:country": "PL",
                "addr:postcode": "57-350",
                "addr:city": "Kudowa-Zdr\u00f3j",
                "addr:street": "Szkolna",
                "addr:housenumber": "8",
                "addr:teryt:simc": 21970,
                "addr:teryt:sym_ul": 984120,
                "contact:phone": "+48 601711004",
                "contact:email": "smooth@smooth.pl",
                "contact:website": "http:\/\/www.smooth.pl",
                "ref:regon": "022029481",
                "ref:vatin": "PL7820013873",
                "operator": "Barbara Reimann-Miedziak",
                "operator:type": "private",
                "amenity": "college"
            }
        },
        {
            "id": 122998,
            "type": "Feature",
            "geometry": {
                "type": "Point",
                "coordinates": [
                    16.24377,
                    50.438790000000004
                ]
            },
            "properties": {
                "isced:level": "1;2",
                "ref:rspo": 122998,
                "official_name": "Zesp\u00f3\u0142 Szk\u00f3\u0142 Publicznych Im Jana Paw\u0142a II Szko\u0142a Podstawowa Nr 2",
                "name": "Zesp\u00f3\u0142 Szk\u00f3\u0142 Publicznych Im Jana Paw\u0142a II Szko\u0142a Podstawowa Nr 2",
                "addr:country": "PL",
                "addr:postcode": "57-350",
                "addr:city": "Kudowa-Zdr\u00f3j",
                "addr:street": "Szkolna",
                "addr:housenumber": "8",
                "addr:teryt:simc": 21970,
                "addr:teryt:sym_ul": 984120,
                "contact:phone": "+48 748661700",
                "contact:email": "sekretariat@zsp-kudowa.pl",
                "contact:website": "http:\/\/zsp-kudowa.pl",
                "ref:regon": "000691576",
                "ref:vatin": "PL8831765206",
                "operator": "Gmina Kudowa-Zdr\u00f3j",
                "operator:type": "government",
                "amenity": "school",
                "note": "Parent RSPO: 48002"
            }
        },
        {
            "id": 91926,
            "type": "Feature",
            "geometry": {
                "type": "Point",
                "coordinates": [
                    16.2405,
                    50.4392799
                ]
            },
            "properties": {
                "isced:level": "3",
                "ref:rspo": 91926,
                "official_name": "Zesp\u00f3\u0142 Szk\u00f3\u0142 Publicznych Im Jana Paw\u0142a II Liceum Og\u00f3lnokszta\u0142c\u0105ce im. J\u00f3zefa Lompy w Kudowie Zdroju",
                "name": "Zesp\u00f3\u0142 Szk\u00f3\u0142 Publicznych Im Jana Paw\u0142a II Liceum Og\u00f3lnokszta\u0142c\u0105ce",
                "addr:country": "PL",
                "addr:postcode": "57-350",
                "addr:city": "Kudowa-Zdr\u00f3j",
                "addr:street": "Zdrojowa",
                "addr:housenumber": "22a",
                "addr:teryt:simc": 25944,
                "addr:teryt:sym_ul": 984120,
                "contact:phone": "+48 748661107",
                "contact:email": "liceum@zsp-kudowa.pl",
                "contact:website": "http:\/\/zsp-kudowa.pl",
                "ref:regon": "891419298",
                "operator": "Gmina Kudowa-Zdr\u00f3j",
                "operator:type": "government",
                "amenity": "school",
                "note": "Parent RSPO: 48002"
            }
        },
        {
            "id": 91927,
            "type": "Feature",
            "geometry": {
                "type": "Point",
                "coordinates": [
                    16.2405,
                    50.4392499
                ]
            },
            "properties": {
                "isced:level": "3",
                "ref:rspo": 91927,
                "official_name": "Zesp\u00f3\u0142 Szk\u00f3\u0142 Publicznych im. Jana Paw\u0142a II Technikum w Kudowie Zdroju",
                "name": "Zesp\u00f3\u0142 Szk\u00f3\u0142 Publicznych",
                "addr:country": "PL",
                "addr:postcode": "57-350",
                "addr:city": "Kudowa-Zdr\u00f3j",
                "addr:street": "Zdrojowa",
                "addr:housenumber": "22a",
                "addr:teryt:simc": 25944,
                "addr:teryt:sym_ul": 984120,
                "contact:phone": "+48 748661107",
                "contact:email": "liceum@zsp-kudowa.pl",
                "contact:website": "http:\/\/zsp-kudowa.pl",
                "ref:regon": "891421303",
                "operator": "Gmina Kudowa-Zdr\u00f3j",
                "operator:type": "government",
                "amenity": "school",
                "note": "Parent RSPO: 48002"
            }
        },
        {
            "id": 91928,
            "type": "Feature",
            "geometry": {
                "type": "Point",
                "coordinates": [
                    16.2405,
                    50.439219900000005
                ]
            },
            "properties": {
                "isced:level": "3",
                "ref:rspo": 91928,
                "official_name": "Zesp\u00f3\u0142 Szk\u00f3\u0142 Publicznych Im Jana Paw\u0142a II Bran\u017cowa Szko\u0142a I Stopnia w Kudowie Zdroju",
                "name": "Zesp\u00f3\u0142 Szk\u00f3\u0142 Publicznych Im Jana Paw\u0142a II Bran\u017cowa Szko\u0142a I Stopnia w Kudowie Zdroju",
                "addr:country": "PL",
                "addr:postcode": "57-350",
                "addr:city": "Kudowa-Zdr\u00f3j",
                "addr:street": "Zdrojowa",
                "addr:housenumber": "22a",
                "addr:teryt:simc": 25944,
                "addr:teryt:sym_ul": 984120,
                "contact:phone": "+48 748661107",
                "contact:email": "liceum@zsp-kudowa.pl",
                "contact:website": "http:\/\/zsp-kudowa.pl",
                "ref:regon": "891421295",
                "operator": "Gmina Kudowa-Zdr\u00f3j",
                "operator:type": "government",
                "amenity": "school",
                "note": "Parent RSPO: 48002"
            }
        },
        {
            "id": 132976,
            "type": "Feature",
            "geometry": {
                "type": "Point",
                "coordinates": [
                    16.24839,
                    50.43996
                ]
            },
            "properties": {
                "ref:rspo": 132976,
                "official_name": "Dom Wczas\u00f3w Dzieciecych Jagusia",
                "name": "Dom Wczas\u00f3w Dzieciecych Jagusia",
                "addr:country": "PL",
                "addr:postcode": "57-350",
                "addr:city": "Kudowa-Zdr\u00f3j",
                "addr:street": "S\u0142oneczna",
                "addr:housenumber": "17",
                "addr:teryt:simc": 20254,
                "addr:teryt:sym_ul": 984120,
                "contact:phone": "+48 748680242",
                "contact:email": "zarzad@uzdrowiska-klodzkie.pl",
                "contact:website": "http:\/\/dwd-jagusia.pl",
                "ref:regon": "366439726",
                "operator": "Uzdrowiska K\u0142odzkie Sp\u00f3\u0142ka Akcyjna - Grupa Pgu",
                "operator:type": "private",
                "leisure": "resort"
            }
        },
        {
            "id": 267741,
            "type": "Feature",
            "geometry": {
                "type": "Point",
                "coordinates": [
                    16.24839,
                    50.43993
                ]
            },
            "properties": {
                "ref:rspo": 267741,
                "official_name": "Dolno\u015bL\u0105ski Zesp\u00f3\u0142 Szk\u00f3\u0142 Specjalnych Przy Szpitalu Uzdrowiskowym dla Dzieci \"Jagusia\" w Kudowie-Zdroju",
                "name": "Dolno\u015bL\u0105ski Zesp\u00f3\u0142 Szk\u00f3\u0142 Specjalnych Przy Szpitalu Uzdrowiskowym dla Dzieci \"Jagusia\" w Kudowie-Zdroju",
                "addr:country": "PL",
                "addr:postcode": "57-350",
                "addr:city": "Kudowa-Zdr\u00f3j",
                "addr:street": "S\u0142oneczna",
                "addr:housenumber": "17",
                "addr:teryt:simc": 20254,
                "addr:teryt:sym_ul": 984120,
                "contact:phone": "+48 748664724",
                "contact:email": "sekretariat-jagusia@edu.dolnyslask.pl",
                "ref:regon": "380592196",
                "ref:vatin": "PL8831789974",
                "operator": "Wojew\u00f3dztwo Dolno\u015bl\u0105skie",
                "operator:type": "government",
                "landuse": "education",
                "fixme": "amenity=school, amenity=college albo landuse=education w zale\u017cno\u015bci od tego, jakie plac\u00f3wki wchodz\u0105 w sk\u0142ad zespo\u0142u. Sprawd\u017a, kiedy stosowa\u0107 amenity=* a kiedy landuse=education.",
                "note": "Children RSPO: 60069;267949"
            }
        },
        {
            "id": 60069,
            "type": "Feature",
            "geometry": {
                "type": "Point",
                "coordinates": [
                    16.24839,
                    50.4399
                ]
            },
            "properties": {
                "isced:level": "1;2",
                "ref:rspo": 60069,
                "official_name": "Szko\u0142a Podstawowa Specjalna Nr 3 im. Unicef Przy Szpitalu Uzdrowiskowym dla Dzieci \"Jagusia\" w Kudowie-Zdroju",
                "name": "Szko\u0142a Podstawowa Specjalna Nr 3",
                "addr:country": "PL",
                "addr:postcode": "57-350",
                "addr:city": "Kudowa-Zdr\u00f3j",
                "addr:street": "S\u0142oneczna",
                "addr:housenumber": "17",
                "addr:teryt:simc": 20254,
                "addr:teryt:sym_ul": 984120,
                "contact:phone": "+48 748664724",
                "contact:email": "sekretariat-jagusia@edu.dolnyslask.pl",
                "ref:regon": "000691620",
                "ref:vatin": "PL8831789974",
                "operator": "Wojew\u00f3dztwo Dolno\u015bl\u0105skie",
                "operator:type": "government",
                "amenity": "school",
                "note": "Parent RSPO: 267741"
            }
        },
        {
            "id": 267949,
            "type": "Feature",
            "geometry": {
                "type": "Point",
                "coordinates": [
                    16.24839,
                    50.43987
                ]
            },
            "properties": {
                "isced:level": "3",
                "ref:rspo": 267949,
                "official_name": "Liceum Og\u00f3lnokszta\u0142c\u0105ce Specjalne Przy Szpitalu Uzdrowiskowym dla Dzieci \"Jagusia\" w Kudowie-Zdroju",
                "name": "Liceum Og\u00f3lnokszta\u0142c\u0105ce Specjalne Przy Szpitalu Uzdrowiskowym dla Dzieci \"Jagusia\" w Kudowie-Zdroju",
                "addr:country": "PL",
                "addr:postcode": "57-350",
                "addr:city": "Kudowa-Zdr\u00f3j",
                "addr:street": "S\u0142oneczna",
                "addr:housenumber": "17",
                "addr:teryt:simc": 20254,
                "addr:teryt:sym_ul": 984120,
                "contact:phone": "+48 748664724",
                "contact:email": "sekretariat-jagusia@edu.dolnyslask.pl",
                "ref:regon": "380784518",
                "ref:vatin": "PL8831789974",
                "operator": "Wojew\u00f3dztwo Dolno\u015bl\u0105skie",
                "operator:type": "government",
                "amenity": "school",
                "note": "Parent RSPO: 267741"
            }
        },
        {
            "id": 48005,
            "type": "Feature",
            "geometry": {
                "type": "Point",
                "coordinates": [
                    16.2414999,
                    50.44135
                ]
            },
            "properties": {
                "ref:rspo": 48005,
                "official_name": "Niepubliczne Przedszkole Co S\u0142onko Widzia\u0142o",
                "name": "Niepubliczne Przedszkole Co S\u0142onko Widzia\u0142o",
                "addr:country": "PL",
                "addr:postcode": "57-350",
                "addr:city": "Kudowa-Zdr\u00f3j",
                "addr:street": "Zdrojowa",
                "addr:housenumber": "34",
                "addr:teryt:simc": 25944,
                "addr:teryt:sym_ul": 984120,
                "contact:phone": "+48 505906069",
                "contact:email": "kudowaslonko@o2.pl",
                "ref:regon": "021991900",
                "operator": "Iwona Budnik",
                "operator:type": "private",
                "amenity": "kindergarten"
            }
        },
        {
            "id": 131292,
            "type": "Feature",
            "geometry": {
                "type": "Point",
                "coordinates": [
                    16.24978,
                    50.44247
                ]
            },
            "properties": {
                "ref:rspo": 131292,
                "official_name": "Przedszkole im. Kubusia Puchatka",
                "name": "Przedszkole",
                "addr:country": "PL",
                "addr:postcode": "57-350",
                "addr:city": "Kudowa-Zdr\u00f3j",
                "addr:street": "1 Maja",
                "addr:housenumber": "16",
                "addr:teryt:simc": 11926,
                "addr:teryt:sym_ul": 984120,
                "contact:phone": "+48 748661447",
                "contact:email": "przedszkole@puchatek-kudowa.pl",
                "contact:website": "http:\/\/puchatek-kudowa.pl",
                "ref:regon": "365092090",
                "operator": "Gmina Kudowa-Zdr\u00f3j",
                "operator:type": "government",
                "amenity": "kindergarten"
            }
        },
        {
            "id": 48001,
            "type": "Feature",
            "geometry": {
                "type": "Point",
                "coordinates": [
                    16.24435,
                    50.45176
                ]
            },
            "properties": {
                "isced:level": "1;2",
                "ref:rspo": 48001,
                "official_name": "Szko\u0142a Podstawowa Nr 3 im. 100-Lecia Odzyskania Niepodleg\u0142o\u015bci",
                "name": "Szko\u0142a Podstawowa Nr 3",
                "addr:country": "PL",
                "addr:postcode": "57-350",
                "addr:city": "Kudowa-Zdr\u00f3j",
                "addr:street": "Tadeusza Ko\u015bciuszki",
                "addr:housenumber": "58",
                "addr:teryt:simc": 9582,
                "addr:teryt:sym_ul": 984120,
                "contact:phone": "+48 748661440",
                "contact:email": "sekretariat@czermna.iq.pl",
                "contact:website": "http:\/\/www.czermna.iq.pl",
                "ref:regon": "000691582",
                "operator": "Gmina Kudowa-Zdr\u00f3j",
                "operator:type": "government",
                "amenity": "school"
            }
        },
        {
            "id": 121429,
            "type": "Feature",
            "geometry": {
                "type": "Point",
                "coordinates": [
                    16.27686,
                    50.47637
                ]
            },
            "properties": {
                "isced:level": "1;2",
                "ref:rspo": 121429,
                "official_name": "Dolno\u015bL\u0105ska Szko\u0142a Podstawowa Specjalna Nr 4 Przy Szpitalu Rehabilitacyjnym Hematologicznym \"Orlik\" w Kudowie-Zdroju",
                "name": "Dolno\u015bL\u0105ska Szko\u0142a Podstawowa Specjalna Nr 4 Przy Szpitalu Rehabilitacyjnym Hematologicznym \"Orlik\" w Kudowie-Zdroju",
                "addr:country": "PL",
                "addr:postcode": "57-350",
                "addr:city": "Kudowa-Zdr\u00f3j",
                "addr:street": "Bukowina",
                "addr:housenumber": "1",
                "addr:teryt:simc": 2393,
                "addr:teryt:sym_ul": 984120,
                "contact:phone": "+48 748666126",
                "contact:email": "sekretariat-orlik@edu.dolnyslask.pl",
                "contact:website": "http:\/\/www.orlik.szkola.pl",
                "ref:regon": "000691642",
                "ref:vatin": "PL8831665255",
                "operator": "Wojew\u00f3dztwo Dolno\u015bl\u0105skie",
                "operator:type": "government",
                "amenity": "school"
            }
        }
    ]
}