{
    "type": "FeatureCollection",
    "features": [
        {
            "id": 52438,
            "type": "Feature",
            "geometry": {
                "type": "Point",
                "coordinates": [
                    16.70664,
                    50.3636399
                ]
            },
            "properties": {
                "isced:level": "1;2",
                "ref:rspo": 52438,
                "official_name": "Szko\u0142a Podstawowa im. Gen. W\u0142adys\u0142awa Sikorskiego w O\u0142drzychowicach K\u0142odzkich",
                "name": "Szko\u0142a Podstawowa",
                "addr:country": "PL",
                "addr:postcode": "57-360",
                "addr:city": "O\u0142drzychowice K\u0142odzkie",
                "addr:street": "Sportowa",
                "addr:housenumber": "1E",
                "addr:teryt:simc": 20683,
                "addr:teryt:sym_ul": 852938,
                "contact:phone": "+48 748689330",
                "contact:email": "szkola@spoldrzychowice.pl",
                "contact:website": "http:\/\/spoldrzychowice.pl",
                "ref:regon": "001193308",
                "ref:vatin": "PL8831754622",
                "operator": "Gmina K\u0142odzko",
                "operator:type": "government",
                "amenity": "school"
            }
        },
        {
            "id": 49793,
            "type": "Feature",
            "geometry": {
                "type": "Point",
                "coordinates": [
                    16.7072499,
                    50.36642
                ]
            },
            "properties": {
                "ref:rspo": 49793,
                "official_name": "Przedszkole Gminne w O\u0142drzychowicach K\u0142odzkich",
                "name": "Przedszkole Gminne w O\u0142drzychowicach K\u0142odzkich",
                "addr:country": "PL",
                "addr:postcode": "57-360",
                "addr:city": "O\u0142drzychowice K\u0142odzkie",
                "addr:street": "Osiedlowa",
                "addr:housenumber": "7",
                "addr:teryt:simc": 15300,
                "addr:teryt:sym_ul": 852938,
                "contact:phone": "+48 748689318",
                "contact:email": "dyrektor@pgoldrzychowice.pl",
                "ref:regon": "890525970",
                "ref:vatin": "PL8831754533",
                "operator": "Gmina K\u0142odzko",
                "operator:type": "government",
                "amenity": "kindergarten"
            }
        },
        {
            "id": 50241,
            "type": "Feature",
            "geometry": {
                "type": "Point",
                "coordinates": [
                    16.67188,
                    50.37467
                ]
            },
            "properties": {
                "isced:level": "1;2",
                "ref:rspo": 50241,
                "official_name": "Niepubliczna Szko\u0142a Podstawowa w \u017bela\u017anie",
                "name": "Niepubliczna Szko\u0142a Podstawowa w \u017bela\u017anie",
                "addr:country": "PL",
                "addr:postcode": "57-361",
                "addr:place": "\u017belazno",
                "addr:housenumber": "101",
                "addr:teryt:sym_ul": 853122,
                "contact:phone": "+48 748689311",
                "contact:email": "sp.zelazno@interia.pl",
                "ref:regon": "021999036",
                "operator": "Stowarzyszenie Inicjatywa Edukacyjna \"Nasze \u017belazno\"",
                "operator:type": "ngo",
                "amenity": "school"
            }
        },
        {
            "id": 46537,
            "type": "Feature",
            "geometry": {
                "type": "Point",
                "coordinates": [
                    16.6326,
                    50.38664
                ]
            },
            "properties": {
                "ref:rspo": 46537,
                "official_name": "Przedszkole Gminne w Krosnowicach",
                "name": "Przedszkole Gminne w Krosnowicach",
                "addr:country": "PL",
                "addr:postcode": "57-362",
                "addr:city": "Krosnowice",
                "addr:street": "Sportowa",
                "addr:housenumber": "12",
                "addr:teryt:simc": 20683,
                "addr:teryt:sym_ul": 852861,
                "contact:phone": "+48 748685313",
                "contact:email": "przedszkole@pgkrosnowice.pl",
                "contact:website": "http:\/\/www.przedszkole.krosnowicen.blizej.info",
                "ref:regon": "890525957",
                "ref:vatin": "PL8831754527",
                "operator": "Gmina K\u0142odzko",
                "operator:type": "government",
                "amenity": "kindergarten"
            }
        },
        {
            "id": 52495,
            "type": "Feature",
            "geometry": {
                "type": "Point",
                "coordinates": [
                    16.63684,
                    50.3895
                ]
            },
            "properties": {
                "isced:level": "1;2",
                "ref:rspo": 52495,
                "official_name": "Szko\u0142a Podstawowa w Krosnowicach",
                "name": "Szko\u0142a Podstawowa w Krosnowicach",
                "addr:country": "PL",
                "addr:postcode": "57-362",
                "addr:place": "Krosnowice",
                "addr:housenumber": "207",
                "addr:teryt:sym_ul": 852861,
                "contact:phone": "+48 748685773",
                "contact:email": "spkrosnowice@gmail.com",
                "ref:regon": "001193283",
                "ref:vatin": "PL8831754651",
                "operator": "Gmina K\u0142odzko",
                "operator:type": "government",
                "amenity": "school"
            }
        },
        {
            "id": 47120,
            "type": "Feature",
            "geometry": {
                "type": "Point",
                "coordinates": [
                    16.69357,
                    50.41731
                ]
            },
            "properties": {
                "isced:level": "1;2",
                "ref:rspo": 47120,
                "official_name": "Szko\u0142a Podstawowa im. Stanis\u0142awa Miko\u0142ajczyka w Jaszkowej Dolnej",
                "name": "Szko\u0142a Podstawowa",
                "addr:country": "PL",
                "addr:postcode": "57-312",
                "addr:place": "Jaszkowa Dolna",
                "addr:housenumber": "63E",
                "addr:teryt:sym_ul": 852803,
                "contact:phone": "+48 748687609",
                "contact:email": "sp.jaszkowa@vp.pl",
                "contact:website": "http:\/\/spjaszkowadolna.szkolnastrona.pl",
                "ref:regon": "001193314",
                "ref:vatin": "PL8831754645",
                "operator": "Gmina K\u0142odzko",
                "operator:type": "government",
                "amenity": "school"
            }
        },
        {
            "id": 49789,
            "type": "Feature",
            "geometry": {
                "type": "Point",
                "coordinates": [
                    16.68134,
                    50.4217299
                ]
            },
            "properties": {
                "ref:rspo": 49789,
                "official_name": "Przedszkole Gminne w Jaszkowej Dolnej",
                "name": "Przedszkole Gminne w Jaszkowej Dolnej",
                "addr:country": "PL",
                "addr:postcode": "57-312",
                "addr:place": "Jaszkowa Dolna",
                "addr:housenumber": "37",
                "addr:teryt:sym_ul": 852803,
                "contact:phone": "+48 748687615",
                "contact:email": "dyrektor@pgjaszkowa.pl",
                "contact:website": "http:\/\/pgjaszkowadolna.superszkolna.pl",
                "ref:regon": "890526017",
                "ref:vatin": "PL8831754510",
                "operator": "Gmina K\u0142odzko",
                "operator:type": "government",
                "amenity": "kindergarten"
            }
        },
        {
            "id": 49689,
            "type": "Feature",
            "geometry": {
                "type": "Point",
                "coordinates": [
                    16.59194,
                    50.42506
                ]
            },
            "properties": {
                "ref:rspo": 49689,
                "official_name": "Przedszkole Gminne w Szalejowie Dolnym",
                "name": "Przedszkole Gminne w Szalejowie Dolnym",
                "addr:country": "PL",
                "addr:postcode": "57-314",
                "addr:place": "Szalej\u00f3w Dolny",
                "addr:housenumber": "100",
                "addr:teryt:sym_ul": 853033,
                "contact:phone": "+48 748687211",
                "contact:email": "dyrektor@przedszkoleszalejow.pl",
                "ref:regon": "021546435",
                "ref:vatin": "PL8831849506",
                "operator": "Gmina K\u0142odzko",
                "operator:type": "government",
                "amenity": "kindergarten"
            }
        },
        {
            "id": 47628,
            "type": "Feature",
            "geometry": {
                "type": "Point",
                "coordinates": [
                    16.54497,
                    50.42584
                ]
            },
            "properties": {
                "isced:level": "1;2",
                "ref:rspo": 47628,
                "official_name": "Szko\u0142a Podstawowa Z Oddzia\u0142ami Integracyjnymi w Szalejowie G\u00f3rnym",
                "name": "Szko\u0142a Podstawowa Z Oddzia\u0142ami Integracyjnymi w Szalejowie G\u00f3rnym",
                "addr:country": "PL",
                "addr:postcode": "57-314",
                "addr:place": "Szalej\u00f3w G\u00f3rny",
                "addr:housenumber": "48",
                "addr:teryt:sym_ul": 853040,
                "contact:phone": "+48 746629091",
                "contact:email": "sekretariat@integracyjna.net.pl",
                "contact:website": "http:\/\/www.integracyjna.net.pl",
                "ref:regon": "021546458",
                "ref:vatin": "PL8831849475",
                "operator": "Gmina K\u0142odzko",
                "operator:type": "government",
                "amenity": "school"
            }
        },
        {
            "id": 92681,
            "type": "Feature",
            "geometry": {
                "type": "Point",
                "coordinates": [
                    16.58949,
                    50.4712699
                ]
            },
            "properties": {
                "ref:rspo": 92681,
                "official_name": "Niepubliczny O\u015brodek Rewalidacyjno-Wychowawczy w Piszkowicach",
                "name": "Niepubliczny O\u015brodek Rewalidacyjno-Wychowawczy w Piszkowicach",
                "addr:country": "PL",
                "addr:postcode": "57-300",
                "addr:place": "Piszkowice",
                "addr:housenumber": "53",
                "addr:teryt:sym_ul": 852944,
                "contact:phone": "+48 748671410",
                "contact:email": "paula.w@post.pl",
                "contact:website": "http:\/\/www.osrodekpiszkowice.pl",
                "ref:regon": "022025744",
                "ref:vatin": "PL8831671557",
                "operator": "Zgromadzenie Si\u00f3str Maryi Niepokalanej Prowincja Polska",
                "operator:type": "religious",
                "amenity": "school"
            }
        },
        {
            "id": 268105,
            "type": "Feature",
            "geometry": {
                "type": "Point",
                "coordinates": [
                    16.58949,
                    50.4712399
                ]
            },
            "properties": {
                "isced:level": "1;2",
                "ref:rspo": 268105,
                "official_name": "Niepubliczna Szko\u0142a Podstawowa Specjalna",
                "name": "Niepubliczna Szko\u0142a Podstawowa Specjalna",
                "addr:country": "PL",
                "addr:postcode": "57-300",
                "addr:place": "Piszkowice",
                "addr:housenumber": "53",
                "addr:teryt:sym_ul": 852944,
                "contact:phone": "+48 748671410",
                "contact:email": "paula.w@post.pl",
                "ref:regon": "380952281",
                "operator": "Zgromadzenie Si\u00f3str Maryi Niepokalanej Prowincja Polska",
                "operator:type": "religious",
                "amenity": "school"
            }
        },
        {
            "id": 49653,
            "type": "Feature",
            "geometry": {
                "type": "Point",
                "coordinates": [
                    16.6021,
                    50.47446
                ]
            },
            "properties": {
                "ref:rspo": 49653,
                "official_name": "Przedszkole Gminne Z Oddzia\u0142ami Integracyjnymi w Bierkowicach",
                "name": "Przedszkole Gminne Z Oddzia\u0142ami Integracyjnymi w Bierkowicach",
                "addr:country": "PL",
                "addr:postcode": "57-300",
                "addr:place": "Bierkowice",
                "addr:housenumber": "3",
                "addr:teryt:sym_ul": 852750,
                "contact:phone": "+48 748673122",
                "contact:email": "dyrektor@pgbierkowice.pl",
                "ref:regon": "021546493",
                "ref:vatin": "PL8831849481",
                "operator": "Gmina K\u0142odzko",
                "operator:type": "government",
                "amenity": "kindergarten"
            }
        },
        {
            "id": 58624,
            "type": "Feature",
            "geometry": {
                "type": "Point",
                "coordinates": [
                    16.63895,
                    50.5102
                ]
            },
            "properties": {
                "isced:level": "1;2",
                "ref:rspo": 58624,
                "official_name": "Szko\u0142a Podstawowa w Wojborzu",
                "name": "Szko\u0142a Podstawowa w Wojborzu",
                "addr:country": "PL",
                "addr:postcode": "57-442",
                "addr:place": "Wojb\u00f3rz",
                "addr:housenumber": "52",
                "addr:teryt:sym_ul": 853100,
                "contact:phone": "+48 748713189",
                "contact:email": "sp.wojborz@gmail.com",
                "contact:website": "http:\/\/mojwojborz.blogspot.com",
                "ref:regon": "001192958",
                "ref:vatin": "PL8831754579",
                "operator": "Gmina K\u0142odzko",
                "operator:type": "government",
                "amenity": "school"
            }
        }
    ]
}