{"type":"FeatureCollection","features":[{"id":91130,"type":"Feature","geometry":{"type":"Point","coordinates":[16.5222,50.39393]},"properties":{"isced:level":"1;2","ref:rspo":91130,"official_name":"Szko\u0142a Podstawowa Stowarzyszenia \"Edukator\"","name":"Szko\u0142a Podstawowa Stowarzyszenia \"Edukator\"","addr:country":"PL","addr:postcode":"57-320","addr:city":"Polanica-Zdr\u00f3j","addr:street":"ul. Tadeusza Ko\u015bciuszki","addr:housenumber":"13","addr:teryt:simc":9582,"addr:teryt:sym_ul":984522,"contact:phone":"+48 748681580","contact:email":"edukator-polanica@wp.pl","ref:regon":"022018885","ref:vatin":"PL8831691123","operator":"Spo\u0142eczno-O\u015bwiatowe Stowarzyszenie Pomocy Pokrzywdzonym I Niepe\u0142nosprawnym \"Edukator\" W \u0141om\u017cy Oddzia\u0142 Polanica Zdr\u00f3j","operator:type":"ngo","amenity":"school"}},{"id":91139,"type":"Feature","geometry":{"type":"Point","coordinates":[16.5153,50.39461]},"properties":{"ref:rspo":91139,"official_name":"Przedszkole Niepubliczne \"Weso\u0142e Przedszkole\"","name":"Przedszkole Niepubliczne \"Weso\u0142e Przedszkole\"","addr:country":"PL","addr:postcode":"57-320","addr:city":"Polanica-Zdr\u00f3j","addr:street":"ul. Leopolda Staffa","addr:housenumber":"41","addr:teryt:simc":20798,"addr:teryt:sym_ul":984522,"contact:phone":"+48 603031476","contact:email":"annagladysz@wp.pl","ref:regon":"022017897","ref:vatin":"PL6991745602","operator":"Anna G\u0142adysz","operator:type":"private","amenity":"kindergarten"}},{"id":79934,"type":"Feature","geometry":{"type":"Point","coordinates":[16.5086799,50.4016499]},"properties":{"ref:rspo":79934,"official_name":"Regionalna Szko\u0142a Turystyczna w Polanicy Zdroju","name":"Regionalna Szko\u0142a Turystyczna w Polanicy Zdroju","addr:country":"PL","addr:postcode":"57-320","addr:city":"Polanica-Zdr\u00f3j","addr:street":"al. Wojska Polskiego","addr:housenumber":"23","addr:teryt:simc":24623,"addr:teryt:sym_ul":984522,"contact:phone":"+48 748681683","contact:email":"rst@netgate.com.pl","contact:website":"http:\/\/www.rst.ng.pl","ref:regon":"890341335","ref:vatin":"PL8831021598","operator":"Powiat K\u0142odzki","operator:type":"government","landuse":"education","fixme":"amenity=school, amenity=college albo landuse=education w zale\u017cno\u015bci od tego, jakie plac\u00f3wki wchodz\u0105 w sk\u0142ad zespo\u0142u. Sprawd\u017a, kiedy stosowa\u0107 amenity=* a kiedy landuse=education.","note":"Children RSPO: 90305;90316"}},{"id":90931,"type":"Feature","geometry":{"type":"Point","coordinates":[16.5086799,50.4016199]},"properties":{"isced:level":"1;2","ref:rspo":90931,"official_name":"Szko\u0142a Podstawowa Nr 2","name":"Szko\u0142a Podstawowa Nr 2","addr:country":"PL","addr:postcode":"57-320","addr:city":"Polanica-Zdr\u00f3j","addr:street":"al. Wojska Polskiego","addr:housenumber":"23","addr:teryt:simc":24623,"addr:teryt:sym_ul":984522,"contact:email":"poczta@sp2.com.pl","contact:website":"http:\/\/www.sp2.com.pl","ref:regon":"000691518","ref:vatin":"PL8831080810","operator":"Gmina Polanica-Zdr\u00f3j","operator:type":"government","amenity":"school"}},{"id":90305,"type":"Feature","geometry":{"type":"Point","coordinates":[16.5086799,50.401589900000005]},"properties":{"isced:level":"3","ref:rspo":90305,"official_name":"Technikum im. Jana Paw\u0142a II w Polanicy Zdroju","name":"Technikum","addr:country":"PL","addr:postcode":"57-320","addr:city":"Polanica-Zdr\u00f3j","addr:street":"al. Wojska Polskiego","addr:housenumber":"23","addr:teryt:simc":24623,"addr:teryt:sym_ul":984522,"contact:phone":"+48 748681683","contact:email":"rst@netgate.com.pl","contact:website":"https:\/\/rstpolanica.edupage.org\/","ref:regon":"891437528","operator":"Powiat K\u0142odzki","operator:type":"government","amenity":"school","note":"Parent RSPO: 79934"}},{"id":90316,"type":"Feature","geometry":{"type":"Point","coordinates":[16.5086799,50.4015599]},"properties":{"isced:level":"3","ref:rspo":90316,"official_name":"Bran\u017cowa Szko\u0142a I Stopnia w Polanicy Zdroju","name":"Bran\u017cowa Szko\u0142a I Stopnia w Polanicy Zdroju","addr:country":"PL","addr:postcode":"57-320","addr:city":"Polanica-Zdr\u00f3j","addr:street":"al. Wojska Polskiego","addr:housenumber":"23","addr:teryt:simc":24623,"addr:teryt:sym_ul":984522,"contact:phone":"+48 748681683","contact:email":"rst@netgate.com.pl","contact:website":"http:\/\/www.rst.ng.pl","ref:regon":"022016449","operator":"Powiat K\u0142odzki","operator:type":"government","amenity":"school","note":"Parent RSPO: 79934"}},{"id":91129,"type":"Feature","geometry":{"type":"Point","coordinates":[16.51117,50.40361]},"properties":{"ref:rspo":91129,"official_name":"Przedszkole Publiczne Nr 1","name":"Przedszkole Publiczne Nr 1","addr:country":"PL","addr:postcode":"57-320","addr:city":"Polanica-Zdr\u00f3j","addr:street":"al. Wojska Polskiego","addr:housenumber":"10","addr:teryt:simc":24623,"addr:teryt:sym_ul":984522,"contact:email":"ppolanica@wp.pl","ref:regon":"890524716","ref:vatin":"PL8831650584","operator":"Gmina Polanica-Zdr\u00f3j","operator:type":"government","amenity":"kindergarten"}},{"id":87073,"type":"Feature","geometry":{"type":"Point","coordinates":[16.50981,50.4055]},"properties":{"ref:rspo":87073,"official_name":"Specjalny O\u015brodek Szkolno-Wychowawczy Prowadzony Przez Zgromadzenie Si\u00f3str \u015aw. J\u00f3zefa w Polanicy Zdroju","name":"Specjalny O\u015brodek Szkolno-Wychowawczy Prowadzony Przez Zgromadzenie Si\u00f3str \u015aw. J\u00f3zefa w Polanicy Zdroju","addr:country":"PL","addr:postcode":"57-320","addr:city":"Polanica-Zdr\u00f3j","addr:street":"ul. Ko\u015bcielna","addr:housenumber":"2","addr:teryt:simc":9546,"addr:teryt:sym_ul":984522,"contact:phone":"+48 748681264","contact:email":"sosw@polanica.jozefitki.pl","contact:website":"http:\/\/www.osrodekpolanica.pl","ref:regon":"022013250","ref:vatin":"PL8831015907","operator":"Zgromadzenie Si\u00f3str \u015aw. J\u00f3zefa, Prowincja Wroc\u0142awska","operator:type":"religious","amenity":"school","note":"Children RSPO: 92401;92404"}},{"id":92401,"type":"Feature","geometry":{"type":"Point","coordinates":[16.50981,50.40547]},"properties":{"isced:level":"1;2","ref:rspo":92401,"official_name":"Szko\u0142a Podstawowa Specjalna w Specjalnym O\u015brodku Szkolno-Wychowawczym w Polanicy Zdroju","name":"Szko\u0142a Podstawowa Specjalna w Specjalnym O\u015brodku Szkolno-Wychowawczym w Polanicy Zdroju","addr:country":"PL","addr:postcode":"57-320","addr:city":"Polanica-Zdr\u00f3j","addr:street":"ul. Ko\u015bcielna","addr:housenumber":"2","addr:teryt:simc":9546,"addr:teryt:sym_ul":984522,"contact:phone":"+48 748681264","contact:email":"sosw@polanica.jozefitki.pl","contact:website":"http:\/\/www.osrodekpolanica.pl","ref:regon":"022024006","operator":"Zgromadzenie Si\u00f3str \u015aw. J\u00f3zefa, Prowincja Wroc\u0142awska","operator:type":"religious","amenity":"school","note":"Parent RSPO: 87073"}},{"id":92404,"type":"Feature","geometry":{"type":"Point","coordinates":[16.50981,50.405440000000006]},"properties":{"ref:rspo":92404,"official_name":"Szko\u0142a Przysposabiaj\u0105ca Do Pracy w Polanicy Zdroju","name":"Szko\u0142a Przysposabiaj\u0105ca Do Pracy w Polanicy Zdroju","addr:country":"PL","addr:postcode":"57-320","addr:city":"Polanica-Zdr\u00f3j","addr:street":"ul. Ko\u015bcielna","addr:housenumber":"2","addr:teryt:simc":9546,"addr:teryt:sym_ul":984522,"contact:phone":"+48 748681264","contact:email":"sosw@polanica.jozefitki.pl","contact:website":"http:\/\/www.osrodekpolanica.pl","ref:regon":"022024029","operator":"Zgromadzenie Si\u00f3str \u015aw. J\u00f3zefa, Prowincja Wroc\u0142awska","operator:type":"religious","amenity":"school","note":"Parent RSPO: 87073"}},{"id":91140,"type":"Feature","geometry":{"type":"Point","coordinates":[16.51189,50.4119]},"properties":{"ref:rspo":91140,"official_name":"Przedszkole Niepubliczne \"Gromadka Nied\u017awiadka\"","name":"Przedszkole Niepubliczne \"Gromadka Nied\u017awiadka\"","addr:country":"PL","addr:postcode":"57-320","addr:city":"Polanica-Zdr\u00f3j","addr:street":"ul. Zdrojowa","addr:housenumber":"34","addr:teryt:simc":25944,"addr:teryt:sym_ul":984522,"contact:phone":"+48 748665101","contact:email":"kontakt@gromadkaniedzwiadka.pl","contact:website":"http:\/\/www.gromadkaniedzwiadka.pl","ref:regon":"022018939","ref:vatin":"PL8861129165","operator":"Edyta Tyme\u0144ska","operator:type":"private","amenity":"kindergarten"}}]}