{
    "type": "FeatureCollection",
    "features": [
        {
            "id": 273251,
            "type": "Feature",
            "geometry": {
                "type": "Point",
                "coordinates": [
                    16.56359,
                    50.5388
                ]
            },
            "properties": {
                "ref:rspo": 273251,
                "official_name": "Niepubliczny Punkt Przedszkolny \" Mali Odkrywcy\"",
                "name": "Niepubliczny Punkt Przedszkolny \" Mali Odkrywcy\"",
                "addr:postcode": "57-402",
                "addr:city": "Nowa Ruda",
                "addr:street": "K\u0142odzka",
                "addr:housenumber": "24 D",
                "addr:city:simc": 984278,
                "addr:street:sym_ul": 8622,
                "email": "ska.kkolodziej@gmail.com",
                "website": "http:\/\/www.maliodkrywcy.nowaruda.pl",
                "ref:regon": "384420374",
                "operator": "Ko\u0142odziej Sp\u00f3\u0142ka Komandytowo-Akcyjna",
                "operator:type": "private",
                "amenity": "kindergarten"
            }
        },
        {
            "id": 277259,
            "type": "Feature",
            "geometry": {
                "type": "Point",
                "coordinates": [
                    16.56359,
                    50.53877
                ]
            },
            "properties": {
                "ref:rspo": 277259,
                "official_name": "Przedszkole Niepubliczne \"Mali Odkrywcy\"",
                "name": "Przedszkole Niepubliczne \"Mali Odkrywcy\"",
                "addr:postcode": "57-402",
                "addr:city": "Nowa Ruda",
                "addr:street": "K\u0142odzka",
                "addr:housenumber": "24 BC",
                "addr:city:simc": 984278,
                "addr:street:sym_ul": 8622,
                "email": "ska.kolodziej@gmail.com",
                "website": "http:\/\/www.maliodkrywcy.nowaruda.pl",
                "ref:regon": "388458400",
                "operator": "Ko\u0142odziej Sp\u00f3\u0142ka Komandytowo-Akcyjna",
                "operator:type": "private",
                "amenity": "kindergarten"
            }
        },
        {
            "id": 126543,
            "type": "Feature",
            "geometry": {
                "type": "Point",
                "coordinates": [
                    16.54505,
                    50.54495
                ]
            },
            "properties": {
                "ref:rspo": 126543,
                "official_name": "Przedszkole Niepubliczne \" Kraina Malucha\"",
                "name": "Przedszkole Niepubliczne \" Kraina Malucha\"",
                "addr:postcode": "57-402",
                "addr:city": "Nowa Ruda",
                "addr:street": "Radkowska",
                "addr:housenumber": "22",
                "addr:city:simc": 984278,
                "addr:street:sym_ul": 18298,
                "phone": "+48 748716556",
                "email": "iwoleszczynska@gmail.com",
                "ref:regon": "360482224",
                "ref:vatin": "PL8851315015",
                "operator": "Iwona Leszczy\u0144ska",
                "operator:type": "private",
                "amenity": "kindergarten"
            }
        },
        {
            "id": 79952,
            "type": "Feature",
            "geometry": {
                "type": "Point",
                "coordinates": [
                    16.5466799,
                    50.54565
                ]
            },
            "properties": {
                "isced:level": "1;2",
                "ref:rspo": 79952,
                "official_name": "Szko\u0142a Podstawowa nr 7 im. Tadeusza Ko\u015bciuszki w Nowej Rudzie",
                "name": "Szko\u0142a Podstawowa nr 7",
                "addr:postcode": "57-402",
                "addr:city": "Nowa Ruda",
                "addr:street": "Szkolna",
                "addr:housenumber": "3",
                "addr:city:simc": 984278,
                "addr:street:sym_ul": 21970,
                "phone": "+48 748723027",
                "email": "sp7nowa@op.pl",
                "website": "http:\/\/sp7nruda.szkolnastrona.pl",
                "ref:regon": "000690619",
                "ref:vatin": "PL8851324066",
                "operator": "Gmina Miejska Nowa Ruda",
                "operator:type": "government",
                "amenity": "school"
            }
        },
        {
            "id": 79955,
            "type": "Feature",
            "geometry": {
                "type": "Point",
                "coordinates": [
                    16.55348,
                    50.54929
                ]
            },
            "properties": {
                "ref:rspo": 79955,
                "official_name": "Przedszkole Miejskie nr 2 \" Mini\" w Nowej Rudzie",
                "name": "Przedszkole Miejskie nr 2 \" Mini\" w Nowej Rudzie",
                "addr:postcode": "57-402",
                "addr:city": "Nowa Ruda",
                "addr:street": "Osiedle XXX-lecia",
                "addr:housenumber": "14",
                "addr:city:simc": 984278,
                "addr:street:sym_ul": 25192,
                "phone": "+48 748723583",
                "email": "mini3014@wp.pl",
                "ref:regon": "890524544",
                "ref:vatin": "PL8851042439",
                "operator": "Gmina Miejska Nowa Ruda",
                "operator:type": "government",
                "amenity": "kindergarten"
            }
        },
        {
            "id": 105577,
            "type": "Feature",
            "geometry": {
                "type": "Point",
                "coordinates": [
                    16.55209,
                    50.55075
                ]
            },
            "properties": {
                "ref:rspo": 105577,
                "official_name": "Niepubliczna Plac\u00f3wka Kszta\u0142cenia Ustawicznego w Nowej Rudzie",
                "name": "Niepubliczna Plac\u00f3wka Kszta\u0142cenia Ustawicznego w Nowej Rudzie",
                "addr:postcode": "57-402",
                "addr:city": "Nowa Ruda",
                "addr:street": "Osiedle XXX-lecia",
                "addr:housenumber": "5\/2\/3",
                "addr:city:simc": 984278,
                "addr:street:sym_ul": 25192,
                "phone": "+48 501750314",
                "email": "biuro@kaertur.pl",
                "website": "http:\/\/www.kaertur.pl",
                "ref:regon": "022041849",
                "ref:vatin": "PL8942986229",
                "operator": "Kaertur Sp\u00f3\u0142ka Z Ograniczon\u0105 Odpowiedzialno\u015bci\u0105",
                "operator:type": "private",
                "fixme": "w zale\u017cno\u015bci od przedmiotu dzia\u0142alno\u015bci (np. amenity=training + training=*, amenity=dancing_school, amenity=language_school, amenity=music_school)"
            }
        },
        {
            "id": 133401,
            "type": "Feature",
            "geometry": {
                "type": "Point",
                "coordinates": [
                    16.50322,
                    50.57609
                ]
            },
            "properties": {
                "ref:rspo": 133401,
                "official_name": "Skrzypek Na Dachu Marcin Skrzypi\u0144ski-Niepubliczna Plac\u00f3wka Kszta\u0142cenia Ustawicznego",
                "name": "Skrzypek Na Dachu Marcin Skrzypi\u0144ski-Niepubliczna Plac\u00f3wka Kszta\u0142cenia Ustawicznego",
                "addr:postcode": "57-400",
                "addr:city": "Nowa Ruda",
                "addr:street": "Strzelecka",
                "addr:housenumber": "5",
                "addr:door": "1a",
                "addr:city:simc": 984278,
                "addr:street:sym_ul": 21381,
                "phone": "+48 533676319",
                "email": "skrzypek.hejszowina@gmail.com",
                "website": "http:\/\/www.skrzypeknadachu.pl",
                "ref:regon": "367205723",
                "ref:vatin": "PL8851566007",
                "operator": "Marcin Skrzypi\u0144ski",
                "operator:type": "private",
                "fixme": "w zale\u017cno\u015bci od przedmiotu dzia\u0142alno\u015bci (np. amenity=training + training=*, amenity=dancing_school, amenity=language_school, amenity=music_school)"
            }
        },
        {
            "id": 79954,
            "type": "Feature",
            "geometry": {
                "type": "Point",
                "coordinates": [
                    16.49977,
                    50.57781
                ]
            },
            "properties": {
                "ref:rspo": 79954,
                "official_name": "Przedszkole Miesjkie nr 1 w Nowej Rudzie",
                "name": "Przedszkole Miesjkie nr 1 w Nowej Rudzie",
                "addr:postcode": "57-400",
                "addr:city": "Nowa Ruda",
                "addr:street": "Kolejowa",
                "addr:housenumber": "15",
                "addr:city:simc": 984278,
                "addr:street:sym_ul": 8828,
                "phone": "+48 748722563",
                "email": "pmplastus@wp.pl",
                "website": "http:\/\/pmplastusn-p.net.pl",
                "ref:regon": "890524567",
                "ref:vatin": "PL8851042451",
                "operator": "Gmina Miejska Nowa Ruda",
                "operator:type": "government",
                "amenity": "kindergarten"
            }
        },
        {
            "id": 79958,
            "type": "Feature",
            "geometry": {
                "type": "Point",
                "coordinates": [
                    16.49957,
                    50.57847
                ]
            },
            "properties": {
                "ref:rspo": 79958,
                "official_name": "Niepubliczne Przedszkole Si\u00f3str Salezjanek w Nowej Rudzie",
                "name": "Niepubliczne Przedszkole Si\u00f3str Salezjanek w Nowej Rudzie",
                "addr:postcode": "57-400",
                "addr:city": "Nowa Ruda",
                "addr:street": "Ko\u015bcielna",
                "addr:housenumber": "10",
                "addr:city:simc": 984278,
                "addr:street:sym_ul": 9546,
                "phone": "+48 748722316",
                "email": "nowarudap@cmw.osw.pl",
                "website": "http:\/\/www.przedszkolesalezjanskie.nowaruda.pl",
                "ref:regon": "022008467",
                "ref:vatin": "PL8851013610",
                "operator": "Zgromadzenie C\u00f3rek Maryi Wspomo\u017cycielki (Siostry Salezjanki) Inspektoria Wroc\u0142awska",
                "operator:type": "religious",
                "amenity": "kindergarten"
            }
        },
        {
            "id": 120889,
            "type": "Feature",
            "geometry": {
                "type": "Point",
                "coordinates": [
                    16.50682,
                    50.57902
                ]
            },
            "properties": {
                "ref:rspo": 120889,
                "official_name": "\"Akademia M\u0142odego Artysty\" Niepubliczny Punkt Przedszkolny",
                "name": "\"Akademia M\u0142odego Artysty\" Niepubliczny Punkt Przedszkolny",
                "addr:postcode": "57-400",
                "addr:city": "Nowa Ruda",
                "addr:street": "Stefana \u017beromskiego",
                "addr:housenumber": "3",
                "addr:door": "1",
                "addr:city:simc": 984278,
                "addr:street:sym_ul": 26469,
                "phone": "+48 664320950",
                "email": "b.wilk.akademia@gmail.com",
                "ref:regon": "022296070",
                "operator": "\"Akademia M\u0142odego Artysty\" S.c. Bo\u017cena \u0141aba, Lidia Kamyk",
                "operator:type": "consortium",
                "amenity": "kindergarten"
            }
        },
        {
            "id": 275731,
            "type": "Feature",
            "geometry": {
                "type": "Point",
                "coordinates": [
                    16.50094,
                    50.58012
                ]
            },
            "properties": {
                "ref:rspo": 275731,
                "official_name": "Biblioteka Pedagogiczna w K\u0142odzku Filia Nowa Ruda",
                "name": "Biblioteka Pedagogiczna w K\u0142odzku Filia Nowa Ruda",
                "addr:postcode": "57-400",
                "addr:city": "Nowa Ruda",
                "addr:street": "Marsza\u0142ka J\u00f3zefa Pi\u0142sudskiego",
                "addr:housenumber": "4",
                "addr:city:simc": 984278,
                "addr:street:sym_ul": 16274,
                "phone": "+48 748722530",
                "email": "bibliotekaped.nr@pcpp.klodzko.pl",
                "ref:regon": "365052592",
                "operator": "Powiat K\u0142odzki",
                "operator:type": "government",
                "amenity": "library",
                "note": "Parent RSPO: 131219"
            }
        },
        {
            "id": 275905,
            "type": "Feature",
            "geometry": {
                "type": "Point",
                "coordinates": [
                    16.5045,
                    50.58014
                ]
            },
            "properties": {
                "ref:rspo": 275905,
                "official_name": "Powiatowa Poradnia Psychologiczno-Pedagogiczna w K\u0142odzku Filia Nowa Ruda",
                "name": "Powiatowa Poradnia Psychologiczno-Pedagogiczna w K\u0142odzku Filia Nowa Ruda",
                "addr:postcode": "57-400",
                "addr:city": "Nowa Ruda",
                "addr:street": "Niepodleg\u0142o\u015bci",
                "addr:housenumber": "6-8",
                "addr:city:simc": 984278,
                "addr:street:sym_ul": 14203,
                "phone": "+48 748722681",
                "email": "por.nr@pcpp.klodzko.pl",
                "ref:regon": "890040390",
                "operator": "Powiat K\u0142odzki",
                "operator:type": "government",
                "healthcare": "counselling",
                "counselling_type": "education",
                "fixme": "w zale\u017cno\u015bci od przedmiotu dzia\u0142alno\u015bci (np. healthcare=counselling + counselling_type=education albo healthcare=psychotherapist)",
                "note": "Parent RSPO: 90208"
            }
        },
        {
            "id": 86837,
            "type": "Feature",
            "geometry": {
                "type": "Point",
                "coordinates": [
                    16.5026,
                    50.58055
                ]
            },
            "properties": {
                "ref:rspo": 86837,
                "official_name": "Zesp\u00f3\u0142 Szk\u00f3\u0142 Specjalnych w Nowej Rudzie",
                "name": "Zesp\u00f3\u0142 Szk\u00f3\u0142 Specjalnych w Nowej Rudzie",
                "addr:postcode": "57-400",
                "addr:city": "Nowa Ruda",
                "addr:street": "Miko\u0142aja Kopernika",
                "addr:housenumber": "8",
                "addr:city:simc": 984278,
                "addr:street:sym_ul": 9282,
                "phone": "+48 748722212",
                "email": "zs_nowa_ruda@op.pl",
                "ref:regon": "891097877",
                "ref:vatin": "PL8851474469",
                "operator": "Powiat K\u0142odzki",
                "operator:type": "government",
                "landuse": "education",
                "fixme": "amenity=school, amenity=college albo landuse=education w zale\u017cno\u015bci od tego, jakie plac\u00f3wki wchodz\u0105 w sk\u0142ad zespo\u0142u. Sprawd\u017a, kiedy stosowa\u0107 amenity=* a kiedy landuse=education.",
                "note": "Children RSPO: 92286;92288;277975"
            }
        },
        {
            "id": 92286,
            "type": "Feature",
            "geometry": {
                "type": "Point",
                "coordinates": [
                    16.5026,
                    50.58052
                ]
            },
            "properties": {
                "isced:level": "1;2",
                "ref:rspo": 92286,
                "official_name": "Szko\u0142a Podstawowa Specjalna nr 4 w Nowej Rudzie",
                "name": "Szko\u0142a Podstawowa Specjalna nr 4 w Nowej Rudzie",
                "addr:postcode": "57-400",
                "addr:city": "Nowa Ruda",
                "addr:street": "Miko\u0142aja Kopernika",
                "addr:housenumber": "8",
                "addr:city:simc": 984278,
                "addr:street:sym_ul": 9282,
                "phone": "+48 748722212",
                "email": "zs_nowa_ruda@op.pl",
                "ref:regon": "000690648",
                "operator": "Powiat K\u0142odzki",
                "operator:type": "government",
                "amenity": "school",
                "note": "Parent RSPO: 86837"
            }
        },
        {
            "id": 92288,
            "type": "Feature",
            "geometry": {
                "type": "Point",
                "coordinates": [
                    16.5026,
                    50.580490000000005
                ]
            },
            "properties": {
                "ref:rspo": 92288,
                "official_name": "Trzyletnia Szko\u0142a Specjalna Przysposabiaj\u0105ca do Pracy w Nowej Rudzie",
                "name": "Trzyletnia Szko\u0142a Specjalna Przysposabiaj\u0105ca do Pracy w Nowej Rudzie",
                "addr:postcode": "57-400",
                "addr:city": "Nowa Ruda",
                "addr:street": "Miko\u0142aja Kopernika",
                "addr:housenumber": "8",
                "addr:city:simc": 984278,
                "addr:street:sym_ul": 9282,
                "phone": "+48 748722212",
                "email": "zs_nowa_ruda@op.pl",
                "ref:regon": "020591942",
                "operator": "Powiat K\u0142odzki",
                "operator:type": "government",
                "amenity": "school",
                "note": "Parent RSPO: 86837"
            }
        },
        {
            "id": 277975,
            "type": "Feature",
            "geometry": {
                "type": "Point",
                "coordinates": [
                    16.5026,
                    50.58046
                ]
            },
            "properties": {
                "ref:rspo": 277975,
                "official_name": "Przedszkole Specjalne w Zespole Szk\u00f3\u0142 Specjalnych w Nowej Rudzie",
                "name": "Przedszkole Specjalne w Zespole Szk\u00f3\u0142 Specjalnych w Nowej Rudzie",
                "addr:postcode": "57-400",
                "addr:city": "Nowa Ruda",
                "addr:street": "Miko\u0142aja Kopernika",
                "addr:housenumber": "8",
                "addr:city:simc": 984278,
                "addr:street:sym_ul": 9282,
                "phone": "+48 748722212",
                "email": "zs_nowa_ruda@op.pl",
                "ref:regon": "389726379",
                "operator": "Powiat K\u0142odzki",
                "operator:type": "government",
                "amenity": "kindergarten",
                "note": "Parent RSPO: 86837"
            }
        },
        {
            "id": 263371,
            "type": "Feature",
            "geometry": {
                "type": "Point",
                "coordinates": [
                    16.5171,
                    50.58076
                ]
            },
            "properties": {
                "isced:level": "1;2",
                "ref:rspo": 263371,
                "official_name": "Szko\u0142a Podastawowa nr 2, im.janusza Korczaka w Nowej Rudzie, Filia w Nowej Rudzie",
                "name": "Szko\u0142a Podastawowa nr 2, im.janusza Korczaka w Nowej Rudzie, Filia w Nowej Rudzie",
                "addr:postcode": "57-400",
                "addr:city": "Nowa Ruda",
                "addr:street": "Srebrna",
                "addr:housenumber": "11",
                "addr:city:simc": 984278,
                "addr:street:sym_ul": 20732,
                "phone": "+48 748724641",
                "ref:regon": "690594000",
                "operator": "Gmina Miejska Nowa Ruda",
                "operator:type": "government",
                "amenity": "school",
                "note": "Parent RSPO: 79949"
            }
        },
        {
            "id": 91282,
            "type": "Feature",
            "geometry": {
                "type": "Point",
                "coordinates": [
                    16.49603,
                    50.58135
                ]
            },
            "properties": {
                "isced:level": "3",
                "ref:rspo": 91282,
                "official_name": "Liceum Og\u00f3lnokszta\u0142c\u0105ce im. Henryka Sienkiewicza w Nowej Rudzie",
                "name": "Liceum Og\u00f3lnokszta\u0142c\u0105ce",
                "addr:postcode": "57-400",
                "addr:city": "Nowa Ruda",
                "addr:street": "Osiedle Piastowskie",
                "addr:housenumber": "17",
                "addr:city:simc": 984278,
                "addr:street:sym_ul": 16052,
                "phone": "+48 748722577",
                "email": "lo.nowaruda@wp.pl",
                "website": "http:\/\/www.liceum.nowaruda.pl",
                "ref:regon": "891092526",
                "operator": "Powiat K\u0142odzki",
                "operator:type": "government",
                "amenity": "school"
            }
        },
        {
            "id": 79949,
            "type": "Feature",
            "geometry": {
                "type": "Point",
                "coordinates": [
                    16.50299,
                    50.58161
                ]
            },
            "properties": {
                "isced:level": "1;2",
                "ref:rspo": 79949,
                "official_name": "Szko\u0142a Podstawowa nr 2 im. Janusza Korczaka w Nowej Rudzie",
                "name": "Szko\u0142a Podstawowa nr 2",
                "addr:postcode": "57-400",
                "addr:city": "Nowa Ruda",
                "addr:street": "Miko\u0142aja Kopernika",
                "addr:housenumber": "4-6",
                "addr:city:simc": 984278,
                "addr:street:sym_ul": 9282,
                "phone": "+48 748722575",
                "email": "szkola@sp2.nowaruda.pl",
                "website": "http:\/\/www.sp2.nowaruda.pl",
                "ref:regon": "000690594",
                "ref:vatin": "PL8851474185",
                "operator": "Gmina Miejska Nowa Ruda",
                "operator:type": "government",
                "amenity": "school",
                "note": "Children RSPO: 263371"
            }
        },
        {
            "id": 270527,
            "type": "Feature",
            "geometry": {
                "type": "Point",
                "coordinates": [
                    16.50375,
                    50.6031199
                ]
            },
            "properties": {
                "ref:rspo": 270527,
                "official_name": "Zesp\u00f3\u0142 Szkolno-Przedszkolny nr 1 w Nowej Rudzie",
                "name": "Zesp\u00f3\u0142 Szkolno-Przedszkolny nr 1 w Nowej Rudzie",
                "addr:postcode": "57-401",
                "addr:city": "Nowa Ruda",
                "addr:street": "Stara Droga",
                "addr:housenumber": "39",
                "addr:city:simc": 984278,
                "addr:street:sym_ul": 20863,
                "phone": "+48 748722421",
                "email": "szkola@sokol.nowaruda.pl",
                "website": "http:\/\/www.sokol.nowaruda.pl",
                "ref:regon": "382725069",
                "operator": "Gmina Miejska Nowa Ruda",
                "operator:type": "government",
                "landuse": "education",
                "fixme": "amenity=school, amenity=college albo landuse=education w zale\u017cno\u015bci od tego, jakie plac\u00f3wki wchodz\u0105 w sk\u0142ad zespo\u0142u. Sprawd\u017a, kiedy stosowa\u0107 amenity=* a kiedy landuse=education.",
                "note": "Children RSPO: 89626;270528"
            }
        },
        {
            "id": 89626,
            "type": "Feature",
            "geometry": {
                "type": "Point",
                "coordinates": [
                    16.50375,
                    50.6030899
                ]
            },
            "properties": {
                "isced:level": "1;2",
                "ref:rspo": 89626,
                "official_name": "Szko\u0142a Podstawowa nr 6 im. J\u00f3zefa Sokola w Nowej Rudzie",
                "name": "Szko\u0142a Podstawowa nr 6",
                "addr:postcode": "57-401",
                "addr:city": "Nowa Ruda",
                "addr:street": "Stara Droga",
                "addr:housenumber": "39",
                "addr:city:simc": 984278,
                "addr:street:sym_ul": 20863,
                "phone": "+48 748722421",
                "email": "szkola@sokol.nowaruda.pl",
                "website": "http:\/\/www.sokol.nowaruda.pl",
                "ref:regon": "000560584",
                "operator": "Gmina Miejska Nowa Ruda",
                "operator:type": "government",
                "amenity": "school",
                "note": "Parent RSPO: 270527"
            }
        },
        {
            "id": 270528,
            "type": "Feature",
            "geometry": {
                "type": "Point",
                "coordinates": [
                    16.50375,
                    50.603059900000005
                ]
            },
            "properties": {
                "ref:rspo": 270528,
                "official_name": "Przedszkole Miejskie nr 3",
                "name": "Przedszkole Miejskie nr 3",
                "addr:postcode": "57-401",
                "addr:city": "Nowa Ruda",
                "addr:street": "Stara Droga",
                "addr:housenumber": "39",
                "addr:city:simc": 984278,
                "addr:street:sym_ul": 20863,
                "phone": "+48 748722421",
                "email": "szkola@sokol.nowaruda.pl",
                "website": "http:\/\/www.sokol.nowaruda.pl",
                "ref:regon": "382725081",
                "operator": "Gmina Miejska Nowa Ruda",
                "operator:type": "government",
                "amenity": "kindergarten",
                "note": "Parent RSPO: 270527"
            }
        },
        {
            "id": 86812,
            "type": "Feature",
            "geometry": {
                "type": "Point",
                "coordinates": [
                    16.503,
                    50.60376
                ]
            },
            "properties": {
                "ref:rspo": 86812,
                "official_name": "Noworudzka Szko\u0142a Techniczna w Nowej Rudzie",
                "name": "Noworudzka Szko\u0142a Techniczna w Nowej Rudzie",
                "addr:postcode": "57-401",
                "addr:city": "Nowa Ruda",
                "addr:street": "Stara Droga",
                "addr:housenumber": "4",
                "addr:city:simc": 984278,
                "addr:street:sym_ul": 20863,
                "phone": "+48 748722242",
                "email": "szkola@zsp.nowaruda.pl",
                "website": "http:\/\/www.zsp.nowaruda.pl",
                "ref:regon": "020165518",
                "ref:vatin": "PL8851581202",
                "operator": "Powiat K\u0142odzki",
                "operator:type": "government",
                "landuse": "education",
                "fixme": "amenity=school, amenity=college albo landuse=education w zale\u017cno\u015bci od tego, jakie plac\u00f3wki wchodz\u0105 w sk\u0142ad zespo\u0142u. Sprawd\u017a, kiedy stosowa\u0107 amenity=* a kiedy landuse=education.",
                "note": "Children RSPO: 92214;92215"
            }
        },
        {
            "id": 92742,
            "type": "Feature",
            "geometry": {
                "type": "Point",
                "coordinates": [
                    16.503,
                    50.60373
                ]
            },
            "properties": {
                "ref:rspo": 92742,
                "official_name": "Centrum Kszta\u0142cenia \"Profesja\" w Nowej Rudzie",
                "name": "Centrum Kszta\u0142cenia \"Profesja\" w Nowej Rudzie",
                "addr:postcode": "57-401",
                "addr:city": "Nowa Ruda",
                "addr:street": "Stara Droga",
                "addr:housenumber": "4",
                "addr:city:simc": 984278,
                "addr:street:sym_ul": 20863,
                "phone": "+48 748725420",
                "email": "biuro@profesja.org",
                "website": "http:\/\/www.profesja.org",
                "ref:regon": "022024727",
                "ref:vatin": "PL8851013923",
                "operator": "Bogdan Kostecki",
                "operator:type": "private",
                "landuse": "education",
                "fixme": "amenity=school, amenity=college albo landuse=education w zale\u017cno\u015bci od tego, jakie plac\u00f3wki wchodz\u0105 w sk\u0142ad zespo\u0142u. Sprawd\u017a, kiedy stosowa\u0107 amenity=* a kiedy landuse=education.",
                "note": "Children RSPO: 105427;105458"
            }
        },
        {
            "id": 92214,
            "type": "Feature",
            "geometry": {
                "type": "Point",
                "coordinates": [
                    16.503,
                    50.6037
                ]
            },
            "properties": {
                "isced:level": "3",
                "ref:rspo": 92214,
                "official_name": "Bran\u017cowa Szko\u0142a I Stopnia im. Stanis\u0142awa Staszica w Nowej Rudzie",
                "name": "Bran\u017cowa Szko\u0142a I Stopnia",
                "addr:postcode": "57-401",
                "addr:city": "Nowa Ruda",
                "addr:street": "Stara Droga",
                "addr:housenumber": "4",
                "addr:city:simc": 984278,
                "addr:street:sym_ul": 20863,
                "phone": "+48 748722242",
                "email": "szkola@zsp.nowaruda.pl",
                "website": "http:\/\/www.zsp.nowaruda.pl",
                "ref:regon": "891419000",
                "operator": "Powiat K\u0142odzki",
                "operator:type": "government",
                "amenity": "school",
                "note": "Parent RSPO: 86812"
            }
        },
        {
            "id": 92215,
            "type": "Feature",
            "geometry": {
                "type": "Point",
                "coordinates": [
                    16.503,
                    50.60367
                ]
            },
            "properties": {
                "isced:level": "3",
                "ref:rspo": 92215,
                "official_name": "Technikum im. Stanis\u0142awa Staszica w Nowej Rudzie",
                "name": "Technikum",
                "addr:postcode": "57-401",
                "addr:city": "Nowa Ruda",
                "addr:street": "Stara Droga",
                "addr:housenumber": "4",
                "addr:city:simc": 984278,
                "addr:street:sym_ul": 20863,
                "phone": "+48 748722242",
                "email": "szkola@zsp.nowaruda.pl",
                "website": "http:\/\/www.zsp.nowaruda.pl",
                "ref:regon": "891419022",
                "operator": "Powiat K\u0142odzki",
                "operator:type": "government",
                "amenity": "school",
                "note": "Parent RSPO: 86812"
            }
        },
        {
            "id": 105427,
            "type": "Feature",
            "geometry": {
                "type": "Point",
                "coordinates": [
                    16.503,
                    50.60364
                ]
            },
            "properties": {
                "isced:level": "3",
                "ref:rspo": 105427,
                "official_name": "Liceum Og\u00f3lnokszta\u0142c\u0105ce dla Doros\u0142ych Centrum Kszta\u0142cenia \"Profesja\" w Nowej Rudzie",
                "name": "Liceum Og\u00f3lnokszta\u0142c\u0105ce dla Doros\u0142ych Centrum Kszta\u0142cenia \"Profesja\" w Nowej Rudzie",
                "addr:postcode": "57-401",
                "addr:city": "Nowa Ruda",
                "addr:street": "Stara Droga",
                "addr:housenumber": "4",
                "addr:city:simc": 984278,
                "addr:street:sym_ul": 20863,
                "phone": "+48 509417213",
                "email": "biuro@profesja.org",
                "website": "http:\/\/www.profesja.org",
                "ref:regon": "022047450",
                "operator": "Bogdan Kostecki",
                "operator:type": "private",
                "amenity": "school",
                "note": "Parent RSPO: 92742"
            }
        },
        {
            "id": 105458,
            "type": "Feature",
            "geometry": {
                "type": "Point",
                "coordinates": [
                    16.503,
                    50.60361
                ]
            },
            "properties": {
                "isced:level": "4",
                "ref:rspo": 105458,
                "official_name": "Szko\u0142a Policealna Zaoczna Centrum Kszta\u0142cenia \"Profesja\" w Nowej Rudzie",
                "name": "Szko\u0142a Policealna Zaoczna Centrum Kszta\u0142cenia \"Profesja\" w Nowej Rudzie",
                "addr:postcode": "57-401",
                "addr:city": "Nowa Ruda",
                "addr:street": "Stara Droga",
                "addr:housenumber": "4",
                "addr:city:simc": 984278,
                "addr:street:sym_ul": 20863,
                "phone": "+48 509417213",
                "email": "biuro@profesja.org",
                "website": "http:\/\/www.profesja.org",
                "ref:regon": "022047869",
                "operator": "Bogdan Kostecki",
                "operator:type": "private",
                "amenity": "college",
                "note": "Parent RSPO: 92742"
            }
        }
    ]
}