{
    "type": "FeatureCollection",
    "features": [
        {
            "id": 266494,
            "type": "Feature",
            "geometry": {
                "type": "Point",
                "coordinates": [
                    16.6450299,
                    50.42768
                ]
            },
            "properties": {
                "ref:rspo": 266494,
                "official_name": "O\u015brodek Finansowo-Szkoleniowy \"Krezus\" Henryk Czerhoniak Niepubliczna Plac\u00f3wka Kszta\u0142cenia Ustawicznego",
                "name": "O\u015brodek Finansowo-Szkoleniowy \"Krezus\" Henryk Czerhoniak Niepubliczna Plac\u00f3wka Kszta\u0142cenia Ustawicznego",
                "addr:postcode": "57-300",
                "addr:city": "K\u0142odzko",
                "addr:street": "Doktora Janusza Korczaka",
                "addr:housenumber": "1",
                "addr:city:simc": 984077,
                "addr:street:sym_ul": 9326,
                "phone": "+48 603116161",
                "email": "biuro@ofs-krezus.pl",
                "website": "http:\/\/www.ofs-krezus.pl",
                "ref:regon": "369523410",
                "ref:vatin": "PL8811028456",
                "operator": "Henryk Czerhoniak",
                "operator:type": "private",
                "fixme": "w zale\u017cno\u015bci od przedmiotu dzia\u0142alno\u015bci (np. amenity=training + training=*, amenity=dancing_school, amenity=language_school, amenity=music_school)"
            }
        },
        {
            "id": 105746,
            "type": "Feature",
            "geometry": {
                "type": "Point",
                "coordinates": [
                    16.6454099,
                    50.43126
                ]
            },
            "properties": {
                "ref:rspo": 105746,
                "official_name": "Art-Masa\u017c Centrum Szkoleniowe w K\u0142odzku",
                "name": "Art-Masa\u017c Centrum Szkoleniowe w K\u0142odzku",
                "addr:postcode": "57-300",
                "addr:city": "K\u0142odzko",
                "addr:street": "Wolno\u015bci",
                "addr:housenumber": "83",
                "addr:city:simc": 984077,
                "addr:street:sym_ul": 24687,
                "phone": "+48 781186777",
                "email": "kursy@artmasaz.com",
                "website": "http:\/\/www.artmasaz.com",
                "ref:regon": "022041884",
                "ref:vatin": "PL8831738037",
                "operator": "Katarzyna Kostka",
                "operator:type": "private",
                "fixme": "w zale\u017cno\u015bci od przedmiotu dzia\u0142alno\u015bci (np. amenity=training + training=*, amenity=dancing_school, amenity=language_school, amenity=music_school)"
            }
        },
        {
            "id": 49704,
            "type": "Feature",
            "geometry": {
                "type": "Point",
                "coordinates": [
                    16.6464399,
                    50.43177
                ]
            },
            "properties": {
                "isced:level": "1;2",
                "ref:rspo": 49704,
                "official_name": "Szko\u0142a Podstawowa nr 6 im. Unii Europejskiej",
                "name": "Szko\u0142a Podstawowa nr 6",
                "addr:postcode": "57-300",
                "addr:city": "K\u0142odzko",
                "addr:street": "Bohater\u00f3w Getta",
                "addr:housenumber": "22",
                "addr:city:simc": 984077,
                "addr:street:sym_ul": 1637,
                "phone": "+48 748656342",
                "email": "sp6-klodzko@2gb.pl",
                "website": "http:\/\/www.sp6klodzko.za.pl",
                "ref:regon": "001008989",
                "ref:vatin": "PL8831013328",
                "operator": "Gmina Miejska K\u0142odzko",
                "operator:type": "government",
                "amenity": "school"
            }
        },
        {
            "id": 125342,
            "type": "Feature",
            "geometry": {
                "type": "Point",
                "coordinates": [
                    16.64968,
                    50.43199
                ]
            },
            "properties": {
                "ref:rspo": 125342,
                "official_name": "Niepubliczny Terapeutyczny Punkt Przedszkolny Subrideo",
                "name": "Niepubliczny Terapeutyczny Punkt Przedszkolny Subrideo",
                "addr:postcode": "57-300",
                "addr:city": "K\u0142odzko",
                "addr:street": "Harcerzy",
                "addr:housenumber": "6",
                "addr:door": "1",
                "addr:city:simc": 984077,
                "addr:street:sym_ul": 6525,
                "phone": "+48 728924426",
                "email": "kontakt@subrideo.pl",
                "ref:regon": "022505065",
                "ref:vatin": "PL8871584652",
                "operator": "Daniel Sobczyk",
                "operator:type": "private",
                "amenity": "kindergarten"
            }
        },
        {
            "id": 11421,
            "type": "Feature",
            "geometry": {
                "type": "Point",
                "coordinates": [
                    16.6625696,
                    50.4323867
                ]
            },
            "properties": {
                "ref:rspo": 11421,
                "official_name": "Zesp\u00f3\u0142 Szk\u00f3\u0142 Specjalnych w K\u0142odzku",
                "name": "Zesp\u00f3\u0142 Szk\u00f3\u0142 Specjalnych w K\u0142odzku",
                "addr:postcode": "57-300",
                "addr:city": "K\u0142odzko",
                "addr:street": "Stanis\u0142awa Wyspia\u0144skiego",
                "addr:housenumber": "2",
                "addr:city:simc": 984077,
                "addr:street:sym_ul": 25084,
                "phone": "+48 748673631",
                "email": "szkola54@wp.pl",
                "ref:regon": "891097937",
                "ref:vatin": "PL8831011163",
                "operator": "Powiat K\u0142odzki",
                "operator:type": "government",
                "landuse": "education",
                "fixme": "amenity=school, amenity=college albo landuse=education w zale\u017cno\u015bci od tego, jakie plac\u00f3wki wchodz\u0105 w sk\u0142ad zespo\u0142u. Sprawd\u017a, kiedy stosowa\u0107 amenity=* a kiedy landuse=education.",
                "note": "Children RSPO: 83789;92216;92218"
            }
        },
        {
            "id": 92216,
            "type": "Feature",
            "geometry": {
                "type": "Point",
                "coordinates": [
                    16.6625696,
                    50.4323567
                ]
            },
            "properties": {
                "isced:level": "1;2",
                "ref:rspo": 92216,
                "official_name": "Szko\u0142a Podstawowa Specjalna nr 9 w K\u0142odzku",
                "name": "Szko\u0142a Podstawowa Specjalna nr 9 w K\u0142odzku",
                "addr:postcode": "57-300",
                "addr:city": "K\u0142odzko",
                "addr:street": "Stanis\u0142awa Wyspia\u0144skiego",
                "addr:housenumber": "2",
                "addr:city:simc": 984077,
                "addr:street:sym_ul": 25084,
                "phone": "+48 748673631",
                "email": "szkola54@wp.pl",
                "ref:regon": "000691323",
                "operator": "Powiat K\u0142odzki",
                "operator:type": "government",
                "amenity": "school",
                "note": "Parent RSPO: 11421"
            }
        },
        {
            "id": 92218,
            "type": "Feature",
            "geometry": {
                "type": "Point",
                "coordinates": [
                    16.6625696,
                    50.432326700000004
                ]
            },
            "properties": {
                "ref:rspo": 92218,
                "official_name": "Trzyletnia Szko\u0142a Specjalna Przysposabiaj\u0105ca do Pracy w K\u0142odzku",
                "name": "Trzyletnia Szko\u0142a Specjalna Przysposabiaj\u0105ca do Pracy w K\u0142odzku",
                "addr:postcode": "57-300",
                "addr:city": "K\u0142odzko",
                "addr:street": "Stanis\u0142awa Wyspia\u0144skiego",
                "addr:housenumber": "2",
                "addr:city:simc": 984077,
                "addr:street:sym_ul": 25084,
                "phone": "+48 748673631",
                "email": "szkola54@wp.pl",
                "ref:regon": "020363000",
                "operator": "Powiat K\u0142odzki",
                "operator:type": "government",
                "amenity": "school",
                "note": "Parent RSPO: 11421"
            }
        },
        {
            "id": 11595,
            "type": "Feature",
            "geometry": {
                "type": "Point",
                "coordinates": [
                    16.65223,
                    50.43315
                ]
            },
            "properties": {
                "ref:rspo": 11595,
                "official_name": "K\u0142odzka Szko\u0142a Przedsi\u0119biorczo\u015bci w K\u0142odzku",
                "name": "K\u0142odzka Szko\u0142a Przedsi\u0119biorczo\u015bci w K\u0142odzku",
                "addr:postcode": "57-300",
                "addr:city": "K\u0142odzko",
                "addr:street": "Szkolna",
                "addr:housenumber": "8",
                "addr:city:simc": 984077,
                "addr:street:sym_ul": 21970,
                "phone": "+48 748672174",
                "email": "biuro.ksp@onet.eu",
                "website": "http:\/\/www.ksp.klodzko.pl",
                "ref:regon": "000185181",
                "ref:vatin": "PL8831009373",
                "operator": "Powiat K\u0142odzki",
                "operator:type": "government",
                "landuse": "education",
                "fixme": "amenity=school, amenity=college albo landuse=education w zale\u017cno\u015bci od tego, jakie plac\u00f3wki wchodz\u0105 w sk\u0142ad zespo\u0142u. Sprawd\u017a, kiedy stosowa\u0107 amenity=* a kiedy landuse=education.",
                "note": "Children RSPO: 79315;80452;89882;118879;275552"
            }
        },
        {
            "id": 92768,
            "type": "Feature",
            "geometry": {
                "type": "Point",
                "coordinates": [
                    16.65223,
                    50.433119999999995
                ]
            },
            "properties": {
                "ref:rspo": 92768,
                "official_name": "Szko\u0142a Ekonomiczno-Us\u0142ugowa w K\u0142odzku",
                "name": "Szko\u0142a Ekonomiczno-Us\u0142ugowa w K\u0142odzku",
                "addr:postcode": "57-300",
                "addr:city": "K\u0142odzko",
                "addr:street": "Szkolna",
                "addr:housenumber": "8",
                "addr:city:simc": 984077,
                "addr:street:sym_ul": 21970,
                "phone": "+48 746470616",
                "email": "szkola.seu@poczta.fm",
                "ref:regon": "022026927",
                "ref:vatin": "PL8831611213",
                "operator": "Sp\u00f3\u0142ka Cywilna Ryszard Plata Weronika Krzelowska",
                "operator:type": "private",
                "landuse": "education",
                "fixme": "amenity=school, amenity=college albo landuse=education w zale\u017cno\u015bci od tego, jakie plac\u00f3wki wchodz\u0105 w sk\u0142ad zespo\u0142u. Sprawd\u017a, kiedy stosowa\u0107 amenity=* a kiedy landuse=education."
            }
        },
        {
            "id": 79315,
            "type": "Feature",
            "geometry": {
                "type": "Point",
                "coordinates": [
                    16.65223,
                    50.43309
                ]
            },
            "properties": {
                "isced:level": "3",
                "ref:rspo": 79315,
                "official_name": "Bran\u017cowa Szko\u0142a I Stopnia nr 2",
                "name": "Bran\u017cowa Szko\u0142a I Stopnia nr 2",
                "addr:postcode": "57-300",
                "addr:city": "K\u0142odzko",
                "addr:street": "Szkolna",
                "addr:housenumber": "8",
                "addr:city:simc": 984077,
                "addr:street:sym_ul": 21970,
                "phone": "+48 748672174",
                "email": "biuro.ksp@onet.eu",
                "website": "http:\/\/www.ksp.klodzko.pl",
                "ref:regon": "891420462",
                "operator": "Powiat K\u0142odzki",
                "operator:type": "government",
                "amenity": "school",
                "note": "Parent RSPO: 11595"
            }
        },
        {
            "id": 80452,
            "type": "Feature",
            "geometry": {
                "type": "Point",
                "coordinates": [
                    16.65223,
                    50.43306
                ]
            },
            "properties": {
                "isced:level": "3",
                "ref:rspo": 80452,
                "official_name": "Technikum nr 2 w K\u0142odzku",
                "name": "Technikum nr 2 w K\u0142odzku",
                "addr:postcode": "57-300",
                "addr:city": "K\u0142odzko",
                "addr:street": "Szkolna",
                "addr:housenumber": "8",
                "addr:city:simc": 984077,
                "addr:street:sym_ul": 21970,
                "phone": "+48 748672174",
                "email": "biuro.ksp@onet.eu",
                "website": "http:\/\/www.ksp.klodzko.pl",
                "ref:regon": "891420031",
                "operator": "Powiat K\u0142odzki",
                "operator:type": "government",
                "amenity": "school",
                "note": "Parent RSPO: 11595"
            }
        },
        {
            "id": 89882,
            "type": "Feature",
            "geometry": {
                "type": "Point",
                "coordinates": [
                    16.65223,
                    50.433029999999995
                ]
            },
            "properties": {
                "ref:rspo": 89882,
                "official_name": "Centrum Kszta\u0142cenia Zawodowego w K\u0142odzkiej Szkole Przedsi\u0119biorczo\u015bci w K\u0142odzku",
                "name": "Centrum Kszta\u0142cenia Zawodowego w K\u0142odzkiej Szkole Przedsi\u0119biorczo\u015bci w K\u0142odzku",
                "addr:postcode": "57-300",
                "addr:city": "K\u0142odzko",
                "addr:street": "Szkolna",
                "addr:housenumber": "8",
                "addr:city:simc": 984077,
                "addr:street:sym_ul": 21970,
                "phone": "+48 748672174",
                "email": "biuro.ksp@onet.eu",
                "website": "http:\/\/www.ksp.klodzko.pl",
                "ref:regon": "022016716",
                "operator": "Powiat K\u0142odzki",
                "operator:type": "government",
                "fixme": "w zale\u017cno\u015bci od przedmiotu dzia\u0142alno\u015bci (np. amenity=training + training=*, amenity=dancing_school, amenity=language_school, amenity=music_school) albo amenity=school, amenity=college, albo landuse=education w zale\u017cno\u015bci od tego, jakie plac\u00f3wki wchodz\u0105 w sk\u0142ad zespo\u0142u. Sprawd\u017a, kiedy stosowa\u0107 amenity=* a kiedy landuse=education.",
                "note": "Parent RSPO: 11595"
            }
        },
        {
            "id": 118879,
            "type": "Feature",
            "geometry": {
                "type": "Point",
                "coordinates": [
                    16.65223,
                    50.433
                ]
            },
            "properties": {
                "isced:level": "4",
                "ref:rspo": 118879,
                "official_name": "Szko\u0142a Policealna nr 2",
                "name": "Szko\u0142a Policealna nr 2",
                "addr:postcode": "57-300",
                "addr:city": "K\u0142odzko",
                "addr:street": "Szkolna",
                "addr:housenumber": "8",
                "addr:city:simc": 984077,
                "addr:street:sym_ul": 21970,
                "phone": "+48 748672174",
                "email": "biuro.ksp@onet.eu",
                "website": "http:\/\/www.ksp.klodzko.pl",
                "ref:regon": "022211790",
                "operator": "Powiat K\u0142odzki",
                "operator:type": "government",
                "amenity": "college",
                "note": "Parent RSPO: 11595"
            }
        },
        {
            "id": 275552,
            "type": "Feature",
            "geometry": {
                "type": "Point",
                "coordinates": [
                    16.65223,
                    50.43297
                ]
            },
            "properties": {
                "isced:level": "3",
                "ref:rspo": 275552,
                "official_name": "Bran\u017cowa Szko\u0142a II Stopnia w K\u0142odzku",
                "name": "Bran\u017cowa Szko\u0142a II Stopnia w K\u0142odzku",
                "addr:postcode": "57-300",
                "addr:city": "K\u0142odzko",
                "addr:street": "Szkolna",
                "addr:housenumber": "8",
                "addr:city:simc": 984077,
                "addr:street:sym_ul": 21970,
                "phone": "+48 748672174",
                "email": "biuro.ksp@onet.eu",
                "website": "http:\/\/www.ksp.klodzko.pl",
                "ref:regon": "386933920",
                "operator": "Powiat K\u0142odzki",
                "operator:type": "government",
                "amenity": "school",
                "note": "Parent RSPO: 11595"
            }
        },
        {
            "id": 90208,
            "type": "Feature",
            "geometry": {
                "type": "Point",
                "coordinates": [
                    16.65223,
                    50.432939999999995
                ]
            },
            "properties": {
                "ref:rspo": 90208,
                "official_name": "Powiatowa Poradnia Psychologiczno-Pedagogiczna w K\u0142odzku",
                "name": "Powiatowa Poradnia Psychologiczno-Pedagogiczna w K\u0142odzku",
                "addr:postcode": "57-300",
                "addr:city": "K\u0142odzko",
                "addr:street": "Szkolna",
                "addr:housenumber": "8",
                "addr:city:simc": 984077,
                "addr:street:sym_ul": 21970,
                "phone": "+48 748673769",
                "email": "por.kl@pcpp.klodzko.pl",
                "ref:regon": "890040390",
                "operator": "Powiat K\u0142odzki",
                "operator:type": "government",
                "healthcare": "counselling",
                "counselling_type": "education",
                "fixme": "w zale\u017cno\u015bci od przedmiotu dzia\u0142alno\u015bci (np. healthcare=counselling + counselling_type=education albo healthcare=psychotherapist)",
                "note": "Children RSPO: 275905;275928;275930Parent RSPO: 79941"
            }
        },
        {
            "id": 129203,
            "type": "Feature",
            "geometry": {
                "type": "Point",
                "coordinates": [
                    16.66561,
                    50.4338399
                ]
            },
            "properties": {
                "ref:rspo": 129203,
                "official_name": "Gabinet Kosmetyki Estetycznej-Studio Wiza\u017cu I Stylizacji",
                "name": "Gabinet Kosmetyki Estetycznej-Studio Wiza\u017cu I Stylizacji",
                "addr:postcode": "57-300",
                "addr:city": "K\u0142odzko",
                "addr:street": "Adama Mickiewicza",
                "addr:housenumber": "11",
                "addr:city:simc": 984077,
                "addr:street:sym_ul": 12740,
                "phone": "+48 663288441",
                "email": "kontakt@beatapogoda.pl",
                "website": "http:\/\/beatapogoda.pl",
                "ref:regon": "362529190",
                "operator": "Beata Pogoda",
                "operator:type": "private",
                "fixme": "w zale\u017cno\u015bci od przedmiotu dzia\u0142alno\u015bci (np. amenity=training + training=*, amenity=dancing_school, amenity=language_school, amenity=music_school)"
            }
        },
        {
            "id": 20858,
            "type": "Feature",
            "geometry": {
                "type": "Point",
                "coordinates": [
                    16.64983,
                    50.43406
                ]
            },
            "properties": {
                "ref:rspo": 20858,
                "official_name": "Przedszkole Nr4 z Oddzia\u0142ami Integracyjnymi I Oddzia\u0142ami Specjalnymi im. Jana Brzechwy",
                "name": "Przedszkole Nr4 z Oddzia\u0142ami Integracyjnymi I Oddzia\u0142ami Specjalnymi",
                "addr:postcode": "57-300",
                "addr:city": "K\u0142odzko",
                "addr:street": "Bohater\u00f3w Getta",
                "addr:housenumber": "9",
                "addr:city:simc": 984077,
                "addr:street:sym_ul": 1637,
                "phone": "+48 748672250",
                "email": "przedszkole@p4.klodzko.pl",
                "ref:regon": "020581910",
                "ref:vatin": "PL8831795650",
                "operator": "Gmina Miejska K\u0142odzko",
                "operator:type": "government",
                "amenity": "kindergarten"
            }
        },
        {
            "id": 268910,
            "type": "Feature",
            "geometry": {
                "type": "Point",
                "coordinates": [
                    16.65251,
                    50.4344899
                ]
            },
            "properties": {
                "ref:rspo": 268910,
                "official_name": "Przedszkole Niepubliczne Zgromadzenia Si\u00f3str S\u0142u\u017cebniczek Naj\u015bwi\u0119tszej Maryi Panny Niepokalanie Pocz\u0119tej",
                "name": "Przedszkole Niepubliczne Zgromadzenia Si\u00f3str S\u0142u\u017cebniczek Naj\u015bwi\u0119tszej Maryi Panny Niepokalanie Pocz\u0119tej",
                "addr:postcode": "57-300",
                "addr:city": "K\u0142odzko",
                "addr:street": "Wandy",
                "addr:housenumber": "6",
                "addr:city:simc": 984077,
                "addr:street:sym_ul": 23611,
                "phone": "+48 748672336",
                "email": "danuta-misz@wp.pl",
                "ref:regon": "381283340",
                "operator": "Zgromadzenie Si\u00f3str S\u0142u\u017cebniczek Naj\u015bwi\u0119tszej Maryi Panny Niepokalanie Pocz\u0119tej, Prowincja Opolska",
                "operator:type": "religious",
                "amenity": "kindergarten"
            }
        },
        {
            "id": 105482,
            "type": "Feature",
            "geometry": {
                "type": "Point",
                "coordinates": [
                    16.65049,
                    50.43459
                ]
            },
            "properties": {
                "ref:rspo": 105482,
                "official_name": "I Niepubliczna Poradnia Psychologiczno-Pedagogiczna w K\u0142odzku",
                "name": "I Niepubliczna Poradnia Psychologiczno-Pedagogiczna w K\u0142odzku",
                "addr:postcode": "57-300",
                "addr:city": "K\u0142odzko",
                "addr:street": "Stefana Okrzei",
                "addr:housenumber": "8",
                "addr:city:simc": 984077,
                "addr:street:sym_ul": 14914,
                "phone": "+48 748671302",
                "email": "oue@wp.pl",
                "website": "http:\/\/www.centrum-edukacji.com",
                "ref:regon": "022047898",
                "ref:vatin": "PL8811064073",
                "operator": "Centrum Edukacji W K\u0142odzku Sp\u00f3\u0142ka Z Ograniczon\u0105 Odpowiedzialno\u015bci\u0105",
                "operator:type": "private",
                "healthcare": "counselling",
                "counselling_type": "education",
                "fixme": "w zale\u017cno\u015bci od przedmiotu dzia\u0142alno\u015bci (np. healthcare=counselling + counselling_type=education albo healthcare=psychotherapist)"
            }
        },
        {
            "id": 272327,
            "type": "Feature",
            "geometry": {
                "type": "Point",
                "coordinates": [
                    16.65049,
                    50.43456
                ]
            },
            "properties": {
                "ref:rspo": 272327,
                "official_name": "Wies\u0142aw Wo\u015b Prywatna Szko\u0142a Jazdy",
                "name": "Wies\u0142aw Wo\u015b Prywatna Szko\u0142a Jazdy",
                "addr:postcode": "57-300",
                "addr:city": "K\u0142odzko",
                "addr:street": "Stefana Okrzei",
                "addr:housenumber": "8",
                "addr:door": "3",
                "addr:city:simc": 984077,
                "addr:street:sym_ul": 14914,
                "phone": "+48 748676008",
                "email": "wos.w@onet.pl",
                "website": "http:\/\/www.wieslawows.pl",
                "ref:regon": "384125830",
                "ref:vatin": "PL8811107871",
                "operator": "Wies\u0142aw Wo\u015b",
                "operator:type": "private",
                "fixme": "w zale\u017cno\u015bci od przedmiotu dzia\u0142alno\u015bci (np. amenity=training + training=*, amenity=dancing_school, amenity=language_school, amenity=music_school)"
            }
        },
        {
            "id": 271133,
            "type": "Feature",
            "geometry": {
                "type": "Point",
                "coordinates": [
                    16.65287,
                    50.43464
                ]
            },
            "properties": {
                "ref:rspo": 271133,
                "official_name": "Art Pmu Academy dla Doros\u0142ych",
                "name": "Art Pmu Academy dla Doros\u0142ych",
                "addr:postcode": "57-300",
                "addr:city": "K\u0142odzko",
                "addr:street": "Wandy",
                "addr:housenumber": "1a",
                "addr:city:simc": 984077,
                "addr:street:sym_ul": 23611,
                "phone": "+48 577841006",
                "email": "art.pmu.paula.eliasz@gmail.com",
                "website": "http:\/\/www.art-pmu.pl",
                "ref:regon": "383107020",
                "operator": "Paulina Eliasz",
                "operator:type": "private",
                "fixme": "w zale\u017cno\u015bci od przedmiotu dzia\u0142alno\u015bci (np. amenity=training + training=*, amenity=dancing_school, amenity=language_school, amenity=music_school)"
            }
        },
        {
            "id": 126024,
            "type": "Feature",
            "geometry": {
                "type": "Point",
                "coordinates": [
                    16.65407,
                    50.43495
                ]
            },
            "properties": {
                "ref:rspo": 126024,
                "official_name": "Szko\u0142a J\u0119zyka Angielskiego \"Rainbow\" Sylwia Downarowicz",
                "name": "Szko\u0142a J\u0119zyka Angielskiego \"Rainbow\" Sylwia Downarowicz",
                "addr:postcode": "57-300",
                "addr:city": "K\u0142odzko",
                "addr:street": "Ksawerego Dunikowskiego",
                "addr:housenumber": "1",
                "addr:door": "II\/46",
                "addr:city:simc": 984077,
                "addr:street:sym_ul": 4399,
                "phone": "+48 608292207",
                "email": "sylwetka1@poczta.onet.pl",
                "ref:regon": "360140067",
                "operator": "Sylwia Downarowicz",
                "operator:type": "private",
                "fixme": "w zale\u017cno\u015bci od przedmiotu dzia\u0142alno\u015bci (np. amenity=training + training=*, amenity=dancing_school, amenity=language_school, amenity=music_school)"
            }
        },
        {
            "id": 79941,
            "type": "Feature",
            "geometry": {
                "type": "Point",
                "coordinates": [
                    16.64898,
                    50.43517
                ]
            },
            "properties": {
                "ref:rspo": 79941,
                "official_name": "Powiatowe Centrum Psychologiczno-Pedagogiczne w K\u0142odzku",
                "name": "Powiatowe Centrum Psychologiczno-Pedagogiczne w K\u0142odzku",
                "addr:postcode": "57-300",
                "addr:city": "K\u0142odzko",
                "addr:street": "Bohater\u00f3w Getta",
                "addr:housenumber": "6D",
                "addr:city:simc": 984077,
                "addr:street:sym_ul": 1637,
                "phone": "+48 746475141",
                "email": "kadry@pcpp.klodzko.pl",
                "ref:regon": "020912850",
                "ref:vatin": "PL8831819913",
                "operator": "Powiat K\u0142odzki",
                "operator:type": "government",
                "landuse": "education",
                "fixme": "amenity=school, amenity=college albo landuse=education w zale\u017cno\u015bci od tego, jakie plac\u00f3wki wchodz\u0105 w sk\u0142ad zespo\u0142u. Sprawd\u017a, kiedy stosowa\u0107 amenity=* a kiedy landuse=education.",
                "note": "Children RSPO: 90208;131219"
            }
        },
        {
            "id": 86777,
            "type": "Feature",
            "geometry": {
                "type": "Point",
                "coordinates": [
                    16.64898,
                    50.43514
                ]
            },
            "properties": {
                "ref:rspo": 86777,
                "official_name": "Zesp\u00f3\u0142 Szk\u00f3\u0142 Technicznych",
                "name": "Zesp\u00f3\u0142 Szk\u00f3\u0142 Technicznych",
                "addr:postcode": "57-300",
                "addr:city": "K\u0142odzko",
                "addr:street": "Bohater\u00f3w Getta",
                "addr:housenumber": "6",
                "addr:city:simc": 984077,
                "addr:street:sym_ul": 1637,
                "phone": "+48 748672413",
                "email": "zst.klodzko@ng.pl",
                "website": "http:\/\/zst.klodzko.pl",
                "ref:regon": "000197333",
                "ref:vatin": "PL8831387098",
                "operator": "Powiat K\u0142odzki",
                "operator:type": "government",
                "landuse": "education",
                "fixme": "amenity=school, amenity=college albo landuse=education w zale\u017cno\u015bci od tego, jakie plac\u00f3wki wchodz\u0105 w sk\u0142ad zespo\u0142u. Sprawd\u017a, kiedy stosowa\u0107 amenity=* a kiedy landuse=education.",
                "note": "Children RSPO: 92151;92153;92154;92157"
            }
        },
        {
            "id": 131219,
            "type": "Feature",
            "geometry": {
                "type": "Point",
                "coordinates": [
                    16.64898,
                    50.43511
                ]
            },
            "properties": {
                "ref:rspo": 131219,
                "official_name": "Biblioteka Pedagogiczna w K\u0142odzku",
                "name": "Biblioteka Pedagogiczna w K\u0142odzku",
                "addr:postcode": "57-300",
                "addr:city": "K\u0142odzko",
                "addr:street": "Bohater\u00f3w Getta",
                "addr:housenumber": "6c",
                "addr:city:simc": 984077,
                "addr:street:sym_ul": 1637,
                "phone": "+48 746474893",
                "email": "bibliotekaped.kl@pcpp.klodzko.pl",
                "ref:regon": "365052592",
                "operator": "Powiat K\u0142odzki",
                "operator:type": "government",
                "amenity": "library",
                "note": "Children RSPO: 275731Parent RSPO: 79941"
            }
        },
        {
            "id": 92151,
            "type": "Feature",
            "geometry": {
                "type": "Point",
                "coordinates": [
                    16.64898,
                    50.43508
                ]
            },
            "properties": {
                "isced:level": "3",
                "ref:rspo": 92151,
                "official_name": "Bran\u017cowa Szko\u0142a I Stopnia nr 1 im. Prof. Wac\u0142awa \u017benczykowskiego w K\u0142odzku",
                "name": "Bran\u017cowa Szko\u0142a I Stopnia nr 1",
                "addr:postcode": "57-300",
                "addr:city": "K\u0142odzko",
                "addr:street": "Bohater\u00f3w Getta",
                "addr:housenumber": "6",
                "addr:city:simc": 984077,
                "addr:street:sym_ul": 1637,
                "phone": "+48 748672413",
                "email": "zst.klodzko@ng.pl",
                "website": "http:\/\/zst.klodzko.pl",
                "ref:regon": "891421310",
                "operator": "Powiat K\u0142odzki",
                "operator:type": "government",
                "amenity": "school",
                "note": "Parent RSPO: 86777"
            }
        },
        {
            "id": 92153,
            "type": "Feature",
            "geometry": {
                "type": "Point",
                "coordinates": [
                    16.64898,
                    50.43505
                ]
            },
            "properties": {
                "isced:level": "3",
                "ref:rspo": 92153,
                "official_name": "Liceum Og\u00f3lnokszta\u0142c\u0105ce dla Doros\u0142ych w K\u0142odzku",
                "name": "Liceum Og\u00f3lnokszta\u0142c\u0105ce dla Doros\u0142ych w K\u0142odzku",
                "addr:postcode": "57-300",
                "addr:city": "K\u0142odzko",
                "addr:street": "Bohater\u00f3w Getta",
                "addr:housenumber": "6",
                "addr:city:simc": 984077,
                "addr:street:sym_ul": 1637,
                "phone": "+48 748672414",
                "email": "zst.klodzko@ng.pl",
                "website": "http:\/\/zst.klodzko.pl",
                "ref:regon": "020906110",
                "operator": "Powiat K\u0142odzki",
                "operator:type": "government",
                "amenity": "school",
                "note": "Parent RSPO: 86777"
            }
        },
        {
            "id": 92154,
            "type": "Feature",
            "geometry": {
                "type": "Point",
                "coordinates": [
                    16.64898,
                    50.43502
                ]
            },
            "properties": {
                "isced:level": "3",
                "ref:rspo": 92154,
                "official_name": "Technikum nr 1 im. Prof. Wac\u0142awa \u017benczykowskiego w K\u0142odzku",
                "name": "Technikum nr 1",
                "addr:postcode": "57-300",
                "addr:city": "K\u0142odzko",
                "addr:street": "Bohater\u00f3w Getta",
                "addr:housenumber": "6",
                "addr:city:simc": 984077,
                "addr:street:sym_ul": 1637,
                "phone": "+48 748672413",
                "email": "zst.klodzko@ng.pl",
                "website": "http:\/\/zst.klodzko.pl",
                "ref:regon": "891421332",
                "operator": "Powiat K\u0142odzki",
                "operator:type": "government",
                "amenity": "school",
                "note": "Parent RSPO: 86777"
            }
        },
        {
            "id": 92157,
            "type": "Feature",
            "geometry": {
                "type": "Point",
                "coordinates": [
                    16.64898,
                    50.43499
                ]
            },
            "properties": {
                "isced:level": "4",
                "ref:rspo": 92157,
                "official_name": "Szko\u0142a Policealna nr 1 im. Prof. Wac\u0142awa \u017benczykowskiego w K\u0142odzku",
                "name": "Szko\u0142a Policealna nr 1",
                "addr:postcode": "57-300",
                "addr:city": "K\u0142odzko",
                "addr:street": "Bohater\u00f3w Getta",
                "addr:housenumber": "6",
                "addr:city:simc": 984077,
                "addr:street:sym_ul": 1637,
                "phone": "+48 748672413",
                "email": "zst.klodzko@ng.pl",
                "website": "http:\/\/zst.klodzko.pl",
                "ref:regon": "891421390",
                "operator": "Powiat K\u0142odzki",
                "operator:type": "government",
                "amenity": "college",
                "note": "Parent RSPO: 86777"
            }
        },
        {
            "id": 21816,
            "type": "Feature",
            "geometry": {
                "type": "Point",
                "coordinates": [
                    16.63975,
                    50.4353
                ]
            },
            "properties": {
                "ref:rspo": 21816,
                "official_name": "Przedszkole Niepubliczne \" Przyjaci\u00f3\u0142 Dzieci\"",
                "name": "Przedszkole Niepubliczne \" Przyjaci\u00f3\u0142 Dzieci\"",
                "addr:postcode": "57-300",
                "addr:city": "K\u0142odzko",
                "addr:street": "Przyjaci\u00f3\u0142 Dzieci",
                "addr:housenumber": "3",
                "addr:city:simc": 984077,
                "addr:street:sym_ul": 17919,
                "phone": "+48 533234704",
                "email": "luckraj@wp.pl",
                "website": "http:\/\/www.nppd.pl",
                "ref:regon": "021976673",
                "ref:vatin": "PL8871512138",
                "operator": "Monika Hrobok-\u017bytnicka",
                "operator:type": "private",
                "amenity": "kindergarten"
            }
        },
        {
            "id": 131443,
            "type": "Feature",
            "geometry": {
                "type": "Point",
                "coordinates": [
                    16.6494399,
                    50.43535
                ]
            },
            "properties": {
                "ref:rspo": 131443,
                "official_name": "Przedszkole nr 2 w K\u0142odzku",
                "name": "Przedszkole nr 2 w K\u0142odzku",
                "addr:postcode": "57-300",
                "addr:city": "K\u0142odzko",
                "addr:street": "Bohater\u00f3w Getta",
                "addr:housenumber": "4",
                "addr:city:simc": 984077,
                "addr:street:sym_ul": 1637,
                "phone": "+48 748672724",
                "email": "klodzko.p2@gmail.com",
                "ref:regon": "365177862",
                "ref:vatin": "PL8831860608",
                "operator": "Gmina Miejska K\u0142odzko",
                "operator:type": "government",
                "amenity": "kindergarten"
            }
        },
        {
            "id": 103856,
            "type": "Feature",
            "geometry": {
                "type": "Point",
                "coordinates": [
                    16.65332,
                    50.4355199
                ]
            },
            "properties": {
                "ref:rspo": 103856,
                "official_name": "Agencja Us\u0142ug O\u015bwiatowych \"Omnibus\" Sp. z o.o. w K\u0142odzku",
                "name": "Agencja Us\u0142ug O\u015bwiatowych \"Omnibus\" Sp. z o.o. w K\u0142odzku",
                "addr:postcode": "57-300",
                "addr:city": "K\u0142odzko",
                "addr:street": "Tadeusza Ko\u015bciuszki",
                "addr:housenumber": "1",
                "addr:city:simc": 984077,
                "addr:street:sym_ul": 9582,
                "phone": "+48 748675204",
                "email": "omnibus01@poczta.onet.pl",
                "website": "http:\/\/www.omnibus-edu.pl",
                "ref:regon": "022029512",
                "ref:vatin": "PL8831742636",
                "operator": "Agencja Us\u0142ug O\u015bwiatowych \"Omnibus\" Sp\u00f3\u0142ka Z Ograniczon\u0105 Odpowiedzialno\u015bci\u0105",
                "operator:type": "private",
                "fixme": "w zale\u017cno\u015bci od przedmiotu dzia\u0142alno\u015bci (np. amenity=training + training=*, amenity=dancing_school, amenity=language_school, amenity=music_school)"
            }
        },
        {
            "id": 22593,
            "type": "Feature",
            "geometry": {
                "type": "Point",
                "coordinates": [
                    16.64267,
                    50.43555
                ]
            },
            "properties": {
                "ref:rspo": 22593,
                "official_name": "\"Akademia Przedszkolaka\" Niepubliczne Przedszkole",
                "name": "\"Akademia Przedszkolaka\" Niepubliczne Przedszkole",
                "addr:postcode": "57-300",
                "addr:city": "K\u0142odzko",
                "addr:street": "Rodzinna",
                "addr:housenumber": "61",
                "addr:city:simc": 984077,
                "addr:street:sym_ul": 18725,
                "phone": "+48 502087922",
                "email": "termit26@poczta.fm",
                "ref:regon": "021979536",
                "operator": "Oktawiusz Majowicz",
                "operator:type": "private",
                "amenity": "kindergarten"
            }
        },
        {
            "id": 105555,
            "type": "Feature",
            "geometry": {
                "type": "Point",
                "coordinates": [
                    16.66075,
                    50.43563
                ]
            },
            "properties": {
                "ref:rspo": 105555,
                "official_name": "O\u015brodek Szkoleniowy Rzemios\u0142a w K\u0142odzku",
                "name": "O\u015brodek Szkoleniowy Rzemios\u0142a w K\u0142odzku",
                "addr:postcode": "57-300",
                "addr:city": "K\u0142odzko",
                "addr:street": "\u0141u\u017cycka",
                "addr:housenumber": "13",
                "addr:city:simc": 984077,
                "addr:street:sym_ul": 11793,
                "phone": "+48 748658770",
                "email": "cech.klodzko@gmail.com",
                "website": "http:\/\/www.cech.klodzko.pl",
                "ref:regon": "022041810",
                "ref:vatin": "PL8831314426",
                "operator": "Cech Rzemios\u0142 R\u00f3\u017cnych I Ma\u0142ej Przedsi\u0119biorczo\u015bci W K\u0142odzku",
                "operator:type": "private",
                "fixme": "w zale\u017cno\u015bci od przedmiotu dzia\u0142alno\u015bci (np. amenity=training + training=*, amenity=dancing_school, amenity=language_school, amenity=music_school)"
            }
        },
        {
            "id": 42343,
            "type": "Feature",
            "geometry": {
                "type": "Point",
                "coordinates": [
                    16.64284,
                    50.4359899
                ]
            },
            "properties": {
                "isced:level": "4",
                "ref:rspo": 42343,
                "official_name": "Policealna Szko\u0142a Kosmetyki I Rozwoju \"Gamma\" w K\u0142odzku",
                "name": "Policealna Szko\u0142a Kosmetyki I Rozwoju \"Gamma\" w K\u0142odzku",
                "addr:postcode": "57-300",
                "addr:city": "K\u0142odzko",
                "addr:street": "Rodzinna",
                "addr:housenumber": "83",
                "addr:city:simc": 984077,
                "addr:street:sym_ul": 18725,
                "phone": "+48 748658327",
                "email": "sekretariat@szkolagamma.pl",
                "website": "http:\/\/www.szkolagamma.pl",
                "ref:regon": "021990555",
                "ref:vatin": "PL8831297917",
                "operator": "Urszula Kapica",
                "operator:type": "private",
                "amenity": "college"
            }
        },
        {
            "id": 104598,
            "type": "Feature",
            "geometry": {
                "type": "Point",
                "coordinates": [
                    16.64284,
                    50.4359599
                ]
            },
            "properties": {
                "ref:rspo": 104598,
                "official_name": "Centrum Szkoleniowe \"Gamma\"",
                "name": "Centrum Szkoleniowe \"Gamma\"",
                "addr:postcode": "57-300",
                "addr:city": "K\u0142odzko",
                "addr:street": "Rodzinna",
                "addr:housenumber": "83",
                "addr:city:simc": 984077,
                "addr:street:sym_ul": 18725,
                "phone": "+48 748658327",
                "email": "strefa.urody@o2.pl",
                "ref:regon": "022032879",
                "ref:vatin": "PL8831297917",
                "operator": "Urszula Kapica",
                "operator:type": "private",
                "fixme": "w zale\u017cno\u015bci od przedmiotu dzia\u0142alno\u015bci (np. amenity=training + training=*, amenity=dancing_school, amenity=language_school, amenity=music_school)"
            }
        },
        {
            "id": 35044,
            "type": "Feature",
            "geometry": {
                "type": "Point",
                "coordinates": [
                    16.64887,
                    50.43604
                ]
            },
            "properties": {
                "ref:rspo": 35044,
                "official_name": "Pa\u0144stwowa Szko\u0142a Muzyczna I St. im. Fryderyka Chopina w K\u0142odzku",
                "name": "Pa\u0144stwowa Szko\u0142a Muzyczna I St.",
                "addr:postcode": "57-300",
                "addr:city": "K\u0142odzko",
                "addr:street": "Tadeusza Ko\u015bciuszki",
                "addr:housenumber": "8",
                "addr:city:simc": 984077,
                "addr:street:sym_ul": 9582,
                "phone": "+48 748672797",
                "email": "psmklodzko@gmail.com",
                "website": "http:\/\/psm.klodzko.pl",
                "ref:regon": "000282872",
                "operator": "Ministerstwo Kultury I Dziedzictwa Narodowego",
                "operator:type": "public",
                "amenity": "music_school"
            }
        },
        {
            "id": 92547,
            "type": "Feature",
            "geometry": {
                "type": "Point",
                "coordinates": [
                    16.66124,
                    50.43651
                ]
            },
            "properties": {
                "ref:rspo": 92547,
                "official_name": "Zesp\u00f3\u0142 Szk\u00f3\u0142 Alternatywnych w K\u0142odzku",
                "name": "Zesp\u00f3\u0142 Szk\u00f3\u0142 Alternatywnych w K\u0142odzku",
                "addr:postcode": "57-300",
                "addr:city": "K\u0142odzko",
                "addr:street": "\u0141u\u017cycka",
                "addr:housenumber": "8",
                "addr:city:simc": 984077,
                "addr:street:sym_ul": 11793,
                "phone": "+48 748672228",
                "email": "zsa.klodzko@wp.pl",
                "website": "http:\/\/www.zsa.klodzko.pl",
                "ref:regon": "022023952",
                "ref:vatin": "PL8831012599",
                "operator": "Zesp\u00f3\u0142 Szk\u00f3\u0142 Alternatywnych Sp\u00f3\u0142ka Z Ograniczon\u0105 Odpowiedzialno\u015bci\u0105",
                "operator:type": "private",
                "landuse": "education",
                "fixme": "amenity=school, amenity=college albo landuse=education w zale\u017cno\u015bci od tego, jakie plac\u00f3wki wchodz\u0105 w sk\u0142ad zespo\u0142u. Sprawd\u017a, kiedy stosowa\u0107 amenity=* a kiedy landuse=education.",
                "note": "Children RSPO: 103857"
            }
        },
        {
            "id": 103857,
            "type": "Feature",
            "geometry": {
                "type": "Point",
                "coordinates": [
                    16.66124,
                    50.436479999999996
                ]
            },
            "properties": {
                "isced:level": "3",
                "ref:rspo": 103857,
                "official_name": "Alternatywne Liceum Og\u00f3lnokszta\u0142c\u0105ce w K\u0142odzku",
                "name": "Alternatywne Liceum Og\u00f3lnokszta\u0142c\u0105ce w K\u0142odzku",
                "addr:postcode": "57-300",
                "addr:city": "K\u0142odzko",
                "addr:street": "\u0141u\u017cycka",
                "addr:housenumber": "8",
                "addr:city:simc": 984077,
                "addr:street:sym_ul": 11793,
                "phone": "+48 748672228",
                "email": "zsa.klodzko@wp.pl",
                "website": "http:\/\/www.zsa.klodzko.pl",
                "ref:regon": "022031549",
                "operator": "Zesp\u00f3\u0142 Szk\u00f3\u0142 Alternatywnych Sp\u00f3\u0142ka Z Ograniczon\u0105 Odpowiedzialno\u015bci\u0105",
                "operator:type": "private",
                "amenity": "school",
                "note": "Parent RSPO: 92547"
            }
        },
        {
            "id": 131442,
            "type": "Feature",
            "geometry": {
                "type": "Point",
                "coordinates": [
                    16.66092,
                    50.43698
                ]
            },
            "properties": {
                "ref:rspo": 131442,
                "official_name": "Przedszkole nr 1 w K\u0142odzku",
                "name": "Przedszkole nr 1 w K\u0142odzku",
                "addr:postcode": "57-300",
                "addr:city": "K\u0142odzko",
                "addr:street": "Grunwaldzka",
                "addr:housenumber": "4",
                "addr:city:simc": 984077,
                "addr:street:sym_ul": 6260,
                "phone": "+48 748673711",
                "email": "przedszkolenr1kl@wp.pl",
                "ref:regon": "365177827",
                "ref:vatin": "PL8831860577",
                "operator": "Gmina Miejska K\u0142odzko",
                "operator:type": "government",
                "amenity": "kindergarten"
            }
        },
        {
            "id": 196316,
            "type": "Feature",
            "geometry": {
                "type": "Point",
                "coordinates": [
                    16.65314,
                    50.43699
                ]
            },
            "properties": {
                "isced:level": "1;2",
                "ref:rspo": 196316,
                "official_name": "Szko\u0142a Podstawowa nr 1 im. Adama Mickiewicza",
                "name": "Szko\u0142a Podstawowa nr 1",
                "addr:postcode": "57-300",
                "addr:city": "K\u0142odzko",
                "addr:street": "Zawiszy Czarnego",
                "addr:housenumber": "3-5",
                "addr:city:simc": 984077,
                "addr:street:sym_ul": 25857,
                "phone": "+48 748673520",
                "email": "sekretariat@sp1.klodzko.pl",
                "website": "http:\/\/www.jedynka.klodzko.pl",
                "ref:regon": "367991236",
                "operator": "Gmina Miejska K\u0142odzko",
                "operator:type": "government",
                "amenity": "school"
            }
        },
        {
            "id": 21720,
            "type": "Feature",
            "geometry": {
                "type": "Point",
                "coordinates": [
                    16.65416,
                    50.437
                ]
            },
            "properties": {
                "ref:rspo": 21720,
                "official_name": "Zesp\u00f3\u0142 Szk\u00f3\u0142 Spo\u0142ecznych",
                "name": "Zesp\u00f3\u0142 Szk\u00f3\u0142 Spo\u0142ecznych",
                "addr:postcode": "57-300",
                "addr:city": "K\u0142odzko",
                "addr:street": "Ignacego Daszy\u0144skiego",
                "addr:housenumber": "12",
                "addr:city:simc": 984077,
                "addr:street:sym_ul": 3639,
                "phone": "+48 748672457",
                "email": "zss@zss.klodzko.pl",
                "website": "http:\/\/www.zss.klodzko.pl",
                "ref:regon": "021977827",
                "ref:vatin": "PL8831641303",
                "operator": "K\u0142odzkie Towarzystwo O\u015bwiatowe",
                "operator:type": "ngo",
                "landuse": "education",
                "fixme": "amenity=school, amenity=college albo landuse=education w zale\u017cno\u015bci od tego, jakie plac\u00f3wki wchodz\u0105 w sk\u0142ad zespo\u0142u. Sprawd\u017a, kiedy stosowa\u0107 amenity=* a kiedy landuse=education.",
                "note": "Children RSPO: 39883;93135"
            }
        },
        {
            "id": 39883,
            "type": "Feature",
            "geometry": {
                "type": "Point",
                "coordinates": [
                    16.65416,
                    50.436969999999995
                ]
            },
            "properties": {
                "isced:level": "1;2",
                "ref:rspo": 39883,
                "official_name": "Spo\u0142eczna Szko\u0142a Podstawowa",
                "name": "Spo\u0142eczna Szko\u0142a Podstawowa",
                "addr:postcode": "57-300",
                "addr:city": "K\u0142odzko",
                "addr:street": "Ignacego Daszy\u0144skiego",
                "addr:housenumber": "12",
                "addr:city:simc": 984077,
                "addr:street:sym_ul": 3639,
                "phone": "+48 748672457",
                "email": "zss@zss.klodzko.pl",
                "ref:regon": "021991230",
                "operator": "K\u0142odzkie Towarzystwo O\u015bwiatowe",
                "operator:type": "ngo",
                "amenity": "school",
                "note": "Parent RSPO: 21720"
            }
        },
        {
            "id": 93135,
            "type": "Feature",
            "geometry": {
                "type": "Point",
                "coordinates": [
                    16.65416,
                    50.43694
                ]
            },
            "properties": {
                "isced:level": "3",
                "ref:rspo": 93135,
                "official_name": "Spo\u0142eczne Liceum Og\u00f3lnokszta\u0142c\u0105ce w K\u0142odzku",
                "name": "Spo\u0142eczne Liceum Og\u00f3lnokszta\u0142c\u0105ce w K\u0142odzku",
                "addr:postcode": "57-300",
                "addr:city": "K\u0142odzko",
                "addr:street": "Ignacego Daszy\u0144skiego",
                "addr:housenumber": "12",
                "addr:city:simc": 984077,
                "addr:street:sym_ul": 3639,
                "phone": "+48 748672457",
                "email": "zss@zss.klodzko.pl",
                "website": "http:\/\/www.zss.klodzko.pl",
                "ref:regon": "022029541",
                "operator": "K\u0142odzkie Towarzystwo O\u015bwiatowe",
                "operator:type": "ngo",
                "amenity": "school",
                "note": "Parent RSPO: 21720"
            }
        },
        {
            "id": 22907,
            "type": "Feature",
            "geometry": {
                "type": "Point",
                "coordinates": [
                    16.64704,
                    50.43727
                ]
            },
            "properties": {
                "isced:level": "1;2",
                "ref:rspo": 22907,
                "official_name": "Szko\u0142a Podstawowa nr 3 im.kpt.stanis\u0142awa Betleja",
                "name": "Szko\u0142a Podstawowa nr 3 im.kpt.stanis\u0142awa Betleja",
                "addr:postcode": "57-300",
                "addr:city": "K\u0142odzko",
                "addr:street": "Jana Paw\u0142a II",
                "addr:housenumber": "4",
                "addr:city:simc": 984077,
                "addr:street:sym_ul": 7123,
                "phone": "+48 748671287",
                "email": "sekretariat@sp3.klodzko.pl",
                "website": "http:\/\/www.sp3.klodzko.pl",
                "ref:regon": "000691292",
                "ref:vatin": "PL8831013274",
                "operator": "Gmina Miejska K\u0142odzko",
                "operator:type": "government",
                "amenity": "school"
            }
        },
        {
            "id": 278597,
            "type": "Feature",
            "geometry": {
                "type": "Point",
                "coordinates": [
                    16.64704,
                    50.437239999999996
                ]
            },
            "properties": {
                "ref:rspo": 278597,
                "official_name": "Niepubliczna Poradnia Psychologiczno-Pedagogiczna \"Razem\" Magdalena Zapa\u0142",
                "name": "Niepubliczna Poradnia Psychologiczno-Pedagogiczna \"Razem\" Magdalena Zapa\u0142",
                "addr:postcode": "57-300",
                "addr:city": "K\u0142odzko",
                "addr:street": "Jana Paw\u0142a II",
                "addr:housenumber": "4",
                "addr:city:simc": 984077,
                "addr:street:sym_ul": 7123,
                "phone": "+48 662553033",
                "email": "kontakt@razemporadnia.pl",
                "website": "http:\/\/www.razemporadnia.pl",
                "ref:regon": "389994186",
                "operator": "Magdalena Zapa\u0142",
                "operator:type": "private",
                "healthcare": "counselling",
                "counselling_type": "education",
                "fixme": "w zale\u017cno\u015bci od przedmiotu dzia\u0142alno\u015bci (np. healthcare=counselling + counselling_type=education albo healthcare=psychotherapist)"
            }
        },
        {
            "id": 105559,
            "type": "Feature",
            "geometry": {
                "type": "Point",
                "coordinates": [
                    16.65073,
                    50.43727
                ]
            },
            "properties": {
                "ref:rspo": 105559,
                "official_name": "Centrum Kszta\u0142cenia Kursowego w K\u0142odzku",
                "name": "Centrum Kszta\u0142cenia Kursowego w K\u0142odzku",
                "addr:postcode": "57-300",
                "addr:city": "K\u0142odzko",
                "addr:street": "Wojska Polskiego",
                "addr:housenumber": "14",
                "addr:city:simc": 984077,
                "addr:street:sym_ul": 24628,
                "phone": "+48 746470557",
                "email": "twpwr@wp.pl",
                "website": "http:\/\/www.twklodzko.pl",
                "ref:regon": "022041832",
                "operator": "\"Towarzystwo Wiedzy Powszechnej\" Oddzia\u0142 Regionalny We Wroc\u0142awiu",
                "operator:type": "ngo",
                "fixme": "w zale\u017cno\u015bci od przedmiotu dzia\u0142alno\u015bci (np. amenity=training + training=*, amenity=dancing_school, amenity=language_school, amenity=music_school)"
            }
        },
        {
            "id": 93002,
            "type": "Feature",
            "geometry": {
                "type": "Point",
                "coordinates": [
                    16.6535,
                    50.4373
                ]
            },
            "properties": {
                "isced:level": "3",
                "ref:rspo": 93002,
                "official_name": "Liceum Og\u00f3lnokszta\u0142c\u0105ce dla Doros\u0142ych w K\u0142odzku",
                "name": "Liceum Og\u00f3lnokszta\u0142c\u0105ce dla Doros\u0142ych w K\u0142odzku",
                "addr:postcode": "57-300",
                "addr:city": "K\u0142odzko",
                "addr:street": "Zawiszy Czarnego",
                "addr:housenumber": "5",
                "addr:city:simc": 984077,
                "addr:street:sym_ul": 25857,
                "phone": "+48 609678260",
                "email": "sekretariat.klodzko@certus.edu.pl",
                "website": "http:\/\/www.certus.edu.pl",
                "ref:regon": "022029570",
                "ref:vatin": "PL6931402206",
                "operator": "Ku\u017ania Kadr Sp\u00f3\u0142ka Z Ograniczon\u0105 Odpowiedzialno\u015bci\u0105",
                "operator:type": "private",
                "amenity": "school"
            }
        },
        {
            "id": 93062,
            "type": "Feature",
            "geometry": {
                "type": "Point",
                "coordinates": [
                    16.6535,
                    50.43727
                ]
            },
            "properties": {
                "isced:level": "4",
                "ref:rspo": 93062,
                "official_name": "Policealna Szko\u0142a Edukacji Europejskiej w K\u0142odzku",
                "name": "Policealna Szko\u0142a Edukacji Europejskiej w K\u0142odzku",
                "addr:postcode": "57-300",
                "addr:city": "K\u0142odzko",
                "addr:street": "Zawiszy Czarnego",
                "addr:housenumber": "5",
                "addr:city:simc": 984077,
                "addr:street:sym_ul": 25857,
                "phone": "+48 663100146",
                "email": "sekretariat.klodzko@certus.edu.pl",
                "website": "http:\/\/www.certus.edu.pl",
                "ref:regon": "022027000",
                "ref:vatin": "PL6931402206",
                "operator": "Ku\u017ania Kadr Sp\u00f3\u0142ka Z Ograniczon\u0105 Odpowiedzialno\u015bci\u0105",
                "operator:type": "private",
                "amenity": "college"
            }
        },
        {
            "id": 91250,
            "type": "Feature",
            "geometry": {
                "type": "Point",
                "coordinates": [
                    16.65185,
                    50.43736
                ]
            },
            "properties": {
                "isced:level": "3",
                "ref:rspo": 91250,
                "official_name": "I Liceum Og\u00f3lnokszta\u0142c\u0105ce im. Boles\u0142awa Chrobrego w K\u0142odzku",
                "name": "I Liceum Og\u00f3lnokszta\u0142c\u0105ce",
                "addr:postcode": "57-300",
                "addr:city": "K\u0142odzko",
                "addr:street": "Wojska Polskiego",
                "addr:housenumber": "11",
                "addr:city:simc": 984077,
                "addr:street:sym_ul": 24628,
                "phone": "+48 748672600",
                "email": "lo_chrobry@powiat.klodzko.pl",
                "website": "http:\/\/www.chrobry.org",
                "ref:regon": "891418821",
                "operator": "Powiat K\u0142odzki",
                "operator:type": "government",
                "amenity": "school"
            }
        },
        {
            "id": 276823,
            "type": "Feature",
            "geometry": {
                "type": "Point",
                "coordinates": [
                    16.65351,
                    50.43882
                ]
            },
            "properties": {
                "ref:rspo": 276823,
                "official_name": "Centrum Szkoleniowe Babi Raj",
                "name": "Centrum Szkoleniowe Babi Raj",
                "addr:postcode": "57-300",
                "addr:city": "K\u0142odzko",
                "addr:street": "Plac Boles\u0142awa Chrobrego",
                "addr:housenumber": "19",
                "addr:city:simc": 984077,
                "addr:street:sym_ul": 1741,
                "phone": "+48 506133762",
                "email": "patrycja.tatka@wp.pl",
                "ref:regon": "387642690",
                "operator": "Patrycja Tatka",
                "operator:type": "private",
                "fixme": "w zale\u017cno\u015bci od przedmiotu dzia\u0142alno\u015bci (np. amenity=training + training=*, amenity=dancing_school, amenity=language_school, amenity=music_school)"
            }
        },
        {
            "id": 262674,
            "type": "Feature",
            "geometry": {
                "type": "Point",
                "coordinates": [
                    16.65017,
                    50.43915
                ]
            },
            "properties": {
                "isced:level": "1;2",
                "ref:rspo": 262674,
                "official_name": "Szko\u0142a Podstawowa im. W\u0142adys\u0142awa Stanis\u0142awa Reymonta w K\u0142odzku",
                "name": "Szko\u0142a Podstawowa",
                "addr:postcode": "57-300",
                "addr:city": "K\u0142odzko",
                "addr:street": "Romualda Traugutta",
                "addr:housenumber": "1a",
                "addr:city:simc": 984077,
                "addr:street:sym_ul": 22965,
                "phone": "+48 748673006",
                "email": "sekretariat@spreymonta.pl",
                "website": "http:\/\/spreymontaklodzko.szkolnastrona.pl",
                "ref:regon": "368049886",
                "ref:vatin": "PL8831863647",
                "operator": "Gmina K\u0142odzko",
                "operator:type": "government",
                "amenity": "school"
            }
        },
        {
            "id": 26087,
            "type": "Feature",
            "geometry": {
                "type": "Point",
                "coordinates": [
                    16.67241,
                    50.43936
                ]
            },
            "properties": {
                "isced:level": "1;2",
                "ref:rspo": 26087,
                "official_name": "Szko\u0142a Podstawowa nr 7",
                "name": "Szko\u0142a Podstawowa nr 7",
                "addr:postcode": "57-300",
                "addr:city": "K\u0142odzko",
                "addr:street": "Henryka Sienkiewicza",
                "addr:housenumber": "61",
                "addr:city:simc": 984077,
                "addr:street:sym_ul": 27339,
                "phone": "+48 748673174",
                "email": "szkola7kosciuszko@o2.pl",
                "website": "http:\/\/www.sp7klodzko.edupade.org",
                "ref:regon": "000691300",
                "ref:vatin": "PL8831022623",
                "operator": "Gmina Miejska K\u0142odzko",
                "operator:type": "government",
                "amenity": "school"
            }
        },
        {
            "id": 22006,
            "type": "Feature",
            "geometry": {
                "type": "Point",
                "coordinates": [
                    16.64654,
                    50.44198
                ]
            },
            "properties": {
                "ref:rspo": 22006,
                "official_name": "Przedszkole Niepubliczne \"Promyczek\"",
                "name": "Przedszkole Niepubliczne \"Promyczek\"",
                "addr:postcode": "57-300",
                "addr:city": "K\u0142odzko",
                "addr:street": "Micha\u0142a Drzyma\u0142y",
                "addr:housenumber": "1A",
                "addr:city:simc": 984077,
                "addr:street:sym_ul": 4317,
                "phone": "+48 663323926",
                "email": "przedszkolepromyczek@poczta.onet.pl",
                "website": "http:\/\/www.przedszkolepromyczek.com",
                "ref:regon": "021979393",
                "ref:vatin": "PL8831165529",
                "operator": "Teresa Sikora",
                "operator:type": "private",
                "amenity": "kindergarten"
            }
        },
        {
            "id": 20364,
            "type": "Feature",
            "geometry": {
                "type": "Point",
                "coordinates": [
                    16.66348,
                    50.4507199
                ]
            },
            "properties": {
                "ref:rspo": 20364,
                "official_name": "Przedszkole nr 3",
                "name": "Przedszkole nr 3",
                "addr:postcode": "57-300",
                "addr:city": "K\u0142odzko",
                "addr:street": "Warty",
                "addr:housenumber": "6",
                "addr:city:simc": 984077,
                "addr:street:sym_ul": 23702,
                "phone": "+48 748672334",
                "email": "p_ole3@op.pl",
                "ref:regon": "020558198",
                "ref:vatin": "PL8831795271",
                "operator": "Gmina Miejska K\u0142odzko",
                "operator:type": "government",
                "amenity": "kindergarten"
            }
        },
        {
            "id": 103854,
            "type": "Feature",
            "geometry": {
                "type": "Point",
                "coordinates": [
                    16.66348,
                    50.4506899
                ]
            },
            "properties": {
                "ref:rspo": 103854,
                "official_name": "Dolno\u015bL\u0105ski Zak\u0142ad Doskonalenia Zawodowego Oddzia\u0142 I we Wroc\u0142awiu O\u015brodek Kszta\u0142cenia Zawodowego w K\u0142odzku",
                "name": "Dolno\u015bL\u0105ski Zak\u0142ad Doskonalenia Zawodowego Oddzia\u0142 I we Wroc\u0142awiu O\u015brodek Kszta\u0142cenia Zawodowego w K\u0142odzku",
                "addr:postcode": "57-300",
                "addr:city": "K\u0142odzko",
                "addr:street": "Warty",
                "addr:housenumber": "6",
                "addr:city:simc": 984077,
                "addr:street:sym_ul": 23702,
                "phone": "+48 748677160",
                "email": "okz.klodzko@dzdz.edu.pl",
                "website": "http:\/\/www.kursy.klodzko.pl",
                "ref:regon": "022031555",
                "operator": "Dolno\u015bl\u0105ski Zak\u0142ad Doskonalenia Zawodowego Oddzia\u0142 I We Wroc\u0142awiu",
                "operator:type": "ngo",
                "fixme": "w zale\u017cno\u015bci od przedmiotu dzia\u0142alno\u015bci (np. amenity=training + training=*, amenity=dancing_school, amenity=language_school, amenity=music_school)"
            }
        },
        {
            "id": 92932,
            "type": "Feature",
            "geometry": {
                "type": "Point",
                "coordinates": [
                    16.66725,
                    50.45331
                ]
            },
            "properties": {
                "isced:level": "4",
                "ref:rspo": 92932,
                "official_name": "Szko\u0142a Policealna Medyk w K\u0142odzku",
                "name": "Szko\u0142a Policealna Medyk w K\u0142odzku",
                "addr:postcode": "57-300",
                "addr:city": "K\u0142odzko",
                "addr:street": "Warty",
                "addr:housenumber": "21",
                "addr:city:simc": 984077,
                "addr:street:sym_ul": 23702,
                "phone": "+48 746629056",
                "email": "medyczna.klodzko@centrum-edukacji.com",
                "website": "http:\/\/www.medyk.szkola.pl",
                "ref:regon": "022026979",
                "operator": "Fundacja \"Health&Education\" Centrum Kszta\u0142cenia Zawodowego",
                "operator:type": "ngo",
                "amenity": "college"
            }
        },
        {
            "id": 92971,
            "type": "Feature",
            "geometry": {
                "type": "Point",
                "coordinates": [
                    16.66725,
                    50.45328
                ]
            },
            "properties": {
                "isced:level": "4",
                "ref:rspo": 92971,
                "official_name": "Medyczna Szko\u0142a Policealna w K\u0142odzku",
                "name": "Medyczna Szko\u0142a Policealna w K\u0142odzku",
                "addr:postcode": "57-300",
                "addr:city": "K\u0142odzko",
                "addr:street": "Warty",
                "addr:housenumber": "21",
                "addr:city:simc": 984077,
                "addr:street:sym_ul": 23702,
                "phone": "+48 746629056",
                "email": "medyczna.klodzko@centrum-edukacji.com",
                "website": "http:\/\/medyk.szkola.pl",
                "ref:regon": "022029104",
                "operator": "Fundacja \"Health&Education\" Centrum Kszta\u0142cenia Zawodowego",
                "operator:type": "ngo",
                "amenity": "college"
            }
        },
        {
            "id": 127952,
            "type": "Feature",
            "geometry": {
                "type": "Point",
                "coordinates": [
                    16.66725,
                    50.453250000000004
                ]
            },
            "properties": {
                "isced:level": "3",
                "ref:rspo": 127952,
                "official_name": "Niepubliczne Liceum Og\u00f3lnokszta\u0142c\u0105ce \"Medical\" w K\u0142odzku",
                "name": "Niepubliczne Liceum Og\u00f3lnokszta\u0142c\u0105ce \"Medical\" w K\u0142odzku",
                "addr:postcode": "57-300",
                "addr:city": "K\u0142odzko",
                "addr:street": "Warty",
                "addr:housenumber": "21",
                "addr:city:simc": 984077,
                "addr:street:sym_ul": 23702,
                "phone": "+48 746629058",
                "email": "sekretariat@liceum.klodzko.pl",
                "website": "https:\/\/liceum.klodzko.pl\/",
                "ref:regon": "362011948",
                "operator": "Centrum Edukacji W K\u0142odzku Sp\u00f3\u0142ka Z Ograniczon\u0105 Odpowiedzialno\u015bci\u0105",
                "operator:type": "private",
                "amenity": "school"
            }
        },
        {
            "id": 49557,
            "type": "Feature",
            "geometry": {
                "type": "Point",
                "coordinates": [
                    16.66366,
                    50.45402
                ]
            },
            "properties": {
                "isced:level": "1;2",
                "ref:rspo": 49557,
                "official_name": "Szko\u0142a Podstawowa nr 2 im. Jana Paw\u0142a II w K\u0142odzku",
                "name": "Szko\u0142a Podstawowa nr 2",
                "addr:postcode": "57-300",
                "addr:city": "K\u0142odzko",
                "addr:street": "Zamiejska",
                "addr:housenumber": "24",
                "addr:city:simc": 984077,
                "addr:street:sym_ul": 25540,
                "phone": "+48 748674242",
                "email": "sekretariat@sp2.klodzko.pl",
                "website": "http:\/\/www.sp2klodzko.szkolnastrona.pl",
                "ref:regon": "000691286",
                "operator": "Gmina Miejska K\u0142odzko",
                "operator:type": "government",
                "amenity": "school"
            }
        },
        {
            "id": 90020,
            "type": "Feature",
            "geometry": {
                "type": "Point",
                "coordinates": [
                    16.67614,
                    50.45643
                ]
            },
            "properties": {
                "ref:rspo": 90020,
                "official_name": "M\u0142odzie\u017cowy O\u015brodek Socjoterapii w K\u0142odzku",
                "name": "M\u0142odzie\u017cowy O\u015brodek Socjoterapii w K\u0142odzku",
                "addr:postcode": "57-300",
                "addr:city": "K\u0142odzko",
                "addr:street": "Rajska",
                "addr:housenumber": "1",
                "addr:city:simc": 984077,
                "addr:street:sym_ul": 18403,
                "phone": "+48 748672465",
                "email": "sekretariat@mosklodzko.pl",
                "ref:regon": "890300075",
                "ref:vatin": "PL8831021575",
                "operator": "Powiat K\u0142odzki",
                "operator:type": "government",
                "fixme": "amenity=social_facility + social_facility=group_home + social_facility:for=juvenile",
                "note": "Children RSPO: 105874"
            }
        },
        {
            "id": 105874,
            "type": "Feature",
            "geometry": {
                "type": "Point",
                "coordinates": [
                    16.67614,
                    50.456399999999995
                ]
            },
            "properties": {
                "isced:level": "1;2",
                "ref:rspo": 105874,
                "official_name": "Szko\u0142a Podstawowa Specjalna nr 8 w M\u0142odzie\u017cowym O\u015brodku Socjoterapii w K\u0142odzku",
                "name": "Szko\u0142a Podstawowa Specjalna nr 8 w M\u0142odzie\u017cowym O\u015brodku Socjoterapii w K\u0142odzku",
                "addr:postcode": "57-300",
                "addr:city": "K\u0142odzko",
                "addr:street": "Rajska",
                "addr:housenumber": "1",
                "addr:city:simc": 984077,
                "addr:street:sym_ul": 18403,
                "phone": "+48 748672465",
                "email": "sekretariat@mosklodzko.pl",
                "ref:regon": "891546878",
                "operator": "Powiat K\u0142odzki",
                "operator:type": "government",
                "amenity": "school",
                "note": "Parent RSPO: 90020"
            }
        },
        {
            "id": 83789,
            "type": "Feature",
            "geometry": {
                "type": "Point",
                "coordinates": [
                    16.67135,
                    50.45726
                ]
            },
            "properties": {
                "isced:level": "3",
                "ref:rspo": 83789,
                "official_name": "Bran\u017cowa Szko\u0142a I Stopnia Specjalna nr 3",
                "name": "Bran\u017cowa Szko\u0142a I Stopnia Specjalna nr 3",
                "addr:postcode": "57-300",
                "addr:city": "K\u0142odzko",
                "addr:street": "Warty",
                "addr:housenumber": "70",
                "addr:city:simc": 984077,
                "addr:street:sym_ul": 23702,
                "phone": "+48 748672732",
                "email": "zszspklodzko@wp.pl",
                "ref:regon": "000743681",
                "ref:vatin": "PL8831009315",
                "operator": "Powiat K\u0142odzki",
                "operator:type": "government",
                "amenity": "school",
                "note": "Parent RSPO: 11421"
            }
        }
    ]
}