{"type":"FeatureCollection","features":[{"id":121740,"type":"Feature","geometry":{"type":"Point","coordinates":[23.19163,51.39383]},"properties":{"ref:rspo":121740,"official_name":"Zesp\u00f3\u0142 Szk\u00f3\u0142 w Urszulinie","name":"Zesp\u00f3\u0142 Szk\u00f3\u0142 w Urszulinie","addr:country":"PL","addr:postcode":"22-234","addr:city":"Urszulin","addr:street":"ul. Szkolna","addr:housenumber":"23","addr:teryt:simc":21970,"addr:teryt:sym_ul":109027,"contact:phone":"+48 825713010","contact:email":"zsurszulin@op.pl","contact:website":"http:\/\/www.zsurszulin.szkolna.net","ref:regon":"000594063","ref:vatin":"PL5651378512","operator":"Gmina Urszulin","operator:type":"government","landuse":"education","fixme":"amenity=school, amenity=college albo landuse=education w zale\u017cno\u015bci od tego, jakie plac\u00f3wki wchodz\u0105 w sk\u0142ad zespo\u0142u. Sprawd\u017a, kiedy stosowa\u0107 amenity=* a kiedy landuse=education.","note":"Children RSPO: 44505;122790;122800"}},{"id":44505,"type":"Feature","geometry":{"type":"Point","coordinates":[23.19163,51.3938]},"properties":{"ref:rspo":44505,"official_name":"Szkolne Schronisko M\u0142odzie\u017cowe w Urszulinie","name":"Szkolne Schronisko M\u0142odzie\u017cowe w Urszulinie","addr:country":"PL","addr:postcode":"22-234","addr:city":"Urszulin","addr:street":"ul. Szkolna","addr:housenumber":"23","addr:teryt:simc":21970,"addr:teryt:sym_ul":109027,"contact:phone":"+48 825713010","contact:email":"zsurszulin@op.pl","ref:regon":"061476583","operator":"Gmina Urszulin","operator:type":"government","tourism":"hostel","note":"Parent RSPO: 121740"}},{"id":122790,"type":"Feature","geometry":{"type":"Point","coordinates":[23.19163,51.39377]},"properties":{"isced:level":"1;2","ref:rspo":122790,"official_name":"Szko\u0142a Podstawowa im. Alfreda Lity\u0144skiego w Urszulinie","name":"Szko\u0142a Podstawowa","addr:country":"PL","addr:postcode":"22-234","addr:city":"Urszulin","addr:street":"ul. Szkolna","addr:housenumber":"23","addr:teryt:simc":21970,"addr:teryt:sym_ul":109027,"contact:phone":"+48 825713010","contact:email":"zsurszulin@op.pl","contact:website":"http:\/\/zsurszulin.szkolna.net","ref:regon":"110600568","ref:vatin":"PL5651378512","operator":"Gmina Urszulin","operator:type":"government","amenity":"school","note":"Parent RSPO: 121740"}},{"id":122800,"type":"Feature","geometry":{"type":"Point","coordinates":[23.19163,51.39374]},"properties":{"ref:rspo":122800,"official_name":"Przedszkole w Urszulinie","name":"Przedszkole w Urszulinie","addr:country":"PL","addr:postcode":"22-234","addr:city":"Urszulin","addr:street":"ul. Szkolna","addr:housenumber":"23","addr:teryt:simc":21970,"addr:teryt:sym_ul":109027,"contact:phone":"+48 825713010","contact:email":"zsurszulin@op.pl","ref:regon":"110600574","ref:vatin":"PL5651378512","operator":"Gmina Urszulin","operator:type":"government","amenity":"kindergarten","note":"Parent RSPO: 121740"}},{"id":268358,"type":"Feature","geometry":{"type":"Point","coordinates":[23.13106,51.427336]},"properties":{"ref:rspo":268358,"official_name":"Zesp\u00f3\u0142 Szkolno-Przedszkolny w Woli Wereszczy\u0144skiej","name":"Zesp\u00f3\u0142 Szkolno-Przedszkolny w Woli Wereszczy\u0144skiej","addr:country":"PL","addr:postcode":"22-234","addr:place":"Wola Wereszczy\u0144ska","addr:housenumber":"2","addr:teryt:sym_ul":109091,"contact:phone":"+48 825712191","contact:email":"szkolawola3@wp.pl","ref:regon":"381110408","operator":"Gmina Urszulin","operator:type":"government","landuse":"education","fixme":"amenity=school, amenity=college albo landuse=education w zale\u017cno\u015bci od tego, jakie plac\u00f3wki wchodz\u0105 w sk\u0142ad zespo\u0142u. Sprawd\u017a, kiedy stosowa\u0107 amenity=* a kiedy landuse=education.","note":"Children RSPO: 111712;268364"}},{"id":111712,"type":"Feature","geometry":{"type":"Point","coordinates":[23.13106,51.427305999999994]},"properties":{"isced:level":"1;2","ref:rspo":111712,"official_name":"Szko\u0142a Podstawowa w Woli Wereszczy\u0144skiej","name":"Szko\u0142a Podstawowa w Woli Wereszczy\u0144skiej","addr:country":"PL","addr:postcode":"22-234","addr:place":"Wola Wereszczy\u0144ska","addr:housenumber":"2","addr:teryt:sym_ul":109091,"contact:phone":"+48 825712191","contact:email":"szkolawola3@wp.pl","ref:regon":"001143983","ref:vatin":"PL5651378529","operator":"Gmina Urszulin","operator:type":"government","amenity":"school","note":"Parent RSPO: 268358"}},{"id":268364,"type":"Feature","geometry":{"type":"Point","coordinates":[23.13106,51.427276]},"properties":{"ref:rspo":268364,"official_name":"Przedszkole Publiczne w Woli Wereszczy\u0144skiej","name":"Przedszkole Publiczne w Woli Wereszczy\u0144skiej","addr:country":"PL","addr:postcode":"22-234","addr:place":"Wola Wereszczy\u0144ska","addr:housenumber":"2","addr:teryt:sym_ul":109091,"contact:phone":"+48 825712191","contact:email":"szkolwola@wp.pl","ref:regon":"381111773","operator":"Gmina Urszulin","operator:type":"government","amenity":"kindergarten","note":"Parent RSPO: 268358"}},{"id":120634,"type":"Feature","geometry":{"type":"Point","coordinates":[23.2504559,51.433426]},"properties":{"isced:level":"1;2","ref:rspo":120634,"official_name":"Szko\u0142a Podstawowa im. Korpusu Ochrony Pogranicza w Wytycznie","name":"Szko\u0142a Podstawowa","addr:country":"PL","addr:postcode":"22-234","addr:place":"Wytyczno","addr:housenumber":"143","addr:teryt:sym_ul":109122,"contact:phone":"+48 825713078","contact:email":"spwytyczno@tlen.pl","ref:regon":"061611816","ref:vatin":"PL5651378535","operator":"Dane Do Uzupe\u0142nienia","operator:type":"private","amenity":"school"}},{"id":268649,"type":"Feature","geometry":{"type":"Point","coordinates":[23.2504559,51.433395999999995]},"properties":{"ref:rspo":268649,"official_name":"Przedszkole Publiczne w Wytycznie","name":"Przedszkole Publiczne w Wytycznie","addr:country":"PL","addr:postcode":"22-234","addr:place":"Wytyczno","addr:housenumber":"143","addr:teryt:sym_ul":109122,"contact:phone":"+48 825713078","contact:email":"spwytyczno@tlen.pl","ref:regon":"381223377","operator":"Stowarzyszenie Nauczycieli,Rodzic\u00f3w I Wychowawc\u00f3w \"Nasza Szko\u0142a\" W Wytycznie","operator:type":"ngo","amenity":"kindergarten"}}]}