{
    "type": "FeatureCollection",
    "features": [
        {
            "id": 122000,
            "type": "Feature",
            "geometry": {
                "type": "Point",
                "coordinates": [
                    23.5355089,
                    51.5038399
                ]
            },
            "properties": {
                "ref:rspo": 122000,
                "official_name": "Szkolne Schronisko M\u0142odzie\u017cowe Krokodyl w Okunince",
                "name": "Szkolne Schronisko M\u0142odzie\u017cowe Krokodyl w Okunince",
                "addr:postcode": "22-200",
                "addr:place": "Okuninka",
                "addr:housenumber": "1",
                "addr:city:simc": 109777,
                "phone": "+48 825717090",
                "ref:regon": "060270709",
                "ref:vatin": "PL5651498541",
                "operator": "Gmina W\u0142odawa",
                "operator:type": "government",
                "tourism": "hostel"
            }
        },
        {
            "id": 31017,
            "type": "Feature",
            "geometry": {
                "type": "Point",
                "coordinates": [
                    23.5140931,
                    51.505792
                ]
            },
            "properties": {
                "ref:rspo": 31017,
                "official_name": "Poleskie Centrum Edukacji Ekologicznej Dzieci I M\u0142odzie\u017cy \"Astur\" w Okunince",
                "name": "Poleskie Centrum Edukacji Ekologicznej Dzieci I M\u0142odzie\u017cy \"Astur\" w Okunince",
                "addr:postcode": "22-200",
                "addr:place": "Okuninka",
                "addr:housenumber": "XII\/6",
                "addr:city:simc": 109777,
                "phone": "+48 815329864",
                "email": "info@astur.com.pl",
                "website": "http:\/\/www.astur.com.pl",
                "ref:regon": "061471781",
                "operator": "\"Astur\" Sp\u00f3\u0142ka Z Ograniczon\u0105 Odpowiedzialno\u015bci\u0105",
                "operator:type": "private",
                "fixme": "w zale\u017cno\u015bci od przedmiotu dzia\u0142alno\u015bci (np. amenity=training + training=*, amenity=dancing_school, amenity=language_school, amenity=music_school)"
            }
        },
        {
            "id": 121987,
            "type": "Feature",
            "geometry": {
                "type": "Point",
                "coordinates": [
                    23.56734,
                    51.52483
                ]
            },
            "properties": {
                "isced:level": "1;2",
                "ref:rspo": 121987,
                "official_name": "Szko\u0142a Podstawowa w Orch\u00f3wku im. Jana Paw\u0142a Ii",
                "name": "Szko\u0142a Podstawowa w Orch\u00f3wku",
                "addr:postcode": "22-200",
                "addr:city": "Orch\u00f3wek",
                "addr:street": "Szkolna",
                "addr:housenumber": "35",
                "addr:city:simc": 109949,
                "addr:street:sym_ul": 21970,
                "phone": "+48 825722068",
                "email": "sekretariat@szkolaorchowek.pl",
                "website": "http:\/\/www.szkolaorchowek.pl",
                "ref:regon": "001104760",
                "ref:vatin": "PL5651382933",
                "operator": "Gmina W\u0142odawa",
                "operator:type": "government",
                "amenity": "school"
            }
        },
        {
            "id": 264833,
            "type": "Feature",
            "geometry": {
                "type": "Point",
                "coordinates": [
                    23.55724,
                    51.55891
                ]
            },
            "properties": {
                "ref:rspo": 264833,
                "official_name": "Niepubliczne Przedszkole Maluszkowo",
                "name": "Niepubliczne Przedszkole Maluszkowo",
                "addr:postcode": "22-200",
                "addr:city": "Suszno",
                "addr:street": "Szpitalna",
                "addr:housenumber": "50",
                "addr:city:simc": 109850,
                "addr:street:sym_ul": 22073,
                "phone": "+48 731012210",
                "email": "przedszkole.maluszkow@tlen.pl",
                "ref:regon": "368482637",
                "operator": "Stowarzyszenie Na Rzecz Edukacji I Rozwoju Gminy W\u0142odawa",
                "operator:type": "ngo",
                "amenity": "kindergarten"
            }
        },
        {
            "id": 31461,
            "type": "Feature",
            "geometry": {
                "type": "Point",
                "coordinates": [
                    23.4419583,
                    51.591349
                ]
            },
            "properties": {
                "ref:rspo": 31461,
                "official_name": "Zesp\u00f3\u0142 Szk\u00f3\u0142 Centrum Kszta\u0142cenia Rolniczego im. Ireny Kosmowskiej w Korol\u00f3wce-Osadzie",
                "name": "Zesp\u00f3\u0142 Szk\u00f3\u0142 Centrum Kszta\u0142cenia Rolniczego",
                "addr:postcode": "22-200",
                "addr:place": "Korol\u00f3wka-Osada",
                "addr:housenumber": "3",
                "addr:city:simc": 109719,
                "phone": "+48 825717220",
                "email": "sekretariat@zsr-korolowka.pl",
                "website": "http:\/\/www.zsr-korolowka.pl",
                "ref:regon": "000638197",
                "ref:vatin": "PL5651199666",
                "operator": "Ministerstwo Rolnictwa I Rozwoju Wsi",
                "operator:type": "public",
                "landuse": "education",
                "fixme": "amenity=school, amenity=college albo landuse=education w zale\u017cno\u015bci od tego, jakie plac\u00f3wki wchodz\u0105 w sk\u0142ad zespo\u0142u. Sprawd\u017a, kiedy stosowa\u0107 amenity=* a kiedy landuse=education.",
                "note": "Children RSPO: 87741;87742;87743;87744"
            }
        },
        {
            "id": 87741,
            "type": "Feature",
            "geometry": {
                "type": "Point",
                "coordinates": [
                    23.4419583,
                    51.591319
                ]
            },
            "properties": {
                "isced:level": "3",
                "ref:rspo": 87741,
                "official_name": "Technikum w Korol\u00f3wce-Osadzie",
                "name": "Technikum w Korol\u00f3wce-Osadzie",
                "addr:postcode": "22-200",
                "addr:place": "Korol\u00f3wka-Osada",
                "addr:housenumber": "3",
                "addr:city:simc": 109719,
                "phone": "+48 825717220",
                "email": "sekretariat@zsr-korolowka.pl",
                "website": "http:\/\/www.zsr-korolowka.pl",
                "ref:regon": "110726134",
                "operator": "Ministerstwo Rolnictwa I Rozwoju Wsi",
                "operator:type": "public",
                "amenity": "school",
                "note": "Parent RSPO: 31461"
            }
        },
        {
            "id": 87742,
            "type": "Feature",
            "geometry": {
                "type": "Point",
                "coordinates": [
                    23.4419583,
                    51.591289
                ]
            },
            "properties": {
                "isced:level": "3",
                "ref:rspo": 87742,
                "official_name": "Bran\u017cowa Szko\u0142a I Stopinia w Korol\u00f3wce-Osadzie",
                "name": "Bran\u017cowa Szko\u0142a I Stopinia w Korol\u00f3wce-Osadzie",
                "addr:postcode": "22-200",
                "addr:place": "Korol\u00f3wka-Osada",
                "addr:housenumber": "3",
                "addr:city:simc": 109719,
                "phone": "+48 825717220",
                "email": "sekretariat@zsr-korolowka.pl",
                "website": "http:\/\/www.zsr-korolowka.pl",
                "ref:regon": "110599010",
                "operator": "Ministerstwo Rolnictwa I Rozwoju Wsi",
                "operator:type": "public",
                "amenity": "school",
                "note": "Parent RSPO: 31461"
            }
        },
        {
            "id": 87743,
            "type": "Feature",
            "geometry": {
                "type": "Point",
                "coordinates": [
                    23.4419583,
                    51.591259
                ]
            },
            "properties": {
                "isced:level": "4",
                "ref:rspo": 87743,
                "official_name": "Szko\u0142a Policealna w Korol\u00f3wce-Osadzie",
                "name": "Szko\u0142a Policealna w Korol\u00f3wce-Osadzie",
                "addr:postcode": "22-200",
                "addr:place": "Korol\u00f3wka-Osada",
                "addr:housenumber": "3",
                "addr:city:simc": 109719,
                "phone": "+48 825717220",
                "email": "sekretariat@zsr-korolowka.pl",
                "website": "http:\/\/www.zsr-korolowka.pl",
                "ref:regon": "060282010",
                "operator": "Ministerstwo Rolnictwa I Rozwoju Wsi",
                "operator:type": "public",
                "amenity": "college",
                "note": "Parent RSPO: 31461"
            }
        },
        {
            "id": 87744,
            "type": "Feature",
            "geometry": {
                "type": "Point",
                "coordinates": [
                    23.4419583,
                    51.591229
                ]
            },
            "properties": {
                "ref:rspo": 87744,
                "official_name": "Centrum Kszta\u0142cenia Ustawicznego w Korol\u00f3wce-Osadzie",
                "name": "Centrum Kszta\u0142cenia Ustawicznego w Korol\u00f3wce-Osadzie",
                "addr:postcode": "22-200",
                "addr:place": "Korol\u00f3wka-Osada",
                "addr:housenumber": "3",
                "addr:city:simc": 109719,
                "phone": "+48 825717220",
                "email": "sekretariat@zsr-korolowka.pl",
                "website": "http:\/\/www.zsr-korolowka.pl",
                "ref:regon": "061489545",
                "operator": "Ministerstwo Rolnictwa I Rozwoju Wsi",
                "operator:type": "public",
                "fixme": "w zale\u017cno\u015bci od przedmiotu dzia\u0142alno\u015bci (np. amenity=training + training=*, amenity=dancing_school, amenity=language_school, amenity=music_school)",
                "note": "Parent RSPO: 31461"
            }
        },
        {
            "id": 121991,
            "type": "Feature",
            "geometry": {
                "type": "Point",
                "coordinates": [
                    23.4127318,
                    51.6066019
                ]
            },
            "properties": {
                "isced:level": "1;2",
                "ref:rspo": 121991,
                "official_name": "Szko\u0142a Podstawowa w \u017bukowie",
                "name": "Szko\u0142a Podstawowa w \u017bukowie",
                "addr:postcode": "22-200",
                "addr:place": "\u017buk\u00f3w",
                "addr:housenumber": "125",
                "addr:city:simc": 109910,
                "phone": "+48 825717224",
                "email": "spzukow@poczta.onet.pl",
                "website": "http:\/\/www.spzukow.pl",
                "ref:regon": "001176008",
                "ref:vatin": "PL5651382962",
                "operator": "Gmina W\u0142odawa",
                "operator:type": "government",
                "amenity": "school"
            }
        },
        {
            "id": 121998,
            "type": "Feature",
            "geometry": {
                "type": "Point",
                "coordinates": [
                    23.53511,
                    51.62507
                ]
            },
            "properties": {
                "isced:level": "1;2",
                "ref:rspo": 121998,
                "official_name": "Szko\u0142a Podstawowa im. R\u00f3\u017cy Marii Zamoyskiej w R\u00f3\u017cance",
                "name": "Szko\u0142a Podstawowa",
                "addr:postcode": "22-200",
                "addr:city": "R\u00f3\u017canka",
                "addr:street": "R\u00f3\u017cy Marii Zamoyskiej",
                "addr:housenumber": "1",
                "addr:city:simc": 109790,
                "addr:street:sym_ul": 54881,
                "phone": "+48 825718185",
                "email": "szkolarozanka@o2.pl",
                "website": "http:\/\/www.szkolarozanka.vot.pl",
                "ref:regon": "001175977",
                "ref:vatin": "PL5651382927",
                "operator": "Gmina W\u0142odawa",
                "operator:type": "government",
                "amenity": "school"
            }
        }
    ]
}