{"type":"FeatureCollection","features":[{"id":21088,"type":"Feature","geometry":{"type":"Point","coordinates":[18.531097,51.8698519]},"properties":{"isced:level":"1;2","ref:rspo":21088,"official_name":"Szko\u0142a Podstawowa Im Jana Paw\u0142a II w Tokarach Pierwszych","name":"Szko\u0142a Podstawowa Im Jana Paw\u0142a II w Tokarach Pierwszych","addr:country":"PL","addr:postcode":"62-704","addr:place":"Tokary Pierwsze","addr:housenumber":"43A","addr:teryt:sym_ul":285623,"contact:phone":"+48 632886121","contact:email":"sekretariat@sptokary.pl","contact:website":"http:\/\/www.sptokary.pl","ref:regon":"000710517","ref:vatin":"PL6681350944","operator":"Gmina Kaw\u0119czyn","operator:type":"government","amenity":"school"}},{"id":21089,"type":"Feature","geometry":{"type":"Point","coordinates":[18.4486,51.8962999]},"properties":{"isced:level":"1;2","ref:rspo":21089,"official_name":"Szko\u0142a Podstawowa im. Pu\u0142kownika Pilota Stanis\u0142awa Jakuba Skar\u017cy\u0144skiego w Skar\u017cynie","name":"Szko\u0142a Podstawowa","addr:country":"PL","addr:postcode":"62-704","addr:place":"Skar\u017cyn","addr:housenumber":"26 a","addr:teryt:sym_ul":285600,"contact:phone":"+48 632886803","contact:email":"sekretariat@spskarzyn.pl","contact:website":"http:\/\/www.spskarzyn.pl","ref:regon":"001144735","ref:vatin":"PL6681352334","operator":"Gmina Kaw\u0119czyn","operator:type":"government","amenity":"school"}},{"id":27965,"type":"Feature","geometry":{"type":"Point","coordinates":[18.531232,51.908698]},"properties":{"isced:level":"1;2","ref:rspo":27965,"official_name":"Szko\u0142a Podstawowa im. Marii Sk\u0142odowskiej Curie w Kaw\u0119czynie","name":"Szko\u0142a Podstawowa","addr:country":"PL","addr:postcode":"62-704","addr:place":"Kaw\u0119czyn","addr:housenumber":"49a","addr:teryt:sym_ul":285445,"contact:phone":"+48 632885024","contact:email":"sekretariat@zskaweczyn.pl","contact:website":"http:\/\/www.zskaweczyn.pl","ref:regon":"001190362","ref:vatin":"PL6681826967","operator":"Gmina Kaw\u0119czyn","operator:type":"government","amenity":"school"}},{"id":27967,"type":"Feature","geometry":{"type":"Point","coordinates":[18.53454,51.9376759]},"properties":{"isced:level":"1;2","ref:rspo":27967,"official_name":"Szko\u0142a Podstawowa im. Stra\u017cak\u00f3w Polskich w Kowalach Pa\u0144skich-Kolonii","name":"Szko\u0142a Podstawowa","addr:country":"PL","addr:postcode":"62-704","addr:place":"Kowale Pa\u0144skie-Kolonia","addr:housenumber":"34","addr:teryt:sym_ul":285468,"contact:phone":"+48 632887286","contact:email":"zespol_kowalepanskie@wp.pl","contact:website":"http:\/\/www.szkolakowalepanskie.edupage.org","ref:regon":"001190356","ref:vatin":"PL6681827286","operator":"Gmina Kaw\u0119czyn","operator:type":"government","amenity":"school"}},{"id":21090,"type":"Feature","geometry":{"type":"Point","coordinates":[18.537373,51.938235]},"properties":{"ref:rspo":21090,"official_name":"Przedszkole Gminne Kasztanowe Ludki w Kowalach Pa\u0144skich","name":"Przedszkole Gminne Kasztanowe Ludki w Kowalach Pa\u0144skich","addr:country":"PL","addr:postcode":"62-704","addr:place":"Kowale Pa\u0144skie-Kolonia","addr:housenumber":"58B","addr:teryt:sym_ul":285468,"contact:phone":"+48 632887278","contact:email":"przedszkole_kowalepanskie@op.pl","contact:website":"http:\/\/przedszkole.kowalepanskie.pl","ref:regon":"000996726","ref:vatin":"PL6681350890","operator":"Gmina Kaw\u0119czyn","operator:type":"government","amenity":"kindergarten"}}]}