{
    "type": "FeatureCollection",
    "features": [
        {
            "id": 63339,
            "type": "Feature",
            "geometry": {
                "type": "Point",
                "coordinates": [
                    18.51467,
                    52.01205
                ]
            },
            "properties": {
                "ref:rspo": 63339,
                "official_name": "Przedszkiole Samorz\u0105dowe nr 7 im. \"Misia Uszatka\"",
                "name": "Przedszkiole Samorz\u0105dowe nr 7",
                "addr:postcode": "62-700",
                "addr:city": "Turek",
                "addr:street": "Osiedle Wyzwolenia",
                "addr:housenumber": "1a",
                "addr:city:simc": 949336,
                "addr:street:sym_ul": 25131,
                "phone": "+48 632782357",
                "email": "przedszkole7-40@tlen.pl",
                "ref:regon": "310517766",
                "ref:vatin": "PL6681646768",
                "operator": "Gmina Miejska Turek",
                "operator:type": "government",
                "amenity": "kindergarten"
            }
        },
        {
            "id": 71425,
            "type": "Feature",
            "geometry": {
                "type": "Point",
                "coordinates": [
                    18.50202,
                    52.01317
                ]
            },
            "properties": {
                "isced:level": "4",
                "ref:rspo": 71425,
                "official_name": "Szko\u0142a Policealna \nCentrum Szkoleniowego Wiedza",
                "name": "Szko\u0142a Policealna \nCentrum Szkoleniowego Wiedza",
                "addr:postcode": "62-700",
                "addr:city": "Turek",
                "addr:street": "Parkowa",
                "addr:housenumber": "3",
                "addr:city:simc": 949336,
                "addr:street:sym_ul": 15710,
                "phone": "+48 632784777",
                "email": "turek@cswiedza.pl",
                "website": "http:\/\/www.cswiedza.pl",
                "ref:regon": "302261988",
                "operator": "Wanda Musia\u0142",
                "operator:type": "private",
                "amenity": "college"
            }
        },
        {
            "id": 71427,
            "type": "Feature",
            "geometry": {
                "type": "Point",
                "coordinates": [
                    18.50202,
                    52.01314
                ]
            },
            "properties": {
                "isced:level": "3",
                "ref:rspo": 71427,
                "official_name": "Liceum Og\u00f3lnokszta\u0142c\u0105ce Centrum Szkoleniowego Wiedza",
                "name": "Liceum Og\u00f3lnokszta\u0142c\u0105ce Centrum Szkoleniowego Wiedza",
                "addr:postcode": "62-700",
                "addr:city": "Turek",
                "addr:street": "Parkowa",
                "addr:housenumber": "3",
                "addr:city:simc": 949336,
                "addr:street:sym_ul": 15710,
                "phone": "+48 632784777",
                "email": "kontakt@cswiedza.pl",
                "website": "http:\/\/www.cswiedza.pl",
                "ref:regon": "302260569",
                "operator": "Wanda Musia\u0142",
                "operator:type": "private",
                "amenity": "school"
            }
        },
        {
            "id": 274899,
            "type": "Feature",
            "geometry": {
                "type": "Point",
                "coordinates": [
                    18.50202,
                    52.013110000000005
                ]
            },
            "properties": {
                "isced:level": "3",
                "ref:rspo": 274899,
                "official_name": "Bran\u017cowa Szko\u0142a II Stopnia Centrum Szkoleniowego Wiedza",
                "name": "Bran\u017cowa Szko\u0142a II Stopnia Centrum Szkoleniowego Wiedza",
                "addr:postcode": "62-700",
                "addr:city": "Turek",
                "addr:street": "Parkowa",
                "addr:housenumber": "3",
                "addr:city:simc": 949336,
                "addr:street:sym_ul": 15710,
                "phone": "+48 632784777",
                "email": "turek@cswiedza.pl",
                "website": "http:\/\/www.cswiedza.pl",
                "ref:regon": "386372969",
                "operator": "Wanda Musia\u0142",
                "operator:type": "private",
                "amenity": "school"
            }
        },
        {
            "id": 31614,
            "type": "Feature",
            "geometry": {
                "type": "Point",
                "coordinates": [
                    18.50646,
                    52.0136899
                ]
            },
            "properties": {
                "ref:rspo": 31614,
                "official_name": "Pa\u0144stwowa Szko\u0142a Muzyczna I St. im. Witolda Lutos\u0142awskiego w Turku",
                "name": "Pa\u0144stwowa Szko\u0142a Muzyczna I St.",
                "addr:postcode": "62-700",
                "addr:city": "Turek",
                "addr:street": "Uniejowska",
                "addr:housenumber": "9",
                "addr:city:simc": 949336,
                "addr:street:sym_ul": 23359,
                "phone": "+48 632784246",
                "email": "psmturek@gmail.com",
                "website": "http:\/\/muzyczna.turek.pl",
                "ref:regon": "000831155",
                "operator": "Ministerstwo Kultury I Dziedzictwa Narodowego",
                "operator:type": "government",
                "amenity": "music_school"
            }
        },
        {
            "id": 63337,
            "type": "Feature",
            "geometry": {
                "type": "Point",
                "coordinates": [
                    18.51182,
                    52.0140699
                ]
            },
            "properties": {
                "ref:rspo": 63337,
                "official_name": "Przedszkole Samorz\u0105dowe nr 5 z Odzia\u0142ami Integracyjnymi im. \"S\u0142oneczne\"",
                "name": "Przedszkole Samorz\u0105dowe nr 5 z Odzia\u0142ami Integracyjnymi",
                "addr:postcode": "62-700",
                "addr:city": "Turek",
                "addr:street": "Genera\u0142a Mieczys\u0142awa Smorawi\u0144skiego",
                "addr:housenumber": "2",
                "addr:city:simc": 949336,
                "addr:street:sym_ul": 20377,
                "phone": "+48 632785313",
                "email": "przedszkole5turek@gmail.com",
                "ref:regon": "310513337",
                "ref:vatin": "PL6681264363",
                "operator": "Gmina Miejska Turek",
                "operator:type": "government",
                "amenity": "kindergarten"
            }
        },
        {
            "id": 58591,
            "type": "Feature",
            "geometry": {
                "type": "Point",
                "coordinates": [
                    18.52091,
                    52.01426
                ]
            },
            "properties": {
                "isced:level": "1;2",
                "ref:rspo": 58591,
                "official_name": "Szko\u0142a Podstawowa nr 5 im. Unicef",
                "name": "Szko\u0142a Podstawowa nr 5",
                "addr:postcode": "62-700",
                "addr:city": "Turek",
                "addr:street": "Osiedle Wyzwolenia",
                "addr:housenumber": "7A",
                "addr:city:simc": 949336,
                "addr:street:sym_ul": 25131,
                "phone": "+48 632891831",
                "email": "unicef@sp5.turek.pl",
                "website": "http:\/\/www.sp5.turek.net.pl\/",
                "ref:regon": "310149392",
                "ref:vatin": "PL6681746197",
                "operator": "Gmina Miejska Turek",
                "operator:type": "government",
                "amenity": "school"
            }
        },
        {
            "id": 267123,
            "type": "Feature",
            "geometry": {
                "type": "Point",
                "coordinates": [
                    18.474618,
                    52.0145534
                ]
            },
            "properties": {
                "ref:rspo": 267123,
                "official_name": "Przedszkole Muchlin",
                "name": "Przedszkole Muchlin",
                "addr:postcode": "62-700",
                "addr:city": "Turek",
                "addr:street": "Muchli\u0144ska",
                "addr:housenumber": "2",
                "addr:city:simc": 949336,
                "addr:street:sym_ul": 13465,
                "phone": "+48 603615566",
                "email": "arent.marczewska@interia.pl",
                "ref:regon": "369942147",
                "ref:vatin": "PL6681293815",
                "operator": "Agnieszka Arent-Marczewska",
                "operator:type": "private",
                "amenity": "kindergarten"
            }
        },
        {
            "id": 272318,
            "type": "Feature",
            "geometry": {
                "type": "Point",
                "coordinates": [
                    18.50318,
                    52.01559
                ]
            },
            "properties": {
                "isced:level": "1;2",
                "ref:rspo": 272318,
                "official_name": "Katolicka Niepubliczna Szko\u0142a Podstawowa im. \u015aw. Teresy Od Dzieci\u0105tka Jezus w Turku",
                "name": "Katolicka Niepubliczna Szko\u0142a Podstawowa",
                "addr:postcode": "62-700",
                "addr:city": "Turek",
                "addr:street": "Plac Henryka Sienkiewicza",
                "addr:housenumber": "3",
                "addr:city:simc": 949336,
                "addr:street:sym_ul": 19833,
                "phone": "+48 632803104",
                "email": "katolickaturek@tutanota.com",
                "website": "https:\/\/katolickaszkolaturek.wixsite.com\/nspj\/start",
                "ref:regon": "384116653",
                "ref:vatin": "PL6681678716",
                "operator": "Parafia Rzym.-Kat. Pw. Naj\u015bwi\u0119tszego Serca Pana Jezusa",
                "operator:type": "religious",
                "amenity": "school"
            }
        },
        {
            "id": 63335,
            "type": "Feature",
            "geometry": {
                "type": "Point",
                "coordinates": [
                    18.5078299,
                    52.01645
                ]
            },
            "properties": {
                "ref:rspo": 63335,
                "official_name": "Przedszkole Samorz\u0105dowe nr 4\n,,T\u0119czowe\"",
                "name": "Przedszkole Samorz\u0105dowe nr 4\n,,T\u0119czowe\"",
                "addr:postcode": "62-700",
                "addr:city": "Turek",
                "addr:street": "Franciszka Stawickiego",
                "addr:housenumber": "7",
                "addr:city:simc": 949336,
                "addr:street:sym_ul": 21085,
                "phone": "+48 632784794",
                "email": "psnr4@o2.pl",
                "website": "http:\/\/przedszkole-teczowe.edupage.org\/",
                "ref:regon": "310513320",
                "ref:vatin": "PL6681386971",
                "operator": "Gmina Miejska Turek",
                "operator:type": "government",
                "amenity": "kindergarten"
            }
        },
        {
            "id": 63345,
            "type": "Feature",
            "geometry": {
                "type": "Point",
                "coordinates": [
                    18.5002299,
                    52.01772
                ]
            },
            "properties": {
                "ref:rspo": 63345,
                "official_name": "Niepubliczne Przedszkole \"Ma\u0142y Odkrywca\"",
                "name": "Niepubliczne Przedszkole \"Ma\u0142y Odkrywca\"",
                "addr:postcode": "62-700",
                "addr:city": "Turek",
                "addr:street": "3 Maja",
                "addr:housenumber": "8",
                "addr:city:simc": 949336,
                "addr:street:sym_ul": 11937,
                "phone": "+48 605904907",
                "email": "malyodkrywca@zlobekprzedszkole.turek.pl",
                "website": "http:\/\/malyodkrywca.zlobekprzedszkole.turek.pl",
                "ref:regon": "302259690",
                "ref:vatin": "PL6681204102",
                "operator": "Anita Dzieci\u0105tkowska-Pie\u015bcik",
                "operator:type": "private",
                "amenity": "kindergarten"
            }
        },
        {
            "id": 63341,
            "type": "Feature",
            "geometry": {
                "type": "Point",
                "coordinates": [
                    18.52071,
                    52.01773
                ]
            },
            "properties": {
                "ref:rspo": 63341,
                "official_name": "Niepubliczne Przedszkole ,,Magiczna Chatka\"",
                "name": "Niepubliczne Przedszkole ,,Magiczna Chatka\"",
                "addr:postcode": "62-700",
                "addr:city": "Turek",
                "addr:street": "Osiedle Wyzwolenia",
                "addr:housenumber": "34",
                "addr:city:simc": 949336,
                "addr:street:sym_ul": 25131,
                "phone": "+48 632232901",
                "email": "biuro@magicznachatka.eu",
                "website": "http:\/\/www.magicznachatka.eu",
                "ref:regon": "302259678",
                "ref:vatin": "PL6681842268",
                "operator": "Aneta Achenbach",
                "operator:type": "private",
                "amenity": "kindergarten"
            }
        },
        {
            "id": 128876,
            "type": "Feature",
            "geometry": {
                "type": "Point",
                "coordinates": [
                    18.50494,
                    52.01774
                ]
            },
            "properties": {
                "ref:rspo": 128876,
                "official_name": "Centrum Doskonalenia Nauczycieli Publiczna Biblioteka Pedagogiczna w Koninie Filia w Turku",
                "name": "Centrum Doskonalenia Nauczycieli Publiczna Biblioteka Pedagogiczna w Koninie Filia w Turku",
                "addr:postcode": "62-700",
                "addr:city": "Turek",
                "addr:street": "Aleja J\u00f3zefa Pi\u0142sudskiego",
                "addr:housenumber": "1",
                "addr:city:simc": 949336,
                "addr:street:sym_ul": 16259,
                "phone": "+48 632784940",
                "email": "turek@cdnkonin.pl",
                "ref:regon": "311111776",
                "operator": "Wojew\u00f3dztwo Wielkopolskie",
                "operator:type": "government",
                "amenity": "library",
                "note": "Parent RSPO: 30934"
            }
        },
        {
            "id": 268745,
            "type": "Feature",
            "geometry": {
                "type": "Point",
                "coordinates": [
                    18.49555,
                    52.01793
                ]
            },
            "properties": {
                "ref:rspo": 268745,
                "official_name": "Niepubliczne Przedszkole ,,Dolina Elf\u00f3w\"",
                "name": "Niepubliczne Przedszkole ,,Dolina Elf\u00f3w\"",
                "addr:postcode": "62-700",
                "addr:city": "Turek",
                "addr:street": "Adama Mickiewicza",
                "addr:housenumber": "3",
                "addr:city:simc": 949336,
                "addr:street:sym_ul": 12740,
                "phone": "+48 784347395",
                "email": "dolinaelfow@interia.pl",
                "website": "http:\/\/www.dolinaelfowturek.pl",
                "ref:regon": "381239728",
                "operator": "Agnieszka Stasiak",
                "operator:type": "private",
                "amenity": "kindergarten"
            }
        },
        {
            "id": 63336,
            "type": "Feature",
            "geometry": {
                "type": "Point",
                "coordinates": [
                    18.49252,
                    52.01823
                ]
            },
            "properties": {
                "ref:rspo": 63336,
                "official_name": "Przedszkole Samorz\u0105dowe nr 3\n ,,Bajkowe Przedszkole\"",
                "name": "Przedszkole Samorz\u0105dowe nr 3\n ,,Bajkowe Przedszkole\"",
                "addr:postcode": "62-700",
                "addr:city": "Turek",
                "addr:street": "Stanis\u0142awa K\u0105czkowskiego",
                "addr:housenumber": "11",
                "addr:city:simc": 949336,
                "addr:street:sym_ul": 8285,
                "phone": "+48 632784689",
                "email": "przedszkole.3.turek@wp.pl",
                "ref:regon": "310513314",
                "ref:vatin": "PL6681653018",
                "operator": "Gmina Miejska Turek",
                "operator:type": "government",
                "amenity": "kindergarten"
            }
        },
        {
            "id": 63340,
            "type": "Feature",
            "geometry": {
                "type": "Point",
                "coordinates": [
                    18.50308,
                    52.01827
                ]
            },
            "properties": {
                "ref:rspo": 63340,
                "official_name": "Przedeszkole Samorz\u0105dowe nr 8 z Oddzia\u0142ami Integracyjnymi im. \"Krasnala Ha\u0142aba\u0142y\"",
                "name": "Przedeszkole Samorz\u0105dowe nr 8 z Oddzia\u0142ami Integracyjnymi",
                "addr:postcode": "62-700",
                "addr:city": "Turek",
                "addr:street": "Browarna",
                "addr:housenumber": "5",
                "addr:city:simc": 949336,
                "addr:street:sym_ul": 2148,
                "phone": "+48 632785461",
                "email": "przedszkole8_turek@interia.pl",
                "ref:regon": "310513350",
                "ref:vatin": "PL6681652935",
                "operator": "Gmina Miejska Turek",
                "operator:type": "government",
                "amenity": "kindergarten"
            }
        },
        {
            "id": 61561,
            "type": "Feature",
            "geometry": {
                "type": "Point",
                "coordinates": [
                    18.49789,
                    52.01832
                ]
            },
            "properties": {
                "isced:level": "3",
                "ref:rspo": 61561,
                "official_name": "I Liceum Og\u00f3lnokszta\u0142c\u0105ce im. Tadeusza Ko\u015bciuszki w Turku",
                "name": "I Liceum Og\u00f3lnokszta\u0142c\u0105ce",
                "addr:postcode": "62-700",
                "addr:city": "Turek",
                "addr:street": "Tadeusza Ko\u015bciuszki",
                "addr:housenumber": "4",
                "addr:city:simc": 949336,
                "addr:street:sym_ul": 9582,
                "phone": "+48 632784695",
                "email": "loturek@wp.pl",
                "website": "http:\/\/www.liceum.turek.pl",
                "ref:regon": "311596147",
                "operator": "Powiat Turecki",
                "operator:type": "government",
                "amenity": "school"
            }
        },
        {
            "id": 58590,
            "type": "Feature",
            "geometry": {
                "type": "Point",
                "coordinates": [
                    18.49035,
                    52.01852
                ]
            },
            "properties": {
                "isced:level": "1;2",
                "ref:rspo": 58590,
                "official_name": "Szko\u0142a Podstawowa nr 4 im. Genera\u0142a Mieczys\u0142awa Smorawi\u0144skiego",
                "name": "Szko\u0142a Podstawowa nr 4",
                "addr:postcode": "62-700",
                "addr:city": "Turek",
                "addr:street": "Sportowa",
                "addr:housenumber": "9",
                "addr:city:simc": 949336,
                "addr:street:sym_ul": 20683,
                "phone": "+48 632784360",
                "email": "sp4turek@gazeta.pl",
                "website": "http:\/\/www.sp4.turek.pl",
                "ref:regon": "000835609",
                "ref:vatin": "PL6681746263",
                "operator": "Gmina Miejska Turek",
                "operator:type": "government",
                "amenity": "school"
            }
        },
        {
            "id": 63338,
            "type": "Feature",
            "geometry": {
                "type": "Point",
                "coordinates": [
                    18.49576,
                    52.01915
                ]
            },
            "properties": {
                "ref:rspo": 63338,
                "official_name": "Przedszkole Samorz\u0105dowe nr 6 z Oddzia\u0142ami Integracyjnymi im. \"Kubusia Puchatka\"",
                "name": "Przedszkole Samorz\u0105dowe nr 6 z Oddzia\u0142ami Integracyjnymi",
                "addr:postcode": "62-700",
                "addr:city": "Turek",
                "addr:street": "Stanis\u0142awa K\u0105czkowskiego",
                "addr:housenumber": "1a",
                "addr:city:simc": 949336,
                "addr:street:sym_ul": 8285,
                "phone": "+48 632788361",
                "email": "przedszkole6turek.kubuspuchatek@interia.pl",
                "website": "http:\/\/kubuspuchatekturek.pl\/",
                "ref:regon": "310513343",
                "ref:vatin": "PL6681653981",
                "operator": "Gmina Miejska Turek",
                "operator:type": "government",
                "amenity": "kindergarten"
            }
        },
        {
            "id": 3345,
            "type": "Feature",
            "geometry": {
                "type": "Point",
                "coordinates": [
                    18.49753,
                    52.01924
                ]
            },
            "properties": {
                "ref:rspo": 3345,
                "official_name": "Poradnia Psychologiczno-Pedagogiczna w Turku",
                "name": "Poradnia Psychologiczno-Pedagogiczna w Turku",
                "addr:postcode": "62-700",
                "addr:city": "Turek",
                "addr:street": "Tadeusza Ko\u015bciuszki",
                "addr:housenumber": "6",
                "addr:city:simc": 949336,
                "addr:street:sym_ul": 9582,
                "phone": "+48 632785073",
                "email": "sekretariat@ppp.turek.pl",
                "website": "http:\/\/www.ppp.turek.pl",
                "ref:regon": "310500352",
                "operator": "Powiat Turecki",
                "operator:type": "government",
                "healthcare": "counselling",
                "counselling_type": "education",
                "fixme": "w zale\u017cno\u015bci od przedmiotu dzia\u0142alno\u015bci (np. healthcare=counselling + counselling_type=education albo healthcare=psychotherapist)"
            }
        },
        {
            "id": 265909,
            "type": "Feature",
            "geometry": {
                "type": "Point",
                "coordinates": [
                    18.4868099,
                    52.01932
                ]
            },
            "properties": {
                "ref:rspo": 265909,
                "official_name": "Stowarzyszenie Ksi\u0119gowych w Polsce Oddzia\u0142 Terenowy w Turku Oddzia\u0142u Wielkopolskiego w Poznaniu",
                "name": "Stowarzyszenie Ksi\u0119gowych w Polsce Oddzia\u0142 Terenowy w Turku Oddzia\u0142u Wielkopolskiego w Poznaniu",
                "addr:postcode": "62-700",
                "addr:city": "Turek",
                "addr:street": "Komunalna",
                "addr:housenumber": "1",
                "addr:door": "c",
                "addr:city:simc": 949336,
                "addr:street:sym_ul": 9095,
                "email": "turek@skwp.pl",
                "ref:regon": "369012856",
                "operator": "Stowarzyszenie Ksi\u0119gowych W Polsce",
                "operator:type": "ngo"
            }
        },
        {
            "id": 123780,
            "type": "Feature",
            "geometry": {
                "type": "Point",
                "coordinates": [
                    18.50343,
                    52.01936
                ]
            },
            "properties": {
                "ref:rspo": 123780,
                "official_name": "Zesp\u00f3\u0142 Plac\u00f3wek Edukacyjno-Wychowawczych w Turku",
                "name": "Zesp\u00f3\u0142 Plac\u00f3wek Edukacyjno-Wychowawczych w Turku",
                "addr:postcode": "62-700",
                "addr:city": "Turek",
                "addr:street": "Aleja J\u00f3zefa Pi\u0142sudskiego",
                "addr:housenumber": "5",
                "addr:city:simc": 949336,
                "addr:street:sym_ul": 16259,
                "phone": "+48 632896061",
                "email": "zpew-turek@wp.pl",
                "website": "http:\/\/www.zpew-turek.pl",
                "ref:regon": "302786372",
                "ref:vatin": "PL6681969224",
                "operator": "Powiat Turecki",
                "operator:type": "government",
                "landuse": "education",
                "fixme": "amenity=school, amenity=college albo landuse=education w zale\u017cno\u015bci od tego, jakie plac\u00f3wki wchodz\u0105 w sk\u0142ad zespo\u0142u. Sprawd\u017a, kiedy stosowa\u0107 amenity=* a kiedy landuse=education.",
                "note": "Children RSPO: 3326;3608"
            }
        },
        {
            "id": 71799,
            "type": "Feature",
            "geometry": {
                "type": "Point",
                "coordinates": [
                    18.50343,
                    52.01933
                ]
            },
            "properties": {
                "isced:level": "1;2",
                "ref:rspo": 71799,
                "official_name": "Szko\u0142a Podstawowa Specjalna",
                "name": "Szko\u0142a Podstawowa Specjalna",
                "addr:postcode": "62-700",
                "addr:city": "Turek",
                "addr:street": "Aleja J\u00f3zefa Pi\u0142sudskiego",
                "addr:housenumber": "5",
                "addr:city:simc": 949336,
                "addr:street:sym_ul": 16259,
                "phone": "+48 632896061",
                "email": "zpew-turek@wp.pl",
                "website": "http:\/\/www.zpew-turek.pl",
                "ref:regon": "311509562",
                "operator": "Powiat Turecki",
                "operator:type": "government",
                "amenity": "school",
                "note": "Parent RSPO: 3608"
            }
        },
        {
            "id": 71903,
            "type": "Feature",
            "geometry": {
                "type": "Point",
                "coordinates": [
                    18.50343,
                    52.0193
                ]
            },
            "properties": {
                "ref:rspo": 71903,
                "official_name": "Szko\u0142a Specjalna Przysposabiaj\u0105ca do Pracy",
                "name": "Szko\u0142a Specjalna Przysposabiaj\u0105ca do Pracy",
                "addr:postcode": "62-700",
                "addr:city": "Turek",
                "addr:street": "Aleja J\u00f3zefa Pi\u0142sudskiego",
                "addr:housenumber": "5",
                "addr:city:simc": 949336,
                "addr:street:sym_ul": 16259,
                "phone": "+48 632896061",
                "email": "zpew-turek@wp.pl",
                "website": "http:\/\/www.zpew-turek.pl",
                "ref:regon": "300113189",
                "operator": "Powiat Turecki",
                "operator:type": "government",
                "amenity": "school",
                "note": "Parent RSPO: 3608"
            }
        },
        {
            "id": 79013,
            "type": "Feature",
            "geometry": {
                "type": "Point",
                "coordinates": [
                    18.50343,
                    52.01927
                ]
            },
            "properties": {
                "isced:level": "3",
                "ref:rspo": 79013,
                "official_name": "Bran\u017cowa Szko\u0142a I Stopnia Specjalna w Turku",
                "name": "Bran\u017cowa Szko\u0142a I Stopnia Specjalna w Turku",
                "addr:postcode": "62-700",
                "addr:city": "Turek",
                "addr:street": "Aleja J\u00f3zefa Pi\u0142sudskiego",
                "addr:housenumber": "5",
                "addr:city:simc": 949336,
                "addr:street:sym_ul": 16259,
                "phone": "+48 632896061",
                "email": "zpew-turek@wp.pl",
                "website": "http:\/\/zpew-turek.pl",
                "ref:regon": "311509579",
                "operator": "Powiat Turecki",
                "operator:type": "government",
                "amenity": "school",
                "note": "Parent RSPO: 3608"
            }
        },
        {
            "id": 3326,
            "type": "Feature",
            "geometry": {
                "type": "Point",
                "coordinates": [
                    18.50343,
                    52.019239999999996
                ]
            },
            "properties": {
                "ref:rspo": 3326,
                "official_name": "Bursa Szkolna w Turku",
                "name": "Bursa Szkolna w Turku",
                "addr:postcode": "62-700",
                "addr:city": "Turek",
                "addr:street": "Aleja J\u00f3zefa Pi\u0142sudskiego",
                "addr:housenumber": "5",
                "addr:city:simc": 949336,
                "addr:street:sym_ul": 16259,
                "phone": "+48 632896073",
                "email": "zpew-turek@wp.pl",
                "website": "http:\/\/www.zpew-turek.pl",
                "ref:regon": "000865438",
                "operator": "Powiat Turecki",
                "operator:type": "government",
                "building": "dormitory",
                "note": "Parent RSPO: 123780"
            }
        },
        {
            "id": 3608,
            "type": "Feature",
            "geometry": {
                "type": "Point",
                "coordinates": [
                    18.50343,
                    52.01921
                ]
            },
            "properties": {
                "ref:rspo": 3608,
                "official_name": "Specjalny O\u015brodek Szkolno-Wychowawczy im. Kornela Makuszy\u0144skiego w Turku",
                "name": "Specjalny O\u015brodek Szkolno-Wychowawczy",
                "addr:postcode": "62-700",
                "addr:city": "Turek",
                "addr:street": "Aleja J\u00f3zefa Pi\u0142sudskiego",
                "addr:housenumber": "5",
                "addr:city:simc": 949336,
                "addr:street:sym_ul": 16259,
                "phone": "+48 632896061",
                "email": "zpew-turek@wp.pl",
                "website": "http:\/\/zpew-turek.pl",
                "ref:regon": "001032999",
                "operator": "Powiat Turecki",
                "operator:type": "government",
                "amenity": "school",
                "note": "Children RSPO: 71799;71903;79013Parent RSPO: 123780"
            }
        },
        {
            "id": 57553,
            "type": "Feature",
            "geometry": {
                "type": "Point",
                "coordinates": [
                    18.49891,
                    52.01947
                ]
            },
            "properties": {
                "isced:level": "1;2",
                "ref:rspo": 57553,
                "official_name": "Szko\u0142a Podstawowa nr 1 im. Henryka Sienkiewicza",
                "name": "Szko\u0142a Podstawowa nr 1",
                "addr:postcode": "62-700",
                "addr:city": "Turek",
                "addr:street": "3 Maja",
                "addr:housenumber": "29",
                "addr:city:simc": 949336,
                "addr:street:sym_ul": 11937,
                "phone": "+48 632784790",
                "email": "sp1turek@wp.pl",
                "website": "http:\/\/www.sp1.turek.net.pl",
                "ref:regon": "001023799",
                "ref:vatin": "PL6681746228",
                "operator": "Gmina Miejska Turek",
                "operator:type": "government",
                "amenity": "school"
            }
        },
        {
            "id": 69355,
            "type": "Feature",
            "geometry": {
                "type": "Point",
                "coordinates": [
                    18.49891,
                    52.019439999999996
                ]
            },
            "properties": {
                "ref:rspo": 69355,
                "official_name": "Niepubliczne Centrum Kszta\u0142cenia Ustawicznego \u2013 O\u015brodek Szkoleniowy I J\u0119zyk\u00f3w Obcych \u201eTurex-Bis\u201d",
                "name": "Niepubliczne Centrum Kszta\u0142cenia Ustawicznego \u2013 O\u015brodek Szkoleniowy I J\u0119zyk\u00f3w Obcych \u201eTurex-Bis\u201d",
                "addr:postcode": "62-700",
                "addr:city": "Turek",
                "addr:street": "3 Maja",
                "addr:housenumber": "29",
                "addr:city:simc": 949336,
                "addr:street:sym_ul": 11937,
                "phone": "+48 632892239",
                "email": "turex@lm.pl",
                "website": "http:\/\/www.kursyiszkoleniaturex-bis.pl",
                "ref:regon": "302259856",
                "operator": "Henryk Wieruchowski",
                "operator:type": "private",
                "fixme": "w zale\u017cno\u015bci od przedmiotu dzia\u0142alno\u015bci (np. amenity=training + training=*, amenity=dancing_school, amenity=language_school, amenity=music_school)"
            }
        },
        {
            "id": 123783,
            "type": "Feature",
            "geometry": {
                "type": "Point",
                "coordinates": [
                    18.49984,
                    52.02013
                ]
            },
            "properties": {
                "isced:level": "4",
                "ref:rspo": 123783,
                "official_name": "Szko\u0142a Policealna w Turku",
                "name": "Szko\u0142a Policealna w Turku",
                "addr:postcode": "62-700",
                "addr:city": "Turek",
                "addr:street": "Wincentego Milewskiego",
                "addr:housenumber": "3",
                "addr:city:simc": 949336,
                "addr:street:sym_ul": 12935,
                "phone": "+48 632803612",
                "email": "zst@turek.net.pl",
                "website": "http:\/\/www.zst.net.pl",
                "ref:regon": "300872587",
                "operator": "Powiat Turecki",
                "operator:type": "government",
                "amenity": "college",
                "note": "Parent RSPO: 49727"
            }
        },
        {
            "id": 131560,
            "type": "Feature",
            "geometry": {
                "type": "Point",
                "coordinates": [
                    18.49984,
                    52.0201
                ]
            },
            "properties": {
                "isced:level": "3",
                "ref:rspo": 131560,
                "official_name": "Liceum Og\u00f3lnokszta\u0142c\u0105ce dla Doros\u0142ych w Turku",
                "name": "Liceum Og\u00f3lnokszta\u0142c\u0105ce dla Doros\u0142ych w Turku",
                "addr:postcode": "62-700",
                "addr:city": "Turek",
                "addr:street": "Wincentego Milewskiego",
                "addr:housenumber": "3",
                "addr:city:simc": 949336,
                "addr:street:sym_ul": 12935,
                "phone": "+48 632803613",
                "email": "zst@turek.net.pl",
                "website": "http:\/\/www.zst.net.pl",
                "ref:regon": "365226514",
                "operator": "Powiat Turecki",
                "operator:type": "government",
                "amenity": "school",
                "note": "Parent RSPO: 49727"
            }
        },
        {
            "id": 49727,
            "type": "Feature",
            "geometry": {
                "type": "Point",
                "coordinates": [
                    18.5014499,
                    52.02046
                ]
            },
            "properties": {
                "ref:rspo": 49727,
                "official_name": "Zesp\u00f3\u0142 Szk\u00f3\u0142 Technicznych im. Gen. Prof. Sylwestra Kaliskiego w Turku",
                "name": "Zesp\u00f3\u0142 Szk\u00f3\u0142 Technicznych",
                "addr:postcode": "62-700",
                "addr:city": "Turek",
                "addr:street": "Wincentego Milewskiego",
                "addr:housenumber": "3b",
                "addr:city:simc": 949336,
                "addr:street:sym_ul": 12935,
                "phone": "+48 632803612",
                "email": "zst@turek.net.pl",
                "website": "http:\/\/zst.net.pl",
                "ref:regon": "000234554",
                "operator": "Powiat Turecki",
                "operator:type": "government",
                "landuse": "education",
                "fixme": "amenity=school, amenity=college albo landuse=education w zale\u017cno\u015bci od tego, jakie plac\u00f3wki wchodz\u0105 w sk\u0142ad zespo\u0142u. Sprawd\u017a, kiedy stosowa\u0107 amenity=* a kiedy landuse=education.",
                "note": "Children RSPO: 62307;64724;83596;123783;131560"
            }
        },
        {
            "id": 62307,
            "type": "Feature",
            "geometry": {
                "type": "Point",
                "coordinates": [
                    18.5014499,
                    52.02043
                ]
            },
            "properties": {
                "isced:level": "3",
                "ref:rspo": 62307,
                "official_name": "Bran\u017cowa Szko\u0142a I Stopnia w Turku",
                "name": "Bran\u017cowa Szko\u0142a I Stopnia w Turku",
                "addr:postcode": "62-700",
                "addr:city": "Turek",
                "addr:street": "Wincentego Milewskiego",
                "addr:housenumber": "3b",
                "addr:city:simc": 949336,
                "addr:street:sym_ul": 12935,
                "phone": "+48 632803613",
                "email": "zst@turek.net.pl",
                "website": "http:\/\/www.zst.net.pl",
                "ref:regon": "311595343",
                "operator": "Powiat Turecki",
                "operator:type": "government",
                "amenity": "school",
                "note": "Parent RSPO: 49727"
            }
        },
        {
            "id": 64724,
            "type": "Feature",
            "geometry": {
                "type": "Point",
                "coordinates": [
                    18.5014499,
                    52.0204
                ]
            },
            "properties": {
                "isced:level": "3",
                "ref:rspo": 64724,
                "official_name": "Technikum w Turku",
                "name": "Technikum w Turku",
                "addr:postcode": "62-700",
                "addr:city": "Turek",
                "addr:street": "Wincentego Milewskiego",
                "addr:housenumber": "3b",
                "addr:city:simc": 949336,
                "addr:street:sym_ul": 12935,
                "phone": "+48 632803636",
                "email": "zst@turek.net.pl",
                "website": "http:\/\/www.zst.net.pl",
                "ref:regon": "301238020",
                "operator": "Powiat Turecki",
                "operator:type": "government",
                "amenity": "school",
                "note": "Parent RSPO: 49727"
            }
        },
        {
            "id": 83596,
            "type": "Feature",
            "geometry": {
                "type": "Point",
                "coordinates": [
                    18.5014499,
                    52.02037
                ]
            },
            "properties": {
                "ref:rspo": 83596,
                "official_name": "Centrum Kszta\u0142cenia Zawodowego w Turku",
                "name": "Centrum Kszta\u0142cenia Zawodowego w Turku",
                "addr:postcode": "62-700",
                "addr:city": "Turek",
                "addr:street": "Wincentego Milewskiego",
                "addr:housenumber": "3b",
                "addr:city:simc": 949336,
                "addr:street:sym_ul": 12935,
                "phone": "+48 632803613",
                "email": "zst@turek.net.pl",
                "website": "http:\/\/www.zst.net.pl",
                "ref:regon": "311595202",
                "operator": "Powiat Turecki",
                "operator:type": "government",
                "fixme": "w zale\u017cno\u015bci od przedmiotu dzia\u0142alno\u015bci (np. amenity=training + training=*, amenity=dancing_school, amenity=language_school, amenity=music_school) albo amenity=school, amenity=college, albo landuse=education w zale\u017cno\u015bci od tego, jakie plac\u00f3wki wchodz\u0105 w sk\u0142ad zespo\u0142u. Sprawd\u017a, kiedy stosowa\u0107 amenity=* a kiedy landuse=education.",
                "note": "Parent RSPO: 49727"
            }
        },
        {
            "id": 276518,
            "type": "Feature",
            "geometry": {
                "type": "Point",
                "coordinates": [
                    18.52764,
                    52.02168
                ]
            },
            "properties": {
                "ref:rspo": 276518,
                "official_name": "Niepubliczny O\u015brodek Doskonalenia Nauczycieli \"Intjo\" Przy Centrum Technologii Edukacyjnych \"Intjo\" Sp. z o.o. w Turku",
                "name": "Niepubliczny O\u015brodek Doskonalenia Nauczycieli \"Intjo\" Przy Centrum Technologii Edukacyjnych \"Intjo\" Sp. z o.o. w Turku",
                "addr:postcode": "62-700",
                "addr:city": "Turek",
                "addr:street": "Jedwabnicza",
                "addr:housenumber": "4",
                "addr:city:simc": 949336,
                "addr:street:sym_ul": 7449,
                "phone": "+48 632223860",
                "ref:regon": "387182946",
                "operator": "Centrum Technologii Edukacyjnych \"Intjo\" Sp\u00f3\u0142ka Z Ograniczon\u0105 Odpowiedzialno\u015bci\u0105",
                "operator:type": "private",
                "amenity": "training"
            }
        },
        {
            "id": 63342,
            "type": "Feature",
            "geometry": {
                "type": "Point",
                "coordinates": [
                    18.50495,
                    52.02218
                ]
            },
            "properties": {
                "ref:rspo": 63342,
                "official_name": "Niepubliczne Przedszkole \"Smerfiki\"",
                "name": "Niepubliczne Przedszkole \"Smerfiki\"",
                "addr:postcode": "62-700",
                "addr:city": "Turek",
                "addr:street": "D\u0119bowa",
                "addr:housenumber": "18",
                "addr:city:simc": 949336,
                "addr:street:sym_ul": 3811,
                "phone": "+48 669794195",
                "email": "klubik@smerfiki.pl",
                "website": "http:\/\/www.smerfiki.pl",
                "ref:regon": "302259684",
                "ref:vatin": "PL6681821384",
                "operator": "Kornelia Rychlik",
                "operator:type": "private",
                "amenity": "kindergarten"
            }
        }
    ]
}