{"type":"FeatureCollection","features":[{"id":57225,"type":"Feature","geometry":{"type":"Point","coordinates":[18.5481828,51.9697409]},"properties":{"ref:rspo":57225,"official_name":"Zesp\u00f3\u0142 Szk\u00f3\u0142 Rolniczych Centrum Kszta\u0142cenia Praktycznego w Kaczkach \u015arednich","name":"Zesp\u00f3\u0142 Szk\u00f3\u0142 Rolniczych Centrum Kszta\u0142cenia Praktycznego w Kaczkach \u015arednich","addr:country":"PL","addr:postcode":"62-700","addr:place":"Kaczki \u015arednie","addr:housenumber":"62","addr:teryt:sym_ul":298324,"contact:phone":"+48 632898410","contact:email":"sekretariat@zsrkaczki.edu.pl","contact:website":"http:\/\/www.zsrkaczki.edu.pl","ref:regon":"000100121","operator":"Powiat Turecki","operator:type":"government","landuse":"education","fixme":"amenity=school, amenity=college albo landuse=education w zale\u017cno\u015bci od tego, jakie plac\u00f3wki wchodz\u0105 w sk\u0142ad zespo\u0142u. Sprawd\u017a, kiedy stosowa\u0107 amenity=* a kiedy landuse=education.","note":"Children RSPO: 83690;83693;90812;133272;273907"}},{"id":83690,"type":"Feature","geometry":{"type":"Point","coordinates":[18.5481828,51.969710899999995]},"properties":{"isced:level":"4","ref:rspo":83690,"official_name":"Szko\u0142a Policealna w Kaczkach \u015arednich","name":"Szko\u0142a Policealna w Kaczkach \u015arednich","addr:country":"PL","addr:postcode":"62-700","addr:place":"Kaczki \u015arednie","addr:housenumber":"62","addr:teryt:sym_ul":298324,"contact:phone":"+48 632899720","contact:email":"zsrckpkaczki@go2.pl","contact:website":"http:\/\/www.zsrkaczki.prv.pl","ref:regon":"311595834","operator":"Powiat Turecki","operator:type":"government","amenity":"college","note":"Parent RSPO: 57225"}},{"id":83693,"type":"Feature","geometry":{"type":"Point","coordinates":[18.5481828,51.9696809]},"properties":{"isced:level":"3","ref:rspo":83693,"official_name":"Liceum Og\u00f3lnokszta\u0142c\u0105ce w Kaczkach \u015arednich","name":"Liceum Og\u00f3lnokszta\u0142c\u0105ce w Kaczkach \u015arednich","addr:country":"PL","addr:postcode":"62-700","addr:place":"Kaczki \u015arednie","addr:housenumber":"62","addr:teryt:sym_ul":298324,"contact:phone":"+48 632898410","contact:email":"sekretariat@zsrkaczki.edu.pl","contact:website":"http:\/\/www.zsrkaczki.edu.pl","ref:regon":"311595892","operator":"Powiat Turecki","operator:type":"government","amenity":"school","note":"Parent RSPO: 57225"}},{"id":90812,"type":"Feature","geometry":{"type":"Point","coordinates":[18.5481828,51.9696509]},"properties":{"isced:level":"3","ref:rspo":90812,"official_name":"Technikum w Kaczkach \u015arednich","name":"Technikum w Kaczkach \u015arednich","addr:country":"PL","addr:postcode":"62-700","addr:place":"Kaczki \u015arednie","addr:housenumber":"62","addr:teryt:sym_ul":298324,"contact:phone":"+48 632898410","contact:email":"sekretariat@zsrkaczki.edu.pl","contact:website":"http:\/\/www.zsrkaczki.edu.pl","ref:regon":"311596319","operator":"Powiat Turecki","operator:type":"government","amenity":"school","note":"Parent RSPO: 57225"}},{"id":133272,"type":"Feature","geometry":{"type":"Point","coordinates":[18.5481828,51.969620899999995]},"properties":{"isced:level":"3","ref:rspo":133272,"official_name":"Bran\u017cowa Szko\u0142a I Stopnia w Kaczkach \u015arednich","name":"Bran\u017cowa Szko\u0142a I Stopnia w Kaczkach \u015arednich","addr:country":"PL","addr:postcode":"62-700","addr:place":"Kaczki \u015arednie","addr:housenumber":"62","addr:teryt:sym_ul":298324,"contact:phone":"+48 632898421","contact:email":"sekretariat@zsrkaczki.edu.pl","contact:website":"http:\/\/www.zsrkaczki.edu.pl","ref:regon":"366907067","operator":"Powiat Turecki","operator:type":"government","amenity":"school","note":"Parent RSPO: 57225"}},{"id":273907,"type":"Feature","geometry":{"type":"Point","coordinates":[18.5481828,51.9695909]},"properties":{"ref:rspo":273907,"official_name":"Centrum Kszta\u0142cenia Zawodowego w Kaczkach \u015arednich","name":"Centrum Kszta\u0142cenia Zawodowego w Kaczkach \u015arednich","addr:country":"PL","addr:postcode":"62-700","addr:place":"Kaczki \u015arednie","addr:housenumber":"62","addr:teryt:sym_ul":298324,"contact:phone":"+48 632898410","contact:email":"sekretariat@zsrkaczki.edu.pl","contact:website":"http:\/\/www.zsrkaczki.edu.pl","ref:regon":"384856717","ref:vatin":"PL6681255536","operator":"Powiat Turecki","operator:type":"government","fixme":"w zale\u017cno\u015bci od przedmiotu dzia\u0142alno\u015bci (np. amenity=training + training=*, amenity=dancing_school, amenity=language_school, amenity=music_school) albo amenity=school, amenity=college, albo landuse=education w zale\u017cno\u015bci od tego, jakie plac\u00f3wki wchodz\u0105 w sk\u0142ad zespo\u0142u. Sprawd\u017a, kiedy stosowa\u0107 amenity=* a kiedy landuse=education.","note":"Parent RSPO: 57225"}},{"id":84806,"type":"Feature","geometry":{"type":"Point","coordinates":[18.554265,51.969919]},"properties":{"isced:level":"1;2","ref:rspo":84806,"official_name":"Szko\u0142a Podstawowa im. Jana Paw\u0142a II w Kaczkach \u015arednich","name":"Szko\u0142a Podstawowa","addr:country":"PL","addr:postcode":"62-700","addr:place":"Kaczki \u015arednie","addr:housenumber":"63","addr:teryt:sym_ul":298324,"contact:phone":"+48 632899714","contact:email":"spkaczki@wp.pl","contact:website":"http:\/\/www.spkaczki.edu.pl","ref:regon":"001192148","ref:vatin":"PL6681749327","operator":"Gmina Turek","operator:type":"government","amenity":"school"}},{"id":84807,"type":"Feature","geometry":{"type":"Point","coordinates":[18.50734,51.98743]},"properties":{"isced:level":"1;2","ref:rspo":84807,"official_name":"Szko\u0142a Podstawowa im. Marii Konopnickiej w Turkowicach","name":"Szko\u0142a Podstawowa","addr:country":"PL","addr:postcode":"62-700","addr:city":"Turkowice","addr:street":"ul. Ja\u015bminowa","addr:housenumber":"3","addr:teryt:simc":7380,"addr:teryt:sym_ul":298471,"contact:phone":"+48 632899603","contact:email":"spturkowice@gmina.turek.pl","contact:website":"http:\/\/www.spturkowice.szkolnastrona.pl","ref:regon":"001192177","ref:vatin":"PL6681749356","operator":"Gmina Turek","operator:type":"government","amenity":"school"}},{"id":84800,"type":"Feature","geometry":{"type":"Point","coordinates":[18.4501649,51.9924819]},"properties":{"isced:level":"1;2","ref:rspo":84800,"official_name":"Szko\u0142a Podstawowa im. Kornela Makuszy\u0144skiego w Cisewie","name":"Szko\u0142a Podstawowa","addr:country":"PL","addr:postcode":"62-700","addr:place":"Cisew","addr:housenumber":"55","addr:teryt:sym_ul":298258,"contact:phone":"+48 632784329","contact:email":"spcisew@gmina.turek.pl","contact:website":"http:\/\/www.spcisew.szkolnastrona.pl","ref:regon":"000241212","ref:vatin":"PL6681749221","operator":"Gmina Turek","operator:type":"government","amenity":"school"}},{"id":84808,"type":"Feature","geometry":{"type":"Point","coordinates":[18.5532109,51.9973869]},"properties":{"isced:level":"1;2","ref:rspo":84808,"official_name":"Szko\u0142a Podstawowa im. Marii Curie-Sk\u0142odowskiej w \u017bukach","name":"Szko\u0142a Podstawowa","addr:country":"PL","addr:postcode":"62-700","addr:place":"\u017buki","addr:housenumber":"92","addr:teryt:sym_ul":298519,"contact:phone":"+48 880134263","contact:email":"spzuki@gmina.turek.pl","contact:website":"http:\/\/spzuki.edupage.org","ref:regon":"001192289","ref:vatin":"PL6681749190","operator":"Gmina Turek","operator:type":"government","amenity":"school"}},{"id":84803,"type":"Feature","geometry":{"type":"Point","coordinates":[18.432744,52.017708]},"properties":{"ref:rspo":84803,"official_name":"Zesp\u00f3\u0142 Szkolno-Przedszkolny w S\u0142odkowie","name":"Zesp\u00f3\u0142 Szkolno-Przedszkolny w S\u0142odkowie","addr:country":"PL","addr:postcode":"62-700","addr:place":"S\u0142odk\u00f3w","addr:housenumber":"21","addr:teryt:sym_ul":298436,"contact:phone":"+48 632207632","contact:email":"sekretariat@zspslodkow.com","contact:website":"http:\/\/www.zspslodkow.com","ref:regon":"001192160","ref:vatin":"PL6681749617","operator":"Gmina Turek","operator:type":"government","landuse":"education","fixme":"amenity=school, amenity=college albo landuse=education w zale\u017cno\u015bci od tego, jakie plac\u00f3wki wchodz\u0105 w sk\u0142ad zespo\u0142u. Sprawd\u017a, kiedy stosowa\u0107 amenity=* a kiedy landuse=education.","note":"Children RSPO: 72021;72022"}},{"id":72021,"type":"Feature","geometry":{"type":"Point","coordinates":[18.432744,52.017678]},"properties":{"isced:level":"1;2","ref:rspo":72021,"official_name":"Szko\u0142a Podstawowa w S\u0142odkowie","name":"Szko\u0142a Podstawowa w S\u0142odkowie","addr:country":"PL","addr:postcode":"62-700","addr:place":"S\u0142odk\u00f3w","addr:housenumber":"21","addr:teryt:sym_ul":298436,"contact:phone":"+48 632207632","contact:email":"sekretariat@zspslodkow.com","contact:website":"http:\/\/www.zspslodkow.com","ref:regon":"302261439","operator":"Gmina Turek","operator:type":"government","amenity":"school","note":"Parent RSPO: 84803"}},{"id":72022,"type":"Feature","geometry":{"type":"Point","coordinates":[18.432744,52.017648]},"properties":{"ref:rspo":72022,"official_name":"Gminne Przedszkole w S\u0142odkowie","name":"Gminne Przedszkole w S\u0142odkowie","addr:country":"PL","addr:postcode":"62-700","addr:place":"S\u0142odk\u00f3w","addr:housenumber":"21","addr:teryt:sym_ul":298436,"contact:phone":"+48 632784533","contact:email":"zspslodkow@poczta.onet.pl","contact:website":"http:\/\/wwwzspslodkow.com","ref:regon":"302261586","operator":"Gmina Turek","operator:type":"government","amenity":"kindergarten","note":"Parent RSPO: 84803"}},{"id":84805,"type":"Feature","geometry":{"type":"Point","coordinates":[18.5630229,52.025438]},"properties":{"isced:level":"1;2","ref:rspo":84805,"official_name":"Szko\u0142a Podstawowa im. J\u00f3zefa Mehoffera w Chlebowie","name":"Szko\u0142a Podstawowa","addr:country":"PL","addr:postcode":"62-700","addr:place":"Chleb\u00f3w","addr:housenumber":"15","addr:teryt:sym_ul":298241,"contact:phone":"+48 632899486","contact:email":"spchlebow@gmail.com","contact:website":"http:\/\/www.spchlebow.cal.pl","ref:regon":"001192131","ref:vatin":"PL6681749215","operator":"Gmina Turek","operator:type":"government","amenity":"school"}}]}