{
    "type": "FeatureCollection",
    "features": [
        {
            "id": 17194,
            "type": "Feature",
            "geometry": {
                "type": "Point",
                "coordinates": [
                    22.89453,
                    53.78612
                ]
            },
            "properties": {
                "isced:level": "1;2",
                "ref:rspo": 17194,
                "official_name": "Szko\u0142a Podstawowa im. Sybirak\u00f3w w Netcie",
                "name": "Szko\u0142a Podstawowa",
                "addr:country": "PL",
                "addr:postcode": "16-320",
                "addr:place": "Netta Pierwsza",
                "addr:housenumber": "14",
                "addr:teryt:simc": 753018,
                "contact:phone": "+48 876432167",
                "contact:email": "szkolanetta@onet.pl",
                "contact:website": "http:\/\/www.szkolanetta.edu.pl",
                "ref:regon": "001154308",
                "ref:vatin": "PL8461476609",
                "operator": "Gmina August\u00f3w",
                "operator:type": "government",
                "amenity": "school"
            }
        },
        {
            "id": 39039,
            "type": "Feature",
            "geometry": {
                "type": "Point",
                "coordinates": [
                    22.89453,
                    53.786089999999994
                ]
            },
            "properties": {
                "ref:rspo": 39039,
                "official_name": "Zesp\u00f3\u0142 Wychowania Przedszkolnego w Netcie",
                "name": "Zesp\u00f3\u0142 Wychowania Przedszkolnego w Netcie",
                "addr:country": "PL",
                "addr:postcode": "16-320",
                "addr:place": "Netta Pierwsza",
                "addr:housenumber": "14",
                "addr:teryt:simc": 753018,
                "contact:phone": "+48 876432167",
                "contact:email": "szkolanetta@onet.pl",
                "contact:website": "http:\/\/szkolanetta.republika.pl\/",
                "ref:regon": "200735468",
                "operator": "Gmina August\u00f3w",
                "operator:type": "government",
                "amenity": "kindergarten"
            }
        },
        {
            "id": 17056,
            "type": "Feature",
            "geometry": {
                "type": "Point",
                "coordinates": [
                    23.05165,
                    53.78708
                ]
            },
            "properties": {
                "isced:level": "1;2",
                "ref:rspo": 17056,
                "official_name": "Szko\u0142a Podstawowa im. Mjr Henryka Dobrza\u0144skiego \"Hubala\" w Kolnicy",
                "name": "Szko\u0142a Podstawowa",
                "addr:country": "PL",
                "addr:postcode": "16-300",
                "addr:place": "Kolnica",
                "addr:housenumber": "48",
                "addr:teryt:simc": 752929,
                "contact:phone": "+48 876449295",
                "contact:email": "sphubal@o2.pl",
                "contact:website": "http:\/\/spkolnica.republika.pl\/",
                "ref:regon": "001154290",
                "ref:vatin": "PL8461476644",
                "operator": "Gmina August\u00f3w",
                "operator:type": "government",
                "amenity": "school"
            }
        },
        {
            "id": 39045,
            "type": "Feature",
            "geometry": {
                "type": "Point",
                "coordinates": [
                    23.05165,
                    53.78705
                ]
            },
            "properties": {
                "ref:rspo": 39045,
                "official_name": "Zesp\u00f3\u0142 Wychowania Przedszkolnego w Kolnicy",
                "name": "Zesp\u00f3\u0142 Wychowania Przedszkolnego w Kolnicy",
                "addr:country": "PL",
                "addr:postcode": "16-300",
                "addr:place": "Kolnica",
                "addr:housenumber": "48",
                "addr:teryt:simc": 752929,
                "contact:phone": "+48 876449295",
                "contact:email": "sphubal@o2.pl",
                "contact:website": "http:\/\/spkolnica.republika.pl\/",
                "ref:regon": "200735416",
                "operator": "Gmina August\u00f3w",
                "operator:type": "government",
                "amenity": "kindergarten"
            }
        },
        {
            "id": 25160,
            "type": "Feature",
            "geometry": {
                "type": "Point",
                "coordinates": [
                    22.9681399,
                    53.80061
                ]
            },
            "properties": {
                "isced:level": "1;2",
                "ref:rspo": 25160,
                "official_name": "Szko\u0142a Podstawowa im. Gen. I. Pr\u0105dzy\u0144skiego w Bia\u0142obrzegach",
                "name": "Szko\u0142a Podstawowa",
                "addr:country": "PL",
                "addr:postcode": "16-300",
                "addr:place": "Bia\u0142obrzegi",
                "addr:housenumber": "75",
                "addr:teryt:simc": 752792,
                "contact:phone": "+48 876449225",
                "contact:email": "zszwbialobrzegach1@op.pl",
                "contact:website": "https:\/\/zsbialobrzegi.edupage.org",
                "ref:regon": "001154248",
                "ref:vatin": "PL8461527525",
                "operator": "Gmina August\u00f3w",
                "operator:type": "government",
                "amenity": "school"
            }
        },
        {
            "id": 17004,
            "type": "Feature",
            "geometry": {
                "type": "Point",
                "coordinates": [
                    23.109033584595,
                    53.814037322998
                ]
            },
            "properties": {
                "isced:level": "1;2",
                "ref:rspo": 17004,
                "official_name": "Szko\u0142a Podstawowa im.jana Paw\u0142a II w \u017barnowie",
                "name": "Szko\u0142a Podstawowa im.jana Paw\u0142a II w \u017barnowie",
                "addr:country": "PL",
                "addr:postcode": "16-300",
                "addr:place": "\u017barnowo Drugie",
                "addr:housenumber": "1",
                "addr:teryt:simc": 753194,
                "contact:phone": "+48 876436805",
                "contact:email": "zarnowo2@poczta.onet.pl",
                "contact:website": "http:\/\/spzarnowo.edupage.org",
                "ref:regon": "001154343",
                "ref:vatin": "PL8461476176",
                "operator": "Gmina August\u00f3w",
                "operator:type": "government",
                "amenity": "school"
            }
        },
        {
            "id": 39038,
            "type": "Feature",
            "geometry": {
                "type": "Point",
                "coordinates": [
                    23.109033584595,
                    53.814007322997995
                ]
            },
            "properties": {
                "ref:rspo": 39038,
                "official_name": "Zesp\u00f3\u0142 Wychowania Przedszkolnego w \u017barnowie",
                "name": "Zesp\u00f3\u0142 Wychowania Przedszkolnego w \u017barnowie",
                "addr:country": "PL",
                "addr:postcode": "16-300",
                "addr:place": "\u017barnowo Drugie",
                "addr:housenumber": "1",
                "addr:teryt:simc": 753194,
                "contact:phone": "+48 876436805",
                "contact:email": "zarnowo2@poczta.onet.pl",
                "contact:website": "http:\/\/spzarnowo.republika.pl\/",
                "ref:regon": "200735391",
                "operator": "Gmina August\u00f3w",
                "operator:type": "government",
                "amenity": "kindergarten"
            }
        },
        {
            "id": 17222,
            "type": "Feature",
            "geometry": {
                "type": "Point",
                "coordinates": [
                    22.79301,
                    53.85655
                ]
            },
            "properties": {
                "isced:level": "1;2",
                "ref:rspo": 17222,
                "official_name": "Szko\u0142a Podstawowa im. Obro\u0144c\u00f3w Westerplatte w Rutkach",
                "name": "Szko\u0142a Podstawowa",
                "addr:country": "PL",
                "addr:postcode": "16-300",
                "addr:place": "Rutki Nowe",
                "addr:housenumber": "1",
                "addr:teryt:simc": 753024,
                "contact:phone": "+48 876442009",
                "contact:email": "sp.rutki@wp.pl",
                "contact:website": "http:\/\/sp-rutki.cba.pl\/",
                "ref:regon": "001154320",
                "ref:vatin": "PL8461476667",
                "operator": "Gmina August\u00f3w",
                "operator:type": "government",
                "amenity": "school"
            }
        },
        {
            "id": 39047,
            "type": "Feature",
            "geometry": {
                "type": "Point",
                "coordinates": [
                    22.79301,
                    53.856519999999996
                ]
            },
            "properties": {
                "ref:rspo": 39047,
                "official_name": "Punkt Przedszkolny \"O\u015brodek Wychowania Przedszkolnego Wed\u0142ug Metody Marii Montessori w Rutkach",
                "name": "Punkt Przedszkolny \"O\u015brodek Wychowania Przedszkolnego Wed\u0142ug Metody Marii Montessori w Rutkach",
                "addr:country": "PL",
                "addr:postcode": "16-300",
                "addr:place": "Rutki Nowe",
                "addr:housenumber": "1",
                "addr:teryt:simc": 753024,
                "contact:phone": "+48 876442009",
                "contact:email": "sp.rutki@wp.pl",
                "contact:website": "http:\/\/sp-rutki.cba.pl\/",
                "ref:regon": "200735451",
                "operator": "Gmina August\u00f3w",
                "operator:type": "government",
                "amenity": "kindergarten"
            }
        },
        {
            "id": 17130,
            "type": "Feature",
            "geometry": {
                "type": "Point",
                "coordinates": [
                    22.85789,
                    53.90361
                ]
            },
            "properties": {
                "isced:level": "1;2",
                "ref:rspo": 17130,
                "official_name": "Szko\u0142a Podstawowa im. Armii Krajowej w Jan\u00f3wce",
                "name": "Szko\u0142a Podstawowa",
                "addr:country": "PL",
                "addr:postcode": "16-300",
                "addr:place": "Jan\u00f3wka",
                "addr:housenumber": "48 A",
                "addr:teryt:simc": 752906,
                "contact:phone": "+48 876449333",
                "contact:email": "spjanowka@poczta.onet.pl",
                "contact:website": "http:\/\/spjanowka.cba.pl\/",
                "ref:regon": "001154283",
                "ref:vatin": "PL8461476199",
                "operator": "Gmina August\u00f3w",
                "operator:type": "government",
                "amenity": "school"
            }
        },
        {
            "id": 39043,
            "type": "Feature",
            "geometry": {
                "type": "Point",
                "coordinates": [
                    22.85846,
                    53.90491
                ]
            },
            "properties": {
                "ref:rspo": 39043,
                "official_name": "Zesp\u00f3\u0142 Wychowania Przedszkolnego w Jan\u00f3wce",
                "name": "Zesp\u00f3\u0142 Wychowania Przedszkolnego w Jan\u00f3wce",
                "addr:country": "PL",
                "addr:postcode": "16-300",
                "addr:place": "Jan\u00f3wka",
                "addr:housenumber": "48A",
                "addr:teryt:simc": 752906,
                "contact:phone": "+48 876449397",
                "contact:email": "spjanowka@poczta.onet.pl",
                "contact:website": "http:\/\/spjanowka.cba.pl\/",
                "ref:regon": "200735445",
                "operator": "Gmina August\u00f3w",
                "operator:type": "government",
                "amenity": "kindergarten"
            }
        }
    ]
}