{
    "type": "FeatureCollection",
    "features": [
        {
            "id": 86685,
            "type": "Feature",
            "geometry": {
                "type": "Point",
                "coordinates": [
                    22.85544,
                    53.71486
                ]
            },
            "properties": {
                "isced:level": "1;2",
                "ref:rspo": 86685,
                "official_name": "Szko\u0142a Podstawowa im. Zygmunta Augusta w Tajnie Starym",
                "name": "Szko\u0142a Podstawowa",
                "addr:postcode": "16-320",
                "addr:place": "Tajno Stare",
                "addr:housenumber": "31",
                "addr:city:simc": 754621,
                "phone": "+48 876425822",
                "email": "spaugust31@wp.eu",
                "website": "http:\/\/www.sptajno.pl",
                "ref:regon": "001154870",
                "ref:vatin": "PL8461480060",
                "operator": "Gmina Barg\u0142\u00f3w Ko\u015bcielny",
                "operator:type": "government",
                "amenity": "school"
            }
        },
        {
            "id": 86758,
            "type": "Feature",
            "geometry": {
                "type": "Point",
                "coordinates": [
                    22.85544,
                    53.71483
                ]
            },
            "properties": {
                "ref:rspo": 86758,
                "official_name": "Punkt Przedszkolny w Tajnie Starym",
                "name": "Punkt Przedszkolny w Tajnie Starym",
                "addr:postcode": "16-320",
                "addr:place": "Tajno Stare",
                "addr:housenumber": "31B",
                "addr:city:simc": 754621,
                "phone": "+48 876425822",
                "email": "spaugust31@wp.eu",
                "website": "http:\/\/www.sptajno.biposwiata.pl",
                "ref:regon": "200743769",
                "operator": "Gmina Barg\u0142\u00f3w Ko\u015bcielny",
                "operator:type": "government",
                "amenity": "kindergarten"
            }
        },
        {
            "id": 86601,
            "type": "Feature",
            "geometry": {
                "type": "Point",
                "coordinates": [
                    22.78859,
                    53.72547
                ]
            },
            "properties": {
                "isced:level": "1;2",
                "ref:rspo": 86601,
                "official_name": "Szko\u0142a Podstawowa w Kroszewie",
                "name": "Szko\u0142a Podstawowa w Kroszewie",
                "addr:postcode": "16-320",
                "addr:place": "Kroszewo",
                "addr:housenumber": "27",
                "addr:city:simc": 754360,
                "phone": "+48 876425608",
                "email": "spkroszewo@barglow.dt.pl",
                "website": "http:\/\/www.spkroszewo.edupage.org",
                "ref:regon": "001154857",
                "ref:vatin": "PL8461480048",
                "operator": "Gmina Barg\u0142\u00f3w Ko\u015bcielny",
                "operator:type": "government",
                "amenity": "school"
            }
        },
        {
            "id": 86853,
            "type": "Feature",
            "geometry": {
                "type": "Point",
                "coordinates": [
                    22.82374,
                    53.77324
                ]
            },
            "properties": {
                "ref:rspo": 86853,
                "official_name": "Punkt Przedszkolny w Barg\u0142owie Ko\u015bcielnym",
                "name": "Punkt Przedszkolny w Barg\u0142owie Ko\u015bcielnym",
                "addr:postcode": "16-320",
                "addr:city": "Barg\u0142\u00f3w Ko\u015bcielny",
                "addr:street": "Augustowska",
                "addr:housenumber": "17",
                "addr:city:simc": 754207,
                "addr:street:sym_ul": 493,
                "phone": "+48 876424078",
                "email": "szkola@zsbarglow.edu.pl",
                "website": "http:\/\/zsbarglow.edu.pl",
                "ref:regon": "200743108",
                "operator": "Gmina Barg\u0142\u00f3w Ko\u015bcielny",
                "operator:type": "government",
                "amenity": "kindergarten"
            }
        },
        {
            "id": 106284,
            "type": "Feature",
            "geometry": {
                "type": "Point",
                "coordinates": [
                    22.82594,
                    53.7749
                ]
            },
            "properties": {
                "isced:level": "1;2",
                "ref:rspo": 106284,
                "official_name": "Szko\u0142a Podstawowa w Barg\u0142owie Ko\u015bcielnym",
                "name": "Szko\u0142a Podstawowa w Barg\u0142owie Ko\u015bcielnym",
                "addr:postcode": "16-320",
                "addr:city": "Barg\u0142\u00f3w Ko\u015bcielny",
                "addr:street": "Augustowska",
                "addr:housenumber": "8",
                "addr:city:simc": 754207,
                "addr:street:sym_ul": 493,
                "phone": "+48 876424078",
                "email": "szkola@zsbarglow.edu.pl",
                "website": "http:\/\/www.zsbarglow.edu.pl",
                "ref:regon": "000677027",
                "ref:vatin": "PL8461526649",
                "operator": "Gmina Barg\u0142\u00f3w Ko\u015bcielny",
                "operator:type": "government",
                "amenity": "school"
            }
        },
        {
            "id": 86840,
            "type": "Feature",
            "geometry": {
                "type": "Point",
                "coordinates": [
                    22.74434,
                    53.80236
                ]
            },
            "properties": {
                "isced:level": "1;2",
                "ref:rspo": 86840,
                "official_name": "Szko\u0142a Podstawowa Imienia B\u0142ogos\u0142awionego Jana Paw\u0142a II w \u0141ab\u0119tniku",
                "name": "Szko\u0142a Podstawowa Imienia B\u0142ogos\u0142awionego Jana Paw\u0142a II w \u0141ab\u0119tniku",
                "addr:postcode": "16-320",
                "addr:place": "\u0141ab\u0119tnik",
                "addr:housenumber": "10",
                "addr:city:simc": 754408,
                "phone": "+48 876424029",
                "email": "sp_labetnik10@wp.pl",
                "website": "http:\/\/splabetnik.edupage.org",
                "ref:regon": "001154863",
                "ref:vatin": "PL8461480054",
                "operator": "Gmina Barg\u0142\u00f3w Ko\u015bcielny",
                "operator:type": "government",
                "amenity": "school"
            }
        }
    ]
}