{
    "type": "FeatureCollection",
    "features": [
        {
            "id": 16092,
            "type": "Feature",
            "geometry": {
                "type": "Point",
                "coordinates": [
                    22.776133,
                    53.333737
                ]
            },
            "properties": {
                "isced:level": "1;2",
                "ref:rspo": 16092,
                "official_name": "Szko\u0142a Podstawowa w Boguszewie",
                "name": "Szko\u0142a Podstawowa w Boguszewie",
                "addr:country": "PL",
                "addr:postcode": "19-100",
                "addr:place": "Boguszewo",
                "addr:housenumber": "67",
                "addr:teryt:sym_ul": 35429,
                "contact:phone": "+48 857161302",
                "contact:email": "sp.boguszewo@op.pl",
                "contact:website": "http:\/\/spboguszewo.edupage.org",
                "ref:regon": "000899213",
                "ref:vatin": "PL5461232426",
                "operator": "Gmina Mo\u0144ki",
                "operator:type": "government",
                "amenity": "school"
            }
        },
        {
            "id": 14740,
            "type": "Feature",
            "geometry": {
                "type": "Point",
                "coordinates": [
                    22.72373,
                    53.39739
                ]
            },
            "properties": {
                "ref:rspo": 14740,
                "official_name": "Szko\u0142a Podstawowa Nr 2 Szkolne Schronisko M\u0142odzie\u017cowe w Mo\u0144kach Z Siedzib\u0105 w Dzie\u017ckach",
                "name": "Szko\u0142a Podstawowa Nr 2 Szkolne Schronisko M\u0142odzie\u017cowe w Mo\u0144kach Z Siedzib\u0105 w Dzie\u017ckach",
                "addr:country": "PL",
                "addr:postcode": "19-100",
                "addr:place": "Dzie\u017cki",
                "addr:housenumber": "16",
                "addr:teryt:sym_ul": 35470,
                "contact:phone": "+48 857162411",
                "contact:email": "sp2monki@poczta.onet.pl",
                "ref:regon": "200308097",
                "ref:vatin": "PL5461376355",
                "operator": "Gmina Mo\u0144ki",
                "operator:type": "government",
                "tourism": "hostel"
            }
        },
        {
            "id": 105815,
            "type": "Feature",
            "geometry": {
                "type": "Point",
                "coordinates": [
                    22.80359,
                    53.39932
                ]
            },
            "properties": {
                "ref:rspo": 105815,
                "official_name": "O\u015brodek Rehabilitacyjno-Edukacyjno-Wychowawczy w Mo\u0144kach",
                "name": "O\u015brodek Rehabilitacyjno-Edukacyjno-Wychowawczy w Mo\u0144kach",
                "addr:country": "PL",
                "addr:postcode": "19-100",
                "addr:city": "Mo\u0144ki",
                "addr:street": "ul. Le\u015bna",
                "addr:housenumber": "3",
                "addr:teryt:simc": 10898,
                "addr:teryt:sym_ul": 923348,
                "contact:phone": "+48 505046993",
                "contact:email": "zk.monki@psouu.org.pl",
                "ref:regon": "200752930",
                "operator": "Polskie Stowarzyszenie Na Rzecz Os\u00f3b Z Niepe\u0142nosprawno\u015bci\u0105 Intelektualn\u0105",
                "operator:type": "ngo",
                "amenity": "school"
            }
        },
        {
            "id": 104340,
            "type": "Feature",
            "geometry": {
                "type": "Point",
                "coordinates": [
                    22.79311,
                    53.40159
                ]
            },
            "properties": {
                "isced:level": "3",
                "ref:rspo": 104340,
                "official_name": "Technikum w Mo\u0144kach",
                "name": "Technikum w Mo\u0144kach",
                "addr:country": "PL",
                "addr:postcode": "19-100",
                "addr:city": "Mo\u0144ki",
                "addr:street": "ul. Szkolna",
                "addr:housenumber": "22",
                "addr:teryt:simc": 21970,
                "addr:teryt:sym_ul": 923348,
                "contact:phone": "+48 857162705",
                "contact:email": "sekretariat.technikum@zsmonki.pl",
                "contact:website": "http:\/\/www.zsmonki.pl",
                "ref:regon": "451097740",
                "operator": "Powiat Moniecki",
                "operator:type": "government",
                "amenity": "school",
                "note": "Parent RSPO: 103456"
            }
        },
        {
            "id": 104341,
            "type": "Feature",
            "geometry": {
                "type": "Point",
                "coordinates": [
                    22.79311,
                    53.401559999999996
                ]
            },
            "properties": {
                "isced:level": "3",
                "ref:rspo": 104341,
                "official_name": "Bran\u017cowa Szko\u0142a I Stopnia w Mo\u0144kach",
                "name": "Bran\u017cowa Szko\u0142a I Stopnia w Mo\u0144kach",
                "addr:country": "PL",
                "addr:postcode": "19-100",
                "addr:city": "Mo\u0144ki",
                "addr:street": "ul. Szkolna",
                "addr:housenumber": "22",
                "addr:teryt:simc": 21970,
                "addr:teryt:sym_ul": 923348,
                "contact:phone": "+48 857162705",
                "contact:email": "sekretariat@zsmonki.pl",
                "contact:website": "http:\/\/www.zsmonki.pl",
                "ref:regon": "451097668",
                "operator": "Powiat Moniecki",
                "operator:type": "government",
                "amenity": "school",
                "note": "Parent RSPO: 103456"
            }
        },
        {
            "id": 104346,
            "type": "Feature",
            "geometry": {
                "type": "Point",
                "coordinates": [
                    22.79311,
                    53.40153
                ]
            },
            "properties": {
                "isced:level": "4",
                "ref:rspo": 104346,
                "official_name": "Szko\u0142a Policealna w Mo\u0144kach",
                "name": "Szko\u0142a Policealna w Mo\u0144kach",
                "addr:country": "PL",
                "addr:postcode": "19-100",
                "addr:city": "Mo\u0144ki",
                "addr:street": "ul. Szkolna",
                "addr:housenumber": "22",
                "addr:teryt:simc": 21970,
                "addr:teryt:sym_ul": 923348,
                "contact:phone": "+48 857162705",
                "contact:email": "sekretariat@zsmonki.pl",
                "contact:website": "http:\/\/www.zsmonki.pl",
                "ref:regon": "451097728",
                "operator": "Powiat Moniecki",
                "operator:type": "government",
                "amenity": "college",
                "note": "Parent RSPO: 103456"
            }
        },
        {
            "id": 130238,
            "type": "Feature",
            "geometry": {
                "type": "Point",
                "coordinates": [
                    22.79311,
                    53.4015
                ]
            },
            "properties": {
                "ref:rspo": 130238,
                "official_name": "Centrum Kszta\u0142cenia Zawodowego w Mo\u0144kach",
                "name": "Centrum Kszta\u0142cenia Zawodowego w Mo\u0144kach",
                "addr:country": "PL",
                "addr:postcode": "19-100",
                "addr:city": "Mo\u0144ki",
                "addr:street": "ul. Szkolna",
                "addr:housenumber": "22",
                "addr:teryt:simc": 21970,
                "addr:teryt:sym_ul": 923348,
                "contact:phone": "+48 857162705",
                "contact:email": "sekretariat@zsmonki.pl",
                "contact:website": "http:\/\/www.zsmonki.pl",
                "ref:regon": "363704470",
                "operator": "Powiat Moniecki",
                "operator:type": "government",
                "fixme": "w zale\u017cno\u015bci od przedmiotu dzia\u0142alno\u015bci (np. amenity=training + training=*, amenity=dancing_school, amenity=language_school, amenity=music_school) albo amenity=school, amenity=college, albo landuse=education w zale\u017cno\u015bci od tego, jakie plac\u00f3wki wchodz\u0105 w sk\u0142ad zespo\u0142u. Sprawd\u017a, kiedy stosowa\u0107 amenity=* a kiedy landuse=education.",
                "note": "Parent RSPO: 103456"
            }
        },
        {
            "id": 10648,
            "type": "Feature",
            "geometry": {
                "type": "Point",
                "coordinates": [
                    22.8075699,
                    53.40273
                ]
            },
            "properties": {
                "ref:rspo": 10648,
                "official_name": "Niepubliczne Przedszkole Bajeczka",
                "name": "Niepubliczne Przedszkole Bajeczka",
                "addr:country": "PL",
                "addr:postcode": "19-100",
                "addr:city": "Mo\u0144ki",
                "addr:street": "ul. Tysi\u0105clecia",
                "addr:housenumber": "25",
                "addr:teryt:simc": 23270,
                "addr:teryt:sym_ul": 923348,
                "contact:email": "kasia@bajeczkamonki.pl",
                "contact:website": "http:\/\/www.bajeczkamonki.pl",
                "ref:regon": "200725369",
                "ref:vatin": "PL5461333937",
                "operator": "Katarzyna Bu\u0144kowska",
                "operator:type": "private",
                "amenity": "kindergarten"
            }
        },
        {
            "id": 11325,
            "type": "Feature",
            "geometry": {
                "type": "Point",
                "coordinates": [
                    22.80527,
                    53.40392
                ]
            },
            "properties": {
                "isced:level": "1;2",
                "ref:rspo": 11325,
                "official_name": "Szko\u0142a Podstawowa Nr 2 im. Jana Kochanowskiego w Mo\u0144kach",
                "name": "Szko\u0142a Podstawowa Nr 2",
                "addr:country": "PL",
                "addr:postcode": "19-100",
                "addr:city": "Mo\u0144ki",
                "addr:street": "ul. Tysi\u0105clecia",
                "addr:housenumber": "17",
                "addr:teryt:simc": 23270,
                "addr:teryt:sym_ul": 923348,
                "contact:phone": "+48 856660507",
                "contact:email": "sp2monki@poczta.onet.pl",
                "contact:website": "http:\/\/www.sp2monki.stronyzklasa.pl",
                "ref:regon": "000735173",
                "ref:vatin": "PL5461180103",
                "operator": "Gmina Mo\u0144ki",
                "operator:type": "government",
                "amenity": "school"
            }
        },
        {
            "id": 103456,
            "type": "Feature",
            "geometry": {
                "type": "Point",
                "coordinates": [
                    22.80428,
                    53.40434
                ]
            },
            "properties": {
                "ref:rspo": 103456,
                "official_name": "Zesp\u00f3\u0142 Szk\u00f3\u0142 Og\u00f3lnokszta\u0142c\u0105cych I Zawodowych w Mo\u0144kach",
                "name": "Zesp\u00f3\u0142 Szk\u00f3\u0142 Og\u00f3lnokszta\u0142c\u0105cych I Zawodowych w Mo\u0144kach",
                "addr:country": "PL",
                "addr:postcode": "19-100",
                "addr:city": "Mo\u0144ki",
                "addr:street": "ul. Tysi\u0105clecia",
                "addr:housenumber": "15",
                "addr:teryt:simc": 23270,
                "addr:teryt:sym_ul": 923348,
                "contact:phone": "+48 857162738",
                "contact:email": "sekretariat@zsmonki.pl",
                "contact:website": "http:\/\/www.zsmonki.pl",
                "ref:regon": "451097071",
                "ref:vatin": "PL5461275335",
                "operator": "Powiat Moniecki",
                "operator:type": "government",
                "landuse": "education",
                "fixme": "amenity=school, amenity=college albo landuse=education w zale\u017cno\u015bci od tego, jakie plac\u00f3wki wchodz\u0105 w sk\u0142ad zespo\u0142u. Sprawd\u017a, kiedy stosowa\u0107 amenity=* a kiedy landuse=education.",
                "note": "Children RSPO: 104339;104340;104341;104343;104344;104346;104347;130238"
            }
        },
        {
            "id": 105516,
            "type": "Feature",
            "geometry": {
                "type": "Point",
                "coordinates": [
                    22.80428,
                    53.404309999999995
                ]
            },
            "properties": {
                "ref:rspo": 105516,
                "official_name": "Poradnia Psychologiczno-Pedagogiczna w Mo\u0144kach",
                "name": "Poradnia Psychologiczno-Pedagogiczna w Mo\u0144kach",
                "addr:country": "PL",
                "addr:postcode": "19-100",
                "addr:city": "Mo\u0144ki",
                "addr:street": "ul. Tysi\u0105clecia",
                "addr:housenumber": "15a",
                "addr:teryt:simc": 23270,
                "addr:teryt:sym_ul": 923348,
                "contact:phone": "+48 857162544",
                "contact:email": "monkippp@wp.pl",
                "ref:regon": "000836141",
                "ref:vatin": "PL5461392383",
                "operator": "Powiat Moniecki",
                "operator:type": "government",
                "healthcare": "counselling",
                "counselling_type": "education",
                "fixme": "w zale\u017cno\u015bci od przedmiotu dzia\u0142alno\u015bci (np. healthcare=counselling + counselling_type=education albo healthcare=psychotherapist)"
            }
        },
        {
            "id": 104339,
            "type": "Feature",
            "geometry": {
                "type": "Point",
                "coordinates": [
                    22.80428,
                    53.40428
                ]
            },
            "properties": {
                "isced:level": "3",
                "ref:rspo": 104339,
                "official_name": "Liceum Og\u00f3lnokszta\u0142c\u0105ce im. Cypriana Kamila Norwida w Mo\u0144kach",
                "name": "Liceum Og\u00f3lnokszta\u0142c\u0105ce",
                "addr:country": "PL",
                "addr:postcode": "19-100",
                "addr:city": "Mo\u0144ki",
                "addr:street": "ul. Tysi\u0105clecia",
                "addr:housenumber": "15",
                "addr:teryt:simc": 23270,
                "addr:teryt:sym_ul": 923348,
                "contact:phone": "+48 857162738",
                "contact:email": "sekretariat@zsmonki.pl",
                "contact:website": "http:\/\/www.zsmonki.pl",
                "ref:regon": "451097757",
                "operator": "Powiat Moniecki",
                "operator:type": "government",
                "amenity": "school",
                "note": "Parent RSPO: 103456"
            }
        },
        {
            "id": 104343,
            "type": "Feature",
            "geometry": {
                "type": "Point",
                "coordinates": [
                    22.80428,
                    53.40425
                ]
            },
            "properties": {
                "ref:rspo": 104343,
                "official_name": "Szko\u0142a Specjalna Przysposabiaj\u0105ca Do Pracy w Mo\u0144kach",
                "name": "Szko\u0142a Specjalna Przysposabiaj\u0105ca Do Pracy w Mo\u0144kach",
                "addr:country": "PL",
                "addr:postcode": "19-100",
                "addr:city": "Mo\u0144ki",
                "addr:street": "ul. Tysi\u0105clecia",
                "addr:housenumber": "15a",
                "addr:teryt:simc": 23270,
                "addr:teryt:sym_ul": 923348,
                "contact:phone": "+48 857162738",
                "contact:email": "sekretariat@zsmonki.pl",
                "contact:website": "http:\/\/www.zsmonki.pl",
                "ref:regon": "451203478",
                "operator": "Powiat Moniecki",
                "operator:type": "government",
                "amenity": "school",
                "note": "Parent RSPO: 103456"
            }
        },
        {
            "id": 104344,
            "type": "Feature",
            "geometry": {
                "type": "Point",
                "coordinates": [
                    22.80428,
                    53.404219999999995
                ]
            },
            "properties": {
                "isced:level": "3",
                "ref:rspo": 104344,
                "official_name": "Liceum Og\u00f3lnokszta\u0142c\u0105ce dla Doros\u0142ych w Mo\u0144kach",
                "name": "Liceum Og\u00f3lnokszta\u0142c\u0105ce dla Doros\u0142ych w Mo\u0144kach",
                "addr:country": "PL",
                "addr:postcode": "19-100",
                "addr:city": "Mo\u0144ki",
                "addr:street": "ul. Tysi\u0105clecia",
                "addr:housenumber": "15",
                "addr:teryt:simc": 23270,
                "addr:teryt:sym_ul": 923348,
                "contact:phone": "+48 857162738",
                "contact:email": "sekretariat@zsmonki.pl",
                "contact:website": "http:\/\/www.zsmonki.pl",
                "ref:regon": "451203461",
                "operator": "Powiat Moniecki",
                "operator:type": "government",
                "amenity": "school",
                "note": "Parent RSPO: 103456"
            }
        },
        {
            "id": 104347,
            "type": "Feature",
            "geometry": {
                "type": "Point",
                "coordinates": [
                    22.80428,
                    53.40419
                ]
            },
            "properties": {
                "ref:rspo": 104347,
                "official_name": "Zesp\u00f3\u0142 Szk\u00f3\u0142 Og\u00f3lnokszta\u0142c\u0105cych I Zawodowych w Mo\u0144kach Szkolne Schronisko M\u0142odzie\u017cowe w Mo\u0144kach",
                "name": "Zesp\u00f3\u0142 Szk\u00f3\u0142 Og\u00f3lnokszta\u0142c\u0105cych I Zawodowych w Mo\u0144kach Szkolne Schronisko M\u0142odzie\u017cowe w Mo\u0144kach",
                "addr:country": "PL",
                "addr:postcode": "19-100",
                "addr:city": "Mo\u0144ki",
                "addr:street": "ul. Tysi\u0105clecia",
                "addr:housenumber": "15",
                "addr:teryt:simc": 23270,
                "addr:teryt:sym_ul": 923348,
                "contact:phone": "+48 857162738",
                "contact:email": "sekretariat@zsmonki.pl",
                "contact:website": "http:\/\/www.zsmonki.pl",
                "ref:regon": "200025123",
                "operator": "Powiat Moniecki",
                "operator:type": "government",
                "tourism": "hostel",
                "note": "Parent RSPO: 103456"
            }
        },
        {
            "id": 103934,
            "type": "Feature",
            "geometry": {
                "type": "Point",
                "coordinates": [
                    22.80454,
                    53.40659
                ]
            },
            "properties": {
                "ref:rspo": 103934,
                "official_name": "Centrum Edukacji \"Mentor\" w Mo\u0144kach Leszek Twarowski",
                "name": "Centrum Edukacji \"Mentor\" w Mo\u0144kach Leszek Twarowski",
                "addr:country": "PL",
                "addr:postcode": "19-100",
                "addr:city": "Mo\u0144ki",
                "addr:street": "ul. Aleja Niepodleg\u0142o\u015bci",
                "addr:housenumber": "11B",
                "addr:door": "02B",
                "addr:teryt:simc": 30816,
                "addr:teryt:sym_ul": 923348,
                "contact:phone": "+48 857166221",
                "ref:regon": "200749631",
                "operator": "Leszek Twarowski",
                "operator:type": "private",
                "fixme": "w zale\u017cno\u015bci od przedmiotu dzia\u0142alno\u015bci (np. amenity=training + training=*, amenity=dancing_school, amenity=language_school, amenity=music_school)"
            }
        },
        {
            "id": 122200,
            "type": "Feature",
            "geometry": {
                "type": "Point",
                "coordinates": [
                    22.80454,
                    53.40656
                ]
            },
            "properties": {
                "ref:rspo": 122200,
                "official_name": "Akademia M\u0142odych Talent\u00f3w \"Mentorek\" w Mo\u0144kach",
                "name": "Akademia M\u0142odych Talent\u00f3w \"Mentorek\" w Mo\u0144kach",
                "addr:country": "PL",
                "addr:postcode": "19-100",
                "addr:city": "Mo\u0144ki",
                "addr:street": "ul. Aleja Niepodleg\u0142o\u015bci",
                "addr:housenumber": "11B",
                "addr:door": "02B",
                "addr:teryt:simc": 30816,
                "addr:teryt:sym_ul": 923348,
                "contact:phone": "+48 857166221",
                "contact:email": "sekretariat@centrumedu.pl",
                "contact:website": "http:\/\/www.mentor-med.pl",
                "ref:regon": "200838607",
                "operator": "Leszek Twarowski",
                "operator:type": "private",
                "fixme": "w zale\u017cno\u015bci od przedmiotu dzia\u0142alno\u015bci (np. amenity=training + training=*, amenity=dancing_school, amenity=language_school, amenity=music_school)"
            }
        },
        {
            "id": 275412,
            "type": "Feature",
            "geometry": {
                "type": "Point",
                "coordinates": [
                    22.80454,
                    53.406530000000004
                ]
            },
            "properties": {
                "isced:level": "3",
                "ref:rspo": 275412,
                "official_name": "Niepubliczne Liceum Og\u00f3lnokszta\u0142c\u0105ce dla Doros\u0142ych w Mo\u0144kach",
                "name": "Niepubliczne Liceum Og\u00f3lnokszta\u0142c\u0105ce dla Doros\u0142ych w Mo\u0144kach",
                "addr:country": "PL",
                "addr:postcode": "19-100",
                "addr:city": "Mo\u0144ki",
                "addr:street": "ul. Aleja Niepodleg\u0142o\u015bci",
                "addr:housenumber": "11B",
                "addr:door": "02",
                "addr:teryt:simc": 30816,
                "addr:teryt:sym_ul": 923348,
                "contact:phone": "+48 857166221",
                "contact:email": "szkoly@axoncem.pl",
                "contact:website": "http:\/\/www.axoncem.pl",
                "ref:regon": "386916493",
                "operator": "Leszek Twarowski",
                "operator:type": "private",
                "amenity": "school"
            }
        },
        {
            "id": 22033,
            "type": "Feature",
            "geometry": {
                "type": "Point",
                "coordinates": [
                    22.80014,
                    53.40684
                ]
            },
            "properties": {
                "ref:rspo": 22033,
                "official_name": "Przedszkole w Mo\u0144kach",
                "name": "Przedszkole w Mo\u0144kach",
                "addr:country": "PL",
                "addr:postcode": "19-100",
                "addr:city": "Mo\u0144ki",
                "addr:street": "ul. Bartosza G\u0142owackiego",
                "addr:housenumber": "2",
                "addr:teryt:simc": 5627,
                "addr:teryt:sym_ul": 923348,
                "contact:phone": "+48 857162358",
                "contact:email": "przedszkolemonki@o2.pl",
                "contact:website": "http:\/\/przedszkolemonki.edupage.org",
                "ref:regon": "200411435",
                "ref:vatin": "PL5461385265",
                "operator": "Gmina Mo\u0144ki",
                "operator:type": "government",
                "amenity": "kindergarten"
            }
        },
        {
            "id": 11177,
            "type": "Feature",
            "geometry": {
                "type": "Point",
                "coordinates": [
                    22.79819,
                    53.40903
                ]
            },
            "properties": {
                "ref:rspo": 11177,
                "official_name": "Zesp\u00f3\u0142 Szk\u00f3\u0142 w Mo\u0144kach",
                "name": "Zesp\u00f3\u0142 Szk\u00f3\u0142 w Mo\u0144kach",
                "addr:country": "PL",
                "addr:postcode": "19-100",
                "addr:city": "Mo\u0144ki",
                "addr:street": "ul. Planetarna",
                "addr:housenumber": "13",
                "addr:teryt:simc": 16425,
                "addr:teryt:sym_ul": 923348,
                "contact:phone": "+48 857162795",
                "contact:email": "sekretariat@sp1monki.pl",
                "ref:regon": "200564660",
                "ref:vatin": "PL5461388683",
                "operator": "Gmina Mo\u0144ki",
                "operator:type": "government",
                "landuse": "education",
                "fixme": "amenity=school, amenity=college albo landuse=education w zale\u017cno\u015bci od tego, jakie plac\u00f3wki wchodz\u0105 w sk\u0142ad zespo\u0142u. Sprawd\u017a, kiedy stosowa\u0107 amenity=* a kiedy landuse=education.",
                "note": "Children RSPO: 14767;15644"
            }
        },
        {
            "id": 14767,
            "type": "Feature",
            "geometry": {
                "type": "Point",
                "coordinates": [
                    22.79819,
                    53.409
                ]
            },
            "properties": {
                "isced:level": "1;2",
                "ref:rspo": 14767,
                "official_name": "Zesp\u00f3\u0142 Szk\u00f3\u0142 w Mo\u0144kach Szko\u0142a Podstawowa Nr 1 im. Jana Paw\u0142a II w Mo\u0144kach",
                "name": "Zesp\u00f3\u0142 Szk\u00f3\u0142 w Mo\u0144kach Szko\u0142a Podstawowa Nr 1",
                "addr:country": "PL",
                "addr:postcode": "19-100",
                "addr:city": "Mo\u0144ki",
                "addr:street": "ul. Planetarna",
                "addr:housenumber": "13",
                "addr:teryt:simc": 16425,
                "addr:teryt:sym_ul": 923348,
                "contact:phone": "+48 857162795",
                "contact:email": "sekretariat@sp1monki.pl",
                "ref:regon": "050017131",
                "ref:vatin": "PL5461011949",
                "operator": "Gmina Mo\u0144ki",
                "operator:type": "government",
                "amenity": "school",
                "note": "Parent RSPO: 11177"
            }
        },
        {
            "id": 15644,
            "type": "Feature",
            "geometry": {
                "type": "Point",
                "coordinates": [
                    22.79819,
                    53.408970000000004
                ]
            },
            "properties": {
                "ref:rspo": 15644,
                "official_name": "Zesp\u00f3\u0142 Szk\u00f3\u0142 w Mo\u0144kach Szko\u0142a Muzyczna I Stopnia w Mo\u0144kach",
                "name": "Zesp\u00f3\u0142 Szk\u00f3\u0142 w Mo\u0144kach Szko\u0142a Muzyczna I Stopnia w Mo\u0144kach",
                "addr:country": "PL",
                "addr:postcode": "19-100",
                "addr:city": "Mo\u0144ki",
                "addr:street": "ul. Planetarna",
                "addr:housenumber": "13",
                "addr:teryt:simc": 16425,
                "addr:teryt:sym_ul": 923348,
                "contact:phone": "+48 857162795",
                "ref:regon": "200618001",
                "ref:vatin": "PL5461388683",
                "operator": "Gmina Mo\u0144ki",
                "operator:type": "government",
                "amenity": "music_school",
                "note": "Parent RSPO: 11177"
            }
        }
    ]
}