{
    "type": "FeatureCollection",
    "features": [
        {
            "id": 17632,
            "type": "Feature",
            "geometry": {
                "type": "Point",
                "coordinates": [
                    16.42941,
                    50.89052
                ]
            },
            "properties": {
                "isced:level": "1;2",
                "ref:rspo": 17632,
                "official_name": "Szko\u0142a Podstawowa z Oddzia\u0142ami Integracyjnym w Starym Jaworowie",
                "name": "Szko\u0142a Podstawowa z Oddzia\u0142ami Integracyjnym w Starym Jaworowie",
                "addr:postcode": "58-140",
                "addr:place": "Stary Jawor\u00f3w",
                "addr:housenumber": "38",
                "addr:city:simc": 852571,
                "phone": "+48 748588159",
                "email": "spstaryjawor@interia.pl",
                "website": "http:\/\/www.spstaryjaworow.jaworzyna.net",
                "ref:regon": "001227042",
                "ref:vatin": "PL8842116753",
                "operator": "Gmina Jaworzyna \u015al\u0105ska",
                "operator:type": "government",
                "amenity": "school"
            }
        },
        {
            "id": 17630,
            "type": "Feature",
            "geometry": {
                "type": "Point",
                "coordinates": [
                    16.4308799,
                    50.91561
                ]
            },
            "properties": {
                "isced:level": "1;2",
                "ref:rspo": 17630,
                "official_name": "Szko\u0142a Podstawowa im. Marii Konopnickiej w Jaworzynie \u015aL\u0105skiej",
                "name": "Szko\u0142a Podstawowa",
                "addr:postcode": "58-140",
                "addr:city": "Jaworzyna \u015al\u0105ska",
                "addr:street": "Adama Mickiewicza",
                "addr:housenumber": "9",
                "addr:city:simc": 984019,
                "addr:street:sym_ul": 12740,
                "phone": "+48 748588177",
                "email": "sp@szkola.jaworzyna.net",
                "website": "http:\/\/www.szkola.jaworzyna.net",
                "ref:regon": "000239014",
                "ref:vatin": "PL8842116150",
                "operator": "Gmina Jaworzyna \u015al\u0105ska",
                "operator:type": "government",
                "amenity": "school"
            }
        },
        {
            "id": 17629,
            "type": "Feature",
            "geometry": {
                "type": "Point",
                "coordinates": [
                    16.43236,
                    50.9169
                ]
            },
            "properties": {
                "ref:rspo": 17629,
                "official_name": "Przedszkole Samorz\u0105dowe im. \"Chatka Puchatka\" w Jaworzynie \u015aL\u0105skiej",
                "name": "Przedszkole Samorz\u0105dowe",
                "addr:postcode": "58-140",
                "addr:city": "Jaworzyna \u015al\u0105ska",
                "addr:street": "Westerplatte",
                "addr:housenumber": "18",
                "addr:city:simc": 984019,
                "addr:street:sym_ul": 23897,
                "phone": "+48 748588277",
                "email": "przedszkole@jaworzyna.net",
                "ref:regon": "021405025",
                "ref:vatin": "PL8842727416",
                "operator": "Gmina Jaworzyna \u015al\u0105ska",
                "operator:type": "government",
                "amenity": "kindergarten"
            }
        },
        {
            "id": 17631,
            "type": "Feature",
            "geometry": {
                "type": "Point",
                "coordinates": [
                    16.43846,
                    50.94873
                ]
            },
            "properties": {
                "isced:level": "1;2",
                "ref:rspo": 17631,
                "official_name": "Szko\u0142a Podstawowa im. \u015awi\u0119tego Miko\u0142aja w Pastuchowie",
                "name": "Szko\u0142a Podstawowa",
                "addr:postcode": "58-115",
                "addr:city": "Pastuch\u00f3w",
                "addr:street": "Wyzwolenia",
                "addr:housenumber": "22",
                "addr:city:simc": 852559,
                "addr:street:sym_ul": 25133,
                "phone": "+48 748508126",
                "email": "pastuchow@jaworzyna.net",
                "website": "http:\/\/www.pastuchowsp.jaworzyna.net",
                "ref:regon": "001215547",
                "ref:vatin": "PL8842117511",
                "operator": "Gmina Jaworzyna \u015al\u0105ska",
                "operator:type": "government",
                "amenity": "school"
            }
        }
    ]
}