{
    "type": "FeatureCollection",
    "features": [
        {
            "id": 86784,
            "type": "Feature",
            "geometry": {
                "type": "Point",
                "coordinates": [
                    16.2256704,
                    50.9101643
                ]
            },
            "properties": {
                "isced:level": "1;2",
                "ref:rspo": 86784,
                "official_name": "Szko\u0142a Podstawowa im. Jana Brzechwy w Dobromierzu",
                "name": "Szko\u0142a Podstawowa",
                "addr:postcode": "58-170",
                "addr:city": "Dobromierz",
                "addr:street": "Podg\u00f3rna",
                "addr:housenumber": "2",
                "addr:city:simc": 852022,
                "addr:street:sym_ul": 16742,
                "phone": "+48 748586239",
                "email": "spdobromierz@interia.pl",
                "website": "http:\/\/www.spdobromierz.szkolnastrona.pl",
                "ref:regon": "000266991",
                "ref:vatin": "PL8842335969",
                "operator": "Gmina Dobromierz",
                "operator:type": "government",
                "amenity": "school"
            }
        },
        {
            "id": 132427,
            "type": "Feature",
            "geometry": {
                "type": "Point",
                "coordinates": [
                    16.2256704,
                    50.910134299999996
                ]
            },
            "properties": {
                "ref:rspo": 132427,
                "official_name": "Punkt Przedszkolny Dobromierz",
                "name": "Punkt Przedszkolny Dobromierz",
                "addr:postcode": "58-170",
                "addr:city": "Dobromierz",
                "addr:street": "Podg\u00f3rna",
                "addr:housenumber": "2",
                "addr:city:simc": 852022,
                "addr:street:sym_ul": 16742,
                "phone": "+48 725429666",
                "email": "kontakt@fundacjadobregostartu.pl",
                "ref:regon": "365629880",
                "ref:vatin": "PL8842763079",
                "operator": "Fundacja Dobrego Startu",
                "operator:type": "ngo",
                "amenity": "kindergarten"
            }
        },
        {
            "id": 132424,
            "type": "Feature",
            "geometry": {
                "type": "Point",
                "coordinates": [
                    16.22841,
                    50.95926
                ]
            },
            "properties": {
                "ref:rspo": 132424,
                "official_name": "Punkt Przedszkolny Roztoka I",
                "name": "Punkt Przedszkolny Roztoka I",
                "addr:postcode": "58-173",
                "addr:city": "Roztoka",
                "addr:street": "3 Maja",
                "addr:housenumber": "61",
                "addr:city:simc": 852128,
                "addr:street:sym_ul": 11937,
                "phone": "+48 660928007",
                "email": "j.nitarska.fds@gmail.com",
                "ref:regon": "365629703",
                "ref:vatin": "PL8842763079",
                "operator": "Fundacja Dobrego Startu",
                "operator:type": "ngo",
                "amenity": "kindergarten"
            }
        },
        {
            "id": 132426,
            "type": "Feature",
            "geometry": {
                "type": "Point",
                "coordinates": [
                    16.22841,
                    50.95923
                ]
            },
            "properties": {
                "ref:rspo": 132426,
                "official_name": "Punkt Przedszkolny Roztoka Ii",
                "name": "Punkt Przedszkolny Roztoka Ii",
                "addr:postcode": "58-173",
                "addr:city": "Roztoka",
                "addr:street": "3 Maja",
                "addr:housenumber": "61",
                "addr:city:simc": 852128,
                "addr:street:sym_ul": 11937,
                "phone": "+48 725429666",
                "email": "kontakt@fundacjadobregostartu.pl",
                "ref:regon": "365629749",
                "ref:vatin": "PL8842763079",
                "operator": "Fundacja Dobrego Startu",
                "operator:type": "ngo",
                "amenity": "kindergarten"
            }
        },
        {
            "id": 88513,
            "type": "Feature",
            "geometry": {
                "type": "Point",
                "coordinates": [
                    16.22772,
                    50.95956
                ]
            },
            "properties": {
                "isced:level": "1;2",
                "ref:rspo": 88513,
                "official_name": "Szko\u0142a Podstawowa im. Henryka Sienkiewicza w Roztoce",
                "name": "Szko\u0142a Podstawowa",
                "addr:postcode": "58-173",
                "addr:city": "Roztoka",
                "addr:street": "Jana Paw\u0142a II",
                "addr:housenumber": "7\/9",
                "addr:city:simc": 852128,
                "addr:street:sym_ul": 7123,
                "phone": "+48 748509193",
                "email": "zsroztoka@dobromierz.pl",
                "website": "http:\/\/zsroztoka.szkolnastrona.pl",
                "ref:regon": "001192792",
                "ref:vatin": "PL8842642140",
                "operator": "Gmina Dobromierz",
                "operator:type": "government",
                "amenity": "school"
            }
        },
        {
            "id": 86786,
            "type": "Feature",
            "geometry": {
                "type": "Point",
                "coordinates": [
                    16.22373,
                    50.9945
                ]
            },
            "properties": {
                "isced:level": "1;2",
                "ref:rspo": 86786,
                "official_name": "Szko\u0142a Podstawowa im.janusza Korczaka w Gniewkowie",
                "name": "Szko\u0142a Podstawowa im.janusza Korczaka w Gniewkowie",
                "addr:postcode": "58-173",
                "addr:place": "Gniewk\u00f3w",
                "addr:housenumber": "3",
                "addr:city:simc": 852068,
                "phone": "+48 748506293",
                "email": "spgniewkow@wp.pl",
                "ref:regon": "001192786",
                "ref:vatin": "PL8842331813",
                "operator": "Gmina Dobromierz",
                "operator:type": "government",
                "amenity": "school"
            }
        },
        {
            "id": 276212,
            "type": "Feature",
            "geometry": {
                "type": "Point",
                "coordinates": [
                    16.21334,
                    51.00995
                ]
            },
            "properties": {
                "ref:rspo": 276212,
                "official_name": "Punkt Przedszkolny Czernica",
                "name": "Punkt Przedszkolny Czernica",
                "addr:postcode": "58-173",
                "addr:place": "Czernica",
                "addr:housenumber": "8",
                "addr:city:simc": 852016,
                "phone": "+48 660928007",
                "email": "kontakt@fundacjadobregostartu.pl",
                "website": "http:\/\/www.fundacjadobregostartu.pl",
                "ref:regon": "387031012",
                "operator": "Fundacja Dobrego Startu",
                "operator:type": "ngo",
                "amenity": "kindergarten"
            }
        }
    ]
}