{
    "type": "FeatureCollection",
    "features": [
        {
            "id": 7108,
            "type": "Feature",
            "geometry": {
                "type": "Point",
                "coordinates": [
                    16.49044,
                    50.93546
                ]
            },
            "properties": {
                "isced:level": "1;2",
                "ref:rspo": 7108,
                "official_name": "Szko\u0142a Podstawowa im. Jana Brzechwy w \u017barowie",
                "name": "Szko\u0142a Podstawowa",
                "addr:country": "PL",
                "addr:postcode": "58-130",
                "addr:city": "\u017bar\u00f3w",
                "addr:street": "Piastowska",
                "addr:housenumber": "10",
                "addr:teryt:simc": 16046,
                "addr:teryt:sym_ul": 984746,
                "contact:phone": "+48 748580224",
                "contact:email": "sp.zarow@wp.pl",
                "contact:website": "http:\/\/spzarow.edupage.org",
                "ref:regon": "000237541",
                "ref:vatin": "PL8841947104",
                "operator": "Gmina \u017bar\u00f3w",
                "operator:type": "government",
                "amenity": "school",
                "note": "Children RSPO: 278290"
            }
        },
        {
            "id": 7055,
            "type": "Feature",
            "geometry": {
                "type": "Point",
                "coordinates": [
                    16.49214,
                    50.93697
                ]
            },
            "properties": {
                "ref:rspo": 7055,
                "official_name": "Przedszkole Miejskie \"Bajkowe Przedszkole\" w \u017barowie",
                "name": "Przedszkole Miejskie \"Bajkowe Przedszkole\" w \u017barowie",
                "addr:country": "PL",
                "addr:postcode": "58-130",
                "addr:city": "\u017bar\u00f3w",
                "addr:street": "W\u0142adys\u0142awa \u0141okietka",
                "addr:housenumber": "14",
                "addr:teryt:simc": 11653,
                "addr:teryt:sym_ul": 984746,
                "contact:phone": "+48 748580826",
                "contact:email": "przedszkolezarow@op.pl",
                "ref:regon": "890463937",
                "ref:vatin": "PL8842256968",
                "operator": "Gmina \u017bar\u00f3w",
                "operator:type": "government",
                "amenity": "kindergarten"
            }
        },
        {
            "id": 21629,
            "type": "Feature",
            "geometry": {
                "type": "Point",
                "coordinates": [
                    16.49285,
                    50.9436
                ]
            },
            "properties": {
                "ref:rspo": 21629,
                "official_name": "\"Darnok\" Konrad \u017bydek",
                "name": "\"Darnok\" Konrad \u017bydek",
                "addr:country": "PL",
                "addr:postcode": "58-130",
                "addr:city": "\u017bar\u00f3w",
                "addr:street": "Armii Krajowej",
                "addr:housenumber": "60",
                "addr:door": "7",
                "addr:teryt:simc": 432,
                "addr:teryt:sym_ul": 984746,
                "contact:phone": "+48 748589480",
                "contact:email": "pareto@o2.pl",
                "ref:regon": "021976704",
                "ref:vatin": "PL8841626469",
                "operator": "Konrad \u017bydek",
                "operator:type": "private",
                "fixme": "w zale\u017cno\u015bci od przedmiotu dzia\u0142alno\u015bci (np. amenity=training + training=*, amenity=dancing_school, amenity=language_school, amenity=music_school)"
            }
        },
        {
            "id": 6020,
            "type": "Feature",
            "geometry": {
                "type": "Point",
                "coordinates": [
                    16.49031,
                    50.94526
                ]
            },
            "properties": {
                "ref:rspo": 6020,
                "official_name": "Zesp\u00f3\u0142 Szk\u00f3\u0142 im. J\u0119drzeja \u015aniadeckiego w \u017barowie",
                "name": "Zesp\u00f3\u0142 Szk\u00f3\u0142",
                "addr:country": "PL",
                "addr:postcode": "58-130",
                "addr:city": "\u017bar\u00f3w",
                "addr:street": "Zamkowa",
                "addr:housenumber": "10",
                "addr:teryt:simc": 25547,
                "addr:teryt:sym_ul": 984746,
                "contact:phone": "+48 748580403",
                "contact:email": "zszzarow@poczta.onet.pl",
                "contact:website": "http:\/\/www.zs-zarow.powiat.swidnica.pl",
                "ref:regon": "000196291",
                "ref:vatin": "PL8841061062",
                "operator": "Powiat \u015awidnicki",
                "operator:type": "government",
                "landuse": "education",
                "fixme": "amenity=school, amenity=college albo landuse=education w zale\u017cno\u015bci od tego, jakie plac\u00f3wki wchodz\u0105 w sk\u0142ad zespo\u0142u. Sprawd\u017a, kiedy stosowa\u0107 amenity=* a kiedy landuse=education.",
                "note": "Children RSPO: 14530;14535;14559;14562"
            }
        },
        {
            "id": 14530,
            "type": "Feature",
            "geometry": {
                "type": "Point",
                "coordinates": [
                    16.49031,
                    50.945229999999995
                ]
            },
            "properties": {
                "isced:level": "3",
                "ref:rspo": 14530,
                "official_name": "Bran\u017cowa Szko\u0142a I Stopnia w \u017barowie",
                "name": "Bran\u017cowa Szko\u0142a I Stopnia w \u017barowie",
                "addr:country": "PL",
                "addr:postcode": "58-130",
                "addr:city": "\u017bar\u00f3w",
                "addr:street": "Zamkowa",
                "addr:housenumber": "10",
                "addr:teryt:simc": 25547,
                "addr:teryt:sym_ul": 984746,
                "contact:phone": "+48 748580403",
                "contact:email": "zszzarow@poczta.onet.pl",
                "contact:website": "http:\/\/www.zs-zarow.powiat.swidnica.pl",
                "ref:regon": "891417141",
                "operator": "Powiat \u015awidnicki",
                "operator:type": "government",
                "amenity": "school",
                "note": "Parent RSPO: 6020"
            }
        },
        {
            "id": 14535,
            "type": "Feature",
            "geometry": {
                "type": "Point",
                "coordinates": [
                    16.49031,
                    50.9452
                ]
            },
            "properties": {
                "isced:level": "3",
                "ref:rspo": 14535,
                "official_name": "Technikum w \u017barowie",
                "name": "Technikum w \u017barowie",
                "addr:country": "PL",
                "addr:postcode": "58-130",
                "addr:city": "\u017bar\u00f3w",
                "addr:street": "Zamkowa",
                "addr:housenumber": "10",
                "addr:teryt:simc": 25547,
                "addr:teryt:sym_ul": 984746,
                "contact:phone": "+48 748580403",
                "contact:email": "zszzarow@poczta.onet.pl",
                "contact:website": "http:\/\/www.zs-zarow.powiat.swidnica.pl",
                "ref:regon": "891417388",
                "operator": "Powiat \u015awidnicki",
                "operator:type": "government",
                "amenity": "school",
                "note": "Parent RSPO: 6020"
            }
        },
        {
            "id": 14559,
            "type": "Feature",
            "geometry": {
                "type": "Point",
                "coordinates": [
                    16.49031,
                    50.94517
                ]
            },
            "properties": {
                "isced:level": "4",
                "ref:rspo": 14559,
                "official_name": "Szko\u0142a Policealna w \u017barowie",
                "name": "Szko\u0142a Policealna w \u017barowie",
                "addr:country": "PL",
                "addr:postcode": "58-130",
                "addr:city": "\u017bar\u00f3w",
                "addr:street": "Zamkowa",
                "addr:housenumber": "10",
                "addr:teryt:simc": 25547,
                "addr:teryt:sym_ul": 984746,
                "contact:phone": "+48 748580403",
                "contact:email": "zszzarow@poczta.onet.pl",
                "contact:website": "http:\/\/www.zs-zarow.powiat.swidnica.pl",
                "ref:regon": "891417193",
                "operator": "Powiat \u015awidnicki",
                "operator:type": "government",
                "amenity": "college",
                "note": "Parent RSPO: 6020"
            }
        },
        {
            "id": 14562,
            "type": "Feature",
            "geometry": {
                "type": "Point",
                "coordinates": [
                    16.49031,
                    50.945139999999995
                ]
            },
            "properties": {
                "isced:level": "3",
                "ref:rspo": 14562,
                "official_name": "Liceum Og\u00f3lnokszta\u0142c\u0105ce dla Doros\u0142ych w \u017barowie",
                "name": "Liceum Og\u00f3lnokszta\u0142c\u0105ce dla Doros\u0142ych w \u017barowie",
                "addr:country": "PL",
                "addr:postcode": "58-130",
                "addr:city": "\u017bar\u00f3w",
                "addr:street": "Zamkowa",
                "addr:housenumber": "10",
                "addr:teryt:simc": 25547,
                "addr:teryt:sym_ul": 984746,
                "contact:phone": "+48 748580403",
                "contact:email": "zszzarow@poczta.onet.pl",
                "contact:website": "http:\/\/www.zs-zarow.powiat.swidnica.pl",
                "ref:regon": "020853365",
                "operator": "Powiat \u015awidnicki",
                "operator:type": "government",
                "amenity": "school",
                "note": "Parent RSPO: 6020"
            }
        },
        {
            "id": 278290,
            "type": "Feature",
            "geometry": {
                "type": "Point",
                "coordinates": [
                    16.5189999,
                    50.9468699
                ]
            },
            "properties": {
                "isced:level": "1;2",
                "ref:rspo": 278290,
                "official_name": "Szko\u0142a Filialna w Mrowinach Szko\u0142y Podstawowej I. Jana Brzechwy w \u017barowie",
                "name": "Szko\u0142a Filialna w Mrowinach Szko\u0142y Podstawowej I. Jana Brzechwy w \u017barowie",
                "addr:country": "PL",
                "addr:postcode": "58-130",
                "addr:city": "Mrowiny",
                "addr:street": "Wojska Polskiego",
                "addr:housenumber": "43",
                "addr:teryt:simc": 24628,
                "addr:teryt:sym_ul": 857150,
                "contact:phone": "+48 748580575",
                "ref:regon": "237541000",
                "ref:vatin": "PL8841947104",
                "operator": "Gmina \u017bar\u00f3w",
                "operator:type": "government",
                "amenity": "school",
                "note": "Parent RSPO: 7108"
            }
        },
        {
            "id": 7985,
            "type": "Feature",
            "geometry": {
                "type": "Point",
                "coordinates": [
                    16.52403,
                    50.94758
                ]
            },
            "properties": {
                "ref:rspo": 7985,
                "official_name": "M\u0142odzie\u017cowy O\u015brodek Wychowawczy Nr 1 w Mrowinach",
                "name": "M\u0142odzie\u017cowy O\u015brodek Wychowawczy Nr 1 w Mrowinach",
                "addr:country": "PL",
                "addr:postcode": "58-130",
                "addr:city": "Mrowiny",
                "addr:street": "Szkolna",
                "addr:housenumber": "6",
                "addr:teryt:simc": 21970,
                "addr:teryt:sym_ul": 857150,
                "contact:phone": "+48 748580316",
                "contact:email": "sekretariat@mowmrowiny.pl",
                "contact:website": "http:\/\/www.mowmrowiny.pl",
                "ref:regon": "000198545",
                "ref:vatin": "PL8841055593",
                "operator": "Powiat \u015awidnicki",
                "operator:type": "government",
                "fixme": "amenity=social_facility + social_facility=group_home + social_facility:for=juvenile",
                "note": "Children RSPO: 20652;271601"
            }
        },
        {
            "id": 20652,
            "type": "Feature",
            "geometry": {
                "type": "Point",
                "coordinates": [
                    16.52403,
                    50.94755
                ]
            },
            "properties": {
                "isced:level": "1;2",
                "ref:rspo": 20652,
                "official_name": "Szko\u0142a Podstawowa Specjalna Nr 2 w Mrowinach",
                "name": "Szko\u0142a Podstawowa Specjalna Nr 2 w Mrowinach",
                "addr:country": "PL",
                "addr:postcode": "58-130",
                "addr:city": "Mrowiny",
                "addr:street": "Szkolna",
                "addr:housenumber": "6",
                "addr:teryt:simc": 21970,
                "addr:teryt:sym_ul": 857150,
                "contact:phone": "+48 748580316",
                "contact:email": "sekretariat@mowmrowiny.pl",
                "ref:regon": "891490793",
                "operator": "Powiat \u015awidnicki",
                "operator:type": "government",
                "amenity": "school",
                "note": "Parent RSPO: 7985"
            }
        },
        {
            "id": 271601,
            "type": "Feature",
            "geometry": {
                "type": "Point",
                "coordinates": [
                    16.52403,
                    50.947520000000004
                ]
            },
            "properties": {
                "isced:level": "3",
                "ref:rspo": 271601,
                "official_name": "Bran\u017cowa Szko\u0142a I Stopnia Specjalna w Mrowinach",
                "name": "Bran\u017cowa Szko\u0142a I Stopnia Specjalna w Mrowinach",
                "addr:country": "PL",
                "addr:postcode": "58-130",
                "addr:city": "Mrowiny",
                "addr:street": "Szkolna",
                "addr:housenumber": "6",
                "addr:teryt:simc": 21970,
                "addr:teryt:sym_ul": 857150,
                "contact:phone": "+48 748580316",
                "contact:email": "sekretariat@mowmrowiny.pl",
                "ref:regon": "383445290",
                "operator": "Powiat \u015awidnicki",
                "operator:type": "government",
                "amenity": "school",
                "note": "Parent RSPO: 7985"
            }
        },
        {
            "id": 9074,
            "type": "Feature",
            "geometry": {
                "type": "Point",
                "coordinates": [
                    16.56975,
                    50.96781
                ]
            },
            "properties": {
                "isced:level": "1;2",
                "ref:rspo": 9074,
                "official_name": "Szko\u0142a Podstawowa im. Unicef w Imbramowicach",
                "name": "Szko\u0142a Podstawowa",
                "addr:country": "PL",
                "addr:postcode": "58-130",
                "addr:city": "Imbramowice",
                "addr:street": "\u017barowska",
                "addr:housenumber": "45",
                "addr:teryt:simc": 26408,
                "addr:teryt:sym_ul": 857077,
                "contact:phone": "+48 748507314",
                "contact:email": "sp_imbr@o2.pl",
                "contact:website": "http:\/\/um.zarow.pl\/imbramowice\/",
                "ref:regon": "001226692",
                "ref:vatin": "PL8842325735",
                "operator": "Gmina \u017bar\u00f3w",
                "operator:type": "government",
                "amenity": "school"
            }
        },
        {
            "id": 9738,
            "type": "Feature",
            "geometry": {
                "type": "Point",
                "coordinates": [
                    16.5165,
                    50.98652
                ]
            },
            "properties": {
                "isced:level": "1;2",
                "ref:rspo": 9738,
                "official_name": "Szko\u0142a Podstawowa im. Astrid Lindgren w Zastru\u017cu",
                "name": "Szko\u0142a Podstawowa",
                "addr:country": "PL",
                "addr:postcode": "58-130",
                "addr:place": "Zastru\u017ce",
                "addr:housenumber": "19a",
                "addr:teryt:sym_ul": 857226,
                "contact:phone": "+48 748580808",
                "contact:email": "zastruze@o2.pl",
                "contact:website": "http:\/\/www.spzastruze.pl",
                "ref:regon": "021955346",
                "ref:vatin": "PL8842760164",
                "operator": "Stowarzyszenie \"Nasze Dzieci - Wsp\u00f3lna Szko\u0142a\" W Zastru\u017cu",
                "operator:type": "ngo",
                "amenity": "school"
            }
        }
    ]
}