{
    "type": "FeatureCollection",
    "features": [
        {
            "id": 121876,
            "type": "Feature",
            "geometry": {
                "type": "Point",
                "coordinates": [
                    16.49744,
                    50.82778
                ]
            },
            "properties": {
                "ref:rspo": 121876,
                "official_name": "\"Mat\" Firma Us\u0142ugowo-Szkoleniowa Tomasz Dutkiewicz",
                "name": "\"Mat\" Firma Us\u0142ugowo-Szkoleniowa Tomasz Dutkiewicz",
                "addr:postcode": "58-100",
                "addr:city": "\u015awidnica",
                "addr:street": "S\u0142oneczna",
                "addr:housenumber": "17",
                "addr:city:simc": 984657,
                "addr:street:sym_ul": 20254,
                "phone": "+48 604977918",
                "email": "mat.bhp@onet.eu",
                "ref:regon": "022350800",
                "operator": "Tomasz Dutkiewicz",
                "operator:type": "private",
                "fixme": "w zale\u017cno\u015bci od przedmiotu dzia\u0142alno\u015bci (np. amenity=training + training=*, amenity=dancing_school, amenity=language_school, amenity=music_school)"
            }
        },
        {
            "id": 83464,
            "type": "Feature",
            "geometry": {
                "type": "Point",
                "coordinates": [
                    16.49285,
                    50.8298599
                ]
            },
            "properties": {
                "isced:level": "1;2",
                "ref:rspo": 83464,
                "official_name": "Niepubliczna Katolicka Szko\u0142a Podstawowa Caritas Diecezji \u015awidnickiej im. Ks. Pra\u0142ata Dionizego Barana w \u015awidnicy",
                "name": "Niepubliczna Katolicka Szko\u0142a Podstawowa Caritas Diecezji \u015awidnickiej",
                "addr:postcode": "58-100",
                "addr:city": "\u015awidnica",
                "addr:street": "Kraszowicka",
                "addr:housenumber": "27",
                "addr:city:simc": 984657,
                "addr:street:sym_ul": 32715,
                "phone": "+48 748521584",
                "email": "nkspswidnica@poczta.internetdsl.pl",
                "website": "http:\/\/nkspswidnica.pl",
                "ref:regon": "022011038",
                "ref:vatin": "PL8842508401",
                "operator": "Caritas Diecezji \u015awidnickiej",
                "operator:type": "religious",
                "amenity": "school"
            }
        },
        {
            "id": 91251,
            "type": "Feature",
            "geometry": {
                "type": "Point",
                "coordinates": [
                    16.47916,
                    50.83432
                ]
            },
            "properties": {
                "ref:rspo": 91251,
                "official_name": "Niepubliczny Punkt Przedszkolny \"Magiczna Chatka\"",
                "name": "Niepubliczny Punkt Przedszkolny \"Magiczna Chatka\"",
                "addr:postcode": "58-100",
                "addr:city": "\u015awidnica",
                "addr:street": "Tadeusza Ko\u015bciuszki",
                "addr:housenumber": "28",
                "addr:city:simc": 984657,
                "addr:street:sym_ul": 9582,
                "phone": "+48 604479953",
                "email": "biuro@magiczna-chatka.pl",
                "website": "https:\/\/pl-pl.facebook.com\/magicznachatkaaleksandrakarpinska",
                "ref:regon": "022019229",
                "ref:vatin": "PL8842158059",
                "operator": "Aleksandra Karpi\u0144ska",
                "operator:type": "private",
                "amenity": "kindergarten"
            }
        },
        {
            "id": 266610,
            "type": "Feature",
            "geometry": {
                "type": "Point",
                "coordinates": [
                    16.483361,
                    50.83452
                ]
            },
            "properties": {
                "ref:rspo": 266610,
                "official_name": "Niepubliczna Plac\u00f3wka Kszta\u0142cenia Ustawicznego Ms Consulting Agnieszka Mazurek",
                "name": "Niepubliczna Plac\u00f3wka Kszta\u0142cenia Ustawicznego Ms Consulting Agnieszka Mazurek",
                "addr:postcode": "58-100",
                "addr:city": "\u015awidnica",
                "addr:street": "Rycerska",
                "addr:housenumber": "10",
                "addr:city:simc": 984657,
                "addr:street:sym_ul": 19186,
                "email": "aga.mazurek@op.pl",
                "ref:regon": "369604746",
                "operator": "Agnieszka Mazurek",
                "operator:type": "private",
                "fixme": "w zale\u017cno\u015bci od przedmiotu dzia\u0142alno\u015bci (np. amenity=training + training=*, amenity=dancing_school, amenity=language_school, amenity=music_school)"
            }
        },
        {
            "id": 88254,
            "type": "Feature",
            "geometry": {
                "type": "Point",
                "coordinates": [
                    16.47661,
                    50.83457
                ]
            },
            "properties": {
                "isced:level": "1;2",
                "ref:rspo": 88254,
                "official_name": "Szko\u0142a Podstawowa nr 8 im. Kawaler\u00f3w Orderu U\u015bmiechu w \u015awidnicy",
                "name": "Szko\u0142a Podstawowa nr 8",
                "addr:postcode": "58-100",
                "addr:city": "\u015awidnica",
                "addr:street": "Wa\u0142brzyska",
                "addr:housenumber": "39",
                "addr:city:simc": 984657,
                "addr:street:sym_ul": 23582,
                "phone": "+48 748522924",
                "email": "sekretariat.sp8@gmail.com",
                "website": "http:\/\/www.nw.sp8.net.pl",
                "ref:regon": "000690737",
                "ref:vatin": "PL8842172421",
                "operator": "Gmina Miasto \u015awidnica",
                "operator:type": "government",
                "amenity": "school"
            }
        },
        {
            "id": 83786,
            "type": "Feature",
            "geometry": {
                "type": "Point",
                "coordinates": [
                    16.47544,
                    50.8347399
                ]
            },
            "properties": {
                "ref:rspo": 83786,
                "official_name": "Przedszkole Niepubliczne \"Weso\u0142a Pi\u0105tka\" w \u015awidnicy",
                "name": "Przedszkole Niepubliczne \"Weso\u0142a Pi\u0105tka\" w \u015awidnicy",
                "addr:postcode": "58-100",
                "addr:city": "\u015awidnica",
                "addr:street": "Wa\u0142brzyska",
                "addr:housenumber": "48",
                "addr:city:simc": 984657,
                "addr:street:sym_ul": 23582,
                "phone": "+48 748520239",
                "email": "wesolapiateczka@vp.pl",
                "website": "http:\/\/www.wesolapiatka.pl",
                "ref:regon": "022012144",
                "ref:vatin": "PL8841255777",
                "operator": "Danuta Natanek",
                "operator:type": "private",
                "amenity": "kindergarten"
            }
        },
        {
            "id": 10581,
            "type": "Feature",
            "geometry": {
                "type": "Point",
                "coordinates": [
                    16.4770499,
                    50.83572
                ]
            },
            "properties": {
                "ref:rspo": 10581,
                "official_name": "Zesp\u00f3\u0142 Szk\u00f3\u0142 Budowlano-Elektrycznych im. Jana III Sobieskiego w \u015awidnicy",
                "name": "Zesp\u00f3\u0142 Szk\u00f3\u0142 Budowlano-Elektrycznych",
                "addr:postcode": "58-100",
                "addr:city": "\u015awidnica",
                "addr:street": "Wa\u0142brzyska",
                "addr:housenumber": "35-37",
                "addr:city:simc": 984657,
                "addr:street:sym_ul": 23582,
                "phone": "+48 748521005",
                "email": "zsbe@zsbe.swidnica.pl",
                "website": "http:\/\/www.zsbe.swidnica.pl",
                "ref:regon": "000191069",
                "ref:vatin": "PL8841003981",
                "operator": "Powiat \u015awidnicki",
                "operator:type": "government",
                "landuse": "education",
                "fixme": "amenity=school, amenity=college albo landuse=education w zale\u017cno\u015bci od tego, jakie plac\u00f3wki wchodz\u0105 w sk\u0142ad zespo\u0142u. Sprawd\u017a, kiedy stosowa\u0107 amenity=* a kiedy landuse=education.",
                "note": "Children RSPO: 14605;14623;75696"
            }
        },
        {
            "id": 14605,
            "type": "Feature",
            "geometry": {
                "type": "Point",
                "coordinates": [
                    16.4770499,
                    50.83569
                ]
            },
            "properties": {
                "isced:level": "3",
                "ref:rspo": 14605,
                "official_name": "Technikum nr 4 Politechniczne w \u015awidnicy",
                "name": "Technikum nr 4 Politechniczne w \u015awidnicy",
                "addr:postcode": "58-100",
                "addr:city": "\u015awidnica",
                "addr:street": "Wa\u0142brzyska",
                "addr:housenumber": "35",
                "addr:city:simc": 984657,
                "addr:street:sym_ul": 23582,
                "phone": "+48 748521005",
                "email": "zsbe@zsbe.swidnica.pl",
                "website": "http:\/\/www.zsbe.swidnica.pl",
                "ref:regon": "891418637",
                "operator": "Powiat \u015awidnicki",
                "operator:type": "government",
                "amenity": "school",
                "note": "Parent RSPO: 10581"
            }
        },
        {
            "id": 14623,
            "type": "Feature",
            "geometry": {
                "type": "Point",
                "coordinates": [
                    16.4770499,
                    50.835660000000004
                ]
            },
            "properties": {
                "isced:level": "3",
                "ref:rspo": 14623,
                "official_name": "Bran\u017cowa Szko\u0142a I Stopnia nr 2 w \u015awidnicy",
                "name": "Bran\u017cowa Szko\u0142a I Stopnia nr 2 w \u015awidnicy",
                "addr:postcode": "58-100",
                "addr:city": "\u015awidnica",
                "addr:street": "Wa\u0142brzyska",
                "addr:housenumber": "35-37",
                "addr:city:simc": 984657,
                "addr:street:sym_ul": 23582,
                "phone": "+48 748521005",
                "email": "zsbe@zsbe.swidnica.pl",
                "website": "http:\/\/www.zsbe.swidnica.pl",
                "ref:regon": "891418583",
                "operator": "Powiat \u015awidnicki",
                "operator:type": "government",
                "amenity": "school",
                "note": "Parent RSPO: 10581"
            }
        },
        {
            "id": 75696,
            "type": "Feature",
            "geometry": {
                "type": "Point",
                "coordinates": [
                    16.4770499,
                    50.83563
                ]
            },
            "properties": {
                "ref:rspo": 75696,
                "official_name": "Centrum Kszta\u0142cenia Ustawicznego w \u015awidnicy",
                "name": "Centrum Kszta\u0142cenia Ustawicznego w \u015awidnicy",
                "addr:postcode": "58-100",
                "addr:city": "\u015awidnica",
                "addr:street": "Wa\u0142brzyska",
                "addr:housenumber": "35",
                "addr:city:simc": 984657,
                "addr:street:sym_ul": 23582,
                "phone": "+48 748521005",
                "email": "cku@cku.swidnica.pl",
                "website": "http:\/\/www.zsbe.swidnica.pl",
                "ref:regon": "020854287",
                "operator": "Powiat \u015awidnicki",
                "operator:type": "government",
                "amenity": "school",
                "fixme": "amenity=school lub amenity=college",
                "note": "Children RSPO: 82358;82359Parent RSPO: 10581"
            }
        },
        {
            "id": 82358,
            "type": "Feature",
            "geometry": {
                "type": "Point",
                "coordinates": [
                    16.4770499,
                    50.8356
                ]
            },
            "properties": {
                "isced:level": "3",
                "ref:rspo": 82358,
                "official_name": "Liceum Og\u00f3lnokszta\u0142c\u0105ce dla Doros\u0142ych nr II w \u015awidnicy",
                "name": "Liceum Og\u00f3lnokszta\u0142c\u0105ce dla Doros\u0142ych nr II w \u015awidnicy",
                "addr:postcode": "58-100",
                "addr:city": "\u015awidnica",
                "addr:street": "Wa\u0142brzyska",
                "addr:housenumber": "35",
                "addr:city:simc": 984657,
                "addr:street:sym_ul": 23582,
                "phone": "+48 748521005",
                "email": "cku@cku.swidnica.pl",
                "website": "http:\/\/www.zsbe.swidnica.pl",
                "ref:regon": "021340679",
                "operator": "Powiat \u015awidnicki",
                "operator:type": "government",
                "amenity": "school",
                "note": "Parent RSPO: 75696"
            }
        },
        {
            "id": 82359,
            "type": "Feature",
            "geometry": {
                "type": "Point",
                "coordinates": [
                    16.4770499,
                    50.835570000000004
                ]
            },
            "properties": {
                "isced:level": "4",
                "ref:rspo": 82359,
                "official_name": "Szko\u0142a Policealna nr 4 w \u015awidnicy",
                "name": "Szko\u0142a Policealna nr 4 w \u015awidnicy",
                "addr:postcode": "58-100",
                "addr:city": "\u015awidnica",
                "addr:street": "Wa\u0142brzyska",
                "addr:housenumber": "35",
                "addr:city:simc": 984657,
                "addr:street:sym_ul": 23582,
                "phone": "+48 748521005",
                "email": "cku@cku.swidnica.pl",
                "website": "http:\/\/www.zsbe.swidnica.pl",
                "ref:regon": "891418784",
                "operator": "Powiat \u015awidnicki",
                "operator:type": "government",
                "amenity": "college",
                "note": "Parent RSPO: 75696"
            }
        },
        {
            "id": 83906,
            "type": "Feature",
            "geometry": {
                "type": "Point",
                "coordinates": [
                    16.47826,
                    50.83598
                ]
            },
            "properties": {
                "ref:rspo": 83906,
                "official_name": "Niepubliczne Przedszkole Fundacji Pomocy Biednym Dzieciom \"Ut Unum Sint\"",
                "name": "Niepubliczne Przedszkole Fundacji Pomocy Biednym Dzieciom \"Ut Unum Sint\"",
                "addr:postcode": "58-100",
                "addr:city": "\u015awidnica",
                "addr:street": "Adama Mickiewicza",
                "addr:housenumber": "9",
                "addr:city:simc": 984657,
                "addr:street:sym_ul": 12740,
                "phone": "+48 748533327",
                "email": "fundacja.utunumsint@gmail.com",
                "website": "http:\/\/www.utunumsint.pl",
                "ref:regon": "022012150",
                "ref:vatin": "PL8841009179",
                "operator": "Fundacja Pomocy Biednym Dzieciom \"Ut Unum Sint\"",
                "operator:type": "ngo",
                "amenity": "kindergarten"
            }
        },
        {
            "id": 8615,
            "type": "Feature",
            "geometry": {
                "type": "Point",
                "coordinates": [
                    16.48394,
                    50.83614
                ]
            },
            "properties": {
                "isced:level": "3",
                "ref:rspo": 8615,
                "official_name": "I Liceum Og\u00f3lnokszta\u0142c\u0105ce im. Jana Kasprowicza w \u015awidnicy",
                "name": "I Liceum Og\u00f3lnokszta\u0142c\u0105ce",
                "addr:postcode": "58-100",
                "addr:city": "\u015awidnica",
                "addr:street": "Pionier\u00f3w Ziemi \u015awidnickiej",
                "addr:housenumber": "30",
                "addr:city:simc": 984657,
                "addr:street:sym_ul": 39772,
                "phone": "+48 748582942",
                "email": "kasprowicz@kasprowiczanie.com",
                "website": "http:\/\/www.kasprowiczanie.com",
                "ref:regon": "000690803",
                "ref:vatin": "PL8842282405",
                "operator": "Powiat \u015awidnicki",
                "operator:type": "government",
                "amenity": "school"
            }
        },
        {
            "id": 104024,
            "type": "Feature",
            "geometry": {
                "type": "Point",
                "coordinates": [
                    16.47758,
                    50.83641
                ]
            },
            "properties": {
                "isced:level": "1;2",
                "ref:rspo": 104024,
                "official_name": "Spo\u0142eczna Szko\u0142a Podstawowa w \u015awidnicy",
                "name": "Spo\u0142eczna Szko\u0142a Podstawowa w \u015awidnicy",
                "addr:postcode": "58-100",
                "addr:city": "\u015awidnica",
                "addr:street": "Adama Mickiewicza",
                "addr:housenumber": "1-3",
                "addr:city:simc": 984657,
                "addr:street:sym_ul": 12740,
                "phone": "+48 748524375",
                "email": "sekretariat@szkolaspoleczna.pl",
                "website": "http:\/\/www.szkola.szkolaspoleczna.pl",
                "ref:regon": "022030946",
                "ref:vatin": "PL8841401948",
                "operator": "Fundacja \"Naszej Szkole\"",
                "operator:type": "ngo",
                "amenity": "school"
            }
        },
        {
            "id": 104042,
            "type": "Feature",
            "geometry": {
                "type": "Point",
                "coordinates": [
                    16.47758,
                    50.83638
                ]
            },
            "properties": {
                "ref:rspo": 104042,
                "official_name": "Spo\u0142eczne Przedszkole \"Akademia Przedszkolaka\" w \u015awidnicy",
                "name": "Spo\u0142eczne Przedszkole \"Akademia Przedszkolaka\" w \u015awidnicy",
                "addr:postcode": "58-100",
                "addr:city": "\u015awidnica",
                "addr:street": "Adama Mickiewicza",
                "addr:housenumber": "1-3",
                "addr:city:simc": 984657,
                "addr:street:sym_ul": 12740,
                "phone": "+48 748524375",
                "email": "dyrektor.przedszkole@szkolaspoleczna.pl",
                "website": "http:\/\/www.przedszkole.szkolaspoleczna.pl",
                "ref:regon": "022031532",
                "ref:vatin": "PL8841401948",
                "operator": "Fundacja \"Naszej Szkole\"",
                "operator:type": "ngo",
                "amenity": "kindergarten"
            }
        },
        {
            "id": 105079,
            "type": "Feature",
            "geometry": {
                "type": "Point",
                "coordinates": [
                    16.48613,
                    50.83703
                ]
            },
            "properties": {
                "ref:rspo": 105079,
                "official_name": "Zak\u0142ad Poprawczy I Schronisko dla Nieletnich w \u015awidnicy",
                "name": "Zak\u0142ad Poprawczy I Schronisko dla Nieletnich w \u015awidnicy",
                "addr:postcode": "58-100",
                "addr:city": "\u015awidnica",
                "addr:street": "Sprzymierze\u0144c\u00f3w",
                "addr:housenumber": "1-2",
                "addr:city:simc": 984657,
                "addr:street:sym_ul": 20713,
                "phone": "+48 748522816",
                "email": "sekretariat@swidnica.zpisdn.gov.pl",
                "website": "http:\/\/swidnica.zpisdn.gov.pl",
                "ref:regon": "000325386",
                "operator": "Ministerstwo Sprawiedliwo\u015bci",
                "operator:type": "government",
                "note": "Children RSPO: 124991;124993"
            }
        },
        {
            "id": 124991,
            "type": "Feature",
            "geometry": {
                "type": "Point",
                "coordinates": [
                    16.48613,
                    50.836999999999996
                ]
            },
            "properties": {
                "isced:level": "1;2",
                "ref:rspo": 124991,
                "official_name": "Szko\u0142a Podstawowa nr 14 w Zak\u0142adzie Poprawczym I Schronisku dla Nieletnich w \u015awidnicy",
                "name": "Szko\u0142a Podstawowa nr 14 w Zak\u0142adzie Poprawczym I Schronisku dla Nieletnich w \u015awidnicy",
                "addr:postcode": "58-100",
                "addr:city": "\u015awidnica",
                "addr:street": "Sprzymierze\u0144c\u00f3w",
                "addr:housenumber": "1-2",
                "addr:city:simc": 984657,
                "addr:street:sym_ul": 20713,
                "phone": "+48 748522816",
                "email": "sekretariat@swidnica.zpisdn.gov.pl",
                "website": "http:\/\/www.swidnica.zpisdn.gov.pl",
                "ref:regon": "891491321",
                "operator": "Ministerstwo Sprawiedliwo\u015bci",
                "operator:type": "government",
                "amenity": "school",
                "note": "Parent RSPO: 105079"
            }
        },
        {
            "id": 124993,
            "type": "Feature",
            "geometry": {
                "type": "Point",
                "coordinates": [
                    16.48613,
                    50.83697
                ]
            },
            "properties": {
                "isced:level": "3",
                "ref:rspo": 124993,
                "official_name": "Bran\u017cowa Szko\u0142a I Stopnia nr 5 w Zak\u0142adzie Poprawczym I Schronisku dla Nieletnich w Swidnicy",
                "name": "Bran\u017cowa Szko\u0142a I Stopnia nr 5 w Zak\u0142adzie Poprawczym I Schronisku dla Nieletnich w Swidnicy",
                "addr:postcode": "58-100",
                "addr:city": "\u015awidnica",
                "addr:street": "Sprzymierze\u0144c\u00f3w",
                "addr:housenumber": "1-2",
                "addr:city:simc": 984657,
                "addr:street:sym_ul": 20713,
                "phone": "+48 748522816",
                "email": "sekretariat@swidnica.zpisdn.gov.pl",
                "website": "http:\/\/www.swidnica.zpisdn.gov.pl",
                "ref:regon": "891491315",
                "operator": "Ministerstwo Sprawiedliwo\u015bci",
                "operator:type": "government",
                "amenity": "school",
                "note": "Parent RSPO: 105079"
            }
        },
        {
            "id": 90690,
            "type": "Feature",
            "geometry": {
                "type": "Point",
                "coordinates": [
                    16.506072,
                    50.8371808
                ]
            },
            "properties": {
                "ref:rspo": 90690,
                "official_name": "Przedszkole Miejskie nr 3 w \u015awidnicy",
                "name": "Przedszkole Miejskie nr 3 w \u015awidnicy",
                "addr:postcode": "58-100",
                "addr:city": "\u015awidnica",
                "addr:street": "Okr\u0119\u017cna",
                "addr:housenumber": "30",
                "addr:city:simc": 984657,
                "addr:street:sym_ul": 14907,
                "phone": "+48 748522778",
                "email": "przedszkole@pm3.swidnica.pl",
                "website": "http:\/\/pm3.netstrefa.com.pl",
                "ref:regon": "021397395",
                "ref:vatin": "PL8842726405",
                "operator": "Gmina Miasto \u015awidnica",
                "operator:type": "government",
                "amenity": "kindergarten"
            }
        },
        {
            "id": 6018,
            "type": "Feature",
            "geometry": {
                "type": "Point",
                "coordinates": [
                    16.48292,
                    50.83794
                ]
            },
            "properties": {
                "ref:rspo": 6018,
                "official_name": "Zesp\u00f3\u0142 Poradni Psychologiczno-Pedagogicznych w \u015awidnicy",
                "name": "Zesp\u00f3\u0142 Poradni Psychologiczno-Pedagogicznych w \u015awidnicy",
                "addr:postcode": "58-100",
                "addr:city": "\u015awidnica",
                "addr:street": "Pionier\u00f3w Ziemi \u015awidnickiej",
                "addr:housenumber": "14",
                "addr:city:simc": 984657,
                "addr:street:sym_ul": 39772,
                "phone": "+48 746622720",
                "email": "sekretariat@poradnia.swidnica.pl",
                "website": "http:\/\/www.poradniasiwdnica.pl",
                "ref:regon": "021677077",
                "ref:vatin": "PL8842741942",
                "operator": "Powiat \u015awidnicki",
                "operator:type": "government",
                "landuse": "education",
                "fixme": "amenity=school, amenity=college albo landuse=education w zale\u017cno\u015bci od tego, jakie plac\u00f3wki wchodz\u0105 w sk\u0142ad zespo\u0142u. Sprawd\u017a, kiedy stosowa\u0107 amenity=* a kiedy landuse=education.",
                "note": "Children RSPO: 8011;8023;8029"
            }
        },
        {
            "id": 8011,
            "type": "Feature",
            "geometry": {
                "type": "Point",
                "coordinates": [
                    16.48292,
                    50.83791
                ]
            },
            "properties": {
                "ref:rspo": 8011,
                "official_name": "Poradnia Psychologiczno-Pedagogiczna w \u015awidnicy",
                "name": "Poradnia Psychologiczno-Pedagogiczna w \u015awidnicy",
                "addr:postcode": "58-100",
                "addr:city": "\u015awidnica",
                "addr:street": "Pionier\u00f3w Ziemi \u015awidnickiej",
                "addr:housenumber": "14",
                "addr:city:simc": 984657,
                "addr:street:sym_ul": 39772,
                "phone": "+48 746622720",
                "email": "sekretariat@poradnia.swidnica.pl",
                "ref:regon": "890042377",
                "ref:vatin": "PL8842331931",
                "operator": "Powiat \u015awidnicki",
                "operator:type": "government",
                "healthcare": "counselling",
                "counselling_type": "education",
                "fixme": "w zale\u017cno\u015bci od przedmiotu dzia\u0142alno\u015bci (np. healthcare=counselling + counselling_type=education albo healthcare=psychotherapist)",
                "note": "Parent RSPO: 6018"
            }
        },
        {
            "id": 263632,
            "type": "Feature",
            "geometry": {
                "type": "Point",
                "coordinates": [
                    16.47924,
                    50.83843
                ]
            },
            "properties": {
                "ref:rspo": 263632,
                "official_name": "Niepubliczna Specjalistyczna Poradnia Psychologiczno-Pedagogiczna \"Centrum Rozwoju\" Dawid Ko\u0142odziejczyk",
                "name": "Niepubliczna Specjalistyczna Poradnia Psychologiczno-Pedagogiczna \"Centrum Rozwoju\" Dawid Ko\u0142odziejczyk",
                "addr:postcode": "58-100",
                "addr:city": "\u015awidnica",
                "addr:street": "Wa\u0142brzyska",
                "addr:housenumber": "12",
                "addr:city:simc": 984657,
                "addr:street:sym_ul": 23582,
                "phone": "+48 502291618",
                "email": "dkolodziejczyk111@interia.pl",
                "ref:regon": "368209858",
                "operator": "Dawid Ko\u0142odziejczyk",
                "operator:type": "private",
                "healthcare": "counselling",
                "counselling_type": "education",
                "fixme": "w zale\u017cno\u015bci od przedmiotu dzia\u0142alno\u015bci (np. healthcare=counselling + counselling_type=education albo healthcare=psychotherapist)"
            }
        },
        {
            "id": 264590,
            "type": "Feature",
            "geometry": {
                "type": "Point",
                "coordinates": [
                    16.4914,
                    50.83875
                ]
            },
            "properties": {
                "ref:rspo": 264590,
                "official_name": "Niepubliczne Przedszkole \"T\u0119czowa Przysta\u0144\"",
                "name": "Niepubliczne Przedszkole \"T\u0119czowa Przysta\u0144\"",
                "addr:postcode": "58-100",
                "addr:city": "\u015awidnica",
                "addr:street": "Plac Ludowy",
                "addr:housenumber": "3A",
                "addr:city:simc": 984657,
                "addr:street:sym_ul": 11390,
                "phone": "+48 533433530",
                "email": "teczowaprzystan1@gmail.com",
                "website": "http:\/\/www.teczowaprzystan.pl",
                "ref:regon": "368388364",
                "ref:vatin": "PL8842777609",
                "operator": "T\u0119czowa Przysta\u0144 Sp\u00f3\u0142ka Z Ograniczon\u0105 Odpowiedzialno\u015bci\u0105",
                "operator:type": "private",
                "amenity": "kindergarten"
            }
        },
        {
            "id": 57273,
            "type": "Feature",
            "geometry": {
                "type": "Point",
                "coordinates": [
                    16.48365,
                    50.83888
                ]
            },
            "properties": {
                "ref:rspo": 57273,
                "official_name": "Dolno\u015bL\u0105ski Zesp\u00f3\u0142 Szk\u00f3\u0142 Medyczno - Sportowych w \u015awidnicy",
                "name": "Dolno\u015bL\u0105ski Zesp\u00f3\u0142 Szk\u00f3\u0142 Medyczno - Sportowych w \u015awidnicy",
                "addr:postcode": "58-100",
                "addr:city": "\u015awidnica",
                "addr:street": "Romualda Traugutta",
                "addr:housenumber": "5",
                "addr:city:simc": 984657,
                "addr:street:sym_ul": 22965,
                "phone": "+48 748522957",
                "email": "sekretariat@dzsms.swidnica.pl",
                "website": "http:\/\/dzsms.swidnica.pl",
                "ref:regon": "891497944",
                "operator": "Wojew\u00f3dztwo Dolno\u015bl\u0105skie",
                "operator:type": "government",
                "landuse": "education",
                "fixme": "amenity=school, amenity=college albo landuse=education w zale\u017cno\u015bci od tego, jakie plac\u00f3wki wchodz\u0105 w sk\u0142ad zespo\u0142u. Sprawd\u017a, kiedy stosowa\u0107 amenity=* a kiedy landuse=education.",
                "note": "Children RSPO: 60233;60450"
            }
        },
        {
            "id": 60233,
            "type": "Feature",
            "geometry": {
                "type": "Point",
                "coordinates": [
                    16.48365,
                    50.83885
                ]
            },
            "properties": {
                "isced:level": "3",
                "ref:rspo": 60233,
                "official_name": "Liceum Og\u00f3lnokszta\u0142c\u0105ce Szko\u0142a Mistrzostwa Sportowego w Kolarstwie",
                "name": "Liceum Og\u00f3lnokszta\u0142c\u0105ce Szko\u0142a Mistrzostwa Sportowego w Kolarstwie",
                "addr:postcode": "58-100",
                "addr:city": "\u015awidnica",
                "addr:street": "Romualda Traugutta",
                "addr:housenumber": "5",
                "addr:city:simc": 984657,
                "addr:street:sym_ul": 22965,
                "phone": "+48 748522957",
                "email": "sekretariat@dzsms.swidnica.pl",
                "website": "http:\/\/dzsms.swidnica.pl",
                "ref:regon": "891476155",
                "operator": "Wojew\u00f3dztwo Dolno\u015bl\u0105skie",
                "operator:type": "government",
                "amenity": "school",
                "note": "Parent RSPO: 57273"
            }
        },
        {
            "id": 60450,
            "type": "Feature",
            "geometry": {
                "type": "Point",
                "coordinates": [
                    16.48365,
                    50.838820000000005
                ]
            },
            "properties": {
                "isced:level": "4",
                "ref:rspo": 60450,
                "official_name": "Szko\u0142a Policealna S\u0142u\u017cb Spo\u0142ecznych I Medycznych w \u015awidnicy",
                "name": "Szko\u0142a Policealna S\u0142u\u017cb Spo\u0142ecznych I Medycznych w \u015awidnicy",
                "addr:postcode": "58-100",
                "addr:city": "\u015awidnica",
                "addr:street": "Romualda Traugutta",
                "addr:housenumber": "5",
                "addr:city:simc": 984657,
                "addr:street:sym_ul": 22965,
                "phone": "+48 748522957",
                "email": "sekretariat@dzsms.swidnica.pl",
                "website": "http:\/\/dzsms.swidnica.pl",
                "ref:regon": "021366911",
                "operator": "Wojew\u00f3dztwo Dolno\u015bl\u0105skie",
                "operator:type": "government",
                "amenity": "college",
                "note": "Parent RSPO: 57273"
            }
        },
        {
            "id": 21715,
            "type": "Feature",
            "geometry": {
                "type": "Point",
                "coordinates": [
                    16.48107,
                    50.83901
                ]
            },
            "properties": {
                "isced:level": "3",
                "ref:rspo": 21715,
                "official_name": "Bran\u017cowa Szko\u0142a I Stopnia \"Rzemie\u015blnik\" w \u015awidnicy",
                "name": "Bran\u017cowa Szko\u0142a I Stopnia \"Rzemie\u015blnik\" w \u015awidnicy",
                "addr:postcode": "58-100",
                "addr:city": "\u015awidnica",
                "addr:street": "Wa\u0142brzyska",
                "addr:housenumber": "54",
                "addr:city:simc": 984657,
                "addr:street:sym_ul": 23582,
                "phone": "+48 748530312",
                "email": "szkola.kulon@wp.pl",
                "website": "http:\/\/www.rzemieslnik.szkolnastrona.pl",
                "ref:regon": "021977750",
                "ref:vatin": "PL8842617314",
                "operator": "Konrad Kulon",
                "operator:type": "private",
                "amenity": "school"
            }
        },
        {
            "id": 262539,
            "type": "Feature",
            "geometry": {
                "type": "Point",
                "coordinates": [
                    16.48107,
                    50.83898
                ]
            },
            "properties": {
                "isced:level": "1;2",
                "ref:rspo": 262539,
                "official_name": "Niepubliczna Szko\u0142a Podstawowa z Oddzia\u0142ami Przysposabiaj\u0105cymi do Pracy w \u015awidnicy",
                "name": "Niepubliczna Szko\u0142a Podstawowa z Oddzia\u0142ami Przysposabiaj\u0105cymi do Pracy w \u015awidnicy",
                "addr:postcode": "58-100",
                "addr:city": "\u015awidnica",
                "addr:street": "Wa\u0142brzyska",
                "addr:housenumber": "54",
                "addr:city:simc": 984657,
                "addr:street:sym_ul": 23582,
                "phone": "+48 748530312",
                "email": "szkola.kulon@wp.pl",
                "website": "http:\/\/www.rzemieslnik.szkolnastrona.pl",
                "ref:regon": "368031484",
                "ref:vatin": "PL8842617314",
                "operator": "Konrad Kulon",
                "operator:type": "private",
                "amenity": "school"
            }
        },
        {
            "id": 115396,
            "type": "Feature",
            "geometry": {
                "type": "Point",
                "coordinates": [
                    16.48416,
                    50.83906
                ]
            },
            "properties": {
                "isced:level": "3",
                "ref:rspo": 115396,
                "official_name": "Technikum Ortopedyczne w \u015awidnicy",
                "name": "Technikum Ortopedyczne w \u015awidnicy",
                "addr:postcode": "58-100",
                "addr:city": "\u015awidnica",
                "addr:street": "Romualda Traugutta",
                "addr:housenumber": "7",
                "addr:city:simc": 984657,
                "addr:street:sym_ul": 22965,
                "phone": "+48 748513157",
                "email": "scedu@op.pl",
                "ref:regon": "022182254",
                "operator": "\"Fundacja Solidarno\u015bci Pokole\u0144\"",
                "operator:type": "ngo",
                "amenity": "school"
            }
        },
        {
            "id": 279256,
            "type": "Feature",
            "geometry": {
                "type": "Point",
                "coordinates": [
                    16.48416,
                    50.83903
                ]
            },
            "properties": {
                "isced:level": "3",
                "ref:rspo": 279256,
                "official_name": "Technikum Weterynaryjne w \u015awidnicy",
                "name": "Technikum Weterynaryjne w \u015awidnicy",
                "addr:postcode": "58-100",
                "addr:city": "\u015awidnica",
                "addr:street": "Romualda Traugutta",
                "addr:housenumber": "7",
                "addr:city:simc": 984657,
                "addr:street:sym_ul": 22965,
                "phone": "+48 748513157",
                "email": "sekretariat@sced.pl",
                "website": "http:\/\/www.sced.pl",
                "ref:regon": "521060154",
                "operator": "\"Fundacja Solidarno\u015bci Pokole\u0144\"",
                "operator:type": "ngo",
                "amenity": "school"
            }
        },
        {
            "id": 89360,
            "type": "Feature",
            "geometry": {
                "type": "Point",
                "coordinates": [
                    16.48605,
                    50.83944
                ]
            },
            "properties": {
                "ref:rspo": 89360,
                "official_name": "M\u0142odzie\u017cowy Dom Kultury im. Mieczys\u0142awa Kozara - S\u0142ob\u00f3dzkiego w \u015awidnicy",
                "name": "M\u0142odzie\u017cowy Dom Kultury",
                "addr:postcode": "58-100",
                "addr:city": "\u015awidnica",
                "addr:street": "Nauczycielska",
                "addr:housenumber": "2",
                "addr:city:simc": 984657,
                "addr:street:sym_ul": 14048,
                "phone": "+48 748513330",
                "email": "sekretariat@mdk.swidnica.pl",
                "website": "http:\/\/www.mdk.swidnica.pl",
                "ref:regon": "000690861",
                "ref:vatin": "PL8841799000",
                "operator": "Gmina Miasto \u015awidnica",
                "operator:type": "government",
                "amenity": "community_centre",
                "community_centre:for": "juvenile"
            }
        },
        {
            "id": 88531,
            "type": "Feature",
            "geometry": {
                "type": "Point",
                "coordinates": [
                    16.48853,
                    50.83964
                ]
            },
            "properties": {
                "isced:level": "1;2",
                "ref:rspo": 88531,
                "official_name": "Szko\u0142a Podstawowa nr 315 im. Jana Paw\u0142a II w \u015awidnicy",
                "name": "Szko\u0142a Podstawowa nr 315",
                "addr:postcode": "58-100",
                "addr:city": "\u015awidnica",
                "addr:street": "Plac Wojska Polskiego",
                "addr:housenumber": "3",
                "addr:city:simc": 984657,
                "addr:street:sym_ul": 24626,
                "phone": "+48 748569502",
                "email": "sekretariat@sp-315.swidnica.pl",
                "website": "http:\/\/www.sp-315.swidnica.pl",
                "ref:regon": "020342400",
                "ref:vatin": "PL8842597209",
                "operator": "Gmina Miasto \u015awidnica",
                "operator:type": "government",
                "amenity": "school"
            }
        },
        {
            "id": 103915,
            "type": "Feature",
            "geometry": {
                "type": "Point",
                "coordinates": [
                    16.48853,
                    50.83961
                ]
            },
            "properties": {
                "ref:rspo": 103915,
                "official_name": "Niepubliczne Przedszkole \"Europejska Akademia Dziecka\"",
                "name": "Niepubliczne Przedszkole \"Europejska Akademia Dziecka\"",
                "addr:postcode": "58-100",
                "addr:city": "\u015awidnica",
                "addr:street": "Plac Wojska Polskiego",
                "addr:housenumber": "4",
                "addr:city:simc": 984657,
                "addr:street:sym_ul": 24626,
                "phone": "+48 746671975",
                "email": "przedszkolapead@wp.pl",
                "website": "http:\/\/www.pead.pl",
                "ref:regon": "022030863",
                "ref:vatin": "PL8842676156",
                "operator": "\"Europejska Akademia Dziecka\" S.c. Daria Michalska Przemys\u0142aw Michalski Agnieszka Perska",
                "operator:type": "consortium",
                "amenity": "kindergarten"
            }
        },
        {
            "id": 272344,
            "type": "Feature",
            "geometry": {
                "type": "Point",
                "coordinates": [
                    16.48853,
                    50.839580000000005
                ]
            },
            "properties": {
                "ref:rspo": 272344,
                "official_name": "Zesp\u00f3\u0142 Szk\u00f3\u0142 \"Pascal\" w \u015awidnicy",
                "name": "Zesp\u00f3\u0142 Szk\u00f3\u0142 \"Pascal\" w \u015awidnicy",
                "addr:postcode": "58-100",
                "addr:city": "\u015awidnica",
                "addr:street": "Plac Wojska Polskiego",
                "addr:housenumber": "3",
                "addr:city:simc": 984657,
                "addr:street:sym_ul": 24626,
                "phone": "+48 429420936",
                "ref:regon": "384149718",
                "operator": "Educa Sp\u00f3\u0142ka Z Ograniczon\u0105 Odpowiedzialno\u015bci\u0105",
                "operator:type": "private",
                "landuse": "education",
                "fixme": "amenity=school, amenity=college albo landuse=education w zale\u017cno\u015bci od tego, jakie plac\u00f3wki wchodz\u0105 w sk\u0142ad zespo\u0142u. Sprawd\u017a, kiedy stosowa\u0107 amenity=* a kiedy landuse=education.",
                "note": "Children RSPO: 269119;269120;269122;269124"
            }
        },
        {
            "id": 269119,
            "type": "Feature",
            "geometry": {
                "type": "Point",
                "coordinates": [
                    16.48853,
                    50.83955
                ]
            },
            "properties": {
                "isced:level": "4",
                "ref:rspo": 269119,
                "official_name": "Stacjonarna Policealna Szko\u0142a Medyczna \"Pascal\" w \u015awidnicy",
                "name": "Stacjonarna Policealna Szko\u0142a Medyczna \"Pascal\" w \u015awidnicy",
                "addr:postcode": "58-100",
                "addr:city": "\u015awidnica",
                "addr:street": "Plac Wojska Polskiego",
                "addr:housenumber": "3",
                "addr:city:simc": 984657,
                "addr:street:sym_ul": 24626,
                "phone": "+48 429420942",
                "ref:regon": "381374892",
                "operator": "Educa Sp\u00f3\u0142ka Z Ograniczon\u0105 Odpowiedzialno\u015bci\u0105",
                "operator:type": "private",
                "amenity": "college",
                "note": "Parent RSPO: 272344"
            }
        },
        {
            "id": 269120,
            "type": "Feature",
            "geometry": {
                "type": "Point",
                "coordinates": [
                    16.48853,
                    50.83952
                ]
            },
            "properties": {
                "isced:level": "3",
                "ref:rspo": 269120,
                "official_name": "Liceum Og\u00f3lnokszta\u0142c\u0105ce dla Doros\u0142ych \"Pascal\" w \u015awidnicy",
                "name": "Liceum Og\u00f3lnokszta\u0142c\u0105ce dla Doros\u0142ych \"Pascal\" w \u015awidnicy",
                "addr:postcode": "58-100",
                "addr:city": "\u015awidnica",
                "addr:street": "Plac Wojska Polskiego",
                "addr:housenumber": "3",
                "addr:city:simc": 984657,
                "addr:street:sym_ul": 24626,
                "phone": "+48 429420942",
                "ref:regon": "381374981",
                "operator": "Educa Sp\u00f3\u0142ka Z Ograniczon\u0105 Odpowiedzialno\u015bci\u0105",
                "operator:type": "private",
                "amenity": "school",
                "note": "Parent RSPO: 272344"
            }
        },
        {
            "id": 269122,
            "type": "Feature",
            "geometry": {
                "type": "Point",
                "coordinates": [
                    16.48853,
                    50.839490000000005
                ]
            },
            "properties": {
                "isced:level": "4",
                "ref:rspo": 269122,
                "official_name": "Policealna Szko\u0142a Medyczna \"Pascal\" w \u015awidnicy",
                "name": "Policealna Szko\u0142a Medyczna \"Pascal\" w \u015awidnicy",
                "addr:postcode": "58-100",
                "addr:city": "\u015awidnica",
                "addr:street": "Plac Wojska Polskiego",
                "addr:housenumber": "3",
                "addr:city:simc": 984657,
                "addr:street:sym_ul": 24626,
                "phone": "+48 429420942",
                "ref:regon": "381375012",
                "operator": "Educa Sp\u00f3\u0142ka Z Ograniczon\u0105 Odpowiedzialno\u015bci\u0105",
                "operator:type": "private",
                "amenity": "college",
                "note": "Parent RSPO: 272344"
            }
        },
        {
            "id": 269124,
            "type": "Feature",
            "geometry": {
                "type": "Point",
                "coordinates": [
                    16.48853,
                    50.83946
                ]
            },
            "properties": {
                "isced:level": "4",
                "ref:rspo": 269124,
                "official_name": "Zaoczna Policealna Szko\u0142a Zawodowa \"Pascal\" w \u015awidnicy",
                "name": "Zaoczna Policealna Szko\u0142a Zawodowa \"Pascal\" w \u015awidnicy",
                "addr:postcode": "58-100",
                "addr:city": "\u015awidnica",
                "addr:street": "Plac Wojska Polskiego",
                "addr:housenumber": "3",
                "addr:city:simc": 984657,
                "addr:street:sym_ul": 24626,
                "phone": "+48 429420942",
                "ref:regon": "381375058",
                "operator": "Educa Sp\u00f3\u0142ka Z Ograniczon\u0105 Odpowiedzialno\u015bci\u0105",
                "operator:type": "private",
                "amenity": "college",
                "note": "Parent RSPO: 272344"
            }
        },
        {
            "id": 119592,
            "type": "Feature",
            "geometry": {
                "type": "Point",
                "coordinates": [
                    16.48656,
                    50.84021
                ]
            },
            "properties": {
                "ref:rspo": 119592,
                "official_name": "Niepubliczne Przedszkole Artystyczne \"Bajkowy Domek\"",
                "name": "Niepubliczne Przedszkole Artystyczne \"Bajkowy Domek\"",
                "addr:postcode": "58-100",
                "addr:city": "\u015awidnica",
                "addr:street": "Aleja Niepodleg\u0142o\u015bci",
                "addr:housenumber": "14",
                "addr:city:simc": 984657,
                "addr:street:sym_ul": 14199,
                "phone": "+48 791206262",
                "email": "m.baranowska@gsma24.pl",
                "website": "http:\/\/www.bajkowydomek.net",
                "ref:regon": "022243990",
                "ref:vatin": "PL8842332675",
                "operator": "Niepubliczne Przedszkole I \u017b\u0142obek Bajkowy Domek Sp\u00f3\u0142ka Z Ograniczon\u0105 Odpowiedzialno\u015bci\u0105",
                "operator:type": "private",
                "amenity": "kindergarten"
            }
        },
        {
            "id": 103543,
            "type": "Feature",
            "geometry": {
                "type": "Point",
                "coordinates": [
                    16.48876,
                    50.8402699
                ]
            },
            "properties": {
                "ref:rspo": 103543,
                "official_name": "Pa\u0144stwowa Szko\u0142a Muzyczna I St. im. Ludomira R\u00f3\u017cyckiego w \u015awidnicy",
                "name": "Pa\u0144stwowa Szko\u0142a Muzyczna I St.",
                "addr:postcode": "58-100",
                "addr:city": "\u015awidnica",
                "addr:street": "Aleja Niepodleg\u0142o\u015bci",
                "addr:housenumber": "11",
                "addr:city:simc": 984657,
                "addr:street:sym_ul": 14199,
                "phone": "+48 748522461",
                "email": "sekretariat@szkola-muzyczna.swidnica.pl",
                "website": "http:\/\/psm.swidnica.pl",
                "ref:regon": "000595016",
                "operator": "Ministerstwo Kultury I Dziedzictwa Narodowego",
                "operator:type": "government",
                "amenity": "music_school"
            }
        },
        {
            "id": 91107,
            "type": "Feature",
            "geometry": {
                "type": "Point",
                "coordinates": [
                    16.49409,
                    50.84043
                ]
            },
            "properties": {
                "ref:rspo": 91107,
                "official_name": "Przedszkole Publiczne Zgromadzenia Panien Ofiarowania Naj\u015bwi\u0119tszej Maryi Panny (Pp. Prezentek)",
                "name": "Przedszkole Publiczne Zgromadzenia Panien Ofiarowania Naj\u015bwi\u0119tszej Maryi Panny (Pp. Prezentek)",
                "addr:postcode": "58-100",
                "addr:city": "\u015awidnica",
                "addr:street": "Piekarska",
                "addr:housenumber": "2",
                "addr:door": "4",
                "addr:city:simc": 984657,
                "addr:street:sym_ul": 16111,
                "phone": "+48 511134121",
                "email": "prezentki@op.pl",
                "website": "http:\/\/www.przedszkoleprezentek.swidnica.dlaprzedszkoli.eu",
                "ref:regon": "022019212",
                "ref:vatin": "PL8841155113",
                "operator": "Zgromadzenie Panien Ofiarowania Naj\u015bwi\u0119tszej Maryi Panny\/Pp.prezentki\/W Krakowie-Dom Zakonny",
                "operator:type": "religious",
                "amenity": "kindergarten"
            }
        },
        {
            "id": 103981,
            "type": "Feature",
            "geometry": {
                "type": "Point",
                "coordinates": [
                    16.4736,
                    50.84068
                ]
            },
            "properties": {
                "ref:rspo": 103981,
                "official_name": "Przedszkole Niepubliczne \"Radosny Delfinek\"",
                "name": "Przedszkole Niepubliczne \"Radosny Delfinek\"",
                "addr:postcode": "58-100",
                "addr:city": "\u015awidnica",
                "addr:street": "Armii Krajowej",
                "addr:housenumber": "10",
                "addr:city:simc": 984657,
                "addr:street:sym_ul": 432,
                "phone": "+48 667996464",
                "email": "przedszkole.radosnydelfinek@gmail.com",
                "website": "http:\/\/www.radosnydelfinek.pl",
                "ref:regon": "022030774",
                "ref:vatin": "PL8841035030",
                "operator": "Jacek Or\u0142owski",
                "operator:type": "private",
                "amenity": "kindergarten"
            }
        },
        {
            "id": 90383,
            "type": "Feature",
            "geometry": {
                "type": "Point",
                "coordinates": [
                    16.484659194946,
                    50.840900421143
                ]
            },
            "properties": {
                "ref:rspo": 90383,
                "official_name": "Przedszkole Miejskie nr 4 w \u015awidnicy",
                "name": "Przedszkole Miejskie nr 4 w \u015awidnicy",
                "addr:postcode": "58-100",
                "addr:city": "\u015awidnica",
                "addr:street": "Joachima Lelewela",
                "addr:housenumber": "10",
                "addr:city:simc": 984657,
                "addr:street:sym_ul": 10793,
                "phone": "+48 748520397",
                "email": "przedszkole@pm4.swidnica.pl",
                "website": "http:\/\/www.przedszkole4.swidnica.pl",
                "ref:regon": "021392185",
                "ref:vatin": "PL8842725877",
                "operator": "Gmina Miasto \u015awidnica",
                "operator:type": "government",
                "amenity": "kindergarten"
            }
        },
        {
            "id": 6024,
            "type": "Feature",
            "geometry": {
                "type": "Point",
                "coordinates": [
                    16.49849,
                    50.84137
                ]
            },
            "properties": {
                "ref:rspo": 6024,
                "official_name": "Zesp\u00f3\u0142 Szk\u00f3\u0142 Hotelarsko-Turystycznych im. Tony Halika w \u015awidnicy",
                "name": "Zesp\u00f3\u0142 Szk\u00f3\u0142 Hotelarsko-Turystycznych",
                "addr:postcode": "58-100",
                "addr:city": "\u015awidnica",
                "addr:street": "R\u00f3wna",
                "addr:housenumber": "18",
                "addr:city:simc": 984657,
                "addr:street:sym_ul": 18985,
                "phone": "+48 748533033",
                "email": "info@zsht.swidnica.pl",
                "website": "http:\/\/www.zsht.swidnica.pl",
                "ref:regon": "890541502",
                "ref:vatin": "PL8841085677",
                "operator": "Powiat \u015awidnicki",
                "operator:type": "government",
                "landuse": "education",
                "fixme": "amenity=school, amenity=college albo landuse=education w zale\u017cno\u015bci od tego, jakie plac\u00f3wki wchodz\u0105 w sk\u0142ad zespo\u0142u. Sprawd\u017a, kiedy stosowa\u0107 amenity=* a kiedy landuse=education.",
                "note": "Children RSPO: 12297;12305;27300"
            }
        },
        {
            "id": 12297,
            "type": "Feature",
            "geometry": {
                "type": "Point",
                "coordinates": [
                    16.49849,
                    50.841339999999995
                ]
            },
            "properties": {
                "isced:level": "3",
                "ref:rspo": 12297,
                "official_name": "Technikum nr 2 w \u015awidnicy",
                "name": "Technikum nr 2 w \u015awidnicy",
                "addr:postcode": "58-100",
                "addr:city": "\u015awidnica",
                "addr:street": "R\u00f3wna",
                "addr:housenumber": "18",
                "addr:city:simc": 984657,
                "addr:street:sym_ul": 18985,
                "phone": "+48 748533033",
                "email": "info@zsht.swidnica.pl",
                "website": "http:\/\/www.zsht.swidnica.pl",
                "ref:regon": "891419269",
                "operator": "Powiat \u015awidnicki",
                "operator:type": "government",
                "amenity": "school",
                "note": "Parent RSPO: 6024"
            }
        },
        {
            "id": 12305,
            "type": "Feature",
            "geometry": {
                "type": "Point",
                "coordinates": [
                    16.49849,
                    50.84131
                ]
            },
            "properties": {
                "isced:level": "4",
                "ref:rspo": 12305,
                "official_name": "Szko\u0142a Policealna nr 2 w \u015awidnicy",
                "name": "Szko\u0142a Policealna nr 2 w \u015awidnicy",
                "addr:postcode": "58-100",
                "addr:city": "\u015awidnica",
                "addr:street": "R\u00f3wna",
                "addr:housenumber": "18",
                "addr:city:simc": 984657,
                "addr:street:sym_ul": 18985,
                "phone": "+48 748533033",
                "email": "info@zsht.swidnica.pl",
                "website": "http:\/\/www.zsht.swidnica.pl",
                "ref:regon": "021959953",
                "operator": "Powiat \u015awidnicki",
                "operator:type": "government",
                "amenity": "college",
                "note": "Parent RSPO: 6024"
            }
        },
        {
            "id": 266606,
            "type": "Feature",
            "geometry": {
                "type": "Point",
                "coordinates": [
                    16.487872,
                    50.841677
                ]
            },
            "properties": {
                "ref:rspo": 266606,
                "official_name": "Niepubliczna Plac\u00f3wka Kszta\u0142cenia Ustawicznego Sudecki Instytut Rozwoju Regionalnego",
                "name": "Niepubliczna Plac\u00f3wka Kszta\u0142cenia Ustawicznego Sudecki Instytut Rozwoju Regionalnego",
                "addr:postcode": "58-100",
                "addr:city": "\u015awidnica",
                "addr:street": "D\u0142uga",
                "addr:housenumber": "6",
                "addr:city:simc": 984657,
                "addr:street:sym_ul": 3839,
                "website": "http:\/\/www.sirr.pl",
                "ref:regon": "369604195",
                "operator": "\"Sudecki Instytut Rozwoju Regionalnego\"",
                "operator:type": "ngo",
                "fixme": "w zale\u017cno\u015bci od przedmiotu dzia\u0142alno\u015bci (np. amenity=training + training=*, amenity=dancing_school, amenity=language_school, amenity=music_school)"
            }
        },
        {
            "id": 266608,
            "type": "Feature",
            "geometry": {
                "type": "Point",
                "coordinates": [
                    16.487872,
                    50.841646999999995
                ]
            },
            "properties": {
                "ref:rspo": 266608,
                "official_name": "Niepubliczna Plac\u00f3wka Kszta\u0142cenia Ustawicznego Pro4 Sp. z o.o.",
                "name": "Niepubliczna Plac\u00f3wka Kszta\u0142cenia Ustawicznego Pro4 Sp. z o.o.",
                "addr:postcode": "58-100",
                "addr:city": "\u015awidnica",
                "addr:street": "D\u0142uga",
                "addr:housenumber": "6",
                "addr:city:simc": 984657,
                "addr:street:sym_ul": 3839,
                "email": "biuro@pro4.pl",
                "website": "http:\/\/www.pro4.pl",
                "ref:regon": "369604255",
                "operator": "Pro4 Sp\u00f3\u0142ka Z Ograniczon\u0105 Odpowiedzialno\u015bci\u0105",
                "operator:type": "private",
                "fixme": "w zale\u017cno\u015bci od przedmiotu dzia\u0142alno\u015bci (np. amenity=training + training=*, amenity=dancing_school, amenity=language_school, amenity=music_school)"
            }
        },
        {
            "id": 266612,
            "type": "Feature",
            "geometry": {
                "type": "Point",
                "coordinates": [
                    16.487872,
                    50.841617
                ]
            },
            "properties": {
                "ref:rspo": 266612,
                "official_name": "Niepubliczna Plac\u00f3wka Kszta\u0142cenia Ustawicznego Stowarzyszenie Pro-Motor",
                "name": "Niepubliczna Plac\u00f3wka Kszta\u0142cenia Ustawicznego Stowarzyszenie Pro-Motor",
                "addr:postcode": "58-100",
                "addr:city": "\u015awidnica",
                "addr:street": "D\u0142uga",
                "addr:housenumber": "6",
                "addr:city:simc": 984657,
                "addr:street:sym_ul": 3839,
                "website": "http:\/\/www.promotor.swidnica.pl",
                "ref:regon": "369604999",
                "operator": "Stowarzyszenie \"Pro - Motor\"",
                "operator:type": "ngo",
                "fixme": "w zale\u017cno\u015bci od przedmiotu dzia\u0142alno\u015bci (np. amenity=training + training=*, amenity=dancing_school, amenity=language_school, amenity=music_school)"
            }
        },
        {
            "id": 270573,
            "type": "Feature",
            "geometry": {
                "type": "Point",
                "coordinates": [
                    16.4805,
                    50.84192
                ]
            },
            "properties": {
                "ref:rspo": 270573,
                "official_name": "Plac\u00f3wka Kszta\u0142cenia Ustawicznego \"Profes\"",
                "name": "Plac\u00f3wka Kszta\u0142cenia Ustawicznego \"Profes\"",
                "addr:postcode": "58-100",
                "addr:city": "\u015awidnica",
                "addr:street": "Kolejowa",
                "addr:housenumber": "8",
                "addr:city:simc": 984657,
                "addr:street:sym_ul": 8828,
                "phone": "+48 798652698",
                "email": "profes@dolnoslaskiinkubator.pl",
                "ref:regon": "382776581",
                "operator": "Stowarzyszenie Dolno\u015bl\u0105ski Inkubator Przedsi\u0119biorczo\u015bci",
                "operator:type": "ngo",
                "fixme": "w zale\u017cno\u015bci od przedmiotu dzia\u0142alno\u015bci (np. amenity=training + training=*, amenity=dancing_school, amenity=language_school, amenity=music_school)"
            }
        },
        {
            "id": 6021,
            "type": "Feature",
            "geometry": {
                "type": "Point",
                "coordinates": [
                    16.48365,
                    50.8420599
                ]
            },
            "properties": {
                "ref:rspo": 6021,
                "official_name": "Zesp\u00f3\u0142 Szk\u00f3\u0142 nr 1 w \u015awidnicy",
                "name": "Zesp\u00f3\u0142 Szk\u00f3\u0142 nr 1 w \u015awidnicy",
                "addr:postcode": "58-100",
                "addr:city": "\u015awidnica",
                "addr:street": "Budowlana",
                "addr:housenumber": "7-9",
                "addr:city:simc": 984657,
                "addr:street:sym_ul": 2335,
                "phone": "+48 748520700",
                "email": "zs1swidnica@wp.pl",
                "website": "http:\/\/www.zs1.pl",
                "ref:regon": "890529872",
                "ref:vatin": "PL8841086760",
                "operator": "Powiat \u015awidnicki",
                "operator:type": "government",
                "landuse": "education",
                "fixme": "amenity=school, amenity=college albo landuse=education w zale\u017cno\u015bci od tego, jakie plac\u00f3wki wchodz\u0105 w sk\u0142ad zespo\u0142u. Sprawd\u017a, kiedy stosowa\u0107 amenity=* a kiedy landuse=education.",
                "note": "Children RSPO: 12309;12313;12321;12776;274737"
            }
        },
        {
            "id": 12309,
            "type": "Feature",
            "geometry": {
                "type": "Point",
                "coordinates": [
                    16.48365,
                    50.8420299
                ]
            },
            "properties": {
                "isced:level": "3",
                "ref:rspo": 12309,
                "official_name": "Vi Liceum Og\u00f3lnokszta\u0142c\u0105ce z Oddzia\u0142ami Integracyjnymi w \u015awidnicy",
                "name": "Vi Liceum Og\u00f3lnokszta\u0142c\u0105ce z Oddzia\u0142ami Integracyjnymi w \u015awidnicy",
                "addr:postcode": "58-100",
                "addr:city": "\u015awidnica",
                "addr:street": "Budowlana",
                "addr:housenumber": "7",
                "addr:city:simc": 984657,
                "addr:street:sym_ul": 2335,
                "phone": "+48 748520700",
                "email": "zs1swidnica@wp.pl",
                "ref:regon": "021840525",
                "operator": "Powiat \u015awidnicki",
                "operator:type": "government",
                "amenity": "school",
                "note": "Parent RSPO: 6021"
            }
        },
        {
            "id": 12313,
            "type": "Feature",
            "geometry": {
                "type": "Point",
                "coordinates": [
                    16.48365,
                    50.841999900000005
                ]
            },
            "properties": {
                "isced:level": "3",
                "ref:rspo": 12313,
                "official_name": "Technikum nr 1 w \u015awidnicy",
                "name": "Technikum nr 1 w \u015awidnicy",
                "addr:postcode": "58-100",
                "addr:city": "\u015awidnica",
                "addr:street": "Budowlana",
                "addr:housenumber": "7",
                "addr:city:simc": 984657,
                "addr:street:sym_ul": 2335,
                "phone": "+48 748520700",
                "email": "zs1swidnica@wp.pl",
                "ref:regon": "891418146",
                "operator": "Powiat \u015awidnicki",
                "operator:type": "government",
                "amenity": "school",
                "note": "Parent RSPO: 6021"
            }
        },
        {
            "id": 12321,
            "type": "Feature",
            "geometry": {
                "type": "Point",
                "coordinates": [
                    16.48365,
                    50.8419699
                ]
            },
            "properties": {
                "isced:level": "3",
                "ref:rspo": 12321,
                "official_name": "Bran\u017cowa Szko\u0142a I Stopnia nr 1 w \u015awidnicy",
                "name": "Bran\u017cowa Szko\u0142a I Stopnia nr 1 w \u015awidnicy",
                "addr:postcode": "58-100",
                "addr:city": "\u015awidnica",
                "addr:street": "Budowlana",
                "addr:housenumber": "7-9",
                "addr:city:simc": 984657,
                "addr:street:sym_ul": 2335,
                "phone": "+48 748520700",
                "email": "zs1swidnica@wp.pl",
                "ref:regon": "891418130",
                "operator": "Powiat \u015awidnicki",
                "operator:type": "government",
                "amenity": "school",
                "note": "Parent RSPO: 6021"
            }
        },
        {
            "id": 12776,
            "type": "Feature",
            "geometry": {
                "type": "Point",
                "coordinates": [
                    16.48365,
                    50.8419399
                ]
            },
            "properties": {
                "isced:level": "4",
                "ref:rspo": 12776,
                "official_name": "Szko\u0142a Policealna nr 1 w \u015awidnicy",
                "name": "Szko\u0142a Policealna nr 1 w \u015awidnicy",
                "addr:postcode": "58-100",
                "addr:city": "\u015awidnica",
                "addr:street": "Budowlana",
                "addr:housenumber": "7",
                "addr:city:simc": 984657,
                "addr:street:sym_ul": 2335,
                "phone": "+48 748520700",
                "email": "zs1swidnica@wp.pl",
                "ref:regon": "021960927",
                "operator": "Powiat \u015awidnicki",
                "operator:type": "government",
                "amenity": "college",
                "note": "Parent RSPO: 6021"
            }
        },
        {
            "id": 274737,
            "type": "Feature",
            "geometry": {
                "type": "Point",
                "coordinates": [
                    16.48365,
                    50.841909900000005
                ]
            },
            "properties": {
                "isced:level": "3",
                "ref:rspo": 274737,
                "official_name": "Bran\u017cowa Szko\u0142a II Stopnia w \u015awidnicy",
                "name": "Bran\u017cowa Szko\u0142a II Stopnia w \u015awidnicy",
                "addr:postcode": "58-100",
                "addr:city": "\u015awidnica",
                "addr:street": "Budowlana",
                "addr:housenumber": "7-9",
                "addr:city:simc": 984657,
                "addr:street:sym_ul": 2335,
                "phone": "+48 748520700",
                "email": "zs1swidnica@wp.pl",
                "ref:regon": "386286610",
                "operator": "Powiat \u015awidnicki",
                "operator:type": "government",
                "amenity": "school",
                "note": "Parent RSPO: 6021"
            }
        },
        {
            "id": 8628,
            "type": "Feature",
            "geometry": {
                "type": "Point",
                "coordinates": [
                    16.49715,
                    50.84213
                ]
            },
            "properties": {
                "ref:rspo": 8628,
                "official_name": "Zesp\u00f3\u0142 Szk\u00f3\u0142 Og\u00f3lnokszta\u0142c\u0105cych w \u015awidnicy",
                "name": "Zesp\u00f3\u0142 Szk\u00f3\u0142 Og\u00f3lnokszta\u0142c\u0105cych w \u015awidnicy",
                "addr:postcode": "58-100",
                "addr:city": "\u015awidnica",
                "addr:street": "R\u00f3wna",
                "addr:housenumber": "11",
                "addr:city:simc": 984657,
                "addr:street:sym_ul": 18985,
                "phone": "+48 748520573",
                "email": "sekretariat@lo2.swidnica.pl",
                "website": "http:\/\/www.lo2.swidnica.pl",
                "ref:regon": "000690810",
                "ref:vatin": "PL8841054949",
                "operator": "Powiat \u015awidnicki",
                "operator:type": "government",
                "landuse": "education",
                "fixme": "amenity=school, amenity=college albo landuse=education w zale\u017cno\u015bci od tego, jakie plac\u00f3wki wchodz\u0105 w sk\u0142ad zespo\u0142u. Sprawd\u017a, kiedy stosowa\u0107 amenity=* a kiedy landuse=education.",
                "note": "Children RSPO: 12176;12178"
            }
        },
        {
            "id": 12176,
            "type": "Feature",
            "geometry": {
                "type": "Point",
                "coordinates": [
                    16.49715,
                    50.842099999999995
                ]
            },
            "properties": {
                "isced:level": "3",
                "ref:rspo": 12176,
                "official_name": "Ii Liceum Og\u00f3lnokszta\u0142c\u0105ce im. Stefana Banacha w \u015awidnicy",
                "name": "Ii Liceum Og\u00f3lnokszta\u0142c\u0105ce",
                "addr:postcode": "58-100",
                "addr:city": "\u015awidnica",
                "addr:street": "R\u00f3wna",
                "addr:housenumber": "11",
                "addr:city:simc": 984657,
                "addr:street:sym_ul": 18985,
                "phone": "+48 748520573",
                "email": "sekretariat@lo2.swidnica.pl",
                "website": "http:\/\/www.lo2.swidnica.pl",
                "ref:regon": "891417810",
                "operator": "Powiat \u015awidnicki",
                "operator:type": "government",
                "amenity": "school",
                "note": "Parent RSPO: 8628"
            }
        },
        {
            "id": 12178,
            "type": "Feature",
            "geometry": {
                "type": "Point",
                "coordinates": [
                    16.49715,
                    50.84207
                ]
            },
            "properties": {
                "isced:level": "3",
                "ref:rspo": 12178,
                "official_name": "Liceum Og\u00f3lnokszta\u0142c\u0105ce dla Doros\u0142ych nr I w \u015awidnicy",
                "name": "Liceum Og\u00f3lnokszta\u0142c\u0105ce dla Doros\u0142ych nr I w \u015awidnicy",
                "addr:postcode": "58-100",
                "addr:city": "\u015awidnica",
                "addr:street": "R\u00f3wna",
                "addr:housenumber": "11",
                "addr:city:simc": 984657,
                "addr:street:sym_ul": 18985,
                "phone": "+48 748520573",
                "email": "sekretariat@lo2.swidnica.pl",
                "ref:regon": "891417827",
                "operator": "Powiat \u015awidnicki",
                "operator:type": "government",
                "amenity": "school",
                "note": "Parent RSPO: 8628"
            }
        },
        {
            "id": 22076,
            "type": "Feature",
            "geometry": {
                "type": "Point",
                "coordinates": [
                    16.48955,
                    50.84255
                ]
            },
            "properties": {
                "ref:rspo": 22076,
                "official_name": "Niepubliczna Poradnia Specjalistyczna Centrum Progres Danuta Stempowska",
                "name": "Niepubliczna Poradnia Specjalistyczna Centrum Progres Danuta Stempowska",
                "addr:postcode": "58-100",
                "addr:city": "\u015awidnica",
                "addr:street": "Kazimierza Pu\u0142askiego",
                "addr:housenumber": "19",
                "addr:city:simc": 984657,
                "addr:street:sym_ul": 18099,
                "phone": "+48 691730280",
                "email": "pracownia-poradnia@wp.pl",
                "website": "http:\/\/www.centrumprogres.pl",
                "ref:regon": "021978459",
                "operator": "Danuta Stempowska",
                "operator:type": "private",
                "fixme": "w zale\u017cno\u015bci od przedmiotu dzia\u0142alno\u015bci (np. healthcare=counselling + counselling_type=education albo healthcare=psychotherapist)"
            }
        },
        {
            "id": 121636,
            "type": "Feature",
            "geometry": {
                "type": "Point",
                "coordinates": [
                    16.48658,
                    50.84267
                ]
            },
            "properties": {
                "ref:rspo": 121636,
                "official_name": "Nestor Group Bartosz Berkowski",
                "name": "Nestor Group Bartosz Berkowski",
                "addr:postcode": "58-100",
                "addr:city": "\u015awidnica",
                "addr:street": "Rynek",
                "addr:housenumber": "39",
                "addr:door": "40",
                "addr:city:simc": 984657,
                "addr:street:sym_ul": 19252,
                "phone": "+48 748519860",
                "email": "biuro@nesorgroup.pl",
                "website": "http:\/\/www.nestorgroup.pl",
                "ref:regon": "022337946",
                "operator": "Bartosz Berkowski",
                "operator:type": "private",
                "fixme": "w zale\u017cno\u015bci od przedmiotu dzia\u0142alno\u015bci (np. amenity=training + training=*, amenity=dancing_school, amenity=language_school, amenity=music_school)"
            }
        },
        {
            "id": 129890,
            "type": "Feature",
            "geometry": {
                "type": "Point",
                "coordinates": [
                    16.48658,
                    50.842639999999996
                ]
            },
            "properties": {
                "ref:rspo": 129890,
                "official_name": "Nestor Group Sp. z o.o.",
                "name": "Nestor Group Sp. z o.o.",
                "addr:postcode": "58-100",
                "addr:city": "\u015awidnica",
                "addr:street": "Rynek",
                "addr:housenumber": "39-40",
                "addr:city:simc": 984657,
                "addr:street:sym_ul": 19252,
                "phone": "+48 748519860",
                "email": "biuro@nestorgroup.pl",
                "website": "http:\/\/www.nestorgroup.pl",
                "ref:regon": "363055327",
                "operator": "\"Nestor Group\" Sp\u00f3\u0142ka Z Ograniczon\u0105 Odpowiedzialno\u015bci\u0105",
                "operator:type": "private",
                "fixme": "w zale\u017cno\u015bci od przedmiotu dzia\u0142alno\u015bci (np. amenity=training + training=*, amenity=dancing_school, amenity=language_school, amenity=music_school)"
            }
        },
        {
            "id": 132250,
            "type": "Feature",
            "geometry": {
                "type": "Point",
                "coordinates": [
                    16.4890401,
                    50.8435893
                ]
            },
            "properties": {
                "ref:rspo": 132250,
                "official_name": "Niepubliczne Przedszkole J\u0119zykowe \"Calineczka\"",
                "name": "Niepubliczne Przedszkole J\u0119zykowe \"Calineczka\"",
                "addr:postcode": "58-100",
                "addr:city": "\u015awidnica",
                "addr:street": "Siostrzana",
                "addr:housenumber": "17-19",
                "addr:city:simc": 984657,
                "addr:street:sym_ul": 19932,
                "phone": "+48 601361177",
                "email": "ania.olejnik@op.pl",
                "website": "https:\/\/calineczka.org",
                "ref:regon": "365534440",
                "ref:vatin": "PL8862746581",
                "operator": "Anna Olejnik",
                "operator:type": "private",
                "amenity": "kindergarten"
            }
        },
        {
            "id": 90486,
            "type": "Feature",
            "geometry": {
                "type": "Point",
                "coordinates": [
                    16.47109,
                    50.84398
                ]
            },
            "properties": {
                "ref:rspo": 90486,
                "official_name": "Przedszkole Miejskie nr 15 w \u015awidnicy",
                "name": "Przedszkole Miejskie nr 15 w \u015awidnicy",
                "addr:postcode": "58-105",
                "addr:city": "\u015awidnica",
                "addr:street": "Ofiar O\u015bwi\u0119cimskich",
                "addr:housenumber": "45A",
                "addr:city:simc": 984657,
                "addr:street:sym_ul": 14797,
                "phone": "+48 748524353",
                "email": "przedszkole@pm15.swidnica.pl",
                "website": "http:\/\/www.przedszkole15.swidnica.pl",
                "ref:regon": "021396119",
                "ref:vatin": "PL8842726434",
                "operator": "Gmina Miasto \u015awidnica",
                "operator:type": "government",
                "amenity": "kindergarten"
            }
        },
        {
            "id": 86800,
            "type": "Feature",
            "geometry": {
                "type": "Point",
                "coordinates": [
                    16.49724,
                    50.8441
                ]
            },
            "properties": {
                "isced:level": "1;2",
                "ref:rspo": 86800,
                "official_name": "Szko\u0142a Podstawowa nr 6 im. Tysi\u0105clecia Pa\u0144stwa Polskiego w \u015awidnicy",
                "name": "Szko\u0142a Podstawowa nr 6",
                "addr:postcode": "58-100",
                "addr:city": "\u015awidnica",
                "addr:street": "Wodna",
                "addr:housenumber": "5-7",
                "addr:city:simc": 984657,
                "addr:street:sym_ul": 24550,
                "phone": "+48 748520585",
                "email": "sekretariat-wodna@sp6.swidnica.pl",
                "website": "http:\/\/sp6swidnica.edupage.org",
                "ref:regon": "000690720",
                "ref:vatin": "PL8841060967",
                "operator": "Gmina Miasto \u015awidnica",
                "operator:type": "government",
                "amenity": "school"
            }
        },
        {
            "id": 88026,
            "type": "Feature",
            "geometry": {
                "type": "Point",
                "coordinates": [
                    16.47187,
                    50.84417
                ]
            },
            "properties": {
                "ref:rspo": 88026,
                "official_name": "Przedszkole Niepubliczne \"Promyk\" w \u015awidnicy",
                "name": "Przedszkole Niepubliczne \"Promyk\" w \u015awidnicy",
                "addr:postcode": "58-105",
                "addr:city": "\u015awidnica",
                "addr:street": "Ofiar O\u015bwi\u0119cimskich",
                "addr:housenumber": "43",
                "addr:city:simc": 984657,
                "addr:street:sym_ul": 14797,
                "phone": "+48 748522121",
                "email": "przedszkolepromyk@op.pl",
                "website": "https:\/\/promyk.swidnica.pl",
                "ref:regon": "022013920",
                "ref:vatin": "PL8841546279",
                "operator": "Anna Kry\u015bpiak",
                "operator:type": "private",
                "amenity": "kindergarten"
            }
        },
        {
            "id": 90350,
            "type": "Feature",
            "geometry": {
                "type": "Point",
                "coordinates": [
                    16.48451,
                    50.84452
                ]
            },
            "properties": {
                "ref:rspo": 90350,
                "official_name": "Przedszkole Miejskie nr 6 w \u015awidnicy",
                "name": "Przedszkole Miejskie nr 6 w \u015awidnicy",
                "addr:postcode": "58-100",
                "addr:city": "\u015awidnica",
                "addr:street": "Komunard\u00f3w",
                "addr:housenumber": "2",
                "addr:city:simc": 984657,
                "addr:street:sym_ul": 9099,
                "phone": "+48 748522976",
                "email": "przedszkole@pm6.swidnica.pl",
                "website": "http:\/\/www.pm6swidnica.szkolnastrona.pl",
                "ref:regon": "021393368",
                "ref:vatin": "PL8842726227",
                "operator": "Gmina Miasto \u015awidnica",
                "operator:type": "government",
                "amenity": "kindergarten"
            }
        },
        {
            "id": 89891,
            "type": "Feature",
            "geometry": {
                "type": "Point",
                "coordinates": [
                    16.48886,
                    50.8446799
                ]
            },
            "properties": {
                "ref:rspo": 89891,
                "official_name": "Przedszkole Miejskie nr 1 w \u015awidnicy",
                "name": "Przedszkole Miejskie nr 1 w \u015awidnicy",
                "addr:postcode": "58-100",
                "addr:city": "\u015awidnica",
                "addr:street": "Plac \u015awi\u0119tej Ma\u0142gorzaty",
                "addr:housenumber": "15",
                "addr:city:simc": 984657,
                "addr:street:sym_ul": 12158,
                "phone": "+48 748521619",
                "email": "przedszkole@pm1.swidnica.pl",
                "website": "http:\/\/www.pm1swidnica.szkolnastrona.pl",
                "ref:regon": "021401180",
                "ref:vatin": "PL8842726859",
                "operator": "Gmina Miasto \u015awidnica",
                "operator:type": "government",
                "amenity": "kindergarten"
            }
        },
        {
            "id": 90519,
            "type": "Feature",
            "geometry": {
                "type": "Point",
                "coordinates": [
                    16.46411,
                    50.84494
                ]
            },
            "properties": {
                "ref:rspo": 90519,
                "official_name": "Miejskie Przedszkole Integracyjne nr 16 \"S\u0142oneczko\" w \u015awidnicy",
                "name": "Miejskie Przedszkole Integracyjne nr 16 \"S\u0142oneczko\" w \u015awidnicy",
                "addr:postcode": "58-105",
                "addr:city": "\u015awidnica",
                "addr:street": "Karola Marcinkowskiego",
                "addr:housenumber": "10",
                "addr:city:simc": 984657,
                "addr:street:sym_ul": 12299,
                "phone": "+48 748526070",
                "email": "przedszkole@pm16.swidnica.pl",
                "website": "http:\/\/www.przedszkole16swidnica.edupage.pl",
                "ref:regon": "021391062",
                "ref:vatin": "PL8842725860",
                "operator": "Gmina Miasto \u015awidnica",
                "operator:type": "government",
                "amenity": "kindergarten"
            }
        },
        {
            "id": 21565,
            "type": "Feature",
            "geometry": {
                "type": "Point",
                "coordinates": [
                    16.47999,
                    50.8455299
                ]
            },
            "properties": {
                "isced:level": "4",
                "ref:rspo": 21565,
                "official_name": "Policealna Szko\u0142a Teb Edukacja w \u015awidnicy",
                "name": "Policealna Szko\u0142a Teb Edukacja w \u015awidnicy",
                "addr:postcode": "58-100",
                "addr:city": "\u015awidnica",
                "addr:street": "Ofiar O\u015bwi\u0119cimskich",
                "addr:housenumber": "1",
                "addr:city:simc": 984657,
                "addr:street:sym_ul": 14797,
                "phone": "+48 748536782",
                "email": "swidnica@teb-edukacja.pl",
                "ref:regon": "021977974",
                "operator": "Teb Edukacja Sp\u00f3\u0142ka Z Ograniczon\u0105 Odpowiedzialno\u015bci\u0105",
                "operator:type": "private",
                "amenity": "college"
            }
        },
        {
            "id": 131732,
            "type": "Feature",
            "geometry": {
                "type": "Point",
                "coordinates": [
                    16.47999,
                    50.8454999
                ]
            },
            "properties": {
                "ref:rspo": 131732,
                "official_name": "Niepubliczna Poradnia Psychologiczno-Pedagogiczna Iq Dorota Szynal-Kierepka w \u015awidnicy",
                "name": "Niepubliczna Poradnia Psychologiczno-Pedagogiczna Iq Dorota Szynal-Kierepka w \u015awidnicy",
                "addr:postcode": "58-100",
                "addr:city": "\u015awidnica",
                "addr:street": "Ofiar O\u015bwi\u0119cimskich",
                "addr:housenumber": "1",
                "addr:city:simc": 984657,
                "addr:street:sym_ul": 14797,
                "phone": "+48 535441522",
                "email": "dorotaszynal@wp.pl",
                "ref:regon": "365338265",
                "operator": "Dorota Szynal-Kierepka",
                "operator:type": "private",
                "healthcare": "counselling",
                "counselling_type": "education",
                "fixme": "w zale\u017cno\u015bci od przedmiotu dzia\u0142alno\u015bci (np. healthcare=counselling + counselling_type=education albo healthcare=psychotherapist)"
            }
        },
        {
            "id": 277908,
            "type": "Feature",
            "geometry": {
                "type": "Point",
                "coordinates": [
                    16.47999,
                    50.845469900000005
                ]
            },
            "properties": {
                "ref:rspo": 277908,
                "official_name": "Terapeutyczny Punkt Przedszkolny Dorotka",
                "name": "Terapeutyczny Punkt Przedszkolny Dorotka",
                "addr:postcode": "58-100",
                "addr:city": "\u015awidnica",
                "addr:street": "Ofiar O\u015bwi\u0119cimskich",
                "addr:housenumber": "1",
                "addr:city:simc": 984657,
                "addr:street:sym_ul": 14797,
                "phone": "+48 535441501",
                "email": "dorotaszynal@wp.pl",
                "website": "http:\/\/www.przedszkole-terapeutyczne-dorotka.pl",
                "ref:regon": "389676641",
                "ref:vatin": "PL8862563691",
                "operator": "Dorota Szynal-Kierepka",
                "operator:type": "private",
                "amenity": "kindergarten"
            }
        },
        {
            "id": 86341,
            "type": "Feature",
            "geometry": {
                "type": "Point",
                "coordinates": [
                    16.4669,
                    50.84564
                ]
            },
            "properties": {
                "isced:level": "1;2",
                "ref:rspo": 86341,
                "official_name": "Szko\u0142a Podstawowa nr 4 im. Henryka Sienkiewicza w \u015awidnicy",
                "name": "Szko\u0142a Podstawowa nr 4",
                "addr:postcode": "58-105",
                "addr:city": "\u015awidnica",
                "addr:street": "Karola Marcinkowskiego",
                "addr:housenumber": "4-6",
                "addr:city:simc": 984657,
                "addr:street:sym_ul": 12299,
                "phone": "+48 748522366",
                "email": "sekretariat@sp4swidnica.pl",
                "website": "https:\/\/sp4swidnica.edupage.org",
                "ref:regon": "001251023",
                "ref:vatin": "PL8841060714",
                "operator": "Gmina Miasto \u015awidnica",
                "operator:type": "government",
                "amenity": "school"
            }
        },
        {
            "id": 18963,
            "type": "Feature",
            "geometry": {
                "type": "Point",
                "coordinates": [
                    16.47895,
                    50.8457099
                ]
            },
            "properties": {
                "ref:rspo": 18963,
                "official_name": "O\u015brodek Szkoleniowy Sudeckiego Centrum Biznesu",
                "name": "O\u015brodek Szkoleniowy Sudeckiego Centrum Biznesu",
                "addr:postcode": "58-100",
                "addr:city": "\u015awidnica",
                "addr:street": "Ofiar O\u015bwi\u0119cimskich",
                "addr:housenumber": "6-8",
                "addr:city:simc": 984657,
                "addr:street:sym_ul": 14797,
                "phone": "+48 746407307",
                "email": "biuro@scb.pl",
                "ref:regon": "021972630",
                "ref:vatin": "PL8841460282",
                "operator": "Edyta Matuszek",
                "operator:type": "private",
                "fixme": "w zale\u017cno\u015bci od przedmiotu dzia\u0142alno\u015bci (np. amenity=training + training=*, amenity=dancing_school, amenity=language_school, amenity=music_school)"
            }
        },
        {
            "id": 91291,
            "type": "Feature",
            "geometry": {
                "type": "Point",
                "coordinates": [
                    16.4852,
                    50.8457999
                ]
            },
            "properties": {
                "ref:rspo": 91291,
                "official_name": "Niepubliczne Przedszkole J\u0119zykowe Abracadabra",
                "name": "Niepubliczne Przedszkole J\u0119zykowe Abracadabra",
                "addr:postcode": "58-100",
                "addr:city": "\u015awidnica",
                "addr:street": "Jagiello\u0144ska",
                "addr:housenumber": "5",
                "addr:door": "23",
                "addr:city:simc": 984657,
                "addr:street:sym_ul": 7029,
                "phone": "+48 746683113",
                "email": "swidnica.przedszkole@gmail.com",
                "website": "http:\/\/www.przedszkole-swidnica.pl",
                "ref:regon": "022019206",
                "ref:vatin": "PL8842660617",
                "operator": "Ewelina Gr\u0105dziel",
                "operator:type": "private",
                "amenity": "kindergarten"
            }
        },
        {
            "id": 7994,
            "type": "Feature",
            "geometry": {
                "type": "Point",
                "coordinates": [
                    16.4884441,
                    50.845836
                ]
            },
            "properties": {
                "ref:rspo": 7994,
                "official_name": "Zesp\u00f3\u0142 Szk\u00f3\u0142 Ekonomicznych im. Wincentego Stysia w \u015awidnicy",
                "name": "Zesp\u00f3\u0142 Szk\u00f3\u0142 Ekonomicznych",
                "addr:postcode": "58-100",
                "addr:city": "\u015awidnica",
                "addr:street": "Ksi\u0119\u017cnej Agnieszki",
                "addr:housenumber": "2",
                "addr:city:simc": 984657,
                "addr:street:sym_ul": 144,
                "phone": "+48 748522641",
                "email": "ekonomik@adner.net",
                "website": "http:\/\/www.ekonomik.com.pl",
                "ref:regon": "000333345",
                "ref:vatin": "PL8841401954",
                "operator": "Powiat \u015awidnicki",
                "operator:type": "government",
                "landuse": "education",
                "fixme": "amenity=school, amenity=college albo landuse=education w zale\u017cno\u015bci od tego, jakie plac\u00f3wki wchodz\u0105 w sk\u0142ad zespo\u0142u. Sprawd\u017a, kiedy stosowa\u0107 amenity=* a kiedy landuse=education.",
                "note": "Children RSPO: 13075;13093;13104;13132"
            }
        },
        {
            "id": 13075,
            "type": "Feature",
            "geometry": {
                "type": "Point",
                "coordinates": [
                    16.4884441,
                    50.845805999999996
                ]
            },
            "properties": {
                "isced:level": "3",
                "ref:rspo": 13075,
                "official_name": "V Liceum Og\u00f3lnokszta\u0142c\u0105ce z Oddzia\u0142ami Sportowymi w \u015awidnicy",
                "name": "V Liceum Og\u00f3lnokszta\u0142c\u0105ce z Oddzia\u0142ami Sportowymi w \u015awidnicy",
                "addr:postcode": "58-100",
                "addr:city": "\u015awidnica",
                "addr:street": "Ksi\u0119\u017cnej Agnieszki",
                "addr:housenumber": "2",
                "addr:city:simc": 984657,
                "addr:street:sym_ul": 144,
                "phone": "+48 748522641",
                "email": "ekonomik@adner.net",
                "website": "http:\/\/www.ekonomik.com.pl",
                "ref:regon": "021309988",
                "operator": "Powiat \u015awidnicki",
                "operator:type": "government",
                "amenity": "school",
                "note": "Parent RSPO: 7994"
            }
        },
        {
            "id": 13093,
            "type": "Feature",
            "geometry": {
                "type": "Point",
                "coordinates": [
                    16.4884441,
                    50.845776
                ]
            },
            "properties": {
                "isced:level": "4",
                "ref:rspo": 13093,
                "official_name": "Szko\u0142a Policealna nr 5 w \u015awidnicy",
                "name": "Szko\u0142a Policealna nr 5 w \u015awidnicy",
                "addr:postcode": "58-100",
                "addr:city": "\u015awidnica",
                "addr:street": "Ksi\u0119\u017cnej Agnieszki",
                "addr:housenumber": "2",
                "addr:city:simc": 984657,
                "addr:street:sym_ul": 144,
                "phone": "+48 748522641",
                "email": "ekonomik@adner.net",
                "website": "http:\/\/www.ekonomik.com.pl",
                "ref:regon": "891419750",
                "operator": "Powiat \u015awidnicki",
                "operator:type": "government",
                "amenity": "college",
                "note": "Parent RSPO: 7994"
            }
        },
        {
            "id": 13104,
            "type": "Feature",
            "geometry": {
                "type": "Point",
                "coordinates": [
                    16.4884441,
                    50.845746
                ]
            },
            "properties": {
                "isced:level": "3",
                "ref:rspo": 13104,
                "official_name": "Technikum nr 5 w \u015awidnicy",
                "name": "Technikum nr 5 w \u015awidnicy",
                "addr:postcode": "58-100",
                "addr:city": "\u015awidnica",
                "addr:street": "Ksi\u0119\u017cnej Agnieszki",
                "addr:housenumber": "2",
                "addr:city:simc": 984657,
                "addr:street:sym_ul": 144,
                "phone": "+48 748522641",
                "email": "ekonomik@adner.net",
                "website": "http:\/\/www.ekonomik.com.pl",
                "ref:regon": "020792770",
                "operator": "Powiat \u015awidnicki",
                "operator:type": "government",
                "amenity": "school",
                "note": "Parent RSPO: 7994"
            }
        },
        {
            "id": 13132,
            "type": "Feature",
            "geometry": {
                "type": "Point",
                "coordinates": [
                    16.4884441,
                    50.845715999999996
                ]
            },
            "properties": {
                "isced:level": "3",
                "ref:rspo": 13132,
                "official_name": "Bran\u017cowa Szko\u0142a I Stopnia nr 3 w \u015awidnicy",
                "name": "Bran\u017cowa Szko\u0142a I Stopnia nr 3 w \u015awidnicy",
                "addr:postcode": "58-100",
                "addr:city": "\u015awidnica",
                "addr:street": "Ksi\u0119\u017cnej Agnieszki",
                "addr:housenumber": "2",
                "addr:city:simc": 984657,
                "addr:street:sym_ul": 144,
                "phone": "+48 748522641",
                "email": "ekonomik@adner.net",
                "website": "http:\/\/www.ekonomik.com.pl",
                "ref:regon": "020792882",
                "operator": "Powiat \u015awidnicki",
                "operator:type": "government",
                "amenity": "school",
                "note": "Parent RSPO: 7994"
            }
        },
        {
            "id": 262303,
            "type": "Feature",
            "geometry": {
                "type": "Point",
                "coordinates": [
                    16.47397,
                    50.84601
                ]
            },
            "properties": {
                "isced:level": "1;2",
                "ref:rspo": 262303,
                "official_name": "Szko\u0142a Podstawowa nr 2 im. Polskich Olimpijczyk\u00f3w w \u015awidnicy",
                "name": "Szko\u0142a Podstawowa nr 2",
                "addr:postcode": "58-105",
                "addr:city": "\u015awidnica",
                "addr:street": "Ofiar O\u015bwi\u0119cimskich",
                "addr:housenumber": "30",
                "addr:city:simc": 984657,
                "addr:street:sym_ul": 14797,
                "phone": "+48 746406240",
                "email": "kontakt@sp2.swidnica.pl",
                "website": "http:\/\/www.sp2.swidnica.pl",
                "ref:regon": "367993347",
                "ref:vatin": "PL8842781611",
                "operator": "Gmina Miasto \u015awidnica",
                "operator:type": "government",
                "amenity": "school"
            }
        },
        {
            "id": 272710,
            "type": "Feature",
            "geometry": {
                "type": "Point",
                "coordinates": [
                    16.47397,
                    50.84598
                ]
            },
            "properties": {
                "isced:level": "4",
                "ref:rspo": 272710,
                "official_name": "Policealna Szko\u0142a Medyczna Edukacji Innowacyjnej w \u015awidnicy",
                "name": "Policealna Szko\u0142a Medyczna Edukacji Innowacyjnej w \u015awidnicy",
                "addr:postcode": "58-105",
                "addr:city": "\u015awidnica",
                "addr:street": "Ofiar O\u015bwi\u0119cimskich",
                "addr:housenumber": "30",
                "addr:city:simc": 984657,
                "addr:street:sym_ul": 14797,
                "phone": "+48 422995518",
                "email": "kwroblewska@ipt.pl",
                "website": "http:\/\/www.sei.edu.pl",
                "ref:regon": "384288130",
                "operator": "Instytut Post\u0119powania Tw\u00f3rczego Sp\u00f3\u0142ka Z Ograniczon\u0105 Odpowiedzialno\u015bci\u0105",
                "operator:type": "private",
                "amenity": "college"
            }
        },
        {
            "id": 12186,
            "type": "Feature",
            "geometry": {
                "type": "Point",
                "coordinates": [
                    16.49299,
                    50.84605
                ]
            },
            "properties": {
                "isced:level": "3",
                "ref:rspo": 12186,
                "official_name": "Iii Liceum Og\u00f3lnokszta\u0142c\u0105ce im. Marii Sk\u0142odowskiej-Curie w \u015awidnicy",
                "name": "Iii Liceum Og\u00f3lnokszta\u0142c\u0105ce",
                "addr:postcode": "58-100",
                "addr:city": "\u015awidnica",
                "addr:street": "Ko\u015bcielna",
                "addr:housenumber": "32",
                "addr:city:simc": 984657,
                "addr:street:sym_ul": 9546,
                "phone": "+48 748520111",
                "email": "sekretariat@lo3.net.pl",
                "website": "http:\/\/www.lo3.net.pl",
                "ref:regon": "891061885",
                "ref:vatin": "PL8841055630",
                "operator": "Powiat \u015awidnicki",
                "operator:type": "government",
                "amenity": "school"
            }
        },
        {
            "id": 29393,
            "type": "Feature",
            "geometry": {
                "type": "Point",
                "coordinates": [
                    16.49299,
                    50.846019999999996
                ]
            },
            "properties": {
                "ref:rspo": 29393,
                "official_name": "Spo\u0142eczna Szko\u0142a Muzyczna II St. w \u015awidnicy",
                "name": "Spo\u0142eczna Szko\u0142a Muzyczna II St. w \u015awidnicy",
                "addr:postcode": "58-100",
                "addr:city": "\u015awidnica",
                "addr:street": "Ko\u015bcielna",
                "addr:housenumber": "32",
                "addr:city:simc": 984657,
                "addr:street:sym_ul": 9546,
                "phone": "+48 746606226",
                "email": "sekretariat@muzyczna.swidnica.pl",
                "website": "http:\/\/muzyczna.swidnica.pl",
                "ref:regon": "021989227",
                "operator": "\u015awidnickie Towarzystwo Muzyczne",
                "operator:type": "ngo",
                "amenity": "music_school"
            }
        },
        {
            "id": 277204,
            "type": "Feature",
            "geometry": {
                "type": "Point",
                "coordinates": [
                    16.47644,
                    50.84611
                ]
            },
            "properties": {
                "ref:rspo": 277204,
                "official_name": "Terapeutyczny Punkt Przedszkolny \"Zielony Zak\u0105tek II\"",
                "name": "Terapeutyczny Punkt Przedszkolny \"Zielony Zak\u0105tek II\"",
                "addr:postcode": "58-100",
                "addr:city": "\u015awidnica",
                "addr:street": "Lwa To\u0142stoja",
                "addr:housenumber": "9",
                "addr:city:simc": 984657,
                "addr:street:sym_ul": 22837,
                "phone": "+48 601361177",
                "email": "bajkowy.przedszkola@gmail.com",
                "website": "http:\/\/www.bajkowe-przedszkola.pl",
                "ref:regon": "388348834",
                "ref:vatin": "PL8862746581",
                "operator": "Anna Olejnik",
                "operator:type": "private",
                "amenity": "kindergarten"
            }
        },
        {
            "id": 274090,
            "type": "Feature",
            "geometry": {
                "type": "Point",
                "coordinates": [
                    16.4874,
                    50.84616
                ]
            },
            "properties": {
                "ref:rspo": 274090,
                "official_name": "Firma Szkoleniowo-Doradcza Anna Szywa\u0142a Niepubliczna Plac\u00f3wka Doskonalenia Nauczycieli",
                "name": "Firma Szkoleniowo-Doradcza Anna Szywa\u0142a Niepubliczna Plac\u00f3wka Doskonalenia Nauczycieli",
                "addr:postcode": "58-100",
                "addr:city": "\u015awidnica",
                "addr:street": "Waleriana \u0141ukasi\u0144skiego",
                "addr:housenumber": "2",
                "addr:door": "3",
                "addr:city:simc": 984657,
                "addr:street:sym_ul": 11755,
                "phone": "+48 748522473",
                "email": "biuro@annaszywala.pl",
                "website": "http:\/\/www.annaszywala.pl",
                "ref:regon": "385172990",
                "operator": "Anna Szywa\u0142a Wsp\u00f3lnik Sp\u00f3\u0142ki Firma Szkoleniowo-Doradcza Anna Szywa\u0142a,Agata Szywa\u0142a S.c.",
                "operator:type": "private",
                "amenity": "training"
            }
        },
        {
            "id": 126899,
            "type": "Feature",
            "geometry": {
                "type": "Point",
                "coordinates": [
                    16.47179,
                    50.84643
                ]
            },
            "properties": {
                "ref:rspo": 126899,
                "official_name": "Duet Studio Szkole\u0144",
                "name": "Duet Studio Szkole\u0144",
                "addr:postcode": "58-105",
                "addr:city": "\u015awidnica",
                "addr:street": "Ludwika Zamenhofa",
                "addr:housenumber": "42",
                "addr:city:simc": 984657,
                "addr:street:sym_ul": 25536,
                "email": "duet.szkolenia@gmail.com",
                "website": "http:\/\/www.jaskiewiczacademy.pl",
                "ref:regon": "360886022",
                "operator": "Anna Ja\u015bkiewicz-Schab",
                "operator:type": "private",
                "fixme": "w zale\u017cno\u015bci od przedmiotu dzia\u0142alno\u015bci (np. amenity=training + training=*, amenity=dancing_school, amenity=language_school, amenity=music_school)"
            }
        },
        {
            "id": 90439,
            "type": "Feature",
            "geometry": {
                "type": "Point",
                "coordinates": [
                    16.47007,
                    50.84672
                ]
            },
            "properties": {
                "ref:rspo": 90439,
                "official_name": "Przedszkole Miejskie nr 14 w \u015awidnicy",
                "name": "Przedszkole Miejskie nr 14 w \u015awidnicy",
                "addr:postcode": "58-100",
                "addr:city": "\u015awidnica",
                "addr:street": "Mieczys\u0142awa Kozara S\u0142ob\u00f3dzkiego",
                "addr:housenumber": "10",
                "addr:city:simc": 984657,
                "addr:street:sym_ul": 35087,
                "phone": "+48 748521742",
                "email": "przedszkole@pm14.swidnica.pl",
                "website": "http:\/\/pm14swidnica.szkolnastrona.pl",
                "ref:regon": "021398242",
                "ref:vatin": "PL8842726428",
                "operator": "Gmina Miasto \u015awidnica",
                "operator:type": "government",
                "amenity": "kindergarten"
            }
        },
        {
            "id": 87402,
            "type": "Feature",
            "geometry": {
                "type": "Point",
                "coordinates": [
                    16.49453,
                    50.84761
                ]
            },
            "properties": {
                "isced:level": "1;2",
                "ref:rspo": 87402,
                "official_name": "Szko\u0142a Podstawowa nr 105 w \u015awidnicy",
                "name": "Szko\u0142a Podstawowa nr 105 w \u015awidnicy",
                "addr:postcode": "58-100",
                "addr:city": "\u015awidnica",
                "addr:street": "Saper\u00f3w",
                "addr:housenumber": "27A",
                "addr:city:simc": 984657,
                "addr:street:sym_ul": 19506,
                "phone": "+48 748531213",
                "email": "sekretariat@sp105.pl",
                "website": "https:\/\/sp105.pl",
                "ref:regon": "020800558",
                "ref:vatin": "PL8842669794",
                "operator": "Gmina Miasto \u015awidnica",
                "operator:type": "government",
                "amenity": "school"
            }
        },
        {
            "id": 83568,
            "type": "Feature",
            "geometry": {
                "type": "Point",
                "coordinates": [
                    16.48369,
                    50.84784
                ]
            },
            "properties": {
                "isced:level": "1;2",
                "ref:rspo": 83568,
                "official_name": "Niepubliczna Szko\u0142a Podstawowa \u015aso \"Bli\u017cej Dziecka\"",
                "name": "Niepubliczna Szko\u0142a Podstawowa \u015aso \"Bli\u017cej Dziecka\"",
                "addr:postcode": "58-100",
                "addr:city": "\u015awidnica",
                "addr:street": "Jagiello\u0144ska",
                "addr:housenumber": "30",
                "addr:city:simc": 984657,
                "addr:street:sym_ul": 7029,
                "phone": "+48 748522979",
                "email": "sekretariat@niepubliczna12.swidnica.pl",
                "website": "http:\/\/www.niepubliczna12.swidnica.pl",
                "ref:regon": "022012138",
                "ref:vatin": "PL8842578235",
                "operator": "\u015awidnickie Stowarzyszenie O\u015bwiatowe \"Bli\u017cej Dziecka\"",
                "operator:type": "ngo",
                "amenity": "school"
            }
        },
        {
            "id": 10453,
            "type": "Feature",
            "geometry": {
                "type": "Point",
                "coordinates": [
                    16.46959,
                    50.84794
                ]
            },
            "properties": {
                "isced:level": "4",
                "ref:rspo": 10453,
                "official_name": "Niepubliczna Szko\u0142a Policealna Teb Edukacja w \u015awidnicy",
                "name": "Niepubliczna Szko\u0142a Policealna Teb Edukacja w \u015awidnicy",
                "addr:postcode": "58-105",
                "addr:city": "\u015awidnica",
                "addr:street": "Mieczys\u0142awa Kozara S\u0142ob\u00f3dzkiego",
                "addr:housenumber": "21",
                "addr:city:simc": 984657,
                "addr:street:sym_ul": 35087,
                "phone": "+48 748536782",
                "email": "swidnica@teb-edukacja.pl",
                "website": "http:\/\/www.teb.pl",
                "ref:regon": "021955406",
                "operator": "Teb Edukacja Sp\u00f3\u0142ka Z Ograniczon\u0105 Odpowiedzialno\u015bci\u0105",
                "operator:type": "private",
                "amenity": "college"
            }
        },
        {
            "id": 17701,
            "type": "Feature",
            "geometry": {
                "type": "Point",
                "coordinates": [
                    16.46959,
                    50.84791
                ]
            },
            "properties": {
                "isced:level": "3",
                "ref:rspo": 17701,
                "official_name": "Liceum Og\u00f3lnokszta\u0142c\u0105ce Teb Edukacja dla Doros\u0142ych w \u015awidnicy",
                "name": "Liceum Og\u00f3lnokszta\u0142c\u0105ce Teb Edukacja dla Doros\u0142ych w \u015awidnicy",
                "addr:postcode": "58-105",
                "addr:city": "\u015awidnica",
                "addr:street": "Mieczys\u0142awa Kozara S\u0142ob\u00f3dzkiego",
                "addr:housenumber": "21",
                "addr:city:simc": 984657,
                "addr:street:sym_ul": 35087,
                "phone": "+48 748536782",
                "email": "swidnica@teb-edukacja.pl",
                "ref:regon": "021972020",
                "operator": "Teb Edukacja Sp\u00f3\u0142ka Z Ograniczon\u0105 Odpowiedzialno\u015bci\u0105",
                "operator:type": "private",
                "amenity": "school"
            }
        },
        {
            "id": 21834,
            "type": "Feature",
            "geometry": {
                "type": "Point",
                "coordinates": [
                    16.46959,
                    50.84788
                ]
            },
            "properties": {
                "ref:rspo": 21834,
                "official_name": "Teb Edukacja Studium Kszta\u0142cenia Praktycznego",
                "name": "Teb Edukacja Studium Kszta\u0142cenia Praktycznego",
                "addr:postcode": "58-105",
                "addr:city": "\u015awidnica",
                "addr:street": "Mieczys\u0142awa Kozara S\u0142ob\u00f3dzkiego",
                "addr:housenumber": "21",
                "addr:city:simc": 984657,
                "addr:street:sym_ul": 35087,
                "phone": "+48 748536782",
                "email": "swidnica@teb-edukacja.pl",
                "ref:regon": "021977655",
                "operator": "Teb Edukacja Sp\u00f3\u0142ka Z Ograniczon\u0105 Odpowiedzialno\u015bci\u0105",
                "operator:type": "private",
                "fixme": "w zale\u017cno\u015bci od przedmiotu dzia\u0142alno\u015bci (np. amenity=training + training=*, amenity=dancing_school, amenity=language_school, amenity=music_school)"
            }
        },
        {
            "id": 277981,
            "type": "Feature",
            "geometry": {
                "type": "Point",
                "coordinates": [
                    16.46959,
                    50.84785
                ]
            },
            "properties": {
                "isced:level": "3",
                "ref:rspo": 277981,
                "official_name": "Technikum Teb Edukacja w \u015awidnicy",
                "name": "Technikum Teb Edukacja w \u015awidnicy",
                "addr:postcode": "58-105",
                "addr:city": "\u015awidnica",
                "addr:street": "Mieczys\u0142awa Kozara S\u0142ob\u00f3dzkiego",
                "addr:housenumber": "21",
                "addr:city:simc": 984657,
                "addr:street:sym_ul": 35087,
                "phone": "+48 748536782",
                "email": "swidnica@teb-edukacja.pl",
                "ref:regon": "389729550",
                "operator": "Teb Edukacja Sp\u00f3\u0142ka Z Ograniczon\u0105 Odpowiedzialno\u015bci\u0105",
                "operator:type": "private",
                "amenity": "school"
            }
        },
        {
            "id": 277982,
            "type": "Feature",
            "geometry": {
                "type": "Point",
                "coordinates": [
                    16.46959,
                    50.84782
                ]
            },
            "properties": {
                "isced:level": "3",
                "ref:rspo": 277982,
                "official_name": "Liceum Og\u00f3lnokszta\u0142c\u0105ce Teb Edukacja w \u015awidnicy",
                "name": "Liceum Og\u00f3lnokszta\u0142c\u0105ce Teb Edukacja w \u015awidnicy",
                "addr:postcode": "58-105",
                "addr:city": "\u015awidnica",
                "addr:street": "Mieczys\u0142awa Kozara S\u0142ob\u00f3dzkiego",
                "addr:housenumber": "21",
                "addr:city:simc": 984657,
                "addr:street:sym_ul": 35087,
                "phone": "+48 748536782",
                "email": "swidnica@teb-edukacja.pl",
                "ref:regon": "389729567",
                "operator": "Teb Edukacja Sp\u00f3\u0142ka Z Ograniczon\u0105 Odpowiedzialno\u015bci\u0105",
                "operator:type": "private",
                "amenity": "school"
            }
        },
        {
            "id": 274485,
            "type": "Feature",
            "geometry": {
                "type": "Point",
                "coordinates": [
                    16.51562,
                    50.84813
                ]
            },
            "properties": {
                "ref:rspo": 274485,
                "official_name": "Centrum Kszta\u0142cenia Zawodowego Stowarzyszenia Wolna Przedsi\u0119biorczo\u015b\u0107",
                "name": "Centrum Kszta\u0142cenia Zawodowego Stowarzyszenia Wolna Przedsi\u0119biorczo\u015b\u0107",
                "addr:postcode": "58-100",
                "addr:city": "\u015awidnica",
                "addr:street": "Stalowa",
                "addr:housenumber": "2",
                "addr:city:simc": 984657,
                "addr:street:sym_ul": 20808,
                "phone": "+48 746450131",
                "email": "k.brzozowski@fea.pl",
                "website": "http:\/\/www.fea.pl",
                "ref:regon": "385835516",
                "operator": "Oddzia\u0142 Terenowy Stowarzyszenia \"Wolna Przedsi\u0119biorczo\u015b\u0107\" W \u015awidnicy",
                "operator:type": "ngo",
                "fixme": "w zale\u017cno\u015bci od przedmiotu dzia\u0142alno\u015bci (np. amenity=training + training=*, amenity=dancing_school, amenity=language_school, amenity=music_school) albo amenity=school, amenity=college, albo landuse=education w zale\u017cno\u015bci od tego, jakie plac\u00f3wki wchodz\u0105 w sk\u0142ad zespo\u0142u. Sprawd\u017a, kiedy stosowa\u0107 amenity=* a kiedy landuse=education."
            }
        },
        {
            "id": 27300,
            "type": "Feature",
            "geometry": {
                "type": "Point",
                "coordinates": [
                    16.4848399,
                    50.84836
                ]
            },
            "properties": {
                "ref:rspo": 27300,
                "official_name": "Szkolne Schronikso M\u0142odzie\u017cowe w \u015awidnicy",
                "name": "Szkolne Schronikso M\u0142odzie\u017cowe w \u015awidnicy",
                "addr:postcode": "58-100",
                "addr:city": "\u015awidnica",
                "addr:street": "Kanonierska",
                "addr:housenumber": "3",
                "addr:city:simc": 984657,
                "addr:street:sym_ul": 7954,
                "phone": "+48 748522645",
                "email": "rezerwacja@ssm.swidnica.pl",
                "website": "http:\/\/www.ssm.swidnica.pl",
                "ref:regon": "891495885",
                "operator": "Powiat \u015awidnicki",
                "operator:type": "government",
                "tourism": "hostel",
                "note": "Parent RSPO: 6024"
            }
        },
        {
            "id": 18923,
            "type": "Feature",
            "geometry": {
                "type": "Point",
                "coordinates": [
                    16.47213,
                    50.84898
                ]
            },
            "properties": {
                "ref:rspo": 18923,
                "official_name": "O\u015brodek Rehabilitacyjno-Edukacyjno-Wychowawczy \"T\u0119czowy \u015awiat\"",
                "name": "O\u015brodek Rehabilitacyjno-Edukacyjno-Wychowawczy \"T\u0119czowy \u015awiat\"",
                "addr:postcode": "58-105",
                "addr:city": "\u015awidnica",
                "addr:street": "Mieczys\u0142awa Kozara S\u0142ob\u00f3dzkiego",
                "addr:housenumber": "28",
                "addr:city:simc": 984657,
                "addr:street:sym_ul": 35087,
                "phone": "+48 748521039",
                "email": "swidnica.orew@gmail.com",
                "ref:regon": "021972623",
                "operator": "Polskie Stowarzyszenie Na Rzecz Os\u00f3b Z Niepe\u0142nosprawno\u015bci\u0105 Intelektualn\u0105 Ko\u0142o W \u015awidnicy",
                "operator:type": "ngo",
                "amenity": "school"
            }
        },
        {
            "id": 264532,
            "type": "Feature",
            "geometry": {
                "type": "Point",
                "coordinates": [
                    16.47213,
                    50.848949999999995
                ]
            },
            "properties": {
                "ref:rspo": 264532,
                "official_name": "Niepubliczne Przedszkole Specjalne \"T\u0119czowy \u015awiat\"",
                "name": "Niepubliczne Przedszkole Specjalne \"T\u0119czowy \u015awiat\"",
                "addr:postcode": "58-105",
                "addr:city": "\u015awidnica",
                "addr:street": "Mieczys\u0142awa Kozara S\u0142ob\u00f3dzkiego",
                "addr:housenumber": "28",
                "addr:city:simc": 984657,
                "addr:street:sym_ul": 35087,
                "phone": "+48 748521039",
                "email": "or.swidnica@wp.pl",
                "website": "http:\/\/www.psouu.swidnica.pl",
                "ref:regon": "368372972",
                "ref:vatin": "PL8842710137",
                "operator": "Polskie Stowarzyszenie Na Rzecz Os\u00f3b Z Niepe\u0142nosprawno\u015bci\u0105 Intelektualn\u0105 Ko\u0142o W \u015awidnicy",
                "operator:type": "ngo",
                "amenity": "kindergarten"
            }
        },
        {
            "id": 7968,
            "type": "Feature",
            "geometry": {
                "type": "Point",
                "coordinates": [
                    16.47521,
                    50.85017
                ]
            },
            "properties": {
                "ref:rspo": 7968,
                "official_name": "Centrum Kszta\u0142cenia Zawodowego w \u015awidnicy",
                "name": "Centrum Kszta\u0142cenia Zawodowego w \u015awidnicy",
                "addr:postcode": "58-105",
                "addr:city": "\u015awidnica",
                "addr:street": "Genera\u0142a W\u0142adys\u0142awa Sikorskiego",
                "addr:housenumber": "41",
                "addr:city:simc": 984657,
                "addr:street:sym_ul": 19907,
                "phone": "+48 748524076",
                "email": "sekretariat@ckz.swidnica.pl",
                "ref:regon": "021411273",
                "ref:vatin": "PL8842727729",
                "operator": "Powiat \u015awidnicki",
                "operator:type": "government",
                "fixme": "w zale\u017cno\u015bci od przedmiotu dzia\u0142alno\u015bci (np. amenity=training + training=*, amenity=dancing_school, amenity=language_school, amenity=music_school) albo amenity=school, amenity=college, albo landuse=education w zale\u017cno\u015bci od tego, jakie plac\u00f3wki wchodz\u0105 w sk\u0142ad zespo\u0142u. Sprawd\u017a, kiedy stosowa\u0107 amenity=* a kiedy landuse=education."
            }
        },
        {
            "id": 9329,
            "type": "Feature",
            "geometry": {
                "type": "Point",
                "coordinates": [
                    16.47521,
                    50.850139999999996
                ]
            },
            "properties": {
                "ref:rspo": 9329,
                "official_name": "Zesp\u00f3\u0142 Szk\u00f3\u0142 Mechanicznych im. Miko\u0142aja Kopernika w \u015awidnicy",
                "name": "Zesp\u00f3\u0142 Szk\u00f3\u0142 Mechanicznych",
                "addr:postcode": "58-100",
                "addr:city": "\u015awidnica",
                "addr:street": "Genera\u0142a W\u0142adys\u0142awa Sikorskiego",
                "addr:housenumber": "41",
                "addr:city:simc": 984657,
                "addr:street:sym_ul": 19907,
                "phone": "+48 748524094",
                "email": "zsm.swidnica@wp.pl",
                "website": "http:\/\/www.zsm.swidnica.pl",
                "ref:regon": "000190555",
                "ref:vatin": "PL8841753587",
                "operator": "Powiat \u015awidnicki",
                "operator:type": "government",
                "landuse": "education",
                "fixme": "amenity=school, amenity=college albo landuse=education w zale\u017cno\u015bci od tego, jakie plac\u00f3wki wchodz\u0105 w sk\u0142ad zespo\u0142u. Sprawd\u017a, kiedy stosowa\u0107 amenity=* a kiedy landuse=education.",
                "note": "Children RSPO: 12725;12746;12755"
            }
        },
        {
            "id": 12725,
            "type": "Feature",
            "geometry": {
                "type": "Point",
                "coordinates": [
                    16.47521,
                    50.85011
                ]
            },
            "properties": {
                "isced:level": "4",
                "ref:rspo": 12725,
                "official_name": "Szko\u0142a Policealna nr 6 w \u015awidnicy",
                "name": "Szko\u0142a Policealna nr 6 w \u015awidnicy",
                "addr:postcode": "58-100",
                "addr:city": "\u015awidnica",
                "addr:street": "Genera\u0142a W\u0142adys\u0142awa Sikorskiego",
                "addr:housenumber": "41",
                "addr:city:simc": 984657,
                "addr:street:sym_ul": 19907,
                "phone": "+48 748522152",
                "ref:regon": "891420150",
                "operator": "Powiat \u015awidnicki",
                "operator:type": "government",
                "amenity": "college",
                "note": "Parent RSPO: 9329"
            }
        },
        {
            "id": 12746,
            "type": "Feature",
            "geometry": {
                "type": "Point",
                "coordinates": [
                    16.47521,
                    50.85008
                ]
            },
            "properties": {
                "isced:level": "3",
                "ref:rspo": 12746,
                "official_name": "Technikum nr 6 w \u015awidnicy",
                "name": "Technikum nr 6 w \u015awidnicy",
                "addr:postcode": "58-100",
                "addr:city": "\u015awidnica",
                "addr:street": "Genera\u0142a W\u0142adys\u0142awa Sikorskiego",
                "addr:housenumber": "41",
                "addr:city:simc": 984657,
                "addr:street:sym_ul": 19907,
                "phone": "+48 748524094",
                "email": "zsm.swidnica@wp.pl",
                "website": "http:\/\/zsm.swidnica.pl",
                "ref:regon": "891420090",
                "operator": "Powiat \u015awidnicki",
                "operator:type": "government",
                "amenity": "school",
                "note": "Parent RSPO: 9329"
            }
        },
        {
            "id": 12755,
            "type": "Feature",
            "geometry": {
                "type": "Point",
                "coordinates": [
                    16.47521,
                    50.850049999999996
                ]
            },
            "properties": {
                "isced:level": "3",
                "ref:rspo": 12755,
                "official_name": "Bran\u017cowa Szko\u0142a I Stopnia nr 4 w \u015awidnicy",
                "name": "Bran\u017cowa Szko\u0142a I Stopnia nr 4 w \u015awidnicy",
                "addr:postcode": "58-100",
                "addr:city": "\u015awidnica",
                "addr:street": "Genera\u0142a W\u0142adys\u0142awa Sikorskiego",
                "addr:housenumber": "41",
                "addr:city:simc": 984657,
                "addr:street:sym_ul": 19907,
                "phone": "+48 748524094",
                "ref:regon": "891420108",
                "operator": "Powiat \u015awidnicki",
                "operator:type": "government",
                "amenity": "school",
                "note": "Parent RSPO: 9329"
            }
        },
        {
            "id": 20477,
            "type": "Feature",
            "geometry": {
                "type": "Point",
                "coordinates": [
                    16.47889,
                    50.8504
                ]
            },
            "properties": {
                "ref:rspo": 20477,
                "official_name": "Dolno\u015bL\u0105ski Zak\u0142ad Doskonalenia Zawodowego Oddzia\u0142 I we Wroc\u0142awiu O\u015brodek Kszta\u0142cenia Zawodowego w \u015awidnicy",
                "name": "Dolno\u015bL\u0105ski Zak\u0142ad Doskonalenia Zawodowego Oddzia\u0142 I we Wroc\u0142awiu O\u015brodek Kszta\u0142cenia Zawodowego w \u015awidnicy",
                "addr:postcode": "58-100",
                "addr:city": "\u015awidnica",
                "addr:street": "Letnia",
                "addr:housenumber": "13",
                "addr:city:simc": 984657,
                "addr:street:sym_ul": 10966,
                "phone": "+48 748524210",
                "email": "okz.swidnica@dzdz.wroc.pl",
                "ref:regon": "021975975",
                "operator": "Dolno\u015bl\u0105ski Zak\u0142ad Doskonalenia Zawodowego Oddzia\u0142 I We Wroc\u0142awiu",
                "operator:type": "ngo",
                "fixme": "w zale\u017cno\u015bci od przedmiotu dzia\u0142alno\u015bci (np. amenity=training + training=*, amenity=dancing_school, amenity=language_school, amenity=music_school)"
            }
        },
        {
            "id": 4411,
            "type": "Feature",
            "geometry": {
                "type": "Point",
                "coordinates": [
                    16.49754,
                    50.8510599
                ]
            },
            "properties": {
                "ref:rspo": 4411,
                "official_name": "Zesp\u00f3\u0142 Szk\u00f3\u0142 Specjalnych w \u015awidnicy",
                "name": "Zesp\u00f3\u0142 Szk\u00f3\u0142 Specjalnych w \u015awidnicy",
                "addr:postcode": "58-100",
                "addr:city": "\u015awidnica",
                "addr:street": "Rotmistrza Witolda Pileckiego",
                "addr:housenumber": "3",
                "addr:city:simc": 984657,
                "addr:street:sym_ul": 31083,
                "phone": "+48 748521485",
                "email": "szkola@niepelnosprawni.swidnica.pl",
                "ref:regon": "021673636",
                "ref:vatin": "PL8842742396",
                "operator": "Powiat \u015awidnicki",
                "operator:type": "government",
                "landuse": "education",
                "fixme": "amenity=school, amenity=college albo landuse=education w zale\u017cno\u015bci od tego, jakie plac\u00f3wki wchodz\u0105 w sk\u0142ad zespo\u0142u. Sprawd\u017a, kiedy stosowa\u0107 amenity=* a kiedy landuse=education.",
                "note": "Children RSPO: 9510;12245;13140;13149"
            }
        },
        {
            "id": 9510,
            "type": "Feature",
            "geometry": {
                "type": "Point",
                "coordinates": [
                    16.49754,
                    50.8510299
                ]
            },
            "properties": {
                "ref:rspo": 9510,
                "official_name": "Przedszkole Specjalne nr 7 w \u015awidnicy",
                "name": "Przedszkole Specjalne nr 7 w \u015awidnicy",
                "addr:postcode": "58-100",
                "addr:city": "\u015awidnica",
                "addr:street": "Rotmistrza Witolda Pileckiego",
                "addr:housenumber": "3",
                "addr:city:simc": 984657,
                "addr:street:sym_ul": 31083,
                "phone": "+48 748521485",
                "email": "szkola@niepelnosprawni.swidnica.pl",
                "website": "http:\/\/www.niepelnosprawni.swidnica.pl",
                "ref:regon": "021955079",
                "operator": "Powiat \u015awidnicki",
                "operator:type": "government",
                "amenity": "kindergarten",
                "note": "Parent RSPO: 4411"
            }
        },
        {
            "id": 12245,
            "type": "Feature",
            "geometry": {
                "type": "Point",
                "coordinates": [
                    16.49754,
                    50.850999900000005
                ]
            },
            "properties": {
                "ref:rspo": 12245,
                "official_name": "Szko\u0142a Specjalna Przysposabiaj\u0105ca do Pracy w \u015awidnicy",
                "name": "Szko\u0142a Specjalna Przysposabiaj\u0105ca do Pracy w \u015awidnicy",
                "addr:postcode": "58-100",
                "addr:city": "\u015awidnica",
                "addr:street": "Rotmistrza Witolda Pileckiego",
                "addr:housenumber": "3",
                "addr:city:simc": 984657,
                "addr:street:sym_ul": 31083,
                "phone": "+48 748521485",
                "email": "szkola@niepelnosprawni.swidnica.pl",
                "ref:regon": "891539051",
                "operator": "Powiat \u015awidnicki",
                "operator:type": "government",
                "amenity": "school",
                "note": "Parent RSPO: 4411"
            }
        },
        {
            "id": 13140,
            "type": "Feature",
            "geometry": {
                "type": "Point",
                "coordinates": [
                    16.49754,
                    50.8509699
                ]
            },
            "properties": {
                "isced:level": "1;2",
                "ref:rspo": 13140,
                "official_name": "Szko\u0142a Podstawowa Specjalna nr 7 im. Marii Konopnickiej w \u015awidnicy",
                "name": "Szko\u0142a Podstawowa Specjalna nr 7",
                "addr:postcode": "58-100",
                "addr:city": "\u015awidnica",
                "addr:street": "Rotmistrza Witolda Pileckiego",
                "addr:housenumber": "3",
                "addr:city:simc": 984657,
                "addr:street:sym_ul": 31083,
                "phone": "+48 748521485",
                "email": "szkola@niepelnosprawni.swidnica.pl",
                "ref:regon": "000690832",
                "operator": "Powiat \u015awidnicki",
                "operator:type": "government",
                "amenity": "school",
                "note": "Parent RSPO: 4411"
            }
        },
        {
            "id": 13149,
            "type": "Feature",
            "geometry": {
                "type": "Point",
                "coordinates": [
                    16.49754,
                    50.8509399
                ]
            },
            "properties": {
                "isced:level": "3",
                "ref:rspo": 13149,
                "official_name": "Bran\u017cowa Szko\u0142a I Stopnia Specjalna nr 7 w \u015awidnicy",
                "name": "Bran\u017cowa Szko\u0142a I Stopnia Specjalna nr 7 w \u015awidnicy",
                "addr:postcode": "58-100",
                "addr:city": "\u015awidnica",
                "addr:street": "Rotmistrza Witolda Pileckiego",
                "addr:housenumber": "3",
                "addr:city:simc": 984657,
                "addr:street:sym_ul": 31083,
                "phone": "+48 748521485",
                "email": "szkola@niepelnosprawni.swidnica.pl",
                "ref:regon": "000743675",
                "operator": "Powiat \u015awidnicki",
                "operator:type": "government",
                "amenity": "school",
                "note": "Parent RSPO: 4411"
            }
        },
        {
            "id": 127368,
            "type": "Feature",
            "geometry": {
                "type": "Point",
                "coordinates": [
                    16.49446,
                    50.8568799
                ]
            },
            "properties": {
                "ref:rspo": 127368,
                "official_name": "Ochrona I Us\u0142ugi Szkoleniowe \"Radar\" Jan Cie\u015bla",
                "name": "Ochrona I Us\u0142ugi Szkoleniowe \"Radar\" Jan Cie\u015bla",
                "addr:postcode": "58-100",
                "addr:city": "\u015awidnica",
                "addr:street": "Bogusza St\u0119czy\u0144skiego",
                "addr:housenumber": "23",
                "addr:door": "1",
                "addr:city:simc": 984657,
                "addr:street:sym_ul": 21162,
                "phone": "+48 602272266",
                "email": "jc.radar@vp.pl",
                "ref:regon": "361450002",
                "operator": "Jan Cie\u015bla",
                "operator:type": "private",
                "fixme": "w zale\u017cno\u015bci od przedmiotu dzia\u0142alno\u015bci (np. amenity=training + training=*, amenity=dancing_school, amenity=language_school, amenity=music_school)"
            }
        },
        {
            "id": 87833,
            "type": "Feature",
            "geometry": {
                "type": "Point",
                "coordinates": [
                    16.48401,
                    50.86039
                ]
            },
            "properties": {
                "isced:level": "1;2",
                "ref:rspo": 87833,
                "official_name": "Szko\u0142a Podstawowa nr 1 im. Tadeusza Ko\u015bciuszki w \u015awidnicy",
                "name": "Szko\u0142a Podstawowa nr 1",
                "addr:postcode": "58-100",
                "addr:city": "\u015awidnica",
                "addr:street": "Galla Anonima",
                "addr:housenumber": "1",
                "addr:city:simc": 984657,
                "addr:street:sym_ul": 5286,
                "phone": "+48 748529818",
                "email": "sekretariat@sp1swidnica.pl",
                "website": "https:\/\/sp1swidnica.pl",
                "ref:regon": "000690683",
                "ref:vatin": "PL8841061004",
                "operator": "Gmina Miasto \u015awidnica",
                "operator:type": "government",
                "amenity": "school"
            }
        },
        {
            "id": 104850,
            "type": "Feature",
            "geometry": {
                "type": "Point",
                "coordinates": [
                    16.4840899,
                    50.86136
                ]
            },
            "properties": {
                "ref:rspo": 104850,
                "official_name": "Niepubliczne Przedszkole \"Frajda\"",
                "name": "Niepubliczne Przedszkole \"Frajda\"",
                "addr:postcode": "58-100",
                "addr:city": "\u015awidnica",
                "addr:street": "Galla Anonima",
                "addr:housenumber": "3",
                "addr:city:simc": 984657,
                "addr:street:sym_ul": 5286,
                "phone": "+48 532998505",
                "email": "agugu@dlaprzedszkoli.eu",
                "website": "http:\/\/www.dlaprzedszkoli.eu",
                "ref:regon": "022034619",
                "ref:vatin": "PL8842674393",
                "operator": "Fundacja Przyjaci\u00f3\u0142 Przedszkolaka \"Agugu\"",
                "operator:type": "ngo",
                "amenity": "kindergarten"
            }
        }
    ]
}