{
    "type": "FeatureCollection",
    "features": [
        {
            "id": 6022,
            "type": "Feature",
            "geometry": {
                "type": "Point",
                "coordinates": [
                    16.3229,
                    50.85281
                ]
            },
            "properties": {
                "ref:rspo": 6022,
                "official_name": "Zesp\u00f3\u0142 Szk\u00f3\u0142 Og\u00f3lnokszta\u0142c\u0105cych w \u015awiebodzicach",
                "name": "Zesp\u00f3\u0142 Szk\u00f3\u0142 Og\u00f3lnokszta\u0142c\u0105cych w \u015awiebodzicach",
                "addr:country": "PL",
                "addr:postcode": "58-160",
                "addr:city": "\u015awiebodzice",
                "addr:street": "Marii Sk\u0142odowskiej-Curie",
                "addr:housenumber": "9",
                "addr:teryt:simc": 984663,
                "addr:teryt:sym_ul": 20068,
                "contact:phone": "+48 746650952",
                "contact:email": "sekretariat@loswiebodzice.net",
                "contact:website": "http:\/\/www.loswiebodzice.net",
                "ref:regon": "891343276",
                "ref:vatin": "PL8842399455",
                "operator": "Powiat \u015awidnicki",
                "operator:type": "government",
                "landuse": "education",
                "fixme": "amenity=school, amenity=college albo landuse=education w zale\u017cno\u015bci od tego, jakie plac\u00f3wki wchodz\u0105 w sk\u0142ad zespo\u0142u. Sprawd\u017a, kiedy stosowa\u0107 amenity=* a kiedy landuse=education.",
                "note": "Children RSPO: 9025;14936"
            }
        },
        {
            "id": 8023,
            "type": "Feature",
            "geometry": {
                "type": "Point",
                "coordinates": [
                    16.3229,
                    50.852779999999996
                ]
            },
            "properties": {
                "ref:rspo": 8023,
                "official_name": "Poradnia Psychologiczno-Pedagogiczna w \u015awiebodzicach",
                "name": "Poradnia Psychologiczno-Pedagogiczna w \u015awiebodzicach",
                "addr:country": "PL",
                "addr:postcode": "58-160",
                "addr:city": "\u015awiebodzice",
                "addr:street": "Marii Sk\u0142odowskiej-Curie",
                "addr:housenumber": "9",
                "addr:teryt:simc": 984663,
                "addr:teryt:sym_ul": 20068,
                "contact:phone": "+48 746622740",
                "contact:email": "sekretariat@poradnia.swidnica.pl",
                "ref:regon": "890041159",
                "ref:vatin": "PL8842333344",
                "operator": "Powiat \u015awidnicki",
                "operator:type": "government",
                "healthcare": "counselling",
                "counselling_type": "education",
                "fixme": "w zale\u017cno\u015bci od przedmiotu dzia\u0142alno\u015bci (np. healthcare=counselling + counselling_type=education albo healthcare=psychotherapist)",
                "note": "Parent RSPO: 6018"
            }
        },
        {
            "id": 9025,
            "type": "Feature",
            "geometry": {
                "type": "Point",
                "coordinates": [
                    16.3229,
                    50.85275
                ]
            },
            "properties": {
                "isced:level": "3",
                "ref:rspo": 9025,
                "official_name": "Liceum Og\u00f3lnokszta\u0142c\u0105ce im. Marii Konopnickiej w \u015awiebodzicach",
                "name": "Liceum Og\u00f3lnokszta\u0142c\u0105ce",
                "addr:country": "PL",
                "addr:postcode": "58-160",
                "addr:city": "\u015awiebodzice",
                "addr:street": "Marii Sk\u0142odowskiej-Curie",
                "addr:housenumber": "9",
                "addr:teryt:simc": 984663,
                "addr:teryt:sym_ul": 20068,
                "contact:phone": "+48 746650952",
                "contact:email": "sekretariat@loswiebodzice.net",
                "contact:website": "http:\/\/loswiebodzice.net",
                "ref:regon": "000717755",
                "operator": "Powiat \u015awidnicki",
                "operator:type": "government",
                "amenity": "school",
                "note": "Parent RSPO: 6022"
            }
        },
        {
            "id": 14936,
            "type": "Feature",
            "geometry": {
                "type": "Point",
                "coordinates": [
                    16.3229,
                    50.85272
                ]
            },
            "properties": {
                "isced:level": "3",
                "ref:rspo": 14936,
                "official_name": "Liceum Og\u00f3lnokszta\u0142c\u0105ce dla Doros\u0142ych Nr II w \u015awiebodzicach",
                "name": "Liceum Og\u00f3lnokszta\u0142c\u0105ce dla Doros\u0142ych Nr II w \u015awiebodzicach",
                "addr:country": "PL",
                "addr:postcode": "58-160",
                "addr:city": "\u015awiebodzice",
                "addr:street": "Marii Sk\u0142odowskiej-Curie",
                "addr:housenumber": "9",
                "addr:teryt:simc": 984663,
                "addr:teryt:sym_ul": 20068,
                "contact:phone": "+48 746650952",
                "contact:email": "sekretariat@loswiebodzice.net",
                "ref:regon": "020874829",
                "operator": "Powiat \u015awidnicki",
                "operator:type": "government",
                "amenity": "school",
                "note": "Parent RSPO: 6022"
            }
        },
        {
            "id": 47092,
            "type": "Feature",
            "geometry": {
                "type": "Point",
                "coordinates": [
                    16.30948,
                    50.85378
                ]
            },
            "properties": {
                "isced:level": "1;2",
                "ref:rspo": 47092,
                "official_name": "Szko\u0142a Podstawowa Nr 4 im. Janusza Korczaka",
                "name": "Szko\u0142a Podstawowa Nr 4",
                "addr:country": "PL",
                "addr:postcode": "58-160",
                "addr:city": "\u015awiebodzice",
                "addr:street": "Ofiar O\u015bwi\u0119cimskich",
                "addr:housenumber": "58",
                "addr:teryt:simc": 984663,
                "addr:teryt:sym_ul": 14797,
                "contact:phone": "+48 746669632",
                "contact:email": "sp4korczak@wp.pl",
                "contact:website": "https:\/\/naszaczworka.edupage.org",
                "ref:regon": "890048760",
                "ref:vatin": "PL8841055564",
                "operator": "Gmina \u015awiebodzice",
                "operator:type": "government",
                "amenity": "school"
            }
        },
        {
            "id": 25591,
            "type": "Feature",
            "geometry": {
                "type": "Point",
                "coordinates": [
                    16.3268999,
                    50.8561
                ]
            },
            "properties": {
                "ref:rspo": 25591,
                "official_name": "Przedszkole Niepubliczne \"Koniczynka I\"",
                "name": "Przedszkole Niepubliczne \"Koniczynka I\"",
                "addr:country": "PL",
                "addr:postcode": "58-160",
                "addr:city": "\u015awiebodzice",
                "addr:street": "\u015awidnicka",
                "addr:housenumber": "32\/34",
                "addr:teryt:simc": 984663,
                "addr:teryt:sym_ul": 22461,
                "contact:phone": "+48 748540246",
                "contact:website": "http:\/\/www.przedszkola-koniczynka.pl",
                "ref:regon": "021985264",
                "ref:vatin": "PL8861071253",
                "operator": "Dane Do Uzupe\u0142nienia",
                "operator:type": "private",
                "amenity": "kindergarten"
            }
        },
        {
            "id": 25583,
            "type": "Feature",
            "geometry": {
                "type": "Point",
                "coordinates": [
                    16.33252,
                    50.85689
                ]
            },
            "properties": {
                "ref:rspo": 25583,
                "official_name": "Przedszkole Nr 3 Niezapominajka",
                "name": "Przedszkole Nr 3 Niezapominajka",
                "addr:country": "PL",
                "addr:postcode": "58-160",
                "addr:city": "\u015awiebodzice",
                "addr:street": "Spokojna",
                "addr:housenumber": "3",
                "addr:teryt:simc": 984663,
                "addr:teryt:sym_ul": 20677,
                "contact:phone": "+48 746669642",
                "contact:email": "przedszkoleprzedszkolenr3@interia.pl",
                "contact:website": "http:\/\/www.przedszkole3.swiebodzice.pl",
                "ref:regon": "021404853",
                "ref:vatin": "PL8842727356",
                "operator": "Gmina \u015awiebodzice",
                "operator:type": "government",
                "amenity": "kindergarten"
            }
        },
        {
            "id": 25594,
            "type": "Feature",
            "geometry": {
                "type": "Point",
                "coordinates": [
                    16.33426,
                    50.85701
                ]
            },
            "properties": {
                "ref:rspo": 25594,
                "official_name": "Przedszkole Niepubliczne \"Koniczynka\"",
                "name": "Przedszkole Niepubliczne \"Koniczynka\"",
                "addr:country": "PL",
                "addr:postcode": "58-160",
                "addr:city": "\u015awiebodzice",
                "addr:street": "os. Sudeckie",
                "addr:housenumber": "12",
                "addr:teryt:simc": 984663,
                "addr:teryt:sym_ul": 21526,
                "contact:phone": "+48 746402721",
                "contact:website": "http:\/\/www.przedszkola-koniczynka.pl",
                "ref:regon": "021985287",
                "ref:vatin": "PL8861071253",
                "operator": "Dane Do Uzupe\u0142nienia",
                "operator:type": "private",
                "amenity": "kindergarten"
            }
        },
        {
            "id": 8092,
            "type": "Feature",
            "geometry": {
                "type": "Point",
                "coordinates": [
                    16.3236199,
                    50.85804
                ]
            },
            "properties": {
                "isced:level": "1;2",
                "ref:rspo": 8092,
                "official_name": "Szko\u0142a Podstawowa Specjalna Nr 8 im. Siostry Marii Antoniny Kratochwil w \u015awiebodzicach",
                "name": "Szko\u0142a Podstawowa Specjalna Nr 8",
                "addr:country": "PL",
                "addr:postcode": "58-160",
                "addr:city": "\u015awiebodzice",
                "addr:street": "Adama Mickiewicza",
                "addr:housenumber": "8",
                "addr:teryt:simc": 984663,
                "addr:teryt:sym_ul": 12740,
                "contact:phone": "+48 748544221",
                "contact:email": "szkola@swiebodzice-zss.pl",
                "ref:regon": "891096978",
                "operator": "Powiat \u015awidnicki",
                "operator:type": "government",
                "amenity": "school",
                "note": "Parent RSPO: 6017"
            }
        },
        {
            "id": 8601,
            "type": "Feature",
            "geometry": {
                "type": "Point",
                "coordinates": [
                    16.31614,
                    50.85817
                ]
            },
            "properties": {
                "ref:rspo": 8601,
                "official_name": "Zesp\u00f3\u0142 Szk\u00f3\u0142 im. Stanis\u0142awa Prosi\u0144skiego w \u015awiebodzicach",
                "name": "Zesp\u00f3\u0142 Szk\u00f3\u0142",
                "addr:country": "PL",
                "addr:postcode": "58-160",
                "addr:city": "\u015awiebodzice",
                "addr:street": "Marsza\u0142ka J\u00f3zefa Pi\u0142sudskiego",
                "addr:housenumber": "31",
                "addr:teryt:simc": 984663,
                "addr:teryt:sym_ul": 36029,
                "contact:phone": "+48 746669905",
                "contact:email": "zs_szkol@poczta.onet.pl",
                "contact:website": "http:\/\/www.zs-swiebodzice.pl",
                "ref:regon": "000192353",
                "ref:vatin": "PL8841660130",
                "operator": "Powiat \u015awidnicki",
                "operator:type": "government",
                "landuse": "education",
                "fixme": "amenity=school, amenity=college albo landuse=education w zale\u017cno\u015bci od tego, jakie plac\u00f3wki wchodz\u0105 w sk\u0142ad zespo\u0142u. Sprawd\u017a, kiedy stosowa\u0107 amenity=* a kiedy landuse=education."
            }
        },
        {
            "id": 275297,
            "type": "Feature",
            "geometry": {
                "type": "Point",
                "coordinates": [
                    16.31614,
                    50.85814
                ]
            },
            "properties": {
                "ref:rspo": 275297,
                "official_name": "Zesp\u00f3\u0142 Szk\u00f3\u0142",
                "name": "Zesp\u00f3\u0142 Szk\u00f3\u0142",
                "addr:country": "PL",
                "addr:postcode": "58-160",
                "addr:city": "\u015awiebodzice",
                "addr:street": "Marsza\u0142ka J\u00f3zefa Pi\u0142sudskiego",
                "addr:housenumber": "31",
                "addr:teryt:simc": 984663,
                "addr:teryt:sym_ul": 36029,
                "contact:phone": "+48 746669909",
                "contact:email": "zs31sekretariat@gmail.com",
                "contact:website": "http:\/\/www.zsswiebodzice.edupage.org",
                "ref:regon": "386793760",
                "operator": "Gmina \u015awiebodzice",
                "operator:type": "government",
                "landuse": "education",
                "fixme": "amenity=school, amenity=college albo landuse=education w zale\u017cno\u015bci od tego, jakie plac\u00f3wki wchodz\u0105 w sk\u0142ad zespo\u0142u. Sprawd\u017a, kiedy stosowa\u0107 amenity=* a kiedy landuse=education.",
                "note": "Children RSPO: 14928;275960;275967"
            }
        },
        {
            "id": 14928,
            "type": "Feature",
            "geometry": {
                "type": "Point",
                "coordinates": [
                    16.31614,
                    50.85811
                ]
            },
            "properties": {
                "isced:level": "3",
                "ref:rspo": 14928,
                "official_name": "Bran\u017cowa Szko\u0142a I Stopnia w \u015awiebodzicach",
                "name": "Bran\u017cowa Szko\u0142a I Stopnia w \u015awiebodzicach",
                "addr:country": "PL",
                "addr:postcode": "58-160",
                "addr:city": "\u015awiebodzice",
                "addr:street": "Marsza\u0142ka J\u00f3zefa Pi\u0142sudskiego",
                "addr:housenumber": "31",
                "addr:teryt:simc": 984663,
                "addr:teryt:sym_ul": 36029,
                "contact:phone": "+48 746669909",
                "contact:email": "zs31sekretariat@gmail.com",
                "contact:website": "http:\/\/zsswiebodzice.edupage.org",
                "ref:regon": "891417514",
                "operator": "Gmina \u015awiebodzice",
                "operator:type": "government",
                "amenity": "school",
                "note": "Parent RSPO: 275297"
            }
        },
        {
            "id": 275960,
            "type": "Feature",
            "geometry": {
                "type": "Point",
                "coordinates": [
                    16.31614,
                    50.85808
                ]
            },
            "properties": {
                "isced:level": "3",
                "ref:rspo": 275960,
                "official_name": "Technikum",
                "name": "Technikum",
                "addr:country": "PL",
                "addr:postcode": "58-160",
                "addr:city": "\u015awiebodzice",
                "addr:street": "Marsza\u0142ka J\u00f3zefa Pi\u0142sudskiego",
                "addr:housenumber": "31",
                "addr:teryt:simc": 984663,
                "addr:teryt:sym_ul": 36029,
                "contact:phone": "+48 746669909",
                "contact:email": "zs31sekretariat@gmail.com",
                "contact:website": "http:\/\/www.zsswiebodzice.edupage.org",
                "ref:regon": "386959120",
                "operator": "Gmina \u015awiebodzice",
                "operator:type": "government",
                "amenity": "school",
                "note": "Parent RSPO: 275297"
            }
        },
        {
            "id": 275967,
            "type": "Feature",
            "geometry": {
                "type": "Point",
                "coordinates": [
                    16.31614,
                    50.85805
                ]
            },
            "properties": {
                "isced:level": "3",
                "ref:rspo": 275967,
                "official_name": "Szko\u0142a Bran\u017cowa II Stopnia",
                "name": "Szko\u0142a Bran\u017cowa II Stopnia",
                "addr:country": "PL",
                "addr:postcode": "58-160",
                "addr:city": "\u015awiebodzice",
                "addr:street": "Marsza\u0142ka J\u00f3zefa Pi\u0142sudskiego",
                "addr:housenumber": "31",
                "addr:teryt:simc": 984663,
                "addr:teryt:sym_ul": 36029,
                "contact:phone": "+48 746669909",
                "contact:email": "zs31sekretariat@gmail.com",
                "contact:website": "http:\/\/www.zsswiebodzice.edupage.org",
                "ref:regon": "386959433",
                "operator": "Gmina \u015awiebodzice",
                "operator:type": "government",
                "amenity": "school",
                "note": "Parent RSPO: 275297"
            }
        },
        {
            "id": 25586,
            "type": "Feature",
            "geometry": {
                "type": "Point",
                "coordinates": [
                    16.3249,
                    50.85852
                ]
            },
            "properties": {
                "isced:level": "1;2",
                "ref:rspo": 25586,
                "official_name": "Szko\u0142a Podstawowa Nr 3 im. W\u0142adys\u0142awa Broniewskiego",
                "name": "Szko\u0142a Podstawowa Nr 3",
                "addr:country": "PL",
                "addr:postcode": "58-160",
                "addr:city": "\u015awiebodzice",
                "addr:street": "\u015awidnicka",
                "addr:housenumber": "13",
                "addr:teryt:simc": 984663,
                "addr:teryt:sym_ul": 22461,
                "contact:phone": "+48 746669627",
                "contact:email": "sp_3swiebodzice@interia.pl",
                "contact:website": "http:\/\/sp3swiebodzice.edupage.org",
                "ref:regon": "890048753",
                "ref:vatin": "PL8841159022",
                "operator": "Gmina \u015awiebodzice",
                "operator:type": "government",
                "amenity": "school"
            }
        },
        {
            "id": 267976,
            "type": "Feature",
            "geometry": {
                "type": "Point",
                "coordinates": [
                    16.31665,
                    50.85911
                ]
            },
            "properties": {
                "isced:level": "1;2",
                "ref:rspo": 267976,
                "official_name": "Szko\u0142a Podstawowa Nr 1",
                "name": "Szko\u0142a Podstawowa Nr 1",
                "addr:country": "PL",
                "addr:postcode": "58-160",
                "addr:city": "\u015awiebodzice",
                "addr:street": "Marsza\u0142ka J\u00f3zefa Pi\u0142sudskiego",
                "addr:housenumber": "28",
                "addr:teryt:simc": 984663,
                "addr:teryt:sym_ul": 36029,
                "contact:phone": "+48 746669617",
                "contact:email": "psp1swiebodzie@wp.pl",
                "contact:website": "https:\/\/naszajedynka.pl",
                "ref:regon": "380808621",
                "operator": "Gmina \u015awiebodzice",
                "operator:type": "government",
                "amenity": "school"
            }
        },
        {
            "id": 278555,
            "type": "Feature",
            "geometry": {
                "type": "Point",
                "coordinates": [
                    16.33264,
                    50.85998
                ]
            },
            "properties": {
                "ref:rspo": 278555,
                "official_name": "Niepubliczna Poradnia Psychologiczno-Pedagogiczna \"Dobry Start\" w \u015awiebodzicach",
                "name": "Niepubliczna Poradnia Psychologiczno-Pedagogiczna \"Dobry Start\" w \u015awiebodzicach",
                "addr:country": "PL",
                "addr:postcode": "58-160",
                "addr:city": "\u015awiebodzice",
                "addr:street": "Plac Dworcowy",
                "addr:housenumber": "1",
                "addr:teryt:simc": 984663,
                "addr:teryt:sym_ul": 38506,
                "contact:email": "radoslawkornas@gmail.com",
                "ref:regon": "389969544",
                "operator": "Rados\u0142aw Kornas",
                "operator:type": "private",
                "healthcare": "counselling",
                "counselling_type": "education",
                "fixme": "w zale\u017cno\u015bci od przedmiotu dzia\u0142alno\u015bci (np. healthcare=counselling + counselling_type=education albo healthcare=psychotherapist)"
            }
        },
        {
            "id": 6017,
            "type": "Feature",
            "geometry": {
                "type": "Point",
                "coordinates": [
                    16.31591,
                    50.86028
                ]
            },
            "properties": {
                "ref:rspo": 6017,
                "official_name": "Zesp\u00f3\u0142 Szk\u00f3\u0142 Specjalnych w \u015awiebodzicach",
                "name": "Zesp\u00f3\u0142 Szk\u00f3\u0142 Specjalnych w \u015awiebodzicach",
                "addr:country": "PL",
                "addr:postcode": "58-160",
                "addr:city": "\u015awiebodzice",
                "addr:street": "Henryka Sienkiewicza",
                "addr:housenumber": "30",
                "addr:teryt:simc": 984663,
                "addr:teryt:sym_ul": 19834,
                "contact:phone": "+48 746655081",
                "contact:email": "szkola@swiebodzice-zss.pl",
                "ref:regon": "891543319",
                "ref:vatin": "PL8842519735",
                "operator": "Powiat \u015awidnicki",
                "operator:type": "government",
                "landuse": "education",
                "fixme": "amenity=school, amenity=college albo landuse=education w zale\u017cno\u015bci od tego, jakie plac\u00f3wki wchodz\u0105 w sk\u0142ad zespo\u0142u. Sprawd\u017a, kiedy stosowa\u0107 amenity=* a kiedy landuse=education.",
                "note": "Children RSPO: 8075;8092;8143"
            }
        },
        {
            "id": 8075,
            "type": "Feature",
            "geometry": {
                "type": "Point",
                "coordinates": [
                    16.31591,
                    50.86025
                ]
            },
            "properties": {
                "isced:level": "1;2",
                "ref:rspo": 8075,
                "official_name": "Szko\u0142a Podstawowa Specjalna Nr 7 w \u015awiebodzicach",
                "name": "Szko\u0142a Podstawowa Specjalna Nr 7 w \u015awiebodzicach",
                "addr:country": "PL",
                "addr:postcode": "58-160",
                "addr:city": "\u015awiebodzice",
                "addr:street": "Henryka Sienkiewicza",
                "addr:housenumber": "30",
                "addr:teryt:simc": 984663,
                "addr:teryt:sym_ul": 19834,
                "contact:phone": "+48 746655081",
                "contact:email": "szkola@swiebodzice-zss.pl",
                "ref:regon": "000717778",
                "operator": "Powiat \u015awidnicki",
                "operator:type": "government",
                "amenity": "school",
                "note": "Parent RSPO: 6017"
            }
        },
        {
            "id": 8143,
            "type": "Feature",
            "geometry": {
                "type": "Point",
                "coordinates": [
                    16.31591,
                    50.860220000000005
                ]
            },
            "properties": {
                "ref:rspo": 8143,
                "official_name": "Szko\u0142a Specjalna Przysposabiaj\u0105ca Do Pracy w \u015awiebodzicach",
                "name": "Szko\u0142a Specjalna Przysposabiaj\u0105ca Do Pracy w \u015awiebodzicach",
                "addr:country": "PL",
                "addr:postcode": "58-160",
                "addr:city": "\u015awiebodzice",
                "addr:street": "Henryka Sienkiewicza",
                "addr:housenumber": "30",
                "addr:teryt:simc": 984663,
                "addr:teryt:sym_ul": 19834,
                "contact:phone": "+48 746655081",
                "contact:email": "szkola@swiebodzice-zss.pl",
                "ref:regon": "021710024",
                "operator": "Powiat \u015awidnicki",
                "operator:type": "government",
                "amenity": "school",
                "note": "Parent RSPO: 6017"
            }
        },
        {
            "id": 132249,
            "type": "Feature",
            "geometry": {
                "type": "Point",
                "coordinates": [
                    16.3101777,
                    50.8620774
                ]
            },
            "properties": {
                "ref:rspo": 132249,
                "official_name": "Niepubliczne Przedszkole Terapeutyczne \"Zielony Zak\u0105tek\"",
                "name": "Niepubliczne Przedszkole Terapeutyczne \"Zielony Zak\u0105tek\"",
                "addr:country": "PL",
                "addr:postcode": "58-160",
                "addr:city": "\u015awiebodzice",
                "addr:street": "Cicha",
                "addr:housenumber": "1",
                "addr:teryt:simc": 984663,
                "addr:teryt:sym_ul": 2974,
                "contact:phone": "+48 601361177",
                "contact:email": "sekretariat.chatkapuchatka@op.pl",
                "ref:regon": "365522336",
                "ref:vatin": "PL8862746581",
                "operator": "Anna Olejnik",
                "operator:type": "private",
                "amenity": "kindergarten"
            }
        },
        {
            "id": 132481,
            "type": "Feature",
            "geometry": {
                "type": "Point",
                "coordinates": [
                    16.30914,
                    50.86267
                ]
            },
            "properties": {
                "ref:rspo": 132481,
                "official_name": "Niepubliczny Punkt Przedszkolny \"Niebieski S\u0142onik\"",
                "name": "Niepubliczny Punkt Przedszkolny \"Niebieski S\u0142onik\"",
                "addr:country": "PL",
                "addr:postcode": "58-160",
                "addr:city": "\u015awiebodzice",
                "addr:street": "Jeleniog\u00f3rska",
                "addr:housenumber": "9",
                "addr:teryt:simc": 984663,
                "addr:teryt:sym_ul": 7459,
                "contact:phone": "+48 690499433",
                "ref:regon": "365658136",
                "ref:vatin": "PL8862831677",
                "operator": "Anna Kijak",
                "operator:type": "private",
                "amenity": "kindergarten"
            }
        },
        {
            "id": 72904,
            "type": "Feature",
            "geometry": {
                "type": "Point",
                "coordinates": [
                    16.31201,
                    50.86515
                ]
            },
            "properties": {
                "isced:level": "1;2",
                "ref:rspo": 72904,
                "official_name": "Szko\u0142a Podstawowa Nr 2 Z Oddzia\u0142ami Integracyjnymi im. Nauczycieli Tajnego Nauczania",
                "name": "Szko\u0142a Podstawowa Nr 2 Z Oddzia\u0142ami Integracyjnymi",
                "addr:country": "PL",
                "addr:postcode": "58-160",
                "addr:city": "\u015awiebodzice",
                "addr:street": "Mieszka Starego",
                "addr:housenumber": "4",
                "addr:teryt:simc": 984663,
                "addr:teryt:sym_ul": 12835,
                "contact:phone": "+48 746669622",
                "contact:email": "sp2_swiebodzice@poczta.onet.pl",
                "contact:website": "http:\/\/www.pzspg.swiebodzice.szkolnastrona.pl\/sp\/",
                "ref:regon": "890048747",
                "ref:vatin": "PL8842480068",
                "operator": "Gmina \u015awiebodzice",
                "operator:type": "government",
                "amenity": "school"
            }
        },
        {
            "id": 25582,
            "type": "Feature",
            "geometry": {
                "type": "Point",
                "coordinates": [
                    16.31399,
                    50.86524
                ]
            },
            "properties": {
                "ref:rspo": 25582,
                "official_name": "Przedszkole Nr 2 Z Oddzia\u0142ami Intergacyjnymi im. Jana Paw\u0142a Ii",
                "name": "Przedszkole Nr 2 Z Oddzia\u0142ami Intergacyjnymi",
                "addr:country": "PL",
                "addr:postcode": "58-160",
                "addr:city": "\u015awiebodzice",
                "addr:street": "Ksi\u0119cia Bolka",
                "addr:housenumber": "17",
                "addr:teryt:simc": 984663,
                "addr:teryt:sym_ul": 1772,
                "contact:phone": "+48 746669648",
                "contact:email": "przedszkolenr8@interia.pl",
                "contact:website": "http:\/\/przedszkole2.swiebodzice.pl\/",
                "ref:regon": "021400134",
                "ref:vatin": "PL8842727422",
                "operator": "Gmina \u015awiebodzice",
                "operator:type": "government",
                "amenity": "kindergarten"
            }
        },
        {
            "id": 122995,
            "type": "Feature",
            "geometry": {
                "type": "Point",
                "coordinates": [
                    16.3176099,
                    50.86817
                ]
            },
            "properties": {
                "ref:rspo": 122995,
                "official_name": "Niepubliczne Przedszkole J\u0119zykowe \"Chatka Puchatka\"",
                "name": "Niepubliczne Przedszkole J\u0119zykowe \"Chatka Puchatka\"",
                "addr:country": "PL",
                "addr:postcode": "58-160",
                "addr:city": "\u015awiebodzice",
                "addr:street": "Kr\u00f3lowej El\u017cbiety",
                "addr:housenumber": "1",
                "addr:teryt:simc": 984663,
                "addr:teryt:sym_ul": 4791,
                "contact:phone": "+48 601361177",
                "contact:email": "ania.olejnik@op.pl",
                "contact:website": "http:\/\/www.przedszkole-chatkapuchatka.edu.pl",
                "ref:regon": "022408630",
                "ref:vatin": "PL8862746581",
                "operator": "Dane Do Uzupe\u0142nienia",
                "operator:type": "private",
                "amenity": "kindergarten"
            }
        },
        {
            "id": 25590,
            "type": "Feature",
            "geometry": {
                "type": "Point",
                "coordinates": [
                    16.34499,
                    50.87159
                ]
            },
            "properties": {
                "ref:rspo": 25590,
                "official_name": "Przedszkole Niepubliczne \"Kraina Marze\u0144\"",
                "name": "Przedszkole Niepubliczne \"Kraina Marze\u0144\"",
                "addr:country": "PL",
                "addr:postcode": "58-160",
                "addr:city": "\u015awiebodzice",
                "addr:street": "Ciernie",
                "addr:housenumber": "133",
                "addr:teryt:simc": 984663,
                "addr:teryt:sym_ul": 3040,
                "contact:email": "dkoldon@wp.pl",
                "ref:regon": "021984069",
                "ref:vatin": "PL8861100351",
                "operator": "Marianna Ko\u0142don",
                "operator:type": "private",
                "amenity": "kindergarten"
            }
        },
        {
            "id": 66222,
            "type": "Feature",
            "geometry": {
                "type": "Point",
                "coordinates": [
                    16.34143,
                    50.87251
                ]
            },
            "properties": {
                "isced:level": "1;2",
                "ref:rspo": 66222,
                "official_name": "Szko\u0142a Podstawowa Integracyjna im. Henryka Sienkiewicza",
                "name": "Szko\u0142a Podstawowa Integracyjna",
                "addr:country": "PL",
                "addr:postcode": "58-160",
                "addr:city": "\u015awiebodzice",
                "addr:street": "Ciernie",
                "addr:housenumber": "30",
                "addr:teryt:simc": 984663,
                "addr:teryt:sym_ul": 3040,
                "contact:phone": "+48 746669635",
                "contact:email": "sp6ciernie@wp.pl",
                "contact:website": "https:\/\/spswiebodzice.pl\/",
                "ref:regon": "890048701",
                "ref:vatin": "PL8842647120",
                "operator": "Gmina \u015awiebodzice",
                "operator:type": "government",
                "amenity": "school"
            }
        }
    ]
}