{
    "type": "FeatureCollection",
    "features": [
        {
            "id": 29365,
            "type": "Feature",
            "geometry": {
                "type": "Point",
                "coordinates": [
                    18.99707,
                    51.59552
                ]
            },
            "properties": {
                "isced:level": "1;2",
                "ref:rspo": 29365,
                "official_name": "Szko\u0142a Podstawowa im. J. H. D\u0105browskiego w Krobanowie",
                "name": "Szko\u0142a Podstawowa",
                "addr:country": "PL",
                "addr:postcode": "98-220",
                "addr:place": "Kroban\u00f3w",
                "addr:housenumber": "12C",
                "addr:teryt:simc": 721751,
                "contact:phone": "+48 438234250",
                "contact:email": "sp.krobanow@ugzw.pl",
                "contact:website": "http:\/\/www.spkrobanow.superszkolna.pl",
                "ref:regon": "001151184",
                "ref:vatin": "PL8291399300",
                "operator": "Gmina Zdu\u0144ska Wola",
                "operator:type": "government",
                "amenity": "school"
            }
        },
        {
            "id": 60771,
            "type": "Feature",
            "geometry": {
                "type": "Point",
                "coordinates": [
                    18.90501,
                    51.60583
                ]
            },
            "properties": {
                "ref:rspo": 60771,
                "official_name": "Zesp\u00f3\u0142 Szko\u0142y Podstawowej I Przedszkola im. Jana Paw\u0142a II w Czechach",
                "name": "Zesp\u00f3\u0142 Szko\u0142y Podstawowej I Przedszkola",
                "addr:country": "PL",
                "addr:postcode": "98-220",
                "addr:place": "Czechy",
                "addr:housenumber": "142",
                "addr:teryt:simc": 721567,
                "contact:phone": "+48 438232535",
                "contact:email": "sp.czechy@ugzw.pl",
                "ref:regon": "731518410",
                "ref:vatin": "PL8291716344",
                "operator": "Gmina Zdu\u0144ska Wola",
                "operator:type": "government",
                "landuse": "education",
                "fixme": "amenity=school, amenity=college albo landuse=education w zale\u017cno\u015bci od tego, jakie plac\u00f3wki wchodz\u0105 w sk\u0142ad zespo\u0142u. Sprawd\u017a, kiedy stosowa\u0107 amenity=* a kiedy landuse=education.",
                "note": "Children RSPO: 68025;68026"
            }
        },
        {
            "id": 68025,
            "type": "Feature",
            "geometry": {
                "type": "Point",
                "coordinates": [
                    18.90501,
                    51.605799999999995
                ]
            },
            "properties": {
                "isced:level": "1;2",
                "ref:rspo": 68025,
                "official_name": "Szko\u0142a Podstawowa im. Jana Paw\u0142a II w Czechach",
                "name": "Szko\u0142a Podstawowa",
                "addr:country": "PL",
                "addr:postcode": "98-220",
                "addr:place": "Czechy",
                "addr:housenumber": "142",
                "addr:teryt:simc": 721567,
                "contact:phone": "+48 438232535",
                "contact:email": "sp.czechy@ugzw.pl",
                "contact:website": "http:\/\/czechy.superszkolna.pl",
                "ref:regon": "001193745",
                "operator": "Gmina Zdu\u0144ska Wola",
                "operator:type": "government",
                "amenity": "school",
                "note": "Parent RSPO: 60771"
            }
        },
        {
            "id": 68026,
            "type": "Feature",
            "geometry": {
                "type": "Point",
                "coordinates": [
                    18.90501,
                    51.60577
                ]
            },
            "properties": {
                "ref:rspo": 68026,
                "official_name": "Gminne Przedszkole im. Jana Paw\u0142a II w Czechach",
                "name": "Gminne Przedszkole",
                "addr:country": "PL",
                "addr:postcode": "98-220",
                "addr:place": "Czechy",
                "addr:housenumber": "142",
                "addr:teryt:simc": 721567,
                "contact:phone": "+48 438232535",
                "contact:email": "sp.czechy@ugzw.pl",
                "ref:regon": "731498391",
                "operator": "Gmina Zdu\u0144ska Wola",
                "operator:type": "government",
                "amenity": "kindergarten",
                "note": "Parent RSPO: 60771"
            }
        },
        {
            "id": 277995,
            "type": "Feature",
            "geometry": {
                "type": "Point",
                "coordinates": [
                    18.97832,
                    51.60787
                ]
            },
            "properties": {
                "ref:rspo": 277995,
                "official_name": "Niepubliczne Przedszkole \"Trampolina\" w Henrykowie",
                "name": "Niepubliczne Przedszkole \"Trampolina\" w Henrykowie",
                "addr:country": "PL",
                "addr:postcode": "98-220",
                "addr:place": "Henryk\u00f3w",
                "addr:housenumber": "24A",
                "addr:teryt:simc": 721633,
                "contact:phone": "+48 518939845",
                "contact:email": "przedszkole.trampolina@orione.pl",
                "contact:website": "http:\/\/www.trampolinazdunskawola.com",
                "ref:regon": "389734746",
                "operator": "Zgromadzenie Zakonne Ma\u0142e Dzie\u0142o Boskiej Opatrzno\u015bci - Orioni\u015bci Prowincja Polska",
                "operator:type": "religious",
                "amenity": "kindergarten"
            }
        },
        {
            "id": 128482,
            "type": "Feature",
            "geometry": {
                "type": "Point",
                "coordinates": [
                    18.96212,
                    51.61675
                ]
            },
            "properties": {
                "ref:rspo": 128482,
                "official_name": "Centrum Fizjoterapii Oldmed - Niepubliczne Centrum Kszta\u0142cenia Ustawicznego w Zdu\u0144skiej Woli",
                "name": "Centrum Fizjoterapii Oldmed - Niepubliczne Centrum Kszta\u0142cenia Ustawicznego w Zdu\u0144skiej Woli",
                "addr:country": "PL",
                "addr:postcode": "98-220",
                "addr:place": "Maciej\u00f3w",
                "addr:housenumber": "9c",
                "addr:teryt:simc": 721700,
                "contact:phone": "+48 601951734",
                "contact:email": "jumeiho@poczta.onet.pl",
                "contact:website": "http:\/\/www.fizjoterapeuci.pl",
                "ref:regon": "362293875",
                "ref:vatin": "PL8291314031",
                "operator": "Miros\u0142aw Kapica",
                "operator:type": "private",
                "fixme": "w zale\u017cno\u015bci od przedmiotu dzia\u0142alno\u015bci (np. amenity=training + training=*, amenity=dancing_school, amenity=language_school, amenity=music_school)"
            }
        },
        {
            "id": 28692,
            "type": "Feature",
            "geometry": {
                "type": "Point",
                "coordinates": [
                    18.9110799,
                    51.61849
                ]
            },
            "properties": {
                "ref:rspo": 28692,
                "official_name": "Gminne Przedszkole w Tymienicach",
                "name": "Gminne Przedszkole w Tymienicach",
                "addr:country": "PL",
                "addr:postcode": "98-220",
                "addr:place": "Tymienice",
                "addr:housenumber": "88A",
                "addr:teryt:simc": 722041,
                "contact:phone": "+48 438235821",
                "contact:email": "pletymienice@wp.pl",
                "ref:regon": "731498400",
                "ref:vatin": "PL8291720216",
                "operator": "Gmina Zdu\u0144ska Wola",
                "operator:type": "government",
                "amenity": "kindergarten"
            }
        },
        {
            "id": 25947,
            "type": "Feature",
            "geometry": {
                "type": "Point",
                "coordinates": [
                    18.96537,
                    51.62103
                ]
            },
            "properties": {
                "ref:rspo": 25947,
                "official_name": "Gminne Przedszkole w Ochraniewie",
                "name": "Gminne Przedszkole w Ochraniewie",
                "addr:country": "PL",
                "addr:postcode": "98-220",
                "addr:place": "Ochraniew",
                "addr:housenumber": "63",
                "addr:teryt:simc": 721863,
                "contact:phone": "+48 438233257",
                "contact:email": "przedszkolejaniszewice@wp.pl",
                "ref:regon": "731498379",
                "ref:vatin": "PL8291720268",
                "operator": "Gmina Zdu\u0144ska Wola",
                "operator:type": "government",
                "amenity": "kindergarten"
            }
        },
        {
            "id": 49988,
            "type": "Feature",
            "geometry": {
                "type": "Point",
                "coordinates": [
                    18.96562,
                    51.62261
                ]
            },
            "properties": {
                "isced:level": "1;2",
                "ref:rspo": 49988,
                "official_name": "Szko\u0142a Podstawowa im. Ks. Jana Twardowskiego w Janiszewicach",
                "name": "Szko\u0142a Podstawowa",
                "addr:country": "PL",
                "addr:postcode": "98-220",
                "addr:place": "Janiszewice",
                "addr:housenumber": "17",
                "addr:teryt:simc": 721679,
                "contact:phone": "+48 438235775",
                "contact:email": "sp.janiszewice@ugzw.pl",
                "contact:website": "http:\/\/www.spjaniszewice.edupage.org",
                "ref:regon": "000642187",
                "ref:vatin": "PL8291720185",
                "operator": "Gmina Zdu\u0144ska Wola",
                "operator:type": "government",
                "amenity": "school"
            }
        },
        {
            "id": 29218,
            "type": "Feature",
            "geometry": {
                "type": "Point",
                "coordinates": [
                    18.89678,
                    51.62384
                ]
            },
            "properties": {
                "isced:level": "1;2",
                "ref:rspo": 29218,
                "official_name": "Szko\u0142a Podstawowa im. Juliana Tuwima w Izabelowie",
                "name": "Szko\u0142a Podstawowa",
                "addr:country": "PL",
                "addr:postcode": "98-220",
                "addr:place": "Izabel\u00f3w",
                "addr:housenumber": "50",
                "addr:teryt:simc": 721640,
                "contact:phone": "+48 438236493",
                "contact:email": "sp.izabelow@ugzw.pl",
                "ref:regon": "001151161",
                "ref:vatin": "PL8291720274",
                "operator": "Gmina Zdu\u0144ska Wola",
                "operator:type": "government",
                "amenity": "school"
            }
        },
        {
            "id": 29308,
            "type": "Feature",
            "geometry": {
                "type": "Point",
                "coordinates": [
                    18.91829,
                    51.65105
                ]
            },
            "properties": {
                "isced:level": "1;2",
                "ref:rspo": 29308,
                "official_name": "Szko\u0142a Podstawowa im. Adama Mickiewicza w Wojs\u0142awicach",
                "name": "Szko\u0142a Podstawowa",
                "addr:country": "PL",
                "addr:postcode": "98-220",
                "addr:place": "Wojs\u0142awice",
                "addr:housenumber": "105",
                "addr:teryt:simc": 722058,
                "contact:phone": "+48 438251429",
                "contact:email": "sp.wojslawice@ugzw.pl",
                "ref:regon": "001151155",
                "ref:vatin": "PL8291514362",
                "operator": "Gmina Zdu\u0144ska Wola",
                "operator:type": "government",
                "amenity": "school"
            }
        },
        {
            "id": 25342,
            "type": "Feature",
            "geometry": {
                "type": "Point",
                "coordinates": [
                    18.92024,
                    51.6546499
                ]
            },
            "properties": {
                "ref:rspo": 25342,
                "official_name": "Zesp\u00f3\u0142 Szk\u00f3\u0142 Rolnicze Centrum Kszta\u0142cenia Ustawicznego w Wojs\u0142awicach",
                "name": "Zesp\u00f3\u0142 Szk\u00f3\u0142 Rolnicze Centrum Kszta\u0142cenia Ustawicznego w Wojs\u0142awicach",
                "addr:country": "PL",
                "addr:postcode": "98-220",
                "addr:place": "Wojs\u0142awice",
                "addr:housenumber": "118",
                "addr:teryt:simc": 722058,
                "contact:phone": "+48 438251491",
                "contact:email": "sekretariat@zsrcku.pl",
                "contact:website": "http:\/\/www.zsrcku.pl",
                "ref:regon": "000095880",
                "ref:vatin": "PL8291197080",
                "operator": "Powiat Zdu\u0144skowolski",
                "operator:type": "government",
                "landuse": "education",
                "fixme": "amenity=school, amenity=college albo landuse=education w zale\u017cno\u015bci od tego, jakie plac\u00f3wki wchodz\u0105 w sk\u0142ad zespo\u0142u. Sprawd\u017a, kiedy stosowa\u0107 amenity=* a kiedy landuse=education.",
                "note": "Children RSPO: 31346;34268;55989;109904;279120"
            }
        },
        {
            "id": 31346,
            "type": "Feature",
            "geometry": {
                "type": "Point",
                "coordinates": [
                    18.92024,
                    51.6546199
                ]
            },
            "properties": {
                "isced:level": "3",
                "ref:rspo": 31346,
                "official_name": "Bran\u017cowa Szko\u0142a I Stopnia w Wojs\u0142awicach",
                "name": "Bran\u017cowa Szko\u0142a I Stopnia w Wojs\u0142awicach",
                "addr:country": "PL",
                "addr:postcode": "98-220",
                "addr:place": "Wojs\u0142awice",
                "addr:housenumber": "118",
                "addr:teryt:simc": 722058,
                "contact:phone": "+48 438251491",
                "contact:email": "sekretariat@zsrcku.pl",
                "contact:website": "http:\/\/www.zsrcku.pl",
                "ref:regon": "731500805",
                "ref:vatin": "PL8291197080",
                "operator": "Powiat Zdu\u0144skowolski",
                "operator:type": "government",
                "amenity": "school",
                "note": "Parent RSPO: 25342"
            }
        },
        {
            "id": 34268,
            "type": "Feature",
            "geometry": {
                "type": "Point",
                "coordinates": [
                    18.92024,
                    51.654589900000005
                ]
            },
            "properties": {
                "isced:level": "3",
                "ref:rspo": 34268,
                "official_name": "Technikum w Wojs\u0142awicach",
                "name": "Technikum w Wojs\u0142awicach",
                "addr:country": "PL",
                "addr:postcode": "98-220",
                "addr:place": "Wojs\u0142awice",
                "addr:housenumber": "118",
                "addr:teryt:simc": 722058,
                "contact:phone": "+48 438251491",
                "contact:email": "sekretariat@zsrcku.pl",
                "contact:website": "http:\/\/www.zsrcku.pl",
                "ref:regon": "731585612",
                "ref:vatin": "PL8291197080",
                "operator": "Powiat Zdu\u0144skowolski",
                "operator:type": "government",
                "amenity": "school",
                "note": "Parent RSPO: 25342"
            }
        },
        {
            "id": 55989,
            "type": "Feature",
            "geometry": {
                "type": "Point",
                "coordinates": [
                    18.92024,
                    51.6545599
                ]
            },
            "properties": {
                "isced:level": "3",
                "ref:rspo": 55989,
                "official_name": "Liceum Og\u00f3lnokszta\u0142c\u0105ce dla Doros\u0142ych w Wojs\u0142awicach",
                "name": "Liceum Og\u00f3lnokszta\u0142c\u0105ce dla Doros\u0142ych w Wojs\u0142awicach",
                "addr:country": "PL",
                "addr:postcode": "98-220",
                "addr:place": "Wojs\u0142awice",
                "addr:housenumber": "118",
                "addr:teryt:simc": 722058,
                "contact:phone": "+48 438251491",
                "contact:email": "sekretariat@zsrcku.pl",
                "contact:website": "http:\/\/www.zsrcku.pl",
                "ref:regon": "101488472",
                "ref:vatin": "PL8291197080",
                "operator": "Powiat Zdu\u0144skowolski",
                "operator:type": "government",
                "amenity": "school",
                "note": "Parent RSPO: 25342"
            }
        },
        {
            "id": 109904,
            "type": "Feature",
            "geometry": {
                "type": "Point",
                "coordinates": [
                    18.92024,
                    51.6545299
                ]
            },
            "properties": {
                "isced:level": "3",
                "ref:rspo": 109904,
                "official_name": "Liceum Og\u00f3lnokszta\u0142c\u0105ce w Wojs\u0142awicach",
                "name": "Liceum Og\u00f3lnokszta\u0142c\u0105ce w Wojs\u0142awicach",
                "addr:country": "PL",
                "addr:postcode": "98-220",
                "addr:place": "Wojs\u0142awice",
                "addr:housenumber": "118",
                "addr:teryt:simc": 722058,
                "contact:phone": "+48 438251491",
                "contact:email": "sekretariat@zsrcku.pl",
                "contact:website": "http:\/\/www.zsrcku.pl",
                "ref:regon": "731585635",
                "ref:vatin": "PL8291197080",
                "operator": "Powiat Zdu\u0144skowolski",
                "operator:type": "government",
                "amenity": "school",
                "note": "Parent RSPO: 25342"
            }
        },
        {
            "id": 279120,
            "type": "Feature",
            "geometry": {
                "type": "Point",
                "coordinates": [
                    18.92024,
                    51.654499900000005
                ]
            },
            "properties": {
                "ref:rspo": 279120,
                "official_name": "Rolnicze Centrum Kszta\u0142cenia Ustawicznego",
                "name": "Rolnicze Centrum Kszta\u0142cenia Ustawicznego",
                "addr:country": "PL",
                "addr:postcode": "98-220",
                "addr:place": "Wojs\u0142awice",
                "addr:housenumber": "118",
                "addr:teryt:simc": 722058,
                "contact:phone": "+48 438251491",
                "contact:email": "sekretariat@zsrcku.pl",
                "ref:regon": "520688169",
                "ref:vatin": "PL8291197080",
                "operator": "Powiat Zdu\u0144skowolski",
                "operator:type": "government",
                "fixme": "w zale\u017cno\u015bci od przedmiotu dzia\u0142alno\u015bci (np. amenity=training + training=*, amenity=dancing_school, amenity=language_school, amenity=music_school)",
                "note": "Parent RSPO: 25342"
            }
        },
        {
            "id": 270853,
            "type": "Feature",
            "geometry": {
                "type": "Point",
                "coordinates": [
                    18.92024,
                    51.6544699
                ]
            },
            "properties": {
                "ref:rspo": 270853,
                "official_name": "Filia Nr 2 Szkolnego Schroniska M\u0142odzie\u017cowego \"Czekay\" w Zdu\u0144skiej Woli",
                "name": "Filia Nr 2 Szkolnego Schroniska M\u0142odzie\u017cowego \"Czekay\" w Zdu\u0144skiej Woli",
                "addr:country": "PL",
                "addr:postcode": "98-220",
                "addr:place": "Wojs\u0142awice",
                "addr:housenumber": "118",
                "addr:teryt:simc": 722058,
                "contact:phone": "+48 438232201",
                "contact:email": "centrum-pieterko@nasze.pl",
                "contact:website": "http:\/\/www.pcksr.pl",
                "ref:regon": "101577307",
                "operator": "Powiat Zdu\u0144skowolski",
                "operator:type": "government",
                "tourism": "hostel",
                "note": "Parent RSPO: 112325"
            }
        },
        {
            "id": 26062,
            "type": "Feature",
            "geometry": {
                "type": "Point",
                "coordinates": [
                    18.85661,
                    51.6603
                ]
            },
            "properties": {
                "isced:level": "1;2",
                "ref:rspo": 26062,
                "official_name": "Szko\u0142a Podstawowa w Annopolu Starym",
                "name": "Szko\u0142a Podstawowa w Annopolu Starym",
                "addr:country": "PL",
                "addr:postcode": "98-220",
                "addr:place": "Annopole Stare",
                "addr:housenumber": "5A",
                "addr:teryt:simc": 721538,
                "contact:phone": "+48 438251406",
                "contact:email": "sp.annopole@ugzw.pl",
                "ref:regon": "001151178",
                "ref:vatin": "PL8291546907",
                "operator": "Gmina Zdu\u0144ska Wola",
                "operator:type": "government",
                "amenity": "school"
            }
        }
    ]
}