{"type":"FeatureCollection","features":[{"id":55625,"type":"Feature","geometry":{"type":"Point","coordinates":[18.68736,50.0130399]},"properties":{"ref:rspo":55625,"official_name":"Zesp\u00f3\u0142 Szkolno-Przedszkolny Nr 7 w \u017borach","name":"Zesp\u00f3\u0142 Szkolno-Przedszkolny Nr 7 w \u017borach","addr:country":"PL","addr:postcode":"44-240","addr:city":"\u017bory","addr:street":"ul. Szkolna","addr:housenumber":"8","addr:teryt:simc":21970,"addr:teryt:sym_ul":945746,"contact:phone":"+48 324342611","contact:email":"sekretariat@zsp7.zory.pl","contact:website":"http:\/\/www.zsp7zory.edupage.org","ref:regon":"273701975","ref:vatin":"PL6511535685","operator":"Gmina Miejska \u017bory","operator:type":"government","landuse":"education","fixme":"amenity=school, amenity=college albo landuse=education w zale\u017cno\u015bci od tego, jakie plac\u00f3wki wchodz\u0105 w sk\u0142ad zespo\u0142u. Sprawd\u017a, kiedy stosowa\u0107 amenity=* a kiedy landuse=education.","note":"Children RSPO: 86882;92797"}},{"id":86882,"type":"Feature","geometry":{"type":"Point","coordinates":[18.68736,50.0130099]},"properties":{"ref:rspo":86882,"official_name":"Przedszkole Nr 7 Z Oddzia\u0142ami Integracyjnymi w \u017borach","name":"Przedszkole Nr 7 Z Oddzia\u0142ami Integracyjnymi w \u017borach","addr:country":"PL","addr:postcode":"44-240","addr:city":"\u017bory","addr:street":"ul. Szkolna","addr:housenumber":"8","addr:teryt:simc":21970,"addr:teryt:sym_ul":945746,"contact:phone":"+48 324342611","contact:email":"sekretariat@zsp7.zory.pl","ref:regon":"271511555","ref:vatin":"PL6511535685","operator":"Gmina Miejska \u017bory","operator:type":"government","amenity":"kindergarten","note":"Parent RSPO: 55625"}},{"id":92797,"type":"Feature","geometry":{"type":"Point","coordinates":[18.68736,50.012979900000005]},"properties":{"isced:level":"1;2","ref:rspo":92797,"official_name":"Szko\u0142a Podstawowa Nr 7 Z Oddzia\u0142ami Integracyjnymi im. Ks. Franciszka Harazina w \u017borach","name":"Szko\u0142a Podstawowa Nr 7 Z Oddzia\u0142ami Integracyjnymi","addr:country":"PL","addr:postcode":"44-240","addr:city":"\u017bory","addr:street":"ul. Szkolna","addr:housenumber":"8","addr:teryt:simc":21970,"addr:teryt:sym_ul":945746,"contact:phone":"+48 324342611","contact:email":"sekretariat@zsp7.zory.pl","contact:website":"http:\/\/zsp7zory.edupage.org","ref:regon":"000728279","ref:vatin":"PL6511535685","operator":"Gmina Miejska \u017bory","operator:type":"government","amenity":"school","note":"Parent RSPO: 55625"}},{"id":55623,"type":"Feature","geometry":{"type":"Point","coordinates":[18.71077,50.02043]},"properties":{"ref:rspo":55623,"official_name":"Zesp\u00f3\u0142 Szkolno-Przedszkolny Nr 5 w \u017borach","name":"Zesp\u00f3\u0142 Szkolno-Przedszkolny Nr 5 w \u017borach","addr:country":"PL","addr:postcode":"44-240","addr:city":"\u017bory","addr:street":"ul. Stra\u017cacka","addr:housenumber":"6","addr:teryt:simc":21271,"addr:teryt:sym_ul":945746,"contact:phone":"+48 324353677","contact:email":"sekretariat@zsp5zory.pl","contact:website":"http:\/\/www.zsp5zory.pl","ref:regon":"240707239","ref:vatin":"PL6511672956","operator":"Gmina Miejska \u017bory","operator:type":"government","landuse":"education","fixme":"amenity=school, amenity=college albo landuse=education w zale\u017cno\u015bci od tego, jakie plac\u00f3wki wchodz\u0105 w sk\u0142ad zespo\u0142u. Sprawd\u017a, kiedy stosowa\u0107 amenity=* a kiedy landuse=education.","note":"Children RSPO: 92798;92799"}},{"id":92798,"type":"Feature","geometry":{"type":"Point","coordinates":[18.71077,50.020399999999995]},"properties":{"ref:rspo":92798,"official_name":"Przedszkole Nr 12 w \u017borach","name":"Przedszkole Nr 12 w \u017borach","addr:country":"PL","addr:postcode":"44-240","addr:city":"\u017bory","addr:street":"ul. Stra\u017cacka","addr:housenumber":"6","addr:teryt:simc":21271,"addr:teryt:sym_ul":945746,"contact:phone":"+48 324353677","contact:email":"sekretariat@zsp5zory.pl","contact:website":"http:\/\/zsp5zory.pl","ref:regon":"271511578","ref:vatin":"PL6511535656","operator":"Gmina Miejska \u017bory","operator:type":"government","amenity":"kindergarten","note":"Parent RSPO: 55623"}},{"id":92799,"type":"Feature","geometry":{"type":"Point","coordinates":[18.71077,50.02037]},"properties":{"isced:level":"1;2","ref:rspo":92799,"official_name":"Szko\u0142a Podstawowa Nr 5 w \u017borach","name":"Szko\u0142a Podstawowa Nr 5 w \u017borach","addr:country":"PL","addr:postcode":"44-240","addr:city":"\u017bory","addr:street":"ul. Stra\u017cacka","addr:housenumber":"6","addr:teryt:simc":21271,"addr:teryt:sym_ul":945746,"contact:phone":"+48 324353677","contact:email":"sekretariat@zsp5zory.pl","contact:website":"http:\/\/www.zsp5zory.pl","ref:regon":"000728256","ref:vatin":"PL6511535917","operator":"Gmina Miejska \u017bory","operator:type":"government","amenity":"school","note":"Parent RSPO: 55623"}},{"id":85594,"type":"Feature","geometry":{"type":"Point","coordinates":[18.6919718,50.0262912]},"properties":{"ref:rspo":85594,"official_name":"Niepubliczne Przedszkole Weso\u0142e Krasnoludki","name":"Niepubliczne Przedszkole Weso\u0142e Krasnoludki","addr:country":"PL","addr:postcode":"44-240","addr:city":"\u017bory","addr:street":"ul. Osi\u0144ska","addr:housenumber":"80","addr:teryt:simc":15312,"addr:teryt:sym_ul":945746,"contact:phone":"+48 693502067","contact:email":"biuro@wesolekrasnoludki.pl","contact:website":"http:\/\/www.wesolekrasnoludki.pl","ref:regon":"243099289","ref:vatin":"PL6332010210","operator":"Dominika Brzezinka","operator:type":"private","amenity":"kindergarten"}},{"id":113841,"type":"Feature","geometry":{"type":"Point","coordinates":[18.68893,50.02793]},"properties":{"ref:rspo":113841,"official_name":"Niepubliczne Przedszkole Specjalne dla Dzieci Z Autyzmem I Zespo\u0142em Aspergera Przy O\u015brodku Medyczno-Terapeutycznym \"Syriusz\" w \u017borach","name":"Niepubliczne Przedszkole Specjalne dla Dzieci Z Autyzmem I Zespo\u0142em Aspergera Przy O\u015brodku Medyczno-Terapeutycznym \"Syriusz\" w \u017borach","addr:country":"PL","addr:postcode":"44-240","addr:city":"\u017bory","addr:street":"ul. Promienna","addr:housenumber":"5A","addr:teryt:simc":17534,"addr:teryt:sym_ul":945746,"contact:phone":"+48 327245921","contact:email":"edukacja@nzozsyriusz.pl","contact:website":"http:\/\/www.nzozsyriusz.pl","ref:regon":"243247695","ref:vatin":"PL6511719764","operator":"Jadwiga Trzetrzelewska","operator:type":"private","amenity":"kindergarten"}},{"id":268772,"type":"Feature","geometry":{"type":"Point","coordinates":[18.68893,50.027899999999995]},"properties":{"isced:level":"1;2","ref:rspo":268772,"official_name":"Niepubliczna Szko\u0142a Podstawowa Specjalna dla Dzieci Z Autyzmem I Zespo\u0142em Aspergera Przy O\u015brodku Medyczno-Terapeutycznym \"Syriusz\"","name":"Niepubliczna Szko\u0142a Podstawowa Specjalna dla Dzieci Z Autyzmem I Zespo\u0142em Aspergera Przy O\u015brodku Medyczno-Terapeutycznym \"Syriusz\"","addr:country":"PL","addr:postcode":"44-240","addr:city":"\u017bory","addr:street":"ul. Promienna","addr:housenumber":"5A","addr:teryt:simc":17534,"addr:teryt:sym_ul":945746,"contact:phone":"+48 327231274","contact:email":"edukacja@nzozsyriusz.pl","contact:website":"http:\/\/www.nzozsyriusz.pl","ref:regon":"381247231","operator":"Aleksandra Lamparska-Warchalska","operator:type":"private","amenity":"school"}},{"id":275392,"type":"Feature","geometry":{"type":"Point","coordinates":[18.65571,50.02877]},"properties":{"ref:rspo":275392,"official_name":"Dobre Przedszkole","name":"Dobre Przedszkole","addr:country":"PL","addr:postcode":"44-240","addr:city":"\u017bory","addr:street":"ul. Bratys\u0142awska","addr:housenumber":"14","addr:teryt:simc":2063,"addr:teryt:sym_ul":945746,"contact:phone":"+48 327231666","contact:email":"auzemerym@gmail.com","contact:website":"http:\/\/www.dobreprzedszkole.org","ref:regon":"386834275","operator":"Monika Auz\u00e9m\u00e9ry","operator:type":"private","amenity":"kindergarten"}},{"id":48539,"type":"Feature","geometry":{"type":"Point","coordinates":[18.70098,50.02885]},"properties":{"isced:level":"1;2","ref:rspo":48539,"official_name":"Szko\u0142a Podstawowa Nr 15 Z Oddzia\u0142ami Sportowymi w \u017borach","name":"Szko\u0142a Podstawowa Nr 15 Z Oddzia\u0142ami Sportowymi w \u017borach","addr:country":"PL","addr:postcode":"44-240","addr:city":"\u017bory","addr:street":"ul. Bankowa","addr:housenumber":"1","addr:teryt:simc":692,"addr:teryt:sym_ul":945746,"contact:phone":"+48 324343925","contact:email":"szkola_podstawowa15@wp.pl","contact:website":"http:\/\/sp15-zory.pl","ref:regon":"272537686","ref:vatin":"PL6511535975","operator":"Gmina Miejska \u017bory","operator:type":"government","amenity":"school"}},{"id":126137,"type":"Feature","geometry":{"type":"Point","coordinates":[18.70098,50.028819999999996]},"properties":{"ref:rspo":126137,"official_name":"Niepubliczna Plac\u00f3wka Artystyczna Centrum Edukacji Dariusz Kempny","name":"Niepubliczna Plac\u00f3wka Artystyczna Centrum Edukacji Dariusz Kempny","addr:country":"PL","addr:postcode":"44-240","addr:city":"\u017bory","addr:street":"ul. Bankowa","addr:housenumber":"1","addr:teryt:simc":692,"addr:teryt:sym_ul":945746,"contact:phone":"+48 664433771","contact:email":"sekretariat@centrum.edukacji.pl","contact:website":"http:\/\/www.centrum-edukacji.pl","ref:regon":"360156105","operator":"Dariusz Kempny","operator:type":"private","fixme":"w zale\u017cno\u015bci od przedmiotu dzia\u0142alno\u015bci (np. amenity=community_centre + community_centre:for=child;juvenile, amenity=training + training=*, amenity=dancing_school, amenity=music_school),"}},{"id":55619,"type":"Feature","geometry":{"type":"Point","coordinates":[18.69046,50.02895]},"properties":{"ref:rspo":55619,"official_name":"Zesp\u00f3\u0142 Szk\u00f3\u0142 Nr 3 w \u017borach","name":"Zesp\u00f3\u0142 Szk\u00f3\u0142 Nr 3 w \u017borach","addr:country":"PL","addr:postcode":"44-240","addr:city":"\u017bory","addr:street":"os. Osiedle Sikorskiego","addr:housenumber":"52","addr:teryt:simc":46956,"addr:teryt:sym_ul":945746,"contact:email":"zs3zory@zs3zory.pl","contact:website":"http:\/\/www.zs3zory.pl","ref:regon":"240711198","ref:vatin":"PL6511672962","operator":"Gmina Miejska \u017bory","operator:type":"government","landuse":"education","fixme":"amenity=school, amenity=college albo landuse=education w zale\u017cno\u015bci od tego, jakie plac\u00f3wki wchodz\u0105 w sk\u0142ad zespo\u0142u. Sprawd\u017a, kiedy stosowa\u0107 amenity=* a kiedy landuse=education.","note":"Children RSPO: 107049;128836;263943"}},{"id":123075,"type":"Feature","geometry":{"type":"Point","coordinates":[18.69046,50.02892]},"properties":{"isced:level":"1;2","ref:rspo":123075,"official_name":"Niepubliczna Szko\u0142a Mistrzostwa Sportowego","name":"Niepubliczna Szko\u0142a Mistrzostwa Sportowego","addr:country":"PL","addr:postcode":"44-240","addr:city":"\u017bory","addr:street":"os. Osiedle Sikorskiego","addr:housenumber":"52","addr:teryt:simc":46956,"addr:teryt:sym_ul":945746,"contact:phone":"+48 507757735","contact:email":"sekretariat@sms.zory.edu.pl","contact:website":"http:\/\/www.sms.zory.edu.pl","ref:regon":"243565165","ref:vatin":"PL6511715401","operator":"Olympic.edu Sp\u00f3\u0142ka Z Ograniczon\u0105 Odpowiedzialno\u015bci\u0105","operator:type":"private","amenity":"school"}},{"id":107049,"type":"Feature","geometry":{"type":"Point","coordinates":[18.69046,50.028890000000004]},"properties":{"isced:level":"3","ref:rspo":107049,"official_name":"Iii Liceum Og\u00f3lnokszta\u0142c\u0105ce Z Oddzia\u0142ami Mistrzostwa Sportowego im. Zbigniewa Herberta w \u017borach","name":"Iii Liceum Og\u00f3lnokszta\u0142c\u0105ce Z Oddzia\u0142ami Mistrzostwa Sportowego","addr:country":"PL","addr:postcode":"44-240","addr:city":"\u017bory","addr:street":"os. Osiedle Sikorskiego","addr:housenumber":"52","addr:teryt:simc":46956,"addr:teryt:sym_ul":945746,"contact:phone":"+48 601165548","contact:email":"zs3zory@zs3zory.pl","contact:website":"http:\/\/www.zs3zory.pl","ref:regon":"272675170","ref:vatin":"PL6511672962","operator":"Gmina Miejska \u017bory","operator:type":"government","amenity":"school","note":"Parent RSPO: 55619"}},{"id":128836,"type":"Feature","geometry":{"type":"Point","coordinates":[18.69046,50.02886]},"properties":{"isced:level":"3","ref:rspo":128836,"official_name":"Liceum Sztuk Plastycznych w \u017borach","name":"Liceum Sztuk Plastycznych w \u017borach","addr:country":"PL","addr:postcode":"44-240","addr:city":"\u017bory","addr:street":"os. Osiedle Sikorskiego","addr:housenumber":"52","addr:teryt:simc":46956,"addr:teryt:sym_ul":945746,"contact:phone":"+48 601165548","contact:email":"zs3zory@zs3zory.pl","contact:website":"http:\/\/www.zs3zory.pl","ref:regon":"362398930","operator":"Gmina Miejska \u017bory","operator:type":"government","amenity":"school","note":"Parent RSPO: 55619"}},{"id":263943,"type":"Feature","geometry":{"type":"Point","coordinates":[18.69046,50.02883]},"properties":{"isced:level":"1;2","ref:rspo":263943,"official_name":"Szko\u0142a Podstawowa Nr 14 Mistrzostwa Sportowego im. Jacka Kuronia w \u017borach","name":"Szko\u0142a Podstawowa Nr 14 Mistrzostwa Sportowego","addr:country":"PL","addr:postcode":"44-240","addr:city":"\u017bory","addr:street":"os. Osiedle Sikorskiego","addr:housenumber":"52","addr:teryt:simc":46956,"addr:teryt:sym_ul":945746,"contact:email":"zs3zory@zs3zory.pl","contact:website":"http:\/\/www.zs3zory.pl","ref:regon":"368245877","operator":"Gmina Miejska \u017bory","operator:type":"government","amenity":"school","note":"Parent RSPO: 55619"}},{"id":55610,"type":"Feature","geometry":{"type":"Point","coordinates":[18.62704,50.0311499]},"properties":{"ref:rspo":55610,"official_name":"Zesp\u00f3\u0142 Szkolno - Przedszkolny Nr 11","name":"Zesp\u00f3\u0142 Szkolno - Przedszkolny Nr 11","addr:country":"PL","addr:postcode":"44-240","addr:city":"\u017bory","addr:street":"ul. Wodzis\u0142awska","addr:housenumber":"201","addr:teryt:simc":24572,"addr:teryt:sym_ul":945746,"contact:phone":"+48 324358735","contact:email":"zsp11zorysekretariat@onet.pl","contact:website":"http:\/\/www.zsp11zory.edupage.org","ref:regon":"240129854","ref:vatin":"PL6511643937","operator":"Gmina Miejska \u017bory","operator:type":"government","landuse":"education","fixme":"amenity=school, amenity=college albo landuse=education w zale\u017cno\u015bci od tego, jakie plac\u00f3wki wchodz\u0105 w sk\u0142ad zespo\u0142u. Sprawd\u017a, kiedy stosowa\u0107 amenity=* a kiedy landuse=education.","note":"Children RSPO: 55633;93003"}},{"id":55633,"type":"Feature","geometry":{"type":"Point","coordinates":[18.62704,50.0311199]},"properties":{"ref:rspo":55633,"official_name":"Przedszkole Nr 17 im. \u015aw. Jana Paw\u0142a II w \u017borach","name":"Przedszkole Nr 17","addr:country":"PL","addr:postcode":"44-240","addr:city":"\u017bory","addr:street":"ul. Wodzis\u0142awska","addr:housenumber":"201","addr:teryt:simc":24572,"addr:teryt:sym_ul":945746,"contact:phone":"+48 324358455","contact:email":"zoryp17@wp.pl","contact:website":"http:\/\/www.przedszkolenr17wzorach.republika.pl","ref:regon":"241446864","ref:vatin":"PL6511535840","operator":"Gmina Miejska \u017bory","operator:type":"government","amenity":"kindergarten","note":"Parent RSPO: 55610"}},{"id":93003,"type":"Feature","geometry":{"type":"Point","coordinates":[18.62704,50.031089900000005]},"properties":{"isced:level":"1;2","ref:rspo":93003,"official_name":"Szko\u0142a Podstawowa Nr 11 im. Gustawa Morcinka","name":"Szko\u0142a Podstawowa Nr 11","addr:country":"PL","addr:postcode":"44-240","addr:city":"\u017bory","addr:street":"ul. Wodzis\u0142awska","addr:housenumber":"201","addr:teryt:simc":24572,"addr:teryt:sym_ul":945746,"contact:phone":"+48 324358735","contact:email":"zsp11zorysekretariat@onet.pl","contact:website":"http:\/\/www.zsp11zory.edupage.org","ref:regon":"000728322","ref:vatin":"PL6511535946","operator":"Gmina Miejska \u017bory","operator:type":"government","amenity":"school","note":"Parent RSPO: 55610"}},{"id":55632,"type":"Feature","geometry":{"type":"Point","coordinates":[18.69228,50.0317]},"properties":{"ref:rspo":55632,"official_name":"Przedszkole Nr 16 im. Czes\u0142awa Janczarskiego w \u017borach","name":"Przedszkole Nr 16","addr:country":"PL","addr:postcode":"44-240","addr:city":"\u017bory","addr:street":"os. Sikorskiego","addr:teryt:simc":32630,"addr:teryt:sym_ul":945746,"contact:phone":"+48 324353109","contact:email":"p16zory@interia.pl","contact:website":"http:\/\/www.p16zory.pl","ref:regon":"241446953","ref:vatin":"PL6511535834","operator":"Gmina Miejska \u017bory","operator:type":"government","amenity":"kindergarten"}},{"id":278017,"type":"Feature","geometry":{"type":"Point","coordinates":[18.69637,50.03181]},"properties":{"isced:level":"1;2","ref:rspo":278017,"official_name":"Szko\u0142a Podstawowa Horyzont","name":"Szko\u0142a Podstawowa Horyzont","addr:country":"PL","addr:postcode":"44-240","addr:city":"\u017bory","addr:street":"ul. Za Targiem","addr:housenumber":"15","addr:teryt:simc":25243,"addr:teryt:sym_ul":945746,"contact:phone":"+48 792025401","contact:email":"biuro@szkolahoryzont.pl","contact:website":"http:\/\/szkolahoryzont.pl","ref:regon":"389745678","operator":"Dominika Brzezinka","operator:type":"private","amenity":"school"}},{"id":55638,"type":"Feature","geometry":{"type":"Point","coordinates":[18.6770299,50.0335899]},"properties":{"ref:rspo":55638,"official_name":"Przedszkole Nr 23 im. Lucyny Krzemienieckiej w \u017borach","name":"Przedszkole Nr 23","addr:country":"PL","addr:postcode":"44-240","addr:city":"\u017bory","addr:street":"os. Osiedle Pawlikowskiego","addr:housenumber":"41","addr:teryt:simc":46954,"addr:teryt:sym_ul":945746,"contact:phone":"+48 324343990","contact:email":"p-23zory@wp.pl","contact:website":"http:\/\/www.przedszkole23zory.edupage.org","ref:regon":"241446396","ref:vatin":"PL6511535610","operator":"Gmina Miejska \u017bory","operator:type":"government","amenity":"kindergarten"}},{"id":93050,"type":"Feature","geometry":{"type":"Point","coordinates":[18.6770299,50.0335599]},"properties":{"isced:level":"1;2","ref:rspo":93050,"official_name":"Szko\u0142a Podstawowa Nr 13 Z Oddzia\u0142ami Sportowymi I Mistrzostwa Sportowego im. Polskich Olimpijczyk\u00f3w w \u017borach","name":"Szko\u0142a Podstawowa Nr 13 Z Oddzia\u0142ami Sportowymi I Mistrzostwa Sportowego","addr:country":"PL","addr:postcode":"44-240","addr:city":"\u017bory","addr:street":"os. Osiedle Pawlikowskiego","addr:housenumber":"40","addr:teryt:simc":46954,"addr:teryt:sym_ul":945746,"contact:phone":"+48 324357492","contact:email":"zorysp13@gmail.com","contact:website":"http:\/\/www.sp13zory.pl","ref:regon":"001073053","ref:vatin":"PL6511629765","operator":"Gmina Miejska \u017bory","operator:type":"government","amenity":"school"}},{"id":103514,"type":"Feature","geometry":{"type":"Point","coordinates":[18.69463,50.03577]},"properties":{"isced:level":"1;2","ref:rspo":103514,"official_name":"Szko\u0142a Podstawowa Nr 16 Z Oddzia\u0142ami Integracyjnymi im. Marii Konopnickiej w \u017borach","name":"Szko\u0142a Podstawowa Nr 16 Z Oddzia\u0142ami Integracyjnymi","addr:country":"PL","addr:postcode":"44-240","addr:city":"\u017bory","addr:street":"ul. Osi\u0144ska","addr:housenumber":"50","addr:teryt:simc":15312,"addr:teryt:sym_ul":945746,"contact:phone":"+48 324345444","contact:email":"sp16zory@sp16.zory.pl","contact:website":"http:\/\/www.sp16.zory.pl","ref:regon":"000862368","ref:vatin":"PL6511629630","operator":"Gmina Miejska \u017bory","operator:type":"government","amenity":"school"}},{"id":114799,"type":"Feature","geometry":{"type":"Point","coordinates":[18.68475,50.03595]},"properties":{"ref:rspo":114799,"official_name":"Centrum Kszta\u0142cenia Zawodowego I Ustawicznego w \u017borach","name":"Centrum Kszta\u0142cenia Zawodowego I Ustawicznego w \u017borach","addr:country":"PL","addr:postcode":"44-240","addr:city":"\u017bory","addr:street":"os. Osiedle Ksi\u0119cia W\u0142adys\u0142awa","addr:housenumber":"28","addr:teryt:simc":46953,"addr:teryt:sym_ul":945746,"contact:phone":"+48 324345366","contact:email":"sekretariat@ckziu.zory.pl","contact:website":"http:\/\/www.ckziu.zory.pl","ref:regon":"243274976","ref:vatin":"PL6511715588","operator":"Gmina Miejska \u017bory","operator:type":"government","landuse":"education","fixme":"amenity=school, amenity=college albo landuse=education w zale\u017cno\u015bci od tego, jakie plac\u00f3wki wchodz\u0105 w sk\u0142ad zespo\u0142u. Sprawd\u017a, kiedy stosowa\u0107 amenity=* a kiedy landuse=education.","note":"Children RSPO: 118532;122656;122838;273455;275136"}},{"id":118532,"type":"Feature","geometry":{"type":"Point","coordinates":[18.68475,50.03592]},"properties":{"isced:level":"3","ref:rspo":118532,"official_name":"Liceum Og\u00f3lnokszta\u0142c\u0105ce dla Doros\u0142ych w \u017borach","name":"Liceum Og\u00f3lnokszta\u0142c\u0105ce dla Doros\u0142ych w \u017borach","addr:country":"PL","addr:postcode":"44-240","addr:city":"\u017bory","addr:street":"os. Osiedle Ksi\u0119cia W\u0142adys\u0142awa","addr:housenumber":"28","addr:teryt:simc":46953,"addr:teryt:sym_ul":945746,"contact:phone":"+48 324345366","contact:email":"sekretariat@ckziu.zory.pl","contact:website":"http:\/\/www.ckziu.zory.pl","ref:regon":"243333710","operator":"Gmina Miejska \u017bory","operator:type":"government","amenity":"school","note":"Parent RSPO: 114799"}},{"id":122656,"type":"Feature","geometry":{"type":"Point","coordinates":[18.68475,50.03589]},"properties":{"isced:level":"3","ref:rspo":122656,"official_name":"Technikum Nr 3 w \u017borach","name":"Technikum Nr 3 w \u017borach","addr:country":"PL","addr:postcode":"44-240","addr:city":"\u017bory","addr:street":"os. Osiedle Ksi\u0119cia W\u0142adys\u0142awa","addr:housenumber":"28","addr:teryt:simc":46953,"addr:teryt:sym_ul":945746,"contact:phone":"+48 324345366","contact:email":"sekretariat@ckziu.zory.pl","contact:website":"http:\/\/www.ckziu.zory.pl","ref:regon":"243523959","operator":"Gmina Miejska \u017bory","operator:type":"government","amenity":"school","note":"Parent RSPO: 114799"}},{"id":122838,"type":"Feature","geometry":{"type":"Point","coordinates":[18.68475,50.03586]},"properties":{"isced:level":"3","ref:rspo":122838,"official_name":"Bran\u017cowa Szko\u0142a I Stopnia w \u017borach","name":"Bran\u017cowa Szko\u0142a I Stopnia w \u017borach","addr:country":"PL","addr:postcode":"44-240","addr:city":"\u017bory","addr:street":"os. Osiedle Ksi\u0119cia W\u0142adys\u0142awa","addr:housenumber":"28","addr:teryt:simc":46953,"addr:teryt:sym_ul":945746,"contact:phone":"+48 324345366","contact:email":"sekretariat@ckziu.zory.pl","contact:website":"http:\/\/www.ckziu.zory.pl","ref:regon":"243537401","operator":"Gmina Miejska \u017bory","operator:type":"government","amenity":"school","note":"Parent RSPO: 114799"}},{"id":273455,"type":"Feature","geometry":{"type":"Point","coordinates":[18.68475,50.03583]},"properties":{"ref:rspo":273455,"official_name":"Centrum Kszta\u0142cenia Zawodowego","name":"Centrum Kszta\u0142cenia Zawodowego","addr:country":"PL","addr:postcode":"44-240","addr:city":"\u017bory","addr:street":"os. Osiedle Ksi\u0119cia W\u0142adys\u0142awa","addr:housenumber":"28","addr:teryt:simc":46953,"addr:teryt:sym_ul":945746,"contact:phone":"+48 324345366","contact:email":"sekretariat@ckziu.pl","contact:website":"http:\/\/www.ckziu.zory.pl","ref:regon":"384479077","operator":"Gmina Miejska \u017bory","operator:type":"government","fixme":"w zale\u017cno\u015bci od przedmiotu dzia\u0142alno\u015bci (np. amenity=training + training=*, amenity=dancing_school, amenity=language_school, amenity=music_school) albo amenity=school, amenity=college, albo landuse=education w zale\u017cno\u015bci od tego, jakie plac\u00f3wki wchodz\u0105 w sk\u0142ad zespo\u0142u. Sprawd\u017a, kiedy stosowa\u0107 amenity=* a kiedy landuse=education.","note":"Parent RSPO: 114799"}},{"id":275136,"type":"Feature","geometry":{"type":"Point","coordinates":[18.68475,50.0358]},"properties":{"isced:level":"3","ref:rspo":275136,"official_name":"Bran\u017cowa Szko\u0142a II Stopnia w \u017borach","name":"Bran\u017cowa Szko\u0142a II Stopnia w \u017borach","addr:country":"PL","addr:postcode":"44-240","addr:city":"\u017bory","addr:street":"os. Osiedle Ksi\u0119cia W\u0142adys\u0142awa","addr:housenumber":"28","addr:teryt:simc":46953,"addr:teryt:sym_ul":945746,"contact:phone":"+48 324345366","contact:email":"sekretariat@ckziu.zory.pl","contact:website":"http:\/\/www.ckziu.zory.pl","ref:regon":"386608410","operator":"Gmina Miejska \u017bory","operator:type":"government","amenity":"school","note":"Parent RSPO: 114799"}},{"id":55626,"type":"Feature","geometry":{"type":"Point","coordinates":[18.6538499,50.03596]},"properties":{"ref:rspo":55626,"official_name":"Zesp\u00f3\u0142 Szkolno-Przedszkolny Nr 8 w \u017borach","name":"Zesp\u00f3\u0142 Szkolno-Przedszkolny Nr 8 w \u017borach","addr:country":"PL","addr:postcode":"44-240","addr:city":"\u017bory","addr:street":"ul. Wysoka","addr:housenumber":"13","addr:teryt:simc":25067,"addr:teryt:sym_ul":945746,"contact:phone":"+48 324358112","contact:email":"zorysp8@poczta.onet.pl","contact:website":"http:\/\/www.zspzory8.pl","ref:regon":"241606931","ref:vatin":"PL6511704194","operator":"Gmina Miejska \u017bory","operator:type":"government","landuse":"education","fixme":"amenity=school, amenity=college albo landuse=education w zale\u017cno\u015bci od tego, jakie plac\u00f3wki wchodz\u0105 w sk\u0142ad zespo\u0142u. Sprawd\u017a, kiedy stosowa\u0107 amenity=* a kiedy landuse=education.","note":"Children RSPO: 92795;92800"}},{"id":92795,"type":"Feature","geometry":{"type":"Point","coordinates":[18.6538499,50.03593]},"properties":{"isced:level":"1;2","ref:rspo":92795,"official_name":"Szko\u0142a Podstawowa Nr 8 im. Adama Mickiewicza w \u017borach","name":"Szko\u0142a Podstawowa Nr 8","addr:country":"PL","addr:postcode":"44-240","addr:city":"\u017bory","addr:street":"ul. Wysoka","addr:housenumber":"13","addr:teryt:simc":25067,"addr:teryt:sym_ul":945746,"contact:phone":"+48 324358112","contact:email":"zorysp8@poczta.onet.pl","contact:website":"http:\/\/www.zspzory8.pl","ref:regon":"000728285","ref:vatin":"PL6511535923","operator":"Gmina Miejska \u017bory","operator:type":"government","amenity":"school","note":"Parent RSPO: 55626"}},{"id":92800,"type":"Feature","geometry":{"type":"Point","coordinates":[18.6538499,50.035900000000005]},"properties":{"ref:rspo":92800,"official_name":"Przedszkole Nr 8 w \u017borach","name":"Przedszkole Nr 8 w \u017borach","addr:country":"PL","addr:postcode":"44-240","addr:city":"\u017bory","addr:street":"ul. Wysoka","addr:housenumber":"13","addr:teryt:simc":25067,"addr:teryt:sym_ul":945746,"contact:phone":"+48 324358112","contact:email":"p8rogozna@o2.pl","contact:website":"http:\/\/www.sp8zory.neostrada.pl\/","ref:regon":"241447036","ref:vatin":"PL6511535811","operator":"Gmina Miejska \u017bory","operator:type":"government","amenity":"kindergarten","note":"Parent RSPO: 55626"}},{"id":274634,"type":"Feature","geometry":{"type":"Point","coordinates":[18.69032,50.03633]},"properties":{"ref:rspo":274634,"official_name":"Centrum Szkoleniowe Ecochic Agata Cio\u0142ek","name":"Centrum Szkoleniowe Ecochic Agata Cio\u0142ek","addr:country":"PL","addr:postcode":"44-240","addr:city":"\u017bory","addr:street":"ul. Centralna","addr:housenumber":"37","addr:door":"1","addr:teryt:simc":2614,"addr:teryt:sym_ul":945746,"contact:phone":"+48 696799033","contact:email":"biuro.ecochic@gmail.com","contact:website":"http:\/\/www.ecochic.pl","ref:regon":"386117036","operator":"Agata Cio\u0142ek","operator:type":"private","fixme":"w zale\u017cno\u015bci od przedmiotu dzia\u0142alno\u015bci (np. amenity=training + training=*, amenity=dancing_school, amenity=language_school, amenity=music_school)"}},{"id":127077,"type":"Feature","geometry":{"type":"Point","coordinates":[18.6903599,50.03643]},"properties":{"ref:rspo":127077,"official_name":"\"Akademia Nauki I Rozwoju\"","name":"\"Akademia Nauki I Rozwoju\"","addr:country":"PL","addr:postcode":"44-240","addr:city":"\u017bory","addr:street":"ul. Centralna","addr:housenumber":"35","addr:door":"1","addr:teryt:simc":2614,"addr:teryt:sym_ul":945746,"contact:phone":"+48 515135419","contact:email":"info@akademiazory.pl","contact:website":"http:\/\/www.akademiazory.pl","ref:regon":"361081013","operator":"Diana Kaczmarczyk","operator:type":"private","fixme":"w zale\u017cno\u015bci od przedmiotu dzia\u0142alno\u015bci (np. amenity=training + training=*, amenity=dancing_school, amenity=language_school, amenity=music_school)"}},{"id":48543,"type":"Feature","geometry":{"type":"Point","coordinates":[18.6819099,50.03699]},"properties":{"isced:level":"1;2","ref:rspo":48543,"official_name":"Szko\u0142a Podstawowa Nr 17 Z Oddzia\u0142ami Sportowymi I Mistrzostwa Sportowego im. Stanis\u0142awa Ligonia w \u017borach","name":"Szko\u0142a Podstawowa Nr 17 Z Oddzia\u0142ami Sportowymi I Mistrzostwa Sportowego","addr:country":"PL","addr:postcode":"44-240","addr:city":"\u017bory","addr:street":"ul. D\u0105browskiego","addr:housenumber":"15","addr:teryt:simc":3667,"addr:teryt:sym_ul":945746,"contact:phone":"+48 324342563","contact:email":"sp17@poczta.onet.pl","contact:website":"http:\/\/www.sp17.zory.pl","ref:regon":"000836030","ref:vatin":"PL6511535981","operator":"Gmina Miejska \u017bory","operator:type":"government","amenity":"school"}},{"id":55631,"type":"Feature","geometry":{"type":"Point","coordinates":[18.68853,50.03724]},"properties":{"ref:rspo":55631,"official_name":"Przedszkole Nr 13 im. H. Ch. Andersena w \u017borach","name":"Przedszkole Nr 13","addr:country":"PL","addr:postcode":"44-240","addr:city":"\u017bory","addr:street":"ul. Piast\u00f3w G\u00f3rno\u015bl\u0105skich","addr:housenumber":"3","addr:teryt:simc":37900,"addr:teryt:sym_ul":945746,"contact:phone":"+48 324342635","contact:email":"przedszkole13@onet.eu","contact:website":"http:\/\/www.przedszkole13.eu","ref:regon":"241447007","ref:vatin":"PL6511535828","operator":"Gmina Miejska \u017bory","operator:type":"government","amenity":"kindergarten"}},{"id":85582,"type":"Feature","geometry":{"type":"Point","coordinates":[18.69604,50.0374]},"properties":{"ref:rspo":85582,"official_name":"Niepubliczny Punkt Przedszkolny \"Chatka Puchatka\"","name":"Niepubliczny Punkt Przedszkolny \"Chatka Puchatka\"","addr:country":"PL","addr:postcode":"44-240","addr:city":"\u017bory","addr:street":"ul. Osi\u0144ska","addr:housenumber":"37","addr:door":"A","addr:teryt:simc":15312,"addr:teryt:sym_ul":945746,"contact:phone":"+48 785054997","contact:email":"jola_biskupska@wp.pl","contact:website":"http:\/\/www.chatkapuchatka.webd.pl\/","ref:regon":"243097557","ref:vatin":"PL6511590046","operator":"Jolanta Kr\u00f3l","operator:type":"private","amenity":"kindergarten"}},{"id":66131,"type":"Feature","geometry":{"type":"Point","coordinates":[18.6887243,50.0378383]},"properties":{"ref:rspo":66131,"official_name":"O\u015brodek Rehabilitacyjno-Edukacyjno-Wychowawczy dla Dzieci Upo\u015bledzonych Umys\u0142owo","name":"O\u015brodek Rehabilitacyjno-Edukacyjno-Wychowawczy dla Dzieci Upo\u015bledzonych Umys\u0142owo","addr:country":"PL","addr:postcode":"44-240","addr:city":"\u017bory","addr:street":"ul. Piast\u00f3w G\u00f3rno\u015bl\u0105skich","addr:housenumber":"8","addr:teryt:simc":37900,"addr:teryt:sym_ul":945746,"contact:phone":"+48 324752048","contact:email":"orew.zory@psouu.org.pl","contact:website":"http:\/\/www.psoni.zory.pl","ref:regon":"243092347","ref:vatin":"PL6511686786","operator":"Polskie Stowarzyszenie Na Rzecz Os\u00f3b Z Niepe\u0142nosprawno\u015bci\u0105 Intelektualn\u0105 Ko\u0142o W \u017borach","operator:type":"ngo","amenity":"school"}},{"id":55634,"type":"Feature","geometry":{"type":"Point","coordinates":[18.68053,50.03906]},"properties":{"ref:rspo":55634,"official_name":"Przedszkole Nr 19 im. Juliana Tuwima w \u017borach","name":"Przedszkole Nr 19","addr:country":"PL","addr:postcode":"44-240","addr:city":"\u017bory","addr:street":"os. Osiedle Powsta\u0144c\u00f3w \u015al\u0105skich","addr:housenumber":"24A","addr:teryt:simc":46955,"addr:teryt:sym_ul":945746,"contact:phone":"+48 324342400","contact:email":"p19@poczta.onet.eu","contact:website":"http:\/\/www.p19.zory.pl","ref:regon":"241446752","ref:vatin":"PL6511535857","operator":"Gmina Miejska \u017bory","operator:type":"government","amenity":"kindergarten"}},{"id":110218,"type":"Feature","geometry":{"type":"Point","coordinates":[18.62718,50.03944]},"properties":{"ref:rspo":110218,"official_name":"O\u015brodek Szkolenia Ad Acta Sp. Z O.o","name":"O\u015brodek Szkolenia Ad Acta Sp. Z O.o","addr:country":"PL","addr:postcode":"44-240","addr:city":"\u017bory","addr:street":"ul. W\u0119glowa","addr:housenumber":"11","addr:teryt:simc":23934,"addr:teryt:sym_ul":945746,"contact:phone":"+48 324358785","ref:regon":"243193143","ref:vatin":"PL6511599691","operator":"Ad Acta Sp\u00f3\u0142ka Z Ograniczon\u0105 Odpowiedzialno\u015bci\u0105","operator:type":"private","fixme":"w zale\u017cno\u015bci od przedmiotu dzia\u0142alno\u015bci (np. amenity=training + training=*, amenity=dancing_school, amenity=language_school, amenity=music_school) albo amenity=school, amenity=college, albo landuse=education w zale\u017cno\u015bci od tego, jakie plac\u00f3wki wchodz\u0105 w sk\u0142ad zespo\u0142u. Sprawd\u017a, kiedy stosowa\u0107 amenity=* a kiedy landuse=education."}},{"id":124696,"type":"Feature","geometry":{"type":"Point","coordinates":[18.62718,50.03941]},"properties":{"ref:rspo":124696,"official_name":"Niepubliczne Centrum Kszta\u0142cenia Ustawicznego I Praktycznego Sztolnia. Pl","name":"Niepubliczne Centrum Kszta\u0142cenia Ustawicznego I Praktycznego Sztolnia. Pl","addr:country":"PL","addr:postcode":"44-240","addr:city":"\u017bory","addr:street":"ul. W\u0119glowa","addr:housenumber":"11","addr:teryt:simc":23934,"addr:teryt:sym_ul":945746,"contact:phone":"+48 664754655","contact:email":"biuro@sztolnia.pl","ref:regon":"243661331","operator":"Carbon - Silesia Sp\u00f3\u0142ka Z Ograniczon\u0105 Odpowiedzialno\u015bci\u0105 Sp\u00f3\u0142ka Komandytowa","operator:type":"private","fixme":"w zale\u017cno\u015bci od przedmiotu dzia\u0142alno\u015bci (np. amenity=training + training=*, amenity=dancing_school, amenity=language_school, amenity=music_school)"}},{"id":55615,"type":"Feature","geometry":{"type":"Point","coordinates":[18.68863,50.04015]},"properties":{"ref:rspo":55615,"official_name":"Zesp\u00f3\u0142 Szk\u00f3\u0142 Specjalnych im. Matki Teresy Z Kalkuty w \u017borach","name":"Zesp\u00f3\u0142 Szk\u00f3\u0142 Specjalnych","addr:country":"PL","addr:postcode":"44-240","addr:city":"\u017bory","addr:street":"ul. Bory\u0144ska","addr:housenumber":"54","addr:teryt:simc":1898,"addr:teryt:sym_ul":945746,"contact:phone":"+48 324343318","contact:email":"zsszory@poczta.onet.pl","contact:website":"http:\/\/www.zsszory.pl","ref:regon":"276684421","ref:vatin":"PL6511561458","operator":"Gmina Miejska \u017bory","operator:type":"government","landuse":"education","fixme":"amenity=school, amenity=college albo landuse=education w zale\u017cno\u015bci od tego, jakie plac\u00f3wki wchodz\u0105 w sk\u0142ad zespo\u0142u. Sprawd\u017a, kiedy stosowa\u0107 amenity=* a kiedy landuse=education.","note":"Children RSPO: 104418;111081;111082"}},{"id":271659,"type":"Feature","geometry":{"type":"Point","coordinates":[18.68863,50.040119999999995]},"properties":{"isced:level":"1;2","ref:rspo":271659,"official_name":"Szko\u0142a Podstawowa Nr 4 Z Oddzia\u0142ami Sportowymi I Mistrzostwa Sportowego w \u017borach","name":"Szko\u0142a Podstawowa Nr 4 Z Oddzia\u0142ami Sportowymi I Mistrzostwa Sportowego w \u017borach","addr:country":"PL","addr:postcode":"44-240","addr:city":"\u017bory","addr:street":"ul. Bory\u0144ska","addr:housenumber":"38C","addr:teryt:simc":1898,"addr:teryt:sym_ul":945746,"contact:phone":"+48 324341762","contact:email":"sp4zory@gmail.com","contact:website":"http:\/\/www.sp4zory.org","ref:regon":"383496375","operator":"Gmina Miejska \u017bory","operator:type":"government","amenity":"school"}},{"id":104418,"type":"Feature","geometry":{"type":"Point","coordinates":[18.68863,50.04009]},"properties":{"isced:level":"1;2","ref:rspo":104418,"official_name":"Szko\u0142a Podstawowa Nr 12","name":"Szko\u0142a Podstawowa Nr 12","addr:country":"PL","addr:postcode":"44-240","addr:city":"\u017bory","addr:street":"ul. Bory\u0144ska","addr:housenumber":"54","addr:teryt:simc":1898,"addr:teryt:sym_ul":945746,"contact:phone":"+48 324343318","contact:email":"zsszory@poczta.onet.pl","contact:website":"http:\/\/www.zsszory.pl","ref:regon":"001004460","ref:vatin":"PL6511530966","operator":"Gmina Miejska \u017bory","operator:type":"government","amenity":"school","note":"Parent RSPO: 55615"}},{"id":111081,"type":"Feature","geometry":{"type":"Point","coordinates":[18.68863,50.04006]},"properties":{"isced:level":"3","ref:rspo":111081,"official_name":"Bran\u017cowa Szko\u0142a I Stopnia Specjalna","name":"Bran\u017cowa Szko\u0142a I Stopnia Specjalna","addr:country":"PL","addr:postcode":"44-240","addr:city":"\u017bory","addr:street":"ul. Bory\u0144ska","addr:housenumber":"54","addr:teryt:simc":1898,"addr:teryt:sym_ul":945746,"contact:phone":"+48 324343318","contact:email":"zsszory@poczta.onet.pl","contact:website":"http:\/\/www.zasszory.pl","ref:regon":"277902417","ref:vatin":"PL6511561458","operator":"Gmina Miejska \u017bory","operator:type":"government","amenity":"school","note":"Parent RSPO: 55615"}},{"id":111082,"type":"Feature","geometry":{"type":"Point","coordinates":[18.68863,50.040029999999994]},"properties":{"ref:rspo":111082,"official_name":"Szko\u0142a Przysposabiaj\u0105ca Do Pracy","name":"Szko\u0142a Przysposabiaj\u0105ca Do Pracy","addr:country":"PL","addr:postcode":"44-240","addr:city":"\u017bory","addr:street":"ul. Bory\u0144ska","addr:housenumber":"54","addr:teryt:simc":1898,"addr:teryt:sym_ul":945746,"contact:phone":"+48 324343318","contact:email":"zsszory@poczta.onet.pl","contact:website":"http:\/\/www.zsszory.pl","ref:regon":"240158293","ref:vatin":"PL6511561458","operator":"Gmina Miejska \u017bory","operator:type":"government","amenity":"school","note":"Parent RSPO: 55615"}},{"id":55624,"type":"Feature","geometry":{"type":"Point","coordinates":[18.72203,50.04137]},"properties":{"ref:rspo":55624,"official_name":"Zesp\u00f3\u0142 Szkolno-Przedszkolny Nr 6 w \u017borach","name":"Zesp\u00f3\u0142 Szkolno-Przedszkolny Nr 6 w \u017borach","addr:country":"PL","addr:postcode":"44-240","addr:city":"\u017bory","addr:street":"ul. Pszczy\u0144ska","addr:housenumber":"81","addr:teryt:simc":18045,"addr:teryt:sym_ul":945746,"contact:phone":"+48 324342457","contact:email":"sp6zory@poczta.onet.pl","contact:website":"http:\/\/www.zsp6.zory.pl","ref:regon":"273648040","ref:vatin":"PL6511535662","operator":"Gmina Miejska \u017bory","operator:type":"government","landuse":"education","fixme":"amenity=school, amenity=college albo landuse=education w zale\u017cno\u015bci od tego, jakie plac\u00f3wki wchodz\u0105 w sk\u0142ad zespo\u0142u. Sprawd\u017a, kiedy stosowa\u0107 amenity=* a kiedy landuse=education.","note":"Children RSPO: 86894;93087"}},{"id":86894,"type":"Feature","geometry":{"type":"Point","coordinates":[18.72203,50.04134]},"properties":{"isced:level":"1;2","ref:rspo":86894,"official_name":"Szko\u0142a Podstawowa Nr 6 im. Tadeusza Ko\u015bciuszki w \u017borach","name":"Szko\u0142a Podstawowa Nr 6","addr:country":"PL","addr:postcode":"44-240","addr:city":"\u017bory","addr:street":"ul. Pszczy\u0144ska","addr:housenumber":"81","addr:teryt:simc":18045,"addr:teryt:sym_ul":945746,"contact:phone":"+48 324342457","contact:email":"sp6zory@poczta.onet.pl","contact:website":"http:\/\/www.zsp6.zory.pl","ref:regon":"000728262","ref:vatin":"PL6511535662","operator":"Gmina Miejska \u017bory","operator:type":"government","amenity":"school","note":"Parent RSPO: 55624"}},{"id":93087,"type":"Feature","geometry":{"type":"Point","coordinates":[18.72203,50.04131]},"properties":{"ref:rspo":93087,"official_name":"Przedszkole Nr 6 im. Marii Kownackiej w \u017borach","name":"Przedszkole Nr 6","addr:country":"PL","addr:postcode":"44-240","addr:city":"\u017bory","addr:street":"ul. Pszczy\u0144ska","addr:housenumber":"81","addr:teryt:simc":18045,"addr:teryt:sym_ul":945746,"contact:phone":"+48 324342457","contact:email":"sp6zory@poczta.onet.pl","contact:website":"http:\/\/www.zsp6.zory.pl","ref:regon":"271511526","ref:vatin":"PL6511535662","operator":"Gmina Miejska \u017bory","operator:type":"government","amenity":"kindergarten","note":"Parent RSPO: 55624"}},{"id":55617,"type":"Feature","geometry":{"type":"Point","coordinates":[18.68704,50.0414699]},"properties":{"ref:rspo":55617,"official_name":"Zesp\u00f3\u0142 Szk\u00f3\u0142 Nr 2 im. Ks. Prof. J\u00f3zefa Tischnera w \u017borach","name":"Zesp\u00f3\u0142 Szk\u00f3\u0142 Nr 2","addr:country":"PL","addr:postcode":"44-240","addr:city":"\u017bory","addr:street":"ul. Bory\u0144ska","addr:housenumber":"2","addr:teryt:simc":1898,"addr:teryt:sym_ul":945746,"contact:phone":"+48 324342076","contact:email":"sekretariat@zs2zory.pl","contact:website":"http:\/\/www.zs2.zory.pl","ref:regon":"000679470","ref:vatin":"PL6511535403","operator":"Gmina Miejska \u017bory","operator:type":"government","landuse":"education","fixme":"amenity=school, amenity=college albo landuse=education w zale\u017cno\u015bci od tego, jakie plac\u00f3wki wchodz\u0105 w sk\u0142ad zespo\u0142u. Sprawd\u017a, kiedy stosowa\u0107 amenity=* a kiedy landuse=education.","note":"Children RSPO: 109122;109285"}},{"id":109122,"type":"Feature","geometry":{"type":"Point","coordinates":[18.68704,50.0414399]},"properties":{"isced:level":"3","ref:rspo":109122,"official_name":"Technikum Nr 2 w \u017borach","name":"Technikum Nr 2 w \u017borach","addr:country":"PL","addr:postcode":"44-240","addr:city":"\u017bory","addr:street":"ul. Bory\u0144ska","addr:housenumber":"2","addr:teryt:simc":1898,"addr:teryt:sym_ul":945746,"contact:phone":"+48 324342076","contact:email":"sekretariat@zs2zory.pl","contact:website":"http:\/\/www.zs2zory.pl","ref:regon":"272596068","ref:vatin":"PL6511535403","operator":"Gmina Miejska \u017bory","operator:type":"government","amenity":"school","note":"Parent RSPO: 55617"}},{"id":109285,"type":"Feature","geometry":{"type":"Point","coordinates":[18.68704,50.041409900000005]},"properties":{"isced:level":"3","ref:rspo":109285,"official_name":"Ii Liceum Og\u00f3lnokszta\u0142c\u0105ce im. Ks. Prof. J\u00f3zefa Tischnera w \u017borach","name":"Ii Liceum Og\u00f3lnokszta\u0142c\u0105ce","addr:country":"PL","addr:postcode":"44-240","addr:city":"\u017bory","addr:street":"ul. Bory\u0144ska","addr:housenumber":"2","addr:teryt:simc":1898,"addr:teryt:sym_ul":945746,"contact:phone":"+48 324342076","contact:email":"sekretariat@zs2zory.pl","ref:regon":"270551297","ref:vatin":"PL6511535403","operator":"Gmina Miejska \u017bory","operator:type":"government","amenity":"school","note":"Parent RSPO: 55617"}},{"id":55423,"type":"Feature","geometry":{"type":"Point","coordinates":[18.68821,50.0422]},"properties":{"ref:rspo":55423,"official_name":"Poradnia Psychologiczno-Pedagogiczna","name":"Poradnia Psychologiczno-Pedagogiczna","addr:country":"PL","addr:postcode":"44-240","addr:city":"\u017bory","addr:street":"ul. Wodzis\u0142awska","addr:housenumber":"1","addr:door":"207","addr:teryt:simc":24572,"addr:teryt:sym_ul":945746,"contact:phone":"+48 324345329","contact:email":"psychologiczna@wp.pl","contact:website":"http:\/\/www.pppzory.pl","ref:regon":"000817592","ref:vatin":"PL6511526166","operator":"Gmina Miejska \u017bory","operator:type":"government","healthcare":"councelling","counselling_type":"education","fixme":"w zale\u017cno\u015bci od przedmiotu dzia\u0142alno\u015bci (np. healthcare=councelling + counselling_type=education albo healthcare=psychotherapist)"}},{"id":264134,"type":"Feature","geometry":{"type":"Point","coordinates":[18.6985967,50.0423527]},"properties":{"ref:rspo":264134,"official_name":"Przedszkole Blisko Dziecka I Natury","name":"Przedszkole Blisko Dziecka I Natury","addr:country":"PL","addr:postcode":"44-240","addr:city":"\u017bory","addr:street":"ul. Katowicka","addr:housenumber":"24","addr:teryt:simc":8206,"addr:teryt:sym_ul":945746,"contact:phone":"+48 694205300","contact:email":"biuro@bliskodzieckainatury.pl","contact:website":"http:\/\/www.bliskodzieckainatury.pl","ref:regon":"368271350","operator":"Aleksandra Wiechu\u0142a","operator:type":"private","amenity":"kindergarten"}},{"id":278594,"type":"Feature","geometry":{"type":"Point","coordinates":[18.6985967,50.0423227]},"properties":{"isced:level":"1;2","ref:rspo":278594,"official_name":"Le\u015bna Szko\u0142a Podstawowa w \u017borach","name":"Le\u015bna Szko\u0142a Podstawowa w \u017borach","addr:country":"PL","addr:postcode":"44-240","addr:city":"\u017bory","addr:street":"ul. Katowicka","addr:housenumber":"24","addr:teryt:simc":8206,"addr:teryt:sym_ul":945746,"contact:phone":"+48 665712255","contact:email":"biuro@lesnaszkola-zory.pl","contact:website":"http:\/\/lesnaszkola-zory.pl","ref:regon":"389985282","operator":"Kinga Jureczko-Kowalska","operator:type":"private","amenity":"school"}},{"id":129384,"type":"Feature","geometry":{"type":"Point","coordinates":[18.69614,50.0429]},"properties":{"ref:rspo":129384,"official_name":"Przedszkole Niepubliczne \"Interactive Kids\"","name":"Przedszkole Niepubliczne \"Interactive Kids\"","addr:country":"PL","addr:postcode":"44-240","addr:city":"\u017bory","addr:street":"ul. Stodolna","addr:housenumber":"1","addr:teryt:simc":21193,"addr:teryt:sym_ul":945746,"contact:phone":"+48 796277738","contact:website":"http:\/\/www.interactive-kids.pl","ref:regon":"362578684","ref:vatin":"PL6511716990","operator":"Paks  S.c.  Karina Lepszy  Adrian Lepszy- Bayaraa","operator:type":"private","amenity":"kindergarten"}},{"id":85598,"type":"Feature","geometry":{"type":"Point","coordinates":[18.67523,50.04301]},"properties":{"ref:rspo":85598,"official_name":"Przedszkole Niepubliczne Kraina Skrzat\u00f3w Monika Karolak","name":"Przedszkole Niepubliczne Kraina Skrzat\u00f3w Monika Karolak","addr:country":"PL","addr:postcode":"44-240","addr:city":"\u017bory","addr:street":"ul. Szykowna","addr:housenumber":"42","addr:teryt:simc":39982,"addr:teryt:sym_ul":945746,"contact:phone":"+48 661917060","ref:regon":"243097439","ref:vatin":"PL9511783373","operator":"Monika Karolak","operator:type":"private","amenity":"kindergarten"}},{"id":129445,"type":"Feature","geometry":{"type":"Point","coordinates":[18.68883,50.04372]},"properties":{"ref:rspo":129445,"official_name":"Punkt Przedszkolny Balonik","name":"Punkt Przedszkolny Balonik","addr:country":"PL","addr:postcode":"44-240","addr:city":"\u017bory","addr:street":"ul. Aleja Niepodleg\u0142o\u015bci","addr:housenumber":"1","addr:teryt:simc":30816,"addr:teryt:sym_ul":945746,"contact:phone":"+48 512353027","contact:email":"balonik_mp@tlen.pl","contact:website":"http:\/\/www.balonik-mp.com","ref:regon":"362623054","operator":"Patrycja Kurkowska","operator:type":"private","amenity":"kindergarten"}},{"id":131345,"type":"Feature","geometry":{"type":"Point","coordinates":[18.69361,50.04376]},"properties":{"ref:rspo":131345,"official_name":"Punkt Przedszkolny Montessori \"Bajtu\u015b4\"","name":"Punkt Przedszkolny Montessori \"Bajtu\u015b4\"","addr:country":"PL","addr:postcode":"44-240","addr:city":"\u017bory","addr:street":"ul. Ogrodowa","addr:housenumber":"8","addr:teryt:simc":14834,"addr:teryt:sym_ul":945746,"contact:phone":"+48 507034172","contact:email":"kancelaria.dyrektora@gmail.com","ref:regon":"365125931","operator":"Bajtex Zuzanna Wichrzycka","operator:type":"private","amenity":"kindergarten"}},{"id":121255,"type":"Feature","geometry":{"type":"Point","coordinates":[18.69204,50.04481]},"properties":{"isced:level":"4","ref:rspo":121255,"official_name":"Szko\u0142a Policealna Copernicus w \u017borach","name":"Szko\u0142a Policealna Copernicus w \u017borach","addr:country":"PL","addr:postcode":"44-240","addr:city":"\u017bory","addr:street":"ul. Moniuszki","addr:housenumber":"15","addr:teryt:simc":13242,"addr:teryt:sym_ul":945746,"contact:phone":"+48 324731044","contact:email":"zarzad@copernicus.edu.pl","contact:website":"http:\/\/www.copernicus.edu.pl","ref:regon":"243445449","ref:vatin":"PL5783095159","operator":"Centrum Edukacji Copernicus Sp\u00f3\u0142ka Z Ograniczon\u0105 Odpowiedzialno\u015bci\u0105","operator:type":"private","amenity":"college"}},{"id":121259,"type":"Feature","geometry":{"type":"Point","coordinates":[18.69204,50.044779999999996]},"properties":{"isced:level":"3","ref:rspo":121259,"official_name":"Liceum Og\u00f3lnokszta\u0142c\u0105ce dla Doros\u0142ych Copernicus","name":"Liceum Og\u00f3lnokszta\u0142c\u0105ce dla Doros\u0142ych Copernicus","addr:country":"PL","addr:postcode":"44-240","addr:city":"\u017bory","addr:street":"ul. Moniuszki","addr:housenumber":"15","addr:teryt:simc":13242,"addr:teryt:sym_ul":945746,"contact:phone":"+48 324731044","contact:email":"zarzad@copernicus.edu.pl","contact:website":"http:\/\/www.copernicus.edu.pl","ref:regon":"243445455","ref:vatin":"PL5783095159","operator":"Centrum Edukacji Copernicus Sp\u00f3\u0142ka Z Ograniczon\u0105 Odpowiedzialno\u015bci\u0105","operator:type":"private","amenity":"school"}},{"id":273458,"type":"Feature","geometry":{"type":"Point","coordinates":[18.69204,50.04475]},"properties":{"ref:rspo":273458,"official_name":"Centrum Kszta\u0142cenia Ustawicznego \"Copernicus\" w \u017borach","name":"Centrum Kszta\u0142cenia Ustawicznego \"Copernicus\" w \u017borach","addr:country":"PL","addr:postcode":"44-240","addr:city":"\u017bory","addr:street":"ul. Moniuszki","addr:housenumber":"15","addr:teryt:simc":13242,"addr:teryt:sym_ul":945746,"contact:phone":"+48 324731044","contact:email":"zory@copernicus.edu.pl","contact:website":"http:\/\/www.copernicus.edu.pl","ref:regon":"384479232","operator":"Centrum Edukacji Copernicus Sp\u00f3\u0142ka Z Ograniczon\u0105 Odpowiedzialno\u015bci\u0105","operator:type":"private","fixme":"w zale\u017cno\u015bci od przedmiotu dzia\u0142alno\u015bci (np. amenity=training + training=*, amenity=dancing_school, amenity=language_school, amenity=music_school)"}},{"id":128842,"type":"Feature","geometry":{"type":"Point","coordinates":[18.69712,50.04527]},"properties":{"ref:rspo":128842,"official_name":"Terapeutyczny Punkt Przedszkolny \"Zak\u0105tek\"","name":"Terapeutyczny Punkt Przedszkolny \"Zak\u0105tek\"","addr:country":"PL","addr:postcode":"44-240","addr:city":"\u017bory","addr:street":"ul. Murarska","addr:housenumber":"25","addr:teryt:simc":13486,"addr:teryt:sym_ul":945746,"contact:phone":"+48 668771886","contact:email":"przedszkole@przedszkolezakatek.com.pl","contact:website":"http:\/\/www.przedszkolezakatek.com.pl","ref:regon":"362399065","operator":"Karina Kocur","operator:type":"private","amenity":"kindergarten"}},{"id":119828,"type":"Feature","geometry":{"type":"Point","coordinates":[18.696,50.04632]},"properties":{"isced:level":"1;2","ref:rspo":119828,"official_name":"Prywatna Szko\u0142a Podstawowa \u017borek","name":"Prywatna Szko\u0142a Podstawowa \u017borek","addr:country":"PL","addr:postcode":"44-240","addr:city":"\u017bory","addr:street":"ul. Szeptyckiego","addr:housenumber":"6","addr:teryt:simc":35197,"addr:teryt:sym_ul":945746,"contact:phone":"+48 693502067","contact:email":"biuro@zorek.pl","contact:website":"http:\/\/www.zorek.pl","ref:regon":"243363310","operator":"Dominika Brzezinka","operator:type":"private","amenity":"school"}},{"id":130363,"type":"Feature","geometry":{"type":"Point","coordinates":[18.69664,50.0465]},"properties":{"ref:rspo":130363,"official_name":"Centrum Kszta\u0142cenia Grupa Format","name":"Centrum Kszta\u0142cenia Grupa Format","addr:country":"PL","addr:postcode":"44-240","addr:city":"\u017bory","addr:street":"ul. Szeptyckiego","addr:housenumber":"12","addr:teryt:simc":35197,"addr:teryt:sym_ul":945746,"contact:phone":"+48 59191119","contact:email":"natalia@grupaformat.pl","ref:regon":"363918691","operator":"Grupa Format Sp\u00f3\u0142ka Z Ograniczon\u0105 Odpowiedzialno\u015bci\u0105 Sp\u00f3\u0142ka Komandytowa","operator:type":"private","fixme":"w zale\u017cno\u015bci od przedmiotu dzia\u0142alno\u015bci (np. amenity=training + training=*, amenity=dancing_school, amenity=language_school, amenity=music_school)"}},{"id":121410,"type":"Feature","geometry":{"type":"Point","coordinates":[18.69944,50.04739]},"properties":{"ref:rspo":121410,"official_name":"Zesp\u00f3\u0142 Pa\u0144stwowych Szk\u00f3\u0142 Muzycznych w \u017borach","name":"Zesp\u00f3\u0142 Pa\u0144stwowych Szk\u00f3\u0142 Muzycznych w \u017borach","addr:country":"PL","addr:postcode":"44-240","addr:city":"\u017bory","addr:street":"ul. Dworcowa","addr:housenumber":"6","addr:teryt:simc":4434,"addr:teryt:sym_ul":945746,"contact:phone":"+48 324341062","contact:email":"kontakt@szkolamuzyczna.eu","ref:regon":"243463364","operator":"Ministerstwo Kultury I Dziedzictwa Narodowego","operator:type":"public","landuse":"education","fixme":"amenity=school, amenity=college albo landuse=education w zale\u017cno\u015bci od tego, jakie plac\u00f3wki wchodz\u0105 w sk\u0142ad zespo\u0142u. Sprawd\u017a, kiedy stosowa\u0107 amenity=* a kiedy landuse=education.","note":"Children RSPO: 55420;75666"}},{"id":55420,"type":"Feature","geometry":{"type":"Point","coordinates":[18.69944,50.04736]},"properties":{"ref:rspo":55420,"official_name":"Pa\u0144stwowa Szko\u0142a Muzyczna II Stopnia w \u017borach","name":"Pa\u0144stwowa Szko\u0142a Muzyczna II Stopnia w \u017borach","addr:country":"PL","addr:postcode":"44-240","addr:city":"\u017bory","addr:street":"ul. Dworcowa","addr:housenumber":"6","addr:teryt:simc":4434,"addr:teryt:sym_ul":945746,"contact:phone":"+48 324341062","contact:email":"kontakt@muzyczna-szkola.pl","contact:website":"http:\/\/www.muzyczna-szkola.pl","ref:regon":"273583406","ref:vatin":"PL6511503432","operator":"Ministerstwo Kultury I Dziedzictwa Narodowego","operator:type":"public","amenity":"music_school","note":"Parent RSPO: 121410"}},{"id":75666,"type":"Feature","geometry":{"type":"Point","coordinates":[18.69944,50.04733]},"properties":{"ref:rspo":75666,"official_name":"Pa\u0144stwowa Szko\u0142a Muzyczna I St. w \u017borach","name":"Pa\u0144stwowa Szko\u0142a Muzyczna I St. w \u017borach","addr:country":"PL","addr:postcode":"44-240","addr:city":"\u017bory","addr:street":"ul. Dworcowa","addr:housenumber":"6","addr:teryt:simc":4434,"addr:teryt:sym_ul":945746,"contact:phone":"+48 324341062","contact:email":"kontakt@szkolamuzyczna.eu","contact:website":"http:\/\/muzyczna-szkola.pl","ref:regon":"003595880","operator":"Ministerstwo Kultury I Dziedzictwa Narodowego","operator:type":"public","amenity":"music_school","note":"Parent RSPO: 121410"}},{"id":55637,"type":"Feature","geometry":{"type":"Point","coordinates":[18.695810317993,50.047458648682]},"properties":{"ref:rspo":55637,"official_name":"Przedszkole Nr 22 Z Oddzia\u0142ami Integracyjnymi im. Jana Brzechwy w \u017borach","name":"Przedszkole Nr 22 Z Oddzia\u0142ami Integracyjnymi","addr:country":"PL","addr:postcode":"44-240","addr:place":"\u017bory","addr:teryt:sym_ul":945746,"contact:phone":"+48 324343237","contact:email":"przedszkole22zory@wp.pl","contact:website":"http:\/\/www.przedszkole22zory.edupage.org","ref:regon":"241446700","ref:vatin":"PL6511535633","operator":"Gmina Miejska \u017bory","operator:type":"government","amenity":"kindergarten"}},{"id":276493,"type":"Feature","geometry":{"type":"Point","coordinates":[18.69546,50.04779]},"properties":{"ref:rspo":276493,"official_name":"Niepubliczna Poradnia Psychologiczno-Pedagogiczna Sensus","name":"Niepubliczna Poradnia Psychologiczno-Pedagogiczna Sensus","addr:country":"PL","addr:postcode":"44-240","addr:city":"\u017bory","addr:street":"ul. Traugutta","addr:housenumber":"1","addr:teryt:simc":22961,"addr:teryt:sym_ul":945746,"contact:phone":"+48 502725920","contact:email":"npppsensus.zory@wp.pl","ref:regon":"387161476","operator":"Katarzyna Gajda-Rumiak","operator:type":"private","healthcare":"councelling","counselling_type":"education","fixme":"w zale\u017cno\u015bci od przedmiotu dzia\u0142alno\u015bci (np. healthcare=councelling + counselling_type=education albo healthcare=psychotherapist)"}},{"id":55630,"type":"Feature","geometry":{"type":"Point","coordinates":[18.6870508,50.0480386]},"properties":{"ref:rspo":55630,"official_name":"Przedszkole Nr 5 w \u017borach","name":"Przedszkole Nr 5 w \u017borach","addr:country":"PL","addr:postcode":"44-240","addr:city":"\u017bory","addr:street":"os. Osiedle 700-lecia \u017bor","addr:housenumber":"18","addr:teryt:simc":46950,"addr:teryt:sym_ul":945746,"contact:phone":"+48 324342363","contact:email":"przedszkolenr5zory@poczta.fm","contact:website":"http:\/\/przedszkole5zory.pl","ref:regon":"241447042","ref:vatin":"PL6511535627","operator":"Gmina Miejska \u017bory","operator:type":"government","amenity":"kindergarten"}},{"id":48535,"type":"Feature","geometry":{"type":"Point","coordinates":[18.68715,50.04804]},"properties":{"isced:level":"1;2","ref:rspo":48535,"official_name":"Szko\u0142a Podstawowa Nr 3 Z Oddzia\u0142ami Dwuj\u0119zycznymi I Sportowymi im. \u017borskich Tw\u00f3rc\u00f3w Kultury w \u017borach","name":"Szko\u0142a Podstawowa Nr 3 Z Oddzia\u0142ami Dwuj\u0119zycznymi I Sportowymi","addr:country":"PL","addr:postcode":"44-240","addr:city":"\u017bory","addr:street":"os. Osiedle 700-lecia \u017bor","addr:housenumber":"16","addr:teryt:simc":46950,"addr:teryt:sym_ul":945746,"contact:phone":"+48 324345430","contact:email":"sp3com@poczta.onet.pl","contact:website":"http:\/\/www.sp3.zory.pl","ref:regon":"000728233","ref:vatin":"PL6511535892","operator":"Gmina Miejska \u017bory","operator:type":"government","amenity":"school"}},{"id":55611,"type":"Feature","geometry":{"type":"Point","coordinates":[18.69622,50.04941]},"properties":{"ref:rspo":55611,"official_name":"Zesp\u00f3\u0142 Szk\u00f3\u0142 Nr 1","name":"Zesp\u00f3\u0142 Szk\u00f3\u0142 Nr 1","addr:country":"PL","addr:postcode":"44-240","addr:city":"\u017bory","addr:street":"ul. Powsta\u0144c\u00f3w","addr:housenumber":"6","addr:teryt:simc":17354,"addr:teryt:sym_ul":945746,"contact:phone":"+48 324342933","contact:email":"sekretariatlo@tlen.pl","contact:website":"http:\/\/www.1lo.zory.pl","ref:regon":"276691214","ref:vatin":"PL6511561671","operator":"Gmina Miejska \u017bory","operator:type":"government","landuse":"education","fixme":"amenity=school, amenity=college albo landuse=education w zale\u017cno\u015bci od tego, jakie plac\u00f3wki wchodz\u0105 w sk\u0142ad zespo\u0142u. Sprawd\u017a, kiedy stosowa\u0107 amenity=* a kiedy landuse=education.","note":"Children RSPO: 105506;133426"}},{"id":105506,"type":"Feature","geometry":{"type":"Point","coordinates":[18.69622,50.04938]},"properties":{"isced:level":"3","ref:rspo":105506,"official_name":"I Liceum Og\u00f3lnokszta\u0142c\u0105ce im. Karola Miarki w \u017borach","name":"I Liceum Og\u00f3lnokszta\u0142c\u0105ce","addr:country":"PL","addr:postcode":"44-240","addr:city":"\u017bory","addr:street":"ul. Powsta\u0144c\u00f3w","addr:housenumber":"6","addr:teryt:simc":17354,"addr:teryt:sym_ul":945746,"contact:phone":"+48 324342933","contact:email":"sekretariatlo@tlen.pl","contact:website":"http:\/\/1lo.zory.pl","ref:regon":"000861370","ref:vatin":"PL6511535395","operator":"Gmina Miejska \u017bory","operator:type":"government","amenity":"school","note":"Parent RSPO: 55611"}},{"id":133426,"type":"Feature","geometry":{"type":"Point","coordinates":[18.69622,50.049350000000004]},"properties":{"isced:level":"3","ref:rspo":133426,"official_name":"Technikum Nr4 w \u017borach","name":"Technikum Nr4 w \u017borach","addr:country":"PL","addr:postcode":"44-240","addr:city":"\u017bory","addr:street":"ul. Powsta\u0144c\u00f3w","addr:housenumber":"6","addr:teryt:simc":17354,"addr:teryt:sym_ul":945746,"contact:phone":"+48 324342933","contact:email":"sekretariatlo@tlen.pl","contact:website":"http:\/\/www.1lo.zory.pl","ref:regon":"367279970","operator":"Gmina Miejska \u017bory","operator:type":"government","amenity":"school","note":"Parent RSPO: 55611"}},{"id":85616,"type":"Feature","geometry":{"type":"Point","coordinates":[18.70328,50.05296]},"properties":{"ref:rspo":85616,"official_name":"Zesp\u00f3\u0142 Szk\u00f3\u0142 Spo\u0142ecznych","name":"Zesp\u00f3\u0142 Szk\u00f3\u0142 Spo\u0142ecznych","addr:country":"PL","addr:postcode":"44-240","addr:city":"\u017bory","addr:street":"ul. Fabryczna","addr:housenumber":"10","addr:teryt:simc":4863,"addr:teryt:sym_ul":945746,"contact:phone":"+48 324345549","contact:email":"srin@pro.onet.pl","contact:website":"http:\/\/szkoladlawas.edupage.pl","ref:regon":"243099504","ref:vatin":"PL6511457459","operator":"Stowarzyszenie Rodzic\u00f3w I Nauczycieli \"Wsp\u00f3lnota Rodzinna\" W \u017borach","operator:type":"ngo","landuse":"education","fixme":"amenity=school, amenity=college albo landuse=education w zale\u017cno\u015bci od tego, jakie plac\u00f3wki wchodz\u0105 w sk\u0142ad zespo\u0142u. Sprawd\u017a, kiedy stosowa\u0107 amenity=* a kiedy landuse=education.","note":"Children RSPO: 114103;114109;265125"}},{"id":114103,"type":"Feature","geometry":{"type":"Point","coordinates":[18.70328,50.052929999999996]},"properties":{"isced:level":"3","ref:rspo":114103,"official_name":"Spo\u0142eczne Liceum Og\u00f3lnokszta\u0142c\u0105ce Stowarzyszenia Rodzic\u00f3w I Nauczycieli","name":"Spo\u0142eczne Liceum Og\u00f3lnokszta\u0142c\u0105ce Stowarzyszenia Rodzic\u00f3w I Nauczycieli","addr:country":"PL","addr:postcode":"44-240","addr:city":"\u017bory","addr:street":"ul. Fabryczna","addr:housenumber":"10","addr:teryt:simc":4863,"addr:teryt:sym_ul":945746,"contact:phone":"+48 324345549","contact:email":"srin@pro.onet.pl","contact:website":"http:\/\/www.szkoladlawas.edupage.org","ref:regon":"243250817","ref:vatin":"PL6511457459","operator":"Stowarzyszenie Rodzic\u00f3w I Nauczycieli \"Wsp\u00f3lnota Rodzinna\" W \u017borach","operator:type":"ngo","amenity":"school","note":"Parent RSPO: 85616"}},{"id":114109,"type":"Feature","geometry":{"type":"Point","coordinates":[18.70328,50.0529]},"properties":{"isced:level":"3","ref:rspo":114109,"official_name":"Spo\u0142eczne Technikum Stowarzyszenia Rodzic\u00f3w I Nauczycieli","name":"Spo\u0142eczne Technikum Stowarzyszenia Rodzic\u00f3w I Nauczycieli","addr:country":"PL","addr:postcode":"44-240","addr:city":"\u017bory","addr:street":"ul. Fabryczna","addr:housenumber":"10","addr:teryt:simc":4863,"addr:teryt:sym_ul":945746,"contact:phone":"+48 324345549","contact:email":"srin@pro.onet.pl","contact:website":"http:\/\/szkoladlawas.edupage.org","ref:regon":"243250846","ref:vatin":"PL6511457459","operator":"Stowarzyszenie Rodzic\u00f3w I Nauczycieli \"Wsp\u00f3lnota Rodzinna\" W \u017borach","operator:type":"ngo","amenity":"school","note":"Parent RSPO: 85616"}},{"id":265125,"type":"Feature","geometry":{"type":"Point","coordinates":[18.70328,50.05287]},"properties":{"isced:level":"1;2","ref:rspo":265125,"official_name":"Spo\u0142eczna Szko\u0142a Podstawowa","name":"Spo\u0142eczna Szko\u0142a Podstawowa","addr:country":"PL","addr:postcode":"44-240","addr:city":"\u017bory","addr:street":"ul. Fabryczna","addr:housenumber":"10","addr:teryt:simc":4863,"addr:teryt:sym_ul":945746,"contact:phone":"+48 324345549","contact:email":"srin@pro.onet.pl","contact:website":"http:\/\/www.szkoladlawas.edupage.org","ref:regon":"368629595","operator":"Stowarzyszenie Rodzic\u00f3w I Nauczycieli \"Wsp\u00f3lnota Rodzinna\" W \u017borach","operator:type":"ngo","amenity":"school","note":"Parent RSPO: 85616"}},{"id":263645,"type":"Feature","geometry":{"type":"Point","coordinates":[18.7070599,50.05425]},"properties":{"ref:rspo":263645,"official_name":"Zesp\u00f3\u0142 Szkolno - Przedszkolny Nr 1","name":"Zesp\u00f3\u0142 Szkolno - Przedszkolny Nr 1","addr:country":"PL","addr:postcode":"44-240","addr:city":"\u017bory","addr:street":"ul. S\u0142oneczna","addr:housenumber":"2","addr:teryt:simc":20254,"addr:teryt:sym_ul":945746,"contact:phone":"+48 324342302","contact:email":"sp1zory@poczta.fm","contact:website":"http:\/\/p4zory.edupage.org","ref:regon":"368209999","ref:vatin":"PL6511722217","operator":"Gmina Miejska \u017bory","operator:type":"government","landuse":"education","fixme":"amenity=school, amenity=college albo landuse=education w zale\u017cno\u015bci od tego, jakie plac\u00f3wki wchodz\u0105 w sk\u0142ad zespo\u0142u. Sprawd\u017a, kiedy stosowa\u0107 amenity=* a kiedy landuse=education.","note":"Children RSPO: 48547;55629"}},{"id":48547,"type":"Feature","geometry":{"type":"Point","coordinates":[18.7070599,50.05422]},"properties":{"isced:level":"1;2","ref:rspo":48547,"official_name":"Szko\u0142a Podstawowa Nr 1 im. Janusza Korczaka w \u017borach","name":"Szko\u0142a Podstawowa Nr 1","addr:country":"PL","addr:postcode":"44-240","addr:city":"\u017bory","addr:street":"ul. S\u0142oneczna","addr:housenumber":"2","addr:teryt:simc":20254,"addr:teryt:sym_ul":945746,"contact:phone":"+48 324342302","contact:email":"sp1zory@poczta.fm","contact:website":"http:\/\/www.sp1.szkola.pl","ref:regon":"000728210","ref:vatin":"PL6511535886","operator":"Gmina Miejska \u017bory","operator:type":"government","amenity":"school","note":"Parent RSPO: 263645"}},{"id":55629,"type":"Feature","geometry":{"type":"Point","coordinates":[18.7070599,50.054190000000006]},"properties":{"ref:rspo":55629,"official_name":"Przedszkole Nr 4 im. Marii Konopnickiej w \u017borach","name":"Przedszkole Nr 4","addr:country":"PL","addr:postcode":"44-240","addr:city":"\u017bory","addr:street":"ul. S\u0142oneczna","addr:housenumber":"2","addr:teryt:simc":20254,"addr:teryt:sym_ul":945746,"contact:phone":"+48 324343911","contact:email":"przedszkolenr4@op.pl","contact:website":"http:\/\/www.p4zory.edupage.org\/","ref:regon":"241447094","ref:vatin":"PL6511535805","operator":"Gmina Miejska \u017bory","operator:type":"government","amenity":"kindergarten","note":"Parent RSPO: 263645"}},{"id":278489,"type":"Feature","geometry":{"type":"Point","coordinates":[18.7081,50.05766]},"properties":{"ref:rspo":278489,"official_name":"O\u015brodek Kszta\u0142cenia Kadr Dvz","name":"O\u015brodek Kszta\u0142cenia Kadr Dvz","addr:country":"PL","addr:postcode":"44-240","addr:city":"\u017bory","addr:street":"ul. Boczna","addr:housenumber":"6","addr:teryt:simc":1528,"addr:teryt:sym_ul":945746,"contact:phone":"+48 603660661","ref:regon":"389920704","operator":"Adam Zagrodnik","operator:type":"private","fixme":"w zale\u017cno\u015bci od przedmiotu dzia\u0142alno\u015bci (np. amenity=training + training=*, amenity=dancing_school, amenity=language_school, amenity=music_school)"}},{"id":129959,"type":"Feature","geometry":{"type":"Point","coordinates":[18.70555,50.05869]},"properties":{"ref:rspo":129959,"official_name":"O\u015brodek Szkolenia \"Operator\" S.c. Marcelina, Grzegorz Przep\u00f3ra","name":"O\u015brodek Szkolenia \"Operator\" S.c. Marcelina, Grzegorz Przep\u00f3ra","addr:country":"PL","addr:postcode":"44-240","addr:city":"\u017bory","addr:street":"ul. Boczna","addr:housenumber":"8","addr:teryt:simc":1528,"addr:teryt:sym_ul":945746,"contact:phone":"+48 784015745","contact:email":"biuro@operator-szkolenia.pl","contact:website":"http:\/\/operator-szkolenia.pl","ref:regon":"363170548","ref:vatin":"PL6511676612","operator":"Marcelina Przepi\u00f3ra","operator:type":"private","fixme":"w zale\u017cno\u015bci od przedmiotu dzia\u0142alno\u015bci (np. amenity=training + training=*, amenity=dancing_school, amenity=language_school, amenity=music_school)"}},{"id":274641,"type":"Feature","geometry":{"type":"Point","coordinates":[18.70466,50.05911]},"properties":{"ref:rspo":274641,"official_name":"Plac\u00f3wka Kszta\u0142cenia Ustawicznego Pro-Safety","name":"Plac\u00f3wka Kszta\u0142cenia Ustawicznego Pro-Safety","addr:country":"PL","addr:postcode":"44-240","addr:city":"\u017bory","addr:street":"ul. Boczna","addr:housenumber":"10","addr:teryt:simc":1528,"addr:teryt:sym_ul":945746,"contact:email":"info@prosafety.com.pl","ref:regon":"386134106","operator":"Aleksandra Wierzbicka","operator:type":"private","fixme":"w zale\u017cno\u015bci od przedmiotu dzia\u0142alno\u015bci (np. amenity=training + training=*, amenity=dancing_school, amenity=language_school, amenity=music_school)"}},{"id":107011,"type":"Feature","geometry":{"type":"Point","coordinates":[18.6531999,50.06543]},"properties":{"isced:level":"3","ref:rspo":107011,"official_name":"Technikum Nr 1 im. Miko\u0142aja Kopernika w \u017borach","name":"Technikum Nr 1","addr:country":"PL","addr:postcode":"44-240","addr:city":"\u017bory","addr:street":"ul. Rybnicka","addr:housenumber":"5","addr:teryt:simc":19179,"addr:teryt:sym_ul":945746,"contact:phone":"+48 324342944","contact:email":"technikum1@zsbi.pl","contact:website":"http:\/\/www.zsbi.pl","ref:regon":"272130275","ref:vatin":"PL6511737153","operator":"Gmina Miejska \u017bory","operator:type":"government","amenity":"school"}},{"id":55628,"type":"Feature","geometry":{"type":"Point","coordinates":[18.65414,50.06723]},"properties":{"ref:rspo":55628,"official_name":"Zesp\u00f3\u0142 Szkolno-Przedszkolny Nr 9 w \u017borach","name":"Zesp\u00f3\u0142 Szkolno-Przedszkolny Nr 9 w \u017borach","addr:country":"PL","addr:postcode":"44-240","addr:city":"\u017bory","addr:street":"ul. Rybnicka","addr:housenumber":"226","addr:teryt:simc":19179,"addr:teryt:sym_ul":945746,"contact:phone":"+48 324343773","contact:email":"sp9rowien@poczta.onet.pl","contact:website":"http:\/\/www.zsp9.szkolnastrona.pl","ref:regon":"273923606","ref:vatin":"PL6511535679","operator":"Gmina Miejska \u017bory","operator:type":"government","landuse":"education","fixme":"amenity=school, amenity=college albo landuse=education w zale\u017cno\u015bci od tego, jakie plac\u00f3wki wchodz\u0105 w sk\u0142ad zespo\u0142u. Sprawd\u017a, kiedy stosowa\u0107 amenity=* a kiedy landuse=education.","note":"Children RSPO: 86883;92796"}},{"id":86883,"type":"Feature","geometry":{"type":"Point","coordinates":[18.65414,50.0672]},"properties":{"ref:rspo":86883,"official_name":"Przedszkole Nr 9 w \u017borach","name":"Przedszkole Nr 9 w \u017borach","addr:country":"PL","addr:postcode":"44-240","addr:city":"\u017bory","addr:street":"ul. Rybnicka","addr:housenumber":"226","addr:teryt:simc":19179,"addr:teryt:sym_ul":945746,"contact:phone":"+48 324343773","contact:email":"sp9rowien@poczta.onet.pl","contact:website":"http:\/\/www.zsp9.szkolnastrona.pl","ref:regon":"271511549","ref:vatin":"PL6511535679","operator":"Gmina Miejska \u017bory","operator:type":"government","amenity":"kindergarten","note":"Parent RSPO: 55628"}},{"id":92796,"type":"Feature","geometry":{"type":"Point","coordinates":[18.65414,50.067170000000004]},"properties":{"isced:level":"1;2","ref:rspo":92796,"official_name":"Szko\u0142a Podstawowa Nr 9 im. Henryka Sienkiewicza w \u017borach","name":"Szko\u0142a Podstawowa Nr 9","addr:country":"PL","addr:postcode":"44-240","addr:city":"\u017bory","addr:street":"ul. Rybnicka","addr:housenumber":"226","addr:teryt:simc":19179,"addr:teryt:sym_ul":945746,"contact:phone":"+48 324343773","contact:email":"sp9rowien@poczta.onet.pl","ref:regon":"000728291","ref:vatin":"PL6511535679","operator":"Gmina Miejska \u017bory","operator:type":"government","amenity":"school","note":"Parent RSPO: 55628"}}]}