{
    "type": "FeatureCollection",
    "features": [
        {
            "id": 20318,
            "type": "Feature",
            "geometry": {
                "type": "Point",
                "coordinates": [
                    17.08198,
                    50.40975
                ]
            },
            "properties": {
                "ref:rspo": 20318,
                "official_name": "Zesp\u00f3\u0142 Szkolno-Przedszkolny w Dziewi\u0119tlicach Przy Stowarzyszeniu Na Rzecz Rozwoju I Promocji Zespo\u0142u Szkolno-Przedszkolnego w Dziewi\u0119tlicach",
                "name": "Zesp\u00f3\u0142 Szkolno-Przedszkolny w Dziewi\u0119tlicach Przy Stowarzyszeniu Na Rzecz Rozwoju I Promocji Zespo\u0142u Szkolno-Przedszkolnego w Dziewi\u0119tlicach",
                "addr:country": "PL",
                "addr:postcode": "48-370",
                "addr:place": "Dziewi\u0119tlice",
                "addr:housenumber": "78",
                "addr:teryt:sym_ul": 501245,
                "contact:phone": "+48 774315736",
                "contact:email": "zsp.dziewietlice@op.pl",
                "contact:website": "http:\/\/www.zspdziewietlice.szkolnastrona.pl",
                "ref:regon": "161489074",
                "ref:vatin": "PL7532429960",
                "operator": "Stowarzyszenie Na Rzecz Rozwoju I Promocji Zespo\u0142u Szkolno-Przedszkolnego W Dziewi\u0119tlicach",
                "operator:type": "ngo",
                "landuse": "education",
                "fixme": "amenity=school, amenity=college albo landuse=education w zale\u017cno\u015bci od tego, jakie plac\u00f3wki wchodz\u0105 w sk\u0142ad zespo\u0142u. Sprawd\u017a, kiedy stosowa\u0107 amenity=* a kiedy landuse=education.",
                "note": "Children RSPO: 60088;86597"
            }
        },
        {
            "id": 60088,
            "type": "Feature",
            "geometry": {
                "type": "Point",
                "coordinates": [
                    17.08198,
                    50.40972
                ]
            },
            "properties": {
                "ref:rspo": 60088,
                "official_name": "Przedszkole Publiczne w Dziewi\u0119tlicach",
                "name": "Przedszkole Publiczne w Dziewi\u0119tlicach",
                "addr:country": "PL",
                "addr:postcode": "48-370",
                "addr:place": "Dziewi\u0119tlice",
                "addr:housenumber": "78",
                "addr:teryt:sym_ul": 501245,
                "contact:phone": "+48 774315736",
                "contact:email": "zsp.dziewietlice@op.pl",
                "contact:website": "http:\/\/zspdziewietlice.szkolnastrona.pl",
                "ref:regon": "161491616",
                "operator": "Stowarzyszenie Na Rzecz Rozwoju I Promocji Zespo\u0142u Szkolno-Przedszkolnego W Dziewi\u0119tlicach",
                "operator:type": "ngo",
                "amenity": "kindergarten",
                "note": "Parent RSPO: 20318"
            }
        },
        {
            "id": 86597,
            "type": "Feature",
            "geometry": {
                "type": "Point",
                "coordinates": [
                    17.08198,
                    50.409690000000005
                ]
            },
            "properties": {
                "isced:level": "1;2",
                "ref:rspo": 86597,
                "official_name": "Niepubliczna Szko\u0142a Podstawowa w Dziewi\u0119tlicach",
                "name": "Niepubliczna Szko\u0142a Podstawowa w Dziewi\u0119tlicach",
                "addr:country": "PL",
                "addr:postcode": "48-370",
                "addr:place": "Dziewi\u0119tlice",
                "addr:housenumber": "78",
                "addr:teryt:sym_ul": 501245,
                "contact:phone": "+48 774315736",
                "contact:email": "zsp.dziewietlice@op.pl",
                "contact:website": "http:\/\/www.zspdziewietlice.szkolnastrona.pl",
                "ref:regon": "161495100",
                "operator": "Stowarzyszenie Na Rzecz Rozwoju I Promocji Zespo\u0142u Szkolno-Przedszkolnego W Dziewi\u0119tlicach",
                "operator:type": "ngo",
                "amenity": "school",
                "note": "Parent RSPO: 20318"
            }
        },
        {
            "id": 20325,
            "type": "Feature",
            "geometry": {
                "type": "Point",
                "coordinates": [
                    16.97899,
                    50.43232
                ]
            },
            "properties": {
                "ref:rspo": 20325,
                "official_name": "Przedszkole Publiczne w Go\u015bcicach Stowarzyszenia Na Rzecz Rozwoju Wsi Goworowice",
                "name": "Przedszkole Publiczne w Go\u015bcicach Stowarzyszenia Na Rzecz Rozwoju Wsi Goworowice",
                "addr:country": "PL",
                "addr:postcode": "48-370",
                "addr:place": "Go\u015bcice",
                "addr:housenumber": "37",
                "addr:teryt:sym_ul": 501251,
                "contact:phone": "+48 774317720",
                "contact:email": "przyjaznewioski@gmail.com",
                "ref:regon": "161483309",
                "ref:vatin": "PL7530002482",
                "operator": "Stowarzyszenie Na Rzecz Rozwoju Wsi Goworowice",
                "operator:type": "ngo",
                "amenity": "kindergarten"
            }
        },
        {
            "id": 59951,
            "type": "Feature",
            "geometry": {
                "type": "Point",
                "coordinates": [
                    17.09821,
                    50.43328
                ]
            },
            "properties": {
                "ref:rspo": 59951,
                "official_name": "Przedszkole Publiczne w Trzeboszowicach",
                "name": "Przedszkole Publiczne w Trzeboszowicach",
                "addr:country": "PL",
                "addr:postcode": "48-370",
                "addr:place": "Trzeboszowice",
                "addr:housenumber": "8",
                "addr:teryt:sym_ul": 501328,
                "contact:phone": "+48 774341255",
                "ref:regon": "530580435",
                "operator": "Gmina Paczk\u00f3w",
                "operator:type": "government",
                "amenity": "kindergarten",
                "note": "Parent RSPO: 20314"
            }
        },
        {
            "id": 20324,
            "type": "Feature",
            "geometry": {
                "type": "Point",
                "coordinates": [
                    17.04707,
                    50.43358
                ]
            },
            "properties": {
                "ref:rspo": 20324,
                "official_name": "Przedszkole Publiczne w Uje\u017ad\u017acu Stowarzyszenia Na Rzecz Rozwoju Wsi Goworowice",
                "name": "Przedszkole Publiczne w Uje\u017ad\u017acu Stowarzyszenia Na Rzecz Rozwoju Wsi Goworowice",
                "addr:country": "PL",
                "addr:postcode": "48-370",
                "addr:place": "Uje\u017adziec",
                "addr:housenumber": "68",
                "addr:teryt:sym_ul": 501334,
                "contact:phone": "+48 774313721",
                "contact:email": "przyjaznewioski@gmail.com",
                "ref:regon": "161483284",
                "ref:vatin": "PL7530002482",
                "operator": "Stowarzyszenie Na Rzecz Rozwoju Wsi Goworowice",
                "operator:type": "ngo",
                "amenity": "kindergarten"
            }
        },
        {
            "id": 20314,
            "type": "Feature",
            "geometry": {
                "type": "Point",
                "coordinates": [
                    17.08934,
                    50.43425
                ]
            },
            "properties": {
                "ref:rspo": 20314,
                "official_name": "Zesp\u00f3\u0142 Szkolno-Przedszkolny w Trzeboszowicach",
                "name": "Zesp\u00f3\u0142 Szkolno-Przedszkolny w Trzeboszowicach",
                "addr:country": "PL",
                "addr:postcode": "48-370",
                "addr:place": "Trzeboszowice",
                "addr:housenumber": "89",
                "addr:teryt:sym_ul": 501328,
                "contact:email": "psptrzeboszowice@wp.pl",
                "ref:regon": "160797253",
                "ref:vatin": "PL7532427228",
                "operator": "Gmina Paczk\u00f3w",
                "operator:type": "government",
                "landuse": "education",
                "fixme": "amenity=school, amenity=college albo landuse=education w zale\u017cno\u015bci od tego, jakie plac\u00f3wki wchodz\u0105 w sk\u0142ad zespo\u0142u. Sprawd\u017a, kiedy stosowa\u0107 amenity=* a kiedy landuse=education.",
                "note": "Children RSPO: 59951;86130"
            }
        },
        {
            "id": 86130,
            "type": "Feature",
            "geometry": {
                "type": "Point",
                "coordinates": [
                    17.08934,
                    50.434219999999996
                ]
            },
            "properties": {
                "isced:level": "1;2",
                "ref:rspo": 86130,
                "official_name": "Publiczna Szko\u0142a Podstwowa w Trzeboszowicach",
                "name": "Publiczna Szko\u0142a Podstwowa w Trzeboszowicach",
                "addr:country": "PL",
                "addr:postcode": "48-370",
                "addr:place": "Trzeboszowice",
                "addr:housenumber": "89",
                "addr:teryt:sym_ul": 501328,
                "contact:phone": "+48 774341255",
                "contact:email": "psptrzeboszowice@wp.pl",
                "contact:website": "http:\/\/psptrzeboszowice.szkolnastrona.pl",
                "ref:regon": "001188750",
                "ref:vatin": "PL7532127093",
                "operator": "Gmina Paczk\u00f3w",
                "operator:type": "government",
                "amenity": "school",
                "note": "Parent RSPO: 20314"
            }
        },
        {
            "id": 20323,
            "type": "Feature",
            "geometry": {
                "type": "Point",
                "coordinates": [
                    17.01301,
                    50.44303
                ]
            },
            "properties": {
                "ref:rspo": 20323,
                "official_name": "Przedszkole Publiczne w Unikowicach Stowarzyszenia Na Rzecz Rozwoju Wsi Goworowice",
                "name": "Przedszkole Publiczne w Unikowicach Stowarzyszenia Na Rzecz Rozwoju Wsi Goworowice",
                "addr:country": "PL",
                "addr:postcode": "48-370",
                "addr:place": "Unikowice",
                "addr:housenumber": "21",
                "addr:teryt:sym_ul": 501340,
                "contact:phone": "+48 774351353",
                "contact:email": "przyjaznewioski@gmail.com",
                "ref:regon": "161483321",
                "ref:vatin": "PL7530002482",
                "operator": "Stowarzyszenie Na Rzecz Rozwoju Wsi Goworowice",
                "operator:type": "ngo",
                "amenity": "kindergarten"
            }
        },
        {
            "id": 133331,
            "type": "Feature",
            "geometry": {
                "type": "Point",
                "coordinates": [
                    16.95185,
                    50.44915
                ]
            },
            "properties": {
                "ref:rspo": 133331,
                "official_name": "Zesp\u00f3\u0142 Szkolno-Przedszkolny w Kamienicy",
                "name": "Zesp\u00f3\u0142 Szkolno-Przedszkolny w Kamienicy",
                "addr:country": "PL",
                "addr:postcode": "48-370",
                "addr:place": "Kamienica",
                "addr:housenumber": "94",
                "addr:teryt:sym_ul": 501268,
                "contact:phone": "+48 774316845",
                "contact:email": "sekretariat@zspkamienica.szkolnastrona.pl",
                "contact:website": "http:\/\/zspkamienica.szkolnastrona.pl",
                "ref:regon": "367039265",
                "ref:vatin": "PL7532127035",
                "operator": "Gmina Paczk\u00f3w",
                "operator:type": "government",
                "landuse": "education",
                "fixme": "amenity=school, amenity=college albo landuse=education w zale\u017cno\u015bci od tego, jakie plac\u00f3wki wchodz\u0105 w sk\u0142ad zespo\u0142u. Sprawd\u017a, kiedy stosowa\u0107 amenity=* a kiedy landuse=education.",
                "note": "Children RSPO: 20315;263714"
            }
        },
        {
            "id": 20315,
            "type": "Feature",
            "geometry": {
                "type": "Point",
                "coordinates": [
                    16.95185,
                    50.44912
                ]
            },
            "properties": {
                "isced:level": "1;2",
                "ref:rspo": 20315,
                "official_name": "Publiczna Szko\u0142a Podstawowa w Kamienicy",
                "name": "Publiczna Szko\u0142a Podstawowa w Kamienicy",
                "addr:country": "PL",
                "addr:postcode": "48-370",
                "addr:place": "Kamienica",
                "addr:housenumber": "94",
                "addr:teryt:sym_ul": 501268,
                "contact:phone": "+48 774316845",
                "contact:email": "sekretariat@zspkamienica.szkolnastrona.pl",
                "contact:website": "http:\/\/zspkamienica.szkolnastrona.pl",
                "ref:regon": "001188767",
                "ref:vatin": "PL7532127035",
                "operator": "Gmina Paczk\u00f3w",
                "operator:type": "government",
                "amenity": "school",
                "note": "Parent RSPO: 133331"
            }
        },
        {
            "id": 263714,
            "type": "Feature",
            "geometry": {
                "type": "Point",
                "coordinates": [
                    16.95185,
                    50.449090000000005
                ]
            },
            "properties": {
                "ref:rspo": 263714,
                "official_name": "Publiczne Przedszkole w Kamienicy",
                "name": "Publiczne Przedszkole w Kamienicy",
                "addr:country": "PL",
                "addr:postcode": "48-370",
                "addr:place": "Kamienica",
                "addr:housenumber": "94",
                "addr:teryt:sym_ul": 501268,
                "contact:phone": "+48 774316845",
                "ref:regon": "368217148",
                "operator": "Gmina Paczk\u00f3w",
                "operator:type": "government",
                "amenity": "kindergarten",
                "note": "Parent RSPO: 133331"
            }
        },
        {
            "id": 20322,
            "type": "Feature",
            "geometry": {
                "type": "Point",
                "coordinates": [
                    17.0456499,
                    50.45465
                ]
            },
            "properties": {
                "ref:rspo": 20322,
                "official_name": "Przedszkole Publiczne w Starym Paczkowie",
                "name": "Przedszkole Publiczne w Starym Paczkowie",
                "addr:country": "PL",
                "addr:postcode": "48-370",
                "addr:place": "Stary Paczk\u00f3w",
                "addr:housenumber": "88A",
                "addr:teryt:sym_ul": 501297,
                "contact:phone": "+48 774316559",
                "contact:email": "bozenarudko@wp.pl",
                "ref:regon": "161489743",
                "operator": "Stowarzyszenie Na Rzecz Rozwoju Wsi Stary Paczk\u00f3w",
                "operator:type": "ngo",
                "amenity": "kindergarten"
            }
        },
        {
            "id": 20320,
            "type": "Feature",
            "geometry": {
                "type": "Point",
                "coordinates": [
                    17.01363,
                    50.46192
                ]
            },
            "properties": {
                "ref:rspo": 20320,
                "official_name": "Przedszkole Publiczne Nr 2 w Paczkowie",
                "name": "Przedszkole Publiczne Nr 2 w Paczkowie",
                "addr:country": "PL",
                "addr:postcode": "48-370",
                "addr:city": "Paczk\u00f3w",
                "addr:street": "Wojska Polskiego",
                "addr:housenumber": "43",
                "addr:teryt:simc": 24628,
                "addr:teryt:sym_ul": 965855,
                "contact:email": "elamirek4@wp.pl",
                "ref:regon": "530580369",
                "ref:vatin": "PL7532127041",
                "operator": "Gmina Paczk\u00f3w",
                "operator:type": "government",
                "amenity": "kindergarten"
            }
        },
        {
            "id": 20312,
            "type": "Feature",
            "geometry": {
                "type": "Point",
                "coordinates": [
                    17.01544,
                    50.46201
                ]
            },
            "properties": {
                "isced:level": "1;2",
                "ref:rspo": 20312,
                "official_name": "Publiczna Szko\u0142a Podstawowa Nr 2 w Paczkowie",
                "name": "Publiczna Szko\u0142a Podstawowa Nr 2 w Paczkowie",
                "addr:country": "PL",
                "addr:postcode": "48-370",
                "addr:city": "Paczk\u00f3w",
                "addr:street": "Wojska Polskiego",
                "addr:housenumber": "45",
                "addr:teryt:simc": 24628,
                "addr:teryt:sym_ul": 965855,
                "contact:phone": "+48 774316732",
                "contact:email": "psp2.paczkow@interia.pl",
                "contact:website": "http:\/\/www.psp2paczkow.wodip.opole.pl",
                "ref:regon": "001188744",
                "ref:vatin": "PL7532127087",
                "operator": "Gmina Paczk\u00f3w",
                "operator:type": "government",
                "amenity": "school"
            }
        },
        {
            "id": 20319,
            "type": "Feature",
            "geometry": {
                "type": "Point",
                "coordinates": [
                    17.004570007324,
                    50.462200164795
                ]
            },
            "properties": {
                "ref:rspo": 20319,
                "official_name": "Przedszkole Publiczne Nr 1 w Paczkowie",
                "name": "Przedszkole Publiczne Nr 1 w Paczkowie",
                "addr:country": "PL",
                "addr:postcode": "48-370",
                "addr:city": "Paczk\u00f3w",
                "addr:street": "Aleksandra Zawadzkiego",
                "addr:housenumber": "10",
                "addr:teryt:simc": 25821,
                "addr:teryt:sym_ul": 965855,
                "contact:phone": "+48 774326591",
                "contact:email": "annawojciuch@interia.pl",
                "ref:regon": "530580352",
                "ref:vatin": "PL7532127064",
                "operator": "Gmina Paczk\u00f3w",
                "operator:type": "government",
                "amenity": "kindergarten"
            }
        },
        {
            "id": 86294,
            "type": "Feature",
            "geometry": {
                "type": "Point",
                "coordinates": [
                    17.00378,
                    50.46324
                ]
            },
            "properties": {
                "ref:rspo": 86294,
                "official_name": "Zesp\u00f3\u0142 Szk\u00f3\u0142 w Paczkowie",
                "name": "Zesp\u00f3\u0142 Szk\u00f3\u0142 w Paczkowie",
                "addr:country": "PL",
                "addr:postcode": "48-370",
                "addr:city": "Paczk\u00f3w",
                "addr:street": "Hugona Ko\u0142\u0142\u0105taja",
                "addr:housenumber": "9",
                "addr:teryt:simc": 9003,
                "addr:teryt:sym_ul": 965855,
                "contact:phone": "+48 774316440",
                "contact:email": "zspaczkow@gmail.com",
                "contact:website": "http:\/\/www.lopaczkow.pl",
                "ref:regon": "007015594",
                "ref:vatin": "PL7531087090",
                "operator": "Powiat Nyski",
                "operator:type": "government",
                "landuse": "education",
                "fixme": "amenity=school, amenity=college albo landuse=education w zale\u017cno\u015bci od tego, jakie plac\u00f3wki wchodz\u0105 w sk\u0142ad zespo\u0142u. Sprawd\u017a, kiedy stosowa\u0107 amenity=* a kiedy landuse=education.",
                "note": "Children RSPO: 103494;103495;103496;114197"
            }
        },
        {
            "id": 103494,
            "type": "Feature",
            "geometry": {
                "type": "Point",
                "coordinates": [
                    17.00378,
                    50.46321
                ]
            },
            "properties": {
                "isced:level": "3",
                "ref:rspo": 103494,
                "official_name": "Liceum Og\u00f3lnokszta\u0142c\u0105ce im. Komisji Edukacji Narodowej w Paczkowie",
                "name": "Liceum Og\u00f3lnokszta\u0142c\u0105ce",
                "addr:country": "PL",
                "addr:postcode": "48-370",
                "addr:city": "Paczk\u00f3w",
                "addr:street": "Hugona Ko\u0142\u0142\u0105taja",
                "addr:housenumber": "9",
                "addr:teryt:simc": 9003,
                "addr:teryt:sym_ul": 965855,
                "contact:phone": "+48 774316440",
                "contact:email": "zspaczkow@gmail.com",
                "contact:website": "http:\/\/www.lopaczkow.pl",
                "ref:regon": "532382389",
                "operator": "Powiat Nyski",
                "operator:type": "government",
                "amenity": "school",
                "note": "Parent RSPO: 86294"
            }
        },
        {
            "id": 103495,
            "type": "Feature",
            "geometry": {
                "type": "Point",
                "coordinates": [
                    17.00378,
                    50.46318
                ]
            },
            "properties": {
                "isced:level": "3",
                "ref:rspo": 103495,
                "official_name": "Liceum Og\u00f3lnokszta\u0142c\u0105ce dla Doros\u0142ych w Paczkowie",
                "name": "Liceum Og\u00f3lnokszta\u0142c\u0105ce dla Doros\u0142ych w Paczkowie",
                "addr:country": "PL",
                "addr:postcode": "48-370",
                "addr:city": "Paczk\u00f3w",
                "addr:street": "Hugona Ko\u0142\u0142\u0105taja",
                "addr:housenumber": "9",
                "addr:teryt:simc": 9003,
                "addr:teryt:sym_ul": 965855,
                "contact:phone": "+48 774316440",
                "contact:email": "zspaczkow@gmail.com",
                "contact:website": "http:\/\/www.lopaczkow.pl",
                "ref:regon": "532236274",
                "operator": "Powiat Nyski",
                "operator:type": "government",
                "amenity": "school",
                "note": "Parent RSPO: 86294"
            }
        },
        {
            "id": 103496,
            "type": "Feature",
            "geometry": {
                "type": "Point",
                "coordinates": [
                    17.00378,
                    50.46315
                ]
            },
            "properties": {
                "isced:level": "3",
                "ref:rspo": 103496,
                "official_name": "Bran\u017cowa Szko\u0142a I Stopnia w Paczkowie",
                "name": "Bran\u017cowa Szko\u0142a I Stopnia w Paczkowie",
                "addr:country": "PL",
                "addr:postcode": "48-370",
                "addr:city": "Paczk\u00f3w",
                "addr:street": "Hugona Ko\u0142\u0142\u0105taja",
                "addr:housenumber": "9",
                "addr:teryt:simc": 9003,
                "addr:teryt:sym_ul": 965855,
                "contact:phone": "+48 774316440",
                "contact:email": "zspaczkow@gmail.com",
                "contact:website": "http:\/\/www.lopaczkow.pl",
                "ref:regon": "532382395",
                "operator": "Powiat Nyski",
                "operator:type": "government",
                "amenity": "school",
                "note": "Parent RSPO: 86294"
            }
        },
        {
            "id": 114197,
            "type": "Feature",
            "geometry": {
                "type": "Point",
                "coordinates": [
                    17.00378,
                    50.463119999999996
                ]
            },
            "properties": {
                "isced:level": "3",
                "ref:rspo": 114197,
                "official_name": "Technikum w Paczkowie",
                "name": "Technikum w Paczkowie",
                "addr:country": "PL",
                "addr:postcode": "48-370",
                "addr:city": "Paczk\u00f3w",
                "addr:street": "Hugona Ko\u0142\u0142\u0105taja",
                "addr:housenumber": "9",
                "addr:teryt:simc": 9003,
                "addr:teryt:sym_ul": 965855,
                "contact:phone": "+48 774316440",
                "contact:email": "zspaczkow@gmail.com",
                "contact:website": "http:\/\/www.lopaczkow.pl",
                "ref:regon": "532325262",
                "operator": "Powiat Nyski",
                "operator:type": "government",
                "amenity": "school",
                "note": "Parent RSPO: 86294"
            }
        },
        {
            "id": 20313,
            "type": "Feature",
            "geometry": {
                "type": "Point",
                "coordinates": [
                    17.01032,
                    50.46381
                ]
            },
            "properties": {
                "isced:level": "1;2",
                "ref:rspo": 20313,
                "official_name": "Publiczna Szko\u0142a Podstawowa Nr 3 w Paczkowie",
                "name": "Publiczna Szko\u0142a Podstawowa Nr 3 w Paczkowie",
                "addr:country": "PL",
                "addr:postcode": "48-370",
                "addr:city": "Paczk\u00f3w",
                "addr:street": "1 Maja",
                "addr:housenumber": "2",
                "addr:teryt:simc": 11926,
                "addr:teryt:sym_ul": 965855,
                "contact:phone": "+48 774316733",
                "contact:email": "sp3paczkow@wodip.opole.pl",
                "ref:regon": "000263840",
                "ref:vatin": "PL7532127070",
                "operator": "Gmina Paczk\u00f3w",
                "operator:type": "government",
                "amenity": "school"
            }
        },
        {
            "id": 20321,
            "type": "Feature",
            "geometry": {
                "type": "Point",
                "coordinates": [
                    17.01126,
                    50.46837
                ]
            },
            "properties": {
                "ref:rspo": 20321,
                "official_name": "Przedszkole Publiczne Nr 3",
                "name": "Przedszkole Publiczne Nr 3",
                "addr:country": "PL",
                "addr:postcode": "48-370",
                "addr:city": "Paczk\u00f3w",
                "addr:street": "M\u0142y\u0144ska",
                "addr:housenumber": "23",
                "addr:teryt:simc": 13132,
                "addr:teryt:sym_ul": 965855,
                "contact:phone": "+48 774316843",
                "contact:email": "barbarakupczak@wp.pl",
                "contact:website": "http:\/\/pp3paczkow.szkolnastrona.pl",
                "ref:regon": "530580375",
                "ref:vatin": "PL7532127058",
                "operator": "Gmina Paczk\u00f3w",
                "operator:type": "government",
                "amenity": "kindergarten"
            }
        }
    ]
}