{
    "type": "FeatureCollection",
    "features": [
        {
            "id": 5627,
            "type": "Feature",
            "geometry": {
                "type": "Point",
                "coordinates": [
                    17.54271,
                    50.42009
                ]
            },
            "properties": {
                "ref:rspo": 5627,
                "official_name": "Zesp\u00f3\u0142 Szkolno-Przedszkolny",
                "name": "Zesp\u00f3\u0142 Szkolno-Przedszkolny",
                "addr:postcode": "48-325",
                "addr:city": "\u015acinawa Ma\u0142a",
                "addr:street": "Klasztorna",
                "addr:housenumber": "4",
                "addr:city:simc": 497130,
                "addr:street:sym_ul": 8485,
                "phone": "+48 774312815",
                "ref:regon": "161477639",
                "operator": "Gmina Korfant\u00f3w",
                "operator:type": "government",
                "landuse": "education",
                "fixme": "amenity=school, amenity=college albo landuse=education w zale\u017cno\u015bci od tego, jakie plac\u00f3wki wchodz\u0105 w sk\u0142ad zespo\u0142u. Sprawd\u017a, kiedy stosowa\u0107 amenity=* a kiedy landuse=education.",
                "note": "Children RSPO: 5031;122462"
            }
        },
        {
            "id": 122462,
            "type": "Feature",
            "geometry": {
                "type": "Point",
                "coordinates": [
                    17.54271,
                    50.42006
                ]
            },
            "properties": {
                "isced:level": "1;2",
                "ref:rspo": 122462,
                "official_name": "Zesp\u00f3\u0142 Szkolno-Przedszkolny w \u015acinawie Ma\u0142ej - Szko\u0142a Podstawowa im. I Armii Wojska Polskiego w \u015acinawie Ma\u0142ej",
                "name": "Zesp\u00f3\u0142 Szkolno-Przedszkolny w \u015acinawie Ma\u0142ej - Szko\u0142a Podstawowa",
                "addr:postcode": "48-325",
                "addr:city": "\u015acinawa Ma\u0142a",
                "addr:street": "Klasztorna",
                "addr:housenumber": "4",
                "addr:city:simc": 497130,
                "addr:street:sym_ul": 8485,
                "phone": "+48 774312815",
                "email": "zsp-scinawa@wp.pl",
                "website": "http:\/\/www.zspscinawa.pl",
                "ref:regon": "532212121",
                "operator": "Gmina Korfant\u00f3w",
                "operator:type": "government",
                "amenity": "school",
                "note": "Parent RSPO: 5627"
            }
        },
        {
            "id": 5031,
            "type": "Feature",
            "geometry": {
                "type": "Point",
                "coordinates": [
                    17.54025,
                    50.42142
                ]
            },
            "properties": {
                "ref:rspo": 5031,
                "official_name": "Zesp\u00f3\u0142 Szkolno-Przedszkolny w \u015acinawie Ma\u0142ej Przedszkole w Scinawie Nyskiej",
                "name": "Zesp\u00f3\u0142 Szkolno-Przedszkolny w \u015acinawie Ma\u0142ej Przedszkole w Scinawie Nyskiej",
                "addr:postcode": "48-325",
                "addr:city": "\u015acinawa Nyska",
                "addr:street": "Nyska",
                "addr:housenumber": "59",
                "addr:city:simc": 497147,
                "addr:street:sym_ul": 14559,
                "phone": "+48 774343820",
                "ref:regon": "530581280",
                "operator": "Gmina Korfant\u00f3w",
                "operator:type": "government",
                "amenity": "kindergarten",
                "note": "Parent RSPO: 5627"
            }
        },
        {
            "id": 274413,
            "type": "Feature",
            "geometry": {
                "type": "Point",
                "coordinates": [
                    17.50073,
                    50.46712
                ]
            },
            "properties": {
                "ref:rspo": 274413,
                "official_name": "Zesp\u00f3\u0142 Szkolno-Przedszkolny we W\u0142odarach",
                "name": "Zesp\u00f3\u0142 Szkolno-Przedszkolny we W\u0142odarach",
                "addr:postcode": "48-317",
                "addr:city": "W\u0142odary",
                "addr:street": "Szkolna",
                "addr:housenumber": "1",
                "addr:city:simc": 497199,
                "addr:street:sym_ul": 21970,
                "phone": "+48 774319607",
                "email": "sp_wlodary@poczta.onet.pl",
                "ref:regon": "385736582",
                "operator": "Fundacja 'Dla Przysz\u0142o\u015bci'",
                "operator:type": "ngo",
                "landuse": "education",
                "fixme": "amenity=school, amenity=college albo landuse=education w zale\u017cno\u015bci od tego, jakie plac\u00f3wki wchodz\u0105 w sk\u0142ad zespo\u0142u. Sprawd\u017a, kiedy stosowa\u0107 amenity=* a kiedy landuse=education.",
                "note": "Children RSPO: 129459;274397"
            }
        },
        {
            "id": 274397,
            "type": "Feature",
            "geometry": {
                "type": "Point",
                "coordinates": [
                    17.50073,
                    50.46709
                ]
            },
            "properties": {
                "ref:rspo": 274397,
                "official_name": "Niepubliczne Przedszkole we W\u0142odarach",
                "name": "Niepubliczne Przedszkole we W\u0142odarach",
                "addr:postcode": "48-317",
                "addr:city": "W\u0142odary",
                "addr:street": "Szkolna",
                "addr:housenumber": "1",
                "addr:city:simc": 497199,
                "addr:street:sym_ul": 21970,
                "phone": "+48 774319607",
                "ref:regon": "385698640",
                "operator": "Fundacja 'Dla Przysz\u0142o\u015bci'",
                "operator:type": "ngo",
                "amenity": "kindergarten",
                "note": "Parent RSPO: 274413"
            }
        },
        {
            "id": 129459,
            "type": "Feature",
            "geometry": {
                "type": "Point",
                "coordinates": [
                    17.49791,
                    50.46746
                ]
            },
            "properties": {
                "isced:level": "1;2",
                "ref:rspo": 129459,
                "official_name": "Szko\u0142a Podstawowa we W\u0142odarach",
                "name": "Szko\u0142a Podstawowa we W\u0142odarach",
                "addr:postcode": "48-317",
                "addr:place": "W\u0142odary",
                "addr:housenumber": "1",
                "addr:city:simc": 497199,
                "phone": "+48 774319607",
                "email": "sp_wlodary@poczta.onet.pl",
                "website": "http:\/\/www.sp.wlodary.pl",
                "ref:regon": "362613618",
                "operator": "Fundacja 'Dla Przysz\u0142o\u015bci'",
                "operator:type": "ngo",
                "amenity": "school",
                "note": "Parent RSPO: 274413"
            }
        },
        {
            "id": 262763,
            "type": "Feature",
            "geometry": {
                "type": "Point",
                "coordinates": [
                    17.60072,
                    50.48574
                ]
            },
            "properties": {
                "isced:level": "1;2",
                "ref:rspo": 262763,
                "official_name": "Szko\u0142a Podstawowa nr 2 im. Czes\u0142awa Niemena w Korfantowie",
                "name": "Szko\u0142a Podstawowa nr 2",
                "addr:postcode": "48-317",
                "addr:city": "Korfant\u00f3w",
                "addr:street": "Adama Mickiewicza",
                "addr:housenumber": "1",
                "addr:city:simc": 496946,
                "addr:street:sym_ul": 12740,
                "phone": "+48 774365233",
                "email": "sp2korfantow@interia.pl",
                "website": "http:\/\/www.sp2korfantow.pl",
                "ref:regon": "368056403",
                "operator": "Gmina Korfant\u00f3w",
                "operator:type": "government",
                "amenity": "school"
            }
        },
        {
            "id": 5040,
            "type": "Feature",
            "geometry": {
                "type": "Point",
                "coordinates": [
                    17.59902,
                    50.48833
                ]
            },
            "properties": {
                "ref:rspo": 5040,
                "official_name": "Zesp\u00f3\u0142 Szkolno-Przedszkolny w Korfantowie",
                "name": "Zesp\u00f3\u0142 Szkolno-Przedszkolny w Korfantowie",
                "addr:postcode": "48-317",
                "addr:city": "Korfant\u00f3w",
                "addr:street": "3 Maja",
                "addr:housenumber": "12",
                "addr:city:simc": 496946,
                "addr:street:sym_ul": 11937,
                "phone": "+48 774343847",
                "ref:regon": "160790950",
                "operator": "Gmina Korfant\u00f3w",
                "operator:type": "government",
                "landuse": "education",
                "fixme": "amenity=school, amenity=college albo landuse=education w zale\u017cno\u015bci od tego, jakie plac\u00f3wki wchodz\u0105 w sk\u0142ad zespo\u0142u. Sprawd\u017a, kiedy stosowa\u0107 amenity=* a kiedy landuse=education.",
                "note": "Children RSPO: 81488;111729"
            }
        },
        {
            "id": 81488,
            "type": "Feature",
            "geometry": {
                "type": "Point",
                "coordinates": [
                    17.59902,
                    50.488299999999995
                ]
            },
            "properties": {
                "isced:level": "1;2",
                "ref:rspo": 81488,
                "official_name": "Zesp\u00f3\u0142 Szkolno-Przedszkolny Szko\u0142a Podstawowa im.wojska Polskiego w Korfantowie",
                "name": "Zesp\u00f3\u0142 Szkolno-Przedszkolny Szko\u0142a Podstawowa im.wojska Polskiego w Korfantowie",
                "addr:postcode": "48-317",
                "addr:city": "Korfant\u00f3w",
                "addr:street": "3 Maja",
                "addr:housenumber": "12",
                "addr:city:simc": 496946,
                "addr:street:sym_ul": 11937,
                "phone": "+48 774343847",
                "email": "zspkorfantow@interia.pl",
                "website": "http:\/\/www.zspkorfantow",
                "ref:regon": "000268151",
                "operator": "Gmina Korfant\u00f3w",
                "operator:type": "government",
                "amenity": "school",
                "note": "Parent RSPO: 5040"
            }
        },
        {
            "id": 111729,
            "type": "Feature",
            "geometry": {
                "type": "Point",
                "coordinates": [
                    17.59902,
                    50.48827
                ]
            },
            "properties": {
                "ref:rspo": 111729,
                "official_name": "Zesp\u00f3\u0142 Szkolno-Przedszkolny - Przedszkole im. Misia Uszatka w Korfantowie",
                "name": "Zesp\u00f3\u0142 Szkolno-Przedszkolny - Przedszkole",
                "addr:postcode": "48-317",
                "addr:city": "Korfant\u00f3w",
                "addr:street": "3 Maja",
                "addr:housenumber": "12",
                "addr:city:simc": 496946,
                "addr:street:sym_ul": 11937,
                "phone": "+48 774343847",
                "ref:regon": "530581274",
                "operator": "Gmina Korfant\u00f3w",
                "operator:type": "government",
                "amenity": "kindergarten",
                "note": "Parent RSPO: 5040"
            }
        },
        {
            "id": 275093,
            "type": "Feature",
            "geometry": {
                "type": "Point",
                "coordinates": [
                    17.68005,
                    50.49378
                ]
            },
            "properties": {
                "ref:rspo": 275093,
                "official_name": "Przedszkole w Rzymkowicach",
                "name": "Przedszkole w Rzymkowicach",
                "addr:postcode": "48-317",
                "addr:place": "Rzymkowice",
                "addr:housenumber": "7",
                "addr:city:simc": 497101,
                "phone": "+48 774273659",
                "email": "przedszkole.rzymkowice@interia.pl",
                "ref:regon": "386566320",
                "operator": "Gmina Korfant\u00f3w",
                "operator:type": "government",
                "amenity": "kindergarten"
            }
        },
        {
            "id": 66113,
            "type": "Feature",
            "geometry": {
                "type": "Point",
                "coordinates": [
                    17.67047,
                    50.53189
                ]
            },
            "properties": {
                "ref:rspo": 66113,
                "official_name": "Przedszkole w Przechodzie",
                "name": "Przedszkole w Przechodzie",
                "addr:postcode": "48-324",
                "addr:place": "Przech\u00f3d",
                "addr:housenumber": "241",
                "addr:city:simc": 497012,
                "phone": "+48 774312601",
                "email": "zsprzechod@poczta.fm",
                "ref:regon": "530581328",
                "operator": "Gmina Korfant\u00f3w",
                "operator:type": "government",
                "amenity": "kindergarten"
            }
        },
        {
            "id": 275094,
            "type": "Feature",
            "geometry": {
                "type": "Point",
                "coordinates": [
                    17.6701,
                    50.53249
                ]
            },
            "properties": {
                "isced:level": "1;2",
                "ref:rspo": 275094,
                "official_name": "Niepubliczna Szko\u0142a Podstawowa w Przechodzie",
                "name": "Niepubliczna Szko\u0142a Podstawowa w Przechodzie",
                "addr:postcode": "48-317",
                "addr:place": "Przech\u00f3d",
                "addr:housenumber": "239",
                "addr:city:simc": 497012,
                "phone": "+48 774312605",
                "email": "szkolawprzechodzie@gmail.com",
                "website": "http:\/\/szkolawprzechodzie.pl",
                "ref:regon": "386566930",
                "operator": "Stowarzyszenie Rozwoju Nauki",
                "operator:type": "ngo",
                "amenity": "school"
            }
        }
    ]
}