{
    "type": "FeatureCollection",
    "features": [
        {
            "id": 71785,
            "type": "Feature",
            "geometry": {
                "type": "Point",
                "coordinates": [
                    17.22822,
                    50.36506
                ]
            },
            "properties": {
                "ref:rspo": 71785,
                "official_name": "Zesp\u00f3\u0142 Szkolno-Przedszkolny Szko\u0142a Podstawowa im. Boles\u0142awa Chrobrego Publiczne Przedszkole w Jarno\u0142towie",
                "name": "Zesp\u00f3\u0142 Szkolno-Przedszkolny Szko\u0142a Podstawowa",
                "addr:postcode": "48-385",
                "addr:place": "Jarno\u0142t\u00f3w",
                "addr:housenumber": "88",
                "addr:city:simc": 500725,
                "phone": "+48 774398128",
                "email": "zs_jarnoltow@wodip.opole.pl",
                "ref:regon": "001182351",
                "ref:vatin": "PL7532392694",
                "operator": "Gmina Otmuch\u00f3w",
                "operator:type": "government",
                "landuse": "education",
                "fixme": "amenity=school, amenity=college albo landuse=education w zale\u017cno\u015bci od tego, jakie plac\u00f3wki wchodz\u0105 w sk\u0142ad zespo\u0142u. Sprawd\u017a, kiedy stosowa\u0107 amenity=* a kiedy landuse=education.",
                "note": "Children RSPO: 81425;81429"
            }
        },
        {
            "id": 81425,
            "type": "Feature",
            "geometry": {
                "type": "Point",
                "coordinates": [
                    17.22822,
                    50.36503
                ]
            },
            "properties": {
                "ref:rspo": 81425,
                "official_name": "Publiczne Przedszkole w Jarno\u0142towie",
                "name": "Publiczne Przedszkole w Jarno\u0142towie",
                "addr:postcode": "48-385",
                "addr:place": "Jarno\u0142t\u00f3w",
                "addr:housenumber": "88",
                "addr:city:simc": 500725,
                "phone": "+48 774398128",
                "email": "zs_jarnoltow@wodip.opole.pl",
                "ref:regon": "532214309",
                "ref:vatin": "PL7532206214",
                "operator": "Gmina Otmuch\u00f3w",
                "operator:type": "government",
                "amenity": "kindergarten",
                "note": "Parent RSPO: 71785"
            }
        },
        {
            "id": 81429,
            "type": "Feature",
            "geometry": {
                "type": "Point",
                "coordinates": [
                    17.22822,
                    50.365
                ]
            },
            "properties": {
                "isced:level": "1;2",
                "ref:rspo": 81429,
                "official_name": "Szko\u0142a Podstawowa w Jarno\u0142towie",
                "name": "Szko\u0142a Podstawowa w Jarno\u0142towie",
                "addr:postcode": "48-385",
                "addr:place": "Jarno\u0142t\u00f3w",
                "addr:housenumber": "88",
                "addr:city:simc": 500725,
                "phone": "+48 774398128",
                "email": "zs_jarnoltow@wodip.opole.pl",
                "ref:regon": "532214315",
                "ref:vatin": "PL7532205373",
                "operator": "Gmina Otmuch\u00f3w",
                "operator:type": "government",
                "amenity": "school",
                "note": "Parent RSPO: 71785"
            }
        },
        {
            "id": 84512,
            "type": "Feature",
            "geometry": {
                "type": "Point",
                "coordinates": [
                    17.12961,
                    50.39866
                ]
            },
            "properties": {
                "ref:rspo": 84512,
                "official_name": "Publiczne Przedszkole w Jasienicy G\u00f3rnej",
                "name": "Publiczne Przedszkole w Jasienicy G\u00f3rnej",
                "addr:postcode": "48-385",
                "addr:place": "Jasienica G\u00f3rna",
                "addr:housenumber": "36",
                "addr:city:simc": 500731,
                "phone": "+48 774356384",
                "ref:regon": "530584568",
                "ref:vatin": "PL7532389901",
                "operator": "Gmina Otmuch\u00f3w",
                "operator:type": "government",
                "amenity": "kindergarten"
            }
        },
        {
            "id": 73751,
            "type": "Feature",
            "geometry": {
                "type": "Point",
                "coordinates": [
                    17.18527,
                    50.40411
                ]
            },
            "properties": {
                "ref:rspo": 73751,
                "official_name": "Zesp\u00f3\u0142 Szkolno-Przedszkolny,Szko\u0142a Podstawowa, Publiczne Przedszkole w Ka\u0142kowie",
                "name": "Zesp\u00f3\u0142 Szkolno-Przedszkolny,Szko\u0142a Podstawowa, Publiczne Przedszkole w Ka\u0142kowie",
                "addr:postcode": "48-364",
                "addr:place": "Ka\u0142k\u00f3w",
                "addr:housenumber": "61a",
                "addr:city:simc": 500754,
                "phone": "+48 774356368",
                "email": "szkola.kalkow@interia.pl",
                "ref:regon": "532414362",
                "ref:vatin": "PL7532206208",
                "operator": "Gmina Otmuch\u00f3w",
                "operator:type": "government",
                "landuse": "education",
                "fixme": "amenity=school, amenity=college albo landuse=education w zale\u017cno\u015bci od tego, jakie plac\u00f3wki wchodz\u0105 w sk\u0142ad zespo\u0142u. Sprawd\u017a, kiedy stosowa\u0107 amenity=* a kiedy landuse=education.",
                "note": "Children RSPO: 78995;79017"
            }
        },
        {
            "id": 78995,
            "type": "Feature",
            "geometry": {
                "type": "Point",
                "coordinates": [
                    17.18527,
                    50.40408
                ]
            },
            "properties": {
                "isced:level": "1;2",
                "ref:rspo": 78995,
                "official_name": "Szko\u0142a Podstawowa im. Bohater\u00f3w Powsta\u0144 \u015aL\u0105skich w Ka\u0142kowie",
                "name": "Szko\u0142a Podstawowa",
                "addr:postcode": "48-364",
                "addr:place": "Ka\u0142k\u00f3w",
                "addr:housenumber": "61a",
                "addr:city:simc": 500754,
                "phone": "+48 774356368",
                "email": "szkola.kalkow@interia.pl",
                "ref:regon": "001182380",
                "operator": "Gmina Otmuch\u00f3w",
                "operator:type": "government",
                "amenity": "school",
                "note": "Parent RSPO: 73751"
            }
        },
        {
            "id": 79017,
            "type": "Feature",
            "geometry": {
                "type": "Point",
                "coordinates": [
                    17.18863,
                    50.40675
                ]
            },
            "properties": {
                "ref:rspo": 79017,
                "official_name": "Publiczne Przedszkole w Ka\u0142kowie",
                "name": "Publiczne Przedszkole w Ka\u0142kowie",
                "addr:postcode": "48-364",
                "addr:place": "Ka\u0142k\u00f3w",
                "addr:housenumber": "69",
                "addr:city:simc": 500754,
                "phone": "+48 774357305",
                "email": "szkola.kalkow@interia.pl",
                "ref:regon": "530584580",
                "operator": "Gmina Otmuch\u00f3w",
                "operator:type": "government",
                "amenity": "kindergarten",
                "note": "Parent RSPO: 73751"
            }
        },
        {
            "id": 74606,
            "type": "Feature",
            "geometry": {
                "type": "Point",
                "coordinates": [
                    17.15387,
                    50.43674
                ]
            },
            "properties": {
                "ref:rspo": 74606,
                "official_name": "Zesp\u00f3\u0142 Szkolno- Przedszkolny, Szko\u0142a Podstawowa, Publiczne Przedszkole w Mesznie",
                "name": "Zesp\u00f3\u0142 Szkolno- Przedszkolny, Szko\u0142a Podstawowa, Publiczne Przedszkole w Mesznie",
                "addr:postcode": "48-385",
                "addr:place": "Meszno",
                "addr:housenumber": "69",
                "addr:city:simc": 500872,
                "phone": "+48 774315197",
                "email": "sp_meszno@wodip.opole.pl",
                "ref:regon": "532414422",
                "ref:vatin": "PL7532205858",
                "operator": "Gmina Otmuch\u00f3w",
                "operator:type": "government",
                "landuse": "education",
                "fixme": "amenity=school, amenity=college albo landuse=education w zale\u017cno\u015bci od tego, jakie plac\u00f3wki wchodz\u0105 w sk\u0142ad zespo\u0142u. Sprawd\u017a, kiedy stosowa\u0107 amenity=* a kiedy landuse=education.",
                "note": "Children RSPO: 88590;88626"
            }
        },
        {
            "id": 88590,
            "type": "Feature",
            "geometry": {
                "type": "Point",
                "coordinates": [
                    17.15387,
                    50.43671
                ]
            },
            "properties": {
                "ref:rspo": 88590,
                "official_name": "Publiczne Przedszkole w Mesznie",
                "name": "Publiczne Przedszkole w Mesznie",
                "addr:postcode": "48-385",
                "addr:place": "Meszno",
                "addr:housenumber": "69",
                "addr:city:simc": 500872,
                "phone": "+48 774315197",
                "ref:regon": "530584551",
                "operator": "Gmina Otmuch\u00f3w",
                "operator:type": "government",
                "amenity": "kindergarten",
                "note": "Parent RSPO: 74606"
            }
        },
        {
            "id": 88626,
            "type": "Feature",
            "geometry": {
                "type": "Point",
                "coordinates": [
                    17.15387,
                    50.43668
                ]
            },
            "properties": {
                "isced:level": "1;2",
                "ref:rspo": 88626,
                "official_name": "Szko\u0142a Podstawowa w Mesznie",
                "name": "Szko\u0142a Podstawowa w Mesznie",
                "addr:postcode": "48-385",
                "addr:place": "Meszno",
                "addr:housenumber": "69",
                "addr:city:simc": 500872,
                "phone": "+48 774315197",
                "email": "sp_meszno@wodip.opole.pl",
                "ref:regon": "001182397",
                "operator": "Gmina Otmuch\u00f3w",
                "operator:type": "government",
                "amenity": "school",
                "note": "Parent RSPO: 74606"
            }
        },
        {
            "id": 75491,
            "type": "Feature",
            "geometry": {
                "type": "Point",
                "coordinates": [
                    17.17858,
                    50.4652
                ]
            },
            "properties": {
                "ref:rspo": 75491,
                "official_name": "Publiczne Przedszkole nr 1 Otmuchowie",
                "name": "Publiczne Przedszkole nr 1 Otmuchowie",
                "addr:postcode": "48-385",
                "addr:city": "Otmuch\u00f3w",
                "addr:street": "W\u0142adys\u0142awa \u0141okietka",
                "addr:housenumber": "2",
                "addr:city:simc": 965832,
                "addr:street:sym_ul": 11653,
                "phone": "+48 774315300",
                "ref:regon": "530584657",
                "ref:vatin": "PL7532388959",
                "operator": "Gmina Otmuch\u00f3w",
                "operator:type": "government",
                "amenity": "kindergarten",
                "note": "Parent RSPO: 128139"
            }
        },
        {
            "id": 128139,
            "type": "Feature",
            "geometry": {
                "type": "Point",
                "coordinates": [
                    17.16982,
                    50.46989
                ]
            },
            "properties": {
                "ref:rspo": 128139,
                "official_name": "Zesp\u00f3\u0142 Przedszkoli w Otmuchowie",
                "name": "Zesp\u00f3\u0142 Przedszkoli w Otmuchowie",
                "addr:postcode": "48-385",
                "addr:city": "Otmuch\u00f3w",
                "addr:street": "W\u0142adys\u0142awa Jagie\u0142\u0142y",
                "addr:housenumber": "3",
                "addr:city:simc": 965832,
                "addr:street:sym_ul": 7040,
                "phone": "+48 774315046",
                "ref:regon": "362121097",
                "operator": "Gmina Otmuch\u00f3w",
                "operator:type": "government",
                "landuse": "education",
                "fixme": "amenity=school, amenity=college albo landuse=education w zale\u017cno\u015bci od tego, jakie plac\u00f3wki wchodz\u0105 w sk\u0142ad zespo\u0142u. Sprawd\u017a, kiedy stosowa\u0107 amenity=* a kiedy landuse=education.",
                "note": "Children RSPO: 75491;79121"
            }
        },
        {
            "id": 79121,
            "type": "Feature",
            "geometry": {
                "type": "Point",
                "coordinates": [
                    17.16982,
                    50.46986
                ]
            },
            "properties": {
                "ref:rspo": 79121,
                "official_name": "Publiczne Przedszkole Nr2 z Oddzia\u0142em \u017b\u0142obkowym",
                "name": "Publiczne Przedszkole Nr2 z Oddzia\u0142em \u017b\u0142obkowym",
                "addr:postcode": "48-385",
                "addr:city": "Otmuch\u00f3w",
                "addr:street": "W\u0142adys\u0142awa Jagie\u0142\u0142y",
                "addr:housenumber": "3",
                "addr:city:simc": 965832,
                "addr:street:sym_ul": 7040,
                "phone": "+48 774315046",
                "ref:regon": "530584670",
                "ref:vatin": "PL7532389893",
                "operator": "Gmina Otmuch\u00f3w",
                "operator:type": "government",
                "amenity": "kindergarten",
                "note": "Parent RSPO: 128139"
            }
        },
        {
            "id": 74523,
            "type": "Feature",
            "geometry": {
                "type": "Point",
                "coordinates": [
                    17.1779699,
                    50.47001
                ]
            },
            "properties": {
                "ref:rspo": 74523,
                "official_name": "Zesp\u00f3\u0142 Szkolno-Przedszkolny Szko\u0142a Podstawowa nr 2 Publiczne Przedszkole nr 3 w Otmuchowie",
                "name": "Zesp\u00f3\u0142 Szkolno-Przedszkolny Szko\u0142a Podstawowa nr 2 Publiczne Przedszkole nr 3 w Otmuchowie",
                "addr:postcode": "48-385",
                "addr:city": "Otmuch\u00f3w",
                "addr:street": "Kalinowa",
                "addr:housenumber": "39",
                "addr:city:simc": 965832,
                "addr:street:sym_ul": 7804,
                "phone": "+48 774315382",
                "ref:regon": "532417030",
                "ref:vatin": "PL7532206728",
                "operator": "Gmina Otmuch\u00f3w",
                "operator:type": "government",
                "landuse": "education",
                "fixme": "amenity=school, amenity=college albo landuse=education w zale\u017cno\u015bci od tego, jakie plac\u00f3wki wchodz\u0105 w sk\u0142ad zespo\u0142u. Sprawd\u017a, kiedy stosowa\u0107 amenity=* a kiedy landuse=education.",
                "note": "Children RSPO: 89443;89444"
            }
        },
        {
            "id": 89443,
            "type": "Feature",
            "geometry": {
                "type": "Point",
                "coordinates": [
                    17.1779699,
                    50.46998
                ]
            },
            "properties": {
                "ref:rspo": 89443,
                "official_name": "Publiczne Przedszkole nr 3 w Otmuchowie",
                "name": "Publiczne Przedszkole nr 3 w Otmuchowie",
                "addr:postcode": "48-385",
                "addr:city": "Otmuch\u00f3w",
                "addr:street": "Kalinowa",
                "addr:housenumber": "126",
                "addr:city:simc": 965832,
                "addr:street:sym_ul": 7804,
                "phone": "+48 774315382",
                "ref:regon": "530584500",
                "operator": "Gmina Otmuch\u00f3w",
                "operator:type": "government",
                "amenity": "kindergarten",
                "note": "Parent RSPO: 74523"
            }
        },
        {
            "id": 89444,
            "type": "Feature",
            "geometry": {
                "type": "Point",
                "coordinates": [
                    17.1779699,
                    50.469950000000004
                ]
            },
            "properties": {
                "isced:level": "1;2",
                "ref:rspo": 89444,
                "official_name": "Szko\u0142a Podstawowa nr 2 w Otmuchowie",
                "name": "Szko\u0142a Podstawowa nr 2 w Otmuchowie",
                "addr:postcode": "48-385",
                "addr:city": "Otmuch\u00f3w",
                "addr:street": "Kalinowa",
                "addr:housenumber": "39",
                "addr:city:simc": 965832,
                "addr:street:sym_ul": 7804,
                "phone": "+48 774315382",
                "email": "zspwojcice@op.pl",
                "ref:regon": "001182405",
                "operator": "Gmina Otmuch\u00f3w",
                "operator:type": "government",
                "amenity": "school",
                "note": "Parent RSPO: 74523"
            }
        },
        {
            "id": 53579,
            "type": "Feature",
            "geometry": {
                "type": "Point",
                "coordinates": [
                    17.16784,
                    50.47039
                ]
            },
            "properties": {
                "ref:rspo": 53579,
                "official_name": "Zesp\u00f3\u0142 Szk\u00f3\u0142 w Otmuchowie",
                "name": "Zesp\u00f3\u0142 Szk\u00f3\u0142 w Otmuchowie",
                "addr:postcode": "48-385",
                "addr:city": "Otmuch\u00f3w",
                "addr:street": "Krakowska",
                "addr:housenumber": "36",
                "addr:city:simc": 965832,
                "addr:street:sym_ul": 9796,
                "phone": "+48 774315156",
                "email": "zsotmuchow@zsotmuchow.pl",
                "website": "http:\/\/www.zsotmuchow.pl",
                "ref:regon": "161470850",
                "ref:vatin": "PL7532430880",
                "operator": "Gmina Otmuch\u00f3w",
                "operator:type": "government",
                "landuse": "education",
                "fixme": "amenity=school, amenity=college albo landuse=education w zale\u017cno\u015bci od tego, jakie plac\u00f3wki wchodz\u0105 w sk\u0142ad zespo\u0142u. Sprawd\u017a, kiedy stosowa\u0107 amenity=* a kiedy landuse=education.",
                "note": "Children RSPO: 88772;89999;268265"
            }
        },
        {
            "id": 88772,
            "type": "Feature",
            "geometry": {
                "type": "Point",
                "coordinates": [
                    17.16784,
                    50.47036
                ]
            },
            "properties": {
                "isced:level": "3",
                "ref:rspo": 88772,
                "official_name": "Liceum Og\u00f3lnokszta\u0142c\u0105ce",
                "name": "Liceum Og\u00f3lnokszta\u0142c\u0105ce",
                "addr:postcode": "48-385",
                "addr:city": "Otmuch\u00f3w",
                "addr:street": "Krakowska",
                "addr:housenumber": "36",
                "addr:city:simc": 965832,
                "addr:street:sym_ul": 9796,
                "phone": "+48 774315156",
                "email": "zsotmuchow@zsotmuchow.pl",
                "website": "http:\/\/www.zsotmuchow.pl",
                "ref:regon": "532399846",
                "operator": "Gmina Otmuch\u00f3w",
                "operator:type": "government",
                "amenity": "school",
                "note": "Parent RSPO: 53579"
            }
        },
        {
            "id": 89999,
            "type": "Feature",
            "geometry": {
                "type": "Point",
                "coordinates": [
                    17.16784,
                    50.470330000000004
                ]
            },
            "properties": {
                "isced:level": "3",
                "ref:rspo": 89999,
                "official_name": "Technikum",
                "name": "Technikum",
                "addr:postcode": "48-385",
                "addr:city": "Otmuch\u00f3w",
                "addr:street": "Krakowska",
                "addr:housenumber": "36",
                "addr:city:simc": 965832,
                "addr:street:sym_ul": 9796,
                "phone": "+48 774315156",
                "email": "zsotmuchow@zsotmuchow.pl",
                "website": "http:\/\/www.zsotmuchow.pl",
                "ref:regon": "160270669",
                "operator": "Gmina Otmuch\u00f3w",
                "operator:type": "government",
                "amenity": "school",
                "note": "Parent RSPO: 53579"
            }
        },
        {
            "id": 268265,
            "type": "Feature",
            "geometry": {
                "type": "Point",
                "coordinates": [
                    17.16784,
                    50.4703
                ]
            },
            "properties": {
                "isced:level": "3",
                "ref:rspo": 268265,
                "official_name": "Bran\u017cowa Szko\u0142a I Stopnia w Otmuchowie",
                "name": "Bran\u017cowa Szko\u0142a I Stopnia w Otmuchowie",
                "addr:postcode": "48-385",
                "addr:city": "Otmuch\u00f3w",
                "addr:street": "Krakowska",
                "addr:housenumber": "36",
                "addr:city:simc": 965832,
                "addr:street:sym_ul": 9796,
                "phone": "+48 774315156",
                "email": "zsotmuchow@zsotmuchow.pl",
                "website": "http:\/\/www.zsotmuchow.pl",
                "ref:regon": "381049229",
                "operator": "Gmina Otmuch\u00f3w",
                "operator:type": "government",
                "amenity": "school",
                "note": "Parent RSPO: 53579"
            }
        },
        {
            "id": 75034,
            "type": "Feature",
            "geometry": {
                "type": "Point",
                "coordinates": [
                    17.16753,
                    50.4711799
                ]
            },
            "properties": {
                "isced:level": "1;2",
                "ref:rspo": 75034,
                "official_name": "Szko\u0142a Podstawowa nr 1 w Otmuchowie",
                "name": "Szko\u0142a Podstawowa nr 1 w Otmuchowie",
                "addr:postcode": "48-385",
                "addr:city": "Otmuch\u00f3w",
                "addr:street": "Krakowska",
                "addr:housenumber": "38",
                "addr:city:simc": 965832,
                "addr:street:sym_ul": 9796,
                "phone": "+48 774315130",
                "email": "sp_otmuchow@onet.eu",
                "ref:regon": "532407362",
                "ref:vatin": "PL7532205864",
                "operator": "Gmina Otmuch\u00f3w",
                "operator:type": "government",
                "amenity": "school"
            }
        },
        {
            "id": 86725,
            "type": "Feature",
            "geometry": {
                "type": "Point",
                "coordinates": [
                    17.11313,
                    50.48261
                ]
            },
            "properties": {
                "isced:level": "1;2",
                "ref:rspo": 86725,
                "official_name": "Szko\u0142a Podstawowa im. Macieja P\u0142a\u017cy\u0144skiego w Ligocie Wielkiej",
                "name": "Szko\u0142a Podstawowa",
                "addr:postcode": "48-385",
                "addr:place": "Ligota Wielka",
                "addr:housenumber": "12",
                "addr:city:simc": 500808,
                "phone": "+48 774315287",
                "email": "spligota@wp.pl",
                "ref:regon": "161495229",
                "ref:vatin": "PL7532201062",
                "operator": "Stowarzyszenie Na Rzecz Rozwoju Wsi Ligota Wielka",
                "operator:type": "ngo",
                "amenity": "school"
            }
        },
        {
            "id": 73752,
            "type": "Feature",
            "geometry": {
                "type": "Point",
                "coordinates": [
                    17.21754,
                    50.49945
                ]
            },
            "properties": {
                "ref:rspo": 73752,
                "official_name": "Zesp\u00f3\u0142 Szkolno-Przedszkolny, Szko\u0142a Podstawowa, Publiczne Przedszkole w Gr\u0105dach",
                "name": "Zesp\u00f3\u0142 Szkolno-Przedszkolny, Szko\u0142a Podstawowa, Publiczne Przedszkole w Gr\u0105dach",
                "addr:postcode": "48-385",
                "addr:place": "Gr\u0105dy",
                "addr:housenumber": "32",
                "addr:city:simc": 500688,
                "phone": "+48 774314006",
                "email": "zspgrady@wp.pl",
                "ref:regon": "532414296",
                "ref:vatin": "PL7532205835",
                "operator": "Gmina Otmuch\u00f3w",
                "operator:type": "government",
                "landuse": "education",
                "fixme": "amenity=school, amenity=college albo landuse=education w zale\u017cno\u015bci od tego, jakie plac\u00f3wki wchodz\u0105 w sk\u0142ad zespo\u0142u. Sprawd\u017a, kiedy stosowa\u0107 amenity=* a kiedy landuse=education.",
                "note": "Children RSPO: 81515;85597"
            }
        },
        {
            "id": 81515,
            "type": "Feature",
            "geometry": {
                "type": "Point",
                "coordinates": [
                    17.21754,
                    50.49942
                ]
            },
            "properties": {
                "isced:level": "1;2",
                "ref:rspo": 81515,
                "official_name": "Szko\u0142a Podstawowa w Gr\u0105dach",
                "name": "Szko\u0142a Podstawowa w Gr\u0105dach",
                "addr:postcode": "48-385",
                "addr:place": "Gr\u0105dy",
                "addr:housenumber": "32",
                "addr:city:simc": 500688,
                "phone": "+48 774314006",
                "email": "zspgrady@wp.pl",
                "ref:regon": "001182322",
                "operator": "Gmina Otmuch\u00f3w",
                "operator:type": "government",
                "amenity": "school",
                "note": "Parent RSPO: 73752"
            }
        },
        {
            "id": 85597,
            "type": "Feature",
            "geometry": {
                "type": "Point",
                "coordinates": [
                    17.21754,
                    50.499390000000005
                ]
            },
            "properties": {
                "ref:rspo": 85597,
                "official_name": "Publiczne Przedszkole w Gr\u0105dach",
                "name": "Publiczne Przedszkole w Gr\u0105dach",
                "addr:postcode": "48-385",
                "addr:place": "Gr\u0105dy",
                "addr:housenumber": "32",
                "addr:city:simc": 500688,
                "phone": "+48 774314006",
                "email": "zspgrady@wp.pl",
                "ref:regon": "532407385",
                "operator": "Gmina Otmuch\u00f3w",
                "operator:type": "government",
                "amenity": "kindergarten",
                "note": "Parent RSPO: 73752"
            }
        },
        {
            "id": 74521,
            "type": "Feature",
            "geometry": {
                "type": "Point",
                "coordinates": [
                    17.135,
                    50.49978
                ]
            },
            "properties": {
                "ref:rspo": 74521,
                "official_name": "Zesp\u00f3\u0142 Szkolno-Przedszkolny, Szko\u0142a Podstawowa, Publiczne Przedszkole w Maciejowicach",
                "name": "Zesp\u00f3\u0142 Szkolno-Przedszkolny, Szko\u0142a Podstawowa, Publiczne Przedszkole w Maciejowicach",
                "addr:postcode": "48-385",
                "addr:place": "Maciejowice",
                "addr:housenumber": "49",
                "addr:city:simc": 500837,
                "phone": "+48 774315625",
                "email": "maciejowicesp@poczta.onet.pl",
                "website": "http:\/\/maciejowicesp.szkolnstrona.pl",
                "ref:regon": "532414445",
                "ref:vatin": "PL7532205841",
                "operator": "Gmina Otmuch\u00f3w",
                "operator:type": "government",
                "landuse": "education",
                "fixme": "amenity=school, amenity=college albo landuse=education w zale\u017cno\u015bci od tego, jakie plac\u00f3wki wchodz\u0105 w sk\u0142ad zespo\u0142u. Sprawd\u017a, kiedy stosowa\u0107 amenity=* a kiedy landuse=education.",
                "note": "Children RSPO: 86813;86814"
            }
        },
        {
            "id": 86813,
            "type": "Feature",
            "geometry": {
                "type": "Point",
                "coordinates": [
                    17.135,
                    50.49975
                ]
            },
            "properties": {
                "isced:level": "1;2",
                "ref:rspo": 86813,
                "official_name": "Szko\u0142a Podstawowa w Maciejowicach",
                "name": "Szko\u0142a Podstawowa w Maciejowicach",
                "addr:postcode": "48-385",
                "addr:place": "Maciejowice",
                "addr:housenumber": "49",
                "addr:city:simc": 500837,
                "phone": "+48 774315625",
                "email": "maciejowicesp@poczta.onet.pl",
                "website": "http:\/\/maciejowicesp.szkolnastrona.pl",
                "ref:regon": "001182428",
                "operator": "Gmina Otmuch\u00f3w",
                "operator:type": "government",
                "amenity": "school",
                "note": "Parent RSPO: 74521"
            }
        },
        {
            "id": 86814,
            "type": "Feature",
            "geometry": {
                "type": "Point",
                "coordinates": [
                    17.135,
                    50.49972
                ]
            },
            "properties": {
                "ref:rspo": 86814,
                "official_name": "Publiczne Przedszkole w Maciejowicach",
                "name": "Publiczne Przedszkole w Maciejowicach",
                "addr:postcode": "48-385",
                "addr:place": "Maciejowice",
                "addr:housenumber": "49",
                "addr:city:simc": 500837,
                "phone": "+48 774315625",
                "email": "maciejowicesp@poczta.onet.pl",
                "website": "http:\/\/maciejowicesp.szkolnastrona.pl",
                "ref:regon": "530584628",
                "operator": "Gmina Otmuch\u00f3w",
                "operator:type": "government",
                "amenity": "kindergarten",
                "note": "Parent RSPO: 74521"
            }
        }
    ]
}