{
    "type": "FeatureCollection",
    "features": [
        {
            "id": 6648,
            "type": "Feature",
            "geometry": {
                "type": "Point",
                "coordinates": [
                    17.46901,
                    50.39925
                ]
            },
            "properties": {
                "isced:level": "1;2",
                "ref:rspo": 6648,
                "official_name": "Szko\u0142a Podstawowa im. Gustawa Morcinka w Lipowej z Oddzia\u0142em Przedszkolnym",
                "name": "Szko\u0142a Podstawowa",
                "addr:postcode": "48-303",
                "addr:place": "Lipowa",
                "addr:housenumber": "83A",
                "addr:city:simc": 500412,
                "phone": "+48 774354486",
                "email": "zsplipowa@interia.pl",
                "website": "http:\/\/www.zsplipowa.edupage.org",
                "ref:regon": "161478320",
                "operator": "Stowarzyszenie Nasza Lipowa",
                "operator:type": "ngo",
                "amenity": "school"
            }
        },
        {
            "id": 133288,
            "type": "Feature",
            "geometry": {
                "type": "Point",
                "coordinates": [
                    17.46901,
                    50.39922
                ]
            },
            "properties": {
                "ref:rspo": 133288,
                "official_name": "Przedszkole w Lipowej",
                "name": "Przedszkole w Lipowej",
                "addr:postcode": "48-303",
                "addr:place": "Lipowa",
                "addr:housenumber": "83A",
                "addr:city:simc": 500412,
                "phone": "+48 774354486",
                "email": "zsplipowa@interia.pl",
                "website": "http:\/\/zsplipowa.edupage.org",
                "ref:regon": "366952926",
                "operator": "Stowarzyszenie Nasza Lipowa",
                "operator:type": "ngo",
                "amenity": "kindergarten"
            }
        },
        {
            "id": 264965,
            "type": "Feature",
            "geometry": {
                "type": "Point",
                "coordinates": [
                    17.33304,
                    50.41086
                ]
            },
            "properties": {
                "ref:rspo": 264965,
                "official_name": "Zesp\u00f3\u0142 Szkolno - Przedszkolny w Prze\u0142\u0119ku",
                "name": "Zesp\u00f3\u0142 Szkolno - Przedszkolny w Prze\u0142\u0119ku",
                "addr:postcode": "48-303",
                "addr:place": "Prze\u0142\u0119k",
                "addr:housenumber": "15",
                "addr:city:simc": 500458,
                "phone": "+48 774334819",
                "email": "przelek@pspsrwprzelek.nysa.pl",
                "website": "http:\/\/pspsrwprzelek.nysa.pl",
                "ref:regon": "368531560",
                "operator": "Stowarzyszenie Rozwoju Wsi Prze\u0142\u0119k",
                "operator:type": "ngo",
                "landuse": "education",
                "fixme": "amenity=school, amenity=college albo landuse=education w zale\u017cno\u015bci od tego, jakie plac\u00f3wki wchodz\u0105 w sk\u0142ad zespo\u0142u. Sprawd\u017a, kiedy stosowa\u0107 amenity=* a kiedy landuse=education.",
                "note": "Children RSPO: 41821;264964"
            }
        },
        {
            "id": 41821,
            "type": "Feature",
            "geometry": {
                "type": "Point",
                "coordinates": [
                    17.33304,
                    50.41083
                ]
            },
            "properties": {
                "isced:level": "1;2",
                "ref:rspo": 41821,
                "official_name": "Szko\u0142a Podstawowa w Prze\u0142\u0119ku",
                "name": "Szko\u0142a Podstawowa w Prze\u0142\u0119ku",
                "addr:postcode": "48-351",
                "addr:place": "Prze\u0142\u0119k",
                "addr:housenumber": "15",
                "addr:city:simc": 500458,
                "phone": "+48 774334819",
                "email": "przelek@pspsrwprzelek.nysa.pl",
                "website": "http:\/\/www.pspsrprzelek.nysa.pl",
                "ref:regon": "161488850",
                "ref:vatin": "PL7532226665",
                "operator": "Stowarzyszenie Rozwoju Wsi Prze\u0142\u0119k",
                "operator:type": "ngo",
                "amenity": "school",
                "note": "Parent RSPO: 264965"
            }
        },
        {
            "id": 264964,
            "type": "Feature",
            "geometry": {
                "type": "Point",
                "coordinates": [
                    17.33304,
                    50.4108
                ]
            },
            "properties": {
                "ref:rspo": 264964,
                "official_name": "Przedszkole w Prze\u0142\u0119ku",
                "name": "Przedszkole w Prze\u0142\u0119ku",
                "addr:postcode": "48-303",
                "addr:place": "Prze\u0142\u0119k",
                "addr:housenumber": "15",
                "addr:city:simc": 500458,
                "phone": "+48 774334819",
                "email": "przelek@pspsrwprzelek.nysa.pl",
                "ref:regon": "368531548",
                "operator": "Stowarzyszenie Rozwoju Wsi Prze\u0142\u0119k",
                "operator:type": "ngo",
                "amenity": "kindergarten",
                "note": "Parent RSPO: 264965"
            }
        },
        {
            "id": 21759,
            "type": "Feature",
            "geometry": {
                "type": "Point",
                "coordinates": [
                    17.28149,
                    50.41212
                ]
            },
            "properties": {
                "ref:rspo": 21759,
                "official_name": "Zesp\u00f3\u0142 Szkolno - Przedszkolny w Kopernikach",
                "name": "Zesp\u00f3\u0142 Szkolno - Przedszkolny w Kopernikach",
                "addr:postcode": "48-303",
                "addr:place": "Koperniki",
                "addr:housenumber": "16A",
                "addr:city:simc": 500398,
                "phone": "+48 774356728",
                "email": "kopernik@gzo.nysa.pl",
                "website": "http:\/\/www.zspkoperniki.szkolnastrona.pl",
                "ref:regon": "532407882",
                "ref:vatin": "PL7532336187",
                "operator": "Gmina Nysa",
                "operator:type": "government",
                "landuse": "education",
                "fixme": "amenity=school, amenity=college albo landuse=education w zale\u017cno\u015bci od tego, jakie plac\u00f3wki wchodz\u0105 w sk\u0142ad zespo\u0142u. Sprawd\u017a, kiedy stosowa\u0107 amenity=* a kiedy landuse=education.",
                "note": "Children RSPO: 34256;34257"
            }
        },
        {
            "id": 34256,
            "type": "Feature",
            "geometry": {
                "type": "Point",
                "coordinates": [
                    17.28149,
                    50.41209
                ]
            },
            "properties": {
                "ref:rspo": 34256,
                "official_name": "Przedszkole w Kopernikach",
                "name": "Przedszkole w Kopernikach",
                "addr:postcode": "48-303",
                "addr:place": "Koperniki",
                "addr:housenumber": "16A",
                "addr:city:simc": 500398,
                "phone": "+48 774356728",
                "email": "kopernik@gzo.nysa.pl",
                "website": "http:\/\/www.zspkoperniki.szkolnastrona.pl",
                "ref:regon": "530584380",
                "operator": "Gmina Nysa",
                "operator:type": "government",
                "amenity": "kindergarten",
                "note": "Parent RSPO: 21759"
            }
        },
        {
            "id": 34257,
            "type": "Feature",
            "geometry": {
                "type": "Point",
                "coordinates": [
                    17.28149,
                    50.412060000000004
                ]
            },
            "properties": {
                "isced:level": "1;2",
                "ref:rspo": 34257,
                "official_name": "Szko\u0142a Podstawowa im. Miko\u0142aja Kopernika w Kopernikach",
                "name": "Szko\u0142a Podstawowa",
                "addr:postcode": "48-303",
                "addr:place": "Koperniki",
                "addr:housenumber": "16A",
                "addr:city:simc": 500398,
                "phone": "+48 774356728",
                "email": "kopernik@gzo.nysa.pl",
                "website": "http:\/\/www.zspkoperniki.szkolnastrona.pl",
                "ref:regon": "000769143",
                "operator": "Gmina Nysa",
                "operator:type": "government",
                "amenity": "school",
                "note": "Parent RSPO: 21759"
            }
        },
        {
            "id": 34252,
            "type": "Feature",
            "geometry": {
                "type": "Point",
                "coordinates": [
                    17.3064399,
                    50.43221
                ]
            },
            "properties": {
                "ref:rspo": 34252,
                "official_name": "Przedszkole im. Marii Kownackiej w Bia\u0142ej Nyskiej",
                "name": "Przedszkole",
                "addr:postcode": "48-351",
                "addr:city": "Bia\u0142a Nyska",
                "addr:street": "Kamienna",
                "addr:housenumber": "2",
                "addr:city:simc": 500257,
                "addr:street:sym_ul": 7879,
                "phone": "+48 774356890",
                "email": "bialanyska@gzo.nysa.pl",
                "ref:regon": "530584315",
                "operator": "Gmina Nysa",
                "operator:type": "government",
                "amenity": "kindergarten",
                "note": "Parent RSPO: 21727"
            }
        },
        {
            "id": 21727,
            "type": "Feature",
            "geometry": {
                "type": "Point",
                "coordinates": [
                    17.30622,
                    50.43409
                ]
            },
            "properties": {
                "ref:rspo": 21727,
                "official_name": "Zesp\u00f3\u0142 Szkolno - Przedszkolny w Bia\u0142ej Nyskiej",
                "name": "Zesp\u00f3\u0142 Szkolno - Przedszkolny w Bia\u0142ej Nyskiej",
                "addr:postcode": "48-351",
                "addr:city": "Bia\u0142a Nyska",
                "addr:street": "Nyska",
                "addr:housenumber": "11",
                "addr:city:simc": 500257,
                "addr:street:sym_ul": 14559,
                "phone": "+48 774356823",
                "email": "bialanyska@gzo.nysa.pl",
                "ref:regon": "161205622",
                "ref:vatin": "PL7532427837",
                "operator": "Gmina Nysa",
                "operator:type": "government",
                "landuse": "education",
                "fixme": "amenity=school, amenity=college albo landuse=education w zale\u017cno\u015bci od tego, jakie plac\u00f3wki wchodz\u0105 w sk\u0142ad zespo\u0142u. Sprawd\u017a, kiedy stosowa\u0107 amenity=* a kiedy landuse=education.",
                "note": "Children RSPO: 34252;34253"
            }
        },
        {
            "id": 34253,
            "type": "Feature",
            "geometry": {
                "type": "Point",
                "coordinates": [
                    17.30622,
                    50.434059999999995
                ]
            },
            "properties": {
                "isced:level": "1;2",
                "ref:rspo": 34253,
                "official_name": "Szko\u0142a Podstawowa im. J\u00f3zefa Wybickiego w Bia\u0142ej Nyskiej",
                "name": "Szko\u0142a Podstawowa",
                "addr:postcode": "48-351",
                "addr:city": "Bia\u0142a Nyska",
                "addr:street": "Nyska",
                "addr:housenumber": "11",
                "addr:city:simc": 500257,
                "addr:street:sym_ul": 14559,
                "phone": "+48 774356823",
                "email": "bialanyska@gzo.nysa.pl",
                "ref:regon": "000769522",
                "operator": "Gmina Nysa",
                "operator:type": "government",
                "amenity": "school",
                "note": "Parent RSPO: 21727"
            }
        },
        {
            "id": 21773,
            "type": "Feature",
            "geometry": {
                "type": "Point",
                "coordinates": [
                    17.39114,
                    50.448
                ]
            },
            "properties": {
                "ref:rspo": 21773,
                "official_name": "Zesp\u00f3\u0142 Szkolno - Przedszkolny w Niwnicy",
                "name": "Zesp\u00f3\u0142 Szkolno - Przedszkolny w Niwnicy",
                "addr:postcode": "48-303",
                "addr:place": "Niwnica",
                "addr:housenumber": "127",
                "addr:city:simc": 500435,
                "phone": "+48 774356427",
                "email": "niwnica@gzo.nysa.pl",
                "ref:regon": "532410565",
                "ref:vatin": "PL7532332344",
                "operator": "Gmina Nysa",
                "operator:type": "government",
                "landuse": "education",
                "fixme": "amenity=school, amenity=college albo landuse=education w zale\u017cno\u015bci od tego, jakie plac\u00f3wki wchodz\u0105 w sk\u0142ad zespo\u0142u. Sprawd\u017a, kiedy stosowa\u0107 amenity=* a kiedy landuse=education.",
                "note": "Children RSPO: 34258;34259"
            }
        },
        {
            "id": 34258,
            "type": "Feature",
            "geometry": {
                "type": "Point",
                "coordinates": [
                    17.39114,
                    50.44797
                ]
            },
            "properties": {
                "ref:rspo": 34258,
                "official_name": "Przedszkole w Niwnicy",
                "name": "Przedszkole w Niwnicy",
                "addr:postcode": "48-303",
                "addr:place": "Niwnica",
                "addr:housenumber": "127",
                "addr:city:simc": 500435,
                "phone": "+48 774356427",
                "email": "niwnica@gzo.nysa.pl",
                "ref:regon": "530584344",
                "operator": "Gmina Nysa",
                "operator:type": "government",
                "amenity": "kindergarten",
                "note": "Parent RSPO: 21773"
            }
        },
        {
            "id": 34259,
            "type": "Feature",
            "geometry": {
                "type": "Point",
                "coordinates": [
                    17.39114,
                    50.44794
                ]
            },
            "properties": {
                "isced:level": "1;2",
                "ref:rspo": 34259,
                "official_name": "Szko\u0142a Podstawowa im. Bojownik\u00f3w O Wolno\u015b\u0107 w Niwnicy",
                "name": "Szko\u0142a Podstawowa",
                "addr:postcode": "48-303",
                "addr:place": "Niwnica",
                "addr:housenumber": "127",
                "addr:city:simc": 500435,
                "phone": "+48 774356427",
                "email": "niwnica@gzo.nysa.pl",
                "ref:regon": "000769516",
                "operator": "Gmina Nysa",
                "operator:type": "government",
                "amenity": "school",
                "note": "Parent RSPO: 21773"
            }
        },
        {
            "id": 111756,
            "type": "Feature",
            "geometry": {
                "type": "Point",
                "coordinates": [
                    17.439,
                    50.45098
                ]
            },
            "properties": {
                "isced:level": "1;2",
                "ref:rspo": 111756,
                "official_name": "Publiczna Szko\u0142a Podstawowa Stowarzyszenia Przyjaci\u00f3\u0142 Szk\u00f3\u0142 Katolickich im. \u015aw. Urszuli Led\u00f3chowskiej w Domaszkowicach",
                "name": "Publiczna Szko\u0142a Podstawowa Stowarzyszenia Przyjaci\u00f3\u0142 Szk\u00f3\u0142 Katolickich",
                "addr:postcode": "48-303",
                "addr:place": "Domaszkowice",
                "addr:housenumber": "47",
                "addr:city:simc": 500263,
                "phone": "+48 774356527",
                "email": "spdomaszkowice@wp.pl",
                "website": "http:\/\/www.domaszkowice.pl",
                "ref:regon": "161485870",
                "ref:vatin": "PL7532226642",
                "operator": "Stowarzyszenie Przyjaci\u00f3\u0142 Szk\u00f3\u0142 Katolickich",
                "operator:type": "ngo",
                "amenity": "school"
            }
        },
        {
            "id": 266385,
            "type": "Feature",
            "geometry": {
                "type": "Point",
                "coordinates": [
                    17.439,
                    50.45095
                ]
            },
            "properties": {
                "ref:rspo": 266385,
                "official_name": "Publiczne Przedszkole Stowarzyszenia Przyjaci\u00f3\u0142 Szk\u00f3\u0142 Katolickich im. B\u0142. Edmunda Bojanowskiego w Domaszkowicach",
                "name": "Publiczne Przedszkole Stowarzyszenia Przyjaci\u00f3\u0142 Szk\u00f3\u0142 Katolickich",
                "addr:postcode": "48-303",
                "addr:place": "Domaszkowice",
                "addr:housenumber": "47",
                "addr:city:simc": 500263,
                "phone": "+48 774356527",
                "email": "spdomaszkowice@wp.pl",
                "ref:regon": "369463671",
                "operator": "Stowarzyszenie Przyjaci\u00f3\u0142 Szk\u00f3\u0142 Katolickich",
                "operator:type": "ngo",
                "amenity": "kindergarten"
            }
        },
        {
            "id": 134004,
            "type": "Feature",
            "geometry": {
                "type": "Point",
                "coordinates": [
                    17.33251,
                    50.45545
                ]
            },
            "properties": {
                "ref:rspo": 134004,
                "official_name": "Progres Niepubliczne Centrum Kszta\u0142cenia Ustawicznego",
                "name": "Progres Niepubliczne Centrum Kszta\u0142cenia Ustawicznego",
                "addr:postcode": "48-303",
                "addr:city": "Nysa",
                "addr:street": "Marii Rodziewicz\u00f3wny",
                "addr:housenumber": "18 b",
                "addr:city:simc": 965789,
                "addr:street:sym_ul": 18724,
                "phone": "+48 606420508",
                "email": "biuro@progres.info.pl",
                "ref:regon": "367775455",
                "operator": "Progres Szymon Artwik",
                "operator:type": "consortium",
                "fixme": "w zale\u017cno\u015bci od przedmiotu dzia\u0142alno\u015bci (np. amenity=training + training=*, amenity=dancing_school, amenity=language_school, amenity=music_school)"
            }
        },
        {
            "id": 269846,
            "type": "Feature",
            "geometry": {
                "type": "Point",
                "coordinates": [
                    17.35477,
                    50.45548
                ]
            },
            "properties": {
                "ref:rspo": 269846,
                "official_name": "Przedszkole Niepubliczne Minilandia w Nysie",
                "name": "Przedszkole Niepubliczne Minilandia w Nysie",
                "addr:postcode": "48-303",
                "addr:city": "Nysa",
                "addr:street": "Marsza\u0142ka J\u00f3zefa Pi\u0142sudskiego",
                "addr:housenumber": "27",
                "addr:city:simc": 965789,
                "addr:street:sym_ul": 36029,
                "phone": "+48 530020571",
                "email": "katarzyna.wlodarkiewicz@gmail.com",
                "ref:regon": "381791443",
                "operator": "Katarzyna W\u0142odarkiewicz",
                "operator:type": "private",
                "amenity": "kindergarten"
            }
        },
        {
            "id": 90433,
            "type": "Feature",
            "geometry": {
                "type": "Point",
                "coordinates": [
                    17.33294,
                    50.45596
                ]
            },
            "properties": {
                "ref:rspo": 90433,
                "official_name": "Szko\u0142a J\u0119zykowa Ksi\u0119\u017cy Werbist\u00f3w w Nysie",
                "name": "Szko\u0142a J\u0119zykowa Ksi\u0119\u017cy Werbist\u00f3w w Nysie",
                "addr:postcode": "48-303",
                "addr:city": "Nysa",
                "addr:street": "Marii Rodziewicz\u00f3wny",
                "addr:housenumber": "15",
                "addr:city:simc": 965789,
                "addr:street:sym_ul": 18724,
                "phone": "+48 774310513",
                "email": "szkola@werbisci.nysa.pl",
                "website": "http:\/\/www.szkola.werbisci.nysa.pl",
                "ref:regon": "161496016",
                "operator": "Wy\u017csze Seminarium Duchowne Zg.s\u0142owa Bo\u017cego-Misj.werbist\u00f3w, Wydz.filozof. Wsd. Ks. Werbi\u015bci",
                "operator:type": "religious",
                "fixme": "w zale\u017cno\u015bci od przedmiotu dzia\u0142alno\u015bci (np. amenity=training + training=*, amenity=dancing_school, amenity=language_school, amenity=music_school)"
            }
        },
        {
            "id": 18986,
            "type": "Feature",
            "geometry": {
                "type": "Point",
                "coordinates": [
                    17.34996,
                    50.45798
                ]
            },
            "properties": {
                "isced:level": "1;2",
                "ref:rspo": 18986,
                "official_name": "Szko\u0142a Podstawowa nr 3 im. Janusza Korczaka w Nysie",
                "name": "Szko\u0142a Podstawowa nr 3",
                "addr:postcode": "48-303",
                "addr:city": "Nysa",
                "addr:street": "Krawiecka",
                "addr:housenumber": "6",
                "addr:city:simc": 965789,
                "addr:street:sym_ul": 9894,
                "phone": "+48 774332261",
                "email": "sp3@gzo.nysa.pl",
                "website": "http:\/\/sp3nysa.edu.pl",
                "ref:regon": "000769427",
                "ref:vatin": "PL7532332226",
                "operator": "Gmina Nysa",
                "operator:type": "government",
                "amenity": "school"
            }
        },
        {
            "id": 22020,
            "type": "Feature",
            "geometry": {
                "type": "Point",
                "coordinates": [
                    17.33726,
                    50.45967
                ]
            },
            "properties": {
                "ref:rspo": 22020,
                "official_name": "Przedszkole nr 10 w Nysie",
                "name": "Przedszkole nr 10 w Nysie",
                "addr:postcode": "48-303",
                "addr:city": "Nysa",
                "addr:street": "11 Listopada",
                "addr:housenumber": "8A",
                "addr:city:simc": 965789,
                "addr:street:sym_ul": 11205,
                "phone": "+48 774310620",
                "email": "p10@gzo.nysa.pl",
                "ref:regon": "530584278",
                "ref:vatin": "PL7532332284",
                "operator": "Gmina Nysa",
                "operator:type": "government",
                "amenity": "kindergarten"
            }
        },
        {
            "id": 4430,
            "type": "Feature",
            "geometry": {
                "type": "Point",
                "coordinates": [
                    17.33003,
                    50.46066
                ]
            },
            "properties": {
                "ref:rspo": 4430,
                "official_name": "Zesp\u00f3\u0142 Szk\u00f3\u0142 I Plac\u00f3wek O\u015bwiatowych im. Emila Godlewskiego w Nysie",
                "name": "Zesp\u00f3\u0142 Szk\u00f3\u0142 I Plac\u00f3wek O\u015bwiatowych",
                "addr:postcode": "48-303",
                "addr:city": "Nysa",
                "addr:street": "Marii Rodziewicz\u00f3wny",
                "addr:housenumber": "1",
                "addr:city:simc": 965789,
                "addr:street:sym_ul": 18724,
                "phone": "+48 774310467",
                "email": "zsr_nysa@wodip.opole.pl",
                "website": "http:\/\/rolniknysa.pl",
                "ref:regon": "000098039",
                "ref:vatin": "PL7531042259",
                "operator": "Powiat Nyski",
                "operator:type": "government",
                "landuse": "education",
                "fixme": "amenity=school, amenity=college albo landuse=education w zale\u017cno\u015bci od tego, jakie plac\u00f3wki wchodz\u0105 w sk\u0142ad zespo\u0142u. Sprawd\u017a, kiedy stosowa\u0107 amenity=* a kiedy landuse=education.",
                "note": "Children RSPO: 4021;105486;105487;105488;105489;105490;107606;113808;120809"
            }
        },
        {
            "id": 4021,
            "type": "Feature",
            "geometry": {
                "type": "Point",
                "coordinates": [
                    17.33003,
                    50.460629999999995
                ]
            },
            "properties": {
                "ref:rspo": 4021,
                "official_name": "Bursa w Nysie",
                "name": "Bursa w Nysie",
                "addr:postcode": "48-303",
                "addr:city": "Nysa",
                "addr:street": "Marii Rodziewicz\u00f3wny",
                "addr:housenumber": "1",
                "addr:city:simc": 965789,
                "addr:street:sym_ul": 18724,
                "phone": "+48 774310467",
                "email": "zrs_nysa@wodip.opole.pl",
                "website": "http:\/\/rolniknysa.pl",
                "ref:regon": "161475706",
                "operator": "Powiat Nyski",
                "operator:type": "government",
                "building": "dormitory",
                "note": "Parent RSPO: 4430"
            }
        },
        {
            "id": 105486,
            "type": "Feature",
            "geometry": {
                "type": "Point",
                "coordinates": [
                    17.33003,
                    50.4606
                ]
            },
            "properties": {
                "isced:level": "3",
                "ref:rspo": 105486,
                "official_name": "Ii Liceum Og\u00f3lnokszta\u0142c\u0105ce w Nysie",
                "name": "Ii Liceum Og\u00f3lnokszta\u0142c\u0105ce w Nysie",
                "addr:postcode": "48-303",
                "addr:city": "Nysa",
                "addr:street": "Marii Rodziewicz\u00f3wny",
                "addr:housenumber": "1",
                "addr:city:simc": 965789,
                "addr:street:sym_ul": 18724,
                "phone": "+48 774310466",
                "email": "zsr_nysa@wodip.opole.pl",
                "website": "http:\/\/rolniknysa.pl",
                "ref:regon": "532383650",
                "operator": "Powiat Nyski",
                "operator:type": "government",
                "amenity": "school",
                "note": "Parent RSPO: 4430"
            }
        },
        {
            "id": 105487,
            "type": "Feature",
            "geometry": {
                "type": "Point",
                "coordinates": [
                    17.33003,
                    50.46057
                ]
            },
            "properties": {
                "isced:level": "3",
                "ref:rspo": 105487,
                "official_name": "Ii Liceum Og\u00f3lnokszta\u0142c\u0105ce dla Doros\u0142ych w Nysie",
                "name": "Ii Liceum Og\u00f3lnokszta\u0142c\u0105ce dla Doros\u0142ych w Nysie",
                "addr:postcode": "48-303",
                "addr:city": "Nysa",
                "addr:street": "Marii Rodziewicz\u00f3wny",
                "addr:housenumber": "1",
                "addr:city:simc": 965789,
                "addr:street:sym_ul": 18724,
                "phone": "+48 774310466",
                "email": "zsr_nysa@wodip.opole.pl",
                "website": "http:\/\/rolniknysa.pl",
                "ref:regon": "532236222",
                "operator": "Powiat Nyski",
                "operator:type": "government",
                "amenity": "school",
                "note": "Parent RSPO: 4430"
            }
        },
        {
            "id": 105488,
            "type": "Feature",
            "geometry": {
                "type": "Point",
                "coordinates": [
                    17.33003,
                    50.460539999999995
                ]
            },
            "properties": {
                "isced:level": "3",
                "ref:rspo": 105488,
                "official_name": "Technikum nr 2 w Nysie",
                "name": "Technikum nr 2 w Nysie",
                "addr:postcode": "48-303",
                "addr:city": "Nysa",
                "addr:street": "Marii Rodziewicz\u00f3wny",
                "addr:housenumber": "1",
                "addr:city:simc": 965789,
                "addr:street:sym_ul": 18724,
                "phone": "+48 774310467",
                "email": "zsr_nysa@wodip.opole.pl",
                "website": "http:\/\/rolniknysa.pl",
                "ref:regon": "532389598",
                "operator": "Powiat Nyski",
                "operator:type": "government",
                "amenity": "school",
                "note": "Parent RSPO: 4430"
            }
        },
        {
            "id": 105489,
            "type": "Feature",
            "geometry": {
                "type": "Point",
                "coordinates": [
                    17.33003,
                    50.46051
                ]
            },
            "properties": {
                "isced:level": "4",
                "ref:rspo": 105489,
                "official_name": "Szko\u0142a Policealna nr 3 w Nysie Dzienna",
                "name": "Szko\u0142a Policealna nr 3 w Nysie Dzienna",
                "addr:postcode": "48-303",
                "addr:city": "Nysa",
                "addr:street": "Marii Rodziewicz\u00f3wny",
                "addr:housenumber": "1",
                "addr:city:simc": 965789,
                "addr:street:sym_ul": 18724,
                "phone": "+48 774310467",
                "email": "zsr_nysa@wodip.opole.pl",
                "website": "http:\/\/rolniknysa.pl",
                "ref:regon": "160034325",
                "operator": "Powiat Nyski",
                "operator:type": "government",
                "amenity": "college",
                "note": "Parent RSPO: 4430"
            }
        },
        {
            "id": 105490,
            "type": "Feature",
            "geometry": {
                "type": "Point",
                "coordinates": [
                    17.33003,
                    50.46048
                ]
            },
            "properties": {
                "isced:level": "4",
                "ref:rspo": 105490,
                "official_name": "Szko\u0142a Policealna nr 1 w Nysie Stacjonarna I Zaoczna",
                "name": "Szko\u0142a Policealna nr 1 w Nysie Stacjonarna I Zaoczna",
                "addr:postcode": "48-303",
                "addr:city": "Nysa",
                "addr:street": "Marii Rodziewicz\u00f3wny",
                "addr:housenumber": "1",
                "addr:city:simc": 965789,
                "addr:street:sym_ul": 18724,
                "phone": "+48 774310467",
                "email": "zsr_nysa@wodip.opole.pl",
                "website": "http:\/\/rolniknysa.pl",
                "ref:regon": "160015598",
                "operator": "Powiat Nyski",
                "operator:type": "government",
                "amenity": "college",
                "note": "Parent RSPO: 4430"
            }
        },
        {
            "id": 107606,
            "type": "Feature",
            "geometry": {
                "type": "Point",
                "coordinates": [
                    17.33003,
                    50.460449999999994
                ]
            },
            "properties": {
                "ref:rspo": 107606,
                "official_name": "Szkolne Schronisko M\u0142odzie\u017cowe w Nysie",
                "name": "Szkolne Schronisko M\u0142odzie\u017cowe w Nysie",
                "addr:postcode": "48-303",
                "addr:city": "Nysa",
                "addr:street": "Marii Rodziewicz\u00f3wny",
                "addr:housenumber": "1",
                "addr:city:simc": 965789,
                "addr:street:sym_ul": 18724,
                "phone": "+48 774310467",
                "email": "zsr_nysa@wodip.opole.pl",
                "website": "http:\/\/rolniknysa.pl",
                "ref:regon": "530913368",
                "operator": "Powiat Nyski",
                "operator:type": "government",
                "tourism": "hostel",
                "note": "Parent RSPO: 4430"
            }
        },
        {
            "id": 113808,
            "type": "Feature",
            "geometry": {
                "type": "Point",
                "coordinates": [
                    17.33003,
                    50.46042
                ]
            },
            "properties": {
                "isced:level": "3",
                "ref:rspo": 113808,
                "official_name": "Bran\u017cowa Szko\u0142a I Stopnia nr 2 w Nysie",
                "name": "Bran\u017cowa Szko\u0142a I Stopnia nr 2 w Nysie",
                "addr:postcode": "48-303",
                "addr:city": "Nysa",
                "addr:street": "Marii Rodziewicz\u00f3wny",
                "addr:housenumber": "1",
                "addr:city:simc": 965789,
                "addr:street:sym_ul": 18724,
                "phone": "+48 774310467",
                "email": "zsr_nysa@wodip.opole.pl",
                "website": "http:\/\/rolniknysa.pl",
                "ref:regon": "532236140",
                "operator": "Powiat Nyski",
                "operator:type": "government",
                "amenity": "school",
                "note": "Parent RSPO: 4430"
            }
        },
        {
            "id": 120809,
            "type": "Feature",
            "geometry": {
                "type": "Point",
                "coordinates": [
                    17.33003,
                    50.46039
                ]
            },
            "properties": {
                "ref:rspo": 120809,
                "official_name": "Rolnicze Centrum Kszta\u0142cenia Ustawicznego w Nysie",
                "name": "Rolnicze Centrum Kszta\u0142cenia Ustawicznego w Nysie",
                "addr:postcode": "48-303",
                "addr:city": "Nysa",
                "addr:street": "Marii Rodziewicz\u00f3wny",
                "addr:housenumber": "1",
                "addr:city:simc": 965789,
                "addr:street:sym_ul": 18724,
                "phone": "+48 774310467",
                "email": "zsr_nysa@wodip.opole.pl",
                "website": "http:\/\/zsr_nysa.wodip.opole.pl",
                "ref:regon": "161559998",
                "operator": "Powiat Nyski",
                "operator:type": "government",
                "fixme": "w zale\u017cno\u015bci od przedmiotu dzia\u0142alno\u015bci (np. amenity=training + training=*, amenity=dancing_school, amenity=language_school, amenity=music_school)",
                "note": "Parent RSPO: 4430"
            }
        },
        {
            "id": 21728,
            "type": "Feature",
            "geometry": {
                "type": "Point",
                "coordinates": [
                    17.3465,
                    50.46096
                ]
            },
            "properties": {
                "ref:rspo": 21728,
                "official_name": "Przedszkole nr 12 w Nysie",
                "name": "Przedszkole nr 12 w Nysie",
                "addr:postcode": "48-303",
                "addr:city": "Nysa",
                "addr:street": "Podolska",
                "addr:city:simc": 965789,
                "addr:street:sym_ul": 16834,
                "phone": "+48 774334136",
                "email": "p12@gzo.nysa.pl",
                "ref:regon": "530584284",
                "ref:vatin": "PL7532332278",
                "operator": "Gmina Nysa",
                "operator:type": "government",
                "amenity": "kindergarten"
            }
        },
        {
            "id": 21723,
            "type": "Feature",
            "geometry": {
                "type": "Point",
                "coordinates": [
                    17.33655,
                    50.46117
                ]
            },
            "properties": {
                "isced:level": "1;2",
                "ref:rspo": 21723,
                "official_name": "Szko\u0142a Podstawowa nr 10 z Oddzia\u0142ami Integracyjnymi im. J. H. D\u0105browskiego w Nysie",
                "name": "Szko\u0142a Podstawowa nr 10 z Oddzia\u0142ami Integracyjnymi",
                "addr:postcode": "48-303",
                "addr:city": "Nysa",
                "addr:street": "11 Listopada",
                "addr:housenumber": "6",
                "addr:city:simc": 965789,
                "addr:street:sym_ul": 11205,
                "phone": "+48 774310576",
                "email": "sp10@gzo.nysa.pl",
                "ref:regon": "000898923",
                "ref:vatin": "PL7532334538",
                "operator": "Gmina Nysa",
                "operator:type": "government",
                "amenity": "school"
            }
        },
        {
            "id": 111089,
            "type": "Feature",
            "geometry": {
                "type": "Point",
                "coordinates": [
                    17.3390999,
                    50.4641499
                ]
            },
            "properties": {
                "ref:rspo": 111089,
                "official_name": "For You Katarzyna Anta\u0142 Plac\u00f3wka O\u015bwiatowo-Wychowawcza",
                "name": "For You Katarzyna Anta\u0142 Plac\u00f3wka O\u015bwiatowo-Wychowawcza",
                "addr:postcode": "48-303",
                "addr:city": "Nysa",
                "addr:street": "Boles\u0142awa Prusa",
                "addr:housenumber": "14",
                "addr:city:simc": 965789,
                "addr:street:sym_ul": 17577,
                "phone": "+48 774310576",
                "ref:regon": "161515660",
                "operator": "Katarzyna Anta\u0142 - Lange",
                "operator:type": "private",
                "fixme": "w zale\u017cno\u015bci od przedmiotu dzia\u0142alno\u015bci (np. amenity=training + training=*, amenity=dancing_school, amenity=language_school, amenity=music_school)"
            }
        },
        {
            "id": 122671,
            "type": "Feature",
            "geometry": {
                "type": "Point",
                "coordinates": [
                    17.3390999,
                    50.4641199
                ]
            },
            "properties": {
                "ref:rspo": 122671,
                "official_name": "Specjalistyczna Niepubliczna Poradnia Psychologiczno-Pedagogiczna w Nysie",
                "name": "Specjalistyczna Niepubliczna Poradnia Psychologiczno-Pedagogiczna w Nysie",
                "addr:postcode": "48-303",
                "addr:city": "Nysa",
                "addr:street": "Boles\u0142awa Prusa",
                "addr:housenumber": "14",
                "addr:city:simc": 965789,
                "addr:street:sym_ul": 17577,
                "phone": "+48 602767926",
                "email": "kontakt@spoldzielnia-parasol.pl",
                "ref:regon": "161581220",
                "operator": "Sp\u00f3\u0142dzielnia Socjalna \"Parasol\"",
                "operator:type": "cooperative",
                "healthcare": "counselling",
                "counselling_type": "education",
                "fixme": "w zale\u017cno\u015bci od przedmiotu dzia\u0142alno\u015bci (np. healthcare=counselling + counselling_type=education albo healthcare=psychotherapist)"
            }
        },
        {
            "id": 21721,
            "type": "Feature",
            "geometry": {
                "type": "Point",
                "coordinates": [
                    17.33974,
                    50.46519
                ]
            },
            "properties": {
                "ref:rspo": 21721,
                "official_name": "Przedszkole nr 9 w Nysie",
                "name": "Przedszkole nr 9 w Nysie",
                "addr:postcode": "48-303",
                "addr:city": "Nysa",
                "addr:street": "Sudecka",
                "addr:housenumber": "7",
                "addr:city:simc": 965789,
                "addr:street:sym_ul": 21525,
                "phone": "+48 774358470",
                "email": "p9@gzo.nysa.pl",
                "ref:regon": "530584261",
                "ref:vatin": "PL7532332367",
                "operator": "Gmina Nysa",
                "operator:type": "government",
                "amenity": "kindergarten"
            }
        },
        {
            "id": 18948,
            "type": "Feature",
            "geometry": {
                "type": "Point",
                "coordinates": [
                    17.33102,
                    50.46969
                ]
            },
            "properties": {
                "ref:rspo": 18948,
                "official_name": "Przedszkole nr 1 w Nysie",
                "name": "Przedszkole nr 1 w Nysie",
                "addr:postcode": "48-300",
                "addr:city": "Nysa",
                "addr:street": "Bohater\u00f3w Warszawy",
                "addr:housenumber": "48",
                "addr:city:simc": 965789,
                "addr:street:sym_ul": 1679,
                "phone": "+48 774332843",
                "email": "p1@gzo.nysa.pl",
                "ref:regon": "530584195",
                "ref:vatin": "PL7532332203",
                "operator": "Gmina Nysa",
                "operator:type": "government",
                "amenity": "kindergarten"
            }
        },
        {
            "id": 88910,
            "type": "Feature",
            "geometry": {
                "type": "Point",
                "coordinates": [
                    17.33924,
                    50.47132
                ]
            },
            "properties": {
                "ref:rspo": 88910,
                "official_name": "Centrum Kszta\u0142cenia Zawodowego I Ustawicznego w Nysie",
                "name": "Centrum Kszta\u0142cenia Zawodowego I Ustawicznego w Nysie",
                "addr:postcode": "48-300",
                "addr:city": "Nysa",
                "addr:street": "W\u0142adys\u0142awa Orkana",
                "addr:housenumber": "6",
                "addr:city:simc": 965789,
                "addr:street:sym_ul": 15140,
                "phone": "+48 774333439",
                "email": "sekretariat@ckziu.nysa.pl",
                "website": "http:\/\/www.ckziu.nysa.pl",
                "ref:regon": "161470459",
                "ref:vatin": "PL7532430816",
                "operator": "Powiat Nyski",
                "operator:type": "government",
                "landuse": "education",
                "fixme": "amenity=school, amenity=college albo landuse=education w zale\u017cno\u015bci od tego, jakie plac\u00f3wki wchodz\u0105 w sk\u0142ad zespo\u0142u. Sprawd\u017a, kiedy stosowa\u0107 amenity=* a kiedy landuse=education.",
                "note": "Children RSPO: 4022;92279;92501;92502;114214;126895;271893;276104"
            }
        },
        {
            "id": 4022,
            "type": "Feature",
            "geometry": {
                "type": "Point",
                "coordinates": [
                    17.33924,
                    50.471289999999996
                ]
            },
            "properties": {
                "ref:rspo": 4022,
                "official_name": "Centrum Kszta\u0142cenia Zawodowego w Nysie",
                "name": "Centrum Kszta\u0142cenia Zawodowego w Nysie",
                "addr:postcode": "48-300",
                "addr:city": "Nysa",
                "addr:street": "W\u0142adys\u0142awa Orkana",
                "addr:housenumber": "6",
                "addr:city:simc": 965789,
                "addr:street:sym_ul": 15140,
                "phone": "+48 774333439",
                "email": "sekretariat@ckziu.nysa.pl",
                "website": "http:\/\/www.ckp.nysa.pl",
                "ref:regon": "161475729",
                "operator": "Powiat Nyski",
                "operator:type": "government",
                "fixme": "w zale\u017cno\u015bci od przedmiotu dzia\u0142alno\u015bci (np. amenity=training + training=*, amenity=dancing_school, amenity=language_school, amenity=music_school) albo amenity=school, amenity=college, albo landuse=education w zale\u017cno\u015bci od tego, jakie plac\u00f3wki wchodz\u0105 w sk\u0142ad zespo\u0142u. Sprawd\u017a, kiedy stosowa\u0107 amenity=* a kiedy landuse=education.",
                "note": "Parent RSPO: 88910"
            }
        },
        {
            "id": 92279,
            "type": "Feature",
            "geometry": {
                "type": "Point",
                "coordinates": [
                    17.33924,
                    50.47126
                ]
            },
            "properties": {
                "isced:level": "3",
                "ref:rspo": 92279,
                "official_name": "Technikum nr 1 w Nysie",
                "name": "Technikum nr 1 w Nysie",
                "addr:postcode": "48-300",
                "addr:city": "Nysa",
                "addr:street": "W\u0142adys\u0142awa Orkana",
                "addr:housenumber": "6",
                "addr:city:simc": 965789,
                "addr:street:sym_ul": 15140,
                "phone": "+48 774333439",
                "email": "sekretariat@ckziu.nysa.pl",
                "website": "http:\/\/www.ckziu.nysa.pl",
                "ref:regon": "532330820",
                "operator": "Powiat Nyski",
                "operator:type": "government",
                "amenity": "school",
                "note": "Parent RSPO: 88910"
            }
        },
        {
            "id": 92501,
            "type": "Feature",
            "geometry": {
                "type": "Point",
                "coordinates": [
                    17.33924,
                    50.47123
                ]
            },
            "properties": {
                "isced:level": "3",
                "ref:rspo": 92501,
                "official_name": "Bran\u017cowa Szko\u0142a I Stopnia nr 1 w Nysie",
                "name": "Bran\u017cowa Szko\u0142a I Stopnia nr 1 w Nysie",
                "addr:postcode": "48-300",
                "addr:city": "Nysa",
                "addr:street": "W\u0142adys\u0142awa Orkana",
                "addr:housenumber": "6",
                "addr:city:simc": 965789,
                "addr:street:sym_ul": 15140,
                "phone": "+48 774333439",
                "email": "sekretariat@ckziu.nysa.pl",
                "website": "http:\/\/www.ckziu.nysa.pl",
                "ref:regon": "532330808",
                "operator": "Powiat Nyski",
                "operator:type": "government",
                "amenity": "school",
                "note": "Parent RSPO: 88910"
            }
        },
        {
            "id": 92502,
            "type": "Feature",
            "geometry": {
                "type": "Point",
                "coordinates": [
                    17.33924,
                    50.471199999999996
                ]
            },
            "properties": {
                "isced:level": "3",
                "ref:rspo": 92502,
                "official_name": "Bran\u017cowa Szko\u0142a I Stopnia nr 4 Specjalna w Nysie",
                "name": "Bran\u017cowa Szko\u0142a I Stopnia nr 4 Specjalna w Nysie",
                "addr:postcode": "48-300",
                "addr:city": "Nysa",
                "addr:street": "W\u0142adys\u0142awa Orkana",
                "addr:housenumber": "6",
                "addr:city:simc": 965789,
                "addr:street:sym_ul": 15140,
                "phone": "+48 774333439",
                "email": "sekretariat@ckziu.nysa.pl",
                "website": "http:\/\/www.ckziu.nysa.pl",
                "ref:regon": "532330790",
                "operator": "Powiat Nyski",
                "operator:type": "government",
                "amenity": "school",
                "note": "Parent RSPO: 88910"
            }
        },
        {
            "id": 114214,
            "type": "Feature",
            "geometry": {
                "type": "Point",
                "coordinates": [
                    17.33924,
                    50.47117
                ]
            },
            "properties": {
                "isced:level": "4",
                "ref:rspo": 114214,
                "official_name": "Szko\u0142a Policealna nr 2 w Nysie Dzienna",
                "name": "Szko\u0142a Policealna nr 2 w Nysie Dzienna",
                "addr:postcode": "48-300",
                "addr:city": "Nysa",
                "addr:street": "W\u0142adys\u0142awa Orkana",
                "addr:housenumber": "6",
                "addr:city:simc": 965789,
                "addr:street:sym_ul": 15140,
                "phone": "+48 774333439",
                "email": "sekretariat@ckziu.nysa.pl",
                "website": "http:\/\/www.ckziu.nysa.pl",
                "ref:regon": "532228955",
                "operator": "Powiat Nyski",
                "operator:type": "government",
                "amenity": "college",
                "note": "Parent RSPO: 88910"
            }
        },
        {
            "id": 126895,
            "type": "Feature",
            "geometry": {
                "type": "Point",
                "coordinates": [
                    17.33924,
                    50.47114
                ]
            },
            "properties": {
                "ref:rspo": 126895,
                "official_name": "Centrum Kszta\u0142cenia Ustawicznego w Nysie",
                "name": "Centrum Kszta\u0142cenia Ustawicznego w Nysie",
                "addr:postcode": "48-300",
                "addr:city": "Nysa",
                "addr:street": "W\u0142adys\u0142awa Orkana",
                "addr:housenumber": "6",
                "addr:city:simc": 965789,
                "addr:street:sym_ul": 15140,
                "phone": "+48 774333439",
                "email": "sekretariat@ckziu.nysa.pl",
                "website": "http:\/\/www.ckp.nysa.pl",
                "ref:regon": "360871658",
                "operator": "Powiat Nyski",
                "operator:type": "government",
                "fixme": "w zale\u017cno\u015bci od przedmiotu dzia\u0142alno\u015bci (np. amenity=training + training=*, amenity=dancing_school, amenity=language_school, amenity=music_school)",
                "note": "Parent RSPO: 88910"
            }
        },
        {
            "id": 271893,
            "type": "Feature",
            "geometry": {
                "type": "Point",
                "coordinates": [
                    17.33924,
                    50.471109999999996
                ]
            },
            "properties": {
                "isced:level": "4",
                "ref:rspo": 271893,
                "official_name": "Szko\u0142a Policealna nr 3 Stacjonarna I Zaoczna",
                "name": "Szko\u0142a Policealna nr 3 Stacjonarna I Zaoczna",
                "addr:postcode": "48-300",
                "addr:city": "Nysa",
                "addr:street": "W\u0142adys\u0142awa Orkana",
                "addr:housenumber": "6",
                "addr:city:simc": 965789,
                "addr:street:sym_ul": 15140,
                "phone": "+48 774333439",
                "email": "sekretariat@ckziu.nysa.pl",
                "website": "http:\/\/www.ckziu.nysa.pl",
                "ref:regon": "383750454",
                "operator": "Powiat Nyski",
                "operator:type": "government",
                "amenity": "college",
                "note": "Parent RSPO: 88910"
            }
        },
        {
            "id": 276104,
            "type": "Feature",
            "geometry": {
                "type": "Point",
                "coordinates": [
                    17.33924,
                    50.47108
                ]
            },
            "properties": {
                "isced:level": "3",
                "ref:rspo": 276104,
                "official_name": "Bran\u017cowa Szko\u0142a II Stopnia w Nysie",
                "name": "Bran\u017cowa Szko\u0142a II Stopnia w Nysie",
                "addr:postcode": "48-300",
                "addr:city": "Nysa",
                "addr:street": "W\u0142adys\u0142awa Orkana",
                "addr:housenumber": "6",
                "addr:city:simc": 965789,
                "addr:street:sym_ul": 15140,
                "phone": "+48 774333439",
                "email": "sekretariat@ckziu.nysa.pl",
                "website": "http:\/\/www.ckziu.nysa.pl",
                "ref:regon": "386992407",
                "operator": "Powiat Nyski",
                "operator:type": "government",
                "amenity": "school",
                "note": "Parent RSPO: 88910"
            }
        },
        {
            "id": 21722,
            "type": "Feature",
            "geometry": {
                "type": "Point",
                "coordinates": [
                    17.33265,
                    50.47162
                ]
            },
            "properties": {
                "isced:level": "1;2",
                "ref:rspo": 21722,
                "official_name": "Szko\u0142a Podstawowa nr 5 im. Marsza\u0142ka J\u00f3zefa Pi\u0142sudskiego w Nysie",
                "name": "Szko\u0142a Podstawowa nr 5",
                "addr:postcode": "48-300",
                "addr:city": "Nysa",
                "addr:street": "Emilii Gierczak",
                "addr:housenumber": "8",
                "addr:city:simc": 965789,
                "addr:street:sym_ul": 5501,
                "phone": "+48 774333926",
                "email": "sp5@gzo.nysa.pl",
                "ref:regon": "000769574",
                "ref:vatin": "PL7532332232",
                "operator": "Gmina Nysa",
                "operator:type": "government",
                "amenity": "school"
            }
        },
        {
            "id": 86399,
            "type": "Feature",
            "geometry": {
                "type": "Point",
                "coordinates": [
                    17.334129333496,
                    50.472030639648
                ]
            },
            "properties": {
                "ref:rspo": 86399,
                "official_name": "Zesp\u00f3\u0142 Szk\u00f3\u0142 Technicznych w Nysie",
                "name": "Zesp\u00f3\u0142 Szk\u00f3\u0142 Technicznych w Nysie",
                "addr:postcode": "48-300",
                "addr:city": "Nysa",
                "addr:street": "Fryderyka Szopena",
                "addr:housenumber": "4",
                "addr:city:simc": 965789,
                "addr:street:sym_ul": 22023,
                "phone": "+48 774332119",
                "email": "zst-nysa@wp.pl",
                "website": "http:\/\/www.zst_nysa.wodip.opole.pl\/",
                "ref:regon": "000743209",
                "ref:vatin": "PL7531323024",
                "operator": "Powiat Nyski",
                "operator:type": "government",
                "landuse": "education",
                "fixme": "amenity=school, amenity=college albo landuse=education w zale\u017cno\u015bci od tego, jakie plac\u00f3wki wchodz\u0105 w sk\u0142ad zespo\u0142u. Sprawd\u017a, kiedy stosowa\u0107 amenity=* a kiedy landuse=education.",
                "note": "Children RSPO: 92717;92719;92720;266362"
            }
        },
        {
            "id": 92717,
            "type": "Feature",
            "geometry": {
                "type": "Point",
                "coordinates": [
                    17.334129333496,
                    50.472000639647995
                ]
            },
            "properties": {
                "isced:level": "3",
                "ref:rspo": 92717,
                "official_name": "Technikum nr 4 w Nysie",
                "name": "Technikum nr 4 w Nysie",
                "addr:postcode": "48-300",
                "addr:city": "Nysa",
                "addr:street": "Fryderyka Szopena",
                "addr:housenumber": "4",
                "addr:city:simc": 965789,
                "addr:street:sym_ul": 22023,
                "phone": "+48 774332119",
                "email": "zst-nysa@wp.pl",
                "website": "https:\/\/zstnysa.pl\/",
                "ref:regon": "532332836",
                "operator": "Powiat Nyski",
                "operator:type": "government",
                "amenity": "school",
                "note": "Parent RSPO: 86399"
            }
        },
        {
            "id": 92719,
            "type": "Feature",
            "geometry": {
                "type": "Point",
                "coordinates": [
                    17.334129333496,
                    50.471970639648
                ]
            },
            "properties": {
                "isced:level": "3",
                "ref:rspo": 92719,
                "official_name": "Bran\u017cowa Szko\u0142a I Stopnia nr 3 w Nysie",
                "name": "Bran\u017cowa Szko\u0142a I Stopnia nr 3 w Nysie",
                "addr:postcode": "48-300",
                "addr:city": "Nysa",
                "addr:street": "Fryderyka Szopena",
                "addr:housenumber": "4",
                "addr:city:simc": 965789,
                "addr:street:sym_ul": 22023,
                "phone": "+48 774332119",
                "email": "zst-nysa@wp.pl",
                "website": "http:\/\/www.zst_nysa.wodip.opole.pl",
                "ref:regon": "532332871",
                "operator": "Powiat Nyski",
                "operator:type": "government",
                "amenity": "school",
                "note": "Parent RSPO: 86399"
            }
        },
        {
            "id": 92720,
            "type": "Feature",
            "geometry": {
                "type": "Point",
                "coordinates": [
                    17.334129333496,
                    50.471940639648
                ]
            },
            "properties": {
                "isced:level": "3",
                "ref:rspo": 92720,
                "official_name": "Bran\u017cowa Szko\u0142a I Stopnia nr 5 Specjalna w Nysie",
                "name": "Bran\u017cowa Szko\u0142a I Stopnia nr 5 Specjalna w Nysie",
                "addr:postcode": "48-300",
                "addr:city": "Nysa",
                "addr:street": "Fryderyka Szopena",
                "addr:housenumber": "4",
                "addr:city:simc": 965789,
                "addr:street:sym_ul": 22023,
                "phone": "+48 774332119",
                "email": "zst-nysa@wp.pl",
                "website": "http:\/\/www.zst_nysa.wodip.opole.pl",
                "ref:regon": "532332865",
                "operator": "Powiat Nyski",
                "operator:type": "government",
                "amenity": "school",
                "note": "Parent RSPO: 86399"
            }
        },
        {
            "id": 266362,
            "type": "Feature",
            "geometry": {
                "type": "Point",
                "coordinates": [
                    17.334129333496,
                    50.471910639647994
                ]
            },
            "properties": {
                "isced:level": "3",
                "ref:rspo": 266362,
                "official_name": "I Liceum Og\u00f3lnokszta\u0142c\u0105ce dla Doros\u0142ych w Nysie",
                "name": "I Liceum Og\u00f3lnokszta\u0142c\u0105ce dla Doros\u0142ych w Nysie",
                "addr:postcode": "48-300",
                "addr:city": "Nysa",
                "addr:street": "Fryderyka Szopena",
                "addr:housenumber": "4",
                "addr:city:simc": 965789,
                "addr:street:sym_ul": 22023,
                "phone": "+48 774332119",
                "email": "zst-nysa@wp.pl",
                "website": "http:\/\/www.zst_nysa.wodip.opole.pl\/",
                "ref:regon": "369450042",
                "operator": "Powiat Nyski",
                "operator:type": "government",
                "amenity": "school",
                "note": "Parent RSPO: 86399"
            }
        },
        {
            "id": 91886,
            "type": "Feature",
            "geometry": {
                "type": "Point",
                "coordinates": [
                    17.334129333496,
                    50.471880639648
                ]
            },
            "properties": {
                "ref:rspo": 91886,
                "official_name": "Poradnia Psychologiczno-Pedagogiczna w Nysie",
                "name": "Poradnia Psychologiczno-Pedagogiczna w Nysie",
                "addr:postcode": "48-300",
                "addr:city": "Nysa",
                "addr:street": "Fryderyka Szopena",
                "addr:housenumber": "4",
                "addr:city:simc": 965789,
                "addr:street:sym_ul": 22023,
                "phone": "+48 774093915",
                "email": "pppnysa@tlen.pl",
                "website": "http:\/\/ppp.nysa.pl",
                "ref:regon": "000742977",
                "ref:vatin": "PL7532100378",
                "operator": "Powiat Nyski",
                "operator:type": "government",
                "healthcare": "counselling",
                "counselling_type": "education",
                "fixme": "w zale\u017cno\u015bci od przedmiotu dzia\u0142alno\u015bci (np. healthcare=counselling + counselling_type=education albo healthcare=psychotherapist)",
                "note": "Parent RSPO: 118497"
            }
        },
        {
            "id": 118495,
            "type": "Feature",
            "geometry": {
                "type": "Point",
                "coordinates": [
                    17.334129333496,
                    50.471850639648
                ]
            },
            "properties": {
                "ref:rspo": 118495,
                "official_name": "O\u015brodek Doskonalenia Nauczycieli w Nysie",
                "name": "O\u015brodek Doskonalenia Nauczycieli w Nysie",
                "addr:postcode": "48-300",
                "addr:city": "Nysa",
                "addr:street": "Fryderyka Szopena",
                "addr:housenumber": "4",
                "addr:city:simc": 965789,
                "addr:street:sym_ul": 22023,
                "phone": "+48 774093915",
                "email": "pppnysa@o2.pl",
                "website": "http:\/\/ppp.nysa.pl",
                "ref:regon": "161544442",
                "operator": "Powiat Nyski",
                "operator:type": "government",
                "amenity": "training",
                "note": "Parent RSPO: 118497"
            }
        },
        {
            "id": 92505,
            "type": "Feature",
            "geometry": {
                "type": "Point",
                "coordinates": [
                    17.33677,
                    50.47218
                ]
            },
            "properties": {
                "isced:level": "3",
                "ref:rspo": 92505,
                "official_name": "I Liceum Og\u00f3lnokszta\u0142c\u0105ce im. Jana III Sobieskiego Carolinum w Nysie",
                "name": "I Liceum Og\u00f3lnokszta\u0142c\u0105ce",
                "addr:postcode": "48-300",
                "addr:city": "Nysa",
                "addr:street": "Jana Sobieskiego",
                "addr:housenumber": "2",
                "addr:city:simc": 965789,
                "addr:street:sym_ul": 20427,
                "phone": "+48 774333331",
                "email": "locarol@poczta.onet.pl",
                "website": "http:\/\/carolinum.edu.pl",
                "ref:regon": "532383503",
                "ref:vatin": "PL7531642373",
                "operator": "Powiat Nyski",
                "operator:type": "government",
                "amenity": "school"
            }
        },
        {
            "id": 18977,
            "type": "Feature",
            "geometry": {
                "type": "Point",
                "coordinates": [
                    17.33636,
                    50.47253
                ]
            },
            "properties": {
                "ref:rspo": 18977,
                "official_name": "Pa\u0144stwowa Szko\u0142a Muzyczna I I II St. im. Witolda Lutos\u0142awskiego w Nysie",
                "name": "Pa\u0144stwowa Szko\u0142a Muzyczna I I II St.",
                "addr:postcode": "48-300",
                "addr:city": "Nysa",
                "addr:street": "Rynek Solny",
                "addr:housenumber": "2",
                "addr:city:simc": 965789,
                "addr:street:sym_ul": 20545,
                "phone": "+48 774332014",
                "email": "psmwitlu@go2.pl",
                "website": "http:\/\/psm.nysa.com.pl",
                "ref:regon": "000280689",
                "operator": "Ministerstwo Kultury I Dziedzictwa Narodowego",
                "operator:type": "public",
                "landuse": "education",
                "fixme": "amenity=school, amenity=college albo landuse=education w zale\u017cno\u015bci od tego, jakie plac\u00f3wki wchodz\u0105 w sk\u0142ad zespo\u0142u. Sprawd\u017a, kiedy stosowa\u0107 amenity=* a kiedy landuse=education.",
                "note": "Children RSPO: 91991;91992"
            }
        },
        {
            "id": 91991,
            "type": "Feature",
            "geometry": {
                "type": "Point",
                "coordinates": [
                    17.33636,
                    50.4725
                ]
            },
            "properties": {
                "ref:rspo": 91991,
                "official_name": "Pa\u0144stwowa Szko\u0142a Muzyczna I St. w Nysie",
                "name": "Pa\u0144stwowa Szko\u0142a Muzyczna I St. w Nysie",
                "addr:postcode": "48-300",
                "addr:city": "Nysa",
                "addr:street": "Rynek Solny",
                "addr:housenumber": "2",
                "addr:city:simc": 965789,
                "addr:street:sym_ul": 20545,
                "phone": "+48 774332014",
                "ref:regon": "161497151",
                "operator": "Ministerstwo Kultury I Dziedzictwa Narodowego",
                "operator:type": "public",
                "amenity": "music_school",
                "note": "Parent RSPO: 18977"
            }
        },
        {
            "id": 91992,
            "type": "Feature",
            "geometry": {
                "type": "Point",
                "coordinates": [
                    17.33636,
                    50.47247
                ]
            },
            "properties": {
                "ref:rspo": 91992,
                "official_name": "Pa\u0144stwowa Szko\u0142a Muzyczna II St. w Nysie",
                "name": "Pa\u0144stwowa Szko\u0142a Muzyczna II St. w Nysie",
                "addr:postcode": "48-300",
                "addr:city": "Nysa",
                "addr:street": "Rynek Solny",
                "addr:housenumber": "2",
                "addr:city:simc": 965789,
                "addr:street:sym_ul": 20545,
                "phone": "+48 774332014",
                "ref:regon": "161497091",
                "operator": "Ministerstwo Kultury I Dziedzictwa Narodowego",
                "operator:type": "public",
                "amenity": "music_school",
                "note": "Parent RSPO: 18977"
            }
        },
        {
            "id": 88044,
            "type": "Feature",
            "geometry": {
                "type": "Point",
                "coordinates": [
                    17.33126,
                    50.47266
                ]
            },
            "properties": {
                "isced:level": "3",
                "ref:rspo": 88044,
                "official_name": "Diecezjalne Liceum Humanistyczne w Nysie",
                "name": "Diecezjalne Liceum Humanistyczne w Nysie",
                "addr:postcode": "48-300",
                "addr:city": "Nysa",
                "addr:street": "\u015awi\u0119tego Piotra",
                "addr:housenumber": "1A",
                "addr:city:simc": 965789,
                "addr:street:sym_ul": 39985,
                "phone": "+48 774352247",
                "email": "szkoladiec@opole.opoka.org.pl",
                "website": "http:\/\/diec.nysa.pl",
                "ref:regon": "161495212",
                "ref:vatin": "PL7531992593",
                "operator": "Diecezja Opolska",
                "operator:type": "religious",
                "amenity": "school"
            }
        },
        {
            "id": 262969,
            "type": "Feature",
            "geometry": {
                "type": "Point",
                "coordinates": [
                    17.33126,
                    50.472629999999995
                ]
            },
            "properties": {
                "isced:level": "1;2",
                "ref:rspo": 262969,
                "official_name": "Diecezjalna Szko\u0142a Podstawowa w Nysie",
                "name": "Diecezjalna Szko\u0142a Podstawowa w Nysie",
                "addr:postcode": "48-300",
                "addr:city": "Nysa",
                "addr:street": "\u015awi\u0119tego Piotra",
                "addr:housenumber": "1a",
                "addr:city:simc": 965789,
                "addr:street:sym_ul": 39985,
                "phone": "+48 774352247",
                "email": "szkoladiec@opole.opoka.org.pl",
                "website": "http:\/\/www.diec.nysa.pl",
                "ref:regon": "368079551",
                "operator": "Diecezja Opolska",
                "operator:type": "religious",
                "amenity": "school"
            }
        },
        {
            "id": 32107,
            "type": "Feature",
            "geometry": {
                "type": "Point",
                "coordinates": [
                    17.3275,
                    50.47286
                ]
            },
            "properties": {
                "ref:rspo": 32107,
                "official_name": "Przedszkole nr 5 - Integracyjne w Nysie",
                "name": "Przedszkole nr 5 - Integracyjne w Nysie",
                "addr:postcode": "48-300",
                "addr:city": "Nysa",
                "addr:street": "Bohater\u00f3w Warszawy",
                "addr:housenumber": "13",
                "addr:city:simc": 965789,
                "addr:street:sym_ul": 1679,
                "phone": "+48 774332133",
                "email": "p5@gzo.nysa.pl",
                "ref:regon": "530584226",
                "ref:vatin": "PL7532334515",
                "operator": "Gmina Nysa",
                "operator:type": "government",
                "amenity": "kindergarten"
            }
        },
        {
            "id": 277578,
            "type": "Feature",
            "geometry": {
                "type": "Point",
                "coordinates": [
                    17.33048,
                    50.47335
                ]
            },
            "properties": {
                "ref:rspo": 277578,
                "official_name": "Studio Kulinarne Fryderyk",
                "name": "Studio Kulinarne Fryderyk",
                "addr:postcode": "48-300",
                "addr:city": "Nysa",
                "addr:street": "Fryderyka Szopena",
                "addr:housenumber": "12",
                "addr:city:simc": 965789,
                "addr:street:sym_ul": 22023,
                "email": "biuro@fryderyk.nysa.pl",
                "ref:regon": "389148994",
                "operator": "Jbk Joanna Krzemie\u0144",
                "operator:type": "consortium",
                "fixme": "w zale\u017cno\u015bci od przedmiotu dzia\u0142alno\u015bci (np. amenity=training + training=*, amenity=dancing_school, amenity=language_school, amenity=music_school)"
            }
        },
        {
            "id": 21724,
            "type": "Feature",
            "geometry": {
                "type": "Point",
                "coordinates": [
                    17.32828,
                    50.47389
                ]
            },
            "properties": {
                "isced:level": "1;2",
                "ref:rspo": 21724,
                "official_name": "Szko\u0142a Podstawowa nr 1 im. Kawaler\u00f3w Orderu U\u015bmiechu w Nysie",
                "name": "Szko\u0142a Podstawowa nr 1",
                "addr:postcode": "48-300",
                "addr:city": "Nysa",
                "addr:street": "Bohater\u00f3w Warszawy",
                "addr:housenumber": "7",
                "addr:city:simc": 965789,
                "addr:street:sym_ul": 1679,
                "phone": "+48 774333121",
                "email": "sp1@gzo.nysa.pl",
                "ref:regon": "000769500",
                "ref:vatin": "PL7532332350",
                "operator": "Gmina Nysa",
                "operator:type": "government",
                "amenity": "school"
            }
        },
        {
            "id": 90226,
            "type": "Feature",
            "geometry": {
                "type": "Point",
                "coordinates": [
                    17.33819,
                    50.47493
                ]
            },
            "properties": {
                "ref:rspo": 90226,
                "official_name": "Szko\u0142a Biznesu Sp. z O. O.",
                "name": "Szko\u0142a Biznesu Sp. z O. O.",
                "addr:postcode": "48-300",
                "addr:city": "Nysa",
                "addr:street": "Daniela Chodowieckiego",
                "addr:housenumber": "9",
                "addr:city:simc": 965789,
                "addr:street:sym_ul": 2808,
                "phone": "+48 774481050",
                "email": "sebastian.patola@gmail.com",
                "website": "http:\/\/www.szkola-biznesu.edu.pl",
                "ref:regon": "161495979",
                "operator": "\"Szko\u0142a Biznesu\" Sp\u00f3\u0142ka Z Ograniczon\u0105 Odpowiedzialno\u015bci\u0105",
                "operator:type": "private",
                "fixme": "w zale\u017cno\u015bci od przedmiotu dzia\u0142alno\u015bci (np. amenity=training + training=*, amenity=dancing_school, amenity=language_school, amenity=music_school)"
            }
        },
        {
            "id": 114182,
            "type": "Feature",
            "geometry": {
                "type": "Point",
                "coordinates": [
                    17.33374,
                    50.47532
                ]
            },
            "properties": {
                "ref:rspo": 114182,
                "official_name": "Niepubliczny O\u015brodek Kszta\u0142cenia Zawodowego \"Pascal\" w Nysie",
                "name": "Niepubliczny O\u015brodek Kszta\u0142cenia Zawodowego \"Pascal\" w Nysie",
                "addr:postcode": "48-300",
                "addr:city": "Nysa",
                "addr:street": "Wroc\u0142awska",
                "addr:housenumber": "11",
                "addr:city:simc": 965789,
                "addr:street:sym_ul": 24806,
                "phone": "+48 775443400",
                "email": "nysa@pascal.edu.pl",
                "ref:regon": "161527099",
                "operator": "Europejskie Centrum Kszta\u0142cenia Pascal Sp\u00f3\u0142ka Z Ograniczon\u0105 Odpowiedzialno\u015bci\u0105 Sp\u00f3\u0142ka Komandytowa",
                "operator:type": "private",
                "fixme": "w zale\u017cno\u015bci od przedmiotu dzia\u0142alno\u015bci (np. amenity=training + training=*, amenity=dancing_school, amenity=language_school, amenity=music_school)"
            }
        },
        {
            "id": 121364,
            "type": "Feature",
            "geometry": {
                "type": "Point",
                "coordinates": [
                    17.33374,
                    50.47529
                ]
            },
            "properties": {
                "ref:rspo": 121364,
                "official_name": "Zesp\u00f3\u0142 Szk\u00f3\u0142 Pascal w Nysie",
                "name": "Zesp\u00f3\u0142 Szk\u00f3\u0142 Pascal w Nysie",
                "addr:postcode": "48-300",
                "addr:city": "Nysa",
                "addr:street": "Wroc\u0142awska",
                "addr:housenumber": "11",
                "addr:city:simc": 965789,
                "addr:street:sym_ul": 24806,
                "phone": "+48 775443400",
                "email": "nysa@pascal.edu.pl",
                "ref:regon": "161567756",
                "operator": "Grupa Pascal Sp\u00f3\u0142ka Z Ograniczon\u0105 Odpowiedzialno\u015bci\u0105",
                "operator:type": "private",
                "landuse": "education",
                "fixme": "amenity=school, amenity=college albo landuse=education w zale\u017cno\u015bci od tego, jakie plac\u00f3wki wchodz\u0105 w sk\u0142ad zespo\u0142u. Sprawd\u017a, kiedy stosowa\u0107 amenity=* a kiedy landuse=education.",
                "note": "Children RSPO: 90472;90488;125315;125433"
            }
        },
        {
            "id": 90472,
            "type": "Feature",
            "geometry": {
                "type": "Point",
                "coordinates": [
                    17.33374,
                    50.475260000000006
                ]
            },
            "properties": {
                "isced:level": "4",
                "ref:rspo": 90472,
                "official_name": "Zaoczna Policealna Szko\u0142a Zawodowa \"Pascal\" w Nysie",
                "name": "Zaoczna Policealna Szko\u0142a Zawodowa \"Pascal\" w Nysie",
                "addr:postcode": "48-300",
                "addr:city": "Nysa",
                "addr:street": "Wroc\u0142awska",
                "addr:housenumber": "11",
                "addr:city:simc": 965789,
                "addr:street:sym_ul": 24806,
                "phone": "+48 775443400",
                "website": "http:\/\/www.pascal.edu.pl",
                "ref:regon": "161496074",
                "operator": "Grupa Pascal Sp\u00f3\u0142ka Z Ograniczon\u0105 Odpowiedzialno\u015bci\u0105",
                "operator:type": "private",
                "amenity": "college",
                "note": "Parent RSPO: 121364"
            }
        },
        {
            "id": 90488,
            "type": "Feature",
            "geometry": {
                "type": "Point",
                "coordinates": [
                    17.33374,
                    50.47523
                ]
            },
            "properties": {
                "isced:level": "3",
                "ref:rspo": 90488,
                "official_name": "Liceum Og\u00f3lnokszta\u0142c\u0105ce dla Doros\u0142ych \"Pascal\" w Nysie",
                "name": "Liceum Og\u00f3lnokszta\u0142c\u0105ce dla Doros\u0142ych \"Pascal\" w Nysie",
                "addr:postcode": "48-300",
                "addr:city": "Nysa",
                "addr:street": "Wroc\u0142awska",
                "addr:housenumber": "11",
                "addr:city:simc": 965789,
                "addr:street:sym_ul": 24806,
                "phone": "+48 775443400",
                "email": "nysa@pascal.edu.pl",
                "website": "http:\/\/www.pascal.edu.pl",
                "ref:regon": "161496068",
                "operator": "Grupa Pascal Sp\u00f3\u0142ka Z Ograniczon\u0105 Odpowiedzialno\u015bci\u0105",
                "operator:type": "private",
                "amenity": "school",
                "note": "Parent RSPO: 121364"
            }
        },
        {
            "id": 125315,
            "type": "Feature",
            "geometry": {
                "type": "Point",
                "coordinates": [
                    17.33374,
                    50.4752
                ]
            },
            "properties": {
                "isced:level": "4",
                "ref:rspo": 125315,
                "official_name": "Policealna Szko\u0142a Medyczna \"Pascal\" w Nysie",
                "name": "Policealna Szko\u0142a Medyczna \"Pascal\" w Nysie",
                "addr:postcode": "48-300",
                "addr:city": "Nysa",
                "addr:street": "Wroc\u0142awska",
                "addr:housenumber": "11",
                "addr:city:simc": 965789,
                "addr:street:sym_ul": 24806,
                "phone": "+48 668525780",
                "ref:regon": "161608165",
                "operator": "Grupa Pascal Sp\u00f3\u0142ka Z Ograniczon\u0105 Odpowiedzialno\u015bci\u0105",
                "operator:type": "private",
                "amenity": "college",
                "note": "Parent RSPO: 121364"
            }
        },
        {
            "id": 125433,
            "type": "Feature",
            "geometry": {
                "type": "Point",
                "coordinates": [
                    17.33374,
                    50.475170000000006
                ]
            },
            "properties": {
                "isced:level": "4",
                "ref:rspo": 125433,
                "official_name": "Stacjonarna Policealna Szko\u0142a Medyczna \"Pascal\" w Nysie",
                "name": "Stacjonarna Policealna Szko\u0142a Medyczna \"Pascal\" w Nysie",
                "addr:postcode": "48-300",
                "addr:city": "Nysa",
                "addr:street": "Wroc\u0142awska",
                "addr:housenumber": "11",
                "addr:city:simc": 965789,
                "addr:street:sym_ul": 24806,
                "phone": "+48 668525780",
                "ref:regon": "161608716",
                "operator": "Grupa Pascal Sp\u00f3\u0142ka Z Ograniczon\u0105 Odpowiedzialno\u015bci\u0105",
                "operator:type": "private",
                "amenity": "college",
                "note": "Parent RSPO: 121364"
            }
        },
        {
            "id": 25347,
            "type": "Feature",
            "geometry": {
                "type": "Point",
                "coordinates": [
                    17.28827,
                    50.47556
                ]
            },
            "properties": {
                "ref:rspo": 25347,
                "official_name": "Zesp\u00f3\u0142 Szk\u00f3\u0142 I Plac\u00f3wek Artystycznych w Nysie",
                "name": "Zesp\u00f3\u0142 Szk\u00f3\u0142 I Plac\u00f3wek Artystycznych w Nysie",
                "addr:postcode": "48-300",
                "addr:city": "Nysa",
                "addr:street": "Grodzka",
                "addr:housenumber": "19",
                "addr:city:simc": 965789,
                "addr:street:sym_ul": 6163,
                "phone": "+48 774333516",
                "email": "oart@powiat.nysa.pl",
                "website": "http:\/\/www.zsipart.nysa.pl\/",
                "ref:regon": "161485076",
                "ref:vatin": "PL7532431230",
                "operator": "Powiat Nyski",
                "operator:type": "government",
                "landuse": "education",
                "fixme": "amenity=school, amenity=college albo landuse=education w zale\u017cno\u015bci od tego, jakie plac\u00f3wki wchodz\u0105 w sk\u0142ad zespo\u0142u. Sprawd\u017a, kiedy stosowa\u0107 amenity=* a kiedy landuse=education.",
                "note": "Children RSPO: 106886;107396;123710"
            }
        },
        {
            "id": 106886,
            "type": "Feature",
            "geometry": {
                "type": "Point",
                "coordinates": [
                    17.28827,
                    50.47553
                ]
            },
            "properties": {
                "ref:rspo": 106886,
                "official_name": "Og\u00f3lnokszta\u0142c\u0105ca Szko\u0142a Sztuk Pi\u0119knych w Nysie",
                "name": "Og\u00f3lnokszta\u0142c\u0105ca Szko\u0142a Sztuk Pi\u0119knych w Nysie",
                "addr:postcode": "48-300",
                "addr:city": "Nysa",
                "addr:street": "Grodzka",
                "addr:housenumber": "19",
                "addr:city:simc": 965789,
                "addr:street:sym_ul": 6163,
                "phone": "+48 774333516",
                "email": "oart@powiat.nysa.pl",
                "website": "http:\/\/www.zsipart.nysa.pl",
                "ref:regon": "161467090",
                "operator": "Powiat Nyski",
                "operator:type": "government",
                "amenity": "school",
                "note": "Parent RSPO: 25347"
            }
        },
        {
            "id": 107396,
            "type": "Feature",
            "geometry": {
                "type": "Point",
                "coordinates": [
                    17.28827,
                    50.475500000000004
                ]
            },
            "properties": {
                "ref:rspo": 107396,
                "official_name": "Ognisko Artystyczne w Nysie - Specjalno\u015b\u0107 Plastyka",
                "name": "Ognisko Artystyczne w Nysie - Specjalno\u015b\u0107 Plastyka",
                "addr:postcode": "48-300",
                "addr:city": "Nysa",
                "addr:street": "Grodzka",
                "addr:housenumber": "19",
                "addr:city:simc": 965789,
                "addr:street:sym_ul": 6163,
                "phone": "+48 774333516",
                "email": "oart@powiat.nysa.pl",
                "website": "http:\/\/www.zsipart.nysa.pl",
                "ref:regon": "000282464",
                "operator": "Powiat Nyski",
                "operator:type": "government",
                "fixme": "w zale\u017cno\u015bci od przedmiotu dzia\u0142alno\u015bci (np. amenity=community_centre + community_centre:for=child;juvenile, amenity=training + training=*, amenity=dancing_school, amenity=music_school),",
                "note": "Parent RSPO: 25347"
            }
        },
        {
            "id": 123710,
            "type": "Feature",
            "geometry": {
                "type": "Point",
                "coordinates": [
                    17.28827,
                    50.47547
                ]
            },
            "properties": {
                "isced:level": "3",
                "ref:rspo": 123710,
                "official_name": "Liceum Sztuk Plastycznych w Nysie",
                "name": "Liceum Sztuk Plastycznych w Nysie",
                "addr:postcode": "48-300",
                "addr:city": "Nysa",
                "addr:street": "Grodzka",
                "addr:housenumber": "19",
                "addr:city:simc": 965789,
                "addr:street:sym_ul": 6163,
                "phone": "+48 774333516",
                "email": "oart@powiat.nysa.pl",
                "website": "http:\/\/www.zsipart.nysa.pl",
                "ref:regon": "161599093",
                "operator": "Powiat Nyski",
                "operator:type": "government",
                "amenity": "school",
                "note": "Parent RSPO: 25347"
            }
        },
        {
            "id": 22201,
            "type": "Feature",
            "geometry": {
                "type": "Point",
                "coordinates": [
                    17.3314,
                    50.4773
                ]
            },
            "properties": {
                "ref:rspo": 22201,
                "official_name": "Przedszkole nr 6 w Nysie",
                "name": "Przedszkole nr 6 w Nysie",
                "addr:postcode": "48-300",
                "addr:city": "Nysa",
                "addr:street": "Armii Krajowej",
                "addr:housenumber": "9",
                "addr:city:simc": 965789,
                "addr:street:sym_ul": 432,
                "phone": "+48 774355004",
                "email": "p6@gzo.nysa.pl",
                "ref:regon": "530584232",
                "ref:vatin": "PL7532332249",
                "operator": "Gmina Nysa",
                "operator:type": "government",
                "amenity": "kindergarten"
            }
        },
        {
            "id": 4914,
            "type": "Feature",
            "geometry": {
                "type": "Point",
                "coordinates": [
                    17.32516,
                    50.47769
                ]
            },
            "properties": {
                "ref:rspo": 4914,
                "official_name": "Centrum Kszta\u0142cenia Ustawicznego w Nysie",
                "name": "Centrum Kszta\u0142cenia Ustawicznego w Nysie",
                "addr:postcode": "48-300",
                "addr:city": "Nysa",
                "addr:street": "Tadeusza Ko\u015bciuszki",
                "addr:housenumber": "4a",
                "addr:city:simc": 965789,
                "addr:street:sym_ul": 9582,
                "phone": "+48 774332471",
                "email": "zsz_nysa@sw.gov.pl",
                "ref:regon": "000702883",
                "operator": "Ministerstwo Sprawiedliwo\u015bci",
                "operator:type": "public",
                "amenity": "school",
                "fixme": "amenity=school lub amenity=college",
                "note": "Children RSPO: 8113;8114"
            }
        },
        {
            "id": 8113,
            "type": "Feature",
            "geometry": {
                "type": "Point",
                "coordinates": [
                    17.32516,
                    50.47766
                ]
            },
            "properties": {
                "isced:level": "3",
                "ref:rspo": 8113,
                "official_name": "Liceum Og\u00f3lnokszta\u0142c\u0105ce dla Doros\u0142ych",
                "name": "Liceum Og\u00f3lnokszta\u0142c\u0105ce dla Doros\u0142ych",
                "addr:postcode": "48-300",
                "addr:city": "Nysa",
                "addr:street": "Tadeusza Ko\u015bciuszki",
                "addr:housenumber": "4a",
                "addr:city:simc": 965789,
                "addr:street:sym_ul": 9582,
                "phone": "+48 774332471",
                "email": "zsz_nysa@sw.gov.pl",
                "ref:regon": "161478604",
                "operator": "Ministerstwo Sprawiedliwo\u015bci",
                "operator:type": "public",
                "amenity": "school",
                "note": "Parent RSPO: 4914"
            }
        },
        {
            "id": 8114,
            "type": "Feature",
            "geometry": {
                "type": "Point",
                "coordinates": [
                    17.32516,
                    50.477630000000005
                ]
            },
            "properties": {
                "isced:level": "4",
                "ref:rspo": 8114,
                "official_name": "Szko\u0142a Policealna dla Doros\u0142ych",
                "name": "Szko\u0142a Policealna dla Doros\u0142ych",
                "addr:postcode": "48-300",
                "addr:city": "Nysa",
                "addr:street": "Tadeusza Ko\u015bciuszki",
                "addr:housenumber": "4a",
                "addr:city:simc": 965789,
                "addr:street:sym_ul": 9582,
                "email": "zsz_nysa@sw.gov.pl",
                "ref:regon": "161478610",
                "operator": "Ministerstwo Sprawiedliwo\u015bci",
                "operator:type": "public",
                "amenity": "college",
                "note": "Parent RSPO: 4914"
            }
        },
        {
            "id": 104225,
            "type": "Feature",
            "geometry": {
                "type": "Point",
                "coordinates": [
                    17.32463,
                    50.47823
                ]
            },
            "properties": {
                "ref:rspo": 104225,
                "official_name": "Plac\u00f3wka Doskonalenia Nauczycieli \"Vademecum\"",
                "name": "Plac\u00f3wka Doskonalenia Nauczycieli \"Vademecum\"",
                "addr:postcode": "48-300",
                "addr:city": "Nysa",
                "addr:street": "Pozna\u0144ska",
                "addr:housenumber": "1",
                "addr:city:simc": 965789,
                "addr:street:sym_ul": 17394,
                "phone": "+48 605550651",
                "email": "dyrektor@vademecum.nysa.pl",
                "website": "http:\/\/www.vademecum.nysa.pl",
                "ref:regon": "161499919",
                "operator": "Bo\u017cena W\u0119cka",
                "operator:type": "private",
                "amenity": "training"
            }
        },
        {
            "id": 131023,
            "type": "Feature",
            "geometry": {
                "type": "Point",
                "coordinates": [
                    17.32463,
                    50.4782
                ]
            },
            "properties": {
                "isced:level": "4",
                "ref:rspo": 131023,
                "official_name": "Szko\u0142a Policealna Europejskiego Centrum Nauki Vademecum",
                "name": "Szko\u0142a Policealna Europejskiego Centrum Nauki Vademecum",
                "addr:postcode": "48-300",
                "addr:city": "Nysa",
                "addr:street": "Pozna\u0144ska",
                "addr:housenumber": "1",
                "addr:city:simc": 965789,
                "addr:street:sym_ul": 17394,
                "phone": "+48 774351254",
                "email": "biuro@vademecum.nysa.pl",
                "ref:regon": "364881116",
                "operator": "Europejskie Centrum Edukacyjno-Szkoleniowe \"Vademecum\" Bo\u017cena W\u0119cka",
                "operator:type": "consortium",
                "amenity": "college"
            }
        },
        {
            "id": 277053,
            "type": "Feature",
            "geometry": {
                "type": "Point",
                "coordinates": [
                    17.32463,
                    50.478170000000006
                ]
            },
            "properties": {
                "isced:level": "3",
                "ref:rspo": 277053,
                "official_name": "Liceum Og\u00f3lnokszta\u0142c\u0105ce dla Doros\u0142ych Europejskiego Centrum Nauki Vadamecum",
                "name": "Liceum Og\u00f3lnokszta\u0142c\u0105ce dla Doros\u0142ych Europejskiego Centrum Nauki Vadamecum",
                "addr:postcode": "48-300",
                "addr:city": "Nysa",
                "addr:street": "Pozna\u0144ska",
                "addr:housenumber": "1",
                "addr:city:simc": 965789,
                "addr:street:sym_ul": 17394,
                "phone": "+48 774351254",
                "email": "dos@vademecum.nysa.pl",
                "ref:regon": "388102352",
                "operator": "Europejskie Centrum Edukacyjno-Szkoleniowe \"Vademecum\" Bo\u017cena W\u0119cka",
                "operator:type": "consortium",
                "amenity": "school"
            }
        },
        {
            "id": 84977,
            "type": "Feature",
            "geometry": {
                "type": "Point",
                "coordinates": [
                    17.3386299,
                    50.47845
                ]
            },
            "properties": {
                "ref:rspo": 84977,
                "official_name": "Zesp\u00f3\u0142 Szk\u00f3\u0142 Ekonomicznych w Nysie",
                "name": "Zesp\u00f3\u0142 Szk\u00f3\u0142 Ekonomicznych w Nysie",
                "addr:postcode": "48-300",
                "addr:city": "Nysa",
                "addr:street": "Plac Sikorskiego",
                "addr:housenumber": "1",
                "addr:city:simc": 965789,
                "addr:street:sym_ul": 39087,
                "phone": "+48 774333529",
                "email": "sekretariat@zse.nysa.pl",
                "website": "http:\/\/www.zse.nysa.pl",
                "ref:regon": "000743190",
                "ref:vatin": "PL7531036885",
                "operator": "Powiat Nyski",
                "operator:type": "government",
                "landuse": "education",
                "fixme": "amenity=school, amenity=college albo landuse=education w zale\u017cno\u015bci od tego, jakie plac\u00f3wki wchodz\u0105 w sk\u0142ad zespo\u0142u. Sprawd\u017a, kiedy stosowa\u0107 amenity=* a kiedy landuse=education.",
                "note": "Children RSPO: 92516;92517;92524"
            }
        },
        {
            "id": 92516,
            "type": "Feature",
            "geometry": {
                "type": "Point",
                "coordinates": [
                    17.3386299,
                    50.47842
                ]
            },
            "properties": {
                "isced:level": "3",
                "ref:rspo": 92516,
                "official_name": "Technikum nr 3 w Nysie",
                "name": "Technikum nr 3 w Nysie",
                "addr:postcode": "48-300",
                "addr:city": "Nysa",
                "addr:street": "Plac Sikorskiego",
                "addr:housenumber": "1",
                "addr:city:simc": 965789,
                "addr:street:sym_ul": 39087,
                "phone": "+48 774333529",
                "email": "sekretariat@zse.nysa.pl",
                "website": "http:\/\/www.zse.nysa.pl",
                "ref:regon": "532330702",
                "operator": "Powiat Nyski",
                "operator:type": "government",
                "amenity": "school",
                "note": "Parent RSPO: 84977"
            }
        },
        {
            "id": 92517,
            "type": "Feature",
            "geometry": {
                "type": "Point",
                "coordinates": [
                    17.3386299,
                    50.478390000000005
                ]
            },
            "properties": {
                "isced:level": "4",
                "ref:rspo": 92517,
                "official_name": "Szko\u0142a Policealna nr 2 w Nysie Stacjonarna I Zaoczna",
                "name": "Szko\u0142a Policealna nr 2 w Nysie Stacjonarna I Zaoczna",
                "addr:postcode": "48-300",
                "addr:city": "Nysa",
                "addr:street": "Plac Sikorskiego",
                "addr:housenumber": "1",
                "addr:city:simc": 965789,
                "addr:street:sym_ul": 39087,
                "phone": "+48 774333529",
                "email": "sekretariat@zse.nysa.pl",
                "website": "http:\/\/www.zse.nysa.pl",
                "ref:regon": "160077903",
                "operator": "Powiat Nyski",
                "operator:type": "government",
                "amenity": "college",
                "note": "Parent RSPO: 84977"
            }
        },
        {
            "id": 92524,
            "type": "Feature",
            "geometry": {
                "type": "Point",
                "coordinates": [
                    17.3386299,
                    50.47836
                ]
            },
            "properties": {
                "isced:level": "4",
                "ref:rspo": 92524,
                "official_name": "Szko\u0142a Policealna nr 1 w Nysie Dzienna",
                "name": "Szko\u0142a Policealna nr 1 w Nysie Dzienna",
                "addr:postcode": "48-300",
                "addr:city": "Nysa",
                "addr:street": "Plac Sikorskiego",
                "addr:housenumber": "1",
                "addr:city:simc": 965789,
                "addr:street:sym_ul": 39087,
                "phone": "+48 774333529",
                "email": "sekretariat@zse.nysa.pl",
                "website": "http:\/\/www.zse.nysa.pl",
                "ref:regon": "532232589",
                "operator": "Powiat Nyski",
                "operator:type": "government",
                "amenity": "college",
                "note": "Parent RSPO: 84977"
            }
        },
        {
            "id": 19263,
            "type": "Feature",
            "geometry": {
                "type": "Point",
                "coordinates": [
                    17.32463,
                    50.47872
                ]
            },
            "properties": {
                "isced:level": "4",
                "ref:rspo": 19263,
                "official_name": "Szko\u0142a Policealna Medyk w Nysie",
                "name": "Szko\u0142a Policealna Medyk w Nysie",
                "addr:postcode": "48-300",
                "addr:city": "Nysa",
                "addr:street": "Tadeusza Ko\u015bciuszki",
                "addr:housenumber": "10",
                "addr:city:simc": 965789,
                "addr:street:sym_ul": 9582,
                "phone": "+48 531604502",
                "email": "nysa@medyk.szkola.pl",
                "website": "http:\/\/www.medyk.szkola.pl",
                "ref:regon": "161482735",
                "operator": "Centrum Edukacji W K\u0142odzku Sp\u00f3\u0142ka Z Ograniczon\u0105 Odpowiedzialno\u015bci\u0105",
                "operator:type": "private",
                "amenity": "college"
            }
        },
        {
            "id": 20974,
            "type": "Feature",
            "geometry": {
                "type": "Point",
                "coordinates": [
                    17.32463,
                    50.47869
                ]
            },
            "properties": {
                "isced:level": "4",
                "ref:rspo": 20974,
                "official_name": "Medyczna Szko\u0142a Policealna w Nysie",
                "name": "Medyczna Szko\u0142a Policealna w Nysie",
                "addr:postcode": "48-300",
                "addr:city": "Nysa",
                "addr:street": "Tadeusza Ko\u015bciuszki",
                "addr:housenumber": "10",
                "addr:city:simc": 965789,
                "addr:street:sym_ul": 9582,
                "email": "nysa@medyk.szkola.pl",
                "website": "http:\/\/www.medyk. szko\u0142a. pl",
                "ref:regon": "161483195",
                "operator": "Centrum Edukacji W K\u0142odzku Sp\u00f3\u0142ka Z Ograniczon\u0105 Odpowiedzialno\u015bci\u0105",
                "operator:type": "private",
                "amenity": "college"
            }
        },
        {
            "id": 264667,
            "type": "Feature",
            "geometry": {
                "type": "Point",
                "coordinates": [
                    17.32463,
                    50.478660000000005
                ]
            },
            "properties": {
                "ref:rspo": 264667,
                "official_name": "Publiczne Przedszkole \u201e\u0141obuziaki\u201d w Nysie",
                "name": "Publiczne Przedszkole \u201e\u0141obuziaki\u201d w Nysie",
                "addr:postcode": "48-300",
                "addr:city": "Nysa",
                "addr:street": "Tadeusza Ko\u015bciuszki",
                "addr:housenumber": "10",
                "addr:city:simc": 965789,
                "addr:street:sym_ul": 9582,
                "phone": "+48 500063038",
                "email": "biuro@lobuziaki.com.pl",
                "website": "http:\/\/www.lobuziaki.com.pl",
                "ref:regon": "368415032",
                "operator": "Klaudyna Cichocka-Volkov",
                "operator:type": "private",
                "amenity": "kindergarten"
            }
        },
        {
            "id": 276345,
            "type": "Feature",
            "geometry": {
                "type": "Point",
                "coordinates": [
                    17.32463,
                    50.47863
                ]
            },
            "properties": {
                "isced:level": "3",
                "ref:rspo": 276345,
                "official_name": "Niepubliczne Liceum Og\u00f3lnokszta\u0142c\u0105ce \"Medyk\" w Nysie",
                "name": "Niepubliczne Liceum Og\u00f3lnokszta\u0142c\u0105ce \"Medyk\" w Nysie",
                "addr:postcode": "48-300",
                "addr:city": "Nysa",
                "addr:street": "Tadeusza Ko\u015bciuszki",
                "addr:housenumber": "10",
                "addr:city:simc": 965789,
                "addr:street:sym_ul": 9582,
                "email": "sekretariat@liceum-nysa.pl",
                "website": "http:\/\/www.liceum-nysa.pl",
                "ref:regon": "387101965",
                "operator": "Centrum Edukacji W K\u0142odzku Sp\u00f3\u0142ka Z Ograniczon\u0105 Odpowiedzialno\u015bci\u0105",
                "operator:type": "private",
                "amenity": "school"
            }
        },
        {
            "id": 104527,
            "type": "Feature",
            "geometry": {
                "type": "Point",
                "coordinates": [
                    17.32463,
                    50.4786
                ]
            },
            "properties": {
                "ref:rspo": 104527,
                "official_name": "Pedagogiczna Biblioteka Wojew\u00f3dzka w Opolu - Filia w Nysie",
                "name": "Pedagogiczna Biblioteka Wojew\u00f3dzka w Opolu - Filia w Nysie",
                "addr:postcode": "48-300",
                "addr:city": "Nysa",
                "addr:street": "Tadeusza Ko\u015bciuszki",
                "addr:housenumber": "10",
                "addr:city:simc": 965789,
                "addr:street:sym_ul": 9582,
                "phone": "+48 774333582",
                "email": "nysa@pedagogiczna.pl",
                "website": "http:\/\/www.pedagogiczna.pl",
                "ref:regon": "743497000",
                "operator": "Wojew\u00f3dztwo Opolskie",
                "operator:type": "government",
                "amenity": "library",
                "note": "Parent RSPO: 55538"
            }
        },
        {
            "id": 53343,
            "type": "Feature",
            "geometry": {
                "type": "Point",
                "coordinates": [
                    17.32258,
                    50.47917
                ]
            },
            "properties": {
                "ref:rspo": 53343,
                "official_name": "Przedszkole Prywatne \u201eSmerf\u201d w Nysie",
                "name": "Przedszkole Prywatne \u201eSmerf\u201d w Nysie",
                "addr:postcode": "48-300",
                "addr:city": "Nysa",
                "addr:street": "Tadeusza Ko\u015bciuszki",
                "addr:housenumber": "9",
                "addr:city:simc": 965789,
                "addr:street:sym_ul": 9582,
                "phone": "+48 774093360",
                "email": "nsp_nysa@wodip.opole.pl",
                "website": "http:\/\/www.nspiprzedszkole.nysa.pl",
                "ref:regon": "161492580",
                "operator": "Czes\u0142aw Koby\u0142ecki",
                "operator:type": "private",
                "amenity": "kindergarten"
            }
        },
        {
            "id": 59905,
            "type": "Feature",
            "geometry": {
                "type": "Point",
                "coordinates": [
                    17.32258,
                    50.47914
                ]
            },
            "properties": {
                "isced:level": "1;2",
                "ref:rspo": 59905,
                "official_name": "Niepubliczna Szko\u0142a Podstawowa im. J. Kozarzewskiego w Nysie",
                "name": "Niepubliczna Szko\u0142a Podstawowa",
                "addr:postcode": "48-300",
                "addr:city": "Nysa",
                "addr:street": "Tadeusza Ko\u015bciuszki",
                "addr:housenumber": "9",
                "addr:city:simc": 965789,
                "addr:street:sym_ul": 9582,
                "phone": "+48 774093360",
                "email": "nsp_nysa@wodip.opole.pl",
                "website": "http:\/\/www.nspiprzedszkole.nysa.pl",
                "ref:regon": "161489973",
                "operator": "Czes\u0142aw Koby\u0142ecki",
                "operator:type": "private",
                "amenity": "school"
            }
        },
        {
            "id": 129707,
            "type": "Feature",
            "geometry": {
                "type": "Point",
                "coordinates": [
                    17.32637,
                    50.48027
                ]
            },
            "properties": {
                "ref:rspo": 129707,
                "official_name": "Przedszkole Prywatne Bajkowy \u015awiat",
                "name": "Przedszkole Prywatne Bajkowy \u015awiat",
                "addr:postcode": "48-300",
                "addr:city": "Nysa",
                "addr:street": "J\u00f3zefa Poniatowskiego",
                "addr:housenumber": "4",
                "addr:city:simc": 965789,
                "addr:street:sym_ul": 17107,
                "phone": "+48 531267610",
                "email": "celinalichnowska40@wp.pl",
                "ref:regon": "362779891",
                "operator": "Celina Lichnowska",
                "operator:type": "private",
                "amenity": "kindergarten"
            }
        },
        {
            "id": 118497,
            "type": "Feature",
            "geometry": {
                "type": "Point",
                "coordinates": [
                    17.33085,
                    50.48321
                ]
            },
            "properties": {
                "ref:rspo": 118497,
                "official_name": "Powiatowy O\u015brodek Doskonalenia Nauczycieli I Poradnictwa Psychologiczno-Pedagogicznego w Nysie",
                "name": "Powiatowy O\u015brodek Doskonalenia Nauczycieli I Poradnictwa Psychologiczno-Pedagogicznego w Nysie",
                "addr:postcode": "48-300",
                "addr:city": "Nysa",
                "addr:street": "S\u0142owia\u0144ska",
                "addr:housenumber": "17",
                "addr:city:simc": 965789,
                "addr:street:sym_ul": 20294,
                "phone": "+48 774093915",
                "email": "pppnysa@o2.pl",
                "website": "http:\/\/ppp.nysa.pl",
                "ref:regon": "161544436",
                "operator": "Powiat Nyski",
                "operator:type": "government",
                "landuse": "education",
                "fixme": "amenity=school, amenity=college albo landuse=education w zale\u017cno\u015bci od tego, jakie plac\u00f3wki wchodz\u0105 w sk\u0142ad zespo\u0142u. Sprawd\u017a, kiedy stosowa\u0107 amenity=* a kiedy landuse=education.",
                "note": "Children RSPO: 91886;118495"
            }
        },
        {
            "id": 272147,
            "type": "Feature",
            "geometry": {
                "type": "Point",
                "coordinates": [
                    17.33799,
                    50.4833799
                ]
            },
            "properties": {
                "isced:level": "1;2",
                "ref:rspo": 272147,
                "official_name": "Szko\u0142a Podstawowa nr 2 z Oddzia\u0142ami Mistrzostwa Sportowego im. Powsta\u0144c\u00f3w \u015aL\u0105skich w Nysie",
                "name": "Szko\u0142a Podstawowa nr 2 z Oddzia\u0142ami Mistrzostwa Sportowego",
                "addr:postcode": "48-300",
                "addr:city": "Nysa",
                "addr:street": "Bramy Grodkowskiej",
                "addr:housenumber": "4",
                "addr:city:simc": 965789,
                "addr:street:sym_ul": 47933,
                "phone": "+48 774332526",
                "email": "sp2@gzo.nysa.pl",
                "website": "https:\/\/zssnysa.edupage.org\/",
                "ref:regon": "383961270",
                "ref:vatin": "PL7532454001",
                "operator": "Gmina Nysa",
                "operator:type": "government",
                "amenity": "school"
            }
        },
        {
            "id": 106668,
            "type": "Feature",
            "geometry": {
                "type": "Point",
                "coordinates": [
                    17.34846,
                    50.4836
                ]
            },
            "properties": {
                "isced:level": "3",
                "ref:rspo": 106668,
                "official_name": "Bran\u017cowa Szko\u0142a I Stopnia nr 6 Specjalna - dla Niedostosowanych Spo\u0142ecznie w Nysie",
                "name": "Bran\u017cowa Szko\u0142a I Stopnia nr 6 Specjalna - dla Niedostosowanych Spo\u0142ecznie w Nysie",
                "addr:postcode": "48-300",
                "addr:city": "Nysa",
                "addr:street": "Aleja Wojska Polskiego",
                "addr:housenumber": "31",
                "addr:city:simc": 965789,
                "addr:street:sym_ul": 33790,
                "phone": "+48 774334001",
                "email": "mownysa@mownysa.pl",
                "website": "http:\/\/www.zpsnysa.pl\/",
                "ref:regon": "530516928",
                "operator": "Powiat Nyski",
                "operator:type": "government",
                "amenity": "school",
                "note": "Parent RSPO: 89634"
            }
        },
        {
            "id": 123702,
            "type": "Feature",
            "geometry": {
                "type": "Point",
                "coordinates": [
                    17.34846,
                    50.48357
                ]
            },
            "properties": {
                "isced:level": "3",
                "ref:rspo": 123702,
                "official_name": "Liceum Og\u00f3lnokszta\u0142c\u0105ce Specjalne w Nysie",
                "name": "Liceum Og\u00f3lnokszta\u0142c\u0105ce Specjalne w Nysie",
                "addr:postcode": "48-300",
                "addr:city": "Nysa",
                "addr:street": "Aleja Wojska Polskiego",
                "addr:housenumber": "31",
                "addr:city:simc": 965789,
                "addr:street:sym_ul": 33790,
                "phone": "+48 774334001",
                "email": "mownysa@mownysa.pl",
                "website": "http:\/\/www.zpsnysa.pl",
                "ref:regon": "161599087",
                "operator": "Powiat Nyski",
                "operator:type": "government",
                "amenity": "school",
                "note": "Parent RSPO: 123701"
            }
        },
        {
            "id": 89634,
            "type": "Feature",
            "geometry": {
                "type": "Point",
                "coordinates": [
                    17.34846,
                    50.483540000000005
                ]
            },
            "properties": {
                "ref:rspo": 89634,
                "official_name": "M\u0142odzie\u017cowy O\u015brodek Wychowawczy w Nysie",
                "name": "M\u0142odzie\u017cowy O\u015brodek Wychowawczy w Nysie",
                "addr:postcode": "48-300",
                "addr:city": "Nysa",
                "addr:street": "Aleja Wojska Polskiego",
                "addr:housenumber": "31",
                "addr:city:simc": 965789,
                "addr:street:sym_ul": 33790,
                "phone": "+48 774334001",
                "email": "mownysa@mownysa.pl",
                "website": "http:\/\/www.zpsnysa.pl\/",
                "ref:regon": "000196612",
                "ref:vatin": "PL7531054469",
                "operator": "Powiat Nyski",
                "operator:type": "government",
                "fixme": "amenity=social_facility + social_facility=group_home + social_facility:for=juvenile",
                "note": "Children RSPO: 106668Parent RSPO: 123703"
            }
        },
        {
            "id": 123701,
            "type": "Feature",
            "geometry": {
                "type": "Point",
                "coordinates": [
                    17.34846,
                    50.48351
                ]
            },
            "properties": {
                "ref:rspo": 123701,
                "official_name": "M\u0142odzie\u017cowy O\u015brodek Socjoterapii w Nysie",
                "name": "M\u0142odzie\u017cowy O\u015brodek Socjoterapii w Nysie",
                "addr:postcode": "48-300",
                "addr:city": "Nysa",
                "addr:street": "Aleja Wojska Polskiego",
                "addr:housenumber": "31",
                "addr:city:simc": 965789,
                "addr:street:sym_ul": 33790,
                "phone": "+48 774334001",
                "email": "mownysa@mownysa.pl",
                "website": "http:\/\/www.zpsnysa.pl\/",
                "ref:regon": "161599064",
                "operator": "Powiat Nyski",
                "operator:type": "government",
                "fixme": "amenity=social_facility + social_facility=group_home + social_facility:for=juvenile",
                "note": "Children RSPO: 123702Parent RSPO: 123703"
            }
        },
        {
            "id": 22051,
            "type": "Feature",
            "geometry": {
                "type": "Point",
                "coordinates": [
                    17.3439,
                    50.48568
                ]
            },
            "properties": {
                "ref:rspo": 22051,
                "official_name": "Przedszkole nr 14 w Nysie",
                "name": "Przedszkole nr 14 w Nysie",
                "addr:postcode": "48-300",
                "addr:city": "Nysa",
                "addr:street": "Grodkowska",
                "addr:housenumber": "30",
                "addr:city:simc": 965789,
                "addr:street:sym_ul": 6148,
                "phone": "+48 774333007",
                "email": "p14@gzo.nysa.pl",
                "ref:regon": "530584290",
                "ref:vatin": "PL7532332404",
                "operator": "Gmina Nysa",
                "operator:type": "government",
                "amenity": "kindergarten"
            }
        },
        {
            "id": 21729,
            "type": "Feature",
            "geometry": {
                "type": "Point",
                "coordinates": [
                    17.2548299,
                    50.48625
                ]
            },
            "properties": {
                "ref:rspo": 21729,
                "official_name": "Zesp\u00f3\u0142 Szkolno - Przedszkolny w Go\u015bwinowicach",
                "name": "Zesp\u00f3\u0142 Szkolno - Przedszkolny w Go\u015bwinowicach",
                "addr:postcode": "48-381",
                "addr:city": "Go\u015bwinowice",
                "addr:street": "Kolejowa",
                "addr:housenumber": "5",
                "addr:city:simc": 500292,
                "addr:street:sym_ul": 8828,
                "phone": "+48 774356283",
                "email": "goswinowice@gzo.nysa.pl",
                "ref:regon": "532408249",
                "ref:vatin": "PL7532332321",
                "operator": "Gmina Nysa",
                "operator:type": "government",
                "landuse": "education",
                "fixme": "amenity=school, amenity=college albo landuse=education w zale\u017cno\u015bci od tego, jakie plac\u00f3wki wchodz\u0105 w sk\u0142ad zespo\u0142u. Sprawd\u017a, kiedy stosowa\u0107 amenity=* a kiedy landuse=education.",
                "note": "Children RSPO: 34254;34255"
            }
        },
        {
            "id": 34254,
            "type": "Feature",
            "geometry": {
                "type": "Point",
                "coordinates": [
                    17.2548299,
                    50.486219999999996
                ]
            },
            "properties": {
                "ref:rspo": 34254,
                "official_name": "Przedszkole w Go\u015bwinowicach",
                "name": "Przedszkole w Go\u015bwinowicach",
                "addr:postcode": "48-381",
                "addr:city": "Go\u015bwinowice",
                "addr:street": "Kolejowa",
                "addr:housenumber": "5",
                "addr:city:simc": 500292,
                "addr:street:sym_ul": 8828,
                "phone": "+48 774356283",
                "email": "goswinowice@gzo.nysa.pl",
                "ref:regon": "530584321",
                "operator": "Gmina Nysa",
                "operator:type": "government",
                "amenity": "kindergarten",
                "note": "Parent RSPO: 21729"
            }
        },
        {
            "id": 34255,
            "type": "Feature",
            "geometry": {
                "type": "Point",
                "coordinates": [
                    17.2548299,
                    50.48619
                ]
            },
            "properties": {
                "isced:level": "1;2",
                "ref:rspo": 34255,
                "official_name": "Szko\u0142a Podstawowa w Go\u015bwinowicach",
                "name": "Szko\u0142a Podstawowa w Go\u015bwinowicach",
                "addr:postcode": "48-381",
                "addr:city": "Go\u015bwinowice",
                "addr:street": "Kolejowa",
                "addr:housenumber": "5",
                "addr:city:simc": 500292,
                "addr:street:sym_ul": 8828,
                "phone": "+48 774356283",
                "email": "goswinowice@gzo.nysa.pl",
                "website": "http:\/\/www.zspgoswinowice.wodip.opole.pl",
                "ref:regon": "000769539",
                "operator": "Gmina Nysa",
                "operator:type": "government",
                "amenity": "school",
                "note": "Parent RSPO: 21729"
            }
        },
        {
            "id": 18961,
            "type": "Feature",
            "geometry": {
                "type": "Point",
                "coordinates": [
                    17.25296,
                    50.48756
                ]
            },
            "properties": {
                "ref:rspo": 18961,
                "official_name": "Przedszkole nr 8 w Nysie",
                "name": "Przedszkole nr 8 w Nysie",
                "addr:postcode": "48-300",
                "addr:city": "Nysa",
                "addr:street": "Tkacka",
                "addr:housenumber": "2",
                "addr:city:simc": 965789,
                "addr:street:sym_ul": 22794,
                "phone": "+48 774333892",
                "email": "p8@gzo.nysa.pl",
                "ref:regon": "530584255",
                "ref:vatin": "PL7532332290",
                "operator": "Gmina Nysa",
                "operator:type": "government",
                "amenity": "kindergarten"
            }
        },
        {
            "id": 267963,
            "type": "Feature",
            "geometry": {
                "type": "Point",
                "coordinates": [
                    17.34831,
                    50.4900499
                ]
            },
            "properties": {
                "ref:rspo": 267963,
                "official_name": "Protectal Sp. z O. O. - Szkolenia Specjalistyczne",
                "name": "Protectal Sp. z O. O. - Szkolenia Specjalistyczne",
                "addr:postcode": "48-300",
                "addr:city": "Nysa",
                "addr:street": "Grodkowska",
                "addr:housenumber": "58 A",
                "addr:city:simc": 965789,
                "addr:street:sym_ul": 6148,
                "email": "info@protectal.pl",
                "ref:regon": "380790393",
                "operator": "Protectal Sp\u00f3\u0142ka Z Ograniczon\u0105 Odpowiedzialno\u015bci\u0105",
                "operator:type": "private",
                "fixme": "w zale\u017cno\u015bci od przedmiotu dzia\u0142alno\u015bci (np. amenity=training + training=*, amenity=dancing_school, amenity=language_school, amenity=music_school)"
            }
        },
        {
            "id": 123703,
            "type": "Feature",
            "geometry": {
                "type": "Point",
                "coordinates": [
                    17.34785,
                    50.4918
                ]
            },
            "properties": {
                "ref:rspo": 123703,
                "official_name": "Zesp\u00f3\u0142 Plac\u00f3wek Specjalnych w Nysie",
                "name": "Zesp\u00f3\u0142 Plac\u00f3wek Specjalnych w Nysie",
                "addr:postcode": "48-300",
                "addr:city": "Nysa",
                "addr:street": "Grodkowska",
                "addr:housenumber": "54",
                "addr:city:simc": 965789,
                "addr:street:sym_ul": 6148,
                "phone": "+48 774332236",
                "email": "soswnysapoczta@o2.pl",
                "website": "http:\/\/www.zpsnysa.pl\/",
                "ref:regon": "161599101",
                "ref:vatin": "PL7532434866",
                "operator": "Powiat Nyski",
                "operator:type": "government",
                "landuse": "education",
                "fixme": "amenity=school, amenity=college albo landuse=education w zale\u017cno\u015bci od tego, jakie plac\u00f3wki wchodz\u0105 w sk\u0142ad zespo\u0142u. Sprawd\u017a, kiedy stosowa\u0107 amenity=* a kiedy landuse=education.",
                "note": "Children RSPO: 89634;89936;106488;123701"
            }
        },
        {
            "id": 267592,
            "type": "Feature",
            "geometry": {
                "type": "Point",
                "coordinates": [
                    17.34785,
                    50.491769999999995
                ]
            },
            "properties": {
                "ref:rspo": 267592,
                "official_name": "Szkolenia Paso\u0144",
                "name": "Szkolenia Paso\u0144",
                "addr:postcode": "48-300",
                "addr:city": "Nysa",
                "addr:street": "Grodkowska",
                "addr:housenumber": "54",
                "addr:city:simc": 965789,
                "addr:street:sym_ul": 6148,
                "email": "joanna@szkoleniapason.pl",
                "ref:regon": "380369854",
                "operator": "Joanna Paso\u0144 Fuh \"Paso\u0144\"",
                "operator:type": "consortium",
                "fixme": "w zale\u017cno\u015bci od przedmiotu dzia\u0142alno\u015bci (np. amenity=training + training=*, amenity=dancing_school, amenity=language_school, amenity=music_school)"
            }
        },
        {
            "id": 106489,
            "type": "Feature",
            "geometry": {
                "type": "Point",
                "coordinates": [
                    17.34785,
                    50.49174
                ]
            },
            "properties": {
                "ref:rspo": 106489,
                "official_name": "Szko\u0142a Specjalna Przysposabiaj\u0105ca do Pracy w Nysie",
                "name": "Szko\u0142a Specjalna Przysposabiaj\u0105ca do Pracy w Nysie",
                "addr:postcode": "48-300",
                "addr:city": "Nysa",
                "addr:street": "Grodkowska",
                "addr:housenumber": "54",
                "addr:city:simc": 965789,
                "addr:street:sym_ul": 6148,
                "phone": "+48 774332236",
                "email": "soswnysapoczta@o2.pl",
                "website": "http:\/\/www.zpsnysa.pl\/",
                "ref:regon": "532458678",
                "operator": "Powiat Nyski",
                "operator:type": "government",
                "amenity": "school",
                "note": "Parent RSPO: 89936"
            }
        },
        {
            "id": 89936,
            "type": "Feature",
            "geometry": {
                "type": "Point",
                "coordinates": [
                    17.34785,
                    50.49171
                ]
            },
            "properties": {
                "ref:rspo": 89936,
                "official_name": "Specjalny O\u015brodek Szkolno-Wychowawczy w Nysie im. Ksi\u0119dza Jana Twardowskiego",
                "name": "Specjalny O\u015brodek Szkolno-Wychowawczy w Nysie",
                "addr:postcode": "48-300",
                "addr:city": "Nysa",
                "addr:street": "Grodkowska",
                "addr:housenumber": "54",
                "addr:city:simc": 965789,
                "addr:street:sym_ul": 6148,
                "phone": "+48 774332236",
                "email": "soswnysapoczta@o2.pl",
                "website": "http:\/\/www.zpsnysa.pl\/",
                "ref:regon": "000186565",
                "ref:vatin": "PL7531687134",
                "operator": "Powiat Nyski",
                "operator:type": "government",
                "amenity": "school",
                "note": "Children RSPO: 106489Parent RSPO: 123703"
            }
        },
        {
            "id": 106488,
            "type": "Feature",
            "geometry": {
                "type": "Point",
                "coordinates": [
                    17.34785,
                    50.491679999999995
                ]
            },
            "properties": {
                "isced:level": "1;2",
                "ref:rspo": 106488,
                "official_name": "Szko\u0142a Podstawowa nr 11 Specjalna w Nysie",
                "name": "Szko\u0142a Podstawowa nr 11 Specjalna w Nysie",
                "addr:postcode": "48-300",
                "addr:city": "Nysa",
                "addr:street": "Grodkowska",
                "addr:housenumber": "54",
                "addr:city:simc": 965789,
                "addr:street:sym_ul": 6148,
                "phone": "+48 774332236",
                "email": "soswnysapoczta@o2.pl",
                "website": "http:\/\/www.zpsnysa.pl",
                "ref:regon": "530516957",
                "operator": "Powiat Nyski",
                "operator:type": "government",
                "amenity": "school",
                "note": "Parent RSPO: 123703"
            }
        }
    ]
}