{
    "type": "FeatureCollection",
    "features": [
        {
            "id": 54281,
            "type": "Feature",
            "geometry": {
                "type": "Point",
                "coordinates": [
                    20.2602234,
                    49.9767215
                ]
            },
            "properties": {
                "isced:level": "1;2",
                "ref:rspo": 54281,
                "official_name": "Szko\u0142a Podstawowa Z Oddzia\u0142ami Integracyjnymi w Grodkowicach",
                "name": "Szko\u0142a Podstawowa Z Oddzia\u0142ami Integracyjnymi w Grodkowicach",
                "addr:postcode": "32-015",
                "addr:place": "Grodkowice",
                "addr:housenumber": "80",
                "addr:city:simc": 321744,
                "phone": "+48 122845464",
                "email": "sp_grodkowice@poczta.fm",
                "website": "http:\/\/www.spgrodkowice.edupage.org",
                "ref:regon": "001234013",
                "ref:vatin": "PL6831838453",
                "operator": "Gmina K\u0142aj",
                "operator:type": "government",
                "amenity": "school"
            }
        },
        {
            "id": 85185,
            "type": "Feature",
            "geometry": {
                "type": "Point",
                "coordinates": [
                    20.291659,
                    49.9815149
                ]
            },
            "properties": {
                "isced:level": "1;2",
                "ref:rspo": 85185,
                "official_name": "Szko\u0142a Podstawowa w Targowisku",
                "name": "Szko\u0142a Podstawowa w Targowisku",
                "addr:postcode": "32-015",
                "addr:place": "Targowisko",
                "addr:housenumber": "313",
                "addr:city:simc": 322040,
                "phone": "+48 122841469",
                "email": "sp.targowisko@oswiata.eu",
                "website": "http:\/\/zsotargowisko.pl",
                "ref:regon": "001234020",
                "ref:vatin": "PL6831838536",
                "operator": "Gmina K\u0142aj",
                "operator:type": "government",
                "amenity": "school"
            }
        },
        {
            "id": 85187,
            "type": "Feature",
            "geometry": {
                "type": "Point",
                "coordinates": [
                    20.308607,
                    49.990092
                ]
            },
            "properties": {
                "isced:level": "1;2",
                "ref:rspo": 85187,
                "official_name": "Szko\u0142a Podstawowa w K\u0142aju",
                "name": "Szko\u0142a Podstawowa w K\u0142aju",
                "addr:postcode": "32-015",
                "addr:place": "K\u0142aj",
                "addr:housenumber": "361",
                "addr:city:simc": 321750,
                "phone": "+48 122841176",
                "email": "dyrekcja@spklaj.pl",
                "website": "http:\/\/spklaj.pl",
                "ref:regon": "000703569",
                "ref:vatin": "PL6831836307",
                "operator": "Gmina K\u0142aj",
                "operator:type": "government",
                "amenity": "school"
            }
        },
        {
            "id": 125066,
            "type": "Feature",
            "geometry": {
                "type": "Point",
                "coordinates": [
                    20.308514,
                    49.990336
                ]
            },
            "properties": {
                "ref:rspo": 125066,
                "official_name": "Niepubliczne Przedszkole \"Ogr\u00f3d Montessori\"",
                "name": "Niepubliczne Przedszkole \"Ogr\u00f3d Montessori\"",
                "addr:postcode": "32-015",
                "addr:place": "K\u0142aj",
                "addr:housenumber": "1053",
                "addr:city:simc": 321750,
                "phone": "+48 508637958",
                "email": "ogrodmontessori@gmail.com",
                "website": "http:\/\/ogrodmontessori.pl",
                "ref:regon": "123209667",
                "ref:vatin": "PL6831667968",
                "operator": "Ewa \u015aleszy\u0144ska",
                "operator:type": "private",
                "amenity": "kindergarten"
            }
        },
        {
            "id": 54282,
            "type": "Feature",
            "geometry": {
                "type": "Point",
                "coordinates": [
                    20.2987597,
                    49.9952736
                ]
            },
            "properties": {
                "ref:rspo": 54282,
                "official_name": "Przedszkole Samorz\u0105dowe w K\u0142aju",
                "name": "Przedszkole Samorz\u0105dowe w K\u0142aju",
                "addr:postcode": "32-015",
                "addr:place": "K\u0142aj",
                "addr:housenumber": "651",
                "addr:city:simc": 321750,
                "phone": "+48 122841287",
                "email": "przedszkoleklaj@op.pl",
                "ref:regon": "350018440",
                "ref:vatin": "PL6831838571",
                "operator": "Gmina K\u0142aj",
                "operator:type": "government",
                "amenity": "kindergarten"
            }
        },
        {
            "id": 85183,
            "type": "Feature",
            "geometry": {
                "type": "Point",
                "coordinates": [
                    20.2635457,
                    49.9960747
                ]
            },
            "properties": {
                "isced:level": "1;2",
                "ref:rspo": 85183,
                "official_name": "Szko\u0142a Podstawowa w Szarowie",
                "name": "Szko\u0142a Podstawowa w Szarowie",
                "addr:postcode": "32-014",
                "addr:place": "Szar\u00f3w",
                "addr:housenumber": "302",
                "addr:city:simc": 322005,
                "phone": "+48 122841199",
                "email": "sp.szarow@oswiata.eu",
                "ref:regon": "001234007",
                "ref:vatin": "PL6831838536",
                "operator": "Gmina K\u0142aj",
                "operator:type": "government",
                "amenity": "school"
            }
        },
        {
            "id": 54283,
            "type": "Feature",
            "geometry": {
                "type": "Point",
                "coordinates": [
                    20.2511707,
                    50.0014221
                ]
            },
            "properties": {
                "ref:rspo": 54283,
                "official_name": "Przedszkole Samorz\u0105dowe w D\u0105browie",
                "name": "Przedszkole Samorz\u0105dowe w D\u0105browie",
                "addr:postcode": "32-014",
                "addr:place": "D\u0105browa",
                "addr:housenumber": "1",
                "addr:city:simc": 321709,
                "phone": "+48 122841332",
                "email": "przedszkoledabrowa@o2.pl",
                "ref:regon": "350018463",
                "ref:vatin": "PL6831838588",
                "operator": "Gmina K\u0142aj",
                "operator:type": "government",
                "amenity": "kindergarten"
            }
        },
        {
            "id": 85181,
            "type": "Feature",
            "geometry": {
                "type": "Point",
                "coordinates": [
                    20.1895734,
                    50.0184944
                ]
            },
            "properties": {
                "isced:level": "1;2",
                "ref:rspo": 85181,
                "official_name": "Szko\u0142a Podstawowa w Brzeziu",
                "name": "Szko\u0142a Podstawowa w Brzeziu",
                "addr:postcode": "32-014",
                "addr:place": "Brzezie",
                "addr:housenumber": "434",
                "addr:city:simc": 321626,
                "phone": "+48 122845011",
                "email": "sp.brzezie@oswiata.eu",
                "ref:regon": "001234036",
                "ref:vatin": "PL6831837318",
                "operator": "Gmina K\u0142aj",
                "operator:type": "government",
                "amenity": "school"
            }
        }
    ]
}