{
    "type": "FeatureCollection",
    "features": [
        {
            "id": 262924,
            "type": "Feature",
            "geometry": {
                "type": "Point",
                "coordinates": [
                    20.1458711,
                    49.9346606
                ]
            },
            "properties": {
                "isced:level": "1;2",
                "ref:rspo": 262924,
                "official_name": "Szko\u0142a Podstawowa im. Ksi\u0119dza Karola Wojty\u0142y w S\u0142awkowicach",
                "name": "Szko\u0142a Podstawowa",
                "addr:postcode": "32-020",
                "addr:place": "S\u0142awkowice",
                "addr:housenumber": "162",
                "addr:city:simc": 315235,
                "phone": "+48 124513228",
                "email": "sp.slawkowice@oswiata.eu",
                "website": "http:\/\/spslawkowice.edupage.org",
                "ref:regon": "368073838",
                "ref:vatin": "PL6832096700",
                "operator": "Gmina Biskupice",
                "operator:type": "government",
                "amenity": "school"
            }
        },
        {
            "id": 266988,
            "type": "Feature",
            "geometry": {
                "type": "Point",
                "coordinates": [
                    20.1457783,
                    49.9348118
                ]
            },
            "properties": {
                "ref:rspo": 266988,
                "official_name": "Niepubliczne Przedszkole \"Bajkolandia\"",
                "name": "Niepubliczne Przedszkole \"Bajkolandia\"",
                "addr:postcode": "32-020",
                "addr:place": "S\u0142awkowice",
                "addr:housenumber": "276",
                "addr:city:simc": 315235,
                "phone": "+48 575904123",
                "email": "mariuszantosz@interia.pl",
                "website": "http:\/\/www.bajkolandia1.pl",
                "ref:regon": "369775620",
                "operator": "Mariusz Antosz",
                "operator:type": "private",
                "amenity": "kindergarten"
            }
        },
        {
            "id": 68100,
            "type": "Feature",
            "geometry": {
                "type": "Point",
                "coordinates": [
                    20.1569004,
                    49.9460303
                ]
            },
            "properties": {
                "isced:level": "1;2",
                "ref:rspo": 68100,
                "official_name": "Szko\u0142a Podstawowa im. Marii Konopnickiej w \u0141azanach",
                "name": "Szko\u0142a Podstawowa",
                "addr:postcode": "32-020",
                "addr:place": "\u0141azany",
                "addr:housenumber": "103a",
                "addr:city:simc": 315086,
                "phone": "+48 122506155",
                "email": "sp.lazany@oswiata.eu",
                "website": "http:\/\/www.splazany.biskupice.pl",
                "ref:regon": "000703730",
                "ref:vatin": "PL6831847156",
                "operator": "Gmina Biskupice",
                "operator:type": "government",
                "amenity": "school"
            }
        },
        {
            "id": 68473,
            "type": "Feature",
            "geometry": {
                "type": "Point",
                "coordinates": [
                    20.144763,
                    49.9589545
                ]
            },
            "properties": {
                "ref:rspo": 68473,
                "official_name": "Przedszkole Samorz\u0105dowe w Tr\u0105bkach",
                "name": "Przedszkole Samorz\u0105dowe w Tr\u0105bkach",
                "addr:postcode": "32-020",
                "addr:place": "Tr\u0105bki",
                "addr:housenumber": "312",
                "addr:city:simc": 315420,
                "phone": "+48 122506373",
                "email": "ps.trabki@oswiata.eu",
                "website": "http:\/\/www.przedszkolewtrabkach.eprzedszkola.pl",
                "ref:regon": "350529809",
                "ref:vatin": "PL6831847104",
                "operator": "Gmina Biskupice",
                "operator:type": "government",
                "amenity": "kindergarten"
            }
        },
        {
            "id": 131472,
            "type": "Feature",
            "geometry": {
                "type": "Point",
                "coordinates": [
                    20.144763,
                    49.958924499999995
                ]
            },
            "properties": {
                "ref:rspo": 131472,
                "official_name": "Niepubliczne Przedszkole Nibylandia",
                "name": "Niepubliczne Przedszkole Nibylandia",
                "addr:postcode": "32-020",
                "addr:place": "Tr\u0105bki",
                "addr:housenumber": "430",
                "addr:city:simc": 315420,
                "phone": "+48 697360999",
                "email": "biuro@przedszkole-nibylandia.edu.pl",
                "website": "http:\/\/www.przedszkole-nibylandia.edu.pl",
                "ref:regon": "365189374",
                "operator": "Barbara Mandryk",
                "operator:type": "private",
                "amenity": "kindergarten"
            }
        },
        {
            "id": 272011,
            "type": "Feature",
            "geometry": {
                "type": "Point",
                "coordinates": [
                    20.144763,
                    49.9588945
                ]
            },
            "properties": {
                "isced:level": "1;2",
                "ref:rspo": 272011,
                "official_name": "Szko\u0142a Podstawowa im. B\u0142. O. Narcyza Jana Turchana w Tr\u0105bkach",
                "name": "Szko\u0142a Podstawowa",
                "addr:postcode": "32-020",
                "addr:place": "Tr\u0105bki",
                "addr:housenumber": "312",
                "addr:city:simc": 315420,
                "phone": "+48 122505055",
                "email": "sptrabki@wp.pl",
                "ref:regon": "383915205",
                "ref:vatin": "PL6832106551",
                "operator": "Gmina Biskupice",
                "operator:type": "government",
                "amenity": "school"
            }
        },
        {
            "id": 69414,
            "type": "Feature",
            "geometry": {
                "type": "Point",
                "coordinates": [
                    20.1194859,
                    49.9639756
                ]
            },
            "properties": {
                "ref:rspo": 69414,
                "official_name": "Przedszkole Samorz\u0105dowe w Biskupicach",
                "name": "Przedszkole Samorz\u0105dowe w Biskupicach",
                "addr:postcode": "32-020",
                "addr:place": "Biskupice",
                "addr:housenumber": "322",
                "addr:city:simc": 314879,
                "phone": "+48 122507441",
                "email": "ps.biskupice@oswiata.eu",
                "website": "http:\/\/przedszkolewbiskupicach.pl",
                "ref:regon": "350529815",
                "ref:vatin": "PL6831847096",
                "operator": "Gmina Biskupice",
                "operator:type": "government",
                "amenity": "kindergarten"
            }
        },
        {
            "id": 69415,
            "type": "Feature",
            "geometry": {
                "type": "Point",
                "coordinates": [
                    20.1194859,
                    49.963945599999995
                ]
            },
            "properties": {
                "isced:level": "1;2",
                "ref:rspo": 69415,
                "official_name": "Szko\u0142a Podstawowa im. Kr\u00f3lowej Jadwigi w Biskupicach",
                "name": "Szko\u0142a Podstawowa",
                "addr:postcode": "32-020",
                "addr:place": "Biskupice",
                "addr:housenumber": "322",
                "addr:city:simc": 314879,
                "phone": "+48 122507670",
                "email": "sp.biskupice@oswiata.eu",
                "website": "http:\/\/www.spbiskupice.pl",
                "ref:regon": "001234757",
                "ref:vatin": "PL6831847073",
                "operator": "Gmina Biskupice",
                "operator:type": "government",
                "amenity": "school"
            }
        },
        {
            "id": 278253,
            "type": "Feature",
            "geometry": {
                "type": "Point",
                "coordinates": [
                    20.1327,
                    49.96821
                ]
            },
            "properties": {
                "ref:rspo": 278253,
                "official_name": "Niepubliczne Przedszkole \"Chatka Poli\"",
                "name": "Niepubliczne Przedszkole \"Chatka Poli\"",
                "addr:postcode": "32-020",
                "addr:place": "Biskupice",
                "addr:housenumber": "361",
                "addr:city:simc": 314879,
                "phone": "+48 531533575",
                "email": "fundacja.proelio@gmail.com",
                "website": "http:\/\/www.chatkapoli.pl",
                "ref:regon": "389859459",
                "operator": "Fundacja Rozwoju Przedsi\u0119biorczo\u015bci I Inicjatyw Spo\u0142ecznych Proelio",
                "operator:type": "ngo",
                "amenity": "kindergarten"
            }
        },
        {
            "id": 68308,
            "type": "Feature",
            "geometry": {
                "type": "Point",
                "coordinates": [
                    20.1037188,
                    49.9761872
                ]
            },
            "properties": {
                "isced:level": "1;2",
                "ref:rspo": 68308,
                "official_name": "Szko\u0142a Podstawowa im. Tadeusza Ko\u015bciuszki w Przebieczanach",
                "name": "Szko\u0142a Podstawowa",
                "addr:postcode": "32-020",
                "addr:place": "Tomaszkowice",
                "addr:housenumber": "3",
                "addr:city:simc": 315181,
                "phone": "+48 122781478",
                "email": "sp.przebieczany@oswiata.eu",
                "website": "http:\/\/www.spprzebieczany.pl",
                "ref:regon": "001234881",
                "ref:vatin": "PL6831847110",
                "operator": "Gmina Biskupice",
                "operator:type": "government",
                "amenity": "school"
            }
        },
        {
            "id": 132071,
            "type": "Feature",
            "geometry": {
                "type": "Point",
                "coordinates": [
                    20.1009292,
                    49.9762487
                ]
            },
            "properties": {
                "ref:rspo": 132071,
                "official_name": "Przedszkole 2 J\u0119zyki",
                "name": "Przedszkole 2 J\u0119zyki",
                "addr:postcode": "32-020",
                "addr:place": "Tomaszkowice",
                "addr:housenumber": "440",
                "addr:city:simc": 315181,
                "phone": "+48 602342602",
                "email": "biuro@2jezyki.pl",
                "website": "http:\/\/www.2jezyki.pl",
                "ref:regon": "365446032",
                "operator": "Agnieszka Obra\u0142-Stanak",
                "operator:type": "private",
                "amenity": "kindergarten"
            }
        },
        {
            "id": 277310,
            "type": "Feature",
            "geometry": {
                "type": "Point",
                "coordinates": [
                    20.09743,
                    49.97655
                ]
            },
            "properties": {
                "ref:rspo": 277310,
                "official_name": "Niepubliczne Przedszkole \"Bajkolandia\" Tomaszkowice",
                "name": "Niepubliczne Przedszkole \"Bajkolandia\" Tomaszkowice",
                "addr:postcode": "32-020",
                "addr:place": "Tomaszkowice",
                "addr:housenumber": "575",
                "addr:city:simc": 315181,
                "phone": "+48 503453839",
                "email": "pbajkolandia3@gmail.com",
                "ref:regon": "388585110",
                "operator": "Mariusz Antosz",
                "operator:type": "private",
                "amenity": "kindergarten"
            }
        },
        {
            "id": 84697,
            "type": "Feature",
            "geometry": {
                "type": "Point",
                "coordinates": [
                    20.1603639,
                    50.0134059
                ]
            },
            "properties": {
                "isced:level": "1;2",
                "ref:rspo": 84697,
                "official_name": "Szko\u0142a Podstawowa im. Wojska Polskiego w Bodzanowie",
                "name": "Szko\u0142a Podstawowa",
                "addr:postcode": "32-020",
                "addr:place": "Bodzan\u00f3w",
                "addr:housenumber": "464",
                "addr:city:simc": 314922,
                "phone": "+48 122507695",
                "email": "spbodzanow@gmail.com",
                "website": "http:\/\/www.spbodzanow.strefa.pl",
                "ref:regon": "001234875",
                "ref:vatin": "PL6831847127",
                "operator": "Gmina Biskupice",
                "operator:type": "government",
                "amenity": "school"
            }
        }
    ]
}