{
    "type": "FeatureCollection",
    "features": [
        {
            "id": 18687,
            "type": "Feature",
            "geometry": {
                "type": "Point",
                "coordinates": [
                    20.0058256,
                    49.896405
                ]
            },
            "properties": {
                "isced:level": "1;2",
                "ref:rspo": 18687,
                "official_name": "Szko\u0142a Podstawowa im. Kornela Makuszy\u0144skiego w Gorzkowie",
                "name": "Szko\u0142a Podstawowa",
                "addr:postcode": "32-020",
                "addr:place": "Gorzk\u00f3w",
                "addr:housenumber": "168",
                "addr:city:simc": 340517,
                "phone": "+48 122502120",
                "email": "sekretariat@spgorzkow.pl",
                "website": "http:\/\/www.spgorzkow.szkolnastrona.pl",
                "ref:regon": "001044169",
                "ref:vatin": "PL6831685920",
                "operator": "Gmina Wieliczka",
                "operator:type": "government",
                "amenity": "school"
            }
        },
        {
            "id": 18571,
            "type": "Feature",
            "geometry": {
                "type": "Point",
                "coordinates": [
                    20.0125408,
                    49.92459
                ]
            },
            "properties": {
                "isced:level": "1;2",
                "ref:rspo": 18571,
                "official_name": "Szko\u0142a Podstawowa w Byszycach",
                "name": "Szko\u0142a Podstawowa w Byszycach",
                "addr:postcode": "32-020",
                "addr:place": "Byszyce",
                "addr:housenumber": "1",
                "addr:city:simc": 340150,
                "phone": "+48 124511391",
                "email": "spbyszyce@interia.pl",
                "website": "http:\/\/www.spbyszyce.wilan.pl",
                "ref:regon": "001061200",
                "ref:vatin": "PL6831685825",
                "operator": "Gmina Wieliczka",
                "operator:type": "government",
                "amenity": "school"
            }
        },
        {
            "id": 40712,
            "type": "Feature",
            "geometry": {
                "type": "Point",
                "coordinates": [
                    20.0280889,
                    49.928221
                ]
            },
            "properties": {
                "ref:rspo": 40712,
                "official_name": "Prywatne Przedszkole w Gorzkowie",
                "name": "Prywatne Przedszkole w Gorzkowie",
                "addr:postcode": "32-020",
                "addr:place": "Gorzk\u00f3w",
                "addr:housenumber": "64",
                "addr:city:simc": 340517,
                "phone": "+48 603283733",
                "email": "dyrekcja@iiiplo.krakow.pl",
                "website": "http:\/\/www.przedszkole.wieliczka.pl",
                "ref:regon": "122686299",
                "ref:vatin": "PL6762040283",
                "operator": "Alicja Bednarska",
                "operator:type": "private",
                "amenity": "kindergarten"
            }
        },
        {
            "id": 19458,
            "type": "Feature",
            "geometry": {
                "type": "Point",
                "coordinates": [
                    20.0521743,
                    49.9329614
                ]
            },
            "properties": {
                "isced:level": "1;2",
                "ref:rspo": 19458,
                "official_name": "Szko\u0142a Podstawowa im. Marii Konopnickiej w Raciborsku",
                "name": "Szko\u0142a Podstawowa",
                "addr:postcode": "32-020",
                "addr:place": "Raciborsko",
                "addr:housenumber": "71",
                "addr:city:simc": 341280,
                "phone": "+48 124513760",
                "email": "szkolaraciborsko@op.pl",
                "website": "http:\/\/www.spraciborsko.szkolnastrona.pl",
                "ref:regon": "001044494",
                "ref:vatin": "PL6831559084",
                "operator": "Gmina Wieliczka",
                "operator:type": "government",
                "amenity": "school"
            }
        },
        {
            "id": 18818,
            "type": "Feature",
            "geometry": {
                "type": "Point",
                "coordinates": [
                    20.1095201,
                    49.9347703
                ]
            },
            "properties": {
                "isced:level": "1;2",
                "ref:rspo": 18818,
                "official_name": "Szko\u0142a Podstawowa im. S. Emilii Podoskiej w Grajowie",
                "name": "Szko\u0142a Podstawowa",
                "addr:postcode": "32-020",
                "addr:place": "Graj\u00f3w",
                "addr:housenumber": "177",
                "addr:city:simc": 340658,
                "phone": "+48 122783206",
                "email": "spgrajow.sekretariat@gmail.com",
                "website": "http:\/\/www.spgrajow.eu",
                "ref:regon": "001044181",
                "ref:vatin": "PL6831558386",
                "operator": "Gmina Wieliczka",
                "operator:type": "government",
                "amenity": "school"
            }
        },
        {
            "id": 272258,
            "type": "Feature",
            "geometry": {
                "type": "Point",
                "coordinates": [
                    20.1159769,
                    49.942465
                ]
            },
            "properties": {
                "isced:level": "1;2",
                "ref:rspo": 272258,
                "official_name": "Szko\u0142a Podstawowa w Dobranowicach",
                "name": "Szko\u0142a Podstawowa w Dobranowicach",
                "addr:postcode": "32-020",
                "addr:place": "Dobranowice",
                "addr:housenumber": "121",
                "addr:city:simc": 340345,
                "phone": "+48 122782147",
                "email": "dyrektor@spdobranowice.wieliczka.eu",
                "website": "http:\/\/www.spdobranowice.wieliczka.eu",
                "ref:regon": "384068279",
                "ref:vatin": "PL6832106597",
                "operator": "Gmina Wieliczka",
                "operator:type": "government",
                "amenity": "school"
            }
        },
        {
            "id": 19376,
            "type": "Feature",
            "geometry": {
                "type": "Point",
                "coordinates": [
                    20.0364198,
                    49.9485767
                ]
            },
            "properties": {
                "isced:level": "1;2",
                "ref:rspo": 19376,
                "official_name": "Szko\u0142a Podstawowa im. Obro\u0144c\u00f3w Westerplatte w Ko\u017amicach Wielkich",
                "name": "Szko\u0142a Podstawowa",
                "addr:postcode": "32-020",
                "addr:place": "Ko\u017amice Wielkie",
                "addr:housenumber": "1",
                "addr:city:simc": 340948,
                "phone": "+48 122501475",
                "email": "spkozmice@op.pl",
                "website": "http:\/\/www.spkozmice.pl",
                "ref:regon": "001044175",
                "ref:vatin": "PL6831685831",
                "operator": "Gmina Wieliczka",
                "operator:type": "government",
                "amenity": "school"
            }
        },
        {
            "id": 18376,
            "type": "Feature",
            "geometry": {
                "type": "Point",
                "coordinates": [
                    20.0358735,
                    49.9496615
                ]
            },
            "properties": {
                "ref:rspo": 18376,
                "official_name": "Przedszkole Samorz\u0105dowe w Ko\u017amicach Wielkich",
                "name": "Przedszkole Samorz\u0105dowe w Ko\u017amicach Wielkich",
                "addr:postcode": "32-020",
                "addr:place": "Ko\u017amice Wielkie",
                "addr:housenumber": "427",
                "addr:city:simc": 340948,
                "phone": "+48 122501507",
                "email": "ps.kozmice.wielkie@interia.pl",
                "website": "http:\/\/przedszkole.kozmice.org",
                "ref:regon": "351606334",
                "ref:vatin": "PL6831755655",
                "operator": "Gmina Wieliczka",
                "operator:type": "government",
                "amenity": "kindergarten"
            }
        },
        {
            "id": 275677,
            "type": "Feature",
            "geometry": {
                "type": "Point",
                "coordinates": [
                    20.01415,
                    49.95379
                ]
            },
            "properties": {
                "ref:rspo": 275677,
                "official_name": "Punkt Przedszkolny w Janowicach",
                "name": "Punkt Przedszkolny w Janowicach",
                "addr:postcode": "32-020",
                "addr:place": "Janowice",
                "addr:housenumber": "402",
                "addr:city:simc": 340782,
                "phone": "+48 122501399",
                "email": "janowice01@op.pl",
                "ref:regon": "386931624",
                "operator": "Gmina Wieliczka",
                "operator:type": "government",
                "amenity": "kindergarten"
            }
        },
        {
            "id": 18842,
            "type": "Feature",
            "geometry": {
                "type": "Point",
                "coordinates": [
                    20.0138501,
                    49.9540518
                ]
            },
            "properties": {
                "isced:level": "1;2",
                "ref:rspo": 18842,
                "official_name": "Szko\u0142a Podstawowa im. Zofii Stryszowskiej w Janowicach",
                "name": "Szko\u0142a Podstawowa",
                "addr:postcode": "32-020",
                "addr:place": "Janowice",
                "addr:housenumber": "1",
                "addr:city:simc": 340782,
                "phone": "+48 122501399",
                "email": "janowice01@op.pl",
                "website": "http:\/\/www.szkolajanowice.szkolnastrona.pl",
                "ref:regon": "001234929",
                "ref:vatin": "PL6831685848",
                "operator": "Gmina Wieliczka",
                "operator:type": "government",
                "amenity": "school"
            }
        },
        {
            "id": 74723,
            "type": "Feature",
            "geometry": {
                "type": "Point",
                "coordinates": [
                    20.0548714,
                    49.9547798
                ]
            },
            "properties": {
                "isced:level": "1;2",
                "ref:rspo": 74723,
                "official_name": "Filia w Pawlikowicach",
                "name": "Filia w Pawlikowicach",
                "addr:postcode": "32-020",
                "addr:place": "Pawlikowice",
                "addr:housenumber": "61",
                "addr:city:simc": 341155,
                "phone": "+48 126517908",
                "email": "szkola.mietniow@wp.pl",
                "ref:regon": "104420600",
                "ref:vatin": "PL6831492776",
                "operator": "Gmina Wieliczka",
                "operator:type": "government",
                "amenity": "school",
                "note": "Parent RSPO: 19404"
            }
        },
        {
            "id": 19443,
            "type": "Feature",
            "geometry": {
                "type": "Point",
                "coordinates": [
                    19.9948408,
                    49.9569794
                ]
            },
            "properties": {
                "isced:level": "1;2",
                "ref:rspo": 19443,
                "official_name": "Szko\u0142a Podstawowa im. \u015aw.kingi w Podstolicach",
                "name": "Szko\u0142a Podstawowa",
                "addr:postcode": "32-020",
                "addr:place": "Podstolice",
                "addr:housenumber": "204",
                "addr:city:simc": 341244,
                "phone": "+48 124518159",
                "email": "sppodstolice@op.pl",
                "website": "http:\/\/www.sppodstolice.szkolnastrona.pl",
                "ref:regon": "001098283",
                "ref:vatin": "PL6831587979",
                "operator": "Gmina Wieliczka",
                "operator:type": "government",
                "amenity": "school"
            }
        },
        {
            "id": 19404,
            "type": "Feature",
            "geometry": {
                "type": "Point",
                "coordinates": [
                    20.075105,
                    49.9612119
                ]
            },
            "properties": {
                "isced:level": "1;2",
                "ref:rspo": 19404,
                "official_name": "Szko\u0142a Podstawowa im. Anny Iskry w Mietniowie",
                "name": "Szko\u0142a Podstawowa",
                "addr:postcode": "32-020",
                "addr:place": "Mietni\u00f3w",
                "addr:housenumber": "60",
                "addr:city:simc": 341110,
                "phone": "+48 122783094",
                "email": "szkola.mietniow@wp.pl",
                "website": "https:\/\/spmietniow.edupage.org",
                "ref:regon": "001044206",
                "ref:vatin": "PL6831492776",
                "operator": "Gmina Wieliczka",
                "operator:type": "government",
                "amenity": "school",
                "note": "Children RSPO: 74723"
            }
        },
        {
            "id": 18377,
            "type": "Feature",
            "geometry": {
                "type": "Point",
                "coordinates": [
                    20.0752187,
                    49.9621303
                ]
            },
            "properties": {
                "ref:rspo": 18377,
                "official_name": "Przedszkole Samorz\u0105dowe w Mietniowie",
                "name": "Przedszkole Samorz\u0105dowe w Mietniowie",
                "addr:postcode": "32-020",
                "addr:place": "Mietni\u00f3w",
                "addr:housenumber": "354",
                "addr:city:simc": 341110,
                "phone": "+48 122781600",
                "email": "ps_mietniow@poczta.onet.pl",
                "website": "http:\/\/psmietniow.szkolnastrona.pl",
                "ref:regon": "351606742",
                "ref:vatin": "PL6831755649",
                "operator": "Gmina Wieliczka",
                "operator:type": "government",
                "amenity": "kindergarten"
            }
        },
        {
            "id": 26636,
            "type": "Feature",
            "geometry": {
                "type": "Point",
                "coordinates": [
                    19.9729284,
                    49.969823
                ]
            },
            "properties": {
                "ref:rspo": 26636,
                "official_name": "Przedszkole \"Bajkolandia\" w Golkowicach",
                "name": "Przedszkole \"Bajkolandia\" w Golkowicach",
                "addr:postcode": "30-698",
                "addr:place": "Golkowice",
                "addr:housenumber": "1",
                "addr:city:simc": 340405,
                "phone": "+48 124172139",
                "email": "biuro@bajkolandia.pl",
                "website": "http:\/\/www.bajkolandia.edu.pl",
                "ref:regon": "122680658",
                "ref:vatin": "PL6781034651",
                "operator": "Leszek S\u0119pek",
                "operator:type": "private",
                "amenity": "kindergarten"
            }
        },
        {
            "id": 19519,
            "type": "Feature",
            "geometry": {
                "type": "Point",
                "coordinates": [
                    20.01298,
                    49.96993
                ]
            },
            "properties": {
                "isced:level": "1;2",
                "ref:rspo": 19519,
                "official_name": "Szko\u0142a Podstawowa im. Kapitan Ak Jadwigi Beaupre w Sygneczowie",
                "name": "Szko\u0142a Podstawowa",
                "addr:postcode": "32-020",
                "addr:place": "Sygnecz\u00f3w",
                "addr:housenumber": "1",
                "addr:city:simc": 341563,
                "phone": "+48 124518134",
                "email": "spsygneczow@wp.eu",
                "website": "http:\/\/www.spsygneczow.rwc.pl",
                "ref:regon": "000880018",
                "ref:vatin": "PL6831489509",
                "operator": "Gmina Wieliczka",
                "operator:type": "government",
                "amenity": "school"
            }
        },
        {
            "id": 19483,
            "type": "Feature",
            "geometry": {
                "type": "Point",
                "coordinates": [
                    20.04034,
                    49.9718726
                ]
            },
            "properties": {
                "isced:level": "1;2",
                "ref:rspo": 19483,
                "official_name": "Szko\u0142a Podstawowa im. Kr\u00f3lowej Jadwigi w Sierczy",
                "name": "Szko\u0142a Podstawowa",
                "addr:postcode": "32-020",
                "addr:place": "Siercza",
                "addr:housenumber": "428",
                "addr:city:simc": 341416,
                "phone": "+48 126515497",
                "email": "sekretariat@sp-siercza.pl",
                "website": "http:\/\/www.sp-siercza.pl",
                "ref:regon": "350729000",
                "ref:vatin": "PL6831761928",
                "operator": "Gmina Wieliczka",
                "operator:type": "government",
                "amenity": "school"
            }
        },
        {
            "id": 18665,
            "type": "Feature",
            "geometry": {
                "type": "Point",
                "coordinates": [
                    19.9774651,
                    49.9739662
                ]
            },
            "properties": {
                "isced:level": "1;2",
                "ref:rspo": 18665,
                "official_name": "Szko\u0142a Podstawowa im. Obro\u0144c\u00f3w Radiostacji Wis\u0142a Ak w Golkowicach",
                "name": "Szko\u0142a Podstawowa",
                "addr:postcode": "30-698",
                "addr:place": "Golkowice",
                "addr:housenumber": "454",
                "addr:city:simc": 340405,
                "phone": "+48 126509000",
                "email": "spgolkowice@op.pl",
                "website": "http:\/\/www.spgolkowice.szkolnastrona.pl",
                "ref:regon": "001044198",
                "ref:vatin": "PL6831718341",
                "operator": "Gmina Wieliczka",
                "operator:type": "government",
                "amenity": "school"
            }
        },
        {
            "id": 26257,
            "type": "Feature",
            "geometry": {
                "type": "Point",
                "coordinates": [
                    20.0379417,
                    49.9742423
                ]
            },
            "properties": {
                "ref:rspo": 26257,
                "official_name": "Przedszkole im. \u015aw. Anieli Merici Si\u00f3str Urszulanek Unii Rzymskiej w Sierczy",
                "name": "Przedszkole",
                "addr:postcode": "32-020",
                "addr:place": "Siercza",
                "addr:housenumber": "1",
                "addr:city:simc": 341416,
                "phone": "+48 126515188",
                "email": "przedszkolesiercza@interia.pl",
                "website": "http:\/\/www.przedszkolesiercza.eprzedszkola.pl",
                "ref:regon": "122680552",
                "ref:vatin": "PL6831481519",
                "operator": "Zg.ss.urszulanek Unii Rzymskiej, Dom Zakonny",
                "operator:type": "religious",
                "amenity": "kindergarten"
            }
        },
        {
            "id": 272472,
            "type": "Feature",
            "geometry": {
                "type": "Point",
                "coordinates": [
                    20.08205,
                    49.97462
                ]
            },
            "properties": {
                "ref:rspo": 272472,
                "official_name": "Punkt Przedszkolny w Lednicy G\u00f3rnej",
                "name": "Punkt Przedszkolny w Lednicy G\u00f3rnej",
                "addr:postcode": "32-020",
                "addr:place": "Lednica G\u00f3rna",
                "addr:housenumber": "451",
                "addr:city:simc": 341037,
                "phone": "+48 122781366",
                "email": "sekretariat@sp3wieliczka.pl",
                "website": "http:\/\/www.sp3wieliczka.pl\/",
                "ref:regon": "384187363",
                "operator": "Gmina Wieliczka",
                "operator:type": "government",
                "amenity": "kindergarten"
            }
        },
        {
            "id": 40828,
            "type": "Feature",
            "geometry": {
                "type": "Point",
                "coordinates": [
                    20.06896,
                    49.97534
                ]
            },
            "properties": {
                "ref:rspo": 40828,
                "official_name": "Klub Zabawy Tw\u00f3rczej \"Tygrysek Ed\" w Wieliczce",
                "name": "Klub Zabawy Tw\u00f3rczej \"Tygrysek Ed\" w Wieliczce",
                "addr:postcode": "32-020",
                "addr:city": "Wieliczka",
                "addr:street": "Mietniowska",
                "addr:housenumber": "3E",
                "addr:city:simc": 952232,
                "addr:street:sym_ul": 12843,
                "phone": "+48 123576633",
                "email": "e.dudek@wp.pl",
                "website": "http:\/\/www.tygryseked.pl",
                "ref:regon": "122686419",
                "ref:vatin": "PL9441417952",
                "operator": "El\u017cbieta Dudek-Ruszil",
                "operator:type": "private",
                "amenity": "kindergarten"
            }
        },
        {
            "id": 266001,
            "type": "Feature",
            "geometry": {
                "type": "Point",
                "coordinates": [
                    20.02015,
                    49.97749
                ]
            },
            "properties": {
                "ref:rspo": 266001,
                "official_name": "Punkt Przedszkolny \"Brzoskwinka\" w Wieliczce",
                "name": "Punkt Przedszkolny \"Brzoskwinka\" w Wieliczce",
                "addr:postcode": "32-020",
                "addr:place": "Grab\u00f3wki",
                "addr:housenumber": "306",
                "addr:city:simc": 340581,
                "phone": "+48 572838857",
                "email": "biuro@punkt-brzoskwinka.pl",
                "website": "http:\/\/www.punkt-brzoskwinka.pl",
                "ref:regon": "369134298",
                "operator": "Henryka P\u0142ucienniczak",
                "operator:type": "private",
                "amenity": "kindergarten"
            }
        },
        {
            "id": 278208,
            "type": "Feature",
            "geometry": {
                "type": "Point",
                "coordinates": [
                    20.06431,
                    49.97995
                ]
            },
            "properties": {
                "ref:rspo": 278208,
                "official_name": "Niepubliczne Przedszkole Zielona Wie\u017ca Wieliczka",
                "name": "Niepubliczne Przedszkole Zielona Wie\u017ca Wieliczka",
                "addr:postcode": "32-020",
                "addr:city": "Wieliczka",
                "addr:street": "Fryderyka Chopina",
                "addr:housenumber": "1B",
                "addr:city:simc": 952232,
                "addr:street:sym_ul": 2849,
                "phone": "+48 531298206",
                "email": "wieliczka@zielonawieza.edu.pl",
                "website": "http:\/\/www.zielonawieza.pl",
                "ref:regon": "389852204",
                "operator": "Agnieszka Kwiecie\u0144",
                "operator:type": "private",
                "amenity": "kindergarten"
            }
        },
        {
            "id": 267736,
            "type": "Feature",
            "geometry": {
                "type": "Point",
                "coordinates": [
                    20.04735,
                    49.98057
                ]
            },
            "properties": {
                "ref:rspo": 267736,
                "official_name": "Niepubliczne Przedszkole Muzyczne \"Bajkowy Dom\" w Wieliczce",
                "name": "Niepubliczne Przedszkole Muzyczne \"Bajkowy Dom\" w Wieliczce",
                "addr:postcode": "32-020",
                "addr:city": "Wieliczka",
                "addr:street": "Jasna",
                "addr:housenumber": "8A",
                "addr:city:simc": 952232,
                "addr:street:sym_ul": 7335,
                "phone": "+48 513432904",
                "ref:regon": "380569932",
                "operator": "Ma\u0142gorzata Banach",
                "operator:type": "private",
                "amenity": "kindergarten"
            }
        },
        {
            "id": 18371,
            "type": "Feature",
            "geometry": {
                "type": "Point",
                "coordinates": [
                    20.07901,
                    49.98066
                ]
            },
            "properties": {
                "ref:rspo": 18371,
                "official_name": "Przedszkole Samorz\u0105dowe Nr 1 w Wieliczce",
                "name": "Przedszkole Samorz\u0105dowe Nr 1 w Wieliczce",
                "addr:postcode": "32-020",
                "addr:city": "Wieliczka",
                "addr:street": "Wincentego Pola",
                "addr:housenumber": "20",
                "addr:city:simc": 952232,
                "addr:street:sym_ul": 16961,
                "phone": "+48 122781249",
                "email": "przedszkolenr1@o2.pl",
                "website": "http:\/\/ps1.wieliczkaprzedszkole.pl",
                "ref:regon": "351606357",
                "ref:vatin": "PL6831760627",
                "operator": "Gmina Wieliczka",
                "operator:type": "government",
                "amenity": "kindergarten"
            }
        },
        {
            "id": 18375,
            "type": "Feature",
            "geometry": {
                "type": "Point",
                "coordinates": [
                    20.07901,
                    49.98063
                ]
            },
            "properties": {
                "ref:rspo": 18375,
                "official_name": "Przedszkole Samorz\u0105dowe Nr 5 im. Brata Alojzego Kosiby w Wieliczce",
                "name": "Przedszkole Samorz\u0105dowe Nr 5",
                "addr:postcode": "32-020",
                "addr:city": "Wieliczka",
                "addr:street": "Wincentego Pola",
                "addr:housenumber": "23",
                "addr:city:simc": 952232,
                "addr:street:sym_ul": 16961,
                "phone": "+48 122949168",
                "email": "dyrektor@przedszkole5.wieliczka.eu",
                "website": "http:\/\/www.przedszkole5.wieliczka.eu",
                "ref:regon": "120983136",
                "ref:vatin": "PL6832039435",
                "operator": "Gmina Wieliczka",
                "operator:type": "government",
                "amenity": "kindergarten"
            }
        },
        {
            "id": 50314,
            "type": "Feature",
            "geometry": {
                "type": "Point",
                "coordinates": [
                    20.0997999,
                    49.9812
                ]
            },
            "properties": {
                "ref:rspo": 50314,
                "official_name": "Przedszkole Niepubliczne \"Tuptusiowy Raj\" w Su\u0142kowie",
                "name": "Przedszkole Niepubliczne \"Tuptusiowy Raj\" w Su\u0142kowie",
                "addr:postcode": "32-020",
                "addr:place": "Su\u0142k\u00f3w",
                "addr:housenumber": "397",
                "addr:city:simc": 341505,
                "phone": "+48 698626059",
                "email": "joanna.sliwa@vp.pl",
                "website": "http:\/\/www.tuptusiowyraj.pl",
                "ref:regon": "122694169",
                "ref:vatin": "PL6831718683",
                "operator": "Joanna \u015aliwa",
                "operator:type": "private",
                "amenity": "kindergarten"
            }
        },
        {
            "id": 87397,
            "type": "Feature",
            "geometry": {
                "type": "Point",
                "coordinates": [
                    20.0628,
                    49.98128
                ]
            },
            "properties": {
                "ref:rspo": 87397,
                "official_name": "Niepubliczne Centrum Kszta\u0142cenia Zawodowego Przy Powiatowym Cechu Rzemie\u015blnik\u00f3w I Przedsi\u0119biorc\u00f3w w Wieliczce",
                "name": "Niepubliczne Centrum Kszta\u0142cenia Zawodowego Przy Powiatowym Cechu Rzemie\u015blnik\u00f3w I Przedsi\u0119biorc\u00f3w w Wieliczce",
                "addr:postcode": "32-020",
                "addr:city": "Wieliczka",
                "addr:street": "Boles\u0142awa Limanowskiego",
                "addr:housenumber": "11",
                "addr:city:simc": 952232,
                "addr:street:sym_ul": 11074,
                "phone": "+48 122784241",
                "email": "cech.wieliczka@wp.pl",
                "website": "http:\/\/www.cech-wieliczka.pl",
                "ref:regon": "122712714",
                "operator": "Powiatowy Cech Rzemie\u015blnik\u00f3w I Przedsi\u0119biorc\u00f3w W Wieliczce",
                "operator:type": "ngo",
                "fixme": "w zale\u017cno\u015bci od przedmiotu dzia\u0142alno\u015bci (np. amenity=training + training=*, amenity=dancing_school, amenity=language_school, amenity=music_school) albo amenity=school, amenity=college, albo landuse=education w zale\u017cno\u015bci od tego, jakie plac\u00f3wki wchodz\u0105 w sk\u0142ad zespo\u0142u. Sprawd\u017a, kiedy stosowa\u0107 amenity=* a kiedy landuse=education."
            }
        },
        {
            "id": 131369,
            "type": "Feature",
            "geometry": {
                "type": "Point",
                "coordinates": [
                    20.04105,
                    49.98137
                ]
            },
            "properties": {
                "isced:level": "1;2",
                "ref:rspo": 131369,
                "official_name": "Niepubliczna Szko\u0142a Podstawowa Montessori w Wieliczce",
                "name": "Niepubliczna Szko\u0142a Podstawowa Montessori w Wieliczce",
                "addr:postcode": "32-020",
                "addr:city": "Wieliczka",
                "addr:street": "Jasna",
                "addr:housenumber": "24",
                "addr:city:simc": 952232,
                "addr:street:sym_ul": 7335,
                "email": "info@montessoriszkola.pl",
                "website": "http:\/\/www.montessoriszkola.pl",
                "ref:regon": "365134172",
                "operator": "Lambor Sp\u00f3\u0142ka Z Ograniczon\u0105 Odpowiedzialno\u015bci\u0105",
                "operator:type": "private",
                "amenity": "school"
            }
        },
        {
            "id": 126644,
            "type": "Feature",
            "geometry": {
                "type": "Point",
                "coordinates": [
                    20.06237,
                    49.98157
                ]
            },
            "properties": {
                "ref:rspo": 126644,
                "official_name": "Niepubliczne Przedszkole Terapeutyczne \"Rozwijanka\" Z Oddzia\u0142ami Specjalnymi I Integracyjnymi",
                "name": "Niepubliczne Przedszkole Terapeutyczne \"Rozwijanka\" Z Oddzia\u0142ami Specjalnymi I Integracyjnymi",
                "addr:postcode": "32-020",
                "addr:city": "Wieliczka",
                "addr:street": "Bednarka",
                "addr:housenumber": "6",
                "addr:city:simc": 952232,
                "addr:street:sym_ul": 33445,
                "phone": "+48 501988771",
                "email": "e.owczarek@rozwijanka.pl",
                "website": "http:\/\/rozwijanka.pl",
                "ref:regon": "360614022",
                "operator": "Emilia Owczarek",
                "operator:type": "private",
                "amenity": "kindergarten"
            }
        },
        {
            "id": 129831,
            "type": "Feature",
            "geometry": {
                "type": "Point",
                "coordinates": [
                    20.06237,
                    49.981539999999995
                ]
            },
            "properties": {
                "ref:rspo": 129831,
                "official_name": "Niepubliczna Specjalistyczna Poradnia Psychologiczno - Pedagogiczna \"Rozwijanka\"",
                "name": "Niepubliczna Specjalistyczna Poradnia Psychologiczno - Pedagogiczna \"Rozwijanka\"",
                "addr:postcode": "32-020",
                "addr:city": "Wieliczka",
                "addr:street": "Bednarka",
                "addr:housenumber": "6",
                "addr:city:simc": 952232,
                "addr:street:sym_ul": 33445,
                "phone": "+48 605247203",
                "email": "zapisy@rozwijanka.pl",
                "ref:regon": "362951500",
                "operator": "Magdalena Karwala",
                "operator:type": "private",
                "fixme": "w zale\u017cno\u015bci od przedmiotu dzia\u0142alno\u015bci (np. healthcare=counselling + counselling_type=education albo healthcare=psychotherapist)"
            }
        },
        {
            "id": 18373,
            "type": "Feature",
            "geometry": {
                "type": "Point",
                "coordinates": [
                    20.07018,
                    49.98185
                ]
            },
            "properties": {
                "ref:rspo": 18373,
                "official_name": "Przedszkole Samorz\u0105dowe Nr 2 w Wieliczce",
                "name": "Przedszkole Samorz\u0105dowe Nr 2 w Wieliczce",
                "addr:postcode": "32-020",
                "addr:city": "Wieliczka",
                "addr:street": "Adama Asnyka",
                "addr:housenumber": "40",
                "addr:city:simc": 952232,
                "addr:street:sym_ul": 470,
                "phone": "+48 122783677",
                "email": "przedszkole@ps2.wieliczka.eu",
                "website": "http:\/\/www.ps2.wieliczka.eu",
                "ref:regon": "351607240",
                "ref:vatin": "PL6831762773",
                "operator": "Gmina Wieliczka",
                "operator:type": "government",
                "amenity": "kindergarten"
            }
        },
        {
            "id": 40524,
            "type": "Feature",
            "geometry": {
                "type": "Point",
                "coordinates": [
                    20.05626,
                    49.98186
                ]
            },
            "properties": {
                "isced:level": "1;2",
                "ref:rspo": 40524,
                "official_name": "Niepubliczna Szko\u0142a Podstawowa Wieliczka Montessori School - Wielicka Szko\u0142a Montessori",
                "name": "Niepubliczna Szko\u0142a Podstawowa Wieliczka Montessori School - Wielicka Szko\u0142a Montessori",
                "addr:postcode": "32-020",
                "addr:city": "Wieliczka",
                "addr:street": "Jana Miko\u0142aja Dani\u0142owicza",
                "addr:housenumber": "2",
                "addr:city:simc": 952232,
                "addr:street:sym_ul": 54468,
                "phone": "+48 504737989",
                "email": "sekretariat@wieliczkamontessori.pl",
                "website": "http:\/\/www.wieliczkamontessori.pl",
                "ref:regon": "122685609",
                "ref:vatin": "PL6812054265",
                "operator": "Ma\u0142opolski O\u015brodek Montessori Sp\u00f3\u0142ka Z Ograniczon\u0105 Odpowiedzialno\u015bci\u0105",
                "operator:type": "private",
                "amenity": "school"
            }
        },
        {
            "id": 128759,
            "type": "Feature",
            "geometry": {
                "type": "Point",
                "coordinates": [
                    20.05972,
                    49.9818799
                ]
            },
            "properties": {
                "isced:level": "1;2",
                "ref:rspo": 128759,
                "official_name": "Prywatna Szko\u0142a Podstawowa \"Macierzanka\" w Wieliczce",
                "name": "Prywatna Szko\u0142a Podstawowa \"Macierzanka\" w Wieliczce",
                "addr:postcode": "32-020",
                "addr:city": "Wieliczka",
                "addr:street": "Miko\u0142aja Kopernika",
                "addr:housenumber": "2",
                "addr:city:simc": 952232,
                "addr:street:sym_ul": 9282,
                "phone": "+48 697772999",
                "email": "szkola@macierzanka.edu.pl",
                "website": "http:\/\/www.macierzanka.edu.pl",
                "ref:regon": "362384388",
                "operator": "Jolanta Sosi\u0144ska",
                "operator:type": "private",
                "amenity": "school"
            }
        },
        {
            "id": 26681,
            "type": "Feature",
            "geometry": {
                "type": "Point",
                "coordinates": [
                    20.06333,
                    49.98217
                ]
            },
            "properties": {
                "ref:rspo": 26681,
                "official_name": "Prywatne Przedszkole \"Tuptusie\" w Wieliczce",
                "name": "Prywatne Przedszkole \"Tuptusie\" w Wieliczce",
                "addr:postcode": "32-020",
                "addr:city": "Wieliczka",
                "addr:street": "Boles\u0142awa Limanowskiego",
                "addr:housenumber": "26",
                "addr:city:simc": 952232,
                "addr:street:sym_ul": 11074,
                "phone": "+48 122782080",
                "email": "przedszkole@tuptusie.edu.pl",
                "website": "http:\/\/www.tuptusie.edu.pl",
                "ref:regon": "122679661",
                "ref:vatin": "PL6761155096",
                "operator": "Marta Golik",
                "operator:type": "private",
                "amenity": "kindergarten"
            }
        },
        {
            "id": 267982,
            "type": "Feature",
            "geometry": {
                "type": "Point",
                "coordinates": [
                    20.05956,
                    49.9824
                ]
            },
            "properties": {
                "ref:rspo": 267982,
                "official_name": "Zesp\u00f3\u0142 Szk\u00f3\u0142 Muzycznych w Wieliczce",
                "name": "Zesp\u00f3\u0142 Szk\u00f3\u0142 Muzycznych w Wieliczce",
                "addr:postcode": "32-020",
                "addr:city": "Wieliczka",
                "addr:street": "Rynek G\u00f3rny",
                "addr:housenumber": "6",
                "addr:city:simc": 952232,
                "addr:street:sym_ul": 54533,
                "phone": "+48 122783113",
                "email": "sekretariat@smuzwieliczka.edu.pl",
                "website": "http:\/\/www.smuzwieliczka.edu.pl",
                "ref:regon": "380809282",
                "ref:vatin": "PL6832101565",
                "operator": "Gmina Wieliczka",
                "operator:type": "government",
                "landuse": "education",
                "fixme": "amenity=school, amenity=college albo landuse=education w zale\u017cno\u015bci od tego, jakie plac\u00f3wki wchodz\u0105 w sk\u0142ad zespo\u0142u. Sprawd\u017a, kiedy stosowa\u0107 amenity=* a kiedy landuse=education.",
                "note": "Children RSPO: 129070;267981"
            }
        },
        {
            "id": 129070,
            "type": "Feature",
            "geometry": {
                "type": "Point",
                "coordinates": [
                    20.05956,
                    49.982369999999996
                ]
            },
            "properties": {
                "ref:rspo": 129070,
                "official_name": "Szko\u0142a Muzyczna I Stopnia w Wieliczce",
                "name": "Szko\u0142a Muzyczna I Stopnia w Wieliczce",
                "addr:postcode": "32-020",
                "addr:city": "Wieliczka",
                "addr:street": "Rynek G\u00f3rny",
                "addr:housenumber": "6",
                "addr:city:simc": 952232,
                "addr:street:sym_ul": 54533,
                "phone": "+48 122783113",
                "email": "sekretariat@smuzwieliczka.edu.pl",
                "website": "http:\/\/www.smuzwieliczka.edu.pl",
                "ref:regon": "362464555",
                "operator": "Gmina Wieliczka",
                "operator:type": "government",
                "amenity": "music_school",
                "note": "Parent RSPO: 267982"
            }
        },
        {
            "id": 267981,
            "type": "Feature",
            "geometry": {
                "type": "Point",
                "coordinates": [
                    20.05956,
                    49.98234
                ]
            },
            "properties": {
                "ref:rspo": 267981,
                "official_name": "Szko\u0142a Muzyczna II Stopnia w Wieliczce",
                "name": "Szko\u0142a Muzyczna II Stopnia w Wieliczce",
                "addr:postcode": "32-020",
                "addr:city": "Wieliczka",
                "addr:street": "Rynek G\u00f3rny",
                "addr:housenumber": "6",
                "addr:city:simc": 952232,
                "addr:street:sym_ul": 54533,
                "phone": "+48 122783113",
                "email": "sekretariat@smuzwieliczka.edu.pl",
                "website": "http:\/\/www.smuzwieliczka.edu.pl",
                "ref:regon": "380809307",
                "operator": "Gmina Wieliczka",
                "operator:type": "government",
                "amenity": "music_school",
                "note": "Parent RSPO: 267982"
            }
        },
        {
            "id": 40844,
            "type": "Feature",
            "geometry": {
                "type": "Point",
                "coordinates": [
                    20.08257,
                    49.98328
                ]
            },
            "properties": {
                "ref:rspo": 40844,
                "official_name": "Niepubliczne Przedszkole Montessori - Wieliczka",
                "name": "Niepubliczne Przedszkole Montessori - Wieliczka",
                "addr:postcode": "32-020",
                "addr:city": "Wieliczka",
                "addr:street": "Powstania Styczniowego",
                "addr:housenumber": "2",
                "addr:city:simc": 952232,
                "addr:street:sym_ul": 17340,
                "phone": "+48 531713551",
                "email": "przedszkole.bambini.wieliczka@gmail.com",
                "website": "http:\/\/www.przedszkolewieliczka.pl",
                "ref:regon": "122686520",
                "ref:vatin": "PL6811508735",
                "operator": "Agnieszka Sargafu\u0142a",
                "operator:type": "private",
                "amenity": "kindergarten"
            }
        },
        {
            "id": 278655,
            "type": "Feature",
            "geometry": {
                "type": "Point",
                "coordinates": [
                    20.08257,
                    49.98325
                ]
            },
            "properties": {
                "ref:rspo": 278655,
                "official_name": "Niepubliczne Przedszkole Sportowo-J\u0119zykowe Fair Play w Wieliczce",
                "name": "Niepubliczne Przedszkole Sportowo-J\u0119zykowe Fair Play w Wieliczce",
                "addr:postcode": "32-020",
                "addr:city": "Wieliczka",
                "addr:street": "Powstania Styczniowego",
                "addr:housenumber": "2",
                "addr:city:simc": 952232,
                "addr:street:sym_ul": 17340,
                "phone": "+48 510100237",
                "email": "biuro@fairplay-wieliczka.pl",
                "website": "http:\/\/przedszkolefairplay.pl",
                "ref:regon": "520015772",
                "operator": "Sebastian Manijak",
                "operator:type": "private",
                "amenity": "kindergarten"
            }
        },
        {
            "id": 273220,
            "type": "Feature",
            "geometry": {
                "type": "Point",
                "coordinates": [
                    20.03481,
                    49.9843
                ]
            },
            "properties": {
                "ref:rspo": 273220,
                "official_name": "Niepubliczne Przedszkole Sportowo J\u0119zykowe Kraina Piotrusia Pana w Wieliczce",
                "name": "Niepubliczne Przedszkole Sportowo J\u0119zykowe Kraina Piotrusia Pana w Wieliczce",
                "addr:postcode": "32-020",
                "addr:city": "Wieliczka",
                "addr:street": "W\u0142adys\u0142awa Jagie\u0142\u0142y",
                "addr:housenumber": "2",
                "addr:city:simc": 952232,
                "addr:street:sym_ul": 24494,
                "phone": "+48 793505651",
                "email": "jagielly@krainapiotrusiapana.pl",
                "website": "http:\/\/www.krainapiotrusiapana.pl",
                "ref:regon": "384406718",
                "operator": "Piotr W\u00f3jcik",
                "operator:type": "private",
                "amenity": "kindergarten"
            }
        },
        {
            "id": 87396,
            "type": "Feature",
            "geometry": {
                "type": "Point",
                "coordinates": [
                    20.058820724487,
                    49.98477935791
                ]
            },
            "properties": {
                "isced:level": "3",
                "ref:rspo": 87396,
                "official_name": "Prywatne Liceum Og\u00f3lnokszta\u0142c\u0105ce - Ni\u017csze Seminarium Duchowne Franciszkan\u00f3w (Ofm)",
                "name": "Prywatne Liceum Og\u00f3lnokszta\u0142c\u0105ce - Ni\u017csze Seminarium Duchowne Franciszkan\u00f3w (Ofm)",
                "addr:postcode": "32-020",
                "addr:city": "Wieliczka",
                "addr:street": "Brata Alojzego Kosiby",
                "addr:housenumber": "31",
                "addr:city:simc": 952232,
                "addr:street:sym_ul": 33450,
                "phone": "+48 122782172",
                "email": "nsd@ofm.krakow.pl",
                "website": "http:\/\/www.franciszkanie.edu.pl",
                "ref:regon": "122715569",
                "operator": "Prowincja Matki Bo\u017cej Anielskiej Zakonu Braci Mniejszych",
                "operator:type": "religious",
                "amenity": "school"
            }
        },
        {
            "id": 123562,
            "type": "Feature",
            "geometry": {
                "type": "Point",
                "coordinates": [
                    20.058820724487,
                    49.98474935791
                ]
            },
            "properties": {
                "ref:rspo": 123562,
                "official_name": "Przedszkole \"Montessorek\" Caritas Archidiecezji Krakowskiej w Wieliczce",
                "name": "Przedszkole \"Montessorek\" Caritas Archidiecezji Krakowskiej w Wieliczce",
                "addr:postcode": "32-020",
                "addr:city": "Wieliczka",
                "addr:street": "Brata Alojzego Kosiby",
                "addr:housenumber": "18",
                "addr:city:simc": 952232,
                "addr:street:sym_ul": 33450,
                "phone": "+48 602561480",
                "email": "przedszkolemontessorek@gmail.com",
                "ref:regon": "123163250",
                "ref:vatin": "PL6761119284",
                "operator": "Caritas Archidiecezji Krakowskiej",
                "operator:type": "religious",
                "amenity": "kindergarten"
            }
        },
        {
            "id": 18379,
            "type": "Feature",
            "geometry": {
                "type": "Point",
                "coordinates": [
                    20.05979,
                    49.9854399
                ]
            },
            "properties": {
                "isced:level": "1;2",
                "ref:rspo": 18379,
                "official_name": "Szko\u0142a Podstawowa Nr 2 im. Tadeusza Ko\u015bciuszki w Wieliczce",
                "name": "Szko\u0142a Podstawowa Nr 2",
                "addr:postcode": "32-020",
                "addr:city": "Wieliczka",
                "addr:street": "Stanis\u0142awa Moniuszki",
                "addr:housenumber": "1",
                "addr:city:simc": 952232,
                "addr:street:sym_ul": 13246,
                "phone": "+48 122781177",
                "email": "szkola2@onet.pl",
                "website": "http:\/\/www.szkola2.wieliczka.pl",
                "ref:regon": "000703701",
                "ref:vatin": "PL6831557091",
                "operator": "Gmina Wieliczka",
                "operator:type": "government",
                "amenity": "school",
                "note": "Children RSPO: 79257"
            }
        },
        {
            "id": 40774,
            "type": "Feature",
            "geometry": {
                "type": "Point",
                "coordinates": [
                    20.06428,
                    49.98567
                ]
            },
            "properties": {
                "ref:rspo": 40774,
                "official_name": "Prywatne Przedszkole J\u0119zykowe \"Pere\u0142kowo\" O Profilu Teatralno-Scenicznym w Wieliczce",
                "name": "Prywatne Przedszkole J\u0119zykowe \"Pere\u0142kowo\" O Profilu Teatralno-Scenicznym w Wieliczce",
                "addr:postcode": "32-020",
                "addr:city": "Wieliczka",
                "addr:street": "Osiedle Henryka Sienkiewicza",
                "addr:housenumber": "24",
                "addr:city:simc": 952232,
                "addr:street:sym_ul": 19832,
                "phone": "+48 604586624",
                "email": "sekretariat@przedszkole-perelkowo.pl",
                "website": "http:\/\/www.przedszkole-perelkowo.pl",
                "ref:regon": "122686371",
                "ref:vatin": "PL9451817972",
                "operator": "Agata Wassermann Firma Edukacyjno-Us\u0142ugowa",
                "operator:type": "consortium",
                "amenity": "kindergarten"
            }
        },
        {
            "id": 268771,
            "type": "Feature",
            "geometry": {
                "type": "Point",
                "coordinates": [
                    20.04724,
                    49.98569
                ]
            },
            "properties": {
                "ref:rspo": 268771,
                "official_name": "Niepubliczne Ognisko Artystyczne Szko\u0142a Rysunku Zalubowski",
                "name": "Niepubliczne Ognisko Artystyczne Szko\u0142a Rysunku Zalubowski",
                "addr:postcode": "32-020",
                "addr:city": "Wieliczka",
                "addr:street": "Tadeusza Ko\u015bciuszki",
                "addr:housenumber": "15",
                "addr:city:simc": 952232,
                "addr:street:sym_ul": 9582,
                "phone": "+48 502027408",
                "email": "kontakt@zalubowski.pl",
                "ref:regon": "381255957",
                "operator": "Galeria Zalubowski - Rafa\u0142 Zalubowski. Eduart S.c.",
                "operator:type": "consortium",
                "fixme": "w zale\u017cno\u015bci od przedmiotu dzia\u0142alno\u015bci (np. amenity=community_centre + community_centre:for=child;juvenile, amenity=training + training=*, amenity=dancing_school, amenity=music_school),"
            }
        },
        {
            "id": 18465,
            "type": "Feature",
            "geometry": {
                "type": "Point",
                "coordinates": [
                    20.06432,
                    49.98569
                ]
            },
            "properties": {
                "isced:level": "1;2",
                "ref:rspo": 18465,
                "official_name": "Szko\u0142a Podstawowa Nr 3 im. Miko\u0142aja Kopernika w Wieliczce",
                "name": "Szko\u0142a Podstawowa Nr 3",
                "addr:postcode": "32-020",
                "addr:city": "Wieliczka",
                "addr:street": "Osiedle Henryka Sienkiewicza",
                "addr:housenumber": "26",
                "addr:city:simc": 952232,
                "addr:street:sym_ul": 19832,
                "phone": "+48 122781366",
                "email": "sekretariat@sp3wieliczka.pl",
                "website": "http:\/\/www.sp3wieliczka.pl",
                "ref:regon": "000703718",
                "ref:vatin": "PL6831559569",
                "operator": "Gmina Wieliczka",
                "operator:type": "government",
                "amenity": "school"
            }
        },
        {
            "id": 266027,
            "type": "Feature",
            "geometry": {
                "type": "Point",
                "coordinates": [
                    20.06073,
                    49.9858
                ]
            },
            "properties": {
                "isced:level": "1;2",
                "ref:rspo": 266027,
                "official_name": "Szko\u0142a Podstawowa \"Istota\" w Wieliczce",
                "name": "Szko\u0142a Podstawowa \"Istota\" w Wieliczce",
                "addr:postcode": "32-020",
                "addr:city": "Wieliczka",
                "addr:street": "Legion\u00f3w",
                "addr:housenumber": "3",
                "addr:city:simc": 952232,
                "addr:street:sym_ul": 10769,
                "phone": "+48 123070733",
                "email": "info@istota.edu.pl",
                "website": "http:\/\/www.istota.edu.pl",
                "ref:regon": "369168156",
                "operator": "Fundacja Istota",
                "operator:type": "ngo",
                "amenity": "school"
            }
        },
        {
            "id": 128328,
            "type": "Feature",
            "geometry": {
                "type": "Point",
                "coordinates": [
                    20.0605,
                    49.98617
                ]
            },
            "properties": {
                "ref:rspo": 128328,
                "official_name": "Przedszkole Niepubliczne O Profilu Edukacyjno-Sportowym \"Ma\u0142y Champion\" w Wieliczce",
                "name": "Przedszkole Niepubliczne O Profilu Edukacyjno-Sportowym \"Ma\u0142y Champion\" w Wieliczce",
                "addr:postcode": "32-020",
                "addr:city": "Wieliczka",
                "addr:street": "Legion\u00f3w",
                "addr:housenumber": "14",
                "addr:city:simc": 952232,
                "addr:street:sym_ul": 10769,
                "phone": "+48 796142912",
                "email": "przedszkole@malychampion.pl",
                "website": "http:\/\/malychampion.pl",
                "ref:regon": "362233005",
                "operator": "Micha\u0142 Hara",
                "operator:type": "private",
                "amenity": "kindergarten"
            }
        },
        {
            "id": 34653,
            "type": "Feature",
            "geometry": {
                "type": "Point",
                "coordinates": [
                    20.0773,
                    49.98617
                ]
            },
            "properties": {
                "ref:rspo": 34653,
                "official_name": "Zesp\u00f3\u0142 Szk\u00f3\u0142 im. Brata Alojzego Kosiby w Wieliczce",
                "name": "Zesp\u00f3\u0142 Szk\u00f3\u0142",
                "addr:postcode": "32-020",
                "addr:city": "Wieliczka",
                "addr:street": "Marsza\u0142ka J\u00f3zefa Pi\u0142sudskiego",
                "addr:housenumber": "105",
                "addr:city:simc": 952232,
                "addr:street:sym_ul": 36029,
                "phone": "+48 122891743",
                "email": "zss@zskosiby.wieliczka.pl",
                "website": "http:\/\/zskosiby.wieliczka.pl",
                "ref:regon": "000703428",
                "ref:vatin": "PL6831504427",
                "operator": "Powiat Wielicki",
                "operator:type": "government",
                "landuse": "education",
                "fixme": "amenity=school, amenity=college albo landuse=education w zale\u017cno\u015bci od tego, jakie plac\u00f3wki wchodz\u0105 w sk\u0142ad zespo\u0142u. Sprawd\u017a, kiedy stosowa\u0107 amenity=* a kiedy landuse=education.",
                "note": "Children RSPO: 87455;122232"
            }
        },
        {
            "id": 123949,
            "type": "Feature",
            "geometry": {
                "type": "Point",
                "coordinates": [
                    20.0773,
                    49.98614
                ]
            },
            "properties": {
                "ref:rspo": 123949,
                "official_name": "Powiatowe Centrum Kszta\u0142cenia Zawodowego I Ustawicznego w Wieliczce",
                "name": "Powiatowe Centrum Kszta\u0142cenia Zawodowego I Ustawicznego w Wieliczce",
                "addr:postcode": "32-020",
                "addr:city": "Wieliczka",
                "addr:street": "Marsza\u0142ka J\u00f3zefa Pi\u0142sudskiego",
                "addr:housenumber": "105",
                "addr:city:simc": 952232,
                "addr:street:sym_ul": 36029,
                "phone": "+48 122891740",
                "email": "sekretariat@pckziu-wieliczka.pl",
                "ref:regon": "123182595",
                "operator": "Powiat Wielicki",
                "operator:type": "government",
                "landuse": "education",
                "fixme": "amenity=school, amenity=college albo landuse=education w zale\u017cno\u015bci od tego, jakie plac\u00f3wki wchodz\u0105 w sk\u0142ad zespo\u0142u. Sprawd\u017a, kiedy stosowa\u0107 amenity=* a kiedy landuse=education.",
                "note": "Children RSPO: 88121;88125;123984"
            }
        },
        {
            "id": 87455,
            "type": "Feature",
            "geometry": {
                "type": "Point",
                "coordinates": [
                    20.0773,
                    49.986110000000004
                ]
            },
            "properties": {
                "isced:level": "1;2",
                "ref:rspo": 87455,
                "official_name": "Szko\u0142a Podstawowa Nr 5 Specjalna",
                "name": "Szko\u0142a Podstawowa Nr 5 Specjalna",
                "addr:postcode": "32-020",
                "addr:city": "Wieliczka",
                "addr:street": "Marsza\u0142ka J\u00f3zefa Pi\u0142sudskiego",
                "addr:housenumber": "105",
                "addr:city:simc": 952232,
                "addr:street:sym_ul": 36029,
                "phone": "+48 122891743",
                "email": "zss@zskosiby.wieliczka.pl",
                "website": "http:\/\/www.zskosiby.wieliczka.pl",
                "ref:regon": "356535745",
                "operator": "Powiat Wielicki",
                "operator:type": "government",
                "amenity": "school",
                "note": "Parent RSPO: 34653"
            }
        },
        {
            "id": 122232,
            "type": "Feature",
            "geometry": {
                "type": "Point",
                "coordinates": [
                    20.0773,
                    49.98608
                ]
            },
            "properties": {
                "ref:rspo": 122232,
                "official_name": "Szko\u0142a Specjalna Przysposabiaj\u0105ca Do Pracy",
                "name": "Szko\u0142a Specjalna Przysposabiaj\u0105ca Do Pracy",
                "addr:postcode": "32-020",
                "addr:city": "Wieliczka",
                "addr:street": "Marsza\u0142ka J\u00f3zefa Pi\u0142sudskiego",
                "addr:housenumber": "105",
                "addr:city:simc": 952232,
                "addr:street:sym_ul": 36029,
                "phone": "+48 122891743",
                "email": "zss@zskosiby.wieliczka.pl",
                "website": "http:\/\/www.zskosiby.wieliczka.pl",
                "ref:regon": "123055589",
                "operator": "Powiat Wielicki",
                "operator:type": "government",
                "amenity": "school",
                "note": "Parent RSPO: 34653"
            }
        },
        {
            "id": 88121,
            "type": "Feature",
            "geometry": {
                "type": "Point",
                "coordinates": [
                    20.0773,
                    49.98605
                ]
            },
            "properties": {
                "isced:level": "3",
                "ref:rspo": 88121,
                "official_name": "Bran\u017cowa Szko\u0142a I Stopnia",
                "name": "Bran\u017cowa Szko\u0142a I Stopnia",
                "addr:postcode": "32-020",
                "addr:city": "Wieliczka",
                "addr:street": "Marsza\u0142ka J\u00f3zefa Pi\u0142sudskiego",
                "addr:housenumber": "105",
                "addr:city:simc": 952232,
                "addr:street:sym_ul": 36029,
                "phone": "+48 122891740",
                "email": "sekretariat@pckziu-wieliczka.pl",
                "website": "http:\/\/www.pckziu-wieliczka.pl",
                "ref:regon": "356729917",
                "operator": "Powiat Wielicki",
                "operator:type": "government",
                "amenity": "school",
                "note": "Parent RSPO: 123949"
            }
        },
        {
            "id": 88125,
            "type": "Feature",
            "geometry": {
                "type": "Point",
                "coordinates": [
                    20.0773,
                    49.98602
                ]
            },
            "properties": {
                "isced:level": "3",
                "ref:rspo": 88125,
                "official_name": "Technikum w Wieliczce",
                "name": "Technikum w Wieliczce",
                "addr:postcode": "32-020",
                "addr:city": "Wieliczka",
                "addr:street": "Marsza\u0142ka J\u00f3zefa Pi\u0142sudskiego",
                "addr:housenumber": "105",
                "addr:city:simc": 952232,
                "addr:street:sym_ul": 36029,
                "phone": "+48 122891740",
                "email": "sekretariat@pckziu-wieliczka.pl",
                "website": "http:\/\/www.pckziu-wieliczka.pl",
                "ref:regon": "120691735",
                "operator": "Powiat Wielicki",
                "operator:type": "government",
                "amenity": "school",
                "note": "Parent RSPO: 123949"
            }
        },
        {
            "id": 123984,
            "type": "Feature",
            "geometry": {
                "type": "Point",
                "coordinates": [
                    20.0773,
                    49.98599
                ]
            },
            "properties": {
                "ref:rspo": 123984,
                "official_name": "Centrum Kszta\u0142cenia Zawodowego w Wielicze",
                "name": "Centrum Kszta\u0142cenia Zawodowego w Wielicze",
                "addr:postcode": "32-020",
                "addr:city": "Wieliczka",
                "addr:street": "Marsza\u0142ka J\u00f3zefa Pi\u0142sudskiego",
                "addr:housenumber": "105",
                "addr:city:simc": 952232,
                "addr:street:sym_ul": 36029,
                "phone": "+48 122891740",
                "email": "sekretariat@pckziu-wieliczka.pl",
                "ref:regon": "123184520",
                "operator": "Powiat Wielicki",
                "operator:type": "government",
                "fixme": "w zale\u017cno\u015bci od przedmiotu dzia\u0142alno\u015bci (np. amenity=training + training=*, amenity=dancing_school, amenity=language_school, amenity=music_school) albo amenity=school, amenity=college, albo landuse=education w zale\u017cno\u015bci od tego, jakie plac\u00f3wki wchodz\u0105 w sk\u0142ad zespo\u0142u. Sprawd\u017a, kiedy stosowa\u0107 amenity=* a kiedy landuse=education.",
                "note": "Parent RSPO: 123949"
            }
        },
        {
            "id": 18374,
            "type": "Feature",
            "geometry": {
                "type": "Point",
                "coordinates": [
                    20.07218,
                    49.98627
                ]
            },
            "properties": {
                "ref:rspo": 18374,
                "official_name": "Przedszkole Samorz\u0105dowe Nr 3 w Wieliczce",
                "name": "Przedszkole Samorz\u0105dowe Nr 3 w Wieliczce",
                "addr:postcode": "32-020",
                "addr:city": "Wieliczka",
                "addr:street": "Marsza\u0142ka J\u00f3zefa Pi\u0142sudskiego",
                "addr:housenumber": "97",
                "addr:city:simc": 952232,
                "addr:street:sym_ul": 36029,
                "phone": "+48 122781099",
                "email": "przedszkole3@wieliczka.eu",
                "website": "http:\/\/www.przedszkole3.wieliczka.eu",
                "ref:regon": "351606707",
                "ref:vatin": "PL6831755572",
                "operator": "Gmina Wieliczka",
                "operator:type": "government",
                "amenity": "kindergarten"
            }
        },
        {
            "id": 131456,
            "type": "Feature",
            "geometry": {
                "type": "Point",
                "coordinates": [
                    20.03715,
                    49.98768
                ]
            },
            "properties": {
                "isced:level": "4",
                "ref:rspo": 131456,
                "official_name": "Niepubliczna Szko\u0142a Policealna Natural Voice Perfection Institute w Krakowie",
                "name": "Niepubliczna Szko\u0142a Policealna Natural Voice Perfection Institute w Krakowie",
                "addr:postcode": "32-020",
                "addr:city": "Wieliczka",
                "addr:street": "Osiedle Karola Szymanowskiego",
                "addr:housenumber": "3",
                "addr:door": "71",
                "addr:city:simc": 952232,
                "addr:street:sym_ul": 33452,
                "email": "sekretariat@nvpi.edu.pl",
                "website": "http:\/\/nvpi.edu.pl",
                "ref:regon": "365180077",
                "operator": "Natural Voice Perfection Institute",
                "operator:type": "ngo",
                "amenity": "college"
            }
        },
        {
            "id": 18372,
            "type": "Feature",
            "geometry": {
                "type": "Point",
                "coordinates": [
                    20.0376,
                    49.9876999
                ]
            },
            "properties": {
                "ref:rspo": 18372,
                "official_name": "Przedszkole Samorz\u0105dowe Nr 4 w Wieliczce",
                "name": "Przedszkole Samorz\u0105dowe Nr 4 w Wieliczce",
                "addr:postcode": "32-020",
                "addr:city": "Wieliczka",
                "addr:street": "Osiedle Karola Szymanowskiego",
                "addr:housenumber": "10",
                "addr:city:simc": 952232,
                "addr:street:sym_ul": 33452,
                "phone": "+48 122781865",
                "email": "ps4wieliczka@interia.eu",
                "website": "http:\/\/www.przedszkole4.wieliczka.eu",
                "ref:regon": "351607285",
                "ref:vatin": "PL6831752823",
                "operator": "Gmina Wieliczka",
                "operator:type": "government",
                "amenity": "kindergarten"
            }
        },
        {
            "id": 31970,
            "type": "Feature",
            "geometry": {
                "type": "Point",
                "coordinates": [
                    20.03587,
                    49.98778
                ]
            },
            "properties": {
                "ref:rspo": 31970,
                "official_name": "Niepubliczne Przedszkole Artystyczno-J\u0119zykowe \"Puchatkowo\" w Wieliczce",
                "name": "Niepubliczne Przedszkole Artystyczno-J\u0119zykowe \"Puchatkowo\" w Wieliczce",
                "addr:postcode": "32-020",
                "addr:city": "Wieliczka",
                "addr:street": "Mieszka I",
                "addr:housenumber": "2",
                "addr:city:simc": 952232,
                "addr:street:sym_ul": 12832,
                "phone": "+48 123464804",
                "email": "puchatkowo.wieliczka@gmail.com",
                "website": "http:\/\/www.przedszkolepuchatkowo.pl",
                "ref:regon": "122683600",
                "ref:vatin": "PL6792888440",
                "operator": "Dorota Bury",
                "operator:type": "private",
                "amenity": "kindergarten"
            }
        },
        {
            "id": 262542,
            "type": "Feature",
            "geometry": {
                "type": "Point",
                "coordinates": [
                    20.05891,
                    49.98833
                ]
            },
            "properties": {
                "isced:level": "1;2",
                "ref:rspo": 262542,
                "official_name": "Szko\u0142a Podstawowa Nr 1 im. Kazimierza Wielkiego w Wieliczce",
                "name": "Szko\u0142a Podstawowa Nr 1",
                "addr:postcode": "32-020",
                "addr:city": "Wieliczka",
                "addr:street": "Marsza\u0142ka J\u00f3zefa Pi\u0142sudskiego",
                "addr:housenumber": "20",
                "addr:city:simc": 952232,
                "addr:street:sym_ul": 36029,
                "phone": "+48 122783788",
                "email": "sekretariat@sp1.wieliczka.eu",
                "website": "http:\/\/sp1.wieliczka.eu",
                "ref:regon": "368033543",
                "ref:vatin": "PL6831772671",
                "operator": "Gmina Wieliczka",
                "operator:type": "government",
                "amenity": "school"
            }
        },
        {
            "id": 35109,
            "type": "Feature",
            "geometry": {
                "type": "Point",
                "coordinates": [
                    20.05735,
                    49.9886
                ]
            },
            "properties": {
                "isced:level": "3",
                "ref:rspo": 35109,
                "official_name": "Liceum Og\u00f3lnokszta\u0142c\u0105ce im. Jana Matejki w Wieliczce",
                "name": "Liceum Og\u00f3lnokszta\u0142c\u0105ce",
                "addr:postcode": "32-020",
                "addr:city": "Wieliczka",
                "addr:street": "Marsza\u0142ka J\u00f3zefa Pi\u0142sudskiego",
                "addr:housenumber": "18",
                "addr:city:simc": 952232,
                "addr:street:sym_ul": 36029,
                "phone": "+48 122783277",
                "email": "sekretariat@wieliczkalo.pl",
                "website": "http:\/\/www.matejko.edu.pl",
                "ref:regon": "000707521",
                "ref:vatin": "PL6831525760",
                "operator": "Powiat Wielicki",
                "operator:type": "government",
                "amenity": "school"
            }
        },
        {
            "id": 49010,
            "type": "Feature",
            "geometry": {
                "type": "Point",
                "coordinates": [
                    20.05735,
                    49.988569999999996
                ]
            },
            "properties": {
                "isced:level": "3",
                "ref:rspo": 49010,
                "official_name": "Prywatne Liceum Og\u00f3lnokszta\u0142c\u0105ce Mgra Stefana Kwietniowskiego",
                "name": "Prywatne Liceum Og\u00f3lnokszta\u0142c\u0105ce Mgra Stefana Kwietniowskiego",
                "addr:postcode": "32-020",
                "addr:city": "Wieliczka",
                "addr:street": "Marsza\u0142ka J\u00f3zefa Pi\u0142sudskiego",
                "addr:housenumber": "18",
                "addr:city:simc": 952232,
                "addr:street:sym_ul": 36029,
                "phone": "+48 122765091",
                "email": "psz_kwietniowski@poczta.onet.pl",
                "website": "http:\/\/szkolazaoczna.com.pl",
                "ref:regon": "122700467",
                "operator": "Urszula Kwietniowska",
                "operator:type": "private",
                "amenity": "school"
            }
        },
        {
            "id": 49093,
            "type": "Feature",
            "geometry": {
                "type": "Point",
                "coordinates": [
                    20.05735,
                    49.98854
                ]
            },
            "properties": {
                "isced:level": "4",
                "ref:rspo": 49093,
                "official_name": "Prywatna Szko\u0142a Policealna Mgra Stefana Kwietniowskiego",
                "name": "Prywatna Szko\u0142a Policealna Mgra Stefana Kwietniowskiego",
                "addr:postcode": "32-020",
                "addr:city": "Wieliczka",
                "addr:street": "Marsza\u0142ka J\u00f3zefa Pi\u0142sudskiego",
                "addr:housenumber": "18",
                "addr:city:simc": 952232,
                "addr:street:sym_ul": 36029,
                "phone": "+48 122765091",
                "email": "psz_kwietniowski@poczta.onet.pl",
                "website": "http:\/\/szkolazaoczna.com.pl",
                "ref:regon": "122700480",
                "operator": "Urszula Kwietniowska",
                "operator:type": "private",
                "amenity": "college"
            }
        },
        {
            "id": 34429,
            "type": "Feature",
            "geometry": {
                "type": "Point",
                "coordinates": [
                    20.0578499,
                    49.9887
                ]
            },
            "properties": {
                "ref:rspo": 34429,
                "official_name": "Mi\u0119dzyszkolny O\u015brodek Sportowy w Wieliczce",
                "name": "Mi\u0119dzyszkolny O\u015brodek Sportowy w Wieliczce",
                "addr:postcode": "32-020",
                "addr:city": "Wieliczka",
                "addr:street": "Marii Konopnickiej",
                "addr:housenumber": "13",
                "addr:door": "5",
                "addr:city:simc": 952232,
                "addr:street:sym_ul": 9186,
                "phone": "+48 122881929",
                "email": "sekretariat@moswieliczka.pl",
                "website": "http:\/\/www.moswieliczka.pl",
                "ref:regon": "000990379",
                "ref:vatin": "PL6831765607",
                "operator": "Powiat Wielicki",
                "operator:type": "government",
                "leisure": "sports_centre"
            }
        },
        {
            "id": 79257,
            "type": "Feature",
            "geometry": {
                "type": "Point",
                "coordinates": [
                    20.10091,
                    49.9888199
                ]
            },
            "properties": {
                "isced:level": "1;2",
                "ref:rspo": 79257,
                "official_name": "Filia w Su\u0142kowie",
                "name": "Filia w Su\u0142kowie",
                "addr:postcode": "32-020",
                "addr:place": "Su\u0142k\u00f3w",
                "addr:housenumber": "235",
                "addr:city:simc": 341505,
                "phone": "+48 122785171",
                "email": "szkola2@onet.pl",
                "ref:regon": "703701000",
                "ref:vatin": "PL6831557091",
                "operator": "Gmina Wieliczka",
                "operator:type": "government",
                "amenity": "school",
                "note": "Parent RSPO: 18379"
            }
        },
        {
            "id": 129475,
            "type": "Feature",
            "geometry": {
                "type": "Point",
                "coordinates": [
                    20.0565399,
                    49.98887
                ]
            },
            "properties": {
                "ref:rspo": 129475,
                "official_name": "Niepubliczne Przedszkole \"Narnia\" w Wieliczce",
                "name": "Niepubliczne Przedszkole \"Narnia\" w Wieliczce",
                "addr:postcode": "32-020",
                "addr:city": "Wieliczka",
                "addr:street": "Marii Konopnickiej",
                "addr:housenumber": "11",
                "addr:city:simc": 952232,
                "addr:street:sym_ul": 9186,
                "phone": "+48 510383083",
                "email": "kraina.narnia@gmail.com",
                "website": "http:\/\/www.krainanarnia.pl",
                "ref:regon": "362623539",
                "ref:vatin": "PL8691823718",
                "operator": "Vestium Sp\u00f3\u0142ka  Z Ograniczon\u0105 Odpowiedzialno\u015bci\u0105",
                "operator:type": "private",
                "amenity": "kindergarten"
            }
        },
        {
            "id": 40892,
            "type": "Feature",
            "geometry": {
                "type": "Point",
                "coordinates": [
                    20.07632,
                    49.98903
                ]
            },
            "properties": {
                "ref:rspo": 40892,
                "official_name": "Przedszkole Niepubliczne \"U Anio\u0142ka Str\u00f3\u017ca\" w Wieliczce",
                "name": "Przedszkole Niepubliczne \"U Anio\u0142ka Str\u00f3\u017ca\" w Wieliczce",
                "addr:postcode": "32-020",
                "addr:city": "Wieliczka",
                "addr:street": "Grunwaldzka",
                "addr:housenumber": "21a",
                "addr:city:simc": 952232,
                "addr:street:sym_ul": 6260,
                "phone": "+48 602251492",
                "email": "jwilkonska@interia.pl",
                "website": "http:\/\/www.uaniolkastroza.pl",
                "ref:regon": "122686626",
                "ref:vatin": "PL6761595613",
                "operator": "Joanna Wilko\u0144ska",
                "operator:type": "private",
                "amenity": "kindergarten"
            }
        },
        {
            "id": 120768,
            "type": "Feature",
            "geometry": {
                "type": "Point",
                "coordinates": [
                    20.05636,
                    49.9893
                ]
            },
            "properties": {
                "ref:rspo": 120768,
                "official_name": "Niepubliczny Specjalistyczny Punkt Przedszkolny \"Teraz My\" w Wieliczce",
                "name": "Niepubliczny Specjalistyczny Punkt Przedszkolny \"Teraz My\" w Wieliczce",
                "addr:postcode": "32-020",
                "addr:city": "Wieliczka",
                "addr:street": "Henryka Siemiradzkiego",
                "addr:housenumber": "16",
                "addr:city:simc": 952232,
                "addr:street:sym_ul": 19816,
                "phone": "+48 504307858",
                "email": "wieliczka@teraz-my.eu",
                "website": "http:\/\/wieliczka.teraz-my.eu",
                "ref:regon": "122980923",
                "operator": "Ma\u0142gorzata Kopciuch-Pacu\u0142a",
                "operator:type": "private",
                "amenity": "kindergarten"
            }
        },
        {
            "id": 87389,
            "type": "Feature",
            "geometry": {
                "type": "Point",
                "coordinates": [
                    20.07952,
                    49.98998
                ]
            },
            "properties": {
                "ref:rspo": 87389,
                "official_name": "Powiatowa Poradnia Psychologiczno - Pedagogiczna w Wieliczce",
                "name": "Powiatowa Poradnia Psychologiczno - Pedagogiczna w Wieliczce",
                "addr:postcode": "32-020",
                "addr:city": "Wieliczka",
                "addr:street": "Niepo\u0142omska",
                "addr:housenumber": "26c",
                "addr:city:simc": 952232,
                "addr:street:sym_ul": 14210,
                "phone": "+48 122500773",
                "email": "sekretariat@poradnia-wieliczka.pl",
                "website": "http:\/\/www.poradnia-wieliczka.pl\/",
                "ref:regon": "001325483",
                "ref:vatin": "PL6831785432",
                "operator": "Powiat Wielicki",
                "operator:type": "government",
                "healthcare": "counselling",
                "counselling_type": "education",
                "fixme": "w zale\u017cno\u015bci od przedmiotu dzia\u0142alno\u015bci (np. healthcare=counselling + counselling_type=education albo healthcare=psychotherapist)"
            }
        },
        {
            "id": 40628,
            "type": "Feature",
            "geometry": {
                "type": "Point",
                "coordinates": [
                    20.04075,
                    49.99055
                ]
            },
            "properties": {
                "ref:rspo": 40628,
                "official_name": "Niepubliczne Przedszkole \"Siedmiomilowe Buty\" w Wieliczce",
                "name": "Niepubliczne Przedszkole \"Siedmiomilowe Buty\" w Wieliczce",
                "addr:postcode": "32-020",
                "addr:city": "Wieliczka",
                "addr:street": "Tadeusza Ko\u015bciuszki",
                "addr:housenumber": "36B",
                "addr:door": "4",
                "addr:city:simc": 952232,
                "addr:street:sym_ul": 9582,
                "phone": "+48 123118020",
                "email": "7milowebuty@wp.pl",
                "website": "http:\/\/www.7milowebuty.com.pl",
                "ref:regon": "122686224",
                "ref:vatin": "PL6832079765",
                "operator": "Siedmiomilowe Buty Sp\u00f3\u0142ka Z Ograniczon\u0105 Odpowiedzialno\u015bci\u0105",
                "operator:type": "private",
                "amenity": "kindergarten"
            }
        },
        {
            "id": 18549,
            "type": "Feature",
            "geometry": {
                "type": "Point",
                "coordinates": [
                    20.03218,
                    49.9907899
                ]
            },
            "properties": {
                "isced:level": "1;2",
                "ref:rspo": 18549,
                "official_name": "Szko\u0142a Podstawowa Z Oddzia\u0142ami Integracyjnymi Nr 4 im. Erazma J\u00f3zefa Jerzmanowskiego w Wieliczce",
                "name": "Szko\u0142a Podstawowa Z Oddzia\u0142ami Integracyjnymi Nr 4",
                "addr:postcode": "32-020",
                "addr:city": "Wieliczka",
                "addr:street": "Krzyszkowicka",
                "addr:housenumber": "18a",
                "addr:city:simc": 952232,
                "addr:street:sym_ul": 10153,
                "phone": "+48 126533888",
                "email": "sspnr4ww@interia.pl",
                "website": "http:\/\/www.sp4wieliczka.pl",
                "ref:regon": "000703724",
                "ref:vatin": "PL6831559552",
                "operator": "Gmina Wieliczka",
                "operator:type": "government",
                "amenity": "school"
            }
        },
        {
            "id": 26413,
            "type": "Feature",
            "geometry": {
                "type": "Point",
                "coordinates": [
                    20.05555,
                    49.99086
                ]
            },
            "properties": {
                "ref:rspo": 26413,
                "official_name": "Przedszkole Prywatne \"Dzieci\u0119ce Fantazje\" w Wieliczce",
                "name": "Przedszkole Prywatne \"Dzieci\u0119ce Fantazje\" w Wieliczce",
                "addr:postcode": "32-020",
                "addr:city": "Wieliczka",
                "addr:street": "J\u00f3zefa Kraszewskiego",
                "addr:housenumber": "6A",
                "addr:city:simc": 952232,
                "addr:street:sym_ul": 29729,
                "phone": "+48 122782049",
                "email": "dzieciece.fantazje@wp.pl",
                "website": "http:\/\/www.dzieciecefantazje.pl",
                "ref:regon": "122679483",
                "ref:vatin": "PL6831904109",
                "operator": "Jolanta Babiuch",
                "operator:type": "private",
                "amenity": "kindergarten"
            }
        },
        {
            "id": 275306,
            "type": "Feature",
            "geometry": {
                "type": "Point",
                "coordinates": [
                    20.04988,
                    49.99096
                ]
            },
            "properties": {
                "ref:rspo": 275306,
                "official_name": "Zesp\u00f3\u0142 Szk\u00f3\u0142 Niepublicznych Mistrzostwa Sportowego Wieliczka",
                "name": "Zesp\u00f3\u0142 Szk\u00f3\u0142 Niepublicznych Mistrzostwa Sportowego Wieliczka",
                "addr:postcode": "32-020",
                "addr:city": "Wieliczka",
                "addr:street": "Bogucka",
                "addr:housenumber": "2",
                "addr:city:simc": 952232,
                "addr:street:sym_ul": 1584,
                "email": "dyrektor@smswieliczka.pl",
                "website": "http:\/\/www.smswieliczka.pl",
                "ref:regon": "386800773",
                "operator": "Fundacja Szko\u0142a Mistrzostwa Sportowego Wieliczka",
                "operator:type": "ngo",
                "landuse": "education",
                "fixme": "amenity=school, amenity=college albo landuse=education w zale\u017cno\u015bci od tego, jakie plac\u00f3wki wchodz\u0105 w sk\u0142ad zespo\u0142u. Sprawd\u017a, kiedy stosowa\u0107 amenity=* a kiedy landuse=education.",
                "note": "Children RSPO: 262936;271253"
            }
        },
        {
            "id": 262936,
            "type": "Feature",
            "geometry": {
                "type": "Point",
                "coordinates": [
                    20.04988,
                    49.99093
                ]
            },
            "properties": {
                "isced:level": "1;2",
                "ref:rspo": 262936,
                "official_name": "Szko\u0142a Mistrzostwa Sportowego Wieliczka - Niepubliczna Szko\u0142a Podstawowa O Uprawnieniach Szko\u0142y Publicznej",
                "name": "Szko\u0142a Mistrzostwa Sportowego Wieliczka - Niepubliczna Szko\u0142a Podstawowa O Uprawnieniach Szko\u0142y Publicznej",
                "addr:postcode": "32-020",
                "addr:city": "Wieliczka",
                "addr:street": "Bogucka",
                "addr:housenumber": "2",
                "addr:city:simc": 952232,
                "addr:street:sym_ul": 1584,
                "email": "dyrektor@smswieliczka.pl",
                "website": "https:\/\/smswieliczka.pl\/",
                "ref:regon": "368075665",
                "operator": "Fundacja Szko\u0142a Mistrzostwa Sportowego Wieliczka",
                "operator:type": "ngo",
                "amenity": "school",
                "note": "Parent RSPO: 275306"
            }
        },
        {
            "id": 271253,
            "type": "Feature",
            "geometry": {
                "type": "Point",
                "coordinates": [
                    20.04988,
                    49.9909
                ]
            },
            "properties": {
                "isced:level": "3",
                "ref:rspo": 271253,
                "official_name": "Liceum Og\u00f3lnokszta\u0142c\u0105ce Szko\u0142a Mistrzostwa Sportowego",
                "name": "Liceum Og\u00f3lnokszta\u0142c\u0105ce Szko\u0142a Mistrzostwa Sportowego",
                "addr:postcode": "32-020",
                "addr:city": "Wieliczka",
                "addr:street": "Bogucka",
                "addr:housenumber": "2",
                "addr:city:simc": 952232,
                "addr:street:sym_ul": 1584,
                "phone": "+48 782123610",
                "email": "dyrektor@smswieliczka.pl",
                "website": "https:\/\/smswieliczka.pl\/",
                "ref:regon": "383207796",
                "operator": "Fundacja Szko\u0142a Mistrzostwa Sportowego Wieliczka",
                "operator:type": "ngo",
                "amenity": "school",
                "note": "Parent RSPO: 275306"
            }
        },
        {
            "id": 128672,
            "type": "Feature",
            "geometry": {
                "type": "Point",
                "coordinates": [
                    20.02526,
                    49.99377
                ]
            },
            "properties": {
                "ref:rspo": 128672,
                "official_name": "Przedszkole Niepubliczne \"Skakanka\" w Wieliczce",
                "name": "Przedszkole Niepubliczne \"Skakanka\" w Wieliczce",
                "addr:postcode": "32-020",
                "addr:city": "Wieliczka",
                "addr:street": "R\u00f3\u017cana",
                "addr:housenumber": "24",
                "addr:city:simc": 952232,
                "addr:street:sym_ul": 19000,
                "phone": "+48 122883513",
                "email": "przedszkoleskakanka@wp.pl",
                "website": "http:\/\/www.przedszkoleskakanka.pl",
                "ref:regon": "362353940",
                "operator": "Lucyna Strz\u0119pek",
                "operator:type": "private",
                "amenity": "kindergarten"
            }
        },
        {
            "id": 268551,
            "type": "Feature",
            "geometry": {
                "type": "Point",
                "coordinates": [
                    20.06731,
                    49.99396
                ]
            },
            "properties": {
                "ref:rspo": 268551,
                "official_name": "Niepubliczne Przedszkole Integracyjne \"Tygrysek Ed\" w Wieliczce",
                "name": "Niepubliczne Przedszkole Integracyjne \"Tygrysek Ed\" w Wieliczce",
                "addr:postcode": "32-020",
                "addr:city": "Wieliczka",
                "addr:street": "Tadeusza Korpala",
                "addr:housenumber": "3",
                "addr:city:simc": 952232,
                "addr:street:sym_ul": 9374,
                "phone": "+48 123576633",
                "email": "e.dudek@wp.pl",
                "website": "http:\/\/www.tygryseked.pl",
                "ref:regon": "381212110",
                "operator": "El\u017cbieta Dudek-Ruszil",
                "operator:type": "private",
                "amenity": "kindergarten"
            }
        },
        {
            "id": 49777,
            "type": "Feature",
            "geometry": {
                "type": "Point",
                "coordinates": [
                    20.07313,
                    49.9951099
                ]
            },
            "properties": {
                "ref:rspo": 49777,
                "official_name": "Centrum Szkolenia Zawodowego",
                "name": "Centrum Szkolenia Zawodowego",
                "addr:postcode": "32-020",
                "addr:city": "Wieliczka",
                "addr:street": "Artura Grottgera",
                "addr:housenumber": "58",
                "addr:city:simc": 952232,
                "addr:street:sym_ul": 6206,
                "phone": "+48 122890405",
                "email": "szkolenia@csz.pl",
                "website": "http:\/\/www.csz.pl",
                "ref:regon": "122689642",
                "operator": "Centrum Szkolenia Zawodowego Sp\u00f3\u0142ka Z Ograniczon\u0105 Odpowiedzialno\u015bci\u0105",
                "operator:type": "private",
                "fixme": "w zale\u017cno\u015bci od przedmiotu dzia\u0142alno\u015bci (np. amenity=training + training=*, amenity=dancing_school, amenity=language_school, amenity=music_school) albo amenity=school, amenity=college, albo landuse=education w zale\u017cno\u015bci od tego, jakie plac\u00f3wki wchodz\u0105 w sk\u0142ad zespo\u0142u. Sprawd\u017a, kiedy stosowa\u0107 amenity=* a kiedy landuse=education."
            }
        },
        {
            "id": 275139,
            "type": "Feature",
            "geometry": {
                "type": "Point",
                "coordinates": [
                    20.05824,
                    49.99615
                ]
            },
            "properties": {
                "ref:rspo": 275139,
                "official_name": "Przedszkole Niepubliczne \"Ogr\u00f3d Talent\u00f3w w Wieliczce",
                "name": "Przedszkole Niepubliczne \"Ogr\u00f3d Talent\u00f3w w Wieliczce",
                "addr:postcode": "32-020",
                "addr:city": "Wieliczka",
                "addr:street": "D\u0119bowa",
                "addr:housenumber": "10A",
                "addr:city:simc": 952232,
                "addr:street:sym_ul": 3811,
                "phone": "+48 516032540",
                "email": "angelina98566@wp.pl",
                "website": "http:\/\/www.ogrodtalentow.pl",
                "ref:regon": "386608544",
                "operator": "Angelina Wr\u00f3bel-Szewczyk",
                "operator:type": "private",
                "amenity": "kindergarten"
            }
        },
        {
            "id": 272468,
            "type": "Feature",
            "geometry": {
                "type": "Point",
                "coordinates": [
                    20.05404,
                    49.99651
                ]
            },
            "properties": {
                "ref:rspo": 272468,
                "official_name": "Punkt Przedszkolny w Wieliczce Os. Bogucice",
                "name": "Punkt Przedszkolny w Wieliczce Os. Bogucice",
                "addr:postcode": "32-020",
                "addr:city": "Wieliczka",
                "addr:street": "Reformacka",
                "addr:housenumber": "76",
                "addr:city:simc": 952232,
                "addr:street:sym_ul": 18541,
                "phone": "+48 122783788",
                "email": "sekretariat@sp1.wieliczka.eu",
                "ref:regon": "384186837",
                "operator": "Gmina Wieliczka",
                "operator:type": "government",
                "amenity": "kindergarten"
            }
        },
        {
            "id": 40796,
            "type": "Feature",
            "geometry": {
                "type": "Point",
                "coordinates": [
                    20.024,
                    49.99736
                ]
            },
            "properties": {
                "ref:rspo": 40796,
                "official_name": "Niepubliczne Przedszkole Artystyczno-J\u0119zykowe Hippo Art w Wieliczce",
                "name": "Niepubliczne Przedszkole Artystyczno-J\u0119zykowe Hippo Art w Wieliczce",
                "addr:postcode": "32-020",
                "addr:city": "Wieliczka",
                "addr:street": "R\u00f3\u017cana",
                "addr:housenumber": "39",
                "addr:city:simc": 952232,
                "addr:street:sym_ul": 19000,
                "phone": "+48 505393209",
                "email": "hippo-art@wp.pl",
                "website": "http:\/\/www.hippoart.pl",
                "ref:regon": "122686394",
                "ref:vatin": "PL6832057657",
                "operator": "Nina Kranc",
                "operator:type": "private",
                "amenity": "kindergarten"
            }
        },
        {
            "id": 279077,
            "type": "Feature",
            "geometry": {
                "type": "Point",
                "coordinates": [
                    20.02134,
                    49.99777
                ]
            },
            "properties": {
                "ref:rspo": 279077,
                "official_name": "Giganci Programowania",
                "name": "Giganci Programowania",
                "addr:postcode": "32-020",
                "addr:city": "Wieliczka",
                "addr:street": "Ochota",
                "addr:housenumber": "15F",
                "addr:city:simc": 952232,
                "addr:street:sym_ul": 14695,
                "phone": "+48 123120258",
                "email": "biuro@giganci.edu.pl",
                "ref:regon": "520564757",
                "operator": "For Kids Sp\u00f3\u0142ka Z Ograniczon\u0105 Odpowiedzialno\u015bci\u0105",
                "operator:type": "private",
                "fixme": "w zale\u017cno\u015bci od przedmiotu dzia\u0142alno\u015bci (np. amenity=training + training=*, amenity=dancing_school, amenity=language_school, amenity=music_school)"
            }
        },
        {
            "id": 120767,
            "type": "Feature",
            "geometry": {
                "type": "Point",
                "coordinates": [
                    20.02389,
                    50.00261
                ]
            },
            "properties": {
                "ref:rspo": 120767,
                "official_name": "Przedszkole \"Bratki\" w Wieliczce",
                "name": "Przedszkole \"Bratki\" w Wieliczce",
                "addr:postcode": "32-020",
                "addr:city": "Wieliczka",
                "addr:street": "Krakowska",
                "addr:housenumber": "58",
                "addr:city:simc": 952232,
                "addr:street:sym_ul": 9796,
                "phone": "+48 518250470",
                "email": "bratki@poczta.onet.pl",
                "ref:regon": "122980917",
                "ref:vatin": "PL6831906574",
                "operator": "Magdalena Laprus",
                "operator:type": "private",
                "amenity": "kindergarten"
            }
        },
        {
            "id": 265976,
            "type": "Feature",
            "geometry": {
                "type": "Point",
                "coordinates": [
                    20.02207,
                    50.00301
                ]
            },
            "properties": {
                "ref:rspo": 265976,
                "official_name": "Przedszkole Niepubliczne \"Le\u015bna Akademia\" w Wieliczce",
                "name": "Przedszkole Niepubliczne \"Le\u015bna Akademia\" w Wieliczce",
                "addr:postcode": "32-020",
                "addr:city": "Wieliczka",
                "addr:street": "Parkowa",
                "addr:housenumber": "6",
                "addr:city:simc": 952232,
                "addr:street:sym_ul": 15710,
                "phone": "+48 791100633",
                "email": "kontakt.lesnaakademia@gmail.com",
                "ref:regon": "369131354",
                "operator": "Sylwia Ca\u0142a",
                "operator:type": "private",
                "amenity": "kindergarten"
            }
        },
        {
            "id": 272475,
            "type": "Feature",
            "geometry": {
                "type": "Point",
                "coordinates": [
                    20.07921,
                    50.00317
                ]
            },
            "properties": {
                "ref:rspo": 272475,
                "official_name": "Punkt Przedszkolny w \u015aledziejowicach",
                "name": "Punkt Przedszkolny w \u015aledziejowicach",
                "addr:postcode": "32-020",
                "addr:place": "\u015aledziejowice",
                "addr:housenumber": "563",
                "addr:city:simc": 341630,
                "phone": "+48 122511200",
                "email": "sspodstawowa@wp.pl",
                "website": "http:\/\/www.sspsledziejowice.edupage.org",
                "ref:regon": "384187386",
                "operator": "Gmina Wieliczka",
                "operator:type": "government",
                "amenity": "kindergarten"
            }
        },
        {
            "id": 276792,
            "type": "Feature",
            "geometry": {
                "type": "Point",
                "coordinates": [
                    20.06807,
                    50.00373
                ]
            },
            "properties": {
                "ref:rspo": 276792,
                "official_name": "Niepubliczne Przedszkole Sportowo-J\u0119zykowe Fair Play Barnehage w Czarnochowicach",
                "name": "Niepubliczne Przedszkole Sportowo-J\u0119zykowe Fair Play Barnehage w Czarnochowicach",
                "addr:postcode": "32-020",
                "addr:place": "Czarnochowice",
                "addr:housenumber": "529",
                "addr:door": "1",
                "addr:city:simc": 340180,
                "phone": "+48 795518237",
                "email": "fairplay.czarnochowice@gmail.com",
                "website": "http:\/\/przedszkolefairplay.info.pl\/wieliczka-czarnochowice\/",
                "ref:regon": "387581400",
                "operator": "Piotr Szopa",
                "operator:type": "private",
                "amenity": "kindergarten"
            }
        },
        {
            "id": 132706,
            "type": "Feature",
            "geometry": {
                "type": "Point",
                "coordinates": [
                    20.0201483,
                    50.0039923
                ]
            },
            "properties": {
                "ref:rspo": 132706,
                "official_name": "Konstat Sp. Z O.o.",
                "name": "Konstat Sp. Z O.o.",
                "addr:postcode": "32-002",
                "addr:place": "Kokot\u00f3w",
                "addr:housenumber": "741",
                "addr:city:simc": 340820,
                "phone": "+48 126262014",
                "email": "biuro@konstat.net",
                "ref:regon": "366093564",
                "operator": "Konstat Sp\u00f3\u0142ka Z Ograniczon\u0105 Odpowiedzialno\u015bci\u0105",
                "operator:type": "private",
                "fixme": "w zale\u017cno\u015bci od przedmiotu dzia\u0142alno\u015bci (np. amenity=training + training=*, amenity=dancing_school, amenity=language_school, amenity=music_school) albo amenity=school, amenity=college, albo landuse=education w zale\u017cno\u015bci od tego, jakie plac\u00f3wki wchodz\u0105 w sk\u0142ad zespo\u0142u. Sprawd\u017a, kiedy stosowa\u0107 amenity=* a kiedy landuse=education."
            }
        },
        {
            "id": 272473,
            "type": "Feature",
            "geometry": {
                "type": "Point",
                "coordinates": [
                    20.10956,
                    50.00419
                ]
            },
            "properties": {
                "ref:rspo": 272473,
                "official_name": "Punkt Przedszkolny w Ma\u0142ej Wsi",
                "name": "Punkt Przedszkolny w Ma\u0142ej Wsi",
                "addr:postcode": "32-002",
                "addr:place": "Ma\u0142a Wie\u015b",
                "addr:housenumber": "303",
                "addr:city:simc": 341089,
                "phone": "+48 122521687",
                "email": "przedszkolestrumiany@interia.pl",
                "ref:regon": "384187370",
                "operator": "Gmina Wieliczka",
                "operator:type": "government",
                "amenity": "kindergarten"
            }
        },
        {
            "id": 126004,
            "type": "Feature",
            "geometry": {
                "type": "Point",
                "coordinates": [
                    20.1120891,
                    50.004463
                ]
            },
            "properties": {
                "ref:rspo": 126004,
                "official_name": "Niepubliczne Centrum Kszta\u0142cenia Zawodowego Bikart",
                "name": "Niepubliczne Centrum Kszta\u0142cenia Zawodowego Bikart",
                "addr:postcode": "32-002",
                "addr:place": "Ma\u0142a Wie\u015b",
                "addr:housenumber": "221",
                "addr:city:simc": 341089,
                "phone": "+48 602332716",
                "email": "robert.rajczyk@op.pl",
                "ref:regon": "360146414",
                "operator": "Robert Rajczyk",
                "operator:type": "private",
                "fixme": "w zale\u017cno\u015bci od przedmiotu dzia\u0142alno\u015bci (np. amenity=training + training=*, amenity=dancing_school, amenity=language_school, amenity=music_school) albo amenity=school, amenity=college, albo landuse=education w zale\u017cno\u015bci od tego, jakie plac\u00f3wki wchodz\u0105 w sk\u0142ad zespo\u0142u. Sprawd\u017a, kiedy stosowa\u0107 amenity=* a kiedy landuse=education."
            }
        },
        {
            "id": 40866,
            "type": "Feature",
            "geometry": {
                "type": "Point",
                "coordinates": [
                    20.0781199,
                    50.00488
                ]
            },
            "properties": {
                "ref:rspo": 40866,
                "official_name": "Przedszkole Koala w \u015aledziejowicach",
                "name": "Przedszkole Koala w \u015aledziejowicach",
                "addr:postcode": "32-020",
                "addr:place": "\u015aledziejowice",
                "addr:housenumber": "3",
                "addr:city:simc": 341630,
                "phone": "+48 606166631",
                "email": "biuro@przedszkolekoala.edu.pl",
                "website": "http:\/\/www.przedszkolekoala.edu.pl",
                "ref:regon": "122686589",
                "ref:vatin": "PL5471816554",
                "operator": "Dawid Pytlik",
                "operator:type": "private",
                "amenity": "kindergarten"
            }
        },
        {
            "id": 40671,
            "type": "Feature",
            "geometry": {
                "type": "Point",
                "coordinates": [
                    20.1074774,
                    50.006231
                ]
            },
            "properties": {
                "ref:rspo": 40671,
                "official_name": "Niepubliczne Centrum Edukacji Przedszkolnej \"Motylkowo\" w Ma\u0142ej Wsi",
                "name": "Niepubliczne Centrum Edukacji Przedszkolnej \"Motylkowo\" w Ma\u0142ej Wsi",
                "addr:postcode": "32-002",
                "addr:place": "Ma\u0142a Wie\u015b",
                "addr:housenumber": "168",
                "addr:city:simc": 341089,
                "phone": "+48 122511432",
                "email": "przedszkolemotylkowo@gmail.com",
                "website": "http:\/\/www.motylkowo.edu.pl",
                "ref:regon": "122686260",
                "operator": "Sebastian Por\u0119bski",
                "operator:type": "private",
                "amenity": "kindergarten"
            }
        },
        {
            "id": 19531,
            "type": "Feature",
            "geometry": {
                "type": "Point",
                "coordinates": [
                    20.08476,
                    50.01
                ]
            },
            "properties": {
                "isced:level": "1;2",
                "ref:rspo": 19531,
                "official_name": "Szko\u0142a Podstawowa im. Jana Paw\u0142a II w \u015aledziejowicach",
                "name": "Szko\u0142a Podstawowa",
                "addr:postcode": "32-020",
                "addr:place": "\u015aledziejowice",
                "addr:housenumber": "203",
                "addr:city:simc": 341630,
                "phone": "+48 122511200",
                "email": "sspodstawowa@wp.pl",
                "website": "http:\/\/www.sspsledziejowice.edupage.org",
                "ref:regon": "001098290",
                "ref:vatin": "PL6831529858",
                "operator": "Gmina Wieliczka",
                "operator:type": "government",
                "amenity": "school"
            }
        },
        {
            "id": 18378,
            "type": "Feature",
            "geometry": {
                "type": "Point",
                "coordinates": [
                    20.08456,
                    50.01028
                ]
            },
            "properties": {
                "ref:rspo": 18378,
                "official_name": "Przedszkole Samorz\u0105dowe w \u015aledziejowicach",
                "name": "Przedszkole Samorz\u0105dowe w \u015aledziejowicach",
                "addr:postcode": "32-020",
                "addr:place": "\u015aledziejowice",
                "addr:housenumber": "203a",
                "addr:city:simc": 341630,
                "phone": "+48 122511207",
                "email": "psledziejowice@onet.pl",
                "website": "http:\/\/przedszkolesledziejowice.wieliczka.eu",
                "ref:regon": "351606736",
                "ref:vatin": "PL6831755566",
                "operator": "Gmina Wieliczka",
                "operator:type": "government",
                "amenity": "kindergarten"
            }
        },
        {
            "id": 18370,
            "type": "Feature",
            "geometry": {
                "type": "Point",
                "coordinates": [
                    20.10199,
                    50.01072
                ]
            },
            "properties": {
                "ref:rspo": 18370,
                "official_name": "Przedszkole Samorz\u0105dowe w Strumianach",
                "name": "Przedszkole Samorz\u0105dowe w Strumianach",
                "addr:postcode": "32-002",
                "addr:place": "Strumiany",
                "addr:housenumber": "38",
                "addr:city:simc": 341480,
                "phone": "+48 122511687",
                "email": "przedszkolestrumiany@interia.pl",
                "website": "http:\/\/www.strumiany.szkolnastrona.pl",
                "ref:regon": "351605553",
                "ref:vatin": "PL6831755661",
                "operator": "Gmina Wieliczka",
                "operator:type": "government",
                "amenity": "kindergarten"
            }
        },
        {
            "id": 40876,
            "type": "Feature",
            "geometry": {
                "type": "Point",
                "coordinates": [
                    20.0932289,
                    50.013324
                ]
            },
            "properties": {
                "ref:rspo": 40876,
                "official_name": "Przedszkole \"Puchatek\" w Kokotowie",
                "name": "Przedszkole \"Puchatek\" w Kokotowie",
                "addr:postcode": "32-002",
                "addr:place": "Kokot\u00f3w",
                "addr:housenumber": "553",
                "addr:city:simc": 340820,
                "phone": "+48 123461535",
                "email": "p.przedszkole@op.pl",
                "website": "http:\/\/przedszkole-puchatek.com",
                "ref:regon": "122686603",
                "ref:vatin": "PL5482139152",
                "operator": "Anna Maj",
                "operator:type": "private",
                "amenity": "kindergarten"
            }
        },
        {
            "id": 68589,
            "type": "Feature",
            "geometry": {
                "type": "Point",
                "coordinates": [
                    20.1027299,
                    50.0145306
                ]
            },
            "properties": {
                "ref:rspo": 68589,
                "official_name": "Niepubliczne Przedszkole \"Alladyn\" w Strumianach",
                "name": "Niepubliczne Przedszkole \"Alladyn\" w Strumianach",
                "addr:postcode": "32-002",
                "addr:place": "Strumiany",
                "addr:housenumber": "224",
                "addr:city:simc": 341480,
                "phone": "+48 122500903",
                "email": "strumiany@przedszkolealladyn.pl",
                "website": "http:\/\/przedszkolealladyn.pl",
                "ref:regon": "122696790",
                "ref:vatin": "PL6831618214",
                "operator": "Karolina Jachimczak",
                "operator:type": "private",
                "amenity": "kindergarten"
            }
        },
        {
            "id": 19554,
            "type": "Feature",
            "geometry": {
                "type": "Point",
                "coordinates": [
                    20.11177,
                    50.01577
                ]
            },
            "properties": {
                "isced:level": "1;2",
                "ref:rspo": 19554,
                "official_name": "Szko\u0142a Podstawowa im. Janusza Korczaka w W\u0119grzcach Wielkich",
                "name": "Szko\u0142a Podstawowa",
                "addr:postcode": "32-002",
                "addr:place": "W\u0119grzce Wielkie",
                "addr:housenumber": "190",
                "addr:city:simc": 341706,
                "phone": "+48 122511373",
                "email": "sspww@wp.pl",
                "website": "http:\/\/www.spwegrzcewielkie.szkolnastrona.pl",
                "ref:regon": "001044212",
                "ref:vatin": "PL6831651625",
                "operator": "Gmina Wieliczka",
                "operator:type": "government",
                "amenity": "school"
            }
        },
        {
            "id": 272470,
            "type": "Feature",
            "geometry": {
                "type": "Point",
                "coordinates": [
                    20.09504,
                    50.01605
                ]
            },
            "properties": {
                "ref:rspo": 272470,
                "official_name": "Punkt Przedszkolny w Kokotowie",
                "name": "Punkt Przedszkolny w Kokotowie",
                "addr:postcode": "32-002",
                "addr:place": "Kokot\u00f3w",
                "addr:housenumber": "730",
                "addr:city:simc": 340820,
                "phone": "+48 122511200",
                "email": "sspodstawowa@wp.pl",
                "website": "http:\/\/www.sspsledziejowice.edupage.org",
                "ref:regon": "384186866",
                "operator": "Gmina Wieliczka",
                "operator:type": "government",
                "amenity": "kindergarten"
            }
        },
        {
            "id": 18783,
            "type": "Feature",
            "geometry": {
                "type": "Point",
                "coordinates": [
                    20.1345616,
                    50.0394658
                ]
            },
            "properties": {
                "isced:level": "1;2",
                "ref:rspo": 18783,
                "official_name": "Szko\u0142a Podstawowa im. Macieja Szarka w Grabiu",
                "name": "Szko\u0142a Podstawowa",
                "addr:postcode": "32-002",
                "addr:place": "Grabie",
                "addr:housenumber": "2",
                "addr:city:simc": 340569,
                "phone": "+48 122511331",
                "email": "spgrabie@wp.pl",
                "website": "https:\/\/spgrabie.edupage.org",
                "ref:regon": "351389061",
                "ref:vatin": "PL6831487054",
                "operator": "Gmina Wieliczka",
                "operator:type": "government",
                "amenity": "school"
            }
        },
        {
            "id": 278221,
            "type": "Feature",
            "geometry": {
                "type": "Point",
                "coordinates": [
                    20.14346,
                    50.03963
                ]
            },
            "properties": {
                "ref:rspo": 278221,
                "official_name": "Punkt Przedszkolny w Grabiu",
                "name": "Punkt Przedszkolny w Grabiu",
                "addr:postcode": "32-002",
                "addr:place": "Grabie",
                "addr:housenumber": "243",
                "addr:city:simc": 340569,
                "email": "spgrabie@wp.pl",
                "ref:regon": "389852316",
                "operator": "Gmina Wieliczka",
                "operator:type": "government",
                "amenity": "kindergarten"
            }
        }
    ]
}