{
    "type": "FeatureCollection",
    "features": [
        {
            "id": 84322,
            "type": "Feature",
            "geometry": {
                "type": "Point",
                "coordinates": [
                    15.5302255,
                    52.3689263
                ]
            },
            "properties": {
                "isced:level": "1;2",
                "ref:rspo": 84322,
                "official_name": "Szko\u0142a Podstawowa w Ka\u0142awie",
                "name": "Szko\u0142a Podstawowa w Ka\u0142awie",
                "addr:postcode": "66-300",
                "addr:place": "Ka\u0142awa",
                "addr:housenumber": "92",
                "addr:city:simc": 184023,
                "phone": "+48 957411393",
                "email": "sp-kalawa@miedzyrzecz.pl",
                "website": "http:\/\/spkalawa.edupage.org",
                "ref:regon": "210319294",
                "ref:vatin": "PL5961561481",
                "operator": "Gmina Mi\u0119dzyrzecz",
                "operator:type": "government",
                "amenity": "school"
            }
        },
        {
            "id": 84321,
            "type": "Feature",
            "geometry": {
                "type": "Point",
                "coordinates": [
                    15.687905,
                    52.374806
                ]
            },
            "properties": {
                "isced:level": "1;2",
                "ref:rspo": 84321,
                "official_name": "Szko\u0142a Podstawowa w Bukowcu",
                "name": "Szko\u0142a Podstawowa w Bukowcu",
                "addr:postcode": "66-300",
                "addr:place": "Bukowiec",
                "addr:housenumber": "61",
                "addr:city:simc": 183940,
                "phone": "+48 797596550",
                "email": "sp-bukowiec@miedzyrzecz.pl",
                "ref:regon": "210319242",
                "ref:vatin": "PL5961561423",
                "operator": "Gmina Mi\u0119dzyrzecz",
                "operator:type": "government",
                "amenity": "school"
            }
        },
        {
            "id": 90922,
            "type": "Feature",
            "geometry": {
                "type": "Point",
                "coordinates": [
                    15.5845,
                    52.43725
                ]
            },
            "properties": {
                "ref:rspo": 90922,
                "official_name": "Specjalny O\u015brodek Szkolno - Wychowawczy im. Marii Konopnickiej",
                "name": "Specjalny O\u015brodek Szkolno - Wychowawczy",
                "addr:postcode": "66-300",
                "addr:city": "Mi\u0119dzyrzecz",
                "addr:street": "Konstytucji 3 Maja",
                "addr:housenumber": "60",
                "addr:city:simc": 935529,
                "addr:street:sym_ul": 9213,
                "phone": "+48 957412459",
                "email": "sosw@powiat-miedzyrzecki.pl",
                "website": "http:\/\/www.sosw.miedzyrzecz.pl",
                "ref:regon": "000847050",
                "ref:vatin": "PL5961067077",
                "operator": "Powiat Mi\u0119dzyrzecki",
                "operator:type": "government",
                "amenity": "school",
                "note": "Children RSPO: 126363;126367;126368;126369"
            }
        },
        {
            "id": 126363,
            "type": "Feature",
            "geometry": {
                "type": "Point",
                "coordinates": [
                    15.5845,
                    52.437219999999996
                ]
            },
            "properties": {
                "isced:level": "1;2",
                "ref:rspo": 126363,
                "official_name": "Szko\u0142a Podstawowa Specjalna",
                "name": "Szko\u0142a Podstawowa Specjalna",
                "addr:postcode": "66-300",
                "addr:city": "Mi\u0119dzyrzecz",
                "addr:street": "Konstytucji 3 Maja",
                "addr:housenumber": "60",
                "addr:city:simc": 935529,
                "addr:street:sym_ul": 9213,
                "phone": "+48 957412459",
                "email": "sosw@powiat-miedzyrzecki.pl",
                "website": "http:\/\/www.sosw.miedzyrzecz.pl",
                "ref:regon": "211273105",
                "operator": "Powiat Mi\u0119dzyrzecki",
                "operator:type": "government",
                "amenity": "school",
                "note": "Parent RSPO: 90922"
            }
        },
        {
            "id": 126367,
            "type": "Feature",
            "geometry": {
                "type": "Point",
                "coordinates": [
                    15.5845,
                    52.43719
                ]
            },
            "properties": {
                "ref:rspo": 126367,
                "official_name": "Przedszkole Specjalne",
                "name": "Przedszkole Specjalne",
                "addr:postcode": "66-300",
                "addr:city": "Mi\u0119dzyrzecz",
                "addr:street": "Konstytucji 3 Maja",
                "addr:housenumber": "60",
                "addr:city:simc": 935529,
                "addr:street:sym_ul": 9213,
                "phone": "+48 957412459",
                "email": "sosw@powiat-miedzyrzecki.pl",
                "website": "http:\/\/www.sosw.miedzyrzecz.pl",
                "ref:regon": "080465478",
                "operator": "Powiat Mi\u0119dzyrzecki",
                "operator:type": "government",
                "amenity": "kindergarten",
                "note": "Parent RSPO: 90922"
            }
        },
        {
            "id": 126368,
            "type": "Feature",
            "geometry": {
                "type": "Point",
                "coordinates": [
                    15.5845,
                    52.43716
                ]
            },
            "properties": {
                "ref:rspo": 126368,
                "official_name": "Trzyletnia Szko\u0142a Przysposabiaj\u0105ca do Pracy",
                "name": "Trzyletnia Szko\u0142a Przysposabiaj\u0105ca do Pracy",
                "addr:postcode": "66-300",
                "addr:city": "Mi\u0119dzyrzecz",
                "addr:street": "Konstytucji 3 Maja",
                "addr:housenumber": "60",
                "addr:city:simc": 935529,
                "addr:street:sym_ul": 9213,
                "phone": "+48 957412459",
                "email": "sosw@powiat-miedzyrzecki.pl",
                "website": "http:\/\/www.sosw.miedzyrzecz.pl",
                "ref:regon": "211305992",
                "operator": "Powiat Mi\u0119dzyrzecki",
                "operator:type": "government",
                "amenity": "school",
                "note": "Parent RSPO: 90922"
            }
        },
        {
            "id": 126369,
            "type": "Feature",
            "geometry": {
                "type": "Point",
                "coordinates": [
                    15.5845,
                    52.437129999999996
                ]
            },
            "properties": {
                "isced:level": "3",
                "ref:rspo": 126369,
                "official_name": "Bran\u017cowa Szko\u0142a I Stopnia",
                "name": "Bran\u017cowa Szko\u0142a I Stopnia",
                "addr:postcode": "66-300",
                "addr:city": "Mi\u0119dzyrzecz",
                "addr:street": "Konstytucji 3 Maja",
                "addr:housenumber": "60",
                "addr:city:simc": 935529,
                "addr:street:sym_ul": 9213,
                "phone": "+48 957412459",
                "email": "sosw@powiat-miedzyrzecki.pl",
                "website": "http:\/\/www.sosw.miedzyrzecz.pl",
                "ref:regon": "211273128",
                "operator": "Powiat Mi\u0119dzyrzecki",
                "operator:type": "government",
                "amenity": "school",
                "note": "Parent RSPO: 90922"
            }
        },
        {
            "id": 84312,
            "type": "Feature",
            "geometry": {
                "type": "Point",
                "coordinates": [
                    15.5687,
                    52.4398
                ]
            },
            "properties": {
                "ref:rspo": 84312,
                "official_name": "Przedszkole nr 6 im. Jana Brzechwy",
                "name": "Przedszkole nr 6",
                "addr:postcode": "66-300",
                "addr:city": "Mi\u0119dzyrzecz",
                "addr:street": "Adama Mickiewicza",
                "addr:housenumber": "25",
                "addr:city:simc": 935529,
                "addr:street:sym_ul": 12734,
                "phone": "+48 957412532",
                "email": "p6@miedzyrzecz.pl",
                "ref:regon": "210013827",
                "ref:vatin": "PL5961561541",
                "operator": "Gmina Mi\u0119dzyrzecz",
                "operator:type": "government",
                "amenity": "kindergarten"
            }
        },
        {
            "id": 132645,
            "type": "Feature",
            "geometry": {
                "type": "Point",
                "coordinates": [
                    15.64772,
                    52.4400199
                ]
            },
            "properties": {
                "ref:rspo": 132645,
                "official_name": "Przedszkole J\u0119zykowe Z\u0142ota Rybka",
                "name": "Przedszkole J\u0119zykowe Z\u0142ota Rybka",
                "addr:postcode": "66-300",
                "addr:city": "Bobowicko",
                "addr:street": "Trzcielska",
                "addr:housenumber": "32",
                "addr:city:simc": 183928,
                "addr:street:sym_ul": 23058,
                "phone": "+48 695163755",
                "email": "zlotarybka.bobowicko@wp.pl",
                "ref:regon": "365967877",
                "operator": "Aniela Brodzi\u0144ska",
                "operator:type": "private",
                "amenity": "kindergarten"
            }
        },
        {
            "id": 127864,
            "type": "Feature",
            "geometry": {
                "type": "Point",
                "coordinates": [
                    15.5876,
                    52.44173
                ]
            },
            "properties": {
                "ref:rspo": 127864,
                "official_name": "Centrum Kszta\u0142enia Zawodowego I Ustawicznego w Mi\u0119dzyrzeczu",
                "name": "Centrum Kszta\u0142enia Zawodowego I Ustawicznego w Mi\u0119dzyrzeczu",
                "addr:postcode": "66-300",
                "addr:city": "Mi\u0119dzyrzecz",
                "addr:street": "Marcinkowskiego",
                "addr:housenumber": "26",
                "addr:city:simc": 935529,
                "addr:street:sym_ul": 12294,
                "phone": "+48 957429575",
                "email": "ckziumcz@gmail.com",
                "website": "http:\/\/ckziumiedzyrzecz.com",
                "ref:regon": "361923222",
                "operator": "Powiat Mi\u0119dzyrzecki",
                "operator:type": "government",
                "landuse": "education",
                "fixme": "amenity=school, amenity=college albo landuse=education w zale\u017cno\u015bci od tego, jakie plac\u00f3wki wchodz\u0105 w sk\u0142ad zespo\u0142u. Sprawd\u017a, kiedy stosowa\u0107 amenity=* a kiedy landuse=education.",
                "note": "Children RSPO: 107482;107527;109133;109956"
            }
        },
        {
            "id": 107527,
            "type": "Feature",
            "geometry": {
                "type": "Point",
                "coordinates": [
                    15.5876,
                    52.4417
                ]
            },
            "properties": {
                "isced:level": "3",
                "ref:rspo": 107527,
                "official_name": "Technikum nr 2 im. Genera\u0142a Augusta Emila Fieldorfa \"Nila\"",
                "name": "Technikum nr 2",
                "addr:postcode": "66-300",
                "addr:city": "Mi\u0119dzyrzecz",
                "addr:street": "Marcinkowskiego",
                "addr:housenumber": "26",
                "addr:city:simc": 935529,
                "addr:street:sym_ul": 12294,
                "phone": "+48 504225162",
                "email": "ckziumcz@gmail.com",
                "website": "http:\/\/ckziumiedzyrzecz.com",
                "ref:regon": "211260060",
                "operator": "Powiat Mi\u0119dzyrzecki",
                "operator:type": "government",
                "amenity": "school",
                "note": "Parent RSPO: 127864"
            }
        },
        {
            "id": 109133,
            "type": "Feature",
            "geometry": {
                "type": "Point",
                "coordinates": [
                    15.5876,
                    52.44167
                ]
            },
            "properties": {
                "isced:level": "3",
                "ref:rspo": 109133,
                "official_name": "Liceum Og\u00f3lnokszta\u0142c\u0105ce dla Doros\u0142ych",
                "name": "Liceum Og\u00f3lnokszta\u0142c\u0105ce dla Doros\u0142ych",
                "addr:postcode": "66-300",
                "addr:city": "Mi\u0119dzyrzecz",
                "addr:street": "Marcinkowskiego",
                "addr:housenumber": "26",
                "addr:city:simc": 935529,
                "addr:street:sym_ul": 12294,
                "phone": "+48 957429575",
                "email": "zsbmcz@onet.eu",
                "website": "http:\/\/www.zsb-miedzyrzecz.pl",
                "ref:regon": "080039698",
                "operator": "Powiat Mi\u0119dzyrzecki",
                "operator:type": "government",
                "amenity": "school",
                "note": "Parent RSPO: 127864"
            }
        },
        {
            "id": 109956,
            "type": "Feature",
            "geometry": {
                "type": "Point",
                "coordinates": [
                    15.5876,
                    52.44164
                ]
            },
            "properties": {
                "isced:level": "3",
                "ref:rspo": 109956,
                "official_name": "Bran\u017cowa Szko\u0142a I Stopnia",
                "name": "Bran\u017cowa Szko\u0142a I Stopnia",
                "addr:postcode": "66-300",
                "addr:city": "Mi\u0119dzyrzecz",
                "addr:street": "Marcinkowskiego",
                "addr:housenumber": "26",
                "addr:city:simc": 935529,
                "addr:street:sym_ul": 12294,
                "phone": "+48 957429575",
                "email": "ckziumcz@gmail.com",
                "website": "http:\/\/www.ckziumiedzyrzecz.com",
                "ref:regon": "211260077",
                "operator": "Powiat Mi\u0119dzyrzecki",
                "operator:type": "government",
                "amenity": "school",
                "note": "Parent RSPO: 127864"
            }
        },
        {
            "id": 84313,
            "type": "Feature",
            "geometry": {
                "type": "Point",
                "coordinates": [
                    15.57037,
                    52.4418
                ]
            },
            "properties": {
                "isced:level": "1;2",
                "ref:rspo": 84313,
                "official_name": "Szko\u0142a Podstawowa nr 3 im. Powsta\u0144c\u00f3w Wielkopolskich",
                "name": "Szko\u0142a Podstawowa nr 3",
                "addr:postcode": "66-300",
                "addr:city": "Mi\u0119dzyrzecz",
                "addr:street": "Adama Mickiewicza",
                "addr:housenumber": "5",
                "addr:city:simc": 935529,
                "addr:street:sym_ul": 12734,
                "email": "sp3@miedzyrzecz.pl",
                "website": "https:\/\/sp3mcz.edupage.org\/",
                "ref:regon": "210319182",
                "ref:vatin": "PL5961561446",
                "operator": "Gmina Mi\u0119dzyrzecz",
                "operator:type": "government",
                "amenity": "school"
            }
        },
        {
            "id": 120950,
            "type": "Feature",
            "geometry": {
                "type": "Point",
                "coordinates": [
                    15.57227,
                    52.44205
                ]
            },
            "properties": {
                "ref:rspo": 120950,
                "official_name": "Phu \"Wisa\" Zdzis\u0142aw Wierci\u0144ski - Przedszkole Niepubliczne \"T\u0119czowa Akademia\"",
                "name": "Phu \"Wisa\" Zdzis\u0142aw Wierci\u0144ski - Przedszkole Niepubliczne \"T\u0119czowa Akademia\"",
                "addr:postcode": "66-300",
                "addr:city": "Mi\u0119dzyrzecz",
                "addr:street": "Wojska Polskiego",
                "addr:housenumber": "9",
                "addr:city:simc": 935529,
                "addr:street:sym_ul": 24628,
                "email": "wisa@post.pl",
                "ref:regon": "081178002",
                "operator": "Zdzis\u0142aw Wierci\u0144ski",
                "operator:type": "private",
                "amenity": "kindergarten"
            }
        },
        {
            "id": 27023,
            "type": "Feature",
            "geometry": {
                "type": "Point",
                "coordinates": [
                    15.5815,
                    52.44243
                ]
            },
            "properties": {
                "ref:rspo": 27023,
                "official_name": "Pa\u0144stwowa Szko\u0142a Muzyczna I St. w Mi\u0119dzyrzeczu",
                "name": "Pa\u0144stwowa Szko\u0142a Muzyczna I St. w Mi\u0119dzyrzeczu",
                "addr:postcode": "66-300",
                "addr:city": "Mi\u0119dzyrzecz",
                "addr:street": "Osiedle Centrum",
                "addr:housenumber": "10",
                "addr:city:simc": 935529,
                "addr:street:sym_ul": 2617,
                "phone": "+48 957412444",
                "email": "sekretariat@psmmiedzyrzecz.pl",
                "website": "http:\/\/psmmiedzyrzecz.pl",
                "ref:regon": "210202310",
                "operator": "Ministerstwo Kultury I Dziedzictwa Narodowego",
                "operator:type": "government",
                "amenity": "music_school"
            }
        },
        {
            "id": 262938,
            "type": "Feature",
            "geometry": {
                "type": "Point",
                "coordinates": [
                    15.56572,
                    52.44309
                ]
            },
            "properties": {
                "isced:level": "1;2",
                "ref:rspo": 262938,
                "official_name": "Szko\u0142a Podstawowa nr 6 w Mi\u0119dzyrzeczu",
                "name": "Szko\u0142a Podstawowa nr 6 w Mi\u0119dzyrzeczu",
                "addr:postcode": "66-300",
                "addr:city": "Mi\u0119dzyrzecz",
                "addr:street": "Komisji Edukacji Narodowej",
                "addr:housenumber": "1",
                "addr:city:simc": 935529,
                "addr:street:sym_ul": 9066,
                "phone": "+48 957411846",
                "email": "sp6@miedzyrzecz.pl",
                "website": "http:\/\/www.sp6.miedzyrzecz.pl",
                "ref:regon": "368075671",
                "operator": "Gmina Mi\u0119dzyrzecz",
                "operator:type": "government",
                "amenity": "school"
            }
        },
        {
            "id": 120927,
            "type": "Feature",
            "geometry": {
                "type": "Point",
                "coordinates": [
                    15.57851,
                    52.44314
                ]
            },
            "properties": {
                "ref:rspo": 120927,
                "official_name": "Niepubliczne Przedszkole \"Jutrzenka\"",
                "name": "Niepubliczne Przedszkole \"Jutrzenka\"",
                "addr:postcode": "66-300",
                "addr:city": "Mi\u0119dzyrzecz",
                "addr:street": "Spokojna",
                "addr:housenumber": "6",
                "addr:city:simc": 935529,
                "addr:street:sym_ul": 20677,
                "phone": "+48 914225544",
                "email": "sekretariat@polskoamerykanska.pl",
                "ref:regon": "081177221",
                "operator": "Polsko-Ameryka\u0144skie Szko\u0142y Prywatne Sp\u00f3\u0142ka Z Ograniczon\u0105 Odpowiedzialno\u015bci\u0105",
                "operator:type": "private",
                "amenity": "kindergarten"
            }
        },
        {
            "id": 84319,
            "type": "Feature",
            "geometry": {
                "type": "Point",
                "coordinates": [
                    15.580769538879,
                    52.443271636963
                ]
            },
            "properties": {
                "isced:level": "1;2",
                "ref:rspo": 84319,
                "official_name": "Szko\u0142a Podstawowa nr 4 w Mi\u0119dzyrzeczu",
                "name": "Szko\u0142a Podstawowa nr 4 w Mi\u0119dzyrzeczu",
                "addr:postcode": "66-300",
                "addr:city": "Mi\u0119dzyrzecz",
                "addr:street": "D\u0142uga",
                "addr:housenumber": "102",
                "addr:city:simc": 935529,
                "addr:street:sym_ul": 3839,
                "phone": "+48 957418020",
                "email": "sp4@miedzyrzecz.pl",
                "ref:regon": "210319199",
                "ref:vatin": "PL5961561386",
                "operator": "Gmina Mi\u0119dzyrzecz",
                "operator:type": "government",
                "amenity": "school"
            }
        },
        {
            "id": 84311,
            "type": "Feature",
            "geometry": {
                "type": "Point",
                "coordinates": [
                    15.56958,
                    52.44329
                ]
            },
            "properties": {
                "ref:rspo": 84311,
                "official_name": "Przedszkole nr 4 \"Bajkowa Kraina\"",
                "name": "Przedszkole nr 4 \"Bajkowa Kraina\"",
                "addr:postcode": "66-300",
                "addr:city": "Mi\u0119dzyrzecz",
                "addr:street": "Zachodnia",
                "addr:housenumber": "8",
                "addr:city:simc": 935529,
                "addr:street:sym_ul": 25305,
                "phone": "+48 957412469",
                "email": "p4@miedzyrzecz.pl",
                "ref:regon": "210013804",
                "ref:vatin": "PL5961561558",
                "operator": "Gmina Mi\u0119dzyrzecz",
                "operator:type": "government",
                "amenity": "kindergarten"
            }
        },
        {
            "id": 120951,
            "type": "Feature",
            "geometry": {
                "type": "Point",
                "coordinates": [
                    15.58038,
                    52.4443
                ]
            },
            "properties": {
                "ref:rspo": 120951,
                "official_name": "Niepubliczne Przedszkole \"Bajkowy Zak\u0105tek\" S.c. Justyna Szmyt, Monika Pilipczuk",
                "name": "Niepubliczne Przedszkole \"Bajkowy Zak\u0105tek\" S.c. Justyna Szmyt, Monika Pilipczuk",
                "addr:postcode": "66-300",
                "addr:city": "Mi\u0119dzyrzecz",
                "addr:street": "\u015aciegiennego",
                "addr:housenumber": "1",
                "addr:city:simc": 935529,
                "addr:street:sym_ul": 22288,
                "phone": "+48 604948399",
                "email": "bajkowy-zakatek@wp.pl",
                "ref:regon": "081178025",
                "operator": "Justyna Szmyt",
                "operator:type": "private",
                "amenity": "kindergarten"
            }
        },
        {
            "id": 132646,
            "type": "Feature",
            "geometry": {
                "type": "Point",
                "coordinates": [
                    15.57793,
                    52.44439
                ]
            },
            "properties": {
                "ref:rspo": 132646,
                "official_name": "Phu Przedszkole Niepubliczne \"Bocianie Gniazdo\" B\u0142a\u017cej \u015awi\u0105tkiewicz",
                "name": "Phu Przedszkole Niepubliczne \"Bocianie Gniazdo\" B\u0142a\u017cej \u015awi\u0105tkiewicz",
                "addr:postcode": "66-300",
                "addr:city": "Mi\u0119dzyrzecz",
                "addr:street": "Mieszka I",
                "addr:housenumber": "49",
                "addr:city:simc": 935529,
                "addr:street:sym_ul": 12832,
                "phone": "+48 691161312",
                "email": "przedszkole.bocianie@o2.pl",
                "website": "http:\/\/www.przedszkolebocianiegniazdo.pl",
                "ref:regon": "365967736",
                "operator": "B\u0142a\u017cej \u015awi\u0105tkiewicz",
                "operator:type": "private",
                "amenity": "kindergarten"
            }
        },
        {
            "id": 84320,
            "type": "Feature",
            "geometry": {
                "type": "Point",
                "coordinates": [
                    15.58569,
                    52.44504
                ]
            },
            "properties": {
                "isced:level": "1;2",
                "ref:rspo": 84320,
                "official_name": "Szko\u0142a Podstawowa nr 2 im. Szarych Szereg\u00f3w w Mi\u0119dzyrzeczu",
                "name": "Szko\u0142a Podstawowa nr 2",
                "addr:postcode": "66-300",
                "addr:city": "Mi\u0119dzyrzecz",
                "addr:street": "Sportowa",
                "addr:housenumber": "1",
                "addr:city:simc": 935529,
                "addr:street:sym_ul": 20683,
                "phone": "+48 957412477",
                "email": "sp2@miedzyrzecz.pl",
                "website": "https:\/\/sp2miedzyrzecz.edupage.org\/",
                "ref:regon": "210319160",
                "ref:vatin": "PL5961561400",
                "operator": "Gmina Mi\u0119dzyrzecz",
                "operator:type": "government",
                "amenity": "school"
            }
        },
        {
            "id": 41292,
            "type": "Feature",
            "geometry": {
                "type": "Point",
                "coordinates": [
                    15.64071,
                    52.44536
                ]
            },
            "properties": {
                "ref:rspo": 41292,
                "official_name": "Zesp\u00f3\u0142 Szk\u00f3\u0142 Centrum Kszta\u0142cenia Rolniczego im. Zes\u0142a\u0144c\u00f3w Sybiru w Bobowicku",
                "name": "Zesp\u00f3\u0142 Szk\u00f3\u0142 Centrum Kszta\u0142cenia Rolniczego",
                "addr:postcode": "66-300",
                "addr:city": "Bobowicko",
                "addr:street": "Mi\u0119dzyrzecka",
                "addr:housenumber": "7",
                "addr:city:simc": 183928,
                "addr:street:sym_ul": 12860,
                "phone": "+48 957413218",
                "email": "zsckr-bobowicko@wp.pl",
                "website": "http:\/\/www.bobowicko.pl",
                "ref:regon": "000096543",
                "ref:vatin": "PL5961050881",
                "operator": "Ministerstwo Rolnictwa I Rozwoju Wsi",
                "operator:type": "government",
                "landuse": "education",
                "fixme": "amenity=school, amenity=college albo landuse=education w zale\u017cno\u015bci od tego, jakie plac\u00f3wki wchodz\u0105 w sk\u0142ad zespo\u0142u. Sprawd\u017a, kiedy stosowa\u0107 amenity=* a kiedy landuse=education.",
                "note": "Children RSPO: 72046;80857;80858;80859"
            }
        },
        {
            "id": 72046,
            "type": "Feature",
            "geometry": {
                "type": "Point",
                "coordinates": [
                    15.64071,
                    52.44533
                ]
            },
            "properties": {
                "isced:level": "3",
                "ref:rspo": 72046,
                "official_name": "Technikum w Bobowicku",
                "name": "Technikum w Bobowicku",
                "addr:postcode": "66-300",
                "addr:city": "Bobowicko",
                "addr:street": "Mi\u0119dzyrzecka",
                "addr:housenumber": "7",
                "addr:city:simc": 183928,
                "addr:street:sym_ul": 12860,
                "phone": "+48 957413218",
                "email": "zsckr-bobowicko@wp.pl",
                "website": "http:\/\/ww.bobowicko.pl",
                "ref:regon": "211249680",
                "operator": "Ministerstwo Rolnictwa I Rozwoju Wsi",
                "operator:type": "government",
                "amenity": "school",
                "note": "Parent RSPO: 41292"
            }
        },
        {
            "id": 80857,
            "type": "Feature",
            "geometry": {
                "type": "Point",
                "coordinates": [
                    15.64071,
                    52.4453
                ]
            },
            "properties": {
                "isced:level": "3",
                "ref:rspo": 80857,
                "official_name": "Bran\u017cowa Szko\u0142a I Stopnia w Bobowicku",
                "name": "Bran\u017cowa Szko\u0142a I Stopnia w Bobowicku",
                "addr:postcode": "66-300",
                "addr:city": "Bobowicko",
                "addr:street": "Mi\u0119dzyrzecka",
                "addr:housenumber": "7",
                "addr:city:simc": 183928,
                "addr:street:sym_ul": 12860,
                "phone": "+48 957413218",
                "email": "zsckr-bobowicko@wp.pl",
                "website": "http:\/\/www.bobowicko.pl",
                "ref:regon": "081086990",
                "operator": "Ministerstwo Rolnictwa I Rozwoju Wsi",
                "operator:type": "government",
                "amenity": "school",
                "note": "Parent RSPO: 41292"
            }
        },
        {
            "id": 80858,
            "type": "Feature",
            "geometry": {
                "type": "Point",
                "coordinates": [
                    15.64071,
                    52.44527
                ]
            },
            "properties": {
                "isced:level": "4",
                "ref:rspo": 80858,
                "official_name": "Szko\u0142a Policealna w Bobowicku",
                "name": "Szko\u0142a Policealna w Bobowicku",
                "addr:postcode": "66-300",
                "addr:city": "Bobowicko",
                "addr:street": "Mi\u0119dzyrzecka",
                "addr:housenumber": "7",
                "addr:city:simc": 183928,
                "addr:street:sym_ul": 12860,
                "phone": "+48 957413218",
                "email": "zsckr-bobowicko@wp.pl",
                "website": "http:\/\/www.bobowicko.pl",
                "ref:regon": "081087038",
                "operator": "Ministerstwo Rolnictwa I Rozwoju Wsi",
                "operator:type": "government",
                "amenity": "college",
                "note": "Parent RSPO: 41292"
            }
        },
        {
            "id": 80859,
            "type": "Feature",
            "geometry": {
                "type": "Point",
                "coordinates": [
                    15.64071,
                    52.44524
                ]
            },
            "properties": {
                "ref:rspo": 80859,
                "official_name": "Centrum Kszta\u0142cenia Ustawicznego w Bobowicku",
                "name": "Centrum Kszta\u0142cenia Ustawicznego w Bobowicku",
                "addr:postcode": "66-300",
                "addr:city": "Bobowicko",
                "addr:street": "Mi\u0119dzyrzecka",
                "addr:housenumber": "7",
                "addr:city:simc": 183928,
                "addr:street:sym_ul": 12860,
                "phone": "+48 957413218",
                "email": "zsckr-bobowicko@wp.pl",
                "website": "http:\/\/www.bobowicko.pl",
                "ref:regon": "081086961",
                "operator": "Ministerstwo Rolnictwa I Rozwoju Wsi",
                "operator:type": "government",
                "fixme": "w zale\u017cno\u015bci od przedmiotu dzia\u0142alno\u015bci (np. amenity=training + training=*, amenity=dancing_school, amenity=language_school, amenity=music_school)",
                "note": "Parent RSPO: 41292"
            }
        },
        {
            "id": 90938,
            "type": "Feature",
            "geometry": {
                "type": "Point",
                "coordinates": [
                    15.58488,
                    52.44561
                ]
            },
            "properties": {
                "ref:rspo": 90938,
                "official_name": "Poradnia Psychologiczno - Pedagogiczna w Mi\u0119dzyrzeczu",
                "name": "Poradnia Psychologiczno - Pedagogiczna w Mi\u0119dzyrzeczu",
                "addr:postcode": "66-300",
                "addr:city": "Mi\u0119dzyrzecz",
                "addr:street": "Mieczys\u0142awa Miku\u0142y",
                "addr:housenumber": "1",
                "addr:city:simc": 935529,
                "addr:street:sym_ul": 41051,
                "phone": "+48 504057487",
                "email": "poradnia@poczta.fm",
                "website": "http:\/\/www.miedzyrzecz.ppp1.bip.net.pl",
                "ref:regon": "000711899",
                "ref:vatin": "PL5961525108",
                "operator": "Powiat Mi\u0119dzyrzecki",
                "operator:type": "government",
                "healthcare": "counselling",
                "counselling_type": "education",
                "fixme": "w zale\u017cno\u015bci od przedmiotu dzia\u0142alno\u015bci (np. healthcare=counselling + counselling_type=education albo healthcare=psychotherapist)"
            }
        },
        {
            "id": 120618,
            "type": "Feature",
            "geometry": {
                "type": "Point",
                "coordinates": [
                    15.58413,
                    52.44569
                ]
            },
            "properties": {
                "isced:level": "3",
                "ref:rspo": 120618,
                "official_name": "Bran\u017cowa Szko\u0142a I Stopnia",
                "name": "Bran\u017cowa Szko\u0142a I Stopnia",
                "addr:postcode": "66-300",
                "addr:city": "Mi\u0119dzyrzecz",
                "addr:street": "Stanis\u0142awa Staszica",
                "addr:housenumber": "20",
                "addr:city:simc": 935529,
                "addr:street:sym_ul": 21065,
                "phone": "+48 957431266",
                "email": "trzcielzs@gmail.com",
                "website": "http:\/\/www.trzcielpogim.szkolnastrona.pl",
                "ref:regon": "081169670",
                "operator": "Wojew\u00f3dzki Zak\u0142ad Doskonalenia Zawodowego W Gorzowie Wlkp.",
                "operator:type": "ngo",
                "amenity": "school"
            }
        },
        {
            "id": 120678,
            "type": "Feature",
            "geometry": {
                "type": "Point",
                "coordinates": [
                    15.58413,
                    52.44566
                ]
            },
            "properties": {
                "isced:level": "3",
                "ref:rspo": 120678,
                "official_name": "Liceum Og\u00f3lnokszta\u0142c\u0105ce dla Doros\u0142ych",
                "name": "Liceum Og\u00f3lnokszta\u0142c\u0105ce dla Doros\u0142ych",
                "addr:postcode": "66-300",
                "addr:city": "Mi\u0119dzyrzecz",
                "addr:street": "Stanis\u0142awa Staszica",
                "addr:housenumber": "20",
                "addr:city:simc": 935529,
                "addr:street:sym_ul": 21065,
                "phone": "+48 957431266",
                "email": "trzcielzs@gmail.com",
                "website": "http:\/\/www.trzcielpogim.szkolnastrona.pl",
                "ref:regon": "081170822",
                "operator": "Wojew\u00f3dzki Zak\u0142ad Doskonalenia Zawodowego W Gorzowie Wlkp.",
                "operator:type": "ngo",
                "amenity": "school"
            }
        },
        {
            "id": 263589,
            "type": "Feature",
            "geometry": {
                "type": "Point",
                "coordinates": [
                    15.58413,
                    52.44563
                ]
            },
            "properties": {
                "isced:level": "1;2",
                "ref:rspo": 263589,
                "official_name": "Szko\u0142a Podstawowa dla Doros\u0142ych",
                "name": "Szko\u0142a Podstawowa dla Doros\u0142ych",
                "addr:postcode": "66-300",
                "addr:city": "Mi\u0119dzyrzecz",
                "addr:street": "Stanis\u0142awa Staszica",
                "addr:housenumber": "20",
                "addr:city:simc": 935529,
                "addr:street:sym_ul": 21065,
                "phone": "+48 957431266",
                "email": "trzcielzs@gmail.com",
                "website": "http:\/\/trzcielpogim.szkolnastrona.pl",
                "ref:regon": "368207470",
                "operator": "Wojew\u00f3dzki Zak\u0142ad Doskonalenia Zawodowego W Gorzowie Wlkp.",
                "operator:type": "ngo",
                "amenity": "school"
            }
        },
        {
            "id": 262934,
            "type": "Feature",
            "geometry": {
                "type": "Point",
                "coordinates": [
                    15.5829,
                    52.44591
                ]
            },
            "properties": {
                "isced:level": "1;2",
                "ref:rspo": 262934,
                "official_name": "Szko\u0142a Podstawowa nr 1 z Oddzia\u0142ami Sportowymi w Mi\u0119dzyrzeczu",
                "name": "Szko\u0142a Podstawowa nr 1 z Oddzia\u0142ami Sportowymi w Mi\u0119dzyrzeczu",
                "addr:postcode": "66-300",
                "addr:city": "Mi\u0119dzyrzecz",
                "addr:street": "Stanis\u0142awa Staszica",
                "addr:housenumber": "22A",
                "addr:city:simc": 935529,
                "addr:street:sym_ul": 21065,
                "email": "sp1@miedzyrzecz.pl",
                "website": "http:\/\/www.jedynka-miedzyrzecz.edupage.org",
                "ref:regon": "368075381",
                "ref:vatin": "PL5961755512",
                "operator": "Gmina Mi\u0119dzyrzecz",
                "operator:type": "government",
                "amenity": "school"
            }
        },
        {
            "id": 58793,
            "type": "Feature",
            "geometry": {
                "type": "Point",
                "coordinates": [
                    15.58259,
                    52.44598
                ]
            },
            "properties": {
                "isced:level": "3",
                "ref:rspo": 58793,
                "official_name": "Liceum Og\u00f3lnokszta\u0142c\u0105ce im. Heliodora \u015awi\u0119cickiego",
                "name": "Liceum Og\u00f3lnokszta\u0142c\u0105ce",
                "addr:postcode": "66-300",
                "addr:city": "Mi\u0119dzyrzecz",
                "addr:street": "Stanis\u0142awa Staszica",
                "addr:housenumber": "22B",
                "addr:city:simc": 935529,
                "addr:street:sym_ul": 21065,
                "phone": "+48 957412588",
                "email": "lo_mcz@o2.pl",
                "website": "http:\/\/www.lo-miedzyrzecz.pl",
                "ref:regon": "000229560",
                "ref:vatin": "PL5961546547",
                "operator": "Powiat Mi\u0119dzyrzecki",
                "operator:type": "government",
                "amenity": "school"
            }
        },
        {
            "id": 106833,
            "type": "Feature",
            "geometry": {
                "type": "Point",
                "coordinates": [
                    15.5762,
                    52.44603
                ]
            },
            "properties": {
                "isced:level": "4",
                "ref:rspo": 106833,
                "official_name": "Policealne Studium Academica",
                "name": "Policealne Studium Academica",
                "addr:postcode": "66-300",
                "addr:city": "Mi\u0119dzyrzecz",
                "addr:street": "Ogrodowa",
                "addr:housenumber": "5",
                "addr:city:simc": 935529,
                "addr:street:sym_ul": 14834,
                "phone": "+48 692316872",
                "email": "dyrektor@studium-academica.pl",
                "website": "http:\/\/www.studium-academica.pl",
                "ref:regon": "081105859",
                "ref:vatin": "PL5961222916",
                "operator": "Justyna Proske",
                "operator:type": "private",
                "amenity": "college"
            }
        },
        {
            "id": 132647,
            "type": "Feature",
            "geometry": {
                "type": "Point",
                "coordinates": [
                    15.61424,
                    52.44646
                ]
            },
            "properties": {
                "ref:rspo": 132647,
                "official_name": "Niepubliczne Przedszkole \"Bajkowy Dworek\"",
                "name": "Niepubliczne Przedszkole \"Bajkowy Dworek\"",
                "addr:postcode": "66-300",
                "addr:city": "Mi\u0119dzyrzecz",
                "addr:street": "Pozna\u0144ska",
                "addr:housenumber": "79",
                "addr:city:simc": 935529,
                "addr:street:sym_ul": 17394,
                "phone": "+48 698687936",
                "ref:regon": "365967624",
                "operator": "Robert Zi\u0119bakowski",
                "operator:type": "private",
                "amenity": "kindergarten"
            }
        },
        {
            "id": 84310,
            "type": "Feature",
            "geometry": {
                "type": "Point",
                "coordinates": [
                    15.58023,
                    52.44887
                ]
            },
            "properties": {
                "ref:rspo": 84310,
                "official_name": "Przedszkole nr 1 z Grupami \u017b\u0142obkowymi \"Pod Jarz\u0119bink\u0105\"",
                "name": "Przedszkole nr 1 z Grupami \u017b\u0142obkowymi \"Pod Jarz\u0119bink\u0105\"",
                "addr:postcode": "66-300",
                "addr:city": "Mi\u0119dzyrzecz",
                "addr:street": "Doktora Tadeusza Podbielskiego",
                "addr:housenumber": "5",
                "addr:city:simc": 935529,
                "addr:street:sym_ul": 38368,
                "phone": "+48 533392701",
                "email": "p1@miedzyrzecz.pl",
                "website": "http:\/\/jarzebinakmiedzyrzecz.edupage.org",
                "ref:regon": "210299605",
                "ref:vatin": "PL5961561535",
                "operator": "Gmina Mi\u0119dzyrzecz",
                "operator:type": "government",
                "amenity": "kindergarten"
            }
        },
        {
            "id": 120677,
            "type": "Feature",
            "geometry": {
                "type": "Point",
                "coordinates": [
                    15.57705,
                    52.44926
                ]
            },
            "properties": {
                "isced:level": "4",
                "ref:rspo": 120677,
                "official_name": "Policealna Szko\u0142a Zawodowa Awans",
                "name": "Policealna Szko\u0142a Zawodowa Awans",
                "addr:postcode": "66-300",
                "addr:city": "Mi\u0119dzyrzecz",
                "addr:street": "Libelta",
                "addr:housenumber": "4",
                "addr:city:simc": 935529,
                "addr:street:sym_ul": 11020,
                "phone": "+48 957411989",
                "email": "michalskamaria@op.pl",
                "website": "http:\/\/www.awans-mcz.edu.pl",
                "ref:regon": "081170816",
                "operator": "Maria Michalska",
                "operator:type": "private",
                "amenity": "college"
            }
        },
        {
            "id": 107482,
            "type": "Feature",
            "geometry": {
                "type": "Point",
                "coordinates": [
                    15.57705,
                    52.44923
                ]
            },
            "properties": {
                "isced:level": "3",
                "ref:rspo": 107482,
                "official_name": "Technikum nr 1 im. Stanis\u0142awa Staszica",
                "name": "Technikum nr 1",
                "addr:postcode": "66-300",
                "addr:city": "Mi\u0119dzyrzecz",
                "addr:street": "Libelta",
                "addr:housenumber": "4",
                "addr:city:simc": 935529,
                "addr:street:sym_ul": 11020,
                "phone": "+48 957411989",
                "website": "http:\/\/www.zse-miedzyrzecz.pl",
                "ref:regon": "211238273",
                "operator": "Powiat Mi\u0119dzyrzecki",
                "operator:type": "government",
                "amenity": "school",
                "note": "Parent RSPO: 127864"
            }
        }
    ]
}