{
    "type": "FeatureCollection",
    "features": [
        {
            "id": 82839,
            "type": "Feature",
            "geometry": {
                "type": "Point",
                "coordinates": [
                    15.392335,
                    52.4413709
                ]
            },
            "properties": {
                "isced:level": "1;2",
                "ref:rspo": 82839,
                "official_name": "Szko\u0142a Podstawowa w Templewie",
                "name": "Szko\u0142a Podstawowa w Templewie",
                "addr:country": "PL",
                "addr:postcode": "66-350",
                "addr:place": "Templewo",
                "addr:housenumber": "65",
                "addr:teryt:sym_ul": 178650,
                "contact:phone": "+48 957429915",
                "contact:email": "sptemplewo@tlen.pl",
                "contact:website": "http:\/\/www.sptemplewo.eu",
                "ref:regon": "210329602",
                "ref:vatin": "PL5961561699",
                "operator": "Gmina Bledzew",
                "operator:type": "government",
                "amenity": "school"
            }
        },
        {
            "id": 78197,
            "type": "Feature",
            "geometry": {
                "type": "Point",
                "coordinates": [
                    15.4095,
                    52.51458
                ]
            },
            "properties": {
                "isced:level": "1;2",
                "ref:rspo": 78197,
                "official_name": "Szko\u0142a Podstawowa im. Jana Dekerta w Bledzewie",
                "name": "Szko\u0142a Podstawowa",
                "addr:country": "PL",
                "addr:postcode": "66-350",
                "addr:city": "Bledzew",
                "addr:street": "Szkolna",
                "addr:housenumber": "9",
                "addr:teryt:simc": 21970,
                "addr:teryt:sym_ul": 178465,
                "contact:phone": "+48 957429920",
                "contact:email": "spbledzew@wp.pl",
                "contact:website": "http:\/\/spbledzew.witrynaszkolna.pl",
                "ref:regon": "210329571",
                "ref:vatin": "PL5961550046",
                "operator": "Gmina Bledzew",
                "operator:type": "government",
                "amenity": "school"
            }
        },
        {
            "id": 110143,
            "type": "Feature",
            "geometry": {
                "type": "Point",
                "coordinates": [
                    15.4095,
                    52.51455
                ]
            },
            "properties": {
                "ref:rspo": 110143,
                "official_name": "Punkt Przedszkolny w Nowej Wsi",
                "name": "Punkt Przedszkolny w Nowej Wsi",
                "addr:country": "PL",
                "addr:postcode": "66-350",
                "addr:city": "Bledzew",
                "addr:street": "Szkolna",
                "addr:housenumber": "9",
                "addr:teryt:simc": 21970,
                "addr:teryt:sym_ul": 178465,
                "contact:phone": "+48 957436621",
                "contact:email": "przedszkolebledzew@wp.pl",
                "contact:website": "http:\/\/www.przedszkolebledzew.edupage.org",
                "ref:regon": "081114539",
                "operator": "Gmina Bledzew",
                "operator:type": "government",
                "amenity": "kindergarten"
            }
        },
        {
            "id": 82932,
            "type": "Feature",
            "geometry": {
                "type": "Point",
                "coordinates": [
                    15.41301,
                    52.52079
                ]
            },
            "properties": {
                "ref:rspo": 82932,
                "official_name": "Przedszkole Gminne w Bledzewie",
                "name": "Przedszkole Gminne w Bledzewie",
                "addr:country": "PL",
                "addr:postcode": "66-350",
                "addr:city": "Bledzew",
                "addr:street": "Tadeusza Ko\u015bciuszki",
                "addr:housenumber": "17",
                "addr:teryt:simc": 9582,
                "addr:teryt:sym_ul": 178465,
                "contact:phone": "+48 957436621",
                "contact:email": "przedszkolebledzew@wp.pl",
                "contact:website": "http:\/\/www.przedszkolebledzew.edupage.org",
                "ref:regon": "210516008",
                "ref:vatin": "PL5961564226",
                "operator": "Gmina Bledzew",
                "operator:type": "government",
                "amenity": "kindergarten"
            }
        },
        {
            "id": 110145,
            "type": "Feature",
            "geometry": {
                "type": "Point",
                "coordinates": [
                    15.435148,
                    52.5579229
                ]
            },
            "properties": {
                "ref:rspo": 110145,
                "official_name": "Punkt Przedszkolny w Starym Dworku",
                "name": "Punkt Przedszkolny w Starym Dworku",
                "addr:country": "PL",
                "addr:postcode": "66-350",
                "addr:place": "Stary Dworek",
                "addr:housenumber": "149\/1",
                "addr:teryt:sym_ul": 178614,
                "contact:phone": "+48 957436621",
                "ref:regon": "081114551",
                "operator": "Gmina Bledzew",
                "operator:type": "government",
                "amenity": "kindergarten"
            }
        }
    ]
}