{
    "type": "FeatureCollection",
    "features": [
        {
            "id": 6110,
            "type": "Feature",
            "geometry": {
                "type": "Point",
                "coordinates": [
                    15.66833,
                    52.31337
                ]
            },
            "properties": {
                "ref:rspo": 6110,
                "official_name": "Zespo\u0142 Edukacyjny w Br\u00f3jcach",
                "name": "Zespo\u0142 Edukacyjny w Br\u00f3jcach",
                "addr:country": "PL",
                "addr:postcode": "66-304",
                "addr:city": "Br\u00f3jce",
                "addr:street": "ul. Polna",
                "addr:housenumber": "6",
                "addr:teryt:simc": 17011,
                "addr:teryt:sym_ul": 188021,
                "contact:phone": "+48 957434110",
                "contact:email": "ze.spbrojce@ze-brojce.pl",
                "contact:website": "http:\/\/www.ze-brojce.pl\/",
                "ref:regon": "080118280",
                "ref:vatin": "PL5961669787",
                "operator": "Gmina Trzciel",
                "operator:type": "government",
                "landuse": "education",
                "fixme": "amenity=school, amenity=college albo landuse=education w zale\u017cno\u015bci od tego, jakie plac\u00f3wki wchodz\u0105 w sk\u0142ad zespo\u0142u. Sprawd\u017a, kiedy stosowa\u0107 amenity=* a kiedy landuse=education.",
                "note": "Children RSPO: 7309;7319"
            }
        },
        {
            "id": 7309,
            "type": "Feature",
            "geometry": {
                "type": "Point",
                "coordinates": [
                    15.66833,
                    52.31334
                ]
            },
            "properties": {
                "ref:rspo": 7309,
                "official_name": "Zesp\u00f3\u0142 Edukacyjny w Br\u00f3jcach Przedszkole im. Janusza Korczaka w Br\u00f3jcach",
                "name": "Zesp\u00f3\u0142 Edukacyjny w Br\u00f3jcach Przedszkole",
                "addr:country": "PL",
                "addr:postcode": "66-304",
                "addr:city": "Br\u00f3jce",
                "addr:street": "ul. Polna",
                "addr:housenumber": "6",
                "addr:teryt:simc": 17011,
                "addr:teryt:sym_ul": 188021,
                "contact:phone": "+48 957434110",
                "contact:email": "ze.brojce@wp.pl",
                "contact:website": "http:\/\/www.ze-brojce.pl",
                "ref:regon": "210517746",
                "ref:vatin": "PL5961558450",
                "operator": "Gmina Trzciel",
                "operator:type": "government",
                "amenity": "kindergarten",
                "note": "Parent RSPO: 6110"
            }
        },
        {
            "id": 7319,
            "type": "Feature",
            "geometry": {
                "type": "Point",
                "coordinates": [
                    15.66833,
                    52.31331
                ]
            },
            "properties": {
                "isced:level": "1;2",
                "ref:rspo": 7319,
                "official_name": "Zesp\u00f3\u0142 Edukacyjny w Br\u00f3jcach Szko\u0142a Podstawowa im. Tadeusza Ko\u015bciuszki w Br\u00f3jcach",
                "name": "Zesp\u00f3\u0142 Edukacyjny w Br\u00f3jcach Szko\u0142a Podstawowa",
                "addr:country": "PL",
                "addr:postcode": "66-304",
                "addr:city": "Br\u00f3jce",
                "addr:street": "ul. Polna",
                "addr:housenumber": "6",
                "addr:teryt:simc": 17011,
                "addr:teryt:sym_ul": 188021,
                "contact:phone": "+48 957434110",
                "contact:email": "ze.brojce@wp.pl",
                "contact:website": "http:\/\/www.ze-brojce.pl",
                "ref:regon": "210303086",
                "ref:vatin": "PL5961561475",
                "operator": "Gmina Trzciel",
                "operator:type": "government",
                "amenity": "school",
                "note": "Parent RSPO: 6110"
            }
        },
        {
            "id": 269157,
            "type": "Feature",
            "geometry": {
                "type": "Point",
                "coordinates": [
                    15.71961,
                    52.33215
                ]
            },
            "properties": {
                "ref:rspo": 269157,
                "official_name": "Niepubliczny Punkt Przedszkolny \"Kolorowy Zak\u0105tek\"",
                "name": "Niepubliczny Punkt Przedszkolny \"Kolorowy Zak\u0105tek\"",
                "addr:country": "PL",
                "addr:postcode": "66-304",
                "addr:place": "Lutol Suchy",
                "addr:housenumber": "73",
                "addr:teryt:sym_ul": 188096,
                "contact:email": "kolorowyzakatek@onet.eu",
                "ref:regon": "381388109",
                "ref:vatin": "PL5961759556",
                "operator": "Paulina Jakimczuk",
                "operator:type": "private",
                "amenity": "kindergarten"
            }
        },
        {
            "id": 131868,
            "type": "Feature",
            "geometry": {
                "type": "Point",
                "coordinates": [
                    15.87386,
                    52.3651399
                ]
            },
            "properties": {
                "isced:level": "3",
                "ref:rspo": 131868,
                "official_name": "Technikum",
                "name": "Technikum",
                "addr:country": "PL",
                "addr:postcode": "66-320",
                "addr:city": "Trzciel",
                "addr:street": "ul. Armii Czerwonej",
                "addr:housenumber": "8",
                "addr:teryt:simc": 427,
                "addr:teryt:sym_ul": 935771,
                "contact:phone": "+48 957431266",
                "contact:email": "trzcielzs@gmail.com",
                "ref:regon": "365369768",
                "operator": "Wojew\u00f3dzki Zak\u0142ad Doskonalenia Zawodowego W Gorzowie Wlkp.",
                "operator:type": "ngo",
                "amenity": "school"
            }
        },
        {
            "id": 6124,
            "type": "Feature",
            "geometry": {
                "type": "Point",
                "coordinates": [
                    15.87117,
                    52.3674
                ]
            },
            "properties": {
                "ref:rspo": 6124,
                "official_name": "Zesp\u00f3\u0142 Edukacyjny w Trzcielu",
                "name": "Zesp\u00f3\u0142 Edukacyjny w Trzcielu",
                "addr:country": "PL",
                "addr:postcode": "66-320",
                "addr:city": "Trzciel",
                "addr:street": "ul. Ko\u015bciuszki",
                "addr:housenumber": "21",
                "addr:teryt:simc": 9572,
                "addr:teryt:sym_ul": 935771,
                "contact:phone": "+48 957431218",
                "contact:email": "zetrzciel@zetrzciel.szkolnastrona.pl",
                "contact:website": "http:\/\/www.zetrzciel.szkolnastrona.pl\/",
                "ref:regon": "080646560",
                "ref:vatin": "PL5961743070",
                "operator": "Gmina Trzciel",
                "operator:type": "government",
                "landuse": "education",
                "fixme": "amenity=school, amenity=college albo landuse=education w zale\u017cno\u015bci od tego, jakie plac\u00f3wki wchodz\u0105 w sk\u0142ad zespo\u0142u. Sprawd\u017a, kiedy stosowa\u0107 amenity=* a kiedy landuse=education.",
                "note": "Children RSPO: 7888;7889"
            }
        },
        {
            "id": 7888,
            "type": "Feature",
            "geometry": {
                "type": "Point",
                "coordinates": [
                    15.87117,
                    52.36737
                ]
            },
            "properties": {
                "isced:level": "1;2",
                "ref:rspo": 7888,
                "official_name": "Zesp\u00f3\u0142 Edukacyny w Trzcielu Szko\u0142a Podstawowa im. Mjr.h.dobrza\u0144skiego \"Hubala\"",
                "name": "Zesp\u00f3\u0142 Edukacyny w Trzcielu Szko\u0142a Podstawowa",
                "addr:country": "PL",
                "addr:postcode": "66-320",
                "addr:city": "Trzciel",
                "addr:street": "ul. Ko\u015bciuszki",
                "addr:housenumber": "21",
                "addr:teryt:simc": 9572,
                "addr:teryt:sym_ul": 935771,
                "contact:phone": "+48 957431218",
                "contact:email": "zetrzciel@zetrzciel.szkolnastrona.pl",
                "contact:website": "http:\/\/www.zetrzciel.szkolnastrona.pl",
                "ref:regon": "211191637",
                "ref:vatin": "PL5961591022",
                "operator": "Gmina Trzciel",
                "operator:type": "government",
                "amenity": "school",
                "note": "Parent RSPO: 6124"
            }
        },
        {
            "id": 7889,
            "type": "Feature",
            "geometry": {
                "type": "Point",
                "coordinates": [
                    15.87117,
                    52.367340000000006
                ]
            },
            "properties": {
                "ref:rspo": 7889,
                "official_name": "Zesp\u00f3\u0142 Edukacyjny w Trzcielu Przedszkole Bajkowe",
                "name": "Zesp\u00f3\u0142 Edukacyjny w Trzcielu Przedszkole Bajkowe",
                "addr:country": "PL",
                "addr:postcode": "66-320",
                "addr:city": "Trzciel",
                "addr:street": "ul. Ko\u015bciuszki",
                "addr:housenumber": "21",
                "addr:teryt:simc": 9572,
                "addr:teryt:sym_ul": 935771,
                "contact:phone": "+48 957431218",
                "contact:email": "zetrzciel@zetrzciel.szkolnastrona.pl",
                "contact:website": "http:\/\/www.zetrzciel.szkolnastrona.pl",
                "ref:regon": "210517769",
                "ref:vatin": "PL5961558504",
                "operator": "Gmina Trzciel",
                "operator:type": "government",
                "amenity": "kindergarten",
                "note": "Parent RSPO: 6124"
            }
        },
        {
            "id": 265979,
            "type": "Feature",
            "geometry": {
                "type": "Point",
                "coordinates": [
                    15.866849899292,
                    52.368839263916
                ]
            },
            "properties": {
                "ref:rspo": 265979,
                "official_name": "O\u015brodek Kszta\u0142cenia Zawodowego",
                "name": "O\u015brodek Kszta\u0142cenia Zawodowego",
                "addr:country": "PL",
                "addr:postcode": "66-320",
                "addr:city": "Trzciel",
                "addr:street": "ul. G\u0142\u00f3wna",
                "addr:housenumber": "8",
                "addr:teryt:simc": 5635,
                "addr:teryt:sym_ul": 935771,
                "contact:phone": "+48 957431246",
                "ref:regon": "369116432",
                "operator": "Zak\u0142ad Doskonalenia Zawodowego Sp\u00f3\u0142ka Z Ograniczon\u0105 Odpowiedzialno\u015bci\u0105",
                "operator:type": "consortium",
                "fixme": "w zale\u017cno\u015bci od przedmiotu dzia\u0142alno\u015bci (np. amenity=training + training=*, amenity=dancing_school, amenity=language_school, amenity=music_school) albo amenity=school, amenity=college, albo landuse=education w zale\u017cno\u015bci od tego, jakie plac\u00f3wki wchodz\u0105 w sk\u0142ad zespo\u0142u. Sprawd\u017a, kiedy stosowa\u0107 amenity=* a kiedy landuse=education."
            }
        }
    ]
}