{
    "type": "FeatureCollection",
    "features": [
        {
            "id": 8313,
            "type": "Feature",
            "geometry": {
                "type": "Point",
                "coordinates": [
                    15.8072371,
                    52.567003
                ]
            },
            "properties": {
                "isced:level": "1;2",
                "ref:rspo": 8313,
                "official_name": "Szko\u0142a Podstawowa im. Marii Konopnickiej",
                "name": "Szko\u0142a Podstawowa",
                "addr:postcode": "66-340",
                "addr:place": "Wierzbno",
                "addr:housenumber": "31",
                "addr:teryt:simc": 186022,
                "phone": "+48 957494323",
                "email": "spw.sekretariat@wp.pl",
                "website": "http:\/\/www.spwierzbno.pl",
                "ref:regon": "210205202",
                "ref:vatin": "PL5961564290",
                "operator": "Gmina Przytoczna",
                "operator:type": "government",
                "amenity": "school"
            }
        },
        {
            "id": 8310,
            "type": "Feature",
            "geometry": {
                "type": "Point",
                "coordinates": [
                    15.68059,
                    52.5718699
                ]
            },
            "properties": {
                "isced:level": "1;2",
                "ref:rspo": 8310,
                "official_name": "Szko\u0142a Podstawowa Z Oddzia\u0142ami Integracyjnymi im. Janusza Kusoci\u0144skiego",
                "name": "Szko\u0142a Podstawowa Z Oddzia\u0142ami Integracyjnymi",
                "addr:postcode": "66-340",
                "addr:city": "Przytoczna",
                "addr:street": "Polna",
                "addr:housenumber": "17",
                "addr:teryt:simc": 185962,
                "addr:teryt:sym_ul": 17011,
                "phone": "+48 957494322",
                "email": "spprzytoczna@interia.pl",
                "website": "http:\/\/spprzytoczna.edupage.org",
                "ref:regon": "210205194",
                "ref:vatin": "PL5961751804",
                "operator": "Gmina Przytoczna",
                "operator:type": "government",
                "amenity": "school"
            }
        },
        {
            "id": 8312,
            "type": "Feature",
            "geometry": {
                "type": "Point",
                "coordinates": [
                    15.67446,
                    52.57809
                ]
            },
            "properties": {
                "ref:rspo": 8312,
                "official_name": "Przedszkole Kasztanowa Kraina",
                "name": "Przedszkole Kasztanowa Kraina",
                "addr:postcode": "66-340",
                "addr:city": "Przytoczna",
                "addr:street": "Parkowa",
                "addr:housenumber": "7",
                "addr:teryt:simc": 185962,
                "addr:teryt:sym_ul": 15710,
                "phone": "+48 957494328",
                "email": "przedszkole@przytoczna.pl",
                "website": "http:\/\/www.przedszkoleprzytoczna.edupage.org",
                "ref:regon": "210001379",
                "ref:vatin": "PL5961564924",
                "operator": "Gmina Przytoczna",
                "operator:type": "government",
                "amenity": "kindergarten"
            }
        }
    ]
}