{
    "type": "FeatureCollection",
    "features": [
        {
            "id": 47154,
            "type": "Feature",
            "geometry": {
                "type": "Point",
                "coordinates": [
                    15.121429,
                    51.038118
                ]
            },
            "properties": {
                "isced:level": "1;2",
                "ref:rspo": 47154,
                "official_name": "Szko\u0142a Podstawowa im. Or\u0142a Bia\u0142ego w Biernej",
                "name": "Szko\u0142a Podstawowa",
                "addr:postcode": "59-970",
                "addr:place": "Bierna",
                "addr:housenumber": "57",
                "addr:teryt:simc": 192442,
                "phone": "+48 757776108",
                "email": "spbierna@interia.pl",
                "website": "http:\/\/www.spbierna.pl",
                "ref:regon": "000711095",
                "ref:vatin": "PL6151875627",
                "operator": "Gmina Sulik\u00f3w",
                "operator:type": "government",
                "amenity": "school"
            }
        },
        {
            "id": 40829,
            "type": "Feature",
            "geometry": {
                "type": "Point",
                "coordinates": [
                    15.06722,
                    51.07749
                ]
            },
            "properties": {
                "ref:rspo": 40829,
                "official_name": "Przedszkole Publiczne w Sulikowie",
                "name": "Przedszkole Publiczne w Sulikowie",
                "addr:postcode": "59-975",
                "addr:city": "Sulik\u00f3w",
                "addr:street": "Dworcowa",
                "addr:housenumber": "2",
                "addr:teryt:simc": 192608,
                "addr:teryt:sym_ul": 4434,
                "phone": "+48 757787319",
                "email": "przedszkole@sulikow.pl",
                "website": "http:\/\/www.przedszkolesulikow.szkolnastrona.pl",
                "ref:regon": "230916838",
                "ref:vatin": "PL6151875656",
                "operator": "Gmina Sulik\u00f3w",
                "operator:type": "government",
                "amenity": "kindergarten"
            }
        },
        {
            "id": 47156,
            "type": "Feature",
            "geometry": {
                "type": "Point",
                "coordinates": [
                    15.06443,
                    51.07785
                ]
            },
            "properties": {
                "isced:level": "1;2",
                "ref:rspo": 47156,
                "official_name": "Szko\u0142a Podstawowa im. Jana Paw\u0142a II w Sulikowie",
                "name": "Szko\u0142a Podstawowa",
                "addr:postcode": "59-975",
                "addr:city": "Sulik\u00f3w",
                "addr:street": "Zgorzelecka",
                "addr:housenumber": "28",
                "addr:teryt:simc": 192608,
                "addr:teryt:sym_ul": 26030,
                "phone": "+48 757787353",
                "email": "sekretariat@spsulikow.pl",
                "ref:regon": "000650666",
                "ref:vatin": "PL6152053212",
                "operator": "Gmina Sulik\u00f3w",
                "operator:type": "government",
                "amenity": "school"
            }
        }
    ]
}