{
    "type": "FeatureCollection",
    "features": [
        {
            "id": 7094,
            "type": "Feature",
            "geometry": {
                "type": "Point",
                "coordinates": [
                    14.931059837341,
                    50.879741668701
                ]
            },
            "properties": {
                "isced:level": "1;2",
                "ref:rspo": 7094,
                "official_name": "Szko\u0142a Podstawowa im.polskiego Czerwonego Krzy\u017ca w Opolnie Zdroju",
                "name": "Szko\u0142a Podstawowa im.polskiego Czerwonego Krzy\u017ca w Opolnie Zdroju",
                "addr:country": "PL",
                "addr:postcode": "59-922",
                "addr:city": "Opolno-Zdr\u00f3j",
                "addr:street": "Prezydenta Gabriela Narutowicza",
                "addr:housenumber": "7A",
                "addr:teryt:simc": 14019,
                "addr:teryt:sym_ul": 188854,
                "contact:phone": "+48 757738329",
                "contact:email": "sekretariat@spopolno.pl",
                "ref:regon": "000708526",
                "ref:vatin": "PL6151204784",
                "operator": "Gmina Bogatynia",
                "operator:type": "government",
                "amenity": "school"
            }
        },
        {
            "id": 6057,
            "type": "Feature",
            "geometry": {
                "type": "Point",
                "coordinates": [
                    14.83048,
                    50.88424
                ]
            },
            "properties": {
                "ref:rspo": 6057,
                "official_name": "Przedszkole Publiczne Nr 1 w Porajowie",
                "name": "Przedszkole Publiczne Nr 1 w Porajowie",
                "addr:country": "PL",
                "addr:postcode": "59-921",
                "addr:city": "Poraj\u00f3w",
                "addr:street": "G\u00f3rnicza",
                "addr:housenumber": "1c",
                "addr:teryt:simc": 5962,
                "addr:teryt:sym_ul": 188860,
                "contact:phone": "+48 757738287",
                "contact:email": "przedszkole.nr1.porajow@wp.pl",
                "ref:regon": "000914830",
                "ref:vatin": "PL6151783109",
                "operator": "Gmina Bogatynia",
                "operator:type": "government",
                "amenity": "kindergarten"
            }
        },
        {
            "id": 7144,
            "type": "Feature",
            "geometry": {
                "type": "Point",
                "coordinates": [
                    14.83048,
                    50.884209999999996
                ]
            },
            "properties": {
                "isced:level": "1;2",
                "ref:rspo": 7144,
                "official_name": "Szko\u0142a Podstawowa im.jana III Sobieskiego w Porajowie",
                "name": "Szko\u0142a Podstawowa im.jana III Sobieskiego w Porajowie",
                "addr:country": "PL",
                "addr:postcode": "59-921",
                "addr:city": "Poraj\u00f3w",
                "addr:street": "G\u00f3rnicza",
                "addr:housenumber": "1C",
                "addr:teryt:simc": 5962,
                "addr:teryt:sym_ul": 188860,
                "contact:phone": "+48 757738223",
                "contact:email": "zspigp@vp.pl",
                "contact:website": "http:\/\/zspigp.bogatynia.pl",
                "ref:regon": "231197469",
                "ref:vatin": "PL6151546208",
                "operator": "Gmina Bogatynia",
                "operator:type": "government",
                "amenity": "school"
            }
        },
        {
            "id": 110105,
            "type": "Feature",
            "geometry": {
                "type": "Point",
                "coordinates": [
                    14.96736,
                    50.89975
                ]
            },
            "properties": {
                "ref:rspo": 110105,
                "official_name": "Centrum Szkoleniowe Klanza w Bogatyni",
                "name": "Centrum Szkoleniowe Klanza w Bogatyni",
                "addr:country": "PL",
                "addr:postcode": "59-920",
                "addr:city": "Bogatynia",
                "addr:street": "Warszawska",
                "addr:housenumber": "10",
                "addr:door": "2",
                "addr:teryt:simc": 23682,
                "addr:teryt:sym_ul": 935908,
                "contact:phone": "+48 757733491",
                "ref:regon": "022081487",
                "operator": "Polskie Stowarzyszenie Pedagog\u00f3w I Animator\u00f3w Klanza Oddzia\u0142 W Bogatyni",
                "operator:type": "ngo",
                "amenity": "training"
            }
        },
        {
            "id": 17480,
            "type": "Feature",
            "geometry": {
                "type": "Point",
                "coordinates": [
                    14.96226,
                    50.90001
                ]
            },
            "properties": {
                "ref:rspo": 17480,
                "official_name": "Zesp\u00f3\u0142 Szk\u00f3\u0142 Zawodowych w Bogatyni",
                "name": "Zesp\u00f3\u0142 Szk\u00f3\u0142 Zawodowych w Bogatyni",
                "addr:country": "PL",
                "addr:postcode": "59-920",
                "addr:city": "Bogatynia",
                "addr:street": "Tadeusza Ko\u015bciuszki",
                "addr:housenumber": "33",
                "addr:teryt:simc": 9582,
                "addr:teryt:sym_ul": 935908,
                "contact:phone": "+48 757733374",
                "contact:email": "zszbogatynia@o2.pl",
                "ref:regon": "000024437",
                "ref:vatin": "PL6151230818",
                "operator": "Powiat Zgorzelecki",
                "operator:type": "government",
                "landuse": "education",
                "fixme": "amenity=school, amenity=college albo landuse=education w zale\u017cno\u015bci od tego, jakie plac\u00f3wki wchodz\u0105 w sk\u0142ad zespo\u0142u. Sprawd\u017a, kiedy stosowa\u0107 amenity=* a kiedy landuse=education.",
                "note": "Children RSPO: 48422;49783"
            }
        },
        {
            "id": 38696,
            "type": "Feature",
            "geometry": {
                "type": "Point",
                "coordinates": [
                    14.96226,
                    50.89998
                ]
            },
            "properties": {
                "ref:rspo": 38696,
                "official_name": "Poradnia Psychologiczno-Pedagogiczna w Bogatyni",
                "name": "Poradnia Psychologiczno-Pedagogiczna w Bogatyni",
                "addr:country": "PL",
                "addr:postcode": "59-920",
                "addr:city": "Bogatynia",
                "addr:street": "Tadeusza Ko\u015bciuszki",
                "addr:housenumber": "33",
                "addr:teryt:simc": 9582,
                "addr:teryt:sym_ul": 935908,
                "contact:phone": "+48 757732125",
                "contact:email": "sekretariat@poradniabogatynia.pl",
                "contact:website": "http:\/\/www.poradniabogatynia.pl",
                "ref:regon": "230919481",
                "ref:vatin": "PL6151811225",
                "operator": "Powiat Zgorzelecki",
                "operator:type": "government",
                "healthcare": "counselling",
                "counselling_type": "education",
                "fixme": "w zale\u017cno\u015bci od przedmiotu dzia\u0142alno\u015bci (np. healthcare=counselling + counselling_type=education albo healthcare=psychotherapist)"
            }
        },
        {
            "id": 48422,
            "type": "Feature",
            "geometry": {
                "type": "Point",
                "coordinates": [
                    14.96226,
                    50.899950000000004
                ]
            },
            "properties": {
                "isced:level": "3",
                "ref:rspo": 48422,
                "official_name": "Technikum im. Sw. Barbary",
                "name": "Technikum",
                "addr:country": "PL",
                "addr:postcode": "59-920",
                "addr:city": "Bogatynia",
                "addr:street": "Tadeusza Ko\u015bciuszki",
                "addr:housenumber": "33",
                "addr:teryt:simc": 9582,
                "addr:teryt:sym_ul": 935908,
                "contact:phone": "+48 757733374",
                "contact:email": "zszbogatynia@o2.pl",
                "ref:regon": "231182723",
                "ref:vatin": "PL6151230818",
                "operator": "Powiat Zgorzelecki",
                "operator:type": "government",
                "amenity": "school",
                "note": "Parent RSPO: 17480"
            }
        },
        {
            "id": 49783,
            "type": "Feature",
            "geometry": {
                "type": "Point",
                "coordinates": [
                    14.96226,
                    50.89992
                ]
            },
            "properties": {
                "isced:level": "3",
                "ref:rspo": 49783,
                "official_name": "Bran\u017cowa Szko\u0142a I Stopnia im. \u015aw. Barbary",
                "name": "Bran\u017cowa Szko\u0142a I Stopnia",
                "addr:country": "PL",
                "addr:postcode": "59-920",
                "addr:city": "Bogatynia",
                "addr:street": "Tadeusza Ko\u015bciuszki",
                "addr:housenumber": "33",
                "addr:teryt:simc": 9582,
                "addr:teryt:sym_ul": 935908,
                "contact:phone": "+48 757733374",
                "contact:email": "zszbogatynia@o2.pl",
                "ref:regon": "231182692",
                "ref:vatin": "PL6151230818",
                "operator": "Powiat Zgorzelecki",
                "operator:type": "government",
                "amenity": "school",
                "note": "Parent RSPO: 17480"
            }
        },
        {
            "id": 6338,
            "type": "Feature",
            "geometry": {
                "type": "Point",
                "coordinates": [
                    14.9669,
                    50.90029
                ]
            },
            "properties": {
                "isced:level": "1;2",
                "ref:rspo": 6338,
                "official_name": "Szko\u0142a Podstawowa Nr 1 im.emilii Plater w Bogatyni",
                "name": "Szko\u0142a Podstawowa Nr 1 im.emilii Plater w Bogatyni",
                "addr:country": "PL",
                "addr:postcode": "59-920",
                "addr:city": "Bogatynia",
                "addr:street": "Plac Bohater\u00f3w Warszawy",
                "addr:housenumber": "1",
                "addr:teryt:simc": 1678,
                "addr:teryt:sym_ul": 935908,
                "contact:phone": "+48 757732481",
                "contact:email": "szkola@sp1-bogatynia.edu.pl",
                "contact:website": "https:\/\/www.sp1-bogatynia.edu.pl",
                "ref:regon": "000708584",
                "ref:vatin": "PL6151108000",
                "operator": "Gmina Bogatynia",
                "operator:type": "government",
                "amenity": "school"
            }
        },
        {
            "id": 7296,
            "type": "Feature",
            "geometry": {
                "type": "Point",
                "coordinates": [
                    14.97199,
                    50.90194
                ]
            },
            "properties": {
                "isced:level": "1;2",
                "ref:rspo": 7296,
                "official_name": "Szko\u0142a Podstawowa Nr 3 im.kornela Makuszy\u0144skiego w Bogatyni",
                "name": "Szko\u0142a Podstawowa Nr 3 im.kornela Makuszy\u0144skiego w Bogatyni",
                "addr:country": "PL",
                "addr:postcode": "59-920",
                "addr:city": "Bogatynia",
                "addr:street": "Leona Wycz\u00f3\u0142kowskiego",
                "addr:housenumber": "42A",
                "addr:teryt:simc": 24963,
                "addr:teryt:sym_ul": 935908,
                "contact:phone": "+48 757733253",
                "contact:email": "sp3bogatynia@pro.onet.pl",
                "contact:website": "http:\/\/www.sp3bogatynia.pl",
                "ref:regon": "230235802",
                "ref:vatin": "PL6151970863",
                "operator": "Gmina Bogatynia",
                "operator:type": "government",
                "amenity": "school"
            }
        },
        {
            "id": 20530,
            "type": "Feature",
            "geometry": {
                "type": "Point",
                "coordinates": [
                    14.97199,
                    50.90191
                ]
            },
            "properties": {
                "ref:rspo": 20530,
                "official_name": "Niepubliczna Szko\u0142a Muzyczna I St. w Bogatynia",
                "name": "Niepubliczna Szko\u0142a Muzyczna I St. w Bogatynia",
                "addr:country": "PL",
                "addr:postcode": "59-920",
                "addr:city": "Bogatynia",
                "addr:street": "Leona Wycz\u00f3\u0142kowskiego",
                "addr:housenumber": "42a",
                "addr:teryt:simc": 24963,
                "addr:teryt:sym_ul": 935908,
                "contact:phone": "+48 757733253",
                "ref:regon": "021975478",
                "operator": "S\u0142awomir Kosiorek",
                "operator:type": "private",
                "amenity": "music_school"
            }
        },
        {
            "id": 5418,
            "type": "Feature",
            "geometry": {
                "type": "Point",
                "coordinates": [
                    14.9712,
                    50.90205
                ]
            },
            "properties": {
                "ref:rspo": 5418,
                "official_name": "Przedszkole Publiczne Nr 6",
                "name": "Przedszkole Publiczne Nr 6",
                "addr:country": "PL",
                "addr:postcode": "59-920",
                "addr:city": "Bogatynia",
                "addr:street": "Leona Wycz\u00f3\u0142kowskiego",
                "addr:housenumber": "32A",
                "addr:teryt:simc": 24963,
                "addr:teryt:sym_ul": 935908,
                "contact:phone": "+48 757732772",
                "contact:email": "p6bogatynia@pnet.pl",
                "contact:website": "http:\/\/www.p6bogatynia.pl",
                "ref:regon": "230224862",
                "ref:vatin": "PL6151284955",
                "operator": "Gmina Bogatynia",
                "operator:type": "government",
                "amenity": "kindergarten"
            }
        },
        {
            "id": 133577,
            "type": "Feature",
            "geometry": {
                "type": "Point",
                "coordinates": [
                    14.96422,
                    50.90404
                ]
            },
            "properties": {
                "isced:level": "1;2",
                "ref:rspo": 133577,
                "official_name": "Szko\u0142a Podstawowa Nr 4 im. Miko\u0142aja Kopernika w Bogatyni",
                "name": "Szko\u0142a Podstawowa Nr 4",
                "addr:country": "PL",
                "addr:postcode": "59-920",
                "addr:city": "Bogatynia",
                "addr:street": "Fryderyka Chopina",
                "addr:housenumber": "15",
                "addr:teryt:simc": 2849,
                "addr:teryt:sym_ul": 935908,
                "contact:phone": "+48 757732444",
                "contact:email": "sekretariat@sp4bogatynia.pl",
                "contact:website": "http:\/\/sp4.bogatynia.pl",
                "ref:regon": "367422900",
                "ref:vatin": "PL6152053442",
                "operator": "Gmina Bogatynia",
                "operator:type": "government",
                "amenity": "school"
            }
        },
        {
            "id": 5395,
            "type": "Feature",
            "geometry": {
                "type": "Point",
                "coordinates": [
                    14.96289,
                    50.90425
                ]
            },
            "properties": {
                "ref:rspo": 5395,
                "official_name": "Przedszkole Publiczne Nr 5 w Bogatyni",
                "name": "Przedszkole Publiczne Nr 5 w Bogatyni",
                "addr:country": "PL",
                "addr:postcode": "59-920",
                "addr:city": "Bogatynia",
                "addr:street": "Fryderyka Chopina",
                "addr:housenumber": "13",
                "addr:teryt:simc": 2849,
                "addr:teryt:sym_ul": 935908,
                "contact:phone": "+48 757732084",
                "contact:email": "publiczneprzedszkole5@gmail.com",
                "contact:website": "http:\/\/publiczneprzedszkole5.szkolnastrona.pl\/",
                "ref:regon": "230224856",
                "ref:vatin": "PL6151789750",
                "operator": "Gmina Bogatynia",
                "operator:type": "government",
                "amenity": "kindergarten"
            }
        },
        {
            "id": 5384,
            "type": "Feature",
            "geometry": {
                "type": "Point",
                "coordinates": [
                    14.96201,
                    50.90469
                ]
            },
            "properties": {
                "ref:rspo": 5384,
                "official_name": "Przedszkole Publiczne Nr 4 w Bogatyni",
                "name": "Przedszkole Publiczne Nr 4 w Bogatyni",
                "addr:country": "PL",
                "addr:postcode": "59-920",
                "addr:city": "Bogatynia",
                "addr:street": "Fryderyka Chopina",
                "addr:housenumber": "12",
                "addr:teryt:simc": 2849,
                "addr:teryt:sym_ul": 935908,
                "contact:phone": "+48 757732577",
                "contact:email": "sekretariat@pp4-bogatynia.pl",
                "ref:regon": "230224840",
                "ref:vatin": "PL6151781866",
                "operator": "Gmina Bogatynia",
                "operator:type": "government",
                "amenity": "kindergarten"
            }
        },
        {
            "id": 5379,
            "type": "Feature",
            "geometry": {
                "type": "Point",
                "coordinates": [
                    14.95252,
                    50.90637
                ]
            },
            "properties": {
                "ref:rspo": 5379,
                "official_name": "Przedszkole Publiczne Nr 3 Z Oddzia\u0142ami Integracyjnymi w Bogatyni",
                "name": "Przedszkole Publiczne Nr 3 Z Oddzia\u0142ami Integracyjnymi w Bogatyni",
                "addr:country": "PL",
                "addr:postcode": "59-920",
                "addr:city": "Bogatynia",
                "addr:street": "1 Maja",
                "addr:housenumber": "33",
                "addr:teryt:simc": 11926,
                "addr:teryt:sym_ul": 935908,
                "contact:phone": "+48 757733524",
                "contact:email": "dyrektorpp3@pp3bogatynia.home.pl",
                "contact:website": "http:\/\/pp3bogatynia.pl",
                "ref:regon": "230224833",
                "ref:vatin": "PL6151027394",
                "operator": "Gmina Bogatynia",
                "operator:type": "government",
                "amenity": "kindergarten"
            }
        },
        {
            "id": 49787,
            "type": "Feature",
            "geometry": {
                "type": "Point",
                "coordinates": [
                    14.96839,
                    50.90884
                ]
            },
            "properties": {
                "ref:rspo": 49787,
                "official_name": "Centrum Szkolenia \"Elbest\" Sp. Z O.o. Oddzia\u0142 Bogatynia",
                "name": "Centrum Szkolenia \"Elbest\" Sp. Z O.o. Oddzia\u0142 Bogatynia",
                "addr:country": "PL",
                "addr:postcode": "59-920",
                "addr:city": "Bogatynia",
                "addr:street": "Pocztowa",
                "addr:housenumber": "15",
                "addr:teryt:simc": 16579,
                "addr:teryt:sym_ul": 935908,
                "contact:phone": "+48 756480421",
                "ref:regon": "021992212",
                "ref:vatin": "PL7691949726",
                "operator": "Elbest Sp\u00f3\u0142ka Z Ograniczon\u0105 Odpowiedzialno\u015bci\u0105",
                "operator:type": "private",
                "fixme": "w zale\u017cno\u015bci od przedmiotu dzia\u0142alno\u015bci (np. amenity=training + training=*, amenity=dancing_school, amenity=language_school, amenity=music_school)"
            }
        },
        {
            "id": 38699,
            "type": "Feature",
            "geometry": {
                "type": "Point",
                "coordinates": [
                    14.956150054932,
                    50.909320831299
                ]
            },
            "properties": {
                "isced:level": "3",
                "ref:rspo": 38699,
                "official_name": "Liceum Og\u00f3lnokszta\u0142c\u0105ce im. Marii Sk\u0142odowskiej-Curie w Bogatyni",
                "name": "Liceum Og\u00f3lnokszta\u0142c\u0105ce",
                "addr:country": "PL",
                "addr:postcode": "59-920",
                "addr:city": "Bogatynia",
                "addr:street": "\u017bo\u0142nierzy II AWP",
                "addr:housenumber": "5",
                "addr:teryt:simc": 52250,
                "addr:teryt:sym_ul": 935908,
                "contact:phone": "+48 757732381",
                "contact:email": "lobogatynia@poczta.onet.pl",
                "ref:regon": "231181497",
                "ref:vatin": "PL6152022708",
                "operator": "Gmina Bogatynia",
                "operator:type": "government",
                "amenity": "school"
            }
        },
        {
            "id": 6093,
            "type": "Feature",
            "geometry": {
                "type": "Point",
                "coordinates": [
                    14.91731,
                    50.94392
                ]
            },
            "properties": {
                "ref:rspo": 6093,
                "official_name": "Przedszkole Publiczne Nr 7",
                "name": "Przedszkole Publiczne Nr 7",
                "addr:country": "PL",
                "addr:postcode": "59-916",
                "addr:city": "Bogatynia",
                "addr:street": "Cicha",
                "addr:housenumber": "6",
                "addr:teryt:simc": 2974,
                "addr:teryt:sym_ul": 935908,
                "contact:phone": "+48 757784262",
                "contact:email": "przedszkole7@interia.pl",
                "contact:website": "http:\/\/www.przedszkolesiedem.pl",
                "ref:regon": "230224885",
                "ref:vatin": "PL6151518040",
                "operator": "Gmina Bogatynia",
                "operator:type": "government",
                "amenity": "kindergarten"
            }
        },
        {
            "id": 5116,
            "type": "Feature",
            "geometry": {
                "type": "Point",
                "coordinates": [
                    14.90364,
                    50.94744
                ]
            },
            "properties": {
                "isced:level": "1;2",
                "ref:rspo": 5116,
                "official_name": "Szko\u0142a Podstawowa Nr 5 im.boles\u0142awa Chrobrego w Bogatyni",
                "name": "Szko\u0142a Podstawowa Nr 5 im.boles\u0142awa Chrobrego w Bogatyni",
                "addr:country": "PL",
                "addr:postcode": "59-916",
                "addr:city": "Bogatynia",
                "addr:street": "M\u0142odych Energetyk\u00f3w",
                "addr:housenumber": "24",
                "addr:teryt:simc": 13088,
                "addr:teryt:sym_ul": 935908,
                "contact:phone": "+48 757784303",
                "contact:email": "sp5bogatynia@gmail.com",
                "contact:website": "http:\/\/sp5bogatynia.edu.pl\/",
                "ref:regon": "000708414",
                "ref:vatin": "PL6152044911",
                "operator": "Gmina Bogatynia",
                "operator:type": "government",
                "amenity": "school"
            }
        },
        {
            "id": 7053,
            "type": "Feature",
            "geometry": {
                "type": "Point",
                "coordinates": [
                    14.9504676,
                    50.9795763
                ]
            },
            "properties": {
                "isced:level": "1;2",
                "ref:rspo": 7053,
                "official_name": "Szko\u0142a Podstawowa im.\u015bw Jadwigi \u015aL\u0105skiej w Dzia\u0142oszynie",
                "name": "Szko\u0142a Podstawowa im.\u015bw Jadwigi \u015aL\u0105skiej w Dzia\u0142oszynie",
                "addr:country": "PL",
                "addr:postcode": "59-916",
                "addr:place": "Dzia\u0142oszyn",
                "addr:housenumber": "33",
                "addr:teryt:sym_ul": 188802,
                "contact:phone": "+48 757718226",
                "contact:email": "szkola.dzialoszyn@pnet.pl",
                "contact:website": "http:\/\/www.spdzialoszyn.pl",
                "ref:regon": "000708549",
                "ref:vatin": "PL6151769664",
                "operator": "Gmina Bogatynia",
                "operator:type": "government",
                "amenity": "school"
            }
        }
    ]
}