{"type":"FeatureCollection","features":[{"id":121983,"type":"Feature","geometry":{"type":"Point","coordinates":[15.21278,51.24928]},"properties":{"ref:rspo":121983,"official_name":"Przedszkole Niepubliczne w Czerwonej Wodzie","name":"Przedszkole Niepubliczne w Czerwonej Wodzie","addr:country":"PL","addr:postcode":"59-940","addr:city":"Czerwona Woda","addr:street":"ul. Ko\u015bciuszki","addr:housenumber":"4","addr:teryt:simc":9572,"addr:teryt:sym_ul":192904,"contact:phone":"+48 502915403","contact:email":"kamila-blatkiewicz@o2.pl","ref:regon":"022355418","ref:vatin":"PL6151899504","operator":"Kamila Blatkiewicz","operator:type":"private","amenity":"kindergarten"}},{"id":3170,"type":"Feature","geometry":{"type":"Point","coordinates":[15.21696,51.252]},"properties":{"isced:level":"1;2","ref:rspo":3170,"official_name":"Szko\u0142a Podstawowa im. Jana Paw\u0142a II w Czerwonej Wodzie","name":"Szko\u0142a Podstawowa","addr:country":"PL","addr:postcode":"59-940","addr:city":"Czerwona Woda","addr:street":"ul. Kolejowa","addr:housenumber":"22","addr:door":"-","addr:teryt:simc":8828,"addr:teryt:sym_ul":192904,"contact:phone":"+48 757780285","contact:email":"szkola.czerwona.woda@wp.pl","ref:regon":"001179946","ref:vatin":"PL6151504380","operator":"Gmina W\u0119gliniec","operator:type":"government","amenity":"school"}},{"id":3180,"type":"Feature","geometry":{"type":"Point","coordinates":[15.22562,51.28514]},"properties":{"ref:rspo":3180,"official_name":"Miejskie Przedszkole Publiczne im. \u015awi\u0119tego Miko\u0142aja w W\u0119gli\u0144cu","name":"Miejskie Przedszkole Publiczne","addr:country":"PL","addr:postcode":"59-940","addr:city":"W\u0119gliniec","addr:street":"ul. Kochanowskiego","addr:housenumber":"9","addr:teryt:simc":8725,"addr:teryt:sym_ul":936492,"contact:phone":"+48 757712034","contact:email":"mppwegliniec@interia.pl","ref:regon":"021425393","ref:vatin":"PL6152028303","operator":"Gmina W\u0119gliniec","operator:type":"government","amenity":"kindergarten"}},{"id":3181,"type":"Feature","geometry":{"type":"Point","coordinates":[15.2211,51.28614]},"properties":{"isced:level":"1;2","ref:rspo":3181,"official_name":"Szko\u0142a Podstawowa im. Marii Krasickiej w W\u0119gli\u0144cu","name":"Szko\u0142a Podstawowa","addr:country":"PL","addr:postcode":"59-940","addr:city":"W\u0119gliniec","addr:street":"ul. Ko\u015bciuszki","addr:housenumber":"2","addr:teryt:simc":9572,"addr:teryt:sym_ul":936492,"contact:phone":"+48 757712157","contact:email":"sp.wegliniec@interia.pl","ref:regon":"000264207","ref:vatin":"PL6152042289","operator":"Gmina W\u0119gliniec","operator:type":"government","amenity":"school"}},{"id":3165,"type":"Feature","geometry":{"type":"Point","coordinates":[15.18132,51.3989]},"properties":{"isced:level":"1;2","ref:rspo":3165,"official_name":"Szko\u0142a Podstawowa im. Orl\u0105t Lwowskich I Bohater\u00f3w 37 Pu\u0142ku Piechoty 7 Dywizji II Armii Wojska Polskiego w Ruszowie","name":"Szko\u0142a Podstawowa","addr:country":"PL","addr:postcode":"59-950","addr:city":"Rusz\u00f3w","addr:street":"ul. Zgorzelecka","addr:housenumber":"1C","addr:door":"-","addr:teryt:simc":26030,"addr:teryt:sym_ul":193039,"contact:phone":"+48 757759281","contact:email":"gimr@interia.pl","contact:website":"http:\/\/www.spruszow.szkolnastrona.pl","ref:regon":"001179917","ref:vatin":"PL6152042295","operator":"Gmina W\u0119gliniec","operator:type":"government","amenity":"school"}},{"id":124167,"type":"Feature","geometry":{"type":"Point","coordinates":[15.1794,51.4055]},"properties":{"ref:rspo":124167,"official_name":"Niepubliczne Przedszkole w Ruszowie\nAkademia Weso\u0142ego Odkrywcy","name":"Niepubliczne Przedszkole w Ruszowie\nAkademia Weso\u0142ego Odkrywcy","addr:country":"PL","addr:postcode":"59-950","addr:city":"Rusz\u00f3w","addr:street":"ul. Ratuszowa","addr:housenumber":"2","addr:door":"-","addr:teryt:simc":18489,"addr:teryt:sym_ul":193039,"contact:phone":"+48 660593692","contact:email":"przedszkole.ruszow@op.pl","contact:website":"http:\/\/przedszkoleruszow.wordpress.com","ref:regon":"022476174","operator":"Sylwia Lipska","operator:type":"private","amenity":"kindergarten"}}]}