{
    "type": "FeatureCollection",
    "features": [
        {
            "id": 9414,
            "type": "Feature",
            "geometry": {
                "type": "Point",
                "coordinates": [
                    14.975105,
                    51.059846
                ]
            },
            "properties": {
                "ref:rspo": 9414,
                "official_name": "Niepubliczne Przedszkole \"Chatka Puchatka\" w Radomierzycach",
                "name": "Niepubliczne Przedszkole \"Chatka Puchatka\" w Radomierzycach",
                "addr:postcode": "59-900",
                "addr:place": "Radomierzyce",
                "addr:housenumber": "7",
                "addr:city:simc": 193370,
                "phone": "+48 881222266",
                "email": "biuro@chatkapuchatka.org.pl",
                "website": "http:\/\/www.chatkapuchatka.org.pl",
                "ref:regon": "021956423",
                "ref:vatin": "PL6152042125",
                "operator": "Fundacja Wspierania Inicjatyw Lokalnych Probus",
                "operator:type": "ngo",
                "amenity": "kindergarten"
            }
        },
        {
            "id": 3232,
            "type": "Feature",
            "geometry": {
                "type": "Point",
                "coordinates": [
                    14.99632,
                    51.0813
                ]
            },
            "properties": {
                "isced:level": "1;2",
                "ref:rspo": 3232,
                "official_name": "Szko\u0142a Podstawowa im. Kornela Makuszy\u0144skiego w Osieku \u0141u\u017cyckim",
                "name": "Szko\u0142a Podstawowa",
                "addr:postcode": "59-900",
                "addr:place": "Osiek \u0141u\u017cycki",
                "addr:housenumber": "56",
                "addr:city:simc": 193341,
                "phone": "+48 757718195",
                "email": "sposieksekretariat@poczta.onet.pl",
                "website": "http:\/\/www.sposiek.szkolnastrona.pl",
                "ref:regon": "001177717",
                "ref:vatin": "PL6151046173",
                "operator": "Gmina Zgorzelec",
                "operator:type": "government",
                "amenity": "school"
            }
        },
        {
            "id": 133998,
            "type": "Feature",
            "geometry": {
                "type": "Point",
                "coordinates": [
                    15.059761,
                    51.1274529
                ]
            },
            "properties": {
                "isced:level": "1;2",
                "ref:rspo": 133998,
                "official_name": "Szko\u0142a Podstawowa im. Sybirak\u00f3w w Jerzmankach",
                "name": "Szko\u0142a Podstawowa",
                "addr:postcode": "59-900",
                "addr:place": "Jerzmanki",
                "addr:housenumber": "43",
                "addr:city:simc": 193252,
                "phone": "+48 757781178",
                "email": "szkola@spjerzmanki.pl",
                "website": "http:\/\/www.jerzmanki.edupage.org",
                "ref:regon": "367772630",
                "ref:vatin": "PL6152053330",
                "operator": "Gmina Zgorzelec",
                "operator:type": "government",
                "amenity": "school"
            }
        },
        {
            "id": 3196,
            "type": "Feature",
            "geometry": {
                "type": "Point",
                "coordinates": [
                    15.04253,
                    51.15791
                ]
            },
            "properties": {
                "isced:level": "1;2",
                "ref:rspo": 3196,
                "official_name": "Szko\u0142a Podstawowa im. Wandy Chotomskiej w \u0141agowie",
                "name": "Szko\u0142a Podstawowa",
                "addr:postcode": "59-900",
                "addr:city": "\u0141ag\u00f3w",
                "addr:street": "Szkolna",
                "addr:housenumber": "2",
                "addr:city:simc": 193329,
                "addr:street:sym_ul": 21970,
                "phone": "+48 757715969",
                "email": "sp.lagow@wp.pl",
                "website": "http:\/\/www.splagow.szkolnastrona.pl",
                "ref:regon": "231084340",
                "ref:vatin": "PL6151834315",
                "operator": "Gmina Zgorzelec",
                "operator:type": "government",
                "amenity": "school"
            }
        },
        {
            "id": 3358,
            "type": "Feature",
            "geometry": {
                "type": "Point",
                "coordinates": [
                    15.1083267,
                    51.1597269
                ]
            },
            "properties": {
                "isced:level": "1;2",
                "ref:rspo": 3358,
                "official_name": "Szko\u0142a Podstawowa im. Osadnik\u00f3w Wojskowych w Tr\u00f3jcy",
                "name": "Szko\u0142a Podstawowa",
                "addr:postcode": "59-900",
                "addr:place": "Tr\u00f3jca",
                "addr:housenumber": "77",
                "addr:city:simc": 193430,
                "phone": "+48 757718326",
                "email": "sptrojca@wp.pl",
                "ref:regon": "000560561",
                "ref:vatin": "PL6151054540",
                "operator": "Gmina Zgorzelec",
                "operator:type": "government",
                "amenity": "school"
            }
        },
        {
            "id": 114393,
            "type": "Feature",
            "geometry": {
                "type": "Point",
                "coordinates": [
                    15.0246015,
                    51.1795758
                ]
            },
            "properties": {
                "ref:rspo": 114393,
                "official_name": "Publiczne Przedszkole Krasnoludki w J\u0119drzychowicach",
                "name": "Publiczne Przedszkole Krasnoludki w J\u0119drzychowicach",
                "addr:postcode": "59-900",
                "addr:place": "J\u0119drzychowice",
                "addr:housenumber": "74",
                "addr:city:simc": 193269,
                "phone": "+48 756408478",
                "email": "krasnoludki@gmina.zgorzelec.pl",
                "ref:regon": "022132842",
                "ref:vatin": "PL6152043455",
                "operator": "Gmina Zgorzelec",
                "operator:type": "government",
                "amenity": "kindergarten"
            }
        },
        {
            "id": 3203,
            "type": "Feature",
            "geometry": {
                "type": "Point",
                "coordinates": [
                    15.0985996,
                    51.1928104
                ]
            },
            "properties": {
                "isced:level": "1;2",
                "ref:rspo": 3203,
                "official_name": "Szko\u0142a Podstawowa im. Jana Brzechwy w \u017barskiej Wsi",
                "name": "Szko\u0142a Podstawowa",
                "addr:postcode": "59-900",
                "addr:place": "\u017barska Wie\u015b",
                "addr:housenumber": "32",
                "addr:city:simc": 193460,
                "phone": "+48 757718554",
                "email": "spzarska@interia.pl",
                "website": "http:\/\/www.spzarska.szkolnastrona.pl",
                "ref:regon": "001312240",
                "ref:vatin": "PL6151040762",
                "operator": "Gmina Zgorzelec",
                "operator:type": "government",
                "amenity": "school"
            }
        }
    ]
}