{
    "type": "FeatureCollection",
    "features": [
        {
            "id": 86382,
            "type": "Feature",
            "geometry": {
                "type": "Point",
                "coordinates": [
                    21.03173,
                    53.08355
                ]
            },
            "properties": {
                "ref:rspo": 86382,
                "official_name": "Punkt Przedszkolny \"\u015apiewaj\u0105ce Brzd\u0105ce\" w Lipie",
                "name": "Punkt Przedszkolny \"\u015apiewaj\u0105ce Brzd\u0105ce\" w Lipie",
                "addr:postcode": "06-323",
                "addr:place": "Lipa",
                "addr:housenumber": "64",
                "addr:city:simc": 510592,
                "phone": "+48 517479418",
                "email": "kurpsierazem@wp.pl",
                "ref:regon": "146428420",
                "operator": "Zwi\u0105zek Stowarzysze\u0144 \"Kurpsie Razem\"",
                "operator:type": "ngo",
                "amenity": "kindergarten"
            }
        },
        {
            "id": 271010,
            "type": "Feature",
            "geometry": {
                "type": "Point",
                "coordinates": [
                    21.0466,
                    53.13051
                ]
            },
            "properties": {
                "ref:rspo": 271010,
                "official_name": "Przedszkole Niepubliczne \"Kraina Smerf\u00f3w\"",
                "name": "Przedszkole Niepubliczne \"Kraina Smerf\u00f3w\"",
                "addr:postcode": "06-323",
                "addr:place": "Stegna",
                "addr:housenumber": "6",
                "addr:city:simc": 510876,
                "email": "mawedukacja@interia.pl",
                "ref:regon": "383058511",
                "ref:vatin": "PL7582000182",
                "operator": "Us\u0142ugi Edukacyjne I Zarz\u0105dzanie Projektami Ue Magdalena Anna Walijewska",
                "operator:type": "consortium",
                "amenity": "kindergarten"
            }
        },
        {
            "id": 105476,
            "type": "Feature",
            "geometry": {
                "type": "Point",
                "coordinates": [
                    21.04658,
                    53.13904
                ]
            },
            "properties": {
                "ref:rspo": 105476,
                "official_name": "Zesp\u00f3\u0142 Plac\u00f3wek O\u015bwiatowych w Jednoro\u017ccu",
                "name": "Zesp\u00f3\u0142 Plac\u00f3wek O\u015bwiatowych w Jednoro\u017ccu",
                "addr:postcode": "06-323",
                "addr:city": "Jednoro\u017cec",
                "addr:street": "Odrodzenia",
                "addr:housenumber": "13",
                "addr:city:simc": 510505,
                "addr:street:sym_ul": 14755,
                "phone": "+48 297518390",
                "email": "szkola@zpojednorozec.pl",
                "website": "http:\/\/zpojednorozec.pl\/",
                "ref:regon": "146221950",
                "ref:vatin": "PL7611556256",
                "operator": "Gmina Jednoro\u017cec",
                "operator:type": "government",
                "landuse": "education",
                "fixme": "amenity=school, amenity=college albo landuse=education w zale\u017cno\u015bci od tego, jakie plac\u00f3wki wchodz\u0105 w sk\u0142ad zespo\u0142u. Sprawd\u017a, kiedy stosowa\u0107 amenity=* a kiedy landuse=education.",
                "note": "Children RSPO: 14733;106219;106223;267660"
            }
        },
        {
            "id": 14733,
            "type": "Feature",
            "geometry": {
                "type": "Point",
                "coordinates": [
                    21.04658,
                    53.13901
                ]
            },
            "properties": {
                "isced:level": "3",
                "ref:rspo": 14733,
                "official_name": "Liceum Og\u00f3lnokszta\u0142c\u0105ce w Jednoro\u017ccu",
                "name": "Liceum Og\u00f3lnokszta\u0142c\u0105ce w Jednoro\u017ccu",
                "addr:postcode": "06-323",
                "addr:city": "Jednoro\u017cec",
                "addr:street": "Odrodzenia",
                "addr:housenumber": "13",
                "addr:city:simc": 510505,
                "addr:street:sym_ul": 14755,
                "phone": "+48 297518499",
                "email": "lojednorozec@wp.pl",
                "ref:regon": "550658191",
                "ref:vatin": "PL7611394204",
                "operator": "Gmina Jednoro\u017cec",
                "operator:type": "government",
                "amenity": "school",
                "note": "Parent RSPO: 105476"
            }
        },
        {
            "id": 106219,
            "type": "Feature",
            "geometry": {
                "type": "Point",
                "coordinates": [
                    21.04658,
                    53.138980000000004
                ]
            },
            "properties": {
                "isced:level": "1;2",
                "ref:rspo": 106219,
                "official_name": "Publiczna Szko\u0142a Podstawowa im. Adama Ch\u0119tnika w Jednoro\u017ccu",
                "name": "Publiczna Szko\u0142a Podstawowa",
                "addr:postcode": "06-323",
                "addr:city": "Jednoro\u017cec",
                "addr:street": "Odrodzenia",
                "addr:housenumber": "13",
                "addr:city:simc": 510505,
                "addr:street:sym_ul": 14755,
                "phone": "+48 297518390",
                "email": "spjednorozec@wp.pl",
                "website": "http:\/\/zpojednorozec.pl",
                "ref:regon": "000270662",
                "operator": "Gmina Jednoro\u017cec",
                "operator:type": "government",
                "amenity": "school",
                "note": "Parent RSPO: 105476"
            }
        },
        {
            "id": 267660,
            "type": "Feature",
            "geometry": {
                "type": "Point",
                "coordinates": [
                    21.04658,
                    53.13895
                ]
            },
            "properties": {
                "isced:level": "3",
                "ref:rspo": 267660,
                "official_name": "Bran\u017cowa Szko\u0142a I Stopnia w Jednoro\u017ccu",
                "name": "Bran\u017cowa Szko\u0142a I Stopnia w Jednoro\u017ccu",
                "addr:postcode": "06-323",
                "addr:city": "Jednoro\u017cec",
                "addr:street": "Odrodzenia",
                "addr:housenumber": "13",
                "addr:city:simc": 510505,
                "addr:street:sym_ul": 14755,
                "phone": "+48 297518499",
                "email": "bszjednorozec@interia.pl",
                "ref:regon": "380485023",
                "ref:vatin": "PL7611561659",
                "operator": "Gmina Jednoro\u017cec",
                "operator:type": "government",
                "amenity": "school",
                "note": "Parent RSPO: 105476"
            }
        },
        {
            "id": 106223,
            "type": "Feature",
            "geometry": {
                "type": "Point",
                "coordinates": [
                    21.0446,
                    53.13981
                ]
            },
            "properties": {
                "ref:rspo": 106223,
                "official_name": "Przedszkole Samorz\u0105dowe w Jednoro\u017ccu",
                "name": "Przedszkole Samorz\u0105dowe w Jednoro\u017ccu",
                "addr:postcode": "06-323",
                "addr:city": "Jednoro\u017cec",
                "addr:street": "Wincentego Witosa",
                "addr:housenumber": "4",
                "addr:city:simc": 510505,
                "addr:street:sym_ul": 24459,
                "phone": "+48 297518478",
                "email": "przedszkole.jednorozec@neostrada.pl",
                "ref:regon": "000912860",
                "operator": "Gmina Jednoro\u017cec",
                "operator:type": "government",
                "amenity": "kindergarten",
                "note": "Parent RSPO: 105476"
            }
        },
        {
            "id": 86330,
            "type": "Feature",
            "geometry": {
                "type": "Point",
                "coordinates": [
                    21.12284,
                    53.19894
                ]
            },
            "properties": {
                "ref:rspo": 86330,
                "official_name": "Punkt Przedszkolny \"Czterolistna Koniczynka\" w Parciakach",
                "name": "Punkt Przedszkolny \"Czterolistna Koniczynka\" w Parciakach",
                "addr:postcode": "06-323",
                "addr:place": "Parciaki",
                "addr:housenumber": "22",
                "addr:city:simc": 510770,
                "phone": "+48 517479418",
                "email": "kurpsierazem@wp.pl",
                "ref:regon": "146428360",
                "operator": "Zwi\u0105zek Stowarzysze\u0144 \"Kurpsie Razem\"",
                "operator:type": "ngo",
                "amenity": "kindergarten"
            }
        },
        {
            "id": 123360,
            "type": "Feature",
            "geometry": {
                "type": "Point",
                "coordinates": [
                    21.12284,
                    53.19891
                ]
            },
            "properties": {
                "isced:level": "1;2",
                "ref:rspo": 123360,
                "official_name": "Publiczna Szko\u0142a Podstawowa \u017belazna Rz\u0105dowa-Parciaki z Siedzib\u0105 w Parciakach",
                "name": "Publiczna Szko\u0142a Podstawowa \u017belazna Rz\u0105dowa-Parciaki z Siedzib\u0105 w Parciakach",
                "addr:postcode": "06-323",
                "addr:place": "Parciaki",
                "addr:housenumber": "22",
                "addr:city:simc": 510770,
                "phone": "+48 297518691",
                "email": "szkola-parciaki@jednorozec.pl",
                "website": "https:\/\/spzelazna.edupage.org\/",
                "ref:regon": "147298534",
                "ref:vatin": "PL7611557310",
                "operator": "Gmina Jednoro\u017cec",
                "operator:type": "government",
                "amenity": "school"
            }
        },
        {
            "id": 82807,
            "type": "Feature",
            "geometry": {
                "type": "Point",
                "coordinates": [
                    21.04307,
                    53.21448
                ]
            },
            "properties": {
                "isced:level": "1;2",
                "ref:rspo": 82807,
                "official_name": "Szko\u0142a Podstawowa w Olszewce",
                "name": "Szko\u0142a Podstawowa w Olszewce",
                "addr:postcode": "06-323",
                "addr:place": "Olszewka",
                "addr:housenumber": "80",
                "addr:city:simc": 510735,
                "phone": "+48 297518523",
                "email": "spolszewka3@wp.pl",
                "website": "http:\/\/szkolaolszewka.edupage.org",
                "ref:regon": "001106025",
                "ref:vatin": "PL7611394173",
                "operator": "Gmina Jednoro\u017cec",
                "operator:type": "government",
                "amenity": "school"
            }
        },
        {
            "id": 86366,
            "type": "Feature",
            "geometry": {
                "type": "Point",
                "coordinates": [
                    21.04307,
                    53.21445
                ]
            },
            "properties": {
                "ref:rspo": 86366,
                "official_name": "Punkt Przedszkolny \"Kasztanowy Ludek\" w Olszewce",
                "name": "Punkt Przedszkolny \"Kasztanowy Ludek\" w Olszewce",
                "addr:postcode": "06-323",
                "addr:place": "Olszewka",
                "addr:housenumber": "80",
                "addr:city:simc": 510735,
                "phone": "+48 517479418",
                "email": "kurpsierazem@wp.pl",
                "ref:regon": "146428390",
                "operator": "Zwi\u0105zek Stowarzysze\u0144 \"Kurpsie Razem\"",
                "operator:type": "ngo",
                "amenity": "kindergarten"
            }
        },
        {
            "id": 86506,
            "type": "Feature",
            "geometry": {
                "type": "Point",
                "coordinates": [
                    21.14126,
                    53.2307599
                ]
            },
            "properties": {
                "ref:rspo": 86506,
                "official_name": "Punkt Przedszkolny \"S\u0142oneczny Domek\" w \u017belaznej Rz\u0105dowej",
                "name": "Punkt Przedszkolny \"S\u0142oneczny Domek\" w \u017belaznej Rz\u0105dowej",
                "addr:postcode": "06-323",
                "addr:place": "\u017belazna Rz\u0105dowa",
                "addr:housenumber": "27A",
                "addr:city:simc": 510965,
                "phone": "+48 517479418",
                "email": "kurpsierazem@wp.pl",
                "ref:regon": "146428472",
                "ref:vatin": "PL7582198563",
                "operator": "Zwi\u0105zek Stowarzysze\u0144 \"Kurpsie Razem\"",
                "operator:type": "ngo",
                "amenity": "kindergarten"
            }
        }
    ]
}