{
    "type": "FeatureCollection",
    "features": [
        {
            "id": 65286,
            "type": "Feature",
            "geometry": {
                "type": "Point",
                "coordinates": [
                    20.84597,
                    53.20998
                ]
            },
            "properties": {
                "isced:level": "1;2",
                "ref:rspo": 65286,
                "official_name": "Publiczna Szko\u0142a Podstawowa w Krzynow\u0142odze Wielkiej",
                "name": "Publiczna Szko\u0142a Podstawowa w Krzynow\u0142odze Wielkiej",
                "addr:postcode": "06-330",
                "addr:place": "Krzynow\u0142oga Wielka",
                "addr:housenumber": "18",
                "addr:city:simc": 507503,
                "phone": "+48 297516990",
                "email": "krzynowlogawlkp@poczta.onet.pl",
                "website": "https:\/\/krzynowlogawielka.szkolnastrona.pl\/",
                "ref:regon": "001106060",
                "ref:vatin": "PL7611403386",
                "operator": "Gmina Chorzele",
                "operator:type": "government",
                "amenity": "school"
            }
        },
        {
            "id": 15199,
            "type": "Feature",
            "geometry": {
                "type": "Point",
                "coordinates": [
                    20.89883,
                    53.25276
                ]
            },
            "properties": {
                "ref:rspo": 15199,
                "official_name": "Zesp\u00f3\u0142 Szk\u00f3\u0142 Powiatowych im. W\u0142. St. Reymonta w Chorzelach",
                "name": "Zesp\u00f3\u0142 Szk\u00f3\u0142 Powiatowych",
                "addr:postcode": "06-330",
                "addr:city": "Chorzele",
                "addr:street": "Szkolna",
                "addr:housenumber": "4",
                "addr:city:simc": 966270,
                "addr:street:sym_ul": 21970,
                "phone": "+48 297515024",
                "email": "zspchorzele@poczta.zspchorzele.pl",
                "website": "http:\/\/www.zspchorzele.pl\/",
                "ref:regon": "000842012",
                "ref:vatin": "PL7611065245",
                "operator": "Powiat Przasnyski",
                "operator:type": "government",
                "landuse": "education",
                "fixme": "amenity=school, amenity=college albo landuse=education w zale\u017cno\u015bci od tego, jakie plac\u00f3wki wchodz\u0105 w sk\u0142ad zespo\u0142u. Sprawd\u017a, kiedy stosowa\u0107 amenity=* a kiedy landuse=education.",
                "note": "Children RSPO: 22104;25511;119626;131845"
            }
        },
        {
            "id": 31916,
            "type": "Feature",
            "geometry": {
                "type": "Point",
                "coordinates": [
                    20.89883,
                    53.25273
                ]
            },
            "properties": {
                "isced:level": "1;2",
                "ref:rspo": 31916,
                "official_name": "Publiczna Szko\u0142a Podstawowa Nr 1 im. Marsza\u0142ka J\u00f3zefa Pi\u0142sudskiego w Chorzelach",
                "name": "Publiczna Szko\u0142a Podstawowa Nr 1",
                "addr:postcode": "06-330",
                "addr:city": "Chorzele",
                "addr:street": "Szkolna",
                "addr:housenumber": "4",
                "addr:city:simc": 966270,
                "addr:street:sym_ul": 21970,
                "phone": "+48 297515044",
                "email": "psspchorzele22@wp.pl",
                "website": "http:\/\/www.sp1chorzele.edupage.org",
                "ref:regon": "000641041",
                "ref:vatin": "PL7611403340",
                "operator": "Gmina Chorzele",
                "operator:type": "government",
                "amenity": "school"
            }
        },
        {
            "id": 196395,
            "type": "Feature",
            "geometry": {
                "type": "Point",
                "coordinates": [
                    20.89883,
                    53.252700000000004
                ]
            },
            "properties": {
                "isced:level": "1;2",
                "ref:rspo": 196395,
                "official_name": "Publiczna Szko\u0142a Podstawowa Nr 2 im. Papie\u017ca Jana Paw\u0142a II w Chorzelach",
                "name": "Publiczna Szko\u0142a Podstawowa Nr 2",
                "addr:postcode": "06-330",
                "addr:city": "Chorzele",
                "addr:street": "Szkolna",
                "addr:housenumber": "4b",
                "addr:city:simc": 966270,
                "addr:street:sym_ul": 21970,
                "phone": "+48 297515715",
                "email": "sp2chorzele@wp.pl",
                "website": "http:\/\/sp2chorzele.edupage.org",
                "ref:regon": "367997807",
                "operator": "Gmina Chorzele",
                "operator:type": "government",
                "amenity": "school"
            }
        },
        {
            "id": 22104,
            "type": "Feature",
            "geometry": {
                "type": "Point",
                "coordinates": [
                    20.89883,
                    53.25267
                ]
            },
            "properties": {
                "isced:level": "3",
                "ref:rspo": 22104,
                "official_name": "Liceum Og\u00f3lnokszta\u0142c\u0105ce",
                "name": "Liceum Og\u00f3lnokszta\u0142c\u0105ce",
                "addr:postcode": "06-330",
                "addr:city": "Chorzele",
                "addr:street": "Szkolna",
                "addr:housenumber": "4",
                "addr:city:simc": 966270,
                "addr:street:sym_ul": 21970,
                "phone": "+48 297515024",
                "email": "zspchorzele@poczta.zspchorzele.pl",
                "website": "http:\/\/zspchorzele.pl",
                "ref:regon": "551302065",
                "ref:vatin": "PL7611065245",
                "operator": "Powiat Przasnyski",
                "operator:type": "government",
                "amenity": "school",
                "note": "Parent RSPO: 15199"
            }
        },
        {
            "id": 25511,
            "type": "Feature",
            "geometry": {
                "type": "Point",
                "coordinates": [
                    20.89883,
                    53.25264
                ]
            },
            "properties": {
                "isced:level": "3",
                "ref:rspo": 25511,
                "official_name": "Bran\u017cowa Szko\u0142a I Stopnia",
                "name": "Bran\u017cowa Szko\u0142a I Stopnia",
                "addr:postcode": "06-330",
                "addr:city": "Chorzele",
                "addr:street": "Szkolna",
                "addr:housenumber": "4",
                "addr:city:simc": 966270,
                "addr:street:sym_ul": 21970,
                "phone": "+48 297515024",
                "email": "zspchorzele@poczta.zspchorzele.pl",
                "website": "http:\/\/zspchorzele.pl",
                "ref:regon": "551341639",
                "ref:vatin": "PL7611065245",
                "operator": "Powiat Przasnyski",
                "operator:type": "government",
                "amenity": "school",
                "note": "Parent RSPO: 15199"
            }
        },
        {
            "id": 119626,
            "type": "Feature",
            "geometry": {
                "type": "Point",
                "coordinates": [
                    20.89883,
                    53.252610000000004
                ]
            },
            "properties": {
                "isced:level": "3",
                "ref:rspo": 119626,
                "official_name": "Technikum Obs\u0142ugi Turystycznej",
                "name": "Technikum Obs\u0142ugi Turystycznej",
                "addr:postcode": "06-330",
                "addr:city": "Chorzele",
                "addr:street": "Szkolna",
                "addr:housenumber": "4",
                "addr:city:simc": 966270,
                "addr:street:sym_ul": 21970,
                "phone": "+48 297515024",
                "email": "zspchorzele@poczta.zspchorzele.pl",
                "website": "http:\/\/zspchorzele.pl",
                "ref:regon": "146854861",
                "ref:vatin": "PL7611527332",
                "operator": "Powiat Przasnyski",
                "operator:type": "government",
                "amenity": "school",
                "note": "Parent RSPO: 15199"
            }
        },
        {
            "id": 131845,
            "type": "Feature",
            "geometry": {
                "type": "Point",
                "coordinates": [
                    20.89883,
                    53.25258
                ]
            },
            "properties": {
                "isced:level": "3",
                "ref:rspo": 131845,
                "official_name": "Technikum \u017bywienia I Us\u0142ug Gastronomicznych",
                "name": "Technikum \u017bywienia I Us\u0142ug Gastronomicznych",
                "addr:postcode": "06-330",
                "addr:city": "Chorzele",
                "addr:street": "Szkolna",
                "addr:housenumber": "4",
                "addr:city:simc": 966270,
                "addr:street:sym_ul": 21970,
                "phone": "+48 297515024",
                "email": "zspchorzele@poczta.zspchorzele.pl",
                "website": "http:\/\/www.zspchorzele.pl",
                "ref:regon": "365366706",
                "ref:vatin": "PL7611065245",
                "operator": "Powiat Przasnyski",
                "operator:type": "government",
                "amenity": "school",
                "note": "Parent RSPO: 15199"
            }
        },
        {
            "id": 60908,
            "type": "Feature",
            "geometry": {
                "type": "Point",
                "coordinates": [
                    20.79641,
                    53.25526
                ]
            },
            "properties": {
                "isced:level": "1;2",
                "ref:rspo": 60908,
                "official_name": "Publiczna Szko\u0142a Podstawowa im. Ojca Honoriusza Kowalczyka w Duczyminie",
                "name": "Publiczna Szko\u0142a Podstawowa",
                "addr:postcode": "06-330",
                "addr:place": "Duczymin",
                "addr:housenumber": "15",
                "addr:city:simc": 507414,
                "phone": "+48 295973217",
                "email": "szkoladuczymin@wp.pl",
                "website": "http:\/\/www.spduczymin.edupage.org",
                "ref:regon": "001106054",
                "operator": "Gmina Chorzele",
                "operator:type": "government",
                "amenity": "school"
            }
        },
        {
            "id": 30118,
            "type": "Feature",
            "geometry": {
                "type": "Point",
                "coordinates": [
                    21.05224,
                    53.25531
                ]
            },
            "properties": {
                "isced:level": "1;2",
                "ref:rspo": 30118,
                "official_name": "Publiczna Szko\u0142a Podstawowa w Po\u015bcieniu Wsi",
                "name": "Publiczna Szko\u0142a Podstawowa w Po\u015bcieniu Wsi",
                "addr:postcode": "06-330",
                "addr:place": "Po\u015bcie\u0144-Wie\u015b",
                "addr:housenumber": "47",
                "addr:city:simc": 507667,
                "phone": "+48 297518526",
                "email": "podstawowa47@wp.pl",
                "ref:regon": "001106083",
                "ref:vatin": "PL7611403400",
                "operator": "Gmina Chorzele",
                "operator:type": "government",
                "amenity": "school"
            }
        },
        {
            "id": 32069,
            "type": "Feature",
            "geometry": {
                "type": "Point",
                "coordinates": [
                    20.8983199,
                    53.2629499
                ]
            },
            "properties": {
                "ref:rspo": 32069,
                "official_name": "Przedszkole Samorz\u0105dowe w Chorzelach",
                "name": "Przedszkole Samorz\u0105dowe w Chorzelach",
                "addr:postcode": "06-330",
                "addr:city": "Chorzele",
                "addr:street": "Weso\u0142a",
                "addr:housenumber": "1",
                "addr:city:simc": 966270,
                "addr:street:sym_ul": 23884,
                "phone": "+48 297515043",
                "email": "pswch@o2.pl",
                "website": "http:\/\/przedszkolechorzele.edupage.org",
                "ref:regon": "000913077",
                "ref:vatin": "PL7611403535",
                "operator": "Gmina Chorzele",
                "operator:type": "government",
                "amenity": "kindergarten"
            }
        },
        {
            "id": 270282,
            "type": "Feature",
            "geometry": {
                "type": "Point",
                "coordinates": [
                    20.89821,
                    53.26649
                ]
            },
            "properties": {
                "ref:rspo": 270282,
                "official_name": "Niepubliczne Przedszkole \"Calineczka\"",
                "name": "Niepubliczne Przedszkole \"Calineczka\"",
                "addr:postcode": "06-330",
                "addr:city": "Chorzele",
                "addr:street": "Brzozowa",
                "addr:housenumber": "1",
                "addr:city:simc": 966270,
                "addr:street:sym_ul": 2276,
                "phone": "+48 509673947",
                "email": "calineczka.chorzele@wp.pl",
                "ref:regon": "382325625",
                "operator": "Kamil Suchodolski",
                "operator:type": "private",
                "amenity": "kindergarten"
            }
        },
        {
            "id": 31425,
            "type": "Feature",
            "geometry": {
                "type": "Point",
                "coordinates": [
                    21.09873,
                    53.29753
                ]
            },
            "properties": {
                "isced:level": "1;2",
                "ref:rspo": 31425,
                "official_name": "Publiczna Szko\u0142a Podstawowa w Krukowie",
                "name": "Publiczna Szko\u0142a Podstawowa w Krukowie",
                "addr:postcode": "06-333",
                "addr:place": "Krukowo",
                "addr:housenumber": "87",
                "addr:city:simc": 507495,
                "phone": "+48 297516225",
                "email": "spkrukowo87@wp.pl",
                "website": "http:\/\/www.spkrukowo87@wp.pl",
                "ref:regon": "001106077",
                "ref:vatin": "PL7611403593",
                "operator": "Gmina Chorzele",
                "operator:type": "government",
                "amenity": "school"
            }
        },
        {
            "id": 65288,
            "type": "Feature",
            "geometry": {
                "type": "Point",
                "coordinates": [
                    20.99569,
                    53.30769
                ]
            },
            "properties": {
                "isced:level": "1;2",
                "ref:rspo": 65288,
                "official_name": "Publiczna Szko\u0142a Podstawowa im. Boles\u0142awa Chrobrego w Zar\u0119bach",
                "name": "Publiczna Szko\u0142a Podstawowa",
                "addr:postcode": "06-333",
                "addr:place": "Zar\u0119by",
                "addr:housenumber": "41",
                "addr:city:simc": 507934,
                "phone": "+48 297536328",
                "email": "zszareby@wp.pl",
                "website": "http:\/\/pspzareby.edupage.org",
                "ref:regon": "001106114",
                "operator": "Gmina Chorzele",
                "operator:type": "government",
                "amenity": "school"
            }
        }
    ]
}