{
    "type": "FeatureCollection",
    "features": [
        {
            "id": 14006,
            "type": "Feature",
            "geometry": {
                "type": "Point",
                "coordinates": [
                    20.91985,
                    52.98072
                ]
            },
            "properties": {
                "ref:rspo": 14006,
                "official_name": "Specjalny O\u015brodek Szkolno-Wychowawczy w Przasnyszu",
                "name": "Specjalny O\u015brodek Szkolno-Wychowawczy w Przasnyszu",
                "addr:country": "PL",
                "addr:postcode": "06-300",
                "addr:city": "Przasnysz",
                "addr:street": "Leszno",
                "addr:housenumber": "61",
                "addr:teryt:simc": 10888,
                "addr:teryt:sym_ul": 966398,
                "contact:phone": "+48 297522787",
                "contact:email": "sosw@powiat-przasnysz.pl",
                "contact:website": "http:\/\/soswprzasnysz.szkolnastrona.pl",
                "ref:regon": "000693523",
                "ref:vatin": "PL7611391430",
                "operator": "Powiat Przasnyski",
                "operator:type": "government",
                "amenity": "school",
                "note": "Children RSPO: 21065;21149;21212"
            }
        },
        {
            "id": 21065,
            "type": "Feature",
            "geometry": {
                "type": "Point",
                "coordinates": [
                    20.91985,
                    52.980689999999996
                ]
            },
            "properties": {
                "isced:level": "1;2",
                "ref:rspo": 21065,
                "official_name": "Szko\u0142a Podstawowa Specjalna w Przasnyszu",
                "name": "Szko\u0142a Podstawowa Specjalna w Przasnyszu",
                "addr:country": "PL",
                "addr:postcode": "06-300",
                "addr:city": "Przasnysz",
                "addr:street": "Leszno",
                "addr:housenumber": "61",
                "addr:teryt:simc": 10888,
                "addr:teryt:sym_ul": 966398,
                "contact:phone": "+48 297522787",
                "contact:email": "sosw@powiat-przasnysz.pl",
                "contact:website": "http:\/\/soswprzasnysz.szkolnastrona.pl",
                "ref:regon": "551298085",
                "ref:vatin": "PL7611391430",
                "operator": "Powiat Przasnyski",
                "operator:type": "government",
                "amenity": "school",
                "note": "Parent RSPO: 14006"
            }
        },
        {
            "id": 21149,
            "type": "Feature",
            "geometry": {
                "type": "Point",
                "coordinates": [
                    20.91985,
                    52.98066
                ]
            },
            "properties": {
                "isced:level": "3",
                "ref:rspo": 21149,
                "official_name": "Bran\u017cowa Szko\u0142a I Stopnia",
                "name": "Bran\u017cowa Szko\u0142a I Stopnia",
                "addr:country": "PL",
                "addr:postcode": "06-300",
                "addr:city": "Przasnysz",
                "addr:street": "Leszno",
                "addr:housenumber": "61",
                "addr:teryt:simc": 10888,
                "addr:teryt:sym_ul": 966398,
                "contact:phone": "+48 297522787",
                "contact:email": "sosw@powiat-przasnysz.pl",
                "contact:website": "http:\/\/soswprzasnysz.szkolnastrona.pl",
                "ref:regon": "551298139",
                "ref:vatin": "PL7611391430",
                "operator": "Powiat Przasnyski",
                "operator:type": "government",
                "amenity": "school",
                "note": "Parent RSPO: 14006"
            }
        },
        {
            "id": 21212,
            "type": "Feature",
            "geometry": {
                "type": "Point",
                "coordinates": [
                    20.91985,
                    52.98063
                ]
            },
            "properties": {
                "ref:rspo": 21212,
                "official_name": "Szko\u0142a Specjalna Przysposobiaj\u0105ca Do Pracy",
                "name": "Szko\u0142a Specjalna Przysposobiaj\u0105ca Do Pracy",
                "addr:country": "PL",
                "addr:postcode": "06-300",
                "addr:city": "Przasnysz",
                "addr:street": "Leszno",
                "addr:housenumber": "61",
                "addr:teryt:simc": 10888,
                "addr:teryt:sym_ul": 966398,
                "contact:phone": "+48 297522787",
                "contact:email": "sosw@powiat-przasnysz.pl",
                "contact:website": "http:\/\/soswprzasnysz.szkolnastrona.pl",
                "ref:regon": "551331865",
                "ref:vatin": "PL7611391430",
                "operator": "Powiat Przasnyski",
                "operator:type": "government",
                "amenity": "school",
                "note": "Parent RSPO: 14006"
            }
        },
        {
            "id": 118506,
            "type": "Feature",
            "geometry": {
                "type": "Point",
                "coordinates": [
                    20.88841,
                    53.0125699
                ]
            },
            "properties": {
                "ref:rspo": 118506,
                "official_name": "Niepubliczne Przedszkole \"Wiola\"",
                "name": "Niepubliczne Przedszkole \"Wiola\"",
                "addr:country": "PL",
                "addr:postcode": "06-300",
                "addr:city": "Przasnysz",
                "addr:street": "Krzywa",
                "addr:housenumber": "19",
                "addr:teryt:simc": 10157,
                "addr:teryt:sym_ul": 966398,
                "contact:phone": "+48 602896347",
                "contact:email": "agozdziewski@poczta.onet.pl",
                "ref:regon": "146804521",
                "ref:vatin": "PL7611089725",
                "operator": "Wioletta Go\u017adziewska",
                "operator:type": "private",
                "amenity": "kindergarten"
            }
        },
        {
            "id": 7343,
            "type": "Feature",
            "geometry": {
                "type": "Point",
                "coordinates": [
                    20.88028,
                    53.01661
                ]
            },
            "properties": {
                "ref:rspo": 7343,
                "official_name": "Zesp\u00f3\u0142 Szk\u00f3\u0142 Powiatowych im. Majora Henryka Sucharskiego",
                "name": "Zesp\u00f3\u0142 Szk\u00f3\u0142 Powiatowych",
                "addr:country": "PL",
                "addr:postcode": "06-300",
                "addr:city": "Przasnysz",
                "addr:street": "Mazowiecka",
                "addr:housenumber": "25",
                "addr:teryt:simc": 12540,
                "addr:teryt:sym_ul": 966398,
                "contact:phone": "+48 297522300",
                "contact:email": "szkola@zsp-przasnysz.edu.pl",
                "contact:website": "http:\/\/www.zsp-przasnysz.edu.pl",
                "ref:regon": "000199869",
                "ref:vatin": "PL7611196237",
                "operator": "Powiat Przasnyski",
                "operator:type": "government",
                "landuse": "education",
                "fixme": "amenity=school, amenity=college albo landuse=education w zale\u017cno\u015bci od tego, jakie plac\u00f3wki wchodz\u0105 w sk\u0142ad zespo\u0142u. Sprawd\u017a, kiedy stosowa\u0107 amenity=* a kiedy landuse=education.",
                "note": "Children RSPO: 12642;14440;14441;14492;119080"
            }
        },
        {
            "id": 12642,
            "type": "Feature",
            "geometry": {
                "type": "Point",
                "coordinates": [
                    20.88028,
                    53.01658
                ]
            },
            "properties": {
                "isced:level": "3",
                "ref:rspo": 12642,
                "official_name": "Liceum Og\u00f3lnokszta\u0142c\u0105ce dla Doros\u0142ych",
                "name": "Liceum Og\u00f3lnokszta\u0142c\u0105ce dla Doros\u0142ych",
                "addr:country": "PL",
                "addr:postcode": "06-300",
                "addr:city": "Przasnysz",
                "addr:street": "Mazowiecka",
                "addr:housenumber": "25",
                "addr:teryt:simc": 12540,
                "addr:teryt:sym_ul": 966398,
                "contact:phone": "+48 297522300",
                "contact:email": "szkola@zsp-przasnysz.edu.pl",
                "contact:website": "http:\/\/www.zsp-przasnysz.edu.pl",
                "ref:regon": "146294706",
                "ref:vatin": "PL7611196237",
                "operator": "Powiat Przasnyski",
                "operator:type": "government",
                "amenity": "school",
                "note": "Parent RSPO: 7343"
            }
        },
        {
            "id": 14440,
            "type": "Feature",
            "geometry": {
                "type": "Point",
                "coordinates": [
                    20.88028,
                    53.01655
                ]
            },
            "properties": {
                "isced:level": "3",
                "ref:rspo": 14440,
                "official_name": "Liceum Og\u00f3lnokszta\u0142c\u0105ce",
                "name": "Liceum Og\u00f3lnokszta\u0142c\u0105ce",
                "addr:country": "PL",
                "addr:postcode": "06-300",
                "addr:city": "Przasnysz",
                "addr:street": "Mazowiecka",
                "addr:housenumber": "25",
                "addr:teryt:simc": 12540,
                "addr:teryt:sym_ul": 966398,
                "contact:phone": "+48 297522300",
                "contact:email": "szkola@zsp-przasnysz.edu.pl",
                "contact:website": "http:\/\/www.zsp-przasnysz.edu.pl",
                "ref:regon": "551302310",
                "ref:vatin": "PL7611196237",
                "operator": "Powiat Przasnyski",
                "operator:type": "government",
                "amenity": "school",
                "note": "Parent RSPO: 7343"
            }
        },
        {
            "id": 14441,
            "type": "Feature",
            "geometry": {
                "type": "Point",
                "coordinates": [
                    20.88028,
                    53.01652
                ]
            },
            "properties": {
                "isced:level": "3",
                "ref:rspo": 14441,
                "official_name": "Bran\u017cowa Szko\u0142a I Stopnia",
                "name": "Bran\u017cowa Szko\u0142a I Stopnia",
                "addr:country": "PL",
                "addr:postcode": "06-300",
                "addr:city": "Przasnysz",
                "addr:street": "Mazowiecka",
                "addr:housenumber": "25",
                "addr:teryt:simc": 12540,
                "addr:teryt:sym_ul": 966398,
                "contact:phone": "+48 297522300",
                "contact:email": "szkola@zsp-przasnysz.edu.pl",
                "contact:website": "http:\/\/www.zsp-przasnysz.edu.pl",
                "ref:regon": "551302295",
                "ref:vatin": "PL7611196237",
                "operator": "Powiat Przasnyski",
                "operator:type": "government",
                "amenity": "school",
                "note": "Parent RSPO: 7343"
            }
        },
        {
            "id": 14492,
            "type": "Feature",
            "geometry": {
                "type": "Point",
                "coordinates": [
                    20.88028,
                    53.01649
                ]
            },
            "properties": {
                "isced:level": "3",
                "ref:rspo": 14492,
                "official_name": "Technikum",
                "name": "Technikum",
                "addr:country": "PL",
                "addr:postcode": "06-300",
                "addr:city": "Przasnysz",
                "addr:street": "Mazowiecka",
                "addr:housenumber": "25",
                "addr:teryt:simc": 12540,
                "addr:teryt:sym_ul": 966398,
                "contact:phone": "+48 297522300",
                "contact:email": "szkola@zsp-przasnysz.edu.pl",
                "contact:website": "http:\/\/www.zsp-przasnysz.edu.pl",
                "ref:regon": "551302250",
                "ref:vatin": "PL7611196237",
                "operator": "Powiat Przasnyski",
                "operator:type": "government",
                "amenity": "school",
                "note": "Parent RSPO: 7343"
            }
        },
        {
            "id": 7462,
            "type": "Feature",
            "geometry": {
                "type": "Point",
                "coordinates": [
                    20.8680999,
                    53.01693
                ]
            },
            "properties": {
                "ref:rspo": 7462,
                "official_name": "Niepubliczne Centrum Kszta\u0142cenia \"Edukator\"",
                "name": "Niepubliczne Centrum Kszta\u0142cenia \"Edukator\"",
                "addr:country": "PL",
                "addr:postcode": "06-300",
                "addr:city": "Przasnysz",
                "addr:street": "Szosa Ciechanowska",
                "addr:housenumber": "6",
                "addr:teryt:simc": 22035,
                "addr:teryt:sym_ul": 966398,
                "contact:phone": "+48 297563317",
                "contact:email": "elzbietasternal@wp.pl",
                "contact:website": "http:\/\/www.edukatorprzasnysz.info",
                "ref:regon": "146294758",
                "ref:vatin": "PL7831150869",
                "operator": "El\u017cbieta Sternal",
                "operator:type": "private",
                "amenity": "school",
                "fixme": "amenity=school lub amenity=college",
                "note": "Children RSPO: 125130"
            }
        },
        {
            "id": 40870,
            "type": "Feature",
            "geometry": {
                "type": "Point",
                "coordinates": [
                    20.8680999,
                    53.0169
                ]
            },
            "properties": {
                "isced:level": "3",
                "ref:rspo": 40870,
                "official_name": "Akademickie Liceum Og\u00f3lnokszta\u0142c\u0105ce",
                "name": "Akademickie Liceum Og\u00f3lnokszta\u0142c\u0105ce",
                "addr:country": "PL",
                "addr:postcode": "06-300",
                "addr:city": "Przasnysz",
                "addr:street": "Szosa Ciechanowska",
                "addr:housenumber": "6",
                "addr:teryt:simc": 22035,
                "addr:teryt:sym_ul": 966398,
                "contact:phone": "+48 297524342",
                "contact:email": "kontakt@ult.edu.pl",
                "contact:website": "http:\/\/przasnysz.akademickieliceum.edu.pl",
                "ref:regon": "146399931",
                "ref:vatin": "PL7831150869",
                "operator": "El\u017cbieta Sternal",
                "operator:type": "private",
                "amenity": "school"
            }
        },
        {
            "id": 40952,
            "type": "Feature",
            "geometry": {
                "type": "Point",
                "coordinates": [
                    20.8680999,
                    53.016870000000004
                ]
            },
            "properties": {
                "isced:level": "3",
                "ref:rspo": 40952,
                "official_name": "Technikum Turystyki Wiejskiej",
                "name": "Technikum Turystyki Wiejskiej",
                "addr:country": "PL",
                "addr:postcode": "06-300",
                "addr:city": "Przasnysz",
                "addr:street": "Szosa Ciechanowska",
                "addr:housenumber": "6",
                "addr:teryt:simc": 22035,
                "addr:teryt:sym_ul": 966398,
                "contact:phone": "+48 297524342",
                "contact:email": "elzbietasternal@wp.pl",
                "contact:website": "http:\/\/www.edukatorprzasnysz.info\/",
                "ref:regon": "146355520",
                "ref:vatin": "PL7831150869",
                "operator": "El\u017cbieta Sternal",
                "operator:type": "private",
                "amenity": "school"
            }
        },
        {
            "id": 41135,
            "type": "Feature",
            "geometry": {
                "type": "Point",
                "coordinates": [
                    20.8680999,
                    53.01684
                ]
            },
            "properties": {
                "isced:level": "3",
                "ref:rspo": 41135,
                "official_name": "Trzyletnie Liceum Og\u00f3lnokszta\u0142c\u0105ce dla Doros\u0142ych",
                "name": "Trzyletnie Liceum Og\u00f3lnokszta\u0142c\u0105ce dla Doros\u0142ych",
                "addr:country": "PL",
                "addr:postcode": "06-300",
                "addr:city": "Przasnysz",
                "addr:street": "Szosa Ciechanowska",
                "addr:housenumber": "6",
                "addr:teryt:simc": 22035,
                "addr:teryt:sym_ul": 966398,
                "contact:phone": "+48 297563317",
                "contact:email": "edukatorprzasnysz@wp.pl",
                "contact:website": "http:\/\/www.edukatorprzasnysz.info\/",
                "ref:regon": "146399279",
                "ref:vatin": "PL7831150869",
                "operator": "El\u017cbieta Sternal",
                "operator:type": "private",
                "amenity": "school"
            }
        },
        {
            "id": 41293,
            "type": "Feature",
            "geometry": {
                "type": "Point",
                "coordinates": [
                    20.8680999,
                    53.01681
                ]
            },
            "properties": {
                "isced:level": "4",
                "ref:rspo": 41293,
                "official_name": "Szko\u0142a Policealna",
                "name": "Szko\u0142a Policealna",
                "addr:country": "PL",
                "addr:postcode": "06-300",
                "addr:city": "Przasnysz",
                "addr:street": "Szosa Ciechanowska",
                "addr:housenumber": "6",
                "addr:teryt:simc": 22035,
                "addr:teryt:sym_ul": 966398,
                "contact:phone": "+48 297563317",
                "contact:email": "edukatorprzasnysz@wp.pl",
                "contact:website": "http:\/\/www.edukatorprzasnysz.info\/",
                "ref:regon": "146391237",
                "ref:vatin": "PL7831150869",
                "operator": "El\u017cbieta Sternal",
                "operator:type": "private",
                "amenity": "college"
            }
        },
        {
            "id": 110111,
            "type": "Feature",
            "geometry": {
                "type": "Point",
                "coordinates": [
                    20.8680999,
                    53.016780000000004
                ]
            },
            "properties": {
                "ref:rspo": 110111,
                "official_name": "J\u0119zykowe Przedszkole \"The Academy Of Smurfs\" w Przasnyszu",
                "name": "J\u0119zykowe Przedszkole \"The Academy Of Smurfs\" w Przasnyszu",
                "addr:country": "PL",
                "addr:postcode": "06-300",
                "addr:city": "Przasnysz",
                "addr:street": "Szosa Ciechanowska",
                "addr:housenumber": "6",
                "addr:teryt:simc": 22035,
                "addr:teryt:sym_ul": 966398,
                "contact:phone": "+48 508381371",
                "contact:email": "akademiasmerfa@wp.pl",
                "ref:regon": "146548443",
                "ref:vatin": "PL7822316187",
                "operator": "Magdalena Sternal",
                "operator:type": "private",
                "amenity": "kindergarten"
            }
        },
        {
            "id": 119122,
            "type": "Feature",
            "geometry": {
                "type": "Point",
                "coordinates": [
                    20.8680999,
                    53.01675
                ]
            },
            "properties": {
                "isced:level": "3",
                "ref:rspo": 119122,
                "official_name": "Bran\u017cowa Szko\u0142a I Stopnia",
                "name": "Bran\u017cowa Szko\u0142a I Stopnia",
                "addr:country": "PL",
                "addr:postcode": "06-300",
                "addr:city": "Przasnysz",
                "addr:street": "Szosa Ciechanowska",
                "addr:housenumber": "6",
                "addr:teryt:simc": 22035,
                "addr:teryt:sym_ul": 966398,
                "contact:phone": "+48 297563317",
                "contact:email": "edukatorprzasnysz@wp.pl",
                "contact:website": "http:\/\/www.edukatorprzasnysz.info\/",
                "ref:regon": "146836886",
                "ref:vatin": "PL7831150869",
                "operator": "El\u017cbieta Sternal",
                "operator:type": "private",
                "amenity": "school"
            }
        },
        {
            "id": 123889,
            "type": "Feature",
            "geometry": {
                "type": "Point",
                "coordinates": [
                    20.8680999,
                    53.01672
                ]
            },
            "properties": {
                "isced:level": "1;2",
                "ref:rspo": 123889,
                "official_name": "Szko\u0142a Podstawowa Nr 5",
                "name": "Szko\u0142a Podstawowa Nr 5",
                "addr:country": "PL",
                "addr:postcode": "06-300",
                "addr:city": "Przasnysz",
                "addr:street": "Szosa Ciechanowska",
                "addr:housenumber": "6",
                "addr:teryt:simc": 22035,
                "addr:teryt:sym_ul": 966398,
                "contact:email": "sp5przasnysz@wp.pl",
                "ref:regon": "147361445",
                "operator": "Magdalena Sternal",
                "operator:type": "private",
                "amenity": "school"
            }
        },
        {
            "id": 129668,
            "type": "Feature",
            "geometry": {
                "type": "Point",
                "coordinates": [
                    20.8680999,
                    53.016690000000004
                ]
            },
            "properties": {
                "isced:level": "3",
                "ref:rspo": 129668,
                "official_name": "Technikum Agrobiznesu",
                "name": "Technikum Agrobiznesu",
                "addr:country": "PL",
                "addr:postcode": "06-300",
                "addr:city": "Przasnysz",
                "addr:street": "Szosa Ciechanowska",
                "addr:housenumber": "6",
                "addr:teryt:simc": 22035,
                "addr:teryt:sym_ul": 966398,
                "contact:phone": "+48 297563317",
                "contact:email": "edukatorprzasnysz@wp.pl",
                "contact:website": "http:\/\/www.edukatorprzasnysz.info\/",
                "ref:regon": "362736752",
                "ref:vatin": "PL7831150869",
                "operator": "El\u017cbieta Sternal",
                "operator:type": "private",
                "amenity": "school"
            }
        },
        {
            "id": 125130,
            "type": "Feature",
            "geometry": {
                "type": "Point",
                "coordinates": [
                    20.8680999,
                    53.01666
                ]
            },
            "properties": {
                "isced:level": "4",
                "ref:rspo": 125130,
                "official_name": "Szko\u0142a Policealna w Przasnyszu Ul. Szosa Ciechanowska 6,06-300 Przasnysz",
                "name": "Szko\u0142a Policealna w Przasnyszu Ul. Szosa Ciechanowska 6,06-300 Przasnysz",
                "addr:country": "PL",
                "addr:postcode": "06-300",
                "addr:city": "Przasnysz",
                "addr:street": "Szosa Ciechanowska",
                "addr:housenumber": "6",
                "addr:teryt:simc": 22035,
                "addr:teryt:sym_ul": 966398,
                "contact:phone": "+48 297563317",
                "contact:email": "elzbietasternal@wp.pl",
                "contact:website": "http:\/\/www.edukatorprzasnysz.info\/",
                "ref:regon": "147427463",
                "ref:vatin": "PL7831150869",
                "operator": "El\u017cbieta Sternal",
                "operator:type": "private",
                "amenity": "college",
                "note": "Parent RSPO: 7462"
            }
        },
        {
            "id": 15247,
            "type": "Feature",
            "geometry": {
                "type": "Point",
                "coordinates": [
                    20.890369415283,
                    53.017681121826
                ]
            },
            "properties": {
                "isced:level": "3",
                "ref:rspo": 15247,
                "official_name": "Liceum Og\u00f3lnokszta\u0142c\u0105ce im. Komisji Edukacji Narodowej w Przasnyszu",
                "name": "Liceum Og\u00f3lnokszta\u0142c\u0105ce",
                "addr:country": "PL",
                "addr:postcode": "06-300",
                "addr:city": "Przasnysz",
                "addr:street": "\u015awi\u0119tego Stanis\u0142awa Kostki",
                "addr:housenumber": "15",
                "addr:teryt:simc": 9480,
                "addr:teryt:sym_ul": 966398,
                "contact:phone": "+48 297522336",
                "contact:email": "liceum@loken-przasnysz.pl",
                "contact:website": "http:\/\/www.ken.edupage.org",
                "ref:regon": "000258603",
                "ref:vatin": "PL7611391424",
                "operator": "Powiat Przasnyski",
                "operator:type": "government",
                "amenity": "school"
            }
        },
        {
            "id": 119080,
            "type": "Feature",
            "geometry": {
                "type": "Point",
                "coordinates": [
                    20.8700672,
                    53.0177435
                ]
            },
            "properties": {
                "ref:rspo": 119080,
                "official_name": "Centrum Kszta\u0142cenia Praktycznego",
                "name": "Centrum Kszta\u0142cenia Praktycznego",
                "addr:country": "PL",
                "addr:postcode": "06-300",
                "addr:city": "Przasnysz",
                "addr:street": "Gda\u0144ska",
                "addr:housenumber": "1",
                "addr:teryt:simc": 5431,
                "addr:teryt:sym_ul": 966398,
                "contact:phone": "+48 297523276",
                "contact:email": "ckpprzasnysz@interia.pl",
                "ref:regon": "146846608",
                "ref:vatin": "PL7611196237",
                "operator": "Powiat Przasnyski",
                "operator:type": "government",
                "fixme": "w zale\u017cno\u015bci od przedmiotu dzia\u0142alno\u015bci (np. amenity=training + training=*, amenity=dancing_school, amenity=language_school, amenity=music_school) albo amenity=school, amenity=college, albo landuse=education w zale\u017cno\u015bci od tego, jakie plac\u00f3wki wchodz\u0105 w sk\u0142ad zespo\u0142u. Sprawd\u017a, kiedy stosowa\u0107 amenity=* a kiedy landuse=education.",
                "note": "Parent RSPO: 7343"
            }
        },
        {
            "id": 118487,
            "type": "Feature",
            "geometry": {
                "type": "Point",
                "coordinates": [
                    20.89802,
                    53.01785
                ]
            },
            "properties": {
                "ref:rspo": 118487,
                "official_name": "Niepubliczne Przedszkole \"Kraina Gumisi\u00f3w\"",
                "name": "Niepubliczne Przedszkole \"Kraina Gumisi\u00f3w\"",
                "addr:country": "PL",
                "addr:postcode": "06-300",
                "addr:city": "Przasnysz",
                "addr:street": "R\u00f3\u017cana",
                "addr:housenumber": "17",
                "addr:teryt:simc": 19000,
                "addr:teryt:sym_ul": 966398,
                "contact:phone": "+48 296462899",
                "contact:email": "alina.kuligowska@wp.pl",
                "ref:regon": "146804290",
                "ref:vatin": "PL7611148669",
                "operator": "Alina Kuligowska",
                "operator:type": "private",
                "amenity": "kindergarten"
            }
        },
        {
            "id": 272654,
            "type": "Feature",
            "geometry": {
                "type": "Point",
                "coordinates": [
                    20.9068,
                    53.01835
                ]
            },
            "properties": {
                "ref:rspo": 272654,
                "official_name": "S\u0142oneczna Kraina Przedszkole",
                "name": "S\u0142oneczna Kraina Przedszkole",
                "addr:country": "PL",
                "addr:postcode": "06-300",
                "addr:city": "Przasnysz",
                "addr:street": "Lotnik\u00f3w",
                "addr:housenumber": "10",
                "addr:teryt:simc": 11275,
                "addr:teryt:sym_ul": 966398,
                "contact:email": "malgorzata.szafranska@o2.pl",
                "ref:regon": "384272070",
                "operator": "Ma\u0142gorzata Szafra\u0144ska",
                "operator:type": "private",
                "amenity": "kindergarten"
            }
        },
        {
            "id": 268293,
            "type": "Feature",
            "geometry": {
                "type": "Point",
                "coordinates": [
                    20.87859,
                    53.01883
                ]
            },
            "properties": {
                "ref:rspo": 268293,
                "official_name": "Niepubliczne Przedszkole \"Przedszkole Z Klas\u0105\"",
                "name": "Niepubliczne Przedszkole \"Przedszkole Z Klas\u0105\"",
                "addr:country": "PL",
                "addr:postcode": "06-300",
                "addr:city": "Przasnysz",
                "addr:street": "Marsza\u0142ka J\u00f3zefa Pi\u0142sudskiego",
                "addr:housenumber": "75",
                "addr:teryt:simc": 36029,
                "addr:teryt:sym_ul": 966398,
                "contact:email": "kontakt@przedszkolezklasa.edu.pl",
                "contact:website": "http:\/\/przedszkolezklasa.edu.pl",
                "ref:regon": "381069290",
                "operator": "Lumaland Sp\u00f3\u0142ka Z Ograniczon\u0105 Odpowiedzialno\u015bci\u0105",
                "operator:type": "private",
                "amenity": "kindergarten"
            }
        },
        {
            "id": 113583,
            "type": "Feature",
            "geometry": {
                "type": "Point",
                "coordinates": [
                    20.8818899,
                    53.0195099
                ]
            },
            "properties": {
                "isced:level": "1;2",
                "ref:rspo": 113583,
                "official_name": "Szko\u0142a Podstawowa Nr 2 im. Henryka Sienkiewicza",
                "name": "Szko\u0142a Podstawowa Nr 2",
                "addr:country": "PL",
                "addr:postcode": "06-300",
                "addr:city": "Przasnysz",
                "addr:street": "Jana Kili\u0144skiego",
                "addr:housenumber": "1",
                "addr:teryt:simc": 8435,
                "addr:teryt:sym_ul": 966398,
                "contact:phone": "+48 297522317",
                "contact:email": "sp2-przasnysz@wp.pl",
                "contact:website": "http:\/\/www.sp2-przasnysz.pl",
                "ref:regon": "000694698",
                "ref:vatin": "PL7611424017",
                "operator": "Miasto Przasnysz",
                "operator:type": "government",
                "amenity": "school"
            }
        },
        {
            "id": 69962,
            "type": "Feature",
            "geometry": {
                "type": "Point",
                "coordinates": [
                    20.89497,
                    53.02006
                ]
            },
            "properties": {
                "isced:level": "1;2",
                "ref:rspo": 69962,
                "official_name": "Szko\u0142a Podstawowa Nr 1 Z Oddzia\u0142ami Integracyjnymi im. Kawaler\u00f3w Orderu U\u015bmiechu",
                "name": "Szko\u0142a Podstawowa Nr 1 Z Oddzia\u0142ami Integracyjnymi",
                "addr:country": "PL",
                "addr:postcode": "06-300",
                "addr:city": "Przasnysz",
                "addr:street": "\u017bwirki i Wigury",
                "addr:housenumber": "4",
                "addr:teryt:simc": 26608,
                "addr:teryt:sym_ul": 966398,
                "contact:phone": "+48 297522204",
                "contact:email": "sp1przasnysz@gmail.com",
                "ref:regon": "000641035",
                "ref:vatin": "PL7611463431",
                "operator": "Miasto Przasnysz",
                "operator:type": "government",
                "amenity": "school"
            }
        },
        {
            "id": 42165,
            "type": "Feature",
            "geometry": {
                "type": "Point",
                "coordinates": [
                    20.89681,
                    53.02081
                ]
            },
            "properties": {
                "isced:level": "1;2",
                "ref:rspo": 42165,
                "official_name": "Niepubliczna Szko\u0142a Podstawowa Z Oddzia\u0142ami Przedszkolnymi Realizuj\u0105ca Program Rehabilitacji \"Nasza Szko\u0142a\"W Przasnyszu",
                "name": "Niepubliczna Szko\u0142a Podstawowa Z Oddzia\u0142ami Przedszkolnymi Realizuj\u0105ca Program Rehabilitacji \"Nasza Szko\u0142a\"W Przasnyszu",
                "addr:country": "PL",
                "addr:postcode": "06-300",
                "addr:city": "Przasnysz",
                "addr:street": "\u015awi\u0119tego Floriana",
                "addr:housenumber": "4",
                "addr:teryt:simc": 5083,
                "addr:teryt:sym_ul": 966398,
                "contact:phone": "+48 297525952",
                "contact:email": "aga.przasnysz@aga.org.pl",
                "contact:website": "http:\/\/www.aga.org.pl\/organizations\/osrodek-w-przasnyszu\/",
                "ref:regon": "146358033",
                "ref:vatin": "PL5251034619",
                "operator": "Stowarzyszenie \"Po Pierwsze Rodzina\"",
                "operator:type": "ngo",
                "amenity": "school"
            }
        },
        {
            "id": 131593,
            "type": "Feature",
            "geometry": {
                "type": "Point",
                "coordinates": [
                    20.90427,
                    53.02121
                ]
            },
            "properties": {
                "ref:rspo": 131593,
                "official_name": "Przedszkole Niepubliczne \"Zaczarowany Zak\u0105tek\"",
                "name": "Przedszkole Niepubliczne \"Zaczarowany Zak\u0105tek\"",
                "addr:country": "PL",
                "addr:postcode": "06-300",
                "addr:city": "Przasnysz",
                "addr:street": "\u015awi\u0119tego Krzysztofa",
                "addr:housenumber": "1",
                "addr:teryt:simc": 30608,
                "addr:teryt:sym_ul": 966398,
                "contact:phone": "+48 606908572",
                "contact:email": "zaczarowanyzakatek10@gmail.com",
                "contact:website": "http:\/\/zakatek10.ct8.pl",
                "ref:regon": "365323890",
                "operator": "Hanna Wi\u0119cek",
                "operator:type": "private",
                "amenity": "kindergarten"
            }
        },
        {
            "id": 112191,
            "type": "Feature",
            "geometry": {
                "type": "Point",
                "coordinates": [
                    20.88863,
                    53.02146
                ]
            },
            "properties": {
                "ref:rspo": 112191,
                "official_name": "Niepubliczne Przedszkole \"Skrzat\"",
                "name": "Niepubliczne Przedszkole \"Skrzat\"",
                "addr:country": "PL",
                "addr:postcode": "06-300",
                "addr:city": "Przasnysz",
                "addr:street": "Ogrodowa",
                "addr:housenumber": "7A",
                "addr:teryt:simc": 14834,
                "addr:teryt:sym_ul": 966398,
                "contact:phone": "+48 508359247",
                "contact:email": "przedszkoleprzasnysz@onet.pl",
                "ref:regon": "146597186",
                "ref:vatin": "PL7611036344",
                "operator": "Wioletta Wr\u00f3blewska",
                "operator:type": "private",
                "amenity": "kindergarten"
            }
        },
        {
            "id": 14676,
            "type": "Feature",
            "geometry": {
                "type": "Point",
                "coordinates": [
                    20.88389,
                    53.02189
                ]
            },
            "properties": {
                "ref:rspo": 14676,
                "official_name": "Poradnia Psychologiczno-Pedagogiczna",
                "name": "Poradnia Psychologiczno-Pedagogiczna",
                "addr:country": "PL",
                "addr:postcode": "06-300",
                "addr:city": "Przasnysz",
                "addr:street": "Berka Joselewicza",
                "addr:housenumber": "6",
                "addr:teryt:simc": 7617,
                "addr:teryt:sym_ul": 966398,
                "contact:phone": "+48 297522615",
                "contact:email": "ppp@powiat-przasnysz.pl",
                "contact:website": "http:\/\/www.poradniapp.pl",
                "ref:regon": "000694474",
                "ref:vatin": "PL7611394167",
                "operator": "Powiat Przasnyski",
                "operator:type": "government",
                "healthcare": "counselling",
                "counselling_type": "education",
                "fixme": "w zale\u017cno\u015bci od przedmiotu dzia\u0142alno\u015bci (np. healthcare=counselling + counselling_type=education albo healthcare=psychotherapist)"
            }
        },
        {
            "id": 268150,
            "type": "Feature",
            "geometry": {
                "type": "Point",
                "coordinates": [
                    20.8828492,
                    53.0219999
                ]
            },
            "properties": {
                "ref:rspo": 268150,
                "official_name": "Niepubliczna Szko\u0142a Specjalna Przysposabiaj\u0105ca Do Pracy",
                "name": "Niepubliczna Szko\u0142a Specjalna Przysposabiaj\u0105ca Do Pracy",
                "addr:country": "PL",
                "addr:postcode": "06-300",
                "addr:city": "Przasnysz",
                "addr:street": "\u015awi\u0119tego Wojciecha",
                "addr:housenumber": "1",
                "addr:teryt:simc": 24581,
                "addr:teryt:sym_ul": 966398,
                "contact:phone": "+48 508264796",
                "contact:email": "zaczarowanyzakatek.przasnysz@vip.interia.pl",
                "ref:regon": "380978234",
                "operator": "Stowarzyszenie \"Zaczarowany Zak\u0105tek\"",
                "operator:type": "ngo",
                "amenity": "school"
            }
        },
        {
            "id": 275300,
            "type": "Feature",
            "geometry": {
                "type": "Point",
                "coordinates": [
                    20.8828492,
                    53.021969899999995
                ]
            },
            "properties": {
                "isced:level": "1;2",
                "ref:rspo": 275300,
                "official_name": "Niepubliczna Szko\u0142a Podstawowa Specjalna",
                "name": "Niepubliczna Szko\u0142a Podstawowa Specjalna",
                "addr:country": "PL",
                "addr:postcode": "06-300",
                "addr:city": "Przasnysz",
                "addr:street": "\u015awi\u0119tego Wojciecha",
                "addr:housenumber": "1",
                "addr:teryt:simc": 24581,
                "addr:teryt:sym_ul": 966398,
                "contact:phone": "+48 508264796",
                "contact:email": "joanna.szafranska@interia.pl",
                "contact:website": "http:\/\/zaczarowanyzakatek.edu.pl",
                "ref:regon": "386799998",
                "operator": "Stowarzyszenie \"Zaczarowany Zak\u0105tek\"",
                "operator:type": "ngo",
                "amenity": "school"
            }
        },
        {
            "id": 262502,
            "type": "Feature",
            "geometry": {
                "type": "Point",
                "coordinates": [
                    20.89118,
                    53.02319
                ]
            },
            "properties": {
                "isced:level": "1;2",
                "ref:rspo": 262502,
                "official_name": "Szko\u0142a Podstawowa Nr 3 im. Tadeusza Ko\u015bciuszki",
                "name": "Szko\u0142a Podstawowa Nr 3",
                "addr:country": "PL",
                "addr:postcode": "06-300",
                "addr:city": "Przasnysz",
                "addr:street": "Orlika",
                "addr:housenumber": "48",
                "addr:teryt:simc": 15159,
                "addr:teryt:sym_ul": 966398,
                "contact:phone": "+48 297524929",
                "contact:email": "sp3przasnysz@wp.pl",
                "contact:website": "http:\/\/www.sp3-przasnysz.pl",
                "ref:regon": "368024432",
                "ref:vatin": "PL7611560559",
                "operator": "Miasto Przasnysz",
                "operator:type": "government",
                "amenity": "school"
            }
        },
        {
            "id": 81758,
            "type": "Feature",
            "geometry": {
                "type": "Point",
                "coordinates": [
                    20.87268,
                    53.02324
                ]
            },
            "properties": {
                "isced:level": "4",
                "ref:rspo": 81758,
                "official_name": "Medyczna Szko\u0142a Policealna w Przasnyszu",
                "name": "Medyczna Szko\u0142a Policealna w Przasnyszu",
                "addr:country": "PL",
                "addr:postcode": "06-300",
                "addr:city": "Przasnysz",
                "addr:street": "Szpitalna",
                "addr:housenumber": "10",
                "addr:teryt:simc": 22073,
                "addr:teryt:sym_ul": 966398,
                "contact:phone": "+48 297563051",
                "contact:email": "sekretariat@zmsp-przasnysz.pl",
                "contact:website": "http:\/\/www.zmsp-przasnysz.pl",
                "ref:regon": "000934429",
                "ref:vatin": "PL7581231040",
                "operator": "Wojew\u00f3dztwo Mazowieckie",
                "operator:type": "government",
                "amenity": "college"
            }
        },
        {
            "id": 89473,
            "type": "Feature",
            "geometry": {
                "type": "Point",
                "coordinates": [
                    20.87268,
                    53.02321
                ]
            },
            "properties": {
                "ref:rspo": 89473,
                "official_name": "Biblioteka Pedagogiczna w Ostro\u0142\u0119ce - Filia w Przasnyszu",
                "name": "Biblioteka Pedagogiczna w Ostro\u0142\u0119ce - Filia w Przasnyszu",
                "addr:country": "PL",
                "addr:postcode": "06-300",
                "addr:city": "Przasnysz",
                "addr:street": "Szpitalna",
                "addr:housenumber": "10",
                "addr:teryt:simc": 22073,
                "addr:teryt:sym_ul": 966398,
                "contact:phone": "+48 297522417",
                "contact:email": "przasnysz@bp.ostroleka.pl",
                "contact:website": "http:\/\/www.bpprzasnysz.pl",
                "ref:regon": "694480000",
                "ref:vatin": "PL7582120644",
                "operator": "Wojew\u00f3dztwo Mazowieckie",
                "operator:type": "government",
                "amenity": "library",
                "note": "Parent RSPO: 27001"
            }
        },
        {
            "id": 110103,
            "type": "Feature",
            "geometry": {
                "type": "Point",
                "coordinates": [
                    20.88262,
                    53.0233
                ]
            },
            "properties": {
                "ref:rspo": 110103,
                "official_name": "Miejskie Przedszkole Nr 2 Z Oddzia\u0142ami Integracyjnymi w Przasnyszu",
                "name": "Miejskie Przedszkole Nr 2 Z Oddzia\u0142ami Integracyjnymi w Przasnyszu",
                "addr:country": "PL",
                "addr:postcode": "06-300",
                "addr:city": "Przasnysz",
                "addr:street": "\u015awierczewo",
                "addr:housenumber": "8",
                "addr:teryt:simc": 22480,
                "addr:teryt:sym_ul": 966398,
                "contact:phone": "+48 297522681",
                "contact:email": "mprzedsykole2@poczta.internetdsl.pl",
                "ref:regon": "000913019",
                "ref:vatin": "PL7611498659",
                "operator": "Miasto Przasnysz",
                "operator:type": "government",
                "amenity": "kindergarten"
            }
        },
        {
            "id": 110102,
            "type": "Feature",
            "geometry": {
                "type": "Point",
                "coordinates": [
                    20.88781,
                    53.0257099
                ]
            },
            "properties": {
                "ref:rspo": 110102,
                "official_name": "Miejskie Przedszkole Nr1 im. Marii Kownackiej w Przasnyszu",
                "name": "Miejskie Przedszkole Nr1",
                "addr:country": "PL",
                "addr:postcode": "06-300",
                "addr:city": "Przasnysz",
                "addr:street": "Lipowa",
                "addr:housenumber": "8",
                "addr:teryt:simc": 11139,
                "addr:teryt:sym_ul": 966398,
                "contact:phone": "+48 297524682",
                "contact:email": "mprzedszkole1@gmail.com",
                "contact:website": "http:\/\/www.przedszkole1przasnysz.edu.pl",
                "ref:regon": "140546288",
                "ref:vatin": "PL7611497967",
                "operator": "Miasto Przasnysz",
                "operator:type": "government",
                "amenity": "kindergarten"
            }
        },
        {
            "id": 127582,
            "type": "Feature",
            "geometry": {
                "type": "Point",
                "coordinates": [
                    20.89424,
                    53.02625
                ]
            },
            "properties": {
                "ref:rspo": 127582,
                "official_name": "Szko\u0142a Muzyczna I Stopnia w Przasnyszu",
                "name": "Szko\u0142a Muzyczna I Stopnia w Przasnyszu",
                "addr:country": "PL",
                "addr:postcode": "06-300",
                "addr:city": "Przasnysz",
                "addr:street": "Sadowa",
                "addr:housenumber": "5",
                "addr:teryt:simc": 19404,
                "addr:teryt:sym_ul": 966398,
                "contact:phone": "+48 297563016",
                "contact:email": "psmprzasnysz@gmail.com",
                "ref:regon": "361732670",
                "ref:vatin": "PL7611558284",
                "operator": "Powiat Przasnyski",
                "operator:type": "government",
                "amenity": "music_school"
            }
        },
        {
            "id": 110536,
            "type": "Feature",
            "geometry": {
                "type": "Point",
                "coordinates": [
                    20.88096,
                    53.02734
                ]
            },
            "properties": {
                "ref:rspo": 110536,
                "official_name": "Niepubliczne Przedszkole, Ul. Julusza S\u0142owackiego 8B, 06300 Przasnysz",
                "name": "Niepubliczne Przedszkole, Ul. Julusza S\u0142owackiego 8B, 06300 Przasnysz",
                "addr:country": "PL",
                "addr:postcode": "06-300",
                "addr:city": "Przasnysz",
                "addr:street": "Juliusza S\u0142owackiego",
                "addr:housenumber": "8B",
                "addr:teryt:simc": 20291,
                "addr:teryt:sym_ul": 966398,
                "contact:phone": "+48 297525350",
                "contact:email": "a.szczepanskaprzedszkole@tlen.pl",
                "contact:website": "http:\/\/www.kubusiowe-przedszkole.com",
                "ref:regon": "146658568",
                "ref:vatin": "PL7611207030",
                "operator": "Anna Szczepa\u0144ska",
                "operator:type": "private",
                "amenity": "kindergarten"
            }
        },
        {
            "id": 278611,
            "type": "Feature",
            "geometry": {
                "type": "Point",
                "coordinates": [
                    20.89538,
                    53.02795
                ]
            },
            "properties": {
                "ref:rspo": 278611,
                "official_name": "Zesp\u00f3\u0142 Szk\u00f3\u0142 Specjalnych \"Jestem\" w Przasnyszu",
                "name": "Zesp\u00f3\u0142 Szk\u00f3\u0142 Specjalnych \"Jestem\" w Przasnyszu",
                "addr:country": "PL",
                "addr:postcode": "06-300",
                "addr:city": "Przasnysz",
                "addr:street": "Sadowa",
                "addr:housenumber": "9",
                "addr:teryt:simc": 19404,
                "addr:teryt:sym_ul": 966398,
                "contact:phone": "+48 297534214",
                "contact:email": "biuro@jestem.org",
                "ref:regon": "389993650",
                "operator": "Stowarzyszenie Pomocy Osobom Niepe\u0142nosprawnym \"Jestem\" W Przasnyszu",
                "operator:type": "ngo",
                "landuse": "education",
                "fixme": "amenity=school, amenity=college albo landuse=education w zale\u017cno\u015bci od tego, jakie plac\u00f3wki wchodz\u0105 w sk\u0142ad zespo\u0142u. Sprawd\u017a, kiedy stosowa\u0107 amenity=* a kiedy landuse=education.",
                "note": "Children RSPO: 13807;275301"
            }
        },
        {
            "id": 13807,
            "type": "Feature",
            "geometry": {
                "type": "Point",
                "coordinates": [
                    20.89538,
                    53.027919999999995
                ]
            },
            "properties": {
                "isced:level": "1;2",
                "ref:rspo": 13807,
                "official_name": "Szko\u0142a Podstawowa Specjalna Z Oddzia\u0142ami Przedszkolnymi \"Jestem\" w Przasnyszu",
                "name": "Szko\u0142a Podstawowa Specjalna Z Oddzia\u0142ami Przedszkolnymi \"Jestem\" w Przasnyszu",
                "addr:country": "PL",
                "addr:postcode": "06-300",
                "addr:city": "Przasnysz",
                "addr:street": "Sadowa",
                "addr:housenumber": "9",
                "addr:teryt:simc": 19404,
                "addr:teryt:sym_ul": 966398,
                "contact:phone": "+48 297534214",
                "contact:email": "biuro@jestem.org",
                "ref:regon": "146300335",
                "ref:vatin": "PL7611556316",
                "operator": "Stowarzyszenie Pomocy Osobom Niepe\u0142nosprawnym \"Jestem\" W Przasnyszu",
                "operator:type": "ngo",
                "amenity": "school",
                "note": "Parent RSPO: 278611"
            }
        },
        {
            "id": 275301,
            "type": "Feature",
            "geometry": {
                "type": "Point",
                "coordinates": [
                    20.89538,
                    53.02789
                ]
            },
            "properties": {
                "ref:rspo": 275301,
                "official_name": "Specjalna Szko\u0142a Przysposabiaj\u0105ca Do Pracy",
                "name": "Specjalna Szko\u0142a Przysposabiaj\u0105ca Do Pracy",
                "addr:country": "PL",
                "addr:postcode": "06-300",
                "addr:city": "Przasnysz",
                "addr:street": "Sadowa",
                "addr:housenumber": "9",
                "addr:teryt:simc": 19404,
                "addr:teryt:sym_ul": 966398,
                "contact:phone": "+48 297534214",
                "contact:email": "biuro@jestem.org",
                "ref:regon": "386800052",
                "operator": "Stowarzyszenie Pomocy Osobom Niepe\u0142nosprawnym \"Jestem\" W Przasnyszu",
                "operator:type": "ngo",
                "amenity": "school",
                "note": "Parent RSPO: 278611"
            }
        },
        {
            "id": 119425,
            "type": "Feature",
            "geometry": {
                "type": "Point",
                "coordinates": [
                    20.89366,
                    53.03314
                ]
            },
            "properties": {
                "ref:rspo": 119425,
                "official_name": "Niepubliczne Przedszkole \"Bajkowe\"",
                "name": "Niepubliczne Przedszkole \"Bajkowe\"",
                "addr:country": "PL",
                "addr:postcode": "06-300",
                "addr:city": "Przasnysz",
                "addr:street": "Rolnicza",
                "addr:housenumber": "11 l",
                "addr:teryt:simc": 18821,
                "addr:teryt:sym_ul": 966398,
                "contact:phone": "+48 668417693",
                "contact:email": "marzenamedrzycka@wp.pl",
                "ref:regon": "146849529",
                "operator": "Miros\u0142awa M\u0119drzycka",
                "operator:type": "private",
                "amenity": "kindergarten"
            }
        }
    ]
}