{
    "type": "FeatureCollection",
    "features": [
        {
            "id": 79850,
            "type": "Feature",
            "geometry": {
                "type": "Point",
                "coordinates": [
                    20.913637161255,
                    53.138916015625
                ]
            },
            "properties": {
                "isced:level": "1;2",
                "ref:rspo": 79850,
                "official_name": "Szko\u0142a Podstawowa im.mjr Henryka Sucharskiego w Nowej Kr\u0119pie",
                "name": "Szko\u0142a Podstawowa im.mjr Henryka Sucharskiego w Nowej Kr\u0119pie",
                "addr:country": "PL",
                "addr:postcode": "06-300",
                "addr:place": "Nowa Kr\u0119pa",
                "addr:housenumber": "34a",
                "addr:teryt:sym_ul": 518139,
                "contact:phone": "+48 297512023",
                "contact:email": "zs-krepa@wp.pl",
                "contact:website": "http:\/\/spkrepa.edupage.org",
                "ref:regon": "000272572",
                "ref:vatin": "PL7611505661",
                "operator": "Gmina Przasnysz",
                "operator:type": "government",
                "amenity": "school"
            }
        },
        {
            "id": 80114,
            "type": "Feature",
            "geometry": {
                "type": "Point",
                "coordinates": [
                    20.913637161255,
                    53.138886015625
                ]
            },
            "properties": {
                "isced:level": "1;2",
                "ref:rspo": 80114,
                "official_name": "Szko\u0142a Podstawowa Im \u015aw. Stanis\u0142awa Kostki w Lesznie",
                "name": "Szko\u0142a Podstawowa Im \u015aw. Stanis\u0142awa Kostki w Lesznie",
                "addr:country": "PL",
                "addr:postcode": "06-300",
                "addr:place": "Leszno",
                "addr:housenumber": "189",
                "addr:teryt:sym_ul": 517950,
                "contact:phone": "+48 297514022",
                "contact:email": "zespolszkolwlesznie@op.pl",
                "ref:regon": "001106812",
                "ref:vatin": "PL7611505655",
                "operator": "Gmina Przasnysz",
                "operator:type": "government",
                "amenity": "school"
            }
        },
        {
            "id": 81486,
            "type": "Feature",
            "geometry": {
                "type": "Point",
                "coordinates": [
                    20.913637161255,
                    53.138856015625
                ]
            },
            "properties": {
                "isced:level": "1;2",
                "ref:rspo": 81486,
                "official_name": "Szko\u0142a Podstawowa im. Marsza\u0142ka J\u00f3zefa Pi\u0142sudskiego w Bogatem",
                "name": "Szko\u0142a Podstawowa",
                "addr:country": "PL",
                "addr:postcode": "06-300",
                "addr:place": "Bogate",
                "addr:housenumber": "11",
                "addr:teryt:sym_ul": 517720,
                "contact:phone": "+48 297513925",
                "contact:email": "sp_bogate@wp.pl",
                "contact:website": "http:\/\/www.spbogate.edupage.org",
                "ref:regon": "001106806",
                "ref:vatin": "PL7611505678",
                "operator": "Gmina Przasnysz",
                "operator:type": "government",
                "amenity": "school"
            }
        }
    ]
}