{
    "type": "FeatureCollection",
    "features": [
        {
            "id": 105246,
            "type": "Feature",
            "geometry": {
                "type": "Point",
                "coordinates": [
                    22.495189666748,
                    50.05878829956
                ]
            },
            "properties": {
                "isced:level": "1;2",
                "ref:rspo": 105246,
                "official_name": "Szko\u0142a Podstawowa im. Ojca \u015awi\u0119tego Jana Paw\u0142a II w Gorzycach",
                "name": "Szko\u0142a Podstawowa",
                "addr:postcode": "37-204",
                "addr:place": "Gorzyce",
                "addr:housenumber": "284",
                "addr:city:simc": 611985,
                "phone": "+48 166421188",
                "email": "gorzyce_gimna@poczta.onet.pl",
                "ref:regon": "001208240",
                "ref:vatin": "PL7941688274",
                "operator": "Gmina Try\u0144cza",
                "operator:type": "government",
                "amenity": "school"
            }
        },
        {
            "id": 114077,
            "type": "Feature",
            "geometry": {
                "type": "Point",
                "coordinates": [
                    22.495189666748,
                    50.05875829956
                ]
            },
            "properties": {
                "ref:rspo": 114077,
                "official_name": "Przedszkole Niepubliczne S.s.karmelitanek Dzieci\u0105tka Jezus im.matki Teresy Kieroci\u0144skiej Gorzyce",
                "name": "Przedszkole Niepubliczne S.s.karmelitanek Dzieci\u0105tka Jezus im.matki Teresy Kieroci\u0144skiej Gorzyce",
                "addr:postcode": "37-204",
                "addr:place": "Gorzyce",
                "addr:housenumber": "84",
                "addr:city:simc": 611985,
                "phone": "+48 166421453",
                "email": "kpmt.gorzyce@gmail.com",
                "ref:regon": "180967389",
                "ref:vatin": "PL7941731857",
                "operator": "Zgromadzenie Si\u00f3str Karmelitanek Dzieci\u0105tka Jezus  Prowincja Krakowska",
                "operator:type": "religious",
                "amenity": "kindergarten"
            }
        },
        {
            "id": 103308,
            "type": "Feature",
            "geometry": {
                "type": "Point",
                "coordinates": [
                    22.56679,
                    50.09677
                ]
            },
            "properties": {
                "ref:rspo": 103308,
                "official_name": "Zesp\u00f3\u0142 Szko\u0142y Podstawowej I Przedszkola Samorz\u0105dowego im.kr\u00f3la W\u0142adys\u0142awa Jagie\u0142\u0142y w Jagielle",
                "name": "Zesp\u00f3\u0142 Szko\u0142y Podstawowej I Przedszkola Samorz\u0105dowego im.kr\u00f3la W\u0142adys\u0142awa Jagie\u0142\u0142y w Jagielle",
                "addr:postcode": "37-203",
                "addr:place": "Jagie\u0142\u0142a",
                "addr:housenumber": "275",
                "addr:city:simc": 612051,
                "phone": "+48 166421177",
                "email": "zspipsjagiella@poczta.onet.eu",
                "website": "http:\/\/www.jagiella.szkolna.net",
                "ref:regon": "180053270",
                "ref:vatin": "PL7941711754",
                "operator": "Gmina Try\u0144cza",
                "operator:type": "government",
                "landuse": "education",
                "fixme": "amenity=school, amenity=college albo landuse=education w zale\u017cno\u015bci od tego, jakie plac\u00f3wki wchodz\u0105 w sk\u0142ad zespo\u0142u. Sprawd\u017a, kiedy stosowa\u0107 amenity=* a kiedy landuse=education.",
                "note": "Children RSPO: 105723;273218"
            }
        },
        {
            "id": 105723,
            "type": "Feature",
            "geometry": {
                "type": "Point",
                "coordinates": [
                    22.56679,
                    50.09674
                ]
            },
            "properties": {
                "isced:level": "1;2",
                "ref:rspo": 105723,
                "official_name": "Szko\u0142a Podstawowa w Jagielle",
                "name": "Szko\u0142a Podstawowa w Jagielle",
                "addr:postcode": "37-203",
                "addr:place": "Jagie\u0142\u0142a",
                "addr:housenumber": "275",
                "addr:city:simc": 612051,
                "phone": "+48 166421177",
                "email": "zspipsjagiella@poczta.onet.eu",
                "website": "http:\/\/www.jagiella.szkolna.net",
                "ref:regon": "001208257",
                "ref:vatin": "PL7941557833",
                "operator": "Gmina Try\u0144cza",
                "operator:type": "government",
                "amenity": "school",
                "note": "Parent RSPO: 103308"
            }
        },
        {
            "id": 273218,
            "type": "Feature",
            "geometry": {
                "type": "Point",
                "coordinates": [
                    22.56679,
                    50.09671
                ]
            },
            "properties": {
                "ref:rspo": 273218,
                "official_name": "Przedszkole Samorz\u0105dowe w Jagielle",
                "name": "Przedszkole Samorz\u0105dowe w Jagielle",
                "addr:postcode": "37-203",
                "addr:place": "Jagie\u0142\u0142a",
                "addr:housenumber": "275",
                "addr:city:simc": 612051,
                "phone": "+48 166421177",
                "email": "zspipsjagiella@poczta.onet.eu",
                "website": "http:\/\/www.jagiella.szkolna.net",
                "ref:regon": "384407400",
                "operator": "Gmina Try\u0144cza",
                "operator:type": "government",
                "amenity": "kindergarten",
                "note": "Parent RSPO: 103308"
            }
        },
        {
            "id": 104689,
            "type": "Feature",
            "geometry": {
                "type": "Point",
                "coordinates": [
                    22.4979799,
                    50.10464
                ]
            },
            "properties": {
                "isced:level": "1;2",
                "ref:rspo": 104689,
                "official_name": "Szko\u0142a Podstawowa im. Gen. Antoniego Chru\u015bciela Ps. \"Monter\" w Gniewczynie \u0141a\u0144cuckiej",
                "name": "Szko\u0142a Podstawowa",
                "addr:postcode": "37-203",
                "addr:place": "Gniewczyna \u0141a\u0144cucka",
                "addr:housenumber": "608",
                "addr:city:simc": 611867,
                "phone": "+48 166427254",
                "email": "spgniewczyna@wp.pl",
                "website": "http:\/\/www.zsgniewczyna.pl",
                "ref:regon": "001208234",
                "ref:vatin": "PL7941688280",
                "operator": "Gmina Try\u0144cza",
                "operator:type": "government",
                "amenity": "school"
            }
        },
        {
            "id": 103377,
            "type": "Feature",
            "geometry": {
                "type": "Point",
                "coordinates": [
                    22.49857,
                    50.10852
                ]
            },
            "properties": {
                "ref:rspo": 103377,
                "official_name": "Niepubliczne Przedszkole \"Weso\u0142y Skrzat\"W Gniewczynie \u0141a\u0144cuckiej",
                "name": "Niepubliczne Przedszkole \"Weso\u0142y Skrzat\"W Gniewczynie \u0141a\u0144cuckiej",
                "addr:postcode": "37-203",
                "addr:place": "Gniewczyna \u0141a\u0144cucka",
                "addr:housenumber": "146 B",
                "addr:city:simc": 611867,
                "phone": "+48 506529277",
                "email": "ewita2ewah@o2.pl",
                "ref:regon": "180920554",
                "ref:vatin": "PL7941704211",
                "operator": "Dane Do Uzupe\u0142nienia",
                "operator:type": "private",
                "amenity": "kindergarten"
            }
        },
        {
            "id": 104776,
            "type": "Feature",
            "geometry": {
                "type": "Point",
                "coordinates": [
                    22.55291,
                    50.15973
                ]
            },
            "properties": {
                "isced:level": "1;2",
                "ref:rspo": 104776,
                "official_name": "Szko\u0142a Podstawowa im. \u015aw. Jana Kantego w Try\u0144czy",
                "name": "Szko\u0142a Podstawowa",
                "addr:postcode": "37-204",
                "addr:place": "Try\u0144cza",
                "addr:housenumber": "129",
                "addr:city:simc": 612140,
                "phone": "+48 166421214",
                "email": "pgtryncza@wp.pl",
                "ref:regon": "000663249",
                "ref:vatin": "PL7941688297",
                "operator": "Gmina Try\u0144cza",
                "operator:type": "government",
                "amenity": "school",
                "note": "Children RSPO: 278322"
            }
        },
        {
            "id": 278322,
            "type": "Feature",
            "geometry": {
                "type": "Point",
                "coordinates": [
                    22.57825,
                    50.16325
                ]
            },
            "properties": {
                "isced:level": "1;2",
                "ref:rspo": 278322,
                "official_name": "Szko\u0142a Filialna im. Tadeusza Ko\u015bciuszki w Ubieszynie Szko\u0142y Podstawowej im. \u015aw. Jana Kantego w Try\u0144czy",
                "name": "Szko\u0142a Filialna",
                "addr:postcode": "37-204",
                "addr:place": "Ubieszyn",
                "addr:housenumber": "65",
                "addr:city:simc": 612223,
                "phone": "+48 166421214",
                "email": "pgtryncza@wp.pl",
                "ref:regon": "663249000",
                "operator": "Gmina Try\u0144cza",
                "operator:type": "government",
                "amenity": "school",
                "note": "Parent RSPO: 104776"
            }
        }
    ]
}