{
    "type": "FeatureCollection",
    "features": [
        {
            "id": 20369,
            "type": "Feature",
            "geometry": {
                "type": "Point",
                "coordinates": [
                    22.6846,
                    50.1395399
                ]
            },
            "properties": {
                "isced:level": "1;2",
                "ref:rspo": 20369,
                "official_name": "Szko\u0142a Podstawowa im. Jana Paw\u0142a II w Czerwonej Woli Czerwona Wola 39 37-530 Sieniawa",
                "name": "Szko\u0142a Podstawowa",
                "addr:postcode": "37-530",
                "addr:place": "Czerwona Wola",
                "addr:housenumber": "39",
                "addr:teryt:simc": 611028,
                "phone": "+48 166228047",
                "email": "dyr0@op.pl",
                "website": "http:\/\/www.czerwonawola.pl",
                "ref:regon": "001207192",
                "ref:vatin": "PL7941267437",
                "operator": "Miasto I Gmina Sieniawa",
                "operator:type": "government",
                "amenity": "school"
            }
        },
        {
            "id": 271926,
            "type": "Feature",
            "geometry": {
                "type": "Point",
                "coordinates": [
                    22.61172,
                    50.16951
                ]
            },
            "properties": {
                "ref:rspo": 271926,
                "official_name": "Kraina Marze\u0144 Dzieci\u0119cych",
                "name": "Kraina Marze\u0144 Dzieci\u0119cych",
                "addr:postcode": "37-530",
                "addr:city": "Sieniawa",
                "addr:street": "Tadeusza Ko\u015bciuszki",
                "addr:housenumber": "42",
                "addr:teryt:simc": 972683,
                "addr:teryt:sym_ul": 9582,
                "phone": "+48 693616661",
                "email": "przedszkole@sieniawa.org",
                "ref:regon": "383795238",
                "operator": "Cezary Schiff",
                "operator:type": "private",
                "amenity": "kindergarten"
            }
        },
        {
            "id": 104722,
            "type": "Feature",
            "geometry": {
                "type": "Point",
                "coordinates": [
                    22.60978,
                    50.17468
                ]
            },
            "properties": {
                "ref:rspo": 104722,
                "official_name": "Przedszkole Niepubliczne Prowadzone Przez Zgromadzenie Si\u00f3str S\u0142u\u017cebniczek N.m.p. N.p",
                "name": "Przedszkole Niepubliczne Prowadzone Przez Zgromadzenie Si\u00f3str S\u0142u\u017cebniczek N.m.p. N.p",
                "addr:postcode": "37-530",
                "addr:city": "Sieniawa",
                "addr:street": "Tadeusza Ko\u015bciuszki",
                "addr:housenumber": "9",
                "addr:teryt:simc": 972683,
                "addr:teryt:sym_ul": 9582,
                "phone": "+48 166227030",
                "email": "przedszkole.sieniawa@interia.pl",
                "ref:regon": "180924084",
                "operator": "Zg. Ss. S\u0142u\u017cebniczek Nmp Niepokalanie Pocz\u0119tej, Prowincja Przemyska",
                "operator:type": "religious",
                "amenity": "kindergarten"
            }
        },
        {
            "id": 20372,
            "type": "Feature",
            "geometry": {
                "type": "Point",
                "coordinates": [
                    22.60868,
                    50.17586
                ]
            },
            "properties": {
                "ref:rspo": 20372,
                "official_name": "Miejskie Przedszkole Ul. Ko\u015bciuszki 10 Sieniawa37-530 Sieniawa",
                "name": "Miejskie Przedszkole Ul. Ko\u015bciuszki 10 Sieniawa37-530 Sieniawa",
                "addr:postcode": "37-530",
                "addr:city": "Sieniawa",
                "addr:street": "Tadeusza Ko\u015bciuszki",
                "addr:housenumber": "10",
                "addr:teryt:simc": 972683,
                "addr:teryt:sym_ul": 9582,
                "phone": "+48 166227057",
                "email": "miejskie.przedszkole@interia.pl",
                "ref:regon": "001057858",
                "ref:vatin": "PL7941329813",
                "operator": "Miasto I Gmina Sieniawa",
                "operator:type": "government",
                "amenity": "kindergarten"
            }
        },
        {
            "id": 118997,
            "type": "Feature",
            "geometry": {
                "type": "Point",
                "coordinates": [
                    22.60872,
                    50.17668
                ]
            },
            "properties": {
                "ref:rspo": 118997,
                "official_name": "Niepa\u0144stwowa Szko\u0142a Muzyczna I St. w Sieniawie",
                "name": "Niepa\u0144stwowa Szko\u0142a Muzyczna I St. w Sieniawie",
                "addr:postcode": "37-530",
                "addr:city": "Sieniawa",
                "addr:street": "Tadeusza Ko\u015bciuszki",
                "addr:housenumber": "4",
                "addr:teryt:simc": 972683,
                "addr:teryt:sym_ul": 9582,
                "email": "szkola@muzyczna.com.pl",
                "ref:regon": "181012221",
                "operator": "Agw Sp\u00f3\u0142ka Z Ograniczon\u0105 Odpowiedzialno\u015bci\u0105",
                "operator:type": "private",
                "amenity": "music_school"
            }
        },
        {
            "id": 6575,
            "type": "Feature",
            "geometry": {
                "type": "Point",
                "coordinates": [
                    22.60919,
                    50.17783
                ]
            },
            "properties": {
                "ref:rspo": 6575,
                "official_name": "Zesp\u00f3\u0142 Szk\u00f3\u0142 w Sieniawie",
                "name": "Zesp\u00f3\u0142 Szk\u00f3\u0142 w Sieniawie",
                "addr:postcode": "37-530",
                "addr:city": "Sieniawa",
                "addr:street": "Rynek",
                "addr:housenumber": "4",
                "addr:teryt:simc": 972683,
                "addr:teryt:sym_ul": 19253,
                "phone": "+48 166227048",
                "email": "losieniawa@wp.pl",
                "website": "http:\/\/zssieniawa.com.pl",
                "ref:regon": "651497120",
                "ref:vatin": "PL7941693418",
                "operator": "Powiat Przeworski",
                "operator:type": "government",
                "landuse": "education",
                "fixme": "amenity=school, amenity=college albo landuse=education w zale\u017cno\u015bci od tego, jakie plac\u00f3wki wchodz\u0105 w sk\u0142ad zespo\u0142u. Sprawd\u017a, kiedy stosowa\u0107 amenity=* a kiedy landuse=education.",
                "note": "Children RSPO: 10071;10092"
            }
        },
        {
            "id": 20367,
            "type": "Feature",
            "geometry": {
                "type": "Point",
                "coordinates": [
                    22.60919,
                    50.1778
                ]
            },
            "properties": {
                "isced:level": "1;2",
                "ref:rspo": 20367,
                "official_name": "Szko\u0142a Podstawowa w Sieniawie im. Tadeusza Ko\u015bciuszki Ul. Rynek 4 37-530 Sieniawa",
                "name": "Szko\u0142a Podstawowa w Sieniawie",
                "addr:postcode": "37-530",
                "addr:city": "Sieniawa",
                "addr:street": "Rynek",
                "addr:housenumber": "4",
                "addr:teryt:simc": 972683,
                "addr:teryt:sym_ul": 19253,
                "phone": "+48 530602934",
                "email": "spsieniawa@poczta.onet.pl",
                "website": "http:\/\/www.spsieniawa.eu",
                "ref:regon": "000639311",
                "ref:vatin": "PL7941267377",
                "operator": "Miasto I Gmina Sieniawa",
                "operator:type": "government",
                "amenity": "school"
            }
        },
        {
            "id": 10071,
            "type": "Feature",
            "geometry": {
                "type": "Point",
                "coordinates": [
                    22.60919,
                    50.17777
                ]
            },
            "properties": {
                "isced:level": "3",
                "ref:rspo": 10071,
                "official_name": "Technikum w Sieniawie",
                "name": "Technikum w Sieniawie",
                "addr:postcode": "37-530",
                "addr:city": "Sieniawa",
                "addr:street": "Rynek",
                "addr:housenumber": "4",
                "addr:teryt:simc": 972683,
                "addr:teryt:sym_ul": 19253,
                "phone": "+48 166227048",
                "email": "losieniawa@wp.pl",
                "ref:regon": "180257570",
                "ref:vatin": "PL7941693418",
                "operator": "Powiat Przeworski",
                "operator:type": "government",
                "amenity": "school",
                "note": "Parent RSPO: 6575"
            }
        },
        {
            "id": 10092,
            "type": "Feature",
            "geometry": {
                "type": "Point",
                "coordinates": [
                    22.60919,
                    50.17774
                ]
            },
            "properties": {
                "isced:level": "3",
                "ref:rspo": 10092,
                "official_name": "Liceum Og\u00f3lnokszta\u0142c\u0105ce w Sieniawie",
                "name": "Liceum Og\u00f3lnokszta\u0142c\u0105ce w Sieniawie",
                "addr:postcode": "37-530",
                "addr:city": "Sieniawa",
                "addr:street": "Rynek",
                "addr:housenumber": "4",
                "addr:teryt:simc": 972683,
                "addr:teryt:sym_ul": 19253,
                "phone": "+48 166227048",
                "email": "losieniawa@wp.pl",
                "website": "http:\/\/www.zssieniawa.com.pl",
                "ref:regon": "651535620",
                "ref:vatin": "PL7941693418",
                "operator": "Powiat Przeworski",
                "operator:type": "government",
                "amenity": "school",
                "note": "Parent RSPO: 6575"
            }
        },
        {
            "id": 20370,
            "type": "Feature",
            "geometry": {
                "type": "Point",
                "coordinates": [
                    22.62131,
                    50.1908699
                ]
            },
            "properties": {
                "isced:level": "1;2",
                "ref:rspo": 20370,
                "official_name": "Szko\u0142a Podstawowa im. Prof. Kazimierza Sucheckiego \nWylewa 1\n37-530 Sieniawa",
                "name": "Szko\u0142a Podstawowa",
                "addr:postcode": "37-530",
                "addr:place": "Wylewa",
                "addr:housenumber": "1",
                "addr:teryt:simc": 611459,
                "phone": "+48 166227306",
                "email": "wylewasp@op.pl",
                "ref:regon": "001249463",
                "ref:vatin": "PL7941267408",
                "operator": "Miasto I Gmina Sieniawa",
                "operator:type": "government",
                "amenity": "school"
            }
        },
        {
            "id": 20368,
            "type": "Feature",
            "geometry": {
                "type": "Point",
                "coordinates": [
                    22.6241,
                    50.2239
                ]
            },
            "properties": {
                "isced:level": "1;2",
                "ref:rspo": 20368,
                "official_name": "Szko\u0142a Podstawowa w Rudce im. Ignacego Krasickiego Rudka 79 37-530 Sieniawa",
                "name": "Szko\u0142a Podstawowa w Rudce",
                "addr:postcode": "37-530",
                "addr:place": "Rudka",
                "addr:housenumber": "79",
                "addr:teryt:simc": 611353,
                "phone": "+48 166229719",
                "email": "szp_rudka@interia.pl",
                "ref:regon": "001207200",
                "ref:vatin": "PL7941267414",
                "operator": "Miasto I Gmina Sieniawa",
                "operator:type": "government",
                "amenity": "school"
            }
        }
    ]
}