{
    "type": "FeatureCollection",
    "features": [
        {
            "id": 75768,
            "type": "Feature",
            "geometry": {
                "type": "Point",
                "coordinates": [
                    22.46373,
                    50.00969
                ]
            },
            "properties": {
                "isced:level": "1;2",
                "ref:rspo": 75768,
                "official_name": "Szko\u0142a Podstawowa im. \u015aw. Antoniego z Padwy w Urzejowicach",
                "name": "Szko\u0142a Podstawowa",
                "addr:postcode": "37-200",
                "addr:place": "Urzejowice",
                "addr:housenumber": "542",
                "addr:city:simc": 609296,
                "phone": "+48 166482602",
                "email": "zsurzejowice@interia.eu",
                "website": "http:\/\/zsurzejowice.superszkolna.pl\/",
                "ref:regon": "001208116",
                "ref:vatin": "PL7941663104",
                "operator": "Gmina Przeworsk",
                "operator:type": "government",
                "amenity": "school"
            }
        },
        {
            "id": 78122,
            "type": "Feature",
            "geometry": {
                "type": "Point",
                "coordinates": [
                    22.561192,
                    50.0343432
                ]
            },
            "properties": {
                "isced:level": "1;2",
                "ref:rspo": 78122,
                "official_name": "Szko\u0142a Podstawowa im. B\u0142. Ks. Jerzego Popie\u0142uszki w Mirocinie",
                "name": "Szko\u0142a Podstawowa",
                "addr:postcode": "37-200",
                "addr:place": "Mirocin",
                "addr:housenumber": "384",
                "addr:city:simc": 609095,
                "phone": "+48 166488687",
                "email": "mirocin@poczta.onet.pl",
                "website": "http:\/\/zsmirocin.superszkolna.pl",
                "ref:regon": "001208056",
                "ref:vatin": "PL7941663110",
                "operator": "Gmina Przeworsk",
                "operator:type": "government",
                "amenity": "school"
            }
        },
        {
            "id": 82738,
            "type": "Feature",
            "geometry": {
                "type": "Point",
                "coordinates": [
                    22.45396,
                    50.04609
                ]
            },
            "properties": {
                "isced:level": "1;2",
                "ref:rspo": 82738,
                "official_name": "Szko\u0142a Podstawowa im. \u015aw. Brata Alberta w Studzianie",
                "name": "Szko\u0142a Podstawowa",
                "addr:postcode": "37-200",
                "addr:place": "Studzian",
                "addr:housenumber": "338",
                "addr:city:simc": 609190,
                "phone": "+48 166487635",
                "email": "zsstudzian@wp.pl",
                "website": "http:\/\/spstudzian.pl",
                "ref:regon": "001208085",
                "ref:vatin": "PL7941663073",
                "operator": "Gmina Przeworsk",
                "operator:type": "government",
                "amenity": "school"
            }
        },
        {
            "id": 75770,
            "type": "Feature",
            "geometry": {
                "type": "Point",
                "coordinates": [
                    22.54356,
                    50.05305
                ]
            },
            "properties": {
                "isced:level": "1;2",
                "ref:rspo": 75770,
                "official_name": "Szko\u0142a Podstawowa im. \u015aw. Franciszka z Asy\u017cu w Rozborzu",
                "name": "Szko\u0142a Podstawowa",
                "addr:postcode": "37-200",
                "addr:place": "Rozb\u00f3rz",
                "addr:housenumber": "568",
                "addr:city:simc": 609178,
                "phone": "+48 166486393",
                "email": "pawel.krzyzanowski@adres.pl",
                "website": "http:\/\/zsrozborz.szkolnastrona.pl",
                "ref:regon": "001208079",
                "ref:vatin": "PL7941663127",
                "operator": "Gmina Przeworsk",
                "operator:type": "government",
                "amenity": "school"
            }
        },
        {
            "id": 82788,
            "type": "Feature",
            "geometry": {
                "type": "Point",
                "coordinates": [
                    22.40896,
                    50.05466
                ]
            },
            "properties": {
                "ref:rspo": 82788,
                "official_name": "Przedszkole Niepubliczne Pn. \"Ochronka \u015aw. J\u00f3zefa\"",
                "name": "Przedszkole Niepubliczne Pn. \"Ochronka \u015aw. J\u00f3zefa\"",
                "addr:postcode": "37-200",
                "addr:place": "Nowosielce",
                "addr:housenumber": "69",
                "addr:city:simc": 609126,
                "phone": "+48 166404150",
                "email": "ochronka69@tlen.pl",
                "ref:regon": "180910573",
                "ref:vatin": "PL7941251809",
                "operator": "Zg. Ss. S\u0142u\u017cebniczek Nmp Niepokalanie Pocz\u0119tej, Prowincja Przemyska",
                "operator:type": "religious",
                "amenity": "kindergarten"
            }
        },
        {
            "id": 78125,
            "type": "Feature",
            "geometry": {
                "type": "Point",
                "coordinates": [
                    22.40495,
                    50.05789
                ]
            },
            "properties": {
                "isced:level": "1;2",
                "ref:rspo": 78125,
                "official_name": "Szko\u0142a Podstawowa im. \u015aw. Jana Kantego w Nowosielcach",
                "name": "Szko\u0142a Podstawowa",
                "addr:postcode": "37-200",
                "addr:place": "Nowosielce",
                "addr:housenumber": "561",
                "addr:city:simc": 609126,
                "phone": "+48 166404111",
                "email": "szp_nowosielce@poczta.onet.pl",
                "website": "http:\/\/spnowosielce.edupage.org",
                "ref:regon": "001208062",
                "ref:vatin": "PL7941768263",
                "operator": "Gmina Przeworsk",
                "operator:type": "government",
                "amenity": "school"
            }
        },
        {
            "id": 75772,
            "type": "Feature",
            "geometry": {
                "type": "Point",
                "coordinates": [
                    22.58584,
                    50.06612
                ]
            },
            "properties": {
                "isced:level": "1;2",
                "ref:rspo": 75772,
                "official_name": "Szko\u0142a Podstawowa im. B\u0142. Ks. Jana Balickiego w Ujeznej",
                "name": "Szko\u0142a Podstawowa",
                "addr:postcode": "37-200",
                "addr:place": "Ujezna",
                "addr:housenumber": "227",
                "addr:city:simc": 609280,
                "phone": "+48 166487920",
                "email": "spujezna@poczta.fm",
                "website": "http:\/\/zsujezna.org",
                "ref:regon": "001208100",
                "ref:vatin": "PL7941757325",
                "operator": "Gmina Przeworsk",
                "operator:type": "government",
                "amenity": "school"
            }
        },
        {
            "id": 113510,
            "type": "Feature",
            "geometry": {
                "type": "Point",
                "coordinates": [
                    22.47623,
                    50.06826
                ]
            },
            "properties": {
                "ref:rspo": 113510,
                "official_name": "Niepubliczne Przedszkole Smerfowo",
                "name": "Niepubliczne Przedszkole Smerfowo",
                "addr:postcode": "37-200",
                "addr:place": "Grz\u0119ska",
                "addr:housenumber": "544",
                "addr:city:simc": 609037,
                "phone": "+48 602218253",
                "email": "katarzynabrud@onet.eu",
                "website": "http:\/\/www.przedszkolesmerfowo.pl",
                "ref:regon": "180961524",
                "operator": "Wies\u0142aw Brud",
                "operator:type": "private",
                "amenity": "kindergarten"
            }
        },
        {
            "id": 82795,
            "type": "Feature",
            "geometry": {
                "type": "Point",
                "coordinates": [
                    22.4543,
                    50.0749
                ]
            },
            "properties": {
                "isced:level": "1;2",
                "ref:rspo": 82795,
                "official_name": "Szko\u0142a Podstawowa im. W\u0142adys\u0142awa Kojdra w Grz\u0119sce",
                "name": "Szko\u0142a Podstawowa",
                "addr:postcode": "37-200",
                "addr:place": "Grz\u0119ska",
                "addr:housenumber": "503",
                "addr:city:simc": 609037,
                "phone": "+48 166487125",
                "email": "kojder@poczta.onet.pl",
                "website": "http:\/\/zsgrzeska.pl",
                "ref:regon": "001208040",
                "ref:vatin": "PL7941663096",
                "operator": "Gmina Przeworsk",
                "operator:type": "government",
                "amenity": "school"
            }
        },
        {
            "id": 78129,
            "type": "Feature",
            "geometry": {
                "type": "Point",
                "coordinates": [
                    22.53118,
                    50.08532
                ]
            },
            "properties": {
                "isced:level": "1;2",
                "ref:rspo": 78129,
                "official_name": "Szko\u0142a Podstawowa im. Jana Paw\u0142a II w Cha\u0142upkach",
                "name": "Szko\u0142a Podstawowa",
                "addr:postcode": "37-200",
                "addr:place": "Cha\u0142upki",
                "addr:housenumber": "109",
                "addr:city:simc": 608954,
                "phone": "+48 166487378",
                "email": "szkolachalupy@op.pl",
                "website": "http:\/\/zschalupki.edupage.org",
                "ref:regon": "001266020",
                "ref:vatin": "PL7941776311",
                "operator": "Gmina Przeworsk",
                "operator:type": "government",
                "amenity": "school"
            }
        },
        {
            "id": 268055,
            "type": "Feature",
            "geometry": {
                "type": "Point",
                "coordinates": [
                    22.48425,
                    50.0933
                ]
            },
            "properties": {
                "ref:rspo": 268055,
                "official_name": "Przedszkole Samorz\u0105dowe Pn. \"Mali Odkrywcy\" w Gorliczynie",
                "name": "Przedszkole Samorz\u0105dowe Pn. \"Mali Odkrywcy\" w Gorliczynie",
                "addr:postcode": "37-200",
                "addr:place": "Gorliczyna",
                "addr:housenumber": "148",
                "addr:city:simc": 608977,
                "phone": "+48 163000315",
                "email": "agatastacel@wp.pl",
                "website": "http:\/\/www.psgorliczyna.superszkolna.pl",
                "ref:regon": "380890172",
                "ref:vatin": "PL7941825558",
                "operator": "Gmina Przeworsk",
                "operator:type": "government",
                "amenity": "kindergarten"
            }
        },
        {
            "id": 82797,
            "type": "Feature",
            "geometry": {
                "type": "Point",
                "coordinates": [
                    22.43161,
                    50.09599
                ]
            },
            "properties": {
                "isced:level": "1;2",
                "ref:rspo": 82797,
                "official_name": "Szko\u0142a Podstawowa w \u015awi\u0119toniowej",
                "name": "Szko\u0142a Podstawowa w \u015awi\u0119toniowej",
                "addr:postcode": "37-200",
                "addr:place": "\u015awi\u0119toniowa",
                "addr:housenumber": "100",
                "addr:city:simc": 609215,
                "phone": "+48 166487377",
                "email": "swantan@op.pl",
                "website": "http:\/\/www.spswietoniowa.szkolnastrona.pl",
                "ref:regon": "001208091",
                "ref:vatin": "PL7941663050",
                "operator": "Gmina Przeworsk",
                "operator:type": "government",
                "amenity": "school"
            }
        }
    ]
}