{
    "type": "FeatureCollection",
    "features": [
        {
            "id": 80801,
            "type": "Feature",
            "geometry": {
                "type": "Point",
                "coordinates": [
                    22.3600293,
                    50.025633
                ]
            },
            "properties": {
                "ref:rspo": 80801,
                "official_name": "Niepubliczne Przedszkole Si\u00f3str S\u0142u\u017cebniczek Nmp w Gaci",
                "name": "Niepubliczne Przedszkole Si\u00f3str S\u0142u\u017cebniczek Nmp w Gaci",
                "addr:country": "PL",
                "addr:postcode": "37-207",
                "addr:place": "Ga\u0107",
                "addr:housenumber": "509",
                "addr:teryt:sym_ul": 602680,
                "contact:phone": "+48 166411174",
                "contact:email": "przedszkolewgaci@onet.eu",
                "ref:regon": "180910567",
                "operator": "Zg.ss.s\u0142u\u017cebniczek Nmp Niepokalanie Pocz\u0119tej, Dom Generalny",
                "operator:type": "religious",
                "amenity": "kindergarten"
            }
        },
        {
            "id": 75468,
            "type": "Feature",
            "geometry": {
                "type": "Point",
                "coordinates": [
                    22.36591,
                    50.02896
                ]
            },
            "properties": {
                "isced:level": "1;2",
                "ref:rspo": 75468,
                "official_name": "Szko\u0142a Podstawowa im. Ignacego Solarza",
                "name": "Szko\u0142a Podstawowa",
                "addr:country": "PL",
                "addr:postcode": "37-207",
                "addr:place": "Ga\u0107",
                "addr:housenumber": "116",
                "addr:teryt:sym_ul": 602680,
                "contact:phone": "+48 166411493",
                "contact:email": "zespolszkol2013@gmail.com",
                "ref:regon": "000663232",
                "ref:vatin": "PL7941750814",
                "operator": "Gmina Ga\u0107",
                "operator:type": "government",
                "amenity": "school"
            }
        },
        {
            "id": 80670,
            "type": "Feature",
            "geometry": {
                "type": "Point",
                "coordinates": [
                    22.3884531,
                    50.033589
                ]
            },
            "properties": {
                "isced:level": "1;2",
                "ref:rspo": 80670,
                "official_name": "Szko\u0142a Podstawowa w Bia\u0142obokach",
                "name": "Szko\u0142a Podstawowa w Bia\u0142obokach",
                "addr:country": "PL",
                "addr:postcode": "37-207",
                "addr:place": "Bia\u0142oboki",
                "addr:housenumber": "160",
                "addr:teryt:sym_ul": 602638,
                "contact:phone": "+48 166411479",
                "contact:email": "bialoboki@autograf.pl",
                "contact:website": "http:\/\/www.spbialoboki.gac.pl",
                "ref:regon": "001249144",
                "ref:vatin": "PL7941623889",
                "operator": "Gmina Ga\u0107",
                "operator:type": "government",
                "amenity": "school"
            }
        },
        {
            "id": 39742,
            "type": "Feature",
            "geometry": {
                "type": "Point",
                "coordinates": [
                    22.43459,
                    50.04519
                ]
            },
            "properties": {
                "isced:level": "1;2",
                "ref:rspo": 39742,
                "official_name": "Szko\u0142a Podstawowa im. Tadeusza Ko\u015bciuszki",
                "name": "Szko\u0142a Podstawowa",
                "addr:country": "PL",
                "addr:postcode": "37-200",
                "addr:place": "D\u0119b\u00f3w",
                "addr:housenumber": "47",
                "addr:teryt:sym_ul": 602650,
                "contact:phone": "+48 166483265",
                "contact:email": "debow@autograf.pl",
                "ref:regon": "001207460",
                "ref:vatin": "PL7941648694",
                "operator": "Gmina Ga\u0107",
                "operator:type": "government",
                "amenity": "school"
            }
        },
        {
            "id": 41095,
            "type": "Feature",
            "geometry": {
                "type": "Point",
                "coordinates": [
                    22.495189666748,
                    50.05878829956
                ]
            },
            "properties": {
                "isced:level": "1;2",
                "ref:rspo": 41095,
                "official_name": "Szko\u0142a Podstawowa w Ostrowie",
                "name": "Szko\u0142a Podstawowa w Ostrowie",
                "addr:country": "PL",
                "addr:postcode": "37-207",
                "addr:place": "Ostr\u00f3w",
                "addr:housenumber": "5a",
                "addr:teryt:sym_ul": 602733,
                "contact:phone": "+48 166411422",
                "contact:email": "sp_ostrow@poczta.onet.pl",
                "ref:regon": "001249150",
                "ref:vatin": "PL7941623895",
                "operator": "Gmina Ga\u0107",
                "operator:type": "government",
                "amenity": "school"
            }
        }
    ]
}