{
    "type": "FeatureCollection",
    "features": [
        {
            "id": 16675,
            "type": "Feature",
            "geometry": {
                "type": "Point",
                "coordinates": [
                    22.5029,
                    49.96371
                ]
            },
            "properties": {
                "isced:level": "1;2",
                "ref:rspo": 16675,
                "official_name": "Szko\u0142a Podstawowa im. Marii Konopnickiej w Siennowie",
                "name": "Szko\u0142a Podstawowa",
                "addr:postcode": "37-205",
                "addr:place": "Sienn\u00f3w",
                "addr:housenumber": "227",
                "addr:teryt:simc": 613464,
                "phone": "+48 166401912",
                "email": "spsiennow@itl.pl",
                "website": "http:\/\/www.siennow.edu.pl",
                "ref:regon": "001208369",
                "ref:vatin": "PL7941569204",
                "operator": "Gmina Zarzecze",
                "operator:type": "government",
                "amenity": "school"
            }
        },
        {
            "id": 119649,
            "type": "Feature",
            "geometry": {
                "type": "Point",
                "coordinates": [
                    22.55217,
                    49.97114
                ]
            },
            "properties": {
                "isced:level": "1;2",
                "ref:rspo": 119649,
                "official_name": "Szko\u0142a Filialna im. Or\u0142a Bia\u0142ego w Pe\u0142natyczach",
                "name": "Szko\u0142a Filialna",
                "addr:postcode": "37-205",
                "addr:place": "Pe\u0142natycze",
                "addr:housenumber": "16",
                "addr:teryt:simc": 613406,
                "phone": "+48 166401586",
                "email": "zszarzecze@itl.pl",
                "ref:regon": "663189000",
                "operator": "Gmina Zarzecze",
                "operator:type": "government",
                "amenity": "school",
                "note": "Parent RSPO: 16673"
            }
        },
        {
            "id": 119648,
            "type": "Feature",
            "geometry": {
                "type": "Point",
                "coordinates": [
                    22.52182,
                    49.9776
                ]
            },
            "properties": {
                "isced:level": "1;2",
                "ref:rspo": 119648,
                "official_name": "Szko\u0142a Filialna im. Stefana Kardyna\u0142a Wyszy\u0144skiego w Ro\u017cniatowie",
                "name": "Szko\u0142a Filialna",
                "addr:postcode": "37-205",
                "addr:place": "Ro\u017cniat\u00f3w",
                "addr:housenumber": "5a",
                "addr:teryt:simc": 613441,
                "phone": "+48 166401586",
                "email": "zszarzecze@itl.pl",
                "ref:regon": "663189000",
                "operator": "Gmina Zarzecze",
                "operator:type": "government",
                "amenity": "school",
                "note": "Parent RSPO: 16673"
            }
        },
        {
            "id": 16736,
            "type": "Feature",
            "geometry": {
                "type": "Point",
                "coordinates": [
                    22.54505,
                    49.98531
                ]
            },
            "properties": {
                "ref:rspo": 16736,
                "official_name": "Szkolne Schronisko M\u0142odzie\u017cowe w Zarzeczu",
                "name": "Szkolne Schronisko M\u0142odzie\u017cowe w Zarzeczu",
                "addr:postcode": "37-205",
                "addr:city": "Zarzecze",
                "addr:street": "Ksi\u0119dza Stanis\u0142awa Gajeckiego",
                "addr:housenumber": "15",
                "addr:teryt:simc": 613524,
                "addr:teryt:sym_ul": 54323,
                "phone": "+48 166401582",
                "email": "zswitos@itl.pl",
                "website": "http:\/\/zszarzecze.com",
                "ref:regon": "180369620",
                "ref:vatin": "PL7941773169",
                "operator": "Gmina Zarzecze",
                "operator:type": "government",
                "tourism": "hostel",
                "note": "Parent RSPO: 10269"
            }
        },
        {
            "id": 124205,
            "type": "Feature",
            "geometry": {
                "type": "Point",
                "coordinates": [
                    22.5445,
                    49.98563
                ]
            },
            "properties": {
                "ref:rspo": 124205,
                "official_name": "Publiczne Przedszkole",
                "name": "Publiczne Przedszkole",
                "addr:postcode": "37-205",
                "addr:city": "Zarzecze",
                "addr:street": "Ksi\u0119dza Stanis\u0142awa Gajeckiego",
                "addr:housenumber": "13",
                "addr:teryt:simc": 613524,
                "addr:teryt:sym_ul": 54323,
                "phone": "+48 166401586",
                "email": "zszarzecze@itl.pl",
                "ref:regon": "181143740",
                "operator": "Gmina Zarzecze",
                "operator:type": "government",
                "amenity": "kindergarten",
                "note": "Parent RSPO: 19409"
            }
        },
        {
            "id": 10269,
            "type": "Feature",
            "geometry": {
                "type": "Point",
                "coordinates": [
                    22.53715,
                    49.98573
                ]
            },
            "properties": {
                "ref:rspo": 10269,
                "official_name": "Zesp\u00f3\u0142 Szk\u00f3\u0142 im. Wincentego Witosa w Zarzeczu",
                "name": "Zesp\u00f3\u0142 Szk\u00f3\u0142",
                "addr:postcode": "37-205",
                "addr:city": "Zarzecze",
                "addr:street": "Ksi\u0119dza Stanis\u0142awa Gajeckiego",
                "addr:housenumber": "7",
                "addr:teryt:simc": 613524,
                "addr:teryt:sym_ul": 54323,
                "phone": "+48 166401582",
                "email": "zswitos@itl.pl",
                "website": "http:\/\/www.zszarzecze.com",
                "ref:regon": "651419143",
                "ref:vatin": "PL7941105686",
                "operator": "Gmina Zarzecze",
                "operator:type": "government",
                "landuse": "education",
                "fixme": "amenity=school, amenity=college albo landuse=education w zale\u017cno\u015bci od tego, jakie plac\u00f3wki wchodz\u0105 w sk\u0142ad zespo\u0142u. Sprawd\u017a, kiedy stosowa\u0107 amenity=* a kiedy landuse=education.",
                "note": "Children RSPO: 16135;16146;16174;16736"
            }
        },
        {
            "id": 16135,
            "type": "Feature",
            "geometry": {
                "type": "Point",
                "coordinates": [
                    22.53715,
                    49.985699999999994
                ]
            },
            "properties": {
                "isced:level": "3",
                "ref:rspo": 16135,
                "official_name": "Bran\u017cowa Szko\u0142a I Stopnia w Zarzeczu",
                "name": "Bran\u017cowa Szko\u0142a I Stopnia w Zarzeczu",
                "addr:postcode": "37-205",
                "addr:city": "Zarzecze",
                "addr:street": "Ksi\u0119dza Stanis\u0142awa Gajeckiego",
                "addr:housenumber": "7",
                "addr:teryt:simc": 613524,
                "addr:teryt:sym_ul": 54323,
                "phone": "+48 166401582",
                "email": "zswitos@itl.pl",
                "website": "http:\/\/zszarzecze.com",
                "ref:regon": "651494819",
                "operator": "Gmina Zarzecze",
                "operator:type": "government",
                "amenity": "school",
                "note": "Parent RSPO: 10269"
            }
        },
        {
            "id": 16146,
            "type": "Feature",
            "geometry": {
                "type": "Point",
                "coordinates": [
                    22.53715,
                    49.98567
                ]
            },
            "properties": {
                "isced:level": "3",
                "ref:rspo": 16146,
                "official_name": "Liceum Og\u00f3lnokszta\u0142c\u0105ce w Zarzeczu",
                "name": "Liceum Og\u00f3lnokszta\u0142c\u0105ce w Zarzeczu",
                "addr:postcode": "37-205",
                "addr:city": "Zarzecze",
                "addr:street": "Ksi\u0119dza Stanis\u0142awa Gajeckiego",
                "addr:housenumber": "7",
                "addr:teryt:simc": 613524,
                "addr:teryt:sym_ul": 54323,
                "phone": "+48 166401582",
                "email": "zswitos@itl.pl",
                "website": "http:\/\/zszarzecze.com",
                "ref:regon": "651494765",
                "operator": "Gmina Zarzecze",
                "operator:type": "government",
                "amenity": "school",
                "note": "Parent RSPO: 10269"
            }
        },
        {
            "id": 16174,
            "type": "Feature",
            "geometry": {
                "type": "Point",
                "coordinates": [
                    22.53715,
                    49.98564
                ]
            },
            "properties": {
                "isced:level": "3",
                "ref:rspo": 16174,
                "official_name": "Technikum w Zarzeczu",
                "name": "Technikum w Zarzeczu",
                "addr:postcode": "37-205",
                "addr:city": "Zarzecze",
                "addr:street": "Ksi\u0119dza Stanis\u0142awa Gajeckiego",
                "addr:housenumber": "7",
                "addr:teryt:simc": 613524,
                "addr:teryt:sym_ul": 54323,
                "phone": "+48 166401582",
                "email": "zswitos@itl.pl",
                "website": "http:\/\/zszarzecze.com",
                "ref:regon": "651494794",
                "operator": "Gmina Zarzecze",
                "operator:type": "government",
                "amenity": "school",
                "note": "Parent RSPO: 10269"
            }
        },
        {
            "id": 19369,
            "type": "Feature",
            "geometry": {
                "type": "Point",
                "coordinates": [
                    22.5022944,
                    50.0208274
                ]
            },
            "properties": {
                "isced:level": "1;2",
                "ref:rspo": 19369,
                "official_name": "Szko\u0142a Podstawowa im. \u015aw. Brata Alberta w \u017burawiczkach",
                "name": "Szko\u0142a Podstawowa",
                "addr:postcode": "37-200",
                "addr:place": "\u017burawiczki",
                "addr:housenumber": "82",
                "addr:teryt:simc": 613547,
                "phone": "+48 166401956",
                "email": "spzurawiczki@itl.pl",
                "website": "http:\/\/www.spzurawiczki.pl",
                "ref:regon": "001208346",
                "ref:vatin": "PL7941648671",
                "operator": "Gmina Zarzecze",
                "operator:type": "government",
                "amenity": "school"
            }
        },
        {
            "id": 16677,
            "type": "Feature",
            "geometry": {
                "type": "Point",
                "coordinates": [
                    22.51381,
                    50.02857
                ]
            },
            "properties": {
                "isced:level": "1;2",
                "ref:rspo": 16677,
                "official_name": "Szko\u0142a Podstawowa im. \u015aw. Kr\u00f3lowej Jadwigi w Ma\u0107k\u00f3wce",
                "name": "Szko\u0142a Podstawowa",
                "addr:postcode": "37-200",
                "addr:place": "Ma\u0107k\u00f3wka",
                "addr:housenumber": "210",
                "addr:teryt:simc": 613369,
                "phone": "+48 166487578",
                "email": "spmackowka@itl.pl",
                "website": "http:\/\/www.spmackowka.pl",
                "ref:regon": "001208330",
                "ref:vatin": "PL7941559602",
                "operator": "Gmina Zarzecze",
                "operator:type": "government",
                "amenity": "school"
            }
        },
        {
            "id": 19409,
            "type": "Feature",
            "geometry": {
                "type": "Point",
                "coordinates": [
                    22.60899,
                    50.17953
                ]
            },
            "properties": {
                "ref:rspo": 19409,
                "official_name": "Zesp\u00f3\u0142 Szk\u00f3\u0142 w Zarzeczu",
                "name": "Zesp\u00f3\u0142 Szk\u00f3\u0142 w Zarzeczu",
                "addr:postcode": "37-205",
                "addr:city": "Zarzecze",
                "addr:street": "\u015awi\u0119tego Jana Paw\u0142a II",
                "addr:housenumber": "7",
                "addr:teryt:simc": 613524,
                "addr:teryt:sym_ul": 46642,
                "phone": "+48 166401586",
                "email": "zszarzecze@itl.pl",
                "website": "http:\/\/www.zszarzecze.pl",
                "ref:regon": "180869860",
                "ref:vatin": "PL7941819121",
                "operator": "Gmina Zarzecze",
                "operator:type": "government",
                "landuse": "education",
                "fixme": "amenity=school, amenity=college albo landuse=education w zale\u017cno\u015bci od tego, jakie plac\u00f3wki wchodz\u0105 w sk\u0142ad zespo\u0142u. Sprawd\u017a, kiedy stosowa\u0107 amenity=* a kiedy landuse=education.",
                "note": "Children RSPO: 16673;124205"
            }
        },
        {
            "id": 16673,
            "type": "Feature",
            "geometry": {
                "type": "Point",
                "coordinates": [
                    22.60899,
                    50.1795
                ]
            },
            "properties": {
                "isced:level": "1;2",
                "ref:rspo": 16673,
                "official_name": "Szko\u0142a Podstawowa im. Jana Paw\u0142a II w Zarzeczu",
                "name": "Szko\u0142a Podstawowa",
                "addr:postcode": "37-205",
                "addr:city": "Zarzecze",
                "addr:street": "\u015awi\u0119tego Jana Paw\u0142a II",
                "addr:housenumber": "7",
                "addr:teryt:simc": 613524,
                "addr:teryt:sym_ul": 46642,
                "phone": "+48 166401586",
                "email": "zszarzecze@itl.pl",
                "website": "http:\/\/www.zszarzecze.pl",
                "ref:regon": "000663189",
                "ref:vatin": "PL7941558293",
                "operator": "Gmina Zarzecze",
                "operator:type": "government",
                "amenity": "school",
                "note": "Children RSPO: 119648;119649Parent RSPO: 19409"
            }
        }
    ]
}