{
    "type": "FeatureCollection",
    "features": [
        {
            "id": 61900,
            "type": "Feature",
            "geometry": {
                "type": "Point",
                "coordinates": [
                    22.42604,
                    49.9226699
                ]
            },
            "properties": {
                "isced:level": "1;2",
                "ref:rspo": 61900,
                "official_name": "Szko\u0142a Podstawowa im. Jana Paw\u0142a II w R\u0105czynie",
                "name": "Szko\u0142a Podstawowa",
                "addr:country": "PL",
                "addr:postcode": "37-223",
                "addr:place": "R\u0105czyna",
                "addr:housenumber": "146",
                "addr:teryt:simc": 604465,
                "contact:phone": "+48 166425510",
                "contact:email": "szkolara@interia.pl",
                "contact:website": "http:\/\/zsgraczyna.pl",
                "ref:regon": "001207074",
                "ref:vatin": "PL7941771414",
                "operator": "Miasto I Gmina Ka\u0144czuga",
                "operator:type": "government",
                "amenity": "school"
            }
        },
        {
            "id": 61897,
            "type": "Feature",
            "geometry": {
                "type": "Point",
                "coordinates": [
                    22.39078,
                    49.93636
                ]
            },
            "properties": {
                "isced:level": "1;2",
                "ref:rspo": 61897,
                "official_name": "Szko\u0142a Podstawowa im. \u015aw. Jana Kantego w \u0141opuszce Wielkiej",
                "name": "Szko\u0142a Podstawowa",
                "addr:country": "PL",
                "addr:postcode": "37-220",
                "addr:place": "\u0141opuszka Wielka",
                "addr:housenumber": "488",
                "addr:teryt:simc": 604330,
                "contact:phone": "+48 166423614",
                "contact:email": "sp_lopuszka@wp.pl",
                "contact:website": "http:\/\/www.zsglopuszkaw.cba.pl",
                "ref:regon": "001207051",
                "ref:vatin": "PL7941771383",
                "operator": "Miasto I Gmina Ka\u0144czuga",
                "operator:type": "government",
                "amenity": "school"
            }
        },
        {
            "id": 61890,
            "type": "Feature",
            "geometry": {
                "type": "Point",
                "coordinates": [
                    22.43514,
                    49.9527
                ]
            },
            "properties": {
                "isced:level": "1;2",
                "ref:rspo": 61890,
                "official_name": "Szko\u0142a Podstawowa im. \u015aw. Jana Kantego w Pantalowicach",
                "name": "Szko\u0142a Podstawowa",
                "addr:country": "PL",
                "addr:postcode": "37-224",
                "addr:place": "Pantalowice",
                "addr:housenumber": "158 B",
                "addr:teryt:simc": 604413,
                "contact:phone": "+48 166423145",
                "contact:email": "skolapantalowice@interia.pl",
                "contact:website": "http:\/\/www.sppantalowice.pl",
                "ref:regon": "001207068",
                "ref:vatin": "PL7941771420",
                "operator": "Miasto I Gmina Ka\u0144czuga",
                "operator:type": "government",
                "amenity": "school"
            }
        },
        {
            "id": 61887,
            "type": "Feature",
            "geometry": {
                "type": "Point",
                "coordinates": [
                    22.3789059,
                    49.9608098
                ]
            },
            "properties": {
                "isced:level": "1;2",
                "ref:rspo": 61887,
                "official_name": "Szko\u0142a Podstawowa im. \"Jana I Marii J\u0119drzejowskich\" w Siedleczce",
                "name": "Szko\u0142a Podstawowa",
                "addr:country": "PL",
                "addr:postcode": "37-225",
                "addr:place": "Siedleczka",
                "addr:housenumber": "179",
                "addr:teryt:simc": 604494,
                "contact:phone": "+48 166423427",
                "contact:email": "sp_siedleczka@poczta.onet.pl",
                "ref:regon": "001207080",
                "ref:vatin": "PL7941771437",
                "operator": "Miasto I Gmina Ka\u0144czuga",
                "operator:type": "government",
                "amenity": "school"
            }
        },
        {
            "id": 10701,
            "type": "Feature",
            "geometry": {
                "type": "Point",
                "coordinates": [
                    22.41553,
                    49.9813
                ]
            },
            "properties": {
                "ref:rspo": 10701,
                "official_name": "Zesp\u00f3\u0142 Szk\u00f3\u0142 w Ka\u0144czudze",
                "name": "Zesp\u00f3\u0142 Szk\u00f3\u0142 w Ka\u0144czudze",
                "addr:country": "PL",
                "addr:postcode": "37-220",
                "addr:city": "Ka\u0144czuga",
                "addr:street": "Marii Konopnickiej",
                "addr:housenumber": "6",
                "addr:teryt:simc": 972424,
                "addr:teryt:sym_ul": 27348,
                "contact:phone": "+48 166423830",
                "contact:email": "zskancz@pro.onet.pl",
                "contact:website": "http:\/\/www.zskanczuga.pl",
                "ref:regon": "651422613",
                "ref:vatin": "PL7941033171",
                "operator": "Miasto I Gmina Ka\u0144czuga",
                "operator:type": "government",
                "landuse": "education",
                "fixme": "amenity=school, amenity=college albo landuse=education w zale\u017cno\u015bci od tego, jakie plac\u00f3wki wchodz\u0105 w sk\u0142ad zespo\u0142u. Sprawd\u017a, kiedy stosowa\u0107 amenity=* a kiedy landuse=education.",
                "note": "Children RSPO: 16801;16803;16819"
            }
        },
        {
            "id": 16801,
            "type": "Feature",
            "geometry": {
                "type": "Point",
                "coordinates": [
                    22.41553,
                    49.981269999999995
                ]
            },
            "properties": {
                "isced:level": "3",
                "ref:rspo": 16801,
                "official_name": "Liceum Og\u00f3lnokszta\u0142c\u0105ce im. Adama Mickiewicza w Ka\u0144czudze",
                "name": "Liceum Og\u00f3lnokszta\u0142c\u0105ce",
                "addr:country": "PL",
                "addr:postcode": "37-220",
                "addr:city": "Ka\u0144czuga",
                "addr:street": "Marii Konopnickiej",
                "addr:housenumber": "6",
                "addr:teryt:simc": 972424,
                "addr:teryt:sym_ul": 27348,
                "contact:phone": "+48 166423830",
                "contact:email": "zskancz@pro.onet.pl",
                "contact:website": "http:\/\/www.zskanczuga.pl",
                "ref:regon": "651534223",
                "operator": "Miasto I Gmina Ka\u0144czuga",
                "operator:type": "government",
                "amenity": "school",
                "note": "Parent RSPO: 10701"
            }
        },
        {
            "id": 16803,
            "type": "Feature",
            "geometry": {
                "type": "Point",
                "coordinates": [
                    22.41553,
                    49.98124
                ]
            },
            "properties": {
                "isced:level": "3",
                "ref:rspo": 16803,
                "official_name": "Bran\u017cowa Szko\u0142a I Stopnia w Ka\u0144czudze",
                "name": "Bran\u017cowa Szko\u0142a I Stopnia w Ka\u0144czudze",
                "addr:country": "PL",
                "addr:postcode": "37-220",
                "addr:city": "Ka\u0144czuga",
                "addr:street": "Marii Konopnickiej",
                "addr:housenumber": "6",
                "addr:teryt:simc": 972424,
                "addr:teryt:sym_ul": 27348,
                "contact:phone": "+48 166423830",
                "contact:email": "zskancz@pro.onet.pl",
                "contact:website": "http:\/\/www.zskanczuga.pl",
                "ref:regon": "651495049",
                "operator": "Miasto I Gmina Ka\u0144czuga",
                "operator:type": "government",
                "amenity": "school",
                "note": "Parent RSPO: 10701"
            }
        },
        {
            "id": 16819,
            "type": "Feature",
            "geometry": {
                "type": "Point",
                "coordinates": [
                    22.41553,
                    49.98121
                ]
            },
            "properties": {
                "isced:level": "3",
                "ref:rspo": 16819,
                "official_name": "Technikum w Ka\u0144czudze",
                "name": "Technikum w Ka\u0144czudze",
                "addr:country": "PL",
                "addr:postcode": "37-220",
                "addr:city": "Ka\u0144czuga",
                "addr:street": "Marii Konopnickiej",
                "addr:housenumber": "6",
                "addr:teryt:simc": 972424,
                "addr:teryt:sym_ul": 27348,
                "contact:phone": "+48 166423830",
                "contact:email": "zskancz@pro.onet.pl",
                "contact:website": "http:\/\/www.zskanczuga.pl",
                "ref:regon": "651534230",
                "operator": "Miasto I Gmina Ka\u0144czuga",
                "operator:type": "government",
                "amenity": "school",
                "note": "Parent RSPO: 10701"
            }
        },
        {
            "id": 35160,
            "type": "Feature",
            "geometry": {
                "type": "Point",
                "coordinates": [
                    22.41375,
                    49.98164
                ]
            },
            "properties": {
                "ref:rspo": 35160,
                "official_name": "Miejsko Gminne Przedszkole w Ka\u0144czudze",
                "name": "Miejsko Gminne Przedszkole w Ka\u0144czudze",
                "addr:country": "PL",
                "addr:postcode": "37-220",
                "addr:city": "Ka\u0144czuga",
                "addr:street": "Wincentego Witosa",
                "addr:housenumber": "1",
                "addr:teryt:simc": 972424,
                "addr:teryt:sym_ul": 24459,
                "contact:phone": "+48 166423870",
                "contact:email": "mgpkanczuga@op.pl",
                "ref:regon": "650233962",
                "ref:vatin": "PL7941686200",
                "operator": "Miasto I Gmina Ka\u0144czuga",
                "operator:type": "government",
                "amenity": "kindergarten"
            }
        },
        {
            "id": 61895,
            "type": "Feature",
            "geometry": {
                "type": "Point",
                "coordinates": [
                    22.46564,
                    49.98217
                ]
            },
            "properties": {
                "isced:level": "1;2",
                "ref:rspo": 61895,
                "official_name": "Szko\u0142a Podstawowa im. \"Poleg\u0142ych w Strajku w Krzeczowicach w 1936\" w Krzeczowicach",
                "name": "Szko\u0142a Podstawowa",
                "addr:country": "PL",
                "addr:postcode": "37-220",
                "addr:place": "Krzeczowice",
                "addr:housenumber": "56A",
                "addr:teryt:simc": 604270,
                "contact:phone": "+48 166423928",
                "contact:email": "kszkola1@tlen.pl",
                "contact:website": "http:\/\/krzeczowice.cba.pl",
                "ref:regon": "001207045",
                "ref:vatin": "PL7941771408",
                "operator": "Miasto I Gmina Ka\u0144czuga",
                "operator:type": "government",
                "amenity": "school"
            }
        },
        {
            "id": 26368,
            "type": "Feature",
            "geometry": {
                "type": "Point",
                "coordinates": [
                    22.41389,
                    49.98453
                ]
            },
            "properties": {
                "isced:level": "1;2",
                "ref:rspo": 26368,
                "official_name": "Szko\u0142a Podstawowa im. Kr\u00f3la Jana III Sobieskiego w Ka\u0144czudze",
                "name": "Szko\u0142a Podstawowa",
                "addr:country": "PL",
                "addr:postcode": "37-220",
                "addr:city": "Ka\u0144czuga",
                "addr:street": "Szkolna",
                "addr:housenumber": "5",
                "addr:teryt:simc": 972424,
                "addr:teryt:sym_ul": 21970,
                "contact:phone": "+48 166423148",
                "contact:email": "spsobieski@gmail.com",
                "ref:regon": "000601828",
                "ref:vatin": "PL7941105551",
                "operator": "Miasto I Gmina Ka\u0144czuga",
                "operator:type": "government",
                "amenity": "school"
            }
        },
        {
            "id": 123830,
            "type": "Feature",
            "geometry": {
                "type": "Point",
                "coordinates": [
                    22.41389,
                    49.9845
                ]
            },
            "properties": {
                "ref:rspo": 123830,
                "official_name": "Szko\u0142a Muzyczna I Stopnia w Ka\u0144czudze",
                "name": "Szko\u0142a Muzyczna I Stopnia w Ka\u0144czudze",
                "addr:country": "PL",
                "addr:postcode": "37-220",
                "addr:city": "Ka\u0144czuga",
                "addr:street": "Szkolna",
                "addr:housenumber": "5",
                "addr:teryt:simc": 972424,
                "addr:teryt:sym_ul": 21970,
                "contact:phone": "+48 166483934",
                "contact:email": "muzyczna@kanczuga.pl",
                "contact:website": "http:\/\/muzyczna.kanczuga.pl",
                "ref:regon": "181137885",
                "operator": "Miasto I Gmina Ka\u0144czuga",
                "operator:type": "government",
                "amenity": "music_school"
            }
        },
        {
            "id": 61892,
            "type": "Feature",
            "geometry": {
                "type": "Point",
                "coordinates": [
                    22.35386,
                    49.98999
                ]
            },
            "properties": {
                "isced:level": "1;2",
                "ref:rspo": 61892,
                "official_name": "Szko\u0142a Podstawowa im. \u015aw. Jadwigi Kr\u00f3lowej w Sieteszy",
                "name": "Szko\u0142a Podstawowa",
                "addr:country": "PL",
                "addr:postcode": "37-206",
                "addr:place": "Sietesz",
                "addr:housenumber": "329",
                "addr:teryt:simc": 604531,
                "contact:phone": "+48 166426013",
                "contact:email": "sp_sietesz1@o2.pl",
                "contact:website": "http:\/\/spsietesz.pl",
                "ref:regon": "001207097",
                "ref:vatin": "PL7941771377",
                "operator": "Miasto I Gmina Ka\u0144czuga",
                "operator:type": "government",
                "amenity": "school"
            }
        }
    ]
}