{
    "type": "FeatureCollection",
    "features": [
        {
            "id": 128947,
            "type": "Feature",
            "geometry": {
                "type": "Point",
                "coordinates": [
                    22.50168,
                    50.04899
                ]
            },
            "properties": {
                "ref:rspo": 128947,
                "official_name": "Niepubliczne Przedszkole Terapeutyczne \"Promyczek",
                "name": "Niepubliczne Przedszkole Terapeutyczne \"Promyczek",
                "addr:postcode": "37-200",
                "addr:city": "Przeworsk",
                "addr:street": "Wojska Polskiego",
                "addr:housenumber": "44",
                "addr:teryt:simc": 972513,
                "addr:teryt:sym_ul": 24628,
                "phone": "+48 668819210",
                "email": "maciejsz@promyczek.przeworsk.pl",
                "website": "http:\/\/www.promyczek.przeworsk.pl",
                "ref:regon": "362434420",
                "operator": "Ma\u0142gorzata Szelenbaum",
                "operator:type": "private",
                "amenity": "kindergarten"
            }
        },
        {
            "id": 21021,
            "type": "Feature",
            "geometry": {
                "type": "Point",
                "coordinates": [
                    22.5035,
                    50.05416
                ]
            },
            "properties": {
                "ref:rspo": 21021,
                "official_name": "Prywatne Przedszkole \"Bajkowe Przedszkole\"",
                "name": "Prywatne Przedszkole \"Bajkowe Przedszkole\"",
                "addr:postcode": "37-200",
                "addr:city": "Przeworsk",
                "addr:street": "Tatarska",
                "addr:housenumber": "25",
                "addr:teryt:simc": 972513,
                "addr:teryt:sym_ul": 22712,
                "phone": "+48 604429156",
                "email": "bajkowe.przedszkole@onet.pl",
                "ref:regon": "180893389",
                "ref:vatin": "PL7921028540",
                "operator": "Bogumi\u0142a Staniszewska",
                "operator:type": "private",
                "amenity": "kindergarten"
            }
        },
        {
            "id": 123690,
            "type": "Feature",
            "geometry": {
                "type": "Point",
                "coordinates": [
                    22.49999,
                    50.05506
                ]
            },
            "properties": {
                "isced:level": "3",
                "ref:rspo": 123690,
                "official_name": "Liceum Og\u00f3lnokszta\u0142c\u0105ce dla Doros\u0142ych w Przeworsku",
                "name": "Liceum Og\u00f3lnokszta\u0142c\u0105ce dla Doros\u0142ych w Przeworsku",
                "addr:postcode": "37-200",
                "addr:city": "Przeworsk",
                "addr:street": "Gimnazjalna",
                "addr:housenumber": "35",
                "addr:teryt:simc": 972513,
                "addr:teryt:sym_ul": 5527,
                "phone": "+48 167334136",
                "email": "beatakudla@poczta.fm",
                "ref:regon": "181134622",
                "operator": "Wy\u017csza Szko\u0142a Spo\u0142eczno-Gospodarcza Z Siedzib\u0105 W Przeworsku",
                "operator:type": "private",
                "amenity": "school"
            }
        },
        {
            "id": 130120,
            "type": "Feature",
            "geometry": {
                "type": "Point",
                "coordinates": [
                    22.49999,
                    50.055029999999995
                ]
            },
            "properties": {
                "ref:rspo": 130120,
                "official_name": "Centrum Edukacji Ekspert Niepubliczna Plac\u00f3wka Kszta\u0142cenia Praktycznego",
                "name": "Centrum Edukacji Ekspert Niepubliczna Plac\u00f3wka Kszta\u0142cenia Praktycznego",
                "addr:postcode": "37-200",
                "addr:city": "Przeworsk",
                "addr:street": "Gimnazjalna",
                "addr:housenumber": "35",
                "addr:teryt:simc": 972513,
                "addr:teryt:sym_ul": 5527,
                "phone": "+48 166487256",
                "ref:regon": "363503406",
                "operator": "Wy\u017csza Szko\u0142a Spo\u0142eczno-Gospodarcza Z Siedzib\u0105 W Przeworsku",
                "operator:type": "private"
            }
        },
        {
            "id": 268648,
            "type": "Feature",
            "geometry": {
                "type": "Point",
                "coordinates": [
                    22.49999,
                    50.055
                ]
            },
            "properties": {
                "isced:level": "3",
                "ref:rspo": 268648,
                "official_name": "Bran\u017cowa Szko\u0142a I Stopnia w Przeworsku",
                "name": "Bran\u017cowa Szko\u0142a I Stopnia w Przeworsku",
                "addr:postcode": "37-200",
                "addr:city": "Przeworsk",
                "addr:street": "Gimnazjalna",
                "addr:housenumber": "35",
                "addr:teryt:simc": 972513,
                "addr:teryt:sym_ul": 5527,
                "phone": "+48 167334136",
                "email": "wssg@vp.pl",
                "ref:regon": "381222870",
                "operator": "Wy\u017csza Szko\u0142a Spo\u0142eczno-Gospodarcza Z Siedzib\u0105 W Przeworsku",
                "operator:type": "private",
                "amenity": "school"
            }
        },
        {
            "id": 271244,
            "type": "Feature",
            "geometry": {
                "type": "Point",
                "coordinates": [
                    22.49999,
                    50.05497
                ]
            },
            "properties": {
                "isced:level": "3",
                "ref:rspo": 271244,
                "official_name": "Liceum Og\u00f3lnokszta\u0142c\u0105ce Mistrzostwa Sportowego w Przeworsku",
                "name": "Liceum Og\u00f3lnokszta\u0142c\u0105ce Mistrzostwa Sportowego w Przeworsku",
                "addr:postcode": "37-200",
                "addr:city": "Przeworsk",
                "addr:street": "Gimnazjalna",
                "addr:housenumber": "35",
                "addr:teryt:simc": 972513,
                "addr:teryt:sym_ul": 5527,
                "phone": "+48 167334136",
                "email": "wssg@vp.pl",
                "ref:regon": "383206029",
                "operator": "Wy\u017csza Szko\u0142a Spo\u0142eczno-Gospodarcza Z Siedzib\u0105 W Przeworsku",
                "operator:type": "private",
                "amenity": "school"
            }
        },
        {
            "id": 10120,
            "type": "Feature",
            "geometry": {
                "type": "Point",
                "coordinates": [
                    22.49722,
                    50.0579899
                ]
            },
            "properties": {
                "ref:rspo": 10120,
                "official_name": "Poradnia Psychologiczno - Pedagogiczna w Przeworsku",
                "name": "Poradnia Psychologiczno - Pedagogiczna w Przeworsku",
                "addr:postcode": "37-200",
                "addr:city": "Przeworsk",
                "addr:street": "Lwowska",
                "addr:housenumber": "16",
                "addr:teryt:simc": 972513,
                "addr:teryt:sym_ul": 11467,
                "phone": "+48 166488250",
                "email": "poradniaprzeworsk@interia.pl",
                "website": "http:\/\/poradniap-p.powiatprzeworsk.pl",
                "ref:regon": "651199894",
                "ref:vatin": "PL7941104824",
                "operator": "Powiat Przeworski",
                "operator:type": "government",
                "healthcare": "counselling",
                "counselling_type": "education",
                "fixme": "w zale\u017cno\u015bci od przedmiotu dzia\u0142alno\u015bci (np. healthcare=counselling + counselling_type=education albo healthcare=psychotherapist)"
            }
        },
        {
            "id": 14618,
            "type": "Feature",
            "geometry": {
                "type": "Point",
                "coordinates": [
                    22.48852,
                    50.05811
                ]
            },
            "properties": {
                "isced:level": "3",
                "ref:rspo": 14618,
                "official_name": "I Liceum Og\u00f3lnokszta\u0142c\u0105ce im. Kr\u00f3la W\u0142adys\u0142awa Jagie\u0142\u0142y w Przeworsku",
                "name": "I Liceum Og\u00f3lnokszta\u0142c\u0105ce",
                "addr:postcode": "37-200",
                "addr:city": "Przeworsk",
                "addr:street": "Szkolna",
                "addr:housenumber": "6",
                "addr:teryt:simc": 972513,
                "addr:teryt:sym_ul": 21970,
                "phone": "+48 166487969",
                "email": "1lo.przeworsk@gmail.com",
                "website": "http:\/\/loprzeworsk.pl",
                "ref:regon": "651423245",
                "operator": "Powiat Przeworski",
                "operator:type": "government",
                "amenity": "school"
            }
        },
        {
            "id": 20298,
            "type": "Feature",
            "geometry": {
                "type": "Point",
                "coordinates": [
                    22.49694,
                    50.0583699
                ]
            },
            "properties": {
                "isced:level": "1;2",
                "ref:rspo": 20298,
                "official_name": "Szko\u0142a Podstawowa Nr 2 Im Hugona Ko\u0142\u0142\u0105taja",
                "name": "Szko\u0142a Podstawowa Nr 2 Im Hugona Ko\u0142\u0142\u0105taja",
                "addr:postcode": "37-200",
                "addr:city": "Przeworsk",
                "addr:street": "Lwowska",
                "addr:housenumber": "11",
                "addr:teryt:simc": 972513,
                "addr:teryt:sym_ul": 11467,
                "phone": "+48 166487256",
                "email": "sekretariatszkolanr2@poczta.onet.pl",
                "website": "http:\/\/www.sp2przeworsk.nets.pl",
                "ref:regon": "650104940",
                "ref:vatin": "PL7941045292",
                "operator": "Miasto Przeworsk",
                "operator:type": "government",
                "amenity": "school"
            }
        },
        {
            "id": 21241,
            "type": "Feature",
            "geometry": {
                "type": "Point",
                "coordinates": [
                    22.49061,
                    50.05842
                ]
            },
            "properties": {
                "ref:rspo": 21241,
                "official_name": "Przedszkole Si\u00f3str Mi\u0142osierdzia",
                "name": "Przedszkole Si\u00f3str Mi\u0142osierdzia",
                "addr:postcode": "37-200",
                "addr:city": "Przeworsk",
                "addr:street": "Krakowska",
                "addr:housenumber": "1",
                "addr:teryt:simc": 972513,
                "addr:teryt:sym_ul": 9796,
                "phone": "+48 166487958",
                "email": "smprzedszkole@op.pl",
                "ref:regon": "180893372",
                "ref:vatin": "PL7941246990",
                "operator": "Zg.ss.mi\u0142osierdzia \u015aw.wincentego A Paulo, Prowincja Krakowska",
                "operator:type": "religious",
                "amenity": "kindergarten"
            }
        },
        {
            "id": 274285,
            "type": "Feature",
            "geometry": {
                "type": "Point",
                "coordinates": [
                    22.50364,
                    50.0586
                ]
            },
            "properties": {
                "ref:rspo": 274285,
                "official_name": "Niepubliczne Przedszkole Ciuciubabka",
                "name": "Niepubliczne Przedszkole Ciuciubabka",
                "addr:postcode": "37-200",
                "addr:city": "Przeworsk",
                "addr:street": "Pszenna",
                "addr:housenumber": "7",
                "addr:teryt:simc": 972513,
                "addr:teryt:sym_ul": 18049,
                "phone": "+48 163074057",
                "email": "wanda.wilczek@gmail.com",
                "website": "http:\/\/ciuciubabka.przeworsk.pl",
                "ref:regon": "385519614",
                "operator": "Wioletta Wilczek",
                "operator:type": "private",
                "amenity": "kindergarten"
            }
        },
        {
            "id": 128409,
            "type": "Feature",
            "geometry": {
                "type": "Point",
                "coordinates": [
                    22.49406,
                    50.0587
                ]
            },
            "properties": {
                "ref:rspo": 128409,
                "official_name": "Pedagogiczna Biblioteka Wojew\u00f3dzka im. J.g.pawlikowskiego w Przemy\u015blu Filia w Przeworsku",
                "name": "Pedagogiczna Biblioteka Wojew\u00f3dzka",
                "addr:postcode": "37-200",
                "addr:city": "Przeworsk",
                "addr:street": "Jagiello\u0144ska",
                "addr:housenumber": "16",
                "addr:teryt:simc": 972513,
                "addr:teryt:sym_ul": 7029,
                "phone": "+48 166488176",
                "email": "przeworsk@pbw.org.pl",
                "ref:regon": "105730900",
                "operator": "Wojew\u00f3dztwo Podkarpackie",
                "operator:type": "government",
                "amenity": "library",
                "note": "Parent RSPO: 92386"
            }
        },
        {
            "id": 12330,
            "type": "Feature",
            "geometry": {
                "type": "Point",
                "coordinates": [
                    22.48766,
                    50.05918
                ]
            },
            "properties": {
                "ref:rspo": 12330,
                "official_name": "Niepubliczna Szko\u0142a Muzyczna II St. w Przeworsku",
                "name": "Niepubliczna Szko\u0142a Muzyczna II St. w Przeworsku",
                "addr:postcode": "37-200",
                "addr:city": "Przeworsk",
                "addr:street": "Krakowska",
                "addr:housenumber": "20",
                "addr:teryt:simc": 972513,
                "addr:teryt:sym_ul": 9796,
                "email": "magdasiwa00@gmail.com",
                "website": "http:\/\/www.ptm.net.pl",
                "ref:regon": "180885823",
                "operator": "Przeworskie Towarzystwo Muzyczne",
                "operator:type": "ngo",
                "amenity": "music_school"
            }
        },
        {
            "id": 69926,
            "type": "Feature",
            "geometry": {
                "type": "Point",
                "coordinates": [
                    22.48766,
                    50.059149999999995
                ]
            },
            "properties": {
                "ref:rspo": 69926,
                "official_name": "Pa\u0144stwowa Szko\u0142a Muzyczna I St. im. Mieczys\u0142awa Kar\u0142owicza w Przeworsku",
                "name": "Pa\u0144stwowa Szko\u0142a Muzyczna I St.",
                "addr:postcode": "37-200",
                "addr:city": "Przeworsk",
                "addr:street": "Krakowska",
                "addr:housenumber": "20",
                "addr:teryt:simc": 972513,
                "addr:teryt:sym_ul": 9796,
                "phone": "+48 166487186",
                "email": "psmprzeworsk@poczta.onet.pl",
                "website": "http:\/\/przeworsk.muzyczna.com.pl",
                "ref:regon": "000631321",
                "operator": "Ministerstwo Kultury I Dziedzictwa Narodowego",
                "operator:type": "public",
                "amenity": "music_school"
            }
        },
        {
            "id": 20839,
            "type": "Feature",
            "geometry": {
                "type": "Point",
                "coordinates": [
                    22.4912199,
                    50.06023
                ]
            },
            "properties": {
                "ref:rspo": 20839,
                "official_name": "Przedszkole Miejskie Nr 2 w Przeworsku",
                "name": "Przedszkole Miejskie Nr 2 w Przeworsku",
                "addr:postcode": "37-200",
                "addr:city": "Przeworsk",
                "addr:street": "Marii Konopnickiej",
                "addr:housenumber": "21a",
                "addr:teryt:simc": 972513,
                "addr:teryt:sym_ul": 9186,
                "phone": "+48 166487914",
                "email": "pm2@przeworsk.um.gov.pl",
                "website": "http:\/\/pm2.przeworsk.um.gov.pl",
                "ref:regon": "650017483",
                "ref:vatin": "PL7941318258",
                "operator": "Miasto Przeworsk",
                "operator:type": "government",
                "amenity": "kindergarten"
            }
        },
        {
            "id": 20856,
            "type": "Feature",
            "geometry": {
                "type": "Point",
                "coordinates": [
                    22.4912199,
                    50.060199999999995
                ]
            },
            "properties": {
                "ref:rspo": 20856,
                "official_name": "Przedszkole Miejskie Nr 3",
                "name": "Przedszkole Miejskie Nr 3",
                "addr:postcode": "37-200",
                "addr:city": "Przeworsk",
                "addr:street": "Marii Konopnickiej",
                "addr:housenumber": "21",
                "addr:teryt:simc": 972513,
                "addr:teryt:sym_ul": 9186,
                "phone": "+48 166487661",
                "email": "pm3@przeworsk.um.gov.pl",
                "website": "http:\/\/przedszkole.przeworsk.pl",
                "ref:regon": "650017508",
                "ref:vatin": "PL7941317827",
                "operator": "Miasto Przeworsk",
                "operator:type": "government",
                "amenity": "kindergarten"
            }
        },
        {
            "id": 19696,
            "type": "Feature",
            "geometry": {
                "type": "Point",
                "coordinates": [
                    22.4917435,
                    50.0608525
                ]
            },
            "properties": {
                "isced:level": "1;2",
                "ref:rspo": 19696,
                "official_name": "Szko\u0142a Podstawowa Nr 1 Im Jana Paw\u0142a Ii",
                "name": "Szko\u0142a Podstawowa Nr 1 Im Jana Paw\u0142a Ii",
                "addr:postcode": "37-200",
                "addr:city": "Przeworsk",
                "addr:street": "Marii Konopnickiej",
                "addr:housenumber": "5",
                "addr:teryt:simc": 972513,
                "addr:teryt:sym_ul": 9186,
                "phone": "+48 166487268",
                "email": "sp1@przeworsk.um.gov.pl",
                "website": "http:\/\/sp1przeworsk.edupage.org",
                "ref:regon": "650104443",
                "ref:vatin": "PL7941104617",
                "operator": "Miasto Przeworsk",
                "operator:type": "government",
                "amenity": "school"
            }
        },
        {
            "id": 10257,
            "type": "Feature",
            "geometry": {
                "type": "Point",
                "coordinates": [
                    22.4973389,
                    50.0609564
                ]
            },
            "properties": {
                "ref:rspo": 10257,
                "official_name": "Zesp\u00f3\u0142 Szk\u00f3\u0142 Zawodowych im. Kr\u00f3la Jana III Sobieskiego w Przeworsku",
                "name": "Zesp\u00f3\u0142 Szk\u00f3\u0142 Zawodowych",
                "addr:postcode": "37-200",
                "addr:city": "Przeworsk",
                "addr:street": "Ignacego Krasickiego",
                "addr:housenumber": "9",
                "addr:teryt:simc": 972513,
                "addr:teryt:sym_ul": 9830,
                "phone": "+48 166487574",
                "email": "zszprzeworsk@gmail.com",
                "website": "http:\/\/zsz.przeworsk.pl",
                "ref:regon": "651421766",
                "ref:vatin": "PL7941118588",
                "operator": "Powiat Przeworski",
                "operator:type": "government",
                "landuse": "education",
                "fixme": "amenity=school, amenity=college albo landuse=education w zale\u017cno\u015bci od tego, jakie plac\u00f3wki wchodz\u0105 w sk\u0142ad zespo\u0142u. Sprawd\u017a, kiedy stosowa\u0107 amenity=* a kiedy landuse=education.",
                "note": "Children RSPO: 16852;18904;19401;22573;275784"
            }
        },
        {
            "id": 16852,
            "type": "Feature",
            "geometry": {
                "type": "Point",
                "coordinates": [
                    22.4973389,
                    50.0609264
                ]
            },
            "properties": {
                "isced:level": "3",
                "ref:rspo": 16852,
                "official_name": "Ii Liceum Og\u00f3lnokszta\u0142c\u0105ce w Przeworsku",
                "name": "Ii Liceum Og\u00f3lnokszta\u0142c\u0105ce w Przeworsku",
                "addr:postcode": "37-200",
                "addr:city": "Przeworsk",
                "addr:street": "Ignacego Krasickiego",
                "addr:housenumber": "9",
                "addr:teryt:simc": 972513,
                "addr:teryt:sym_ul": 9830,
                "phone": "+48 166487574",
                "email": "zszprzeworsk@gmail.com",
                "website": "http:\/\/zsz.przeworsk.pl",
                "ref:regon": "651538652",
                "operator": "Powiat Przeworski",
                "operator:type": "government",
                "amenity": "school",
                "note": "Parent RSPO: 10257"
            }
        },
        {
            "id": 18904,
            "type": "Feature",
            "geometry": {
                "type": "Point",
                "coordinates": [
                    22.4973389,
                    50.060896400000004
                ]
            },
            "properties": {
                "isced:level": "3",
                "ref:rspo": 18904,
                "official_name": "Bran\u017cowa Szko\u0142a I Stopnia w Przeworsku",
                "name": "Bran\u017cowa Szko\u0142a I Stopnia w Przeworsku",
                "addr:postcode": "37-200",
                "addr:city": "Przeworsk",
                "addr:street": "Ignacego Krasickiego",
                "addr:housenumber": "9",
                "addr:teryt:simc": 972513,
                "addr:teryt:sym_ul": 9830,
                "phone": "+48 166487574",
                "email": "zszprzeworsk@gmail.com",
                "website": "http:\/\/zsz.przeworsk.pl",
                "ref:regon": "651494720",
                "operator": "Powiat Przeworski",
                "operator:type": "government",
                "amenity": "school",
                "note": "Parent RSPO: 10257"
            }
        },
        {
            "id": 19401,
            "type": "Feature",
            "geometry": {
                "type": "Point",
                "coordinates": [
                    22.4973389,
                    50.0608664
                ]
            },
            "properties": {
                "isced:level": "3",
                "ref:rspo": 19401,
                "official_name": "Technikum w Przeworsku",
                "name": "Technikum w Przeworsku",
                "addr:postcode": "37-200",
                "addr:city": "Przeworsk",
                "addr:street": "Ignacego Krasickiego",
                "addr:housenumber": "9",
                "addr:teryt:simc": 972513,
                "addr:teryt:sym_ul": 9830,
                "phone": "+48 166487574",
                "email": "zszprzeworsk@gmail.com",
                "website": "http:\/\/zsz.przeworsk.pl",
                "ref:regon": "651494742",
                "operator": "Powiat Przeworski",
                "operator:type": "government",
                "amenity": "school",
                "note": "Parent RSPO: 10257"
            }
        },
        {
            "id": 22573,
            "type": "Feature",
            "geometry": {
                "type": "Point",
                "coordinates": [
                    22.4973389,
                    50.0608364
                ]
            },
            "properties": {
                "ref:rspo": 22573,
                "official_name": "Szkolne Schronisko M\u0142odzie\u017cowe w Przeworsku",
                "name": "Szkolne Schronisko M\u0142odzie\u017cowe w Przeworsku",
                "addr:postcode": "37-200",
                "addr:city": "Przeworsk",
                "addr:street": "Ignacego Krasickiego",
                "addr:housenumber": "9",
                "addr:teryt:simc": 972513,
                "addr:teryt:sym_ul": 9830,
                "phone": "+48 166487574",
                "ref:regon": "180893745",
                "operator": "Powiat Przeworski",
                "operator:type": "government",
                "tourism": "hostel",
                "note": "Parent RSPO: 10257"
            }
        },
        {
            "id": 275784,
            "type": "Feature",
            "geometry": {
                "type": "Point",
                "coordinates": [
                    22.4973389,
                    50.060806400000004
                ]
            },
            "properties": {
                "isced:level": "3",
                "ref:rspo": 275784,
                "official_name": "Bran\u017cowa Szko\u0142a II Stopnia w Przeworsku",
                "name": "Bran\u017cowa Szko\u0142a II Stopnia w Przeworsku",
                "addr:postcode": "37-200",
                "addr:city": "Przeworsk",
                "addr:street": "Ignacego Krasickiego",
                "addr:housenumber": "9",
                "addr:teryt:simc": 972513,
                "addr:teryt:sym_ul": 9830,
                "phone": "+48 166487574",
                "email": "zszprzeworsk@gmail.com",
                "website": "http:\/\/zsz.przeworsk.pl",
                "ref:regon": "386935763",
                "operator": "Powiat Przeworski",
                "operator:type": "government",
                "amenity": "school",
                "note": "Parent RSPO: 10257"
            }
        },
        {
            "id": 21249,
            "type": "Feature",
            "geometry": {
                "type": "Point",
                "coordinates": [
                    22.49327,
                    50.08476
                ]
            },
            "properties": {
                "isced:level": "1;2",
                "ref:rspo": 21249,
                "official_name": "Szko\u0142a Podstawowa Nr 3 Im J\u00f3zefa Pi\u0142sudskiego",
                "name": "Szko\u0142a Podstawowa Nr 3 Im J\u00f3zefa Pi\u0142sudskiego",
                "addr:postcode": "37-200",
                "addr:city": "Przeworsk",
                "addr:street": "Gorliczy\u0144ska",
                "addr:housenumber": "148",
                "addr:teryt:simc": 972513,
                "addr:teryt:sym_ul": 5827,
                "phone": "+48 166487457",
                "email": "sp3jp@wp.pl",
                "website": "http:\/\/sp3.przeworsk.org",
                "ref:regon": "650104236",
                "ref:vatin": "PL7941055149",
                "operator": "Miasto Przeworsk",
                "operator:type": "government",
                "amenity": "school"
            }
        }
    ]
}