{
    "type": "FeatureCollection",
    "features": [
        {
            "id": 81347,
            "type": "Feature",
            "geometry": {
                "type": "Point",
                "coordinates": [
                    18.9158,
                    51.85809
                ]
            },
            "properties": {
                "isced:level": "1;2",
                "ref:rspo": 81347,
                "official_name": "Szko\u0142a Podstawowa w Ba\u0142drzychowie",
                "name": "Szko\u0142a Podstawowa w Ba\u0142drzychowie",
                "addr:postcode": "99-200",
                "addr:place": "Ba\u0142drzych\u00f3w",
                "addr:housenumber": "13A",
                "addr:city:simc": 710345,
                "phone": "+48 436783043",
                "email": "kontakt@spbaldrzychow.poddebice.pl",
                "website": "http:\/\/spbaldrzychow.poddebice.pl",
                "ref:regon": "001161610",
                "ref:vatin": "PL8281282051",
                "operator": "Gmina Podd\u0119bice",
                "operator:type": "government",
                "amenity": "school"
            }
        },
        {
            "id": 83636,
            "type": "Feature",
            "geometry": {
                "type": "Point",
                "coordinates": [
                    18.86768,
                    51.8708
                ]
            },
            "properties": {
                "isced:level": "1;2",
                "ref:rspo": 83636,
                "official_name": "Publiczna Szko\u0142a Podstawowa w Porczynach",
                "name": "Publiczna Szko\u0142a Podstawowa w Porczynach",
                "addr:postcode": "99-200",
                "addr:place": "Porczyny",
                "addr:housenumber": "25",
                "addr:city:simc": 711103,
                "phone": "+48 436784210",
                "email": "szkolaporczyny@poczta.onet.pl",
                "ref:regon": "101500612",
                "operator": "Stowarzyszenie Promocji I Rozwoju Porczyn I Okolicy",
                "operator:type": "ngo",
                "amenity": "school"
            }
        },
        {
            "id": 81344,
            "type": "Feature",
            "geometry": {
                "type": "Point",
                "coordinates": [
                    18.81267,
                    51.87202
                ]
            },
            "properties": {
                "isced:level": "1;2",
                "ref:rspo": 81344,
                "official_name": "Szko\u0142a Podstawowa im. Tadeusza Ko\u015bciuszki w Niemys\u0142owie",
                "name": "Szko\u0142a Podstawowa",
                "addr:postcode": "99-200",
                "addr:place": "Niemys\u0142\u00f3w",
                "addr:housenumber": "32",
                "addr:city:simc": 710902,
                "phone": "+48 436787485",
                "email": "spniemyslowl@poczta.onet.pl",
                "website": "http:\/\/spniemyslow.szkolnastrona.pl",
                "ref:regon": "001161596",
                "ref:vatin": "PL8281282045",
                "operator": "Gmina Podd\u0119bice",
                "operator:type": "government",
                "amenity": "school"
            }
        },
        {
            "id": 81349,
            "type": "Feature",
            "geometry": {
                "type": "Point",
                "coordinates": [
                    18.9586599,
                    51.88752
                ]
            },
            "properties": {
                "isced:level": "1;2",
                "ref:rspo": 81349,
                "official_name": "Szko\u0142a Podstawowa Nr 1 im. Lotnik\u00f3w Polskich w Podd\u0119bicach",
                "name": "Szko\u0142a Podstawowa Nr 1",
                "addr:postcode": "99-200",
                "addr:city": "Podd\u0119bice",
                "addr:street": "Polna",
                "addr:housenumber": "36",
                "addr:city:simc": 976400,
                "addr:street:sym_ul": 17011,
                "phone": "+48 436784156",
                "email": "sp@poddebice.info",
                "ref:regon": "000733553",
                "ref:vatin": "PL8281282068",
                "operator": "Gmina Podd\u0119bice",
                "operator:type": "government",
                "amenity": "school"
            }
        },
        {
            "id": 133195,
            "type": "Feature",
            "geometry": {
                "type": "Point",
                "coordinates": [
                    18.9586599,
                    51.88749
                ]
            },
            "properties": {
                "ref:rspo": 133195,
                "official_name": "Bor Grupa Niepubliczna Plac\u00f3wka Ksztalcenia Ustawicznego",
                "name": "Bor Grupa Niepubliczna Plac\u00f3wka Ksztalcenia Ustawicznego",
                "addr:postcode": "99-200",
                "addr:city": "Podd\u0119bice",
                "addr:street": "Polna",
                "addr:housenumber": "36",
                "addr:city:simc": 976400,
                "addr:street:sym_ul": 17011,
                "phone": "+48 737160424",
                "email": "biuro@borgrupa.pl",
                "website": "http:\/\/www.borgrupa.pl",
                "ref:regon": "366789573",
                "operator": "Maciej Ustarbowski",
                "operator:type": "private"
            }
        },
        {
            "id": 104106,
            "type": "Feature",
            "geometry": {
                "type": "Point",
                "coordinates": [
                    18.95586,
                    51.88792
                ]
            },
            "properties": {
                "isced:level": "3",
                "ref:rspo": 104106,
                "official_name": "Liceum Og\u00f3lnokszta\u0142cace Prymus w Podd\u0119bicach",
                "name": "Liceum Og\u00f3lnokszta\u0142cace Prymus w Podd\u0119bicach",
                "addr:postcode": "99-200",
                "addr:city": "Podd\u0119bice",
                "addr:street": "Polna",
                "addr:housenumber": "34",
                "addr:city:simc": 976400,
                "addr:street:sym_ul": 17011,
                "phone": "+48 436783521",
                "email": "ckprymus@op.pl",
                "website": "http:\/\/www.prymusck.pl",
                "ref:regon": "101517110",
                "operator": "Edyta Sawicka",
                "operator:type": "private",
                "amenity": "school"
            }
        },
        {
            "id": 104110,
            "type": "Feature",
            "geometry": {
                "type": "Point",
                "coordinates": [
                    18.95586,
                    51.88789
                ]
            },
            "properties": {
                "isced:level": "4",
                "ref:rspo": 104110,
                "official_name": "Szko\u0142a Policealna Prymus w Podd\u0119bicach",
                "name": "Szko\u0142a Policealna Prymus w Podd\u0119bicach",
                "addr:postcode": "99-200",
                "addr:city": "Podd\u0119bice",
                "addr:street": "Polna",
                "addr:housenumber": "34",
                "addr:city:simc": 976400,
                "addr:street:sym_ul": 17011,
                "phone": "+48 436783521",
                "email": "ckprymus@op.pl",
                "website": "http:\/\/www.prymusck.pl",
                "ref:regon": "101517073",
                "operator": "Igor Sawicki",
                "operator:type": "private",
                "amenity": "college"
            }
        },
        {
            "id": 127734,
            "type": "Feature",
            "geometry": {
                "type": "Point",
                "coordinates": [
                    18.95586,
                    51.88786
                ]
            },
            "properties": {
                "ref:rspo": 127734,
                "official_name": "Centrum Kszta\u0142cenia Prymus w Podd\u0119bicach",
                "name": "Centrum Kszta\u0142cenia Prymus w Podd\u0119bicach",
                "addr:postcode": "99-200",
                "addr:city": "Podd\u0119bice",
                "addr:street": "Polna",
                "addr:housenumber": "34",
                "addr:door": "34",
                "addr:city:simc": 976400,
                "addr:street:sym_ul": 17011,
                "phone": "+48 438793521",
                "email": "ckprymus@op.pl",
                "website": "http:\/\/www.prymusck.pl",
                "ref:regon": "361817069",
                "ref:vatin": "PL8281007451",
                "operator": "Edyta Sawicka",
                "operator:type": "private",
                "fixme": "w zale\u017cno\u015bci od przedmiotu dzia\u0142alno\u015bci (np. amenity=training + training=*, amenity=dancing_school, amenity=language_school, amenity=music_school)"
            }
        },
        {
            "id": 267672,
            "type": "Feature",
            "geometry": {
                "type": "Point",
                "coordinates": [
                    18.95586,
                    51.88783
                ]
            },
            "properties": {
                "isced:level": "1;2",
                "ref:rspo": 267672,
                "official_name": "Szko\u0142a Podstawowa Prymus w Podd\u0119bicach",
                "name": "Szko\u0142a Podstawowa Prymus w Podd\u0119bicach",
                "addr:postcode": "99-200",
                "addr:city": "Podd\u0119bice",
                "addr:street": "Polna",
                "addr:housenumber": "34",
                "addr:city:simc": 976400,
                "addr:street:sym_ul": 17011,
                "phone": "+48 436783521",
                "email": "ckprymus@op.pl",
                "website": "http:\/\/www.ckprymus.edu.pl",
                "ref:regon": "380487329",
                "operator": "Igor Sawicki",
                "operator:type": "private",
                "amenity": "school"
            }
        },
        {
            "id": 275319,
            "type": "Feature",
            "geometry": {
                "type": "Point",
                "coordinates": [
                    18.95586,
                    51.8878
                ]
            },
            "properties": {
                "isced:level": "3",
                "ref:rspo": 275319,
                "official_name": "Bran\u017cowa Szko\u0142a II Stopnia \"Prymus\" w Podd\u0119bicach",
                "name": "Bran\u017cowa Szko\u0142a II Stopnia \"Prymus\" w Podd\u0119bicach",
                "addr:postcode": "99-200",
                "addr:city": "Podd\u0119bice",
                "addr:street": "Polna",
                "addr:housenumber": "34",
                "addr:city:simc": 976400,
                "addr:street:sym_ul": 17011,
                "phone": "+48 436783521",
                "email": "sekretariat@ckprymus.pl",
                "website": "http:\/\/www.ckprymus.pl",
                "ref:regon": "386804541",
                "operator": "Igor Sawicki",
                "operator:type": "private",
                "amenity": "school"
            }
        },
        {
            "id": 279074,
            "type": "Feature",
            "geometry": {
                "type": "Point",
                "coordinates": [
                    18.95586,
                    51.88777
                ]
            },
            "properties": {
                "ref:rspo": 279074,
                "official_name": "Niepubliczny O\u015brodek Doskonalenia Nauczycieli \"Prymus\"",
                "name": "Niepubliczny O\u015brodek Doskonalenia Nauczycieli \"Prymus\"",
                "addr:postcode": "99-200",
                "addr:city": "Podd\u0119bice",
                "addr:street": "Polna",
                "addr:housenumber": "34",
                "addr:city:simc": 976400,
                "addr:street:sym_ul": 17011,
                "phone": "+48 436783521",
                "email": "sekretariat@ckprymus.pl",
                "website": "http:\/\/www.ckprymus.pl",
                "ref:regon": "520552145",
                "operator": "Edyta Sawicka",
                "operator:type": "private",
                "amenity": "training"
            }
        },
        {
            "id": 105603,
            "type": "Feature",
            "geometry": {
                "type": "Point",
                "coordinates": [
                    18.95746,
                    51.888
                ]
            },
            "properties": {
                "ref:rspo": 105603,
                "official_name": "Zesp\u00f3\u0142 Szk\u00f3\u0142 Ponadgimnazjalnych w Podd\u0119bicach",
                "name": "Zesp\u00f3\u0142 Szk\u00f3\u0142 Ponadgimnazjalnych w Podd\u0119bicach",
                "addr:postcode": "99-200",
                "addr:city": "Podd\u0119bice",
                "addr:street": "Polna",
                "addr:housenumber": "13\/15",
                "addr:city:simc": 976400,
                "addr:street:sym_ul": 17011,
                "phone": "+48 436783113",
                "email": "zsz_poddebice@poczta.onet.pl",
                "website": "http:\/\/www.zsppoddebice.pl",
                "ref:regon": "730019365",
                "ref:vatin": "PL8281103864",
                "operator": "Powiat Podd\u0119bicki",
                "operator:type": "government",
                "landuse": "education",
                "fixme": "amenity=school, amenity=college albo landuse=education w zale\u017cno\u015bci od tego, jakie plac\u00f3wki wchodz\u0105 w sk\u0142ad zespo\u0142u. Sprawd\u017a, kiedy stosowa\u0107 amenity=* a kiedy landuse=education.",
                "note": "Children RSPO: 106178;106191;122495;127224"
            }
        },
        {
            "id": 106178,
            "type": "Feature",
            "geometry": {
                "type": "Point",
                "coordinates": [
                    18.95746,
                    51.887969999999996
                ]
            },
            "properties": {
                "isced:level": "3",
                "ref:rspo": 106178,
                "official_name": "Technikum im. Jana Paw\u0142a II w Podd\u0119bicach",
                "name": "Technikum",
                "addr:postcode": "99-200",
                "addr:city": "Podd\u0119bice",
                "addr:street": "Polna",
                "addr:housenumber": "13\/15",
                "addr:city:simc": 976400,
                "addr:street:sym_ul": 17011,
                "phone": "+48 436783113",
                "email": "zsz_poddebice@poczta.onet.pl",
                "website": "http:\/\/www.zsppoddebice.pl",
                "ref:regon": "731585144",
                "operator": "Powiat Podd\u0119bicki",
                "operator:type": "government",
                "amenity": "school",
                "note": "Parent RSPO: 105603"
            }
        },
        {
            "id": 106191,
            "type": "Feature",
            "geometry": {
                "type": "Point",
                "coordinates": [
                    18.95746,
                    51.88794
                ]
            },
            "properties": {
                "isced:level": "3",
                "ref:rspo": 106191,
                "official_name": "Bran\u017cowa Szkola I Stopnia im. Jana Paw\u0142a II w Podd\u0119bicach",
                "name": "Bran\u017cowa Szkola I Stopnia",
                "addr:postcode": "99-200",
                "addr:city": "Podd\u0119bice",
                "addr:street": "Polna",
                "addr:housenumber": "13\/15",
                "addr:city:simc": 976400,
                "addr:street:sym_ul": 17011,
                "phone": "+48 436783113",
                "email": "zsz_poddebice@poczta.onet.pl",
                "website": "http:\/\/www.zsppoddebice.pl",
                "ref:regon": "731501609",
                "operator": "Powiat Podd\u0119bicki",
                "operator:type": "government",
                "amenity": "school",
                "note": "Parent RSPO: 105603"
            }
        },
        {
            "id": 122495,
            "type": "Feature",
            "geometry": {
                "type": "Point",
                "coordinates": [
                    18.95746,
                    51.88791
                ]
            },
            "properties": {
                "isced:level": "3",
                "ref:rspo": 122495,
                "official_name": "Liceum Og\u00f3lnokszta\u0142c\u0105ce w Podd\u0119bicach",
                "name": "Liceum Og\u00f3lnokszta\u0142c\u0105ce w Podd\u0119bicach",
                "addr:postcode": "99-200",
                "addr:city": "Podd\u0119bice",
                "addr:street": "Polna",
                "addr:housenumber": "13\/15",
                "addr:city:simc": 976400,
                "addr:street:sym_ul": 17011,
                "phone": "+48 436783131",
                "email": "zsz_poddebice@poczta.onet.pl",
                "website": "http:\/\/www.zsppoddebice.pl",
                "ref:regon": "101746655",
                "operator": "Powiat Podd\u0119bicki",
                "operator:type": "government",
                "amenity": "school",
                "note": "Parent RSPO: 105603"
            }
        },
        {
            "id": 127224,
            "type": "Feature",
            "geometry": {
                "type": "Point",
                "coordinates": [
                    18.95746,
                    51.887879999999996
                ]
            },
            "properties": {
                "isced:level": "4",
                "ref:rspo": 127224,
                "official_name": "Szko\u0142a Policealna w Podd\u0119bicach",
                "name": "Szko\u0142a Policealna w Podd\u0119bicach",
                "addr:postcode": "99-200",
                "addr:city": "Podd\u0119bice",
                "addr:street": "Polna",
                "addr:housenumber": "13\/15",
                "addr:city:simc": 976400,
                "addr:street:sym_ul": 17011,
                "phone": "+48 436783113",
                "email": "zsz_poddebice@poczta.onet.pl",
                "website": "http:\/\/www.zsppoddebice.pl",
                "ref:regon": "100079228",
                "operator": "Powiat Podd\u0119bicki",
                "operator:type": "government",
                "amenity": "college",
                "note": "Parent RSPO: 105603"
            }
        },
        {
            "id": 126931,
            "type": "Feature",
            "geometry": {
                "type": "Point",
                "coordinates": [
                    18.9542296,
                    51.890208
                ]
            },
            "properties": {
                "ref:rspo": 126931,
                "official_name": "Przedszkole Inna Bajka",
                "name": "Przedszkole Inna Bajka",
                "addr:postcode": "99-200",
                "addr:city": "Podd\u0119bice",
                "addr:street": "Gabriela Narutowicza",
                "addr:housenumber": "21",
                "addr:city:simc": 976400,
                "addr:street:sym_ul": 14015,
                "phone": "+48 883715433",
                "email": "dagmara555@op.pl",
                "ref:regon": "360947189",
                "operator": "Dagmara Rytter",
                "operator:type": "private",
                "amenity": "kindergarten"
            }
        },
        {
            "id": 81353,
            "type": "Feature",
            "geometry": {
                "type": "Point",
                "coordinates": [
                    18.9568,
                    51.89112
                ]
            },
            "properties": {
                "ref:rspo": 81353,
                "official_name": "Publiczne Przedszkole im.kr\u00f3la Maciusia Pierwszego w Podd\u0119bicach",
                "name": "Publiczne Przedszkole im.kr\u00f3la Maciusia Pierwszego w Podd\u0119bicach",
                "addr:postcode": "99-200",
                "addr:city": "Podd\u0119bice",
                "addr:street": "Przejazd",
                "addr:housenumber": "19",
                "addr:city:simc": 976400,
                "addr:street:sym_ul": 17696,
                "phone": "+48 436783128",
                "email": "przedszkole.poddebice@gmail.com",
                "website": "http:\/\/www.przedszkole.poddebice.szkolnastrona.pl",
                "ref:regon": "731010780",
                "ref:vatin": "PL8281281985",
                "operator": "Gmina Podd\u0119bice",
                "operator:type": "government",
                "amenity": "kindergarten"
            }
        },
        {
            "id": 81699,
            "type": "Feature",
            "geometry": {
                "type": "Point",
                "coordinates": [
                    18.95386,
                    51.89147
                ]
            },
            "properties": {
                "ref:rspo": 81699,
                "official_name": "Poradnia Psychologiczno - Pedagogiczna w Podd\u0119bicach",
                "name": "Poradnia Psychologiczno - Pedagogiczna w Podd\u0119bicach",
                "addr:postcode": "99-200",
                "addr:city": "Podd\u0119bice",
                "addr:street": "Gabriela Narutowicza",
                "addr:housenumber": "13",
                "addr:city:simc": 976400,
                "addr:street:sym_ul": 14015,
                "phone": "+48 436782977",
                "email": "ppppoddebice@wp.pl",
                "website": "http:\/\/ppppoddebice.pl",
                "ref:regon": "000734966",
                "ref:vatin": "PL8281283731",
                "operator": "Powiat Podd\u0119bicki",
                "operator:type": "government",
                "healthcare": "counselling",
                "counselling_type": "education",
                "fixme": "w zale\u017cno\u015bci od przedmiotu dzia\u0142alno\u015bci (np. healthcare=counselling + counselling_type=education albo healthcare=psychotherapist)"
            }
        },
        {
            "id": 19524,
            "type": "Feature",
            "geometry": {
                "type": "Point",
                "coordinates": [
                    18.95386,
                    51.891439999999996
                ]
            },
            "properties": {
                "ref:rspo": 19524,
                "official_name": "Biblioteka Pedagogiczna w Sieradzu Filia w Podd\u0119bicach",
                "name": "Biblioteka Pedagogiczna w Sieradzu Filia w Podd\u0119bicach",
                "addr:postcode": "99-200",
                "addr:city": "Podd\u0119bice",
                "addr:street": "Gabriela Narutowicza",
                "addr:housenumber": "13",
                "addr:city:simc": 976400,
                "addr:street:sym_ul": 14015,
                "phone": "+48 436783604",
                "email": "filiapoddebice@bpsieradz.pl",
                "ref:regon": "734920000",
                "operator": "Wojew\u00f3dztwo \u0141\u00f3dzkie",
                "operator:type": "government",
                "amenity": "library",
                "note": "Parent RSPO: 12847"
            }
        },
        {
            "id": 128000,
            "type": "Feature",
            "geometry": {
                "type": "Point",
                "coordinates": [
                    18.95054,
                    51.89516
                ]
            },
            "properties": {
                "ref:rspo": 128000,
                "official_name": "Biuro Bezpiecze\u0144stwa Pracy I Ochrony Przeciwpo\u017carowej",
                "name": "Biuro Bezpiecze\u0144stwa Pracy I Ochrony Przeciwpo\u017carowej",
                "addr:postcode": "99-200",
                "addr:city": "Podd\u0119bice",
                "addr:street": "Henryka Sienkiewicza",
                "addr:housenumber": "2",
                "addr:city:simc": 976400,
                "addr:street:sym_ul": 19830,
                "phone": "+48 436783822",
                "email": "barbara-biuro-bhp@o2.pl",
                "website": "http:\/\/www.bhpzuchowska.pl",
                "ref:regon": "362020829",
                "ref:vatin": "PL8281007698",
                "operator": "Barbara \u017buchowska",
                "operator:type": "private"
            }
        },
        {
            "id": 105601,
            "type": "Feature",
            "geometry": {
                "type": "Point",
                "coordinates": [
                    18.9592199,
                    51.89526
                ]
            },
            "properties": {
                "isced:level": "3",
                "ref:rspo": 105601,
                "official_name": "Liceum Og\u00f3lnokszta\u0142cace im. Marii Konopnickiej w Podd\u0119bicach",
                "name": "Liceum Og\u00f3lnokszta\u0142cace",
                "addr:postcode": "99-200",
                "addr:city": "Podd\u0119bice",
                "addr:street": "\u0141\u0119czycka",
                "addr:housenumber": "13\/15",
                "addr:city:simc": 976400,
                "addr:street:sym_ul": 11607,
                "phone": "+48 436783047",
                "email": "liceum@lo-poddebice.pl",
                "website": "http:\/\/www.lo-poddebice.pl",
                "ref:regon": "000228890",
                "ref:vatin": "PL8281098206",
                "operator": "Powiat Podd\u0119bicki",
                "operator:type": "government",
                "amenity": "school"
            }
        },
        {
            "id": 103977,
            "type": "Feature",
            "geometry": {
                "type": "Point",
                "coordinates": [
                    18.95194,
                    51.89981
                ]
            },
            "properties": {
                "ref:rspo": 103977,
                "official_name": "Niepubliczne T\u0119czowe Przedszkole Agnieszka P\u0142usa",
                "name": "Niepubliczne T\u0119czowe Przedszkole Agnieszka P\u0142usa",
                "addr:postcode": "99-200",
                "addr:city": "Podd\u0119bice",
                "addr:street": "Krzysztofa Kamila Baczy\u0144skiego",
                "addr:housenumber": "20",
                "addr:city:simc": 976400,
                "addr:street:sym_ul": 569,
                "phone": "+48 691519555",
                "email": "a.plusa@g.pl",
                "ref:regon": "101515884",
                "ref:vatin": "PL8281072201",
                "operator": "Agnieszka P\u0142usa",
                "operator:type": "private",
                "amenity": "kindergarten"
            }
        }
    ]
}