{
    "type": "FeatureCollection",
    "features": [
        {
            "id": 263166,
            "type": "Feature",
            "geometry": {
                "type": "Point",
                "coordinates": [
                    18.79814,
                    51.97288
                ]
            },
            "properties": {
                "ref:rspo": 263166,
                "official_name": "Niepubliczne T\u0119czowe Przedszkole Agnieszka P\u0142usa",
                "name": "Niepubliczne T\u0119czowe Przedszkole Agnieszka P\u0142usa",
                "addr:country": "PL",
                "addr:postcode": "99-210",
                "addr:city": "Uniej\u00f3w",
                "addr:street": "ul. Rzeczna",
                "addr:housenumber": "9B",
                "addr:teryt:simc": 19326,
                "addr:teryt:sym_ul": 949359,
                "contact:phone": "+48 691519555",
                "contact:email": "a.plusa@g.pl",
                "contact:website": "http:\/\/www.przedszkole-teczowe.pl",
                "ref:regon": "368115590",
                "ref:vatin": "PL8281072201",
                "operator": "Agnieszka P\u0142usa",
                "operator:type": "private",
                "amenity": "kindergarten"
            }
        },
        {
            "id": 46576,
            "type": "Feature",
            "geometry": {
                "type": "Point",
                "coordinates": [
                    18.78884,
                    51.97672
                ]
            },
            "properties": {
                "isced:level": "1;2",
                "ref:rspo": 46576,
                "official_name": "Szko\u0142a Podstawowa im.bohater\u00f3w Wrze\u015bnia 1939R. w Uniejowie",
                "name": "Szko\u0142a Podstawowa im.bohater\u00f3w Wrze\u015bnia 1939R. w Uniejowie",
                "addr:country": "PL",
                "addr:postcode": "99-210",
                "addr:city": "Uniej\u00f3w",
                "addr:street": "ul. Ko\u015bcielnicka",
                "addr:housenumber": "26\/28",
                "addr:teryt:simc": 9550,
                "addr:teryt:sym_ul": 949359,
                "contact:phone": "+48 632888075",
                "contact:email": "sp.uniejow@szkola.uniejow.pl",
                "contact:website": "http:\/\/www.spuniejow.szkolnastrona.pl",
                "ref:regon": "000564375",
                "ref:vatin": "PL8281392383",
                "operator": "Gmina Uniej\u00f3w",
                "operator:type": "government",
                "amenity": "school"
            }
        },
        {
            "id": 83827,
            "type": "Feature",
            "geometry": {
                "type": "Point",
                "coordinates": [
                    18.78829,
                    51.97807
                ]
            },
            "properties": {
                "ref:rspo": 83827,
                "official_name": "Szkola Muzyczna I Stopnia w Uniejowie",
                "name": "Szkola Muzyczna I Stopnia w Uniejowie",
                "addr:country": "PL",
                "addr:postcode": "99-210",
                "addr:city": "Uniej\u00f3w",
                "addr:street": "ul. Targowa",
                "addr:housenumber": "21",
                "addr:teryt:simc": 22659,
                "addr:teryt:sym_ul": 949359,
                "contact:phone": "+48 632888164",
                "contact:email": "smuniejow@wp.pl",
                "contact:website": "http:\/\/www.smuniejow.szkolnastrona.pl",
                "ref:regon": "731506707",
                "ref:vatin": "PL8281321874",
                "operator": "Powiat Podd\u0119bicki",
                "operator:type": "government",
                "amenity": "music_school"
            }
        },
        {
            "id": 28768,
            "type": "Feature",
            "geometry": {
                "type": "Point",
                "coordinates": [
                    18.7924,
                    51.979
                ]
            },
            "properties": {
                "ref:rspo": 28768,
                "official_name": "Przedszkole Miejskie w Uniejowie",
                "name": "Przedszkole Miejskie w Uniejowie",
                "addr:country": "PL",
                "addr:postcode": "99-210",
                "addr:city": "Uniej\u00f3w",
                "addr:street": "ul. Wi\u015bniowa",
                "addr:housenumber": "9",
                "addr:teryt:simc": 24412,
                "addr:teryt:sym_ul": 949359,
                "contact:phone": "+48 632888121",
                "contact:email": "przedszkole@uniejow.pl",
                "contact:website": "http:\/\/www.przedszkoleuniejow.szkolnastrona.pl",
                "ref:regon": "000996034",
                "ref:vatin": "PL8281279557",
                "operator": "Gmina Uniej\u00f3w",
                "operator:type": "government",
                "amenity": "kindergarten"
            }
        },
        {
            "id": 28694,
            "type": "Feature",
            "geometry": {
                "type": "Point",
                "coordinates": [
                    18.83534,
                    52.01033
                ]
            },
            "properties": {
                "isced:level": "1;2",
                "ref:rspo": 28694,
                "official_name": "Szko\u0142a Podstawowa im.p\u0142k Pil.szczepana \u015acibiora w Wieleninie",
                "name": "Szko\u0142a Podstawowa im.p\u0142k Pil.szczepana \u015acibiora w Wieleninie",
                "addr:country": "PL",
                "addr:postcode": "99-210",
                "addr:place": "Wielenin-Kolonia",
                "addr:housenumber": "30A",
                "addr:teryt:sym_ul": 298940,
                "contact:phone": "+48 632889862",
                "contact:email": "sp.wielenin@szkola.uniejow.pl",
                "contact:website": "http:\/\/www.spwielenin.edupage.org",
                "ref:regon": "001192208",
                "ref:vatin": "PL8281279617",
                "operator": "Gmina Uniej\u00f3w",
                "operator:type": "government",
                "amenity": "school"
            }
        },
        {
            "id": 28563,
            "type": "Feature",
            "geometry": {
                "type": "Point",
                "coordinates": [
                    18.760157,
                    52.0438199
                ]
            },
            "properties": {
                "isced:level": "1;2",
                "ref:rspo": 28563,
                "official_name": "Szko\u0142a Podstawowa im.m.sk\u0142odowskiej-Curie w Wilamowie",
                "name": "Szko\u0142a Podstawowa im.m.sk\u0142odowskiej-Curie w Wilamowie",
                "addr:country": "PL",
                "addr:postcode": "99-210",
                "addr:place": "Wilam\u00f3w",
                "addr:housenumber": "50",
                "addr:teryt:sym_ul": 298979,
                "contact:phone": "+48 632889122",
                "contact:email": "dyrektor.wilamow@szkola.uniejow.pl",
                "contact:website": "http:\/\/www.spwilamow.pl",
                "ref:regon": "001192220",
                "ref:vatin": "PL8281279600",
                "operator": "Gmina Uniej\u00f3w",
                "operator:type": "government",
                "amenity": "school"
            }
        }
    ]
}