{
    "type": "FeatureCollection",
    "features": [
        {
            "id": 43660,
            "type": "Feature",
            "geometry": {
                "type": "Point",
                "coordinates": [
                    17.9911534,
                    54.2539435
                ]
            },
            "properties": {
                "isced:level": "1;2",
                "ref:rspo": 43660,
                "official_name": "Szko\u0142a Podstawowa im. Ks. Anastazego Sadowskiego w Lisich Jamach",
                "name": "Szko\u0142a Podstawowa",
                "addr:postcode": "83-335",
                "addr:place": "Lisie Jamy",
                "addr:housenumber": "60B",
                "addr:teryt:simc": 170920,
                "phone": "+48 586846809",
                "email": "szkolalisiejamy@wp.pl",
                "website": "http:\/\/www.splisiejamy.eu",
                "ref:regon": "190584137",
                "ref:vatin": "PL5891874328",
                "operator": "Gmina Sierakowice",
                "operator:type": "government",
                "amenity": "school"
            }
        },
        {
            "id": 57392,
            "type": "Feature",
            "geometry": {
                "type": "Point",
                "coordinates": [
                    18.0840791,
                    54.2708844
                ]
            },
            "properties": {
                "ref:rspo": 57392,
                "official_name": "O\u015brodek Rewalidacyjno - Wychowawczy w Szklanej",
                "name": "O\u015brodek Rewalidacyjno - Wychowawczy w Szklanej",
                "addr:postcode": "83-334",
                "addr:place": "Szklana",
                "addr:housenumber": "1",
                "addr:teryt:simc": 171434,
                "phone": "+48 586819179",
                "email": "orw@usmiechdziecka.com.pl",
                "website": "http:\/\/usmiechdziecka.com.pl",
                "ref:regon": "221771150",
                "operator": "Fundacja Pomocy Dzieciom Niepe\u0142nosprawnym\n\u201cU\u015bmiech Dziecka\u201d",
                "operator:type": "ngo",
                "amenity": "school"
            }
        },
        {
            "id": 26991,
            "type": "Feature",
            "geometry": {
                "type": "Point",
                "coordinates": [
                    17.8557,
                    54.31242
                ]
            },
            "properties": {
                "isced:level": "1;2",
                "ref:rspo": 26991,
                "official_name": "Szko\u0142a Podstawowa w Tuchlinie",
                "name": "Szko\u0142a Podstawowa w Tuchlinie",
                "addr:postcode": "83-340",
                "addr:place": "Tuchlino",
                "addr:housenumber": "16B",
                "addr:teryt:simc": 171492,
                "phone": "+48 586846880",
                "email": "zstuchlino@op.pl",
                "website": "http:\/\/www.zstuchlino.edupage.org",
                "ref:regon": "190584172",
                "ref:vatin": "PL5891876534",
                "operator": "Gmina Sierakowice",
                "operator:type": "government",
                "amenity": "school"
            }
        },
        {
            "id": 43644,
            "type": "Feature",
            "geometry": {
                "type": "Point",
                "coordinates": [
                    17.910546,
                    54.313326
                ]
            },
            "properties": {
                "isced:level": "1;2",
                "ref:rspo": 43644,
                "official_name": "Szko\u0142a Podstawowa w Jelonku",
                "name": "Szko\u0142a Podstawowa w Jelonku",
                "addr:postcode": "83-340",
                "addr:place": "Jelonko",
                "addr:housenumber": "5",
                "addr:teryt:simc": 171351,
                "phone": "+48 586847581",
                "email": "spjelonko@poczta.onet.pl",
                "website": "http:\/\/www.spjelonko.edupage.org",
                "ref:regon": "190584166",
                "ref:vatin": "PL5891875859",
                "operator": "Gmina Sierakowice",
                "operator:type": "government",
                "amenity": "school"
            }
        },
        {
            "id": 26989,
            "type": "Feature",
            "geometry": {
                "type": "Point",
                "coordinates": [
                    17.79833,
                    54.32371
                ]
            },
            "properties": {
                "isced:level": "1;2",
                "ref:rspo": 26989,
                "official_name": "Szko\u0142a Podstawowa im. Jana Paw\u0142a II w Gowidlinie",
                "name": "Szko\u0142a Podstawowa",
                "addr:postcode": "83-341",
                "addr:city": "Gowidlino",
                "addr:street": "Prymasa Wyszy\u0144skiego",
                "addr:housenumber": "5",
                "addr:teryt:simc": 170937,
                "addr:teryt:sym_ul": 25117,
                "phone": "+48 586856555",
                "email": "zsgowidlino@wp.pl",
                "website": "http:\/\/www.gowidlino.edu.pl",
                "ref:regon": "193091270",
                "ref:vatin": "PL5891875842",
                "operator": "Gmina Sierakowice",
                "operator:type": "government",
                "amenity": "school"
            }
        },
        {
            "id": 269073,
            "type": "Feature",
            "geometry": {
                "type": "Point",
                "coordinates": [
                    17.79712,
                    54.32546
                ]
            },
            "properties": {
                "isced:level": "1;2",
                "ref:rspo": 269073,
                "official_name": "Przyjazna Szko\u0142a Podstawowa w Gowidlinie",
                "name": "Przyjazna Szko\u0142a Podstawowa w Gowidlinie",
                "addr:postcode": "83-341",
                "addr:city": "Gowidlino",
                "addr:street": "Kartuska",
                "addr:housenumber": "24c",
                "addr:teryt:simc": 170937,
                "addr:teryt:sym_ul": 8124,
                "phone": "+48 608676136",
                "email": "gater@gater.pl",
                "ref:regon": "381360364",
                "operator": "Adam Bronk P.p.h.u \"Gater\"",
                "operator:type": "consortium",
                "amenity": "school"
            }
        },
        {
            "id": 277228,
            "type": "Feature",
            "geometry": {
                "type": "Point",
                "coordinates": [
                    17.79712,
                    54.32543
                ]
            },
            "properties": {
                "ref:rspo": 277228,
                "official_name": "Niepubliczna Szko\u0142a Muzyczna I Stopnia w Gowidlinie",
                "name": "Niepubliczna Szko\u0142a Muzyczna I Stopnia w Gowidlinie",
                "addr:postcode": "83-341",
                "addr:city": "Gowidlino",
                "addr:street": "Kartuska",
                "addr:housenumber": "24 C",
                "addr:teryt:simc": 170937,
                "addr:teryt:sym_ul": 8124,
                "email": "muzyczna@gowidlino.com",
                "website": "http:\/\/www.muzyczna.gowidlino.com",
                "ref:regon": "388406684",
                "operator": "S\u0142awomir Bronk",
                "operator:type": "private",
                "amenity": "music_school"
            }
        },
        {
            "id": 43664,
            "type": "Feature",
            "geometry": {
                "type": "Point",
                "coordinates": [
                    17.80009,
                    54.32573
                ]
            },
            "properties": {
                "ref:rspo": 43664,
                "official_name": "Niepubliczne Przedszkole Chatka Puchatka w Gowidlinie",
                "name": "Niepubliczne Przedszkole Chatka Puchatka w Gowidlinie",
                "addr:postcode": "83-341",
                "addr:city": "Gowidlino",
                "addr:street": "Kartuska",
                "addr:housenumber": "16",
                "addr:teryt:simc": 170937,
                "addr:teryt:sym_ul": 8124,
                "phone": "+48 604583769",
                "email": "przedszkole@gowidlino.com",
                "ref:regon": "221760790",
                "ref:vatin": "PL5891693489",
                "operator": "Adam Bronk P.p.h.u \"Gater\"",
                "operator:type": "consortium",
                "amenity": "kindergarten"
            }
        },
        {
            "id": 43662,
            "type": "Feature",
            "geometry": {
                "type": "Point",
                "coordinates": [
                    17.8596809,
                    54.34007
                ]
            },
            "properties": {
                "isced:level": "1;2",
                "ref:rspo": 43662,
                "official_name": "Szko\u0142a Podstawowa im. Ks. Bernarda Sychty w Puzdrowie",
                "name": "Szko\u0142a Podstawowa",
                "addr:postcode": "83-340",
                "addr:place": "Puzdrowo",
                "addr:housenumber": "32",
                "addr:teryt:simc": 171233,
                "phone": "+48 586816205",
                "email": "sekretariat@sppuzdrowo.sierakowice.pl",
                "website": "http:\/\/sppuzdrowo.sierakowice.pl",
                "ref:regon": "190584189",
                "ref:vatin": "PL5891874357",
                "operator": "Gmina Sierakowice",
                "operator:type": "government",
                "amenity": "school"
            }
        },
        {
            "id": 120773,
            "type": "Feature",
            "geometry": {
                "type": "Point",
                "coordinates": [
                    17.8982247,
                    54.3409366
                ]
            },
            "properties": {
                "ref:rspo": 120773,
                "official_name": "Niepubliczne Przedszkole Nibylandia",
                "name": "Niepubliczne Przedszkole Nibylandia",
                "addr:postcode": "83-340",
                "addr:city": "Sierakowice",
                "addr:street": "Ko\u015bcierska",
                "addr:housenumber": "19",
                "addr:teryt:simc": 171279,
                "addr:teryt:sym_ul": 9556,
                "phone": "+48 691213612",
                "email": "katarzynanibylandia@wp.pl",
                "ref:regon": "221985973",
                "operator": "Katarzyna Bor\u00f3wka",
                "operator:type": "private",
                "amenity": "kindergarten"
            }
        },
        {
            "id": 43655,
            "type": "Feature",
            "geometry": {
                "type": "Point",
                "coordinates": [
                    17.8948039,
                    54.343797
                ]
            },
            "properties": {
                "isced:level": "1;2",
                "ref:rspo": 43655,
                "official_name": "Szko\u0142a Podstawowa w \u0141y\u015bniewie Sierakowickim",
                "name": "Szko\u0142a Podstawowa w \u0141y\u015bniewie Sierakowickim",
                "addr:postcode": "83-340",
                "addr:place": "\u0141y\u015bniewo Sierakowickie",
                "addr:housenumber": "17",
                "addr:teryt:simc": 171138,
                "phone": "+48 586847758",
                "email": "sekretariat@splysniewo.edupage.org",
                "website": "http:\/\/www.splysniewo.edupage.org",
                "ref:regon": "190584195",
                "ref:vatin": "PL5891875150",
                "operator": "Gmina Sierakowice",
                "operator:type": "government",
                "amenity": "school"
            }
        },
        {
            "id": 43659,
            "type": "Feature",
            "geometry": {
                "type": "Point",
                "coordinates": [
                    17.88736,
                    54.34395
                ]
            },
            "properties": {
                "isced:level": "1;2",
                "ref:rspo": 43659,
                "official_name": "Szko\u0142a Podstawowa Nr 1 im. Floriana Ceynowy w Sierakowicach",
                "name": "Szko\u0142a Podstawowa Nr 1",
                "addr:postcode": "83-340",
                "addr:city": "Sierakowice",
                "addr:street": "Kubusia Puchatka",
                "addr:housenumber": "7",
                "addr:teryt:simc": 171279,
                "addr:teryt:sym_ul": 10316,
                "phone": "+48 586816234",
                "email": "dyrekcja@sp1.sierakowice.pl",
                "website": "http:\/\/sp1.sierakowice.pl\/",
                "ref:regon": "190584108",
                "ref:vatin": "PL5891874340",
                "operator": "Gmina Sierakowice",
                "operator:type": "government",
                "amenity": "school"
            }
        },
        {
            "id": 26986,
            "type": "Feature",
            "geometry": {
                "type": "Point",
                "coordinates": [
                    17.88833,
                    54.34448
                ]
            },
            "properties": {
                "ref:rspo": 26986,
                "official_name": "Samorz\u0105dowe Przedszkole w Sierakowicach",
                "name": "Samorz\u0105dowe Przedszkole w Sierakowicach",
                "addr:postcode": "83-340",
                "addr:city": "Sierakowice",
                "addr:street": "Kubusia Puchatka",
                "addr:housenumber": "5",
                "addr:teryt:simc": 171279,
                "addr:teryt:sym_ul": 10316,
                "phone": "+48 586816774",
                "email": "samorzadowe@przedszkole.sierakowice.pl",
                "ref:regon": "190581653",
                "ref:vatin": "PL5891875167",
                "operator": "Gmina Sierakowice",
                "operator:type": "government",
                "amenity": "kindergarten"
            }
        },
        {
            "id": 27000,
            "type": "Feature",
            "geometry": {
                "type": "Point",
                "coordinates": [
                    17.966841,
                    54.345956
                ]
            },
            "properties": {
                "ref:rspo": 27000,
                "official_name": "Punkt Przedszkolny Przy Szkole Podstawowej w Mojuszu",
                "name": "Punkt Przedszkolny Przy Szkole Podstawowej w Mojuszu",
                "addr:postcode": "83-334",
                "addr:place": "Mojusz",
                "addr:housenumber": "23",
                "addr:teryt:simc": 171144,
                "phone": "+48 586847758",
                "email": "sekretariat@spmojusz.pl",
                "website": "http:\/\/www.spmojusz.pl",
                "ref:regon": "221756617",
                "operator": "Gmina Sierakowice",
                "operator:type": "government",
                "amenity": "kindergarten"
            }
        },
        {
            "id": 43656,
            "type": "Feature",
            "geometry": {
                "type": "Point",
                "coordinates": [
                    17.966841,
                    54.345926
                ]
            },
            "properties": {
                "isced:level": "1;2",
                "ref:rspo": 43656,
                "official_name": "Szko\u0142a Podstawowa w Mojuszu",
                "name": "Szko\u0142a Podstawowa w Mojuszu",
                "addr:postcode": "83-334",
                "addr:place": "Mojusz",
                "addr:housenumber": "23",
                "addr:teryt:simc": 171144,
                "phone": "+48 586847750",
                "email": "sekretariat@spmojusz.pl",
                "website": "http:\/\/www.spmojusz.pl",
                "ref:regon": "190584150",
                "ref:vatin": "PL5891875813",
                "operator": "Gmina Sierakowice",
                "operator:type": "government",
                "amenity": "school"
            }
        },
        {
            "id": 48650,
            "type": "Feature",
            "geometry": {
                "type": "Point",
                "coordinates": [
                    17.9007,
                    54.34817
                ]
            },
            "properties": {
                "ref:rspo": 48650,
                "official_name": "O\u015brodek Rehabilitacyjno-Edukacyjno- Wychowawczy w Sierakowicach",
                "name": "O\u015brodek Rehabilitacyjno-Edukacyjno- Wychowawczy w Sierakowicach",
                "addr:postcode": "83-340",
                "addr:city": "Sierakowice",
                "addr:street": "Brzozowa",
                "addr:housenumber": "1",
                "addr:teryt:simc": 171279,
                "addr:teryt:sym_ul": 2276,
                "email": "orew.sierakowice@psouu.org.pl",
                "website": "http:\/\/www.psouu-orew.pl",
                "ref:regon": "221766194",
                "operator": "Polskie Stowarzyszenie Na Rzecz Os\u00f3b Z Niepe\u0142nosprawno\u015bci\u0105 Intelektualn\u0105",
                "operator:type": "ngo",
                "amenity": "school"
            }
        },
        {
            "id": 26987,
            "type": "Feature",
            "geometry": {
                "type": "Point",
                "coordinates": [
                    17.89227,
                    54.34994
                ]
            },
            "properties": {
                "isced:level": "3",
                "ref:rspo": 26987,
                "official_name": "Bran\u017cowa Szko\u0142a I Stopnia w Sierakowicach",
                "name": "Bran\u017cowa Szko\u0142a I Stopnia w Sierakowicach",
                "addr:postcode": "83-340",
                "addr:city": "Sierakowice",
                "addr:street": "Dworcowa",
                "addr:housenumber": "3",
                "addr:teryt:simc": 171279,
                "addr:teryt:sym_ul": 4434,
                "phone": "+48 586870037",
                "email": "sekretariat@branzowasierakowice.pl",
                "website": "http:\/\/branzowasierakowice.pl",
                "ref:regon": "191435570",
                "ref:vatin": "PL5891591990",
                "operator": "Gmina Sierakowice",
                "operator:type": "government",
                "amenity": "school"
            }
        },
        {
            "id": 31275,
            "type": "Feature",
            "geometry": {
                "type": "Point",
                "coordinates": [
                    17.89227,
                    54.349909999999994
                ]
            },
            "properties": {
                "ref:rspo": 31275,
                "official_name": "Zesp\u00f3\u0142 Szk\u00f3\u0142 Ponadgimnazjalnych w Sierakowicach",
                "name": "Zesp\u00f3\u0142 Szk\u00f3\u0142 Ponadgimnazjalnych w Sierakowicach",
                "addr:postcode": "83-340",
                "addr:city": "Sierakowice",
                "addr:street": "Dworcowa",
                "addr:housenumber": "3",
                "addr:teryt:simc": 171279,
                "addr:teryt:sym_ul": 4434,
                "email": "zsp.sierakowice@wp.pl",
                "website": "http:\/\/www.zspsiera.webd.pl",
                "ref:regon": "001371307",
                "ref:vatin": "PL5891216766",
                "operator": "Powiat Kartuski",
                "operator:type": "government",
                "landuse": "education",
                "fixme": "amenity=school, amenity=college albo landuse=education w zale\u017cno\u015bci od tego, jakie plac\u00f3wki wchodz\u0105 w sk\u0142ad zespo\u0142u. Sprawd\u017a, kiedy stosowa\u0107 amenity=* a kiedy landuse=education.",
                "note": "Children RSPO: 38705;38706;119601"
            }
        },
        {
            "id": 38705,
            "type": "Feature",
            "geometry": {
                "type": "Point",
                "coordinates": [
                    17.89227,
                    54.34988
                ]
            },
            "properties": {
                "isced:level": "3",
                "ref:rspo": 38705,
                "official_name": "Zesp\u00f3\u0142 Szk\u00f3\u0142 Ponadgimnazjalnych w Sierakowicach Liceum Og\u00f3lnokszta\u0142c\u0105ce w Sierakowicach",
                "name": "Zesp\u00f3\u0142 Szk\u00f3\u0142 Ponadgimnazjalnych w Sierakowicach Liceum Og\u00f3lnokszta\u0142c\u0105ce w Sierakowicach",
                "addr:postcode": "83-340",
                "addr:city": "Sierakowice",
                "addr:street": "Dworcowa",
                "addr:housenumber": "3",
                "addr:teryt:simc": 171279,
                "addr:teryt:sym_ul": 4434,
                "email": "zsp.sierakowice@wp.pl",
                "website": "http:\/\/www.zspsiera.webd.pl",
                "ref:regon": "192779394",
                "operator": "Powiat Kartuski",
                "operator:type": "government",
                "amenity": "school",
                "note": "Parent RSPO: 31275"
            }
        },
        {
            "id": 38706,
            "type": "Feature",
            "geometry": {
                "type": "Point",
                "coordinates": [
                    17.89227,
                    54.349849999999996
                ]
            },
            "properties": {
                "isced:level": "3",
                "ref:rspo": 38706,
                "official_name": "Zesp\u00f3\u0142 Szk\u00f3\u0142 Ponadgimnazjalnych w Sierakowicach Technikum w Sierakowicach",
                "name": "Zesp\u00f3\u0142 Szk\u00f3\u0142 Ponadgimnazjalnych w Sierakowicach Technikum w Sierakowicach",
                "addr:postcode": "83-340",
                "addr:city": "Sierakowice",
                "addr:street": "Dworcowa",
                "addr:housenumber": "3",
                "addr:teryt:simc": 171279,
                "addr:teryt:sym_ul": 4434,
                "phone": "+48 586816270",
                "email": "zsp.sierakowice@wp.pl",
                "website": "http:\/\/www.zspsiera.webd.pl",
                "ref:regon": "192779247",
                "operator": "Powiat Kartuski",
                "operator:type": "government",
                "amenity": "school",
                "note": "Parent RSPO: 31275"
            }
        },
        {
            "id": 119601,
            "type": "Feature",
            "geometry": {
                "type": "Point",
                "coordinates": [
                    17.89227,
                    54.349819999999994
                ]
            },
            "properties": {
                "isced:level": "3",
                "ref:rspo": 119601,
                "official_name": "Zesp\u00f3\u0142 Szk\u00f3\u0142 Ponadgimnazjalnych w Sierakowicach, Liceum Og\u00f3lnokszta\u0142c\u0105ce dla Doros\u0142ych w Sierakowicach",
                "name": "Zesp\u00f3\u0142 Szk\u00f3\u0142 Ponadgimnazjalnych w Sierakowicach, Liceum Og\u00f3lnokszta\u0142c\u0105ce dla Doros\u0142ych w Sierakowicach",
                "addr:postcode": "83-340",
                "addr:city": "Sierakowice",
                "addr:street": "Dworcowa",
                "addr:housenumber": "3",
                "addr:teryt:simc": 171279,
                "addr:teryt:sym_ul": 4434,
                "email": "zsp.sierakowice@wp.pl",
                "website": "http:\/\/www.zspsiera.webd.pl",
                "ref:regon": "220035880",
                "operator": "Powiat Kartuski",
                "operator:type": "government",
                "amenity": "school",
                "note": "Parent RSPO: 31275"
            }
        },
        {
            "id": 270973,
            "type": "Feature",
            "geometry": {
                "type": "Point",
                "coordinates": [
                    17.89741,
                    54.35485
                ]
            },
            "properties": {
                "ref:rspo": 270973,
                "official_name": "Przedszkole Nr 2 \"Zielony Wiatraczek\" w Sierakowicach",
                "name": "Przedszkole Nr 2 \"Zielony Wiatraczek\" w Sierakowicach",
                "addr:postcode": "83-340",
                "addr:city": "Sierakowice",
                "addr:street": "Spacerowa",
                "addr:housenumber": "11",
                "addr:teryt:simc": 171279,
                "addr:teryt:sym_ul": 20641,
                "phone": "+48 583080201",
                "email": "zielonywiatraczek@przedszkole.sierakowice.pl",
                "website": "http:\/\/przedszkole.sierakowice.pl",
                "ref:regon": "383045030",
                "ref:vatin": "PL5892052752",
                "operator": "Gmina Sierakowice",
                "operator:type": "government",
                "amenity": "kindergarten"
            }
        },
        {
            "id": 48487,
            "type": "Feature",
            "geometry": {
                "type": "Point",
                "coordinates": [
                    17.89811,
                    54.356
                ]
            },
            "properties": {
                "isced:level": "3",
                "ref:rspo": 48487,
                "official_name": "Zaoczne Liceum Ponadgimnazjalne w Sierakowicach",
                "name": "Zaoczne Liceum Ponadgimnazjalne w Sierakowicach",
                "addr:postcode": "83-340",
                "addr:city": "Sierakowice",
                "addr:street": "Spacerowa",
                "addr:housenumber": "14",
                "addr:teryt:simc": 171279,
                "addr:teryt:sym_ul": 20641,
                "phone": "+48 605124942",
                "email": "wbksa@wp.pl",
                "website": "http:\/\/www.liceum-sierakowice.pl",
                "ref:regon": "221766099",
                "operator": "E - Nauka Witold Sildatk",
                "operator:type": "consortium",
                "amenity": "school"
            }
        },
        {
            "id": 133991,
            "type": "Feature",
            "geometry": {
                "type": "Point",
                "coordinates": [
                    17.89811,
                    54.35597
                ]
            },
            "properties": {
                "isced:level": "1;2",
                "ref:rspo": 133991,
                "official_name": "Szko\u0142a Podstawowa Nr 2 im. J\u00f3zefa Pi\u0142sudskiego w Sierakowicach",
                "name": "Szko\u0142a Podstawowa Nr 2",
                "addr:postcode": "83-340",
                "addr:city": "Sierakowice",
                "addr:street": "Spacerowa",
                "addr:housenumber": "14",
                "addr:teryt:simc": 171279,
                "addr:teryt:sym_ul": 20641,
                "phone": "+48 586846875",
                "email": "sekretariat@sp2.sierakowice.pl",
                "website": "http:\/\/sp2.sierakowice.pl",
                "ref:regon": "367767131",
                "ref:vatin": "PL5892035771",
                "operator": "Gmina Sierakowice",
                "operator:type": "government",
                "amenity": "school"
            }
        },
        {
            "id": 26996,
            "type": "Feature",
            "geometry": {
                "type": "Point",
                "coordinates": [
                    17.89083,
                    54.38954
                ]
            },
            "properties": {
                "isced:level": "1;2",
                "ref:rspo": 26996,
                "official_name": "Szko\u0142a Podstawowa w Kamienicy Kr\u00f3lewskiej",
                "name": "Szko\u0142a Podstawowa w Kamienicy Kr\u00f3lewskiej",
                "addr:postcode": "83-342",
                "addr:city": "Kamienica Kr\u00f3lewska",
                "addr:street": "Szkolna",
                "addr:housenumber": "19",
                "addr:teryt:simc": 170950,
                "addr:teryt:sym_ul": 21970,
                "phone": "+48 586819202",
                "email": "zskamienicakrolewska@wp.pl",
                "website": "http:\/\/www.spkamienicakrolewska.pl",
                "ref:regon": "220106573",
                "ref:vatin": "PL5891875836",
                "operator": "Gmina Sierakowice",
                "operator:type": "government",
                "amenity": "school"
            }
        },
        {
            "id": 43657,
            "type": "Feature",
            "geometry": {
                "type": "Point",
                "coordinates": [
                    17.8263399,
                    54.413211
                ]
            },
            "properties": {
                "isced:level": "1;2",
                "ref:rspo": 43657,
                "official_name": "Szko\u0142a Podstawowa im. Rodzimych Bohater\u00f3w II Wojny \u015awiatowej w Za\u0142akowie",
                "name": "Szko\u0142a Podstawowa",
                "addr:postcode": "83-342",
                "addr:place": "Za\u0142akowo",
                "addr:housenumber": "6",
                "addr:teryt:simc": 171523,
                "phone": "+48 586819222",
                "email": "sekretariat@spzalakowo.eu",
                "website": "http:\/\/spzalakowo.eu",
                "ref:regon": "190584203",
                "ref:vatin": "PL5891875144",
                "operator": "Gmina Sierakowice",
                "operator:type": "government",
                "amenity": "school"
            }
        },
        {
            "id": 26993,
            "type": "Feature",
            "geometry": {
                "type": "Point",
                "coordinates": [
                    18.1668309,
                    54.438325
                ]
            },
            "properties": {
                "isced:level": "1;2",
                "ref:rspo": 26993,
                "official_name": "Zesp\u00f3\u0142 Szkolno-Przedszkolny Ma\u0142a Szko\u0142a w Szopie",
                "name": "Zesp\u00f3\u0142 Szkolno-Przedszkolny Ma\u0142a Szko\u0142a w Szopie",
                "addr:postcode": "83-334",
                "addr:place": "Szopa",
                "addr:housenumber": "8",
                "addr:teryt:simc": 171457,
                "phone": "+48 500080346",
                "email": "lagosz@wp.pl",
                "website": "http:\/\/www.malaszkola.eu",
                "ref:regon": "221757640",
                "ref:vatin": "PL5891817508",
                "operator": "Stowarzyszenie Na Rzecz Rozwoju So\u0142ectwa B\u0105cka Huta",
                "operator:type": "ngo",
                "amenity": "school"
            }
        },
        {
            "id": 26994,
            "type": "Feature",
            "geometry": {
                "type": "Point",
                "coordinates": [
                    18.1668309,
                    54.438295
                ]
            },
            "properties": {
                "ref:rspo": 26994,
                "official_name": "Niepubliczne Przedszkole w Szopie",
                "name": "Niepubliczne Przedszkole w Szopie",
                "addr:postcode": "83-334",
                "addr:place": "Szopa",
                "addr:housenumber": "8",
                "addr:teryt:simc": 171457,
                "phone": "+48 500298217",
                "email": "lagosz@wp.pl",
                "website": "http:\/\/www.malaszkola.eu",
                "ref:regon": "221757670",
                "ref:vatin": "PL5891817508",
                "operator": "Stowarzyszenie Na Rzecz Rozwoju So\u0142ectwa B\u0105cka Huta",
                "operator:type": "ngo",
                "amenity": "kindergarten"
            }
        }
    ]
}