{
    "type": "FeatureCollection",
    "features": [
        {
            "id": 56558,
            "type": "Feature",
            "geometry": {
                "type": "Point",
                "coordinates": [
                    17.996578,
                    54.304476
                ]
            },
            "properties": {
                "isced:level": "1;2",
                "ref:rspo": 56558,
                "official_name": "Szko\u0142a Podstawowa Imienia Franciszka Tredera w Borzestowie",
                "name": "Szko\u0142a Podstawowa Imienia Franciszka Tredera w Borzestowie",
                "addr:country": "PL",
                "addr:postcode": "83-335",
                "addr:place": "Borzestowo",
                "addr:housenumber": "182",
                "addr:teryt:sym_ul": 159812,
                "contact:phone": "+48 586842781",
                "contact:email": "spborzestowo.sekretariat@chmielno.pl",
                "contact:website": "http:\/\/www.spborzestowo.edupage.org",
                "ref:regon": "001178020",
                "ref:vatin": "PL5891878349",
                "operator": "Gmina Chmielno",
                "operator:type": "government",
                "amenity": "school"
            }
        },
        {
            "id": 61602,
            "type": "Feature",
            "geometry": {
                "type": "Point",
                "coordinates": [
                    18.09964,
                    54.32611
                ]
            },
            "properties": {
                "ref:rspo": 61602,
                "official_name": "Przedszkole Samorz\u0105dowe w Chmielnie",
                "name": "Przedszkole Samorz\u0105dowe w Chmielnie",
                "addr:country": "PL",
                "addr:postcode": "83-333",
                "addr:city": "Chmielno",
                "addr:street": "ul. Gryfa Pomorskiego",
                "addr:housenumber": "33 A",
                "addr:teryt:simc": 6285,
                "addr:teryt:sym_ul": 159870,
                "contact:phone": "+48 507126415",
                "contact:email": "przedszkole@chmielno.pl",
                "contact:website": "http:\/\/www.przedszkolechmielno.przedszkolowo.pl",
                "ref:regon": "191954620",
                "ref:vatin": "PL5891876190",
                "operator": "Gmina Chmielno",
                "operator:type": "government",
                "amenity": "kindergarten"
            }
        },
        {
            "id": 90609,
            "type": "Feature",
            "geometry": {
                "type": "Point",
                "coordinates": [
                    18.10533,
                    54.32638
                ]
            },
            "properties": {
                "isced:level": "1;2",
                "ref:rspo": 90609,
                "official_name": "Szko\u0142a Podstawowa im. Mjra Henryka Sucharskiego w Chmielnie",
                "name": "Szko\u0142a Podstawowa",
                "addr:country": "PL",
                "addr:postcode": "83-333",
                "addr:city": "Chmielno",
                "addr:street": "ul. Bernarda Grz\u0119dzickiego",
                "addr:housenumber": "28",
                "addr:teryt:simc": 6330,
                "addr:teryt:sym_ul": 159870,
                "contact:phone": "+48 586842223",
                "contact:email": "spchmielno@chmielno.pl",
                "contact:website": "http:\/\/www.spchmielno.edupage.org",
                "ref:regon": "000557553",
                "ref:vatin": "PL5891878355",
                "operator": "Gmina Chmielno",
                "operator:type": "government",
                "amenity": "school"
            }
        },
        {
            "id": 86166,
            "type": "Feature",
            "geometry": {
                "type": "Point",
                "coordinates": [
                    18.0595677,
                    54.3369921
                ]
            },
            "properties": {
                "isced:level": "1;2",
                "ref:rspo": 86166,
                "official_name": "Szko\u0142a Podstawowa w Reskowie",
                "name": "Szko\u0142a Podstawowa w Reskowie",
                "addr:country": "PL",
                "addr:postcode": "83-334",
                "addr:place": "Reskowo",
                "addr:housenumber": "68",
                "addr:teryt:sym_ul": 160123,
                "contact:phone": "+48 586842893",
                "contact:email": "spreskowo@chmielno.pl",
                "contact:website": "http:\/\/www.spreskowo.edupage.org",
                "ref:regon": "001178042",
                "ref:vatin": "PL5891876184",
                "operator": "Gmina Chmielno",
                "operator:type": "government",
                "amenity": "school"
            }
        },
        {
            "id": 61604,
            "type": "Feature",
            "geometry": {
                "type": "Point",
                "coordinates": [
                    18.02241,
                    54.3392
                ]
            },
            "properties": {
                "ref:rspo": 61604,
                "official_name": "Przedszkole Niepubliczne Mi\u015b Uszatek w Miechucinie",
                "name": "Przedszkole Niepubliczne Mi\u015b Uszatek w Miechucinie",
                "addr:country": "PL",
                "addr:postcode": "83-334",
                "addr:city": "Miechucino",
                "addr:street": "ul. Kartuska",
                "addr:housenumber": "29",
                "addr:teryt:simc": 8124,
                "addr:teryt:sym_ul": 160063,
                "contact:phone": "+48 666331815",
                "contact:email": "sylwia-raczynska@o2.pl",
                "contact:website": "http:\/\/www.przedszkole-miechucino.pl",
                "ref:regon": "221768796",
                "ref:vatin": "PL5891079223",
                "operator": "Sylwia Raczy\u0144ska",
                "operator:type": "private",
                "amenity": "kindergarten"
            }
        },
        {
            "id": 74118,
            "type": "Feature",
            "geometry": {
                "type": "Point",
                "coordinates": [
                    18.01854,
                    54.33931
                ]
            },
            "properties": {
                "isced:level": "1;2",
                "ref:rspo": 74118,
                "official_name": "Szko\u0142a Podstawowa im. Tajnej Organizacji Wojskowej \"Gryf Pomorski\" w Miechucinie",
                "name": "Szko\u0142a Podstawowa",
                "addr:country": "PL",
                "addr:postcode": "83-334",
                "addr:city": "Miechucino",
                "addr:street": "ul. Szkolna",
                "addr:housenumber": "1",
                "addr:teryt:simc": 21970,
                "addr:teryt:sym_ul": 160063,
                "contact:phone": "+48 586842866",
                "contact:email": "spmiechucino@chmielno.pl",
                "contact:website": "http:\/\/spmiechucino.edupage.org",
                "ref:regon": "001178013",
                "ref:vatin": "PL5891878361",
                "operator": "Gmina Chmielno",
                "operator:type": "government",
                "amenity": "school"
            }
        },
        {
            "id": 86716,
            "type": "Feature",
            "geometry": {
                "type": "Point",
                "coordinates": [
                    18.0868529,
                    54.353045
                ]
            },
            "properties": {
                "isced:level": "1;2",
                "ref:rspo": 86716,
                "official_name": "Szko\u0142a Podstawowa w Ko\u017cyczkowie",
                "name": "Szko\u0142a Podstawowa w Ko\u017cyczkowie",
                "addr:country": "PL",
                "addr:postcode": "83-333",
                "addr:place": "Ko\u017cyczkowo",
                "addr:housenumber": "80",
                "addr:teryt:sym_ul": 160005,
                "contact:phone": "+48 586842383",
                "contact:email": "spkozyczkowo@chmielno.pl",
                "contact:website": "http:\/\/www.spkozyczkowo.edupage.org",
                "ref:regon": "001178036",
                "ref:vatin": "PL5891876126",
                "operator": "Gmina Chmielno",
                "operator:type": "government",
                "amenity": "school"
            }
        }
    ]
}