{
    "type": "FeatureCollection",
    "features": [
        {
            "id": 124323,
            "type": "Feature",
            "geometry": {
                "type": "Point",
                "coordinates": [
                    18.3516619,
                    54.2841826
                ]
            },
            "properties": {
                "ref:rspo": 124323,
                "official_name": "Niepubliczne Parafialne Przedszkole im.\u015bw. Jana Xxiii",
                "name": "Niepubliczne Parafialne Przedszkole im.\u015bw. Jana Xxiii",
                "addr:country": "PL",
                "addr:postcode": "83-331",
                "addr:place": "Skrzeszewo",
                "addr:housenumber": "79",
                "addr:teryt:sym_ul": 177454,
                "contact:email": "przedszkolejanaxxiii@onet.pl",
                "ref:regon": "222148328",
                "operator": "Parafia Rzymsko-Katolicka P.w. Nmp Wspomo\u017cycielki Wiernych W Skrzeszewie",
                "operator:type": "cooperative",
                "amenity": "kindergarten"
            }
        },
        {
            "id": 15205,
            "type": "Feature",
            "geometry": {
                "type": "Point",
                "coordinates": [
                    18.35078,
                    54.28461
                ]
            },
            "properties": {
                "isced:level": "1;2",
                "ref:rspo": 15205,
                "official_name": "Szko\u0142a Podstawowa im.ks.dr.stanis\u0142awa Sychowskiego w Skrzeszewie",
                "name": "Szko\u0142a Podstawowa im.ks.dr.stanis\u0142awa Sychowskiego w Skrzeszewie",
                "addr:country": "PL",
                "addr:postcode": "83-330",
                "addr:city": "Skrzeszewo",
                "addr:street": "Dworska",
                "addr:housenumber": "3",
                "addr:teryt:simc": 4446,
                "addr:teryt:sym_ul": 177454,
                "contact:phone": "+48 586818824",
                "contact:email": "skrzeszewo@wp.pl",
                "contact:website": "http:\/\/www.skrzeszewo.com.pl",
                "ref:regon": "190392202",
                "ref:vatin": "PL5891640493",
                "operator": "Gmina \u017bukowo",
                "operator:type": "government",
                "amenity": "school"
            }
        },
        {
            "id": 42450,
            "type": "Feature",
            "geometry": {
                "type": "Point",
                "coordinates": [
                    18.3877,
                    54.30759
                ]
            },
            "properties": {
                "isced:level": "1;2",
                "ref:rspo": 42450,
                "official_name": "Szko\u0142a Podstawowa im. Jana Paw\u0142a II w Przyja\u017ani",
                "name": "Szko\u0142a Podstawowa",
                "addr:country": "PL",
                "addr:postcode": "83-331",
                "addr:city": "Przyja\u017a\u0144",
                "addr:street": "Szkolna",
                "addr:housenumber": "2",
                "addr:teryt:simc": 21970,
                "addr:teryt:sym_ul": 177402,
                "contact:phone": "+48 586818021",
                "contact:email": "dyrektor@sp-przyjazn.pl",
                "contact:website": "http:\/\/www.sp-przyjazn.pl",
                "ref:regon": "190392188",
                "ref:vatin": "PL5891679288",
                "operator": "Gmina \u017bukowo",
                "operator:type": "government",
                "amenity": "school"
            }
        },
        {
            "id": 70056,
            "type": "Feature",
            "geometry": {
                "type": "Point",
                "coordinates": [
                    18.077665328979,
                    54.312595367432
                ]
            },
            "properties": {
                "ref:rspo": 70056,
                "official_name": "Przedszkole Kreatywne",
                "name": "Przedszkole Kreatywne",
                "addr:country": "PL",
                "addr:postcode": "80-297",
                "addr:city": "Banino",
                "addr:street": "Ptysia i Balbiny",
                "addr:housenumber": "13",
                "addr:teryt:simc": 41227,
                "addr:teryt:sym_ul": 177112,
                "contact:phone": "+48 881663552",
                "contact:email": "kontakt@przedszkolekreatywne.pl",
                "contact:website": "http:\/\/przedszkolekreatywne.pl",
                "ref:regon": "221771717",
                "operator": "Marek Proksza",
                "operator:type": "private",
                "amenity": "kindergarten"
            }
        },
        {
            "id": 132228,
            "type": "Feature",
            "geometry": {
                "type": "Point",
                "coordinates": [
                    18.077665328979,
                    54.312565367432
                ]
            },
            "properties": {
                "ref:rspo": 132228,
                "official_name": "Niepubliczne Przedszkole Artystyczne Fantazja",
                "name": "Niepubliczne Przedszkole Artystyczne Fantazja",
                "addr:country": "PL",
                "addr:postcode": "83-330",
                "addr:city": "P\u0119powo",
                "addr:street": "Natura Park",
                "addr:housenumber": "2",
                "addr:teryt:simc": 43953,
                "addr:teryt:sym_ul": 177371,
                "contact:phone": "+48 790407790",
                "contact:email": "sekretariat@przedszkolefantazja.pl",
                "ref:regon": "365516235",
                "operator": "Edyta Romanowska",
                "operator:type": "private",
                "amenity": "kindergarten"
            }
        },
        {
            "id": 15203,
            "type": "Feature",
            "geometry": {
                "type": "Point",
                "coordinates": [
                    18.43437,
                    54.31517
                ]
            },
            "properties": {
                "isced:level": "1;2",
                "ref:rspo": 15203,
                "official_name": "Szko\u0142a Podstawowa im.wi\u0119\u017ani\u00f3w Obozu Stutthof w Niest\u0119powie",
                "name": "Szko\u0142a Podstawowa im.wi\u0119\u017ani\u00f3w Obozu Stutthof w Niest\u0119powie",
                "addr:country": "PL",
                "addr:postcode": "83-331",
                "addr:city": "Niest\u0119powo",
                "addr:street": "Radu\u0144ska",
                "addr:housenumber": "62",
                "addr:teryt:simc": 18337,
                "addr:teryt:sym_ul": 177320,
                "contact:phone": "+48 586818809",
                "contact:email": "spniestepowo@wp.pl",
                "contact:website": "http:\/\/www.spniestepowo.edu.pl",
                "ref:regon": "190392194",
                "ref:vatin": "PL5891640518",
                "operator": "Gmina \u017bukowo",
                "operator:type": "government",
                "amenity": "school"
            }
        },
        {
            "id": 15201,
            "type": "Feature",
            "geometry": {
                "type": "Point",
                "coordinates": [
                    18.26978,
                    54.31742
                ]
            },
            "properties": {
                "isced:level": "1;2",
                "ref:rspo": 15201,
                "official_name": "Szko\u0142a Podstawowa im. Jana Trepczyka w Miszewie",
                "name": "Szko\u0142a Podstawowa",
                "addr:country": "PL",
                "addr:postcode": "80-297",
                "addr:city": "Miszewo",
                "addr:street": "Stra\u017cacka",
                "addr:housenumber": "9",
                "addr:teryt:simc": 21271,
                "addr:teryt:sym_ul": 177313,
                "contact:phone": "+48 586818996",
                "contact:email": "spmiszewo@poczta.onet.pl",
                "contact:website": "http:\/\/spmiszewo.edupage.org",
                "ref:regon": "190390137",
                "ref:vatin": "PL5891640398",
                "operator": "Gmina \u017bukowo",
                "operator:type": "government",
                "amenity": "school"
            }
        },
        {
            "id": 70246,
            "type": "Feature",
            "geometry": {
                "type": "Point",
                "coordinates": [
                    18.42802,
                    54.31842
                ]
            },
            "properties": {
                "ref:rspo": 70246,
                "official_name": "Punkt Przedszkolny w Niest\u0119powie",
                "name": "Punkt Przedszkolny w Niest\u0119powie",
                "addr:country": "PL",
                "addr:postcode": "83-331",
                "addr:city": "Niest\u0119powo",
                "addr:street": "Radu\u0144ska",
                "addr:housenumber": "46",
                "addr:teryt:simc": 18337,
                "addr:teryt:sym_ul": 177320,
                "contact:phone": "+48 586849690",
                "contact:email": "grzegorz.tokarski64@wp.pl",
                "ref:regon": "221771551",
                "operator": "Stowarzyszenie Na Rzecz Rozwoju Wsi Niest\u0119powo",
                "operator:type": "ngo",
                "amenity": "kindergarten"
            }
        },
        {
            "id": 16344,
            "type": "Feature",
            "geometry": {
                "type": "Point",
                "coordinates": [
                    18.45248,
                    54.31959
                ]
            },
            "properties": {
                "ref:rspo": 16344,
                "official_name": "Przedszkole Montessori \"Odkrywcy T\u0119czy\"",
                "name": "Przedszkole Montessori \"Odkrywcy T\u0119czy\"",
                "addr:country": "PL",
                "addr:postcode": "83-331",
                "addr:city": "Niest\u0119powo",
                "addr:street": "Szeroka",
                "addr:housenumber": "6",
                "addr:teryt:simc": 21925,
                "addr:teryt:sym_ul": 177320,
                "contact:email": "odkrywcy.teczy@wp.pl",
                "contact:website": "http:\/\/przedszkole-montessori-niestepowo.pl\/",
                "ref:regon": "221744034",
                "operator": "Przedszkole Montessori \"Odkrywcy T\u0119czy\" Ma\u0142gorzata Micha\u0142owska - D\u0105browska",
                "operator:type": "consortium",
                "amenity": "kindergarten"
            }
        },
        {
            "id": 15202,
            "type": "Feature",
            "geometry": {
                "type": "Point",
                "coordinates": [
                    18.34428,
                    54.32265
                ]
            },
            "properties": {
                "isced:level": "1;2",
                "ref:rspo": 15202,
                "official_name": "Szko\u0142a Podstawowa im. Remusa w Glinczu",
                "name": "Szko\u0142a Podstawowa",
                "addr:country": "PL",
                "addr:postcode": "83-330",
                "addr:city": "Glincz",
                "addr:street": "Brzozowa",
                "addr:housenumber": "6",
                "addr:teryt:simc": 2276,
                "addr:teryt:sym_ul": 991380,
                "contact:phone": "+48 586818301",
                "contact:email": "sp.glincz@wp.pl",
                "ref:regon": "190392231",
                "ref:vatin": "PL5891640613",
                "operator": "Gmina \u017bukowo",
                "operator:type": "government",
                "amenity": "school"
            }
        },
        {
            "id": 17673,
            "type": "Feature",
            "geometry": {
                "type": "Point",
                "coordinates": [
                    18.34428,
                    54.32262
                ]
            },
            "properties": {
                "ref:rspo": 17673,
                "official_name": "Niepubliczny Punkt Przedszkolny \"Weso\u0142e \u017babki\"",
                "name": "Niepubliczny Punkt Przedszkolny \"Weso\u0142e \u017babki\"",
                "addr:country": "PL",
                "addr:postcode": "83-330",
                "addr:city": "Glincz",
                "addr:street": "Brzozowa",
                "addr:housenumber": "6",
                "addr:teryt:simc": 2276,
                "addr:teryt:sym_ul": 991380,
                "contact:phone": "+48 586859748",
                "ref:regon": "221746501",
                "operator": "Stowarzyszenie Rozwoju Regionalnego 'Radunia'",
                "operator:type": "ngo",
                "amenity": "kindergarten"
            }
        },
        {
            "id": 121481,
            "type": "Feature",
            "geometry": {
                "type": "Point",
                "coordinates": [
                    18.32049,
                    54.32704
                ]
            },
            "properties": {
                "ref:rspo": 121481,
                "official_name": "Przedszkole Niepubliczne I \u017b\u0142obek \"Kotek\" Katarzyna Treder",
                "name": "Przedszkole Niepubliczne I \u017b\u0142obek \"Kotek\" Katarzyna Treder",
                "addr:country": "PL",
                "addr:postcode": "83-330",
                "addr:city": "Borkowo",
                "addr:street": "Karlikowska",
                "addr:housenumber": "6",
                "addr:teryt:simc": 8049,
                "addr:teryt:sym_ul": 177158,
                "contact:phone": "+48 504494997",
                "ref:regon": "222015840",
                "operator": "Przedszkole Niepubliczne I \u017b\u0142obek \"Kotek\" Katarzyna Treder",
                "operator:type": "consortium",
                "amenity": "kindergarten"
            }
        },
        {
            "id": 70975,
            "type": "Feature",
            "geometry": {
                "type": "Point",
                "coordinates": [
                    18.33226,
                    54.33277
                ]
            },
            "properties": {
                "isced:level": "1;2",
                "ref:rspo": 70975,
                "official_name": "Szko\u0142a Podstawowa im. Jana Paw\u0142a II w Borkowie",
                "name": "Szko\u0142a Podstawowa",
                "addr:country": "PL",
                "addr:postcode": "83-330",
                "addr:city": "Borkowo",
                "addr:street": "Szkolna",
                "addr:housenumber": "2",
                "addr:teryt:simc": 21970,
                "addr:teryt:sym_ul": 177158,
                "contact:phone": "+48 586818208",
                "contact:email": "spborkowo@wp.pl",
                "contact:website": "http:\/\/www.spborkowo.szkolna.net\/",
                "ref:regon": "190392219",
                "ref:vatin": "PL5891640441",
                "operator": "Gmina \u017bukowo",
                "operator:type": "government",
                "amenity": "school"
            }
        },
        {
            "id": 128040,
            "type": "Feature",
            "geometry": {
                "type": "Point",
                "coordinates": [
                    18.3379309,
                    54.335235
                ]
            },
            "properties": {
                "ref:rspo": 128040,
                "official_name": "Przedszkole \"Tygrysek\"",
                "name": "Przedszkole \"Tygrysek\"",
                "addr:country": "PL",
                "addr:postcode": "80-298",
                "addr:place": "Le\u017ano",
                "addr:housenumber": "28",
                "addr:door": "A",
                "addr:teryt:sym_ul": 177247,
                "contact:phone": "+48 601663602",
                "contact:email": "tygrysek_lezno@wp.pl",
                "ref:regon": "362081481",
                "operator": "Przedsi\u0119biorstwo Handlowo Us\u0142ugowe Kreft Miros\u0142aw",
                "operator:type": "consortium",
                "amenity": "kindergarten"
            }
        },
        {
            "id": 48806,
            "type": "Feature",
            "geometry": {
                "type": "Point",
                "coordinates": [
                    18.3612499,
                    54.33909
                ]
            },
            "properties": {
                "ref:rspo": 48806,
                "official_name": "Przedszkole Niepubliczne \"Krasnoludek\" S.c.",
                "name": "Przedszkole Niepubliczne \"Krasnoludek\" S.c.",
                "addr:country": "PL",
                "addr:postcode": "83-330",
                "addr:city": "\u017bukowo",
                "addr:street": "1 Maja",
                "addr:housenumber": "13",
                "addr:teryt:simc": 11926,
                "addr:teryt:sym_ul": 935127,
                "contact:phone": "+48 586818358",
                "contact:email": "epilog@poczta.onet.pl",
                "ref:regon": "221763557",
                "ref:vatin": "PL5891715498",
                "operator": "Iwona G\u0142azik - Czarnecka",
                "operator:type": "private",
                "amenity": "kindergarten"
            }
        },
        {
            "id": 23693,
            "type": "Feature",
            "geometry": {
                "type": "Point",
                "coordinates": [
                    18.36299,
                    54.3407
                ]
            },
            "properties": {
                "isced:level": "1;2",
                "ref:rspo": 23693,
                "official_name": "Parafialna Szko\u0142a Podstawowa im. \u015aw. Franciszka Z Asy\u017cu",
                "name": "Parafialna Szko\u0142a Podstawowa",
                "addr:country": "PL",
                "addr:postcode": "83-330",
                "addr:city": "\u017bukowo",
                "addr:street": "Klasztorna",
                "addr:housenumber": "18",
                "addr:teryt:simc": 8485,
                "addr:teryt:sym_ul": 935127,
                "contact:phone": "+48 586817172",
                "contact:email": "pspzukowo@gmail.com",
                "contact:website": "http:\/\/pspzukowo.pl\/",
                "ref:regon": "221754386",
                "ref:vatin": "PL5891623804",
                "operator": "Parafia Rzymsko-Katolicka P.w.wniebowzi\u0119cia N.m.p.",
                "operator:type": "religious",
                "amenity": "school"
            }
        },
        {
            "id": 69474,
            "type": "Feature",
            "geometry": {
                "type": "Point",
                "coordinates": [
                    18.36299,
                    54.340669999999996
                ]
            },
            "properties": {
                "ref:rspo": 69474,
                "official_name": "Przedszkole Parafialne",
                "name": "Przedszkole Parafialne",
                "addr:country": "PL",
                "addr:postcode": "83-330",
                "addr:city": "\u017bukowo",
                "addr:street": "Klasztorna",
                "addr:housenumber": "18",
                "addr:teryt:simc": 8485,
                "addr:teryt:sym_ul": 935127,
                "contact:phone": "+48 586817172",
                "contact:email": "pspzukowo@gmail.com",
                "ref:regon": "221771611",
                "operator": "Parafia Rzymsko-Katolicka P.w.wniebowzi\u0119cia N.m.p.",
                "operator:type": "religious",
                "amenity": "kindergarten"
            }
        },
        {
            "id": 57332,
            "type": "Feature",
            "geometry": {
                "type": "Point",
                "coordinates": [
                    18.35445,
                    54.34119
                ]
            },
            "properties": {
                "ref:rspo": 57332,
                "official_name": "Pierwsza Niepubliczna Poradnia Psychologiczno-Pedagogiczna w \u017bukowie",
                "name": "Pierwsza Niepubliczna Poradnia Psychologiczno-Pedagogiczna w \u017bukowie",
                "addr:country": "PL",
                "addr:postcode": "83-330",
                "addr:city": "\u017bukowo",
                "addr:street": "Gda\u0144ska",
                "addr:housenumber": "66",
                "addr:teryt:simc": 5431,
                "addr:teryt:sym_ul": 935127,
                "contact:email": "poradniazukowo@wp.pl",
                "contact:website": "http:\/\/www.diagnozapsychologiczna.pl",
                "ref:regon": "221765154",
                "ref:vatin": "PL5881084688",
                "operator": "\u0141ukasz Fanslau",
                "operator:type": "private",
                "healthcare": "counselling",
                "counselling_type": "education",
                "fixme": "w zale\u017cno\u015bci od przedmiotu dzia\u0142alno\u015bci (np. healthcare=counselling + counselling_type=education albo healthcare=psychotherapist)"
            }
        },
        {
            "id": 58452,
            "type": "Feature",
            "geometry": {
                "type": "Point",
                "coordinates": [
                    18.36401,
                    54.343
                ]
            },
            "properties": {
                "ref:rspo": 58452,
                "official_name": "Specjalny O\u015brodek Szkolno - Wychowawczy im. Biskupa Z Miry \u015awi\u0119tego Miko\u0142aja w \u017bukowie",
                "name": "Specjalny O\u015brodek Szkolno - Wychowawczy",
                "addr:country": "PL",
                "addr:postcode": "83-330",
                "addr:city": "\u017bukowo",
                "addr:street": "Gdy\u0144ska",
                "addr:housenumber": "7a",
                "addr:teryt:simc": 5441,
                "addr:teryt:sym_ul": 935127,
                "contact:phone": "+48 586818371",
                "contact:email": "soswzuk@poczta.onet.pl",
                "contact:website": "http:\/\/www.soswzukowo.idsl.pl",
                "ref:regon": "000958000",
                "ref:vatin": "PL5891640926",
                "operator": "Powiat Kartuski",
                "operator:type": "government",
                "amenity": "school",
                "note": "Children RSPO: 72831;72833;113842"
            }
        },
        {
            "id": 72831,
            "type": "Feature",
            "geometry": {
                "type": "Point",
                "coordinates": [
                    18.36401,
                    54.34297
                ]
            },
            "properties": {
                "isced:level": "1;2",
                "ref:rspo": 72831,
                "official_name": "Specjalny O\u015brodek Szkolno - Wychowawczy im. Biskupa Z Miry \u015awi\u0119tego Miko\u0142aja w \u017bukowie, Szko\u0142a Podstawowa Nr 2 Specjalna w \u017bukowie",
                "name": "Specjalny O\u015brodek Szkolno - Wychowawczy",
                "addr:country": "PL",
                "addr:postcode": "83-330",
                "addr:city": "\u017bukowo",
                "addr:street": "Gdy\u0144ska",
                "addr:housenumber": "7a",
                "addr:teryt:simc": 5441,
                "addr:teryt:sym_ul": 935127,
                "contact:phone": "+48 586818371",
                "contact:email": "soswzuk@poczta.onet.pl",
                "contact:website": "http:\/\/www.soswzukowo.idsl.pl",
                "ref:regon": "192937114",
                "operator": "Powiat Kartuski",
                "operator:type": "government",
                "amenity": "school",
                "note": "Parent RSPO: 58452"
            }
        },
        {
            "id": 72833,
            "type": "Feature",
            "geometry": {
                "type": "Point",
                "coordinates": [
                    18.36401,
                    54.342940000000006
                ]
            },
            "properties": {
                "ref:rspo": 72833,
                "official_name": "Specjalny O\u015brodek Szkolno - Wychowawczy im. Biskupa Z Miry \u015awi\u0119tego Miko\u0142aja w \u017bukowie Szko\u0142a Specjalna Przysposabiaj\u0105ca Do Pracy w \u017bukowie",
                "name": "Specjalny O\u015brodek Szkolno - Wychowawczy",
                "addr:country": "PL",
                "addr:postcode": "83-330",
                "addr:city": "\u017bukowo",
                "addr:street": "Gdy\u0144ska",
                "addr:housenumber": "7a",
                "addr:teryt:simc": 5441,
                "addr:teryt:sym_ul": 935127,
                "contact:phone": "+48 586818371",
                "contact:email": "soswzuk@poczta.onet.pl",
                "contact:website": "http:\/\/www.soswzukowo.idsl.pl",
                "ref:regon": "220100027",
                "operator": "Powiat Kartuski",
                "operator:type": "government",
                "amenity": "school",
                "note": "Parent RSPO: 58452"
            }
        },
        {
            "id": 113842,
            "type": "Feature",
            "geometry": {
                "type": "Point",
                "coordinates": [
                    18.36401,
                    54.34291
                ]
            },
            "properties": {
                "ref:rspo": 113842,
                "official_name": "Specjalny O\u015brodek Szkolno-Wychowawczy im. Biskupa Z Miry \u015awi\u0119tego Miko\u0142aja w \u017bukowie - Przedszkole Specjalne w \u017bukowie dla Dzieci Z Upo\u015bledzeniem Umys\u0142owym w Stopniu Umiarkowanym I Znacznym, Z Autyzmem I Niepe\u0142nosprawno\u015bciami Sprz\u0119\u017conymi",
                "name": "Specjalny O\u015brodek Szkolno-Wychowawczy",
                "addr:country": "PL",
                "addr:postcode": "83-330",
                "addr:city": "\u017bukowo",
                "addr:street": "Gdy\u0144ska",
                "addr:housenumber": "7a",
                "addr:teryt:simc": 5441,
                "addr:teryt:sym_ul": 935127,
                "contact:phone": "+48 586818371",
                "contact:email": "soswzuk@poczta.onet.pl",
                "contact:website": "http:\/\/soswzukowo.idsl.pl",
                "ref:regon": "221864761",
                "operator": "Powiat Kartuski",
                "operator:type": "government",
                "amenity": "kindergarten",
                "note": "Parent RSPO: 58452"
            }
        },
        {
            "id": 31544,
            "type": "Feature",
            "geometry": {
                "type": "Point",
                "coordinates": [
                    18.36374,
                    54.34318
                ]
            },
            "properties": {
                "ref:rspo": 31544,
                "official_name": "Zesp\u00f3\u0142 Szk\u00f3\u0142 Zawodowych I Og\u00f3lnokszta\u0142c\u0105cych w \u017bukowie",
                "name": "Zesp\u00f3\u0142 Szk\u00f3\u0142 Zawodowych I Og\u00f3lnokszta\u0142c\u0105cych w \u017bukowie",
                "addr:country": "PL",
                "addr:postcode": "83-330",
                "addr:city": "\u017bukowo",
                "addr:street": "Gdy\u0144ska",
                "addr:housenumber": "5",
                "addr:teryt:simc": 5441,
                "addr:teryt:sym_ul": 177514,
                "contact:phone": "+48 586818512",
                "contact:email": "zsziozukowo@wp.pl",
                "contact:website": "http:\/\/www.zsziozukowo.pl",
                "ref:regon": "000194926",
                "ref:vatin": "PL5891509221",
                "operator": "Powiat Kartuski",
                "operator:type": "government",
                "landuse": "education",
                "fixme": "amenity=school, amenity=college albo landuse=education w zale\u017cno\u015bci od tego, jakie plac\u00f3wki wchodz\u0105 w sk\u0142ad zespo\u0142u. Sprawd\u017a, kiedy stosowa\u0107 amenity=* a kiedy landuse=education.",
                "note": "Children RSPO: 38716;38718;38719;48649"
            }
        },
        {
            "id": 38716,
            "type": "Feature",
            "geometry": {
                "type": "Point",
                "coordinates": [
                    18.36374,
                    54.343149999999994
                ]
            },
            "properties": {
                "isced:level": "3",
                "ref:rspo": 38716,
                "official_name": "Zesp\u00f3\u0142 Szk\u00f3\u0142 Zawodowych I Og\u00f3lnokszta\u0142c\u0105cych w \u017bukowie, Liceum Og\u00f3lnoksztalc\u0105ce im. Ksi\u0105\u017c\u0105t Pomorskich w \u017bukowie",
                "name": "Zesp\u00f3\u0142 Szk\u00f3\u0142 Zawodowych I Og\u00f3lnokszta\u0142c\u0105cych w \u017bukowie, Liceum Og\u00f3lnoksztalc\u0105ce",
                "addr:country": "PL",
                "addr:postcode": "83-330",
                "addr:city": "\u017bukowo",
                "addr:street": "Gdy\u0144ska",
                "addr:housenumber": "5",
                "addr:teryt:simc": 5441,
                "addr:teryt:sym_ul": 935127,
                "contact:phone": "+48 586818512",
                "contact:email": "zsziozukowo@wp.pl",
                "contact:website": "http:\/\/www.zsziozukowo.pl",
                "ref:regon": "192788192",
                "operator": "Powiat Kartuski",
                "operator:type": "government",
                "amenity": "school",
                "note": "Parent RSPO: 31544"
            }
        },
        {
            "id": 38718,
            "type": "Feature",
            "geometry": {
                "type": "Point",
                "coordinates": [
                    18.36374,
                    54.34312
                ]
            },
            "properties": {
                "isced:level": "3",
                "ref:rspo": 38718,
                "official_name": "Zesp\u00f3\u0142 Szk\u00f3\u0142 Zawodowych I Og\u00f3lnokszta\u0142c\u0105cych w \u017bukowie, Technikum im. Ksi\u0105\u017c\u0105t Pomorskich w \u017bukowie",
                "name": "Zesp\u00f3\u0142 Szk\u00f3\u0142 Zawodowych I Og\u00f3lnokszta\u0142c\u0105cych w \u017bukowie, Technikum",
                "addr:country": "PL",
                "addr:postcode": "83-330",
                "addr:city": "\u017bukowo",
                "addr:street": "Gdy\u0144ska",
                "addr:housenumber": "5",
                "addr:teryt:simc": 5441,
                "addr:teryt:sym_ul": 935127,
                "contact:phone": "+48 586818512",
                "contact:email": "zsziozukowo@wp.pl",
                "contact:website": "http:\/\/www.zsziozukowo.pl",
                "ref:regon": "220282330",
                "operator": "Powiat Kartuski",
                "operator:type": "government",
                "amenity": "school",
                "note": "Parent RSPO: 31544"
            }
        },
        {
            "id": 38719,
            "type": "Feature",
            "geometry": {
                "type": "Point",
                "coordinates": [
                    18.36374,
                    54.34309
                ]
            },
            "properties": {
                "isced:level": "4",
                "ref:rspo": 38719,
                "official_name": "Zesp\u00f3\u0142 Szk\u00f3\u0142 Zawodowych I Og\u00f3lnokszta\u0142c\u0105cych w \u017bukowie, Szko\u0142a Policealna im. Ksi\u0105\u017c\u0105t Pomorskich w \u017bukowie",
                "name": "Zesp\u00f3\u0142 Szk\u00f3\u0142 Zawodowych I Og\u00f3lnokszta\u0142c\u0105cych w \u017bukowie, Szko\u0142a Policealna",
                "addr:country": "PL",
                "addr:postcode": "83-330",
                "addr:city": "\u017bukowo",
                "addr:street": "Gdy\u0144ska",
                "addr:housenumber": "5",
                "addr:teryt:simc": 5441,
                "addr:teryt:sym_ul": 935127,
                "contact:email": "zsziozukowo@wp.pl",
                "contact:website": "http:\/\/www.zsziozukowo.pl",
                "ref:regon": "220099784",
                "operator": "Powiat Kartuski",
                "operator:type": "government",
                "amenity": "college",
                "note": "Parent RSPO: 31544"
            }
        },
        {
            "id": 48649,
            "type": "Feature",
            "geometry": {
                "type": "Point",
                "coordinates": [
                    18.36374,
                    54.343059999999994
                ]
            },
            "properties": {
                "isced:level": "3",
                "ref:rspo": 48649,
                "official_name": "Zesp\u00f3\u0142 Szk\u00f3\u0142 Zawodowych I Og\u00f3lnokszta\u0142c\u0105cych w \u017bukowie, Bran\u017cowa Szko\u0142a I Stopnia im. Ksi\u0105\u017c\u0105t Pomorskich w \u017bukowie",
                "name": "Zesp\u00f3\u0142 Szk\u00f3\u0142 Zawodowych I Og\u00f3lnokszta\u0142c\u0105cych w \u017bukowie, Bran\u017cowa Szko\u0142a I Stopnia",
                "addr:country": "PL",
                "addr:postcode": "83-330",
                "addr:city": "\u017bukowo",
                "addr:street": "Gdy\u0144ska",
                "addr:housenumber": "5",
                "addr:teryt:simc": 5441,
                "addr:teryt:sym_ul": 935127,
                "contact:phone": "+48 586818512",
                "contact:email": "zsziozukowo@wp.pl",
                "contact:website": "http:\/\/www.zsziozukowo.pl",
                "ref:regon": "192788246",
                "operator": "Powiat Kartuski",
                "operator:type": "government",
                "amenity": "school",
                "note": "Parent RSPO: 31544"
            }
        },
        {
            "id": 15207,
            "type": "Feature",
            "geometry": {
                "type": "Point",
                "coordinates": [
                    18.36366,
                    54.34341
                ]
            },
            "properties": {
                "isced:level": "1;2",
                "ref:rspo": 15207,
                "official_name": "Szko\u0142a Podstawowa Nr 1 im.obro\u0144c\u00f3w Wybrze\u017ca w \u017bukowie",
                "name": "Szko\u0142a Podstawowa Nr 1 im.obro\u0144c\u00f3w Wybrze\u017ca w \u017bukowie",
                "addr:country": "PL",
                "addr:postcode": "83-330",
                "addr:city": "\u017bukowo",
                "addr:street": "Gdy\u0144ska",
                "addr:housenumber": "7",
                "addr:teryt:simc": 5441,
                "addr:teryt:sym_ul": 935127,
                "contact:phone": "+48 586818762",
                "contact:email": "spzukowo@gmail.com",
                "contact:website": "http:\/\/www.spzukowo.pl",
                "ref:regon": "190390090",
                "ref:vatin": "PL5891051911",
                "operator": "Gmina \u017bukowo",
                "operator:type": "government",
                "amenity": "school"
            }
        },
        {
            "id": 42448,
            "type": "Feature",
            "geometry": {
                "type": "Point",
                "coordinates": [
                    18.43295,
                    54.34658
                ]
            },
            "properties": {
                "isced:level": "1;2",
                "ref:rspo": 42448,
                "official_name": "Szko\u0142a Podstawowa im. Jana Paw\u0142a II w Le\u017anie",
                "name": "Szko\u0142a Podstawowa",
                "addr:country": "PL",
                "addr:postcode": "80-298",
                "addr:city": "Le\u017ano",
                "addr:street": "Aleja Lipowa",
                "addr:housenumber": "44",
                "addr:teryt:simc": 30312,
                "addr:teryt:sym_ul": 177247,
                "contact:phone": "+48 586818694",
                "contact:email": "lezno.szkola@gmail.com",
                "contact:website": "http:\/\/www.splezno.edupage.org",
                "ref:regon": "192956689",
                "ref:vatin": "PL5891679271",
                "operator": "Gmina \u017bukowo",
                "operator:type": "government",
                "amenity": "school"
            }
        },
        {
            "id": 129788,
            "type": "Feature",
            "geometry": {
                "type": "Point",
                "coordinates": [
                    18.3576,
                    54.34768
                ]
            },
            "properties": {
                "ref:rspo": 129788,
                "official_name": "Alma Mater Niepubliczna Plac\u00f3wka O\u015bwiatowa",
                "name": "Alma Mater Niepubliczna Plac\u00f3wka O\u015bwiatowa",
                "addr:country": "PL",
                "addr:postcode": "83-330",
                "addr:city": "\u017bukowo",
                "addr:street": "Ksi\u0105\u017c\u0105t Pomorskich",
                "addr:housenumber": "2F",
                "addr:door": "-",
                "addr:teryt:simc": 10217,
                "addr:teryt:sym_ul": 935127,
                "contact:phone": "+48 600022026",
                "contact:email": "bhppomorskie@gmail.com",
                "contact:website": "http:\/\/www.bphpomorskie.pl",
                "ref:regon": "362896852",
                "operator": "Bart\u0142omiej Gross",
                "operator:type": "private",
                "fixme": "w zale\u017cno\u015bci od przedmiotu dzia\u0142alno\u015bci (np. amenity=training + training=*, amenity=dancing_school, amenity=language_school, amenity=music_school)"
            }
        },
        {
            "id": 48724,
            "type": "Feature",
            "geometry": {
                "type": "Point",
                "coordinates": [
                    18.35673,
                    54.34772
                ]
            },
            "properties": {
                "ref:rspo": 48724,
                "official_name": "Niepubliczne Przedszkole \"Kogucik\"",
                "name": "Niepubliczne Przedszkole \"Kogucik\"",
                "addr:country": "PL",
                "addr:postcode": "83-330",
                "addr:city": "\u017bukowo",
                "addr:street": "Ksi\u0105\u017c\u0105t Pomorskich",
                "addr:housenumber": "1",
                "addr:door": "A",
                "addr:teryt:simc": 10217,
                "addr:teryt:sym_ul": 935127,
                "contact:phone": "+48 586817562",
                "contact:email": "przedszkolekogucik@wp.pl",
                "contact:website": "http:\/\/www.przedszkolekogucik.pl",
                "ref:regon": "221763505",
                "ref:vatin": "PL5891098717",
                "operator": "Barbara Sirocka",
                "operator:type": "private",
                "amenity": "kindergarten"
            }
        },
        {
            "id": 263053,
            "type": "Feature",
            "geometry": {
                "type": "Point",
                "coordinates": [
                    18.37095,
                    54.35066
                ]
            },
            "properties": {
                "isced:level": "1;2",
                "ref:rspo": 263053,
                "official_name": "Szko\u0142a Podstawowa Nr 2 im. Jana Heweliusza w \u017bukowie",
                "name": "Szko\u0142a Podstawowa Nr 2",
                "addr:country": "PL",
                "addr:postcode": "83-330",
                "addr:city": "\u017bukowo",
                "addr:street": "Armii Krajowej",
                "addr:housenumber": "2e",
                "addr:teryt:simc": 432,
                "addr:teryt:sym_ul": 935127,
                "contact:phone": "+48 586817050",
                "contact:email": "gim2@zukowo.pl",
                "contact:website": "http:\/\/www.gim2.zukowo.pl",
                "ref:regon": "368097052",
                "operator": "Gmina \u017bukowo",
                "operator:type": "government",
                "amenity": "school"
            }
        },
        {
            "id": 263154,
            "type": "Feature",
            "geometry": {
                "type": "Point",
                "coordinates": [
                    18.36682,
                    54.35282
                ]
            },
            "properties": {
                "ref:rspo": 263154,
                "official_name": "Przedszkole I \u017b\u0142obek Bocianowo Sp\u00f3\u0142ka Z Ograniczon\u0105 Odpowiedzialno\u015bci\u0105 Sp\u00f3\u0142ka Komandytowa",
                "name": "Przedszkole I \u017b\u0142obek Bocianowo Sp\u00f3\u0142ka Z Ograniczon\u0105 Odpowiedzialno\u015bci\u0105 Sp\u00f3\u0142ka Komandytowa",
                "addr:country": "PL",
                "addr:postcode": "83-330",
                "addr:city": "\u017bukowo",
                "addr:street": "Boles\u0142awa Prusa",
                "addr:housenumber": "35",
                "addr:teryt:simc": 17577,
                "addr:teryt:sym_ul": 935127,
                "contact:phone": "+48 603594613",
                "contact:email": "bocianowo.edu@wp.pl",
                "contact:website": "http:\/\/www.bocianowo.edu.pl",
                "ref:regon": "368115181",
                "operator": "Przedszkole I \u017b\u0142obek Bocianowo Sp\u00f3\u0142ka Z Ograniczon\u0105 Odpowiedzialno\u015bci\u0105 Sp\u00f3\u0142ka Komandytowa",
                "operator:type": "private",
                "amenity": "kindergarten"
            }
        },
        {
            "id": 16405,
            "type": "Feature",
            "geometry": {
                "type": "Point",
                "coordinates": [
                    18.36429,
                    54.35325
                ]
            },
            "properties": {
                "ref:rspo": 16405,
                "official_name": "Niepubliczne Przedszkole \"Promyczek\"",
                "name": "Niepubliczne Przedszkole \"Promyczek\"",
                "addr:country": "PL",
                "addr:postcode": "83-330",
                "addr:city": "\u017bukowo",
                "addr:street": "Wincentego Witosa",
                "addr:housenumber": "5",
                "addr:teryt:simc": 24454,
                "addr:teryt:sym_ul": 935127,
                "contact:phone": "+48 586849222",
                "contact:email": "promyczekzukowo@gmail.com",
                "ref:regon": "221744123",
                "ref:vatin": "PL5892009621",
                "operator": "\u017b\u0142obek Promyczek Joanna Wo\u017aniak",
                "operator:type": "consortium",
                "amenity": "kindergarten"
            }
        },
        {
            "id": 57336,
            "type": "Feature",
            "geometry": {
                "type": "Point",
                "coordinates": [
                    18.39671,
                    54.3656
                ]
            },
            "properties": {
                "ref:rspo": 57336,
                "official_name": "O\u015brodek Dydaktyczno Szkoleniowy P.p.u.h. \"Polkar\" Andrzej Karpus",
                "name": "O\u015brodek Dydaktyczno Szkoleniowy P.p.u.h. \"Polkar\" Andrzej Karpus",
                "addr:country": "PL",
                "addr:postcode": "83-330",
                "addr:city": "\u017bukowo",
                "addr:street": "Armii Krajowej",
                "addr:housenumber": "1",
                "addr:teryt:simc": 432,
                "addr:teryt:sym_ul": 935127,
                "contact:phone": "+48 586858187",
                "contact:email": "polkar@polkar-szkolenia.pl",
                "contact:website": "http:\/\/www.polkar-szkolenia.pl",
                "ref:regon": "221771090",
                "operator": "Andrzej Karpus",
                "operator:type": "private",
                "fixme": "w zale\u017cno\u015bci od przedmiotu dzia\u0142alno\u015bci (np. amenity=training + training=*, amenity=dancing_school, amenity=language_school, amenity=music_school)"
            }
        },
        {
            "id": 120775,
            "type": "Feature",
            "geometry": {
                "type": "Point",
                "coordinates": [
                    18.39671,
                    54.36557
                ]
            },
            "properties": {
                "ref:rspo": 120775,
                "official_name": "O\u015brodek Dydaktyczno - Szkoleniowy Ppus \"Polkar\" Sp. Z O. O. w \u017bukowie",
                "name": "O\u015brodek Dydaktyczno - Szkoleniowy Ppus \"Polkar\" Sp. Z O. O. w \u017bukowie",
                "addr:country": "PL",
                "addr:postcode": "83-330",
                "addr:city": "\u017bukowo",
                "addr:street": "Armii Krajowej",
                "addr:housenumber": "1",
                "addr:teryt:simc": 432,
                "addr:teryt:sym_ul": 935127,
                "contact:phone": "+48 607828700",
                "contact:email": "polkar@polkar-szkolenia.pl",
                "ref:regon": "221986010",
                "operator": "Przedsi\u0119biorstwo Produkcyjno Us\u0142ugowo Szkoleniowe \"Polkar\" Sp\u00f3\u0142ka Z Ograniczon\u0105 Odpowiedzialno\u015bci\u0105",
                "operator:type": "private",
                "fixme": "w zale\u017cno\u015bci od przedmiotu dzia\u0142alno\u015bci (np. amenity=training + training=*, amenity=dancing_school, amenity=language_school, amenity=music_school)"
            }
        },
        {
            "id": 277539,
            "type": "Feature",
            "geometry": {
                "type": "Point",
                "coordinates": [
                    18.40073,
                    54.36767
                ]
            },
            "properties": {
                "ref:rspo": 277539,
                "official_name": "Punkt Przedszkolny Zielona Kraina Montessori",
                "name": "Punkt Przedszkolny Zielona Kraina Montessori",
                "addr:country": "PL",
                "addr:postcode": "80-297",
                "addr:city": "P\u0119powo",
                "addr:street": "Modrzewiowa",
                "addr:housenumber": "9",
                "addr:teryt:simc": 13184,
                "addr:teryt:sym_ul": 177371,
                "contact:email": "poczta@zielonakrainamontessori.pl",
                "ref:regon": "389065179",
                "ref:vatin": "PL6572209170",
                "operator": "Ewa Ga\u0142ka",
                "operator:type": "private",
                "amenity": "kindergarten"
            }
        },
        {
            "id": 15204,
            "type": "Feature",
            "geometry": {
                "type": "Point",
                "coordinates": [
                    18.39582,
                    54.36865
                ]
            },
            "properties": {
                "isced:level": "1;2",
                "ref:rspo": 15204,
                "official_name": "Szko\u0142a Podstawowa im.ppor.klemensa Wickiego w P\u0119powie",
                "name": "Szko\u0142a Podstawowa im.ppor.klemensa Wickiego w P\u0119powie",
                "addr:country": "PL",
                "addr:postcode": "83-330",
                "addr:city": "P\u0119powo",
                "addr:street": "Gda\u0144ska",
                "addr:housenumber": "117",
                "addr:teryt:simc": 5431,
                "addr:teryt:sym_ul": 177371,
                "contact:phone": "+48 586818791",
                "contact:email": "sppepowo@wp.pl",
                "contact:website": "http:\/\/www.sppepowo.edu.pl",
                "ref:regon": "190392171",
                "ref:vatin": "PL5891640412",
                "operator": "Gmina \u017bukowo",
                "operator:type": "government",
                "amenity": "school"
            }
        },
        {
            "id": 125701,
            "type": "Feature",
            "geometry": {
                "type": "Point",
                "coordinates": [
                    18.33862,
                    54.36993
                ]
            },
            "properties": {
                "ref:rspo": 125701,
                "official_name": "Le\u015bne Przedszkole Ecoludek",
                "name": "Le\u015bne Przedszkole Ecoludek",
                "addr:country": "PL",
                "addr:postcode": "83-330",
                "addr:city": "Ma\u0142kowo",
                "addr:street": "Pa\u0142acowa",
                "addr:housenumber": "86",
                "addr:teryt:simc": 15590,
                "addr:teryt:sym_ul": 177276,
                "contact:phone": "+48 793073040",
                "contact:email": "kasiabyczkowska@gazeta.pl",
                "ref:regon": "222176129",
                "operator": "Katarzyna Byczkowska",
                "operator:type": "consortium",
                "amenity": "kindergarten"
            }
        },
        {
            "id": 69481,
            "type": "Feature",
            "geometry": {
                "type": "Point",
                "coordinates": [
                    18.39656,
                    54.38545
                ]
            },
            "properties": {
                "ref:rspo": 69481,
                "official_name": "Maluszkowo Przedszkole Niepubliczne",
                "name": "Maluszkowo Przedszkole Niepubliczne",
                "addr:country": "PL",
                "addr:postcode": "80-297",
                "addr:city": "Banino",
                "addr:street": "Z\u0142ota",
                "addr:housenumber": "47",
                "addr:teryt:simc": 26188,
                "addr:teryt:sym_ul": 177112,
                "contact:phone": "+48 586810855",
                "contact:email": "kontakt@maluszkowo.pl",
                "contact:website": "http:\/\/www.maluszkowo.pl",
                "ref:regon": "221771580",
                "operator": "Eliza Bilik-Stefanicka",
                "operator:type": "private",
                "amenity": "kindergarten"
            }
        },
        {
            "id": 264553,
            "type": "Feature",
            "geometry": {
                "type": "Point",
                "coordinates": [
                    18.38769,
                    54.38623
                ]
            },
            "properties": {
                "ref:rspo": 264553,
                "official_name": "Hocki Klocki Przedszkole Niepubliczne",
                "name": "Hocki Klocki Przedszkole Niepubliczne",
                "addr:country": "PL",
                "addr:postcode": "80-297",
                "addr:city": "Banino",
                "addr:street": "Miodowa",
                "addr:housenumber": "26",
                "addr:teryt:simc": 12991,
                "addr:teryt:sym_ul": 177112,
                "contact:phone": "+48 730282424",
                "contact:email": "jrzesna@wp.pl",
                "ref:regon": "368375195",
                "operator": "Joanna Rze\u015bna",
                "operator:type": "private",
                "amenity": "kindergarten"
            }
        },
        {
            "id": 269077,
            "type": "Feature",
            "geometry": {
                "type": "Point",
                "coordinates": [
                    18.38712,
                    54.38672
                ]
            },
            "properties": {
                "ref:rspo": 269077,
                "official_name": "Punkt Przedszkolny Misie Tulisie",
                "name": "Punkt Przedszkolny Misie Tulisie",
                "addr:country": "PL",
                "addr:postcode": "80-297",
                "addr:city": "Banino",
                "addr:street": "Rolnicza",
                "addr:housenumber": "93",
                "addr:teryt:simc": 18821,
                "addr:teryt:sym_ul": 177112,
                "contact:email": "achilewska@pegaz.la",
                "contact:website": "http:\/\/www.misietulisie.com.pl",
                "ref:regon": "381360424",
                "ref:vatin": "PL9581663674",
                "operator": "Pegaz.la Sp\u00f3\u0142ka Z Ograniczon\u0105 Odpowiedzialno\u015bci\u0105",
                "operator:type": "private",
                "amenity": "kindergarten"
            }
        },
        {
            "id": 122539,
            "type": "Feature",
            "geometry": {
                "type": "Point",
                "coordinates": [
                    18.4233699,
                    54.38692
                ]
            },
            "properties": {
                "ref:rspo": 122539,
                "official_name": "Punkt Przedszkolny Przystanek Przygoda w R\u0119biechowie",
                "name": "Punkt Przedszkolny Przystanek Przygoda w R\u0119biechowie",
                "addr:country": "PL",
                "addr:postcode": "80-297",
                "addr:city": "R\u0119biechowo",
                "addr:street": "Gda\u0144ska",
                "addr:housenumber": "28",
                "addr:teryt:simc": 5431,
                "addr:teryt:sym_ul": 177448,
                "contact:phone": "+48 505689540",
                "contact:email": "sylwiafrank1990@o2.pl",
                "ref:regon": "222053303",
                "operator": "Sylwia Tarasiuk",
                "operator:type": "private",
                "amenity": "kindergarten"
            }
        },
        {
            "id": 266063,
            "type": "Feature",
            "geometry": {
                "type": "Point",
                "coordinates": [
                    18.40596,
                    54.38932
                ]
            },
            "properties": {
                "ref:rspo": 266063,
                "official_name": "Przedszkole Niepubliczne Przedszkolandia",
                "name": "Przedszkole Niepubliczne Przedszkolandia",
                "addr:country": "PL",
                "addr:postcode": "80-297",
                "addr:city": "Banino",
                "addr:street": "Lipowa",
                "addr:housenumber": "4",
                "addr:teryt:simc": 11139,
                "addr:teryt:sym_ul": 177112,
                "contact:phone": "+48 513031070",
                "contact:email": "przedszkolandia.banino@wp.pl",
                "contact:website": "http:\/\/www.przedszkolandiabanino.com.pl",
                "ref:regon": "369216493",
                "operator": "Anna Ankier",
                "operator:type": "private",
                "amenity": "kindergarten"
            }
        },
        {
            "id": 271856,
            "type": "Feature",
            "geometry": {
                "type": "Point",
                "coordinates": [
                    18.36224,
                    54.39035
                ]
            },
            "properties": {
                "ref:rspo": 271856,
                "official_name": "Przedszkole Niepubliczne \"Radosna Akademia\"",
                "name": "Przedszkole Niepubliczne \"Radosna Akademia\"",
                "addr:country": "PL",
                "addr:postcode": "80-297",
                "addr:city": "Miszewo",
                "addr:street": "Lotnicza",
                "addr:housenumber": "17",
                "addr:teryt:simc": 11270,
                "addr:teryt:sym_ul": 177313,
                "contact:phone": "+48 576000419",
                "contact:email": "radosna.akademia.miszewo@gmail.com",
                "ref:regon": "383695927",
                "operator": "Anna Miko\u0142ajczyk",
                "operator:type": "private",
                "amenity": "kindergarten"
            }
        },
        {
            "id": 127317,
            "type": "Feature",
            "geometry": {
                "type": "Point",
                "coordinates": [
                    18.41141,
                    54.3907
                ]
            },
            "properties": {
                "ref:rspo": 127317,
                "official_name": "Poradnia Psychologiczno-Pedagogiczna Pegaz",
                "name": "Poradnia Psychologiczno-Pedagogiczna Pegaz",
                "addr:country": "PL",
                "addr:postcode": "80-297",
                "addr:city": "Banino",
                "addr:street": "Lotnicza",
                "addr:housenumber": "15",
                "addr:teryt:simc": 11270,
                "addr:teryt:sym_ul": 177112,
                "contact:phone": "+48 730960690",
                "contact:email": "rejestracjabanino@pegaz.la",
                "contact:website": "http:\/\/www.pegaz.la",
                "ref:regon": "361349622",
                "operator": "Pegaz.la Sp\u00f3\u0142ka Z Ograniczon\u0105 Odpowiedzialno\u015bci\u0105",
                "operator:type": "private",
                "healthcare": "counselling",
                "counselling_type": "education",
                "fixme": "w zale\u017cno\u015bci od przedmiotu dzia\u0142alno\u015bci (np. healthcare=counselling + counselling_type=education albo healthcare=psychotherapist)"
            }
        },
        {
            "id": 120633,
            "type": "Feature",
            "geometry": {
                "type": "Point",
                "coordinates": [
                    18.40249,
                    54.39457
                ]
            },
            "properties": {
                "ref:rspo": 120633,
                "official_name": "Przedszkole Artystyczno - J\u0119zykowe 'T\u0119czowa Przygoda\"",
                "name": "Przedszkole Artystyczno - J\u0119zykowe 'T\u0119czowa Przygoda\"",
                "addr:country": "PL",
                "addr:postcode": "80-297",
                "addr:city": "Banino",
                "addr:street": "Borowiecka",
                "addr:housenumber": "9",
                "addr:teryt:simc": 1854,
                "addr:teryt:sym_ul": 177112,
                "contact:phone": "+48 511390456",
                "contact:email": "przedszkoleteczowaprzygoda@wp.pl",
                "ref:regon": "221974722",
                "operator": "Ryszard Ustowski",
                "operator:type": "private",
                "amenity": "kindergarten"
            }
        },
        {
            "id": 40995,
            "type": "Feature",
            "geometry": {
                "type": "Point",
                "coordinates": [
                    18.40819,
                    54.39579
                ]
            },
            "properties": {
                "ref:rspo": 40995,
                "official_name": "Przedszkole Niezapominajka",
                "name": "Przedszkole Niezapominajka",
                "addr:country": "PL",
                "addr:postcode": "80-297",
                "addr:city": "Banino",
                "addr:street": "Sosnowa",
                "addr:housenumber": "17",
                "addr:teryt:simc": 20598,
                "addr:teryt:sym_ul": 177112,
                "contact:phone": "+48 601255995",
                "contact:email": "biuro@przedszkolebanino.pl",
                "contact:website": "http:\/\/www.przedszkolebanino.pl",
                "ref:regon": "221760346",
                "operator": "Pomorskie Centrum Edukacji - Sp\u00f3\u0142ka Z Ograniczon\u0105 Odpowiedzialno\u015bci\u0105",
                "operator:type": "private",
                "amenity": "kindergarten"
            }
        },
        {
            "id": 133398,
            "type": "Feature",
            "geometry": {
                "type": "Point",
                "coordinates": [
                    18.40819,
                    54.395759999999996
                ]
            },
            "properties": {
                "ref:rspo": 133398,
                "official_name": "Pomorska Specjalistyczna Poradnia Psychologiczno-Pedagogiczna",
                "name": "Pomorska Specjalistyczna Poradnia Psychologiczno-Pedagogiczna",
                "addr:country": "PL",
                "addr:postcode": "80-297",
                "addr:city": "Banino",
                "addr:street": "Sosnowa",
                "addr:housenumber": "17",
                "addr:teryt:simc": 20598,
                "addr:teryt:sym_ul": 177112,
                "contact:phone": "+48 691355365",
                "contact:email": "pce@onet.pl",
                "ref:regon": "367212953",
                "operator": "Pomorskie Centrum Edukacji - Sp\u00f3\u0142ka Z Ograniczon\u0105 Odpowiedzialno\u015bci\u0105",
                "operator:type": "private",
                "healthcare": "counselling",
                "counselling_type": "education",
                "fixme": "w zale\u017cno\u015bci od przedmiotu dzia\u0142alno\u015bci (np. healthcare=counselling + counselling_type=education albo healthcare=psychotherapist)"
            }
        },
        {
            "id": 275408,
            "type": "Feature",
            "geometry": {
                "type": "Point",
                "coordinates": [
                    18.40819,
                    54.39573
                ]
            },
            "properties": {
                "isced:level": "1;2",
                "ref:rspo": 275408,
                "official_name": "\"Otwarta\" Niepubliczna Szko\u0142a Podstawowa Nr 1",
                "name": "\"Otwarta\" Niepubliczna Szko\u0142a Podstawowa Nr 1",
                "addr:country": "PL",
                "addr:postcode": "80-297",
                "addr:city": "Banino",
                "addr:street": "Sosnowa",
                "addr:housenumber": "17",
                "addr:teryt:simc": 20598,
                "addr:teryt:sym_ul": 177112,
                "contact:email": "pce@onet.pl",
                "ref:regon": "386930493",
                "operator": "Pomorskie Centrum Edukacji - Sp\u00f3\u0142ka Z Ograniczon\u0105 Odpowiedzialno\u015bci\u0105",
                "operator:type": "private",
                "amenity": "school"
            }
        },
        {
            "id": 70945,
            "type": "Feature",
            "geometry": {
                "type": "Point",
                "coordinates": [
                    18.39993,
                    54.3959
                ]
            },
            "properties": {
                "isced:level": "1;2",
                "ref:rspo": 70945,
                "official_name": "Szko\u0142a Podstawowa im. Ks. Pra\u0142ata J\u00f3zefa Bigusa w Baninie",
                "name": "Szko\u0142a Podstawowa",
                "addr:country": "PL",
                "addr:postcode": "80-297",
                "addr:city": "Banino",
                "addr:street": "Tuchomska",
                "addr:housenumber": "15",
                "addr:teryt:simc": 23118,
                "addr:teryt:sym_ul": 177112,
                "contact:phone": "+48 586818920",
                "contact:email": "dyrektor@spbanino.pl",
                "contact:website": "http:\/\/spbanino.pl",
                "ref:regon": "190390120",
                "ref:vatin": "PL5892019051",
                "operator": "Gmina \u017bukowo",
                "operator:type": "government",
                "amenity": "school"
            }
        },
        {
            "id": 269332,
            "type": "Feature",
            "geometry": {
                "type": "Point",
                "coordinates": [
                    18.38076,
                    54.39814
                ]
            },
            "properties": {
                "ref:rspo": 269332,
                "official_name": "Niepubliczne Przedszkole Fiku Miku",
                "name": "Niepubliczne Przedszkole Fiku Miku",
                "addr:country": "PL",
                "addr:postcode": "80-297",
                "addr:city": "D\u0105browa",
                "addr:street": "Admira\u0142a Andrzeja Karwety",
                "addr:housenumber": "31",
                "addr:teryt:simc": 42610,
                "addr:teryt:sym_ul": 177299,
                "contact:phone": "+48 519082878",
                "contact:email": "darekrek1987@gmail.com",
                "ref:regon": "381438037",
                "operator": "Dariusz Kruszy\u0144ski",
                "operator:type": "private",
                "amenity": "kindergarten"
            }
        },
        {
            "id": 276510,
            "type": "Feature",
            "geometry": {
                "type": "Point",
                "coordinates": [
                    18.3577081,
                    54.3986808
                ]
            },
            "properties": {
                "ref:rspo": 276510,
                "official_name": "Little Explorers Montessori Preschool",
                "name": "Little Explorers Montessori Preschool",
                "addr:country": "PL",
                "addr:postcode": "80-297",
                "addr:city": "Miszewko",
                "addr:street": "Kaszubska",
                "addr:housenumber": "1",
                "addr:teryt:simc": 8183,
                "addr:teryt:sym_ul": 177282,
                "contact:email": "kontakt@little-explorers.pl",
                "ref:regon": "387193000",
                "operator": "Le\u015bny Instytut Montessori",
                "operator:type": "ngo",
                "amenity": "kindergarten"
            }
        },
        {
            "id": 264551,
            "type": "Feature",
            "geometry": {
                "type": "Point",
                "coordinates": [
                    18.39599,
                    54.40994
                ]
            },
            "properties": {
                "ref:rspo": 264551,
                "official_name": "Domowe Przedszkole",
                "name": "Domowe Przedszkole",
                "addr:country": "PL",
                "addr:postcode": "80-297",
                "addr:city": "Banino",
                "addr:street": "Tuchomska",
                "addr:housenumber": "113A",
                "addr:teryt:simc": 23118,
                "addr:teryt:sym_ul": 177112,
                "contact:phone": "+48 575314312",
                "contact:email": "graceland@op.pl",
                "contact:website": "https:\/\/domowe-przedszkole.info\/",
                "ref:regon": "368375210",
                "operator": "Gra\u017cyna Mi\u0105skowska",
                "operator:type": "private",
                "amenity": "kindergarten"
            }
        },
        {
            "id": 269323,
            "type": "Feature",
            "geometry": {
                "type": "Point",
                "coordinates": [
                    18.44577,
                    54.41692
                ]
            },
            "properties": {
                "ref:rspo": 269323,
                "official_name": "Punkt Przedszkolny Zielona Kraina Montessori",
                "name": "Punkt Przedszkolny Zielona Kraina Montessori",
                "addr:country": "PL",
                "addr:postcode": "84-299",
                "addr:city": "Nowy \u015awiat",
                "addr:street": "Witra\u017cowa",
                "addr:housenumber": "6",
                "addr:teryt:simc": 34206,
                "addr:teryt:sym_ul": 177141,
                "contact:email": "poczta@zielonakrainamontessori.pl",
                "contact:website": "http:\/\/zielonakrainamontessori.pl",
                "ref:regon": "381437954",
                "operator": "Ewa Ga\u0142ka",
                "operator:type": "private",
                "amenity": "kindergarten"
            }
        },
        {
            "id": 15206,
            "type": "Feature",
            "geometry": {
                "type": "Point",
                "coordinates": [
                    18.39028,
                    54.42929
                ]
            },
            "properties": {
                "isced:level": "1;2",
                "ref:rspo": 15206,
                "official_name": "Szko\u0142a Podstawowa w Tuchomiu",
                "name": "Szko\u0142a Podstawowa w Tuchomiu",
                "addr:country": "PL",
                "addr:postcode": "80-209",
                "addr:city": "Tuchom",
                "addr:street": "Gdy\u0144ska",
                "addr:housenumber": "106",
                "addr:teryt:simc": 5441,
                "addr:teryt:sym_ul": 177477,
                "contact:phone": "+48 585528093",
                "contact:email": "sptuchom@wp.pl",
                "contact:website": "http:\/\/www.sptuchom.szkolnastrona.pl",
                "ref:regon": "190392254",
                "ref:vatin": "PL5891640458",
                "operator": "Gmina \u017bukowo",
                "operator:type": "government",
                "amenity": "school"
            }
        },
        {
            "id": 69915,
            "type": "Feature",
            "geometry": {
                "type": "Point",
                "coordinates": [
                    18.3917,
                    54.4301
                ]
            },
            "properties": {
                "ref:rspo": 69915,
                "official_name": "Niepubliczne Przedszkole \"Oxfordzik\"",
                "name": "Niepubliczne Przedszkole \"Oxfordzik\"",
                "addr:country": "PL",
                "addr:postcode": "80-209",
                "addr:city": "Tuchom",
                "addr:street": "Gdy\u0144ska",
                "addr:housenumber": "110",
                "addr:teryt:simc": 5441,
                "addr:teryt:sym_ul": 177477,
                "contact:phone": "+48 585227271",
                "contact:email": "biuro@oxfordzik.com.pl",
                "contact:website": "http:\/\/oxfordzik.com.pl",
                "ref:regon": "221771960",
                "operator": "Dagmara Lewicka - Klimek",
                "operator:type": "private",
                "amenity": "kindergarten"
            }
        },
        {
            "id": 125363,
            "type": "Feature",
            "geometry": {
                "type": "Point",
                "coordinates": [
                    18.40525,
                    54.43814
                ]
            },
            "properties": {
                "ref:rspo": 125363,
                "official_name": "Przedszkole I \u017b\u0142obek Bocianowo Sp\u00f3\u0142ka Z Ograniczon\u0105 Odpowiedzialno\u015bci\u0105",
                "name": "Przedszkole I \u017b\u0142obek Bocianowo Sp\u00f3\u0142ka Z Ograniczon\u0105 Odpowiedzialno\u015bci\u0105",
                "addr:country": "PL",
                "addr:postcode": "83-330",
                "addr:city": "\u017bukowo",
                "addr:street": "Boles\u0142awa Prusa",
                "addr:housenumber": "35",
                "addr:teryt:simc": 28169,
                "addr:teryt:sym_ul": 935127,
                "contact:phone": "+48 607306901",
                "contact:email": "biuro@nieruchomoscizukowo.pl",
                "ref:regon": "222169359",
                "operator": "Przedszkole I \u017b\u0142obek Bocianowo Sp\u00f3\u0142ka Z Ograniczon\u0105 Odpowiedzialno\u015bci\u0105",
                "operator:type": "private",
                "amenity": "kindergarten"
            }
        },
        {
            "id": 59829,
            "type": "Feature",
            "geometry": {
                "type": "Point",
                "coordinates": [
                    18.4177399,
                    54.43989
                ]
            },
            "properties": {
                "isced:level": "1;2",
                "ref:rspo": 59829,
                "official_name": "Szko\u0142a Podstawowa im. Adama Mickiewicza w Chwaszczynie",
                "name": "Szko\u0142a Podstawowa",
                "addr:country": "PL",
                "addr:postcode": "80-209",
                "addr:city": "Chwaszczyno",
                "addr:street": "Adama Mickiewicza",
                "addr:housenumber": "16",
                "addr:teryt:simc": 12740,
                "addr:teryt:sym_ul": 177170,
                "contact:phone": "+48 585528010",
                "contact:email": "zschwaszczyno@poczta.wp.pl",
                "contact:website": "http:\/\/www.chwaszczyno.edu.pl",
                "ref:regon": "220028241",
                "ref:vatin": "PL5891680110",
                "operator": "Gmina \u017bukowo",
                "operator:type": "government",
                "amenity": "school"
            }
        },
        {
            "id": 26973,
            "type": "Feature",
            "geometry": {
                "type": "Point",
                "coordinates": [
                    18.4228099,
                    54.44507
                ]
            },
            "properties": {
                "ref:rspo": 26973,
                "official_name": "Przedszkole Niepubliczne Smoczek",
                "name": "Przedszkole Niepubliczne Smoczek",
                "addr:country": "PL",
                "addr:postcode": "80-209",
                "addr:city": "Chwaszczyno",
                "addr:street": "Wiejska",
                "addr:housenumber": "20",
                "addr:door": "A",
                "addr:teryt:simc": 24048,
                "addr:teryt:sym_ul": 177170,
                "contact:phone": "+48 585227241",
                "contact:email": "bosiecka@wp.pl",
                "contact:website": "http:\/\/www.przedszkolechwaszczyno.edu.pl",
                "ref:regon": "221756600",
                "operator": "Bo\u017cena Osiecka",
                "operator:type": "private",
                "amenity": "kindergarten"
            }
        }
    ]
}