{
    "type": "FeatureCollection",
    "features": [
        {
            "id": 69913,
            "type": "Feature",
            "geometry": {
                "type": "Point",
                "coordinates": [
                    18.37248,
                    54.37805
                ]
            },
            "properties": {
                "isced:level": "1;2",
                "ref:rspo": 69913,
                "official_name": "Szko\u0142a Podstawowa w Wilanowie",
                "name": "Szko\u0142a Podstawowa w Wilanowie",
                "addr:postcode": "83-305",
                "addr:city": "Wilanowo",
                "addr:street": "G\u00f3rna",
                "addr:housenumber": "2",
                "addr:teryt:simc": 169472,
                "addr:teryt:sym_ul": 5948,
                "phone": "+48 586815097",
                "email": "spwilanowo@wp.pl",
                "website": "http:\/\/www.spwilanowo.edupage.org",
                "ref:regon": "190943085",
                "ref:vatin": "PL5891875664",
                "operator": "Gmina Przodkowo",
                "operator:type": "government",
                "amenity": "school"
            }
        },
        {
            "id": 53129,
            "type": "Feature",
            "geometry": {
                "type": "Point",
                "coordinates": [
                    18.29103,
                    54.38111
                ]
            },
            "properties": {
                "ref:rspo": 53129,
                "official_name": "Przedszkole Samorz\u0105dowe w Przodkowie",
                "name": "Przedszkole Samorz\u0105dowe w Przodkowie",
                "addr:postcode": "83-304",
                "addr:city": "Przodkowo",
                "addr:street": "Sportowa",
                "addr:housenumber": "12",
                "addr:teryt:simc": 169680,
                "addr:teryt:sym_ul": 20683,
                "phone": "+48 586819783",
                "email": "przedszkoleswp@onet.eu",
                "website": "http:\/\/www.psprzodkowo.pl",
                "ref:regon": "190581682",
                "ref:vatin": "PL5891876149",
                "operator": "Gmina Przodkowo",
                "operator:type": "government",
                "amenity": "kindergarten"
            }
        },
        {
            "id": 80228,
            "type": "Feature",
            "geometry": {
                "type": "Point",
                "coordinates": [
                    18.29103,
                    54.38108
                ]
            },
            "properties": {
                "isced:level": "1;2",
                "ref:rspo": 80228,
                "official_name": "Szko\u0142a Podstawowa w Przodkowie",
                "name": "Szko\u0142a Podstawowa w Przodkowie",
                "addr:postcode": "83-304",
                "addr:city": "Przodkowo",
                "addr:street": "Sportowa",
                "addr:housenumber": "12",
                "addr:teryt:simc": 169680,
                "addr:teryt:sym_ul": 20683,
                "phone": "+48 586819793",
                "email": "zsprzodkowo@wp.pl",
                "website": "http:\/\/www.szkolaprzodkowo.cba.pl",
                "ref:regon": "190943033",
                "ref:vatin": "PL5891875629",
                "operator": "Gmina Przodkowo",
                "operator:type": "government",
                "amenity": "school"
            }
        },
        {
            "id": 31123,
            "type": "Feature",
            "geometry": {
                "type": "Point",
                "coordinates": [
                    18.28906,
                    54.38354
                ]
            },
            "properties": {
                "ref:rspo": 31123,
                "official_name": "Powiatowy Zesp\u00f3\u0142 Szk\u00f3\u0142 w Przodkowie",
                "name": "Powiatowy Zesp\u00f3\u0142 Szk\u00f3\u0142 w Przodkowie",
                "addr:postcode": "83-304",
                "addr:city": "Przodkowo",
                "addr:street": "Bursztynowa",
                "addr:housenumber": "3",
                "addr:teryt:simc": 169680,
                "addr:teryt:sym_ul": 2462,
                "phone": "+48 586819695",
                "email": "zsaprzodkowo@wp.pl",
                "website": "http:\/\/www.zspprzodkowo.pl",
                "ref:regon": "000743623",
                "ref:vatin": "PL5891321581",
                "operator": "Powiat Kartuski",
                "operator:type": "government",
                "landuse": "education",
                "fixme": "amenity=school, amenity=college albo landuse=education w zale\u017cno\u015bci od tego, jakie plac\u00f3wki wchodz\u0105 w sk\u0142ad zespo\u0142u. Sprawd\u017a, kiedy stosowa\u0107 amenity=* a kiedy landuse=education.",
                "note": "Children RSPO: 38703;38704"
            }
        },
        {
            "id": 38703,
            "type": "Feature",
            "geometry": {
                "type": "Point",
                "coordinates": [
                    18.28906,
                    54.38351
                ]
            },
            "properties": {
                "isced:level": "3",
                "ref:rspo": 38703,
                "official_name": "Powiatowy Zesp\u00f3\u0142 Szk\u00f3\u0142 w Przodkowie, Bran\u017cowa Szko\u0142a I Stopnia w Przodkowie",
                "name": "Powiatowy Zesp\u00f3\u0142 Szk\u00f3\u0142 w Przodkowie, Bran\u017cowa Szko\u0142a I Stopnia w Przodkowie",
                "addr:postcode": "83-304",
                "addr:city": "Przodkowo",
                "addr:street": "Bursztynowa",
                "addr:housenumber": "3",
                "addr:teryt:simc": 169680,
                "addr:teryt:sym_ul": 2462,
                "phone": "+48 586819695",
                "email": "zsaprzodkowo@wp.pl",
                "website": "http:\/\/www.zspprzodkowo.pl",
                "ref:regon": "192777455",
                "operator": "Powiat Kartuski",
                "operator:type": "government",
                "amenity": "school",
                "note": "Parent RSPO: 31123"
            }
        },
        {
            "id": 38704,
            "type": "Feature",
            "geometry": {
                "type": "Point",
                "coordinates": [
                    18.28906,
                    54.383480000000006
                ]
            },
            "properties": {
                "isced:level": "3",
                "ref:rspo": 38704,
                "official_name": "Powiatowy Zesp\u00f3\u0142 Szk\u00f3\u0142 w Przodkowie, Technikum im. Rotmistrza Witolda Pileckiego w Przodkowie",
                "name": "Powiatowy Zesp\u00f3\u0142 Szk\u00f3\u0142 w Przodkowie, Technikum",
                "addr:postcode": "83-304",
                "addr:city": "Przodkowo",
                "addr:street": "Bursztynowa",
                "addr:housenumber": "3",
                "addr:teryt:simc": 169680,
                "addr:teryt:sym_ul": 2462,
                "phone": "+48 586819695",
                "email": "zsaprzodkowo@wp.pl",
                "website": "http:\/\/www.zspprzodkowo.pl",
                "ref:regon": "192777432",
                "operator": "Powiat Kartuski",
                "operator:type": "government",
                "amenity": "school",
                "note": "Parent RSPO: 31123"
            }
        },
        {
            "id": 53128,
            "type": "Feature",
            "geometry": {
                "type": "Point",
                "coordinates": [
                    18.3966324,
                    54.3904969
                ]
            },
            "properties": {
                "isced:level": "1;2",
                "ref:rspo": 53128,
                "official_name": "Szko\u0142a Podstawowa w Szar\u0142acie",
                "name": "Szko\u0142a Podstawowa w Szar\u0142acie",
                "addr:postcode": "83-305",
                "addr:city": "Szar\u0142ata",
                "addr:street": "Wsp\u00f3lna",
                "addr:housenumber": "32",
                "addr:teryt:simc": 169762,
                "addr:teryt:sym_ul": 24885,
                "phone": "+48 586815148",
                "email": "sp.szarlata@wp.pl",
                "website": "http:\/\/www.sp-szarlata.edupage.org",
                "ref:regon": "190943056",
                "ref:vatin": "PL5891875641",
                "operator": "Gmina Przodkowo",
                "operator:type": "government",
                "amenity": "school"
            }
        },
        {
            "id": 80229,
            "type": "Feature",
            "geometry": {
                "type": "Point",
                "coordinates": [
                    18.21352,
                    54.4082
                ]
            },
            "properties": {
                "isced:level": "1;2",
                "ref:rspo": 80229,
                "official_name": "Szko\u0142a Podstawowa im. Ks. Bronis\u0142awa Szymichowskiego w Pomieczynie",
                "name": "Szko\u0142a Podstawowa",
                "addr:postcode": "83-305",
                "addr:city": "Pomieczyno",
                "addr:street": "Kartuska",
                "addr:housenumber": "14",
                "addr:teryt:simc": 169650,
                "addr:teryt:sym_ul": 8124,
                "phone": "+48 586815020",
                "email": "zspomieczyno@wp.pl",
                "website": "http:\/\/www.zspomieczyno.szkolna.net",
                "ref:regon": "190943062",
                "ref:vatin": "PL5891875658",
                "operator": "Gmina Przodkowo",
                "operator:type": "government",
                "amenity": "school"
            }
        },
        {
            "id": 263832,
            "type": "Feature",
            "geometry": {
                "type": "Point",
                "coordinates": [
                    18.32039,
                    54.4132
                ]
            },
            "properties": {
                "ref:rspo": 263832,
                "official_name": "Niepubliczne Przedszkole Happy Children",
                "name": "Niepubliczne Przedszkole Happy Children",
                "addr:postcode": "83-304",
                "addr:city": "Przodkowo",
                "addr:street": "Gda\u0144ska",
                "addr:housenumber": "22",
                "addr:teryt:simc": 169680,
                "addr:teryt:sym_ul": 5431,
                "email": "happychildren@wp.pl",
                "website": "http:\/\/www.happychildren.pl",
                "ref:regon": "368229536",
                "ref:vatin": "PL5891804397",
                "operator": "Magdalena Stromska",
                "operator:type": "private",
                "amenity": "kindergarten"
            }
        },
        {
            "id": 80232,
            "type": "Feature",
            "geometry": {
                "type": "Point",
                "coordinates": [
                    18.31447,
                    54.41369
                ]
            },
            "properties": {
                "isced:level": "1;2",
                "ref:rspo": 80232,
                "official_name": "Szko\u0142a Podstawowa im. Jana Paw\u0142a II w Czeczewie",
                "name": "Szko\u0142a Podstawowa",
                "addr:postcode": "84-208",
                "addr:city": "Czeczewo",
                "addr:street": "Gda\u0144ska",
                "addr:housenumber": "8",
                "addr:teryt:simc": 169489,
                "addr:teryt:sym_ul": 5431,
                "email": "belfer_czeczewo@wp.pl",
                "website": "http:\/\/www.czeczewo.pl",
                "ref:regon": "190943040",
                "ref:vatin": "PL5891875635",
                "operator": "Gmina Przodkowo",
                "operator:type": "government",
                "amenity": "school"
            }
        }
    ]
}