{
    "type": "FeatureCollection",
    "features": [
        {
            "id": 85221,
            "type": "Feature",
            "geometry": {
                "type": "Point",
                "coordinates": [
                    16.0673299,
                    50.6700299
                ]
            },
            "properties": {
                "ref:rspo": 85221,
                "official_name": "Zesp\u00f3\u0142 Szkolno-Przedszkolny w Che\u0142msku \u015aL\u0105skim",
                "name": "Zesp\u00f3\u0142 Szkolno-Przedszkolny w Che\u0142msku \u015aL\u0105skim",
                "addr:postcode": "58-420",
                "addr:city": "Che\u0142msko \u015al\u0105skie",
                "addr:street": "Kolonia",
                "addr:housenumber": "14",
                "addr:teryt:simc": 190472,
                "addr:teryt:sym_ul": 8851,
                "phone": "+48 757422116",
                "email": "zsp_chelmsko_slaskie@wp.pl",
                "website": "http:\/\/sp.chelmsko.eu",
                "ref:regon": "020345539",
                "ref:vatin": "PL6141566600",
                "operator": "Gmina Lubawka",
                "operator:type": "government",
                "landuse": "education",
                "fixme": "amenity=school, amenity=college albo landuse=education w zale\u017cno\u015bci od tego, jakie plac\u00f3wki wchodz\u0105 w sk\u0142ad zespo\u0142u. Sprawd\u017a, kiedy stosowa\u0107 amenity=* a kiedy landuse=education.",
                "note": "Children RSPO: 108800;108809"
            }
        },
        {
            "id": 108800,
            "type": "Feature",
            "geometry": {
                "type": "Point",
                "coordinates": [
                    16.0673299,
                    50.6699999
                ]
            },
            "properties": {
                "isced:level": "1;2",
                "ref:rspo": 108800,
                "official_name": "Szko\u0142a Podstawowa Im Tkaczy Che\u0142mskich w Che\u0142msku \u015aL\u0105skim",
                "name": "Szko\u0142a Podstawowa Im Tkaczy Che\u0142mskich w Che\u0142msku \u015aL\u0105skim",
                "addr:postcode": "58-420",
                "addr:city": "Che\u0142msko \u015al\u0105skie",
                "addr:street": "Kolonia",
                "addr:housenumber": "14",
                "addr:teryt:simc": 190472,
                "addr:teryt:sym_ul": 8851,
                "phone": "+48 757422116",
                "email": "zsp_chelmsko_slaskie@wp.pl",
                "ref:regon": "001179018",
                "operator": "Gmina Lubawka",
                "operator:type": "government",
                "amenity": "school",
                "note": "Parent RSPO: 85221"
            }
        },
        {
            "id": 108809,
            "type": "Feature",
            "geometry": {
                "type": "Point",
                "coordinates": [
                    16.0673299,
                    50.669969900000005
                ]
            },
            "properties": {
                "ref:rspo": 108809,
                "official_name": "Przedszkole Publiczne Im Tkaczy Che\u0142mskich w Che\u0142msku \u015aL\u0105skim",
                "name": "Przedszkole Publiczne Im Tkaczy Che\u0142mskich w Che\u0142msku \u015aL\u0105skim",
                "addr:postcode": "58-420",
                "addr:city": "Che\u0142msko \u015al\u0105skie",
                "addr:street": "Kolonia",
                "addr:housenumber": "14",
                "addr:teryt:simc": 190472,
                "addr:teryt:sym_ul": 8851,
                "phone": "+48 757422116",
                "email": "pchelmsko@onet.pl",
                "ref:regon": "230925300",
                "operator": "Gmina Lubawka",
                "operator:type": "government",
                "amenity": "kindergarten",
                "note": "Parent RSPO: 85221"
            }
        },
        {
            "id": 16858,
            "type": "Feature",
            "geometry": {
                "type": "Point",
                "coordinates": [
                    16.01359,
                    50.69717
                ]
            },
            "properties": {
                "ref:rspo": 16858,
                "official_name": "Niepubliczne Szkolne Schronisko M\u0142odzie\u017cowe \"Lubawka\"",
                "name": "Niepubliczne Szkolne Schronisko M\u0142odzie\u017cowe \"Lubawka\"",
                "addr:postcode": "58-420",
                "addr:city": "Lubawka",
                "addr:street": "Szymrychowska",
                "addr:housenumber": "23",
                "addr:teryt:simc": 936180,
                "addr:teryt:sym_ul": 22265,
                "phone": "+48 757411515",
                "email": "tpd-jg@interia.pl",
                "ref:regon": "021972379",
                "operator": "Towarzystwo Przyjaci\u00f3\u0142 Dzieci Dolno\u015bl\u0105ski Oddzia\u0142 Regionalny",
                "operator:type": "ngo",
                "tourism": "hostel"
            }
        },
        {
            "id": 75170,
            "type": "Feature",
            "geometry": {
                "type": "Point",
                "coordinates": [
                    15.99826,
                    50.6997
                ]
            },
            "properties": {
                "ref:rspo": 75170,
                "official_name": "Zesp\u00f3\u0142 Szkolno-Przedszkolny w Lubawce",
                "name": "Zesp\u00f3\u0142 Szkolno-Przedszkolny w Lubawce",
                "addr:postcode": "58-420",
                "addr:city": "Lubawka",
                "addr:street": "Adama Mickiewicza",
                "addr:housenumber": "4",
                "addr:teryt:simc": 936180,
                "addr:teryt:sym_ul": 12734,
                "phone": "+48 757411762",
                "email": "zsp.lubawka@lubawka.eu",
                "website": "http:\/\/sp.lubawka.eu",
                "ref:regon": "020345462",
                "ref:vatin": "PL6141566592",
                "operator": "Gmina Lubawka",
                "operator:type": "government",
                "landuse": "education",
                "fixme": "amenity=school, amenity=college albo landuse=education w zale\u017cno\u015bci od tego, jakie plac\u00f3wki wchodz\u0105 w sk\u0142ad zespo\u0142u. Sprawd\u017a, kiedy stosowa\u0107 amenity=* a kiedy landuse=education.",
                "note": "Children RSPO: 107727;107733"
            }
        },
        {
            "id": 107727,
            "type": "Feature",
            "geometry": {
                "type": "Point",
                "coordinates": [
                    15.99826,
                    50.69967
                ]
            },
            "properties": {
                "isced:level": "1;2",
                "ref:rspo": 107727,
                "official_name": "Szko\u0142a Podstawowa Im \u017bo\u0142nierzy Sybiru",
                "name": "Szko\u0142a Podstawowa Im \u017bo\u0142nierzy Sybiru",
                "addr:postcode": "58-420",
                "addr:city": "Lubawka",
                "addr:street": "Adama Mickiewicza",
                "addr:housenumber": "4",
                "addr:teryt:simc": 936180,
                "addr:teryt:sym_ul": 12734,
                "phone": "+48 757411762",
                "email": "zsp.lubawka@lubawka.eu",
                "website": "http:\/\/sp.lubawka.eu",
                "ref:regon": "001179490",
                "operator": "Gmina Lubawka",
                "operator:type": "government",
                "amenity": "school",
                "note": "Parent RSPO: 75170"
            }
        },
        {
            "id": 107733,
            "type": "Feature",
            "geometry": {
                "type": "Point",
                "coordinates": [
                    16.00435,
                    50.70235
                ]
            },
            "properties": {
                "ref:rspo": 107733,
                "official_name": "Przedszkole Publicznew Lubawce",
                "name": "Przedszkole Publicznew Lubawce",
                "addr:postcode": "58-420",
                "addr:city": "Lubawka",
                "addr:street": "Szymrychowska",
                "addr:housenumber": "7",
                "addr:teryt:simc": 936180,
                "addr:teryt:sym_ul": 22265,
                "phone": "+48 757411620",
                "email": "zsp.lubawka@lubawka.eu",
                "website": "http:\/\/www.przedszkole.lubawka.eu",
                "ref:regon": "230925263",
                "operator": "Gmina Lubawka",
                "operator:type": "government",
                "amenity": "kindergarten",
                "note": "Parent RSPO: 75170"
            }
        },
        {
            "id": 86517,
            "type": "Feature",
            "geometry": {
                "type": "Point",
                "coordinates": [
                    15.914207,
                    50.720507
                ]
            },
            "properties": {
                "isced:level": "1;2",
                "ref:rspo": 86517,
                "official_name": "Szko\u0142a Podstawowa",
                "name": "Szko\u0142a Podstawowa",
                "addr:postcode": "58-420",
                "addr:place": "Miszkowice",
                "addr:housenumber": "8",
                "addr:teryt:simc": 190495,
                "phone": "+48 757426668",
                "email": "szkolamiszkowice@op.pl",
                "website": "http:\/\/www.sp.miszkowice.eu",
                "ref:regon": "001179024",
                "ref:vatin": "PL6141556671",
                "operator": "Gmina Lubawka",
                "operator:type": "government",
                "amenity": "school"
            }
        }
    ]
}