{
    "type": "FeatureCollection",
    "features": [
        {
            "id": 69383,
            "type": "Feature",
            "geometry": {
                "type": "Point",
                "coordinates": [
                    19.88949,
                    49.28919
                ]
            },
            "properties": {
                "ref:rspo": 69383,
                "official_name": "Dom Wczas\u00f3w Dzieci\u0119cych \"Pa\u0142ac Tatrza\u0144ski\" w Ko\u015bcielisku",
                "name": "Dom Wczas\u00f3w Dzieci\u0119cych \"Pa\u0142ac Tatrza\u0144ski\" w Ko\u015bcielisku",
                "addr:postcode": "34-511",
                "addr:city": "Ko\u015bcielisko",
                "addr:street": "Szelig\u00f3wka",
                "addr:housenumber": "13",
                "addr:city:simc": 468447,
                "addr:street:sym_ul": 21904,
                "phone": "+48 182077211",
                "email": "dwdz@poczta.onet.pl",
                "website": "http:\/\/www.dwdz.com.pl",
                "ref:regon": "000197362",
                "ref:vatin": "PL7361442438",
                "operator": "Powiat Tatrza\u0144ski",
                "operator:type": "government",
                "leisure": "resort"
            }
        },
        {
            "id": 275102,
            "type": "Feature",
            "geometry": {
                "type": "Point",
                "coordinates": [
                    19.8892099,
                    49.28994
                ]
            },
            "properties": {
                "ref:rspo": 275102,
                "official_name": "Zesp\u00f3\u0142 Szkolno-Przedszkolny w Ko\u015bcielisku",
                "name": "Zesp\u00f3\u0142 Szkolno-Przedszkolny w Ko\u015bcielisku",
                "addr:postcode": "34-511",
                "addr:city": "Ko\u015bcielisko",
                "addr:street": "Szelig\u00f3wka",
                "addr:housenumber": "11",
                "addr:city:simc": 468447,
                "addr:street:sym_ul": 21904,
                "phone": "+48 182070724",
                "email": "zespol_koscielisko@o2.pl",
                "website": "http:\/\/www.szkola-koscielisko.pl",
                "ref:regon": "386569703",
                "operator": "Gmina Ko\u015bcielisko",
                "operator:type": "government",
                "landuse": "education",
                "fixme": "amenity=school, amenity=college albo landuse=education w zale\u017cno\u015bci od tego, jakie plac\u00f3wki wchodz\u0105 w sk\u0142ad zespo\u0142u. Sprawd\u017a, kiedy stosowa\u0107 amenity=* a kiedy landuse=education.",
                "note": "Children RSPO: 22009;24449"
            }
        },
        {
            "id": 22009,
            "type": "Feature",
            "geometry": {
                "type": "Point",
                "coordinates": [
                    19.8892099,
                    49.28991
                ]
            },
            "properties": {
                "ref:rspo": 22009,
                "official_name": "Publiczne Przedszkole w Ko\u015bcielisku",
                "name": "Publiczne Przedszkole w Ko\u015bcielisku",
                "addr:postcode": "34-511",
                "addr:city": "Ko\u015bcielisko",
                "addr:street": "Szelig\u00f3wka",
                "addr:housenumber": "11",
                "addr:city:simc": 468447,
                "addr:street:sym_ul": 21904,
                "phone": "+48 182070866",
                "email": "przedszkolekoscielisko@gmail.com",
                "website": "http:\/\/www.ppkoscielisko.szkolnastrona.pl",
                "ref:regon": "492706428",
                "ref:vatin": "PL7361582174",
                "operator": "Gmina Ko\u015bcielisko",
                "operator:type": "government",
                "amenity": "kindergarten",
                "note": "Parent RSPO: 275102"
            }
        },
        {
            "id": 24449,
            "type": "Feature",
            "geometry": {
                "type": "Point",
                "coordinates": [
                    19.8892099,
                    49.289880000000004
                ]
            },
            "properties": {
                "isced:level": "1;2",
                "ref:rspo": 24449,
                "official_name": "Szko\u0142a Podstawowa im. W\u0142adys\u0142awa Jagie\u0142\u0142y w Ko\u015bcielisku",
                "name": "Szko\u0142a Podstawowa",
                "addr:postcode": "34-511",
                "addr:city": "Ko\u015bcielisko",
                "addr:street": "Szelig\u00f3wka",
                "addr:housenumber": "11",
                "addr:city:simc": 468447,
                "addr:street:sym_ul": 21904,
                "phone": "+48 182070724",
                "email": "zespol_koscielisko@o2.pl",
                "website": "http:\/\/www.szkola-koscielisko.pl",
                "ref:regon": "490672330",
                "ref:vatin": "PL7361508338",
                "operator": "Gmina Ko\u015bcielisko",
                "operator:type": "government",
                "amenity": "school",
                "note": "Parent RSPO: 275102"
            }
        },
        {
            "id": 268191,
            "type": "Feature",
            "geometry": {
                "type": "Point",
                "coordinates": [
                    19.8654,
                    49.33284
                ]
            },
            "properties": {
                "ref:rspo": 268191,
                "official_name": "Zesp\u00f3\u0142 Szkolno - Przedszkolny w Dzianiszu",
                "name": "Zesp\u00f3\u0142 Szkolno - Przedszkolny w Dzianiszu",
                "addr:postcode": "34-514",
                "addr:place": "Dzianisz",
                "addr:housenumber": "201",
                "addr:city:simc": 468430,
                "phone": "+48 182072578",
                "email": "zespszkoldzianisz@wp.pl",
                "website": "http:\/\/www.dzianisz-szkola.szkolna.net",
                "ref:regon": "381011014",
                "ref:vatin": "PL7361728471",
                "operator": "Gmina Ko\u015bcielisko",
                "operator:type": "government",
                "landuse": "education",
                "fixme": "amenity=school, amenity=college albo landuse=education w zale\u017cno\u015bci od tego, jakie plac\u00f3wki wchodz\u0105 w sk\u0142ad zespo\u0142u. Sprawd\u017a, kiedy stosowa\u0107 amenity=* a kiedy landuse=education.",
                "note": "Children RSPO: 24446;268173"
            }
        },
        {
            "id": 24446,
            "type": "Feature",
            "geometry": {
                "type": "Point",
                "coordinates": [
                    19.8654,
                    49.332809999999995
                ]
            },
            "properties": {
                "isced:level": "1;2",
                "ref:rspo": 24446,
                "official_name": "Szko\u0142a Podstawowa w Dzianiszu",
                "name": "Szko\u0142a Podstawowa w Dzianiszu",
                "addr:postcode": "34-514",
                "addr:place": "Dzianisz",
                "addr:housenumber": "201",
                "addr:city:simc": 468430,
                "phone": "+48 182072578",
                "email": "zespszkoldzianisz@wp.pl",
                "website": "http:\/\/www.dzianisz-szkola.szkolna.net",
                "ref:regon": "490672352",
                "operator": "Gmina Ko\u015bcielisko",
                "operator:type": "government",
                "amenity": "school",
                "note": "Parent RSPO: 268191"
            }
        },
        {
            "id": 268173,
            "type": "Feature",
            "geometry": {
                "type": "Point",
                "coordinates": [
                    19.85848,
                    49.33439
                ]
            },
            "properties": {
                "ref:rspo": 268173,
                "official_name": "Publiczne Przedszkole w Dzianiszu",
                "name": "Publiczne Przedszkole w Dzianiszu",
                "addr:postcode": "34-514",
                "addr:place": "Dzianisz",
                "addr:housenumber": "173",
                "addr:city:simc": 468430,
                "phone": "+48 182019758",
                "email": "przedszkole.dzianisz@gmail.com",
                "website": "http:\/\/www.dzianisz-szkola.szkolna.net",
                "ref:regon": "381000200",
                "ref:vatin": "PL7361728488",
                "operator": "Gmina Ko\u015bcielisko",
                "operator:type": "government",
                "amenity": "kindergarten",
                "note": "Parent RSPO: 268191"
            }
        },
        {
            "id": 24444,
            "type": "Feature",
            "geometry": {
                "type": "Point",
                "coordinates": [
                    19.8245107,
                    49.334913
                ]
            },
            "properties": {
                "isced:level": "1;2",
                "ref:rspo": 24444,
                "official_name": "Szko\u0142a Podstawowa im. Ks. Leona Musielaka w Witowie",
                "name": "Szko\u0142a Podstawowa",
                "addr:postcode": "34-512",
                "addr:place": "Wit\u00f3w",
                "addr:housenumber": "119",
                "addr:city:simc": 468884,
                "phone": "+48 182071726",
                "email": "witow119@op.pl",
                "website": "http:\/\/szkola-witow.pl",
                "ref:regon": "492730875",
                "ref:vatin": "PL7361508373",
                "operator": "Gmina Ko\u015bcielisko",
                "operator:type": "government",
                "amenity": "school"
            }
        },
        {
            "id": 24193,
            "type": "Feature",
            "geometry": {
                "type": "Point",
                "coordinates": [
                    19.82304,
                    49.34203
                ]
            },
            "properties": {
                "ref:rspo": 24193,
                "official_name": "Niepubliczne Przedszkole Zgromadzenia C\u00f3rek Bo\u017cej Mi\u0142o\u015bci im.franciszki Lechner w Witowie",
                "name": "Niepubliczne Przedszkole Zgromadzenia C\u00f3rek Bo\u017cej Mi\u0142o\u015bci im.franciszki Lechner w Witowie",
                "addr:postcode": "34-512",
                "addr:place": "Wit\u00f3w",
                "addr:housenumber": "73a",
                "addr:city:simc": 468884,
                "phone": "+48 182076163",
                "email": "przedszolewitowfdc@onet.pl",
                "ref:regon": "122677930",
                "ref:vatin": "PL7361701012",
                "operator": "Prowincja Polska Zgromadzenia C\u00f3rek Bo\u017cej Mi\u0142o\u015bci \"Instytut Marii\"",
                "operator:type": "religious",
                "amenity": "kindergarten"
            }
        }
    ]
}