{
    "type": "FeatureCollection",
    "features": [
        {
            "id": 5259,
            "type": "Feature",
            "geometry": {
                "type": "Point",
                "coordinates": [
                    19.983163833618,
                    49.298084259033
                ]
            },
            "properties": {
                "isced:level": "1;2",
                "ref:rspo": 5259,
                "official_name": "Szko\u0142a Podstawowa w Jurgowie",
                "name": "Szko\u0142a Podstawowa w Jurgowie",
                "addr:country": "PL",
                "addr:postcode": "34-532",
                "addr:place": "Jurg\u00f3w",
                "addr:housenumber": "177",
                "addr:teryt:simc": 418716,
                "contact:phone": "+48 182077903",
                "contact:email": "spjurgow@bukowinatatrzanska.edu.pl",
                "ref:regon": "490670063",
                "ref:vatin": "PL7361537819",
                "operator": "Gmina Bukowina Tatrza\u0144ska",
                "operator:type": "government",
                "amenity": "school"
            }
        },
        {
            "id": 5310,
            "type": "Feature",
            "geometry": {
                "type": "Point",
                "coordinates": [
                    19.983163833618,
                    49.298054259032995
                ]
            },
            "properties": {
                "ref:rspo": 5310,
                "official_name": "Przedszkole Samorz\u0105dowe w Jurgowie",
                "name": "Przedszkole Samorz\u0105dowe w Jurgowie",
                "addr:country": "PL",
                "addr:postcode": "34-532",
                "addr:place": "Jurg\u00f3w",
                "addr:housenumber": "13",
                "addr:teryt:simc": 418716,
                "contact:phone": "+48 182082120",
                "contact:email": "przedszkole.jurgow@bukowinatatrzanska.edu.pl",
                "contact:website": "http:\/\/www.przedszkolejurgow.przedszkolowo.pl",
                "ref:regon": "000971525",
                "ref:vatin": "PL7361599737",
                "operator": "Gmina Bukowina Tatrza\u0144ska",
                "operator:type": "government",
                "amenity": "kindergarten"
            }
        },
        {
            "id": 5168,
            "type": "Feature",
            "geometry": {
                "type": "Point",
                "coordinates": [
                    20.12391,
                    49.32242
                ]
            },
            "properties": {
                "isced:level": "1;2",
                "ref:rspo": 5168,
                "official_name": "Szko\u0142a Podstawowa im. W\u0142adys\u0142awa Zamoyskiego w Brzegach",
                "name": "Szko\u0142a Podstawowa",
                "addr:country": "PL",
                "addr:postcode": "34-532",
                "addr:city": "Brzegi",
                "addr:street": "Halna",
                "addr:housenumber": "58",
                "addr:teryt:simc": 418366,
                "addr:teryt:sym_ul": 6490,
                "contact:phone": "+48 182077257",
                "contact:email": "spbrzegi@bukowinatatrzanska.edu.pl",
                "ref:regon": "490669999",
                "ref:vatin": "PL7361537788",
                "operator": "Gmina Bukowina Tatrza\u0144ska",
                "operator:type": "government",
                "amenity": "school"
            }
        },
        {
            "id": 111189,
            "type": "Feature",
            "geometry": {
                "type": "Point",
                "coordinates": [
                    20.0944499,
                    49.33074
                ]
            },
            "properties": {
                "ref:rspo": 111189,
                "official_name": "Przedszkole Niepubliczne \"Hopsasa\"\nAgnieszka Budz",
                "name": "Przedszkole Niepubliczne \"Hopsasa\"\nAgnieszka Budz",
                "addr:country": "PL",
                "addr:postcode": "34-530",
                "addr:city": "Bukowina Tatrza\u0144ska",
                "addr:street": "Wierch Olcza\u0144ski",
                "addr:housenumber": "9a",
                "addr:teryt:simc": 418484,
                "addr:teryt:sym_ul": 33548,
                "contact:phone": "+48 603125675",
                "contact:email": "agbudz@op.pl",
                "ref:regon": "122799840",
                "ref:vatin": "PL7361613963",
                "operator": "Dane Do Uzupe\u0142nienia",
                "operator:type": "private",
                "amenity": "kindergarten"
            }
        },
        {
            "id": 278393,
            "type": "Feature",
            "geometry": {
                "type": "Point",
                "coordinates": [
                    20.13451,
                    49.34284
                ]
            },
            "properties": {
                "ref:rspo": 278393,
                "official_name": "Niepubliczna Poradnia Psychologiczno-Pedagogiczna",
                "name": "Niepubliczna Poradnia Psychologiczno-Pedagogiczna",
                "addr:country": "PL",
                "addr:postcode": "34-532",
                "addr:place": "Jurg\u00f3w",
                "addr:housenumber": "257A",
                "addr:teryt:simc": 418716,
                "contact:phone": "+48 661457709",
                "contact:email": "info@tersenjurgow.pl",
                "contact:website": "http:\/\/www.tersenjurgow.pl",
                "ref:regon": "389879404",
                "operator": "Maria Kali\u0144ska",
                "operator:type": "private",
                "healthcare": "counselling",
                "counselling_type": "education",
                "fixme": "w zale\u017cno\u015bci od przedmiotu dzia\u0142alno\u015bci (np. healthcare=counselling + counselling_type=education albo healthcare=psychotherapist)"
            }
        },
        {
            "id": 5277,
            "type": "Feature",
            "geometry": {
                "type": "Point",
                "coordinates": [
                    20.16093,
                    49.3582899
                ]
            },
            "properties": {
                "isced:level": "1;2",
                "ref:rspo": 5277,
                "official_name": "Szko\u0142a Podstawowa w Rzepiskach",
                "name": "Szko\u0142a Podstawowa w Rzepiskach",
                "addr:country": "PL",
                "addr:postcode": "34-532",
                "addr:city": "Rzepiska",
                "addr:street": "Potok Bryj\u00f3w",
                "addr:housenumber": "bn",
                "addr:teryt:simc": 418739,
                "addr:teryt:sym_ul": 33556,
                "contact:phone": "+48 182077804",
                "contact:email": "sprzepiska1@bukowinatatrzanska.edu.pl",
                "ref:regon": "490670100",
                "ref:vatin": "PL7361537825",
                "operator": "Gmina Bukowina Tatrza\u0144ska",
                "operator:type": "government",
                "amenity": "school"
            }
        },
        {
            "id": 121822,
            "type": "Feature",
            "geometry": {
                "type": "Point",
                "coordinates": [
                    20.11642,
                    49.36502
                ]
            },
            "properties": {
                "isced:level": "1;2",
                "ref:rspo": 121822,
                "official_name": "Szko\u0142a Podstawowa im. Bohater\u00f3w Warszawy w Bukowinie Tatrza\u0144skiej",
                "name": "Szko\u0142a Podstawowa",
                "addr:country": "PL",
                "addr:postcode": "34-530",
                "addr:city": "Bukowina Tatrza\u0144ska",
                "addr:street": "Tadeusza Ko\u015bciuszki",
                "addr:housenumber": "11",
                "addr:teryt:simc": 418484,
                "addr:teryt:sym_ul": 9572,
                "contact:phone": "+48 182077223",
                "contact:email": "spbukowina@bukowinatatrzanska.edu.pl",
                "contact:website": "http:\/\/www.spbukowina.edu.pl",
                "ref:regon": "490669960",
                "ref:vatin": "PL7361537854",
                "operator": "Gmina Bukowina Tatrza\u0144ska",
                "operator:type": "government",
                "amenity": "school"
            }
        },
        {
            "id": 5240,
            "type": "Feature",
            "geometry": {
                "type": "Point",
                "coordinates": [
                    20.12221,
                    49.36685
                ]
            },
            "properties": {
                "isced:level": "1;2",
                "ref:rspo": 5240,
                "official_name": "Szko\u0142a Podstawowa Nr 2 w Czarnej G\u00f3rze",
                "name": "Szko\u0142a Podstawowa Nr 2 w Czarnej G\u00f3rze",
                "addr:country": "PL",
                "addr:postcode": "34-532",
                "addr:city": "Czarna G\u00f3ra",
                "addr:street": "Nadwodnia",
                "addr:housenumber": "140",
                "addr:teryt:simc": 418567,
                "addr:teryt:sym_ul": 13922,
                "contact:phone": "+48 182082509",
                "contact:email": "spczarnagora2@bukowinatatrzanska.edu.pl",
                "contact:website": "http:\/\/spczg2.edu.pl",
                "ref:regon": "490670040",
                "ref:vatin": "PL7361537794",
                "operator": "Gmina Bukowina Tatrza\u0144ska",
                "operator:type": "government",
                "amenity": "school"
            }
        },
        {
            "id": 5231,
            "type": "Feature",
            "geometry": {
                "type": "Point",
                "coordinates": [
                    20.1325499,
                    49.38012
                ]
            },
            "properties": {
                "isced:level": "1;2",
                "ref:rspo": 5231,
                "official_name": "Szko\u0142a Podstawowa Nr 1 w Czarnej G\u00f3rze",
                "name": "Szko\u0142a Podstawowa Nr 1 w Czarnej G\u00f3rze",
                "addr:country": "PL",
                "addr:postcode": "34-532",
                "addr:city": "Czarna G\u00f3ra",
                "addr:street": "Zag\u00f3ra",
                "addr:housenumber": "149",
                "addr:teryt:simc": 418567,
                "addr:teryt:sym_ul": 25365,
                "contact:phone": "+48 182082511",
                "contact:email": "spczarnagora1@bukowinatatrzanska.edu.pl",
                "ref:regon": "490670011",
                "ref:vatin": "PL7361537771",
                "operator": "Gmina Bukowina Tatrza\u0144ska",
                "operator:type": "government",
                "amenity": "school"
            }
        },
        {
            "id": 272726,
            "type": "Feature",
            "geometry": {
                "type": "Point",
                "coordinates": [
                    20.06071,
                    49.38702
                ]
            },
            "properties": {
                "ref:rspo": 272726,
                "official_name": "Niepubliczne Przedszkole \"Smerfna Dolina\"",
                "name": "Niepubliczne Przedszkole \"Smerfna Dolina\"",
                "addr:country": "PL",
                "addr:postcode": "34-406",
                "addr:city": "Gro\u0144",
                "addr:street": "Podhala\u0144ska",
                "addr:housenumber": "55",
                "addr:teryt:simc": 418596,
                "addr:teryt:sym_ul": 16756,
                "ref:regon": "384382834",
                "ref:vatin": "PL7361691213",
                "operator": "Paulina Kuruc",
                "operator:type": "private",
                "amenity": "kindergarten"
            }
        },
        {
            "id": 121821,
            "type": "Feature",
            "geometry": {
                "type": "Point",
                "coordinates": [
                    20.10535,
                    49.3900099
                ]
            },
            "properties": {
                "isced:level": "1;2",
                "ref:rspo": 121821,
                "official_name": "Szko\u0142a Podstawowa im. 1 Pu\u0142ku Strzelc\u00f3w Podhala\u0144skich w Bia\u0142ce Tatrza\u0144skiej",
                "name": "Szko\u0142a Podstawowa",
                "addr:country": "PL",
                "addr:postcode": "34-405",
                "addr:city": "Bia\u0142ka Tatrza\u0144ska",
                "addr:street": "\u015arodkowa",
                "addr:housenumber": "184",
                "addr:teryt:simc": 418314,
                "addr:teryt:sym_ul": 22419,
                "contact:phone": "+48 182654129",
                "contact:email": "spbialka@bukowinatatrzanska.edu.pl",
                "contact:website": "http:\/\/szkola.bialka.net",
                "ref:regon": "490669976",
                "ref:vatin": "PL7361537860",
                "operator": "Gmina Bukowina Tatrza\u0144ska",
                "operator:type": "government",
                "amenity": "school"
            }
        },
        {
            "id": 71132,
            "type": "Feature",
            "geometry": {
                "type": "Point",
                "coordinates": [
                    20.10444,
                    49.39007
                ]
            },
            "properties": {
                "ref:rspo": 71132,
                "official_name": "O\u015brodek Rewalidacyjno-Wychowawczy Si\u00f3str Serafitek w Bia\u0142ce Tatrza\u0144skiej",
                "name": "O\u015brodek Rewalidacyjno-Wychowawczy Si\u00f3str Serafitek w Bia\u0142ce Tatrza\u0144skiej",
                "addr:country": "PL",
                "addr:postcode": "34-405",
                "addr:city": "Bia\u0142ka Tatrza\u0144ska",
                "addr:street": "\u015arodkowa",
                "addr:housenumber": "186a",
                "addr:teryt:simc": 418314,
                "addr:teryt:sym_ul": 22419,
                "contact:phone": "+48 182654544",
                "contact:email": "orwbialka@poczta.onet.pl",
                "contact:website": "http:\/\/www.orwbialkatatrzanska.pl",
                "ref:regon": "122703342",
                "ref:vatin": "PL7361687424",
                "operator": "Zgromadzenie C\u00f3rek Matki Bo\u017cej Bolesnej (Siostry Serafitki) Prowincja O\u015bwi\u0119cimska",
                "operator:type": "religious",
                "amenity": "school"
            }
        },
        {
            "id": 129833,
            "type": "Feature",
            "geometry": {
                "type": "Point",
                "coordinates": [
                    20.10657,
                    49.39799
                ]
            },
            "properties": {
                "ref:rspo": 129833,
                "official_name": "Niepubliczne Przedszkole \"Bajkowy \u015awiat\"",
                "name": "Niepubliczne Przedszkole \"Bajkowy \u015awiat\"",
                "addr:country": "PL",
                "addr:postcode": "34-405",
                "addr:city": "Bia\u0142ka Tatrza\u0144ska",
                "addr:street": "\u015arodkowa",
                "addr:housenumber": "bn",
                "addr:teryt:simc": 418314,
                "addr:teryt:sym_ul": 22419,
                "contact:phone": "+48 515268797",
                "ref:regon": "362965665",
                "ref:vatin": "PL7352384078",
                "operator": "Marzena Kruczek",
                "operator:type": "private",
                "amenity": "kindergarten"
            }
        },
        {
            "id": 121612,
            "type": "Feature",
            "geometry": {
                "type": "Point",
                "coordinates": [
                    20.05977,
                    49.3994
                ]
            },
            "properties": {
                "ref:rspo": 121612,
                "official_name": "Niepubliczne Przedszkole \"Magiczna Kraina\"",
                "name": "Niepubliczne Przedszkole \"Magiczna Kraina\"",
                "addr:country": "PL",
                "addr:postcode": "34-406",
                "addr:city": "Le\u015bnica",
                "addr:street": "Wsp\u00f3lna",
                "addr:housenumber": "9A",
                "addr:teryt:simc": 418722,
                "addr:teryt:sym_ul": 24885,
                "contact:phone": "+48 667965244",
                "contact:email": "magicznakrainaosp@gmail.com",
                "ref:regon": "123028760",
                "ref:vatin": "PL7352807662",
                "operator": "Dominika Schlegel \u017b\u00f3\u0142tek",
                "operator:type": "private",
                "amenity": "kindergarten"
            }
        },
        {
            "id": 121825,
            "type": "Feature",
            "geometry": {
                "type": "Point",
                "coordinates": [
                    20.06444,
                    49.40596
                ]
            },
            "properties": {
                "isced:level": "1;2",
                "ref:rspo": 121825,
                "official_name": "Szko\u0142a Podstawowa im. \u015aw. Stanis\u0142awa Kostki w Le\u015bnicy Groniu",
                "name": "Szko\u0142a Podstawowa",
                "addr:country": "PL",
                "addr:postcode": "34-406",
                "addr:city": "Le\u015bnica",
                "addr:street": "Polna",
                "addr:housenumber": "44",
                "addr:teryt:simc": 418722,
                "addr:teryt:sym_ul": 17011,
                "contact:phone": "+48 182631600",
                "contact:email": "splesnica@bukowinatatrzanska.edu.pl",
                "ref:regon": "490670092",
                "ref:vatin": "PL7361537877",
                "operator": "Gmina Bukowina Tatrza\u0144ska",
                "operator:type": "government",
                "amenity": "school"
            }
        }
    ]
}