{
    "type": "FeatureCollection",
    "features": [
        {
            "id": 62386,
            "type": "Feature",
            "geometry": {
                "type": "Point",
                "coordinates": [
                    20.0798,
                    49.3426858
                ]
            },
            "properties": {
                "isced:level": "1;2",
                "ref:rspo": 62386,
                "official_name": "Szko\u0142a Podstawowa im. Andrzeja Skupnia Florka w Gliczarowie G\u00f3rnym",
                "name": "Szko\u0142a Podstawowa",
                "addr:country": "PL",
                "addr:postcode": "34-425",
                "addr:city": "Gliczar\u00f3w G\u00f3rny",
                "addr:street": "Wierchy",
                "addr:housenumber": "121",
                "addr:teryt:simc": 417562,
                "addr:teryt:sym_ul": 29180,
                "contact:phone": "+48 182077263",
                "contact:email": "gliczarow@gmail.com",
                "contact:website": "http:\/\/www.gliczarow.edupage.org",
                "ref:regon": "490669781",
                "operator": "Gmina Bia\u0142y Dunajec",
                "operator:type": "government",
                "amenity": "school"
            }
        },
        {
            "id": 56132,
            "type": "Feature",
            "geometry": {
                "type": "Point",
                "coordinates": [
                    20.00537,
                    49.35906
                ]
            },
            "properties": {
                "isced:level": "1;2",
                "ref:rspo": 56132,
                "official_name": "Szko\u0142a Podstawowa Nr 2 im. \u015awi\u0119tej Jadwigi Kr\u00f3lowej Polski",
                "name": "Szko\u0142a Podstawowa Nr 2",
                "addr:country": "PL",
                "addr:postcode": "34-425",
                "addr:city": "Bia\u0142y Dunajec",
                "addr:street": "Mi\u0142o\u015bnik\u00f3w Podhala",
                "addr:housenumber": "23",
                "addr:teryt:simc": 417444,
                "addr:teryt:sym_ul": 30481,
                "contact:phone": "+48 182073129",
                "contact:email": "zspigsek@wp.pl",
                "contact:website": "http:\/\/www.zspig2bialydunajec.edupage.org",
                "ref:regon": "490669806",
                "ref:vatin": "PL7361509214",
                "operator": "Gmina Bia\u0142y Dunajec",
                "operator:type": "government",
                "amenity": "school"
            }
        },
        {
            "id": 61921,
            "type": "Feature",
            "geometry": {
                "type": "Point",
                "coordinates": [
                    19.95876,
                    49.36604
                ]
            },
            "properties": {
                "isced:level": "1;2",
                "ref:rspo": 61921,
                "official_name": "Szko\u0142a Podstawowa im. \u015aw. Brata Alberta w Sierockiem",
                "name": "Szko\u0142a Podstawowa",
                "addr:country": "PL",
                "addr:postcode": "34-425",
                "addr:place": "Sierockie",
                "addr:housenumber": "90B",
                "addr:teryt:simc": 417668,
                "contact:phone": "+48 182071028",
                "contact:email": "spsierockie@interia.pl",
                "contact:website": "http:\/\/www.spsierockie.szkolnastrona.pl",
                "ref:regon": "490669746",
                "ref:vatin": "PL7361593083",
                "operator": "Gmina Bia\u0142y Dunajec",
                "operator:type": "government",
                "amenity": "school"
            }
        },
        {
            "id": 6824,
            "type": "Feature",
            "geometry": {
                "type": "Point",
                "coordinates": [
                    20.03921,
                    49.36614
                ]
            },
            "properties": {
                "isced:level": "1;2",
                "ref:rspo": 6824,
                "official_name": "Szko\u0142a Podstawowa im. Wojciecha Ku\u0142acha Wawrzy\u0144coka w Gliczarowie Dolnym",
                "name": "Szko\u0142a Podstawowa",
                "addr:country": "PL",
                "addr:postcode": "34-425",
                "addr:place": "Gliczar\u00f3w Dolny",
                "addr:housenumber": "70",
                "addr:teryt:simc": 417496,
                "contact:phone": "+48 182073196",
                "contact:email": "szkolagliczarowdolny@gmail.com",
                "ref:regon": "490669769",
                "ref:vatin": "PL7361509237",
                "operator": "Gmina Bia\u0142y Dunajec",
                "operator:type": "government",
                "amenity": "school"
            }
        },
        {
            "id": 48760,
            "type": "Feature",
            "geometry": {
                "type": "Point",
                "coordinates": [
                    20.00595,
                    49.36909
                ]
            },
            "properties": {
                "ref:rspo": 48760,
                "official_name": "Niepubliczne Przedszkole \"Bambi\" Stanek Anna",
                "name": "Niepubliczne Przedszkole \"Bambi\" Stanek Anna",
                "addr:country": "PL",
                "addr:postcode": "34-425",
                "addr:city": "Bia\u0142y Dunajec",
                "addr:street": "Jana Paw\u0142a II",
                "addr:housenumber": "315A",
                "addr:teryt:simc": 417444,
                "addr:teryt:sym_ul": 7123,
                "contact:phone": "+48 182073953",
                "ref:regon": "122687726",
                "ref:vatin": "PL7361554887",
                "operator": "Anna Sopuch",
                "operator:type": "private",
                "amenity": "kindergarten"
            }
        },
        {
            "id": 61681,
            "type": "Feature",
            "geometry": {
                "type": "Point",
                "coordinates": [
                    20.01369,
                    49.3789
                ]
            },
            "properties": {
                "isced:level": "1;2",
                "ref:rspo": 61681,
                "official_name": "Szko\u0142a Podstawowa Nr 1 im. Kazimierza Wielkiego",
                "name": "Szko\u0142a Podstawowa Nr 1",
                "addr:country": "PL",
                "addr:postcode": "34-425",
                "addr:city": "Bia\u0142y Dunajec",
                "addr:street": "Jana Paw\u0142a II",
                "addr:housenumber": "184A",
                "addr:teryt:simc": 417444,
                "addr:teryt:sym_ul": 7123,
                "contact:phone": "+48 182073126",
                "contact:email": "sekretariat_sp1@bialydunajec.com.pl",
                "contact:website": "http:\/\/www.zspig1.edupage.org",
                "ref:regon": "490669730",
                "ref:vatin": "PL7361593077",
                "operator": "Gmina Bia\u0142y Dunajec",
                "operator:type": "government",
                "amenity": "school"
            }
        }
    ]
}