{
    "type": "FeatureCollection",
    "features": [
        {
            "id": 107108,
            "type": "Feature",
            "geometry": {
                "type": "Point",
                "coordinates": [
                    20.04331,
                    49.31626
                ]
            },
            "properties": {
                "isced:level": "1;2",
                "ref:rspo": 107108,
                "official_name": "Szko\u0142a Podstawowa im. Ratownik\u00f3w Tatrza\u0144skich w Murzasichlu",
                "name": "Szko\u0142a Podstawowa",
                "addr:postcode": "34-531",
                "addr:city": "Murzasichle",
                "addr:street": "S\u0105delska",
                "addr:housenumber": "31",
                "addr:teryt:simc": 468690,
                "addr:teryt:sym_ul": 19580,
                "phone": "+48 182016392",
                "email": "zskolmurzasichle@op.pl",
                "website": "http:\/\/szkolamurzasichle.pl",
                "ref:regon": "490647503",
                "ref:vatin": "PL7361664386",
                "operator": "Gmina Poronin",
                "operator:type": "government",
                "amenity": "school"
            }
        },
        {
            "id": 267711,
            "type": "Feature",
            "geometry": {
                "type": "Point",
                "coordinates": [
                    19.9087299,
                    49.32047
                ]
            },
            "properties": {
                "isced:level": "1;2",
                "ref:rspo": 267711,
                "official_name": "Szko\u0142a Podstawowa im. Bronis\u0142awa Czecha w Nowem Bystrem - Szko\u0142a Filialna Na S\u0142odyczkach",
                "name": "Szko\u0142a Podstawowa",
                "addr:postcode": "34-521",
                "addr:place": "Nowe Bystre",
                "addr:housenumber": "180 b",
                "addr:teryt:simc": 468737,
                "phone": "+48 182071295",
                "email": "zsnbystre@op.pl",
                "ref:regon": "490647414",
                "ref:vatin": "PL7361663814",
                "operator": "Gmina Poronin",
                "operator:type": "government",
                "amenity": "school",
                "note": "Parent RSPO: 106895"
            }
        },
        {
            "id": 106893,
            "type": "Feature",
            "geometry": {
                "type": "Point",
                "coordinates": [
                    19.97952,
                    49.33694
                ]
            },
            "properties": {
                "isced:level": "1;2",
                "ref:rspo": 106893,
                "official_name": "Szko\u0142a Podstawowa im.antoniny Tatar w Suchem",
                "name": "Szko\u0142a Podstawowa im.antoniny Tatar w Suchem",
                "addr:postcode": "34-520",
                "addr:place": "Suche",
                "addr:housenumber": "115 a",
                "addr:teryt:simc": 468861,
                "phone": "+48 182072326",
                "email": "sp-suche@go2.pl",
                "ref:regon": "490647466",
                "ref:vatin": "PL7361537647",
                "operator": "Gmina Poronin",
                "operator:type": "government",
                "amenity": "school"
            }
        },
        {
            "id": 122678,
            "type": "Feature",
            "geometry": {
                "type": "Point",
                "coordinates": [
                    19.97952,
                    49.336909999999996
                ]
            },
            "properties": {
                "ref:rspo": 122678,
                "official_name": "Integracyjne Przedszkole \"G\u00f3rolicki\"",
                "name": "Integracyjne Przedszkole \"G\u00f3rolicki\"",
                "addr:postcode": "34-520",
                "addr:place": "Suche",
                "addr:housenumber": "115 a",
                "addr:teryt:simc": 468861,
                "email": "przedszkole.gorolicki@op.pl",
                "ref:regon": "123081368",
                "operator": "Stowarzyszenie Rozwoju Podtatrza",
                "operator:type": "ngo",
                "amenity": "kindergarten"
            }
        },
        {
            "id": 106894,
            "type": "Feature",
            "geometry": {
                "type": "Point",
                "coordinates": [
                    20.00519,
                    49.33732
                ]
            },
            "properties": {
                "ref:rspo": 106894,
                "official_name": "Gminne Przedszkole Publiczne",
                "name": "Gminne Przedszkole Publiczne",
                "addr:postcode": "34-520",
                "addr:city": "Poronin",
                "addr:street": "J\u00f3zefa Pi\u0142sudskiego",
                "addr:housenumber": "2",
                "addr:teryt:simc": 468810,
                "addr:teryt:sym_ul": 16264,
                "phone": "+48 182074171",
                "email": "poronin.przedszkole@gmail.com",
                "ref:regon": "492691359",
                "ref:vatin": "PL7361537736",
                "operator": "Gmina Poronin",
                "operator:type": "government",
                "amenity": "kindergarten"
            }
        },
        {
            "id": 111989,
            "type": "Feature",
            "geometry": {
                "type": "Point",
                "coordinates": [
                    20.00519,
                    49.337289999999996
                ]
            },
            "properties": {
                "ref:rspo": 111989,
                "official_name": "Pa\u0144stwowa Szko\u0142a Muzyczna I St. w Zakopanem Filia w Poroninie",
                "name": "Pa\u0144stwowa Szko\u0142a Muzyczna I St. w Zakopanem Filia w Poroninie",
                "addr:postcode": "34-520",
                "addr:city": "Poronin",
                "addr:street": "J\u00f3zefa Pi\u0142sudskiego",
                "addr:housenumber": "2",
                "addr:teryt:simc": 468810,
                "addr:teryt:sym_ul": 16264,
                "phone": "+48 182074144",
                "ref:regon": "120016755",
                "operator": "Ministerstwo Kultury I Dziedzictwa Narodowego",
                "operator:type": "public",
                "amenity": "music_school",
                "note": "Parent RSPO: 103592"
            }
        },
        {
            "id": 107089,
            "type": "Feature",
            "geometry": {
                "type": "Point",
                "coordinates": [
                    20.0572,
                    49.33752
                ]
            },
            "properties": {
                "isced:level": "1;2",
                "ref:rspo": 107089,
                "official_name": "Szko\u0142a Podstawowa im. Ks. Jerzego Popie\u0142uszki w Stasik\u00f3wce",
                "name": "Szko\u0142a Podstawowa",
                "addr:postcode": "34-520",
                "addr:place": "Stasik\u00f3wka",
                "addr:housenumber": "65",
                "addr:teryt:simc": 468855,
                "phone": "+48 182074190",
                "email": "spstasikowka@op.pl",
                "website": "http:\/\/www.spstasikowka.pl",
                "ref:regon": "490647437",
                "ref:vatin": "PL7361537707",
                "operator": "Gmina Poronin",
                "operator:type": "government",
                "amenity": "school"
            }
        },
        {
            "id": 90207,
            "type": "Feature",
            "geometry": {
                "type": "Point",
                "coordinates": [
                    20.0075499,
                    49.33876
                ]
            },
            "properties": {
                "ref:rspo": 90207,
                "official_name": "Przedszkole Niepubliczne im. Ks. Bronis\u0142awa Markiewicza",
                "name": "Przedszkole Niepubliczne",
                "addr:postcode": "34-520",
                "addr:city": "Poronin",
                "addr:street": "J\u00f3zefa Pi\u0142sudskiego",
                "addr:housenumber": "20",
                "addr:teryt:simc": 468810,
                "addr:teryt:sym_ul": 16264,
                "phone": "+48 182001839",
                "email": "przedszkoleporonin@michalitki.pl",
                "website": "http:\/\/przedszkoleporonin.edupage.org",
                "ref:regon": "122718183",
                "operator": "Zgromadzenie Si\u00f3str \u015aw. Micha\u0142a Archanio\u0142a W Miejscu Piastowym",
                "operator:type": "religious",
                "amenity": "kindergarten"
            }
        },
        {
            "id": 106895,
            "type": "Feature",
            "geometry": {
                "type": "Point",
                "coordinates": [
                    19.9226199,
                    49.3389
                ]
            },
            "properties": {
                "isced:level": "1;2",
                "ref:rspo": 106895,
                "official_name": "Szko\u0142a Podstawowa im. Bronis\u0142awa Czecha w Nowem Bystrem",
                "name": "Szko\u0142a Podstawowa",
                "addr:postcode": "34-521",
                "addr:place": "Nowe Bystre",
                "addr:housenumber": "61",
                "addr:teryt:simc": 468737,
                "phone": "+48 182071295",
                "email": "zsnbystre@op.pl",
                "ref:regon": "490647414",
                "ref:vatin": "PL7361663814",
                "operator": "Gmina Poronin",
                "operator:type": "government",
                "amenity": "school",
                "note": "Children RSPO: 267711"
            }
        },
        {
            "id": 107113,
            "type": "Feature",
            "geometry": {
                "type": "Point",
                "coordinates": [
                    20.00685,
                    49.33921
                ]
            },
            "properties": {
                "isced:level": "1;2",
                "ref:rspo": 107113,
                "official_name": "Szko\u0142a Podstawowa im. Legion\u00f3w Polskich w Poroninie",
                "name": "Szko\u0142a Podstawowa",
                "addr:postcode": "34-520",
                "addr:city": "Poronin",
                "addr:street": "J\u00f3zefa Pi\u0142sudskiego",
                "addr:housenumber": "34",
                "addr:teryt:simc": 468810,
                "addr:teryt:sym_ul": 16264,
                "phone": "+48 182074186",
                "email": "szkolaporonin@op.pl",
                "website": "http:\/\/www.szkolaporonin.pl",
                "ref:regon": "490647420",
                "ref:vatin": "PL7361663820",
                "operator": "Gmina Poronin",
                "operator:type": "government",
                "amenity": "school"
            }
        },
        {
            "id": 272068,
            "type": "Feature",
            "geometry": {
                "type": "Point",
                "coordinates": [
                    19.95688,
                    49.34238
                ]
            },
            "properties": {
                "ref:rspo": 272068,
                "official_name": "Zesp\u00f3\u0142 Szkolno-Przedszkolny w Z\u0119bie",
                "name": "Zesp\u00f3\u0142 Szkolno-Przedszkolny w Z\u0119bie",
                "addr:postcode": "34-521",
                "addr:city": "Z\u0105b",
                "addr:street": "\u015awi\u0119tej Anny",
                "addr:housenumber": "1\/3",
                "addr:teryt:simc": 468944,
                "addr:teryt:sym_ul": 339,
                "phone": "+48 182637014",
                "email": "sp_zab@op.pl",
                "ref:regon": "383905402",
                "ref:vatin": "PL7361731467",
                "operator": "Gmina Poronin",
                "operator:type": "government",
                "landuse": "education",
                "fixme": "amenity=school, amenity=college albo landuse=education w zale\u017cno\u015bci od tego, jakie plac\u00f3wki wchodz\u0105 w sk\u0142ad zespo\u0142u. Sprawd\u017a, kiedy stosowa\u0107 amenity=* a kiedy landuse=education.",
                "note": "Children RSPO: 106896;268099"
            }
        },
        {
            "id": 106896,
            "type": "Feature",
            "geometry": {
                "type": "Point",
                "coordinates": [
                    19.95688,
                    49.342349999999996
                ]
            },
            "properties": {
                "isced:level": "1;2",
                "ref:rspo": 106896,
                "official_name": "Szko\u0142a Podstawowa im. Heleny Marusarz\u00f3wny w Z\u0119bie",
                "name": "Szko\u0142a Podstawowa",
                "addr:postcode": "34-521",
                "addr:city": "Z\u0105b",
                "addr:street": "\u015awi\u0119tej Anny",
                "addr:housenumber": "1\/3",
                "addr:teryt:simc": 468944,
                "addr:teryt:sym_ul": 339,
                "phone": "+48 182637014",
                "email": "sp_zab@op.pl",
                "ref:regon": "120899341",
                "ref:vatin": "PL7361664860",
                "operator": "Gmina Poronin",
                "operator:type": "government",
                "amenity": "school",
                "note": "Parent RSPO: 272068"
            }
        },
        {
            "id": 268099,
            "type": "Feature",
            "geometry": {
                "type": "Point",
                "coordinates": [
                    19.95688,
                    49.34232
                ]
            },
            "properties": {
                "ref:rspo": 268099,
                "official_name": "Gminne Przedszkole Publiczne w Z\u0119bie",
                "name": "Gminne Przedszkole Publiczne w Z\u0119bie",
                "addr:postcode": "34-521",
                "addr:city": "Z\u0105b",
                "addr:street": "\u015awi\u0119tej Anny",
                "addr:housenumber": "1",
                "addr:teryt:simc": 468944,
                "addr:teryt:sym_ul": 339,
                "phone": "+48 182637058",
                "email": "przedszkole1@interia.eu",
                "ref:regon": "380936135",
                "ref:vatin": "PL7361728330",
                "operator": "Gmina Poronin",
                "operator:type": "government",
                "amenity": "kindergarten",
                "note": "Parent RSPO: 272068"
            }
        }
    ]
}