{
    "type": "FeatureCollection",
    "features": [
        {
            "id": 58844,
            "type": "Feature",
            "geometry": {
                "type": "Point",
                "coordinates": [
                    16.11595,
                    53.08622
                ]
            },
            "properties": {
                "ref:rspo": 58844,
                "official_name": "Przedszkole Publiczne w Cz\u0142opie",
                "name": "Przedszkole Publiczne w Cz\u0142opie",
                "addr:country": "PL",
                "addr:postcode": "78-630",
                "addr:city": "Cz\u0142opa",
                "addr:street": "ul. Przedszkolna",
                "addr:housenumber": "1",
                "addr:teryt:simc": 17683,
                "addr:teryt:sym_ul": 966808,
                "contact:phone": "+48 672591082",
                "contact:email": "przedszkole.czlopa@wp.pl",
                "contact:website": "http:\/\/www.przedszkole.czlopa.pl",
                "ref:regon": "570286437",
                "operator": "Gmina Cz\u0142opa",
                "operator:type": "government",
                "amenity": "kindergarten"
            }
        },
        {
            "id": 58843,
            "type": "Feature",
            "geometry": {
                "type": "Point",
                "coordinates": [
                    16.12265,
                    53.08769
                ]
            },
            "properties": {
                "isced:level": "1;2",
                "ref:rspo": 58843,
                "official_name": "Szko\u0142a Podstawowa w Cz\u0142opie",
                "name": "Szko\u0142a Podstawowa w Cz\u0142opie",
                "addr:country": "PL",
                "addr:postcode": "78-630",
                "addr:city": "Cz\u0142opa",
                "addr:street": "pl. Zwyci\u0119stwa",
                "addr:housenumber": "6",
                "addr:teryt:simc": 26325,
                "addr:teryt:sym_ul": 966808,
                "contact:phone": "+48 672591030",
                "contact:email": "sekretariat@spczlopa.pl",
                "contact:website": "http:\/\/www.szkolapodstawowa.czlopa.pl",
                "ref:regon": "000261597",
                "operator": "Gmina Cz\u0142opa",
                "operator:type": "government",
                "amenity": "school"
            }
        },
        {
            "id": 70854,
            "type": "Feature",
            "geometry": {
                "type": "Point",
                "coordinates": [
                    16.124,
                    53.08771
                ]
            },
            "properties": {
                "isced:level": "3",
                "ref:rspo": 70854,
                "official_name": "Liceum Og\u00f3lnokszta\u0142c\u0105ce dla Doros\u0142ych Przy Centrum Kszta\u0142cenia \"Pedagog\" Marek Ostromecki",
                "name": "Liceum Og\u00f3lnokszta\u0142c\u0105ce dla Doros\u0142ych Przy Centrum Kszta\u0142cenia \"Pedagog\" Marek Ostromecki",
                "addr:country": "PL",
                "addr:postcode": "78-630",
                "addr:city": "Cz\u0142opa",
                "addr:street": "ul. Po\u0142udniowa",
                "addr:housenumber": "16",
                "addr:teryt:simc": 17070,
                "addr:teryt:sym_ul": 966808,
                "contact:phone": "+48 672591008",
                "ref:regon": "321296029",
                "ref:vatin": "PL7651200620",
                "operator": "Marek Ostromecki",
                "operator:type": "private",
                "amenity": "school"
            }
        },
        {
            "id": 86017,
            "type": "Feature",
            "geometry": {
                "type": "Point",
                "coordinates": [
                    16.25829,
                    53.1361
                ]
            },
            "properties": {
                "ref:rspo": 86017,
                "official_name": "\"T\u0119czowe Przedszkole\" Niepubliczna Plac\u00f3wka w Miel\u0119cinie",
                "name": "\"T\u0119czowe Przedszkole\" Niepubliczna Plac\u00f3wka w Miel\u0119cinie",
                "addr:country": "PL",
                "addr:postcode": "78-630",
                "addr:city": "Miel\u0119cin",
                "addr:street": "ul. Szkolna",
                "addr:housenumber": "5",
                "addr:teryt:simc": 21970,
                "addr:teryt:sym_ul": 525441,
                "contact:phone": "+48 605458741",
                "contact:email": "przedszkole@teczoweprzedszkole-czlopa.pl",
                "contact:website": "http:\/\/www.teczoweprzedszkole-czlopa.pl",
                "ref:regon": "321301026",
                "operator": "Likwidacja Plac\u00f3wki",
                "operator:type": "private",
                "amenity": "kindergarten"
            }
        }
    ]
}