{"type":"FeatureCollection","features":[{"id":131496,"type":"Feature","geometry":{"type":"Point","coordinates":[21.26093304929,49.519398071877]},"properties":{"ref:rspo":131496,"official_name":"Zesp\u00f3\u0142 Szkolno-Przedszkolny w G\u0142adyszowie","name":"Zesp\u00f3\u0142 Szkolno-Przedszkolny w G\u0142adyszowie","addr:country":"PL","addr:postcode":"38-315","addr:place":"G\u0142adysz\u00f3w","addr:housenumber":"106","addr:teryt:sym_ul":467991,"contact:phone":"+48 183510017","contact:email":"spgladyszow@wp.pl","contact:website":"http:\/\/www.spgladyszow.superszkolna.pl","ref:regon":"365198781","ref:vatin":"PL7382150563","operator":"Gmina U\u015bcie Gorlickie","operator:type":"government","landuse":"education","fixme":"amenity=school, amenity=college albo landuse=education w zale\u017cno\u015bci od tego, jakie plac\u00f3wki wchodz\u0105 w sk\u0142ad zespo\u0142u. Sprawd\u017a, kiedy stosowa\u0107 amenity=* a kiedy landuse=education.","note":"Children RSPO: 70737;131480"}},{"id":70737,"type":"Feature","geometry":{"type":"Point","coordinates":[21.26093304929,49.519368071877]},"properties":{"isced:level":"1;2","ref:rspo":70737,"official_name":"Szko\u0142a Podstawowa im. Aleksandry Wis\u0142ockiej w G\u0142adyszowie","name":"Szko\u0142a Podstawowa","addr:country":"PL","addr:postcode":"38-315","addr:place":"G\u0142adysz\u00f3w","addr:housenumber":"106","addr:teryt:sym_ul":467991,"contact:phone":"+48 183510017","contact:email":"spgladyszow@wp.pl","contact:website":"http:\/\/spgladyszow.superszkolna.pl","ref:regon":"490675451","ref:vatin":"PL7381849663","operator":"Gmina U\u015bcie Gorlickie","operator:type":"government","amenity":"school","note":"Children RSPO: 85629Parent RSPO: 131496"}},{"id":85509,"type":"Feature","geometry":{"type":"Point","coordinates":[21.14052,49.52282]},"properties":{"isced:level":"1;2","ref:rspo":85509,"official_name":"Szko\u0142a Podstawowa w U\u015bciu Gorlickim","name":"Szko\u0142a Podstawowa w U\u015bciu Gorlickim","addr:country":"PL","addr:postcode":"38-315","addr:place":"U\u015bcie Gorlickie","addr:housenumber":"186","addr:teryt:sym_ul":468312,"contact:phone":"+48 183516234","contact:email":"dyrektor@zsuscie.edu.pl","contact:website":"http:\/\/zsuscie.edu.pl","ref:regon":"490675445","operator":"Gmina U\u015bcie Gorlickie","operator:type":"government","amenity":"school","note":"Parent RSPO: 133467"}},{"id":85529,"type":"Feature","geometry":{"type":"Point","coordinates":[21.14052,49.52279]},"properties":{"ref:rspo":85529,"official_name":"Publiczne Przedszkole w U\u015bciu Gorlickim","name":"Publiczne Przedszkole w U\u015bciu Gorlickim","addr:country":"PL","addr:postcode":"38-315","addr:place":"U\u015bcie Gorlickie","addr:housenumber":"186","addr:teryt:sym_ul":468312,"contact:phone":"+48 183516234","contact:email":"dyrektor@zsuscie.edu.pl","contact:website":"http:\/\/zsuscie.edu.pl","ref:regon":"492014759","operator":"Gmina U\u015bcie Gorlickie","operator:type":"government","amenity":"kindergarten","note":"Parent RSPO: 133467"}},{"id":70736,"type":"Feature","geometry":{"type":"Point","coordinates":[21.31009,49.52679]},"properties":{"isced:level":"1;2","ref:rspo":70736,"official_name":"Szko\u0142a Podstawowa w Banicy","name":"Szko\u0142a Podstawowa w Banicy","addr:country":"PL","addr:postcode":"38-315","addr:place":"Banica","addr:housenumber":"24","addr:teryt:sym_ul":467896,"contact:phone":"+48 183516210","contact:email":"m.michniak@oswiata.org.pl","contact:website":"http:\/\/www.spbanica.szkolnastrona.pl","ref:regon":"490675505","ref:vatin":"PL7381849692","operator":"Gmina U\u015bcie Gorlickie","operator:type":"government","amenity":"school"}},{"id":70762,"type":"Feature","geometry":{"type":"Point","coordinates":[21.31009,49.526759999999996]},"properties":{"ref:rspo":70762,"official_name":"Punkt Przedszkolny Przy Szkole Podstawowej w Banicy","name":"Punkt Przedszkolny Przy Szkole Podstawowej w Banicy","addr:country":"PL","addr:postcode":"38-315","addr:place":"Banica","addr:housenumber":"24","addr:teryt:sym_ul":467896,"contact:phone":"+48 183516210","contact:email":"m.michniak@oswiata.org.pl","contact:website":"http:\/\/www.spbanica.szkolnastrona.pl","ref:regon":"122702970","operator":"Gmina U\u015bcie Gorlickie","operator:type":"government","amenity":"kindergarten"}},{"id":70784,"type":"Feature","geometry":{"type":"Point","coordinates":[21.11792,49.56547]},"properties":{"isced:level":"1;2","ref:rspo":70784,"official_name":"Niepubliczna Szko\u0142a Podstawowa im. Jacka Kuronia w Kunkowej","name":"Niepubliczna Szko\u0142a Podstawowa","addr:country":"PL","addr:postcode":"38-315","addr:place":"Kunkowa","addr:housenumber":"36","addr:teryt:sym_ul":468134,"contact:phone":"+48 183516412","ref:regon":"122702615","operator":"Dane Do Uzupe\u0142nienia","operator:type":"private","amenity":"school"}},{"id":41282,"type":"Feature","geometry":{"type":"Point","coordinates":[21.174089431763,49.599338531494]},"properties":{"ref:rspo":41282,"official_name":"Zesp\u00f3\u0142 Szk\u00f3\u0142 Centrum Kszta\u0142cenia Rolniczego w Ha\u0144czowej","name":"Zesp\u00f3\u0142 Szk\u00f3\u0142 Centrum Kszta\u0142cenia Rolniczego w Ha\u0144czowej","addr:country":"PL","addr:postcode":"38-316","addr:place":"Ha\u0144czowa","addr:housenumber":"80","addr:teryt:sym_ul":468051,"contact:phone":"+48 183532004","contact:email":"zsr-hanczowa@pro.onet.pl","contact:website":"http:\/\/www.zsr-hanczowa.pl","ref:regon":"000095377","ref:vatin":"PL7381099624","operator":"Ministerstwo Rolnictwa I Rozwoju Wsi","operator:type":"public","landuse":"education","fixme":"amenity=school, amenity=college albo landuse=education w zale\u017cno\u015bci od tego, jakie plac\u00f3wki wchodz\u0105 w sk\u0142ad zespo\u0142u. Sprawd\u017a, kiedy stosowa\u0107 amenity=* a kiedy landuse=education.","note":"Children RSPO: 85043;85044;130459"}},{"id":70727,"type":"Feature","geometry":{"type":"Point","coordinates":[21.174089431763,49.599308531493996]},"properties":{"ref:rspo":70727,"official_name":"Zesp\u00f3\u0142 Szk\u00f3\u0142 w Brunarach","name":"Zesp\u00f3\u0142 Szk\u00f3\u0142 w Brunarach","addr:country":"PL","addr:postcode":"38-315","addr:place":"Brunary","addr:housenumber":"50","addr:teryt:sym_ul":467910,"contact:phone":"+48 183516197","contact:email":"g.brunary@wp.pl","ref:regon":"120528751","ref:vatin":"PL7382144284","operator":"Gmina U\u015bcie Gorlickie","operator:type":"government","landuse":"education","fixme":"amenity=school, amenity=college albo landuse=education w zale\u017cno\u015bci od tego, jakie plac\u00f3wki wchodz\u0105 w sk\u0142ad zespo\u0142u. Sprawd\u017a, kiedy stosowa\u0107 amenity=* a kiedy landuse=education.","note":"Children RSPO: 85560;85625"}},{"id":70731,"type":"Feature","geometry":{"type":"Point","coordinates":[21.174089431763,49.599278531494]},"properties":{"ref:rspo":70731,"official_name":"Zesp\u00f3\u0142 Szkolno-Przedszkolny w Wysowej-Zdroju","name":"Zesp\u00f3\u0142 Szkolno-Przedszkolny w Wysowej-Zdroju","addr:country":"PL","addr:postcode":"38-316","addr:place":"Wysowa-Zdr\u00f3j","addr:housenumber":"97","addr:teryt:sym_ul":468370,"contact:phone":"+48 183532049","contact:email":"spwysowa@interia.pl","ref:regon":"492906386","ref:vatin":"PL7381849485","operator":"Gmina U\u015bcie Gorlickie","operator:type":"government","landuse":"education","fixme":"amenity=school, amenity=college albo landuse=education w zale\u017cno\u015bci od tego, jakie plac\u00f3wki wchodz\u0105 w sk\u0142ad zespo\u0142u. Sprawd\u017a, kiedy stosowa\u0107 amenity=* a kiedy landuse=education.","note":"Children RSPO: 85311;85354"}},{"id":70733,"type":"Feature","geometry":{"type":"Point","coordinates":[21.174089431763,49.599248531494]},"properties":{"isced:level":"1;2","ref:rspo":70733,"official_name":"Szko\u0142a Podstawowa w \u015anietnicy","name":"Szko\u0142a Podstawowa w \u015anietnicy","addr:country":"PL","addr:postcode":"38-315","addr:place":"\u015anietnica","addr:housenumber":"28","addr:teryt:sym_ul":468275,"contact:phone":"+48 183516207","contact:email":"snietnica1@wp.pl","ref:regon":"490675480","ref:vatin":"PL7381849686","operator":"Gmina U\u015bcie Gorlickie","operator:type":"government","amenity":"school"}},{"id":70739,"type":"Feature","geometry":{"type":"Point","coordinates":[21.174089431763,49.599218531493996]},"properties":{"isced:level":"1;2","ref:rspo":70739,"official_name":"Szko\u0142a Podstawowa w Ha\u0144czowej","name":"Szko\u0142a Podstawowa w Ha\u0144czowej","addr:country":"PL","addr:postcode":"38-316","addr:place":"Ha\u0144czowa","addr:housenumber":"96","addr:teryt:sym_ul":468051,"contact:phone":"+48 183532003","contact:email":"sphanczowa@poczta.onet.pl","ref:regon":"490675474","ref:vatin":"PL7381849456","operator":"Gmina U\u015bcie Gorlickie","operator:type":"government","amenity":"school"}},{"id":70766,"type":"Feature","geometry":{"type":"Point","coordinates":[21.174089431763,49.599188531494]},"properties":{"ref:rspo":70766,"official_name":"Punkt Przedszkolny Przy Szkole Podstawowej w Ha\u0144czowej","name":"Punkt Przedszkolny Przy Szkole Podstawowej w Ha\u0144czowej","addr:country":"PL","addr:postcode":"38-316","addr:place":"Ha\u0144czowa","addr:housenumber":"96","addr:teryt:sym_ul":468051,"contact:phone":"+48 183532003","contact:email":"sphanczowa@poczta.onet.pl","ref:regon":"122702928","operator":"Gmina U\u015bcie Gorlickie","operator:type":"government","amenity":"kindergarten"}},{"id":70767,"type":"Feature","geometry":{"type":"Point","coordinates":[21.174089431763,49.599158531494]},"properties":{"ref:rspo":70767,"official_name":"Punkt Przedszkolny Przy Szkole Podstawowej w G\u0142adyszowie","name":"Punkt Przedszkolny Przy Szkole Podstawowej w G\u0142adyszowie","addr:country":"PL","addr:postcode":"38-315","addr:place":"G\u0142adysz\u00f3w","addr:housenumber":"70","addr:teryt:sym_ul":467991,"contact:phone":"+48 183510017","contact:email":"spgladyszow@wp.pl","ref:regon":"122702816","operator":"Gmina U\u015bcie Gorlickie","operator:type":"government","amenity":"kindergarten"}},{"id":70769,"type":"Feature","geometry":{"type":"Point","coordinates":[21.174089431763,49.599128531493996]},"properties":{"ref:rspo":70769,"official_name":"Punkt Przedszkolny Przy Szkole Podstawowej w \u015anietnicy","name":"Punkt Przedszkolny Przy Szkole Podstawowej w \u015anietnicy","addr:country":"PL","addr:postcode":"38-315","addr:place":"\u015anietnica","addr:housenumber":"28","addr:teryt:sym_ul":468275,"contact:phone":"+48 183516207","contact:email":"snietnica1@wp.pl","ref:regon":"122702710","operator":"Gmina U\u015bcie Gorlickie","operator:type":"government","amenity":"kindergarten"}},{"id":133467,"type":"Feature","geometry":{"type":"Point","coordinates":[21.174089431763,49.599098531494]},"properties":{"ref:rspo":133467,"official_name":"Zesp\u00f3\u0142 Szk\u00f3\u0142 w U\u015bciu Gorlickim","name":"Zesp\u00f3\u0142 Szk\u00f3\u0142 w U\u015bciu Gorlickim","addr:country":"PL","addr:postcode":"38-315","addr:place":"U\u015bcie Gorlickie","addr:housenumber":"267","addr:teryt:sym_ul":468312,"contact:phone":"+48 183516234","contact:email":"dyrektor@zsuscie.edu.pl","contact:website":"http:\/\/zsuscie.edu.pl","ref:regon":"367338683","ref:vatin":"PL7382144611","operator":"Gmina U\u015bcie Gorlickie","operator:type":"government","landuse":"education","fixme":"amenity=school, amenity=college albo landuse=education w zale\u017cno\u015bci od tego, jakie plac\u00f3wki wchodz\u0105 w sk\u0142ad zespo\u0142u. Sprawd\u017a, kiedy stosowa\u0107 amenity=* a kiedy landuse=education.","note":"Children RSPO: 85509;85529"}},{"id":85043,"type":"Feature","geometry":{"type":"Point","coordinates":[21.174089431763,49.599068531494]},"properties":{"isced:level":"3","ref:rspo":85043,"official_name":"Technikum im. Jana Paw\u0142a II w Ha\u0144czowej","name":"Technikum","addr:country":"PL","addr:postcode":"38-316","addr:place":"Ha\u0144czowa","addr:housenumber":"80","addr:teryt:sym_ul":468051,"contact:phone":"+48 183532004","contact:email":"zsr-hanczowa@pro.onet.pl","contact:website":"http:\/\/www.zsr-hanczowa.pl","ref:regon":"492830128","operator":"Ministerstwo Rolnictwa I Rozwoju Wsi","operator:type":"public","amenity":"school","note":"Parent RSPO: 41282"}},{"id":85044,"type":"Feature","geometry":{"type":"Point","coordinates":[21.174089431763,49.599038531493996]},"properties":{"isced:level":"3","ref:rspo":85044,"official_name":"Bran\u017cowa Szko\u0142a I Stopnia im. Jana Paw\u0142a II w Ha\u0144czowej","name":"Bran\u017cowa Szko\u0142a I Stopnia","addr:country":"PL","addr:postcode":"38-316","addr:place":"Ha\u0144czowa","addr:housenumber":"80","addr:teryt:sym_ul":468051,"contact:phone":"+48 183532004","contact:email":"zsr-hanczowa@pro.onet.pl","contact:website":"http:\/\/www.zsr-hanczowa.pl","ref:regon":"492830134","operator":"Ministerstwo Rolnictwa I Rozwoju Wsi","operator:type":"public","amenity":"school","note":"Parent RSPO: 41282"}},{"id":130459,"type":"Feature","geometry":{"type":"Point","coordinates":[21.174089431763,49.599008531494]},"properties":{"ref:rspo":130459,"official_name":"Centrum Kszta\u0142cenia Ustawicznego w Ha\u0144czowej","name":"Centrum Kszta\u0142cenia Ustawicznego w Ha\u0144czowej","addr:country":"PL","addr:postcode":"38-316","addr:place":"Ha\u0144czowa","addr:housenumber":"80","addr:teryt:sym_ul":468051,"contact:phone":"+48 183532004","contact:email":"zsr-hanczowa@pro.onet.pl","contact:website":"http:\/\/www.zsr-hanczowa.pl","ref:regon":"364034818","operator":"Ministerstwo Rolnictwa I Rozwoju Wsi","operator:type":"public","fixme":"w zale\u017cno\u015bci od przedmiotu dzia\u0142alno\u015bci (np. amenity=training + training=*, amenity=dancing_school, amenity=language_school, amenity=music_school)","note":"Parent RSPO: 41282"}},{"id":85560,"type":"Feature","geometry":{"type":"Point","coordinates":[21.174089431763,49.598978531494]},"properties":{"isced:level":"1;2","ref:rspo":85560,"official_name":"Szko\u0142a Podstawowa im. Kr\u00f3la Kazimierza Wielkiego w Brunarach","name":"Szko\u0142a Podstawowa","addr:country":"PL","addr:postcode":"38-315","addr:place":"Brunary","addr:housenumber":"50","addr:teryt:sym_ul":467910,"contact:phone":"+48 183516197","contact:email":"g.brunary@wp.pl","contact:website":"http:\/\/www.zsbrunary.szkolnastrona.pl","ref:regon":"490675497","operator":"Gmina U\u015bcie Gorlickie","operator:type":"government","amenity":"school","note":"Parent RSPO: 70727"}},{"id":85625,"type":"Feature","geometry":{"type":"Point","coordinates":[21.174089431763,49.598948531493996]},"properties":{"ref:rspo":85625,"official_name":"Publiczne Przedszkole w Brunarach","name":"Publiczne Przedszkole w Brunarach","addr:country":"PL","addr:postcode":"38-315","addr:place":"Brunary","addr:housenumber":"50","addr:teryt:sym_ul":467910,"contact:phone":"+48 183516197","ref:regon":"121332033","operator":"Gmina U\u015bcie Gorlickie","operator:type":"government","amenity":"kindergarten","note":"Parent RSPO: 70727"}},{"id":85311,"type":"Feature","geometry":{"type":"Point","coordinates":[21.174089431763,49.598918531494]},"properties":{"isced:level":"1;2","ref:rspo":85311,"official_name":"Szko\u0142a Podstawowa w Wysowej-Zdroju","name":"Szko\u0142a Podstawowa w Wysowej-Zdroju","addr:country":"PL","addr:postcode":"38-316","addr:place":"Wysowa-Zdr\u00f3j","addr:housenumber":"97","addr:teryt:sym_ul":468370,"contact:phone":"+48 183532049","contact:email":"spwysowa@interia.pl","contact:website":"http:\/\/wwwzspwysowa.pl","ref:regon":"490675468","operator":"Gmina U\u015bcie Gorlickie","operator:type":"government","amenity":"school","note":"Parent RSPO: 70731"}},{"id":85354,"type":"Feature","geometry":{"type":"Point","coordinates":[21.174089431763,49.598888531494]},"properties":{"ref:rspo":85354,"official_name":"Publiczne Przedszkole w Wysowej-Zdroju","name":"Publiczne Przedszkole w Wysowej-Zdroju","addr:country":"PL","addr:postcode":"38-316","addr:place":"Wysowa-Zdr\u00f3j","addr:housenumber":"97","addr:teryt:sym_ul":468370,"contact:phone":"+48 183532049","contact:email":"spwysowa@interia.pl","contact:website":"http:\/\/zspwysowa.pl","ref:regon":"492014742","operator":"Gmina U\u015bcie Gorlickie","operator:type":"government","amenity":"kindergarten","note":"Parent RSPO: 70731"}},{"id":85629,"type":"Feature","geometry":{"type":"Point","coordinates":[21.174089431763,49.598858531493995]},"properties":{"isced:level":"1;2","ref:rspo":85629,"official_name":"Szko\u0142a Podstawowa w G\u0142adyszowie Filia w Smerekowcu","name":"Szko\u0142a Podstawowa w G\u0142adyszowie Filia w Smerekowcu","addr:country":"PL","addr:postcode":"38-315","addr:place":"Smerekowiec","addr:housenumber":"30","addr:teryt:sym_ul":468230,"contact:phone":"+48 183516013","contact:email":"spgladyszow@op.pl","ref:regon":"490675451","operator":"Gmina U\u015bcie Gorlickie","operator:type":"government","amenity":"school","note":"Parent RSPO: 70737"}},{"id":131480,"type":"Feature","geometry":{"type":"Point","coordinates":[21.174089431763,49.598828531494]},"properties":{"ref:rspo":131480,"official_name":"Publiczne Przedszkole w Smerekowcu","name":"Publiczne Przedszkole w Smerekowcu","addr:country":"PL","addr:postcode":"38-315","addr:place":"Smerekowiec","addr:housenumber":"41","addr:teryt:sym_ul":468230,"contact:phone":"+48 183516013","contact:email":"spgladyszow@wp.pl","ref:regon":"365194079","operator":"Gmina U\u015bcie Gorlickie","operator:type":"government","amenity":"kindergarten","note":"Parent RSPO: 131496"}}]}