{
    "type": "FeatureCollection",
    "features": [
        {
            "id": 90825,
            "type": "Feature",
            "geometry": {
                "type": "Point",
                "coordinates": [
                    21.0942,
                    49.6217
                ]
            },
            "properties": {
                "ref:rspo": 90825,
                "official_name": "Samorz\u0105dowe Przedszkole w Szymbarku",
                "name": "Samorz\u0105dowe Przedszkole w Szymbarku",
                "addr:country": "PL",
                "addr:postcode": "38-311",
                "addr:place": "Szymbark",
                "addr:housenumber": "464",
                "addr:teryt:sym_ul": 425656,
                "contact:phone": "+48 183513433",
                "contact:email": "p-szymbark@gmina.gorlice.pl",
                "ref:regon": "121432160",
                "ref:vatin": "PL7382131637",
                "operator": "Gmina Gorlice",
                "operator:type": "government",
                "amenity": "kindergarten"
            }
        },
        {
            "id": 90861,
            "type": "Feature",
            "geometry": {
                "type": "Point",
                "coordinates": [
                    21.0942,
                    49.621669999999995
                ]
            },
            "properties": {
                "isced:level": "1;2",
                "ref:rspo": 90861,
                "official_name": "Szko\u0142a Podstawowa im.\u015bw. Jana Paw\u0142a II w Szymbarku",
                "name": "Szko\u0142a Podstawowa im.\u015bw. Jana Paw\u0142a II w Szymbarku",
                "addr:country": "PL",
                "addr:postcode": "38-311",
                "addr:place": "Szymbark",
                "addr:housenumber": "464",
                "addr:teryt:sym_ul": 425656,
                "contact:phone": "+48 183513567",
                "contact:email": "sp-szymbark@gmina.gorlice.pl",
                "contact:website": "http:\/\/www.szkolawszymbarku.pl",
                "ref:regon": "492828261",
                "ref:vatin": "PL7381893776",
                "operator": "Gmina Gorlice",
                "operator:type": "government",
                "amenity": "school"
            }
        },
        {
            "id": 38689,
            "type": "Feature",
            "geometry": {
                "type": "Point",
                "coordinates": [
                    21.104782,
                    49.6250287
                ]
            },
            "properties": {
                "ref:rspo": 38689,
                "official_name": "Specjalny O\u015brodek Szkolno-Wychowawczy im. Janusza Korczaka w Szymbarku",
                "name": "Specjalny O\u015brodek Szkolno-Wychowawczy",
                "addr:country": "PL",
                "addr:postcode": "38-311",
                "addr:place": "Szymbark",
                "addr:housenumber": "250",
                "addr:teryt:sym_ul": 425656,
                "contact:phone": "+48 183513015",
                "contact:email": "soswsekretariat@szymbark.edu.pl",
                "contact:website": "http:\/\/szymbark.edu.pl",
                "ref:regon": "000241809",
                "ref:vatin": "PL7381022194",
                "operator": "Powiat Gorlicki",
                "operator:type": "government",
                "amenity": "school",
                "note": "Children RSPO: 52348;53929;124218"
            }
        },
        {
            "id": 52348,
            "type": "Feature",
            "geometry": {
                "type": "Point",
                "coordinates": [
                    21.104782,
                    49.6249987
                ]
            },
            "properties": {
                "isced:level": "3",
                "ref:rspo": 52348,
                "official_name": "Bran\u017cowa Szko\u0142a I Stopnia Specjalna w Szymbarku",
                "name": "Bran\u017cowa Szko\u0142a I Stopnia Specjalna w Szymbarku",
                "addr:country": "PL",
                "addr:postcode": "38-311",
                "addr:place": "Szymbark",
                "addr:housenumber": "250",
                "addr:teryt:sym_ul": 425656,
                "contact:phone": "+48 183513015",
                "contact:email": "soswszymbark@interia.pl",
                "contact:website": "http:\/\/szymbark.edu.pl",
                "ref:regon": "852720387",
                "operator": "Powiat Gorlicki",
                "operator:type": "government",
                "amenity": "school",
                "note": "Parent RSPO: 38689"
            }
        },
        {
            "id": 53929,
            "type": "Feature",
            "geometry": {
                "type": "Point",
                "coordinates": [
                    21.104782,
                    49.624968700000004
                ]
            },
            "properties": {
                "isced:level": "1;2",
                "ref:rspo": 53929,
                "official_name": "Szko\u0142a Podstawowa Specjalna w Szymbarku",
                "name": "Szko\u0142a Podstawowa Specjalna w Szymbarku",
                "addr:country": "PL",
                "addr:postcode": "38-311",
                "addr:place": "Szymbark",
                "addr:housenumber": "250",
                "addr:teryt:sym_ul": 425656,
                "contact:phone": "+48 183513015",
                "contact:email": "soswszymbark@interia.pl",
                "contact:website": "http:\/\/szymbark.edu.pl",
                "ref:regon": "852720401",
                "operator": "Powiat Gorlicki",
                "operator:type": "government",
                "amenity": "school",
                "note": "Parent RSPO: 38689"
            }
        },
        {
            "id": 124218,
            "type": "Feature",
            "geometry": {
                "type": "Point",
                "coordinates": [
                    21.104782,
                    49.6249387
                ]
            },
            "properties": {
                "ref:rspo": 124218,
                "official_name": "Szko\u0142a Specjalna Przysposabiaj\u0105ca Do Pracy w Szymbarku",
                "name": "Szko\u0142a Specjalna Przysposabiaj\u0105ca Do Pracy w Szymbarku",
                "addr:country": "PL",
                "addr:postcode": "38-311",
                "addr:place": "Szymbark",
                "addr:housenumber": "250",
                "addr:teryt:sym_ul": 425656,
                "contact:phone": "+48 183513015",
                "contact:email": "soswszymbark@interia.pl",
                "ref:regon": "123190235",
                "operator": "Powiat Gorlicki",
                "operator:type": "government",
                "amenity": "school",
                "note": "Parent RSPO: 38689"
            }
        },
        {
            "id": 90823,
            "type": "Feature",
            "geometry": {
                "type": "Point",
                "coordinates": [
                    21.14356,
                    49.6403899
                ]
            },
            "properties": {
                "ref:rspo": 90823,
                "official_name": "Samorz\u0105dowe Przedszkole w Ropicy Polskiej",
                "name": "Samorz\u0105dowe Przedszkole w Ropicy Polskiej",
                "addr:country": "PL",
                "addr:postcode": "38-300",
                "addr:place": "Ropica Polska",
                "addr:housenumber": "70",
                "addr:teryt:sym_ul": 425521,
                "contact:phone": "+48 183526214",
                "contact:email": "p-ropicapolska@gmina.gorlice.pl",
                "ref:regon": "121432059",
                "ref:vatin": "PL7382131494",
                "operator": "Gmina Gorlice",
                "operator:type": "government",
                "amenity": "kindergarten"
            }
        },
        {
            "id": 90850,
            "type": "Feature",
            "geometry": {
                "type": "Point",
                "coordinates": [
                    21.14356,
                    49.6403599
                ]
            },
            "properties": {
                "isced:level": "1;2",
                "ref:rspo": 90850,
                "official_name": "Szko\u0142a Podstawowa im. Gen. W\u0142adys\u0142awa Sikorskiego w Ropicy Polskiej",
                "name": "Szko\u0142a Podstawowa",
                "addr:country": "PL",
                "addr:postcode": "38-300",
                "addr:place": "Ropica Polska",
                "addr:housenumber": "70",
                "addr:teryt:sym_ul": 425521,
                "contact:phone": "+48 183526703",
                "contact:email": "zes11@op.pl",
                "contact:website": "http:\/\/www.zsropicapolska.pl",
                "ref:regon": "492828380",
                "ref:vatin": "PL7381893782",
                "operator": "Gmina Gorlice",
                "operator:type": "government",
                "amenity": "school"
            }
        },
        {
            "id": 90828,
            "type": "Feature",
            "geometry": {
                "type": "Point",
                "coordinates": [
                    21.2181,
                    49.64992
                ]
            },
            "properties": {
                "ref:rspo": 90828,
                "official_name": "Samorz\u0105dowe Przedszkole w Dominikowicach",
                "name": "Samorz\u0105dowe Przedszkole w Dominikowicach",
                "addr:country": "PL",
                "addr:postcode": "38-303",
                "addr:place": "Dominikowice",
                "addr:housenumber": "402",
                "addr:teryt:sym_ul": 425283,
                "contact:phone": "+48 183531684",
                "contact:email": "p-dominikowice@gmina.gorlice.pl",
                "ref:regon": "121432036",
                "ref:vatin": "PL7382131614",
                "operator": "Gmina Gorlice",
                "operator:type": "government",
                "amenity": "kindergarten"
            }
        },
        {
            "id": 34351,
            "type": "Feature",
            "geometry": {
                "type": "Point",
                "coordinates": [
                    21.09622,
                    49.65374
                ]
            },
            "properties": {
                "ref:rspo": 34351,
                "official_name": "Zesp\u00f3\u0142 Szk\u00f3\u0142 Centrum Kszta\u0142cenia Rolniczego w Bystrej",
                "name": "Zesp\u00f3\u0142 Szk\u00f3\u0142 Centrum Kszta\u0142cenia Rolniczego w Bystrej",
                "addr:country": "PL",
                "addr:postcode": "38-300",
                "addr:place": "Bystra",
                "addr:housenumber": "156",
                "addr:teryt:sym_ul": 425194,
                "contact:phone": "+48 183513169",
                "contact:email": "zsabystra@op.pl",
                "contact:website": "http:\/\/zsabystra.com.pl",
                "ref:regon": "492811540",
                "ref:vatin": "PL7381907188",
                "operator": "Ministerstwo Rolnictwa I Rozwoju Wsi",
                "operator:type": "public",
                "landuse": "education",
                "fixme": "amenity=school, amenity=college albo landuse=education w zale\u017cno\u015bci od tego, jakie plac\u00f3wki wchodz\u0105 w sk\u0142ad zespo\u0142u. Sprawd\u017a, kiedy stosowa\u0107 amenity=* a kiedy landuse=education.",
                "note": "Children RSPO: 104450;104452;130460"
            }
        },
        {
            "id": 104450,
            "type": "Feature",
            "geometry": {
                "type": "Point",
                "coordinates": [
                    21.09622,
                    49.65371
                ]
            },
            "properties": {
                "isced:level": "3",
                "ref:rspo": 104450,
                "official_name": "Technikum w Bystrej",
                "name": "Technikum w Bystrej",
                "addr:country": "PL",
                "addr:postcode": "38-300",
                "addr:place": "Bystra",
                "addr:housenumber": "156",
                "addr:teryt:sym_ul": 425194,
                "contact:phone": "+48 183513169",
                "contact:email": "zsabystra@op.pl",
                "contact:website": "http:\/\/www.zsabystra.com.pl",
                "ref:regon": "000094768",
                "operator": "Ministerstwo Rolnictwa I Rozwoju Wsi",
                "operator:type": "public",
                "amenity": "school",
                "note": "Parent RSPO: 34351"
            }
        },
        {
            "id": 104452,
            "type": "Feature",
            "geometry": {
                "type": "Point",
                "coordinates": [
                    21.09622,
                    49.65368
                ]
            },
            "properties": {
                "isced:level": "3",
                "ref:rspo": 104452,
                "official_name": "Branzowa Szko\u0142a I Stopnia w Bystrej",
                "name": "Branzowa Szko\u0142a I Stopnia w Bystrej",
                "addr:country": "PL",
                "addr:postcode": "38-300",
                "addr:place": "Bystra",
                "addr:housenumber": "156",
                "addr:teryt:sym_ul": 425194,
                "contact:phone": "+48 523726265",
                "contact:email": "zsabystra@op.pl",
                "contact:website": "http:\/\/www.zsabystra.com.pl",
                "ref:regon": "492811527",
                "operator": "Ministerstwo Rolnictwa I Rozwoju Wsi",
                "operator:type": "public",
                "amenity": "school",
                "note": "Parent RSPO: 34351"
            }
        },
        {
            "id": 130460,
            "type": "Feature",
            "geometry": {
                "type": "Point",
                "coordinates": [
                    21.09622,
                    49.65365
                ]
            },
            "properties": {
                "ref:rspo": 130460,
                "official_name": "Centrum Kszta\u0142cenia Ustawicznego w Bystrej",
                "name": "Centrum Kszta\u0142cenia Ustawicznego w Bystrej",
                "addr:country": "PL",
                "addr:postcode": "38-300",
                "addr:place": "Bystra",
                "addr:housenumber": "156",
                "addr:teryt:sym_ul": 425194,
                "contact:phone": "+48 183513169",
                "contact:email": "zsabystra@op.pl",
                "contact:website": "http:\/\/www.zsabystra.com.pl",
                "ref:regon": "364034899",
                "operator": "Ministerstwo Rolnictwa I Rozwoju Wsi",
                "operator:type": "public",
                "fixme": "w zale\u017cno\u015bci od przedmiotu dzia\u0142alno\u015bci (np. amenity=training + training=*, amenity=dancing_school, amenity=language_school, amenity=music_school)",
                "note": "Parent RSPO: 34351"
            }
        },
        {
            "id": 90847,
            "type": "Feature",
            "geometry": {
                "type": "Point",
                "coordinates": [
                    21.2163323,
                    49.6538876
                ]
            },
            "properties": {
                "isced:level": "1;2",
                "ref:rspo": 90847,
                "official_name": "Szko\u0142a Podstawowa im. Adama Mickiewicza w Dominikowicach",
                "name": "Szko\u0142a Podstawowa",
                "addr:country": "PL",
                "addr:postcode": "38-303",
                "addr:place": "Dominikowice",
                "addr:housenumber": "50",
                "addr:teryt:sym_ul": 425283,
                "contact:phone": "+48 183531753",
                "contact:email": "sp-dominikowice@gmina.gorlice.pl",
                "contact:website": "http:\/\/www.dominikowice.pl",
                "ref:regon": "492828338",
                "ref:vatin": "PL7381893799",
                "operator": "Gmina Gorlice",
                "operator:type": "government",
                "amenity": "school"
            }
        },
        {
            "id": 90819,
            "type": "Feature",
            "geometry": {
                "type": "Point",
                "coordinates": [
                    21.09394,
                    49.65511
                ]
            },
            "properties": {
                "ref:rspo": 90819,
                "official_name": "Samorz\u0105dowe Przedszkole w Bystrej",
                "name": "Samorz\u0105dowe Przedszkole w Bystrej",
                "addr:country": "PL",
                "addr:postcode": "38-300",
                "addr:place": "Bystra",
                "addr:housenumber": "154",
                "addr:teryt:sym_ul": 425194,
                "contact:phone": "+48 184476500",
                "contact:email": "p-bystra@gmina.gorlice.pl",
                "ref:regon": "121431976",
                "ref:vatin": "PL7382131620",
                "operator": "Gmina Gorlice",
                "operator:type": "government",
                "amenity": "kindergarten"
            }
        },
        {
            "id": 90832,
            "type": "Feature",
            "geometry": {
                "type": "Point",
                "coordinates": [
                    21.09394,
                    49.65508
                ]
            },
            "properties": {
                "isced:level": "1;2",
                "ref:rspo": 90832,
                "official_name": "Szko\u0142a Podstawowa im. Juliusza S\u0142owackiego w Bystrej",
                "name": "Szko\u0142a Podstawowa",
                "addr:country": "PL",
                "addr:postcode": "38-300",
                "addr:place": "Bystra",
                "addr:housenumber": "154",
                "addr:teryt:sym_ul": 425194,
                "contact:phone": "+48 183513166",
                "contact:email": "bystra01@poczta.onet.pl",
                "contact:website": "http:\/\/www.spbystra.edu.pl",
                "ref:regon": "490635279",
                "ref:vatin": "PL7381921449",
                "operator": "Gmina Gorlice",
                "operator:type": "government",
                "amenity": "school"
            }
        },
        {
            "id": 277568,
            "type": "Feature",
            "geometry": {
                "type": "Point",
                "coordinates": [
                    21.14216,
                    49.66698
                ]
            },
            "properties": {
                "ref:rspo": 277568,
                "official_name": "Zesp\u00f3\u0142 Szkolno-Przedszkolny w Str\u00f3\u017c\u00f3wce",
                "name": "Zesp\u00f3\u0142 Szkolno-Przedszkolny w Str\u00f3\u017c\u00f3wce",
                "addr:country": "PL",
                "addr:postcode": "38-300",
                "addr:place": "Str\u00f3\u017c\u00f3wka",
                "addr:housenumber": "159",
                "addr:teryt:sym_ul": 425573,
                "contact:phone": "+48 183536601",
                "contact:email": "sp-strozowka@gmina.gorlice.pl",
                "contact:website": "http:\/\/www.szkolastrozowka.netstrefa.pl",
                "ref:regon": "389134510",
                "operator": "Gmina Gorlice",
                "operator:type": "government",
                "landuse": "education",
                "fixme": "amenity=school, amenity=college albo landuse=education w zale\u017cno\u015bci od tego, jakie plac\u00f3wki wchodz\u0105 w sk\u0142ad zespo\u0142u. Sprawd\u017a, kiedy stosowa\u0107 amenity=* a kiedy landuse=education.",
                "note": "Children RSPO: 90826;90860"
            }
        },
        {
            "id": 90826,
            "type": "Feature",
            "geometry": {
                "type": "Point",
                "coordinates": [
                    21.14216,
                    49.66695
                ]
            },
            "properties": {
                "ref:rspo": 90826,
                "official_name": "Samorz\u0105dowe Przedszkole w Str\u00f3\u017c\u00f3wce",
                "name": "Samorz\u0105dowe Przedszkole w Str\u00f3\u017c\u00f3wce",
                "addr:country": "PL",
                "addr:postcode": "38-300",
                "addr:place": "Str\u00f3\u017c\u00f3wka",
                "addr:housenumber": "159",
                "addr:teryt:sym_ul": 425573,
                "contact:phone": "+48 183537274",
                "contact:email": "spws359@interia.pl",
                "ref:regon": "121432119",
                "ref:vatin": "PL7382131608",
                "operator": "Gmina Gorlice",
                "operator:type": "government",
                "amenity": "kindergarten",
                "note": "Parent RSPO: 277568"
            }
        },
        {
            "id": 90860,
            "type": "Feature",
            "geometry": {
                "type": "Point",
                "coordinates": [
                    21.14216,
                    49.666920000000005
                ]
            },
            "properties": {
                "isced:level": "1;2",
                "ref:rspo": 90860,
                "official_name": "Szko\u0142a Podstawowa im. Jana Paw\u0142a II w Str\u00f3\u017c\u00f3wce",
                "name": "Szko\u0142a Podstawowa",
                "addr:country": "PL",
                "addr:postcode": "38-300",
                "addr:place": "Str\u00f3\u017c\u00f3wka",
                "addr:housenumber": "159",
                "addr:teryt:sym_ul": 425573,
                "contact:phone": "+48 183536601",
                "contact:email": "sp-strozowka@gmina.gorlice.pl",
                "contact:website": "http:\/\/szkolastrozowka.netstrefa.pl",
                "ref:regon": "490635256",
                "ref:vatin": "PL7381921455",
                "operator": "Gmina Gorlice",
                "operator:type": "government",
                "amenity": "school",
                "note": "Parent RSPO: 277568"
            }
        },
        {
            "id": 275388,
            "type": "Feature",
            "geometry": {
                "type": "Point",
                "coordinates": [
                    21.2171,
                    49.66724
                ]
            },
            "properties": {
                "ref:rspo": 275388,
                "official_name": "Niepubliczne Przedszkole Na 6!",
                "name": "Niepubliczne Przedszkole Na 6!",
                "addr:country": "PL",
                "addr:postcode": "38-303",
                "addr:place": "Kobylanka",
                "addr:housenumber": "226",
                "addr:teryt:sym_ul": 425389,
                "contact:phone": "+48 502074164",
                "contact:email": "skowd@onet.pl",
                "contact:website": "http:\/\/www.skowd.pl",
                "ref:regon": "386832141",
                "operator": "Stowarzyszenie Kulturalno-O\u015bwiatowe Wsi Dominikowice",
                "operator:type": "ngo",
                "amenity": "kindergarten"
            }
        },
        {
            "id": 90820,
            "type": "Feature",
            "geometry": {
                "type": "Point",
                "coordinates": [
                    21.22271,
                    49.6689099
                ]
            },
            "properties": {
                "ref:rspo": 90820,
                "official_name": "Samorz\u0105dowe Przedszkole w Kobylance",
                "name": "Samorz\u0105dowe Przedszkole w Kobylance",
                "addr:country": "PL",
                "addr:postcode": "38-303",
                "addr:place": "Kobylanka",
                "addr:housenumber": "413",
                "addr:teryt:sym_ul": 425389,
                "contact:phone": "+48 183531686",
                "contact:email": "p-kobylanka@gmina.gorlice.pl",
                "contact:website": "http:\/\/www.kobylanka.schoolpage.pl",
                "ref:regon": "121432013",
                "ref:vatin": "PL7382131519",
                "operator": "Gmina Gorlice",
                "operator:type": "government",
                "amenity": "kindergarten"
            }
        },
        {
            "id": 90848,
            "type": "Feature",
            "geometry": {
                "type": "Point",
                "coordinates": [
                    21.22271,
                    49.6688799
                ]
            },
            "properties": {
                "isced:level": "1;2",
                "ref:rspo": 90848,
                "official_name": "Szko\u0142a Podstawowa im. Ignacego \u0141ukasiewicza w Kobylance",
                "name": "Szko\u0142a Podstawowa",
                "addr:country": "PL",
                "addr:postcode": "38-303",
                "addr:place": "Kobylanka",
                "addr:housenumber": "413",
                "addr:teryt:sym_ul": 425389,
                "contact:phone": "+48 183531510",
                "contact:email": "zs_kobylanka@wp.pl",
                "ref:regon": "492828210",
                "ref:vatin": "PL7381893813",
                "operator": "Gmina Gorlice",
                "operator:type": "government",
                "amenity": "school"
            }
        },
        {
            "id": 38688,
            "type": "Feature",
            "geometry": {
                "type": "Point",
                "coordinates": [
                    21.2109981,
                    49.6859248
                ]
            },
            "properties": {
                "ref:rspo": 38688,
                "official_name": "Specjalny O\u015brodek Szkolno-Wychowawczy im. Marii Grzegorzewskiej w Kobylance",
                "name": "Specjalny O\u015brodek Szkolno-Wychowawczy",
                "addr:country": "PL",
                "addr:postcode": "38-303",
                "addr:place": "Kobylanka",
                "addr:housenumber": "162",
                "addr:teryt:sym_ul": 425389,
                "contact:phone": "+48 183531788",
                "contact:email": "sekretariat@soswkobylanka.pl",
                "contact:website": "http:\/\/soswkobylanka.pl",
                "ref:regon": "000180373",
                "ref:vatin": "PL7381032117",
                "operator": "Powiat Gorlicki",
                "operator:type": "government",
                "amenity": "school",
                "note": "Children RSPO: 50405;53058"
            }
        },
        {
            "id": 50405,
            "type": "Feature",
            "geometry": {
                "type": "Point",
                "coordinates": [
                    21.2109981,
                    49.6858948
                ]
            },
            "properties": {
                "ref:rspo": 50405,
                "official_name": "Szko\u0142a Specjalna Przysposabiaj\u0105ca Do Pracy w Kobylance",
                "name": "Szko\u0142a Specjalna Przysposabiaj\u0105ca Do Pracy w Kobylance",
                "addr:country": "PL",
                "addr:postcode": "38-303",
                "addr:place": "Kobylanka",
                "addr:housenumber": "162",
                "addr:teryt:sym_ul": 425389,
                "contact:phone": "+48 183531788",
                "contact:email": "sekretariat@soswkobylanka.pl",
                "contact:website": "http:\/\/soswkobylanka.pl",
                "ref:regon": "120051786",
                "operator": "Powiat Gorlicki",
                "operator:type": "government",
                "amenity": "school",
                "note": "Parent RSPO: 38688"
            }
        },
        {
            "id": 53058,
            "type": "Feature",
            "geometry": {
                "type": "Point",
                "coordinates": [
                    21.2109981,
                    49.685864800000004
                ]
            },
            "properties": {
                "isced:level": "1;2",
                "ref:rspo": 53058,
                "official_name": "Szko\u0142a Podstawowa Specjalna w Kobylance",
                "name": "Szko\u0142a Podstawowa Specjalna w Kobylance",
                "addr:country": "PL",
                "addr:postcode": "38-303",
                "addr:place": "Kobylanka",
                "addr:housenumber": "162",
                "addr:teryt:sym_ul": 425389,
                "contact:phone": "+48 183531788",
                "contact:email": "sekretariat@soswkobylanka.pl",
                "contact:website": "http:\/\/soswkobylanka.pl",
                "ref:regon": "852720890",
                "operator": "Powiat Gorlicki",
                "operator:type": "government",
                "amenity": "school",
                "note": "Parent RSPO: 38688"
            }
        },
        {
            "id": 103686,
            "type": "Feature",
            "geometry": {
                "type": "Point",
                "coordinates": [
                    21.15811,
                    49.69852
                ]
            },
            "properties": {
                "isced:level": "1;2",
                "ref:rspo": 103686,
                "official_name": "Szko\u0142a Podstawowa im. Komisji Edukacji Narodowej w Zag\u00f3rzanach",
                "name": "Szko\u0142a Podstawowa",
                "addr:country": "PL",
                "addr:postcode": "38-333",
                "addr:place": "Zag\u00f3rzany",
                "addr:housenumber": "230",
                "addr:teryt:sym_ul": 425952,
                "contact:phone": "+48 183512596",
                "contact:email": "sekretariat@spzagorzany.pl",
                "contact:website": "http:\/\/www.spzagorzany.pl",
                "ref:regon": "492828350",
                "ref:vatin": "PL7381893807",
                "operator": "Gmina Gorlice",
                "operator:type": "government",
                "amenity": "school"
            }
        },
        {
            "id": 90827,
            "type": "Feature",
            "geometry": {
                "type": "Point",
                "coordinates": [
                    21.15916,
                    49.69935
                ]
            },
            "properties": {
                "ref:rspo": 90827,
                "official_name": "Samorz\u0105dowe Przedszkole w Zag\u00f3rzanach",
                "name": "Samorz\u0105dowe Przedszkole w Zag\u00f3rzanach",
                "addr:country": "PL",
                "addr:postcode": "38-333",
                "addr:place": "Zag\u00f3rzany",
                "addr:housenumber": "235",
                "addr:teryt:sym_ul": 425952,
                "contact:phone": "+48 183512592",
                "contact:email": "p-zagorzany@gmina.gorlice.pl",
                "ref:regon": "121432177",
                "ref:vatin": "PL7382131502",
                "operator": "Gmina Gorlice",
                "operator:type": "government",
                "amenity": "kindergarten"
            }
        },
        {
            "id": 277521,
            "type": "Feature",
            "geometry": {
                "type": "Point",
                "coordinates": [
                    21.21222,
                    49.70127
                ]
            },
            "properties": {
                "ref:rspo": 277521,
                "official_name": "Zesp\u00f3\u0142 Szkolno-Przedszkolny w Kl\u0119czanach",
                "name": "Zesp\u00f3\u0142 Szkolno-Przedszkolny w Kl\u0119czanach",
                "addr:country": "PL",
                "addr:postcode": "38-333",
                "addr:place": "Kl\u0119czany",
                "addr:housenumber": "2",
                "addr:teryt:sym_ul": 425343,
                "contact:phone": "+48 183511104",
                "contact:email": "zsp-kleczany@gmina.gorlice.pl",
                "ref:regon": "389033989",
                "operator": "Gmina Gorlice",
                "operator:type": "government",
                "landuse": "education",
                "fixme": "amenity=school, amenity=college albo landuse=education w zale\u017cno\u015bci od tego, jakie plac\u00f3wki wchodz\u0105 w sk\u0142ad zespo\u0142u. Sprawd\u017a, kiedy stosowa\u0107 amenity=* a kiedy landuse=education.",
                "note": "Children RSPO: 103661;277520"
            }
        },
        {
            "id": 103661,
            "type": "Feature",
            "geometry": {
                "type": "Point",
                "coordinates": [
                    21.21222,
                    49.70124
                ]
            },
            "properties": {
                "isced:level": "1;2",
                "ref:rspo": 103661,
                "official_name": "Szko\u0142a Podstawowa im. \u015awi\u0119tej Jadwigi Kr\u00f3lowej w Kl\u0119czanach",
                "name": "Szko\u0142a Podstawowa",
                "addr:country": "PL",
                "addr:postcode": "38-333",
                "addr:place": "Kl\u0119czany",
                "addr:housenumber": "2",
                "addr:teryt:sym_ul": 425343,
                "contact:phone": "+48 183511104",
                "contact:email": "sp-kleczany@gmina.gorlice.pl",
                "contact:website": "http:\/\/www.spkleczany.pl",
                "ref:regon": "490635196",
                "ref:vatin": "PL7381921432",
                "operator": "Gmina Gorlice",
                "operator:type": "government",
                "amenity": "school",
                "note": "Parent RSPO: 277521"
            }
        },
        {
            "id": 277520,
            "type": "Feature",
            "geometry": {
                "type": "Point",
                "coordinates": [
                    21.21222,
                    49.70121
                ]
            },
            "properties": {
                "ref:rspo": 277520,
                "official_name": "Samorz\u0105dowe Przedszkole w Kl\u0119czanach",
                "name": "Samorz\u0105dowe Przedszkole w Kl\u0119czanach",
                "addr:country": "PL",
                "addr:postcode": "38-333",
                "addr:place": "Kl\u0119czany",
                "addr:housenumber": "2",
                "addr:teryt:sym_ul": 425343,
                "contact:phone": "+48 183511104",
                "contact:email": "sp-kleczany@gmina.gorlice.pl",
                "contact:website": "http:\/\/www.spkleczany.pl",
                "ref:regon": "389031542",
                "operator": "Gmina Gorlice",
                "operator:type": "government",
                "amenity": "kindergarten",
                "note": "Parent RSPO: 277521"
            }
        },
        {
            "id": 263644,
            "type": "Feature",
            "geometry": {
                "type": "Point",
                "coordinates": [
                    21.16378,
                    49.72184
                ]
            },
            "properties": {
                "ref:rspo": 263644,
                "official_name": "Zesp\u00f3\u0142 Szkolno-Przedszkolny w Kwiatonowicach",
                "name": "Zesp\u00f3\u0142 Szkolno-Przedszkolny w Kwiatonowicach",
                "addr:country": "PL",
                "addr:postcode": "38-333",
                "addr:place": "Kwiatonowice",
                "addr:housenumber": "21",
                "addr:teryt:sym_ul": 425478,
                "contact:phone": "+48 183512520",
                "contact:email": "szkola_kwiatonowice@poczta.onet.pl",
                "ref:regon": "368210287",
                "ref:vatin": "PL7382152941",
                "operator": "Gmina Gorlice",
                "operator:type": "government",
                "landuse": "education",
                "fixme": "amenity=school, amenity=college albo landuse=education w zale\u017cno\u015bci od tego, jakie plac\u00f3wki wchodz\u0105 w sk\u0142ad zespo\u0142u. Sprawd\u017a, kiedy stosowa\u0107 amenity=* a kiedy landuse=education.",
                "note": "Children RSPO: 90821;90824"
            }
        },
        {
            "id": 90821,
            "type": "Feature",
            "geometry": {
                "type": "Point",
                "coordinates": [
                    21.16378,
                    49.72181
                ]
            },
            "properties": {
                "isced:level": "1;2",
                "ref:rspo": 90821,
                "official_name": "Szko\u0142a Podstawowa im. Marii Konopnickiej w Kwiatonowicach",
                "name": "Szko\u0142a Podstawowa",
                "addr:country": "PL",
                "addr:postcode": "38-333",
                "addr:place": "Kwiatonowice",
                "addr:housenumber": "21",
                "addr:teryt:sym_ul": 425478,
                "contact:phone": "+48 183512520",
                "contact:email": "szkola_kwiatonowice@poczta.onet.pl",
                "ref:regon": "490635262",
                "operator": "Gmina Gorlice",
                "operator:type": "government",
                "amenity": "school",
                "note": "Parent RSPO: 263644"
            }
        },
        {
            "id": 90824,
            "type": "Feature",
            "geometry": {
                "type": "Point",
                "coordinates": [
                    21.16378,
                    49.72178
                ]
            },
            "properties": {
                "ref:rspo": 90824,
                "official_name": "Samorz\u0105dowe Przedszkole w Kwiatonowicach",
                "name": "Samorz\u0105dowe Przedszkole w Kwiatonowicach",
                "addr:country": "PL",
                "addr:postcode": "38-333",
                "addr:place": "Kwiatonowice",
                "addr:housenumber": "21",
                "addr:teryt:sym_ul": 425478,
                "contact:phone": "+48 183511272",
                "contact:email": "szkola_kwiatonowice@poczta.onet.pl",
                "ref:regon": "121432071",
                "ref:vatin": "PL7382131583",
                "operator": "Gmina Gorlice",
                "operator:type": "government",
                "amenity": "kindergarten",
                "note": "Parent RSPO: 263644"
            }
        }
    ]
}