{
    "type": "FeatureCollection",
    "features": [
        {
            "id": 59758,
            "type": "Feature",
            "geometry": {
                "type": "Point",
                "coordinates": [
                    21.25375,
                    49.65546
                ]
            },
            "properties": {
                "ref:rspo": 59758,
                "official_name": "Gminne Przedszkole w Krygu",
                "name": "Gminne Przedszkole w Krygu",
                "addr:country": "PL",
                "addr:postcode": "38-304",
                "addr:place": "Kryg",
                "addr:housenumber": "454",
                "addr:teryt:simc": 355849,
                "contact:phone": "+48 134479013",
                "contact:email": "ppkryg@interia.pl",
                "ref:regon": "492000616",
                "ref:vatin": "PL7381838369",
                "operator": "Gmina Lipinki",
                "operator:type": "government",
                "amenity": "kindergarten"
            }
        },
        {
            "id": 59763,
            "type": "Feature",
            "geometry": {
                "type": "Point",
                "coordinates": [
                    21.25626,
                    49.6575
                ]
            },
            "properties": {
                "isced:level": "1;2",
                "ref:rspo": 59763,
                "official_name": "Szko\u0142a Podstawowa im.ignacego \u0141ukasiewicza w Krygu",
                "name": "Szko\u0142a Podstawowa im.ignacego \u0141ukasiewicza w Krygu",
                "addr:country": "PL",
                "addr:postcode": "38-304",
                "addr:place": "Kryg",
                "addr:housenumber": "397",
                "addr:teryt:simc": 355849,
                "contact:phone": "+48 134479011",
                "contact:email": "zs.kryg@gmail.com",
                "contact:website": "http:\/\/www.spkryg.szkolnastrona.pl",
                "ref:regon": "001214683",
                "ref:vatin": "PL7382146863",
                "operator": "Gmina Lipinki",
                "operator:type": "government",
                "amenity": "school"
            }
        },
        {
            "id": 59766,
            "type": "Feature",
            "geometry": {
                "type": "Point",
                "coordinates": [
                    21.29463,
                    49.6706999
                ]
            },
            "properties": {
                "isced:level": "1;2",
                "ref:rspo": 59766,
                "official_name": "Szko\u0142a Podstawowa w Lipinkach",
                "name": "Szko\u0142a Podstawowa w Lipinkach",
                "addr:country": "PL",
                "addr:postcode": "38-305",
                "addr:place": "Lipinki",
                "addr:housenumber": "48",
                "addr:teryt:simc": 355909,
                "contact:phone": "+48 134477041",
                "contact:email": "psplipinki@wp.pl",
                "contact:website": "http:\/\/www.psplipinki.szkolnastrona.pl",
                "ref:regon": "000629761",
                "ref:vatin": "PL6851602765",
                "operator": "Gmina Lipinki",
                "operator:type": "government",
                "amenity": "school"
            }
        },
        {
            "id": 59757,
            "type": "Feature",
            "geometry": {
                "type": "Point",
                "coordinates": [
                    21.29348,
                    49.67105
                ]
            },
            "properties": {
                "ref:rspo": 59757,
                "official_name": "Gminne Przedszkole w Lipinkach",
                "name": "Gminne Przedszkole w Lipinkach",
                "addr:country": "PL",
                "addr:postcode": "38-305",
                "addr:place": "Lipinki",
                "addr:housenumber": "54",
                "addr:teryt:simc": 355909,
                "contact:phone": "+48 134477015",
                "contact:email": "przedszkolelipinki@interia.pl",
                "ref:regon": "000902910",
                "ref:vatin": "PL7381838352",
                "operator": "Gmina Lipinki",
                "operator:type": "government",
                "amenity": "kindergarten"
            }
        },
        {
            "id": 59764,
            "type": "Feature",
            "geometry": {
                "type": "Point",
                "coordinates": [
                    21.33231,
                    49.68804
                ]
            },
            "properties": {
                "isced:level": "1;2",
                "ref:rspo": 59764,
                "official_name": "Szko\u0142a Podstawowa im.\u015bw.jadwigi Kr\u00f3lowej w Pagorzynie",
                "name": "Szko\u0142a Podstawowa im.\u015bw.jadwigi Kr\u00f3lowej w Pagorzynie",
                "addr:country": "PL",
                "addr:postcode": "38-305",
                "addr:place": "Pagorzyna",
                "addr:housenumber": "46",
                "addr:teryt:simc": 355996,
                "contact:phone": "+48 134477009",
                "contact:email": "sppagorzyna@op.pl",
                "contact:website": "http:\/\/www.sppagorzyna.szkolnastrona.pl",
                "ref:regon": "001214690",
                "ref:vatin": "PL6851602699",
                "operator": "Gmina Lipinki",
                "operator:type": "government",
                "amenity": "school"
            }
        },
        {
            "id": 59760,
            "type": "Feature",
            "geometry": {
                "type": "Point",
                "coordinates": [
                    21.29422,
                    49.69475
                ]
            },
            "properties": {
                "isced:level": "1;2",
                "ref:rspo": 59760,
                "official_name": "Szko\u0142a Podstawowa w W\u00f3jtowej",
                "name": "Szko\u0142a Podstawowa w W\u00f3jtowej",
                "addr:country": "PL",
                "addr:postcode": "38-305",
                "addr:place": "W\u00f3jtowa",
                "addr:housenumber": "52",
                "addr:teryt:simc": 356056,
                "contact:phone": "+48 134477350",
                "contact:email": "szpwojtowa@wp.pl",
                "contact:website": "http:\/\/www.spwojtowa.szkolnastrona.pl",
                "ref:regon": "001214677",
                "ref:vatin": "PL6851602736",
                "operator": "Gmina Lipinki",
                "operator:type": "government",
                "amenity": "school"
            }
        }
    ]
}