{
    "type": "FeatureCollection",
    "features": [
        {
            "id": 90336,
            "type": "Feature",
            "geometry": {
                "type": "Point",
                "coordinates": [
                    21.23745,
                    49.69414
                ]
            },
            "properties": {
                "ref:rspo": 90336,
                "official_name": "Zesp\u00f3\u0142 Szkolno-Przedszkolny w Libuszy, Szko\u0142a Podstawowa im. Prof.aleksandra Kosiby I Przedszkole im. Prof. Aleksandra Kosiby",
                "name": "Zesp\u00f3\u0142 Szkolno-Przedszkolny w Libuszy, Szko\u0142a Podstawowa",
                "addr:postcode": "38-306",
                "addr:place": "Libusza",
                "addr:housenumber": "679",
                "addr:city:simc": 345012,
                "phone": "+48 134475695",
                "email": "gimsplibusza@wp.pl",
                "ref:regon": "492828150",
                "ref:vatin": "PL7381902280",
                "operator": "Gmina Biecz",
                "operator:type": "government",
                "landuse": "education",
                "fixme": "amenity=school, amenity=college albo landuse=education w zale\u017cno\u015bci od tego, jakie plac\u00f3wki wchodz\u0105 w sk\u0142ad zespo\u0142u. Sprawd\u017a, kiedy stosowa\u0107 amenity=* a kiedy landuse=education.",
                "note": "Children RSPO: 93017;104987"
            }
        },
        {
            "id": 93017,
            "type": "Feature",
            "geometry": {
                "type": "Point",
                "coordinates": [
                    21.23745,
                    49.694109999999995
                ]
            },
            "properties": {
                "isced:level": "1;2",
                "ref:rspo": 93017,
                "official_name": "Szko\u0142a Podstawowa im. Prof. Aleksandra Kosiby w Libuszy",
                "name": "Szko\u0142a Podstawowa",
                "addr:postcode": "38-306",
                "addr:place": "Libusza",
                "addr:housenumber": "679",
                "addr:city:simc": 345012,
                "phone": "+48 134475695",
                "email": "gimsplibusza@wp.pl",
                "ref:regon": "001200043",
                "operator": "Gmina Biecz",
                "operator:type": "government",
                "amenity": "school",
                "note": "Parent RSPO: 90336"
            }
        },
        {
            "id": 104987,
            "type": "Feature",
            "geometry": {
                "type": "Point",
                "coordinates": [
                    21.23745,
                    49.69408
                ]
            },
            "properties": {
                "ref:rspo": 104987,
                "official_name": "Gminne Przedszkole im.prof.aleksandra Kosiby w Libuszy",
                "name": "Gminne Przedszkole im.prof.aleksandra Kosiby w Libuszy",
                "addr:postcode": "38-306",
                "addr:place": "Libusza",
                "addr:housenumber": "679",
                "addr:city:simc": 345012,
                "phone": "+48 134475695",
                "email": "gimsplibusza@wp.pl",
                "ref:regon": "492828166",
                "operator": "Gmina Biecz",
                "operator:type": "government",
                "amenity": "kindergarten",
                "note": "Parent RSPO: 90336"
            }
        },
        {
            "id": 85762,
            "type": "Feature",
            "geometry": {
                "type": "Point",
                "coordinates": [
                    21.25543,
                    49.70262
                ]
            },
            "properties": {
                "ref:rspo": 85762,
                "official_name": "Zesp\u00f3\u0142 Szkolno-Przedszkolny w Korczynie, Szko\u0142a Podstawowa im.\u015bwi\u0119tej Kingi I Przedszkole \u015awi\u0119tej Kingi",
                "name": "Zesp\u00f3\u0142 Szkolno-Przedszkolny w Korczynie, Szko\u0142a Podstawowa im.\u015bwi\u0119tej Kingi I Przedszkole \u015awi\u0119tej Kingi",
                "addr:postcode": "38-340",
                "addr:place": "Korczyna",
                "addr:housenumber": "213",
                "addr:city:simc": 344946,
                "phone": "+48 134471443",
                "email": "zsp-korczyna@wp.pl",
                "website": "http:\/\/www.zspkorczyna.gorlice.pl",
                "ref:regon": "492827528",
                "ref:vatin": "PL7381920527",
                "operator": "Gmina Biecz",
                "operator:type": "government",
                "landuse": "education",
                "fixme": "amenity=school, amenity=college albo landuse=education w zale\u017cno\u015bci od tego, jakie plac\u00f3wki wchodz\u0105 w sk\u0142ad zespo\u0142u. Sprawd\u017a, kiedy stosowa\u0107 amenity=* a kiedy landuse=education.",
                "note": "Children RSPO: 93031;93032"
            }
        },
        {
            "id": 93031,
            "type": "Feature",
            "geometry": {
                "type": "Point",
                "coordinates": [
                    21.25543,
                    49.70259
                ]
            },
            "properties": {
                "isced:level": "1;2",
                "ref:rspo": 93031,
                "official_name": "Szko\u0142a Podstawowa im.\u015bwi\u0119tej Kingi w Korczynie",
                "name": "Szko\u0142a Podstawowa im.\u015bwi\u0119tej Kingi w Korczynie",
                "addr:postcode": "38-306",
                "addr:place": "Korczyna",
                "addr:housenumber": "213",
                "addr:city:simc": 344946,
                "phone": "+48 134471443",
                "email": "zsp-korczyna@wp.pl",
                "website": "http:\/\/zspkorczyna.gorlice.pl",
                "ref:regon": "001200008",
                "operator": "Gmina Biecz",
                "operator:type": "government",
                "amenity": "school",
                "note": "Parent RSPO: 85762"
            }
        },
        {
            "id": 93032,
            "type": "Feature",
            "geometry": {
                "type": "Point",
                "coordinates": [
                    21.25543,
                    49.702560000000005
                ]
            },
            "properties": {
                "ref:rspo": 93032,
                "official_name": "Gminne Przedszkole im. \u015awietej Kingi w Korczynie",
                "name": "Gminne Przedszkole",
                "addr:postcode": "38-340",
                "addr:place": "Korczyna",
                "addr:housenumber": "213",
                "addr:city:simc": 344946,
                "phone": "+48 134471443",
                "ref:regon": "492040900",
                "operator": "Gmina Biecz",
                "operator:type": "government",
                "amenity": "kindergarten",
                "note": "Parent RSPO: 85762"
            }
        },
        {
            "id": 91846,
            "type": "Feature",
            "geometry": {
                "type": "Point",
                "coordinates": [
                    21.21135,
                    49.72085
                ]
            },
            "properties": {
                "ref:rspo": 91846,
                "official_name": "Gminne Przedszkole w Strzeszynie",
                "name": "Gminne Przedszkole w Strzeszynie",
                "addr:postcode": "38-340",
                "addr:place": "Strzeszyn",
                "addr:housenumber": "448",
                "addr:city:simc": 345354,
                "phone": "+48 134471859",
                "email": "zsp-strzeszyn@wp.pl",
                "website": "http:\/\/www.strzeszyn.szkoly.biecz.pl",
                "ref:regon": "492040870",
                "operator": "Gmina Biecz",
                "operator:type": "government",
                "amenity": "kindergarten",
                "note": "Parent RSPO: 78118"
            }
        },
        {
            "id": 78118,
            "type": "Feature",
            "geometry": {
                "type": "Point",
                "coordinates": [
                    21.21094,
                    49.72202
                ]
            },
            "properties": {
                "ref:rspo": 78118,
                "official_name": "Zesp\u00f3\u0142 Szkolno-Przedszkolny w Strzeszynie, Szko\u0142a Podstawowa im. Miko\u0142aja Kopernika I Przedszkole",
                "name": "Zesp\u00f3\u0142 Szkolno-Przedszkolny w Strzeszynie, Szko\u0142a Podstawowa",
                "addr:postcode": "38-340",
                "addr:place": "Strzeszyn",
                "addr:housenumber": "391",
                "addr:city:simc": 345354,
                "phone": "+48 134471249",
                "email": "zsp-strzeszyn@wp.pl",
                "website": "http:\/\/www.strzeszyn.szkoly.biecz.pl",
                "ref:regon": "492736560",
                "ref:vatin": "PL7381901889",
                "operator": "Gmina Biecz",
                "operator:type": "government",
                "landuse": "education",
                "fixme": "amenity=school, amenity=college albo landuse=education w zale\u017cno\u015bci od tego, jakie plac\u00f3wki wchodz\u0105 w sk\u0142ad zespo\u0142u. Sprawd\u017a, kiedy stosowa\u0107 amenity=* a kiedy landuse=education.",
                "note": "Children RSPO: 91846;93016"
            }
        },
        {
            "id": 93016,
            "type": "Feature",
            "geometry": {
                "type": "Point",
                "coordinates": [
                    21.21094,
                    49.72199
                ]
            },
            "properties": {
                "isced:level": "1;2",
                "ref:rspo": 93016,
                "official_name": "Szko\u0142a Podstawowa im. Miko\u0142aja Kopernika w Strzeszynie",
                "name": "Szko\u0142a Podstawowa",
                "addr:postcode": "38-340",
                "addr:place": "Strzeszyn",
                "addr:housenumber": "391",
                "addr:city:simc": 345354,
                "phone": "+48 134471249",
                "email": "zsp-strzeszyn@wp.pl",
                "website": "http:\/\/www.strzeszyn.szkoly.biecz.pl",
                "ref:regon": "001200020",
                "operator": "Gmina Biecz",
                "operator:type": "government",
                "amenity": "school",
                "note": "Parent RSPO: 78118"
            }
        },
        {
            "id": 265431,
            "type": "Feature",
            "geometry": {
                "type": "Point",
                "coordinates": [
                    21.2444099,
                    49.72834
                ]
            },
            "properties": {
                "ref:rspo": 265431,
                "official_name": "Niepubliczne Przedszkole Zgromadzenia S\u0142u\u017cebnic Naj\u015bwi\u0119tszego Serca Jezusowego",
                "name": "Niepubliczne Przedszkole Zgromadzenia S\u0142u\u017cebnic Naj\u015bwi\u0119tszego Serca Jezusowego",
                "addr:postcode": "38-340",
                "addr:city": "Biecz",
                "addr:street": "Grunwaldzka",
                "addr:housenumber": "20",
                "addr:city:simc": 952752,
                "addr:street:sym_ul": 6260,
                "phone": "+48 133000167",
                "email": "przedszkole.biecz@sercanki.org.pl",
                "website": "http:\/\/przedszkole-biecz.sercanki.org.pl",
                "ref:regon": "368734168",
                "operator": "Zgromadzenie S\u0142u\u017cebnic Naj\u015bwi\u0119tszego Serca Jezusowego",
                "operator:type": "religious",
                "amenity": "kindergarten"
            }
        },
        {
            "id": 89199,
            "type": "Feature",
            "geometry": {
                "type": "Point",
                "coordinates": [
                    21.25237,
                    49.73071
                ]
            },
            "properties": {
                "isced:level": "1;2",
                "ref:rspo": 89199,
                "official_name": "Szko\u0142a Podstawowa nr 1 im.bpa Marcina Kromera w Bieczu",
                "name": "Szko\u0142a Podstawowa nr 1 im.bpa Marcina Kromera w Bieczu",
                "addr:postcode": "38-340",
                "addr:city": "Biecz",
                "addr:street": "Grodzka",
                "addr:housenumber": "22",
                "addr:city:simc": 952752,
                "addr:street:sym_ul": 6163,
                "phone": "+48 134471051",
                "email": "sekretariat@sp1biecz.pl",
                "website": "http:\/\/www.sp1biecz.pl",
                "ref:regon": "001200103",
                "ref:vatin": "PL7381902771",
                "operator": "Gmina Biecz",
                "operator:type": "government",
                "amenity": "school"
            }
        },
        {
            "id": 89001,
            "type": "Feature",
            "geometry": {
                "type": "Point",
                "coordinates": [
                    21.24637,
                    49.73105
                ]
            },
            "properties": {
                "isced:level": "1;2",
                "ref:rspo": 89001,
                "official_name": "Szko\u0142a Podstawowa nr 2 im.wac\u0142awa Potockiego w Bieczu",
                "name": "Szko\u0142a Podstawowa nr 2 im.wac\u0142awa Potockiego w Bieczu",
                "addr:postcode": "38-340",
                "addr:city": "Biecz",
                "addr:street": "Bochniewicza",
                "addr:housenumber": "2",
                "addr:city:simc": 952752,
                "addr:street:sym_ul": 48528,
                "phone": "+48 134471062",
                "email": "sp2biecz@gmail.com",
                "ref:regon": "001200095",
                "operator": "Gmina Biecz",
                "operator:type": "government",
                "amenity": "school"
            }
        },
        {
            "id": 88988,
            "type": "Feature",
            "geometry": {
                "type": "Point",
                "coordinates": [
                    21.25399,
                    49.73268
                ]
            },
            "properties": {
                "ref:rspo": 88988,
                "official_name": "Gminne Przedszkole w Bieczu",
                "name": "Gminne Przedszkole w Bieczu",
                "addr:postcode": "38-340",
                "addr:city": "Biecz",
                "addr:street": "Tysi\u0105clecia",
                "addr:housenumber": "29",
                "addr:city:simc": 952752,
                "addr:street:sym_ul": 23270,
                "phone": "+48 134471341",
                "email": "przedszkolebiecz@interia.pl",
                "ref:regon": "492040857",
                "ref:vatin": "PL7381866928",
                "operator": "Gmina Biecz",
                "operator:type": "government",
                "amenity": "kindergarten"
            }
        },
        {
            "id": 10284,
            "type": "Feature",
            "geometry": {
                "type": "Point",
                "coordinates": [
                    21.25526,
                    49.73289
                ]
            },
            "properties": {
                "ref:rspo": 10284,
                "official_name": "Zesp\u00f3\u0142 Szk\u00f3\u0142 Zawodowych im. \u015aw. Jadwigi Kr\u00f3lowej w Bieczu",
                "name": "Zesp\u00f3\u0142 Szk\u00f3\u0142 Zawodowych",
                "addr:postcode": "38-340",
                "addr:city": "Biecz",
                "addr:street": "Kazimierza Wielkiego",
                "addr:housenumber": "11",
                "addr:city:simc": 952752,
                "addr:street:sym_ul": 8265,
                "phone": "+48 134471023",
                "email": "sekretariat@zszbiecz.pl",
                "website": "http:\/\/zszbiecz.pl",
                "ref:regon": "000236257",
                "ref:vatin": "PL6851566029",
                "operator": "Powiat Gorlicki",
                "operator:type": "government",
                "landuse": "education",
                "fixme": "amenity=school, amenity=college albo landuse=education w zale\u017cno\u015bci od tego, jakie plac\u00f3wki wchodz\u0105 w sk\u0142ad zespo\u0142u. Sprawd\u017a, kiedy stosowa\u0107 amenity=* a kiedy landuse=education.",
                "note": "Children RSPO: 43676;43907;44523"
            }
        },
        {
            "id": 43676,
            "type": "Feature",
            "geometry": {
                "type": "Point",
                "coordinates": [
                    21.25526,
                    49.732859999999995
                ]
            },
            "properties": {
                "isced:level": "4",
                "ref:rspo": 43676,
                "official_name": "Szko\u0142a Policealna w Bieczu",
                "name": "Szko\u0142a Policealna w Bieczu",
                "addr:postcode": "38-340",
                "addr:city": "Biecz",
                "addr:street": "Kazimierza Wielkiego",
                "addr:housenumber": "11",
                "addr:city:simc": 952752,
                "addr:street:sym_ul": 8265,
                "phone": "+48 134471023",
                "email": "sekretariat@zszbiecz.pl",
                "website": "http:\/\/zszbiecz.pl",
                "ref:regon": "120647958",
                "operator": "Powiat Gorlicki",
                "operator:type": "government",
                "amenity": "college",
                "note": "Parent RSPO: 10284"
            }
        },
        {
            "id": 43907,
            "type": "Feature",
            "geometry": {
                "type": "Point",
                "coordinates": [
                    21.25526,
                    49.73283
                ]
            },
            "properties": {
                "isced:level": "3",
                "ref:rspo": 43907,
                "official_name": "Technikum w Bieczu",
                "name": "Technikum w Bieczu",
                "addr:postcode": "38-340",
                "addr:city": "Biecz",
                "addr:street": "Kazimierza Wielkiego",
                "addr:housenumber": "11",
                "addr:city:simc": 952752,
                "addr:street:sym_ul": 8265,
                "phone": "+48 134471023",
                "email": "sekretariat@zszbiecz.pl",
                "website": "http:\/\/zszbiecz.pl",
                "ref:regon": "492901584",
                "operator": "Powiat Gorlicki",
                "operator:type": "government",
                "amenity": "school",
                "note": "Parent RSPO: 10284"
            }
        },
        {
            "id": 44523,
            "type": "Feature",
            "geometry": {
                "type": "Point",
                "coordinates": [
                    21.25526,
                    49.7328
                ]
            },
            "properties": {
                "isced:level": "3",
                "ref:rspo": 44523,
                "official_name": "Bran\u017cowa Szko\u0142a I Stopnia w Bieczu",
                "name": "Bran\u017cowa Szko\u0142a I Stopnia w Bieczu",
                "addr:postcode": "38-340",
                "addr:city": "Biecz",
                "addr:street": "Kazimierza Wielkiego",
                "addr:housenumber": "11",
                "addr:city:simc": 952752,
                "addr:street:sym_ul": 8265,
                "phone": "+48 134471023",
                "email": "sekretariat@zszbiecz.pl",
                "website": "http:\/\/zszbiecz.pl",
                "ref:regon": "492901549",
                "operator": "Powiat Gorlicki",
                "operator:type": "government",
                "amenity": "school",
                "note": "Parent RSPO: 10284"
            }
        },
        {
            "id": 43422,
            "type": "Feature",
            "geometry": {
                "type": "Point",
                "coordinates": [
                    21.25526,
                    49.732769999999995
                ]
            },
            "properties": {
                "ref:rspo": 43422,
                "official_name": "Powiatowy Mi\u0119dzyszkolny O\u015brodek Sportowy w Bieczu",
                "name": "Powiatowy Mi\u0119dzyszkolny O\u015brodek Sportowy w Bieczu",
                "addr:postcode": "38-340",
                "addr:city": "Biecz",
                "addr:street": "Kazimierza Wielkiego",
                "addr:housenumber": "11A",
                "addr:city:simc": 952752,
                "addr:street:sym_ul": 8265,
                "phone": "+48 134457022",
                "email": "pmos@pzpobiecz.pl",
                "website": "http:\/\/pzpobiecz.pl",
                "ref:regon": "492046430",
                "operator": "Powiat Gorlicki",
                "operator:type": "government",
                "leisure": "sports_centre",
                "note": "Parent RSPO: 17477"
            }
        },
        {
            "id": 17477,
            "type": "Feature",
            "geometry": {
                "type": "Point",
                "coordinates": [
                    21.25861,
                    49.73352
                ]
            },
            "properties": {
                "ref:rspo": 17477,
                "official_name": "Powiatowy Zesp\u00f3\u0142 Plac\u00f3wek O\u015bwiatowych w Bieczu",
                "name": "Powiatowy Zesp\u00f3\u0142 Plac\u00f3wek O\u015bwiatowych w Bieczu",
                "addr:postcode": "38-340",
                "addr:city": "Biecz",
                "addr:street": "Parkowa",
                "addr:housenumber": "1",
                "addr:city:simc": 952752,
                "addr:street:sym_ul": 15710,
                "phone": "+48 134471014",
                "email": "pzpobiecz@pzpobiecz.pl",
                "website": "http:\/\/pzpobiecz.pl",
                "ref:regon": "121408003",
                "ref:vatin": "PL7382130750",
                "operator": "Powiat Gorlicki",
                "operator:type": "government",
                "landuse": "education",
                "fixme": "amenity=school, amenity=college albo landuse=education w zale\u017cno\u015bci od tego, jakie plac\u00f3wki wchodz\u0105 w sk\u0142ad zespo\u0142u. Sprawd\u017a, kiedy stosowa\u0107 amenity=* a kiedy landuse=education.",
                "note": "Children RSPO: 43362;43422;43578"
            }
        },
        {
            "id": 264273,
            "type": "Feature",
            "geometry": {
                "type": "Point",
                "coordinates": [
                    21.25861,
                    49.733489999999996
                ]
            },
            "properties": {
                "ref:rspo": 264273,
                "official_name": "Poradnia Psychologiczno-Pedagogiczna w Gorlicach Filia w Bieczu",
                "name": "Poradnia Psychologiczno-Pedagogiczna w Gorlicach Filia w Bieczu",
                "addr:postcode": "38-340",
                "addr:city": "Biecz",
                "addr:street": "Parkowa",
                "addr:housenumber": "1",
                "addr:city:simc": 952752,
                "addr:street:sym_ul": 15710,
                "phone": "+48 134471268",
                "email": "ppp_biecz@poradnia-gorlice.pl",
                "ref:regon": "101863400",
                "operator": "Powiat Gorlicki",
                "operator:type": "government",
                "healthcare": "counselling",
                "counselling_type": "education",
                "fixme": "w zale\u017cno\u015bci od przedmiotu dzia\u0142alno\u015bci (np. healthcare=counselling + counselling_type=education albo healthcare=psychotherapist)",
                "note": "Parent RSPO: 17370"
            }
        },
        {
            "id": 43362,
            "type": "Feature",
            "geometry": {
                "type": "Point",
                "coordinates": [
                    21.25861,
                    49.73346
                ]
            },
            "properties": {
                "ref:rspo": 43362,
                "official_name": "Bursa Szkolna w Bieczu",
                "name": "Bursa Szkolna w Bieczu",
                "addr:postcode": "38-340",
                "addr:city": "Biecz",
                "addr:street": "Parkowa",
                "addr:housenumber": "1",
                "addr:city:simc": 952752,
                "addr:street:sym_ul": 15710,
                "phone": "+48 134471014",
                "email": "dyrektor@pzpobiecz.pl",
                "website": "http:\/\/pzpobiecz.pl",
                "ref:regon": "492837283",
                "operator": "Powiat Gorlicki",
                "operator:type": "government",
                "building": "dormitory",
                "note": "Parent RSPO: 17477"
            }
        },
        {
            "id": 43578,
            "type": "Feature",
            "geometry": {
                "type": "Point",
                "coordinates": [
                    21.25861,
                    49.73343
                ]
            },
            "properties": {
                "ref:rspo": 43578,
                "official_name": "Szkolne Schronisko M\u0142odzie\u017cowe w Bieczu",
                "name": "Szkolne Schronisko M\u0142odzie\u017cowe w Bieczu",
                "addr:postcode": "38-340",
                "addr:city": "Biecz",
                "addr:street": "Parkowa",
                "addr:housenumber": "1",
                "addr:city:simc": 952752,
                "addr:street:sym_ul": 15710,
                "phone": "+48 134471014",
                "email": "ssmbiecz@pzpobiecz.pl",
                "website": "http:\/\/pzpobiecz.pl",
                "ref:regon": "492837254",
                "operator": "Powiat Gorlicki",
                "operator:type": "government",
                "tourism": "hostel",
                "note": "Parent RSPO: 17477"
            }
        },
        {
            "id": 8247,
            "type": "Feature",
            "geometry": {
                "type": "Point",
                "coordinates": [
                    21.25569,
                    49.7339399
                ]
            },
            "properties": {
                "isced:level": "3",
                "ref:rspo": 8247,
                "official_name": "Liceum Og\u00f3lnokszta\u0142c\u0105ce im. Stanis\u0142awa Wyspia\u0144skiego w Bieczu",
                "name": "Liceum Og\u00f3lnokszta\u0142c\u0105ce",
                "addr:postcode": "38-340",
                "addr:city": "Biecz",
                "addr:street": "Tysi\u0105clecia",
                "addr:housenumber": "2",
                "addr:city:simc": 952752,
                "addr:street:sym_ul": 23270,
                "phone": "+48 134471045",
                "email": "sekretariat@lobiecz.pl",
                "website": "http:\/\/lobiecz.pl",
                "ref:regon": "492837308",
                "ref:vatin": "PL7382144657",
                "operator": "Powiat Gorlicki",
                "operator:type": "government",
                "amenity": "school"
            }
        },
        {
            "id": 91823,
            "type": "Feature",
            "geometry": {
                "type": "Point",
                "coordinates": [
                    21.2973,
                    49.73606
                ]
            },
            "properties": {
                "isced:level": "1;2",
                "ref:rspo": 91823,
                "official_name": "Szko\u0142a Podstawowa im. Marii Konopnickiej w Grudnej K\u0119pskiej",
                "name": "Szko\u0142a Podstawowa",
                "addr:postcode": "38-340",
                "addr:place": "Grudna K\u0119pska",
                "addr:housenumber": "91",
                "addr:city:simc": 344892,
                "phone": "+48 134472055",
                "email": "spgrudna@poczta.onet.pl",
                "website": "http:\/\/www.spgrudna.pl",
                "ref:regon": "001200014",
                "ref:vatin": "PL6851663755",
                "operator": "Gmina Biecz",
                "operator:type": "government",
                "amenity": "school"
            }
        },
        {
            "id": 121419,
            "type": "Feature",
            "geometry": {
                "type": "Point",
                "coordinates": [
                    21.15174,
                    49.73619
                ]
            },
            "properties": {
                "isced:level": "1;2",
                "ref:rspo": 121419,
                "official_name": "Szko\u0142a Podstawowa w Bugaju",
                "name": "Szko\u0142a Podstawowa w Bugaju",
                "addr:postcode": "38-323",
                "addr:place": "Bugaj",
                "addr:housenumber": "109",
                "addr:city:simc": 344797,
                "phone": "+48 134471989",
                "email": "blizejdziecka@wp.pl",
                "website": "http:\/\/fundacja.blizej-dziecka.pl\/",
                "ref:regon": "123019620",
                "operator": "Fundacja Bli\u017cej Dziecka",
                "operator:type": "ngo",
                "amenity": "school"
            }
        },
        {
            "id": 85807,
            "type": "Feature",
            "geometry": {
                "type": "Point",
                "coordinates": [
                    21.18307,
                    49.74898
                ]
            },
            "properties": {
                "isced:level": "1;2",
                "ref:rspo": 85807,
                "official_name": "Szko\u0142a Podstawowa im.stefana Czarnieckiego w Rac\u0142awicach",
                "name": "Szko\u0142a Podstawowa im.stefana Czarnieckiego w Rac\u0142awicach",
                "addr:postcode": "38-323",
                "addr:place": "Rac\u0142awice",
                "addr:housenumber": "190",
                "addr:city:simc": 345101,
                "phone": "+48 134476005",
                "email": "spraclaw@poczta.fm",
                "website": "http:\/\/www.spraclawice.pl",
                "ref:regon": "001200066",
                "ref:vatin": "PL6851572900",
                "operator": "Gmina Biecz",
                "operator:type": "government",
                "amenity": "school"
            }
        },
        {
            "id": 85816,
            "type": "Feature",
            "geometry": {
                "type": "Point",
                "coordinates": [
                    21.2261975,
                    49.7532408
                ]
            },
            "properties": {
                "ref:rspo": 85816,
                "official_name": "Zesp\u00f3\u0142 Szkolno-Przedszkolny w Binarowej,Szko\u0142a Podstawowa im. Kr\u00f3la Kazimierza Wielkiego I Gminne Przedszkole im. Kr\u00f3la Kazimierza Wielkiego",
                "name": "Zesp\u00f3\u0142 Szkolno-Przedszkolny w Binarowej,Szko\u0142a Podstawowa",
                "addr:postcode": "38-340",
                "addr:place": "Binarowa",
                "addr:housenumber": "458",
                "addr:city:simc": 344662,
                "phone": "+48 134476303",
                "email": "zspbinarowa@op.pl",
                "website": "http:\/\/www.zspbinarowa.eu",
                "ref:regon": "492829088",
                "ref:vatin": "PL7381920533",
                "operator": "Gmina Biecz",
                "operator:type": "government",
                "landuse": "education",
                "fixme": "amenity=school, amenity=college albo landuse=education w zale\u017cno\u015bci od tego, jakie plac\u00f3wki wchodz\u0105 w sk\u0142ad zespo\u0142u. Sprawd\u017a, kiedy stosowa\u0107 amenity=* a kiedy landuse=education.",
                "note": "Children RSPO: 104711;104713"
            }
        },
        {
            "id": 104711,
            "type": "Feature",
            "geometry": {
                "type": "Point",
                "coordinates": [
                    21.2261975,
                    49.7532108
                ]
            },
            "properties": {
                "ref:rspo": 104711,
                "official_name": "Gminne Przedszkole im. Kr\u00f3la Kazimierza Wielkiego w Binarowej",
                "name": "Gminne Przedszkole",
                "addr:postcode": "38-340",
                "addr:place": "Binarowa",
                "addr:housenumber": "458",
                "addr:city:simc": 344662,
                "phone": "+48 134476303",
                "email": "zspbinarowa@op.pl",
                "website": "http:\/\/www.zspbinarowa.eu",
                "ref:regon": "492040863",
                "operator": "Gmina Biecz",
                "operator:type": "government",
                "amenity": "kindergarten",
                "note": "Parent RSPO: 85816"
            }
        },
        {
            "id": 104713,
            "type": "Feature",
            "geometry": {
                "type": "Point",
                "coordinates": [
                    21.2261975,
                    49.7531808
                ]
            },
            "properties": {
                "isced:level": "1;2",
                "ref:rspo": 104713,
                "official_name": "Szko\u0142a Podstawowa im.kr\u00f3la Kazimierza Wielkiego w Binarowej",
                "name": "Szko\u0142a Podstawowa im.kr\u00f3la Kazimierza Wielkiego w Binarowej",
                "addr:postcode": "38-340",
                "addr:place": "Binarowa",
                "addr:housenumber": "458",
                "addr:city:simc": 344662,
                "phone": "+48 134476303",
                "email": "zspbinarowa@op.pl",
                "website": "http:\/\/www.zspbinarowa.eu",
                "ref:regon": "001200089",
                "operator": "Gmina Biecz",
                "operator:type": "government",
                "amenity": "school",
                "note": "Parent RSPO: 85816"
            }
        },
        {
            "id": 49007,
            "type": "Feature",
            "geometry": {
                "type": "Point",
                "coordinates": [
                    21.1674997,
                    49.7532734
                ]
            },
            "properties": {
                "ref:rspo": 49007,
                "official_name": "Zesp\u00f3\u0142 Szkolno-Przedszkolny w Ro\u017cnowicach, Szko\u0142a Podstawowa im. Tadeusza Ko\u015bciuszki I Przedszkole",
                "name": "Zesp\u00f3\u0142 Szkolno-Przedszkolny w Ro\u017cnowicach, Szko\u0142a Podstawowa",
                "addr:postcode": "38-323",
                "addr:place": "Ro\u017cnowice",
                "addr:housenumber": "325",
                "addr:city:simc": 345147,
                "phone": "+48 134476116",
                "email": "rozembark@op.pl",
                "website": "http:\/\/zsproznowice.pl",
                "ref:regon": "492826693",
                "ref:vatin": "PL7381918393",
                "operator": "Gmina Biecz",
                "operator:type": "government",
                "landuse": "education",
                "fixme": "amenity=school, amenity=college albo landuse=education w zale\u017cno\u015bci od tego, jakie plac\u00f3wki wchodz\u0105 w sk\u0142ad zespo\u0142u. Sprawd\u017a, kiedy stosowa\u0107 amenity=* a kiedy landuse=education.",
                "note": "Children RSPO: 91812;91828"
            }
        },
        {
            "id": 91812,
            "type": "Feature",
            "geometry": {
                "type": "Point",
                "coordinates": [
                    21.1674997,
                    49.753243399999995
                ]
            },
            "properties": {
                "isced:level": "1;2",
                "ref:rspo": 91812,
                "official_name": "Szko\u0142a Podstawowa im. Tadeusza Ko\u015bciuszki w Ro\u017cnowicach",
                "name": "Szko\u0142a Podstawowa",
                "addr:postcode": "38-323",
                "addr:place": "Ro\u017cnowice",
                "addr:housenumber": "325",
                "addr:city:simc": 345147,
                "phone": "+48 134476116",
                "email": "rozembark@op.pl",
                "website": "http:\/\/zsproznowice.pl",
                "ref:regon": "001200072",
                "operator": "Gmina Biecz",
                "operator:type": "government",
                "amenity": "school",
                "note": "Parent RSPO: 49007"
            }
        },
        {
            "id": 91828,
            "type": "Feature",
            "geometry": {
                "type": "Point",
                "coordinates": [
                    21.1674997,
                    49.7532134
                ]
            },
            "properties": {
                "ref:rspo": 91828,
                "official_name": "Gminne Przedszkole w Ro\u017cnowicach",
                "name": "Gminne Przedszkole w Ro\u017cnowicach",
                "addr:postcode": "38-323",
                "addr:place": "Ro\u017cnowice",
                "addr:housenumber": "325",
                "addr:city:simc": 345147,
                "phone": "+48 134476008",
                "email": "rozembark@op.pl",
                "website": "http:\/\/zsproznowice.pl",
                "ref:regon": "492040917",
                "operator": "Gmina Biecz",
                "operator:type": "government",
                "amenity": "kindergarten",
                "note": "Parent RSPO: 49007"
            }
        },
        {
            "id": 131572,
            "type": "Feature",
            "geometry": {
                "type": "Point",
                "coordinates": [
                    21.13119,
                    49.75451
                ]
            },
            "properties": {
                "isced:level": "1;2",
                "ref:rspo": 131572,
                "official_name": "Szko\u0142a Podstawowa im.jana Paw\u0142a II w Sitnicy",
                "name": "Szko\u0142a Podstawowa im.jana Paw\u0142a II w Sitnicy",
                "addr:postcode": "38-323",
                "addr:place": "Sitnica",
                "addr:housenumber": "103A",
                "addr:city:simc": 345288,
                "phone": "+48 134476002",
                "email": "sp.sitnica@poczta.onet.pl",
                "ref:regon": "365226767",
                "operator": "Gmina Biecz",
                "operator:type": "government",
                "amenity": "school"
            }
        }
    ]
}