{
    "type": "FeatureCollection",
    "features": [
        {
            "id": 59705,
            "type": "Feature",
            "geometry": {
                "type": "Point",
                "coordinates": [
                    20.9356699,
                    49.6770799
                ]
            },
            "properties": {
                "ref:rspo": 59705,
                "official_name": "Zesp\u00f3\u0142 Szkolno-Przedszkolny w Wilczyskach",
                "name": "Zesp\u00f3\u0142 Szkolno-Przedszkolny w Wilczyskach",
                "addr:country": "PL",
                "addr:postcode": "38-350",
                "addr:place": "Wilczyska",
                "addr:housenumber": "29",
                "addr:teryt:sym_ul": 418277,
                "contact:phone": "+48 183550112",
                "contact:email": "spwilczyska@interia.pl",
                "ref:regon": "120810625",
                "operator": "Gmina Bobowa",
                "operator:type": "government",
                "landuse": "education",
                "fixme": "amenity=school, amenity=college albo landuse=education w zale\u017cno\u015bci od tego, jakie plac\u00f3wki wchodz\u0105 w sk\u0142ad zespo\u0142u. Sprawd\u017a, kiedy stosowa\u0107 amenity=* a kiedy landuse=education.",
                "note": "Children RSPO: 74787;74811"
            }
        },
        {
            "id": 74811,
            "type": "Feature",
            "geometry": {
                "type": "Point",
                "coordinates": [
                    20.9356699,
                    49.6770499
                ]
            },
            "properties": {
                "isced:level": "1;2",
                "ref:rspo": 74811,
                "official_name": "Szko\u0142a Podstawowa im. Batalion\u00f3w Ch\u0142opskich",
                "name": "Szko\u0142a Podstawowa",
                "addr:country": "PL",
                "addr:postcode": "38-350",
                "addr:place": "Wilczyska",
                "addr:housenumber": "29",
                "addr:teryt:sym_ul": 418277,
                "contact:phone": "+48 183550112",
                "contact:email": "spwilczyska@interia.pl",
                "ref:regon": "490669887",
                "ref:vatin": "PL7381858047",
                "operator": "Gmina Bobowa",
                "operator:type": "government",
                "amenity": "school",
                "note": "Parent RSPO: 59705"
            }
        },
        {
            "id": 74787,
            "type": "Feature",
            "geometry": {
                "type": "Point",
                "coordinates": [
                    20.93512,
                    49.67744
                ]
            },
            "properties": {
                "ref:rspo": 74787,
                "official_name": "Przedszkole Samorz\u0105dowe w Wilczyskach",
                "name": "Przedszkole Samorz\u0105dowe w Wilczyskach",
                "addr:country": "PL",
                "addr:postcode": "38-350",
                "addr:place": "Wilczyska",
                "addr:housenumber": "28",
                "addr:teryt:sym_ul": 418277,
                "contact:phone": "+48 183550113",
                "contact:email": "spwilczyska@interia.pl",
                "ref:regon": "852754222",
                "ref:vatin": "PL7381989430",
                "operator": "Gmina Bobowa",
                "operator:type": "government",
                "amenity": "kindergarten",
                "note": "Parent RSPO: 59705"
            }
        },
        {
            "id": 59090,
            "type": "Feature",
            "geometry": {
                "type": "Point",
                "coordinates": [
                    20.98075,
                    49.69645
                ]
            },
            "properties": {
                "isced:level": "1;2",
                "ref:rspo": 59090,
                "official_name": "Szko\u0142a Podstawowa w Str\u00f3\u017cnej",
                "name": "Szko\u0142a Podstawowa w Str\u00f3\u017cnej",
                "addr:country": "PL",
                "addr:postcode": "38-350",
                "addr:place": "Str\u00f3\u017cna",
                "addr:housenumber": "188",
                "addr:teryt:sym_ul": 418165,
                "contact:phone": "+48 183514208",
                "contact:email": "spstrozna@wp.pl",
                "ref:regon": "490669858",
                "ref:vatin": "PL7381858082",
                "operator": "Gmina Bobowa",
                "operator:type": "government",
                "amenity": "school"
            }
        },
        {
            "id": 63481,
            "type": "Feature",
            "geometry": {
                "type": "Point",
                "coordinates": [
                    20.90405,
                    49.70158
                ]
            },
            "properties": {
                "isced:level": "1;2",
                "ref:rspo": 63481,
                "official_name": "Szko\u0142a Podstawowa im. Henryka Dobrza\u0144skiego \"Hubal\" w Jankowej",
                "name": "Szko\u0142a Podstawowa",
                "addr:country": "PL",
                "addr:postcode": "38-350",
                "addr:place": "Jankowa",
                "addr:housenumber": "37",
                "addr:teryt:sym_ul": 417935,
                "contact:phone": "+48 660940428",
                "contact:email": "spjankowa@wp.pl",
                "contact:website": "http:\/\/spjankowa.bobowa.pl",
                "ref:regon": "490669930",
                "ref:vatin": "PL7381858030",
                "operator": "Gmina Bobowa",
                "operator:type": "government",
                "amenity": "school"
            }
        },
        {
            "id": 6205,
            "type": "Feature",
            "geometry": {
                "type": "Point",
                "coordinates": [
                    20.93933,
                    49.70724
                ]
            },
            "properties": {
                "ref:rspo": 6205,
                "official_name": "Zesp\u00f3\u0142 Szk\u00f3\u0142 Og\u00f3lnokszta\u0142c\u0105cych w Bobowej",
                "name": "Zesp\u00f3\u0142 Szk\u00f3\u0142 Og\u00f3lnokszta\u0142c\u0105cych w Bobowej",
                "addr:country": "PL",
                "addr:postcode": "38-350",
                "addr:city": "Bobowa",
                "addr:street": "ul. D\u0142ugoszowskich",
                "addr:housenumber": "1",
                "addr:teryt:simc": 40993,
                "addr:teryt:sym_ul": 417728,
                "contact:phone": "+48 183530220",
                "contact:email": "sekretariat@zsobobowa.eu",
                "contact:website": "http:\/\/zsobobowa.eu",
                "ref:regon": "000231515",
                "ref:vatin": "PL7381010245",
                "operator": "Powiat Gorlicki",
                "operator:type": "government",
                "landuse": "education",
                "fixme": "amenity=school, amenity=college albo landuse=education w zale\u017cno\u015bci od tego, jakie plac\u00f3wki wchodz\u0105 w sk\u0142ad zespo\u0142u. Sprawd\u017a, kiedy stosowa\u0107 amenity=* a kiedy landuse=education.",
                "note": "Children RSPO: 44460;48338;48339"
            }
        },
        {
            "id": 44460,
            "type": "Feature",
            "geometry": {
                "type": "Point",
                "coordinates": [
                    20.93933,
                    49.707209999999996
                ]
            },
            "properties": {
                "isced:level": "4",
                "ref:rspo": 44460,
                "official_name": "Szko\u0142a Policealna Nr 1 w Bobowej",
                "name": "Szko\u0142a Policealna Nr 1 w Bobowej",
                "addr:country": "PL",
                "addr:postcode": "38-350",
                "addr:city": "Bobowa",
                "addr:street": "ul. D\u0142ugoszowskich",
                "addr:housenumber": "1",
                "addr:teryt:simc": 40993,
                "addr:teryt:sym_ul": 417728,
                "contact:phone": "+48 183530220",
                "contact:email": "sekretariat@zsobobowa.eu",
                "contact:website": "http:\/\/zsobobowa.eu",
                "ref:regon": "492824576",
                "operator": "Powiat Gorlicki",
                "operator:type": "government",
                "amenity": "college",
                "note": "Parent RSPO: 6205"
            }
        },
        {
            "id": 48338,
            "type": "Feature",
            "geometry": {
                "type": "Point",
                "coordinates": [
                    20.93933,
                    49.70718
                ]
            },
            "properties": {
                "isced:level": "3",
                "ref:rspo": 48338,
                "official_name": "Technikum w Bobowej",
                "name": "Technikum w Bobowej",
                "addr:country": "PL",
                "addr:postcode": "38-350",
                "addr:city": "Bobowa",
                "addr:street": "ul. D\u0142ugoszowskich",
                "addr:housenumber": "1",
                "addr:teryt:simc": 40993,
                "addr:teryt:sym_ul": 417728,
                "contact:phone": "+48 183530220",
                "contact:email": "sekretariat@zsobobowa.eu",
                "contact:website": "http:\/\/zsobobowa.eu",
                "ref:regon": "492824553",
                "operator": "Powiat Gorlicki",
                "operator:type": "government",
                "amenity": "school",
                "note": "Parent RSPO: 6205"
            }
        },
        {
            "id": 48339,
            "type": "Feature",
            "geometry": {
                "type": "Point",
                "coordinates": [
                    20.93933,
                    49.70715
                ]
            },
            "properties": {
                "isced:level": "3",
                "ref:rspo": 48339,
                "official_name": "Liceum Og\u00f3lnokszta\u0142c\u0105ce im. Henryka Sienkiewicza w Bobowej",
                "name": "Liceum Og\u00f3lnokszta\u0142c\u0105ce",
                "addr:country": "PL",
                "addr:postcode": "38-350",
                "addr:city": "Bobowa",
                "addr:street": "ul. D\u0142ugoszowskich",
                "addr:housenumber": "1",
                "addr:teryt:simc": 40993,
                "addr:teryt:sym_ul": 417728,
                "contact:phone": "+48 183530220",
                "contact:email": "sekretariat@zsobobowa.eu",
                "contact:website": "http:\/\/zsobobowa.eu",
                "ref:regon": "492824560",
                "operator": "Powiat Gorlicki",
                "operator:type": "government",
                "amenity": "school",
                "note": "Parent RSPO: 6205"
            }
        },
        {
            "id": 123940,
            "type": "Feature",
            "geometry": {
                "type": "Point",
                "coordinates": [
                    20.93894,
                    49.7076
                ]
            },
            "properties": {
                "ref:rspo": 123940,
                "official_name": "Szko\u0142a Muzyczna I Stopnia w Bobowej",
                "name": "Szko\u0142a Muzyczna I Stopnia w Bobowej",
                "addr:country": "PL",
                "addr:postcode": "38-350",
                "addr:city": "Bobowa",
                "addr:street": "ul. D\u0142ugoszowskich",
                "addr:housenumber": "3",
                "addr:teryt:simc": 40993,
                "addr:teryt:sym_ul": 417728,
                "contact:phone": "+48 183511026",
                "contact:email": "szkola.muzyczna@bobowa.pl",
                "contact:website": "http:\/\/www.szkolamuzyczna.bobowa.pl",
                "ref:regon": "123182253",
                "operator": "Gmina Bobowa",
                "operator:type": "government",
                "amenity": "music_school"
            }
        },
        {
            "id": 16047,
            "type": "Feature",
            "geometry": {
                "type": "Point",
                "coordinates": [
                    20.94227,
                    49.70787
                ]
            },
            "properties": {
                "ref:rspo": 16047,
                "official_name": "Niepubliczny O\u015brodek Doskonalenia Nauczycieli I Kadr O\u015bwiatowych",
                "name": "Niepubliczny O\u015brodek Doskonalenia Nauczycieli I Kadr O\u015bwiatowych",
                "addr:country": "PL",
                "addr:postcode": "38-350",
                "addr:city": "Bobowa",
                "addr:street": "ul. Rynek",
                "addr:housenumber": "3",
                "addr:teryt:simc": 19253,
                "addr:teryt:sym_ul": 417728,
                "contact:phone": "+48 183514757",
                "contact:email": "leszekkus@neostrada.pl",
                "ref:regon": "122664783",
                "operator": "Leszek Ku\u015b",
                "operator:type": "private",
                "amenity": "training"
            }
        },
        {
            "id": 64503,
            "type": "Feature",
            "geometry": {
                "type": "Point",
                "coordinates": [
                    20.94227,
                    49.70784
                ]
            },
            "properties": {
                "ref:rspo": 64503,
                "official_name": "Niepubliczna Plac\u00f3wka Kszta\u0142cenia Ustawicznego \"Ma\u0142opolski O\u015brodek Szkoleniowy Akcent\" w Bobowej",
                "name": "Niepubliczna Plac\u00f3wka Kszta\u0142cenia Ustawicznego \"Ma\u0142opolski O\u015brodek Szkoleniowy Akcent\" w Bobowej",
                "addr:country": "PL",
                "addr:postcode": "38-350",
                "addr:city": "Bobowa",
                "addr:street": "ul. Rynek",
                "addr:housenumber": "3",
                "addr:teryt:simc": 19253,
                "addr:teryt:sym_ul": 417728,
                "contact:phone": "+48 183514757",
                "contact:email": "mosakcent@gmail.com",
                "contact:website": "http:\/\/akcent.bobowa.pl",
                "ref:regon": "122695766",
                "operator": "Leszek Ku\u015b",
                "operator:type": "private",
                "fixme": "w zale\u017cno\u015bci od przedmiotu dzia\u0142alno\u015bci (np. amenity=training + training=*, amenity=dancing_school, amenity=language_school, amenity=music_school)"
            }
        },
        {
            "id": 74385,
            "type": "Feature",
            "geometry": {
                "type": "Point",
                "coordinates": [
                    20.94722,
                    49.7081
                ]
            },
            "properties": {
                "isced:level": "1;2",
                "ref:rspo": 74385,
                "official_name": "Szko\u0142a Podstawowa im. Stanis\u0142awa Staszica w Bobowej",
                "name": "Szko\u0142a Podstawowa",
                "addr:country": "PL",
                "addr:postcode": "38-350",
                "addr:city": "Bobowa",
                "addr:street": "ul. Bohater\u00f3w Bobowej",
                "addr:housenumber": "6",
                "addr:teryt:simc": 40992,
                "addr:teryt:sym_ul": 417728,
                "contact:phone": "+48 183514250",
                "contact:email": "kontakt@sp.bobowa.pl",
                "ref:regon": "490669829",
                "ref:vatin": "PL7381010096",
                "operator": "Gmina Bobowa",
                "operator:type": "government",
                "amenity": "school"
            }
        },
        {
            "id": 59799,
            "type": "Feature",
            "geometry": {
                "type": "Point",
                "coordinates": [
                    20.94567,
                    49.70821
                ]
            },
            "properties": {
                "ref:rspo": 59799,
                "official_name": "Przedszkole Samorz\u0105dowe w Bobowej",
                "name": "Przedszkole Samorz\u0105dowe w Bobowej",
                "addr:country": "PL",
                "addr:postcode": "38-350",
                "addr:city": "Bobowa",
                "addr:street": "ul. Pocztowa",
                "addr:housenumber": "4",
                "addr:teryt:simc": 16579,
                "addr:teryt:sym_ul": 417728,
                "contact:phone": "+48 183514073",
                "contact:email": "przedszkolebobowa@wp.pl",
                "contact:website": "http:\/\/www.przedszkole.bobowa.pl",
                "ref:regon": "000971531",
                "ref:vatin": "PL7381693534",
                "operator": "Gmina Bobowa",
                "operator:type": "government",
                "amenity": "kindergarten"
            }
        },
        {
            "id": 15281,
            "type": "Feature",
            "geometry": {
                "type": "Point",
                "coordinates": [
                    20.9436399,
                    49.70823
                ]
            },
            "properties": {
                "ref:rspo": 15281,
                "official_name": "Zesp\u00f3\u0142 Szk\u00f3\u0142 Zawodowych im. Stanis\u0142awa Wyspia\u0144skiego w Bobowej",
                "name": "Zesp\u00f3\u0142 Szk\u00f3\u0142 Zawodowych",
                "addr:country": "PL",
                "addr:postcode": "38-350",
                "addr:city": "Bobowa",
                "addr:street": "ul. Grunwaldzka",
                "addr:housenumber": "10",
                "addr:teryt:simc": 6260,
                "addr:teryt:sym_ul": 417728,
                "contact:phone": "+48 183514031",
                "contact:email": "sekretariat@zsz.bobowa.pl",
                "contact:website": "http:\/\/zsz.bobowa.pl",
                "ref:regon": "000404708",
                "ref:vatin": "PL7381010133",
                "operator": "Powiat Gorlicki",
                "operator:type": "government",
                "landuse": "education",
                "fixme": "amenity=school, amenity=college albo landuse=education w zale\u017cno\u015bci od tego, jakie plac\u00f3wki wchodz\u0105 w sk\u0142ad zespo\u0142u. Sprawd\u017a, kiedy stosowa\u0107 amenity=* a kiedy landuse=education.",
                "note": "Children RSPO: 47736;47971;48054;48340"
            }
        },
        {
            "id": 47736,
            "type": "Feature",
            "geometry": {
                "type": "Point",
                "coordinates": [
                    20.9436399,
                    49.7082
                ]
            },
            "properties": {
                "isced:level": "3",
                "ref:rspo": 47736,
                "official_name": "Bran\u017cowa Szko\u0142a I Stopnia w Bobowej",
                "name": "Bran\u017cowa Szko\u0142a I Stopnia w Bobowej",
                "addr:country": "PL",
                "addr:postcode": "38-350",
                "addr:city": "Bobowa",
                "addr:street": "ul. Grunwaldzka",
                "addr:housenumber": "10",
                "addr:teryt:simc": 6260,
                "addr:teryt:sym_ul": 417728,
                "contact:phone": "+48 183514031",
                "contact:email": "sekretariat@zsz.bobowa.pl",
                "contact:website": "http:\/\/zsz.bobowa.pl",
                "ref:regon": "492821394",
                "operator": "Powiat Gorlicki",
                "operator:type": "government",
                "amenity": "school",
                "note": "Parent RSPO: 15281"
            }
        },
        {
            "id": 47971,
            "type": "Feature",
            "geometry": {
                "type": "Point",
                "coordinates": [
                    20.9436399,
                    49.70817
                ]
            },
            "properties": {
                "isced:level": "3",
                "ref:rspo": 47971,
                "official_name": "Technikum Nr 2 w Bobowej",
                "name": "Technikum Nr 2 w Bobowej",
                "addr:country": "PL",
                "addr:postcode": "38-350",
                "addr:city": "Bobowa",
                "addr:street": "ul. Grunwaldzka",
                "addr:housenumber": "10",
                "addr:teryt:simc": 6260,
                "addr:teryt:sym_ul": 417728,
                "contact:phone": "+48 183514031",
                "contact:email": "sekretariat@zsz.bobowa.pl",
                "contact:website": "http:\/\/zsz.bobowa.pl",
                "ref:regon": "852747794",
                "operator": "Powiat Gorlicki",
                "operator:type": "government",
                "amenity": "school",
                "note": "Parent RSPO: 15281"
            }
        },
        {
            "id": 48054,
            "type": "Feature",
            "geometry": {
                "type": "Point",
                "coordinates": [
                    20.9436399,
                    49.70814
                ]
            },
            "properties": {
                "ref:rspo": 48054,
                "official_name": "Szkolne Schronisko M\u0142odzie\u017cowe w Bobowej",
                "name": "Szkolne Schronisko M\u0142odzie\u017cowe w Bobowej",
                "addr:country": "PL",
                "addr:postcode": "38-350",
                "addr:city": "Bobowa",
                "addr:street": "ul. Grunwaldzka",
                "addr:housenumber": "10",
                "addr:teryt:simc": 6260,
                "addr:teryt:sym_ul": 417728,
                "contact:phone": "+48 183514031",
                "contact:email": "sekretariat@zsz.bobowa.pl",
                "contact:website": "http:\/\/zsz.bobowa.pl",
                "ref:regon": "852733220",
                "operator": "Powiat Gorlicki",
                "operator:type": "government",
                "tourism": "hostel",
                "note": "Parent RSPO: 15281"
            }
        },
        {
            "id": 48340,
            "type": "Feature",
            "geometry": {
                "type": "Point",
                "coordinates": [
                    20.9436399,
                    49.70811
                ]
            },
            "properties": {
                "isced:level": "4",
                "ref:rspo": 48340,
                "official_name": "Szko\u0142a Policealna Nr 2 w Bobowej",
                "name": "Szko\u0142a Policealna Nr 2 w Bobowej",
                "addr:country": "PL",
                "addr:postcode": "38-350",
                "addr:city": "Bobowa",
                "addr:street": "ul. Grunwaldzka",
                "addr:housenumber": "10",
                "addr:teryt:simc": 6260,
                "addr:teryt:sym_ul": 417728,
                "contact:phone": "+48 183514031",
                "contact:email": "sekretariat@zsz.bobowa.pl",
                "contact:website": "http:\/\/zsz.bobowa.pl",
                "ref:regon": "120266110",
                "operator": "Powiat Gorlicki",
                "operator:type": "government",
                "amenity": "college",
                "note": "Parent RSPO: 15281"
            }
        },
        {
            "id": 74477,
            "type": "Feature",
            "geometry": {
                "type": "Point",
                "coordinates": [
                    20.91801,
                    49.71863
                ]
            },
            "properties": {
                "isced:level": "1;2",
                "ref:rspo": 74477,
                "official_name": "Szko\u0142a Podstawowa im. Miko\u0142aja Kopernika w Brzanie",
                "name": "Szko\u0142a Podstawowa",
                "addr:country": "PL",
                "addr:postcode": "38-350",
                "addr:place": "Brzana",
                "addr:housenumber": "10",
                "addr:teryt:sym_ul": 996086,
                "contact:phone": "+48 183514048",
                "contact:email": "gim.brzana@interia.pl",
                "contact:website": "http:\/\/spbrzana.pl",
                "ref:regon": "490669918",
                "ref:vatin": "PL7381858076",
                "operator": "Gmina Bobowa",
                "operator:type": "government",
                "amenity": "school"
            }
        },
        {
            "id": 74662,
            "type": "Feature",
            "geometry": {
                "type": "Point",
                "coordinates": [
                    20.97773,
                    49.72749
                ]
            },
            "properties": {
                "isced:level": "1;2",
                "ref:rspo": 74662,
                "official_name": "Szko\u0142a Podstawowa im. Ks. Jana Reca w Siedliskach",
                "name": "Szko\u0142a Podstawowa",
                "addr:country": "PL",
                "addr:postcode": "38-350",
                "addr:place": "Siedliska",
                "addr:housenumber": "259",
                "addr:teryt:sym_ul": 418060,
                "contact:phone": "+48 183540170",
                "contact:email": "sekretariat@zs-siedliska.pl",
                "contact:website": "http:\/\/zs-siedliska.pl",
                "ref:regon": "490669835",
                "ref:vatin": "PL7381858053",
                "operator": "Gmina Bobowa",
                "operator:type": "government",
                "amenity": "school"
            }
        }
    ]
}