{
    "type": "FeatureCollection",
    "features": [
        {
            "id": 55912,
            "type": "Feature",
            "geometry": {
                "type": "Point",
                "coordinates": [
                    21.31437,
                    49.5224199
                ]
            },
            "properties": {
                "isced:level": "1;2",
                "ref:rspo": 55912,
                "official_name": "Niepubliczna Szko\u0142a Podstawowa w Krzywej",
                "name": "Niepubliczna Szko\u0142a Podstawowa w Krzywej",
                "addr:country": "PL",
                "addr:postcode": "38-307",
                "addr:place": "Krzywa",
                "addr:housenumber": "15",
                "addr:teryt:simc": 464797,
                "contact:phone": "+48 183510019",
                "contact:email": "marek.krzywa@op.pl",
                "ref:regon": "122692041",
                "operator": "Marek Po\u0142e\u0107",
                "operator:type": "private",
                "amenity": "school"
            }
        },
        {
            "id": 55913,
            "type": "Feature",
            "geometry": {
                "type": "Point",
                "coordinates": [
                    21.31437,
                    49.5223899
                ]
            },
            "properties": {
                "ref:rspo": 55913,
                "official_name": "Punkt Przedszkolny Przy Niepublicznej Szkole Podstawowej w Krzywej",
                "name": "Punkt Przedszkolny Przy Niepublicznej Szkole Podstawowej w Krzywej",
                "addr:country": "PL",
                "addr:postcode": "38-307",
                "addr:place": "Krzywa",
                "addr:housenumber": "15",
                "addr:teryt:simc": 464797,
                "contact:phone": "+48 183510019",
                "contact:email": "marek.krzywa@op.pl",
                "ref:regon": "122692006",
                "operator": "Marek Po\u0142e\u0107",
                "operator:type": "private",
                "amenity": "kindergarten"
            }
        },
        {
            "id": 266784,
            "type": "Feature",
            "geometry": {
                "type": "Point",
                "coordinates": [
                    21.3025243,
                    49.5856015
                ]
            },
            "properties": {
                "ref:rspo": 266784,
                "official_name": "Niepubliczne Przedszkole w Bodakach",
                "name": "Niepubliczne Przedszkole w Bodakach",
                "addr:country": "PL",
                "addr:postcode": "38-307",
                "addr:place": "Bodaki",
                "addr:housenumber": "45",
                "addr:teryt:simc": 464745,
                "contact:phone": "+48 183518019",
                "ref:regon": "369691120",
                "operator": "Stowarzyszenie Rozwoju Wsi Bartne I Bodaki",
                "operator:type": "ngo",
                "amenity": "kindergarten"
            }
        },
        {
            "id": 5730,
            "type": "Feature",
            "geometry": {
                "type": "Point",
                "coordinates": [
                    21.29823,
                    49.58766
                ]
            },
            "properties": {
                "isced:level": "1;2",
                "ref:rspo": 5730,
                "official_name": "Niepubliczna Szko\u0142a Podstawowa w Bodakach",
                "name": "Niepubliczna Szko\u0142a Podstawowa w Bodakach",
                "addr:country": "PL",
                "addr:postcode": "38-307",
                "addr:place": "Bodaki",
                "addr:housenumber": "bn",
                "addr:teryt:simc": 464745,
                "contact:phone": "+48 183518019",
                "contact:email": "bodakiszkola@poczta.onet.pl",
                "ref:regon": "122645900",
                "operator": "Stowarzyszenie Rozwoju Wsi Bartne I Bodaki",
                "operator:type": "ngo",
                "amenity": "school"
            }
        },
        {
            "id": 4885,
            "type": "Feature",
            "geometry": {
                "type": "Point",
                "coordinates": [
                    21.22688,
                    49.6011
                ]
            },
            "properties": {
                "ref:rspo": 4885,
                "official_name": "Niepubliczne Przedszkole \"Promyczek\"",
                "name": "Niepubliczne Przedszkole \"Promyczek\"",
                "addr:country": "PL",
                "addr:postcode": "38-307",
                "addr:place": "Ropica G\u00f3rna",
                "addr:housenumber": "29",
                "addr:teryt:simc": 464998,
                "contact:phone": "+48 605543274",
                "ref:regon": "122641440",
                "operator": "Katarzyna Ogorza\u0142ek",
                "operator:type": "private",
                "amenity": "kindergarten"
            }
        },
        {
            "id": 55907,
            "type": "Feature",
            "geometry": {
                "type": "Point",
                "coordinates": [
                    21.20163,
                    49.61666
                ]
            },
            "properties": {
                "ref:rspo": 55907,
                "official_name": "Zesp\u00f3\u0142 Szkolno Przedszkolny w S\u0119kowej",
                "name": "Zesp\u00f3\u0142 Szkolno Przedszkolny w S\u0119kowej",
                "addr:country": "PL",
                "addr:postcode": "38-307",
                "addr:place": "S\u0119kowa",
                "addr:housenumber": "157",
                "addr:teryt:simc": 465029,
                "contact:phone": "+48 183518015",
                "contact:email": "sekowa@poczta.onet.pl",
                "contact:website": "http:\/\/www.szkolawsekowej.pl",
                "ref:regon": "492906370",
                "operator": "Gmina S\u0119kowa",
                "operator:type": "government",
                "landuse": "education",
                "fixme": "amenity=school, amenity=college albo landuse=education w zale\u017cno\u015bci od tego, jakie plac\u00f3wki wchodz\u0105 w sk\u0142ad zespo\u0142u. Sprawd\u017a, kiedy stosowa\u0107 amenity=* a kiedy landuse=education.",
                "note": "Children RSPO: 55910;55911"
            }
        },
        {
            "id": 55910,
            "type": "Feature",
            "geometry": {
                "type": "Point",
                "coordinates": [
                    21.20163,
                    49.61663
                ]
            },
            "properties": {
                "isced:level": "1;2",
                "ref:rspo": 55910,
                "official_name": "Szko\u0142a Podstawowa w Zespole Szkolno Przedszkolnym w S\u0119kowej",
                "name": "Szko\u0142a Podstawowa w Zespole Szkolno Przedszkolnym w S\u0119kowej",
                "addr:country": "PL",
                "addr:postcode": "38-307",
                "addr:place": "S\u0119kowa",
                "addr:housenumber": "157",
                "addr:teryt:simc": 465029,
                "contact:phone": "+48 183518015",
                "contact:email": "sekowa@poczta.onet.pl",
                "contact:website": "http:\/\/www.szkolawsekowej.pl",
                "ref:regon": "490675149",
                "ref:vatin": "PL7381855379",
                "operator": "Gmina S\u0119kowa",
                "operator:type": "government",
                "amenity": "school",
                "note": "Parent RSPO: 55907"
            }
        },
        {
            "id": 55911,
            "type": "Feature",
            "geometry": {
                "type": "Point",
                "coordinates": [
                    21.19817,
                    49.61669
                ]
            },
            "properties": {
                "ref:rspo": 55911,
                "official_name": "Samorz\u0105dowe Przedszkole w Zespole Szkolno Przedszkolnym w S\u0119kowej",
                "name": "Samorz\u0105dowe Przedszkole w Zespole Szkolno Przedszkolnym w S\u0119kowej",
                "addr:country": "PL",
                "addr:postcode": "38-307",
                "addr:place": "S\u0119kowa",
                "addr:housenumber": "169",
                "addr:teryt:simc": 465029,
                "contact:phone": "+48 183518077",
                "contact:email": "sekowa@poczta.onet.pl",
                "contact:website": "http:\/\/www.szkolawsekowej.pl",
                "ref:regon": "000971494",
                "ref:vatin": "PL7381855362",
                "operator": "Gmina S\u0119kowa",
                "operator:type": "government",
                "amenity": "kindergarten",
                "note": "Parent RSPO: 55907"
            }
        },
        {
            "id": 72875,
            "type": "Feature",
            "geometry": {
                "type": "Point",
                "coordinates": [
                    21.17871,
                    49.62842
                ]
            },
            "properties": {
                "isced:level": "1;2",
                "ref:rspo": 72875,
                "official_name": "Szko\u0142a Podstawowa im. W\u0142adys\u0142awa D\u0142ugosza w Siarach",
                "name": "Szko\u0142a Podstawowa",
                "addr:country": "PL",
                "addr:postcode": "38-307",
                "addr:place": "Siary",
                "addr:housenumber": "29",
                "addr:teryt:simc": 465124,
                "contact:phone": "+48 183518178",
                "contact:email": "szkolasiary@wp.pl",
                "contact:website": "http:\/\/www.spsiary.pl",
                "ref:regon": "490675155",
                "ref:vatin": "PL7381855385",
                "operator": "Gmina S\u0119kowa",
                "operator:type": "government",
                "amenity": "school"
            }
        }
    ]
}