{
    "type": "FeatureCollection",
    "features": [
        {
            "id": 41232,
            "type": "Feature",
            "geometry": {
                "type": "Point",
                "coordinates": [
                    21.174089431763,
                    49.599338531494
                ]
            },
            "properties": {
                "ref:rspo": 41232,
                "official_name": "Zesp\u00f3\u0142 Szk\u00f3\u0142 im. Jana Paw\u0142a II w Staszk\u00f3wce",
                "name": "Zesp\u00f3\u0142 Szk\u00f3\u0142",
                "addr:postcode": "38-321",
                "addr:city": "Staszk\u00f3wka",
                "addr:street": "\u015awi\u0119tego Jana Paw\u0142a II",
                "addr:housenumber": "3",
                "addr:city:simc": 450476,
                "addr:street:sym_ul": 48913,
                "phone": "+48 183541124",
                "email": "spstasz@poczta.onet.pl",
                "website": "http:\/\/www.zsstaszkowka.manifo.com",
                "ref:regon": "492828479",
                "ref:vatin": "PL7381920504",
                "operator": "Gmina Moszczenica",
                "operator:type": "government",
                "landuse": "education",
                "fixme": "amenity=school, amenity=college albo landuse=education w zale\u017cno\u015bci od tego, jakie plac\u00f3wki wchodz\u0105 w sk\u0142ad zespo\u0142u. Sprawd\u017a, kiedy stosowa\u0107 amenity=* a kiedy landuse=education.",
                "note": "Children RSPO: 53153;53154"
            }
        },
        {
            "id": 53153,
            "type": "Feature",
            "geometry": {
                "type": "Point",
                "coordinates": [
                    21.174089431763,
                    49.599308531493996
                ]
            },
            "properties": {
                "ref:rspo": 53153,
                "official_name": "Przedszkole Samorz\u0105dowe im. Jana Paw\u0142a II w Staszk\u00f3wce",
                "name": "Przedszkole Samorz\u0105dowe",
                "addr:postcode": "38-321",
                "addr:city": "Staszk\u00f3wka",
                "addr:street": "\u015awi\u0119tego Jana Paw\u0142a II",
                "addr:housenumber": "3",
                "addr:city:simc": 450476,
                "addr:street:sym_ul": 48913,
                "phone": "+48 183541124",
                "email": "spstasz@poczta.onet.pl",
                "website": "http:\/\/www.zsstaszkowka.manifo.com",
                "ref:regon": "492019432",
                "operator": "Gmina Moszczenica",
                "operator:type": "government",
                "amenity": "kindergarten",
                "note": "Parent RSPO: 41232"
            }
        },
        {
            "id": 53154,
            "type": "Feature",
            "geometry": {
                "type": "Point",
                "coordinates": [
                    21.174089431763,
                    49.599278531494
                ]
            },
            "properties": {
                "isced:level": "1;2",
                "ref:rspo": 53154,
                "official_name": "Szko\u0142a Podstawowa im. Jana Paw\u0142a II w Staszk\u00f3wce",
                "name": "Szko\u0142a Podstawowa",
                "addr:postcode": "38-321",
                "addr:city": "Staszk\u00f3wka",
                "addr:street": "\u015awi\u0119tego Jana Paw\u0142a II",
                "addr:housenumber": "3",
                "addr:city:simc": 450476,
                "addr:street:sym_ul": 48913,
                "phone": "+48 183541124",
                "email": "spstasz@poczta.onet.pl",
                "website": "http:\/\/zsstaszkowka.manifo.com\/",
                "ref:regon": "490541153",
                "operator": "Gmina Moszczenica",
                "operator:type": "government",
                "amenity": "school",
                "note": "Parent RSPO: 41232"
            }
        },
        {
            "id": 43949,
            "type": "Feature",
            "geometry": {
                "type": "Point",
                "coordinates": [
                    21.115480422974,
                    49.707260131836
                ]
            },
            "properties": {
                "ref:rspo": 43949,
                "official_name": "Przedszkole Samorz\u0105dowe \"Weso\u0142e Krasnale\" w Moszczenicy",
                "name": "Przedszkole Samorz\u0105dowe \"Weso\u0142e Krasnale\" w Moszczenicy",
                "addr:postcode": "38-321",
                "addr:city": "Moszczenica",
                "addr:street": "Samorz\u0105dowa",
                "addr:housenumber": "4",
                "addr:city:simc": 450230,
                "addr:street:sym_ul": 19472,
                "phone": "+48 183541021",
                "email": "info@zsmoszczenica.pl",
                "ref:regon": "001010176",
                "ref:vatin": "PL7381853989",
                "operator": "Gmina Moszczenica",
                "operator:type": "government",
                "amenity": "kindergarten",
                "note": "Parent RSPO: 262356"
            }
        },
        {
            "id": 262356,
            "type": "Feature",
            "geometry": {
                "type": "Point",
                "coordinates": [
                    21.1361174,
                    49.7110459
                ]
            },
            "properties": {
                "ref:rspo": 262356,
                "official_name": "Zesp\u00f3\u0142 Szk\u00f3\u0142 w Moszczenicy",
                "name": "Zesp\u00f3\u0142 Szk\u00f3\u0142 w Moszczenicy",
                "addr:postcode": "38-321",
                "addr:city": "Moszczenica",
                "addr:street": "Le\u015bna",
                "addr:housenumber": "5",
                "addr:city:simc": 450230,
                "addr:street:sym_ul": 10898,
                "phone": "+48 183541007",
                "email": "info@zsmoszczenica.pl",
                "ref:regon": "367990030",
                "ref:vatin": "PL7382152881",
                "operator": "Gmina Moszczenica",
                "operator:type": "government",
                "landuse": "education",
                "fixme": "amenity=school, amenity=college albo landuse=education w zale\u017cno\u015bci od tego, jakie plac\u00f3wki wchodz\u0105 w sk\u0142ad zespo\u0142u. Sprawd\u017a, kiedy stosowa\u0107 amenity=* a kiedy landuse=education.",
                "note": "Children RSPO: 42145;43949"
            }
        },
        {
            "id": 42145,
            "type": "Feature",
            "geometry": {
                "type": "Point",
                "coordinates": [
                    21.1361174,
                    49.7110159
                ]
            },
            "properties": {
                "isced:level": "1;2",
                "ref:rspo": 42145,
                "official_name": "Szko\u0142a Podstawowa im. Bronis\u0142awa Wanata w Moszczenicy",
                "name": "Szko\u0142a Podstawowa",
                "addr:postcode": "38-321",
                "addr:city": "Moszczenica",
                "addr:street": "Le\u015bna",
                "addr:housenumber": "5",
                "addr:city:simc": 450230,
                "addr:street:sym_ul": 10898,
                "phone": "+48 183541007",
                "email": "info@zsmoszczenica.pl",
                "ref:regon": "490541130",
                "ref:vatin": "PL7381851447",
                "operator": "Gmina Moszczenica",
                "operator:type": "government",
                "amenity": "school",
                "note": "Parent RSPO: 262356"
            }
        },
        {
            "id": 278136,
            "type": "Feature",
            "geometry": {
                "type": "Point",
                "coordinates": [
                    21.10774,
                    49.71977
                ]
            },
            "properties": {
                "ref:rspo": 278136,
                "official_name": "Niepubliczne Przedszole \"Happy Kids\"",
                "name": "Niepubliczne Przedszole \"Happy Kids\"",
                "addr:postcode": "38-321",
                "addr:city": "Moszczenica",
                "addr:street": "Gorlicka",
                "addr:housenumber": "129",
                "addr:city:simc": 450230,
                "addr:street:sym_ul": 5826,
                "ref:regon": "389848533",
                "operator": "Anna Kr\u0119\u017co\u0142ek",
                "operator:type": "private",
                "amenity": "kindergarten"
            }
        }
    ]
}