{
    "type": "FeatureCollection",
    "features": [
        {
            "id": 19551,
            "type": "Feature",
            "geometry": {
                "type": "Point",
                "coordinates": [
                    21.15562,
                    49.6487399
                ]
            },
            "properties": {
                "ref:rspo": 19551,
                "official_name": "Miejskie Przedszkole Nr 4 im. Ignacego \u0141ukasiewicza",
                "name": "Miejskie Przedszkole Nr 4",
                "addr:country": "PL",
                "addr:postcode": "38-300",
                "addr:city": "Gorlice",
                "addr:street": "W\u0142adys\u0142awa Broniewskiego",
                "addr:housenumber": "11",
                "addr:teryt:simc": 959903,
                "addr:teryt:sym_ul": 2125,
                "contact:phone": "+48 183526113",
                "contact:email": "mp4gor@onet.eu",
                "ref:regon": "121409511",
                "ref:vatin": "PL7382130796",
                "operator": "Miasto Gorlice",
                "operator:type": "government",
                "amenity": "kindergarten",
                "note": "Parent RSPO: 20156"
            }
        },
        {
            "id": 27932,
            "type": "Feature",
            "geometry": {
                "type": "Point",
                "coordinates": [
                    21.15706,
                    49.64931
                ]
            },
            "properties": {
                "ref:rspo": 27932,
                "official_name": "Niepubliczna Poradnia Psychologiczno-Pedagogiczna \"Prymus\" w Gorlicach",
                "name": "Niepubliczna Poradnia Psychologiczno-Pedagogiczna \"Prymus\" w Gorlicach",
                "addr:country": "PL",
                "addr:postcode": "38-300",
                "addr:city": "Gorlice",
                "addr:street": "Pod Lodowni\u0105",
                "addr:housenumber": "12",
                "addr:teryt:simc": 959903,
                "addr:teryt:sym_ul": 16641,
                "contact:phone": "+48 502074164",
                "contact:email": "poradnia@npprymus.pl",
                "contact:website": "http:\/\/npprymus.pl",
                "ref:regon": "122681250",
                "operator": "Sabina Kurzawa",
                "operator:type": "private",
                "healthcare": "counselling",
                "counselling_type": "education",
                "fixme": "w zale\u017cno\u015bci od przedmiotu dzia\u0142alno\u015bci (np. healthcare=counselling + counselling_type=education albo healthcare=psychotherapist)"
            }
        },
        {
            "id": 54248,
            "type": "Feature",
            "geometry": {
                "type": "Point",
                "coordinates": [
                    21.16166,
                    49.65072
                ]
            },
            "properties": {
                "ref:rspo": 54248,
                "official_name": "Niepubliczna Plac\u00f3wka Kszta\u0142cenia Ustawicznego \"Centrum Edukacyjno-O\u015bwiatowe\"",
                "name": "Niepubliczna Plac\u00f3wka Kszta\u0142cenia Ustawicznego \"Centrum Edukacyjno-O\u015bwiatowe\"",
                "addr:country": "PL",
                "addr:postcode": "38-300",
                "addr:city": "Gorlice",
                "addr:street": "W\u0119gierska",
                "addr:housenumber": "140",
                "addr:teryt:simc": 959903,
                "addr:teryt:sym_ul": 23923,
                "contact:phone": "+48 183521011",
                "ref:regon": "122692555",
                "operator": "Przedsi\u0119biorstwo Handlowo-Gatronomiczne \"Barnix\" Sp\u00f3\u0142ka Z O.o. W Gorlicach",
                "operator:type": "private",
                "fixme": "w zale\u017cno\u015bci od przedmiotu dzia\u0142alno\u015bci (np. amenity=training + training=*, amenity=dancing_school, amenity=language_school, amenity=music_school)"
            }
        },
        {
            "id": 29663,
            "type": "Feature",
            "geometry": {
                "type": "Point",
                "coordinates": [
                    21.16212,
                    49.65298
                ]
            },
            "properties": {
                "ref:rspo": 29663,
                "official_name": "Zesp\u00f3\u0142 Szk\u00f3\u0142 Ekonomicznych im. Jana Paw\u0142a II w Gorlicach",
                "name": "Zesp\u00f3\u0142 Szk\u00f3\u0142 Ekonomicznych",
                "addr:country": "PL",
                "addr:postcode": "38-300",
                "addr:city": "Gorlice",
                "addr:street": "Aria\u0144ska",
                "addr:housenumber": "3",
                "addr:teryt:simc": 959903,
                "addr:teryt:sym_ul": 405,
                "contact:phone": "+48 183526814",
                "contact:email": "sekretariat@zse.gorlice.pl",
                "contact:website": "http:\/\/zse.gorlice.pl",
                "ref:regon": "000239356",
                "ref:vatin": "PL7381031833",
                "operator": "Powiat Gorlicki",
                "operator:type": "government",
                "landuse": "education",
                "fixme": "amenity=school, amenity=college albo landuse=education w zale\u017cno\u015bci od tego, jakie plac\u00f3wki wchodz\u0105 w sk\u0142ad zespo\u0142u. Sprawd\u017a, kiedy stosowa\u0107 amenity=* a kiedy landuse=education.",
                "note": "Children RSPO: 38693;40610;263800"
            }
        },
        {
            "id": 38693,
            "type": "Feature",
            "geometry": {
                "type": "Point",
                "coordinates": [
                    21.16212,
                    49.65295
                ]
            },
            "properties": {
                "isced:level": "3",
                "ref:rspo": 38693,
                "official_name": "Technikum Nr 3 w Gorlicach",
                "name": "Technikum Nr 3 w Gorlicach",
                "addr:country": "PL",
                "addr:postcode": "38-300",
                "addr:city": "Gorlice",
                "addr:street": "Aria\u0144ska",
                "addr:housenumber": "3",
                "addr:teryt:simc": 959903,
                "addr:teryt:sym_ul": 405,
                "contact:phone": "+48 183535704",
                "contact:email": "sekretariat@zse.gorlice.pl",
                "contact:website": "http:\/\/zse.gorlice.pl",
                "ref:regon": "852712933",
                "operator": "Powiat Gorlicki",
                "operator:type": "government",
                "amenity": "school",
                "note": "Parent RSPO: 29663"
            }
        },
        {
            "id": 40610,
            "type": "Feature",
            "geometry": {
                "type": "Point",
                "coordinates": [
                    21.16212,
                    49.65292
                ]
            },
            "properties": {
                "isced:level": "3",
                "ref:rspo": 40610,
                "official_name": "Bran\u017cowa Szko\u0142a I Stopnia Nr 3 w Gorlicach",
                "name": "Bran\u017cowa Szko\u0142a I Stopnia Nr 3 w Gorlicach",
                "addr:country": "PL",
                "addr:postcode": "38-300",
                "addr:city": "Gorlice",
                "addr:street": "Aria\u0144ska",
                "addr:housenumber": "3",
                "addr:teryt:simc": 959903,
                "addr:teryt:sym_ul": 405,
                "contact:phone": "+48 183535704",
                "contact:email": "sekretariat@zse.gorlice.pl",
                "contact:website": "http:\/\/zse.gorlice.pl",
                "ref:regon": "852712979",
                "operator": "Powiat Gorlicki",
                "operator:type": "government",
                "amenity": "school",
                "note": "Parent RSPO: 29663"
            }
        },
        {
            "id": 263800,
            "type": "Feature",
            "geometry": {
                "type": "Point",
                "coordinates": [
                    21.16212,
                    49.65289
                ]
            },
            "properties": {
                "isced:level": "4",
                "ref:rspo": 263800,
                "official_name": "Szko\u0142a Policealna Nr 4 w Gorlicach",
                "name": "Szko\u0142a Policealna Nr 4 w Gorlicach",
                "addr:country": "PL",
                "addr:postcode": "38-300",
                "addr:city": "Gorlice",
                "addr:street": "Aria\u0144ska",
                "addr:housenumber": "3",
                "addr:teryt:simc": 959903,
                "addr:teryt:sym_ul": 405,
                "contact:phone": "+48 183535704",
                "contact:email": "sekretariat@zse.gorlice.pl",
                "contact:website": "http:\/\/zse.gorlice.pl",
                "ref:regon": "368222920",
                "operator": "Powiat Gorlicki",
                "operator:type": "government",
                "amenity": "college",
                "note": "Parent RSPO: 29663"
            }
        },
        {
            "id": 40991,
            "type": "Feature",
            "geometry": {
                "type": "Point",
                "coordinates": [
                    21.16742,
                    49.65302
                ]
            },
            "properties": {
                "ref:rspo": 40991,
                "official_name": "Przedszkole Niepubliczne Ochronka Si\u00f3str S\u0142u\u017cebniczek",
                "name": "Przedszkole Niepubliczne Ochronka Si\u00f3str S\u0142u\u017cebniczek",
                "addr:country": "PL",
                "addr:postcode": "38-300",
                "addr:city": "Gorlice",
                "addr:street": "Doktora Stanis\u0142awa Jezierskiego",
                "addr:housenumber": "3",
                "addr:teryt:simc": 959903,
                "addr:teryt:sym_ul": 38121,
                "contact:phone": "+48 508448991",
                "contact:email": "siostry_przedszkole@wp.pl",
                "contact:website": "http:\/\/www.ochronka.gorlice.pl",
                "ref:regon": "122692070",
                "ref:vatin": "PL7381658779",
                "operator": "Zgromadzenie Si\u00f3str S\u0142u\u017cebniczek Naj\u015bwi\u0119tszej Maryi Panny Niepokalanie Pocz\u0119tej Prowincja Tarnowska",
                "operator:type": "religious",
                "amenity": "kindergarten"
            }
        },
        {
            "id": 15023,
            "type": "Feature",
            "geometry": {
                "type": "Point",
                "coordinates": [
                    21.15729,
                    49.65305
                ]
            },
            "properties": {
                "isced:level": "3",
                "ref:rspo": 15023,
                "official_name": "Prywatne Liceum Og\u00f3lnokszta\u0142c\u0105ce dla Doros\u0142ych Zaoczne w Gorlicach",
                "name": "Prywatne Liceum Og\u00f3lnokszta\u0142c\u0105ce dla Doros\u0142ych Zaoczne w Gorlicach",
                "addr:country": "PL",
                "addr:postcode": "38-300",
                "addr:city": "Gorlice",
                "addr:street": "Tadeusza Ko\u015bciuszki",
                "addr:housenumber": "30",
                "addr:teryt:simc": 959903,
                "addr:teryt:sym_ul": 9582,
                "contact:phone": "+48 507131510",
                "contact:email": "sekretariat@plogorlice.pl",
                "contact:website": "http:\/\/plogorlice.pl",
                "ref:regon": "122660986",
                "operator": "Marianna Renkiewicz-Bemben",
                "operator:type": "private",
                "amenity": "school"
            }
        },
        {
            "id": 15043,
            "type": "Feature",
            "geometry": {
                "type": "Point",
                "coordinates": [
                    21.15729,
                    49.65302
                ]
            },
            "properties": {
                "isced:level": "3",
                "ref:rspo": 15043,
                "official_name": "Prywatna Bran\u017cowa Szko\u0142a I Stopnia w Gorlicach",
                "name": "Prywatna Bran\u017cowa Szko\u0142a I Stopnia w Gorlicach",
                "addr:country": "PL",
                "addr:postcode": "38-300",
                "addr:city": "Gorlice",
                "addr:street": "Tadeusza Ko\u015bciuszki",
                "addr:housenumber": "30",
                "addr:teryt:simc": 959903,
                "addr:teryt:sym_ul": 9582,
                "contact:phone": "+48 507131510",
                "contact:email": "sekretariat@plogorlice.pl",
                "contact:website": "http:\/\/www.plogorlice.pl",
                "ref:regon": "122661000",
                "operator": "Marianna Renkiewicz-Bemben",
                "operator:type": "private",
                "amenity": "school"
            }
        },
        {
            "id": 20156,
            "type": "Feature",
            "geometry": {
                "type": "Point",
                "coordinates": [
                    21.15956,
                    49.65344
                ]
            },
            "properties": {
                "ref:rspo": 20156,
                "official_name": "Miejski Zesp\u00f3\u0142 Szk\u00f3\u0142 Nr 1",
                "name": "Miejski Zesp\u00f3\u0142 Szk\u00f3\u0142 Nr 1",
                "addr:country": "PL",
                "addr:postcode": "38-300",
                "addr:city": "Gorlice",
                "addr:street": "Pi\u0119kna",
                "addr:housenumber": "9",
                "addr:teryt:simc": 959903,
                "addr:teryt:sym_ul": 16191,
                "contact:phone": "+48 183535494",
                "contact:email": "sekretariat@mzs1.gorlice.pl",
                "contact:website": "http:\/\/www.mzs1.gorlice.pl",
                "ref:regon": "120306000",
                "ref:vatin": "PL7382036904",
                "operator": "Miasto Gorlice",
                "operator:type": "government",
                "landuse": "education",
                "fixme": "amenity=school, amenity=college albo landuse=education w zale\u017cno\u015bci od tego, jakie plac\u00f3wki wchodz\u0105 w sk\u0142ad zespo\u0142u. Sprawd\u017a, kiedy stosowa\u0107 amenity=* a kiedy landuse=education.",
                "note": "Children RSPO: 19551;31949"
            }
        },
        {
            "id": 31949,
            "type": "Feature",
            "geometry": {
                "type": "Point",
                "coordinates": [
                    21.15956,
                    49.65341
                ]
            },
            "properties": {
                "isced:level": "1;2",
                "ref:rspo": 31949,
                "official_name": "Szko\u0142a Podstawowa Nr 1 im.ks.stanis\u0142awa Konarskiego w Gorlicach",
                "name": "Szko\u0142a Podstawowa Nr 1 im.ks.stanis\u0142awa Konarskiego w Gorlicach",
                "addr:country": "PL",
                "addr:postcode": "38-300",
                "addr:city": "Gorlice",
                "addr:street": "Pi\u0119kna",
                "addr:housenumber": "9",
                "addr:teryt:simc": 959903,
                "addr:teryt:sym_ul": 16191,
                "contact:phone": "+48 183535494",
                "contact:email": "sekretariat@mzs1.gorlice.pl",
                "contact:website": "http:\/\/www.mzs1.gorlice.pl",
                "ref:regon": "490534348",
                "operator": "Miasto Gorlice",
                "operator:type": "government",
                "amenity": "school",
                "note": "Parent RSPO: 20156"
            }
        },
        {
            "id": 40593,
            "type": "Feature",
            "geometry": {
                "type": "Point",
                "coordinates": [
                    21.16476,
                    49.6537
                ]
            },
            "properties": {
                "ref:rspo": 40593,
                "official_name": "Niepubliczne Przedszkole \"Elfik\" w Gorlicach",
                "name": "Niepubliczne Przedszkole \"Elfik\" w Gorlicach",
                "addr:country": "PL",
                "addr:postcode": "38-300",
                "addr:city": "Gorlice",
                "addr:street": "Henryka Sienkiewicza",
                "addr:housenumber": "7",
                "addr:teryt:simc": 959903,
                "addr:teryt:sym_ul": 19834,
                "contact:phone": "+48 781252277",
                "contact:email": "elfikiprzedszkole@onet.pl",
                "ref:regon": "122687880",
                "ref:vatin": "PL7381439818",
                "operator": "Aneta Kosi\u0144ska",
                "operator:type": "private",
                "amenity": "kindergarten"
            }
        },
        {
            "id": 35192,
            "type": "Feature",
            "geometry": {
                "type": "Point",
                "coordinates": [
                    21.18157,
                    49.65422
                ]
            },
            "properties": {
                "ref:rspo": 35192,
                "official_name": "Niepubliczne Przedszkole \"Weso\u0142e Skrzaty\"",
                "name": "Niepubliczne Przedszkole \"Weso\u0142e Skrzaty\"",
                "addr:country": "PL",
                "addr:postcode": "38-300",
                "addr:city": "Gorlice",
                "addr:street": "Dukielska",
                "addr:housenumber": "73",
                "addr:teryt:simc": 959903,
                "addr:teryt:sym_ul": 4367,
                "contact:phone": "+48 183526106",
                "contact:email": "skrzaty_anna@op.pl",
                "contact:website": "http:\/\/www.wesoleskrzaty.gorlice.pl",
                "ref:regon": "122685070",
                "operator": "Anna Boczo\u0144",
                "operator:type": "private",
                "amenity": "kindergarten"
            }
        },
        {
            "id": 267605,
            "type": "Feature",
            "geometry": {
                "type": "Point",
                "coordinates": [
                    21.14692,
                    49.65659
                ]
            },
            "properties": {
                "ref:rspo": 267605,
                "official_name": "Niepubliczne Przedszkole Z Oddzia\u0142ami Integracyjnymi \"Kubusiowy Ogr\u00f3d\"",
                "name": "Niepubliczne Przedszkole Z Oddzia\u0142ami Integracyjnymi \"Kubusiowy Ogr\u00f3d\"",
                "addr:country": "PL",
                "addr:postcode": "38-300",
                "addr:city": "Gorlice",
                "addr:street": "S\u0142oneczna",
                "addr:housenumber": "2",
                "addr:teryt:simc": 959903,
                "addr:teryt:sym_ul": 20254,
                "contact:phone": "+48 577180016",
                "contact:email": "biuro@przedszkolegorlice.pl",
                "contact:website": "http:\/\/przedszkolegorlice.pl",
                "ref:regon": "380392652",
                "operator": "Asmir Sp\u00f3\u0142ka Z Ograniczon\u0105 Odpowiedzialno\u015bci\u0105",
                "operator:type": "private",
                "amenity": "kindergarten"
            }
        },
        {
            "id": 16399,
            "type": "Feature",
            "geometry": {
                "type": "Point",
                "coordinates": [
                    21.1560099,
                    49.6569999
                ]
            },
            "properties": {
                "ref:rspo": 16399,
                "official_name": "M\u0142odzie\u017cowy Dom Kultury w Gorlicach",
                "name": "M\u0142odzie\u017cowy Dom Kultury w Gorlicach",
                "addr:country": "PL",
                "addr:postcode": "38-300",
                "addr:city": "Gorlice",
                "addr:street": "Cicha",
                "addr:housenumber": "4",
                "addr:teryt:simc": 959903,
                "addr:teryt:sym_ul": 2974,
                "contact:phone": "+48 183535891",
                "contact:email": "mdk@gorlice.net.pl",
                "contact:website": "http:\/\/mdk.gorlice.net.pl",
                "ref:regon": "490032434",
                "ref:vatin": "PL7381058217",
                "operator": "Powiat Gorlicki",
                "operator:type": "government",
                "amenity": "community_centre",
                "community_centre:for": "juvenile"
            }
        },
        {
            "id": 19571,
            "type": "Feature",
            "geometry": {
                "type": "Point",
                "coordinates": [
                    21.1488799,
                    49.65713
                ]
            },
            "properties": {
                "ref:rspo": 19571,
                "official_name": "Miejskie Przedszkole Nr 5",
                "name": "Miejskie Przedszkole Nr 5",
                "addr:country": "PL",
                "addr:postcode": "38-300",
                "addr:city": "Gorlice",
                "addr:street": "Krakowska",
                "addr:housenumber": "11",
                "addr:teryt:simc": 959903,
                "addr:teryt:sym_ul": 9796,
                "contact:phone": "+48 183525615",
                "contact:email": "gorlickieprzedszkole5@poczta.onet.pl",
                "contact:website": "http:\/\/www.przedszkole5.gorlice.pl",
                "ref:regon": "121406783",
                "ref:vatin": "PL7382130773",
                "operator": "Miasto Gorlice",
                "operator:type": "government",
                "amenity": "kindergarten",
                "note": "Parent RSPO: 25354"
            }
        },
        {
            "id": 25354,
            "type": "Feature",
            "geometry": {
                "type": "Point",
                "coordinates": [
                    21.15326,
                    49.65743
                ]
            },
            "properties": {
                "ref:rspo": 25354,
                "official_name": "Miejski Zesp\u00f3\u0142 Szk\u00f3\u0142 Nr 5 w Gorlicach im.ksi\u0119dza Jana Twardowskiego",
                "name": "Miejski Zesp\u00f3\u0142 Szk\u00f3\u0142 Nr 5 w Gorlicach im.ksi\u0119dza Jana Twardowskiego",
                "addr:country": "PL",
                "addr:postcode": "38-300",
                "addr:city": "Gorlice",
                "addr:street": "Krakowska",
                "addr:housenumber": "5",
                "addr:teryt:simc": 959903,
                "addr:teryt:sym_ul": 9796,
                "contact:phone": "+48 183525301",
                "contact:email": "mzs5.gorlice@o2.pl",
                "contact:website": "http:\/\/www.mzs5.gorlice.pl",
                "ref:regon": "490533165",
                "ref:vatin": "PL7381010162",
                "operator": "Miasto Gorlice",
                "operator:type": "government",
                "landuse": "education",
                "fixme": "amenity=school, amenity=college albo landuse=education w zale\u017cno\u015bci od tego, jakie plac\u00f3wki wchodz\u0105 w sk\u0142ad zespo\u0142u. Sprawd\u017a, kiedy stosowa\u0107 amenity=* a kiedy landuse=education.",
                "note": "Children RSPO: 19571;35182"
            }
        },
        {
            "id": 35182,
            "type": "Feature",
            "geometry": {
                "type": "Point",
                "coordinates": [
                    21.15326,
                    49.657399999999996
                ]
            },
            "properties": {
                "isced:level": "1;2",
                "ref:rspo": 35182,
                "official_name": "Szko\u0142a Podstawowa Nr 5 w Gorlicach",
                "name": "Szko\u0142a Podstawowa Nr 5 w Gorlicach",
                "addr:country": "PL",
                "addr:postcode": "38-300",
                "addr:city": "Gorlice",
                "addr:street": "Krakowska",
                "addr:housenumber": "5",
                "addr:teryt:simc": 959903,
                "addr:teryt:sym_ul": 9796,
                "contact:phone": "+48 183525301",
                "contact:email": "mzs5.gorlice@o2.pl",
                "contact:website": "http:\/\/www.mzs5.gorlice.pl",
                "ref:regon": "492904743",
                "operator": "Miasto Gorlice",
                "operator:type": "government",
                "amenity": "school",
                "note": "Parent RSPO: 25354"
            }
        },
        {
            "id": 43732,
            "type": "Feature",
            "geometry": {
                "type": "Point",
                "coordinates": [
                    21.16095,
                    49.65825
                ]
            },
            "properties": {
                "ref:rspo": 43732,
                "official_name": "Przedszkole Niepubliczne Si\u00f3str Felicjanek",
                "name": "Przedszkole Niepubliczne Si\u00f3str Felicjanek",
                "addr:country": "PL",
                "addr:postcode": "38-300",
                "addr:city": "Gorlice",
                "addr:street": "Zygmunta Krasi\u0144skiego",
                "addr:housenumber": "21",
                "addr:teryt:simc": 959903,
                "addr:teryt:sym_ul": 9848,
                "contact:phone": "+48 183536991",
                "contact:email": "przedszkole@felicjanki-gorlice.pl",
                "contact:website": "http:\/\/www.felicjankigorlice.pl",
                "ref:regon": "122692584",
                "ref:vatin": "PL7381014119",
                "operator": "Zgromadzenie Si\u00f3str \u015aw.feliksa Z Kantalicjo, Prowincja Krakowska",
                "operator:type": "religious",
                "amenity": "kindergarten"
            }
        },
        {
            "id": 24915,
            "type": "Feature",
            "geometry": {
                "type": "Point",
                "coordinates": [
                    21.15881,
                    49.65837
                ]
            },
            "properties": {
                "ref:rspo": 24915,
                "official_name": "Pedagogiczna Biblioteka Wojew\u00f3dzka w Nowym S\u0105czu Filia w Gorlicach",
                "name": "Pedagogiczna Biblioteka Wojew\u00f3dzka w Nowym S\u0105czu Filia w Gorlicach",
                "addr:country": "PL",
                "addr:postcode": "38-300",
                "addr:city": "Gorlice",
                "addr:street": "Wr\u00f3blewskiego",
                "addr:housenumber": "10",
                "addr:teryt:simc": 959903,
                "addr:teryt:sym_ul": 24830,
                "contact:phone": "+48 183521570",
                "contact:email": "bibped@vp.pl",
                "contact:website": "http:\/\/www.gorlice.pbwnowysacz.pl",
                "ref:regon": "714952000",
                "operator": "Wojew\u00f3dztwo Ma\u0142opolskie",
                "operator:type": "government",
                "amenity": "library",
                "note": "Parent RSPO: 18846"
            }
        },
        {
            "id": 25353,
            "type": "Feature",
            "geometry": {
                "type": "Point",
                "coordinates": [
                    21.16296,
                    49.65862
                ]
            },
            "properties": {
                "ref:rspo": 25353,
                "official_name": "Miejski Zesp\u00f3\u0142 Szk\u00f3\u0142 Nr 4 w Gorlicach",
                "name": "Miejski Zesp\u00f3\u0142 Szk\u00f3\u0142 Nr 4 w Gorlicach",
                "addr:country": "PL",
                "addr:postcode": "38-300",
                "addr:city": "Gorlice",
                "addr:street": "Zygmunta Krasi\u0144skiego",
                "addr:housenumber": "9",
                "addr:teryt:simc": 959903,
                "addr:teryt:sym_ul": 9848,
                "contact:phone": "+48 183536345",
                "contact:email": "mzsnr4gorlice4@wp.pl",
                "contact:website": "http:\/\/www.mzs4gorlice.pl",
                "ref:regon": "852717451",
                "ref:vatin": "PL7381948508",
                "operator": "Miasto Gorlice",
                "operator:type": "government",
                "landuse": "education",
                "fixme": "amenity=school, amenity=college albo landuse=education w zale\u017cno\u015bci od tego, jakie plac\u00f3wki wchodz\u0105 w sk\u0142ad zespo\u0142u. Sprawd\u017a, kiedy stosowa\u0107 amenity=* a kiedy landuse=education.",
                "note": "Children RSPO: 18621;32003"
            }
        },
        {
            "id": 32003,
            "type": "Feature",
            "geometry": {
                "type": "Point",
                "coordinates": [
                    21.16296,
                    49.65859
                ]
            },
            "properties": {
                "isced:level": "1;2",
                "ref:rspo": 32003,
                "official_name": "Szko\u0142a Podstawowa Nr 4 im.bohater\u00f3w Westerplatte w Gorlicach",
                "name": "Szko\u0142a Podstawowa Nr 4 im.bohater\u00f3w Westerplatte w Gorlicach",
                "addr:country": "PL",
                "addr:postcode": "38-300",
                "addr:city": "Gorlice",
                "addr:street": "Zygmunta Krasi\u0144skiego",
                "addr:housenumber": "9",
                "addr:teryt:simc": 959903,
                "addr:teryt:sym_ul": 9848,
                "contact:phone": "+48 183536345",
                "contact:email": "mzsnr4gorlice4@wp.pl",
                "contact:website": "http:\/\/www.mzs4gorlice.pl",
                "ref:regon": "490532496",
                "operator": "Miasto Gorlice",
                "operator:type": "government",
                "amenity": "school",
                "note": "Parent RSPO: 25353"
            }
        },
        {
            "id": 130091,
            "type": "Feature",
            "geometry": {
                "type": "Point",
                "coordinates": [
                    21.1564799,
                    49.65875
                ]
            },
            "properties": {
                "isced:level": "3",
                "ref:rspo": 130091,
                "official_name": "Liceum Og\u00f3lnokszta\u0142c\u0105ce w Gorlicach",
                "name": "Liceum Og\u00f3lnokszta\u0142c\u0105ce w Gorlicach",
                "addr:country": "PL",
                "addr:postcode": "38-300",
                "addr:city": "Gorlice",
                "addr:street": "3 Maja",
                "addr:housenumber": "9",
                "addr:teryt:simc": 959903,
                "addr:teryt:sym_ul": 11937,
                "contact:phone": "+48 184000366",
                "contact:email": "gorlice@medyk.net.pl",
                "contact:website": "http:\/\/www.medyk.net.pl",
                "ref:regon": "363452910",
                "operator": "Medyk Szko\u0142a Sp\u00f3\u0142ka Z Ograniczon\u0105 Odpowiedzialno\u015bci\u0105",
                "operator:type": "private",
                "amenity": "school"
            }
        },
        {
            "id": 130097,
            "type": "Feature",
            "geometry": {
                "type": "Point",
                "coordinates": [
                    21.1564799,
                    49.658719999999995
                ]
            },
            "properties": {
                "isced:level": "4",
                "ref:rspo": 130097,
                "official_name": "Policealna Szko\u0142a w Gorlicach",
                "name": "Policealna Szko\u0142a w Gorlicach",
                "addr:country": "PL",
                "addr:postcode": "38-300",
                "addr:city": "Gorlice",
                "addr:street": "3 Maja",
                "addr:housenumber": "9",
                "addr:teryt:simc": 959903,
                "addr:teryt:sym_ul": 11937,
                "contact:phone": "+48 184000366",
                "contact:email": "gorlice@medyk.net.pl",
                "contact:website": "http:\/\/www.medyk.net.pl",
                "ref:regon": "363457304",
                "operator": "Medyk Szko\u0142a Sp\u00f3\u0142ka Z Ograniczon\u0105 Odpowiedzialno\u015bci\u0105",
                "operator:type": "private",
                "amenity": "college"
            }
        },
        {
            "id": 131798,
            "type": "Feature",
            "geometry": {
                "type": "Point",
                "coordinates": [
                    21.1564799,
                    49.65869
                ]
            },
            "properties": {
                "isced:level": "4",
                "ref:rspo": 131798,
                "official_name": "Medyczna Szko\u0142a Policealna w Gorlicach",
                "name": "Medyczna Szko\u0142a Policealna w Gorlicach",
                "addr:country": "PL",
                "addr:postcode": "38-300",
                "addr:city": "Gorlice",
                "addr:street": "3 Maja",
                "addr:housenumber": "9",
                "addr:teryt:simc": 959903,
                "addr:teryt:sym_ul": 11937,
                "contact:phone": "+48 184000366",
                "contact:email": "gorlice@medyk.net.pl",
                "contact:website": "http:\/\/www.medyk.net.pl",
                "ref:regon": "365346313",
                "operator": "Medyk Szko\u0142a Sp\u00f3\u0142ka Z Ograniczon\u0105 Odpowiedzialno\u015bci\u0105",
                "operator:type": "private",
                "amenity": "college"
            }
        },
        {
            "id": 115497,
            "type": "Feature",
            "geometry": {
                "type": "Point",
                "coordinates": [
                    21.15733,
                    49.65878
                ]
            },
            "properties": {
                "ref:rspo": 115497,
                "official_name": "Specjalistyczna Poradnia Psychologiczno-Pedagogiczna Echo",
                "name": "Specjalistyczna Poradnia Psychologiczno-Pedagogiczna Echo",
                "addr:country": "PL",
                "addr:postcode": "38-300",
                "addr:city": "Gorlice",
                "addr:street": "3 Maja",
                "addr:housenumber": "10",
                "addr:teryt:simc": 959903,
                "addr:teryt:sym_ul": 11937,
                "contact:email": "kasia_k81@op.pl",
                "contact:website": "http:\/\/echo.gorlice.pl",
                "ref:regon": "122894483",
                "operator": "Katarzyna Kawa",
                "operator:type": "private",
                "healthcare": "counselling",
                "counselling_type": "education",
                "fixme": "w zale\u017cno\u015bci od przedmiotu dzia\u0142alno\u015bci (np. healthcare=counselling + counselling_type=education albo healthcare=psychotherapist)"
            }
        },
        {
            "id": 131268,
            "type": "Feature",
            "geometry": {
                "type": "Point",
                "coordinates": [
                    21.15895,
                    49.65889
                ]
            },
            "properties": {
                "ref:rspo": 131268,
                "official_name": "Zesp\u00f3\u0142 Pa\u0144stwowych Szk\u00f3\u0142 Muzycznych w Gorlicach",
                "name": "Zesp\u00f3\u0142 Pa\u0144stwowych Szk\u00f3\u0142 Muzycznych w Gorlicach",
                "addr:country": "PL",
                "addr:postcode": "38-300",
                "addr:city": "Gorlice",
                "addr:street": "Wr\u00f3blewskiego",
                "addr:housenumber": "12",
                "addr:teryt:simc": 959903,
                "addr:teryt:sym_ul": 24830,
                "contact:phone": "+48 183521472",
                "contact:email": "sekretariat@psmgorlice.pl",
                "contact:website": "http:\/\/psmgorlice.pl",
                "ref:regon": "365076397",
                "operator": "Ministerstwo Kultury I Dziedzictwa Narodowego",
                "operator:type": "public",
                "landuse": "education",
                "fixme": "amenity=school, amenity=college albo landuse=education w zale\u017cno\u015bci od tego, jakie plac\u00f3wki wchodz\u0105 w sk\u0142ad zespo\u0142u. Sprawd\u017a, kiedy stosowa\u0107 amenity=* a kiedy landuse=education.",
                "note": "Children RSPO: 75593;131320"
            }
        },
        {
            "id": 75593,
            "type": "Feature",
            "geometry": {
                "type": "Point",
                "coordinates": [
                    21.15895,
                    49.65886
                ]
            },
            "properties": {
                "ref:rspo": 75593,
                "official_name": "Pa\u0144stwowa Szko\u0142a Muzyczna I St. im. Ignacego Jana Paderewskiego w Gorlicach",
                "name": "Pa\u0144stwowa Szko\u0142a Muzyczna I St.",
                "addr:country": "PL",
                "addr:postcode": "38-300",
                "addr:city": "Gorlice",
                "addr:street": "Wr\u00f3blewskiego",
                "addr:housenumber": "12",
                "addr:teryt:simc": 959903,
                "addr:teryt:sym_ul": 24830,
                "contact:phone": "+48 183521472",
                "contact:email": "sekretariat@psmgorlice.pl",
                "contact:website": "http:\/\/psmgorlice.pl",
                "ref:regon": "000647670",
                "operator": "Ministerstwo Kultury I Dziedzictwa Narodowego",
                "operator:type": "public",
                "amenity": "music_school",
                "note": "Parent RSPO: 131268"
            }
        },
        {
            "id": 131320,
            "type": "Feature",
            "geometry": {
                "type": "Point",
                "coordinates": [
                    21.15895,
                    49.65883
                ]
            },
            "properties": {
                "ref:rspo": 131320,
                "official_name": "Pa\u0144stwowa Szko\u0142a Muzyczna II St. w Gorlicach",
                "name": "Pa\u0144stwowa Szko\u0142a Muzyczna II St. w Gorlicach",
                "addr:country": "PL",
                "addr:postcode": "38-300",
                "addr:city": "Gorlice",
                "addr:street": "Wr\u00f3blewskiego",
                "addr:housenumber": "12",
                "addr:teryt:simc": 959903,
                "addr:teryt:sym_ul": 24830,
                "contact:phone": "+48 183521472",
                "contact:email": "sekretariat@psmgorlice.pl",
                "contact:website": "http:\/\/psmgorlice.pl",
                "ref:regon": "365112182",
                "operator": "Ministerstwo Kultury I Dziedzictwa Narodowego",
                "operator:type": "public",
                "amenity": "music_school",
                "note": "Parent RSPO: 131268"
            }
        },
        {
            "id": 21369,
            "type": "Feature",
            "geometry": {
                "type": "Point",
                "coordinates": [
                    21.15658,
                    49.65917
                ]
            },
            "properties": {
                "isced:level": "4",
                "ref:rspo": 21369,
                "official_name": "Niepubliczna Szko\u0142a Policealna w Gorlicach",
                "name": "Niepubliczna Szko\u0142a Policealna w Gorlicach",
                "addr:country": "PL",
                "addr:postcode": "38-300",
                "addr:city": "Gorlice",
                "addr:street": "J\u00f3zefa Pi\u0142sudskiego",
                "addr:housenumber": "8",
                "addr:teryt:simc": 959903,
                "addr:teryt:sym_ul": 16264,
                "contact:phone": "+48 134471744",
                "contact:email": "hen-gryg@wp.pl",
                "contact:website": "http:\/\/pnse.edu.pl",
                "ref:regon": "122671850",
                "operator": "Henryk Grygowicz",
                "operator:type": "private",
                "amenity": "college"
            }
        },
        {
            "id": 18805,
            "type": "Feature",
            "geometry": {
                "type": "Point",
                "coordinates": [
                    21.15814,
                    49.66015
                ]
            },
            "properties": {
                "ref:rspo": 18805,
                "official_name": "Zesp\u00f3\u0142 Jednostek Edukacyjnych Wojew\u00f3dztwa Ma\u0142opolskiego w Gorlicach",
                "name": "Zesp\u00f3\u0142 Jednostek Edukacyjnych Wojew\u00f3dztwa Ma\u0142opolskiego w Gorlicach",
                "addr:country": "PL",
                "addr:postcode": "38-300",
                "addr:city": "Gorlice",
                "addr:street": "W\u0142adys\u0142awa Jagie\u0142\u0142y",
                "addr:housenumber": "2",
                "addr:teryt:simc": 959903,
                "addr:teryt:sym_ul": 24494,
                "contact:phone": "+48 183520459",
                "contact:email": "sekretariat@medyk.gorlice.pl",
                "contact:website": "http:\/\/www.medyk.gorlice.pl",
                "ref:regon": "121470611",
                "ref:vatin": "PL7382133375",
                "operator": "Wojew\u00f3dztwo Ma\u0142opolskie",
                "operator:type": "government",
                "landuse": "education",
                "fixme": "amenity=school, amenity=college albo landuse=education w zale\u017cno\u015bci od tego, jakie plac\u00f3wki wchodz\u0105 w sk\u0142ad zespo\u0142u. Sprawd\u017a, kiedy stosowa\u0107 amenity=* a kiedy landuse=education.",
                "note": "Children RSPO: 74655;83487"
            }
        },
        {
            "id": 74655,
            "type": "Feature",
            "geometry": {
                "type": "Point",
                "coordinates": [
                    21.15814,
                    49.66012
                ]
            },
            "properties": {
                "isced:level": "4",
                "ref:rspo": 74655,
                "official_name": "Szko\u0142a Policealna Pracownik\u00f3w S\u0142u\u017cb Medycznych I Spo\u0142ecznych w Gorlicach",
                "name": "Szko\u0142a Policealna Pracownik\u00f3w S\u0142u\u017cb Medycznych I Spo\u0142ecznych w Gorlicach",
                "addr:country": "PL",
                "addr:postcode": "38-300",
                "addr:city": "Gorlice",
                "addr:street": "W\u0142adys\u0142awa Jagie\u0142\u0142y",
                "addr:housenumber": "2",
                "addr:teryt:simc": 959903,
                "addr:teryt:sym_ul": 24494,
                "contact:phone": "+48 183520459",
                "contact:email": "szkola@medyk.gorlice.pl",
                "contact:website": "http:\/\/www.medyk.gorlice.pl",
                "ref:regon": "000302646",
                "operator": "Wojew\u00f3dztwo Ma\u0142opolskie",
                "operator:type": "government",
                "amenity": "college",
                "note": "Parent RSPO: 18805"
            }
        },
        {
            "id": 83487,
            "type": "Feature",
            "geometry": {
                "type": "Point",
                "coordinates": [
                    21.15814,
                    49.660090000000004
                ]
            },
            "properties": {
                "ref:rspo": 83487,
                "official_name": "Centrum Kszta\u0142cenia Ustawicznego w Gorlicach",
                "name": "Centrum Kszta\u0142cenia Ustawicznego w Gorlicach",
                "addr:country": "PL",
                "addr:postcode": "38-300",
                "addr:city": "Gorlice",
                "addr:street": "W\u0142adys\u0142awa Jagie\u0142\u0142y",
                "addr:housenumber": "2",
                "addr:teryt:simc": 959903,
                "addr:teryt:sym_ul": 24494,
                "contact:phone": "+48 183520459",
                "contact:email": "cku@medyk.gorlice.pl",
                "contact:website": "http:\/\/www.medyk.gorlice.pl",
                "ref:regon": "121470640",
                "operator": "Wojew\u00f3dztwo Ma\u0142opolskie",
                "operator:type": "government",
                "amenity": "school",
                "fixme": "amenity=school lub amenity=college",
                "note": "Parent RSPO: 18805"
            }
        },
        {
            "id": 7499,
            "type": "Feature",
            "geometry": {
                "type": "Point",
                "coordinates": [
                    21.15441,
                    49.66031
                ]
            },
            "properties": {
                "ref:rspo": 7499,
                "official_name": "Zesp\u00f3\u0142 Szk\u00f3\u0142 Zawodowych im. Kazimierza Pu\u0142askiego w Gorlicach",
                "name": "Zesp\u00f3\u0142 Szk\u00f3\u0142 Zawodowych",
                "addr:country": "PL",
                "addr:postcode": "38-300",
                "addr:city": "Gorlice",
                "addr:street": "Niepodleg\u0142o\u015bci",
                "addr:housenumber": "5",
                "addr:teryt:simc": 959903,
                "addr:teryt:sym_ul": 14203,
                "contact:phone": "+48 183535019",
                "contact:email": "szkola@zszgorlice.edupoczta.pl",
                "contact:website": "http:\/\/zszgorlice.iap.pl",
                "ref:regon": "000180551",
                "ref:vatin": "PL7381010191",
                "operator": "Powiat Gorlicki",
                "operator:type": "government",
                "landuse": "education",
                "fixme": "amenity=school, amenity=college albo landuse=education w zale\u017cno\u015bci od tego, jakie plac\u00f3wki wchodz\u0105 w sk\u0142ad zespo\u0142u. Sprawd\u017a, kiedy stosowa\u0107 amenity=* a kiedy landuse=education.",
                "note": "Children RSPO: 38691;38692;41410;124261;275649"
            }
        },
        {
            "id": 17370,
            "type": "Feature",
            "geometry": {
                "type": "Point",
                "coordinates": [
                    21.15441,
                    49.66028
                ]
            },
            "properties": {
                "ref:rspo": 17370,
                "official_name": "Poradnia Psychologiczno-Pedagogiczna w Gorlicach",
                "name": "Poradnia Psychologiczno-Pedagogiczna w Gorlicach",
                "addr:country": "PL",
                "addr:postcode": "38-300",
                "addr:city": "Gorlice",
                "addr:street": "Niepodleg\u0142o\u015bci",
                "addr:housenumber": "5A",
                "addr:teryt:simc": 959903,
                "addr:teryt:sym_ul": 14203,
                "contact:phone": "+48 183537255",
                "contact:email": "poradnia11@poradnia-gorlice.pl",
                "contact:website": "http:\/\/poradnia-gorlice.pl",
                "ref:regon": "001018634",
                "ref:vatin": "PL7381032790",
                "operator": "Powiat Gorlicki",
                "operator:type": "government",
                "healthcare": "counselling",
                "counselling_type": "education",
                "fixme": "w zale\u017cno\u015bci od przedmiotu dzia\u0142alno\u015bci (np. healthcare=counselling + counselling_type=education albo healthcare=psychotherapist)",
                "note": "Children RSPO: 264273"
            }
        },
        {
            "id": 38691,
            "type": "Feature",
            "geometry": {
                "type": "Point",
                "coordinates": [
                    21.15441,
                    49.660250000000005
                ]
            },
            "properties": {
                "isced:level": "3",
                "ref:rspo": 38691,
                "official_name": "Technikum Nr 2 w Gorlicach",
                "name": "Technikum Nr 2 w Gorlicach",
                "addr:country": "PL",
                "addr:postcode": "38-300",
                "addr:city": "Gorlice",
                "addr:street": "Niepodleg\u0142o\u015bci",
                "addr:housenumber": "5",
                "addr:teryt:simc": 959903,
                "addr:teryt:sym_ul": 14203,
                "contact:phone": "+48 183535019",
                "contact:email": "szkola@zszgorlice.edupoczta.pl",
                "contact:website": "http:\/\/zszgorlice.iap.pl",
                "ref:regon": "492903123",
                "operator": "Powiat Gorlicki",
                "operator:type": "government",
                "amenity": "school",
                "note": "Parent RSPO: 7499"
            }
        },
        {
            "id": 38692,
            "type": "Feature",
            "geometry": {
                "type": "Point",
                "coordinates": [
                    21.15441,
                    49.66022
                ]
            },
            "properties": {
                "isced:level": "3",
                "ref:rspo": 38692,
                "official_name": "Bran\u017cowa Szko\u0142a I Stopnia Nr 1 w Gorlicach",
                "name": "Bran\u017cowa Szko\u0142a I Stopnia Nr 1 w Gorlicach",
                "addr:country": "PL",
                "addr:postcode": "38-300",
                "addr:city": "Gorlice",
                "addr:street": "Niepodleg\u0142o\u015bci",
                "addr:housenumber": "5",
                "addr:teryt:simc": 959903,
                "addr:teryt:sym_ul": 14203,
                "contact:phone": "+48 183535019",
                "contact:email": "szkola@zszgorlice.edupoczta.pl",
                "contact:website": "http:\/\/zszgorlice.iap.pl",
                "ref:regon": "492903100",
                "operator": "Powiat Gorlicki",
                "operator:type": "government",
                "amenity": "school",
                "note": "Parent RSPO: 7499"
            }
        },
        {
            "id": 41410,
            "type": "Feature",
            "geometry": {
                "type": "Point",
                "coordinates": [
                    21.15441,
                    49.66019
                ]
            },
            "properties": {
                "isced:level": "4",
                "ref:rspo": 41410,
                "official_name": "Szko\u0142a Policealna Nr 2 w Gorlicach",
                "name": "Szko\u0142a Policealna Nr 2 w Gorlicach",
                "addr:country": "PL",
                "addr:postcode": "38-300",
                "addr:city": "Gorlice",
                "addr:street": "Niepodleg\u0142o\u015bci",
                "addr:housenumber": "5",
                "addr:teryt:simc": 959903,
                "addr:teryt:sym_ul": 14203,
                "contact:phone": "+48 183535019",
                "contact:email": "szkola@zszgorlice.edupoczta.pl",
                "contact:website": "http:\/\/zszgorlice.iap.pl",
                "ref:regon": "122686477",
                "operator": "Powiat Gorlicki",
                "operator:type": "government",
                "amenity": "college",
                "note": "Parent RSPO: 7499"
            }
        },
        {
            "id": 124261,
            "type": "Feature",
            "geometry": {
                "type": "Point",
                "coordinates": [
                    21.15441,
                    49.660160000000005
                ]
            },
            "properties": {
                "ref:rspo": 124261,
                "official_name": "Centrum Kszta\u0142cenia Ustawicznego Nr 2 w Gorlicach",
                "name": "Centrum Kszta\u0142cenia Ustawicznego Nr 2 w Gorlicach",
                "addr:country": "PL",
                "addr:postcode": "38-300",
                "addr:city": "Gorlice",
                "addr:street": "Niepodleg\u0142o\u015bci",
                "addr:housenumber": "5",
                "addr:teryt:simc": 959903,
                "addr:teryt:sym_ul": 14203,
                "contact:phone": "+48 183535019",
                "contact:email": "szkola@zszgorlice.edupoczta.pl",
                "contact:website": "http:\/\/zszgorlice.iap.pl\/pl",
                "ref:regon": "123191648",
                "operator": "Powiat Gorlicki",
                "operator:type": "government",
                "fixme": "w zale\u017cno\u015bci od przedmiotu dzia\u0142alno\u015bci (np. amenity=training + training=*, amenity=dancing_school, amenity=language_school, amenity=music_school)",
                "note": "Parent RSPO: 7499"
            }
        },
        {
            "id": 275649,
            "type": "Feature",
            "geometry": {
                "type": "Point",
                "coordinates": [
                    21.15441,
                    49.66013
                ]
            },
            "properties": {
                "isced:level": "3",
                "ref:rspo": 275649,
                "official_name": "Bran\u017cowa Szko\u0142a II Stopnia w Gorlicach",
                "name": "Bran\u017cowa Szko\u0142a II Stopnia w Gorlicach",
                "addr:country": "PL",
                "addr:postcode": "38-300",
                "addr:city": "Gorlice",
                "addr:street": "Niepodleg\u0142o\u015bci",
                "addr:housenumber": "5",
                "addr:teryt:simc": 959903,
                "addr:teryt:sym_ul": 14203,
                "contact:phone": "+48 183535019",
                "contact:email": "szkola@zszgorlice.edupoczta.pl",
                "ref:regon": "386930352",
                "operator": "Powiat Gorlicki",
                "operator:type": "government",
                "amenity": "school",
                "note": "Parent RSPO: 7499"
            }
        },
        {
            "id": 29320,
            "type": "Feature",
            "geometry": {
                "type": "Point",
                "coordinates": [
                    21.159669876099,
                    49.660579681396
                ]
            },
            "properties": {
                "isced:level": "3",
                "ref:rspo": 29320,
                "official_name": "I Liceum Og\u00f3lnokszta\u0142c\u0105ce im. Marcina Kromera w Gorlicach",
                "name": "I Liceum Og\u00f3lnokszta\u0142c\u0105ce",
                "addr:country": "PL",
                "addr:postcode": "38-300",
                "addr:city": "Gorlice",
                "addr:street": "Marcina Kromera",
                "addr:housenumber": "1",
                "addr:teryt:simc": 959903,
                "addr:teryt:sym_ul": 9952,
                "contact:phone": "+48 183535185",
                "contact:email": "sekretariat@kromer-gorlice.edu.pl",
                "contact:website": "http:\/\/www.kromer.edu.pl",
                "ref:regon": "001077097",
                "ref:vatin": "PL7381010127",
                "operator": "Powiat Gorlicki",
                "operator:type": "government",
                "amenity": "school"
            }
        },
        {
            "id": 43575,
            "type": "Feature",
            "geometry": {
                "type": "Point",
                "coordinates": [
                    21.159669876099,
                    49.660549681396
                ]
            },
            "properties": {
                "ref:rspo": 43575,
                "official_name": "Niepubliczna Plac\u00f3wka Kszta\u0142cenia Ustawicznego-O\u015brodek Szkoleniowy \"Stj\" w Gorlicach",
                "name": "Niepubliczna Plac\u00f3wka Kszta\u0142cenia Ustawicznego-O\u015brodek Szkoleniowy \"Stj\" w Gorlicach",
                "addr:country": "PL",
                "addr:postcode": "38-300",
                "addr:city": "Gorlice",
                "addr:street": "Marcina Kromera",
                "addr:housenumber": "2",
                "addr:door": "14",
                "addr:teryt:simc": 959903,
                "addr:teryt:sym_ul": 9952,
                "contact:phone": "+48 517371217",
                "contact:email": "stj@autograf.pl",
                "contact:website": "http:\/\/bhp-stj.com.pl",
                "ref:regon": "122689270",
                "operator": "Stanis\u0142aw Jele\u0144",
                "operator:type": "private",
                "fixme": "w zale\u017cno\u015bci od przedmiotu dzia\u0142alno\u015bci (np. amenity=training + training=*, amenity=dancing_school, amenity=language_school, amenity=music_school)"
            }
        },
        {
            "id": 17761,
            "type": "Feature",
            "geometry": {
                "type": "Point",
                "coordinates": [
                    21.15557,
                    49.66069
                ]
            },
            "properties": {
                "ref:rspo": 17761,
                "official_name": "Miejskie Przedszkole Nr 1",
                "name": "Miejskie Przedszkole Nr 1",
                "addr:country": "PL",
                "addr:postcode": "38-300",
                "addr:city": "Gorlice",
                "addr:street": "W\u0142adys\u0142awa Jagie\u0142\u0142y",
                "addr:housenumber": "9",
                "addr:teryt:simc": 959903,
                "addr:teryt:sym_ul": 24494,
                "contact:phone": "+48 183536523",
                "contact:email": "przedszkole1gorlice@o2.pl",
                "contact:website": "http:\/\/www.przedszkole1.gorlice.pl",
                "ref:regon": "121406814",
                "ref:vatin": "PL7382130885",
                "operator": "Miasto Gorlice",
                "operator:type": "government",
                "amenity": "kindergarten"
            }
        },
        {
            "id": 127766,
            "type": "Feature",
            "geometry": {
                "type": "Point",
                "coordinates": [
                    21.15792,
                    49.66102
                ]
            },
            "properties": {
                "ref:rspo": 127766,
                "official_name": "O\u015brodek Kszta\u0142cenia I Rozwoju dla Doros\u0142ych",
                "name": "O\u015brodek Kszta\u0142cenia I Rozwoju dla Doros\u0142ych",
                "addr:country": "PL",
                "addr:postcode": "38-300",
                "addr:city": "Gorlice",
                "addr:street": "Ignacego \u0141ukasiewicza",
                "addr:housenumber": "8",
                "addr:teryt:simc": 959903,
                "addr:teryt:sym_ul": 11749,
                "contact:phone": "+48 183521011",
                "contact:email": "ces@ces.info.pl",
                "contact:website": "http:\/\/ces.info.pl",
                "ref:regon": "361830101",
                "operator": "Centrum Edukacyjno-Szkoleniowe Sp\u00f3\u0142ka Z Ograniczon\u0105 Odpowiedzialno\u015bci\u0105",
                "operator:type": "private",
                "fixme": "w zale\u017cno\u015bci od przedmiotu dzia\u0142alno\u015bci (np. amenity=training + training=*, amenity=dancing_school, amenity=language_school, amenity=music_school)"
            }
        },
        {
            "id": 127788,
            "type": "Feature",
            "geometry": {
                "type": "Point",
                "coordinates": [
                    21.15792,
                    49.66099
                ]
            },
            "properties": {
                "ref:rspo": 127788,
                "official_name": "Centrum Edukacyjne Optoland Polska",
                "name": "Centrum Edukacyjne Optoland Polska",
                "addr:country": "PL",
                "addr:postcode": "38-300",
                "addr:city": "Gorlice",
                "addr:street": "Ignacego \u0141ukasiewicza",
                "addr:housenumber": "8",
                "addr:teryt:simc": 959903,
                "addr:teryt:sym_ul": 11749,
                "contact:phone": "+48 183533710",
                "contact:email": "optolandpolska@optolandpolska.pl",
                "contact:website": "http:\/\/optolandpolska.pl",
                "ref:regon": "361842914",
                "operator": "Przedsi\u0119biorstwo Telekomunikacyjne Optoland Polska Sp\u00f3\u0142ka Akcyjna",
                "operator:type": "private",
                "fixme": "w zale\u017cno\u015bci od przedmiotu dzia\u0142alno\u015bci (np. amenity=training + training=*, amenity=dancing_school, amenity=language_school, amenity=music_school)"
            }
        },
        {
            "id": 18621,
            "type": "Feature",
            "geometry": {
                "type": "Point",
                "coordinates": [
                    21.16443,
                    49.66236
                ]
            },
            "properties": {
                "ref:rspo": 18621,
                "official_name": "Miejskie Przedszkole Nr 3",
                "name": "Miejskie Przedszkole Nr 3",
                "addr:country": "PL",
                "addr:postcode": "38-300",
                "addr:city": "Gorlice",
                "addr:street": "Wac\u0142awa Potockiego",
                "addr:housenumber": "7",
                "addr:teryt:simc": 959903,
                "addr:teryt:sym_ul": 17286,
                "contact:phone": "+48 183537523",
                "contact:email": "przedszkole3gorlice@neostrada.pl",
                "contact:website": "http:\/\/www.przedszkole3.gorlice.pl",
                "ref:regon": "121406790",
                "ref:vatin": "PL7382130879",
                "operator": "Miasto Gorlice",
                "operator:type": "government",
                "amenity": "kindergarten",
                "note": "Parent RSPO: 25353"
            }
        },
        {
            "id": 15532,
            "type": "Feature",
            "geometry": {
                "type": "Point",
                "coordinates": [
                    21.16898,
                    49.66255
                ]
            },
            "properties": {
                "isced:level": "1;2",
                "ref:rspo": 15532,
                "official_name": "Niepubliczna Szko\u0142a Podstawowa Specjalna w Domu Rehabilitacyjno-Opieku\u0144czym Caritas w Gorlicach",
                "name": "Niepubliczna Szko\u0142a Podstawowa Specjalna w Domu Rehabilitacyjno-Opieku\u0144czym Caritas w Gorlicach",
                "addr:country": "PL",
                "addr:postcode": "38-300",
                "addr:city": "Gorlice",
                "addr:street": "Marii Konopnickiej",
                "addr:housenumber": "21",
                "addr:teryt:simc": 959903,
                "addr:teryt:sym_ul": 9186,
                "contact:phone": "+48 183535160",
                "contact:email": "imarondel@poczta.onet.pl",
                "contact:website": "http:\/\/drocaritas.pl",
                "ref:regon": "122661980",
                "operator": "Caritas Diecezji Rzeszowskiej",
                "operator:type": "ngo",
                "amenity": "school"
            }
        },
        {
            "id": 54397,
            "type": "Feature",
            "geometry": {
                "type": "Point",
                "coordinates": [
                    21.16898,
                    49.66252
                ]
            },
            "properties": {
                "ref:rspo": 54397,
                "official_name": "Niepubliczne Przedszkole Specjalne w Dro Caritas w Gorlicach",
                "name": "Niepubliczne Przedszkole Specjalne w Dro Caritas w Gorlicach",
                "addr:country": "PL",
                "addr:postcode": "38-300",
                "addr:city": "Gorlice",
                "addr:street": "Marii Konopnickiej",
                "addr:housenumber": "21",
                "addr:teryt:simc": 959903,
                "addr:teryt:sym_ul": 9186,
                "contact:phone": "+48 183535160",
                "contact:email": "imarondel@poczta.onet.pl",
                "ref:regon": "122695803",
                "ref:vatin": "PL7381021912",
                "operator": "Caritas Diecezji Rzeszowskiej",
                "operator:type": "ngo",
                "amenity": "kindergarten"
            }
        },
        {
            "id": 272677,
            "type": "Feature",
            "geometry": {
                "type": "Point",
                "coordinates": [
                    21.16898,
                    49.662490000000005
                ]
            },
            "properties": {
                "ref:rspo": 272677,
                "official_name": "Niepubliczna Szko\u0142a Specjalna Przysposabiaj\u0105ca Do Pracy w Domu Rehabilitacyjno-Opieku\u0144czym Caritas w Gorlicach",
                "name": "Niepubliczna Szko\u0142a Specjalna Przysposabiaj\u0105ca Do Pracy w Domu Rehabilitacyjno-Opieku\u0144czym Caritas w Gorlicach",
                "addr:country": "PL",
                "addr:postcode": "38-300",
                "addr:city": "Gorlice",
                "addr:street": "Marii Konopnickiej",
                "addr:housenumber": "21",
                "addr:teryt:simc": 959903,
                "addr:teryt:sym_ul": 9186,
                "contact:phone": "+48 183535160",
                "contact:email": "imarondel@poczta.onet.pl",
                "contact:website": "http:\/\/www.drocaritas.pl",
                "ref:regon": "384274375",
                "operator": "Caritas Diecezji Rzeszowskiej",
                "operator:type": "ngo",
                "amenity": "school"
            }
        },
        {
            "id": 276506,
            "type": "Feature",
            "geometry": {
                "type": "Point",
                "coordinates": [
                    21.14769,
                    49.66276
                ]
            },
            "properties": {
                "ref:rspo": 276506,
                "official_name": "Przedszkole Niepubliczne \"Dom Bajki\"",
                "name": "Przedszkole Niepubliczne \"Dom Bajki\"",
                "addr:country": "PL",
                "addr:postcode": "38-300",
                "addr:city": "Gorlice",
                "addr:street": "Str\u00f3\u017cowska",
                "addr:housenumber": "64",
                "addr:teryt:simc": 959903,
                "addr:teryt:sym_ul": 21303,
                "contact:phone": "+48 795758777",
                "contact:email": "zarzad.orbe@gmail.com",
                "contact:website": "http:\/\/www.dombajki.pl",
                "ref:regon": "387163535",
                "operator": "Orbe Sp\u00f3\u0142ka Z Ograniczon\u0105 Odpowiedzialno\u015bci\u0105",
                "operator:type": "private",
                "amenity": "kindergarten"
            }
        },
        {
            "id": 278854,
            "type": "Feature",
            "geometry": {
                "type": "Point",
                "coordinates": [
                    21.15715,
                    49.66318
                ]
            },
            "properties": {
                "ref:rspo": 278854,
                "official_name": "Niepubliczne Przedszkole \"Akademia Ma\u0142ego Mistrza\" w Gorlicach",
                "name": "Niepubliczne Przedszkole \"Akademia Ma\u0142ego Mistrza\" w Gorlicach",
                "addr:country": "PL",
                "addr:postcode": "38-300",
                "addr:city": "Gorlice",
                "addr:street": "Genera\u0142a J\u00f3zefa Hallera",
                "addr:housenumber": "81",
                "addr:teryt:simc": 959903,
                "addr:teryt:sym_ul": 6485,
                "contact:email": "akademiamistrza12345@gmail.com",
                "ref:regon": "520110654",
                "operator": "Edyta Maniak",
                "operator:type": "private",
                "amenity": "kindergarten"
            }
        },
        {
            "id": 120700,
            "type": "Feature",
            "geometry": {
                "type": "Point",
                "coordinates": [
                    21.16471,
                    49.66375
                ]
            },
            "properties": {
                "ref:rspo": 120700,
                "official_name": "Niepubliczne Przedszkole \"Kleks\"",
                "name": "Niepubliczne Przedszkole \"Kleks\"",
                "addr:country": "PL",
                "addr:postcode": "38-300",
                "addr:city": "Gorlice",
                "addr:street": "Biecka",
                "addr:housenumber": "9",
                "addr:teryt:simc": 959903,
                "addr:teryt:sym_ul": 1216,
                "contact:phone": "+48 503163169",
                "contact:email": "mokarma@onet.eu",
                "ref:regon": "122972869",
                "ref:vatin": "PL7381382604",
                "operator": "Ma\u0142gorzata Turko-Okarma",
                "operator:type": "private",
                "amenity": "kindergarten"
            }
        },
        {
            "id": 26195,
            "type": "Feature",
            "geometry": {
                "type": "Point",
                "coordinates": [
                    21.15781,
                    49.6640299
                ]
            },
            "properties": {
                "ref:rspo": 26195,
                "official_name": "Miejski Zesp\u00f3\u0142 Szk\u00f3\u0142 Nr 6 w Gorlicach im.bohater\u00f3w Ziemi Gorlickiej",
                "name": "Miejski Zesp\u00f3\u0142 Szk\u00f3\u0142 Nr 6 w Gorlicach im.bohater\u00f3w Ziemi Gorlickiej",
                "addr:country": "PL",
                "addr:postcode": "38-300",
                "addr:city": "Gorlice",
                "addr:street": "Genera\u0142a J\u00f3zefa Hallera",
                "addr:housenumber": "79",
                "addr:teryt:simc": 959903,
                "addr:teryt:sym_ul": 6485,
                "contact:phone": "+48 183536745",
                "contact:email": "mzs6gorlice@interia.pl",
                "contact:website": "http:\/\/www.mzs6gorlice.pl",
                "ref:regon": "490532510",
                "ref:vatin": "PL7381013344",
                "operator": "Miasto Gorlice",
                "operator:type": "government",
                "landuse": "education",
                "fixme": "amenity=school, amenity=college albo landuse=education w zale\u017cno\u015bci od tego, jakie plac\u00f3wki wchodz\u0105 w sk\u0142ad zespo\u0142u. Sprawd\u017a, kiedy stosowa\u0107 amenity=* a kiedy landuse=education.",
                "note": "Children RSPO: 32070;38782"
            }
        },
        {
            "id": 32070,
            "type": "Feature",
            "geometry": {
                "type": "Point",
                "coordinates": [
                    21.15781,
                    49.6639999
                ]
            },
            "properties": {
                "isced:level": "1;2",
                "ref:rspo": 32070,
                "official_name": "Szko\u0142a Podstawowa Nr 6 w Gorlicach",
                "name": "Szko\u0142a Podstawowa Nr 6 w Gorlicach",
                "addr:country": "PL",
                "addr:postcode": "38-300",
                "addr:city": "Gorlice",
                "addr:street": "Genera\u0142a J\u00f3zefa Hallera",
                "addr:housenumber": "79",
                "addr:teryt:simc": 959903,
                "addr:teryt:sym_ul": 6485,
                "contact:phone": "+48 183536745",
                "contact:email": "mzs6gorlice@interia.pl",
                "contact:website": "http:\/\/www.mzs6gorlice.pl",
                "ref:regon": "492907598",
                "operator": "Miasto Gorlice",
                "operator:type": "government",
                "amenity": "school",
                "note": "Parent RSPO: 26195"
            }
        },
        {
            "id": 38782,
            "type": "Feature",
            "geometry": {
                "type": "Point",
                "coordinates": [
                    21.1578551,
                    49.665277
                ]
            },
            "properties": {
                "ref:rspo": 38782,
                "official_name": "Miejskie Przedszkole Nr 8 w Gorlicach",
                "name": "Miejskie Przedszkole Nr 8 w Gorlicach",
                "addr:country": "PL",
                "addr:postcode": "38-300",
                "addr:city": "Gorlice",
                "addr:street": "Genera\u0142a J\u00f3zefa Hallera",
                "addr:housenumber": "17",
                "addr:teryt:simc": 959903,
                "addr:teryt:sym_ul": 6485,
                "contact:phone": "+48 183537604",
                "contact:email": "mzs6gorlice@interia.pl",
                "contact:website": "http:\/\/www.mzs6gorlice.pl",
                "ref:regon": "492023468",
                "operator": "Miasto Gorlice",
                "operator:type": "government",
                "amenity": "kindergarten",
                "note": "Parent RSPO: 26195"
            }
        },
        {
            "id": 34357,
            "type": "Feature",
            "geometry": {
                "type": "Point",
                "coordinates": [
                    21.16146,
                    49.66742
                ]
            },
            "properties": {
                "ref:rspo": 34357,
                "official_name": "Centrum Kszta\u0142cenia Zawodowego w Gorlicach",
                "name": "Centrum Kszta\u0142cenia Zawodowego w Gorlicach",
                "addr:country": "PL",
                "addr:postcode": "38-300",
                "addr:city": "Gorlice",
                "addr:street": "11 Listopada",
                "addr:housenumber": "43",
                "addr:teryt:simc": 959903,
                "addr:teryt:sym_ul": 11205,
                "contact:phone": "+48 183535610",
                "contact:email": "ckz@ckz.gorlice.pl",
                "contact:website": "http:\/\/ckz.gorlice.pl",
                "ref:regon": "120807238",
                "ref:vatin": "PL7382089993",
                "operator": "Powiat Gorlicki",
                "operator:type": "government",
                "fixme": "w zale\u017cno\u015bci od przedmiotu dzia\u0142alno\u015bci (np. amenity=training + training=*, amenity=dancing_school, amenity=language_school, amenity=music_school) albo amenity=school, amenity=college, albo landuse=education w zale\u017cno\u015bci od tego, jakie plac\u00f3wki wchodz\u0105 w sk\u0142ad zespo\u0142u. Sprawd\u017a, kiedy stosowa\u0107 amenity=* a kiedy landuse=education."
            }
        },
        {
            "id": 7589,
            "type": "Feature",
            "geometry": {
                "type": "Point",
                "coordinates": [
                    21.17368,
                    49.66943
                ]
            },
            "properties": {
                "ref:rspo": 7589,
                "official_name": "Zesp\u00f3\u0142 Szk\u00f3\u0142 Technicznych im. Wincentego Pola w Gorlicach",
                "name": "Zesp\u00f3\u0142 Szk\u00f3\u0142 Technicznych",
                "addr:country": "PL",
                "addr:postcode": "38-300",
                "addr:city": "Gorlice",
                "addr:street": "J\u00f3zefa Michalusa",
                "addr:housenumber": "6",
                "addr:teryt:simc": 959903,
                "addr:teryt:sym_ul": 12694,
                "contact:phone": "+48 183536114",
                "contact:email": "sekretariat@zst.gorlice.pl",
                "contact:website": "http:\/\/zst.gorlice.pl",
                "ref:regon": "000834969",
                "ref:vatin": "PL7381010601",
                "operator": "Powiat Gorlicki",
                "operator:type": "government",
                "landuse": "education",
                "fixme": "amenity=school, amenity=college albo landuse=education w zale\u017cno\u015bci od tego, jakie plac\u00f3wki wchodz\u0105 w sk\u0142ad zespo\u0142u. Sprawd\u017a, kiedy stosowa\u0107 amenity=* a kiedy landuse=education.",
                "note": "Children RSPO: 11189;42288;42838;43577"
            }
        },
        {
            "id": 43576,
            "type": "Feature",
            "geometry": {
                "type": "Point",
                "coordinates": [
                    21.17368,
                    49.669399999999996
                ]
            },
            "properties": {
                "isced:level": "3",
                "ref:rspo": 43576,
                "official_name": "Bran\u017cowa Szko\u0142a I Stopnia Cechu Rzemios\u0142 I Przedsi\u0119biorczo\u015bci im. Jana Kili\u0144skiego w Gorlicach",
                "name": "Bran\u017cowa Szko\u0142a I Stopnia Cechu Rzemios\u0142 I Przedsi\u0119biorczo\u015bci",
                "addr:country": "PL",
                "addr:postcode": "38-300",
                "addr:city": "Gorlice",
                "addr:street": "J\u00f3zefa Michalusa",
                "addr:housenumber": "6",
                "addr:teryt:simc": 959903,
                "addr:teryt:sym_ul": 12694,
                "contact:phone": "+48 183536114",
                "contact:email": "kontakt@szkolacechowa.gorlice.pl",
                "contact:website": "http:\/\/szkolacechowa.gorlice.pl",
                "ref:regon": "122689234",
                "operator": "Cech Rzemios\u0142 I Przedsi\u0119biorczo\u015bci W Gorlicach",
                "operator:type": "cooperative",
                "amenity": "school"
            }
        },
        {
            "id": 11189,
            "type": "Feature",
            "geometry": {
                "type": "Point",
                "coordinates": [
                    21.17368,
                    49.66937
                ]
            },
            "properties": {
                "isced:level": "3",
                "ref:rspo": 11189,
                "official_name": "Iii Liceum Og\u00f3lnokszta\u0142c\u0105ce dla Doros\u0142ych w Gorlicach",
                "name": "Iii Liceum Og\u00f3lnokszta\u0142c\u0105ce dla Doros\u0142ych w Gorlicach",
                "addr:country": "PL",
                "addr:postcode": "38-300",
                "addr:city": "Gorlice",
                "addr:street": "J\u00f3zefa Michalusa",
                "addr:housenumber": "6",
                "addr:teryt:simc": 959903,
                "addr:teryt:sym_ul": 12694,
                "contact:phone": "+48 183536114",
                "contact:email": "sekretariat@zst.gorlice.pl",
                "contact:website": "http:\/\/zst.gorlice.pl",
                "ref:regon": "852745683",
                "operator": "Powiat Gorlicki",
                "operator:type": "government",
                "amenity": "school",
                "note": "Parent RSPO: 7589"
            }
        },
        {
            "id": 42288,
            "type": "Feature",
            "geometry": {
                "type": "Point",
                "coordinates": [
                    21.17368,
                    49.66934
                ]
            },
            "properties": {
                "isced:level": "3",
                "ref:rspo": 42288,
                "official_name": "Bran\u017cowa Szko\u0142a I Stopnia Nr 2 w Gorlicach",
                "name": "Bran\u017cowa Szko\u0142a I Stopnia Nr 2 w Gorlicach",
                "addr:country": "PL",
                "addr:postcode": "38-300",
                "addr:city": "Gorlice",
                "addr:street": "J\u00f3zefa Michalusa",
                "addr:housenumber": "6",
                "addr:teryt:simc": 959903,
                "addr:teryt:sym_ul": 12694,
                "contact:phone": "+48 183536114",
                "contact:email": "sekretariat@zst.gorlice.pl",
                "contact:website": "http:\/\/zst.gorlice.pl",
                "ref:regon": "492830677",
                "operator": "Powiat Gorlicki",
                "operator:type": "government",
                "amenity": "school",
                "note": "Parent RSPO: 7589"
            }
        },
        {
            "id": 42838,
            "type": "Feature",
            "geometry": {
                "type": "Point",
                "coordinates": [
                    21.17368,
                    49.669309999999996
                ]
            },
            "properties": {
                "isced:level": "4",
                "ref:rspo": 42838,
                "official_name": "Szko\u0142a Policealna Nr 3 w Gorlicach",
                "name": "Szko\u0142a Policealna Nr 3 w Gorlicach",
                "addr:country": "PL",
                "addr:postcode": "38-300",
                "addr:city": "Gorlice",
                "addr:street": "J\u00f3zefa Michalusa",
                "addr:housenumber": "6",
                "addr:teryt:simc": 959903,
                "addr:teryt:sym_ul": 12694,
                "contact:phone": "+48 183536114",
                "contact:email": "sekretariat@zst.gorlice.pl",
                "contact:website": "http:\/\/zst.gorlice.pl",
                "ref:regon": "492832156",
                "operator": "Powiat Gorlicki",
                "operator:type": "government",
                "amenity": "college",
                "note": "Parent RSPO: 7589"
            }
        },
        {
            "id": 43577,
            "type": "Feature",
            "geometry": {
                "type": "Point",
                "coordinates": [
                    21.17368,
                    49.66928
                ]
            },
            "properties": {
                "isced:level": "3",
                "ref:rspo": 43577,
                "official_name": "Technikum Nr 4 w Gorlicach",
                "name": "Technikum Nr 4 w Gorlicach",
                "addr:country": "PL",
                "addr:postcode": "38-300",
                "addr:city": "Gorlice",
                "addr:street": "J\u00f3zefa Michalusa",
                "addr:housenumber": "6",
                "addr:teryt:simc": 959903,
                "addr:teryt:sym_ul": 12694,
                "contact:phone": "+48 183536114",
                "contact:email": "sekretariat@zst.gorlice.pl",
                "contact:website": "http:\/\/zst.gorlice.pl",
                "ref:regon": "492830594",
                "operator": "Powiat Gorlicki",
                "operator:type": "government",
                "amenity": "school",
                "note": "Parent RSPO: 7589"
            }
        },
        {
            "id": 48091,
            "type": "Feature",
            "geometry": {
                "type": "Point",
                "coordinates": [
                    21.1741,
                    49.6701
                ]
            },
            "properties": {
                "ref:rspo": 48091,
                "official_name": "O\u015brodek Kszta\u0142cenia Ustawicznego w Gorlicach",
                "name": "O\u015brodek Kszta\u0142cenia Ustawicznego w Gorlicach",
                "addr:country": "PL",
                "addr:postcode": "38-320",
                "addr:city": "Gorlice",
                "addr:street": "J\u00f3zefa Michalusa",
                "addr:housenumber": "4",
                "addr:teryt:simc": 959903,
                "addr:teryt:sym_ul": 12694,
                "contact:phone": "+48 183530128",
                "contact:email": "cszgor@poczta.onet.pl",
                "contact:website": "http:\/\/gorlice.szkoleniazawodowe.com.pl",
                "ref:regon": "122689949",
                "operator": "Stowarzyszenie Centrum Szkolenia Zawodowego W Gorlicah",
                "operator:type": "ngo",
                "fixme": "w zale\u017cno\u015bci od przedmiotu dzia\u0142alno\u015bci (np. amenity=training + training=*, amenity=dancing_school, amenity=language_school, amenity=music_school)"
            }
        },
        {
            "id": 14882,
            "type": "Feature",
            "geometry": {
                "type": "Point",
                "coordinates": [
                    21.17445,
                    49.67208
                ]
            },
            "properties": {
                "ref:rspo": 14882,
                "official_name": "Niepubliczny O\u015brodek Doskonalenia Nauczycieli Wena",
                "name": "Niepubliczny O\u015brodek Doskonalenia Nauczycieli Wena",
                "addr:country": "PL",
                "addr:postcode": "38-320",
                "addr:city": "Gorlice",
                "addr:street": "J\u00f3zefa Michalusa",
                "addr:housenumber": "1",
                "addr:door": "4",
                "addr:teryt:simc": 959903,
                "addr:teryt:sym_ul": 12694,
                "contact:phone": "+48 183530128",
                "contact:email": "nodn.wena@onet.pl",
                "ref:regon": "122664547",
                "operator": "Stowarzyszenie Centrum Szkolenia Zawodowego W Gorlicah",
                "operator:type": "ngo",
                "amenity": "training"
            }
        },
        {
            "id": 20296,
            "type": "Feature",
            "geometry": {
                "type": "Point",
                "coordinates": [
                    21.16734,
                    49.67502
                ]
            },
            "properties": {
                "ref:rspo": 20296,
                "official_name": "Miejski Zesp\u00f3\u0142 Szk\u00f3\u0142 Nr 3 w Gorlicach im.\u015bw.jana Kantego",
                "name": "Miejski Zesp\u00f3\u0142 Szk\u00f3\u0142 Nr 3 w Gorlicach im.\u015bw.jana Kantego",
                "addr:country": "PL",
                "addr:postcode": "38-300",
                "addr:city": "Gorlice",
                "addr:street": "Kardyna\u0142a Stefana Wyszy\u0144skiego",
                "addr:housenumber": "16",
                "addr:teryt:simc": 959903,
                "addr:teryt:sym_ul": 25107,
                "contact:phone": "+48 183538491",
                "contact:email": "mzs3gorlice@gmail.com",
                "contact:website": "http:\/\/www.mzs3.gorlice.pl",
                "ref:regon": "492826724",
                "ref:vatin": "PL7381918401",
                "operator": "Miasto Gorlice",
                "operator:type": "government",
                "landuse": "education",
                "fixme": "amenity=school, amenity=college albo landuse=education w zale\u017cno\u015bci od tego, jakie plac\u00f3wki wchodz\u0105 w sk\u0142ad zespo\u0142u. Sprawd\u017a, kiedy stosowa\u0107 amenity=* a kiedy landuse=education.",
                "note": "Children RSPO: 31964;123267"
            }
        },
        {
            "id": 35034,
            "type": "Feature",
            "geometry": {
                "type": "Point",
                "coordinates": [
                    21.16734,
                    49.67499
                ]
            },
            "properties": {
                "ref:rspo": 35034,
                "official_name": "Szkolne Schronisko M\u0142odzie\u017cowe w Gorlicach",
                "name": "Szkolne Schronisko M\u0142odzie\u017cowe w Gorlicach",
                "addr:country": "PL",
                "addr:postcode": "38-300",
                "addr:city": "Gorlice",
                "addr:street": "Kardyna\u0142a Stefana Wyszy\u0144skiego",
                "addr:housenumber": "16A",
                "addr:teryt:simc": 959903,
                "addr:teryt:sym_ul": 25107,
                "contact:phone": "+48 183535746",
                "contact:email": "zs_1@lukasiewicz.gorlice.pl",
                "ref:regon": "492831270",
                "operator": "Powiat Gorlicki",
                "operator:type": "government",
                "tourism": "hostel",
                "note": "Parent RSPO: 15871"
            }
        },
        {
            "id": 31964,
            "type": "Feature",
            "geometry": {
                "type": "Point",
                "coordinates": [
                    21.16734,
                    49.674960000000006
                ]
            },
            "properties": {
                "isced:level": "1;2",
                "ref:rspo": 31964,
                "official_name": "Szko\u0142a Podstawowa Nr 3 w Gorlicach",
                "name": "Szko\u0142a Podstawowa Nr 3 w Gorlicach",
                "addr:country": "PL",
                "addr:postcode": "38-300",
                "addr:city": "Gorlice",
                "addr:street": "Kardyna\u0142a Stefana Wyszy\u0144skiego",
                "addr:housenumber": "16",
                "addr:teryt:simc": 959903,
                "addr:teryt:sym_ul": 25107,
                "contact:phone": "+48 183538491",
                "contact:email": "mzs3gorlice@gmail.com",
                "contact:website": "http:\/\/www.mzs3.gorlice.pl",
                "ref:regon": "490532504",
                "operator": "Miasto Gorlice",
                "operator:type": "government",
                "amenity": "school",
                "note": "Parent RSPO: 20296"
            }
        },
        {
            "id": 123267,
            "type": "Feature",
            "geometry": {
                "type": "Point",
                "coordinates": [
                    21.16734,
                    49.67493
                ]
            },
            "properties": {
                "ref:rspo": 123267,
                "official_name": "Miejskie Przedszkole Nr 2 w Gorlicach",
                "name": "Miejskie Przedszkole Nr 2 w Gorlicach",
                "addr:country": "PL",
                "addr:postcode": "38-300",
                "addr:city": "Gorlice",
                "addr:street": "Kardyna\u0142a Stefana Wyszy\u0144skiego",
                "addr:housenumber": "16",
                "addr:teryt:simc": 959903,
                "addr:teryt:sym_ul": 25107,
                "contact:phone": "+48 183538491",
                "contact:email": "mzs3gorlice@gmail.com",
                "contact:website": "http:\/\/www.mzs3.gorlice.pl",
                "ref:regon": "123139560",
                "operator": "Miasto Gorlice",
                "operator:type": "government",
                "amenity": "kindergarten",
                "note": "Parent RSPO: 20296"
            }
        },
        {
            "id": 15871,
            "type": "Feature",
            "geometry": {
                "type": "Point",
                "coordinates": [
                    21.16813,
                    49.67581
                ]
            },
            "properties": {
                "ref:rspo": 15871,
                "official_name": "Zesp\u00f3\u0142 Szk\u00f3\u0142 Nr 1 im. Ignacego \u0141ukasiewicza w Gorlicach",
                "name": "Zesp\u00f3\u0142 Szk\u00f3\u0142 Nr 1",
                "addr:country": "PL",
                "addr:postcode": "38-300",
                "addr:city": "Gorlice",
                "addr:street": "Kardyna\u0142a Stefana Wyszy\u0144skiego",
                "addr:housenumber": "18",
                "addr:teryt:simc": 959903,
                "addr:teryt:sym_ul": 25107,
                "contact:phone": "+48 183536040",
                "contact:email": "zs_1@lukasiewicz.gorlice.pl",
                "contact:website": "http:\/\/lukasiewicz.gorlice.pl",
                "ref:regon": "000180002",
                "ref:vatin": "PL7381010570",
                "operator": "Powiat Gorlicki",
                "operator:type": "government",
                "landuse": "education",
                "fixme": "amenity=school, amenity=college albo landuse=education w zale\u017cno\u015bci od tego, jakie plac\u00f3wki wchodz\u0105 w sk\u0142ad zespo\u0142u. Sprawd\u017a, kiedy stosowa\u0107 amenity=* a kiedy landuse=education.",
                "note": "Children RSPO: 34359;34360;34859;35034"
            }
        },
        {
            "id": 34359,
            "type": "Feature",
            "geometry": {
                "type": "Point",
                "coordinates": [
                    21.16813,
                    49.675779999999996
                ]
            },
            "properties": {
                "isced:level": "3",
                "ref:rspo": 34359,
                "official_name": "Ii Liceum Og\u00f3lnokszta\u0142c\u0105ce w Gorlicach",
                "name": "Ii Liceum Og\u00f3lnokszta\u0142c\u0105ce w Gorlicach",
                "addr:country": "PL",
                "addr:postcode": "38-300",
                "addr:city": "Gorlice",
                "addr:street": "Kardyna\u0142a Stefana Wyszy\u0144skiego",
                "addr:housenumber": "18",
                "addr:teryt:simc": 959903,
                "addr:teryt:sym_ul": 25107,
                "contact:phone": "+48 183536040",
                "contact:email": "zs_1@lukasiewicz.gorlice.pl",
                "contact:website": "http:\/\/lukasiewicz.gorlice.pl",
                "ref:regon": "492831174",
                "operator": "Powiat Gorlicki",
                "operator:type": "government",
                "amenity": "school",
                "note": "Parent RSPO: 15871"
            }
        },
        {
            "id": 34360,
            "type": "Feature",
            "geometry": {
                "type": "Point",
                "coordinates": [
                    21.16813,
                    49.67575
                ]
            },
            "properties": {
                "isced:level": "4",
                "ref:rspo": 34360,
                "official_name": "Szko\u0142a Policealna Nr 1 w Gorlicach",
                "name": "Szko\u0142a Policealna Nr 1 w Gorlicach",
                "addr:country": "PL",
                "addr:postcode": "38-300",
                "addr:city": "Gorlice",
                "addr:street": "Kardyna\u0142a Stefana Wyszy\u0144skiego",
                "addr:housenumber": "18",
                "addr:teryt:simc": 959903,
                "addr:teryt:sym_ul": 25107,
                "contact:phone": "+48 183536040",
                "contact:email": "zs_1@lukasiewicz.gorlice.pl",
                "contact:website": "http:\/\/lukasiewicz.gorlice.pl",
                "ref:regon": "492831240",
                "operator": "Powiat Gorlicki",
                "operator:type": "government",
                "amenity": "college",
                "note": "Parent RSPO: 15871"
            }
        },
        {
            "id": 34859,
            "type": "Feature",
            "geometry": {
                "type": "Point",
                "coordinates": [
                    21.16813,
                    49.67572
                ]
            },
            "properties": {
                "isced:level": "3",
                "ref:rspo": 34859,
                "official_name": "Technikum Nr 1 w Gorlicach",
                "name": "Technikum Nr 1 w Gorlicach",
                "addr:country": "PL",
                "addr:postcode": "38-300",
                "addr:city": "Gorlice",
                "addr:street": "Kardyna\u0142a Stefana Wyszy\u0144skiego",
                "addr:housenumber": "18",
                "addr:teryt:simc": 959903,
                "addr:teryt:sym_ul": 25107,
                "contact:phone": "+48 183546040",
                "contact:email": "zs_1@lukasiewicz.gorlice.pl",
                "contact:website": "http:\/\/lukasiewicz.gorlice.pl",
                "ref:regon": "492831145",
                "operator": "Powiat Gorlicki",
                "operator:type": "government",
                "amenity": "school",
                "note": "Parent RSPO: 15871"
            }
        }
    ]
}