{
    "type": "FeatureCollection",
    "features": [
        {
            "id": 21986,
            "type": "Feature",
            "geometry": {
                "type": "Point",
                "coordinates": [
                    18.02962,
                    50.98373
                ]
            },
            "properties": {
                "isced:level": "1;2",
                "ref:rspo": 21986,
                "official_name": "Szko\u0142a Podstawowa w W\u0105sicach",
                "name": "Szko\u0142a Podstawowa w W\u0105sicach",
                "addr:country": "PL",
                "addr:postcode": "46-250",
                "addr:city": "W\u0105sice",
                "addr:street": "G\u0142\u00f3wna",
                "addr:housenumber": "16",
                "addr:teryt:simc": 505303,
                "addr:teryt:sym_ul": 5635,
                "contact:phone": "+48 774188695",
                "contact:email": "sp_wasice@poczta.onet.pl",
                "ref:regon": "001196028",
                "ref:vatin": "PL7511568449",
                "operator": "Gmina Wo\u0142czyn",
                "operator:type": "government",
                "amenity": "school"
            }
        },
        {
            "id": 35014,
            "type": "Feature",
            "geometry": {
                "type": "Point",
                "coordinates": [
                    18.04437,
                    51.01734
                ]
            },
            "properties": {
                "ref:rspo": 35014,
                "official_name": "Przedszkole Publiczne w Wo\u0142czynie",
                "name": "Przedszkole Publiczne w Wo\u0142czynie",
                "addr:country": "PL",
                "addr:postcode": "46-250",
                "addr:city": "Wo\u0142czyn",
                "addr:street": "Henryka Sienkiewicza",
                "addr:housenumber": "4",
                "addr:teryt:simc": 965996,
                "addr:teryt:sym_ul": 19830,
                "contact:phone": "+48 774188404",
                "contact:email": "pp_wolczyn@post.pl",
                "ref:regon": "530582701",
                "ref:vatin": "PL7511568455",
                "operator": "Gmina Wo\u0142czyn",
                "operator:type": "government",
                "amenity": "kindergarten"
            }
        },
        {
            "id": 24503,
            "type": "Feature",
            "geometry": {
                "type": "Point",
                "coordinates": [
                    18.04532,
                    51.01865
                ]
            },
            "properties": {
                "ref:rspo": 24503,
                "official_name": "Zesp\u00f3\u0142 Szk\u00f3\u0142 w Wo\u0142czynie",
                "name": "Zesp\u00f3\u0142 Szk\u00f3\u0142 w Wo\u0142czynie",
                "addr:country": "PL",
                "addr:postcode": "46-250",
                "addr:city": "Wo\u0142czyn",
                "addr:street": "Rzeczna",
                "addr:housenumber": "6",
                "addr:teryt:simc": 965996,
                "addr:teryt:sym_ul": 19326,
                "contact:phone": "+48 774072180",
                "contact:email": "sekretariat@zs.wolczyn.pl",
                "contact:website": "http:\/\/zs.wolczyn.pl\/",
                "ref:regon": "160141073",
                "ref:vatin": "PL7511717441",
                "operator": "Gmina Wo\u0142czyn",
                "operator:type": "government",
                "landuse": "education",
                "fixme": "amenity=school, amenity=college albo landuse=education w zale\u017cno\u015bci od tego, jakie plac\u00f3wki wchodz\u0105 w sk\u0142ad zespo\u0142u. Sprawd\u017a, kiedy stosowa\u0107 amenity=* a kiedy landuse=education.",
                "note": "Children RSPO: 25797;263265"
            }
        },
        {
            "id": 25797,
            "type": "Feature",
            "geometry": {
                "type": "Point",
                "coordinates": [
                    18.04532,
                    51.01862
                ]
            },
            "properties": {
                "isced:level": "3",
                "ref:rspo": 25797,
                "official_name": "Zesp\u00f3\u0142 Szk\u00f3\u0142 w Wo\u0142czynie Liceum Og\u00f3lnokszta\u0142c\u0105ce w Wo\u0142czynie",
                "name": "Zesp\u00f3\u0142 Szk\u00f3\u0142 w Wo\u0142czynie Liceum Og\u00f3lnokszta\u0142c\u0105ce w Wo\u0142czynie",
                "addr:country": "PL",
                "addr:postcode": "46-250",
                "addr:city": "Wo\u0142czyn",
                "addr:street": "Rzeczna",
                "addr:housenumber": "6",
                "addr:teryt:simc": 965996,
                "addr:teryt:sym_ul": 19326,
                "contact:phone": "+48 774072180",
                "contact:email": "sekretariat@zs.wolczyn.pl",
                "ref:regon": "160088114",
                "ref:vatin": "PL7511706897",
                "operator": "Gmina Wo\u0142czyn",
                "operator:type": "government",
                "amenity": "school",
                "note": "Parent RSPO: 24503"
            }
        },
        {
            "id": 263265,
            "type": "Feature",
            "geometry": {
                "type": "Point",
                "coordinates": [
                    18.04532,
                    51.01859
                ]
            },
            "properties": {
                "isced:level": "1;2",
                "ref:rspo": 263265,
                "official_name": "Zesp\u00f3\u0142 Szk\u00f3\u0142 w Wo\u0142czynie Szko\u0142a Podstawowa im. Jana Paw\u0142a II w Wo\u0142czynie",
                "name": "Zesp\u00f3\u0142 Szk\u00f3\u0142 w Wo\u0142czynie Szko\u0142a Podstawowa",
                "addr:country": "PL",
                "addr:postcode": "46-250",
                "addr:city": "Wo\u0142czyn",
                "addr:street": "Rzeczna",
                "addr:housenumber": "6",
                "addr:teryt:simc": 965996,
                "addr:teryt:sym_ul": 19326,
                "contact:phone": "+48 774072180",
                "contact:email": "sekretariat@zs.wolczyn.pl",
                "contact:website": "http:\/\/zs.wolczyn.pl\/sp",
                "ref:regon": "368176544",
                "operator": "Gmina Wo\u0142czyn",
                "operator:type": "government",
                "amenity": "school",
                "note": "Parent RSPO: 24503"
            }
        },
        {
            "id": 22011,
            "type": "Feature",
            "geometry": {
                "type": "Point",
                "coordinates": [
                    17.98115,
                    51.03017
                ]
            },
            "properties": {
                "isced:level": "1;2",
                "ref:rspo": 22011,
                "official_name": "Szko\u0142a Podstawowa im. Or\u0142a Bia\u0142ego w Wierzbicy G\u00f3rnej",
                "name": "Szko\u0142a Podstawowa",
                "addr:country": "PL",
                "addr:postcode": "46-255",
                "addr:place": "Wierzbica G\u00f3rna",
                "addr:housenumber": "39A",
                "addr:teryt:simc": 505332,
                "contact:phone": "+48 774141390",
                "contact:email": "sp_wierzbicag@post.pl",
                "contact:website": "http:\/\/sp-wierzbicagorna.szkolna.net",
                "ref:regon": "001196011",
                "ref:vatin": "PL7511568337",
                "operator": "Gmina Wo\u0142czyn",
                "operator:type": "government",
                "amenity": "school"
            }
        },
        {
            "id": 12363,
            "type": "Feature",
            "geometry": {
                "type": "Point",
                "coordinates": [
                    18.11789,
                    51.05129
                ]
            },
            "properties": {
                "isced:level": "1;2",
                "ref:rspo": 12363,
                "official_name": "Szko\u0142a Podstawowa w Ska\u0142\u0105gach",
                "name": "Szko\u0142a Podstawowa w Ska\u0142\u0105gach",
                "addr:country": "PL",
                "addr:postcode": "46-262",
                "addr:city": "Ska\u0142\u0105gi",
                "addr:street": "Wo\u0142czy\u0144ska",
                "addr:housenumber": "23",
                "addr:teryt:simc": 505183,
                "addr:teryt:sym_ul": 24708,
                "contact:phone": "+48 774141221",
                "contact:email": "sp_skalagi@wp.pl",
                "ref:regon": "161480274",
                "ref:vatin": "PL7511772279",
                "operator": "Stowarzyszenie O\u015bwiatowe Kruk",
                "operator:type": "ngo",
                "amenity": "school"
            }
        },
        {
            "id": 12374,
            "type": "Feature",
            "geometry": {
                "type": "Point",
                "coordinates": [
                    18.11789,
                    51.05126
                ]
            },
            "properties": {
                "ref:rspo": 12374,
                "official_name": "Punkt Przedszkolny w Ska\u0142\u0105gach",
                "name": "Punkt Przedszkolny w Ska\u0142\u0105gach",
                "addr:country": "PL",
                "addr:postcode": "46-262",
                "addr:city": "Ska\u0142\u0105gi",
                "addr:street": "Wo\u0142czy\u0144ska",
                "addr:housenumber": "23",
                "addr:teryt:simc": 505183,
                "addr:teryt:sym_ul": 24708,
                "contact:phone": "+48 774141221",
                "contact:email": "sp_skalagi@wp.pl",
                "ref:regon": "161480328",
                "ref:vatin": "PL7511772285",
                "operator": "Stowarzyszenie O\u015bwiatowe Kruk",
                "operator:type": "ngo",
                "amenity": "kindergarten"
            }
        },
        {
            "id": 12353,
            "type": "Feature",
            "geometry": {
                "type": "Point",
                "coordinates": [
                    17.9796,
                    51.09323
                ]
            },
            "properties": {
                "isced:level": "1;2",
                "ref:rspo": 12353,
                "official_name": "Szko\u0142a Podstawowa w Szymonkowie",
                "name": "Szko\u0142a Podstawowa w Szymonkowie",
                "addr:country": "PL",
                "addr:postcode": "46-250",
                "addr:city": "Szymonk\u00f3w",
                "addr:street": "Wo\u0142czy\u0144ska",
                "addr:housenumber": "3",
                "addr:teryt:simc": 505214,
                "addr:teryt:sym_ul": 24708,
                "contact:phone": "+48 774141595",
                "contact:email": "spszymonkow@op.pl",
                "contact:website": "http:\/\/spszymonkow.edupage.org",
                "ref:regon": "161480268",
                "ref:vatin": "PL7511772345",
                "operator": "Stowarzyszenie Rozwoju I Odnowy Wsi Szymonk\u00f3w",
                "operator:type": "ngo",
                "amenity": "school"
            }
        },
        {
            "id": 12387,
            "type": "Feature",
            "geometry": {
                "type": "Point",
                "coordinates": [
                    17.9796,
                    51.093199999999996
                ]
            },
            "properties": {
                "ref:rspo": 12387,
                "official_name": "Punkt Przedszkolny w Szymonkowie",
                "name": "Punkt Przedszkolny w Szymonkowie",
                "addr:country": "PL",
                "addr:postcode": "46-250",
                "addr:city": "Szymonk\u00f3w",
                "addr:street": "Wo\u0142czy\u0144ska",
                "addr:housenumber": "3",
                "addr:teryt:simc": 505214,
                "addr:teryt:sym_ul": 24708,
                "contact:phone": "+48 774141595",
                "contact:email": "spszymonkow@op.pl",
                "ref:regon": "161480334",
                "ref:vatin": "PL7511772339",
                "operator": "Stowarzyszenie Rozwoju I Odnowy Wsi Szymonk\u00f3w",
                "operator:type": "ngo",
                "amenity": "kindergarten"
            }
        },
        {
            "id": 22061,
            "type": "Feature",
            "geometry": {
                "type": "Point",
                "coordinates": [
                    18.0722099,
                    51.1176
                ]
            },
            "properties": {
                "isced:level": "1;2",
                "ref:rspo": 22061,
                "official_name": "Szko\u0142a Podstawowa w Komorznie",
                "name": "Szko\u0142a Podstawowa w Komorznie",
                "addr:country": "PL",
                "addr:postcode": "46-264",
                "addr:city": "Komorzno",
                "addr:street": "G\u0142\u00f3wna",
                "addr:housenumber": "31",
                "addr:teryt:simc": 504999,
                "addr:teryt:sym_ul": 5635,
                "contact:phone": "+48 774149503",
                "contact:email": "sp-komorzno@wp.pl",
                "ref:regon": "001196057",
                "ref:vatin": "PL7511568248",
                "operator": "Gmina Wo\u0142czyn",
                "operator:type": "government",
                "amenity": "school"
            }
        }
    ]
}