{"type":"FeatureCollection","features":[{"id":20429,"type":"Feature","geometry":{"type":"Point","coordinates":[18.13298,50.84059]},"properties":{"ref:rspo":20429,"official_name":"Zesp\u00f3\u0142 Szkolno \u2013 Przedszkolny w Lasowicach Wielkich Przedszkole Samorz\u0105dowe w Laskowicach","name":"Zesp\u00f3\u0142 Szkolno \u2013 Przedszkolny w Lasowicach Wielkich Przedszkole Samorz\u0105dowe w Laskowicach","addr:country":"PL","addr:postcode":"46-282","addr:city":"Laskowice","addr:street":"ul. Szkolna","addr:housenumber":"20","addr:teryt:simc":21970,"addr:teryt:sym_ul":497638,"contact:phone":"+48 774141712","contact:email":"sekretariat.zgsp@lasowicewielkie.pl","contact:website":"http:\/\/www.lasowicewielkieopolskie.szkolna.net","ref:regon":"530582776","operator":"Gmina Lasowice Wielkie","operator:type":"government","amenity":"kindergarten","note":"Parent RSPO: 13213"}},{"id":20426,"type":"Feature","geometry":{"type":"Point","coordinates":[18.13293,50.84093]},"properties":{"isced:level":"1;2","ref:rspo":20426,"official_name":"Zesp\u00f3\u0142 Szkolno \u2013 Przedszkolny w Lasowicach Wielkich Szko\u0142a Podstawowa w Laskowicach","name":"Zesp\u00f3\u0142 Szkolno \u2013 Przedszkolny w Lasowicach Wielkich Szko\u0142a Podstawowa w Laskowicach","addr:country":"PL","addr:postcode":"46-282","addr:city":"Laskowice","addr:street":"ul. Szkolna","addr:housenumber":"19","addr:teryt:simc":21970,"addr:teryt:sym_ul":497638,"contact:phone":"+48 774141712","contact:email":"sekretariat.zgsp@lasowicewielkie.pl","contact:website":"http:\/\/www.lasowicewielkieopolskie.szkolna.net","ref:regon":"532315750","operator":"Gmina Lasowice Wielkie","operator:type":"government","amenity":"school","note":"Parent RSPO: 13213"}},{"id":20427,"type":"Feature","geometry":{"type":"Point","coordinates":[18.28751,50.86216]},"properties":{"isced:level":"1;2","ref:rspo":20427,"official_name":"Zesp\u00f3\u0142 Szkolno \u2013 Przedszkolny w Lasowicach Wielkich Szko\u0142a Podstawowa w Chudobie","name":"Zesp\u00f3\u0142 Szkolno \u2013 Przedszkolny w Lasowicach Wielkich Szko\u0142a Podstawowa w Chudobie","addr:country":"PL","addr:postcode":"46-275","addr:place":"Chudoba","addr:housenumber":"142","addr:teryt:sym_ul":497443,"contact:phone":"+48 774141712","contact:email":"sekretariat.zgsp@lasowicewielkie.pl","contact:website":"http:\/\/www.lasowicewielkieopolskie.szkolna.net","ref:regon":"532217242","operator":"Gmina Lasowice Wielkie","operator:type":"government","amenity":"school","note":"Parent RSPO: 13213"}},{"id":20430,"type":"Feature","geometry":{"type":"Point","coordinates":[18.28751,50.86213]},"properties":{"ref:rspo":20430,"official_name":"Zesp\u00f3\u0142 Szkolno \u2013 Przedszkolny w Lasowicach Wielkich Przedszkole Samorz\u0105dowe w Chudobie","name":"Zesp\u00f3\u0142 Szkolno \u2013 Przedszkolny w Lasowicach Wielkich Przedszkole Samorz\u0105dowe w Chudobie","addr:country":"PL","addr:postcode":"46-275","addr:place":"Chudoba","addr:housenumber":"142","addr:teryt:sym_ul":497443,"contact:phone":"+48 774141712","contact:email":"sekretariat.zgsp@lasowicewielkie.pl","contact:website":"http:\/\/www.lasowicewielkieopolskie.szkolna.net","ref:regon":"532217236","operator":"Gmina Lasowice Wielkie","operator:type":"government","amenity":"kindergarten","note":"Parent RSPO: 13213"}},{"id":20428,"type":"Feature","geometry":{"type":"Point","coordinates":[18.22638,50.86988]},"properties":{"ref:rspo":20428,"official_name":"Zesp\u00f3\u0142 Szkolno \u2013 Przedszkolny w Lasowicach Wielkich Przedszkole Samorz\u0105dowe w Lasowicach Wielkich","name":"Zesp\u00f3\u0142 Szkolno \u2013 Przedszkolny w Lasowicach Wielkich Przedszkole Samorz\u0105dowe w Lasowicach Wielkich","addr:country":"PL","addr:postcode":"46-282","addr:place":"Lasowice Wielkie","addr:housenumber":"42","addr:teryt:sym_ul":497762,"contact:phone":"+48 774141712","contact:email":"sekretariat.zgsp@lasowicewielkie.pl","contact:website":"http:\/\/www.lasowicewielkieopolskie.szkolna.net","ref:regon":"530582782","operator":"Gmina Lasowice Wielkie","operator:type":"government","amenity":"kindergarten","note":"Parent RSPO: 13213"}},{"id":13213,"type":"Feature","geometry":{"type":"Point","coordinates":[18.21836,50.87321]},"properties":{"ref:rspo":13213,"official_name":"Zesp\u00f3\u0142 Szkolno \u2013 Przedszkolny w Lasowicach Wielkich","name":"Zesp\u00f3\u0142 Szkolno \u2013 Przedszkolny w Lasowicach Wielkich","addr:country":"PL","addr:postcode":"46-282","addr:place":"Lasowice Wielkie","addr:housenumber":"83","addr:teryt:sym_ul":497762,"contact:phone":"+48 774141712","contact:email":"sekretariat.zgsp@lasowicewielkie.pl","contact:website":"http:\/\/www.lasowicewielkieopolskie.szkolna.net","ref:regon":"532403861","ref:vatin":"PL7511648214","operator":"Gmina Lasowice Wielkie","operator:type":"government","landuse":"education","fixme":"amenity=school, amenity=college albo landuse=education w zale\u017cno\u015bci od tego, jakie plac\u00f3wki wchodz\u0105 w sk\u0142ad zespo\u0142u. Sprawd\u017a, kiedy stosowa\u0107 amenity=* a kiedy landuse=education.","note":"Children RSPO: 20425;20426;20427;20428;20429;20430"}},{"id":20425,"type":"Feature","geometry":{"type":"Point","coordinates":[18.21836,50.87318]},"properties":{"isced:level":"1;2","ref:rspo":20425,"official_name":"Zesp\u00f3\u0142 Szkolno \u2013 Przedszkolny w Lasowicach Wielkich Szko\u0142a Podstawowa im. Miko\u0142aja Kopernika w Lasowicach Wielkich","name":"Zesp\u00f3\u0142 Szkolno \u2013 Przedszkolny w Lasowicach Wielkich Szko\u0142a Podstawowa","addr:country":"PL","addr:postcode":"46-282","addr:place":"Lasowice Wielkie","addr:housenumber":"83","addr:teryt:sym_ul":497762,"contact:phone":"+48 774141712","contact:email":"sekretariat.zgsp@lasowicewielkie.pl","contact:website":"http:\/\/www.lasowicewielkieopolskie.szkolna.net","ref:regon":"000268174","operator":"Gmina Lasowice Wielkie","operator:type":"government","amenity":"school","note":"Parent RSPO: 13213"}},{"id":13208,"type":"Feature","geometry":{"type":"Point","coordinates":[18.21572,50.90956]},"properties":{"ref:rspo":13208,"official_name":"Zesp\u00f3\u0142 Szkolno - Przedszkolny w Chocianowicach Przedszkole Samorz\u0105dowe w Jasieniu","name":"Zesp\u00f3\u0142 Szkolno - Przedszkolny w Chocianowicach Przedszkole Samorz\u0105dowe w Jasieniu","addr:country":"PL","addr:postcode":"46-280","addr:city":"Jasienie","addr:street":"ul. Zwyci\u0119stwa","addr:housenumber":"14","addr:teryt:simc":26326,"addr:teryt:sym_ul":497584,"contact:phone":"+48 774138406","contact:email":"sekretariat@chocianowice.edu.pl","ref:regon":"530582730","operator":"Gmina Lasowice Wielkie","operator:type":"government","amenity":"kindergarten","note":"Parent RSPO: 3755"}},{"id":13209,"type":"Feature","geometry":{"type":"Point","coordinates":[18.21571,50.90982]},"properties":{"isced:level":"1;2","ref:rspo":13209,"official_name":"Zesp\u00f3\u0142 Szkolno - Przedszkolny w Chocianowicach Szko\u0142a Podstawowa w Jasieniu","name":"Zesp\u00f3\u0142 Szkolno - Przedszkolny w Chocianowicach Szko\u0142a Podstawowa w Jasieniu","addr:country":"PL","addr:postcode":"46-280","addr:city":"Jasienie","addr:street":"ul. Zwyci\u0119stwa","addr:housenumber":"15","addr:teryt:simc":26326,"addr:teryt:sym_ul":497584,"contact:phone":"+48 774138406","contact:email":"sekretariat@chocianowice.edu.pl","ref:regon":"531288607","operator":"Gmina Lasowice Wielkie","operator:type":"government","amenity":"school","note":"Parent RSPO: 3755"}},{"id":13211,"type":"Feature","geometry":{"type":"Point","coordinates":[18.30261,50.9105599]},"properties":{"ref:rspo":13211,"official_name":"Zesp\u00f3\u0142 Szkolno - Przedszkolny w Chocianowicach Przedszkole Samorz\u0105dowe w Gronowicach","name":"Zesp\u00f3\u0142 Szkolno - Przedszkolny w Chocianowicach Przedszkole Samorz\u0105dowe w Gronowicach","addr:country":"PL","addr:postcode":"46-280","addr:place":"Gronowice","addr:housenumber":"58","addr:teryt:sym_ul":497549,"contact:phone":"+48 774132206","contact:email":"sekretariat@chocianowice.edu.pl","ref:regon":"532404620","operator":"Gmina Lasowice Wielkie","operator:type":"government","amenity":"kindergarten","note":"Parent RSPO: 3755"}},{"id":13212,"type":"Feature","geometry":{"type":"Point","coordinates":[18.30261,50.9105299]},"properties":{"isced:level":"1;2","ref:rspo":13212,"official_name":"Zesp\u00f3\u0142 Szkolno - Przedszkolny w Chocianowicach Szko\u0142a Podstawowa w Gronowicach","name":"Zesp\u00f3\u0142 Szkolno - Przedszkolny w Chocianowicach Szko\u0142a Podstawowa w Gronowicach","addr:country":"PL","addr:postcode":"46-280","addr:place":"Gronowice","addr:housenumber":"58","addr:teryt:sym_ul":497549,"contact:phone":"+48 774132205","contact:email":"sekretariat@chocianowice.edu.pl","ref:regon":"001189206","operator":"Gmina Lasowice Wielkie","operator:type":"government","amenity":"school","note":"Parent RSPO: 3755"}},{"id":3755,"type":"Feature","geometry":{"type":"Point","coordinates":[18.27683,50.93643]},"properties":{"ref:rspo":3755,"official_name":"Zesp\u00f3\u0142 Szkolno - Przedszkolny w Chocianowicach","name":"Zesp\u00f3\u0142 Szkolno - Przedszkolny w Chocianowicach","addr:country":"PL","addr:postcode":"46-280","addr:place":"Chocianowice","addr:housenumber":"78","addr:teryt:sym_ul":497437,"contact:phone":"+48 774132758","contact:email":"sekretariat@chocianowice.edu.pl","ref:regon":"532312160","ref:vatin":"PL7511647640","operator":"Gmina Lasowice Wielkie","operator:type":"government","landuse":"education","fixme":"amenity=school, amenity=college albo landuse=education w zale\u017cno\u015bci od tego, jakie plac\u00f3wki wchodz\u0105 w sk\u0142ad zespo\u0142u. Sprawd\u017a, kiedy stosowa\u0107 amenity=* a kiedy landuse=education.","note":"Children RSPO: 13206;13208;13209;13210;13211;13212"}},{"id":13210,"type":"Feature","geometry":{"type":"Point","coordinates":[18.27683,50.9364]},"properties":{"isced:level":"1;2","ref:rspo":13210,"official_name":"Zesp\u00f3\u0142 Szkolno - Przedszkolny w Chocianowicach Szko\u0142a Podstawowa w Chocianowicach","name":"Zesp\u00f3\u0142 Szkolno - Przedszkolny w Chocianowicach Szko\u0142a Podstawowa w Chocianowicach","addr:country":"PL","addr:postcode":"46-280","addr:place":"Chocianowice","addr:housenumber":"78","addr:teryt:sym_ul":497420,"contact:phone":"+48 774132607","contact:email":"sekretariat@chocianowice.edu.pl","ref:regon":"001189927","operator":"Gmina Lasowice Wielkie","operator:type":"government","amenity":"school","note":"Parent RSPO: 3755"}},{"id":13206,"type":"Feature","geometry":{"type":"Point","coordinates":[18.27648,50.9367]},"properties":{"ref:rspo":13206,"official_name":"Zesp\u00f3\u0142 Szkolno - Przedszkolny w Chocianowicach Przedszkole Samorz\u0105dowe w Chocianowicach","name":"Zesp\u00f3\u0142 Szkolno - Przedszkolny w Chocianowicach Przedszkole Samorz\u0105dowe w Chocianowicach","addr:country":"PL","addr:postcode":"46-280","addr:place":"Chocianowice","addr:housenumber":"79","addr:teryt:sym_ul":497420,"contact:phone":"+48 774132708","contact:email":"sekretariat@chocianowice.edu.pl","ref:regon":"530582747","operator":"Gmina Lasowice Wielkie","operator:type":"government","amenity":"kindergarten","note":"Parent RSPO: 3755"}}]}