{
    "type": "FeatureCollection",
    "features": [
        {
            "id": 17644,
            "type": "Feature",
            "geometry": {
                "type": "Point",
                "coordinates": [
                    18.22372,
                    50.9492
                ]
            },
            "properties": {
                "isced:level": "1;2",
                "ref:rspo": 17644,
                "official_name": "Publiczna Szko\u0142a Podstawowa Z Oddzia\u0142ami Przedszkolnymi im. B\u0142. Jana Paw\u0142a II w Kuniowie",
                "name": "Publiczna Szko\u0142a Podstawowa Z Oddzia\u0142ami Przedszkolnymi",
                "addr:country": "PL",
                "addr:postcode": "46-200",
                "addr:place": "Kuni\u00f3w",
                "addr:housenumber": "74",
                "addr:teryt:simc": 496484,
                "contact:phone": "+48 774182383",
                "contact:email": "psp.kuniow@ao.kluczbork.pl",
                "contact:website": "http:\/\/www.psp.kuniow.pl",
                "ref:regon": "000698101",
                "ref:vatin": "PL7511556021",
                "operator": "Gmina Kluczbork",
                "operator:type": "government",
                "amenity": "school"
            }
        },
        {
            "id": 17646,
            "type": "Feature",
            "geometry": {
                "type": "Point",
                "coordinates": [
                    18.31046,
                    50.96025
                ]
            },
            "properties": {
                "isced:level": "1;2",
                "ref:rspo": 17646,
                "official_name": "Publiczna Szko\u0142a Podstawowa Nr 2 im. Janusza Korczaka w Kluczborku",
                "name": "Publiczna Szko\u0142a Podstawowa Nr 2",
                "addr:country": "PL",
                "addr:postcode": "46-203",
                "addr:city": "Kluczbork",
                "addr:street": "Wolno\u015bci",
                "addr:housenumber": "17",
                "addr:teryt:simc": 965619,
                "addr:teryt:sym_ul": 24687,
                "contact:phone": "+48 774181310",
                "contact:email": "psp2@ao.kluczbork.pl",
                "contact:website": "http:\/\/www.psp2.kluczbork.pl",
                "ref:regon": "000698012",
                "ref:vatin": "PL7511554022",
                "operator": "Gmina Kluczbork",
                "operator:type": "government",
                "amenity": "school"
            }
        },
        {
            "id": 17642,
            "type": "Feature",
            "geometry": {
                "type": "Point",
                "coordinates": [
                    18.13258,
                    50.9656
                ]
            },
            "properties": {
                "isced:level": "1;2",
                "ref:rspo": 17642,
                "official_name": "Publiczna Szko\u0142a Podstawowa w Bogacicy im. Bohater\u00f3w II Brygady Pancernej",
                "name": "Publiczna Szko\u0142a Podstawowa w Bogacicy",
                "addr:country": "PL",
                "addr:postcode": "46-243",
                "addr:city": "Bogacica",
                "addr:street": "Szkolna",
                "addr:housenumber": "10",
                "addr:teryt:simc": 496337,
                "addr:teryt:sym_ul": 21970,
                "contact:phone": "+48 774148617",
                "contact:email": "psp.bogacica@ao.kluczbork.pl",
                "contact:website": "http:\/\/www.psp.bogacica.pl",
                "ref:regon": "000698118",
                "ref:vatin": "PL7511556009",
                "operator": "Gmina Kluczbork",
                "operator:type": "government",
                "amenity": "school"
            }
        },
        {
            "id": 17641,
            "type": "Feature",
            "geometry": {
                "type": "Point",
                "coordinates": [
                    18.31224,
                    50.966
                ]
            },
            "properties": {
                "isced:level": "1;2",
                "ref:rspo": 17641,
                "official_name": "Publiczna Szko\u0142a Podstawowa Z Oddzia\u0142em Przedszkolnym w B\u0105kowie I Przedszkolnym Oddzia\u0142em Zamiejscowym w Biadaczu",
                "name": "Publiczna Szko\u0142a Podstawowa Z Oddzia\u0142em Przedszkolnym w B\u0105kowie I Przedszkolnym Oddzia\u0142em Zamiejscowym w Biadaczu",
                "addr:country": "PL",
                "addr:postcode": "46-233",
                "addr:city": "B\u0105k\u00f3w",
                "addr:street": "Kasztanowa",
                "addr:housenumber": "1",
                "addr:teryt:simc": 496231,
                "addr:teryt:sym_ul": 8171,
                "contact:phone": "+48 774174902",
                "contact:email": "psp.bakow@ao.kluczbork.pl",
                "contact:website": "http:\/\/www.pspbakow@edupage.org",
                "ref:regon": "000698070",
                "ref:vatin": "PL7511556268",
                "operator": "Gmina Kluczbork",
                "operator:type": "government",
                "amenity": "school"
            }
        },
        {
            "id": 16967,
            "type": "Feature",
            "geometry": {
                "type": "Point",
                "coordinates": [
                    18.13394,
                    50.96716
                ]
            },
            "properties": {
                "ref:rspo": 16967,
                "official_name": "Publiczne Przedszkole w Bogacicy Z Oddzia\u0142em Zamiejscowym w Ba\u017canach",
                "name": "Publiczne Przedszkole w Bogacicy Z Oddzia\u0142em Zamiejscowym w Ba\u017canach",
                "addr:country": "PL",
                "addr:postcode": "46-243",
                "addr:city": "Bogacica",
                "addr:street": "Wolno\u015bci",
                "addr:housenumber": "4",
                "addr:teryt:simc": 496337,
                "addr:teryt:sym_ul": 24687,
                "contact:phone": "+48 774148691",
                "contact:email": "ppbogacica@ao.kluczbork.pl",
                "contact:website": "http:\/\/www.pp.bogacica.pl",
                "ref:regon": "530579567",
                "ref:vatin": "PL7511556334",
                "operator": "Gmina Kluczbork",
                "operator:type": "government",
                "amenity": "kindergarten"
            }
        },
        {
            "id": 19180,
            "type": "Feature",
            "geometry": {
                "type": "Point",
                "coordinates": [
                    18.21068,
                    50.9672399
                ]
            },
            "properties": {
                "ref:rspo": 19180,
                "official_name": "Niepubliczne Przedszkole \"Agatka\"",
                "name": "Niepubliczne Przedszkole \"Agatka\"",
                "addr:country": "PL",
                "addr:postcode": "46-200",
                "addr:city": "Kluczbork",
                "addr:street": "Tadeusza Ko\u015bciuszki",
                "addr:housenumber": "29",
                "addr:teryt:simc": 965619,
                "addr:teryt:sym_ul": 9572,
                "contact:phone": "+48 602106353",
                "contact:email": "ewa.brudzinska@op.pl",
                "ref:regon": "161482669",
                "ref:vatin": "PL7511055158",
                "operator": "Ewa Brudzi\u0144ska",
                "operator:type": "private",
                "amenity": "kindergarten"
            }
        },
        {
            "id": 16961,
            "type": "Feature",
            "geometry": {
                "type": "Point",
                "coordinates": [
                    18.21183,
                    50.96746
                ]
            },
            "properties": {
                "ref:rspo": 16961,
                "official_name": "Publiczne Przedszkole Nr 5 im. Marii Konopnickiej w Kluczborku Z Oddzia\u0142ami Zamiejscowymi w Kraskowie I Ligocie Dolnej",
                "name": "Publiczne Przedszkole Nr 5",
                "addr:country": "PL",
                "addr:postcode": "46-200",
                "addr:city": "Kluczbork",
                "addr:street": "gen. D\u0105browskiego",
                "addr:housenumber": "10",
                "addr:teryt:simc": 965619,
                "addr:teryt:sym_ul": 3670,
                "contact:phone": "+48 774181061",
                "contact:email": "pp5@ao.kluczbork.pl",
                "contact:website": "http:\/\/www.pp5.kluczbork.pl",
                "ref:regon": "530579432",
                "ref:vatin": "PL7511554447",
                "operator": "Gmina Kluczbork",
                "operator:type": "government",
                "amenity": "kindergarten"
            }
        },
        {
            "id": 8123,
            "type": "Feature",
            "geometry": {
                "type": "Point",
                "coordinates": [
                    18.21777,
                    50.97111
                ]
            },
            "properties": {
                "ref:rspo": 8123,
                "official_name": "Zesp\u00f3\u0142 Szk\u00f3\u0142 Nr 1 w Kluczborku",
                "name": "Zesp\u00f3\u0142 Szk\u00f3\u0142 Nr 1 w Kluczborku",
                "addr:country": "PL",
                "addr:postcode": "46-200",
                "addr:city": "Kluczbork",
                "addr:street": "Marii Sk\u0142odowskiej-Curie",
                "addr:housenumber": "13",
                "addr:teryt:simc": 965619,
                "addr:teryt:sym_ul": 20066,
                "contact:phone": "+48 774182546",
                "contact:email": "zs1kluczbork@powiatkluczborski.pl",
                "contact:website": "http:\/\/www.zs1kluczbork.pl",
                "ref:regon": "000743110",
                "ref:vatin": "PL7511328656",
                "operator": "Powiat Kluczborski",
                "operator:type": "government",
                "landuse": "education",
                "fixme": "amenity=school, amenity=college albo landuse=education w zale\u017cno\u015bci od tego, jakie plac\u00f3wki wchodz\u0105 w sk\u0142ad zespo\u0142u. Sprawd\u017a, kiedy stosowa\u0107 amenity=* a kiedy landuse=education.",
                "note": "Children RSPO: 35177;35180;35181"
            }
        },
        {
            "id": 35177,
            "type": "Feature",
            "geometry": {
                "type": "Point",
                "coordinates": [
                    18.21777,
                    50.97108
                ]
            },
            "properties": {
                "isced:level": "4",
                "ref:rspo": 35177,
                "official_name": "Szko\u0142a Policealna Nr 3 w Kluczborku",
                "name": "Szko\u0142a Policealna Nr 3 w Kluczborku",
                "addr:country": "PL",
                "addr:postcode": "46-200",
                "addr:city": "Kluczbork",
                "addr:street": "Marii Sk\u0142odowskiej-Curie",
                "addr:housenumber": "13",
                "addr:teryt:simc": 965619,
                "addr:teryt:sym_ul": 20066,
                "contact:phone": "+48 774182546",
                "contact:email": "zs1kluczbork@powiatkluczborski.pl",
                "contact:website": "http:\/\/www.zs1kluczbork.pl",
                "ref:regon": "160055497",
                "operator": "Powiat Kluczborski",
                "operator:type": "government",
                "amenity": "college",
                "note": "Parent RSPO: 8123"
            }
        },
        {
            "id": 35180,
            "type": "Feature",
            "geometry": {
                "type": "Point",
                "coordinates": [
                    18.21777,
                    50.971050000000005
                ]
            },
            "properties": {
                "isced:level": "3",
                "ref:rspo": 35180,
                "official_name": "Bran\u017cowa Szko\u0142a I Stopnia Nr 1 w Kluczborku",
                "name": "Bran\u017cowa Szko\u0142a I Stopnia Nr 1 w Kluczborku",
                "addr:country": "PL",
                "addr:postcode": "46-200",
                "addr:city": "Kluczbork",
                "addr:street": "Marii Sk\u0142odowskiej-Curie",
                "addr:housenumber": "13",
                "addr:teryt:simc": 965619,
                "addr:teryt:sym_ul": 20066,
                "contact:phone": "+48 774182546",
                "contact:email": "zs1kluczbork@powiatkluczborski.pl",
                "contact:website": "http:\/\/www.zs1kluczbork.pl",
                "ref:regon": "532324742",
                "operator": "Powiat Kluczborski",
                "operator:type": "government",
                "amenity": "school",
                "note": "Parent RSPO: 8123"
            }
        },
        {
            "id": 35181,
            "type": "Feature",
            "geometry": {
                "type": "Point",
                "coordinates": [
                    18.21777,
                    50.97102
                ]
            },
            "properties": {
                "isced:level": "3",
                "ref:rspo": 35181,
                "official_name": "Technikum Nr 3 w Kluczborku",
                "name": "Technikum Nr 3 w Kluczborku",
                "addr:country": "PL",
                "addr:postcode": "46-200",
                "addr:city": "Kluczbork",
                "addr:street": "Marii Sk\u0142odowskiej-Curie",
                "addr:housenumber": "13",
                "addr:teryt:simc": 965619,
                "addr:teryt:sym_ul": 20066,
                "contact:phone": "+48 774182546",
                "contact:email": "zs1kluczbork@powiatkluczborski.pl",
                "contact:website": "http:\/\/www.zs1kluczbork.pl",
                "ref:regon": "532324759",
                "operator": "Powiat Kluczborski",
                "operator:type": "government",
                "amenity": "school",
                "note": "Parent RSPO: 8123"
            }
        },
        {
            "id": 64634,
            "type": "Feature",
            "geometry": {
                "type": "Point",
                "coordinates": [
                    18.22253,
                    50.97308
                ]
            },
            "properties": {
                "ref:rspo": 64634,
                "official_name": "Maciej Nocu\u0144 Psychologiczne Centrum Szkoleniowo - Terapeutyczne",
                "name": "Maciej Nocu\u0144 Psychologiczne Centrum Szkoleniowo - Terapeutyczne",
                "addr:country": "PL",
                "addr:postcode": "46-200",
                "addr:city": "Kluczbork",
                "addr:street": "Katowicka",
                "addr:housenumber": "7",
                "addr:door": "7",
                "addr:teryt:simc": 965619,
                "addr:teryt:sym_ul": 8206,
                "contact:phone": "+48 775531778",
                "contact:email": "biuro@pcst.pl",
                "contact:website": "http:\/\/psct.pl",
                "ref:regon": "161491160",
                "ref:vatin": "PL5761379688",
                "operator": "Maciej Nocu\u0144",
                "operator:type": "private",
                "fixme": "w zale\u017cno\u015bci od przedmiotu dzia\u0142alno\u015bci (np. amenity=training + training=*, amenity=dancing_school, amenity=language_school, amenity=music_school)"
            }
        },
        {
            "id": 17645,
            "type": "Feature",
            "geometry": {
                "type": "Point",
                "coordinates": [
                    18.20761,
                    50.9732399
                ]
            },
            "properties": {
                "isced:level": "1;2",
                "ref:rspo": 17645,
                "official_name": "Publiczna Szko\u0142a Podstawowa Nr 1 im. Jana Dzier\u017cona w Kluczborku",
                "name": "Publiczna Szko\u0142a Podstawowa Nr 1",
                "addr:country": "PL",
                "addr:postcode": "46-200",
                "addr:city": "Kluczbork",
                "addr:street": "Adama Mickiewicza",
                "addr:housenumber": "10",
                "addr:teryt:simc": 965619,
                "addr:teryt:sym_ul": 12734,
                "contact:phone": "+48 774182341",
                "contact:email": "psp1@psp1.kluczbork.pl",
                "contact:website": "http:\/\/www.psp1.kluczbork.pl",
                "ref:regon": "000698609",
                "ref:vatin": "PL7511564003",
                "operator": "Gmina Kluczbork",
                "operator:type": "government",
                "amenity": "school"
            }
        },
        {
            "id": 23522,
            "type": "Feature",
            "geometry": {
                "type": "Point",
                "coordinates": [
                    18.20761,
                    50.9732099
                ]
            },
            "properties": {
                "ref:rspo": 23522,
                "official_name": "Zesp\u00f3\u0142 Szk\u00f3\u0142 Og\u00f3lnokszta\u0142c\u0105cych im. Adama Mickiewicza w Kluczborku",
                "name": "Zesp\u00f3\u0142 Szk\u00f3\u0142 Og\u00f3lnokszta\u0142c\u0105cych",
                "addr:country": "PL",
                "addr:postcode": "46-200",
                "addr:city": "Kluczbork",
                "addr:street": "Adama Mickiewicza",
                "addr:housenumber": "10",
                "addr:teryt:simc": 965619,
                "addr:teryt:sym_ul": 12734,
                "contact:phone": "+48 774181270",
                "contact:email": "zso_kluczbork@wodip.opole.pl",
                "contact:website": "http:\/\/www.zsokluczbork.pl",
                "ref:regon": "000716810",
                "ref:vatin": "PL7511049347",
                "operator": "Powiat Kluczborski",
                "operator:type": "government",
                "landuse": "education",
                "fixme": "amenity=school, amenity=college albo landuse=education w zale\u017cno\u015bci od tego, jakie plac\u00f3wki wchodz\u0105 w sk\u0142ad zespo\u0142u. Sprawd\u017a, kiedy stosowa\u0107 amenity=* a kiedy landuse=education.",
                "note": "Children RSPO: 47624;48971"
            }
        },
        {
            "id": 23824,
            "type": "Feature",
            "geometry": {
                "type": "Point",
                "coordinates": [
                    18.20761,
                    50.973179900000005
                ]
            },
            "properties": {
                "ref:rspo": 23824,
                "official_name": "Powiatowy O\u015brodek Doskonalenia Nauczycieli w Kluczborku",
                "name": "Powiatowy O\u015brodek Doskonalenia Nauczycieli w Kluczborku",
                "addr:country": "PL",
                "addr:postcode": "46-200",
                "addr:city": "Kluczbork",
                "addr:street": "Adama Mickiewicza",
                "addr:housenumber": "10",
                "addr:teryt:simc": 965619,
                "addr:teryt:sym_ul": 12734,
                "contact:phone": "+48 774187249",
                "contact:email": "podn@powiatkluczborski.pl",
                "contact:website": "http:\/\/www.podnkluczbork.pl",
                "ref:regon": "532427382",
                "ref:vatin": "PL7511656751",
                "operator": "Powiat Kluczborski",
                "operator:type": "government",
                "amenity": "training"
            }
        },
        {
            "id": 132225,
            "type": "Feature",
            "geometry": {
                "type": "Point",
                "coordinates": [
                    18.20761,
                    50.9731499
                ]
            },
            "properties": {
                "isced:level": "4",
                "ref:rspo": 132225,
                "official_name": "Policealna Szko\u0142a Medyczna Awangarda w Kluczborku",
                "name": "Policealna Szko\u0142a Medyczna Awangarda w Kluczborku",
                "addr:country": "PL",
                "addr:postcode": "46-200",
                "addr:city": "Kluczbork",
                "addr:street": "Adama Mickiewicza",
                "addr:housenumber": "10",
                "addr:teryt:simc": 965619,
                "addr:teryt:sym_ul": 12734,
                "contact:phone": "+48 774181231",
                "contact:email": "kluczbork@epsilon.edu.pl",
                "ref:regon": "365520840",
                "operator": "Centrum Edukacji \"Epsilon\" Bogumi\u0142a Ska\u0142ecka",
                "operator:type": "consortium",
                "amenity": "college"
            }
        },
        {
            "id": 268004,
            "type": "Feature",
            "geometry": {
                "type": "Point",
                "coordinates": [
                    18.20761,
                    50.9731199
                ]
            },
            "properties": {
                "isced:level": "4",
                "ref:rspo": 268004,
                "official_name": "Policealna Szko\u0142a Medyczna Epsilon w Kluczborku",
                "name": "Policealna Szko\u0142a Medyczna Epsilon w Kluczborku",
                "addr:country": "PL",
                "addr:postcode": "46-200",
                "addr:city": "Kluczbork",
                "addr:street": "Adama Mickiewicza",
                "addr:housenumber": "10",
                "addr:teryt:simc": 965619,
                "addr:teryt:sym_ul": 12734,
                "contact:phone": "+48 774181270",
                "contact:email": "kluczbork@epsilon.edu.pl",
                "contact:website": "https:\/\/epsilon.edu.pl\/kluczbork",
                "ref:regon": "380842760",
                "operator": "Centrum Edukacji \"Epsilon\" Bogumi\u0142a Ska\u0142ecka",
                "operator:type": "consortium",
                "amenity": "college"
            }
        },
        {
            "id": 47624,
            "type": "Feature",
            "geometry": {
                "type": "Point",
                "coordinates": [
                    18.20761,
                    50.973089900000005
                ]
            },
            "properties": {
                "isced:level": "3",
                "ref:rspo": 47624,
                "official_name": "I Liceum Og\u00f3lnokszta\u0142c\u0105ce w Kluczborku",
                "name": "I Liceum Og\u00f3lnokszta\u0142c\u0105ce w Kluczborku",
                "addr:country": "PL",
                "addr:postcode": "46-200",
                "addr:city": "Kluczbork",
                "addr:street": "Adama Mickiewicza",
                "addr:housenumber": "10",
                "addr:teryt:simc": 965619,
                "addr:teryt:sym_ul": 12734,
                "contact:phone": "+48 774181270",
                "contact:email": "zso_kluczbork@wodip.opole.pl",
                "contact:website": "http:\/\/www.zsokluczbork.pl",
                "ref:regon": "532330872",
                "operator": "Powiat Kluczborski",
                "operator:type": "government",
                "amenity": "school",
                "note": "Parent RSPO: 23522"
            }
        },
        {
            "id": 48971,
            "type": "Feature",
            "geometry": {
                "type": "Point",
                "coordinates": [
                    18.20761,
                    50.9730599
                ]
            },
            "properties": {
                "isced:level": "3",
                "ref:rspo": 48971,
                "official_name": "I Liceum Og\u00f3lnokszta\u0142c\u0105ce dla Doros\u0142ych w Kluczborku",
                "name": "I Liceum Og\u00f3lnokszta\u0142c\u0105ce dla Doros\u0142ych w Kluczborku",
                "addr:country": "PL",
                "addr:postcode": "46-200",
                "addr:city": "Kluczbork",
                "addr:street": "Adama Mickiewicza",
                "addr:housenumber": "10",
                "addr:teryt:simc": 965619,
                "addr:teryt:sym_ul": 12734,
                "contact:phone": "+48 774181270",
                "contact:email": "zso_kluczbork@wodip.opole.pl",
                "contact:website": "http:\/\/www.zsokluczbork.pl",
                "ref:regon": "160029910",
                "operator": "Powiat Kluczborski",
                "operator:type": "government",
                "amenity": "school",
                "note": "Parent RSPO: 23522"
            }
        },
        {
            "id": 49219,
            "type": "Feature",
            "geometry": {
                "type": "Point",
                "coordinates": [
                    18.2067799,
                    50.9734399
                ]
            },
            "properties": {
                "ref:rspo": 49219,
                "official_name": "Centrum Doradztwa I Kszta\u0142cenia Kadr P.w.zbryk Iwona Zbryk",
                "name": "Centrum Doradztwa I Kszta\u0142cenia Kadr P.w.zbryk Iwona Zbryk",
                "addr:country": "PL",
                "addr:postcode": "46-200",
                "addr:city": "Kluczbork",
                "addr:street": "Adama Mickiewicza",
                "addr:housenumber": "16",
                "addr:door": "18",
                "addr:teryt:simc": 965619,
                "addr:teryt:sym_ul": 12734,
                "contact:phone": "+48 604170541",
                "contact:email": "szkolenia@zbryk.pl",
                "contact:website": "http:\/\/zbryk.pl",
                "ref:regon": "161490574",
                "ref:vatin": "PL7511028606",
                "operator": "Iwona Zbryk",
                "operator:type": "private",
                "fixme": "w zale\u017cno\u015bci od przedmiotu dzia\u0142alno\u015bci (np. amenity=training + training=*, amenity=dancing_school, amenity=language_school, amenity=music_school)"
            }
        },
        {
            "id": 104517,
            "type": "Feature",
            "geometry": {
                "type": "Point",
                "coordinates": [
                    18.20136,
                    50.97398
                ]
            },
            "properties": {
                "ref:rspo": 104517,
                "official_name": "Pedagogiczna Biblioteka Wojew\u00f3dzka w Opolu - Filia w Kluczborku",
                "name": "Pedagogiczna Biblioteka Wojew\u00f3dzka w Opolu - Filia w Kluczborku",
                "addr:country": "PL",
                "addr:postcode": "46-200",
                "addr:city": "Kluczbork",
                "addr:street": "Miarki",
                "addr:housenumber": "2",
                "addr:teryt:simc": 965619,
                "addr:teryt:sym_ul": 12672,
                "contact:phone": "+48 774181698",
                "contact:email": "kluczbork@pedagogiczna.pl",
                "contact:website": "http:\/\/www.pedagogiczna.pl",
                "ref:regon": "743497000",
                "operator": "Wojew\u00f3dztwo Opolskie",
                "operator:type": "government",
                "amenity": "library",
                "note": "Parent RSPO: 55538"
            }
        },
        {
            "id": 104464,
            "type": "Feature",
            "geometry": {
                "type": "Point",
                "coordinates": [
                    18.20207,
                    50.97398
                ]
            },
            "properties": {
                "ref:rspo": 104464,
                "official_name": "Niepubliczne Przedszkole \"T\u0119czowa Dolina\" Z Fili\u0105",
                "name": "Niepubliczne Przedszkole \"T\u0119czowa Dolina\" Z Fili\u0105",
                "addr:country": "PL",
                "addr:postcode": "46-200",
                "addr:city": "Kluczbork",
                "addr:street": "Miarki",
                "addr:housenumber": "1",
                "addr:teryt:simc": 965619,
                "addr:teryt:sym_ul": 12672,
                "contact:phone": "+48 796682915",
                "contact:email": "npp.teczowadolina@wp.pl",
                "ref:regon": "161500019",
                "ref:vatin": "PL5761566433",
                "operator": "Monika Wilczek-Wolnicka",
                "operator:type": "private",
                "amenity": "kindergarten"
            }
        },
        {
            "id": 17648,
            "type": "Feature",
            "geometry": {
                "type": "Point",
                "coordinates": [
                    18.21643,
                    50.97423
                ]
            },
            "properties": {
                "ref:rspo": 17648,
                "official_name": "Szko\u0142a Muzyczna I Stopnia im. Ignacego J. Paderewskiego w Kluczborku",
                "name": "Szko\u0142a Muzyczna I Stopnia",
                "addr:country": "PL",
                "addr:postcode": "46-200",
                "addr:city": "Kluczbork",
                "addr:street": "Stanis\u0142awa Moniuszki",
                "addr:housenumber": "4",
                "addr:teryt:simc": 965619,
                "addr:teryt:sym_ul": 13242,
                "contact:phone": "+48 774182206",
                "contact:email": "gsm@ao.kluczbork.pl",
                "contact:website": "http:\/\/www.szkolamuzyczna.kluczbork.pl",
                "ref:regon": "000665343",
                "ref:vatin": "PL7511477132",
                "operator": "Gmina Kluczbork",
                "operator:type": "government",
                "amenity": "music_school"
            }
        },
        {
            "id": 16962,
            "type": "Feature",
            "geometry": {
                "type": "Point",
                "coordinates": [
                    18.2072,
                    50.97517
                ]
            },
            "properties": {
                "ref:rspo": 16962,
                "official_name": "Publiczne Przedszkole Nr 7 Z Grup\u0105 Wczesnoprzedszkoln\u0105 Z Opiek\u0105 Piel\u0119gniarsk\u0105 w Kluczborku",
                "name": "Publiczne Przedszkole Nr 7 Z Grup\u0105 Wczesnoprzedszkoln\u0105 Z Opiek\u0105 Piel\u0119gniarsk\u0105 w Kluczborku",
                "addr:country": "PL",
                "addr:postcode": "46-200",
                "addr:city": "Kluczbork",
                "addr:street": "Ludwika Wary\u0144skiego",
                "addr:housenumber": "26",
                "addr:teryt:simc": 965619,
                "addr:teryt:sym_ul": 23703,
                "contact:phone": "+48 774182212",
                "contact:email": "pp7@ao.kluczbork.pl",
                "contact:website": "http:\/\/www.pp7.kluczbork.pl",
                "ref:regon": "530579449",
                "ref:vatin": "PL7511554832",
                "operator": "Gmina Kluczbork",
                "operator:type": "government",
                "amenity": "kindergarten"
            }
        },
        {
            "id": 59859,
            "type": "Feature",
            "geometry": {
                "type": "Point",
                "coordinates": [
                    18.2188899,
                    50.97575
                ]
            },
            "properties": {
                "ref:rspo": 59859,
                "official_name": "Akademia Fryzjerska Kariny Smyrek",
                "name": "Akademia Fryzjerska Kariny Smyrek",
                "addr:country": "PL",
                "addr:postcode": "46-200",
                "addr:city": "Kluczbork",
                "addr:street": "Jagiello\u0144ska",
                "addr:housenumber": "9B",
                "addr:door": "4",
                "addr:teryt:simc": 965619,
                "addr:teryt:sym_ul": 7029,
                "contact:phone": "+48 787722134",
                "contact:email": "kontakt@karinasmyrek.pl",
                "contact:website": "http:\/\/karinasmyrek.pl",
                "ref:regon": "161491409",
                "ref:vatin": "PL7511059222",
                "operator": "Karina Smyrek",
                "operator:type": "private",
                "fixme": "w zale\u017cno\u015bci od przedmiotu dzia\u0142alno\u015bci (np. amenity=training + training=*, amenity=dancing_school, amenity=language_school, amenity=music_school)"
            }
        },
        {
            "id": 8028,
            "type": "Feature",
            "geometry": {
                "type": "Point",
                "coordinates": [
                    18.20598,
                    50.97618
                ]
            },
            "properties": {
                "ref:rspo": 8028,
                "official_name": "Zesp\u00f3\u0142 Szk\u00f3\u0142 Nr 2 - Centrum Kszta\u0142cenia Ustawicznego w Kluczborku",
                "name": "Zesp\u00f3\u0142 Szk\u00f3\u0142 Nr 2 - Centrum Kszta\u0142cenia Ustawicznego w Kluczborku",
                "addr:country": "PL",
                "addr:postcode": "46-200",
                "addr:city": "Kluczbork",
                "addr:street": "Byczy\u0144ska",
                "addr:housenumber": "7",
                "addr:teryt:simc": 965619,
                "addr:teryt:sym_ul": 2495,
                "contact:phone": "+48 774182600",
                "contact:email": "sekretariat@zsp2cku.pl",
                "contact:website": "http:\/\/www.zsp2kluczbork.pl",
                "ref:regon": "000743103",
                "ref:vatin": "PL7511312589",
                "operator": "Powiat Kluczborski",
                "operator:type": "government",
                "landuse": "education",
                "fixme": "amenity=school, amenity=college albo landuse=education w zale\u017cno\u015bci od tego, jakie plac\u00f3wki wchodz\u0105 w sk\u0142ad zespo\u0142u. Sprawd\u017a, kiedy stosowa\u0107 amenity=* a kiedy landuse=education.",
                "note": "Children RSPO: 8722;8929;9239;9913;9933"
            }
        },
        {
            "id": 8722,
            "type": "Feature",
            "geometry": {
                "type": "Point",
                "coordinates": [
                    18.20598,
                    50.97615
                ]
            },
            "properties": {
                "isced:level": "3",
                "ref:rspo": 8722,
                "official_name": "Ii Liceum Og\u00f3lnokszta\u0142c\u0105ce dla Doros\u0142ych w Kluczborku",
                "name": "Ii Liceum Og\u00f3lnokszta\u0142c\u0105ce dla Doros\u0142ych w Kluczborku",
                "addr:country": "PL",
                "addr:postcode": "46-200",
                "addr:city": "Kluczbork",
                "addr:street": "Byczy\u0144ska",
                "addr:housenumber": "7",
                "addr:teryt:simc": 965619,
                "addr:teryt:sym_ul": 2495,
                "contact:phone": "+48 774182600",
                "contact:email": "sekretariat@zsp2cku.pl",
                "contact:website": "http:\/\/www.zsp2kluczbork.pl",
                "ref:regon": "161478780",
                "operator": "Powiat Kluczborski",
                "operator:type": "government",
                "amenity": "school",
                "note": "Parent RSPO: 8028"
            }
        },
        {
            "id": 8929,
            "type": "Feature",
            "geometry": {
                "type": "Point",
                "coordinates": [
                    18.20598,
                    50.97612
                ]
            },
            "properties": {
                "isced:level": "3",
                "ref:rspo": 8929,
                "official_name": "Technikum Nr 2 im. Bohater\u00f3w Westerplatte w Kluczborku",
                "name": "Technikum Nr 2",
                "addr:country": "PL",
                "addr:postcode": "46-200",
                "addr:city": "Kluczbork",
                "addr:street": "Byczy\u0144ska",
                "addr:housenumber": "7",
                "addr:teryt:simc": 965619,
                "addr:teryt:sym_ul": 2495,
                "contact:phone": "+48 774182600",
                "contact:email": "sekretariat@zsp2cku.pl",
                "contact:website": "http:\/\/www.zsp2kluczbork.pl",
                "ref:regon": "532327798",
                "operator": "Powiat Kluczborski",
                "operator:type": "government",
                "amenity": "school",
                "note": "Parent RSPO: 8028"
            }
        },
        {
            "id": 9239,
            "type": "Feature",
            "geometry": {
                "type": "Point",
                "coordinates": [
                    18.20598,
                    50.97609
                ]
            },
            "properties": {
                "isced:level": "3",
                "ref:rspo": 9239,
                "official_name": "Bran\u017cowa Szko\u0142a I Stopnia Nr 2 w Kluczborku",
                "name": "Bran\u017cowa Szko\u0142a I Stopnia Nr 2 w Kluczborku",
                "addr:country": "PL",
                "addr:postcode": "46-200",
                "addr:city": "Kluczbork",
                "addr:street": "Byczy\u0144ska",
                "addr:housenumber": "7",
                "addr:teryt:simc": 965619,
                "addr:teryt:sym_ul": 2495,
                "contact:phone": "+48 774182600",
                "contact:email": "sekretariat@zsp2cku.pl",
                "contact:website": "http:\/\/www.zsp2kluczbork.pl",
                "ref:regon": "532384460",
                "operator": "Powiat Kluczborski",
                "operator:type": "government",
                "amenity": "school",
                "note": "Parent RSPO: 8028"
            }
        },
        {
            "id": 9913,
            "type": "Feature",
            "geometry": {
                "type": "Point",
                "coordinates": [
                    18.20598,
                    50.97606
                ]
            },
            "properties": {
                "isced:level": "4",
                "ref:rspo": 9913,
                "official_name": "Szko\u0142a Policealna Nr 2 w Kluczborku",
                "name": "Szko\u0142a Policealna Nr 2 w Kluczborku",
                "addr:country": "PL",
                "addr:postcode": "46-200",
                "addr:city": "Kluczbork",
                "addr:street": "Byczy\u0144ska",
                "addr:housenumber": "7",
                "addr:teryt:simc": 965619,
                "addr:teryt:sym_ul": 2495,
                "contact:phone": "+48 774182600",
                "contact:email": "sekretariat@zsp2cku.pl",
                "contact:website": "http:\/\/www.zsp2kluczbork.pl",
                "ref:regon": "532329857",
                "operator": "Powiat Kluczborski",
                "operator:type": "government",
                "amenity": "college",
                "note": "Parent RSPO: 8028"
            }
        },
        {
            "id": 9933,
            "type": "Feature",
            "geometry": {
                "type": "Point",
                "coordinates": [
                    18.20598,
                    50.97603
                ]
            },
            "properties": {
                "ref:rspo": 9933,
                "official_name": "Centrum Kszta\u0142cenia Ustawicznego w Kluczborku",
                "name": "Centrum Kszta\u0142cenia Ustawicznego w Kluczborku",
                "addr:country": "PL",
                "addr:postcode": "46-200",
                "addr:city": "Kluczbork",
                "addr:street": "Byczy\u0144ska",
                "addr:housenumber": "7",
                "addr:teryt:simc": 965619,
                "addr:teryt:sym_ul": 2495,
                "contact:phone": "+48 774182600",
                "contact:email": "sekretariat@zsp2cku.pl",
                "contact:website": "http:\/\/www.zsp2kluczbork.pl",
                "ref:regon": "532327812",
                "operator": "Powiat Kluczborski",
                "operator:type": "government",
                "fixme": "w zale\u017cno\u015bci od przedmiotu dzia\u0142alno\u015bci (np. amenity=training + training=*, amenity=dancing_school, amenity=language_school, amenity=music_school)",
                "note": "Parent RSPO: 8028"
            }
        },
        {
            "id": 23864,
            "type": "Feature",
            "geometry": {
                "type": "Point",
                "coordinates": [
                    18.20371,
                    50.9763
                ]
            },
            "properties": {
                "ref:rspo": 23864,
                "official_name": "Centrum Kszta\u0142cenia Zawodowego w Kluczborku",
                "name": "Centrum Kszta\u0142cenia Zawodowego w Kluczborku",
                "addr:country": "PL",
                "addr:postcode": "46-200",
                "addr:city": "Kluczbork",
                "addr:street": "Marii Konopnickiej",
                "addr:housenumber": "11",
                "addr:teryt:simc": 965619,
                "addr:teryt:sym_ul": 9182,
                "contact:phone": "+48 774181286",
                "contact:email": "sekretariat@ckzkluczbork.edu.pl",
                "contact:website": "http:\/\/www.ckzkluczbork.edu.pl",
                "ref:regon": "001271072",
                "ref:vatin": "PL7511667051",
                "operator": "Powiat Kluczborski",
                "operator:type": "government",
                "fixme": "w zale\u017cno\u015bci od przedmiotu dzia\u0142alno\u015bci (np. amenity=training + training=*, amenity=dancing_school, amenity=language_school, amenity=music_school) albo amenity=school, amenity=college, albo landuse=education w zale\u017cno\u015bci od tego, jakie plac\u00f3wki wchodz\u0105 w sk\u0142ad zespo\u0142u. Sprawd\u017a, kiedy stosowa\u0107 amenity=* a kiedy landuse=education."
            }
        },
        {
            "id": 16955,
            "type": "Feature",
            "geometry": {
                "type": "Point",
                "coordinates": [
                    18.21051,
                    50.97632
                ]
            },
            "properties": {
                "ref:rspo": 16955,
                "official_name": "Publiczne Przedszkole Nr 1 w Kluczborku",
                "name": "Publiczne Przedszkole Nr 1 w Kluczborku",
                "addr:country": "PL",
                "addr:postcode": "46-200",
                "addr:city": "Kluczbork",
                "addr:street": "Fryderyka Chopina",
                "addr:housenumber": "1",
                "addr:teryt:simc": 965619,
                "addr:teryt:sym_ul": 2844,
                "contact:phone": "+48 774474784",
                "contact:email": "pp1@ao.kluczbork.pl",
                "contact:website": "http:\/\/www.pp1.kluczbork.pl",
                "ref:regon": "530579395",
                "ref:vatin": "PL7511556707",
                "operator": "Gmina Kluczbork",
                "operator:type": "government",
                "amenity": "kindergarten"
            }
        },
        {
            "id": 8195,
            "type": "Feature",
            "geometry": {
                "type": "Point",
                "coordinates": [
                    18.20328,
                    50.97695
                ]
            },
            "properties": {
                "ref:rspo": 8195,
                "official_name": "Zesp\u00f3\u0142 Szk\u00f3\u0142 Licealno-Technicznych w Kluczborku",
                "name": "Zesp\u00f3\u0142 Szk\u00f3\u0142 Licealno-Technicznych w Kluczborku",
                "addr:country": "PL",
                "addr:postcode": "46-200",
                "addr:city": "Kluczbork",
                "addr:street": "Henryka Sienkiewicza",
                "addr:housenumber": "20",
                "addr:teryt:simc": 965619,
                "addr:teryt:sym_ul": 19830,
                "contact:phone": "+48 774181104",
                "contact:email": "zslt@klucznet.pl",
                "contact:website": "http:\/\/www.zslt.klucznet.pl",
                "ref:regon": "000743445",
                "ref:vatin": "PL7511329012",
                "operator": "Powiat Kluczborski",
                "operator:type": "government",
                "landuse": "education",
                "fixme": "amenity=school, amenity=college albo landuse=education w zale\u017cno\u015bci od tego, jakie plac\u00f3wki wchodz\u0105 w sk\u0142ad zespo\u0142u. Sprawd\u017a, kiedy stosowa\u0107 amenity=* a kiedy landuse=education.",
                "note": "Children RSPO: 23374;23375"
            }
        },
        {
            "id": 23374,
            "type": "Feature",
            "geometry": {
                "type": "Point",
                "coordinates": [
                    18.20328,
                    50.97692
                ]
            },
            "properties": {
                "isced:level": "3",
                "ref:rspo": 23374,
                "official_name": "Ii Liceum Og\u00f3lnokszta\u0142c\u0105ce im. Gen. J\u00f3zefa Bema w Kluczborku",
                "name": "Ii Liceum Og\u00f3lnokszta\u0142c\u0105ce",
                "addr:country": "PL",
                "addr:postcode": "46-200",
                "addr:city": "Kluczbork",
                "addr:street": "Henryka Sienkiewicza",
                "addr:housenumber": "20",
                "addr:teryt:simc": 965619,
                "addr:teryt:sym_ul": 19830,
                "contact:phone": "+48 774181104",
                "contact:email": "zslt@klucznet.pl",
                "contact:website": "http:\/\/zslt.klucznet.pl",
                "ref:regon": "532327769",
                "operator": "Powiat Kluczborski",
                "operator:type": "government",
                "amenity": "school",
                "note": "Parent RSPO: 8195"
            }
        },
        {
            "id": 23375,
            "type": "Feature",
            "geometry": {
                "type": "Point",
                "coordinates": [
                    18.20328,
                    50.976890000000004
                ]
            },
            "properties": {
                "isced:level": "3",
                "ref:rspo": 23375,
                "official_name": "Technikum Nr 1 im. Gen. J\u00f3zefa Bema w Kluczborku",
                "name": "Technikum Nr 1",
                "addr:country": "PL",
                "addr:postcode": "46-200",
                "addr:city": "Kluczbork",
                "addr:street": "Henryka Sienkiewicza",
                "addr:housenumber": "20",
                "addr:teryt:simc": 965619,
                "addr:teryt:sym_ul": 19830,
                "contact:phone": "+48 774181104",
                "contact:email": "zslt@klucznet.pl",
                "contact:website": "http:\/\/zslt.klucznet.pl",
                "ref:regon": "532327752",
                "operator": "Powiat Kluczborski",
                "operator:type": "government",
                "amenity": "school",
                "note": "Parent RSPO: 8195"
            }
        },
        {
            "id": 126831,
            "type": "Feature",
            "geometry": {
                "type": "Point",
                "coordinates": [
                    18.20001,
                    50.97713
                ]
            },
            "properties": {
                "ref:rspo": 126831,
                "official_name": "Mdgroup Marta Hain",
                "name": "Mdgroup Marta Hain",
                "addr:country": "PL",
                "addr:postcode": "46-200",
                "addr:city": "Kluczbork",
                "addr:street": "Henryka Sienkiewicza",
                "addr:housenumber": "22",
                "addr:teryt:simc": 965619,
                "addr:teryt:sym_ul": 19830,
                "contact:phone": "+48 536223350",
                "contact:email": "biuro@mdszkolenia.pl",
                "contact:website": "http:\/\/www.mdszkolenia.pl",
                "ref:regon": "360789460",
                "ref:vatin": "PL7282534063",
                "operator": "Marta Hain",
                "operator:type": "private",
                "fixme": "w zale\u017cno\u015bci od przedmiotu dzia\u0142alno\u015bci (np. amenity=training + training=*, amenity=dancing_school, amenity=language_school, amenity=music_school)"
            }
        },
        {
            "id": 26122,
            "type": "Feature",
            "geometry": {
                "type": "Point",
                "coordinates": [
                    18.20158,
                    50.97732
                ]
            },
            "properties": {
                "ref:rspo": 26122,
                "official_name": "Poradnia Psychologiczno-Pedagogiczna w Kluczborku",
                "name": "Poradnia Psychologiczno-Pedagogiczna w Kluczborku",
                "addr:country": "PL",
                "addr:postcode": "46-200",
                "addr:city": "Kluczbork",
                "addr:street": "Henryka Sienkiewicza",
                "addr:housenumber": "20B",
                "addr:teryt:simc": 965619,
                "addr:teryt:sym_ul": 19830,
                "contact:phone": "+48 774181263",
                "contact:email": "sekretariat@poradniakluczbork.pl",
                "contact:website": "http:\/\/www.poradniakluczbork.pl",
                "ref:regon": "000743310",
                "ref:vatin": "PL7511312595",
                "operator": "Powiat Kluczborski",
                "operator:type": "government",
                "healthcare": "counselling",
                "counselling_type": "education",
                "fixme": "w zale\u017cno\u015bci od przedmiotu dzia\u0142alno\u015bci (np. healthcare=counselling + counselling_type=education albo healthcare=psychotherapist)"
            }
        },
        {
            "id": 30762,
            "type": "Feature",
            "geometry": {
                "type": "Point",
                "coordinates": [
                    18.20345,
                    50.97748
                ]
            },
            "properties": {
                "ref:rspo": 30762,
                "official_name": "Specjalny O\u015brodek Szkolno-Wychowawczy im. Marii Konopnickiej w Kluczborku",
                "name": "Specjalny O\u015brodek Szkolno-Wychowawczy",
                "addr:country": "PL",
                "addr:postcode": "46-200",
                "addr:city": "Kluczbork",
                "addr:street": "Henryka Sienkiewicza",
                "addr:housenumber": "27",
                "addr:teryt:simc": 965619,
                "addr:teryt:sym_ul": 19830,
                "contact:phone": "+48 774182389",
                "contact:email": "sosw@powiatkluczborski.pl",
                "contact:website": "http:\/\/soswkluczbork.pl",
                "ref:regon": "000743468",
                "ref:vatin": "PL7511328840",
                "operator": "Powiat Kluczborski",
                "operator:type": "government",
                "amenity": "school",
                "note": "Children RSPO: 35187;38571;38572;114389"
            }
        },
        {
            "id": 35187,
            "type": "Feature",
            "geometry": {
                "type": "Point",
                "coordinates": [
                    18.20345,
                    50.97745
                ]
            },
            "properties": {
                "isced:level": "1;2",
                "ref:rspo": 35187,
                "official_name": "Szko\u0142a Podstawowa Nr 6 Specjalna",
                "name": "Szko\u0142a Podstawowa Nr 6 Specjalna",
                "addr:country": "PL",
                "addr:postcode": "46-200",
                "addr:city": "Kluczbork",
                "addr:street": "Henryka Sienkiewicza",
                "addr:housenumber": "27",
                "addr:teryt:simc": 965619,
                "addr:teryt:sym_ul": 19830,
                "contact:phone": "+48 774182389",
                "contact:email": "sosw@powiatkluczborski.pl",
                "contact:website": "http:\/\/www.sosw-kluczbork.cal.pl",
                "ref:regon": "532043606",
                "operator": "Powiat Kluczborski",
                "operator:type": "government",
                "amenity": "school",
                "note": "Parent RSPO: 30762"
            }
        },
        {
            "id": 38571,
            "type": "Feature",
            "geometry": {
                "type": "Point",
                "coordinates": [
                    18.20345,
                    50.97742
                ]
            },
            "properties": {
                "ref:rspo": 38571,
                "official_name": "Szko\u0142a Specjalna Przysposabiaj\u0105ca Do Pracy",
                "name": "Szko\u0142a Specjalna Przysposabiaj\u0105ca Do Pracy",
                "addr:country": "PL",
                "addr:postcode": "46-200",
                "addr:city": "Kluczbork",
                "addr:street": "Henryka Sienkiewicza",
                "addr:housenumber": "27",
                "addr:teryt:simc": 965619,
                "addr:teryt:sym_ul": 19830,
                "contact:phone": "+48 774182389",
                "contact:email": "sosw@powiatkluczborski.pl",
                "contact:website": "http:\/\/www.sosw-kluczbork.cal.pl",
                "ref:regon": "532460445",
                "operator": "Powiat Kluczborski",
                "operator:type": "government",
                "amenity": "school",
                "note": "Parent RSPO: 30762"
            }
        },
        {
            "id": 38572,
            "type": "Feature",
            "geometry": {
                "type": "Point",
                "coordinates": [
                    18.20345,
                    50.97739
                ]
            },
            "properties": {
                "isced:level": "3",
                "ref:rspo": 38572,
                "official_name": "Bran\u017cowa Szko\u0142a I Stopnia Specjalna w Kluczborku",
                "name": "Bran\u017cowa Szko\u0142a I Stopnia Specjalna w Kluczborku",
                "addr:country": "PL",
                "addr:postcode": "46-200",
                "addr:city": "Kluczbork",
                "addr:street": "Henryka Sienkiewicza",
                "addr:housenumber": "27",
                "addr:teryt:simc": 965619,
                "addr:teryt:sym_ul": 19830,
                "contact:phone": "+48 774182389",
                "contact:email": "sosw@powiatkluczborski.pl",
                "contact:website": "http:\/\/www.sosw-kluczbork.cal.pl",
                "ref:regon": "532043581",
                "operator": "Powiat Kluczborski",
                "operator:type": "government",
                "amenity": "school",
                "note": "Parent RSPO: 30762"
            }
        },
        {
            "id": 114389,
            "type": "Feature",
            "geometry": {
                "type": "Point",
                "coordinates": [
                    18.20345,
                    50.97736
                ]
            },
            "properties": {
                "ref:rspo": 114389,
                "official_name": "Specjalny O\u015brodek Szkolno-Wychowawczy w Kluczborku Przedszkole Specjalne Nr 9 w Kluczborku dla Dzieci Z Upo\u015bledzeniem Umys\u0142owym w Stopniu Umiarkowanym I Znacznym Z Autyzmem I Niepe\u0142nosprawno\u015bciami Sprz\u0119\u017conymi",
                "name": "Specjalny O\u015brodek Szkolno-Wychowawczy w Kluczborku Przedszkole Specjalne Nr 9 w Kluczborku dla Dzieci Z Upo\u015bledzeniem Umys\u0142owym w Stopniu Umiarkowanym I Znacznym Z Autyzmem I Niepe\u0142nosprawno\u015bciami Sprz\u0119\u017conymi",
                "addr:country": "PL",
                "addr:postcode": "46-200",
                "addr:city": "Kluczbork",
                "addr:street": "Henryka Sienkiewicza",
                "addr:housenumber": "27",
                "addr:teryt:simc": 965619,
                "addr:teryt:sym_ul": 19830,
                "contact:phone": "+48 774182389",
                "contact:email": "sosw@powiatkluczborski.pl",
                "contact:website": "http:\/\/www.sosw-kluczbork.cal.pl",
                "ref:regon": "161529224",
                "operator": "Powiat Kluczborski",
                "operator:type": "government",
                "amenity": "kindergarten",
                "note": "Parent RSPO: 30762"
            }
        },
        {
            "id": 29966,
            "type": "Feature",
            "geometry": {
                "type": "Point",
                "coordinates": [
                    18.2775399,
                    50.97918
                ]
            },
            "properties": {
                "ref:rspo": 29966,
                "official_name": "Zesp\u00f3\u0142 Szk\u00f3\u0142 Centrum Kszta\u0142cenia Rolniczego im. Ks. Dr. Jana Dzier\u017cona w Bogda\u0144czowicach",
                "name": "Zesp\u00f3\u0142 Szk\u00f3\u0142 Centrum Kszta\u0142cenia Rolniczego",
                "addr:country": "PL",
                "addr:postcode": "46-233",
                "addr:place": "Bogda\u0144czowice",
                "addr:housenumber": "1A",
                "addr:teryt:simc": 496366,
                "contact:phone": "+48 774131804",
                "contact:email": "sekretariat@zsckrbogdanczowice.pl",
                "contact:website": "http:\/\/www.zsckrbogdanczowice.pl",
                "ref:regon": "000097347",
                "ref:vatin": "PL7511383460",
                "operator": "Ministerstwo Rolnictwa I Rozwoju Wsi",
                "operator:type": "public",
                "landuse": "education",
                "fixme": "amenity=school, amenity=college albo landuse=education w zale\u017cno\u015bci od tego, jakie plac\u00f3wki wchodz\u0105 w sk\u0142ad zespo\u0142u. Sprawd\u017a, kiedy stosowa\u0107 amenity=* a kiedy landuse=education.",
                "note": "Children RSPO: 104145;104146;104147;104148"
            }
        },
        {
            "id": 104145,
            "type": "Feature",
            "geometry": {
                "type": "Point",
                "coordinates": [
                    18.2775399,
                    50.97915
                ]
            },
            "properties": {
                "isced:level": "3",
                "ref:rspo": 104145,
                "official_name": "Technikum w Bogda\u0144czowicach",
                "name": "Technikum w Bogda\u0144czowicach",
                "addr:country": "PL",
                "addr:postcode": "46-233",
                "addr:place": "Bogda\u0144czowice",
                "addr:housenumber": "1A",
                "addr:teryt:simc": 496366,
                "contact:phone": "+48 774131804",
                "contact:email": "sekretariat@zsckrbogdanczowice.pl",
                "contact:website": "http:\/\/www.zsckrbogdanczowice.pl",
                "ref:regon": "532455355",
                "operator": "Ministerstwo Rolnictwa I Rozwoju Wsi",
                "operator:type": "public",
                "amenity": "school",
                "note": "Parent RSPO: 29966"
            }
        },
        {
            "id": 104146,
            "type": "Feature",
            "geometry": {
                "type": "Point",
                "coordinates": [
                    18.2775399,
                    50.97912
                ]
            },
            "properties": {
                "isced:level": "3",
                "ref:rspo": 104146,
                "official_name": "Bran\u017cowa Szko\u0142a I Stopnia w Bogda\u0144czowicach",
                "name": "Bran\u017cowa Szko\u0142a I Stopnia w Bogda\u0144czowicach",
                "addr:country": "PL",
                "addr:postcode": "46-233",
                "addr:place": "Bogda\u0144czowice",
                "addr:housenumber": "1a",
                "addr:teryt:simc": 496366,
                "contact:phone": "+48 774131804",
                "contact:email": "sekretariat@zsckrbogdanczowice.pl",
                "contact:website": "http:\/\/www.zsckrbogdanczowice.pl",
                "ref:regon": "532220988",
                "operator": "Ministerstwo Rolnictwa I Rozwoju Wsi",
                "operator:type": "public",
                "amenity": "school",
                "note": "Parent RSPO: 29966"
            }
        },
        {
            "id": 104147,
            "type": "Feature",
            "geometry": {
                "type": "Point",
                "coordinates": [
                    18.2775399,
                    50.97909
                ]
            },
            "properties": {
                "isced:level": "4",
                "ref:rspo": 104147,
                "official_name": "Szko\u0142a Policealna w Bogda\u0144czowicach",
                "name": "Szko\u0142a Policealna w Bogda\u0144czowicach",
                "addr:country": "PL",
                "addr:postcode": "46-233",
                "addr:place": "Bogda\u0144czowice",
                "addr:housenumber": "1A",
                "addr:teryt:simc": 496366,
                "contact:phone": "+48 774131804",
                "contact:email": "sekretariat@zsckrbogdanczowice.pl",
                "contact:website": "http:\/\/www.zsckrbogdanczowice.pl",
                "ref:regon": "532221077",
                "operator": "Ministerstwo Rolnictwa I Rozwoju Wsi",
                "operator:type": "public",
                "amenity": "college",
                "note": "Parent RSPO: 29966"
            }
        },
        {
            "id": 104148,
            "type": "Feature",
            "geometry": {
                "type": "Point",
                "coordinates": [
                    18.2775399,
                    50.97906
                ]
            },
            "properties": {
                "ref:rspo": 104148,
                "official_name": "Rolnicze Centrum Kszta\u0142cenia Ustawicznego w Bogda\u0144czowicach",
                "name": "Rolnicze Centrum Kszta\u0142cenia Ustawicznego w Bogda\u0144czowicach",
                "addr:country": "PL",
                "addr:postcode": "46-233",
                "addr:place": "Bogda\u0144czowice",
                "addr:housenumber": "1A",
                "addr:teryt:simc": 496366,
                "contact:phone": "+48 774131804",
                "contact:email": "sekretariat@zsckrbogdanczowice.pl",
                "contact:website": "http:\/\/www.zsckrbogdanczowice.pl",
                "ref:regon": "161499894",
                "operator": "Ministerstwo Rolnictwa I Rozwoju Wsi",
                "operator:type": "public",
                "fixme": "w zale\u017cno\u015bci od przedmiotu dzia\u0142alno\u015bci (np. amenity=training + training=*, amenity=dancing_school, amenity=language_school, amenity=music_school)",
                "note": "Parent RSPO: 29966"
            }
        },
        {
            "id": 17647,
            "type": "Feature",
            "geometry": {
                "type": "Point",
                "coordinates": [
                    18.2048099,
                    50.97942
                ]
            },
            "properties": {
                "isced:level": "1;2",
                "ref:rspo": 17647,
                "official_name": "Publiczna Szko\u0142a Podstawowa Nr 5 Z Oddzia\u0142ami Integracyjnymi im. Emilii Plater w Kluczborku",
                "name": "Publiczna Szko\u0142a Podstawowa Nr 5 Z Oddzia\u0142ami Integracyjnymi",
                "addr:country": "PL",
                "addr:postcode": "46-203",
                "addr:city": "Kluczbork",
                "addr:street": "Marii Konopnickiej",
                "addr:housenumber": "17",
                "addr:teryt:simc": 965619,
                "addr:teryt:sym_ul": 9182,
                "contact:phone": "+48 774181766",
                "contact:email": "psp5@psp5.kluczbork.pl",
                "contact:website": "http:\/\/www.psp5.kluczbork.pl",
                "ref:regon": "000698041",
                "ref:vatin": "PL7511556185",
                "operator": "Gmina Kluczbork",
                "operator:type": "government",
                "amenity": "school"
            }
        },
        {
            "id": 24550,
            "type": "Feature",
            "geometry": {
                "type": "Point",
                "coordinates": [
                    18.20803,
                    50.9804
                ]
            },
            "properties": {
                "ref:rspo": 24550,
                "official_name": "Zesp\u00f3\u0142 Szk\u00f3\u0142 Og\u00f3lnokszta\u0142c\u0105cych Spo\u0142ecznego Towarzystwa O\u015bwiatowego",
                "name": "Zesp\u00f3\u0142 Szk\u00f3\u0142 Og\u00f3lnokszta\u0142c\u0105cych Spo\u0142ecznego Towarzystwa O\u015bwiatowego",
                "addr:country": "PL",
                "addr:postcode": "46-203",
                "addr:city": "Kluczbork",
                "addr:street": "Ligonia",
                "addr:housenumber": "3",
                "addr:teryt:simc": 965619,
                "addr:teryt:sym_ul": 11056,
                "contact:phone": "+48 774181224",
                "contact:email": "sekretariat@sto.kluczbork.pl",
                "contact:website": "http:\/\/sto.kluczbork.pl",
                "ref:regon": "161484970",
                "ref:vatin": "PL7511050988",
                "operator": "Samodzielne Ko\u0142o Terenowe Nr 111 Spo\u0142ecznego Towarzystwa O\u015bwiatowego",
                "operator:type": "ngo",
                "landuse": "education",
                "fixme": "amenity=school, amenity=college albo landuse=education w zale\u017cno\u015bci od tego, jakie plac\u00f3wki wchodz\u0105 w sk\u0142ad zespo\u0142u. Sprawd\u017a, kiedy stosowa\u0107 amenity=* a kiedy landuse=education.",
                "note": "Children RSPO: 26255;26265"
            }
        },
        {
            "id": 26255,
            "type": "Feature",
            "geometry": {
                "type": "Point",
                "coordinates": [
                    18.20803,
                    50.98037
                ]
            },
            "properties": {
                "isced:level": "1;2",
                "ref:rspo": 26255,
                "official_name": "Spo\u0142eczna Szko\u0142a Podstawowa Spo\u0142ecznego Towarzystwa O\u015bwiatowego",
                "name": "Spo\u0142eczna Szko\u0142a Podstawowa Spo\u0142ecznego Towarzystwa O\u015bwiatowego",
                "addr:country": "PL",
                "addr:postcode": "46-203",
                "addr:city": "Kluczbork",
                "addr:street": "Ligonia",
                "addr:housenumber": "3",
                "addr:teryt:simc": 965619,
                "addr:teryt:sym_ul": 11056,
                "contact:phone": "+48 774181224",
                "contact:email": "sekretaria@sto.kluczbork.pl",
                "contact:website": "http:\/\/sto.kluczbork.pl",
                "ref:regon": "161485917",
                "operator": "Samodzielne Ko\u0142o Terenowe Nr 111 Spo\u0142ecznego Towarzystwa O\u015bwiatowego",
                "operator:type": "ngo",
                "amenity": "school",
                "note": "Parent RSPO: 24550"
            }
        },
        {
            "id": 26265,
            "type": "Feature",
            "geometry": {
                "type": "Point",
                "coordinates": [
                    18.20803,
                    50.980340000000005
                ]
            },
            "properties": {
                "isced:level": "3",
                "ref:rspo": 26265,
                "official_name": "Spo\u0142eczne Liceum Og\u00f3lnokszta\u0142c\u0105ce Spo\u0142ecznego Towarzystwa O\u015bwiatowego",
                "name": "Spo\u0142eczne Liceum Og\u00f3lnokszta\u0142c\u0105ce Spo\u0142ecznego Towarzystwa O\u015bwiatowego",
                "addr:country": "PL",
                "addr:postcode": "46-203",
                "addr:city": "Kluczbork",
                "addr:street": "Ligonia",
                "addr:housenumber": "3",
                "addr:teryt:simc": 965619,
                "addr:teryt:sym_ul": 11056,
                "contact:phone": "+48 774181224",
                "contact:email": "sekretariat@sto.kluczbork.pl",
                "contact:website": "http:\/\/sto.kluczbork.pl\/",
                "ref:regon": "161485930",
                "operator": "Samodzielne Ko\u0142o Terenowe Nr 111 Spo\u0142ecznego Towarzystwa O\u015bwiatowego",
                "operator:type": "ngo",
                "amenity": "school",
                "note": "Parent RSPO: 24550"
            }
        },
        {
            "id": 16963,
            "type": "Feature",
            "geometry": {
                "type": "Point",
                "coordinates": [
                    18.20287,
                    50.98087
                ]
            },
            "properties": {
                "ref:rspo": 16963,
                "official_name": "Publiczne Przedszkole Nr 8 im. Kubusia Puchatka w Kluczborku Z Oddzia\u0142ami Zamiejscowymi w Ligocie G\u00f3rnej I Smardach G\u00f3rnych",
                "name": "Publiczne Przedszkole Nr 8",
                "addr:country": "PL",
                "addr:postcode": "46-203",
                "addr:city": "Kluczbork",
                "addr:street": "Ossowskiego",
                "addr:housenumber": "3i",
                "addr:teryt:simc": 965619,
                "addr:teryt:sym_ul": 15349,
                "contact:phone": "+48 774182965",
                "contact:email": "pp8@ao.kluczbork.pl",
                "contact:website": "http:\/\/www.pp8.kluczbork.pl",
                "ref:regon": "530579521",
                "ref:vatin": "PL7511556274",
                "operator": "Gmina Kluczbork",
                "operator:type": "government",
                "amenity": "kindergarten"
            }
        },
        {
            "id": 133782,
            "type": "Feature",
            "geometry": {
                "type": "Point",
                "coordinates": [
                    18.24606,
                    50.98508
                ]
            },
            "properties": {
                "ref:rspo": 133782,
                "official_name": "Centrum Szkoleniowe Educo Waldemar Kosztowniak",
                "name": "Centrum Szkoleniowe Educo Waldemar Kosztowniak",
                "addr:country": "PL",
                "addr:postcode": "46-200",
                "addr:place": "Ligota Zamecka",
                "addr:housenumber": "64 E",
                "addr:teryt:simc": 496515,
                "contact:phone": "+48 536040006",
                "contact:email": "educo.szkolenia@gmail.com",
                "ref:regon": "367624182",
                "operator": "Waldemar Kosztowniak",
                "operator:type": "private",
                "fixme": "w zale\u017cno\u015bci od przedmiotu dzia\u0142alno\u015bci (np. amenity=training + training=*, amenity=dancing_school, amenity=language_school, amenity=music_school)"
            }
        },
        {
            "id": 276712,
            "type": "Feature",
            "geometry": {
                "type": "Point",
                "coordinates": [
                    18.20537,
                    50.98539
                ]
            },
            "properties": {
                "ref:rspo": 276712,
                "official_name": "Terapeutyczny Punkt Przrdszkolny \"Wsp\u00f3lny \u015awiat\"",
                "name": "Terapeutyczny Punkt Przrdszkolny \"Wsp\u00f3lny \u015awiat\"",
                "addr:country": "PL",
                "addr:postcode": "46-203",
                "addr:city": "Kluczbork",
                "addr:street": "Ossowskiego",
                "addr:housenumber": "53",
                "addr:teryt:simc": 965619,
                "addr:teryt:sym_ul": 15349,
                "contact:email": "biuro@wspolnyswiat.com.pl",
                "ref:regon": "387385661",
                "ref:vatin": "PL8971627467",
                "operator": "Beata Dr\u00f3\u017cdz",
                "operator:type": "private",
                "amenity": "kindergarten"
            }
        },
        {
            "id": 16959,
            "type": "Feature",
            "geometry": {
                "type": "Point",
                "coordinates": [
                    18.31669,
                    51.00177
                ]
            },
            "properties": {
                "ref:rspo": 16959,
                "official_name": "Publiczne Przedszkole Nr 2 Z Oddzia\u0142ami Integracyjnymi im. Czes\u0142awa Janczarskiego w Kluczborku",
                "name": "Publiczne Przedszkole Nr 2 Z Oddzia\u0142ami Integracyjnymi",
                "addr:country": "PL",
                "addr:postcode": "46-203",
                "addr:city": "Kluczbork",
                "addr:street": "Cypriana Kamila Norwida",
                "addr:housenumber": "19",
                "addr:teryt:simc": 965619,
                "addr:teryt:sym_ul": 14317,
                "contact:phone": "+48 774473426",
                "contact:email": "pp2@ao.kluczbork.pl",
                "contact:website": "http:\/\/www.pp2.kluczbork.pl",
                "ref:regon": "530579403",
                "ref:vatin": "PL7511558474",
                "operator": "Gmina Kluczbork",
                "operator:type": "government",
                "amenity": "kindergarten"
            }
        },
        {
            "id": 268898,
            "type": "Feature",
            "geometry": {
                "type": "Point",
                "coordinates": [
                    18.31872,
                    51.0027199
                ]
            },
            "properties": {
                "isced:level": "1;2",
                "ref:rspo": 268898,
                "official_name": "Katolicka Niepubliczna Szko\u0142a Podstawowa w Biadaczu",
                "name": "Katolicka Niepubliczna Szko\u0142a Podstawowa w Biadaczu",
                "addr:country": "PL",
                "addr:postcode": "46-233",
                "addr:city": "Biadacz",
                "addr:street": "Kluczborska",
                "addr:housenumber": "23",
                "addr:teryt:simc": 496283,
                "addr:teryt:sym_ul": 8587,
                "contact:email": "sekretariat@knsp.edu.pl",
                "contact:website": "http:\/\/knsp.edu.pl",
                "ref:regon": "381276936",
                "operator": "Fundacja Artem Silesiam Promovere",
                "operator:type": "ngo",
                "amenity": "school"
            }
        },
        {
            "id": 17643,
            "type": "Feature",
            "geometry": {
                "type": "Point",
                "coordinates": [
                    18.23423,
                    51.00624
                ]
            },
            "properties": {
                "isced:level": "1;2",
                "ref:rspo": 17643,
                "official_name": "Publiczna Szko\u0142a Podstawowa Z Oddzia\u0142ami Przedszkolnymi im. M. Kopernika w Kujakowicach Dolnych",
                "name": "Publiczna Szko\u0142a Podstawowa Z Oddzia\u0142ami Przedszkolnymi",
                "addr:country": "PL",
                "addr:postcode": "46-211",
                "addr:city": "Kujakowice Dolne",
                "addr:street": "1 Maja",
                "addr:housenumber": "27",
                "addr:teryt:simc": 496455,
                "addr:teryt:sym_ul": 11926,
                "contact:phone": "+48 774131922",
                "contact:email": "psp.kujakowice@ao.kluczbork.pl",
                "contact:website": "http:\/\/www.psp.kujakowice.pl",
                "ref:regon": "001007961",
                "ref:vatin": "PL7511555352",
                "operator": "Gmina Kluczbork",
                "operator:type": "government",
                "amenity": "school"
            }
        }
    ]
}