{
    "type": "FeatureCollection",
    "features": [
        {
            "id": 129082,
            "type": "Feature",
            "geometry": {
                "type": "Point",
                "coordinates": [
                    16.16281,
                    51.17105
                ]
            },
            "properties": {
                "ref:rspo": 129082,
                "official_name": "Przedszkole \"Miedziany Krasnalek\"",
                "name": "Przedszkole \"Miedziany Krasnalek\"",
                "addr:country": "PL",
                "addr:postcode": "59-220",
                "addr:city": "Legnica",
                "addr:street": "ul. Orzechowa",
                "addr:housenumber": "29",
                "addr:teryt:simc": 15202,
                "addr:teryt:sym_ul": 954047,
                "contact:phone": "+48 535028674",
                "contact:email": "przedszkole@miedzianykrasnalek.pl",
                "contact:website": "http:\/\/miedzianykrasnalek.pl",
                "ref:regon": "362485824",
                "operator": "\u0141ukasz Buturla",
                "operator:type": "private",
                "amenity": "kindergarten"
            }
        },
        {
            "id": 122883,
            "type": "Feature",
            "geometry": {
                "type": "Point",
                "coordinates": [
                    16.16275,
                    51.17193
                ]
            },
            "properties": {
                "ref:rspo": 122883,
                "official_name": "Niepubliczne Przedszkole \"\u015alimaczek\"",
                "name": "Niepubliczne Przedszkole \"\u015alimaczek\"",
                "addr:country": "PL",
                "addr:postcode": "59-220",
                "addr:city": "Legnica",
                "addr:street": "al. Czerwonych Mak\u00f3w",
                "addr:housenumber": "34",
                "addr:teryt:simc": 3447,
                "addr:teryt:sym_ul": 954047,
                "contact:phone": "+48 605176651",
                "contact:email": "przedszkole-slimaczek@o2.pl",
                "ref:regon": "022397173",
                "ref:vatin": "PL6912536615",
                "operator": "\"\u015alimaczek\" Sp\u00f3\u0142ka Z Ograniczon\u0105 Odpowiedzialno\u015bci\u0105",
                "operator:type": "private",
                "amenity": "kindergarten"
            }
        },
        {
            "id": 131317,
            "type": "Feature",
            "geometry": {
                "type": "Point",
                "coordinates": [
                    16.15086,
                    51.1734
                ]
            },
            "properties": {
                "ref:rspo": 131317,
                "official_name": "Spo\u0142eczne Przedszkole Towarzystwa Wiedzy Powszechnej \"Zielony Zak\u0105tek\" w Legnicy",
                "name": "Spo\u0142eczne Przedszkole Towarzystwa Wiedzy Powszechnej \"Zielony Zak\u0105tek\" w Legnicy",
                "addr:country": "PL",
                "addr:postcode": "59-220",
                "addr:city": "Legnica",
                "addr:street": "ul. Wielog\u00f3rska",
                "addr:housenumber": "41",
                "addr:teryt:simc": 24109,
                "addr:teryt:sym_ul": 954047,
                "contact:email": "twpor@o2.pl",
                "ref:regon": "365120490",
                "operator": "Towarzystwo Wiedzy Powszechnej Oddzia\u0142 Regionalny W Legnicy",
                "operator:type": "ngo",
                "amenity": "kindergarten"
            }
        },
        {
            "id": 6349,
            "type": "Feature",
            "geometry": {
                "type": "Point",
                "coordinates": [
                    16.1677399,
                    51.17354
                ]
            },
            "properties": {
                "ref:rspo": 6349,
                "official_name": "Dzieci\u0119cy Ogr\u00f3d",
                "name": "Dzieci\u0119cy Ogr\u00f3d",
                "addr:country": "PL",
                "addr:postcode": "59-220",
                "addr:city": "Legnica",
                "addr:street": "ul. Fio\u0142kowa",
                "addr:housenumber": "25",
                "addr:teryt:simc": 5027,
                "addr:teryt:sym_ul": 954047,
                "contact:phone": "+48 665486925",
                "contact:email": "dzieciecy-ogrod@wp.pl",
                "contact:website": "http:\/\/www.dzieciecy-ogrod.pl",
                "ref:regon": "021981065",
                "ref:vatin": "PL6911068891",
                "operator": "Beata Szastak",
                "operator:type": "private",
                "amenity": "kindergarten"
            }
        },
        {
            "id": 132461,
            "type": "Feature",
            "geometry": {
                "type": "Point",
                "coordinates": [
                    16.17098,
                    51.19105
                ]
            },
            "properties": {
                "ref:rspo": 132461,
                "official_name": "Niepubliczna Poradnia Psychologiczno-Pedagogiczna Miludek",
                "name": "Niepubliczna Poradnia Psychologiczno-Pedagogiczna Miludek",
                "addr:country": "PL",
                "addr:postcode": "59-220",
                "addr:city": "Legnica",
                "addr:street": "ul. Cedrowa",
                "addr:housenumber": "1",
                "addr:teryt:simc": 2566,
                "addr:teryt:sym_ul": 954047,
                "contact:phone": "+48 664019386",
                "contact:email": "cwrmiludek@gmail.com",
                "ref:regon": "365640538",
                "operator": "Aleksandra Serenda",
                "operator:type": "private",
                "healthcare": "counselling",
                "counselling_type": "education",
                "fixme": "w zale\u017cno\u015bci od przedmiotu dzia\u0142alno\u015bci (np. healthcare=counselling + counselling_type=education albo healthcare=psychotherapist)"
            }
        },
        {
            "id": 264721,
            "type": "Feature",
            "geometry": {
                "type": "Point",
                "coordinates": [
                    16.17098,
                    51.191019999999995
                ]
            },
            "properties": {
                "ref:rspo": 264721,
                "official_name": "Przedszkole Integracyjne \"Miludkowy Zak\u0105tek\"",
                "name": "Przedszkole Integracyjne \"Miludkowy Zak\u0105tek\"",
                "addr:country": "PL",
                "addr:postcode": "59-220",
                "addr:city": "Legnica",
                "addr:street": "ul. Cedrowa",
                "addr:housenumber": "1",
                "addr:teryt:simc": 2566,
                "addr:teryt:sym_ul": 954047,
                "contact:phone": "+48 664019386",
                "contact:email": "cwrmiludek@gmail.com",
                "ref:regon": "368434526",
                "operator": "Aleksandra Serenda",
                "operator:type": "private",
                "amenity": "kindergarten"
            }
        },
        {
            "id": 7960,
            "type": "Feature",
            "geometry": {
                "type": "Point",
                "coordinates": [
                    16.17654,
                    51.19281
                ]
            },
            "properties": {
                "isced:level": "1;2",
                "ref:rspo": 7960,
                "official_name": "Szko\u0142a Podstawowa Nr 19",
                "name": "Szko\u0142a Podstawowa Nr 19",
                "addr:country": "PL",
                "addr:postcode": "59-220",
                "addr:city": "Legnica",
                "addr:street": "al. Rzeczypospolitej",
                "addr:housenumber": "129",
                "addr:teryt:simc": 19329,
                "addr:teryt:sym_ul": 954047,
                "contact:phone": "+48 767230810",
                "contact:email": "sekretariat@sp19.legnica.eu",
                "contact:website": "http:\/\/www.sp19legnica.wp.pl",
                "ref:regon": "000712628",
                "ref:vatin": "PL6911073857",
                "operator": "Gmina Legnica",
                "operator:type": "government",
                "amenity": "school"
            }
        },
        {
            "id": 5434,
            "type": "Feature",
            "geometry": {
                "type": "Point",
                "coordinates": [
                    16.17518,
                    51.19287
                ]
            },
            "properties": {
                "ref:rspo": 5434,
                "official_name": "Miejskie Przedszkole Nr 1",
                "name": "Miejskie Przedszkole Nr 1",
                "addr:country": "PL",
                "addr:postcode": "59-220",
                "addr:city": "Legnica",
                "addr:street": "al. Rzeczypospolitej",
                "addr:housenumber": "128",
                "addr:teryt:simc": 19329,
                "addr:teryt:sym_ul": 954047,
                "contact:phone": "+48 768540346",
                "contact:email": "hnowak@mp1.legnica.eu",
                "contact:website": "http:\/\/mp1.legnica.eu",
                "ref:regon": "391039890",
                "ref:vatin": "PL6912234802",
                "operator": "Gmina Legnica",
                "operator:type": "government",
                "amenity": "kindergarten"
            }
        },
        {
            "id": 11711,
            "type": "Feature",
            "geometry": {
                "type": "Point",
                "coordinates": [
                    16.15557,
                    51.19605
                ]
            },
            "properties": {
                "ref:rspo": 11711,
                "official_name": "Zesp\u00f3\u0142 Szk\u00f3\u0142 Budowlanych im. Wojska Polskiego",
                "name": "Zesp\u00f3\u0142 Szk\u00f3\u0142 Budowlanych",
                "addr:country": "PL",
                "addr:postcode": "59-220",
                "addr:city": "Legnica",
                "addr:street": "ul. W\u0142adys\u0142awa Grabskiego",
                "addr:housenumber": "14\/22",
                "addr:teryt:simc": 6052,
                "addr:teryt:sym_ul": 954047,
                "contact:phone": "+48 767245300",
                "contact:email": "szkola@zsb.legnica.eu",
                "contact:website": "http:\/\/www.zsb.legnica.eu",
                "ref:regon": "000186750",
                "ref:vatin": "PL6911129227",
                "operator": "Gmina Legnica",
                "operator:type": "government",
                "landuse": "education",
                "fixme": "amenity=school, amenity=college albo landuse=education w zale\u017cno\u015bci od tego, jakie plac\u00f3wki wchodz\u0105 w sk\u0142ad zespo\u0142u. Sprawd\u017a, kiedy stosowa\u0107 amenity=* a kiedy landuse=education.",
                "note": "Children RSPO: 109567;109568;109571"
            }
        },
        {
            "id": 109567,
            "type": "Feature",
            "geometry": {
                "type": "Point",
                "coordinates": [
                    16.15557,
                    51.19602
                ]
            },
            "properties": {
                "isced:level": "3",
                "ref:rspo": 109567,
                "official_name": "Bran\u017cowa Szko\u0142a I Stopnia Nr 5 w Legnicy",
                "name": "Bran\u017cowa Szko\u0142a I Stopnia Nr 5 w Legnicy",
                "addr:country": "PL",
                "addr:postcode": "59-220",
                "addr:city": "Legnica",
                "addr:street": "ul. W\u0142adys\u0142awa Grabskiego",
                "addr:housenumber": "14\/22",
                "addr:teryt:simc": 6052,
                "addr:teryt:sym_ul": 954047,
                "contact:phone": "+48 767245300",
                "contact:email": "szkola@zsb.legnica.eu",
                "contact:website": "http:\/\/www.budowlanka.legnica.pl",
                "ref:regon": "391007246",
                "operator": "Gmina Legnica",
                "operator:type": "government",
                "amenity": "school",
                "note": "Parent RSPO: 11711"
            }
        },
        {
            "id": 109568,
            "type": "Feature",
            "geometry": {
                "type": "Point",
                "coordinates": [
                    16.15557,
                    51.19599
                ]
            },
            "properties": {
                "isced:level": "3",
                "ref:rspo": 109568,
                "official_name": "Technikum Nr 4",
                "name": "Technikum Nr 4",
                "addr:country": "PL",
                "addr:postcode": "59-220",
                "addr:city": "Legnica",
                "addr:street": "ul. W\u0142adys\u0142awa Grabskiego",
                "addr:housenumber": "14\/22",
                "addr:teryt:simc": 6052,
                "addr:teryt:sym_ul": 954047,
                "contact:phone": "+48 767245300",
                "contact:email": "szkola@zsb.legnica.eu",
                "contact:website": "http:\/\/zsb.legnica.eu",
                "ref:regon": "391007393",
                "operator": "Gmina Legnica",
                "operator:type": "government",
                "amenity": "school",
                "note": "Parent RSPO: 11711"
            }
        },
        {
            "id": 109571,
            "type": "Feature",
            "geometry": {
                "type": "Point",
                "coordinates": [
                    16.15557,
                    51.19596
                ]
            },
            "properties": {
                "isced:level": "4",
                "ref:rspo": 109571,
                "official_name": "Szko\u0142a Policealna Nr 2",
                "name": "Szko\u0142a Policealna Nr 2",
                "addr:country": "PL",
                "addr:postcode": "59-220",
                "addr:city": "Legnica",
                "addr:street": "ul. W\u0142adys\u0142awa Grabskiego",
                "addr:housenumber": "14\/22",
                "addr:teryt:simc": 6052,
                "addr:teryt:sym_ul": 954047,
                "contact:phone": "+48 767245300",
                "contact:email": "szkola@zsb.legnica.eu",
                "contact:website": "http:\/\/budowlanka.legnica.pl",
                "ref:regon": "020959589",
                "operator": "Gmina Legnica",
                "operator:type": "government",
                "amenity": "college",
                "note": "Parent RSPO: 11711"
            }
        },
        {
            "id": 129701,
            "type": "Feature",
            "geometry": {
                "type": "Point",
                "coordinates": [
                    16.21707,
                    51.1962
                ]
            },
            "properties": {
                "ref:rspo": 129701,
                "official_name": "Przedszkole Niepubliczne \"Akademia M\u0142odego Artysty\"",
                "name": "Przedszkole Niepubliczne \"Akademia M\u0142odego Artysty\"",
                "addr:country": "PL",
                "addr:postcode": "59-220",
                "addr:city": "Legnica",
                "addr:street": "ul. Aleksandra Kami\u0144skiego",
                "addr:housenumber": "23;25",
                "addr:teryt:simc": 7903,
                "addr:teryt:sym_ul": 954047,
                "contact:phone": "+48 883400885",
                "contact:email": "ama.legnica@wp.pl",
                "ref:regon": "362776326",
                "operator": "Sylwia Lamek",
                "operator:type": "private",
                "amenity": "kindergarten"
            }
        },
        {
            "id": 8314,
            "type": "Feature",
            "geometry": {
                "type": "Point",
                "coordinates": [
                    16.15613,
                    51.1967
                ]
            },
            "properties": {
                "isced:level": "1;2",
                "ref:rspo": 8314,
                "official_name": "Szko\u0142a Podstawowa Nr 18 im. Jana Brzechwy",
                "name": "Szko\u0142a Podstawowa Nr 18",
                "addr:country": "PL",
                "addr:postcode": "59-220",
                "addr:city": "Legnica",
                "addr:street": "ul. W\u0142adys\u0142awa Grabskiego",
                "addr:housenumber": "5",
                "addr:teryt:simc": 6052,
                "addr:teryt:sym_ul": 954047,
                "contact:phone": "+48 767210168",
                "contact:email": "sekretariat@sp18.legnica.eu",
                "contact:website": "http:\/\/sp18.legnica.eu",
                "ref:regon": "000712611",
                "ref:vatin": "PL6911083442",
                "operator": "Gmina Legnica",
                "operator:type": "government",
                "amenity": "school"
            }
        },
        {
            "id": 4714,
            "type": "Feature",
            "geometry": {
                "type": "Point",
                "coordinates": [
                    16.20641,
                    51.19771
                ]
            },
            "properties": {
                "ref:rspo": 4714,
                "official_name": "Miejskie Przedszkole Nr 19",
                "name": "Miejskie Przedszkole Nr 19",
                "addr:country": "PL",
                "addr:postcode": "59-220",
                "addr:city": "Legnica",
                "addr:street": "ul. Tatrza\u0144ska",
                "addr:housenumber": "11",
                "addr:teryt:simc": 22717,
                "addr:teryt:sym_ul": 954047,
                "contact:phone": "+48 767233280",
                "contact:email": "mp19legnica@wp.pl",
                "ref:regon": "390066235",
                "ref:vatin": "PL6911084097",
                "operator": "Gmina Legnica",
                "operator:type": "government",
                "amenity": "kindergarten"
            }
        },
        {
            "id": 278807,
            "type": "Feature",
            "geometry": {
                "type": "Point",
                "coordinates": [
                    16.20251,
                    51.19802
                ]
            },
            "properties": {
                "ref:rspo": 278807,
                "official_name": "Niepubliczne Przedszkole Domkowo w Legnicy",
                "name": "Niepubliczne Przedszkole Domkowo w Legnicy",
                "addr:country": "PL",
                "addr:postcode": "59-220",
                "addr:city": "Legnica",
                "addr:street": "ul. Izerska",
                "addr:housenumber": "36",
                "addr:teryt:simc": 6955,
                "addr:teryt:sym_ul": 954047,
                "ref:regon": "520080657",
                "operator": "Adam Derda",
                "operator:type": "private",
                "amenity": "kindergarten"
            }
        },
        {
            "id": 8037,
            "type": "Feature",
            "geometry": {
                "type": "Point",
                "coordinates": [
                    16.20647,
                    51.19818
                ]
            },
            "properties": {
                "isced:level": "1;2",
                "ref:rspo": 8037,
                "official_name": "Szko\u0142a Podstawowa Nr 16 im. Kornela Makuszy\u0144skiego",
                "name": "Szko\u0142a Podstawowa Nr 16",
                "addr:country": "PL",
                "addr:postcode": "59-220",
                "addr:city": "Legnica",
                "addr:street": "ul. Tatrza\u0144ska",
                "addr:housenumber": "9",
                "addr:teryt:simc": 22717,
                "addr:teryt:sym_ul": 954047,
                "contact:phone": "+48 767233220",
                "contact:email": "sp16legnica@wp.pl",
                "contact:website": "http:\/\/www.sp16.legnica.eu",
                "ref:regon": "004045465",
                "ref:vatin": "PL6911354390",
                "operator": "Gmina Legnica",
                "operator:type": "government",
                "amenity": "school"
            }
        },
        {
            "id": 7493,
            "type": "Feature",
            "geometry": {
                "type": "Point",
                "coordinates": [
                    16.20161,
                    51.1983
                ]
            },
            "properties": {
                "ref:rspo": 7493,
                "official_name": "Przedszkole Niepubliczne Stokrotka w Legnicy",
                "name": "Przedszkole Niepubliczne Stokrotka w Legnicy",
                "addr:country": "PL",
                "addr:postcode": "59-220",
                "addr:city": "Legnica",
                "addr:street": "ul. Karkonoska",
                "addr:housenumber": "9",
                "addr:teryt:simc": 8042,
                "addr:teryt:sym_ul": 954047,
                "contact:phone": "+48 768550720",
                "contact:email": "stokrotkap@poczta.fm",
                "contact:website": "http:\/\/www.stokrotka.legnica.pl",
                "ref:regon": "021954401",
                "ref:vatin": "PL6911225037",
                "operator": "Beata Rusin",
                "operator:type": "private",
                "amenity": "kindergarten"
            }
        },
        {
            "id": 125781,
            "type": "Feature",
            "geometry": {
                "type": "Point",
                "coordinates": [
                    16.15349,
                    51.19881
                ]
            },
            "properties": {
                "ref:rspo": 125781,
                "official_name": "Niepubliczne Przedszkole Z Oddzia\u0142ami Integracyjnymi \"Wsp\u00f3lny \u015awiat\"",
                "name": "Niepubliczne Przedszkole Z Oddzia\u0142ami Integracyjnymi \"Wsp\u00f3lny \u015awiat\"",
                "addr:country": "PL",
                "addr:postcode": "59-220",
                "addr:city": "Legnica",
                "addr:street": "ul. Grunwaldzka",
                "addr:housenumber": "40",
                "addr:teryt:simc": 6260,
                "addr:teryt:sym_ul": 954047,
                "contact:phone": "+48 501174592",
                "contact:email": "biuro@wspolnyswiat.wp.pl",
                "ref:regon": "022524275",
                "ref:vatin": "PL8971627467",
                "operator": "Marek Dr\u00f3\u017ad\u017a",
                "operator:type": "private",
                "amenity": "kindergarten"
            }
        },
        {
            "id": 126356,
            "type": "Feature",
            "geometry": {
                "type": "Point",
                "coordinates": [
                    16.15349,
                    51.19878
                ]
            },
            "properties": {
                "ref:rspo": 126356,
                "official_name": "Niepubliczne Przedszkole Z Oddzia\u0142ami Integracyjnymi \"Wsp\u00f3lny \u015awiat II\"",
                "name": "Niepubliczne Przedszkole Z Oddzia\u0142ami Integracyjnymi \"Wsp\u00f3lny \u015awiat II\"",
                "addr:country": "PL",
                "addr:postcode": "59-220",
                "addr:city": "Legnica",
                "addr:street": "ul. Grunwaldzka",
                "addr:housenumber": "40",
                "addr:teryt:simc": 6260,
                "addr:teryt:sym_ul": 954047,
                "contact:phone": "+48 501174592",
                "contact:email": "biuro@wspolnyswiat.wp.pl",
                "ref:regon": "360252398",
                "ref:vatin": "PL8970032594",
                "operator": "Marek Dr\u00f3\u017ad\u017a",
                "operator:type": "private",
                "amenity": "kindergarten"
            }
        },
        {
            "id": 5546,
            "type": "Feature",
            "geometry": {
                "type": "Point",
                "coordinates": [
                    16.1479399,
                    51.19888
                ]
            },
            "properties": {
                "ref:rspo": 5546,
                "official_name": "Miejskie Przedszkole Nr 14",
                "name": "Miejskie Przedszkole Nr 14",
                "addr:country": "PL",
                "addr:postcode": "59-220",
                "addr:city": "Legnica",
                "addr:street": "ul. Kubusia Puchatka",
                "addr:housenumber": "4",
                "addr:teryt:simc": 10316,
                "addr:teryt:sym_ul": 954047,
                "contact:phone": "+48 767213522",
                "contact:email": "przedszkole@mp14.legnica.eu",
                "contact:website": "http:\/\/www.kubusioweprzedszkole.com.pl",
                "ref:regon": "390051481",
                "ref:vatin": "PL6911087486",
                "operator": "Gmina Legnica",
                "operator:type": "government",
                "amenity": "kindergarten"
            }
        },
        {
            "id": 11765,
            "type": "Feature",
            "geometry": {
                "type": "Point",
                "coordinates": [
                    16.1457,
                    51.19912
                ]
            },
            "properties": {
                "ref:rspo": 11765,
                "official_name": "Zesp\u00f3\u0142 Szk\u00f3\u0142 Technicznych I Og\u00f3lnokszta\u0142c\u0105cych im.henryka Poboznego",
                "name": "Zesp\u00f3\u0142 Szk\u00f3\u0142 Technicznych I Og\u00f3lnokszta\u0142c\u0105cych im.henryka Poboznego",
                "addr:country": "PL",
                "addr:postcode": "59-220",
                "addr:city": "Legnica",
                "addr:street": "ul. Z\u0142otoryjska",
                "addr:housenumber": "144",
                "addr:teryt:simc": 26211,
                "addr:teryt:sym_ul": 954047,
                "contact:phone": "+48 767235990",
                "contact:email": "szkola@zstio.legnica.eu",
                "contact:website": "http:\/\/www.zstio.legnica.pl",
                "ref:regon": "000027252",
                "ref:vatin": "PL6911070971",
                "operator": "Gmina Legnica",
                "operator:type": "government",
                "landuse": "education",
                "fixme": "amenity=school, amenity=college albo landuse=education w zale\u017cno\u015bci od tego, jakie plac\u00f3wki wchodz\u0105 w sk\u0142ad zespo\u0142u. Sprawd\u017a, kiedy stosowa\u0107 amenity=* a kiedy landuse=education.",
                "note": "Children RSPO: 114548;119406"
            }
        },
        {
            "id": 114548,
            "type": "Feature",
            "geometry": {
                "type": "Point",
                "coordinates": [
                    16.1457,
                    51.19909
                ]
            },
            "properties": {
                "isced:level": "3",
                "ref:rspo": 114548,
                "official_name": "Technikum Nr 3",
                "name": "Technikum Nr 3",
                "addr:country": "PL",
                "addr:postcode": "59-220",
                "addr:city": "Legnica",
                "addr:street": "ul. Z\u0142otoryjska",
                "addr:housenumber": "144",
                "addr:teryt:simc": 26211,
                "addr:teryt:sym_ul": 954047,
                "contact:phone": "+48 767235900",
                "contact:email": "szkola@zstio.legnica.eu",
                "contact:website": "http:\/\/www.henrykowka.pl",
                "ref:regon": "020590612",
                "operator": "Gmina Legnica",
                "operator:type": "government",
                "amenity": "school",
                "note": "Parent RSPO: 11765"
            }
        },
        {
            "id": 119406,
            "type": "Feature",
            "geometry": {
                "type": "Point",
                "coordinates": [
                    16.1457,
                    51.19906
                ]
            },
            "properties": {
                "isced:level": "3",
                "ref:rspo": 119406,
                "official_name": "Bran\u017cowa Szko\u0142a I Stopnia Nr 4 w Legnicy",
                "name": "Bran\u017cowa Szko\u0142a I Stopnia Nr 4 w Legnicy",
                "addr:country": "PL",
                "addr:postcode": "59-220",
                "addr:city": "Legnica",
                "addr:street": "ul. Z\u0142otoryjska",
                "addr:housenumber": "144",
                "addr:teryt:simc": 26211,
                "addr:teryt:sym_ul": 954047,
                "contact:phone": "+48 767235900",
                "contact:email": "szkola@zstio.legnica.eu",
                "contact:website": "http:\/\/www.henrykowka.pl",
                "ref:regon": "022233750",
                "operator": "Gmina Legnica",
                "operator:type": "government",
                "amenity": "school",
                "note": "Parent RSPO: 11765"
            }
        },
        {
            "id": 4007,
            "type": "Feature",
            "geometry": {
                "type": "Point",
                "coordinates": [
                    16.15882,
                    51.19927
                ]
            },
            "properties": {
                "isced:level": "1;2",
                "ref:rspo": 4007,
                "official_name": "Szko\u0142a Podstawowa Nr 10 Im Zofii Kossak",
                "name": "Szko\u0142a Podstawowa Nr 10 Im Zofii Kossak",
                "addr:country": "PL",
                "addr:postcode": "59-220",
                "addr:city": "Legnica",
                "addr:street": "ul. Jaworzy\u0144ska",
                "addr:housenumber": "47",
                "addr:teryt:simc": 7409,
                "addr:teryt:sym_ul": 954047,
                "contact:phone": "+48 767233140",
                "contact:email": "sp_10leg@interia.pl",
                "contact:website": "http:\/\/sp10.szkolnastrona.pl",
                "ref:regon": "000708839",
                "ref:vatin": "PL6911062374",
                "operator": "Gmina Legnica",
                "operator:type": "government",
                "amenity": "school"
            }
        },
        {
            "id": 5660,
            "type": "Feature",
            "geometry": {
                "type": "Point",
                "coordinates": [
                    16.17561,
                    51.19949
                ]
            },
            "properties": {
                "ref:rspo": 5660,
                "official_name": "Miejskie Przedszkole Nr 8",
                "name": "Miejskie Przedszkole Nr 8",
                "addr:country": "PL",
                "addr:postcode": "59-220",
                "addr:city": "Legnica",
                "addr:street": "ul. G\u00f3ralska",
                "addr:housenumber": "23\/25",
                "addr:teryt:simc": 5924,
                "addr:teryt:sym_ul": 954047,
                "contact:phone": "+48 768545345",
                "contact:email": "alukjanowicz@mp8.legnica.eu",
                "contact:website": "http:\/\/mp8.legnica.eu",
                "ref:regon": "390051682",
                "ref:vatin": "PL6911060257",
                "operator": "Gmina Legnica",
                "operator:type": "government",
                "amenity": "kindergarten"
            }
        },
        {
            "id": 7121,
            "type": "Feature",
            "geometry": {
                "type": "Point",
                "coordinates": [
                    16.20687,
                    51.19989
                ]
            },
            "properties": {
                "ref:rspo": 7121,
                "official_name": "Przedszkole Niepubliczne \"\u0179r\u00f3de\u0142ko\"",
                "name": "Przedszkole Niepubliczne \"\u0179r\u00f3de\u0142ko\"",
                "addr:country": "PL",
                "addr:postcode": "59-220",
                "addr:city": "Legnica",
                "addr:street": "ul. Mazowiecka",
                "addr:housenumber": "3",
                "addr:teryt:simc": 12540,
                "addr:teryt:sym_ul": 954047,
                "contact:phone": "+48 767237293",
                "contact:email": "pnzrodelko@gmail.com",
                "contact:website": "http:\/\/www.pnzrodelko.pl",
                "ref:regon": "021953927",
                "ref:vatin": "PL6911538167",
                "operator": "Urszula Wegner",
                "operator:type": "private",
                "amenity": "kindergarten"
            }
        },
        {
            "id": 8908,
            "type": "Feature",
            "geometry": {
                "type": "Point",
                "coordinates": [
                    16.20687,
                    51.19986
                ]
            },
            "properties": {
                "ref:rspo": 8908,
                "official_name": "Zesp\u00f3\u0142 Plac\u00f3wek Specjalnych w Legnicy",
                "name": "Zesp\u00f3\u0142 Plac\u00f3wek Specjalnych w Legnicy",
                "addr:country": "PL",
                "addr:postcode": "59-220",
                "addr:city": "Legnica",
                "addr:street": "ul. Mazowiecka",
                "addr:housenumber": "3",
                "addr:teryt:simc": 12540,
                "addr:teryt:sym_ul": 954047,
                "contact:phone": "+48 767233114",
                "contact:email": "sekretariat@zps.legnica.eu",
                "contact:website": "http:\/\/www.zps.legnica.eu",
                "ref:regon": "020335802",
                "ref:vatin": "PL6912348629",
                "operator": "Gmina Legnica",
                "operator:type": "government",
                "landuse": "education",
                "fixme": "amenity=school, amenity=college albo landuse=education w zale\u017cno\u015bci od tego, jakie plac\u00f3wki wchodz\u0105 w sk\u0142ad zespo\u0142u. Sprawd\u017a, kiedy stosowa\u0107 amenity=* a kiedy landuse=education.",
                "note": "Children RSPO: 13882;115431"
            }
        },
        {
            "id": 13882,
            "type": "Feature",
            "geometry": {
                "type": "Point",
                "coordinates": [
                    16.20687,
                    51.199830000000006
                ]
            },
            "properties": {
                "ref:rspo": 13882,
                "official_name": "O\u015brodek Rewalidacyjno-Wychowawczy w Legnicy",
                "name": "O\u015brodek Rewalidacyjno-Wychowawczy w Legnicy",
                "addr:country": "PL",
                "addr:postcode": "59-220",
                "addr:city": "Legnica",
                "addr:street": "ul. Mazowiecka",
                "addr:housenumber": "3",
                "addr:teryt:simc": 12540,
                "addr:teryt:sym_ul": 954047,
                "contact:phone": "+48 767233114",
                "contact:email": "sekretariat@zps.legnica.eu",
                "contact:website": "http:\/\/www.zps.legnica.eu",
                "ref:regon": "020335831",
                "operator": "Gmina Legnica",
                "operator:type": "government",
                "amenity": "school",
                "note": "Parent RSPO: 8908"
            }
        },
        {
            "id": 13884,
            "type": "Feature",
            "geometry": {
                "type": "Point",
                "coordinates": [
                    16.20687,
                    51.1998
                ]
            },
            "properties": {
                "isced:level": "1;2",
                "ref:rspo": 13884,
                "official_name": "Szko\u0142a Podstawowa Specjalna Nr 12 w Legnicy",
                "name": "Szko\u0142a Podstawowa Specjalna Nr 12 w Legnicy",
                "addr:country": "PL",
                "addr:postcode": "59-220",
                "addr:city": "Legnica",
                "addr:street": "ul. Mazowiecka",
                "addr:housenumber": "3",
                "addr:teryt:simc": 12540,
                "addr:teryt:sym_ul": 954047,
                "contact:phone": "+48 767233114",
                "contact:email": "sekretariat@zps.legnica.eu",
                "contact:website": "http:\/\/www.zps.legnica.eu",
                "ref:regon": "391007973",
                "operator": "Gmina Legnica",
                "operator:type": "government",
                "amenity": "school",
                "note": "Parent RSPO: 115431"
            }
        },
        {
            "id": 13887,
            "type": "Feature",
            "geometry": {
                "type": "Point",
                "coordinates": [
                    16.20687,
                    51.19977
                ]
            },
            "properties": {
                "isced:level": "3",
                "ref:rspo": 13887,
                "official_name": "Bran\u017cowa Szko\u0142a Specjalna I Stopnia Nr 7 w Legnicy",
                "name": "Bran\u017cowa Szko\u0142a Specjalna I Stopnia Nr 7 w Legnicy",
                "addr:country": "PL",
                "addr:postcode": "59-220",
                "addr:city": "Legnica",
                "addr:street": "ul. Mazowiecka",
                "addr:housenumber": "3",
                "addr:teryt:simc": 12540,
                "addr:teryt:sym_ul": 954047,
                "contact:phone": "+48 767233114",
                "contact:email": "sekretariat@zps.legnica.eu",
                "contact:website": "http:\/\/www.zps.legnica.eu",
                "ref:regon": "391008010",
                "operator": "Gmina Legnica",
                "operator:type": "government",
                "amenity": "school",
                "note": "Parent RSPO: 115431"
            }
        },
        {
            "id": 13888,
            "type": "Feature",
            "geometry": {
                "type": "Point",
                "coordinates": [
                    16.20687,
                    51.199740000000006
                ]
            },
            "properties": {
                "ref:rspo": 13888,
                "official_name": "Szko\u0142a Specjalna Przysposabiaj\u0105ca Do Pracy w Legnicy",
                "name": "Szko\u0142a Specjalna Przysposabiaj\u0105ca Do Pracy w Legnicy",
                "addr:country": "PL",
                "addr:postcode": "59-220",
                "addr:city": "Legnica",
                "addr:street": "ul. Mazowiecka",
                "addr:housenumber": "3",
                "addr:teryt:simc": 12540,
                "addr:teryt:sym_ul": 954047,
                "contact:phone": "+48 767233117",
                "contact:email": "sekretariat@zps.legnica.eu",
                "contact:website": "http:\/\/www.zps.legnica.eu",
                "ref:regon": "020056841",
                "operator": "Gmina Legnica",
                "operator:type": "government",
                "amenity": "school",
                "note": "Parent RSPO: 115431"
            }
        },
        {
            "id": 13889,
            "type": "Feature",
            "geometry": {
                "type": "Point",
                "coordinates": [
                    16.20687,
                    51.19971
                ]
            },
            "properties": {
                "ref:rspo": 13889,
                "official_name": "Miejskie Przedszkole Specjalne Nr 5",
                "name": "Miejskie Przedszkole Specjalne Nr 5",
                "addr:country": "PL",
                "addr:postcode": "59-220",
                "addr:city": "Legnica",
                "addr:street": "ul. Mazowiecka",
                "addr:housenumber": "3",
                "addr:teryt:simc": 12540,
                "addr:teryt:sym_ul": 954047,
                "contact:phone": "+48 767233117",
                "contact:email": "sekretariat@zps.legnica.eu",
                "contact:website": "http:\/\/www.zps.legnica.eu",
                "ref:regon": "020584758",
                "operator": "Gmina Legnica",
                "operator:type": "government",
                "amenity": "kindergarten",
                "note": "Parent RSPO: 115431"
            }
        },
        {
            "id": 17334,
            "type": "Feature",
            "geometry": {
                "type": "Point",
                "coordinates": [
                    16.16375,
                    51.19996
                ]
            },
            "properties": {
                "ref:rspo": 17334,
                "official_name": "Przedszkole Niepubliczne \"Moja Bajka\"",
                "name": "Przedszkole Niepubliczne \"Moja Bajka\"",
                "addr:country": "PL",
                "addr:postcode": "59-220",
                "addr:city": "Legnica",
                "addr:street": "ul. O\u015bwi\u0119cimska",
                "addr:housenumber": "20",
                "addr:teryt:simc": 15440,
                "addr:teryt:sym_ul": 954047,
                "contact:phone": "+48 768621346",
                "contact:email": "mojabajka.legnica@gmail.com",
                "contact:website": "http:\/\/www.bajka.legnica.pl",
                "ref:regon": "021969561",
                "ref:vatin": "PL6911180866",
                "operator": "Barbara Mazurkiewicz",
                "operator:type": "private",
                "amenity": "kindergarten"
            }
        },
        {
            "id": 5080,
            "type": "Feature",
            "geometry": {
                "type": "Point",
                "coordinates": [
                    16.16275,
                    51.20011
                ]
            },
            "properties": {
                "ref:rspo": 5080,
                "official_name": "Miejskie Przedszkole Nr 4",
                "name": "Miejskie Przedszkole Nr 4",
                "addr:country": "PL",
                "addr:postcode": "59-220",
                "addr:city": "Legnica",
                "addr:street": "ul. \u015bw. El\u017cbiety",
                "addr:housenumber": "8",
                "addr:teryt:simc": 4792,
                "addr:teryt:sym_ul": 954047,
                "contact:phone": "+48 767233137",
                "contact:email": "przedszkole@mp4legnica.com",
                "contact:website": "https:\/\/mp4legnica.edupage.org\/",
                "ref:regon": "390051423",
                "ref:vatin": "PL6911086423",
                "operator": "Gmina Legnica",
                "operator:type": "government",
                "amenity": "kindergarten"
            }
        },
        {
            "id": 12021,
            "type": "Feature",
            "geometry": {
                "type": "Point",
                "coordinates": [
                    16.18937,
                    51.20122
                ]
            },
            "properties": {
                "ref:rspo": 12021,
                "official_name": "Niepubliczne Przedszkole \"Sportfanek\"",
                "name": "Niepubliczne Przedszkole \"Sportfanek\"",
                "addr:country": "PL",
                "addr:postcode": "59-220",
                "addr:city": "Legnica",
                "addr:street": "ul. Radosna",
                "addr:housenumber": "17",
                "addr:teryt:simc": 18322,
                "addr:teryt:sym_ul": 954047,
                "contact:phone": "+48 607031600",
                "contact:email": "info@sportfanek.pl",
                "contact:website": "http:\/\/www.sportfanek.pl",
                "ref:regon": "021959663",
                "ref:vatin": "PL6910011506",
                "operator": "Pawe\u0142 Miko\u0142ajczak",
                "operator:type": "private",
                "amenity": "kindergarten"
            }
        },
        {
            "id": 15295,
            "type": "Feature",
            "geometry": {
                "type": "Point",
                "coordinates": [
                    16.18937,
                    51.20119
                ]
            },
            "properties": {
                "isced:level": "3",
                "ref:rspo": 15295,
                "official_name": "Vii Liceum Og\u00f3lnokszta\u0142c\u0105ce",
                "name": "Vii Liceum Og\u00f3lnokszta\u0142c\u0105ce",
                "addr:country": "PL",
                "addr:postcode": "59-220",
                "addr:city": "Legnica",
                "addr:street": "ul. Radosna",
                "addr:housenumber": "17",
                "addr:teryt:simc": 18322,
                "addr:teryt:sym_ul": 954047,
                "contact:phone": "+48 767233240",
                "contact:email": "sekretariat@7lo.legnica.eu",
                "contact:website": "http:\/\/www.7lo.legnica.eu",
                "ref:regon": "020050034",
                "ref:vatin": "PL6912527349",
                "operator": "Gmina Legnica",
                "operator:type": "government",
                "amenity": "school"
            }
        },
        {
            "id": 120262,
            "type": "Feature",
            "geometry": {
                "type": "Point",
                "coordinates": [
                    16.18937,
                    51.20116
                ]
            },
            "properties": {
                "isced:level": "3",
                "ref:rspo": 120262,
                "official_name": "Liceum Og\u00f3lnokszta\u0142c\u0105ce Mistrzostwa Sportowego Mied\u017a Legnica",
                "name": "Liceum Og\u00f3lnokszta\u0142c\u0105ce Mistrzostwa Sportowego Mied\u017a Legnica",
                "addr:country": "PL",
                "addr:postcode": "59-220",
                "addr:city": "Legnica",
                "addr:street": "ul. Radosna",
                "addr:housenumber": "17",
                "addr:teryt:simc": 18322,
                "addr:teryt:sym_ul": 954047,
                "contact:phone": "+48 767208232",
                "contact:email": "szkola@miedzlegnica.eu",
                "ref:regon": "022257213",
                "ref:vatin": "PL5532427196",
                "operator": "Junior Sp\u00f3\u0142ka Z Ograniczon\u0105 Odpowiedzialno\u015bci\u0105",
                "operator:type": "private",
                "amenity": "school"
            }
        },
        {
            "id": 132510,
            "type": "Feature",
            "geometry": {
                "type": "Point",
                "coordinates": [
                    16.18937,
                    51.20113
                ]
            },
            "properties": {
                "isced:level": "1;2",
                "ref:rspo": 132510,
                "official_name": "Szko\u0142a Podstawowa Mistrzostwa Sportowego Mied\u017a Legnica",
                "name": "Szko\u0142a Podstawowa Mistrzostwa Sportowego Mied\u017a Legnica",
                "addr:country": "PL",
                "addr:postcode": "59-220",
                "addr:city": "Legnica",
                "addr:street": "ul. Radosna",
                "addr:housenumber": "17",
                "addr:teryt:simc": 18322,
                "addr:teryt:sym_ul": 954047,
                "contact:phone": "+48 767208232",
                "contact:email": "szkola@miedzlegnica.eu",
                "ref:regon": "365697136",
                "operator": "Junior Sp\u00f3\u0142ka Z Ograniczon\u0105 Odpowiedzialno\u015bci\u0105",
                "operator:type": "private",
                "amenity": "school"
            }
        },
        {
            "id": 276549,
            "type": "Feature",
            "geometry": {
                "type": "Point",
                "coordinates": [
                    16.18937,
                    51.2011
                ]
            },
            "properties": {
                "isced:level": "3",
                "ref:rspo": 276549,
                "official_name": "Europejskie Liceum Og\u00f3lnokszta\u0142c\u0105ce w Legnicy",
                "name": "Europejskie Liceum Og\u00f3lnokszta\u0142c\u0105ce w Legnicy",
                "addr:country": "PL",
                "addr:postcode": "59-220",
                "addr:city": "Legnica",
                "addr:street": "ul. Radosna",
                "addr:housenumber": "17",
                "addr:teryt:simc": 18322,
                "addr:teryt:sym_ul": 954047,
                "contact:phone": "+48 757210470",
                "ref:regon": "387218041",
                "operator": "Dpfa Europrymus Sp\u00f3\u0142ka Z Ograniczon\u0105 Odpowiedzialno\u015bci\u0105",
                "operator:type": "consortium",
                "amenity": "school"
            }
        },
        {
            "id": 16038,
            "type": "Feature",
            "geometry": {
                "type": "Point",
                "coordinates": [
                    16.14936,
                    51.20134
                ]
            },
            "properties": {
                "ref:rspo": 16038,
                "official_name": "O\u015brodek Doskonalenia Kadr Rada Federacji Stowarzysze\u0144 Naukowo Technicznych Naczelnej Organizacji Technicznej \"Zag\u0142\u0119bia Miedziowego\" w Legnicy",
                "name": "O\u015brodek Doskonalenia Kadr Rada Federacji Stowarzysze\u0144 Naukowo Technicznych Naczelnej Organizacji Technicznej \"Zag\u0142\u0119bia Miedziowego\" w Legnicy",
                "addr:country": "PL",
                "addr:postcode": "59-220",
                "addr:city": "Legnica",
                "addr:street": "ul. Z\u0142otoryjska",
                "addr:housenumber": "87",
                "addr:teryt:simc": 26211,
                "addr:teryt:sym_ul": 954047,
                "contact:phone": "+48 768627382",
                "contact:email": "odk@not.legnica.pl",
                "contact:website": "http:\/\/www.not.legnica.pl",
                "ref:regon": "021966210",
                "ref:vatin": "PL6910205334",
                "operator": "Rada Federacji Stowarzysze\u0144 Naukowo-Technicznych Naczelnej Organizacji Technicznej \"Zag\u0142\u0119bia Miedziowego\" W Legnicy",
                "operator:type": "ngo",
                "fixme": "w zale\u017cno\u015bci od przedmiotu dzia\u0142alno\u015bci (np. amenity=training + training=*, amenity=dancing_school, amenity=language_school, amenity=music_school)"
            }
        },
        {
            "id": 88553,
            "type": "Feature",
            "geometry": {
                "type": "Point",
                "coordinates": [
                    16.15483,
                    51.20162
                ]
            },
            "properties": {
                "ref:rspo": 88553,
                "official_name": "Centrum Edukacji Doros\u0142ych",
                "name": "Centrum Edukacji Doros\u0142ych",
                "addr:country": "PL",
                "addr:postcode": "59-220",
                "addr:city": "Legnica",
                "addr:street": "ul. Tadeusza Ko\u015bciuszki",
                "addr:housenumber": "27",
                "addr:door": "1",
                "addr:teryt:simc": 9582,
                "addr:teryt:sym_ul": 954047,
                "contact:phone": "+48 768624420",
                "contact:email": "biuro@twwp.legnica.pl",
                "contact:website": "http:\/\/www.twwp.legnica.pl",
                "ref:regon": "022012894",
                "ref:vatin": "PL6910008390",
                "operator": "Towarzystwo Wolnej Wszechnicy Polskiej Oddzia\u0142 W Legnicy",
                "operator:type": "ngo",
                "fixme": "w zale\u017cno\u015bci od przedmiotu dzia\u0142alno\u015bci (np. amenity=training + training=*, amenity=dancing_school, amenity=language_school, amenity=music_school)"
            }
        },
        {
            "id": 114551,
            "type": "Feature",
            "geometry": {
                "type": "Point",
                "coordinates": [
                    16.16485,
                    51.20165
                ]
            },
            "properties": {
                "ref:rspo": 114551,
                "official_name": "Niepubliczne Przedszkole \"Chatka Skrzatka\"",
                "name": "Niepubliczne Przedszkole \"Chatka Skrzatka\"",
                "addr:country": "PL",
                "addr:postcode": "59-220",
                "addr:city": "Legnica",
                "addr:street": "ul. Adama Mickiewicza",
                "addr:housenumber": "31",
                "addr:door": "1",
                "addr:teryt:simc": 12740,
                "addr:teryt:sym_ul": 954047,
                "contact:phone": "+48 888375775",
                "contact:email": "przedszkole@chatkaskrzatka.eu",
                "contact:website": "http:\/\/www.chatkaskrzatka.eu",
                "ref:regon": "022137325",
                "ref:vatin": "PL6911115768",
                "operator": "Gra\u017cyna Czajkowska",
                "operator:type": "private",
                "amenity": "kindergarten"
            }
        },
        {
            "id": 115431,
            "type": "Feature",
            "geometry": {
                "type": "Point",
                "coordinates": [
                    16.20653,
                    51.20167
                ]
            },
            "properties": {
                "ref:rspo": 115431,
                "official_name": "Specjalny O\u015brodek Szkolno-Wychowawczy",
                "name": "Specjalny O\u015brodek Szkolno-Wychowawczy",
                "addr:country": "PL",
                "addr:postcode": "59-220",
                "addr:city": "Legnica",
                "addr:street": "ul. Mazowiecka",
                "addr:housenumber": "1-7",
                "addr:teryt:simc": 12540,
                "addr:teryt:sym_ul": 954047,
                "contact:phone": "+48 767233114",
                "contact:email": "sekretariat@zps.legnica.eu",
                "contact:website": "http:\/\/www.zps.legnica.eu",
                "ref:regon": "000708963",
                "operator": "Gmina Legnica",
                "operator:type": "government",
                "amenity": "school",
                "note": "Children RSPO: 13884;13887;13888;13889Parent RSPO: 8908"
            }
        },
        {
            "id": 5285,
            "type": "Feature",
            "geometry": {
                "type": "Point",
                "coordinates": [
                    16.14964,
                    51.20233
                ]
            },
            "properties": {
                "isced:level": "1;2",
                "ref:rspo": 5285,
                "official_name": "Prywatna Szko\u0142a Podstawowa",
                "name": "Prywatna Szko\u0142a Podstawowa",
                "addr:country": "PL",
                "addr:postcode": "59-220",
                "addr:city": "Legnica",
                "addr:street": "ul. Hutnik\u00f3w",
                "addr:housenumber": "3",
                "addr:teryt:simc": 6832,
                "addr:teryt:sym_ul": 954047,
                "contact:phone": "+48 768552839",
                "contact:email": "prywatnaszkola@op.pl",
                "contact:website": "http:\/\/www.prywatnaszkola.pl",
                "ref:regon": "021954743",
                "operator": "Teresa Jackowska",
                "operator:type": "private",
                "amenity": "school"
            }
        },
        {
            "id": 115203,
            "type": "Feature",
            "geometry": {
                "type": "Point",
                "coordinates": [
                    16.14548,
                    51.20302
                ]
            },
            "properties": {
                "ref:rspo": 115203,
                "official_name": "Centrum Kszta\u0142cenia Zawodowego I Ustawicznego w Legnicy",
                "name": "Centrum Kszta\u0142cenia Zawodowego I Ustawicznego w Legnicy",
                "addr:country": "PL",
                "addr:postcode": "59-220",
                "addr:city": "Legnica",
                "addr:street": "ul. Lotnicza",
                "addr:housenumber": "26",
                "addr:teryt:simc": 11270,
                "addr:teryt:sym_ul": 954047,
                "contact:phone": "+48 768524246",
                "contact:email": "sekretariat@ckziu.legnica.eu",
                "contact:website": "http:\/\/www.ckziu.legnica.eu",
                "ref:regon": "022165310",
                "ref:vatin": "PL6912502415",
                "operator": "Gmina Legnica",
                "operator:type": "government",
                "landuse": "education",
                "fixme": "amenity=school, amenity=college albo landuse=education w zale\u017cno\u015bci od tego, jakie plac\u00f3wki wchodz\u0105 w sk\u0142ad zespo\u0142u. Sprawd\u017a, kiedy stosowa\u0107 amenity=* a kiedy landuse=education.",
                "note": "Children RSPO: 4999;14280;14281;14282;122999;133563"
            }
        },
        {
            "id": 4999,
            "type": "Feature",
            "geometry": {
                "type": "Point",
                "coordinates": [
                    16.14548,
                    51.20299
                ]
            },
            "properties": {
                "isced:level": "3",
                "ref:rspo": 4999,
                "official_name": "Technikum Nr 1",
                "name": "Technikum Nr 1",
                "addr:country": "PL",
                "addr:postcode": "59-220",
                "addr:city": "Legnica",
                "addr:street": "ul. Lotnicza",
                "addr:housenumber": "26",
                "addr:teryt:simc": 11270,
                "addr:teryt:sym_ul": 954047,
                "contact:phone": "+48 768524246",
                "contact:email": "sekretariat@ckziu.legnica.eu",
                "contact:website": "http:\/\/www.ckziu.legnica.eu",
                "ref:regon": "391068236",
                "operator": "Gmina Legnica",
                "operator:type": "government",
                "amenity": "school",
                "note": "Parent RSPO: 115203"
            }
        },
        {
            "id": 14280,
            "type": "Feature",
            "geometry": {
                "type": "Point",
                "coordinates": [
                    16.14548,
                    51.202960000000004
                ]
            },
            "properties": {
                "isced:level": "4",
                "ref:rspo": 14280,
                "official_name": "Szko\u0142a Policealna Nr 5",
                "name": "Szko\u0142a Policealna Nr 5",
                "addr:country": "PL",
                "addr:postcode": "59-220",
                "addr:city": "Legnica",
                "addr:street": "ul. Lotnicza",
                "addr:housenumber": "26",
                "addr:teryt:simc": 11270,
                "addr:teryt:sym_ul": 954047,
                "contact:phone": "+48 768524246",
                "contact:email": "sekretariat@ckziu.legnica.eu",
                "contact:website": "http:\/\/www.ckziu.legnica.eu",
                "ref:regon": "020128010",
                "operator": "Gmina Legnica",
                "operator:type": "government",
                "amenity": "college",
                "note": "Parent RSPO: 115203"
            }
        },
        {
            "id": 14281,
            "type": "Feature",
            "geometry": {
                "type": "Point",
                "coordinates": [
                    16.14548,
                    51.20293
                ]
            },
            "properties": {
                "isced:level": "3",
                "ref:rspo": 14281,
                "official_name": "Bran\u017cowa Szko\u0142a I Stopnia Nr 3 w Legnicy",
                "name": "Bran\u017cowa Szko\u0142a I Stopnia Nr 3 w Legnicy",
                "addr:country": "PL",
                "addr:postcode": "59-220",
                "addr:city": "Legnica",
                "addr:street": "ul. Lotnicza",
                "addr:housenumber": "26",
                "addr:teryt:simc": 11270,
                "addr:teryt:sym_ul": 954047,
                "contact:phone": "+48 768524246",
                "contact:email": "sekretariat@ckziu.legnica.eu",
                "contact:website": "http:\/\/www.ckziu.legnica.eu",
                "ref:regon": "021556149",
                "operator": "Gmina Legnica",
                "operator:type": "government",
                "amenity": "school",
                "note": "Parent RSPO: 115203"
            }
        },
        {
            "id": 14282,
            "type": "Feature",
            "geometry": {
                "type": "Point",
                "coordinates": [
                    16.14548,
                    51.2029
                ]
            },
            "properties": {
                "isced:level": "3",
                "ref:rspo": 14282,
                "official_name": "Liceum Og\u00f3lnokszta\u0142c\u0105ce dla Doros\u0142ych",
                "name": "Liceum Og\u00f3lnokszta\u0142c\u0105ce dla Doros\u0142ych",
                "addr:country": "PL",
                "addr:postcode": "59-220",
                "addr:city": "Legnica",
                "addr:street": "ul. Lotnicza",
                "addr:housenumber": "26",
                "addr:teryt:simc": 11270,
                "addr:teryt:sym_ul": 954047,
                "contact:phone": "+48 768524246",
                "contact:email": "sekretariat@ckziu.legnica.eu",
                "contact:website": "http:\/\/www.ckziu.legnica.eu",
                "ref:regon": "391008688",
                "operator": "Gmina Legnica",
                "operator:type": "government",
                "amenity": "school",
                "note": "Parent RSPO: 115203"
            }
        },
        {
            "id": 122999,
            "type": "Feature",
            "geometry": {
                "type": "Point",
                "coordinates": [
                    16.14548,
                    51.202870000000004
                ]
            },
            "properties": {
                "ref:rspo": 122999,
                "official_name": "Centrum Kszta\u0142cenia Zawodowego w Legnicy",
                "name": "Centrum Kszta\u0142cenia Zawodowego w Legnicy",
                "addr:country": "PL",
                "addr:postcode": "59-220",
                "addr:city": "Legnica",
                "addr:street": "ul. Lotnicza",
                "addr:housenumber": "26",
                "addr:teryt:simc": 11270,
                "addr:teryt:sym_ul": 954047,
                "contact:phone": "+48 768512126",
                "contact:email": "sekretariat@ckziu.legnica.eu",
                "contact:website": "http:\/\/www.ckziu.legnica.eu",
                "ref:regon": "391008694",
                "operator": "Gmina Legnica",
                "operator:type": "government",
                "fixme": "w zale\u017cno\u015bci od przedmiotu dzia\u0142alno\u015bci (np. amenity=training + training=*, amenity=dancing_school, amenity=language_school, amenity=music_school) albo amenity=school, amenity=college, albo landuse=education w zale\u017cno\u015bci od tego, jakie plac\u00f3wki wchodz\u0105 w sk\u0142ad zespo\u0142u. Sprawd\u017a, kiedy stosowa\u0107 amenity=* a kiedy landuse=education.",
                "note": "Parent RSPO: 115203"
            }
        },
        {
            "id": 133563,
            "type": "Feature",
            "geometry": {
                "type": "Point",
                "coordinates": [
                    16.14548,
                    51.20284
                ]
            },
            "properties": {
                "isced:level": "1;2",
                "ref:rspo": 133563,
                "official_name": "Szko\u0142a Podstawowa dla Doros\u0142ych w Legnicy",
                "name": "Szko\u0142a Podstawowa dla Doros\u0142ych w Legnicy",
                "addr:country": "PL",
                "addr:postcode": "59-220",
                "addr:city": "Legnica",
                "addr:street": "ul. Lotnicza",
                "addr:housenumber": "26",
                "addr:teryt:simc": 11270,
                "addr:teryt:sym_ul": 954047,
                "contact:phone": "+48 767233292",
                "contact:website": "http:\/\/www.ckziu.legnica.eu",
                "ref:regon": "367417448",
                "operator": "Gmina Legnica",
                "operator:type": "government",
                "amenity": "school",
                "note": "Parent RSPO: 115203"
            }
        },
        {
            "id": 5426,
            "type": "Feature",
            "geometry": {
                "type": "Point",
                "coordinates": [
                    16.14106,
                    51.20314
                ]
            },
            "properties": {
                "ref:rspo": 5426,
                "official_name": "Przedszkole Niepubliczne \" Weso\u0142a Dwudziestka\"",
                "name": "Przedszkole Niepubliczne \" Weso\u0142a Dwudziestka\"",
                "addr:country": "PL",
                "addr:postcode": "59-220",
                "addr:city": "Legnica",
                "addr:street": "ul. Marynarska",
                "addr:housenumber": "31",
                "addr:teryt:simc": 12427,
                "addr:teryt:sym_ul": 954047,
                "contact:phone": "+48 768620314",
                "contact:email": "pnwesoladwudziestka@gmail.com",
                "ref:regon": "021954720",
                "ref:vatin": "PL6911089634",
                "operator": "Jolanta Stawicka",
                "operator:type": "private",
                "amenity": "kindergarten"
            }
        },
        {
            "id": 6715,
            "type": "Feature",
            "geometry": {
                "type": "Point",
                "coordinates": [
                    16.14106,
                    51.203109999999995
                ]
            },
            "properties": {
                "isced:level": "1;2",
                "ref:rspo": 6715,
                "official_name": "Szko\u0142a Podstawowa Nr 9",
                "name": "Szko\u0142a Podstawowa Nr 9",
                "addr:country": "PL",
                "addr:postcode": "59-220",
                "addr:city": "Legnica",
                "addr:street": "ul. Marynarska",
                "addr:housenumber": "31",
                "addr:teryt:simc": 12427,
                "addr:teryt:sym_ul": 954047,
                "contact:phone": "+48 767233130",
                "contact:email": "sekretariat@sp9.legnica.eu",
                "contact:website": "http:\/\/www.sp9.legnica.eu",
                "ref:regon": "001012710",
                "ref:vatin": "PL6911070600",
                "operator": "Gmina Legnica",
                "operator:type": "government",
                "amenity": "school"
            }
        },
        {
            "id": 5283,
            "type": "Feature",
            "geometry": {
                "type": "Point",
                "coordinates": [
                    16.1616399,
                    51.20321
                ]
            },
            "properties": {
                "ref:rspo": 5283,
                "official_name": "Przedszkole Niepubliczne \"Kredka\"",
                "name": "Przedszkole Niepubliczne \"Kredka\"",
                "addr:country": "PL",
                "addr:postcode": "59-220",
                "addr:city": "Legnica",
                "addr:street": "ul. Waleriana \u0141ukasi\u0144skiego",
                "addr:housenumber": "4",
                "addr:teryt:simc": 11755,
                "addr:teryt:sym_ul": 954047,
                "contact:phone": "+48 768549045",
                "contact:email": "kredka47@op.pl",
                "ref:regon": "021953755",
                "operator": "Teresa Jackowska",
                "operator:type": "private",
                "amenity": "kindergarten"
            }
        },
        {
            "id": 3964,
            "type": "Feature",
            "geometry": {
                "type": "Point",
                "coordinates": [
                    16.14989,
                    51.20394
                ]
            },
            "properties": {
                "isced:level": "3",
                "ref:rspo": 3964,
                "official_name": "Akademickie Liceum Og\u00f3lnokszta\u0142c\u0105ce w Legnicy",
                "name": "Akademickie Liceum Og\u00f3lnokszta\u0142c\u0105ce w Legnicy",
                "addr:country": "PL",
                "addr:postcode": "59-220",
                "addr:city": "Legnica",
                "addr:street": "ul. Sejmowa",
                "addr:housenumber": "5A",
                "addr:teryt:simc": 19644,
                "addr:teryt:sym_ul": 954047,
                "contact:phone": "+48 767232912",
                "contact:email": "alo@pwsz.legnica.edu.pl",
                "contact:website": "http:\/\/www.alo.legnica.edu.pl",
                "ref:regon": "021950490",
                "ref:vatin": "PL6912168815",
                "operator": "Stowarzyszenie Na Rzecz Rozwoju Pa\u0144stwowej Wy\u017cszej Szko\u0142y Zawodowej Im. Witelona W Legnicy \"Wsp\u00f3lnota Akademicka\"",
                "operator:type": "ngo",
                "amenity": "school"
            }
        },
        {
            "id": 120592,
            "type": "Feature",
            "geometry": {
                "type": "Point",
                "coordinates": [
                    16.14989,
                    51.20391
                ]
            },
            "properties": {
                "ref:rspo": 120592,
                "official_name": "O\u015brodek Szkoleniowy Centrum Nauki I Biznesu \"\u017bak\" w Legnicy",
                "name": "O\u015brodek Szkoleniowy Centrum Nauki I Biznesu \"\u017bak\" w Legnicy",
                "addr:country": "PL",
                "addr:postcode": "59-220",
                "addr:city": "Legnica",
                "addr:street": "ul. Sejmowa",
                "addr:housenumber": "5A",
                "addr:teryt:simc": 19644,
                "addr:teryt:sym_ul": 954047,
                "contact:phone": "+48 768567419",
                "contact:email": "legnica@zak.edu.pl",
                "ref:regon": "022275352",
                "ref:vatin": "PL7292597869",
                "operator": "Centrum Nauki I Biznesu \"\u017bak\" Sp\u00f3\u0142ka Z Ograniczon\u0105 Odpowiedzialno\u015bci\u0105",
                "operator:type": "private",
                "fixme": "w zale\u017cno\u015bci od przedmiotu dzia\u0142alno\u015bci (np. amenity=training + training=*, amenity=dancing_school, amenity=language_school, amenity=music_school)"
            }
        },
        {
            "id": 269445,
            "type": "Feature",
            "geometry": {
                "type": "Point",
                "coordinates": [
                    16.14989,
                    51.203880000000005
                ]
            },
            "properties": {
                "isced:level": "3",
                "ref:rspo": 269445,
                "official_name": "Technikum Akademickie w Legnicy",
                "name": "Technikum Akademickie w Legnicy",
                "addr:country": "PL",
                "addr:postcode": "59-220",
                "addr:city": "Legnica",
                "addr:street": "ul. Sejmowa",
                "addr:housenumber": "5A",
                "addr:teryt:simc": 19644,
                "addr:teryt:sym_ul": 954047,
                "contact:phone": "+48 767232307",
                "contact:email": "sadowskik@pwsz.legnica.edu.pl",
                "ref:regon": "381487113",
                "operator": "Stowarzyszenie Na Rzecz Rozwoju Pa\u0144stwowej Wy\u017cszej Szko\u0142y Zawodowej Im. Witelona W Legnicy \"Wsp\u00f3lnota Akademicka\"",
                "operator:type": "ngo",
                "amenity": "school"
            }
        },
        {
            "id": 11693,
            "type": "Feature",
            "geometry": {
                "type": "Point",
                "coordinates": [
                    16.2184,
                    51.20444
                ]
            },
            "properties": {
                "ref:rspo": 11693,
                "official_name": "Zesp\u00f3\u0142 Szk\u00f3\u0142 Integracyjnych im. Piast\u00f3w \u015aL\u0105skich",
                "name": "Zesp\u00f3\u0142 Szk\u00f3\u0142 Integracyjnych",
                "addr:country": "PL",
                "addr:postcode": "59-220",
                "addr:city": "Legnica",
                "addr:street": "ul. Kazimierza Wierzy\u0144skiego",
                "addr:housenumber": "1",
                "addr:teryt:simc": 24193,
                "addr:teryt:sym_ul": 954047,
                "contact:phone": "+48 767233450",
                "contact:email": "zs1legnica@wp.pl",
                "contact:website": "http:\/\/zsi.legnica.eu",
                "ref:regon": "390241626",
                "ref:vatin": "PL6912072334",
                "operator": "Gmina Legnica",
                "operator:type": "government",
                "landuse": "education",
                "fixme": "amenity=school, amenity=college albo landuse=education w zale\u017cno\u015bci od tego, jakie plac\u00f3wki wchodz\u0105 w sk\u0142ad zespo\u0142u. Sprawd\u017a, kiedy stosowa\u0107 amenity=* a kiedy landuse=education.",
                "note": "Children RSPO: 109550;109552"
            }
        },
        {
            "id": 109550,
            "type": "Feature",
            "geometry": {
                "type": "Point",
                "coordinates": [
                    16.2184,
                    51.204409999999996
                ]
            },
            "properties": {
                "isced:level": "3",
                "ref:rspo": 109550,
                "official_name": "Liceum Og\u00f3lnokszta\u0142c\u0105ce Integracyjne",
                "name": "Liceum Og\u00f3lnokszta\u0142c\u0105ce Integracyjne",
                "addr:country": "PL",
                "addr:postcode": "59-220",
                "addr:city": "Legnica",
                "addr:street": "ul. Kazimierza Wierzy\u0144skiego",
                "addr:housenumber": "1",
                "addr:teryt:simc": 24193,
                "addr:teryt:sym_ul": 954047,
                "contact:phone": "+48 767233450",
                "contact:email": "zs1legnica@wp.pl",
                "contact:website": "http:\/\/zsi.legnica.eu",
                "ref:regon": "391000646",
                "operator": "Gmina Legnica",
                "operator:type": "government",
                "amenity": "school",
                "note": "Parent RSPO: 11693"
            }
        },
        {
            "id": 109552,
            "type": "Feature",
            "geometry": {
                "type": "Point",
                "coordinates": [
                    16.2184,
                    51.20438
                ]
            },
            "properties": {
                "isced:level": "1;2",
                "ref:rspo": 109552,
                "official_name": "Szko\u0142a Podstawowa Nr 20",
                "name": "Szko\u0142a Podstawowa Nr 20",
                "addr:country": "PL",
                "addr:postcode": "59-220",
                "addr:city": "Legnica",
                "addr:street": "ul. Kazimierza Wierzy\u0144skiego",
                "addr:housenumber": "1",
                "addr:teryt:simc": 24193,
                "addr:teryt:sym_ul": 954047,
                "contact:phone": "+48 767233450",
                "contact:email": "zs1legnica@wp.pl",
                "contact:website": "http:\/\/zsi.legnica.eu",
                "ref:regon": "390950222",
                "operator": "Gmina Legnica",
                "operator:type": "government",
                "amenity": "school",
                "note": "Parent RSPO: 11693"
            }
        },
        {
            "id": 12038,
            "type": "Feature",
            "geometry": {
                "type": "Point",
                "coordinates": [
                    16.16619,
                    51.20449
                ]
            },
            "properties": {
                "ref:rspo": 12038,
                "official_name": "Punkt Przedszkolny Harmonia",
                "name": "Punkt Przedszkolny Harmonia",
                "addr:country": "PL",
                "addr:postcode": "59-220",
                "addr:city": "Legnica",
                "addr:street": "ul. Waleriana \u0141ukasi\u0144skiego",
                "addr:housenumber": "27",
                "addr:door": "1",
                "addr:teryt:simc": 11755,
                "addr:teryt:sym_ul": 954047,
                "contact:phone": "+48 515100042",
                "contact:email": "jkj1960@wp.pl",
                "contact:website": "http:\/\/www.punktharmonia.republika.pl",
                "ref:regon": "021959730",
                "ref:vatin": "PL6911513865",
                "operator": "Janusz Kardaszy\u0144ski",
                "operator:type": "private",
                "amenity": "kindergarten"
            }
        },
        {
            "id": 4925,
            "type": "Feature",
            "geometry": {
                "type": "Point",
                "coordinates": [
                    16.18365,
                    51.20452
                ]
            },
            "properties": {
                "ref:rspo": 4925,
                "official_name": "Miejskie Przedszkole Nr 9",
                "name": "Miejskie Przedszkole Nr 9",
                "addr:country": "PL",
                "addr:postcode": "59-220",
                "addr:city": "Legnica",
                "addr:street": "ul. Konstantego Cio\u0142kowskiego",
                "addr:housenumber": "1",
                "addr:teryt:simc": 3089,
                "addr:teryt:sym_ul": 954047,
                "contact:phone": "+48 767210139",
                "contact:email": "dzagrobska@mp9.legnica.eu",
                "contact:website": "http:\/\/www.mp9legnica.szkolnastrona.pl",
                "ref:regon": "390051430",
                "ref:vatin": "PL6911069637",
                "operator": "Gmina Legnica",
                "operator:type": "government",
                "amenity": "kindergarten"
            }
        },
        {
            "id": 5723,
            "type": "Feature",
            "geometry": {
                "type": "Point",
                "coordinates": [
                    16.21593,
                    51.20482
                ]
            },
            "properties": {
                "ref:rspo": 5723,
                "official_name": "Miejskie Przedszkole Nr 18",
                "name": "Miejskie Przedszkole Nr 18",
                "addr:country": "PL",
                "addr:postcode": "59-220",
                "addr:city": "Legnica",
                "addr:street": "ul. Leopolda Staffa",
                "addr:housenumber": "6",
                "addr:teryt:simc": 20798,
                "addr:teryt:sym_ul": 954047,
                "contact:phone": "+48 767228350",
                "contact:email": "aworonowicz@mp18.legnica.eu",
                "contact:website": "http:\/\/www.przedszkolenr18legnica.pl",
                "ref:regon": "390058649",
                "ref:vatin": "PL6911087345",
                "operator": "Gmina Legnica",
                "operator:type": "government",
                "amenity": "kindergarten"
            }
        },
        {
            "id": 15285,
            "type": "Feature",
            "geometry": {
                "type": "Point",
                "coordinates": [
                    16.15722,
                    51.2048599
                ]
            },
            "properties": {
                "ref:rspo": 15285,
                "official_name": "Dolno\u015bL\u0105ski Zak\u0142ad Doskonalenia Zawodowego Oddzia\u0142 I we Wroc\u0142awiu O\u015brodek Kszta\u0142cenia Zawodowego w Legnicy",
                "name": "Dolno\u015bL\u0105ski Zak\u0142ad Doskonalenia Zawodowego Oddzia\u0142 I we Wroc\u0142awiu O\u015brodek Kszta\u0142cenia Zawodowego w Legnicy",
                "addr:country": "PL",
                "addr:postcode": "59-220",
                "addr:city": "Legnica",
                "addr:street": "ul. Muzealna",
                "addr:housenumber": "2",
                "addr:teryt:simc": 13518,
                "addr:teryt:sym_ul": 954047,
                "contact:phone": "+48 768624050",
                "contact:email": "okz.legnica@dzdz.wroc.pl",
                "contact:website": "http:\/\/www.dzdz.wroc.pl",
                "ref:regon": "021967295",
                "ref:vatin": "PL8960004550",
                "operator": "Dolno\u015bl\u0105ski Zak\u0142ad Doskonalenia Zawodowego Oddzia\u0142 I We Wroc\u0142awiu",
                "operator:type": "ngo",
                "fixme": "w zale\u017cno\u015bci od przedmiotu dzia\u0142alno\u015bci (np. amenity=training + training=*, amenity=dancing_school, amenity=language_school, amenity=music_school)"
            }
        },
        {
            "id": 4073,
            "type": "Feature",
            "geometry": {
                "type": "Point",
                "coordinates": [
                    16.15514,
                    51.20487
                ]
            },
            "properties": {
                "ref:rspo": 4073,
                "official_name": "Przedszkole Niepubliczne \"Jedynka\"",
                "name": "Przedszkole Niepubliczne \"Jedynka\"",
                "addr:country": "PL",
                "addr:postcode": "59-220",
                "addr:city": "Legnica",
                "addr:street": "ul. Z\u0142otoryjska",
                "addr:housenumber": "54\/56",
                "addr:teryt:simc": 26211,
                "addr:teryt:sym_ul": 954047,
                "contact:phone": "+48 768622728",
                "contact:email": "niepubliczne@przedszkolejedynka.pl",
                "contact:website": "http:\/\/www.przedszkolejedynka.pl",
                "ref:regon": "021954708",
                "ref:vatin": "PL6911271735",
                "operator": "Danuta \u0141yczko",
                "operator:type": "private",
                "amenity": "kindergarten"
            }
        },
        {
            "id": 48856,
            "type": "Feature",
            "geometry": {
                "type": "Point",
                "coordinates": [
                    16.15961,
                    51.20489
                ]
            },
            "properties": {
                "ref:rspo": 48856,
                "official_name": "Zesp\u00f3\u0142 Szk\u00f3\u0142 Elektryczno-Mechanicznych",
                "name": "Zesp\u00f3\u0142 Szk\u00f3\u0142 Elektryczno-Mechanicznych",
                "addr:country": "PL",
                "addr:postcode": "59-220",
                "addr:city": "Legnica",
                "addr:street": "ul. Fryderyka Skarbka",
                "addr:housenumber": "4",
                "addr:teryt:simc": 19998,
                "addr:teryt:sym_ul": 954047,
                "contact:phone": "+48 768523705",
                "contact:email": "zsemleg1@wp.pl",
                "contact:website": "http:\/\/www.zsem.legnica.pl",
                "ref:regon": "000186252",
                "ref:vatin": "PL6911071226",
                "operator": "Gmina Legnica",
                "operator:type": "government",
                "landuse": "education",
                "fixme": "amenity=school, amenity=college albo landuse=education w zale\u017cno\u015bci od tego, jakie plac\u00f3wki wchodz\u0105 w sk\u0142ad zespo\u0142u. Sprawd\u017a, kiedy stosowa\u0107 amenity=* a kiedy landuse=education.",
                "note": "Children RSPO: 3914;3915;114661"
            }
        },
        {
            "id": 3914,
            "type": "Feature",
            "geometry": {
                "type": "Point",
                "coordinates": [
                    16.15961,
                    51.20486
                ]
            },
            "properties": {
                "isced:level": "3",
                "ref:rspo": 3914,
                "official_name": "Technikum Nr 5 w Legnicy",
                "name": "Technikum Nr 5 w Legnicy",
                "addr:country": "PL",
                "addr:postcode": "59-220",
                "addr:city": "Legnica",
                "addr:street": "ul. Fryderyka Skarbka",
                "addr:housenumber": "4",
                "addr:teryt:simc": 19998,
                "addr:teryt:sym_ul": 954047,
                "contact:phone": "+48 768523705",
                "contact:email": "zsemleg1@wp.pl",
                "contact:website": "http:\/\/www.zsem.legnica.pl",
                "ref:regon": "391007016",
                "operator": "Gmina Legnica",
                "operator:type": "government",
                "amenity": "school",
                "note": "Parent RSPO: 48856"
            }
        },
        {
            "id": 3915,
            "type": "Feature",
            "geometry": {
                "type": "Point",
                "coordinates": [
                    16.15961,
                    51.20483
                ]
            },
            "properties": {
                "isced:level": "3",
                "ref:rspo": 3915,
                "official_name": "Bran\u017cowa Szko\u0142a I Stopnia Nr 1 im. Miko\u0142aja Kopernika w Legnicy",
                "name": "Bran\u017cowa Szko\u0142a I Stopnia Nr 1",
                "addr:country": "PL",
                "addr:postcode": "59-220",
                "addr:city": "Legnica",
                "addr:street": "ul. Fryderyka Skarbka",
                "addr:housenumber": "4",
                "addr:teryt:simc": 19998,
                "addr:teryt:sym_ul": 954047,
                "contact:phone": "+48 768523705",
                "contact:email": "zsemleg1@wp.pl",
                "contact:website": "http:\/\/www.zsem.legnica.pl",
                "ref:regon": "391007039",
                "operator": "Gmina Legnica",
                "operator:type": "government",
                "amenity": "school",
                "note": "Parent RSPO: 48856"
            }
        },
        {
            "id": 114661,
            "type": "Feature",
            "geometry": {
                "type": "Point",
                "coordinates": [
                    16.15961,
                    51.2048
                ]
            },
            "properties": {
                "isced:level": "4",
                "ref:rspo": 114661,
                "official_name": "Szko\u0142a Policealna Nr 1 w Legnicy",
                "name": "Szko\u0142a Policealna Nr 1 w Legnicy",
                "addr:country": "PL",
                "addr:postcode": "59-220",
                "addr:city": "Legnica",
                "addr:street": "ul. Fryderyka Skarbka",
                "addr:housenumber": "4",
                "addr:teryt:simc": 19998,
                "addr:teryt:sym_ul": 954047,
                "contact:phone": "+48 768523705",
                "ref:regon": "391006956",
                "operator": "Gmina Legnica",
                "operator:type": "government",
                "amenity": "college",
                "note": "Parent RSPO: 48856"
            }
        },
        {
            "id": 4111,
            "type": "Feature",
            "geometry": {
                "type": "Point",
                "coordinates": [
                    16.1625799,
                    51.205
                ]
            },
            "properties": {
                "ref:rspo": 4111,
                "official_name": "Zesp\u00f3\u0142 Szk\u00f3\u0142 Ekonomicznych im.stefana \u017beromskiego",
                "name": "Zesp\u00f3\u0142 Szk\u00f3\u0142 Ekonomicznych im.stefana \u017beromskiego",
                "addr:country": "PL",
                "addr:postcode": "59-220",
                "addr:city": "Legnica",
                "addr:street": "pl. S\u0142owia\u0144ski",
                "addr:housenumber": "5",
                "addr:teryt:simc": 20295,
                "addr:teryt:sym_ul": 954047,
                "contact:phone": "+48 767233400",
                "contact:email": "zse@zse.legnica.eu",
                "contact:website": "http:\/\/zse.legnica.eu",
                "ref:regon": "000186996",
                "ref:vatin": "PL6911062440",
                "operator": "Gmina Legnica",
                "operator:type": "government",
                "landuse": "education",
                "fixme": "amenity=school, amenity=college albo landuse=education w zale\u017cno\u015bci od tego, jakie plac\u00f3wki wchodz\u0105 w sk\u0142ad zespo\u0142u. Sprawd\u017a, kiedy stosowa\u0107 amenity=* a kiedy landuse=education.",
                "note": "Children RSPO: 7012;120636"
            }
        },
        {
            "id": 7012,
            "type": "Feature",
            "geometry": {
                "type": "Point",
                "coordinates": [
                    16.1625799,
                    51.204969999999996
                ]
            },
            "properties": {
                "isced:level": "3",
                "ref:rspo": 7012,
                "official_name": "Technikum Nr 2 w Legnicy",
                "name": "Technikum Nr 2 w Legnicy",
                "addr:country": "PL",
                "addr:postcode": "59-220",
                "addr:city": "Legnica",
                "addr:street": "pl. S\u0142owia\u0144ski",
                "addr:housenumber": "5",
                "addr:teryt:simc": 20295,
                "addr:teryt:sym_ul": 954047,
                "contact:phone": "+48 767233400",
                "contact:email": "zse@zse.legnica.eu",
                "contact:website": "http:\/\/www.zse.legnica.eu",
                "ref:regon": "390917319",
                "operator": "Gmina Legnica",
                "operator:type": "government",
                "amenity": "school",
                "note": "Parent RSPO: 4111"
            }
        },
        {
            "id": 120636,
            "type": "Feature",
            "geometry": {
                "type": "Point",
                "coordinates": [
                    16.1625799,
                    51.20494
                ]
            },
            "properties": {
                "isced:level": "4",
                "ref:rspo": 120636,
                "official_name": "Szko\u0142a Policealna Nr 3",
                "name": "Szko\u0142a Policealna Nr 3",
                "addr:country": "PL",
                "addr:postcode": "59-220",
                "addr:city": "Legnica",
                "addr:street": "pl. S\u0142owia\u0144ski",
                "addr:housenumber": "5",
                "addr:teryt:simc": 20295,
                "addr:teryt:sym_ul": 954047,
                "contact:phone": "+48 767233400",
                "contact:email": "zse@zse.legnica.eu",
                "contact:website": "http:\/\/zse.legnica.eu",
                "ref:regon": "390917510",
                "operator": "Gmina Legnica",
                "operator:type": "government",
                "amenity": "college",
                "note": "Parent RSPO: 4111"
            }
        },
        {
            "id": 3691,
            "type": "Feature",
            "geometry": {
                "type": "Point",
                "coordinates": [
                    16.1635,
                    51.20501
                ]
            },
            "properties": {
                "ref:rspo": 3691,
                "official_name": "M\u0142odzie\u017cowe Centrum Kultury",
                "name": "M\u0142odzie\u017cowe Centrum Kultury",
                "addr:country": "PL",
                "addr:postcode": "59-220",
                "addr:city": "Legnica",
                "addr:street": "ul. Adama Mickiewicza",
                "addr:housenumber": "3",
                "addr:teryt:simc": 12740,
                "addr:teryt:sym_ul": 954047,
                "contact:phone": "+48 767233340",
                "contact:email": "mck.legnica@wp.pl",
                "contact:website": "http:\/\/www.mck.legnica.eu",
                "ref:regon": "390734197",
                "ref:vatin": "PL6912091610",
                "operator": "Gmina Legnica",
                "operator:type": "government",
                "fixme": "amenity=community_centre + community_centre:for=juvenile albo amenity=training + training=*"
            }
        },
        {
            "id": 4550,
            "type": "Feature",
            "geometry": {
                "type": "Point",
                "coordinates": [
                    16.16487,
                    51.2052
                ]
            },
            "properties": {
                "ref:rspo": 4550,
                "official_name": "Miejskie Przedszkole Nr 2",
                "name": "Miejskie Przedszkole Nr 2",
                "addr:country": "PL",
                "addr:postcode": "59-220",
                "addr:city": "Legnica",
                "addr:street": "ul. W\u0142adys\u0142awa Reymonta",
                "addr:housenumber": "1",
                "addr:teryt:simc": 18648,
                "addr:teryt:sym_ul": 954047,
                "contact:phone": "+48 768522047",
                "contact:email": "mp2legnica@o2.pl",
                "ref:regon": "390051363",
                "ref:vatin": "PL6911087635",
                "operator": "Gmina Legnica",
                "operator:type": "government",
                "amenity": "kindergarten"
            }
        },
        {
            "id": 15213,
            "type": "Feature",
            "geometry": {
                "type": "Point",
                "coordinates": [
                    16.21744,
                    51.20543
                ]
            },
            "properties": {
                "ref:rspo": 15213,
                "official_name": "Przedszkole Niepubliczne \"T\u0119czowy Zak\u0105tek\"",
                "name": "Przedszkole Niepubliczne \"T\u0119czowy Zak\u0105tek\"",
                "addr:country": "PL",
                "addr:postcode": "59-220",
                "addr:city": "Legnica",
                "addr:street": "ul. Stanis\u0142awa Ignacego Witkiewicza",
                "addr:housenumber": "4",
                "addr:teryt:simc": 24438,
                "addr:teryt:sym_ul": 954047,
                "contact:phone": "+48 768561271",
                "contact:email": "teczowyzakatek@poczta.onet.pl",
                "contact:website": "http:\/\/www.teczowyzakatek.edu.pl",
                "ref:regon": "021967740",
                "ref:vatin": "PL6911306014",
                "operator": "Wioletta Borkowska",
                "operator:type": "private",
                "amenity": "kindergarten"
            }
        },
        {
            "id": 114553,
            "type": "Feature",
            "geometry": {
                "type": "Point",
                "coordinates": [
                    16.16139,
                    51.20573
                ]
            },
            "properties": {
                "ref:rspo": 114553,
                "official_name": "Przedszkole Niepubliczne \"Miedziany Krasnalek\"",
                "name": "Przedszkole Niepubliczne \"Miedziany Krasnalek\"",
                "addr:country": "PL",
                "addr:postcode": "59-220",
                "addr:city": "Legnica",
                "addr:street": "pl. S\u0142owia\u0144ski",
                "addr:housenumber": "1-4",
                "addr:teryt:simc": 20295,
                "addr:teryt:sym_ul": 954047,
                "contact:phone": "+48 767665004",
                "contact:email": "miedzianykrasnalek@gmail.com",
                "contact:website": "http:\/\/www.miedzianykrasnalek.pl",
                "ref:regon": "022137360",
                "ref:vatin": "PL6951464736",
                "operator": "Buturla Krzysztof",
                "operator:type": "private",
                "amenity": "kindergarten"
            }
        },
        {
            "id": 6792,
            "type": "Feature",
            "geometry": {
                "type": "Point",
                "coordinates": [
                    16.181936,
                    51.206218
                ]
            },
            "properties": {
                "isced:level": "1;2",
                "ref:rspo": 6792,
                "official_name": "Szko\u0142a Podstawowa Nr 6 im. H. Sienkiewicza",
                "name": "Szko\u0142a Podstawowa Nr 6",
                "addr:country": "PL",
                "addr:postcode": "59-220",
                "addr:city": "Legnica",
                "addr:street": "al. marsz. J\u00f3zefa Pi\u0142sudskiego",
                "addr:housenumber": "3",
                "addr:teryt:simc": 16270,
                "addr:teryt:sym_ul": 954047,
                "contact:phone": "+48 768540673",
                "contact:email": "sekretariat@sp6.legnica.eu",
                "contact:website": "http:\/\/www.sp6.legnica.pl",
                "ref:regon": "000708822",
                "ref:vatin": "PL6911264066",
                "operator": "Gmina Legnica",
                "operator:type": "government",
                "amenity": "school"
            }
        },
        {
            "id": 3428,
            "type": "Feature",
            "geometry": {
                "type": "Point",
                "coordinates": [
                    16.18964,
                    51.20638
                ]
            },
            "properties": {
                "ref:rspo": 3428,
                "official_name": "Miejskie Przedszkole Specjalne Nr 6 dla Dzieci S\u0142abowidz\u0105cych w Legnicy",
                "name": "Miejskie Przedszkole Specjalne Nr 6 dla Dzieci S\u0142abowidz\u0105cych w Legnicy",
                "addr:country": "PL",
                "addr:postcode": "59-220",
                "addr:city": "Legnica",
                "addr:street": "ul. Andromedy",
                "addr:housenumber": "14",
                "addr:teryt:simc": 294,
                "addr:teryt:sym_ul": 954047,
                "contact:phone": "+48 767233379",
                "contact:email": "dmultan@mp6.legnica.eu",
                "contact:website": "http:\/\/mp6legnica.szkolnastrona.pl",
                "ref:regon": "390394755",
                "ref:vatin": "PL6911060352",
                "operator": "Gmina Legnica",
                "operator:type": "government",
                "amenity": "kindergarten"
            }
        },
        {
            "id": 129850,
            "type": "Feature",
            "geometry": {
                "type": "Point",
                "coordinates": [
                    16.17464,
                    51.20662
                ]
            },
            "properties": {
                "ref:rspo": 129850,
                "official_name": "Punkt Opieki I Edukacji dla Dzieci Przedszkolandia Bambino w Legnicy",
                "name": "Punkt Opieki I Edukacji dla Dzieci Przedszkolandia Bambino w Legnicy",
                "addr:country": "PL",
                "addr:postcode": "59-220",
                "addr:city": "Legnica",
                "addr:street": "ul. Kr\u0119ta",
                "addr:housenumber": "10",
                "addr:teryt:simc": 9925,
                "addr:teryt:sym_ul": 954047,
                "contact:phone": "+48 535085830",
                "contact:email": "przedszkolandiabambino@gmail.com",
                "ref:regon": "363009310",
                "operator": "Anna Parka",
                "operator:type": "private",
                "amenity": "kindergarten"
            }
        },
        {
            "id": 277559,
            "type": "Feature",
            "geometry": {
                "type": "Point",
                "coordinates": [
                    16.17464,
                    51.20659
                ]
            },
            "properties": {
                "ref:rspo": 277559,
                "official_name": "Punkt Przedszkolny Bambino",
                "name": "Punkt Przedszkolny Bambino",
                "addr:country": "PL",
                "addr:postcode": "59-220",
                "addr:city": "Legnica",
                "addr:street": "ul. Kr\u0119ta",
                "addr:housenumber": "10",
                "addr:teryt:simc": 9925,
                "addr:teryt:sym_ul": 954047,
                "contact:phone": "+48 350850830",
                "contact:email": "przedszkolandiabambino@gmail.com",
                "ref:regon": "389116698",
                "operator": "Anna Parka",
                "operator:type": "private",
                "amenity": "kindergarten"
            }
        },
        {
            "id": 5673,
            "type": "Feature",
            "geometry": {
                "type": "Point",
                "coordinates": [
                    16.15686,
                    51.20678
                ]
            },
            "properties": {
                "ref:rspo": 5673,
                "official_name": "Miejskie Przedszkole Nr 10",
                "name": "Miejskie Przedszkole Nr 10",
                "addr:country": "PL",
                "addr:postcode": "59-220",
                "addr:city": "Legnica",
                "addr:street": "ul. Gwarna",
                "addr:housenumber": "4",
                "addr:teryt:simc": 6415,
                "addr:teryt:sym_ul": 954047,
                "contact:phone": "+48 767233368",
                "contact:email": "przedszkole@mp10.legnica.eu",
                "contact:website": "http:\/\/www.mp10legnica.szkolnastrona.pl",
                "ref:regon": "390051469",
                "ref:vatin": "PL6911114444",
                "operator": "Gmina Legnica",
                "operator:type": "government",
                "amenity": "kindergarten"
            }
        },
        {
            "id": 16818,
            "type": "Feature",
            "geometry": {
                "type": "Point",
                "coordinates": [
                    16.16292,
                    51.20693
                ]
            },
            "properties": {
                "isced:level": "4",
                "ref:rspo": 16818,
                "official_name": "Studium Medyczne Teb Edukacja w Legnicy",
                "name": "Studium Medyczne Teb Edukacja w Legnicy",
                "addr:country": "PL",
                "addr:postcode": "59-220",
                "addr:city": "Legnica",
                "addr:street": "ul. \u015bw. Piotra",
                "addr:housenumber": "4",
                "addr:teryt:simc": 16303,
                "addr:teryt:sym_ul": 954047,
                "contact:phone": "+48 768623750",
                "contact:email": "legnica@teb.pl",
                "contact:website": "http:\/\/www.teb.pl",
                "ref:regon": "021972072",
                "ref:vatin": "PL7781456499",
                "operator": "Teb Edukacja Sp\u00f3\u0142ka Z Ograniczon\u0105 Odpowiedzialno\u015bci\u0105",
                "operator:type": "private",
                "amenity": "college"
            }
        },
        {
            "id": 17330,
            "type": "Feature",
            "geometry": {
                "type": "Point",
                "coordinates": [
                    16.16292,
                    51.2069
                ]
            },
            "properties": {
                "isced:level": "4",
                "ref:rspo": 17330,
                "official_name": "Niepubliczna Szko\u0142a Policealna Teb Edukacja w Legnicy",
                "name": "Niepubliczna Szko\u0142a Policealna Teb Edukacja w Legnicy",
                "addr:country": "PL",
                "addr:postcode": "59-220",
                "addr:city": "Legnica",
                "addr:street": "ul. \u015bw. Piotra",
                "addr:housenumber": "4",
                "addr:teryt:simc": 16303,
                "addr:teryt:sym_ul": 954047,
                "contact:phone": "+48 768623750",
                "contact:email": "legnica@teb.pl",
                "contact:website": "http:\/\/www.teb.pl",
                "ref:regon": "021972178",
                "ref:vatin": "PL7781456499",
                "operator": "Teb Edukacja Sp\u00f3\u0142ka Z Ograniczon\u0105 Odpowiedzialno\u015bci\u0105",
                "operator:type": "private",
                "amenity": "college"
            }
        },
        {
            "id": 17333,
            "type": "Feature",
            "geometry": {
                "type": "Point",
                "coordinates": [
                    16.16292,
                    51.20687
                ]
            },
            "properties": {
                "ref:rspo": 17333,
                "official_name": "Teb Edukacja Studium Kszta\u0142cenia Praktycznego",
                "name": "Teb Edukacja Studium Kszta\u0142cenia Praktycznego",
                "addr:country": "PL",
                "addr:postcode": "59-220",
                "addr:city": "Legnica",
                "addr:street": "ul. \u015bw. Piotra",
                "addr:housenumber": "4",
                "addr:teryt:simc": 16303,
                "addr:teryt:sym_ul": 954047,
                "contact:phone": "+48 768623750",
                "contact:email": "legnica@teb.pl",
                "contact:website": "http:\/\/www.teb.pl",
                "ref:regon": "021972215",
                "ref:vatin": "PL7781456499",
                "operator": "Teb Edukacja Sp\u00f3\u0142ka Z Ograniczon\u0105 Odpowiedzialno\u015bci\u0105",
                "operator:type": "private",
                "fixme": "w zale\u017cno\u015bci od przedmiotu dzia\u0142alno\u015bci (np. amenity=training + training=*, amenity=dancing_school, amenity=language_school, amenity=music_school)"
            }
        },
        {
            "id": 132930,
            "type": "Feature",
            "geometry": {
                "type": "Point",
                "coordinates": [
                    16.16292,
                    51.20684
                ]
            },
            "properties": {
                "isced:level": "3",
                "ref:rspo": 132930,
                "official_name": "Technikum Teb Edukacja w Legnicy",
                "name": "Technikum Teb Edukacja w Legnicy",
                "addr:country": "PL",
                "addr:postcode": "59-220",
                "addr:city": "Legnica",
                "addr:street": "ul. \u015bw. Piotra",
                "addr:housenumber": "4",
                "addr:teryt:simc": 16303,
                "addr:teryt:sym_ul": 954047,
                "contact:phone": "+48 767450520",
                "contact:email": "legnica@teb-edukacja.pl",
                "contact:website": "http:\/\/www.teb.pl",
                "ref:regon": "366365991",
                "operator": "Teb Edukacja Sp\u00f3\u0142ka Z Ograniczon\u0105 Odpowiedzialno\u015bci\u0105",
                "operator:type": "private",
                "amenity": "school"
            }
        },
        {
            "id": 4761,
            "type": "Feature",
            "geometry": {
                "type": "Point",
                "coordinates": [
                    16.19454,
                    51.20742
                ]
            },
            "properties": {
                "ref:rspo": 4761,
                "official_name": "Miejskie Przedszkole Nr 13",
                "name": "Miejskie Przedszkole Nr 13",
                "addr:country": "PL",
                "addr:postcode": "59-220",
                "addr:city": "Legnica",
                "addr:street": "ul. Wielkiej Nied\u017awiedzicy",
                "addr:housenumber": "14a",
                "addr:teryt:simc": 24090,
                "addr:teryt:sym_ul": 954047,
                "contact:phone": "+48 768543438",
                "contact:email": "jkubacka@mp13.legnica.eu",
                "contact:website": "http:\/\/www.mp13.legnica.pl",
                "ref:regon": "390051475",
                "ref:vatin": "PL6911060180",
                "operator": "Gmina Legnica",
                "operator:type": "government",
                "amenity": "kindergarten"
            }
        },
        {
            "id": 114567,
            "type": "Feature",
            "geometry": {
                "type": "Point",
                "coordinates": [
                    16.1610357,
                    51.2075394
                ]
            },
            "properties": {
                "ref:rspo": 114567,
                "official_name": "Legnicki O\u015brodek Kszta\u0142cenia Towarzystwa Wiedzy Powszechnej w Legnicy",
                "name": "Legnicki O\u015brodek Kszta\u0142cenia Towarzystwa Wiedzy Powszechnej w Legnicy",
                "addr:country": "PL",
                "addr:postcode": "59-220",
                "addr:city": "Legnica",
                "addr:street": "rynek Rynek",
                "addr:housenumber": "30",
                "addr:teryt:simc": 19252,
                "addr:teryt:sym_ul": 954047,
                "contact:phone": "+48 768524881",
                "contact:email": "twpor@go2.pl",
                "ref:regon": "022137443",
                "ref:vatin": "PL6912254897",
                "operator": "Towarzystwo Wiedzy Powszechnej Oddzia\u0142 Regionalny W Legnicy",
                "operator:type": "ngo",
                "fixme": "w zale\u017cno\u015bci od przedmiotu dzia\u0142alno\u015bci (np. amenity=training + training=*, amenity=dancing_school, amenity=language_school, amenity=music_school)"
            }
        },
        {
            "id": 267293,
            "type": "Feature",
            "geometry": {
                "type": "Point",
                "coordinates": [
                    16.1874499,
                    51.20756
                ]
            },
            "properties": {
                "ref:rspo": 267293,
                "official_name": "Miejskie Przedszkole Nr 12 w Legnicy",
                "name": "Miejskie Przedszkole Nr 12 w Legnicy",
                "addr:country": "PL",
                "addr:postcode": "59-220",
                "addr:city": "Legnica",
                "addr:street": "ul. Plutona",
                "addr:housenumber": "13",
                "addr:teryt:simc": 16484,
                "addr:teryt:sym_ul": 954047,
                "contact:phone": "+48 767208323",
                "contact:email": "astepien@mp12.legnica.eu",
                "ref:regon": "380070670",
                "ref:vatin": "PL6912537810",
                "operator": "Gmina Legnica",
                "operator:type": "government",
                "amenity": "kindergarten"
            }
        },
        {
            "id": 11633,
            "type": "Feature",
            "geometry": {
                "type": "Point",
                "coordinates": [
                    16.16995,
                    51.20764
                ]
            },
            "properties": {
                "isced:level": "3",
                "ref:rspo": 11633,
                "official_name": "Ii Liceum Og\u00f3lnokszta\u0142c\u0105ce im. Stanis\u0142awa Wyspia\u0144skiego",
                "name": "Ii Liceum Og\u00f3lnokszta\u0142c\u0105ce",
                "addr:country": "PL",
                "addr:postcode": "59-220",
                "addr:city": "Legnica",
                "addr:street": "ul. Zielona",
                "addr:housenumber": "17",
                "addr:teryt:simc": 26081,
                "addr:teryt:sym_ul": 954047,
                "contact:phone": "+48 768625288",
                "contact:email": "sekretariat@2lo.legnica.eu",
                "ref:regon": "000712580",
                "ref:vatin": "PL6911191597",
                "operator": "Gmina Legnica",
                "operator:type": "government",
                "amenity": "school"
            }
        },
        {
            "id": 120171,
            "type": "Feature",
            "geometry": {
                "type": "Point",
                "coordinates": [
                    16.18361,
                    51.20769
                ]
            },
            "properties": {
                "ref:rspo": 120171,
                "official_name": "Global Protection Group",
                "name": "Global Protection Group",
                "addr:country": "PL",
                "addr:postcode": "59-220",
                "addr:city": "Legnica",
                "addr:street": "ul. Kozioro\u017cca",
                "addr:housenumber": "9",
                "addr:teryt:simc": 9730,
                "addr:teryt:sym_ul": 954047,
                "contact:phone": "+48 717071534",
                "contact:email": "gpg@globalprotectiongroup.eu",
                "contact:website": "http:\/\/www.globalprotectiongroup.eu",
                "ref:regon": "022256171",
                "ref:vatin": "PL6912218909",
                "operator": "Global Protection Group Przemys\u0142aw Grabowski",
                "operator:type": "consortium",
                "fixme": "w zale\u017cno\u015bci od przedmiotu dzia\u0142alno\u015bci (np. amenity=training + training=*, amenity=dancing_school, amenity=language_school, amenity=music_school)"
            }
        },
        {
            "id": 10791,
            "type": "Feature",
            "geometry": {
                "type": "Point",
                "coordinates": [
                    16.15924,
                    51.20785
                ]
            },
            "properties": {
                "ref:rspo": 10791,
                "official_name": "Zesp\u00f3\u0142 Szk\u00f3\u0142 Muzycznych",
                "name": "Zesp\u00f3\u0142 Szk\u00f3\u0142 Muzycznych",
                "addr:country": "PL",
                "addr:postcode": "59-220",
                "addr:city": "Legnica",
                "addr:street": "ul. Chojnowska",
                "addr:housenumber": "2",
                "addr:teryt:simc": 2828,
                "addr:teryt:sym_ul": 954047,
                "contact:phone": "+48 768622636",
                "contact:email": "zsmuzlca@wp.pl",
                "contact:website": "http:\/\/www.zsmuz.pl",
                "ref:regon": "000743600",
                "ref:vatin": "PL6911073320",
                "operator": "Gmina Legnica",
                "operator:type": "government",
                "landuse": "education",
                "fixme": "amenity=school, amenity=college albo landuse=education w zale\u017cno\u015bci od tego, jakie plac\u00f3wki wchodz\u0105 w sk\u0142ad zespo\u0142u. Sprawd\u017a, kiedy stosowa\u0107 amenity=* a kiedy landuse=education.",
                "note": "Children RSPO: 13421;13422;13424;13425"
            }
        },
        {
            "id": 13421,
            "type": "Feature",
            "geometry": {
                "type": "Point",
                "coordinates": [
                    16.15924,
                    51.20782
                ]
            },
            "properties": {
                "isced:level": "1;2",
                "ref:rspo": 13421,
                "official_name": "Og\u00f3lnokszta\u0142c\u0105ca Szko\u0142a Muzyczna I Stopnia",
                "name": "Og\u00f3lnokszta\u0142c\u0105ca Szko\u0142a Muzyczna I Stopnia",
                "addr:country": "PL",
                "addr:postcode": "59-220",
                "addr:city": "Legnica",
                "addr:street": "ul. Chojnowska",
                "addr:housenumber": "2",
                "addr:teryt:simc": 2828,
                "addr:teryt:sym_ul": 954047,
                "contact:phone": "+48 768622636",
                "contact:email": "zsmuzlca@wp.pl",
                "contact:website": "http:\/\/www.zsmuz.pl",
                "ref:regon": "391023127",
                "ref:vatin": "PL6911073320",
                "operator": "Gmina Legnica",
                "operator:type": "government",
                "amenity": "school",
                "note": "Parent RSPO: 10791"
            }
        },
        {
            "id": 13422,
            "type": "Feature",
            "geometry": {
                "type": "Point",
                "coordinates": [
                    16.15924,
                    51.20779
                ]
            },
            "properties": {
                "isced:level": "3",
                "ref:rspo": 13422,
                "official_name": "Og\u00f3lnokszta\u0142c\u0105ca Szko\u0142a Muzyczna II Stopnia",
                "name": "Og\u00f3lnokszta\u0142c\u0105ca Szko\u0142a Muzyczna II Stopnia",
                "addr:country": "PL",
                "addr:postcode": "59-220",
                "addr:city": "Legnica",
                "addr:street": "ul. Chojnowska",
                "addr:housenumber": "2",
                "addr:teryt:simc": 2828,
                "addr:teryt:sym_ul": 954047,
                "contact:phone": "+48 768622636",
                "contact:email": "zsmuzlca@wp.pl",
                "contact:website": "http:\/\/www.zsmuz.pl",
                "ref:regon": "391023140",
                "ref:vatin": "PL6911073320",
                "operator": "Gmina Legnica",
                "operator:type": "government",
                "amenity": "school",
                "note": "Parent RSPO: 10791"
            }
        },
        {
            "id": 13424,
            "type": "Feature",
            "geometry": {
                "type": "Point",
                "coordinates": [
                    16.15924,
                    51.20776
                ]
            },
            "properties": {
                "ref:rspo": 13424,
                "official_name": "Szko\u0142a Muzyczna I Stopnia",
                "name": "Szko\u0142a Muzyczna I Stopnia",
                "addr:country": "PL",
                "addr:postcode": "59-220",
                "addr:city": "Legnica",
                "addr:street": "ul. Chojnowska",
                "addr:housenumber": "2",
                "addr:teryt:simc": 2828,
                "addr:teryt:sym_ul": 954047,
                "contact:phone": "+48 768622636",
                "contact:email": "zsmuzlca@wp.pl",
                "contact:website": "http:\/\/www.zsmuz.pl",
                "ref:regon": "391023156",
                "ref:vatin": "PL6911073320",
                "operator": "Gmina Legnica",
                "operator:type": "government",
                "amenity": "music_school",
                "note": "Parent RSPO: 10791"
            }
        },
        {
            "id": 13425,
            "type": "Feature",
            "geometry": {
                "type": "Point",
                "coordinates": [
                    16.15924,
                    51.20773
                ]
            },
            "properties": {
                "ref:rspo": 13425,
                "official_name": "Szko\u0142a Muzyczna II Stopnia",
                "name": "Szko\u0142a Muzyczna II Stopnia",
                "addr:country": "PL",
                "addr:postcode": "59-220",
                "addr:city": "Legnica",
                "addr:street": "ul. Chojnowska",
                "addr:housenumber": "2",
                "addr:teryt:simc": 2828,
                "addr:teryt:sym_ul": 954047,
                "contact:phone": "+48 768622636",
                "contact:email": "zsmuzlca@wp.pl",
                "contact:website": "http:\/\/www.zsmuz.pl",
                "ref:regon": "391023133",
                "operator": "Gmina Legnica",
                "operator:type": "government",
                "amenity": "music_school",
                "note": "Parent RSPO: 10791"
            }
        },
        {
            "id": 14868,
            "type": "Feature",
            "geometry": {
                "type": "Point",
                "coordinates": [
                    16.17233,
                    51.2079
                ]
            },
            "properties": {
                "ref:rspo": 14868,
                "official_name": "Szkolne Schronisko M\u0142odzie\u017cowe",
                "name": "Szkolne Schronisko M\u0142odzie\u017cowe",
                "addr:country": "PL",
                "addr:postcode": "59-220",
                "addr:city": "Legnica",
                "addr:street": "ul. Henryka Jordana",
                "addr:housenumber": "17",
                "addr:teryt:simc": 7606,
                "addr:teryt:sym_ul": 954047,
                "contact:phone": "+48 767233323",
                "contact:email": "recepcjassm@legnica.eu",
                "contact:website": "http:\/\/ssm.legnica.eu",
                "ref:regon": "001012637",
                "ref:vatin": "PL6912149700",
                "operator": "Gmina Legnica",
                "operator:type": "government",
                "tourism": "hostel"
            }
        },
        {
            "id": 17335,
            "type": "Feature",
            "geometry": {
                "type": "Point",
                "coordinates": [
                    16.15602,
                    51.20817
                ]
            },
            "properties": {
                "isced:level": "1;2",
                "ref:rspo": 17335,
                "official_name": "Szko\u0142a Podstawowa Nr 4 im. W\u0142odzimierza Puchalskiego",
                "name": "Szko\u0142a Podstawowa Nr 4",
                "addr:country": "PL",
                "addr:postcode": "59-220",
                "addr:city": "Legnica",
                "addr:street": "ul. Piastowska",
                "addr:housenumber": "3",
                "addr:teryt:simc": 16046,
                "addr:teryt:sym_ul": 954047,
                "contact:phone": "+48 767233103",
                "contact:email": "sekretariat@sp4.legnica.eu",
                "contact:website": "http:\/\/www.sp4.legnica.eu",
                "ref:regon": "000708800",
                "ref:vatin": "PL6911201723",
                "operator": "Gmina Legnica",
                "operator:type": "government",
                "amenity": "school"
            }
        },
        {
            "id": 6342,
            "type": "Feature",
            "geometry": {
                "type": "Point",
                "coordinates": [
                    16.15122,
                    51.20825
                ]
            },
            "properties": {
                "ref:rspo": 6342,
                "official_name": "Miejskie Przedszkole Nr 16",
                "name": "Miejskie Przedszkole Nr 16",
                "addr:country": "PL",
                "addr:postcode": "59-220",
                "addr:city": "Legnica",
                "addr:street": "ul. \u017bwirki i Wigury",
                "addr:housenumber": "32",
                "addr:teryt:simc": 26608,
                "addr:teryt:sym_ul": 954047,
                "contact:phone": "+48 768620814",
                "contact:email": "bantczak@mp16.legnica.eu",
                "contact:website": "http:\/\/mp16legnica.szkolnastrona.pl",
                "ref:regon": "390051506",
                "ref:vatin": "PL6911087492",
                "operator": "Gmina Legnica",
                "operator:type": "government",
                "amenity": "kindergarten"
            }
        },
        {
            "id": 5586,
            "type": "Feature",
            "geometry": {
                "type": "Point",
                "coordinates": [
                    16.17683,
                    51.20826
                ]
            },
            "properties": {
                "ref:rspo": 5586,
                "official_name": "Miejskie Przedszkole Nr 3",
                "name": "Miejskie Przedszkole Nr 3",
                "addr:country": "PL",
                "addr:postcode": "59-220",
                "addr:city": "Legnica",
                "addr:street": "ul. Rzemie\u015blnicza",
                "addr:housenumber": "10",
                "addr:teryt:simc": 19335,
                "addr:teryt:sym_ul": 954047,
                "contact:phone": "+48 767233360",
                "contact:email": "przedszkole@mp3.legnica.eu",
                "contact:website": "http:\/\/www.mp3legnica.szkolnastrona.pl",
                "ref:regon": "390051386",
                "ref:vatin": "PL6910018075",
                "operator": "Gmina Legnica",
                "operator:type": "government",
                "amenity": "kindergarten"
            }
        },
        {
            "id": 129934,
            "type": "Feature",
            "geometry": {
                "type": "Point",
                "coordinates": [
                    16.18129,
                    51.20839
                ]
            },
            "properties": {
                "ref:rspo": 129934,
                "official_name": "Niepubliczna Poradnia Psychologiczno-Pedagogiczna \"P(R)Omoc\"",
                "name": "Niepubliczna Poradnia Psychologiczno-Pedagogiczna \"P(R)Omoc\"",
                "addr:country": "PL",
                "addr:postcode": "59-220",
                "addr:city": "Legnica",
                "addr:street": "ul. Gwiezdna",
                "addr:housenumber": "8",
                "addr:teryt:simc": 6424,
                "addr:teryt:sym_ul": 954047,
                "contact:phone": "+48 511215223",
                "contact:email": "agatabar72@wp.pl",
                "ref:regon": "363125631",
                "operator": "Agata Baranowicz",
                "operator:type": "private",
                "fixme": "w zale\u017cno\u015bci od przedmiotu dzia\u0142alno\u015bci (np. healthcare=counselling + counselling_type=education albo healthcare=psychotherapist)"
            }
        },
        {
            "id": 15266,
            "type": "Feature",
            "geometry": {
                "type": "Point",
                "coordinates": [
                    16.15819,
                    51.2085
                ]
            },
            "properties": {
                "ref:rspo": 15266,
                "official_name": "Internat dla M\u0142odzie\u017cy",
                "name": "Internat dla M\u0142odzie\u017cy",
                "addr:country": "PL",
                "addr:postcode": "59-220",
                "addr:city": "Legnica",
                "addr:street": "ul. Ojc\u00f3w Zbigniewa i Micha\u0142a",
                "addr:housenumber": "1",
                "addr:teryt:simc": 36245,
                "addr:teryt:sym_ul": 954047,
                "contact:phone": "+48 767244214",
                "contact:email": "kol-legnica@franciszkanie.pl",
                "contact:website": "http:\/\/www.kol.franciszkanie.pl",
                "ref:regon": "021967467",
                "ref:vatin": "PL6912150985",
                "operator": "Prowincja \u015awi\u0119tego Antoniego I B\u0142ogos\u0142awionego Jakuba Strzemi\u0119 Zakonu Braci Mniejszych Konwentualnych(Franciszkan\u00f3w)",
                "operator:type": "religious",
                "building": "dormitory"
            }
        },
        {
            "id": 16817,
            "type": "Feature",
            "geometry": {
                "type": "Point",
                "coordinates": [
                    16.15819,
                    51.20847
                ]
            },
            "properties": {
                "isced:level": "4",
                "ref:rspo": 16817,
                "official_name": "Educross Policealna Szko\u0142a Medyczna w Legnicy",
                "name": "Educross Policealna Szko\u0142a Medyczna w Legnicy",
                "addr:country": "PL",
                "addr:postcode": "59-220",
                "addr:city": "Legnica",
                "addr:street": "ul. Ojc\u00f3w Zbigniewa i Micha\u0142a",
                "addr:housenumber": "1",
                "addr:teryt:simc": 36245,
                "addr:teryt:sym_ul": 954047,
                "contact:email": "biuro@educross.pl",
                "contact:website": "http:\/\/www.educross.pl",
                "ref:regon": "021969466",
                "ref:vatin": "PL7251886909",
                "operator": "Intelia Lg Sp\u00f3\u0142ka Z Ograniczon\u0105 Odpowiedzialno\u015bci\u0105",
                "operator:type": "private",
                "amenity": "college"
            }
        },
        {
            "id": 54147,
            "type": "Feature",
            "geometry": {
                "type": "Point",
                "coordinates": [
                    16.15819,
                    51.20844
                ]
            },
            "properties": {
                "isced:level": "3",
                "ref:rspo": 54147,
                "official_name": "Katolickie Liceum Og\u00f3lnokszta\u0142c\u0105ce im. \u015aw.franciszka Z Asy\u017cu w Legnicy",
                "name": "Katolickie Liceum Og\u00f3lnokszta\u0142c\u0105ce",
                "addr:country": "PL",
                "addr:postcode": "59-220",
                "addr:city": "Legnica",
                "addr:street": "ul. Ojc\u00f3w Zbigniewa i Micha\u0142a",
                "addr:housenumber": "1",
                "addr:teryt:simc": 36245,
                "addr:teryt:sym_ul": 954047,
                "contact:phone": "+48 767244214",
                "contact:email": "klo-legnica@franciszkanie.pl",
                "contact:website": "http:\/\/www.klo.franciszkanie.pl",
                "ref:regon": "021999510",
                "ref:vatin": "PL6911189212",
                "operator": "Prowincja \u015awi\u0119tego Antoniego I B\u0142ogos\u0142awionego Jakuba Strzemi\u0119 Zakonu Braci Mniejszych Konwentualnych(Franciszkan\u00f3w)",
                "operator:type": "religious",
                "amenity": "school"
            }
        },
        {
            "id": 196274,
            "type": "Feature",
            "geometry": {
                "type": "Point",
                "coordinates": [
                    16.15819,
                    51.20841
                ]
            },
            "properties": {
                "isced:level": "1;2",
                "ref:rspo": 196274,
                "official_name": "Szko\u0142a Podstawowa im. \u015aw. Franciszka w Legnicy",
                "name": "Szko\u0142a Podstawowa",
                "addr:country": "PL",
                "addr:postcode": "59-220",
                "addr:city": "Legnica",
                "addr:street": "ul. Ojc\u00f3w Zbigniewa i Micha\u0142a",
                "addr:housenumber": "1",
                "addr:teryt:simc": 36245,
                "addr:teryt:sym_ul": 954047,
                "contact:phone": "+48 767244214",
                "contact:email": "sp-legnica@franciszkanie.pl",
                "contact:website": "http:\/\/klo.franciszkanie.pl",
                "ref:regon": "367994163",
                "operator": "Prowincja \u015awi\u0119tego Antoniego I B\u0142ogos\u0142awionego Jakuba Strzemi\u0119 Zakonu Braci Mniejszych Konwentualnych(Franciszkan\u00f3w)",
                "operator:type": "religious",
                "amenity": "school"
            }
        },
        {
            "id": 12952,
            "type": "Feature",
            "geometry": {
                "type": "Point",
                "coordinates": [
                    16.1659599,
                    51.20853
                ]
            },
            "properties": {
                "ref:rspo": 12952,
                "official_name": "Poradnia Psychologiczno-Pedagogiczna Nr 2",
                "name": "Poradnia Psychologiczno-Pedagogiczna Nr 2",
                "addr:country": "PL",
                "addr:postcode": "59-220",
                "addr:city": "Legnica",
                "addr:street": "ul. Witelona",
                "addr:housenumber": "8",
                "addr:teryt:simc": 24429,
                "addr:teryt:sym_ul": 954047,
                "contact:phone": "+48 767233100",
                "contact:email": "sekretariat@cpppidn.legnica.eu",
                "contact:website": "http:\/\/www.ppp2.legnica.eu",
                "ref:regon": "390035507",
                "ref:vatin": "PL6912200080",
                "operator": "Gmina Legnica",
                "operator:type": "government",
                "healthcare": "counselling",
                "counselling_type": "education",
                "fixme": "w zale\u017cno\u015bci od przedmiotu dzia\u0142alno\u015bci (np. healthcare=counselling + counselling_type=education albo healthcare=psychotherapist)",
                "note": "Parent RSPO: 196441"
            }
        },
        {
            "id": 119338,
            "type": "Feature",
            "geometry": {
                "type": "Point",
                "coordinates": [
                    16.16439,
                    51.20891
                ]
            },
            "properties": {
                "isced:level": "4",
                "ref:rspo": 119338,
                "official_name": "Niepubliczna Szko\u0142a Policealna Aktywizacji Zawodowej \"\u017bak\" w Legnicy",
                "name": "Niepubliczna Szko\u0142a Policealna Aktywizacji Zawodowej \"\u017bak\" w Legnicy",
                "addr:country": "PL",
                "addr:postcode": "59-220",
                "addr:city": "Legnica",
                "addr:street": "ul. Naj\u015bwi\u0119tszej Marii Panny",
                "addr:housenumber": "18",
                "addr:teryt:simc": 13947,
                "addr:teryt:sym_ul": 954047,
                "contact:phone": "+48 768567419",
                "contact:email": "legnica@zak.edu.pl",
                "contact:website": "http:\/\/www.zak.edu.pl",
                "ref:regon": "022228737",
                "ref:vatin": "PL7292597869",
                "operator": "Centrum Nauki I Biznesu \"\u017bak\" Sp\u00f3\u0142ka Z Ograniczon\u0105 Odpowiedzialno\u015bci\u0105",
                "operator:type": "private",
                "amenity": "college"
            }
        },
        {
            "id": 120274,
            "type": "Feature",
            "geometry": {
                "type": "Point",
                "coordinates": [
                    16.16439,
                    51.20888
                ]
            },
            "properties": {
                "isced:level": "3",
                "ref:rspo": 120274,
                "official_name": "Liceum Og\u00f3lnokszta\u0142cace dla Doros\u0142ych \"\u017bak\" w Legnicy",
                "name": "Liceum Og\u00f3lnokszta\u0142cace dla Doros\u0142ych \"\u017bak\" w Legnicy",
                "addr:country": "PL",
                "addr:postcode": "59-220",
                "addr:city": "Legnica",
                "addr:street": "ul. Naj\u015bwi\u0119tszej Marii Panny",
                "addr:housenumber": "18",
                "addr:teryt:simc": 13947,
                "addr:teryt:sym_ul": 954047,
                "contact:phone": "+48 768567419",
                "contact:email": "legnica@zak.edu.pl",
                "ref:regon": "022257220",
                "ref:vatin": "PL7292597869",
                "operator": "Centrum Nauki I Biznesu \"\u017bak\" Sp\u00f3\u0142ka Z Ograniczon\u0105 Odpowiedzialno\u015bci\u0105",
                "operator:type": "private",
                "amenity": "school"
            }
        },
        {
            "id": 266536,
            "type": "Feature",
            "geometry": {
                "type": "Point",
                "coordinates": [
                    16.16439,
                    51.208850000000005
                ]
            },
            "properties": {
                "isced:level": "4",
                "ref:rspo": 266536,
                "official_name": "Niepubliczna Szko\u0142a Policealna Opieki Medycznej \"\u017bak\" w Legnicy",
                "name": "Niepubliczna Szko\u0142a Policealna Opieki Medycznej \"\u017bak\" w Legnicy",
                "addr:country": "PL",
                "addr:postcode": "59-220",
                "addr:city": "Legnica",
                "addr:street": "ul. Naj\u015bwi\u0119tszej Marii Panny",
                "addr:housenumber": "18",
                "addr:teryt:simc": 13947,
                "addr:teryt:sym_ul": 954047,
                "contact:phone": "+48 768567419",
                "contact:email": "legnica@zak.edu.pl",
                "ref:regon": "369548284",
                "operator": "Centrum Nauki I Biznesu \"\u017bak\" Sp\u00f3\u0142ka Z Ograniczon\u0105 Odpowiedzialno\u015bci\u0105",
                "operator:type": "private",
                "amenity": "college"
            }
        },
        {
            "id": 4440,
            "type": "Feature",
            "geometry": {
                "type": "Point",
                "coordinates": [
                    16.18406,
                    51.20901
                ]
            },
            "properties": {
                "isced:level": "1;2",
                "ref:rspo": 4440,
                "official_name": "Szko\u0142a Podstawowa Nr 7 im.konstantego Ildefonsa Ga\u0142czynskiego",
                "name": "Szko\u0142a Podstawowa Nr 7 im.konstantego Ildefonsa Ga\u0142czynskiego",
                "addr:country": "PL",
                "addr:postcode": "59-220",
                "addr:city": "Legnica",
                "addr:street": "ul. Polarna",
                "addr:housenumber": "1",
                "addr:teryt:simc": 16979,
                "addr:teryt:sym_ul": 954047,
                "contact:phone": "+48 767238811",
                "contact:email": "sekretariat@sp7.legnica.eu",
                "contact:website": "http:\/\/www.sp7.legnica.eu",
                "ref:regon": "000841308",
                "ref:vatin": "PL6910018129",
                "operator": "Gmina Legnica",
                "operator:type": "government",
                "amenity": "school"
            }
        },
        {
            "id": 4157,
            "type": "Feature",
            "geometry": {
                "type": "Point",
                "coordinates": [
                    16.1515099,
                    51.2092
                ]
            },
            "properties": {
                "isced:level": "3",
                "ref:rspo": 4157,
                "official_name": "V Liceum Og\u00f3lniokszta\u0142c\u0105ce im. Jana Heweliusza",
                "name": "V Liceum Og\u00f3lniokszta\u0142c\u0105ce",
                "addr:country": "PL",
                "addr:postcode": "59-220",
                "addr:city": "Legnica",
                "addr:street": "ul. Senatorska",
                "addr:housenumber": "32",
                "addr:teryt:simc": 19677,
                "addr:teryt:sym_ul": 954047,
                "contact:phone": "+48 768623919",
                "contact:email": "sekretariat@vlo.legnica.eu",
                "contact:website": "http:\/\/vlo.legnica.eu",
                "ref:regon": "391008330",
                "ref:vatin": "PL6912392234",
                "operator": "Gmina Legnica",
                "operator:type": "government",
                "amenity": "school"
            }
        },
        {
            "id": 16812,
            "type": "Feature",
            "geometry": {
                "type": "Point",
                "coordinates": [
                    16.16578,
                    51.2093
                ]
            },
            "properties": {
                "isced:level": "4",
                "ref:rspo": 16812,
                "official_name": "Educross Policealna Szko\u0142a Zawodowa w Legnicy",
                "name": "Educross Policealna Szko\u0142a Zawodowa w Legnicy",
                "addr:country": "PL",
                "addr:postcode": "59-220",
                "addr:city": "Legnica",
                "addr:street": "ul. Biskupia",
                "addr:housenumber": "3",
                "addr:teryt:simc": 1363,
                "addr:teryt:sym_ul": 954047,
                "contact:email": "biuro@educross.pl",
                "contact:website": "http:\/\/www.educross.pl",
                "ref:regon": "021972050",
                "ref:vatin": "PL7251886909",
                "operator": "Intelia Lg Sp\u00f3\u0142ka Z Ograniczon\u0105 Odpowiedzialno\u015bci\u0105",
                "operator:type": "private",
                "amenity": "college"
            }
        },
        {
            "id": 16813,
            "type": "Feature",
            "geometry": {
                "type": "Point",
                "coordinates": [
                    16.16578,
                    51.20927
                ]
            },
            "properties": {
                "isced:level": "3",
                "ref:rspo": 16813,
                "official_name": "Educross Liceum Og\u00f3lnokszta\u0142c\u0105ce dla Doros\u0142ych w Legnicy",
                "name": "Educross Liceum Og\u00f3lnokszta\u0142c\u0105ce dla Doros\u0142ych w Legnicy",
                "addr:country": "PL",
                "addr:postcode": "59-220",
                "addr:city": "Legnica",
                "addr:street": "ul. Biskupia",
                "addr:housenumber": "3",
                "addr:teryt:simc": 1363,
                "addr:teryt:sym_ul": 954047,
                "contact:email": "biuro@educross.pl",
                "contact:website": "http:\/\/www.educross.pl",
                "ref:regon": "021971948",
                "ref:vatin": "PL7251886909",
                "operator": "Intelia Lg Sp\u00f3\u0142ka Z Ograniczon\u0105 Odpowiedzialno\u015bci\u0105",
                "operator:type": "private",
                "amenity": "school"
            }
        },
        {
            "id": 18254,
            "type": "Feature",
            "geometry": {
                "type": "Point",
                "coordinates": [
                    16.16578,
                    51.20924
                ]
            },
            "properties": {
                "ref:rspo": 18254,
                "official_name": "Educross Centrum Szkoleniowe w Legnicy",
                "name": "Educross Centrum Szkoleniowe w Legnicy",
                "addr:country": "PL",
                "addr:postcode": "59-220",
                "addr:city": "Legnica",
                "addr:street": "ul. Biskupia",
                "addr:housenumber": "3",
                "addr:teryt:simc": 1363,
                "addr:teryt:sym_ul": 954047,
                "contact:phone": "+48 763070944",
                "contact:email": "legnica@atutszkola.pl",
                "contact:website": "http:\/\/www.atutszkola.pl",
                "ref:regon": "021975001",
                "ref:vatin": "PL7251886909",
                "operator": "Intelia Lg Sp\u00f3\u0142ka Z Ograniczon\u0105 Odpowiedzialno\u015bci\u0105",
                "operator:type": "private",
                "fixme": "w zale\u017cno\u015bci od przedmiotu dzia\u0142alno\u015bci (np. amenity=training + training=*, amenity=dancing_school, amenity=language_school, amenity=music_school)"
            }
        },
        {
            "id": 272708,
            "type": "Feature",
            "geometry": {
                "type": "Point",
                "coordinates": [
                    16.16578,
                    51.20921
                ]
            },
            "properties": {
                "isced:level": "1;2",
                "ref:rspo": 272708,
                "official_name": "Educross Szko\u0142a Podstawowa dla Doros\u0142ych w Legnicy",
                "name": "Educross Szko\u0142a Podstawowa dla Doros\u0142ych w Legnicy",
                "addr:country": "PL",
                "addr:postcode": "59-220",
                "addr:city": "Legnica",
                "addr:street": "ul. Biskupia",
                "addr:housenumber": "3",
                "addr:teryt:simc": 1363,
                "addr:teryt:sym_ul": 954047,
                "contact:email": "biuro@educross.pl",
                "contact:website": "http:\/\/www.educross.pl",
                "ref:regon": "384282423",
                "operator": "Intelia Lg Sp\u00f3\u0142ka Z Ograniczon\u0105 Odpowiedzialno\u015bci\u0105",
                "operator:type": "private",
                "amenity": "school"
            }
        },
        {
            "id": 15645,
            "type": "Feature",
            "geometry": {
                "type": "Point",
                "coordinates": [
                    16.1651,
                    51.20935
                ]
            },
            "properties": {
                "ref:rspo": 15645,
                "official_name": "Stowarzyszenie Ksi\u0119gowych w Polsce Plac\u00f3wka Kszta\u0142cenia Biznesowego Oddzia\u0142u Okr\u0119gowego w Legnicy",
                "name": "Stowarzyszenie Ksi\u0119gowych w Polsce Plac\u00f3wka Kszta\u0142cenia Biznesowego Oddzia\u0142u Okr\u0119gowego w Legnicy",
                "addr:country": "PL",
                "addr:postcode": "59-220",
                "addr:city": "Legnica",
                "addr:street": "ul. Naj\u015bwi\u0119tszej Marii Panny",
                "addr:housenumber": "22",
                "addr:teryt:simc": 13947,
                "addr:teryt:sym_ul": 954047,
                "contact:phone": "+48 768621517",
                "contact:email": "biuro@legnica.skwp.pl",
                "contact:website": "http:\/\/www.legnica.skwp.pl",
                "ref:regon": "021965280",
                "ref:vatin": "PL5260307956",
                "operator": "Stowarzyszenie Ksi\u0119gowych W Polsce",
                "operator:type": "ngo",
                "fixme": "w zale\u017cno\u015bci od przedmiotu dzia\u0142alno\u015bci (np. amenity=training + training=*, amenity=dancing_school, amenity=language_school, amenity=music_school)"
            }
        },
        {
            "id": 277854,
            "type": "Feature",
            "geometry": {
                "type": "Point",
                "coordinates": [
                    16.16434,
                    51.20949
                ]
            },
            "properties": {
                "ref:rspo": 277854,
                "official_name": "Przedszkole Piastowskie",
                "name": "Przedszkole Piastowskie",
                "addr:country": "PL",
                "addr:postcode": "59-220",
                "addr:city": "Legnica",
                "addr:street": "ul. Naj\u015bwi\u0119tszej Marii Panny",
                "addr:housenumber": "9",
                "addr:teryt:simc": 13947,
                "addr:teryt:sym_ul": 954047,
                "ref:regon": "389598958",
                "operator": "Zbigniew Lemiesz",
                "operator:type": "private",
                "amenity": "kindergarten"
            }
        },
        {
            "id": 3828,
            "type": "Feature",
            "geometry": {
                "type": "Point",
                "coordinates": [
                    16.13996,
                    51.2095399
                ]
            },
            "properties": {
                "ref:rspo": 3828,
                "official_name": "Przedszkole Niepubliczne Planeta Zdrowia",
                "name": "Przedszkole Niepubliczne Planeta Zdrowia",
                "addr:country": "PL",
                "addr:postcode": "59-220",
                "addr:city": "Legnica",
                "addr:street": "ul. Ma\u0142a",
                "addr:housenumber": "4",
                "addr:teryt:simc": 12098,
                "addr:teryt:sym_ul": 954047,
                "contact:phone": "+48 501753488",
                "contact:email": "biuro@planetazdrowia.eu",
                "contact:website": "http:\/\/www.planetazdrowia.eu",
                "ref:regon": "021942361",
                "ref:vatin": "PL6922465012",
                "operator": "Akademia Przedszkolaka Paluch, Wiernik-Gizicka Sp\u00f3\u0142ka Jawna",
                "operator:type": "private",
                "amenity": "kindergarten"
            }
        },
        {
            "id": 4626,
            "type": "Feature",
            "geometry": {
                "type": "Point",
                "coordinates": [
                    16.16642,
                    51.21035
                ]
            },
            "properties": {
                "isced:level": "3",
                "ref:rspo": 4626,
                "official_name": "I Liceum Og\u00f3lnokszta\u0142c\u0105ce im. Tadeusza Ko\u015bciuszki w Legnicy",
                "name": "I Liceum Og\u00f3lnokszta\u0142c\u0105ce",
                "addr:country": "PL",
                "addr:postcode": "59-220",
                "addr:city": "Legnica",
                "addr:street": "pl. Klasztorny",
                "addr:housenumber": "7",
                "addr:teryt:simc": 8486,
                "addr:teryt:sym_ul": 954047,
                "contact:phone": "+48 768622758",
                "contact:email": "szkola@1liceum.pl",
                "contact:website": "http:\/\/www.1liceum.pl",
                "ref:regon": "390110628",
                "ref:vatin": "PL6911071404",
                "operator": "Gmina Legnica",
                "operator:type": "government",
                "amenity": "school"
            }
        },
        {
            "id": 122256,
            "type": "Feature",
            "geometry": {
                "type": "Point",
                "coordinates": [
                    16.1793894,
                    51.2104332
                ]
            },
            "properties": {
                "ref:rspo": 122256,
                "official_name": "O\u015brodek Kszta\u0142cenia Kursowego Phu \"Dajax\" Centrum Bhp w Legnicy",
                "name": "O\u015brodek Kszta\u0142cenia Kursowego Phu \"Dajax\" Centrum Bhp w Legnicy",
                "addr:country": "PL",
                "addr:postcode": "59-220",
                "addr:city": "Legnica",
                "addr:street": "ul. Stefana Czarnieckiego",
                "addr:housenumber": "36",
                "addr:teryt:simc": 3283,
                "addr:teryt:sym_ul": 954047,
                "contact:phone": "+48 768547951",
                "contact:email": "bhp@dajax.pl",
                "ref:regon": "022365150",
                "ref:vatin": "PL6910000939",
                "operator": "Phu \"Dajax\" Centrum Bhp Krzysztof Bombik",
                "operator:type": "consortium",
                "fixme": "w zale\u017cno\u015bci od przedmiotu dzia\u0142alno\u015bci (np. amenity=training + training=*, amenity=dancing_school, amenity=language_school, amenity=music_school)"
            }
        },
        {
            "id": 196441,
            "type": "Feature",
            "geometry": {
                "type": "Point",
                "coordinates": [
                    16.17081,
                    51.21101
                ]
            },
            "properties": {
                "ref:rspo": 196441,
                "official_name": "Centrum Pomocy Psychologiczno-Pedagogicznej I Doskonalenia Nauczycieli w Legnicy",
                "name": "Centrum Pomocy Psychologiczno-Pedagogicznej I Doskonalenia Nauczycieli w Legnicy",
                "addr:country": "PL",
                "addr:postcode": "59-220",
                "addr:city": "Legnica",
                "addr:street": "ul. Boles\u0142awa Chrobrego",
                "addr:housenumber": "13",
                "addr:teryt:simc": 1742,
                "addr:teryt:sym_ul": 954047,
                "contact:phone": "+48 767233102",
                "contact:email": "sekretariat@cpppidn.legnica.eu",
                "contact:website": "http:\/\/www.cpppidn.legnica.eu",
                "ref:regon": "367992129",
                "ref:vatin": "PL6912528082",
                "operator": "Gmina Legnica",
                "operator:type": "government",
                "landuse": "education",
                "fixme": "amenity=school, amenity=college albo landuse=education w zale\u017cno\u015bci od tego, jakie plac\u00f3wki wchodz\u0105 w sk\u0142ad zespo\u0142u. Sprawd\u017a, kiedy stosowa\u0107 amenity=* a kiedy landuse=education.",
                "note": "Children RSPO: 3735;12952"
            }
        },
        {
            "id": 3735,
            "type": "Feature",
            "geometry": {
                "type": "Point",
                "coordinates": [
                    16.17081,
                    51.21098
                ]
            },
            "properties": {
                "ref:rspo": 3735,
                "official_name": "Poradnia Psychologiczno-Pedagogiczna Nr 1",
                "name": "Poradnia Psychologiczno-Pedagogiczna Nr 1",
                "addr:country": "PL",
                "addr:postcode": "59-220",
                "addr:city": "Legnica",
                "addr:street": "ul. Boles\u0142awa Chrobrego",
                "addr:housenumber": "13",
                "addr:teryt:simc": 1742,
                "addr:teryt:sym_ul": 954047,
                "contact:phone": "+48 767233102",
                "contact:email": "sekretariat@cpppidn.legnica.eu",
                "contact:website": "http:\/\/www.ppp1.legnica.eu",
                "ref:regon": "000708868",
                "ref:vatin": "PL6912200097",
                "operator": "Gmina Legnica",
                "operator:type": "government",
                "healthcare": "counselling",
                "counselling_type": "education",
                "fixme": "w zale\u017cno\u015bci od przedmiotu dzia\u0142alno\u015bci (np. healthcare=counselling + counselling_type=education albo healthcare=psychotherapist)",
                "note": "Parent RSPO: 196441"
            }
        },
        {
            "id": 127759,
            "type": "Feature",
            "geometry": {
                "type": "Point",
                "coordinates": [
                    16.1634526,
                    51.2110699
                ]
            },
            "properties": {
                "ref:rspo": 127759,
                "official_name": "Dolno\u015bL\u0105skie Centrum Kszta\u0142cenia Ustawicznego I J\u0119zykowego Kadr w Legnicy",
                "name": "Dolno\u015bL\u0105skie Centrum Kszta\u0142cenia Ustawicznego I J\u0119zykowego Kadr w Legnicy",
                "addr:country": "PL",
                "addr:postcode": "59-220",
                "addr:city": "Legnica",
                "addr:street": "pl. Zamkowy",
                "addr:housenumber": "1",
                "addr:teryt:simc": 25554,
                "addr:teryt:sym_ul": 954047,
                "contact:phone": "+48 768624864",
                "contact:email": "sekretariat@centrumzamek.pl",
                "contact:website": "http:\/\/centrumzamek.pl",
                "ref:regon": "361830153",
                "operator": "Wojew\u00f3dztwo Dolno\u015bl\u0105skie",
                "operator:type": "government",
                "fixme": "w zale\u017cno\u015bci od przedmiotu dzia\u0142alno\u015bci (np. amenity=training + training=*, amenity=dancing_school, amenity=language_school, amenity=music_school)"
            }
        },
        {
            "id": 10010,
            "type": "Feature",
            "geometry": {
                "type": "Point",
                "coordinates": [
                    16.17361,
                    51.21117
                ]
            },
            "properties": {
                "isced:level": "1;2",
                "ref:rspo": 10010,
                "official_name": "Szko\u0142a Podstawowa Nr 1 im.powstanc\u00f3w Wielkopolskich",
                "name": "Szko\u0142a Podstawowa Nr 1 im.powstanc\u00f3w Wielkopolskich",
                "addr:country": "PL",
                "addr:postcode": "59-220",
                "addr:city": "Legnica",
                "addr:street": "ul. Kamienna",
                "addr:housenumber": "20a",
                "addr:teryt:simc": 7879,
                "addr:teryt:sym_ul": 954047,
                "contact:phone": "+48 768546538",
                "contact:email": "sekretariat@sp1.legnica.eu",
                "contact:website": "http:\/\/sp1.legnica.eu",
                "ref:regon": "000708779",
                "ref:vatin": "PL6911245784",
                "operator": "Gmina Legnica",
                "operator:type": "government",
                "amenity": "school"
            }
        },
        {
            "id": 267294,
            "type": "Feature",
            "geometry": {
                "type": "Point",
                "coordinates": [
                    16.1363147,
                    51.2120409
                ]
            },
            "properties": {
                "ref:rspo": 267294,
                "official_name": "Miejskie Przedszkole Nr 11 w Legnicy",
                "name": "Miejskie Przedszkole Nr 11 w Legnicy",
                "addr:country": "PL",
                "addr:postcode": "59-220",
                "addr:city": "Legnica",
                "addr:street": "ul. Krzemieniecka",
                "addr:housenumber": "1",
                "addr:teryt:simc": 10099,
                "addr:teryt:sym_ul": 954047,
                "contact:phone": "+48 767208202",
                "contact:email": "jorzlowska@mp11.legnica.eu",
                "ref:regon": "380070760",
                "operator": "Gmina Legnica",
                "operator:type": "government",
                "amenity": "kindergarten"
            }
        },
        {
            "id": 6050,
            "type": "Feature",
            "geometry": {
                "type": "Point",
                "coordinates": [
                    16.16814994812,
                    51.213020324707
                ]
            },
            "properties": {
                "ref:rspo": 6050,
                "official_name": "Zesp\u00f3\u0142 Szk\u00f3\u0142 Og\u00f3lnokszta\u0142c\u0105cych Nr 4 im. Bohdana Ihora Antonycza",
                "name": "Zesp\u00f3\u0142 Szk\u00f3\u0142 Og\u00f3lnokszta\u0142c\u0105cych Nr 4",
                "addr:country": "PL",
                "addr:postcode": "59-220",
                "addr:city": "Legnica",
                "addr:street": "ul. Tarasa Szewczenki",
                "addr:housenumber": "10",
                "addr:teryt:simc": 21935,
                "addr:teryt:sym_ul": 954047,
                "contact:phone": "+48 767233106",
                "contact:email": "zso4legnica@op.pl",
                "contact:website": "http:\/\/www.zso4legnica.pl",
                "ref:regon": "000712597",
                "ref:vatin": "PL6912073173",
                "operator": "Gmina Legnica",
                "operator:type": "government",
                "landuse": "education",
                "fixme": "amenity=school, amenity=college albo landuse=education w zale\u017cno\u015bci od tego, jakie plac\u00f3wki wchodz\u0105 w sk\u0142ad zespo\u0142u. Sprawd\u017a, kiedy stosowa\u0107 amenity=* a kiedy landuse=education.",
                "note": "Children RSPO: 6051;133562"
            }
        },
        {
            "id": 12028,
            "type": "Feature",
            "geometry": {
                "type": "Point",
                "coordinates": [
                    16.16814994812,
                    51.212990324707
                ]
            },
            "properties": {
                "isced:level": "4",
                "ref:rspo": 12028,
                "official_name": "Policealna Szko\u0142a Detektyw\u00f3w I Pracownik\u00f3w Ochrony w Legnicy",
                "name": "Policealna Szko\u0142a Detektyw\u00f3w I Pracownik\u00f3w Ochrony w Legnicy",
                "addr:country": "PL",
                "addr:postcode": "59-220",
                "addr:city": "Legnica",
                "addr:street": "ul. Tarasa Szewczenki",
                "addr:housenumber": "10",
                "addr:teryt:simc": 21935,
                "addr:teryt:sym_ul": 954047,
                "contact:phone": "+48 602797099",
                "contact:email": "legnica@certus.edu.pl",
                "contact:website": "http:\/\/www.certus.edu.pl",
                "ref:regon": "021959692",
                "operator": "\"Nauka Bezpiecze\u0144stwo - Przysz\u0142o\u015b\u0107 - Legnica\" Sp\u00f3\u0142ka Z Ograniczon\u0105 Odpowiedzialno\u015bci\u0105 Z Siedzib\u0105 W Lubinie",
                "operator:type": "private",
                "amenity": "college"
            }
        },
        {
            "id": 6051,
            "type": "Feature",
            "geometry": {
                "type": "Point",
                "coordinates": [
                    16.16814994812,
                    51.212960324707005
                ]
            },
            "properties": {
                "isced:level": "3",
                "ref:rspo": 6051,
                "official_name": "Iv Liceum Og\u00f3lnokszta\u0142c\u0105ce",
                "name": "Iv Liceum Og\u00f3lnokszta\u0142c\u0105ce",
                "addr:country": "PL",
                "addr:postcode": "59-220",
                "addr:city": "Legnica",
                "addr:street": "ul. Tarasa Szewczenki",
                "addr:housenumber": "10",
                "addr:teryt:simc": 21935,
                "addr:teryt:sym_ul": 954047,
                "contact:phone": "+48 767233106",
                "contact:email": "zso4legnica@op.pl",
                "contact:website": "http:\/\/www.zso4legnica.pl",
                "ref:regon": "391024859",
                "ref:vatin": "PL6912073173",
                "operator": "Gmina Legnica",
                "operator:type": "government",
                "amenity": "school",
                "note": "Parent RSPO: 6050"
            }
        },
        {
            "id": 133562,
            "type": "Feature",
            "geometry": {
                "type": "Point",
                "coordinates": [
                    16.16814994812,
                    51.212930324707
                ]
            },
            "properties": {
                "isced:level": "1;2",
                "ref:rspo": 133562,
                "official_name": "Szko\u0142a Podstawowa Nr 5 w Legnicy",
                "name": "Szko\u0142a Podstawowa Nr 5 w Legnicy",
                "addr:country": "PL",
                "addr:postcode": "59-220",
                "addr:city": "Legnica",
                "addr:street": "ul. Tarasa Szewczenki",
                "addr:housenumber": "10",
                "addr:teryt:simc": 21935,
                "addr:teryt:sym_ul": 954047,
                "contact:phone": "+48 767233106",
                "contact:email": "zso4legnica@op.pl",
                "contact:website": "http:\/\/www.zso4legnica.pl",
                "ref:regon": "367417490",
                "operator": "Gmina Legnica",
                "operator:type": "government",
                "amenity": "school",
                "note": "Parent RSPO: 6050"
            }
        },
        {
            "id": 15121,
            "type": "Feature",
            "geometry": {
                "type": "Point",
                "coordinates": [
                    16.168539047241,
                    51.213069915771
                ]
            },
            "properties": {
                "isced:level": "1;2",
                "ref:rspo": 15121,
                "official_name": "Niepubliczna Katolicka Szko\u0142a Podstawowa im. \u015awi\u0119tej Rodziny",
                "name": "Niepubliczna Katolicka Szko\u0142a Podstawowa",
                "addr:country": "PL",
                "addr:postcode": "59-220",
                "addr:city": "Legnica",
                "addr:street": "ul. Tarasa Szewczenki",
                "addr:housenumber": "1",
                "addr:teryt:simc": 21935,
                "addr:teryt:sym_ul": 954047,
                "contact:email": "nksp.legnica@wp.pl",
                "ref:regon": "021967020",
                "ref:vatin": "PL6912349238",
                "operator": "Parafia Rzymsko-Katolicka P.w.\u015bwi\u0119tej Rodziny",
                "operator:type": "religious",
                "amenity": "school"
            }
        },
        {
            "id": 274194,
            "type": "Feature",
            "geometry": {
                "type": "Point",
                "coordinates": [
                    16.168539047241,
                    51.213039915771
                ]
            },
            "properties": {
                "ref:rspo": 274194,
                "official_name": "Robo Fly 3D",
                "name": "Robo Fly 3D",
                "addr:country": "PL",
                "addr:postcode": "59-220",
                "addr:city": "Legnica",
                "addr:street": "ul. \u015bw. Maksymiliana Kolbe",
                "addr:housenumber": "7",
                "addr:teryt:simc": 12021,
                "addr:teryt:sym_ul": 954047,
                "contact:email": "jerkol@poczta.fm",
                "ref:regon": "385403308",
                "operator": "Robo Fly 3D Jerzy Ko\u0142odziej",
                "operator:type": "consortium",
                "fixme": "w zale\u017cno\u015bci od przedmiotu dzia\u0142alno\u015bci (np. amenity=training + training=*, amenity=dancing_school, amenity=language_school, amenity=music_school)"
            }
        },
        {
            "id": 277851,
            "type": "Feature",
            "geometry": {
                "type": "Point",
                "coordinates": [
                    16.168539047241,
                    51.213009915771
                ]
            },
            "properties": {
                "ref:rspo": 277851,
                "official_name": "Zesp\u00f3\u0142 Szk\u00f3\u0142 \"Pascal\"",
                "name": "Zesp\u00f3\u0142 Szk\u00f3\u0142 \"Pascal\"",
                "addr:country": "PL",
                "addr:postcode": "59-220",
                "addr:city": "Legnica",
                "addr:street": "ul. Tarasa Szewczenki",
                "addr:housenumber": "1",
                "addr:teryt:simc": 21935,
                "addr:teryt:sym_ul": 954047,
                "contact:phone": "+48 223784630",
                "ref:regon": "389598935",
                "operator": "Federacja Niepublicznych Plac\u00f3wek O\u015bwiatowych Sp\u00f3\u0142ka Z Ograniczon\u0105 Odpowiedzialno\u015bci\u0105",
                "operator:type": "private",
                "landuse": "education",
                "fixme": "amenity=school, amenity=college albo landuse=education w zale\u017cno\u015bci od tego, jakie plac\u00f3wki wchodz\u0105 w sk\u0142ad zespo\u0142u. Sprawd\u017a, kiedy stosowa\u0107 amenity=* a kiedy landuse=education.",
                "note": "Children RSPO: 273813;273815;273816;273820"
            }
        },
        {
            "id": 273813,
            "type": "Feature",
            "geometry": {
                "type": "Point",
                "coordinates": [
                    16.168539047241,
                    51.212979915771
                ]
            },
            "properties": {
                "isced:level": "4",
                "ref:rspo": 273813,
                "official_name": "Zaoczna Policealna Szko\u0142a Zawodowa \"Pascal\" w Legnicy",
                "name": "Zaoczna Policealna Szko\u0142a Zawodowa \"Pascal\" w Legnicy",
                "addr:country": "PL",
                "addr:postcode": "59-220",
                "addr:city": "Legnica",
                "addr:street": "ul. Tarasa Szewczenki",
                "addr:housenumber": "1",
                "addr:teryt:simc": 21935,
                "addr:teryt:sym_ul": 954047,
                "contact:phone": "+48 763070392",
                "contact:email": "legnica@pascal.edu.pl",
                "ref:regon": "384674643",
                "operator": "Federacja Niepublicznych Plac\u00f3wek O\u015bwiatowych Sp\u00f3\u0142ka Z Ograniczon\u0105 Odpowiedzialno\u015bci\u0105",
                "operator:type": "private",
                "amenity": "college",
                "note": "Parent RSPO: 277851"
            }
        },
        {
            "id": 273815,
            "type": "Feature",
            "geometry": {
                "type": "Point",
                "coordinates": [
                    16.168539047241,
                    51.212949915771
                ]
            },
            "properties": {
                "isced:level": "4",
                "ref:rspo": 273815,
                "official_name": "Policealna Szko\u0142a Medyczna \"Pascal\" w Legnicy",
                "name": "Policealna Szko\u0142a Medyczna \"Pascal\" w Legnicy",
                "addr:country": "PL",
                "addr:postcode": "59-220",
                "addr:city": "Legnica",
                "addr:street": "ul. Tarasa Szewczenki",
                "addr:housenumber": "1",
                "addr:teryt:simc": 21935,
                "addr:teryt:sym_ul": 954047,
                "contact:phone": "+48 763070392",
                "contact:email": "legnica@pascal.edu.pl",
                "ref:regon": "384674650",
                "operator": "Federacja Niepublicznych Plac\u00f3wek O\u015bwiatowych Sp\u00f3\u0142ka Z Ograniczon\u0105 Odpowiedzialno\u015bci\u0105",
                "operator:type": "private",
                "amenity": "college",
                "note": "Parent RSPO: 277851"
            }
        },
        {
            "id": 273816,
            "type": "Feature",
            "geometry": {
                "type": "Point",
                "coordinates": [
                    16.168539047241,
                    51.212919915771
                ]
            },
            "properties": {
                "isced:level": "3",
                "ref:rspo": 273816,
                "official_name": "Liceum Og\u00f3lnokszta\u0142c\u0105ce dla Doros\u0142ych \"Pascal\" w Legnicy",
                "name": "Liceum Og\u00f3lnokszta\u0142c\u0105ce dla Doros\u0142ych \"Pascal\" w Legnicy",
                "addr:country": "PL",
                "addr:postcode": "59-220",
                "addr:city": "Legnica",
                "addr:street": "ul. Tarasa Szewczenki",
                "addr:housenumber": "1",
                "addr:teryt:simc": 21935,
                "addr:teryt:sym_ul": 954047,
                "contact:phone": "+48 763070392",
                "contact:email": "legnica@pascal.edu.pl",
                "ref:regon": "384675921",
                "operator": "Federacja Niepublicznych Plac\u00f3wek O\u015bwiatowych Sp\u00f3\u0142ka Z Ograniczon\u0105 Odpowiedzialno\u015bci\u0105",
                "operator:type": "private",
                "amenity": "school",
                "note": "Parent RSPO: 277851"
            }
        },
        {
            "id": 273820,
            "type": "Feature",
            "geometry": {
                "type": "Point",
                "coordinates": [
                    16.168539047241,
                    51.212889915771
                ]
            },
            "properties": {
                "isced:level": "4",
                "ref:rspo": 273820,
                "official_name": "Stacjonarna Policealna Szko\u0142a Medyczna \"Pascal\" w Legnicy",
                "name": "Stacjonarna Policealna Szko\u0142a Medyczna \"Pascal\" w Legnicy",
                "addr:country": "PL",
                "addr:postcode": "59-230",
                "addr:city": "Legnica",
                "addr:street": "ul. Tarasa Szewczenki",
                "addr:housenumber": "1",
                "addr:teryt:simc": 21935,
                "addr:teryt:sym_ul": 954047,
                "contact:phone": "+48 763070392",
                "contact:email": "legnica@pascal.edu.pl",
                "ref:regon": "384681784",
                "operator": "Federacja Niepublicznych Plac\u00f3wek O\u015bwiatowych Sp\u00f3\u0142ka Z Ograniczon\u0105 Odpowiedzialno\u015bci\u0105",
                "operator:type": "private",
                "amenity": "college",
                "note": "Parent RSPO: 277851"
            }
        },
        {
            "id": 4523,
            "type": "Feature",
            "geometry": {
                "type": "Point",
                "coordinates": [
                    16.17394,
                    51.2168599
                ]
            },
            "properties": {
                "ref:rspo": 4523,
                "official_name": "Przedszkole Niepubliczne Hobbit",
                "name": "Przedszkole Niepubliczne Hobbit",
                "addr:country": "PL",
                "addr:postcode": "59-220",
                "addr:city": "Legnica",
                "addr:street": "ul. Gliwicka",
                "addr:housenumber": "19-21",
                "addr:teryt:simc": 5583,
                "addr:teryt:sym_ul": 954047,
                "contact:phone": "+48 697661252",
                "contact:email": "przedszkole@hobbit-akademia.pl",
                "contact:website": "http:\/\/www.hobbit-akademia.pl",
                "ref:regon": "021950366",
                "ref:vatin": "PL8842423596",
                "operator": "\"Impress\" Pankiewicz I Wsp\u00f3lnicy Sp\u00f3\u0142ka Jawna",
                "operator:type": "private",
                "amenity": "kindergarten"
            }
        },
        {
            "id": 16653,
            "type": "Feature",
            "geometry": {
                "type": "Point",
                "coordinates": [
                    16.17318,
                    51.21691
                ]
            },
            "properties": {
                "ref:rspo": 16653,
                "official_name": "Bursa dla M\u0142odzie\u017cy w Legnicy",
                "name": "Bursa dla M\u0142odzie\u017cy w Legnicy",
                "addr:country": "PL",
                "addr:postcode": "59-220",
                "addr:city": "Legnica",
                "addr:street": "ul. Gliwicka",
                "addr:housenumber": "6",
                "addr:teryt:simc": 5583,
                "addr:teryt:sym_ul": 954047,
                "contact:phone": "+48 506220595",
                "contact:email": "bursa@miedzlegnica.eu",
                "contact:website": "http:\/\/www.miedzlegnica.eu",
                "ref:regon": "021966746",
                "ref:vatin": "PL6912477746",
                "operator": "Miejski Klub Sportowy \"Mied\u017a\" Legnica Sp\u00f3\u0142ka Akcyjna",
                "operator:type": "ngo",
                "building": "dormitory"
            }
        },
        {
            "id": 120276,
            "type": "Feature",
            "geometry": {
                "type": "Point",
                "coordinates": [
                    16.17318,
                    51.216879999999996
                ]
            },
            "properties": {
                "isced:level": "1;2",
                "ref:rspo": 120276,
                "official_name": "Niepubliczna Szko\u0142a Podstawowa \"Dar Losu\" w Legnicy",
                "name": "Niepubliczna Szko\u0142a Podstawowa \"Dar Losu\" w Legnicy",
                "addr:country": "PL",
                "addr:postcode": "59-220",
                "addr:city": "Legnica",
                "addr:street": "ul. Gliwicka",
                "addr:housenumber": "6",
                "addr:teryt:simc": 5583,
                "addr:teryt:sym_ul": 954047,
                "contact:phone": "+48 782001332",
                "contact:email": "darlosu1@wp.pl",
                "ref:regon": "022257259",
                "operator": "Stowarzyszenie Przyjaci\u00f3\u0142 Dzieci Z Autyzmem I Innymi Zaburzeniami Rozwojowymi \"Dar Losu\"",
                "operator:type": "ngo",
                "amenity": "school"
            }
        },
        {
            "id": 278808,
            "type": "Feature",
            "geometry": {
                "type": "Point",
                "coordinates": [
                    16.17318,
                    51.21685
                ]
            },
            "properties": {
                "isced:level": "3",
                "ref:rspo": 278808,
                "official_name": "Niepubliczne Liceum Og\u00f3lnokszta\u0142c\u0105ce \"Dar Losu\"",
                "name": "Niepubliczne Liceum Og\u00f3lnokszta\u0142c\u0105ce \"Dar Losu\"",
                "addr:country": "PL",
                "addr:postcode": "59-220",
                "addr:city": "Legnica",
                "addr:street": "ul. Gliwicka",
                "addr:housenumber": "6",
                "addr:teryt:simc": 5583,
                "addr:teryt:sym_ul": 954047,
                "contact:email": "darlosu1@wp.pl",
                "ref:regon": "520080500",
                "operator": "Stowarzyszenie Przyjaci\u00f3\u0142 Dzieci Z Autyzmem I Innymi Zaburzeniami Rozwojowymi \"Dar Losu\"",
                "operator:type": "ngo",
                "amenity": "school"
            }
        },
        {
            "id": 4295,
            "type": "Feature",
            "geometry": {
                "type": "Point",
                "coordinates": [
                    16.15621,
                    51.217
                ]
            },
            "properties": {
                "ref:rspo": 4295,
                "official_name": "Miejskie Przedszkole Nr 7",
                "name": "Miejskie Przedszkole Nr 7",
                "addr:country": "PL",
                "addr:postcode": "59-220",
                "addr:city": "Legnica",
                "addr:street": "ul. S\u0142ubicka",
                "addr:housenumber": "1",
                "addr:teryt:simc": 20308,
                "addr:teryt:sym_ul": 954047,
                "contact:phone": "+48 767210143",
                "contact:email": "mpnr7@poczta.onet.pl",
                "contact:website": "http:\/\/mp7legnica.szkolnastrona.pl",
                "ref:regon": "390069311",
                "ref:vatin": "PL6911245809",
                "operator": "Gmina Legnica",
                "operator:type": "government",
                "amenity": "kindergarten"
            }
        },
        {
            "id": 3772,
            "type": "Feature",
            "geometry": {
                "type": "Point",
                "coordinates": [
                    16.15919,
                    51.21718
                ]
            },
            "properties": {
                "isced:level": "1;2",
                "ref:rspo": 3772,
                "official_name": "Szko\u0142a Podstawowa Nr 2",
                "name": "Szko\u0142a Podstawowa Nr 2",
                "addr:country": "PL",
                "addr:postcode": "59-220",
                "addr:city": "Legnica",
                "addr:street": "ul. G\u0142ogowska",
                "addr:housenumber": "50",
                "addr:teryt:simc": 5614,
                "addr:teryt:sym_ul": 954047,
                "contact:phone": "+48 768623812",
                "contact:email": "sekretariat@sp2.legnica.eu",
                "contact:website": "http:\/\/www.sp2legnica.edupage.org",
                "ref:regon": "000708785",
                "ref:vatin": "PL6911254903",
                "operator": "Gmina Legnica",
                "operator:type": "government",
                "amenity": "school"
            }
        },
        {
            "id": 132459,
            "type": "Feature",
            "geometry": {
                "type": "Point",
                "coordinates": [
                    16.13776,
                    51.21744
                ]
            },
            "properties": {
                "ref:rspo": 132459,
                "official_name": "Niepubliczne Przedszkole Mali Odkrywcy Przedszkole Montessori",
                "name": "Niepubliczne Przedszkole Mali Odkrywcy Przedszkole Montessori",
                "addr:country": "PL",
                "addr:postcode": "59-220",
                "addr:city": "Legnica",
                "addr:street": "ul. Bobrowa",
                "addr:housenumber": "7A",
                "addr:teryt:simc": 1492,
                "addr:teryt:sym_ul": 954047,
                "contact:phone": "+48 763070784",
                "contact:email": "przedszkole@maliodkrywcy.legnica.pl",
                "contact:website": "http:\/\/maliodkrywcy.legnica.pl",
                "ref:regon": "365639950",
                "ref:vatin": "PL6912538063",
                "operator": "Ewelina Wierci\u0144ska",
                "operator:type": "private",
                "amenity": "kindergarten"
            }
        },
        {
            "id": 10312,
            "type": "Feature",
            "geometry": {
                "type": "Point",
                "coordinates": [
                    16.1587,
                    51.21938
                ]
            },
            "properties": {
                "ref:rspo": 10312,
                "official_name": "Zesp\u00f3\u0142 Szk\u00f3\u0142 Samochodowych",
                "name": "Zesp\u00f3\u0142 Szk\u00f3\u0142 Samochodowych",
                "addr:country": "PL",
                "addr:postcode": "59-220",
                "addr:city": "Legnica",
                "addr:street": "ul. S\u0142ubicka",
                "addr:housenumber": "7",
                "addr:teryt:simc": 20308,
                "addr:teryt:sym_ul": 954047,
                "contact:phone": "+48 768622520",
                "contact:email": "szkola@zss.legnica.eu",
                "contact:website": "http:\/\/www.zss.legnica.eu",
                "ref:regon": "000187375",
                "ref:vatin": "PL6911116093",
                "operator": "Gmina Legnica",
                "operator:type": "government",
                "landuse": "education",
                "fixme": "amenity=school, amenity=college albo landuse=education w zale\u017cno\u015bci od tego, jakie plac\u00f3wki wchodz\u0105 w sk\u0142ad zespo\u0142u. Sprawd\u017a, kiedy stosowa\u0107 amenity=* a kiedy landuse=education.",
                "note": "Children RSPO: 13680;13681;13682"
            }
        },
        {
            "id": 13680,
            "type": "Feature",
            "geometry": {
                "type": "Point",
                "coordinates": [
                    16.1587,
                    51.21935
                ]
            },
            "properties": {
                "isced:level": "3",
                "ref:rspo": 13680,
                "official_name": "Technikum Samochodowe",
                "name": "Technikum Samochodowe",
                "addr:country": "PL",
                "addr:postcode": "59-220",
                "addr:city": "Legnica",
                "addr:street": "ul. S\u0142ubicka",
                "addr:housenumber": "7",
                "addr:teryt:simc": 20308,
                "addr:teryt:sym_ul": 954047,
                "contact:phone": "+48 768622520",
                "contact:email": "szkola@zss.legnica.eu",
                "contact:website": "http:\/\/www.zss.legnica.eu",
                "ref:regon": "391007683",
                "ref:vatin": "PL6911116093",
                "operator": "Gmina Legnica",
                "operator:type": "government",
                "amenity": "school",
                "note": "Parent RSPO: 10312"
            }
        },
        {
            "id": 13681,
            "type": "Feature",
            "geometry": {
                "type": "Point",
                "coordinates": [
                    16.1587,
                    51.21932
                ]
            },
            "properties": {
                "isced:level": "3",
                "ref:rspo": 13681,
                "official_name": "Bran\u017cowa Szko\u0142a I Stopnia Nr 2 w Legnicy",
                "name": "Bran\u017cowa Szko\u0142a I Stopnia Nr 2 w Legnicy",
                "addr:country": "PL",
                "addr:postcode": "59-220",
                "addr:city": "Legnica",
                "addr:street": "ul. S\u0142ubicka",
                "addr:housenumber": "7",
                "addr:teryt:simc": 20308,
                "addr:teryt:sym_ul": 954047,
                "contact:phone": "+48 768622520",
                "contact:email": "szkola@zss.legnica.eu",
                "contact:website": "http:\/\/www.zss.legnica.eu",
                "ref:regon": "391007720",
                "ref:vatin": "PL6911116093",
                "operator": "Gmina Legnica",
                "operator:type": "government",
                "amenity": "school",
                "note": "Parent RSPO: 10312"
            }
        },
        {
            "id": 13682,
            "type": "Feature",
            "geometry": {
                "type": "Point",
                "coordinates": [
                    16.1587,
                    51.21929
                ]
            },
            "properties": {
                "isced:level": "4",
                "ref:rspo": 13682,
                "official_name": "Szko\u0142a Policealna Nr 4",
                "name": "Szko\u0142a Policealna Nr 4",
                "addr:country": "PL",
                "addr:postcode": "59-220",
                "addr:city": "Legnica",
                "addr:street": "ul. S\u0142ubicka",
                "addr:housenumber": "7",
                "addr:teryt:simc": 20308,
                "addr:teryt:sym_ul": 954047,
                "contact:phone": "+48 768622520",
                "contact:email": "szkola@zss.legnica.eu",
                "contact:website": "http:\/\/www.zss.legnica.eu",
                "ref:regon": "020105172",
                "ref:vatin": "PL6911116093",
                "operator": "Gmina Legnica",
                "operator:type": "government",
                "amenity": "college",
                "note": "Parent RSPO: 10312"
            }
        },
        {
            "id": 6380,
            "type": "Feature",
            "geometry": {
                "type": "Point",
                "coordinates": [
                    16.1619199,
                    51.2248
                ]
            },
            "properties": {
                "ref:rspo": 6380,
                "official_name": "Ja\u015bminowa Akademia",
                "name": "Ja\u015bminowa Akademia",
                "addr:country": "PL",
                "addr:postcode": "59-220",
                "addr:city": "Legnica",
                "addr:street": "ul. Magnoliowa",
                "addr:housenumber": "4",
                "addr:teryt:simc": 11908,
                "addr:teryt:sym_ul": 954047,
                "contact:phone": "+48 768503813",
                "contact:email": "jasminowaakademia@wp.pl",
                "contact:website": "http:\/\/www.jasminowaakademia.pl",
                "ref:regon": "021954424",
                "ref:vatin": "PL8951944199",
                "operator": "Ja\u015bminowa Akademia Sp\u00f3\u0142ka Z Ograniczon\u0105 Odpowiedzialno\u015bci\u0105",
                "operator:type": "private",
                "amenity": "kindergarten"
            }
        },
        {
            "id": 12020,
            "type": "Feature",
            "geometry": {
                "type": "Point",
                "coordinates": [
                    16.17698,
                    51.22764
                ]
            },
            "properties": {
                "ref:rspo": 12020,
                "official_name": "Przedszkole Niepubliczne \"Klub Ma\u0142ego Montessorka\"",
                "name": "Przedszkole Niepubliczne \"Klub Ma\u0142ego Montessorka\"",
                "addr:country": "PL",
                "addr:postcode": "59-220",
                "addr:city": "Legnica",
                "addr:street": "ul. Pi\u0105tnicka",
                "addr:housenumber": "5",
                "addr:teryt:simc": 16071,
                "addr:teryt:sym_ul": 954047,
                "contact:phone": "+48 609825264",
                "contact:email": "biuro@montessorek.legnica.pl",
                "contact:website": "http:\/\/www.montessorek.legnica.pl\/",
                "ref:regon": "021959605",
                "ref:vatin": "PL6911190333",
                "operator": "Beata Mikulska",
                "operator:type": "private",
                "amenity": "kindergarten"
            }
        }
    ]
}