{"type":"FeatureCollection","features":[{"id":124211,"type":"Feature","geometry":{"type":"Point","coordinates":[20.24109,51.75109]},"properties":{"ref:rspo":124211,"official_name":"Dwuj\u0119zyczne Przedszkole Niepubliczne \"Happy Kids\" Urszula Nowak","name":"Dwuj\u0119zyczne Przedszkole Niepubliczne \"Happy Kids\" Urszula Nowak","addr:country":"PL","addr:postcode":"96-200","addr:city":"Rawa Mazowiecka","addr:street":"ul. Tomaszowska","addr:housenumber":"69D","addr:teryt:simc":22856,"addr:teryt:sym_ul":977077,"contact:phone":"+48 508240882","contact:email":"happykids.rawa@gmail.com","contact:website":"http:\/\/happykidsrawa.pl","ref:regon":"101826957","ref:vatin":"PL8351412235","operator":"Urszula Nowak","operator:type":"private","amenity":"kindergarten"}},{"id":121224,"type":"Feature","geometry":{"type":"Point","coordinates":[20.24052,51.75456]},"properties":{"ref:rspo":121224,"official_name":"Niepubliczne Przedszkole Plastyczne \"Ekogroszki\" Karolina Markiewicz Agnieszka Malinowska","name":"Niepubliczne Przedszkole Plastyczne \"Ekogroszki\" Karolina Markiewicz Agnieszka Malinowska","addr:country":"PL","addr:postcode":"96-200","addr:city":"Rawa Mazowiecka","addr:street":"ul. Wyzwolenia","addr:housenumber":"10","addr:teryt:simc":25133,"addr:teryt:sym_ul":977077,"contact:phone":"+48 603043621","contact:email":"ekogroszki@wp.pl","ref:regon":"101708229","ref:vatin":"PL8351604029","operator":"Agnieszka Malinowska","operator:type":"private","amenity":"kindergarten"}},{"id":81207,"type":"Feature","geometry":{"type":"Point","coordinates":[20.25214,51.7549599]},"properties":{"ref:rspo":81207,"official_name":"Zesp\u00f3\u0142 Szk\u00f3\u0142-Centrum Edukacji Zawodowej I Ustawicznej im. Miko\u0142aja Kopernika w Rawie Mazowieckiej","name":"Zesp\u00f3\u0142 Szk\u00f3\u0142-Centrum Edukacji Zawodowej I Ustawicznej","addr:country":"PL","addr:postcode":"96-200","addr:city":"Rawa Mazowiecka","addr:street":"ul. Zygmunta Zwoli\u0144skiego","addr:housenumber":"46","addr:teryt:simc":26316,"addr:teryt:sym_ul":977077,"contact:phone":"+48 468154141","contact:email":"zsceziu@hoga.pl","ref:regon":"000188096","ref:vatin":"PL8351260819","operator":"Powiat Rawski","operator:type":"government","landuse":"education","fixme":"amenity=school, amenity=college albo landuse=education w zale\u017cno\u015bci od tego, jakie plac\u00f3wki wchodz\u0105 w sk\u0142ad zespo\u0142u. Sprawd\u017a, kiedy stosowa\u0107 amenity=* a kiedy landuse=education.","note":"Children RSPO: 86684;86751;86822;266867"}},{"id":86684,"type":"Feature","geometry":{"type":"Point","coordinates":[20.25214,51.7549299]},"properties":{"isced:level":"3","ref:rspo":86684,"official_name":"Liceum Og\u00f3lnokszta\u0142c\u0105ce w Zespole Szk\u00f3\u0142 - Centrum Edukacji Zawodowej I Ustawicznej im. Miko\u0142aja Kopernika w Rawie Mazowieckiej","name":"Liceum Og\u00f3lnokszta\u0142c\u0105ce w Zespole Szk\u00f3\u0142 - Centrum Edukacji Zawodowej I Ustawicznej","addr:country":"PL","addr:postcode":"96-200","addr:city":"Rawa Mazowiecka","addr:street":"ul. Zygmunta Zwoli\u0144skiego","addr:housenumber":"46","addr:teryt:simc":26316,"addr:teryt:sym_ul":977077,"contact:phone":"+48 468154141","contact:email":"zsceziu@hoga.pl","ref:regon":"750803592","ref:vatin":"PL8351260819","operator":"Powiat Rawski","operator:type":"government","amenity":"school","note":"Parent RSPO: 81207"}},{"id":86751,"type":"Feature","geometry":{"type":"Point","coordinates":[20.25214,51.754899900000005]},"properties":{"isced:level":"3","ref:rspo":86751,"official_name":"Technikum w Zespole Szk\u00f3\u0142 -Centrum Edukacji Zawodowej I Ustawicznej im. Miko\u0142aja Kopernika w Rawie Mazowieckiej","name":"Technikum w Zespole Szk\u00f3\u0142 -Centrum Edukacji Zawodowej I Ustawicznej","addr:country":"PL","addr:postcode":"96-200","addr:city":"Rawa Mazowiecka","addr:street":"ul. Zygmunta Zwoli\u0144skiego","addr:housenumber":"46","addr:teryt:simc":26316,"addr:teryt:sym_ul":977077,"contact:phone":"+48 468154141","contact:email":"zsceziu@hoga.pl","ref:regon":"750721405","ref:vatin":"PL8351260819","operator":"Powiat Rawski","operator:type":"government","amenity":"school","note":"Parent RSPO: 81207"}},{"id":86822,"type":"Feature","geometry":{"type":"Point","coordinates":[20.25214,51.7548699]},"properties":{"isced:level":"3","ref:rspo":86822,"official_name":"Bran\u017cowa Szko\u0142a I Stopnia w Zespole Szk\u00f3\u0142 - Centrum Edukacji Zawodowej I Ustawicznej im. Miko\u0142aja Kopernika w Rawie Mazowieckiej","name":"Bran\u017cowa Szko\u0142a I Stopnia w Zespole Szk\u00f3\u0142 - Centrum Edukacji Zawodowej I Ustawicznej","addr:country":"PL","addr:postcode":"96-200","addr:city":"Rawa Mazowiecka","addr:street":"ul. Zygmunta Zwoli\u0144skiego","addr:housenumber":"46","addr:teryt:simc":26316,"addr:teryt:sym_ul":977077,"contact:phone":"+48 468154141","contact:email":"zsceziu@hoga.pl","ref:regon":"750721397","ref:vatin":"PL8351260819","operator":"Powiat Rawski","operator:type":"government","amenity":"school","note":"Parent RSPO: 81207"}},{"id":266867,"type":"Feature","geometry":{"type":"Point","coordinates":[20.25214,51.7548399]},"properties":{"isced:level":"3","ref:rspo":266867,"official_name":"Liceum Og\u00f3lnokszta\u0142c\u0105ce dla Doros\u0142ych w Zespole Szk\u00f3\u0142 - Centrum Edukacji Zawodowej I Ustawicznej im. Miko\u0142aja Kopernika w Rawie Mazowieckiej","name":"Liceum Og\u00f3lnokszta\u0142c\u0105ce dla Doros\u0142ych w Zespole Szk\u00f3\u0142 - Centrum Edukacji Zawodowej I Ustawicznej","addr:country":"PL","addr:postcode":"96-200","addr:city":"Rawa Mazowiecka","addr:street":"ul. Zwoli\u0144skiego","addr:housenumber":"46","addr:teryt:simc":52443,"addr:teryt:sym_ul":977077,"contact:phone":"+48 468154141","contact:email":"zsceziu@hoga.pl","ref:regon":"369717568","ref:vatin":"PL8351260819","operator":"Powiat Rawski","operator:type":"government","amenity":"school","note":"Parent RSPO: 81207"}},{"id":87450,"type":"Feature","geometry":{"type":"Point","coordinates":[20.25106,51.7556]},"properties":{"ref:rspo":87450,"official_name":"Zesp\u00f3\u0142 Plac\u00f3wek Specjalnych w Rawie Mazowieckiej","name":"Zesp\u00f3\u0142 Plac\u00f3wek Specjalnych w Rawie Mazowieckiej","addr:country":"PL","addr:postcode":"96-200","addr:city":"Rawa Mazowiecka","addr:street":"ul. Przemys\u0142owa","addr:housenumber":"2","addr:teryt:simc":17742,"addr:teryt:sym_ul":977077,"contact:phone":"+48 468154915","contact:email":"zps.rawamaz@interia.pl","ref:regon":"100401428","ref:vatin":"PL8351564873","operator":"Powiat Rawski","operator:type":"government","landuse":"education","fixme":"amenity=school, amenity=college albo landuse=education w zale\u017cno\u015bci od tego, jakie plac\u00f3wki wchodz\u0105 w sk\u0142ad zespo\u0142u. Sprawd\u017a, kiedy stosowa\u0107 amenity=* a kiedy landuse=education.","note":"Children RSPO: 88479;88480"}},{"id":88479,"type":"Feature","geometry":{"type":"Point","coordinates":[20.25106,51.75557]},"properties":{"ref:rspo":88479,"official_name":"M\u0142odzie\u017cowy O\u015brodek Socjoterapii w Rawie Mazowieckiej","name":"M\u0142odzie\u017cowy O\u015brodek Socjoterapii w Rawie Mazowieckiej","addr:country":"PL","addr:postcode":"96-200","addr:city":"Rawa Mazowiecka","addr:street":"ul. Przemys\u0142owa","addr:housenumber":"2","addr:teryt:simc":17742,"addr:teryt:sym_ul":977077,"contact:phone":"+48 468154915","contact:email":"zps.rawamaz@interia.pl","ref:regon":"100401240","ref:vatin":"PL8351564873","operator":"Powiat Rawski","operator:type":"government","fixme":"amenity=social facility + social_facility=group_home + social_facility:for=juvenile","note":"Children RSPO: 266423Parent RSPO: 87450"}},{"id":88480,"type":"Feature","geometry":{"type":"Point","coordinates":[20.25106,51.75554]},"properties":{"ref:rspo":88480,"official_name":"Specjalny O\u015brodek Szkolno-Wychowawczy w Rawie Mazowieckiej","name":"Specjalny O\u015brodek Szkolno-Wychowawczy w Rawie Mazowieckiej","addr:country":"PL","addr:postcode":"96-200","addr:city":"Rawa Mazowiecka","addr:street":"ul. Przemys\u0142owa","addr:housenumber":"2","addr:teryt:simc":17742,"addr:teryt:sym_ul":977077,"contact:phone":"+48 468154915","contact:email":"zps.rawamaz@interia.pl","ref:regon":"000197379","ref:vatin":"PL8351564873","operator":"Powiat Rawski","operator:type":"government","amenity":"school","note":"Children RSPO: 90268;90378;90382Parent RSPO: 87450"}},{"id":266423,"type":"Feature","geometry":{"type":"Point","coordinates":[20.25106,51.75551]},"properties":{"isced:level":"1;2","ref:rspo":266423,"official_name":"Szko\u0142a Podstawowa w M\u0142odzie\u017cowym O\u015brodku Socjoterapii w Rawie Mazowieckiej","name":"Szko\u0142a Podstawowa w M\u0142odzie\u017cowym O\u015brodku Socjoterapii w Rawie Mazowieckiej","addr:country":"PL","addr:postcode":"96-200","addr:city":"Rawa Mazowiecka","addr:street":"ul. Przemys\u0142owa","addr:housenumber":"2","addr:teryt:simc":17742,"addr:teryt:sym_ul":977077,"contact:phone":"+48 468154915","contact:email":"zps.rawamaz@interia.pl","contact:website":"https:\/\/zpsrawa.szkolnastrona.pl\/","ref:regon":"369492810","ref:vatin":"PL8351564873","operator":"Powiat Rawski","operator:type":"government","amenity":"school","note":"Parent RSPO: 88479"}},{"id":90268,"type":"Feature","geometry":{"type":"Point","coordinates":[20.25106,51.75548]},"properties":{"isced:level":"1;2","ref:rspo":90268,"official_name":"Szko\u0142a Podstawowa Specjalna w Specjalnym O\u015brodku Szkolno-Wychowawczym w Rawie Mazowieckiej","name":"Szko\u0142a Podstawowa Specjalna w Specjalnym O\u015brodku Szkolno-Wychowawczym w Rawie Mazowieckiej","addr:country":"PL","addr:postcode":"96-200","addr:city":"Rawa Mazowiecka","addr:street":"ul. Przemys\u0142owa","addr:housenumber":"2","addr:teryt:simc":17742,"addr:teryt:sym_ul":977077,"contact:phone":"+48 468154915","contact:email":"zps.rawamaz@interia.eu","contact:website":"https:\/\/zpsrawa.szkolnastrona.pl\/","ref:regon":"000908745","ref:vatin":"PL8351564873","operator":"Powiat Rawski","operator:type":"government","amenity":"school","note":"Parent RSPO: 88480"}},{"id":90378,"type":"Feature","geometry":{"type":"Point","coordinates":[20.25106,51.75545]},"properties":{"ref:rspo":90378,"official_name":"Szko\u0142a Specjalna Przysposabiaj\u0105ca Do Pracy w Specjalnym O\u015brodku Szkolno-Wychowawczym w Rawie Mazowieckiej","name":"Szko\u0142a Specjalna Przysposabiaj\u0105ca Do Pracy w Specjalnym O\u015brodku Szkolno-Wychowawczym w Rawie Mazowieckiej","addr:country":"PL","addr:postcode":"96-200","addr:city":"Rawa Mazowiecka","addr:street":"ul. Przemys\u0142owa","addr:housenumber":"2","addr:teryt:simc":17742,"addr:teryt:sym_ul":977077,"contact:phone":"+48 468154915","ref:regon":"750819475","ref:vatin":"PL8351564873","operator":"Powiat Rawski","operator:type":"government","amenity":"school","note":"Parent RSPO: 88480"}},{"id":90382,"type":"Feature","geometry":{"type":"Point","coordinates":[20.25106,51.75542]},"properties":{"isced:level":"3","ref:rspo":90382,"official_name":"Bran\u017cowa Szko\u0142a Specjalna I Stopnia w Specjalnym O\u015brodku Szkolno - Wychowawczym w Rawie Mazowieckiej","name":"Bran\u017cowa Szko\u0142a Specjalna I Stopnia w Specjalnym O\u015brodku Szkolno - Wychowawczym w Rawie Mazowieckiej","addr:country":"PL","addr:postcode":"96-200","addr:city":"Rawa Mazowiecka","addr:street":"ul. Przemys\u0142owa","addr:housenumber":"2","addr:teryt:simc":17742,"addr:teryt:sym_ul":977077,"contact:phone":"+48 468154915","contact:email":"zps.rawamaz@interia.eu","contact:website":"https:\/\/zpsrawa.szkolnastrona.pl\/","ref:regon":"000908739","ref:vatin":"PL8351564873","operator":"Powiat Rawski","operator:type":"government","amenity":"school","note":"Parent RSPO: 88480"}},{"id":89632,"type":"Feature","geometry":{"type":"Point","coordinates":[20.24805,51.75915]},"properties":{"ref:rspo":89632,"official_name":"Przedszkole Miejskie Nr 3 \"Bajkowy Zak\u0105tek\"","name":"Przedszkole Miejskie Nr 3 \"Bajkowy Zak\u0105tek\"","addr:country":"PL","addr:postcode":"96-200","addr:city":"Rawa Mazowiecka","addr:street":"ul. Solidarno\u015bci","addr:housenumber":"3B","addr:teryt:simc":20532,"addr:teryt:sym_ul":977077,"contact:phone":"+48 468144202","contact:email":"p3.rawamaz@op.pl","contact:website":"http:\/\/www.bajkowyzakatek.com","ref:regon":"750020654","ref:vatin":"PL8351222687","operator":"Miasto Rawa Mazowiecka","operator:type":"government","amenity":"kindergarten"}},{"id":83739,"type":"Feature","geometry":{"type":"Point","coordinates":[20.25153,51.75936]},"properties":{"isced:level":"3","ref:rspo":83739,"official_name":"Rzemie\u015blnicza Szko\u0142a Bran\u017cowa I Stopnia w Rawie Mazowieckiej","name":"Rzemie\u015blnicza Szko\u0142a Bran\u017cowa I Stopnia w Rawie Mazowieckiej","addr:country":"PL","addr:postcode":"96-200","addr:city":"Rawa Mazowiecka","addr:street":"ul. Zygmunta Zwoli\u0144skiego","addr:housenumber":"10A","addr:teryt:simc":26316,"addr:teryt:sym_ul":977077,"contact:phone":"+48 468154270","contact:email":"cechrawa@wp.pl","ref:regon":"101500078","ref:vatin":"PL8350003687","operator":"Izba Rzemie\u015blnicza W \u0141odzi","operator:type":"cooperative","amenity":"school"}},{"id":84695,"type":"Feature","geometry":{"type":"Point","coordinates":[20.2514499,51.75962]},"properties":{"isced:level":"3","ref:rspo":84695,"official_name":"Liceum Og\u00f3lnokszta\u0142c\u0105ce dla Doros\u0142ych w Rawie Mazowieckiej","name":"Liceum Og\u00f3lnokszta\u0142c\u0105ce dla Doros\u0142ych w Rawie Mazowieckiej","addr:country":"PL","addr:postcode":"96-200","addr:city":"Rawa Mazowiecka","addr:street":"ul. Zygmunta Zwoli\u0144skiego","addr:housenumber":"10","addr:teryt:simc":26316,"addr:teryt:sym_ul":977077,"contact:phone":"+48 468145380","contact:email":"pzszdd@wp.pl","ref:regon":"101501669","ref:vatin":"PL8351044317","operator":"Dane Do Uzupe\u0142nienia","operator:type":"private","amenity":"school"}},{"id":84757,"type":"Feature","geometry":{"type":"Point","coordinates":[20.2514499,51.759589999999996]},"properties":{"isced:level":"4","ref:rspo":84757,"official_name":"Szko\u0142a Policealna dla Doros\u0142ych w Rawie Mazowieckiej","name":"Szko\u0142a Policealna dla Doros\u0142ych w Rawie Mazowieckiej","addr:country":"PL","addr:postcode":"96-200","addr:city":"Rawa Mazowiecka","addr:street":"ul. Zygmunta Zwoli\u0144skiego","addr:housenumber":"10","addr:teryt:simc":26316,"addr:teryt:sym_ul":977077,"contact:phone":"+48 468145380","contact:email":"pzszdd@wp.pl","ref:regon":"101501706","ref:vatin":"PL8351044317","operator":"Dane Do Uzupe\u0142nienia","operator:type":"private","amenity":"college"}},{"id":18834,"type":"Feature","geometry":{"type":"Point","coordinates":[20.25043,51.7597499]},"properties":{"ref:rspo":18834,"official_name":"Biblioteka Pedagogiczna w Skierniewicach Filia w Rawie Mazowieckiej","name":"Biblioteka Pedagogiczna w Skierniewicach Filia w Rawie Mazowieckiej","addr:country":"PL","addr:postcode":"96-200","addr:city":"Rawa Mazowiecka","addr:street":"ul. Zygmunta Zwoli\u0144skiego","addr:housenumber":"8b","addr:teryt:simc":26316,"addr:teryt:sym_ul":977077,"contact:phone":"+48 468154014","contact:email":"bibliotekarawa@o2.pl","ref:regon":"685280000","operator":"Wojew\u00f3dztwo \u0141\u00f3dzkie","operator:type":"government","amenity":"library","note":"Parent RSPO: 12806"}},{"id":81242,"type":"Feature","geometry":{"type":"Point","coordinates":[20.26098,51.7608]},"properties":{"ref:rspo":81242,"official_name":"Zesp\u00f3\u0142 Szk\u00f3\u0142 Ponadpodstawowych im. W\u0142adys\u0142awa Stanis\u0142awa Reymonta w Rawie Mazowieckiej","name":"Zesp\u00f3\u0142 Szk\u00f3\u0142 Ponadpodstawowych","addr:country":"PL","addr:postcode":"96-200","addr:city":"Rawa Mazowiecka","addr:street":"ul. W\u0142adys\u0142awa Stanis\u0142awa Reymonta","addr:housenumber":"14","addr:teryt:simc":18652,"addr:teryt:sym_ul":977077,"contact:phone":"+48 468144636","contact:email":"zsrrawa@wp.pl","ref:regon":"000098648","ref:vatin":"PL8351086296","operator":"Powiat Rawski","operator:type":"government","landuse":"education","fixme":"amenity=school, amenity=college albo landuse=education w zale\u017cno\u015bci od tego, jakie plac\u00f3wki wchodz\u0105 w sk\u0142ad zespo\u0142u. Sprawd\u017a, kiedy stosowa\u0107 amenity=* a kiedy landuse=education.","note":"Children RSPO: 85502;85510"}},{"id":85502,"type":"Feature","geometry":{"type":"Point","coordinates":[20.26098,51.76077]},"properties":{"isced:level":"3","ref:rspo":85502,"official_name":"Liceum Og\u00f3lnokszta\u0142c\u0105ce w Zespole Szk\u00f3\u0142 Ponadpodstawowych im. W\u0142adys\u0142awa Reymonta w Rawie Mazowieckiej","name":"Liceum Og\u00f3lnokszta\u0142c\u0105ce w Zespole Szk\u00f3\u0142 Ponadpodstawowych","addr:country":"PL","addr:postcode":"96-200","addr:city":"Rawa Mazowiecka","addr:street":"ul. W\u0142adys\u0142awa Stanis\u0142awa Reymonta","addr:housenumber":"14","addr:teryt:simc":18652,"addr:teryt:sym_ul":977077,"contact:phone":"+48 468144636","contact:email":"zsrrawa@wp.pl","ref:regon":"750775387","ref:vatin":"PL8351086296","operator":"Powiat Rawski","operator:type":"government","amenity":"school","note":"Parent RSPO: 81242"}},{"id":85510,"type":"Feature","geometry":{"type":"Point","coordinates":[20.26098,51.760740000000006]},"properties":{"isced:level":"3","ref:rspo":85510,"official_name":"Technikum w Zespole Szk\u00f3\u0142 Ponadpodstawowych im. W\u0142adys\u0142awa Reymonta w Rawie Mazowieckiej","name":"Technikum w Zespole Szk\u00f3\u0142 Ponadpodstawowych","addr:country":"PL","addr:postcode":"96-200","addr:city":"Rawa Mazowiecka","addr:street":"ul. W\u0142adys\u0142awa Stanis\u0142awa Reymonta","addr:housenumber":"14","addr:teryt:simc":18652,"addr:teryt:sym_ul":977077,"contact:phone":"+48 468144636","contact:email":"zsrrawa@wp.pl","ref:regon":"750214513","ref:vatin":"PL8351086296","operator":"Powiat Rawski","operator:type":"government","amenity":"school","note":"Parent RSPO: 81242"}},{"id":81062,"type":"Feature","geometry":{"type":"Point","coordinates":[20.25094,51.76087]},"properties":{"ref:rspo":81062,"official_name":"Poradnia Psychologiczno-Pedagogiczna w Rawie Mazowieckiej","name":"Poradnia Psychologiczno-Pedagogiczna w Rawie Mazowieckiej","addr:country":"PL","addr:postcode":"96-200","addr:city":"Rawa Mazowiecka","addr:street":"ul. Niepodleg\u0142o\u015bci","addr:housenumber":"8","addr:teryt:simc":14203,"addr:teryt:sym_ul":977077,"contact:email":"rawa_poradnia@op.pl","ref:regon":"000739515","ref:vatin":"PL8351502783","operator":"Powiat Rawski","operator:type":"government","healthcare":"councelling","counselling_type":"education","fixme":"w zale\u017cno\u015bci od przedmiotu dzia\u0142alno\u015bci (np. healthcare=councelling + counselling_type=education albo healthcare=psychotherapist)"}},{"id":79834,"type":"Feature","geometry":{"type":"Point","coordinates":[20.24693,51.7618099]},"properties":{"isced:level":"3","ref:rspo":79834,"official_name":"Liceum Og\u00f3lnokszta\u0142c\u0105ce im. Marii Sk\u0142odowskiej-Curie w Rawie Mazowieckiej","name":"Liceum Og\u00f3lnokszta\u0142c\u0105ce","addr:country":"PL","addr:postcode":"96-200","addr:city":"Rawa Mazowiecka","addr:street":"ul. Tadeusza Ko\u015bciuszki","addr:housenumber":"20","addr:teryt:simc":9582,"addr:teryt:sym_ul":977077,"contact:phone":"+48 468143745","contact:email":"lorawa@neostrada.pl","contact:website":"http:\/\/lorawa.pl","ref:regon":"000204518","ref:vatin":"PL8351008379","operator":"Powiat Rawski","operator:type":"government","amenity":"school"}},{"id":43637,"type":"Feature","geometry":{"type":"Point","coordinates":[20.24862,51.76201]},"properties":{"isced:level":"1;2","ref:rspo":43637,"official_name":"Szko\u0142a Podstawowa Nr 1 im. Tadeusza Ko\u015bciuszki","name":"Szko\u0142a Podstawowa Nr 1","addr:country":"PL","addr:postcode":"96-200","addr:city":"Rawa Mazowiecka","addr:street":"ul. Ko\u015bciuszki","addr:housenumber":"19","addr:teryt:simc":9572,"addr:teryt:sym_ul":977077,"contact:phone":"+48 468143532","contact:email":"sp1rawa@pro.onet.pl","contact:website":"http:\/\/www.sp1rawa.pl","ref:regon":"000739432","ref:vatin":"PL8351031183","operator":"Miasto Rawa Mazowiecka","operator:type":"government","amenity":"school"}},{"id":27995,"type":"Feature","geometry":{"type":"Point","coordinates":[20.26162,51.76502]},"properties":{"ref:rspo":27995,"official_name":"Niepubliczne Przedszkole \"Weso\u0142a Kraina\" Agnieszka Koperska","name":"Niepubliczne Przedszkole \"Weso\u0142a Kraina\" Agnieszka Koperska","addr:country":"PL","addr:postcode":"96-200","addr:city":"Rawa Mazowiecka","addr:street":"ul. Targowa","addr:housenumber":"2A","addr:teryt:simc":22659,"addr:teryt:sym_ul":977077,"contact:phone":"+48 516129894","contact:email":"agnieszkak1421@wp.pl","ref:regon":"101481346","ref:vatin":"PL8351387589","operator":"Agnieszka Koperska","operator:type":"private","amenity":"kindergarten"}},{"id":16203,"type":"Feature","geometry":{"type":"Point","coordinates":[20.25705,51.76507]},"properties":{"isced:level":"1;2","ref:rspo":16203,"official_name":"Szko\u0142a Podstawowa Nr 2 im. Marii Konopnickiej","name":"Szko\u0142a Podstawowa Nr 2","addr:country":"PL","addr:postcode":"96-200","addr:city":"Rawa Mazowiecka","addr:street":"ul. Mi\u0142a","addr:housenumber":"2","addr:teryt:simc":12947,"addr:teryt:sym_ul":977077,"contact:phone":"+48 468142236","contact:email":"rawska2ka@gazeta.pl","contact:website":"http:\/\/www.rawska2ka.pl\/","ref:regon":"000739449","ref:vatin":"PL8351033638","operator":"Miasto Rawa Mazowiecka","operator:type":"government","amenity":"school"}},{"id":89579,"type":"Feature","geometry":{"type":"Point","coordinates":[20.25548,51.76531]},"properties":{"ref:rspo":89579,"official_name":"Przedszkole Miejskie Nr 1 \"T\u0119czowa Jedyneczka\"","name":"Przedszkole Miejskie Nr 1 \"T\u0119czowa Jedyneczka\"","addr:country":"PL","addr:postcode":"96-200","addr:city":"Rawa Mazowiecka","addr:street":"ul. Kili\u0144skiego","addr:housenumber":"2","addr:teryt:simc":8431,"addr:teryt:sym_ul":977077,"contact:phone":"+48 468143732","contact:email":"miejskie_przedszkole_nr_1@wp.pl","contact:website":"http:\/\/www.przedszkole1rm.com","ref:regon":"750020619","ref:vatin":"PL8351222701","operator":"Miasto Rawa Mazowiecka","operator:type":"government","amenity":"kindergarten"}},{"id":89597,"type":"Feature","geometry":{"type":"Point","coordinates":[20.26274,51.76905]},"properties":{"ref:rspo":89597,"official_name":"Przedszkole Miejskie Nr 2 \"Niezapominajka\"","name":"Przedszkole Miejskie Nr 2 \"Niezapominajka\"","addr:country":"PL","addr:postcode":"96-200","addr:city":"Rawa Mazowiecka","addr:street":"ul. Zamkowa Wola","addr:housenumber":"5","addr:teryt:simc":25549,"addr:teryt:sym_ul":977077,"contact:phone":"+48 468144734","contact:email":"przedszkolerawa@op.pl","contact:website":"http:\/\/www.przedszkole2rawa.republika.pl\/index.htm","ref:regon":"750020625","ref:vatin":"PL8351222693","operator":"Miasto Rawa Mazowiecka","operator:type":"government","amenity":"kindergarten"}},{"id":84481,"type":"Feature","geometry":{"type":"Point","coordinates":[20.25696,51.77087]},"properties":{"ref:rspo":84481,"official_name":"Niepubliczne Przedszkole \"S\u0142oneczny Domek\"","name":"Niepubliczne Przedszkole \"S\u0142oneczny Domek\"","addr:country":"PL","addr:postcode":"96-200","addr:city":"Rawa Mazowiecka","addr:street":"ul. Jana Sobieskiego","addr:housenumber":"47","addr:teryt:simc":20427,"addr:teryt:sym_ul":977077,"contact:email":"anna@slonecznydomek-rawa.pl","ref:regon":"101501190","ref:vatin":"PL8351034402","operator":"Anna Nowakowska","operator:type":"private","amenity":"kindergarten"}},{"id":43803,"type":"Feature","geometry":{"type":"Point","coordinates":[20.2604599,51.77414]},"properties":{"isced:level":"1;2","ref:rspo":43803,"official_name":"Szko\u0142a Podstawowa Nr 4 im. Kornela Makuszy\u0144skiego","name":"Szko\u0142a Podstawowa Nr 4","addr:country":"PL","addr:postcode":"96-200","addr:city":"Rawa Mazowiecka","addr:street":"ul. Kazimierza Wielkiego","addr:housenumber":"28","addr:teryt:simc":8265,"addr:teryt:sym_ul":977077,"contact:phone":"+48 468140505","contact:email":"sekr_szko4@o2.pl","contact:website":"http:\/\/rawcomp.nazwa.pl","ref:regon":"750440853","ref:vatin":"PL8351032656","operator":"Miasto Rawa Mazowiecka","operator:type":"government","amenity":"school"}},{"id":133086,"type":"Feature","geometry":{"type":"Point","coordinates":[20.2604599,51.77411]},"properties":{"isced:level":"3","ref:rspo":133086,"official_name":"Katolickie Publiczne Liceum Og\u00f3lnokszta\u0142c\u0105ce im. \u015aw. Jana Paw\u0142a Ii","name":"Katolickie Publiczne Liceum Og\u00f3lnokszta\u0142c\u0105ce","addr:country":"PL","addr:postcode":"96-200","addr:city":"Rawa Mazowiecka","addr:street":"ul. Kazimierza Wielkiego","addr:housenumber":"28","addr:teryt:simc":8265,"addr:teryt:sym_ul":977077,"contact:phone":"+48 697469920","contact:email":"chrystuskrolparafia@gmail.com","contact:website":"http:\/\/www.chrystuskrol.rawa-maz.pl","ref:regon":"366612366","operator":"Parafia Rzymskokatolicka P.w.jezusa Chrystusa, Kr\u00f3la Wszech\u015bwiata W Rawie Mazowieckiej","operator:type":"government","amenity":"school"}}]}