{"type":"FeatureCollection","features":[{"id":53640,"type":"Feature","geometry":{"type":"Point","coordinates":[20.5661999,51.77819]},"properties":{"isced:level":"1;2","ref:rspo":53640,"official_name":"Szko\u0142a Podstawowa im. Ks. Jerzego Popie\u0142uszki w Chodnowie","name":"Szko\u0142a Podstawowa","addr:country":"PL","addr:postcode":"96-230","addr:place":"Chodn\u00f3w","addr:housenumber":"1","addr:teryt:sym_ul":723371,"contact:phone":"+48 468159726","contact:email":"szkolachodnow@gmail.com","ref:regon":"001129960","ref:vatin":"PL8351451407","operator":"Gmina Bia\u0142a Rawska","operator:type":"government","amenity":"school"}},{"id":48819,"type":"Feature","geometry":{"type":"Point","coordinates":[20.51707,51.7832999]},"properties":{"ref:rspo":48819,"official_name":"Niepubliczny Punkt Przedszkolny \"Smyk\"","name":"Niepubliczny Punkt Przedszkolny \"Smyk\"","addr:country":"PL","addr:postcode":"96-230","addr:place":"Stara Wie\u015b","addr:housenumber":"17","addr:teryt:sym_ul":723833,"contact:phone":"+48 468159323","contact:email":"szkola.stara-wies@wp.pl","ref:regon":"101487946","operator":"Dane Do Uzupe\u0142nienia","operator:type":"private","amenity":"kindergarten"}},{"id":83711,"type":"Feature","geometry":{"type":"Point","coordinates":[20.51707,51.7832699]},"properties":{"isced:level":"1;2","ref:rspo":83711,"official_name":"Szko\u0142a Podstawowa im. Marii Konopnickiej w Starej Wsi","name":"Szko\u0142a Podstawowa","addr:country":"PL","addr:postcode":"96-230","addr:place":"Stara Wie\u015b","addr:housenumber":"17","addr:teryt:sym_ul":723833,"contact:phone":"+48 468159323","contact:email":"szkola.stara-wies@wp.pl","contact:website":"http:\/\/spstarawies17.szkolnastrona.pl\/","ref:regon":"001130029","operator":"Gmina Bia\u0142a Rawska","operator:type":"government","amenity":"school"}},{"id":80744,"type":"Feature","geometry":{"type":"Point","coordinates":[20.38438,51.79405]},"properties":{"isced:level":"1;2","ref:rspo":80744,"official_name":"Szko\u0142a Podstawowa im. Jana Paw\u0142a II Z Oddzia\u0142ami Integracyjnymi w Lesiewie","name":"Szko\u0142a Podstawowa","addr:country":"PL","addr:postcode":"96-230","addr:place":"W\u00f3lka Lesiewska","addr:housenumber":"21","addr:teryt:sym_ul":723980,"contact:phone":"+48 468150911","contact:email":"szkolalesiew@op.pl","contact:website":"http:\/\/splesiew.szkolnastrona.pl","ref:regon":"001129977","ref:vatin":"PL8351453091","operator":"Gmina Bia\u0142a Rawska","operator:type":"government","amenity":"school"}},{"id":81326,"type":"Feature","geometry":{"type":"Point","coordinates":[20.472150802612,51.807559967041]},"properties":{"ref:rspo":81326,"official_name":"Zesp\u00f3\u0142 Szk\u00f3\u0142 Ponadpodstawowych w Bia\u0142ej Rawskiej","name":"Zesp\u00f3\u0142 Szk\u00f3\u0142 Ponadpodstawowych w Bia\u0142ej Rawskiej","addr:country":"PL","addr:postcode":"96-230","addr:city":"Bia\u0142a Rawska","addr:street":"ul. Kolejowa","addr:housenumber":"9","addr:teryt:simc":8828,"addr:teryt:sym_ul":977019,"contact:phone":"+48 468159546","contact:email":"zspbialarawska@wp.pl","contact:website":"http:\/\/www.zspbr.rawa-maz.pl","ref:regon":"000178940","ref:vatin":"PL8351258449","operator":"Powiat Rawski","operator:type":"government","landuse":"education","fixme":"amenity=school, amenity=college albo landuse=education w zale\u017cno\u015bci od tego, jakie plac\u00f3wki wchodz\u0105 w sk\u0142ad zespo\u0142u. Sprawd\u017a, kiedy stosowa\u0107 amenity=* a kiedy landuse=education.","note":"Children RSPO: 85369;85461;85487;129200"}},{"id":85369,"type":"Feature","geometry":{"type":"Point","coordinates":[20.472150802612,51.807529967041]},"properties":{"isced:level":"3","ref:rspo":85369,"official_name":"Liceum Og\u00f3lnokszta\u0142c\u0105ce im. Krzysztofa Kamila Baczy\u0144skiego","name":"Liceum Og\u00f3lnokszta\u0142c\u0105ce","addr:country":"PL","addr:postcode":"96-230","addr:city":"Bia\u0142a Rawska","addr:street":"ul. Kolejowa","addr:housenumber":"9","addr:teryt:simc":8828,"addr:teryt:sym_ul":977019,"contact:phone":"+48 468159546","contact:email":"zszbialarawska@wp.pl","ref:regon":"750719182","ref:vatin":"PL8351258449","operator":"Powiat Rawski","operator:type":"government","amenity":"school","note":"Parent RSPO: 81326"}},{"id":85461,"type":"Feature","geometry":{"type":"Point","coordinates":[20.472150802612,51.807499967041004]},"properties":{"isced:level":"3","ref:rspo":85461,"official_name":"Technikum im. Krzysztofa Kamila Baczy\u0144skiego","name":"Technikum","addr:country":"PL","addr:postcode":"96-230","addr:city":"Bia\u0142a Rawska","addr:street":"ul. Kolejowa","addr:housenumber":"9","addr:teryt:simc":8828,"addr:teryt:sym_ul":977019,"contact:phone":"+48 468159546","contact:email":"zszbialarawska@wp.pl","ref:regon":"750719153","ref:vatin":"PL8351258449","operator":"Powiat Rawski","operator:type":"government","amenity":"school","note":"Parent RSPO: 81326"}},{"id":85487,"type":"Feature","geometry":{"type":"Point","coordinates":[20.472150802612,51.807469967041]},"properties":{"isced:level":"3","ref:rspo":85487,"official_name":"Bran\u017cowa Szko\u0142a I Stopnia w Zespole Szk\u00f3\u0142 Ponadpodstawowych w Bia\u0142ej Rawskiej","name":"Bran\u017cowa Szko\u0142a I Stopnia w Zespole Szk\u00f3\u0142 Ponadpodstawowych w Bia\u0142ej Rawskiej","addr:country":"PL","addr:postcode":"96-230","addr:city":"Bia\u0142a Rawska","addr:street":"ul. Kolejowa","addr:housenumber":"9","addr:teryt:simc":8828,"addr:teryt:sym_ul":977019,"contact:phone":"+48 468159546","contact:email":"zszbialarawska@wp.pl","ref:regon":"750719160","ref:vatin":"PL8351258449","operator":"Powiat Rawski","operator:type":"government","amenity":"school","note":"Parent RSPO: 81326"}},{"id":129200,"type":"Feature","geometry":{"type":"Point","coordinates":[20.472150802612,51.807439967041]},"properties":{"isced:level":"3","ref:rspo":129200,"official_name":"Liceum Og\u00f3lnokszta\u0142c\u0105ce dla Doros\u0142ych w Bia\u0142ej Rawskiej","name":"Liceum Og\u00f3lnokszta\u0142c\u0105ce dla Doros\u0142ych w Bia\u0142ej Rawskiej","addr:country":"PL","addr:postcode":"96-230","addr:city":"Bia\u0142a Rawska","addr:street":"ul. Kolejowa","addr:housenumber":"9","addr:teryt:simc":8828,"addr:teryt:sym_ul":977019,"contact:phone":"+48 468159546","contact:email":"zspbialarawska@wp.pl","ref:regon":"362512283","ref:vatin":"PL8351258449","operator":"Powiat Rawski","operator:type":"government","amenity":"school","note":"Parent RSPO: 81326"}},{"id":48803,"type":"Feature","geometry":{"type":"Point","coordinates":[20.47736,51.81082]},"properties":{"isced:level":"1;2","ref:rspo":48803,"official_name":"Szko\u0142a Podstawowa im. Jana Kochanowskiego w Bia\u0142ej Rawskiej","name":"Szko\u0142a Podstawowa","addr:country":"PL","addr:postcode":"96-230","addr:city":"Bia\u0142a Rawska","addr:street":"ul. Mickiewicza","addr:housenumber":"22\/24","addr:teryt:simc":12734,"addr:teryt:sym_ul":977019,"contact:phone":"+48 468159376","contact:email":"spbiala10@wp.pl","contact:website":"http:\/\/spbiala10.szkolnastrona.pl","ref:regon":"000552320","ref:vatin":"PL8351449942","operator":"Gmina Bia\u0142a Rawska","operator:type":"government","amenity":"school"}},{"id":48816,"type":"Feature","geometry":{"type":"Point","coordinates":[20.4807099,51.81266]},"properties":{"ref:rspo":48816,"official_name":"Przedszkole w Bia\u0142ej Rawskiej","name":"Przedszkole w Bia\u0142ej Rawskiej","addr:country":"PL","addr:postcode":"96-230","addr:city":"Bia\u0142a Rawska","addr:street":"ul. Mickiewicza","addr:housenumber":"38","addr:teryt:simc":12734,"addr:teryt:sym_ul":977019,"contact:phone":"+48 468159426","contact:email":"przedszkole38@o2.pl","ref:regon":"750021300","ref:vatin":"PL8351388258","operator":"Gmina Bia\u0142a Rawska","operator:type":"government","amenity":"kindergarten"}},{"id":48805,"type":"Feature","geometry":{"type":"Point","coordinates":[20.36243,51.83687]},"properties":{"isced:level":"1;2","ref:rspo":48805,"official_name":"Szko\u0142a Podstawowa im. Fryderyka Chopina w Babsku","name":"Szko\u0142a Podstawowa","addr:country":"PL","addr:postcode":"96-200","addr:city":"Babsk","addr:street":"ul. Lipowa","addr:housenumber":"12","addr:teryt:simc":11139,"addr:teryt:sym_ul":723260,"contact:phone":"+48 468150223","contact:email":"spbabsk@wp.pl","contact:website":"http:\/\/spbabsk.edupage.org","ref:regon":"001130006","ref:vatin":"PL8351435408","operator":"Gmina Bia\u0142a Rawska","operator:type":"government","amenity":"school"}},{"id":50437,"type":"Feature","geometry":{"type":"Point","coordinates":[20.49217,51.83914]},"properties":{"isced:level":"1;2","ref:rspo":50437,"official_name":"Szko\u0142a Podstawowa im. Bohater\u00f3w Powstania Warszawskiego w B\u0142a\u017cejewicach","name":"Szko\u0142a Podstawowa","addr:country":"PL","addr:postcode":"96-230","addr:place":"B\u0142a\u017cejewice","addr:housenumber":"10a","addr:teryt:sym_ul":723336,"contact:phone":"+48 468159527","contact:email":"szkola.blazejewice@op.pl","contact:website":"http:\/\/spblazejewice.szkolnastrona.pl","ref:regon":"001130035","ref:vatin":"PL8351447989","operator":"Gmina Bia\u0142a Rawska","operator:type":"government","amenity":"school"}},{"id":49601,"type":"Feature","geometry":{"type":"Point","coordinates":[20.55867,51.8425]},"properties":{"isced:level":"1;2","ref:rspo":49601,"official_name":"Szko\u0142a Podstawowa im. Stefana Kardyna\u0142a Wyszy\u0144skiego w Pachach","name":"Szko\u0142a Podstawowa","addr:country":"PL","addr:postcode":"96-230","addr:place":"Pachy","addr:housenumber":"25","addr:teryt:sym_ul":723715,"contact:phone":"+48 468159468","contact:email":"sp_pachy@op.pl","ref:regon":"001130012","ref:vatin":"PL8351447280","operator":"Gmina Bia\u0142a Rawska","operator:type":"government","amenity":"school"}}]}