{
    "type": "FeatureCollection",
    "features": [
        {
            "id": 104826,
            "type": "Feature",
            "geometry": {
                "type": "Point",
                "coordinates": [
                    20.5886,
                    51.68791
                ]
            },
            "properties": {
                "isced:level": "1;2",
                "ref:rspo": 104826,
                "official_name": "Szko\u0142a Podstawowa Im Marsza\u0142ka J\u00f3zefa Pi\u0142sudskiego w Lubani",
                "name": "Szko\u0142a Podstawowa Im Marsza\u0142ka J\u00f3zefa Pi\u0142sudskiego w Lubani",
                "addr:country": "PL",
                "addr:postcode": "96-208",
                "addr:place": "Lubania",
                "addr:housenumber": "30",
                "addr:door": "30",
                "addr:teryt:simc": 737249,
                "contact:phone": "+48 468156091",
                "contact:email": "gimlubania@wp.pl",
                "contact:website": "http:\/\/www.zslubania.szkolnastrona.pl\/",
                "ref:regon": "001117810",
                "ref:vatin": "PL8351572772",
                "operator": "Gmina Sadkowice",
                "operator:type": "government",
                "amenity": "school"
            }
        },
        {
            "id": 89813,
            "type": "Feature",
            "geometry": {
                "type": "Point",
                "coordinates": [
                    20.6229799,
                    51.7008
                ]
            },
            "properties": {
                "isced:level": "1;2",
                "ref:rspo": 89813,
                "official_name": "Szko\u0142a Podstawowa w K\u0142opoczynie",
                "name": "Szko\u0142a Podstawowa w K\u0142opoczynie",
                "addr:country": "PL",
                "addr:postcode": "96-208",
                "addr:place": "K\u0142opoczyn",
                "addr:housenumber": "17",
                "addr:teryt:simc": 737210,
                "contact:phone": "+48 468156067",
                "contact:email": "szkolaklopoczyn259@onet.eu",
                "ref:regon": "001117804",
                "ref:vatin": "PL8351178288",
                "operator": "Gmina Sadkowice",
                "operator:type": "government",
                "amenity": "school"
            }
        },
        {
            "id": 89721,
            "type": "Feature",
            "geometry": {
                "type": "Point",
                "coordinates": [
                    20.59374,
                    51.70968
                ]
            },
            "properties": {
                "ref:rspo": 89721,
                "official_name": "Zesp\u00f3\u0142 Szkolno-Przedszkolny w Tr\u0119baczewie",
                "name": "Zesp\u00f3\u0142 Szkolno-Przedszkolny w Tr\u0119baczewie",
                "addr:country": "PL",
                "addr:postcode": "96-208",
                "addr:place": "Tr\u0119baczew",
                "addr:housenumber": "30",
                "addr:teryt:simc": 737427,
                "contact:phone": "+48 468156633",
                "contact:email": "sptrebaczew30@wp.pl",
                "ref:regon": "100580112",
                "ref:vatin": "PL8351577025",
                "operator": "Gmina Sadkowice",
                "operator:type": "government",
                "landuse": "education",
                "fixme": "amenity=school, amenity=college albo landuse=education w zale\u017cno\u015bci od tego, jakie plac\u00f3wki wchodz\u0105 w sk\u0142ad zespo\u0142u. Sprawd\u017a, kiedy stosowa\u0107 amenity=* a kiedy landuse=education.",
                "note": "Children RSPO: 104873;104902"
            }
        },
        {
            "id": 104873,
            "type": "Feature",
            "geometry": {
                "type": "Point",
                "coordinates": [
                    20.59374,
                    51.709649999999996
                ]
            },
            "properties": {
                "isced:level": "1;2",
                "ref:rspo": 104873,
                "official_name": "Szko\u0142a Podstawowa w Tr\u0119baczewie",
                "name": "Szko\u0142a Podstawowa w Tr\u0119baczewie",
                "addr:country": "PL",
                "addr:postcode": "96-208",
                "addr:place": "Tr\u0119baczew",
                "addr:housenumber": "30",
                "addr:door": "30",
                "addr:teryt:simc": 737427,
                "contact:phone": "+48 468156633",
                "contact:email": "sptrebaczew30@wp.pl",
                "ref:regon": "001117796",
                "ref:vatin": "PL8351178377",
                "operator": "Gmina Sadkowice",
                "operator:type": "government",
                "amenity": "school",
                "note": "Parent RSPO: 89721"
            }
        },
        {
            "id": 104902,
            "type": "Feature",
            "geometry": {
                "type": "Point",
                "coordinates": [
                    20.59374,
                    51.70962
                ]
            },
            "properties": {
                "ref:rspo": 104902,
                "official_name": "Przedszkole w Tr\u0119baczewie",
                "name": "Przedszkole w Tr\u0119baczewie",
                "addr:country": "PL",
                "addr:postcode": "96-208",
                "addr:place": "Tr\u0119baczew",
                "addr:housenumber": "30",
                "addr:door": "30",
                "addr:teryt:simc": 737427,
                "contact:phone": "+48 468156633",
                "contact:email": "sptrebaczew30@wp.pl",
                "ref:regon": "100580075",
                "operator": "Gmina Sadkowice",
                "operator:type": "government",
                "amenity": "kindergarten",
                "note": "Parent RSPO: 89721"
            }
        },
        {
            "id": 89658,
            "type": "Feature",
            "geometry": {
                "type": "Point",
                "coordinates": [
                    20.52217,
                    51.72787
                ]
            },
            "properties": {
                "ref:rspo": 89658,
                "official_name": "Zesp\u00f3\u0142 Szk\u00f3\u0142 w Sadkowicach",
                "name": "Zesp\u00f3\u0142 Szk\u00f3\u0142 w Sadkowicach",
                "addr:country": "PL",
                "addr:postcode": "96-206",
                "addr:place": "Sadkowice",
                "addr:housenumber": "128",
                "addr:teryt:simc": 737373,
                "contact:phone": "+48 468156168",
                "contact:email": "zs.sadkowice@op.pl",
                "contact:website": "http:\/\/www.zssadkowice.pl",
                "ref:regon": "100084650",
                "ref:vatin": "PL8351541234",
                "operator": "Gmina Sadkowice",
                "operator:type": "government",
                "landuse": "education",
                "fixme": "amenity=school, amenity=college albo landuse=education w zale\u017cno\u015bci od tego, jakie plac\u00f3wki wchodz\u0105 w sk\u0142ad zespo\u0142u. Sprawd\u017a, kiedy stosowa\u0107 amenity=* a kiedy landuse=education.",
                "note": "Children RSPO: 105181;106913"
            }
        },
        {
            "id": 105181,
            "type": "Feature",
            "geometry": {
                "type": "Point",
                "coordinates": [
                    20.52217,
                    51.72784
                ]
            },
            "properties": {
                "isced:level": "1;2",
                "ref:rspo": 105181,
                "official_name": "Szko\u0142a Podstawowa im. Janusza Korczaka w Zespole Szk\u00f3\u0142 w Sadkowicach",
                "name": "Szko\u0142a Podstawowa",
                "addr:country": "PL",
                "addr:postcode": "96-206",
                "addr:place": "Sadkowice",
                "addr:housenumber": "128",
                "addr:door": "128",
                "addr:teryt:simc": 737373,
                "contact:phone": "+48 468156168",
                "contact:email": "zs.sadkowice@op.pl",
                "contact:website": "http:\/\/www.zssadkowice.pl",
                "ref:regon": "000273376",
                "ref:vatin": "PL8351183332",
                "operator": "Gmina Sadkowice",
                "operator:type": "government",
                "amenity": "school",
                "note": "Parent RSPO: 89658"
            }
        },
        {
            "id": 106913,
            "type": "Feature",
            "geometry": {
                "type": "Point",
                "coordinates": [
                    20.52217,
                    51.727810000000005
                ]
            },
            "properties": {
                "ref:rspo": 106913,
                "official_name": "Przedszkole w Zespole Szk\u00f3\u0142 w Sadkowicach",
                "name": "Przedszkole w Zespole Szk\u00f3\u0142 w Sadkowicach",
                "addr:country": "PL",
                "addr:postcode": "96-206",
                "addr:place": "Sadkowice",
                "addr:housenumber": "128",
                "addr:door": "128",
                "addr:teryt:simc": 737373,
                "contact:phone": "+48 468156168",
                "ref:regon": "750021122",
                "ref:vatin": "PL8351180121",
                "operator": "Gmina Sadkowice",
                "operator:type": "government",
                "amenity": "kindergarten",
                "note": "Parent RSPO: 89658"
            }
        }
    ]
}