{
    "type": "FeatureCollection",
    "features": [
        {
            "id": 23848,
            "type": "Feature",
            "geometry": {
                "type": "Point",
                "coordinates": [
                    16.19554,
                    51.04732
                ]
            },
            "properties": {
                "isced:level": "3",
                "ref:rspo": 23848,
                "official_name": "I Liceum Og\u00f3lnokszta\u0142c\u0105ce Imienia Ksi\u0119cia Bolka I w Jaworze",
                "name": "I Liceum Og\u00f3lnokszta\u0142c\u0105ce Imienia Ksi\u0119cia Bolka I w Jaworze",
                "addr:postcode": "59-400",
                "addr:city": "Jawor",
                "addr:street": "Tadeusza Ko\u015bciuszki",
                "addr:housenumber": "8",
                "addr:city:simc": 954120,
                "addr:street:sym_ul": 9582,
                "phone": "+48 768702984",
                "email": "zso1jawor@poczta.onet.pl",
                "website": "http:\/\/www.lo1jawor.pl",
                "ref:regon": "000233780",
                "ref:vatin": "PL6951531585",
                "operator": "Powiat Jaworski",
                "operator:type": "government",
                "amenity": "school"
            }
        },
        {
            "id": 62453,
            "type": "Feature",
            "geometry": {
                "type": "Point",
                "coordinates": [
                    16.1939,
                    51.04735
                ]
            },
            "properties": {
                "ref:rspo": 62453,
                "official_name": "Przedszkole Publiczne Nr 4 Z Oddzia\u0142ami Zamiejscowymi Przy Ul. Dmowskiego 5",
                "name": "Przedszkole Publiczne Nr 4 Z Oddzia\u0142ami Zamiejscowymi Przy Ul. Dmowskiego 5",
                "addr:postcode": "59-400",
                "addr:city": "Jawor",
                "addr:street": "Fryderyka Chopina",
                "addr:housenumber": "10",
                "addr:city:simc": 954120,
                "addr:street:sym_ul": 2849,
                "phone": "+48 768702442",
                "email": "przedszkole4jawor@poczta.onet.pl",
                "website": "http:\/\/www.pp4jawor.pl",
                "ref:regon": "021400157",
                "ref:vatin": "PL6951512719",
                "operator": "Gmina Jawor",
                "operator:type": "government",
                "amenity": "kindergarten"
            }
        },
        {
            "id": 85586,
            "type": "Feature",
            "geometry": {
                "type": "Point",
                "coordinates": [
                    16.19393,
                    51.04789
                ]
            },
            "properties": {
                "ref:rspo": 85586,
                "official_name": "Przedszkole Niepubliczne \"Prymusek\" w Jaworze",
                "name": "Przedszkole Niepubliczne \"Prymusek\" w Jaworze",
                "addr:postcode": "59-400",
                "addr:city": "Jawor",
                "addr:street": "Fryderyka Chopina",
                "addr:housenumber": "11",
                "addr:city:simc": 954120,
                "addr:street:sym_ul": 2849,
                "phone": "+48 768702167",
                "email": "prymusek.szopena@neostrada.pl",
                "ref:regon": "022009337",
                "ref:vatin": "PL6951228852",
                "operator": "Wanda Wo\u017aniak",
                "operator:type": "private",
                "amenity": "kindergarten"
            }
        },
        {
            "id": 62450,
            "type": "Feature",
            "geometry": {
                "type": "Point",
                "coordinates": [
                    16.2022,
                    51.04998
                ]
            },
            "properties": {
                "isced:level": "1;2",
                "ref:rspo": 62450,
                "official_name": "Szko\u0142a Podstawowa Nr 5 im. Janusza Korczaka w Jaworze",
                "name": "Szko\u0142a Podstawowa Nr 5",
                "addr:postcode": "59-400",
                "addr:city": "Jawor",
                "addr:street": "Armii Krajowej",
                "addr:housenumber": "9",
                "addr:city:simc": 954120,
                "addr:street:sym_ul": 432,
                "phone": "+48 768702655",
                "email": "sp5-jawor@wp.pl",
                "website": "http:\/\/www.sp5jawor.net",
                "ref:regon": "000708762",
                "ref:vatin": "PL6951008688",
                "operator": "Gmina Jawor",
                "operator:type": "government",
                "amenity": "school"
            }
        },
        {
            "id": 11674,
            "type": "Feature",
            "geometry": {
                "type": "Point",
                "coordinates": [
                    16.20009,
                    51.05008
                ]
            },
            "properties": {
                "ref:rspo": 11674,
                "official_name": "Powiatowy O\u015brodek Rozwoju Edukacji",
                "name": "Powiatowy O\u015brodek Rozwoju Edukacji",
                "addr:postcode": "59-420",
                "addr:city": "Jawor",
                "addr:street": "J\u00f3zefa Pi\u0142sudskiego",
                "addr:housenumber": "11",
                "addr:city:simc": 954120,
                "addr:street:sym_ul": 16264,
                "phone": "+48 767291924",
                "email": "sekretariat@pore-jawor.pl",
                "website": "http:\/\/www.pore-jawor.pl",
                "ref:regon": "020029732",
                "ref:vatin": "PL6951448921",
                "operator": "Powiat Jaworski",
                "operator:type": "government",
                "landuse": "education",
                "fixme": "amenity=school, amenity=college albo landuse=education w zale\u017cno\u015bci od tego, jakie plac\u00f3wki wchodz\u0105 w sk\u0142ad zespo\u0142u. Sprawd\u017a, kiedy stosowa\u0107 amenity=* a kiedy landuse=education.",
                "note": "Children RSPO: 19447;19449"
            }
        },
        {
            "id": 19447,
            "type": "Feature",
            "geometry": {
                "type": "Point",
                "coordinates": [
                    16.20009,
                    51.05005
                ]
            },
            "properties": {
                "ref:rspo": 19447,
                "official_name": "Biblioteka Pedagogiczna",
                "name": "Biblioteka Pedagogiczna",
                "addr:postcode": "59-400",
                "addr:city": "Jawor",
                "addr:street": "J\u00f3zefa Pi\u0142sudskiego",
                "addr:housenumber": "11",
                "addr:city:simc": 954120,
                "addr:street:sym_ul": 16264,
                "phone": "+48 767291924",
                "email": "sekretariat@pore-jawor.pl",
                "website": "http:\/\/www.pore-jawor.pl",
                "ref:regon": "021973491",
                "operator": "Powiat Jaworski",
                "operator:type": "government",
                "amenity": "library",
                "note": "Parent RSPO: 11674"
            }
        },
        {
            "id": 19449,
            "type": "Feature",
            "geometry": {
                "type": "Point",
                "coordinates": [
                    16.20009,
                    51.05002
                ]
            },
            "properties": {
                "ref:rspo": 19449,
                "official_name": "Poradnia Psychologiczno - Pedagogiczna w Jaworze",
                "name": "Poradnia Psychologiczno - Pedagogiczna w Jaworze",
                "addr:postcode": "59-400",
                "addr:city": "Jawor",
                "addr:street": "J\u00f3zefa Pi\u0142sudskiego",
                "addr:housenumber": "11",
                "addr:city:simc": 954120,
                "addr:street:sym_ul": 16264,
                "phone": "+48 767290124",
                "email": "poradnia@pore-jawor.pl",
                "website": "http:\/\/pore-jawor.pl",
                "ref:regon": "021973611",
                "operator": "Powiat Jaworski",
                "operator:type": "government",
                "healthcare": "counselling",
                "counselling_type": "education",
                "fixme": "w zale\u017cno\u015bci od przedmiotu dzia\u0142alno\u015bci (np. healthcare=counselling + counselling_type=education albo healthcare=psychotherapist)",
                "note": "Parent RSPO: 11674"
            }
        },
        {
            "id": 62455,
            "type": "Feature",
            "geometry": {
                "type": "Point",
                "coordinates": [
                    16.19982,
                    51.05072
                ]
            },
            "properties": {
                "ref:rspo": 62455,
                "official_name": "Przedszkole Publiczne Nr 2 \"Akademia Krasnoludk\u00f3w\"",
                "name": "Przedszkole Publiczne Nr 2 \"Akademia Krasnoludk\u00f3w\"",
                "addr:postcode": "59-400",
                "addr:city": "Jawor",
                "addr:street": "J\u00f3zefa Pi\u0142sudskiego",
                "addr:housenumber": "14",
                "addr:city:simc": 954120,
                "addr:street:sym_ul": 16264,
                "phone": "+48 768702847",
                "email": "przedszkole@krasnoludek.net.pl",
                "website": "http:\/\/www.krasnoludek.net.pl",
                "ref:regon": "021378050",
                "ref:vatin": "PL6951512470",
                "operator": "Gmina Jawor",
                "operator:type": "government",
                "amenity": "kindergarten"
            }
        },
        {
            "id": 59822,
            "type": "Feature",
            "geometry": {
                "type": "Point",
                "coordinates": [
                    16.19492,
                    51.05195
                ]
            },
            "properties": {
                "ref:rspo": 59822,
                "official_name": "Dolno\u015bL\u0105ski M\u0142odzie\u017cowy O\u015brodek Wychowawczy w Jaworze",
                "name": "Dolno\u015bL\u0105ski M\u0142odzie\u017cowy O\u015brodek Wychowawczy w Jaworze",
                "addr:postcode": "59-400",
                "addr:city": "Jawor",
                "addr:street": "Legnicka",
                "addr:housenumber": "16",
                "addr:city:simc": 954120,
                "addr:street:sym_ul": 10780,
                "phone": "+48 768702033",
                "email": "sekretariat@mowjawor.pl",
                "website": "http:\/\/www.mowjawor.pl",
                "ref:regon": "000708934",
                "operator": "Wojew\u00f3dztwo Dolno\u015bl\u0105skie",
                "operator:type": "government",
                "fixme": "amenity=social_facility + social_facility=group_home + social_facility:for=juvenile",
                "note": "Children RSPO: 68700;267917"
            }
        },
        {
            "id": 68700,
            "type": "Feature",
            "geometry": {
                "type": "Point",
                "coordinates": [
                    16.19492,
                    51.051919999999996
                ]
            },
            "properties": {
                "isced:level": "1;2",
                "ref:rspo": 68700,
                "official_name": "Specjalna Szko\u0142a Podstawowa Nr 6",
                "name": "Specjalna Szko\u0142a Podstawowa Nr 6",
                "addr:postcode": "59-400",
                "addr:city": "Jawor",
                "addr:street": "Legnicka",
                "addr:housenumber": "16",
                "addr:city:simc": 954120,
                "addr:street:sym_ul": 10780,
                "phone": "+48 768702033",
                "email": "sekretariat@mowjawor.pl",
                "website": "http:\/\/www.mowjawor.pl",
                "ref:regon": "022001130",
                "operator": "Wojew\u00f3dztwo Dolno\u015bl\u0105skie",
                "operator:type": "government",
                "amenity": "school",
                "note": "Parent RSPO: 59822"
            }
        },
        {
            "id": 267917,
            "type": "Feature",
            "geometry": {
                "type": "Point",
                "coordinates": [
                    16.19492,
                    51.05189
                ]
            },
            "properties": {
                "isced:level": "3",
                "ref:rspo": 267917,
                "official_name": "Bran\u017cowa Szko\u0142a Specjalna I Stopnia w Jaworze",
                "name": "Bran\u017cowa Szko\u0142a Specjalna I Stopnia w Jaworze",
                "addr:postcode": "59-400",
                "addr:city": "Jawor",
                "addr:street": "Legnicka",
                "addr:housenumber": "16",
                "addr:city:simc": 954120,
                "addr:street:sym_ul": 10780,
                "phone": "+48 768702033",
                "email": "sekretariat@mowjawor.pl",
                "website": "http:\/\/www.mowjawor.pl",
                "ref:regon": "380753601",
                "operator": "Wojew\u00f3dztwo Dolno\u015bl\u0105skie",
                "operator:type": "government",
                "amenity": "school",
                "note": "Parent RSPO: 59822"
            }
        },
        {
            "id": 11670,
            "type": "Feature",
            "geometry": {
                "type": "Point",
                "coordinates": [
                    16.20119,
                    51.0526
                ]
            },
            "properties": {
                "ref:rspo": 11670,
                "official_name": "Powiatowe Centrum Kszta\u0142cenia Zawodowego I Ustawicznego im. Komisji Edukacji Narodowej",
                "name": "Powiatowe Centrum Kszta\u0142cenia Zawodowego I Ustawicznego",
                "addr:postcode": "59-400",
                "addr:city": "Jawor",
                "addr:street": "Wroc\u0142awska",
                "addr:housenumber": "30a",
                "addr:city:simc": 954120,
                "addr:street:sym_ul": 24806,
                "phone": "+48 768703088",
                "email": "sekretariat@pckzjawor.pl",
                "website": "http:\/\/www.pckzjawor.pl",
                "ref:regon": "000182538",
                "ref:vatin": "PL6951422270",
                "operator": "Powiat Jaworski",
                "operator:type": "government",
                "landuse": "education",
                "fixme": "amenity=school, amenity=college albo landuse=education w zale\u017cno\u015bci od tego, jakie plac\u00f3wki wchodz\u0105 w sk\u0142ad zespo\u0142u. Sprawd\u017a, kiedy stosowa\u0107 amenity=* a kiedy landuse=education.",
                "note": "Children RSPO: 22313;22314;22315"
            }
        },
        {
            "id": 22313,
            "type": "Feature",
            "geometry": {
                "type": "Point",
                "coordinates": [
                    16.20119,
                    51.052569999999996
                ]
            },
            "properties": {
                "isced:level": "3",
                "ref:rspo": 22313,
                "official_name": "Bran\u017cowa Szko\u0142a I Stopnia",
                "name": "Bran\u017cowa Szko\u0142a I Stopnia",
                "addr:postcode": "59-400",
                "addr:city": "Jawor",
                "addr:street": "Wroc\u0142awska",
                "addr:housenumber": "30a",
                "addr:city:simc": 954120,
                "addr:street:sym_ul": 24806,
                "phone": "+48 768703088",
                "email": "sekretariat@pckzjawor.pl",
                "website": "http:\/\/www.pckzjawor.pl",
                "ref:regon": "391003320",
                "operator": "Powiat Jaworski",
                "operator:type": "government",
                "amenity": "school",
                "note": "Parent RSPO: 11670"
            }
        },
        {
            "id": 22314,
            "type": "Feature",
            "geometry": {
                "type": "Point",
                "coordinates": [
                    16.20119,
                    51.05254
                ]
            },
            "properties": {
                "isced:level": "3",
                "ref:rspo": 22314,
                "official_name": "Technikum",
                "name": "Technikum",
                "addr:postcode": "59-400",
                "addr:city": "Jawor",
                "addr:street": "Wroc\u0142awska",
                "addr:housenumber": "30a",
                "addr:city:simc": 954120,
                "addr:street:sym_ul": 24806,
                "phone": "+48 768703088",
                "email": "sekretariat@pckzjawor.pl",
                "website": "http:\/\/www.pckzjawor.pl",
                "ref:regon": "391003426",
                "operator": "Powiat Jaworski",
                "operator:type": "government",
                "amenity": "school",
                "note": "Parent RSPO: 11670"
            }
        },
        {
            "id": 22315,
            "type": "Feature",
            "geometry": {
                "type": "Point",
                "coordinates": [
                    16.20119,
                    51.05251
                ]
            },
            "properties": {
                "ref:rspo": 22315,
                "official_name": "Centrum Kszta\u0142cenia Zawodowego",
                "name": "Centrum Kszta\u0142cenia Zawodowego",
                "addr:postcode": "59-400",
                "addr:city": "Jawor",
                "addr:street": "Wroc\u0142awska",
                "addr:housenumber": "30a",
                "addr:city:simc": 954120,
                "addr:street:sym_ul": 24806,
                "phone": "+48 768702839",
                "email": "sekretariat@pckzjawor.pl",
                "ref:regon": "391003751",
                "operator": "Powiat Jaworski",
                "operator:type": "government",
                "fixme": "w zale\u017cno\u015bci od przedmiotu dzia\u0142alno\u015bci (np. amenity=training + training=*, amenity=dancing_school, amenity=language_school, amenity=music_school) albo amenity=school, amenity=college, albo landuse=education w zale\u017cno\u015bci od tego, jakie plac\u00f3wki wchodz\u0105 w sk\u0142ad zespo\u0142u. Sprawd\u017a, kiedy stosowa\u0107 amenity=* a kiedy landuse=education.",
                "note": "Parent RSPO: 11670"
            }
        },
        {
            "id": 262465,
            "type": "Feature",
            "geometry": {
                "type": "Point",
                "coordinates": [
                    16.19346,
                    51.05296
                ]
            },
            "properties": {
                "isced:level": "1;2",
                "ref:rspo": 262465,
                "official_name": "Szko\u0142a Podstawowa Nr 2 im. Marsza\u0142ka J\u00f3zefa Pi\u0142sudskiego",
                "name": "Szko\u0142a Podstawowa Nr 2",
                "addr:postcode": "59-400",
                "addr:city": "Jawor",
                "addr:street": "Plac Bankowy",
                "addr:housenumber": "1",
                "addr:city:simc": 954120,
                "addr:street:sym_ul": 695,
                "phone": "+48 768702155",
                "email": "szkola@sp2jawor.pl",
                "website": "http:\/\/www.sp2jawor.pl",
                "ref:regon": "368020291",
                "operator": "Gmina Jawor",
                "operator:type": "government",
                "amenity": "school"
            }
        },
        {
            "id": 271131,
            "type": "Feature",
            "geometry": {
                "type": "Point",
                "coordinates": [
                    16.19639,
                    51.05387
                ]
            },
            "properties": {
                "ref:rspo": 271131,
                "official_name": "Niepubliczne Przedszkole Montessori \"Kangurek\"",
                "name": "Niepubliczne Przedszkole Montessori \"Kangurek\"",
                "addr:postcode": "59-400",
                "addr:city": "Jawor",
                "addr:street": "Kolejowa",
                "addr:housenumber": "13",
                "addr:city:simc": 954120,
                "addr:street:sym_ul": 8828,
                "phone": "+48 570899838",
                "email": "kangurek.jawor@gmail.com",
                "ref:regon": "383106144",
                "operator": "At Sp\u00f3\u0142ka Z Ograniczon\u0105 Odpowiedzialno\u015bci\u0105",
                "operator:type": "consortium",
                "amenity": "kindergarten"
            }
        },
        {
            "id": 11675,
            "type": "Feature",
            "geometry": {
                "type": "Point",
                "coordinates": [
                    16.19393,
                    51.05518
                ]
            },
            "properties": {
                "ref:rspo": 11675,
                "official_name": "Dolno\u015bL\u0105ski Zak\u0142ad Doskonalenia Zawodowego Oddzia\u0142 I we Wroc\u0142awiu O\u015brodek Kszta\u0142cenia Zawodowego w J",
                "name": "Dolno\u015bL\u0105ski Zak\u0142ad Doskonalenia Zawodowego Oddzia\u0142 I we Wroc\u0142awiu O\u015brodek Kszta\u0142cenia Zawodowego w J",
                "addr:postcode": "59-400",
                "addr:city": "Jawor",
                "addr:street": "Ksi\u0119cia J\u00f3zefa Poniatowskiego",
                "addr:housenumber": "25",
                "addr:city:simc": 954120,
                "addr:street:sym_ul": 17113,
                "phone": "+48 768702654",
                "email": "okz.jawor@dzdz.wroc.pl",
                "website": "http:\/\/dzdz.wroc.pl",
                "ref:regon": "021967059",
                "ref:vatin": "PL8960004550",
                "operator": "Dolno\u015bl\u0105ski Zak\u0142ad Doskonalenia Zawodowego Oddzia\u0142 I We Wroc\u0142awiu",
                "operator:type": "ngo",
                "fixme": "w zale\u017cno\u015bci od przedmiotu dzia\u0142alno\u015bci (np. amenity=training + training=*, amenity=dancing_school, amenity=language_school, amenity=music_school)"
            }
        },
        {
            "id": 62449,
            "type": "Feature",
            "geometry": {
                "type": "Point",
                "coordinates": [
                    16.1903,
                    51.05643
                ]
            },
            "properties": {
                "isced:level": "1;2",
                "ref:rspo": 62449,
                "official_name": "Szko\u0142a Podstawowa Nr 1 im. Kornela Makuszy\u0144skiego w Jaworze",
                "name": "Szko\u0142a Podstawowa Nr 1",
                "addr:postcode": "59-400",
                "addr:city": "Jawor",
                "addr:street": "Stanis\u0142awa Moniuszki",
                "addr:housenumber": "4",
                "addr:city:simc": 954120,
                "addr:street:sym_ul": 13246,
                "phone": "+48 768704900",
                "email": "sp1jawor.dyr@gmail.com",
                "website": "http:\/\/sp1jawor.pl",
                "ref:regon": "000708733",
                "ref:vatin": "PL6951008470",
                "operator": "Gmina Jawor",
                "operator:type": "government",
                "amenity": "school"
            }
        },
        {
            "id": 62454,
            "type": "Feature",
            "geometry": {
                "type": "Point",
                "coordinates": [
                    16.1894,
                    51.05725
                ]
            },
            "properties": {
                "ref:rspo": 62454,
                "official_name": "Przedszkole Publiczne Nr 8 im. Kubusia Puchatka w Jaworze",
                "name": "Przedszkole Publiczne Nr 8",
                "addr:postcode": "59-400",
                "addr:city": "Jawor",
                "addr:street": "Stanis\u0142awa Moniuszki",
                "addr:housenumber": "8",
                "addr:city:simc": 954120,
                "addr:street:sym_ul": 13246,
                "phone": "+48 768704095",
                "email": "kubuspuchatek48@wp.pl",
                "website": "http:\/\/www.kubuspuchatekjawor.pl",
                "ref:regon": "021377659",
                "ref:vatin": "PL6951512464",
                "operator": "Gmina Jawor",
                "operator:type": "government",
                "amenity": "kindergarten"
            }
        },
        {
            "id": 13204,
            "type": "Feature",
            "geometry": {
                "type": "Point",
                "coordinates": [
                    16.1865099,
                    51.05982
                ]
            },
            "properties": {
                "ref:rspo": 13204,
                "official_name": "Specjalny O\u015brodek Szkolno - Wychowawczy",
                "name": "Specjalny O\u015brodek Szkolno - Wychowawczy",
                "addr:postcode": "59-400",
                "addr:city": "Jawor",
                "addr:street": "Ignacego Paderewskiego",
                "addr:housenumber": "6",
                "addr:city:simc": 954120,
                "addr:street:sym_ul": 15529,
                "phone": "+48 768702472",
                "email": "soswjawor@soswjawor.pl",
                "website": "http:\/\/www.soswjawor.pl",
                "ref:regon": "000236984",
                "ref:vatin": "PL6951008843",
                "operator": "Powiat Jaworski",
                "operator:type": "government",
                "amenity": "school",
                "note": "Children RSPO: 21706;21707;21710;21711;132343"
            }
        },
        {
            "id": 21706,
            "type": "Feature",
            "geometry": {
                "type": "Point",
                "coordinates": [
                    16.1865099,
                    51.05979
                ]
            },
            "properties": {
                "isced:level": "1;2",
                "ref:rspo": 21706,
                "official_name": "Szko\u0142a Podstawowa Specjalna Nr 3 dla Dzieci Z Niepe\u0142nosprawno\u015bci\u0105 Intelektualn\u0105 w Stopniu Lekkim",
                "name": "Szko\u0142a Podstawowa Specjalna Nr 3 dla Dzieci Z Niepe\u0142nosprawno\u015bci\u0105 Intelektualn\u0105 w Stopniu Lekkim",
                "addr:postcode": "59-400",
                "addr:city": "Jawor",
                "addr:street": "Ignacego Paderewskiego",
                "addr:housenumber": "6",
                "addr:city:simc": 954120,
                "addr:street:sym_ul": 15529,
                "phone": "+48 768702472",
                "email": "soswjawor@soswjawor.pl",
                "website": "http:\/\/www.soswjawor.pl",
                "ref:regon": "391008122",
                "operator": "Powiat Jaworski",
                "operator:type": "government",
                "amenity": "school",
                "note": "Parent RSPO: 13204"
            }
        },
        {
            "id": 21707,
            "type": "Feature",
            "geometry": {
                "type": "Point",
                "coordinates": [
                    16.1865099,
                    51.059760000000004
                ]
            },
            "properties": {
                "isced:level": "1;2",
                "ref:rspo": 21707,
                "official_name": "Szko\u0142a Podstawowa Specjalna Nr 2 dla Dzieci Z Niepe\u0142nosprawno\u015bci\u0105 Intelektualn\u0105 w Stopniu Umiarkowanym I Znacznym",
                "name": "Szko\u0142a Podstawowa Specjalna Nr 2 dla Dzieci Z Niepe\u0142nosprawno\u015bci\u0105 Intelektualn\u0105 w Stopniu Umiarkowanym I Znacznym",
                "addr:postcode": "59-400",
                "addr:city": "Jawor",
                "addr:street": "Ignacego Paderewskiego",
                "addr:housenumber": "6",
                "addr:city:simc": 954120,
                "addr:street:sym_ul": 15529,
                "phone": "+48 768702472",
                "email": "soswjawor@soswjawor.pl",
                "website": "http:\/\/www.soswjawor.pl",
                "ref:regon": "391008116",
                "operator": "Powiat Jaworski",
                "operator:type": "government",
                "amenity": "school",
                "note": "Parent RSPO: 13204"
            }
        },
        {
            "id": 21710,
            "type": "Feature",
            "geometry": {
                "type": "Point",
                "coordinates": [
                    16.1865099,
                    51.05973
                ]
            },
            "properties": {
                "isced:level": "3",
                "ref:rspo": 21710,
                "official_name": "Bran\u017cowa Szko\u0142a Specjalna I Stopnia",
                "name": "Bran\u017cowa Szko\u0142a Specjalna I Stopnia",
                "addr:postcode": "59-400",
                "addr:city": "Jawor",
                "addr:street": "Ignacego Paderewskiego",
                "addr:housenumber": "6",
                "addr:city:simc": 954120,
                "addr:street:sym_ul": 15529,
                "phone": "+48 768702472",
                "email": "soswjawor@soswjawor.pl",
                "website": "http:\/\/www.soswjawor.pl",
                "ref:regon": "391008079",
                "operator": "Powiat Jaworski",
                "operator:type": "government",
                "amenity": "school",
                "note": "Parent RSPO: 13204"
            }
        },
        {
            "id": 21711,
            "type": "Feature",
            "geometry": {
                "type": "Point",
                "coordinates": [
                    16.1865099,
                    51.0597
                ]
            },
            "properties": {
                "ref:rspo": 21711,
                "official_name": "Szko\u0142a Specjalna Przysposabiaj\u0105ca Do Pracy",
                "name": "Szko\u0142a Specjalna Przysposabiaj\u0105ca Do Pracy",
                "addr:postcode": "59-400",
                "addr:city": "Jawor",
                "addr:street": "Ignacego Paderewskiego",
                "addr:housenumber": "6",
                "addr:city:simc": 954120,
                "addr:street:sym_ul": 15529,
                "phone": "+48 768702472",
                "email": "soswjawor@soswjawor.pl",
                "website": "http:\/\/www.soswjawor.pl",
                "ref:regon": "020133872",
                "operator": "Powiat Jaworski",
                "operator:type": "government",
                "amenity": "school",
                "note": "Parent RSPO: 13204"
            }
        },
        {
            "id": 132343,
            "type": "Feature",
            "geometry": {
                "type": "Point",
                "coordinates": [
                    16.1865099,
                    51.059670000000004
                ]
            },
            "properties": {
                "ref:rspo": 132343,
                "official_name": "Przedszkole Specjalne w Jaworze dla Dzieci Z Niepe\u0142nosprawno\u015bci\u0105 Intelektualn\u0105 w Stopniu Umiarkowanym, Znacznym I G\u0142\u0119bokim, Z Autyzmem Oraz Z Niepe\u0142nosprawno\u015bciami Sprz\u0119\u017conymi",
                "name": "Przedszkole Specjalne w Jaworze dla Dzieci Z Niepe\u0142nosprawno\u015bci\u0105 Intelektualn\u0105 w Stopniu Umiarkowanym, Znacznym I G\u0142\u0119bokim, Z Autyzmem Oraz Z Niepe\u0142nosprawno\u015bciami Sprz\u0119\u017conymi",
                "addr:postcode": "59-400",
                "addr:city": "Jawor",
                "addr:street": "Ignacego Paderewskiego",
                "addr:housenumber": "6",
                "addr:city:simc": 954120,
                "addr:street:sym_ul": 15529,
                "phone": "+48 768702474",
                "email": "soswjawor@soswjawor.pl",
                "website": "http:\/\/soswjawor.szkolnastrona.pl",
                "ref:regon": "365562689",
                "operator": "Powiat Jaworski",
                "operator:type": "government",
                "amenity": "kindergarten",
                "note": "Parent RSPO: 13204"
            }
        },
        {
            "id": 57091,
            "type": "Feature",
            "geometry": {
                "type": "Point",
                "coordinates": [
                    16.18416,
                    51.06895
                ]
            },
            "properties": {
                "ref:rspo": 57091,
                "official_name": "Dolno\u015bL\u0105ski Zesp\u00f3\u0142 Szk\u00f3\u0142 w Jaworze",
                "name": "Dolno\u015bL\u0105ski Zesp\u00f3\u0142 Szk\u00f3\u0142 w Jaworze",
                "addr:postcode": "59-400",
                "addr:city": "Jawor",
                "addr:street": "Kardyna\u0142a Stefana Wyszy\u0144skiego",
                "addr:housenumber": "1",
                "addr:city:simc": 954120,
                "addr:street:sym_ul": 25107,
                "phone": "+48 768703114",
                "email": "medykjawor@dja.pl",
                "website": "http:\/\/www.dzs.jawor.dolnyslask.pl",
                "ref:regon": "021321400",
                "operator": "Wojew\u00f3dztwo Dolno\u015bl\u0105skie",
                "operator:type": "government",
                "landuse": "education",
                "fixme": "amenity=school, amenity=college albo landuse=education w zale\u017cno\u015bci od tego, jakie plac\u00f3wki wchodz\u0105 w sk\u0142ad zespo\u0142u. Sprawd\u017a, kiedy stosowa\u0107 amenity=* a kiedy landuse=education.",
                "note": "Children RSPO: 60186;267918"
            }
        },
        {
            "id": 60186,
            "type": "Feature",
            "geometry": {
                "type": "Point",
                "coordinates": [
                    16.18416,
                    51.06892
                ]
            },
            "properties": {
                "isced:level": "4",
                "ref:rspo": 60186,
                "official_name": "Szko\u0142a Policealna S\u0142u\u017cb Spo\u0142ecznych I Medycznych w Jaworze",
                "name": "Szko\u0142a Policealna S\u0142u\u017cb Spo\u0142ecznych I Medycznych w Jaworze",
                "addr:postcode": "59-400",
                "addr:city": "Jawor",
                "addr:street": "Kardyna\u0142a Stefana Wyszy\u0144skiego",
                "addr:housenumber": "1",
                "addr:city:simc": 954120,
                "addr:street:sym_ul": 25107,
                "phone": "+48 768703114",
                "email": "medykjawor@dja.pl",
                "website": "http:\/\/www.dzs.jawor.dolnyslask.pl",
                "ref:regon": "021321417",
                "operator": "Wojew\u00f3dztwo Dolno\u015bl\u0105skie",
                "operator:type": "government",
                "amenity": "college",
                "note": "Parent RSPO: 57091"
            }
        },
        {
            "id": 267918,
            "type": "Feature",
            "geometry": {
                "type": "Point",
                "coordinates": [
                    16.18416,
                    51.06889
                ]
            },
            "properties": {
                "ref:rspo": 267918,
                "official_name": "Centrum Kszta\u0142cenia Ustawicznego w Jaworze",
                "name": "Centrum Kszta\u0142cenia Ustawicznego w Jaworze",
                "addr:postcode": "59-400",
                "addr:city": "Jawor",
                "addr:street": "Kardyna\u0142a Stefana Wyszy\u0144skiego",
                "addr:housenumber": "1",
                "addr:city:simc": 954120,
                "addr:street:sym_ul": 25107,
                "phone": "+48 768703114",
                "email": "medykjawor@dja.pl",
                "website": "http:\/\/www.dzs.jawor.dolnyslask.pl",
                "ref:regon": "380753630",
                "operator": "Wojew\u00f3dztwo Dolno\u015bl\u0105skie",
                "operator:type": "government",
                "fixme": "w zale\u017cno\u015bci od przedmiotu dzia\u0142alno\u015bci (np. amenity=training + training=*, amenity=dancing_school, amenity=language_school, amenity=music_school)",
                "note": "Parent RSPO: 57091"
            }
        },
        {
            "id": 62448,
            "type": "Feature",
            "geometry": {
                "type": "Point",
                "coordinates": [
                    16.16532,
                    51.07408
                ]
            },
            "properties": {
                "isced:level": "1;2",
                "ref:rspo": 62448,
                "official_name": "Szko\u0142a Podstawowa Nr 4 im. Henryka Sienkiewicza w Jaworze",
                "name": "Szko\u0142a Podstawowa Nr 4",
                "addr:postcode": "59-400",
                "addr:city": "Jawor",
                "addr:street": "Starojaworska",
                "addr:housenumber": "82",
                "addr:city:simc": 954120,
                "addr:street:sym_ul": 20942,
                "phone": "+48 767291904",
                "email": "sp4.jawor@wp.pl",
                "website": "http:\/\/www.sp4jawor.pl",
                "ref:regon": "000708756",
                "ref:vatin": "PL6951008518",
                "operator": "Gmina Jawor",
                "operator:type": "government",
                "amenity": "school"
            }
        },
        {
            "id": 133974,
            "type": "Feature",
            "geometry": {
                "type": "Point",
                "coordinates": [
                    16.14995,
                    51.08529
                ]
            },
            "properties": {
                "ref:rspo": 133974,
                "official_name": "Niepubliczne Przedszkole \"M\u00f3j Ma\u0142y \u015awiat\"",
                "name": "Niepubliczne Przedszkole \"M\u00f3j Ma\u0142y \u015awiat\"",
                "addr:postcode": "59-400",
                "addr:city": "Jawor",
                "addr:street": "Widokowa",
                "addr:housenumber": "2",
                "addr:city:simc": 954120,
                "addr:street:sym_ul": 24012,
                "phone": "+48 530714659",
                "email": "malyswiat.widokowa@gmail.com",
                "ref:regon": "367762286",
                "operator": "Ma\u0142gorzata Hasiuk",
                "operator:type": "private",
                "amenity": "kindergarten"
            }
        }
    ]
}