{
    "type": "FeatureCollection",
    "features": [
        {
            "id": 52958,
            "type": "Feature",
            "geometry": {
                "type": "Point",
                "coordinates": [
                    18.063449,
                    52.1241519
                ]
            },
            "properties": {
                "isced:level": "1;2",
                "ref:rspo": 52958,
                "official_name": "Szko\u0142a Podstawowa im.jana Brzechwy w Grabienicach",
                "name": "Szko\u0142a Podstawowa im.jana Brzechwy w Grabienicach",
                "addr:postcode": "62-586",
                "addr:place": "Grabienice",
                "addr:housenumber": "67",
                "addr:teryt:simc": 293947,
                "phone": "+48 632419033",
                "email": "grabienice@o2.pl",
                "ref:regon": "001190155",
                "ref:vatin": "PL6651102503",
                "operator": "Gmina Rzg\u00f3w",
                "operator:type": "government",
                "amenity": "school"
            }
        },
        {
            "id": 52959,
            "type": "Feature",
            "geometry": {
                "type": "Point",
                "coordinates": [
                    18.0512619,
                    52.1538588
                ]
            },
            "properties": {
                "isced:level": "1;2",
                "ref:rspo": 52959,
                "official_name": "Szko\u0142a Podstawowa im.marii Konopnickiej w Osieczy",
                "name": "Szko\u0142a Podstawowa im.marii Konopnickiej w Osieczy",
                "addr:postcode": "62-586",
                "addr:place": "Osiecza Druga",
                "addr:housenumber": "3",
                "addr:teryt:simc": 294071,
                "phone": "+48 632419211",
                "email": "sposiecza@op.pl",
                "ref:regon": "001190161",
                "ref:vatin": "PL6652396576",
                "operator": "Gmina Rzg\u00f3w",
                "operator:type": "government",
                "amenity": "school"
            }
        },
        {
            "id": 70790,
            "type": "Feature",
            "geometry": {
                "type": "Point",
                "coordinates": [
                    18.05255,
                    52.15423
                ]
            },
            "properties": {
                "ref:rspo": 70790,
                "official_name": "Przedszkole Gminne \"Gromadka Misia Uszatka\" w Rzgowie",
                "name": "Przedszkole Gminne \"Gromadka Misia Uszatka\" w Rzgowie",
                "addr:postcode": "62-586",
                "addr:city": "Rzg\u00f3w",
                "addr:street": "Koni\u0144ska",
                "addr:housenumber": "6",
                "addr:teryt:simc": 294119,
                "addr:teryt:sym_ul": 9163,
                "phone": "+48 632493106",
                "email": "sprzgow@interia.pl",
                "ref:regon": "000996229",
                "operator": "Gmina Rzg\u00f3w",
                "operator:type": "government",
                "amenity": "kindergarten",
                "note": "Parent RSPO: 52954"
            }
        },
        {
            "id": 52954,
            "type": "Feature",
            "geometry": {
                "type": "Point",
                "coordinates": [
                    18.04949,
                    52.15438
                ]
            },
            "properties": {
                "ref:rspo": 52954,
                "official_name": "Zesp\u00f3\u0142 Szkolno-Przedszkolny w Rzgowie",
                "name": "Zesp\u00f3\u0142 Szkolno-Przedszkolny w Rzgowie",
                "addr:postcode": "62-586",
                "addr:city": "Rzg\u00f3w",
                "addr:street": "Plac Stuczy\u0144skich",
                "addr:housenumber": "5",
                "addr:teryt:simc": 294119,
                "addr:teryt:sym_ul": 55031,
                "phone": "+48 632419971",
                "email": "sprzgow@interia.pl",
                "ref:regon": "301154687",
                "operator": "Gmina Rzg\u00f3w",
                "operator:type": "government",
                "landuse": "education",
                "fixme": "amenity=school, amenity=college albo landuse=education w zale\u017cno\u015bci od tego, jakie plac\u00f3wki wchodz\u0105 w sk\u0142ad zespo\u0142u. Sprawd\u017a, kiedy stosowa\u0107 amenity=* a kiedy landuse=education.",
                "note": "Children RSPO: 70789;70790"
            }
        },
        {
            "id": 70789,
            "type": "Feature",
            "geometry": {
                "type": "Point",
                "coordinates": [
                    18.04949,
                    52.15435
                ]
            },
            "properties": {
                "isced:level": "1;2",
                "ref:rspo": 70789,
                "official_name": "Szko\u0142a Podstawowa im.henryka Sienkiewicza w Rzgowie",
                "name": "Szko\u0142a Podstawowa im.henryka Sienkiewicza w Rzgowie",
                "addr:postcode": "62-586",
                "addr:city": "Rzg\u00f3w",
                "addr:street": "Plac Stuczy\u0144skich",
                "addr:housenumber": "5",
                "addr:teryt:simc": 294119,
                "addr:teryt:sym_ul": 55031,
                "phone": "+48 632419971",
                "email": "sprzgow@interia.pl",
                "ref:regon": "000273407",
                "operator": "Gmina Rzg\u00f3w",
                "operator:type": "government",
                "amenity": "school",
                "note": "Parent RSPO: 52954"
            }
        },
        {
            "id": 276630,
            "type": "Feature",
            "geometry": {
                "type": "Point",
                "coordinates": [
                    18.1588427,
                    52.1992926
                ]
            },
            "properties": {
                "ref:rspo": 276630,
                "official_name": "Niepubliczne Przedszkole Ranne Ptaszki",
                "name": "Niepubliczne Przedszkole Ranne Ptaszki",
                "addr:postcode": "62-586",
                "addr:city": "S\u0142awsk",
                "addr:street": "Koni\u0144ska",
                "addr:housenumber": "25",
                "addr:teryt:simc": 294125,
                "addr:teryt:sym_ul": 9163,
                "email": "przedszkole.ranneptaszki@gmail.com",
                "ref:regon": "387316795",
                "operator": "Fundacja Przedszkolaki",
                "operator:type": "ngo",
                "amenity": "kindergarten"
            }
        },
        {
            "id": 70322,
            "type": "Feature",
            "geometry": {
                "type": "Point",
                "coordinates": [
                    18.15511,
                    52.19992
                ]
            },
            "properties": {
                "isced:level": "1;2",
                "ref:rspo": 70322,
                "official_name": "Szko\u0142a Podstawowa im.kornela Makuszy\u0144skiego w S\u0142awsku",
                "name": "Szko\u0142a Podstawowa im.kornela Makuszy\u0144skiego w S\u0142awsku",
                "addr:postcode": "62-586",
                "addr:city": "S\u0142awsk",
                "addr:street": "Ok\u00f3lna",
                "addr:housenumber": "3",
                "addr:teryt:simc": 294125,
                "addr:teryt:sym_ul": 14890,
                "phone": "+48 632410660",
                "email": "spslawsk@konin.lm.pl",
                "ref:regon": "001190178",
                "ref:vatin": "PL6652944983",
                "operator": "Gmina Rzg\u00f3w",
                "operator:type": "government",
                "amenity": "school"
            }
        }
    ]
}