{
    "type": "FeatureCollection",
    "features": [
        {
            "id": 53435,
            "type": "Feature",
            "geometry": {
                "type": "Point",
                "coordinates": [
                    18.541303,
                    52.33998
                ]
            },
            "properties": {
                "isced:level": "1;2",
                "ref:rspo": 53435,
                "official_name": "Szko\u0142a Podstawowa im. Marii Konopnickiej w Zakrzewku",
                "name": "Szko\u0142a Podstawowa",
                "addr:postcode": "62-610",
                "addr:place": "Zakrzewek",
                "addr:housenumber": "6",
                "addr:city:simc": 299921,
                "phone": "+48 632614180",
                "email": "spzakrzewek@wp.pl",
                "website": "http:\/\/www.spzakrzewek.pl",
                "ref:regon": "001189672",
                "ref:vatin": "PL6652470893",
                "operator": "Gmina Wierzbinek",
                "operator:type": "government",
                "amenity": "school"
            }
        },
        {
            "id": 53437,
            "type": "Feature",
            "geometry": {
                "type": "Point",
                "coordinates": [
                    18.4024161,
                    52.424347
                ]
            },
            "properties": {
                "isced:level": "1;2",
                "ref:rspo": 53437,
                "official_name": "Szko\u0142a Podstawowa im. Biskupa Romana Andrzejewskiego w Morzyczynie",
                "name": "Szko\u0142a Podstawowa",
                "addr:postcode": "62-619",
                "addr:place": "Morzyczyn",
                "addr:housenumber": "4A",
                "addr:city:simc": 299507,
                "phone": "+48 632613200",
                "email": "zespolwmorzyczynie@wp.pl",
                "website": "http:\/\/www.spmorzyczyn.pl",
                "ref:regon": "001189666",
                "ref:vatin": "PL6652836176",
                "operator": "Gmina Wierzbinek",
                "operator:type": "government",
                "amenity": "school"
            }
        },
        {
            "id": 50318,
            "type": "Feature",
            "geometry": {
                "type": "Point",
                "coordinates": [
                    18.587528,
                    52.4386359
                ]
            },
            "properties": {
                "isced:level": "1;2",
                "ref:rspo": 50318,
                "official_name": "Szko\u0142a Podstawowa w Zaryniu",
                "name": "Szko\u0142a Podstawowa w Zaryniu",
                "addr:postcode": "62-619",
                "addr:place": "Zary\u0144",
                "addr:housenumber": "17A",
                "addr:city:simc": 299944,
                "phone": "+48 632613760",
                "email": "sp_zar@o2.pl",
                "website": "http:\/\/www.spzaryn.2ap.pl",
                "ref:regon": "001189650",
                "ref:vatin": "PL6652470858",
                "operator": "Gmina Wierzbinek",
                "operator:type": "government",
                "amenity": "school"
            }
        },
        {
            "id": 53436,
            "type": "Feature",
            "geometry": {
                "type": "Point",
                "coordinates": [
                    18.4647869,
                    52.4430399
                ]
            },
            "properties": {
                "isced:level": "1;2",
                "ref:rspo": 53436,
                "official_name": "Szko\u0142a Podstawowa im. Miko\u0142aja Kopernika w Sadlnie",
                "name": "Szko\u0142a Podstawowa",
                "addr:postcode": "62-619",
                "addr:place": "Sadlno",
                "addr:housenumber": "9A",
                "addr:city:simc": 299708,
                "phone": "+48 632612003",
                "email": "spsadlno@op.pl",
                "website": "http:\/\/www.wierzbinek.pl\/sadlno",
                "ref:regon": "000710397",
                "ref:vatin": "PL6652470806",
                "operator": "Gmina Wierzbinek",
                "operator:type": "government",
                "amenity": "school"
            }
        },
        {
            "id": 133523,
            "type": "Feature",
            "geometry": {
                "type": "Point",
                "coordinates": [
                    18.529995,
                    52.4435957
                ]
            },
            "properties": {
                "isced:level": "1;2",
                "ref:rspo": 133523,
                "official_name": "Szko\u0142a Podstawowa im. Jana Paw\u0142a II w Boguszycach",
                "name": "Szko\u0142a Podstawowa",
                "addr:postcode": "62-619",
                "addr:place": "Boguszyce",
                "addr:housenumber": "55",
                "addr:city:simc": 299039,
                "phone": "+48 632611016",
                "email": "spboguszyce55@onet.pl",
                "website": "http:\/\/www.spboguszyce.pl",
                "ref:regon": "367373656",
                "ref:vatin": "PL6653009185",
                "operator": "Gmina Wierzbinek",
                "operator:type": "government",
                "amenity": "school"
            }
        },
        {
            "id": 56673,
            "type": "Feature",
            "geometry": {
                "type": "Point",
                "coordinates": [
                    18.50739,
                    52.44375
                ]
            },
            "properties": {
                "ref:rspo": 56673,
                "official_name": "Gminne Przedszkole w Wierzbinku \"\u017babka\"",
                "name": "Gminne Przedszkole w Wierzbinku \"\u017babka\"",
                "addr:postcode": "62-619",
                "addr:place": "Wierzbinek",
                "addr:housenumber": "36",
                "addr:city:simc": 299861,
                "phone": "+48 632205121",
                "email": "przedszkole.wierzbinek@interia.pl",
                "website": "http:\/\/www.przedszkolewierzbinek.przedszkolowo.pl",
                "ref:regon": "000996790",
                "ref:vatin": "PL6661304131",
                "operator": "Gmina Wierzbinek",
                "operator:type": "government",
                "amenity": "kindergarten"
            }
        },
        {
            "id": 13333,
            "type": "Feature",
            "geometry": {
                "type": "Point",
                "coordinates": [
                    18.523716,
                    52.444316
                ]
            },
            "properties": {
                "isced:level": "4",
                "ref:rspo": 13333,
                "official_name": "Prywatna Szko\u0142a Policealna \"Przysz\u0142o\u015b\u0107\" w Boguszycach",
                "name": "Prywatna Szko\u0142a Policealna \"Przysz\u0142o\u015b\u0107\" w Boguszycach",
                "addr:postcode": "62-619",
                "addr:place": "Boguszyce",
                "addr:housenumber": "54",
                "addr:city:simc": 299039,
                "phone": "+48 632610709",
                "ref:regon": "302261860",
                "operator": "Dariusz Nowowiejski",
                "operator:type": "private",
                "amenity": "college"
            }
        },
        {
            "id": 13335,
            "type": "Feature",
            "geometry": {
                "type": "Point",
                "coordinates": [
                    18.523716,
                    52.444286
                ]
            },
            "properties": {
                "isced:level": "3",
                "ref:rspo": 13335,
                "official_name": "Prywatne Liceum Og\u00f3lnokszta\u0142c\u0105ce dla Doros\u0142ych \"Przysz\u0142o\u015b\u0107\" w Boguszycach",
                "name": "Prywatne Liceum Og\u00f3lnokszta\u0142c\u0105ce dla Doros\u0142ych \"Przysz\u0142o\u015b\u0107\" w Boguszycach",
                "addr:postcode": "62-619",
                "addr:place": "Boguszyce",
                "addr:housenumber": "54",
                "addr:city:simc": 299039,
                "phone": "+48 632610709",
                "email": "boguszyce@przyszlosc.edu.pl",
                "website": "http:\/\/loboguszyce.weebly.com",
                "ref:regon": "302211619",
                "operator": "Dariusz Nowowiejski",
                "operator:type": "private",
                "amenity": "school"
            }
        },
        {
            "id": 268629,
            "type": "Feature",
            "geometry": {
                "type": "Point",
                "coordinates": [
                    18.46417,
                    52.44512
                ]
            },
            "properties": {
                "ref:rspo": 268629,
                "official_name": "O\u015brodek Rehabilitacyjno-Edukacyjno-Wychowawczy w Sadlnie",
                "name": "O\u015brodek Rehabilitacyjno-Edukacyjno-Wychowawczy w Sadlnie",
                "addr:postcode": "62-619",
                "addr:place": "Sadlno",
                "addr:housenumber": "7A",
                "addr:city:simc": 299708,
                "phone": "+48 632611380",
                "email": "biuro@orewsadlno.pl",
                "website": "http:\/\/www.orewsadlno.pl",
                "ref:regon": "381222060",
                "operator": "Stowarzyszenie Na Rzecz Rozwoju Gminy Wierzbinek",
                "operator:type": "ngo",
                "amenity": "school"
            }
        }
    ]
}