{
    "type": "FeatureCollection",
    "features": [
        {
            "id": 29223,
            "type": "Feature",
            "geometry": {
                "type": "Point",
                "coordinates": [
                    18.18602,
                    52.36183
                ]
            },
            "properties": {
                "ref:rspo": 29223,
                "official_name": "Zesp\u00f3\u0142 Szkolno-Przedszkolny w Kleczewie",
                "name": "Zesp\u00f3\u0142 Szkolno-Przedszkolny w Kleczewie",
                "addr:country": "PL",
                "addr:postcode": "62-540",
                "addr:city": "Kleczew",
                "addr:street": "\u015awi\u0119tej Kingi",
                "addr:housenumber": "7",
                "addr:teryt:simc": 949023,
                "addr:teryt:sym_ul": 41362,
                "contact:phone": "+48 632701992",
                "contact:email": "zsp.kleczew@edukacja.kleczew.pl",
                "contact:website": "http:\/\/www.edukacja.kleczew.pl",
                "ref:regon": "300374903",
                "ref:vatin": "PL6652794064",
                "operator": "Gmina Kleczew",
                "operator:type": "government",
                "landuse": "education",
                "fixme": "amenity=school, amenity=college albo landuse=education w zale\u017cno\u015bci od tego, jakie plac\u00f3wki wchodz\u0105 w sk\u0142ad zespo\u0142u. Sprawd\u017a, kiedy stosowa\u0107 amenity=* a kiedy landuse=education.",
                "note": "Children RSPO: 41155;41326"
            }
        },
        {
            "id": 41155,
            "type": "Feature",
            "geometry": {
                "type": "Point",
                "coordinates": [
                    18.18602,
                    52.361799999999995
                ]
            },
            "properties": {
                "isced:level": "1;2",
                "ref:rspo": 41155,
                "official_name": "Szko\u0142a Podstawowa im.wandy Chotomskiej w Kleczewie",
                "name": "Szko\u0142a Podstawowa im.wandy Chotomskiej w Kleczewie",
                "addr:country": "PL",
                "addr:postcode": "62-540",
                "addr:city": "Kleczew",
                "addr:street": "\u015awi\u0119tej Kingi",
                "addr:housenumber": "7",
                "addr:teryt:simc": 949023,
                "addr:teryt:sym_ul": 41362,
                "contact:phone": "+48 632701992",
                "contact:email": "zsp.kleczew@edukacja.kleczew.pl",
                "contact:website": "http:\/\/zsp-kleczew.2clicks.pl",
                "ref:regon": "000262941",
                "ref:vatin": "PL6652396530",
                "operator": "Gmina Kleczew",
                "operator:type": "government",
                "amenity": "school",
                "note": "Parent RSPO: 29223"
            }
        },
        {
            "id": 41326,
            "type": "Feature",
            "geometry": {
                "type": "Point",
                "coordinates": [
                    18.18602,
                    52.36177
                ]
            },
            "properties": {
                "ref:rspo": 41326,
                "official_name": "Przedszkole w Kleczewie",
                "name": "Przedszkole w Kleczewie",
                "addr:country": "PL",
                "addr:postcode": "62-540",
                "addr:city": "Kleczew",
                "addr:street": "\u015awi\u0119tej Kingi",
                "addr:housenumber": "7",
                "addr:teryt:simc": 949023,
                "addr:teryt:sym_ul": 41362,
                "contact:phone": "+48 632701992",
                "contact:email": "zsp.kleczew@edukacja.kleczew.pl",
                "contact:website": "http:\/\/zsp-kleczew.2clicks.pl",
                "ref:regon": "000996130",
                "ref:vatin": "PL6652432208",
                "operator": "Gmina Kleczew",
                "operator:type": "government",
                "amenity": "kindergarten",
                "note": "Parent RSPO: 29223"
            }
        },
        {
            "id": 13327,
            "type": "Feature",
            "geometry": {
                "type": "Point",
                "coordinates": [
                    18.18124,
                    52.37376
                ]
            },
            "properties": {
                "ref:rspo": 13327,
                "official_name": "Zesp\u00f3\u0142 Szk\u00f3\u0142 Og\u00f3lnokszta\u0142c\u0105cych I Technicznych w Kleczewie",
                "name": "Zesp\u00f3\u0142 Szk\u00f3\u0142 Og\u00f3lnokszta\u0142c\u0105cych I Technicznych w Kleczewie",
                "addr:country": "PL",
                "addr:postcode": "62-540",
                "addr:city": "Kleczew",
                "addr:street": "Plac J\u00f3zefa Pi\u0142sudskiego",
                "addr:housenumber": "13",
                "addr:teryt:simc": 949023,
                "addr:teryt:sym_ul": 16262,
                "contact:phone": "+48 632701024",
                "contact:email": "zspkleczew@op.pl",
                "contact:website": "http:\/\/zspkleczew.pl",
                "ref:regon": "000239066",
                "ref:vatin": "PL6651884546",
                "operator": "Powiat Koni\u0144ski",
                "operator:type": "government",
                "landuse": "education",
                "fixme": "amenity=school, amenity=college albo landuse=education w zale\u017cno\u015bci od tego, jakie plac\u00f3wki wchodz\u0105 w sk\u0142ad zespo\u0142u. Sprawd\u017a, kiedy stosowa\u0107 amenity=* a kiedy landuse=education.",
                "note": "Children RSPO: 79395;79396;79401;79406;80466"
            }
        },
        {
            "id": 79396,
            "type": "Feature",
            "geometry": {
                "type": "Point",
                "coordinates": [
                    18.18124,
                    52.373729999999995
                ]
            },
            "properties": {
                "isced:level": "3",
                "ref:rspo": 79396,
                "official_name": "Liceum Og\u00f3lnokszta\u0142c\u0105ce im. Adama Mickiewicza w Kleczewie",
                "name": "Liceum Og\u00f3lnokszta\u0142c\u0105ce",
                "addr:country": "PL",
                "addr:postcode": "62-540",
                "addr:city": "Kleczew",
                "addr:street": "Plac J\u00f3zefa Pi\u0142sudskiego",
                "addr:housenumber": "13",
                "addr:teryt:simc": 949023,
                "addr:teryt:sym_ul": 16262,
                "contact:phone": "+48 632701024",
                "contact:email": "zspkleczew@op.pl",
                "contact:website": "http:\/\/zspkleczew.pl",
                "ref:regon": "311596087",
                "operator": "Powiat Koni\u0144ski",
                "operator:type": "government",
                "amenity": "school",
                "note": "Parent RSPO: 13327"
            }
        },
        {
            "id": 79401,
            "type": "Feature",
            "geometry": {
                "type": "Point",
                "coordinates": [
                    18.18124,
                    52.3737
                ]
            },
            "properties": {
                "isced:level": "3",
                "ref:rspo": 79401,
                "official_name": "Technikum dla M\u0142odzie\u017cy w Kleczewie",
                "name": "Technikum dla M\u0142odzie\u017cy w Kleczewie",
                "addr:country": "PL",
                "addr:postcode": "62-540",
                "addr:city": "Kleczew",
                "addr:street": "Plac J\u00f3zefa Pi\u0142sudskiego",
                "addr:housenumber": "13",
                "addr:teryt:simc": 949023,
                "addr:teryt:sym_ul": 16262,
                "contact:phone": "+48 632701024",
                "ref:regon": "300655967",
                "operator": "Powiat Koni\u0144ski",
                "operator:type": "government",
                "amenity": "school",
                "note": "Parent RSPO: 13327"
            }
        },
        {
            "id": 79406,
            "type": "Feature",
            "geometry": {
                "type": "Point",
                "coordinates": [
                    18.18124,
                    52.37367
                ]
            },
            "properties": {
                "isced:level": "4",
                "ref:rspo": 79406,
                "official_name": "Szko\u0142a Policealna w Kleczewie",
                "name": "Szko\u0142a Policealna w Kleczewie",
                "addr:country": "PL",
                "addr:postcode": "62-540",
                "addr:city": "Kleczew",
                "addr:street": "Plac J\u00f3zefa Pi\u0142sudskiego",
                "addr:housenumber": "13",
                "addr:teryt:simc": 949023,
                "addr:teryt:sym_ul": 16262,
                "contact:phone": "+48 632701024",
                "contact:email": "zspkleczew@op.pl",
                "contact:website": "http:\/\/zspkleczew.pl",
                "ref:regon": "311621017",
                "operator": "Powiat Koni\u0144ski",
                "operator:type": "government",
                "amenity": "college",
                "note": "Parent RSPO: 13327"
            }
        },
        {
            "id": 80466,
            "type": "Feature",
            "geometry": {
                "type": "Point",
                "coordinates": [
                    18.18124,
                    52.373639999999995
                ]
            },
            "properties": {
                "isced:level": "3",
                "ref:rspo": 80466,
                "official_name": "Liceum Og\u00f3lnokszta\u0142c\u0105ce dla Doros\u0142ych w Kleczewie",
                "name": "Liceum Og\u00f3lnokszta\u0142c\u0105ce dla Doros\u0142ych w Kleczewie",
                "addr:country": "PL",
                "addr:postcode": "62-540",
                "addr:city": "Kleczew",
                "addr:street": "Plac J\u00f3zefa Pi\u0142sudskiego",
                "addr:housenumber": "13",
                "addr:teryt:simc": 949023,
                "addr:teryt:sym_ul": 16262,
                "contact:phone": "+48 632701024",
                "contact:email": "zspkleczew@op.pl",
                "contact:website": "http:\/\/zspkleczew.pl",
                "ref:regon": "302266106",
                "operator": "Powiat Koni\u0144ski",
                "operator:type": "government",
                "amenity": "school",
                "note": "Parent RSPO: 13327"
            }
        },
        {
            "id": 26440,
            "type": "Feature",
            "geometry": {
                "type": "Point",
                "coordinates": [
                    18.19806,
                    52.389
                ]
            },
            "properties": {
                "isced:level": "1;2",
                "ref:rspo": 26440,
                "official_name": "Szko\u0142a Podstawowa im.stanis\u0142awa Staszica w S\u0142awoszewku",
                "name": "Szko\u0142a Podstawowa im.stanis\u0142awa Staszica w S\u0142awoszewku",
                "addr:country": "PL",
                "addr:postcode": "62-540",
                "addr:city": "S\u0142awoszewek",
                "addr:street": "Parkowa",
                "addr:housenumber": "12",
                "addr:teryt:simc": 286522,
                "addr:teryt:sym_ul": 15710,
                "contact:phone": "+48 632700253",
                "contact:email": "sz.p.slawoszewek@wp.pl",
                "contact:website": "http:\/\/www.edukacja.kleczew.pl",
                "ref:regon": "001190787",
                "ref:vatin": "PL6652396547",
                "operator": "Gmina Kleczew",
                "operator:type": "government",
                "amenity": "school"
            }
        },
        {
            "id": 26495,
            "type": "Feature",
            "geometry": {
                "type": "Point",
                "coordinates": [
                    18.131091,
                    52.3965649
                ]
            },
            "properties": {
                "isced:level": "1;2",
                "ref:rspo": 26495,
                "official_name": "Szko\u0142a Podstawowa im.juliana Tuwima w Z\u0142otkowie",
                "name": "Szko\u0142a Podstawowa im.juliana Tuwima w Z\u0142otkowie",
                "addr:country": "PL",
                "addr:postcode": "62-540",
                "addr:place": "Z\u0142otk\u00f3w",
                "addr:housenumber": "48",
                "addr:teryt:simc": 286686,
                "contact:phone": "+48 632701065",
                "contact:email": "sp.zlotkow@edukacja.kleczew.pl",
                "contact:website": "http:\/\/www.edukacja.kleczew.pl",
                "ref:regon": "001190793",
                "ref:vatin": "PL6652405252",
                "operator": "Gmina Kleczew",
                "operator:type": "government",
                "amenity": "school"
            }
        },
        {
            "id": 26527,
            "type": "Feature",
            "geometry": {
                "type": "Point",
                "coordinates": [
                    16.9876909,
                    52.410773
                ]
            },
            "properties": {
                "isced:level": "1;2",
                "ref:rspo": 26527,
                "official_name": "Szko\u0142a Podstawowa im.j\u00f3zefa J\u00f3\u017awiaka w Kozieg\u0142owach",
                "name": "Szko\u0142a Podstawowa im.j\u00f3zefa J\u00f3\u017awiaka w Kozieg\u0142owach",
                "addr:country": "PL",
                "addr:postcode": "62-540",
                "addr:place": "Kozieg\u0142owy",
                "addr:housenumber": "1",
                "addr:teryt:simc": 286321,
                "contact:phone": "+48 632701169",
                "contact:email": "kozieglowy7@wp.pl",
                "contact:website": "http:\/\/www.edukacja.kleczew.pl",
                "ref:regon": "001190770",
                "ref:vatin": "PL6652439305",
                "operator": "Gmina Kleczew",
                "operator:type": "government",
                "amenity": "school"
            }
        },
        {
            "id": 29259,
            "type": "Feature",
            "geometry": {
                "type": "Point",
                "coordinates": [
                    18.07778,
                    52.43747
                ]
            },
            "properties": {
                "ref:rspo": 29259,
                "official_name": "Zesp\u00f3\u0142 Szkolno-Przedszkolny w Budzis\u0142awiu Ko\u015bcielnym",
                "name": "Zesp\u00f3\u0142 Szkolno-Przedszkolny w Budzis\u0142awiu Ko\u015bcielnym",
                "addr:country": "PL",
                "addr:postcode": "62-541",
                "addr:city": "Budzis\u0142aw Ko\u015bcielny",
                "addr:street": "Szkolna",
                "addr:housenumber": "17",
                "addr:teryt:simc": 286249,
                "addr:teryt:sym_ul": 21970,
                "contact:phone": "+48 632681024",
                "contact:email": "zsp.budzislaw@edukacja.kleczew.pl",
                "contact:website": "http:\/\/www.edukacja.kleczew.pl",
                "ref:regon": "311618966",
                "ref:vatin": "PL6652708001",
                "operator": "Gmina Kleczew",
                "operator:type": "government",
                "landuse": "education",
                "fixme": "amenity=school, amenity=college albo landuse=education w zale\u017cno\u015bci od tego, jakie plac\u00f3wki wchodz\u0105 w sk\u0142ad zespo\u0142u. Sprawd\u017a, kiedy stosowa\u0107 amenity=* a kiedy landuse=education.",
                "note": "Children RSPO: 41638;41815"
            }
        },
        {
            "id": 41638,
            "type": "Feature",
            "geometry": {
                "type": "Point",
                "coordinates": [
                    18.07778,
                    52.437439999999995
                ]
            },
            "properties": {
                "isced:level": "1;2",
                "ref:rspo": 41638,
                "official_name": "Szko\u0142a Podstawowa im.arkadego Fiedlera w Budzis\u0142awiu Ko\u015bcielnym",
                "name": "Szko\u0142a Podstawowa im.arkadego Fiedlera w Budzis\u0142awiu Ko\u015bcielnym",
                "addr:country": "PL",
                "addr:postcode": "62-541",
                "addr:city": "Budzis\u0142aw Ko\u015bcielny",
                "addr:street": "Szkolna",
                "addr:housenumber": "17",
                "addr:teryt:simc": 286249,
                "addr:teryt:sym_ul": 21970,
                "contact:phone": "+48 632681024",
                "contact:email": "sp.budz@interia.pl",
                "contact:website": "http:\/\/www.edukacja.kleczew.pl",
                "ref:regon": "001190758",
                "ref:vatin": "PL6652405298",
                "operator": "Gmina Kleczew",
                "operator:type": "government",
                "amenity": "school",
                "note": "Parent RSPO: 29259"
            }
        },
        {
            "id": 41815,
            "type": "Feature",
            "geometry": {
                "type": "Point",
                "coordinates": [
                    18.07778,
                    52.43741
                ]
            },
            "properties": {
                "ref:rspo": 41815,
                "official_name": "Przedszkole w Budzis\u0142awiu Ko\u015bcielnym",
                "name": "Przedszkole w Budzis\u0142awiu Ko\u015bcielnym",
                "addr:country": "PL",
                "addr:postcode": "62-541",
                "addr:city": "Budzis\u0142aw Ko\u015bcielny",
                "addr:street": "Szkolna",
                "addr:housenumber": "17",
                "addr:teryt:simc": 286249,
                "addr:teryt:sym_ul": 21970,
                "contact:phone": "+48 632681024",
                "contact:email": "sp.budz@interia.pl",
                "contact:website": "http:\/\/www.edukacja.kleczew.pl",
                "ref:regon": "310005291",
                "ref:vatin": "PL6652441963",
                "operator": "Gmina Kleczew",
                "operator:type": "government",
                "amenity": "kindergarten",
                "note": "Parent RSPO: 29259"
            }
        }
    ]
}