{
    "type": "FeatureCollection",
    "features": [
        {
            "id": 118584,
            "type": "Feature",
            "geometry": {
                "type": "Point",
                "coordinates": [
                    18.015912,
                    52.0209199
                ]
            },
            "properties": {
                "isced:level": "1;2",
                "ref:rspo": 118584,
                "official_name": "Spo\u0142eczna Szko\u0142a Podstawowa im. Marii Konopnickiej w Lipicach",
                "name": "Spo\u0142eczna Szko\u0142a Podstawowa",
                "addr:postcode": "62-580",
                "addr:place": "Lipice",
                "addr:housenumber": "13",
                "addr:city:simc": 284799,
                "phone": "+48 632486743",
                "email": "splipice@wp.pl",
                "ref:regon": "302497171",
                "operator": "Stowarzyszenie \"Razem Dla Szk\u00f3\u0142\"",
                "operator:type": "ngo",
                "amenity": "school"
            }
        },
        {
            "id": 44683,
            "type": "Feature",
            "geometry": {
                "type": "Point",
                "coordinates": [
                    18.0163115,
                    52.0597691
                ]
            },
            "properties": {
                "isced:level": "1;2",
                "ref:rspo": 44683,
                "official_name": "Szko\u0142a Podstawowa im. Kornela Makuszy\u0144skiego w Kr\u00f3likowie",
                "name": "Szko\u0142a Podstawowa",
                "addr:postcode": "62-580",
                "addr:place": "Kr\u00f3lik\u00f3w",
                "addr:housenumber": "82",
                "addr:city:simc": 284836,
                "phone": "+48 632485084",
                "email": "spk82@konin.lm.pl",
                "website": "http:\/\/www.spkrolikow.szkolnastrona.pl",
                "ref:regon": "001168820",
                "ref:vatin": "PL6652470166",
                "operator": "Gmina Grodziec",
                "operator:type": "government",
                "amenity": "school"
            }
        },
        {
            "id": 118585,
            "type": "Feature",
            "geometry": {
                "type": "Point",
                "coordinates": [
                    18.009942,
                    52.0916949
                ]
            },
            "properties": {
                "isced:level": "1;2",
                "ref:rspo": 118585,
                "official_name": "Spo\u0142eczna Szko\u0142a Podstawowa im. Gen. Edmunda Taczanowskiego w Biskupicach",
                "name": "Spo\u0142eczna Szko\u0142a Podstawowa",
                "addr:postcode": "62-580",
                "addr:place": "Biskupice",
                "addr:housenumber": "55",
                "addr:city:simc": 284718,
                "phone": "+48 632486580",
                "email": "szkolabiskupice1@wp.pl",
                "ref:regon": "302497202",
                "operator": "Stowarzyszenie \"Razem Dla Szk\u00f3\u0142\"",
                "operator:type": "ngo",
                "amenity": "school"
            }
        },
        {
            "id": 44688,
            "type": "Feature",
            "geometry": {
                "type": "Point",
                "coordinates": [
                    18.360652923584,
                    52.543701171875
                ]
            },
            "properties": {
                "ref:rspo": 44688,
                "official_name": "Przedszkole Samorz\u0105dowe w Grod\u017acu",
                "name": "Przedszkole Samorz\u0105dowe w Grod\u017acu",
                "addr:postcode": "62-580",
                "addr:place": "Grodziec",
                "addr:housenumber": "4",
                "addr:city:simc": 284753,
                "phone": "+48 632485273",
                "email": "przedszkolegrodziec@o2.pl",
                "website": "http:\/\/przedszkolegrodziec.szkolnastrona.pl",
                "ref:regon": "000996181",
                "ref:vatin": "PL6652238268",
                "operator": "Gmina Grodziec",
                "operator:type": "government",
                "amenity": "kindergarten"
            }
        },
        {
            "id": 107380,
            "type": "Feature",
            "geometry": {
                "type": "Point",
                "coordinates": [
                    18.360652923584,
                    52.543671171875
                ]
            },
            "properties": {
                "isced:level": "1;2",
                "ref:rspo": 107380,
                "official_name": "Szko\u0142a Podstawowa im. Marii D\u0105browskiej w Grod\u017acu",
                "name": "Szko\u0142a Podstawowa",
                "addr:postcode": "62-580",
                "addr:place": "Grodziec",
                "addr:housenumber": "4",
                "addr:city:simc": 284753,
                "phone": "+48 632485420",
                "email": "spgrodziec@konin.lm.pl",
                "website": "http:\/\/zsgrodziec.edupage.org",
                "ref:regon": "000268205",
                "operator": "Gmina Grodziec",
                "operator:type": "government",
                "amenity": "school"
            }
        }
    ]
}