{
    "type": "FeatureCollection",
    "features": [
        {
            "id": 4576,
            "type": "Feature",
            "geometry": {
                "type": "Point",
                "coordinates": [
                    18.48284,
                    52.3434
                ]
            },
            "properties": {
                "ref:rspo": 4576,
                "official_name": "Zesp\u00f3L Szkolno-Przedszkolny Nr 2 w Lubstowie",
                "name": "Zesp\u00f3L Szkolno-Przedszkolny Nr 2 w Lubstowie",
                "addr:postcode": "62-610",
                "addr:city": "Lubst\u00f3w",
                "addr:street": "Ko\u015bcielna",
                "addr:housenumber": "1a",
                "addr:teryt:simc": 295490,
                "addr:teryt:sym_ul": 9546,
                "phone": "+48 632715876",
                "email": "zespolnr2@poczta.onet.pl",
                "ref:regon": "311597603",
                "ref:vatin": "PL6652649830",
                "operator": "Gmina Sompolno",
                "operator:type": "government",
                "landuse": "education",
                "fixme": "amenity=school, amenity=college albo landuse=education w zale\u017cno\u015bci od tego, jakie plac\u00f3wki wchodz\u0105 w sk\u0142ad zespo\u0142u. Sprawd\u017a, kiedy stosowa\u0107 amenity=* a kiedy landuse=education.",
                "note": "Children RSPO: 8348;9895"
            }
        },
        {
            "id": 8348,
            "type": "Feature",
            "geometry": {
                "type": "Point",
                "coordinates": [
                    18.48284,
                    52.34337
                ]
            },
            "properties": {
                "isced:level": "1;2",
                "ref:rspo": 8348,
                "official_name": "Szko\u0142a Podstawowa im. Ks. Jana Twardowskiego w Lubstowie",
                "name": "Szko\u0142a Podstawowa",
                "addr:postcode": "62-610",
                "addr:city": "Lubst\u00f3w",
                "addr:street": "Ko\u015bcielna",
                "addr:housenumber": "1a",
                "addr:teryt:simc": 295490,
                "addr:teryt:sym_ul": 9546,
                "phone": "+48 632715876",
                "email": "zespolnr2@poczta.onet.pl",
                "ref:regon": "001222027",
                "ref:vatin": "PL6652475838",
                "operator": "Gmina Sompolno",
                "operator:type": "government",
                "amenity": "school",
                "note": "Parent RSPO: 4576"
            }
        },
        {
            "id": 9895,
            "type": "Feature",
            "geometry": {
                "type": "Point",
                "coordinates": [
                    18.48284,
                    52.343340000000005
                ]
            },
            "properties": {
                "ref:rspo": 9895,
                "official_name": "Przedszkole Gminne w Lubstowie",
                "name": "Przedszkole Gminne w Lubstowie",
                "addr:postcode": "62-610",
                "addr:city": "Lubst\u00f3w",
                "addr:street": "Ko\u015bcielna",
                "addr:housenumber": "1a",
                "addr:teryt:simc": 295490,
                "addr:teryt:sym_ul": 9546,
                "phone": "+48 632619242",
                "email": "zespolnr2@poczta.onet.pl",
                "ref:regon": "310005316",
                "ref:vatin": "PL6652475784",
                "operator": "Gmina Sompolno",
                "operator:type": "government",
                "amenity": "kindergarten",
                "note": "Parent RSPO: 4576"
            }
        },
        {
            "id": 268078,
            "type": "Feature",
            "geometry": {
                "type": "Point",
                "coordinates": [
                    18.5731499,
                    52.35052
                ]
            },
            "properties": {
                "ref:rspo": 268078,
                "official_name": "Zesp\u00f3\u0142 Szkolno-Przedszkolny w M\u0105kolnie",
                "name": "Zesp\u00f3\u0142 Szkolno-Przedszkolny w M\u0105kolnie",
                "addr:postcode": "62-610",
                "addr:city": "M\u0105kolno",
                "addr:street": "Szkolna",
                "addr:housenumber": "31",
                "addr:teryt:simc": 295596,
                "addr:teryt:sym_ul": 21970,
                "phone": "+48 632715440",
                "email": "zs3makolno@op.pl",
                "ref:regon": "380926480",
                "operator": "Gmina Sompolno",
                "operator:type": "government",
                "landuse": "education",
                "fixme": "amenity=school, amenity=college albo landuse=education w zale\u017cno\u015bci od tego, jakie plac\u00f3wki wchodz\u0105 w sk\u0142ad zespo\u0142u. Sprawd\u017a, kiedy stosowa\u0107 amenity=* a kiedy landuse=education.",
                "note": "Children RSPO: 12986;267812"
            }
        },
        {
            "id": 12986,
            "type": "Feature",
            "geometry": {
                "type": "Point",
                "coordinates": [
                    18.5731499,
                    52.35049
                ]
            },
            "properties": {
                "isced:level": "1;2",
                "ref:rspo": 12986,
                "official_name": "Szko\u0142a Podstawowa im. Pierwszej Kadrowej w M\u0105kolnie",
                "name": "Szko\u0142a Podstawowa",
                "addr:postcode": "62-610",
                "addr:city": "M\u0105kolno",
                "addr:street": "Szkolna",
                "addr:housenumber": "31",
                "addr:teryt:simc": 295596,
                "addr:teryt:sym_ul": 21970,
                "phone": "+48 632715440",
                "email": "zs3makolno@op.pl",
                "ref:regon": "001192190",
                "ref:vatin": "PL6652649847",
                "operator": "Gmina Sompolno",
                "operator:type": "government",
                "amenity": "school",
                "note": "Parent RSPO: 268078"
            }
        },
        {
            "id": 267812,
            "type": "Feature",
            "geometry": {
                "type": "Point",
                "coordinates": [
                    18.57498,
                    52.35219
                ]
            },
            "properties": {
                "ref:rspo": 267812,
                "official_name": "Przedszkole Publiczne w M\u0105kolne",
                "name": "Przedszkole Publiczne w M\u0105kolne",
                "addr:postcode": "62-610",
                "addr:city": "M\u0105kolno",
                "addr:street": "Szkolna",
                "addr:housenumber": "25",
                "addr:teryt:simc": 295596,
                "addr:teryt:sym_ul": 21970,
                "phone": "+48 632715440",
                "ref:regon": "380672587",
                "operator": "Gmina Sompolno",
                "operator:type": "government",
                "amenity": "kindergarten",
                "note": "Parent RSPO: 268078"
            }
        },
        {
            "id": 8206,
            "type": "Feature",
            "geometry": {
                "type": "Point",
                "coordinates": [
                    18.49879,
                    52.38337
                ]
            },
            "properties": {
                "ref:rspo": 8206,
                "official_name": "Zesp\u00f3\u0142 Szkolno-Przedszkolny Nr 1 w Sompolnie",
                "name": "Zesp\u00f3\u0142 Szkolno-Przedszkolny Nr 1 w Sompolnie",
                "addr:postcode": "62-610",
                "addr:city": "Sompolno",
                "addr:street": "Kaliska",
                "addr:housenumber": "39",
                "addr:teryt:simc": 949253,
                "addr:teryt:sym_ul": 7823,
                "phone": "+48 632614277",
                "email": "szkola@konin.lm.pl",
                "ref:regon": "311597595",
                "ref:vatin": "PL6652649853",
                "operator": "Gmina Sompolno",
                "operator:type": "government",
                "landuse": "education",
                "fixme": "amenity=school, amenity=college albo landuse=education w zale\u017cno\u015bci od tego, jakie plac\u00f3wki wchodz\u0105 w sk\u0142ad zespo\u0142u. Sprawd\u017a, kiedy stosowa\u0107 amenity=* a kiedy landuse=education.",
                "note": "Children RSPO: 104222;104235"
            }
        },
        {
            "id": 104222,
            "type": "Feature",
            "geometry": {
                "type": "Point",
                "coordinates": [
                    18.49879,
                    52.38334
                ]
            },
            "properties": {
                "ref:rspo": 104222,
                "official_name": "Przedszkole Miejskie w Sompolnie",
                "name": "Przedszkole Miejskie w Sompolnie",
                "addr:postcode": "62-610",
                "addr:city": "Sompolno",
                "addr:street": "Kaliska",
                "addr:housenumber": "39",
                "addr:teryt:simc": 949253,
                "addr:teryt:sym_ul": 7823,
                "phone": "+48 632714029",
                "ref:regon": "000996086",
                "ref:vatin": "PL6661329272",
                "operator": "Gmina Sompolno",
                "operator:type": "government",
                "amenity": "kindergarten",
                "note": "Parent RSPO: 8206"
            }
        },
        {
            "id": 104235,
            "type": "Feature",
            "geometry": {
                "type": "Point",
                "coordinates": [
                    18.49879,
                    52.38331
                ]
            },
            "properties": {
                "isced:level": "1;2",
                "ref:rspo": 104235,
                "official_name": "Szko\u0142a Podstawowa im. Adama Mickiewicza w Sompolnie",
                "name": "Szko\u0142a Podstawowa",
                "addr:postcode": "62-610",
                "addr:city": "Sompolno",
                "addr:street": "Kaliska",
                "addr:housenumber": "39",
                "addr:teryt:simc": 949253,
                "addr:teryt:sym_ul": 7823,
                "phone": "+48 632614277",
                "email": "szkola@konin.lm.pl",
                "ref:regon": "000245463",
                "ref:vatin": "PL6652475755",
                "operator": "Gmina Sompolno",
                "operator:type": "government",
                "amenity": "school",
                "note": "Parent RSPO: 8206"
            }
        },
        {
            "id": 13328,
            "type": "Feature",
            "geometry": {
                "type": "Point",
                "coordinates": [
                    18.49806,
                    52.38778
                ]
            },
            "properties": {
                "ref:rspo": 13328,
                "official_name": "Zesp\u00f3\u0142 Szk\u00f3\u0142 Og\u00f3lnokszta\u0142c\u0105cych I Technicznych w Sompolnie",
                "name": "Zesp\u00f3\u0142 Szk\u00f3\u0142 Og\u00f3lnokszta\u0142c\u0105cych I Technicznych w Sompolnie",
                "addr:postcode": "62-610",
                "addr:city": "Sompolno",
                "addr:street": "Gimnazjalna",
                "addr:housenumber": "2",
                "addr:teryt:simc": 949253,
                "addr:teryt:sym_ul": 5527,
                "phone": "+48 632714023",
                "email": "zspsompolno@poczta.onet.pl",
                "website": "http:\/\/zspsompolno.pl",
                "ref:regon": "000235884",
                "ref:vatin": "PL6661403198",
                "operator": "Powiat Koni\u0144ski",
                "operator:type": "government",
                "landuse": "education",
                "fixme": "amenity=school, amenity=college albo landuse=education w zale\u017cno\u015bci od tego, jakie plac\u00f3wki wchodz\u0105 w sk\u0142ad zespo\u0142u. Sprawd\u017a, kiedy stosowa\u0107 amenity=* a kiedy landuse=education.",
                "note": "Children RSPO: 60798;60799;60800;60803"
            }
        },
        {
            "id": 120910,
            "type": "Feature",
            "geometry": {
                "type": "Point",
                "coordinates": [
                    18.49806,
                    52.38775
                ]
            },
            "properties": {
                "isced:level": "3",
                "ref:rspo": 120910,
                "official_name": "Liceum Og\u00f3lnokszta\u0142c\u0105ce Centrum Szkoleniowego Wiedza",
                "name": "Liceum Og\u00f3lnokszta\u0142c\u0105ce Centrum Szkoleniowego Wiedza",
                "addr:postcode": "62-610",
                "addr:city": "Sompolno",
                "addr:street": "Gimnazjalna",
                "addr:housenumber": "2",
                "addr:teryt:simc": 949253,
                "addr:teryt:sym_ul": 5527,
                "phone": "+48 632714023",
                "email": "kontakt@cswiedza.pl",
                "ref:regon": "302589690",
                "operator": "Dane Do Uzupe\u0142nienia",
                "operator:type": "private",
                "amenity": "school"
            }
        },
        {
            "id": 60798,
            "type": "Feature",
            "geometry": {
                "type": "Point",
                "coordinates": [
                    18.49806,
                    52.38772
                ]
            },
            "properties": {
                "isced:level": "3",
                "ref:rspo": 60798,
                "official_name": "Bran\u017cowa Szko\u0142a I Stopnia w Sompolnie",
                "name": "Bran\u017cowa Szko\u0142a I Stopnia w Sompolnie",
                "addr:postcode": "62-610",
                "addr:city": "Sompolno",
                "addr:street": "Gimnazjalna",
                "addr:housenumber": "2",
                "addr:teryt:simc": 949253,
                "addr:teryt:sym_ul": 5527,
                "phone": "+48 632714023",
                "email": "zspsompolno@poczta.onet.pl",
                "website": "http:\/\/www.zspsompolno.pl",
                "ref:regon": "311597336",
                "operator": "Powiat Koni\u0144ski",
                "operator:type": "government",
                "amenity": "school",
                "note": "Parent RSPO: 13328"
            }
        },
        {
            "id": 60799,
            "type": "Feature",
            "geometry": {
                "type": "Point",
                "coordinates": [
                    18.49806,
                    52.38769
                ]
            },
            "properties": {
                "isced:level": "3",
                "ref:rspo": 60799,
                "official_name": "Liceum Og\u00f3lnokszta\u0142c\u0105ce im. Henryka Sienkiewicza w Sompolnie",
                "name": "Liceum Og\u00f3lnokszta\u0142c\u0105ce",
                "addr:postcode": "62-610",
                "addr:city": "Sompolno",
                "addr:street": "Gimnazjalna",
                "addr:housenumber": "2",
                "addr:teryt:simc": 949253,
                "addr:teryt:sym_ul": 5527,
                "phone": "+48 632714023",
                "email": "zspsompolno@poczta.onet.pl",
                "website": "http:\/\/www.zspsompolno.pl",
                "ref:regon": "311597359",
                "operator": "Powiat Koni\u0144ski",
                "operator:type": "government",
                "amenity": "school",
                "note": "Parent RSPO: 13328"
            }
        },
        {
            "id": 60803,
            "type": "Feature",
            "geometry": {
                "type": "Point",
                "coordinates": [
                    18.49806,
                    52.38766
                ]
            },
            "properties": {
                "isced:level": "3",
                "ref:rspo": 60803,
                "official_name": "Technikum w Sompolnie",
                "name": "Technikum w Sompolnie",
                "addr:postcode": "62-610",
                "addr:city": "Sompolno",
                "addr:street": "Gimnazjalna",
                "addr:housenumber": "2",
                "addr:teryt:simc": 949253,
                "addr:teryt:sym_ul": 5527,
                "phone": "+48 632714023",
                "email": "zspsompolno@poczta.onet.pl",
                "website": "http:\/\/www.zspsompolno.pl",
                "ref:regon": "311597313",
                "operator": "Powiat Koni\u0144ski",
                "operator:type": "government",
                "amenity": "school",
                "note": "Parent RSPO: 13328"
            }
        },
        {
            "id": 4732,
            "type": "Feature",
            "geometry": {
                "type": "Point",
                "coordinates": [
                    18.578276,
                    52.388698
                ]
            },
            "properties": {
                "isced:level": "1;2",
                "ref:rspo": 4732,
                "official_name": "Szko\u0142a Podstawowa w O\u015bnie G\u00f3rnym",
                "name": "Szko\u0142a Podstawowa w O\u015bnie G\u00f3rnym",
                "addr:postcode": "62-610",
                "addr:place": "O\u015bno G\u00f3rne",
                "addr:housenumber": "2A",
                "addr:teryt:simc": 295662,
                "phone": "+48 632614838",
                "email": "osnogornesp@wp.pl",
                "ref:regon": "302191495",
                "operator": "Stowarzyszenie Na Rzecz Rozwoju Wsi O\u015bno G\u00f3rne I Okolic",
                "operator:type": "ngo",
                "amenity": "school"
            }
        },
        {
            "id": 119428,
            "type": "Feature",
            "geometry": {
                "type": "Point",
                "coordinates": [
                    18.2666769,
                    52.4256649
                ]
            },
            "properties": {
                "ref:rspo": 119428,
                "official_name": "O\u015brodek Rehabilitacyjno-Edukacyjno-Wychowawczy w Marianowie",
                "name": "O\u015brodek Rehabilitacyjno-Edukacyjno-Wychowawczy w Marianowie",
                "addr:postcode": "62-610",
                "addr:place": "Marianowo",
                "addr:housenumber": "9",
                "addr:teryt:simc": 295567,
                "phone": "+48 694823950",
                "email": "biuro@orew.otwarcie.pl",
                "website": "http:\/\/www.orew.otwarcie.pl",
                "ref:regon": "302517695",
                "operator": "Fundacja Na Rzecz Rozwoju Dzieci I M\u0142odzie\u017cy \"Otwarcie\"",
                "operator:type": "ngo",
                "amenity": "school"
            }
        }
    ]
}