{
    "type": "FeatureCollection",
    "features": [
        {
            "id": 21285,
            "type": "Feature",
            "geometry": {
                "type": "Point",
                "coordinates": [
                    18.35456,
                    52.3156899
                ]
            },
            "properties": {
                "isced:level": "1;2",
                "ref:rspo": 21285,
                "official_name": "Szko\u0142a Podstawowa im. Mjr Henryka Sucharskiego w Licheniu Starym",
                "name": "Szko\u0142a Podstawowa",
                "addr:postcode": "62-563",
                "addr:city": "Liche\u0144 Stary",
                "addr:street": "Koni\u0144ska",
                "addr:housenumber": "48",
                "addr:city:simc": 297247,
                "addr:street:sym_ul": 9163,
                "phone": "+48 632707915",
                "email": "sp.lichen@konin.lm.pl",
                "website": "http:\/\/www.splichen.pl",
                "ref:regon": "001196873",
                "ref:vatin": "PL6652339957",
                "operator": "Gmina \u015alesin",
                "operator:type": "government",
                "amenity": "school"
            }
        },
        {
            "id": 112110,
            "type": "Feature",
            "geometry": {
                "type": "Point",
                "coordinates": [
                    18.3557099,
                    52.31673
                ]
            },
            "properties": {
                "ref:rspo": 112110,
                "official_name": "Przedszkole w Licheniu Starym",
                "name": "Przedszkole w Licheniu Starym",
                "addr:postcode": "62-563",
                "addr:city": "Liche\u0144 Stary",
                "addr:street": "Koni\u0144ska",
                "addr:housenumber": "54",
                "addr:city:simc": 297247,
                "addr:street:sym_ul": 9163,
                "phone": "+48 637707427",
                "ref:regon": "302383303",
                "operator": "Gmina \u015alesin",
                "operator:type": "government",
                "amenity": "kindergarten"
            }
        },
        {
            "id": 21289,
            "type": "Feature",
            "geometry": {
                "type": "Point",
                "coordinates": [
                    18.3146111,
                    52.333312
                ]
            },
            "properties": {
                "isced:level": "1;2",
                "ref:rspo": 21289,
                "official_name": "Szko\u0142a Podstawowa im. Henryka Sienkiewicza w W\u0105soszach",
                "name": "Szko\u0142a Podstawowa",
                "addr:postcode": "62-561",
                "addr:place": "W\u0105sosze",
                "addr:housenumber": "73",
                "addr:city:simc": 297336,
                "phone": "+48 632706191",
                "email": "spwasosze2@wp.pl",
                "ref:regon": "001196695",
                "ref:vatin": "PL6652340363",
                "operator": "Gmina \u015alesin",
                "operator:type": "government",
                "amenity": "school"
            }
        },
        {
            "id": 21282,
            "type": "Feature",
            "geometry": {
                "type": "Point",
                "coordinates": [
                    18.343836,
                    52.354141
                ]
            },
            "properties": {
                "isced:level": "1;2",
                "ref:rspo": 21282,
                "official_name": "Szko\u0142a Podstawowa im. Janiny Porazi\u0144skiej w Piotrkowicach",
                "name": "Szko\u0142a Podstawowa",
                "addr:postcode": "62-561",
                "addr:place": "Piotrkowice",
                "addr:housenumber": "27",
                "addr:city:simc": 297112,
                "phone": "+48 632706121",
                "email": "dyrekcja@sppiotrkowice.pl",
                "website": "http:\/\/www.sppiotrkowice.szkolnastrona.pl",
                "ref:regon": "001195000",
                "ref:vatin": "PL6652340050",
                "operator": "Gmina \u015alesin",
                "operator:type": "government",
                "amenity": "school"
            }
        },
        {
            "id": 13331,
            "type": "Feature",
            "geometry": {
                "type": "Point",
                "coordinates": [
                    18.30358,
                    52.36469
                ]
            },
            "properties": {
                "ref:rspo": 13331,
                "official_name": "Powiatowa Poradnia Psychologiczno-Pedagogiczna w \u015alesinie",
                "name": "Powiatowa Poradnia Psychologiczno-Pedagogiczna w \u015alesinie",
                "addr:postcode": "62-561",
                "addr:city": "\u015alesin",
                "addr:street": "\u017bwirki i Wigury",
                "addr:housenumber": "55",
                "addr:city:simc": 949282,
                "addr:street:sym_ul": 26608,
                "phone": "+48 632705988",
                "email": "slesin@ppppslesin.pl",
                "website": "http:\/\/www.ppppslesin.pl",
                "ref:regon": "310162872",
                "ref:vatin": "PL6652560828",
                "operator": "Powiat Koni\u0144ski",
                "operator:type": "government",
                "healthcare": "counselling",
                "counselling_type": "education",
                "fixme": "w zale\u017cno\u015bci od przedmiotu dzia\u0142alno\u015bci (np. healthcare=counselling + counselling_type=education albo healthcare=psychotherapist)",
                "note": "Children RSPO: 125249"
            }
        },
        {
            "id": 21286,
            "type": "Feature",
            "geometry": {
                "type": "Point",
                "coordinates": [
                    18.30358,
                    52.36466
                ]
            },
            "properties": {
                "ref:rspo": 21286,
                "official_name": "Zesp\u00f3L Szkolno-Przedszkolny w \u015alesinie",
                "name": "Zesp\u00f3L Szkolno-Przedszkolny w \u015alesinie",
                "addr:postcode": "62-561",
                "addr:city": "\u015alesin",
                "addr:street": "\u017bwirki i Wigury",
                "addr:housenumber": "55",
                "addr:city:simc": 949282,
                "addr:street:sym_ul": 26608,
                "phone": "+48 632704027",
                "email": "zspslesin@konin.lm.pl",
                "ref:regon": "311562160",
                "ref:vatin": "PL6652628733",
                "operator": "Gmina \u015alesin",
                "operator:type": "government",
                "landuse": "education",
                "fixme": "amenity=school, amenity=college albo landuse=education w zale\u017cno\u015bci od tego, jakie plac\u00f3wki wchodz\u0105 w sk\u0142ad zespo\u0142u. Sprawd\u017a, kiedy stosowa\u0107 amenity=* a kiedy landuse=education.",
                "note": "Children RSPO: 111761;111762"
            }
        },
        {
            "id": 111761,
            "type": "Feature",
            "geometry": {
                "type": "Point",
                "coordinates": [
                    18.30358,
                    52.364630000000005
                ]
            },
            "properties": {
                "ref:rspo": 111761,
                "official_name": "Przedszkole w \u015alesinie",
                "name": "Przedszkole w \u015alesinie",
                "addr:postcode": "62-561",
                "addr:city": "\u015alesin",
                "addr:street": "\u017bwirki i Wigury",
                "addr:housenumber": "55",
                "addr:city:simc": 949282,
                "addr:street:sym_ul": 26608,
                "phone": "+48 632704027",
                "email": "zspslesin@konin.lm.pl",
                "ref:regon": "000996809",
                "operator": "Gmina \u015alesin",
                "operator:type": "government",
                "amenity": "kindergarten",
                "note": "Parent RSPO: 21286"
            }
        },
        {
            "id": 111762,
            "type": "Feature",
            "geometry": {
                "type": "Point",
                "coordinates": [
                    18.30358,
                    52.3646
                ]
            },
            "properties": {
                "isced:level": "1;2",
                "ref:rspo": 111762,
                "official_name": "Szko\u0142a Podstawowa im. Tadeusza Ko\u015bciuszki w \u015alesinie",
                "name": "Szko\u0142a Podstawowa",
                "addr:postcode": "62-561",
                "addr:city": "\u015alesin",
                "addr:street": "\u017bwirki i Wigury",
                "addr:housenumber": "55",
                "addr:city:simc": 949282,
                "addr:street:sym_ul": 26608,
                "phone": "+48 632704027",
                "email": "zspslesin@konin.lm.pl",
                "ref:regon": "000244400",
                "operator": "Gmina \u015alesin",
                "operator:type": "government",
                "amenity": "school",
                "note": "Parent RSPO: 21286"
            }
        },
        {
            "id": 21284,
            "type": "Feature",
            "geometry": {
                "type": "Point",
                "coordinates": [
                    18.304571,
                    52.3992389
                ]
            },
            "properties": {
                "isced:level": "1;2",
                "ref:rspo": 21284,
                "official_name": "Szko\u0142a Podstawowa im. Adama Mickiewicza w Szyszy\u0144skich Holendrach",
                "name": "Szko\u0142a Podstawowa",
                "addr:postcode": "62-561",
                "addr:place": "Szyszy\u0144skie Holendry",
                "addr:housenumber": "162",
                "addr:city:simc": 297313,
                "phone": "+48 632704026",
                "email": "spholendry@gazeta.pl",
                "website": "http:\/\/spholendry.szkolnastrona.pl",
                "ref:regon": "001196867",
                "ref:vatin": "PL6652340423",
                "operator": "Gmina \u015alesin",
                "operator:type": "government",
                "amenity": "school"
            }
        },
        {
            "id": 21283,
            "type": "Feature",
            "geometry": {
                "type": "Point",
                "coordinates": [
                    18.235485,
                    52.418928
                ]
            },
            "properties": {
                "isced:level": "1;2",
                "ref:rspo": 21283,
                "official_name": "Szko\u0142a Podstawowa im. Kornela Makuszy\u0144skiego w Ostrow\u0105\u017cu",
                "name": "Szko\u0142a Podstawowa",
                "addr:postcode": "62-561",
                "addr:place": "Ostrow\u0105\u017c",
                "addr:housenumber": "21",
                "addr:city:simc": 297081,
                "phone": "+48 632703122",
                "email": "spostrowaz@o2.pl",
                "website": "http:\/\/www.spostrowaz.edu.pl",
                "ref:regon": "001196850",
                "ref:vatin": "PL6652340392",
                "operator": "Gmina \u015alesin",
                "operator:type": "government",
                "amenity": "school"
            }
        }
    ]
}