{
    "type": "FeatureCollection",
    "features": [
        {
            "id": 85967,
            "type": "Feature",
            "geometry": {
                "type": "Point",
                "coordinates": [
                    18.2304768,
                    52.4543338
                ]
            },
            "properties": {
                "isced:level": "1;2",
                "ref:rspo": 85967,
                "official_name": "Szko\u0142a Podstawowa w Wilczynie Filia w Bieli Biela 4",
                "name": "Szko\u0142a Podstawowa w Wilczynie Filia w Bieli Biela 4",
                "addr:postcode": "62-550",
                "addr:place": "Biela",
                "addr:housenumber": "4",
                "addr:city:simc": 299980,
                "phone": "+48 632686103",
                "ref:regon": "274016000",
                "ref:vatin": "PL6651883920",
                "operator": "Gmina Wilczyn",
                "operator:type": "government",
                "amenity": "school",
                "note": "Parent RSPO: 75663"
            }
        },
        {
            "id": 35279,
            "type": "Feature",
            "geometry": {
                "type": "Point",
                "coordinates": [
                    18.1326149,
                    52.4584909
                ]
            },
            "properties": {
                "isced:level": "1;2",
                "ref:rspo": 35279,
                "official_name": "Szko\u0142a Podstawowa im. Tony Halika w Kaliskach z Siedzib\u0105 w D\u0119b\u00f3wcu",
                "name": "Szko\u0142a Podstawowa",
                "addr:postcode": "62-550",
                "addr:place": "D\u0119b\u00f3wiec",
                "addr:housenumber": "19",
                "addr:city:simc": 300009,
                "phone": "+48 632683053",
                "email": "spkaliska@op.pl",
                "website": "http:\/\/www.spkaliska.szkolnastrona.pl",
                "ref:regon": "001190190",
                "ref:vatin": "PL6651883877",
                "operator": "Gmina Wilczyn",
                "operator:type": "government",
                "amenity": "school"
            }
        },
        {
            "id": 75663,
            "type": "Feature",
            "geometry": {
                "type": "Point",
                "coordinates": [
                    18.167280197144,
                    52.474380493164
                ]
            },
            "properties": {
                "isced:level": "1;2",
                "ref:rspo": 75663,
                "official_name": "Szko\u0142a Podstawowa im. Jana Paw\u0142a II w Wilczynie",
                "name": "Szko\u0142a Podstawowa",
                "addr:postcode": "62-550",
                "addr:city": "Wilczog\u00f3ra",
                "addr:street": "700-lecia",
                "addr:housenumber": "14",
                "addr:city:simc": 300305,
                "addr:street:sym_ul": 72,
                "phone": "+48 632683004",
                "email": "spwilczyn@gimwilczyn.nazwa.pl",
                "website": "http:\/\/www.zswilczyn.szkolnastrona.pl",
                "ref:regon": "000274016",
                "ref:vatin": "PL6652571080",
                "operator": "Gmina Wilczyn",
                "operator:type": "government",
                "amenity": "school",
                "note": "Children RSPO: 85967"
            }
        },
        {
            "id": 79395,
            "type": "Feature",
            "geometry": {
                "type": "Point",
                "coordinates": [
                    18.16668,
                    52.47685
                ]
            },
            "properties": {
                "isced:level": "3",
                "ref:rspo": 79395,
                "official_name": "Bran\u017cowa Szko\u0142a I Stopnia w Wilczog\u00f3rze",
                "name": "Bran\u017cowa Szko\u0142a I Stopnia w Wilczog\u00f3rze",
                "addr:postcode": "62-550",
                "addr:city": "Wilczog\u00f3ra",
                "addr:street": "700-lecia",
                "addr:housenumber": "10",
                "addr:city:simc": 300305,
                "addr:street:sym_ul": 72,
                "phone": "+48 632683016",
                "email": "zszwilczyn@op.pl",
                "ref:regon": "311596058",
                "operator": "Powiat Koni\u0144ski",
                "operator:type": "government",
                "amenity": "school",
                "note": "Parent RSPO: 13327"
            }
        },
        {
            "id": 112309,
            "type": "Feature",
            "geometry": {
                "type": "Point",
                "coordinates": [
                    18.16629,
                    52.4825724
                ]
            },
            "properties": {
                "ref:rspo": 112309,
                "official_name": "Familijne Punkty Przedszkolne -Wilczog\u00f3ra",
                "name": "Familijne Punkty Przedszkolne -Wilczog\u00f3ra",
                "addr:postcode": "62-550",
                "addr:place": "Wilczog\u00f3ra",
                "addr:housenumber": "8",
                "addr:city:simc": 300305,
                "phone": "+48 512027446",
                "email": "p.walczak@familijny.pl",
                "ref:regon": "302385510",
                "operator": "Dane Do Uzupe\u0142nienia",
                "operator:type": "private",
                "amenity": "kindergarten"
            }
        },
        {
            "id": 34875,
            "type": "Feature",
            "geometry": {
                "type": "Point",
                "coordinates": [
                    18.360652923584,
                    52.543701171875
                ]
            },
            "properties": {
                "ref:rspo": 34875,
                "official_name": "Gminne Przedszkole Bajka w Wilczynie",
                "name": "Gminne Przedszkole Bajka w Wilczynie",
                "addr:postcode": "62-550",
                "addr:place": "Wilczyn",
                "addr:housenumber": "19",
                "addr:city:simc": 300311,
                "phone": "+48 632683150",
                "email": "bajka@przedszkolewilczyn.pl",
                "website": "http:\/\/przedszkolewilczyn.pl",
                "ref:regon": "000996040",
                "ref:vatin": "PL6651884345",
                "operator": "Gmina Wilczyn",
                "operator:type": "government",
                "amenity": "kindergarten"
            }
        }
    ]
}