{
    "type": "FeatureCollection",
    "features": [
        {
            "id": 69964,
            "type": "Feature",
            "geometry": {
                "type": "Point",
                "coordinates": [
                    18.041724,
                    52.214309
                ]
            },
            "properties": {
                "isced:level": "1;2",
                "ref:rspo": 69964,
                "official_name": "Szko\u0142a Podstawowa im. Marii Konopnickiej w Radolinie",
                "name": "Szko\u0142a Podstawowa",
                "addr:country": "PL",
                "addr:postcode": "62-590",
                "addr:place": "Radolina",
                "addr:housenumber": "63",
                "addr:teryt:sym_ul": 283512,
                "contact:phone": "+48 632461281",
                "contact:email": "sp-radolina@wp.pl",
                "contact:website": "http:\/\/www.spradolina.pl",
                "ref:regon": "001189873",
                "ref:vatin": "PL6652483996",
                "operator": "Gmina Golina",
                "operator:type": "government",
                "amenity": "school"
            }
        },
        {
            "id": 132603,
            "type": "Feature",
            "geometry": {
                "type": "Point",
                "coordinates": [
                    18.17834,
                    52.23031
                ]
            },
            "properties": {
                "ref:rspo": 132603,
                "official_name": "Niepubliczne Przedszkole T\u0119czowa Dolina",
                "name": "Niepubliczne Przedszkole T\u0119czowa Dolina",
                "addr:country": "PL",
                "addr:postcode": "62-590",
                "addr:city": "Golina",
                "addr:street": "Liliowa",
                "addr:housenumber": "1",
                "addr:teryt:simc": 11067,
                "addr:teryt:sym_ul": 949017,
                "contact:email": "koszraf@poczta.onet.pl",
                "ref:regon": "365888907",
                "operator": "Euro - Edukator Ewa Kanabus-Koszal",
                "operator:type": "consortium",
                "amenity": "kindergarten"
            }
        },
        {
            "id": 70149,
            "type": "Feature",
            "geometry": {
                "type": "Point",
                "coordinates": [
                    18.09171,
                    52.24013
                ]
            },
            "properties": {
                "ref:rspo": 70149,
                "official_name": "Przedszkole w Golinie \"Ba\u015bniowy Dworek Z Oddzia\u0142ami Integracyjnymi",
                "name": "Przedszkole w Golinie \"Ba\u015bniowy Dworek Z Oddzia\u0142ami Integracyjnymi",
                "addr:country": "PL",
                "addr:postcode": "62-590",
                "addr:city": "Golina",
                "addr:street": "Parkowa",
                "addr:housenumber": "2",
                "addr:teryt:simc": 15710,
                "addr:teryt:sym_ul": 949017,
                "contact:phone": "+48 632418154",
                "contact:email": "basniowy.dworek.golina@gmail.com",
                "contact:website": "http:\/\/www.basniowydworek.pl",
                "ref:regon": "000996123",
                "ref:vatin": "PL6652278658",
                "operator": "Gmina Golina",
                "operator:type": "government",
                "amenity": "kindergarten"
            }
        },
        {
            "id": 69972,
            "type": "Feature",
            "geometry": {
                "type": "Point",
                "coordinates": [
                    18.08739,
                    52.24357
                ]
            },
            "properties": {
                "isced:level": "1;2",
                "ref:rspo": 69972,
                "official_name": "Szko\u0142a Podstawowa im. Juliusza S\u0142owackiego w Golinie",
                "name": "Szko\u0142a Podstawowa",
                "addr:country": "PL",
                "addr:postcode": "62-590",
                "addr:city": "Golina",
                "addr:street": "Wolno\u015bci",
                "addr:housenumber": "20",
                "addr:teryt:simc": 24687,
                "addr:teryt:sym_ul": 949017,
                "contact:phone": "+48 632417576",
                "contact:email": "szkola@spgolina.edu.pl",
                "contact:website": "http:\/\/www.spgolina.edu.pl",
                "ref:regon": "000235631",
                "ref:vatin": "PL6652483950",
                "operator": "Gmina Golina",
                "operator:type": "government",
                "amenity": "school"
            }
        },
        {
            "id": 69967,
            "type": "Feature",
            "geometry": {
                "type": "Point",
                "coordinates": [
                    18.0621564,
                    52.2813721
                ]
            },
            "properties": {
                "isced:level": "1;2",
                "ref:rspo": 69967,
                "official_name": "Szko\u0142a Podstawowa im. Marii Sk\u0142odowskiej-Curie w Przyjmie",
                "name": "Szko\u0142a Podstawowa",
                "addr:country": "PL",
                "addr:postcode": "62-590",
                "addr:place": "Przyjma",
                "addr:housenumber": "122",
                "addr:teryt:sym_ul": 283506,
                "contact:phone": "+48 632418152",
                "contact:email": "sp.przyjma@gmail.com",
                "contact:website": "http:\/\/spprzyjma.edu.pl",
                "ref:regon": "001189867",
                "ref:vatin": "PL6652483967",
                "operator": "Gmina Golina",
                "operator:type": "government",
                "amenity": "school"
            }
        },
        {
            "id": 69969,
            "type": "Feature",
            "geometry": {
                "type": "Point",
                "coordinates": [
                    18.360652923584,
                    52.543701171875
                ]
            },
            "properties": {
                "isced:level": "1;2",
                "ref:rspo": 69969,
                "official_name": "Szko\u0142a Podstawowa im. Stanis\u0142awa Wyspia\u0144skiego w Kawnicach",
                "name": "Szko\u0142a Podstawowa",
                "addr:country": "PL",
                "addr:postcode": "62-590",
                "addr:city": "W\u0119glew",
                "addr:street": "Bursztynowa",
                "addr:housenumber": "31",
                "addr:teryt:simc": 2462,
                "addr:teryt:sym_ul": 283676,
                "contact:phone": "+48 632417105",
                "contact:email": "spkawnice@wp.pl",
                "contact:website": "http:\/\/www.spkawnice.pl",
                "ref:regon": "001189850",
                "ref:vatin": "PL6652484004",
                "operator": "Gmina Golina",
                "operator:type": "government",
                "amenity": "school"
            }
        }
    ]
}