{
    "type": "FeatureCollection",
    "features": [
        {
            "id": 107300,
            "type": "Feature",
            "geometry": {
                "type": "Point",
                "coordinates": [
                    18.2389662,
                    52.1226225
                ]
            },
            "properties": {
                "isced:level": "1;2",
                "ref:rspo": 107300,
                "official_name": "Szko\u0142a Podstawowa im.boles\u0142awa Prusa w LI\u015bcu Wielkim",
                "name": "Szko\u0142a Podstawowa im.boles\u0142awa Prusa w LI\u015bcu Wielkim",
                "addr:postcode": "62-571",
                "addr:city": "Lisiec Wielki",
                "addr:street": "D\u0142uga",
                "addr:housenumber": "1",
                "addr:city:simc": 296124,
                "addr:street:sym_ul": 3839,
                "phone": "+48 632415231",
                "email": "zslisiecw@wp.pl",
                "website": "http:\/\/www.splisiecwielki.pl",
                "ref:regon": "001167682",
                "ref:vatin": "PL6652947970",
                "operator": "Gmina Stare Miasto",
                "operator:type": "government",
                "amenity": "school"
            }
        },
        {
            "id": 74803,
            "type": "Feature",
            "geometry": {
                "type": "Point",
                "coordinates": [
                    18.26867,
                    52.13946
                ]
            },
            "properties": {
                "isced:level": "1;2",
                "ref:rspo": 74803,
                "official_name": "Szko\u0142a Podstawowa im. Miry Stanis\u0142awskiej-Meysztowicz w \u017bd\u017carach",
                "name": "Szko\u0142a Podstawowa",
                "addr:postcode": "62-571",
                "addr:city": "\u017bd\u017cary",
                "addr:street": "Bor\u00f3wkowa",
                "addr:housenumber": "4",
                "addr:city:simc": 296207,
                "addr:street:sym_ul": 1874,
                "phone": "+48 632417443",
                "email": "spzdzary@stare-miasto.pl",
                "website": "http:\/\/www.spzdzary.wikom.pl",
                "ref:regon": "001166139",
                "ref:vatin": "PL6652464303",
                "operator": "Gmina Stare Miasto",
                "operator:type": "government",
                "amenity": "school"
            }
        },
        {
            "id": 74798,
            "type": "Feature",
            "geometry": {
                "type": "Point",
                "coordinates": [
                    18.21033,
                    52.15579
                ]
            },
            "properties": {
                "isced:level": "1;2",
                "ref:rspo": 74798,
                "official_name": "Szko\u0142a Podstawowa w Modle Kr\u00f3lewskiej",
                "name": "Szko\u0142a Podstawowa w Modle Kr\u00f3lewskiej",
                "addr:postcode": "62-571",
                "addr:city": "Mod\u0142a Kr\u00f3lewska",
                "addr:street": "S\u0142oneczna",
                "addr:housenumber": "5",
                "addr:city:simc": 296070,
                "addr:street:sym_ul": 20254,
                "phone": "+48 632415535",
                "email": "spmodla@op.pl",
                "website": "http:\/\/www.spmodla.szkolnastrona.pl",
                "ref:regon": "001167713",
                "ref:vatin": "PL6652464415",
                "operator": "Gmina Stare Miasto",
                "operator:type": "government",
                "amenity": "school"
            }
        },
        {
            "id": 13329,
            "type": "Feature",
            "geometry": {
                "type": "Point",
                "coordinates": [
                    18.2643099,
                    52.1767899
                ]
            },
            "properties": {
                "ref:rspo": 13329,
                "official_name": "Zesp\u00f3\u0142 Szk\u00f3\u0142 Ekonomiczno-Us\u0142ugowych im.fryderyka Chopina w \u017bychlinie",
                "name": "Zesp\u00f3\u0142 Szk\u00f3\u0142 Ekonomiczno-Us\u0142ugowych im.fryderyka Chopina w \u017bychlinie",
                "addr:postcode": "62-571",
                "addr:city": "\u017bychlin",
                "addr:street": "Parkowa",
                "addr:housenumber": "2",
                "addr:city:simc": 296220,
                "addr:street:sym_ul": 15710,
                "phone": "+48 632442663",
                "email": "zseu@zychlin.edu.pl",
                "website": "http:\/\/www.zychlin.edu.pl",
                "ref:regon": "000097815",
                "ref:vatin": "PL6651938064",
                "operator": "Powiat Koni\u0144ski",
                "operator:type": "government",
                "landuse": "education",
                "fixme": "amenity=school, amenity=college albo landuse=education w zale\u017cno\u015bci od tego, jakie plac\u00f3wki wchodz\u0105 w sk\u0142ad zespo\u0142u. Sprawd\u017a, kiedy stosowa\u0107 amenity=* a kiedy landuse=education.",
                "note": "Children RSPO: 70481;70833;70834;126344;126346"
            }
        },
        {
            "id": 70481,
            "type": "Feature",
            "geometry": {
                "type": "Point",
                "coordinates": [
                    18.2643099,
                    52.1767599
                ]
            },
            "properties": {
                "isced:level": "3",
                "ref:rspo": 70481,
                "official_name": "Liceum Og\u00f3lnokszta\u0142c\u0105ce dla Doros\u0142ych w \u017bychlinie",
                "name": "Liceum Og\u00f3lnokszta\u0142c\u0105ce dla Doros\u0142ych w \u017bychlinie",
                "addr:postcode": "62-571",
                "addr:city": "\u017bychlin",
                "addr:street": "Parkowa",
                "addr:housenumber": "2",
                "addr:city:simc": 296220,
                "addr:street:sym_ul": 15710,
                "phone": "+48 632442663",
                "email": "zseu@zychlin.edu.pl",
                "website": "http:\/\/www.zychlin.edu.pl",
                "ref:regon": "302260440",
                "operator": "Powiat Koni\u0144ski",
                "operator:type": "government",
                "amenity": "school",
                "note": "Parent RSPO: 13329"
            }
        },
        {
            "id": 70833,
            "type": "Feature",
            "geometry": {
                "type": "Point",
                "coordinates": [
                    18.2643099,
                    52.176729900000005
                ]
            },
            "properties": {
                "isced:level": "3",
                "ref:rspo": 70833,
                "official_name": "Bran\u017cowa Szko\u0142a I Stopnia w \u017bychlinie",
                "name": "Bran\u017cowa Szko\u0142a I Stopnia w \u017bychlinie",
                "addr:postcode": "62-571",
                "addr:city": "\u017bychlin",
                "addr:street": "Parkowa",
                "addr:housenumber": "2",
                "addr:city:simc": 296220,
                "addr:street:sym_ul": 15710,
                "phone": "+48 632442553",
                "email": "zseu@zychlin.edu.pl",
                "ref:regon": "300380364",
                "operator": "Powiat Koni\u0144ski",
                "operator:type": "government",
                "amenity": "school",
                "note": "Parent RSPO: 13329"
            }
        },
        {
            "id": 70834,
            "type": "Feature",
            "geometry": {
                "type": "Point",
                "coordinates": [
                    18.2643099,
                    52.1766999
                ]
            },
            "properties": {
                "isced:level": "3",
                "ref:rspo": 70834,
                "official_name": "Liceum Og\u00f3lnokszta\u0142c\u0105ce w \u017bychlinie",
                "name": "Liceum Og\u00f3lnokszta\u0142c\u0105ce w \u017bychlinie",
                "addr:postcode": "62-571",
                "addr:city": "\u017bychlin",
                "addr:street": "Parkowa",
                "addr:housenumber": "2",
                "addr:city:simc": 296220,
                "addr:street:sym_ul": 15710,
                "phone": "+48 632442663",
                "email": "zseu@zychlin.edu.pl",
                "website": "http:\/\/www.zychlun.edu.pl",
                "ref:regon": "311596756",
                "operator": "Powiat Koni\u0144ski",
                "operator:type": "government",
                "amenity": "school",
                "note": "Parent RSPO: 13329"
            }
        },
        {
            "id": 126344,
            "type": "Feature",
            "geometry": {
                "type": "Point",
                "coordinates": [
                    18.2643099,
                    52.1766699
                ]
            },
            "properties": {
                "isced:level": "4",
                "ref:rspo": 126344,
                "official_name": "Szko\u0142a Policealna w \u017bychlinie",
                "name": "Szko\u0142a Policealna w \u017bychlinie",
                "addr:postcode": "62-571",
                "addr:city": "\u017bychlin",
                "addr:street": "Parkowa",
                "addr:housenumber": "2",
                "addr:city:simc": 296220,
                "addr:street:sym_ul": 15710,
                "phone": "+48 632442553",
                "ref:regon": "360244714",
                "operator": "Powiat Koni\u0144ski",
                "operator:type": "government",
                "amenity": "college",
                "note": "Parent RSPO: 13329"
            }
        },
        {
            "id": 126346,
            "type": "Feature",
            "geometry": {
                "type": "Point",
                "coordinates": [
                    18.2643099,
                    52.176639900000005
                ]
            },
            "properties": {
                "isced:level": "3",
                "ref:rspo": 126346,
                "official_name": "Technikum w \u017bychlinie",
                "name": "Technikum w \u017bychlinie",
                "addr:postcode": "62-571",
                "addr:city": "\u017bychlin",
                "addr:street": "Parkowa",
                "addr:housenumber": "2",
                "addr:city:simc": 296220,
                "addr:street:sym_ul": 15710,
                "phone": "+48 632442553",
                "email": "zseu@zychlin.edu.pl",
                "ref:regon": "360244737",
                "operator": "Powiat Koni\u0144ski",
                "operator:type": "government",
                "amenity": "school",
                "note": "Parent RSPO: 13329"
            }
        },
        {
            "id": 107292,
            "type": "Feature",
            "geometry": {
                "type": "Point",
                "coordinates": [
                    18.26418,
                    52.17758
                ]
            },
            "properties": {
                "isced:level": "1;2",
                "ref:rspo": 107292,
                "official_name": "Szko\u0142a Podstawowa im.jana Paw\u0142a II w \u017bychlinie",
                "name": "Szko\u0142a Podstawowa im.jana Paw\u0142a II w \u017bychlinie",
                "addr:postcode": "62-571",
                "addr:city": "\u017bychlin",
                "addr:street": "Parkowa",
                "addr:housenumber": "11",
                "addr:city:simc": 296220,
                "addr:street:sym_ul": 15710,
                "phone": "+48 632442571",
                "email": "spzychlin@poczta.onet.pl",
                "website": "http:\/\/www.zszychlin.com.pl",
                "ref:regon": "001167699",
                "ref:vatin": "PL6652837655",
                "operator": "Gmina Stare Miasto",
                "operator:type": "government",
                "amenity": "school"
            }
        },
        {
            "id": 74805,
            "type": "Feature",
            "geometry": {
                "type": "Point",
                "coordinates": [
                    18.20939,
                    52.18281
                ]
            },
            "properties": {
                "ref:rspo": 74805,
                "official_name": "Przedszkole Samorz\u0105dowe w Starym Mie\u015bcie",
                "name": "Przedszkole Samorz\u0105dowe w Starym Mie\u015bcie",
                "addr:postcode": "62-571",
                "addr:city": "Stare Miasto",
                "addr:street": "Kasztanowa",
                "addr:housenumber": "2",
                "addr:city:simc": 296160,
                "addr:street:sym_ul": 8171,
                "phone": "+48 632416321",
                "email": "przedszkole@stare-miasto.pl",
                "website": "http:\/\/www.psstaremiasto.szkolnastrona.pl",
                "ref:regon": "000996850",
                "ref:vatin": "PL6652464326",
                "operator": "Gmina Stare Miasto",
                "operator:type": "government",
                "amenity": "kindergarten"
            }
        },
        {
            "id": 74802,
            "type": "Feature",
            "geometry": {
                "type": "Point",
                "coordinates": [
                    18.21103,
                    52.18282
                ]
            },
            "properties": {
                "isced:level": "1;2",
                "ref:rspo": 74802,
                "official_name": "Szko\u0142a Podstawowa im. Gen. J\u00f3zefa Bema w Starym Mie\u015bcie",
                "name": "Szko\u0142a Podstawowa",
                "addr:postcode": "62-571",
                "addr:city": "Stare Miasto",
                "addr:street": "Szkolna",
                "addr:housenumber": "11",
                "addr:city:simc": 296160,
                "addr:street:sym_ul": 21970,
                "phone": "+48 632416228",
                "email": "staremiasto@op.pl",
                "website": "http:\/\/www.spstaremiasto.pl",
                "ref:regon": "000653370",
                "ref:vatin": "PL6652464384",
                "operator": "Gmina Stare Miasto",
                "operator:type": "government",
                "amenity": "school"
            }
        },
        {
            "id": 74799,
            "type": "Feature",
            "geometry": {
                "type": "Point",
                "coordinates": [
                    18.360652923584,
                    52.543701171875
                ]
            },
            "properties": {
                "isced:level": "1;2",
                "ref:rspo": 74799,
                "official_name": "Szko\u0142a Podstawowa w Barczyg\u0142owie im. Prof. Zbigniewa Religi",
                "name": "Szko\u0142a Podstawowa w Barczyg\u0142owie",
                "addr:postcode": "62-571",
                "addr:city": "Barczyg\u0142\u00f3w",
                "addr:street": "Grodziecka",
                "addr:housenumber": "55",
                "addr:city:simc": 295892,
                "addr:street:sym_ul": 6156,
                "phone": "+48 632416316",
                "email": "spbar@interia.pl",
                "website": "http:\/\/spbar.szkolnastrona.pl",
                "ref:regon": "001167707",
                "ref:vatin": "PL6652464355",
                "operator": "Gmina Stare Miasto",
                "operator:type": "government",
                "amenity": "school"
            }
        }
    ]
}