{
    "type": "FeatureCollection",
    "features": [
        {
            "id": 11580,
            "type": "Feature",
            "geometry": {
                "type": "Point",
                "coordinates": [
                    18.1524181,
                    52.012258
                ]
            },
            "properties": {
                "isced:level": "1;2",
                "ref:rspo": 11580,
                "official_name": "Szko\u0142a Podstawowa im. Kornela Makuszy\u0144skiego w Bia\u0142ej Panie\u0144skiej",
                "name": "Szko\u0142a Podstawowa",
                "addr:postcode": "62-574",
                "addr:place": "Bia\u0142a Panie\u0144ska",
                "addr:housenumber": "72",
                "addr:city:simc": 293226,
                "phone": "+48 632483604",
                "email": "sp.biala@poczta.fm",
                "ref:regon": "001196726",
                "ref:vatin": "PL6652310557",
                "operator": "Gmina Rychwa\u0142",
                "operator:type": "government",
                "amenity": "school"
            }
        },
        {
            "id": 11587,
            "type": "Feature",
            "geometry": {
                "type": "Point",
                "coordinates": [
                    18.1973214,
                    52.0351568
                ]
            },
            "properties": {
                "isced:level": "1;2",
                "ref:rspo": 11587,
                "official_name": "Szko\u0142a Podstawowa im. Powsta\u0144c\u00f3w Styczniowych w Grochowach",
                "name": "Szko\u0142a Podstawowa",
                "addr:postcode": "62-574",
                "addr:place": "Grochowy",
                "addr:housenumber": "2",
                "addr:city:simc": 293344,
                "phone": "+48 632483601",
                "email": "szkola.grochowy@gmail.com",
                "website": "http:\/\/www.grochowy.edupage.org",
                "ref:regon": "001196666",
                "ref:vatin": "PL6652310451",
                "operator": "Gmina Rychwa\u0142",
                "operator:type": "government",
                "amenity": "school"
            }
        },
        {
            "id": 266792,
            "type": "Feature",
            "geometry": {
                "type": "Point",
                "coordinates": [
                    18.1614705,
                    52.0408116
                ]
            },
            "properties": {
                "ref:rspo": 266792,
                "official_name": "Przedszkole Samorz\u0105dowe \"Le\u015bne Skrzaty\" w Si\u0105szycach",
                "name": "Przedszkole Samorz\u0105dowe \"Le\u015bne Skrzaty\" w Si\u0105szycach",
                "addr:postcode": "62-570",
                "addr:place": "Si\u0105szyce",
                "addr:housenumber": "4",
                "addr:city:simc": 293628,
                "phone": "+48 632483600",
                "email": "lesneskrzaty@rychwal.pl",
                "ref:regon": "369696174",
                "ref:vatin": "PL6653012885",
                "operator": "Gmina Rychwa\u0142",
                "operator:type": "government",
                "amenity": "kindergarten"
            }
        },
        {
            "id": 11596,
            "type": "Feature",
            "geometry": {
                "type": "Point",
                "coordinates": [
                    18.1203611,
                    52.0629133
                ]
            },
            "properties": {
                "isced:level": "1;2",
                "ref:rspo": 11596,
                "official_name": "Szko\u0142a Podstawowa im. Gen. W\u0142adys\u0142awa Andersa w Jaroszewicach Grodzieckich",
                "name": "Szko\u0142a Podstawowa",
                "addr:postcode": "62-570",
                "addr:place": "Jaroszewice Grodzieckie",
                "addr:housenumber": "38",
                "addr:city:simc": 293404,
                "phone": "+48 632467073",
                "email": "spjaroszewice@gmail.com",
                "website": "http:\/\/www.spjaroszewice.edupage.org",
                "ref:regon": "001196749",
                "ref:vatin": "PL6652310528",
                "operator": "Gmina Rychwa\u0142",
                "operator:type": "government",
                "amenity": "school"
            }
        },
        {
            "id": 278477,
            "type": "Feature",
            "geometry": {
                "type": "Point",
                "coordinates": [
                    18.1625799,
                    52.0717799
                ]
            },
            "properties": {
                "ref:rspo": 278477,
                "official_name": "Przedszkole Publiczne \"Plastu\u015b\" w Rychwale",
                "name": "Przedszkole Publiczne \"Plastu\u015b\" w Rychwale",
                "addr:postcode": "62-570",
                "addr:city": "Rychwa\u0142",
                "addr:street": "Przedszkolna",
                "addr:housenumber": "1",
                "addr:city:simc": 949193,
                "addr:street:sym_ul": 17683,
                "phone": "+48 632481061",
                "email": "kontakt@plastusrychwal.pl",
                "ref:regon": "389919121",
                "ref:vatin": "PL7812008805",
                "operator": "Theta  Sp\u00f3\u0142ka Z Ograniczon\u0105 Odpowiedzialno\u015bci\u0105",
                "operator:type": "private",
                "amenity": "kindergarten"
            }
        },
        {
            "id": 13330,
            "type": "Feature",
            "geometry": {
                "type": "Point",
                "coordinates": [
                    18.16415,
                    52.0731899
                ]
            },
            "properties": {
                "ref:rspo": 13330,
                "official_name": "Specjalny O\u015brodek Szkolno-Wychowawczy im. Piotra Janaszka w Rychwale",
                "name": "Specjalny O\u015brodek Szkolno-Wychowawczy",
                "addr:postcode": "62-570",
                "addr:city": "Rychwa\u0142",
                "addr:street": "Koni\u0144ska",
                "addr:housenumber": "46",
                "addr:city:simc": 949193,
                "addr:street:sym_ul": 9163,
                "phone": "+48 632481151",
                "email": "soswrychwal1@op.pl",
                "website": "http:\/\/www.soswrychwal.pl",
                "ref:regon": "001258090",
                "ref:vatin": "PL6651823881",
                "operator": "Powiat Koni\u0144ski",
                "operator:type": "government",
                "amenity": "school",
                "note": "Children RSPO: 70480;70828;70831;70832"
            }
        },
        {
            "id": 70480,
            "type": "Feature",
            "geometry": {
                "type": "Point",
                "coordinates": [
                    18.16415,
                    52.0731599
                ]
            },
            "properties": {
                "ref:rspo": 70480,
                "official_name": "Przedszkole Specjalne w Rychwale",
                "name": "Przedszkole Specjalne w Rychwale",
                "addr:postcode": "62-570",
                "addr:city": "Rychwa\u0142",
                "addr:street": "Koni\u0144ska",
                "addr:housenumber": "46",
                "addr:city:simc": 949193,
                "addr:street:sym_ul": 9163,
                "phone": "+48 632481151",
                "email": "soswrychwal1@op.pl",
                "website": "http:\/\/www.soswrychwal.pl",
                "ref:regon": "302260279",
                "operator": "Powiat Koni\u0144ski",
                "operator:type": "government",
                "amenity": "kindergarten",
                "note": "Parent RSPO: 13330"
            }
        },
        {
            "id": 70828,
            "type": "Feature",
            "geometry": {
                "type": "Point",
                "coordinates": [
                    18.16415,
                    52.073129900000005
                ]
            },
            "properties": {
                "isced:level": "1;2",
                "ref:rspo": 70828,
                "official_name": "Szko\u0142a Podstawowa Specjalna w Rychwale",
                "name": "Szko\u0142a Podstawowa Specjalna w Rychwale",
                "addr:postcode": "62-570",
                "addr:city": "Rychwa\u0142",
                "addr:street": "Koni\u0144ska",
                "addr:housenumber": "46",
                "addr:city:simc": 949193,
                "addr:street:sym_ul": 9163,
                "phone": "+48 632481151",
                "email": "soswrychwal1@op.pl",
                "website": "http:\/\/www.soswrychwal.pl",
                "ref:regon": "311509591",
                "operator": "Powiat Koni\u0144ski",
                "operator:type": "government",
                "amenity": "school",
                "note": "Parent RSPO: 13330"
            }
        },
        {
            "id": 70831,
            "type": "Feature",
            "geometry": {
                "type": "Point",
                "coordinates": [
                    18.16415,
                    52.0730999
                ]
            },
            "properties": {
                "isced:level": "3",
                "ref:rspo": 70831,
                "official_name": "Bran\u017cowa Szko\u0142a I Stopnia Specjalna w Rychwale",
                "name": "Bran\u017cowa Szko\u0142a I Stopnia Specjalna w Rychwale",
                "addr:postcode": "62-570",
                "addr:city": "Rychwa\u0142",
                "addr:street": "Koni\u0144ska",
                "addr:housenumber": "46",
                "addr:city:simc": 949193,
                "addr:street:sym_ul": 9163,
                "phone": "+48 632481151",
                "email": "soswrychwal1@op.pl",
                "website": "http:\/\/www.soswrychwal.pl",
                "ref:regon": "311620153",
                "operator": "Powiat Koni\u0144ski",
                "operator:type": "government",
                "amenity": "school",
                "note": "Parent RSPO: 13330"
            }
        },
        {
            "id": 70832,
            "type": "Feature",
            "geometry": {
                "type": "Point",
                "coordinates": [
                    18.16415,
                    52.0730699
                ]
            },
            "properties": {
                "ref:rspo": 70832,
                "official_name": "Szko\u0142a Specjalna Przysposabiaj\u0105ca do Pracy w Rychwale",
                "name": "Szko\u0142a Specjalna Przysposabiaj\u0105ca do Pracy w Rychwale",
                "addr:postcode": "62-570",
                "addr:city": "Rychwa\u0142",
                "addr:street": "Koni\u0144ska",
                "addr:housenumber": "46",
                "addr:city:simc": 949193,
                "addr:street:sym_ul": 9163,
                "phone": "+48 632481151",
                "email": "soswrychwal1@op.pl",
                "website": "http:\/\/www.soswrychwal.pl",
                "ref:regon": "300091460",
                "operator": "Powiat Koni\u0144ski",
                "operator:type": "government",
                "amenity": "school",
                "note": "Parent RSPO: 13330"
            }
        },
        {
            "id": 11724,
            "type": "Feature",
            "geometry": {
                "type": "Point",
                "coordinates": [
                    18.16462,
                    52.07406
                ]
            },
            "properties": {
                "isced:level": "1;2",
                "ref:rspo": 11724,
                "official_name": "Szko\u0142a Podstawowa im. Arkadego Fiedlera w Rychwale",
                "name": "Szko\u0142a Podstawowa",
                "addr:postcode": "62-570",
                "addr:city": "Rychwa\u0142",
                "addr:street": "Koni\u0144ska",
                "addr:housenumber": "46A",
                "addr:city:simc": 949193,
                "addr:street:sym_ul": 9163,
                "phone": "+48 632481077",
                "email": "zs@rychwal.com.pl",
                "website": "http:\/\/sp.rychwal.com.pl\/",
                "ref:regon": "000244819",
                "ref:vatin": "PL6652989655",
                "operator": "Gmina Rychwa\u0142",
                "operator:type": "government",
                "amenity": "school"
            }
        },
        {
            "id": 68598,
            "type": "Feature",
            "geometry": {
                "type": "Point",
                "coordinates": [
                    18.16462,
                    52.07403
                ]
            },
            "properties": {
                "ref:rspo": 68598,
                "official_name": "Niepubliczna Szko\u0142a Muzyki Rozrywkowej I St. Music Story w Rychwale",
                "name": "Niepubliczna Szko\u0142a Muzyki Rozrywkowej I St. Music Story w Rychwale",
                "addr:postcode": "62-570",
                "addr:city": "Rychwa\u0142",
                "addr:street": "Koni\u0144ska",
                "addr:housenumber": "46A",
                "addr:city:simc": 949193,
                "addr:street:sym_ul": 9163,
                "phone": "+48 632414283",
                "ref:regon": "302259721",
                "operator": "Arkadiusz Sobolewski",
                "operator:type": "private",
                "amenity": "music_school"
            }
        },
        {
            "id": 11581,
            "type": "Feature",
            "geometry": {
                "type": "Point",
                "coordinates": [
                    18.1427149,
                    52.09744
                ]
            },
            "properties": {
                "isced:level": "1;2",
                "ref:rspo": 11581,
                "official_name": "Szko\u0142a Podstawowa im. Marii Konopnickiej w D\u0105broszynie",
                "name": "Szko\u0142a Podstawowa",
                "addr:postcode": "62-570",
                "addr:place": "D\u0105broszyn",
                "addr:housenumber": "47",
                "addr:city:simc": 293261,
                "phone": "+48 632481039",
                "email": "spdabroszyn@onet.pl",
                "website": "http:\/\/www.spdaborszyn.edupage.org",
                "ref:regon": "001196755",
                "ref:vatin": "PL6652310540",
                "operator": "Gmina Rychwa\u0142",
                "operator:type": "government",
                "amenity": "school"
            }
        },
        {
            "id": 11613,
            "type": "Feature",
            "geometry": {
                "type": "Point",
                "coordinates": [
                    18.1362369,
                    52.1337029
                ]
            },
            "properties": {
                "isced:level": "1;2",
                "ref:rspo": 11613,
                "official_name": "Szko\u0142a Podstawowa im. Marii D\u0105browskiej w Kucharach Ko\u015bcielnych",
                "name": "Szko\u0142a Podstawowa",
                "addr:postcode": "62-573",
                "addr:place": "Kuchary Ko\u015bcielne",
                "addr:housenumber": "5",
                "addr:city:simc": 293500,
                "phone": "+48 632484242",
                "email": "szkolakucharykosc@poczta.onet.pl",
                "website": "http:\/\/www.spkucharykosc.szkolnastrona.pl",
                "ref:regon": "001196732",
                "ref:vatin": "PL6652310534",
                "operator": "Gmina Rychwa\u0142",
                "operator:type": "government",
                "amenity": "school"
            }
        }
    ]
}