{
    "type": "FeatureCollection",
    "features": [
        {
            "id": 4032,
            "type": "Feature",
            "geometry": {
                "type": "Point",
                "coordinates": [
                    18.369996,
                    52.231184
                ]
            },
            "properties": {
                "isced:level": "1;2",
                "ref:rspo": 4032,
                "official_name": "Szko\u0142a Postawowa im. J\u00f3zefa Zywerta w Patrzykowie",
                "name": "Szko\u0142a Postawowa",
                "addr:country": "PL",
                "addr:postcode": "62-511",
                "addr:place": "Patrzyk\u00f3w",
                "addr:housenumber": "2A",
                "addr:teryt:simc": 288739,
                "contact:phone": "+48 632479629",
                "contact:email": "sp.patrzykow@o2.pl",
                "ref:regon": "302187170",
                "operator": "Stowarzyszenie \"Przyjazne Zywertowo\"",
                "operator:type": "ngo",
                "amenity": "school"
            }
        },
        {
            "id": 122491,
            "type": "Feature",
            "geometry": {
                "type": "Point",
                "coordinates": [
                    18.47325,
                    52.238335
                ]
            },
            "properties": {
                "isced:level": "1;2",
                "ref:rspo": 122491,
                "official_name": "Szko\u0142a Podstawowa im. Papie\u017ca Jana Paw\u0142a Ii",
                "name": "Szko\u0142a Podstawowa",
                "addr:country": "PL",
                "addr:postcode": "62-511",
                "addr:place": "Wysokie",
                "addr:housenumber": "15",
                "addr:teryt:simc": 288900,
                "contact:phone": "+48 632479102",
                "contact:email": "wysokiesp@wp.pl",
                "contact:website": "http:\/\/www.wysokie.edu.pl",
                "ref:regon": "302680188",
                "operator": "Gmina Kramsk",
                "operator:type": "government",
                "amenity": "school"
            }
        },
        {
            "id": 79216,
            "type": "Feature",
            "geometry": {
                "type": "Point",
                "coordinates": [
                    18.429219,
                    52.2399269
                ]
            },
            "properties": {
                "isced:level": "1;2",
                "ref:rspo": 79216,
                "official_name": "Szko\u0142a Podstawowa \"Szko\u0142y Tw\u00f3rczej Integracji\" im. Ks. Jerzego Popie\u0142uszki w Milinie",
                "name": "Szko\u0142a Podstawowa \"Szko\u0142y Tw\u00f3rczej Integracji\"",
                "addr:country": "PL",
                "addr:postcode": "62-511",
                "addr:place": "Milin",
                "addr:housenumber": "5",
                "addr:teryt:simc": 288662,
                "contact:phone": "+48 632467608",
                "contact:email": "szkola.milin@interia.pl",
                "contact:website": "http:\/\/szkola-milin.pl",
                "ref:regon": "302268186",
                "ref:vatin": "PL6652521001",
                "operator": "Stowarzyszenie \"Szko\u0142a Tw\u00f3rczej Integracji\" W Milinie",
                "operator:type": "ngo",
                "amenity": "school"
            }
        },
        {
            "id": 120270,
            "type": "Feature",
            "geometry": {
                "type": "Point",
                "coordinates": [
                    18.429219,
                    52.2398969
                ]
            },
            "properties": {
                "ref:rspo": 120270,
                "official_name": "Niepubliczna Szko\u0142a Specjalna Przysposabiaj\u0105ca Do Pracy w Milinie",
                "name": "Niepubliczna Szko\u0142a Specjalna Przysposabiaj\u0105ca Do Pracy w Milinie",
                "addr:country": "PL",
                "addr:postcode": "62-511",
                "addr:place": "Milin",
                "addr:housenumber": "5",
                "addr:teryt:simc": 288662,
                "contact:phone": "+48 632467608",
                "contact:email": "szkola.milin@interia.pl",
                "contact:website": "http:\/\/szkola-milin.pl",
                "ref:regon": "302537864",
                "operator": "Stowarzyszenie \"Szko\u0142a Tw\u00f3rczej Integracji\" W Milinie",
                "operator:type": "ngo",
                "amenity": "school"
            }
        },
        {
            "id": 91465,
            "type": "Feature",
            "geometry": {
                "type": "Point",
                "coordinates": [
                    18.34077,
                    52.24254
                ]
            },
            "properties": {
                "isced:level": "1;2",
                "ref:rspo": 91465,
                "official_name": "Szko\u0142a Podstawowa w Woli Pod\u0142\u0119\u017cnej",
                "name": "Szko\u0142a Podstawowa w Woli Pod\u0142\u0119\u017cnej",
                "addr:country": "PL",
                "addr:postcode": "62-510",
                "addr:city": "Wola Pod\u0142\u0119\u017cna",
                "addr:street": "Szkolna",
                "addr:housenumber": "2",
                "addr:teryt:simc": 288870,
                "addr:teryt:sym_ul": 21970,
                "contact:phone": "+48 632479605",
                "contact:email": "spwola@go2.pl",
                "ref:regon": "001190340",
                "ref:vatin": "PL6652464562",
                "operator": "Gmina Kramsk",
                "operator:type": "government",
                "amenity": "school"
            }
        },
        {
            "id": 13339,
            "type": "Feature",
            "geometry": {
                "type": "Point",
                "coordinates": [
                    18.343273,
                    52.253699
                ]
            },
            "properties": {
                "ref:rspo": 13339,
                "official_name": "Niepubliczna Poradnia Psychologiczno-Pedagogiczna Centrum Szkoleniowego \"Wiedza\"",
                "name": "Niepubliczna Poradnia Psychologiczno-Pedagogiczna Centrum Szkoleniowego \"Wiedza\"",
                "addr:country": "PL",
                "addr:postcode": "62-510",
                "addr:place": "Izabelin",
                "addr:housenumber": "47",
                "addr:teryt:simc": 288509,
                "contact:phone": "+48 632437705",
                "contact:email": "malgorzataszumska@interia.pl",
                "ref:regon": "302219070",
                "operator": "Wanda Musia\u0142",
                "operator:type": "private",
                "healthcare": "counselling",
                "counselling_type": "education",
                "fixme": "w zale\u017cno\u015bci od przedmiotu dzia\u0142alno\u015bci (np. healthcare=counselling + counselling_type=education albo healthcare=psychotherapist)"
            }
        },
        {
            "id": 79210,
            "type": "Feature",
            "geometry": {
                "type": "Point",
                "coordinates": [
                    18.42113,
                    52.26187
                ]
            },
            "properties": {
                "ref:rspo": 79210,
                "official_name": "Przedszkole Gminne w Kramsku",
                "name": "Przedszkole Gminne w Kramsku",
                "addr:country": "PL",
                "addr:postcode": "62-511",
                "addr:city": "Kramsk",
                "addr:street": "Koni\u0144ska",
                "addr:housenumber": "20",
                "addr:teryt:simc": 288544,
                "addr:teryt:sym_ul": 9163,
                "contact:phone": "+48 632451881",
                "contact:email": "przedszkole.kramsk@gmail.com",
                "contact:website": "http:\/\/przedszkolekramsk.pl\/",
                "ref:regon": "301469474",
                "ref:vatin": "PL6652943498",
                "operator": "Gmina Kramsk",
                "operator:type": "government",
                "amenity": "kindergarten"
            }
        },
        {
            "id": 79213,
            "type": "Feature",
            "geometry": {
                "type": "Point",
                "coordinates": [
                    18.42113,
                    52.26184
                ]
            },
            "properties": {
                "isced:level": "1;2",
                "ref:rspo": 79213,
                "official_name": "Szko\u0142a Podstawowa im. Olimpijczyk\u00f3w Polskich w Kramsku",
                "name": "Szko\u0142a Podstawowa",
                "addr:country": "PL",
                "addr:postcode": "62-511",
                "addr:city": "Kramsk",
                "addr:street": "Koni\u0144ska",
                "addr:housenumber": "20",
                "addr:teryt:simc": 288544,
                "addr:teryt:sym_ul": 9163,
                "contact:phone": "+48 632470053",
                "contact:email": "spkramsk@interia.pl",
                "ref:regon": "000271756",
                "ref:vatin": "PL6652464504",
                "operator": "Gmina Kramsk",
                "operator:type": "government",
                "amenity": "school"
            }
        },
        {
            "id": 109125,
            "type": "Feature",
            "geometry": {
                "type": "Point",
                "coordinates": [
                    18.42724,
                    52.2632199
                ]
            },
            "properties": {
                "ref:rspo": 109125,
                "official_name": "Przedszkole Niepubliczne \"Kuku\u0142eczka\"",
                "name": "Przedszkole Niepubliczne \"Kuku\u0142eczka\"",
                "addr:country": "PL",
                "addr:postcode": "62-511",
                "addr:city": "Kramsk",
                "addr:street": "Adama Mickiewicza",
                "addr:housenumber": "14",
                "addr:teryt:simc": 288544,
                "addr:teryt:sym_ul": 12740,
                "contact:phone": "+48 632470271",
                "contact:email": "irenakj@gmail.com",
                "ref:regon": "302342391",
                "operator": "Irena Karolak-J\u00f3\u017awiak Biuro Informacji Turystycznej I Us\u0142ug Turystycznych Aqa Tur",
                "operator:type": "consortium",
                "amenity": "kindergarten"
            }
        },
        {
            "id": 91464,
            "type": "Feature",
            "geometry": {
                "type": "Point",
                "coordinates": [
                    18.3240126,
                    52.2759253
                ]
            },
            "properties": {
                "isced:level": "1;2",
                "ref:rspo": 91464,
                "official_name": "Szko\u0142a Podstawowa im. Stanis\u0142awa Ciesio\u0142kiewicza w Anielewie",
                "name": "Szko\u0142a Podstawowa",
                "addr:country": "PL",
                "addr:postcode": "62-510",
                "addr:place": "Anielew",
                "addr:housenumber": "4",
                "addr:teryt:simc": 288248,
                "contact:phone": "+48 632480239",
                "contact:email": "spanielew@kramsk.pl",
                "contact:website": "http:\/\/spanielew.szkolnastrona.pl",
                "ref:regon": "001190238",
                "ref:vatin": "PL6652497490",
                "operator": "Gmina Kramsk",
                "operator:type": "government",
                "amenity": "school"
            }
        },
        {
            "id": 4091,
            "type": "Feature",
            "geometry": {
                "type": "Point",
                "coordinates": [
                    18.4246009,
                    52.2852899
                ]
            },
            "properties": {
                "isced:level": "1;2",
                "ref:rspo": 4091,
                "official_name": "Szko\u0142a Podstawowa im. Piotra B\u0105ka w Bilczewie",
                "name": "Szko\u0142a Podstawowa",
                "addr:country": "PL",
                "addr:postcode": "62-511",
                "addr:place": "Bilczew",
                "addr:housenumber": "2",
                "addr:teryt:simc": 288283,
                "contact:phone": "+48 632470019",
                "contact:email": "szkolabilczew2.wp@wp.pl",
                "contact:website": "http:\/\/spbilczew.cba.pl",
                "ref:regon": "302187364",
                "operator": "Stowarzyszenie Edukacyjne \"Przysz\u0142o\u015b\u0107\" W Bilczewie",
                "operator:type": "ngo",
                "amenity": "school"
            }
        },
        {
            "id": 4289,
            "type": "Feature",
            "geometry": {
                "type": "Point",
                "coordinates": [
                    18.414068,
                    52.3081879
                ]
            },
            "properties": {
                "isced:level": "1;2",
                "ref:rspo": 4289,
                "official_name": "Szko\u0142a Podstawowa Helen\u00f3w Drugi - \u015awi\u0119ciec",
                "name": "Szko\u0142a Podstawowa Helen\u00f3w Drugi - \u015awi\u0119ciec",
                "addr:country": "PL",
                "addr:postcode": "62-511",
                "addr:place": "\u015awi\u0119ciec",
                "addr:housenumber": "50",
                "addr:teryt:simc": 288834,
                "contact:phone": "+48 632400102",
                "contact:email": "sp.swieciec@gmail.com",
                "ref:regon": "302188464",
                "operator": "Stowarzyszenie Edukacyjne \"Jeste\u015bmy Razem\"",
                "operator:type": "ngo",
                "amenity": "school"
            }
        }
    ]
}