{
    "type": "FeatureCollection",
    "features": [
        {
            "id": 59836,
            "type": "Feature",
            "geometry": {
                "type": "Point",
                "coordinates": [
                    18.3036969,
                    52.435963
                ]
            },
            "properties": {
                "isced:level": "1;2",
                "ref:rspo": 59836,
                "official_name": "Szko\u0142a Podstawowa im.marsz.e.\u015bmig\u0142ego-Rydza",
                "name": "Szko\u0142a Podstawowa im.marsz.e.\u015bmig\u0142ego-Rydza",
                "addr:postcode": "62-560",
                "addr:place": "Wandowo",
                "addr:housenumber": "3",
                "addr:city:simc": 294303,
                "phone": "+48 632685808",
                "email": "wandowo@wp.pl",
                "ref:regon": "001209989",
                "ref:vatin": "PL6652177319",
                "operator": "Gmina Skulsk",
                "operator:type": "government",
                "amenity": "school"
            }
        },
        {
            "id": 125243,
            "type": "Feature",
            "geometry": {
                "type": "Point",
                "coordinates": [
                    18.364739,
                    52.461141
                ]
            },
            "properties": {
                "ref:rspo": 125243,
                "official_name": "O\u015brodek Rehabilitacyjno-Edukacyjno-Wychowawczy w Zygmuntowie",
                "name": "O\u015brodek Rehabilitacyjno-Edukacyjno-Wychowawczy w Zygmuntowie",
                "addr:postcode": "62-560",
                "addr:place": "Zygmuntowo",
                "addr:housenumber": "35",
                "addr:city:simc": 294616,
                "phone": "+48 664272256",
                "email": "orew.zygmuntowo@wp.pl",
                "ref:regon": "302831760",
                "ref:vatin": "PL6652995408",
                "operator": "Fundacja \"Mielnica\"",
                "operator:type": "ngo",
                "amenity": "school"
            }
        },
        {
            "id": 265966,
            "type": "Feature",
            "geometry": {
                "type": "Point",
                "coordinates": [
                    18.33217,
                    52.47713
                ]
            },
            "properties": {
                "ref:rspo": 265966,
                "official_name": "Zesp\u00f3\u0142 Szkolno-Przedszkolny w Skulsku",
                "name": "Zesp\u00f3\u0142 Szkolno-Przedszkolny w Skulsku",
                "addr:postcode": "62-560",
                "addr:city": "Skulsk",
                "addr:street": "Koni\u0144ska",
                "addr:housenumber": "39",
                "addr:city:simc": 294585,
                "addr:street:sym_ul": 9163,
                "phone": "+48 632682027",
                "email": "zspszkola@op.pl",
                "ref:regon": "369128599",
                "ref:vatin": "PL6653012023",
                "operator": "Gmina Skulsk",
                "operator:type": "government",
                "landuse": "education",
                "fixme": "amenity=school, amenity=college albo landuse=education w zale\u017cno\u015bci od tego, jakie plac\u00f3wki wchodz\u0105 w sk\u0142ad zespo\u0142u. Sprawd\u017a, kiedy stosowa\u0107 amenity=* a kiedy landuse=education.",
                "note": "Children RSPO: 59835;59839"
            }
        },
        {
            "id": 60800,
            "type": "Feature",
            "geometry": {
                "type": "Point",
                "coordinates": [
                    18.33217,
                    52.4771
                ]
            },
            "properties": {
                "isced:level": "3",
                "ref:rspo": 60800,
                "official_name": "Liceum Og\u00f3lnokszta\u0142c\u0105ce dla Doros\u0142ych w Skulsku",
                "name": "Liceum Og\u00f3lnokszta\u0142c\u0105ce dla Doros\u0142ych w Skulsku",
                "addr:postcode": "62-560",
                "addr:city": "Skulsk",
                "addr:street": "Koni\u0144ska",
                "addr:housenumber": "39",
                "addr:city:simc": 294585,
                "addr:street:sym_ul": 9163,
                "phone": "+48 632714023",
                "email": "zspsompolno@poczta.onet.pl",
                "website": "http:\/\/www.zspsompolno.pl",
                "ref:regon": "301216490",
                "operator": "Powiat Koni\u0144ski",
                "operator:type": "government",
                "amenity": "school",
                "note": "Parent RSPO: 13328"
            }
        },
        {
            "id": 59835,
            "type": "Feature",
            "geometry": {
                "type": "Point",
                "coordinates": [
                    18.33217,
                    52.477070000000005
                ]
            },
            "properties": {
                "isced:level": "1;2",
                "ref:rspo": 59835,
                "official_name": "Szko\u0142a Podstawowa im. Henryka Sienkiewicza w Skulsku",
                "name": "Szko\u0142a Podstawowa",
                "addr:postcode": "62-560",
                "addr:city": "Skulsk",
                "addr:street": "Koni\u0144ska",
                "addr:housenumber": "39",
                "addr:city:simc": 294585,
                "addr:street:sym_ul": 9163,
                "phone": "+48 632682027",
                "email": "zspszkola@op.pl",
                "website": "http:\/\/www.szkolapodstawowa.skulsk.pl",
                "ref:regon": "310281938",
                "ref:vatin": "PL6652176544",
                "operator": "Gmina Skulsk",
                "operator:type": "government",
                "amenity": "school",
                "note": "Parent RSPO: 265966"
            }
        },
        {
            "id": 59839,
            "type": "Feature",
            "geometry": {
                "type": "Point",
                "coordinates": [
                    18.33393,
                    52.48045
                ]
            },
            "properties": {
                "ref:rspo": 59839,
                "official_name": "Przedszkole Gminne w Skulsku",
                "name": "Przedszkole Gminne w Skulsku",
                "addr:postcode": "62-560",
                "addr:city": "Skulsk",
                "addr:street": "Genera\u0142a W\u0142adys\u0142awa Sikorskiego",
                "addr:housenumber": "5A",
                "addr:city:simc": 294585,
                "addr:street:sym_ul": 19907,
                "phone": "+48 632682075",
                "email": "zspszkola@op.pl",
                "website": "http:\/\/www.szkolapodstawowa.skulsk.pl",
                "ref:regon": "310281915",
                "ref:vatin": "PL6652054226",
                "operator": "Gmina Skulsk",
                "operator:type": "government",
                "amenity": "kindergarten",
                "note": "Parent RSPO: 265966"
            }
        }
    ]
}