{
    "type": "FeatureCollection",
    "features": [
        {
            "id": 86507,
            "type": "Feature",
            "geometry": {
                "type": "Point",
                "coordinates": [
                    21.87848,
                    51.54664
                ]
            },
            "properties": {
                "isced:level": "1;2",
                "ref:rspo": 86507,
                "official_name": "Szko\u0142a Podstawowa Nr 4 im. Bohater\u00f3w Lotnictwa Polskiego w D\u0119blinie",
                "name": "Szko\u0142a Podstawowa Nr 4",
                "addr:postcode": "08-530",
                "addr:city": "D\u0119blin",
                "addr:street": "Genera\u0142a pilota J\u00f3zefa Kowalskiego",
                "addr:housenumber": "20",
                "addr:city:simc": 955740,
                "addr:street:sym_ul": 55253,
                "phone": "+48 818800112",
                "email": "sp4@deblin.pl",
                "website": "http:\/\/www.zs4deblin.szkolnastrona.pl\/",
                "ref:regon": "000714410",
                "ref:vatin": "PL5060033626",
                "operator": "Miasto D\u0119blin",
                "operator:type": "government",
                "amenity": "school"
            }
        },
        {
            "id": 40152,
            "type": "Feature",
            "geometry": {
                "type": "Point",
                "coordinates": [
                    21.87907,
                    51.54887
                ]
            },
            "properties": {
                "ref:rspo": 40152,
                "official_name": "Miejskie Przedszkole Nr 4 im. Jana Paw\u0142a II w D\u0119blinie",
                "name": "Miejskie Przedszkole Nr 4",
                "addr:postcode": "08-530",
                "addr:city": "D\u0119blin",
                "addr:street": "Pu\u0142kownika pilota Jerzego Rogowskiego",
                "addr:housenumber": "5b",
                "addr:city:simc": 955740,
                "addr:street:sym_ul": 55256,
                "phone": "+48 818800171",
                "email": "mp4deblin@wp.pl",
                "website": "http:\/\/www.mp4deblin.szkolnastrona.pl\/",
                "ref:regon": "060055603",
                "ref:vatin": "PL5060100156",
                "operator": "Miasto D\u0119blin",
                "operator:type": "government",
                "amenity": "kindergarten"
            }
        },
        {
            "id": 11068,
            "type": "Feature",
            "geometry": {
                "type": "Point",
                "coordinates": [
                    21.84222,
                    51.55306
                ]
            },
            "properties": {
                "ref:rspo": 11068,
                "official_name": "Poradnia Psychologiczno - Pedagogiczna w D\u0119blinie",
                "name": "Poradnia Psychologiczno - Pedagogiczna w D\u0119blinie",
                "addr:postcode": "08-530",
                "addr:city": "D\u0119blin",
                "addr:street": "Podchor\u0105\u017cych",
                "addr:housenumber": "8a",
                "addr:city:simc": 955740,
                "addr:street:sym_ul": 16713,
                "phone": "+48 818830581",
                "email": "ppp@deblin.pl",
                "website": "http:\/\/www.pppdeblin.szkolnastrona.pl",
                "ref:regon": "060707922",
                "ref:vatin": "PL5060103864",
                "operator": "Powiat Rycki",
                "operator:type": "government",
                "healthcare": "counselling",
                "counselling_type": "education",
                "fixme": "w zale\u017cno\u015bci od przedmiotu dzia\u0142alno\u015bci (np. healthcare=counselling + counselling_type=education albo healthcare=psychotherapist)"
            }
        },
        {
            "id": 72815,
            "type": "Feature",
            "geometry": {
                "type": "Point",
                "coordinates": [
                    21.86335,
                    51.55781
                ]
            },
            "properties": {
                "isced:level": "3",
                "ref:rspo": 72815,
                "official_name": "Og\u00f3lnokszta\u0142c\u0105ce Liceum Lotnicze",
                "name": "Og\u00f3lnokszta\u0142c\u0105ce Liceum Lotnicze",
                "addr:postcode": "08-521",
                "addr:city": "D\u0119blin",
                "addr:street": "2 Pu\u0142ku \"Krak\u00f3w\"",
                "addr:housenumber": "5",
                "addr:city:simc": 955740,
                "addr:street:sym_ul": 37380,
                "phone": "+48 261519702",
                "email": "oll@onet.pl",
                "ref:regon": "000768126",
                "operator": "Ministerstwo Obrony Narodowej",
                "operator:type": "public",
                "amenity": "school"
            }
        },
        {
            "id": 40147,
            "type": "Feature",
            "geometry": {
                "type": "Point",
                "coordinates": [
                    21.85621,
                    51.56139
                ]
            },
            "properties": {
                "isced:level": "1;2",
                "ref:rspo": 40147,
                "official_name": "Szko\u0142a Podstawowa Nr 2 im. W\u0142adys\u0142awa Broniewskiego w D\u0119blinie",
                "name": "Szko\u0142a Podstawowa Nr 2",
                "addr:postcode": "08-530",
                "addr:city": "D\u0119blin",
                "addr:street": "1 Maja",
                "addr:housenumber": "3",
                "addr:city:simc": 955740,
                "addr:street:sym_ul": 11926,
                "phone": "+48 818830034",
                "email": "poczta@sp2.deblin.pl",
                "website": "http:\/\/www.sp2deblin.szkolnastrona.pl",
                "ref:regon": "000714395",
                "ref:vatin": "PL7161889086",
                "operator": "Miasto D\u0119blin",
                "operator:type": "government",
                "amenity": "school"
            }
        },
        {
            "id": 40162,
            "type": "Feature",
            "geometry": {
                "type": "Point",
                "coordinates": [
                    21.84202,
                    51.56206
                ]
            },
            "properties": {
                "ref:rspo": 40162,
                "official_name": "Zesp\u00f3\u0142 Szk\u00f3\u0142 Og\u00f3lnokszta\u0142c\u0105cych w D\u0119blinie",
                "name": "Zesp\u00f3\u0142 Szk\u00f3\u0142 Og\u00f3lnokszta\u0142c\u0105cych w D\u0119blinie",
                "addr:postcode": "08-530",
                "addr:city": "D\u0119blin",
                "addr:street": "15 Pu\u0142ku Piechoty \"Wilk\u00f3w\"",
                "addr:housenumber": "6",
                "addr:city:simc": 955740,
                "addr:street:sym_ul": 18139,
                "phone": "+48 818830091",
                "email": "zso@deblin.pl",
                "website": "http:\/\/www.lo.deblin.pl",
                "ref:regon": "000714432",
                "ref:vatin": "PL7161887294",
                "operator": "Miasto D\u0119blin",
                "operator:type": "government",
                "landuse": "education",
                "fixme": "amenity=school, amenity=college albo landuse=education w zale\u017cno\u015bci od tego, jakie plac\u00f3wki wchodz\u0105 w sk\u0142ad zespo\u0142u. Sprawd\u017a, kiedy stosowa\u0107 amenity=* a kiedy landuse=education.",
                "note": "Children RSPO: 86512;86513"
            }
        },
        {
            "id": 86512,
            "type": "Feature",
            "geometry": {
                "type": "Point",
                "coordinates": [
                    21.84202,
                    51.56203
                ]
            },
            "properties": {
                "isced:level": "1;2",
                "ref:rspo": 86512,
                "official_name": "Szko\u0142a Podstawowa Nr 5 im. W\u0142adys\u0142awa Sikorskiego w D\u0119blinie",
                "name": "Szko\u0142a Podstawowa Nr 5",
                "addr:postcode": "08-530",
                "addr:city": "D\u0119blin",
                "addr:street": "15 Pu\u0142ku Piechoty \"Wilk\u00f3w\"",
                "addr:housenumber": "6",
                "addr:city:simc": 955740,
                "addr:street:sym_ul": 18139,
                "phone": "+48 818830091",
                "email": "zso@deblin.pl",
                "website": "http:\/\/www.lo.deblin.pl",
                "ref:regon": "000714426",
                "operator": "Miasto D\u0119blin",
                "operator:type": "government",
                "amenity": "school",
                "note": "Parent RSPO: 40162"
            }
        },
        {
            "id": 86513,
            "type": "Feature",
            "geometry": {
                "type": "Point",
                "coordinates": [
                    21.84202,
                    51.562000000000005
                ]
            },
            "properties": {
                "isced:level": "3",
                "ref:rspo": 86513,
                "official_name": "Liceum Og\u00f3lnokszta\u0142c\u0105ce im. 15 Pu\u0142ku Piechoty \"Wilk\u00f3w\" w D\u0119blinie",
                "name": "Liceum Og\u00f3lnokszta\u0142c\u0105ce",
                "addr:postcode": "08-530",
                "addr:city": "D\u0119blin",
                "addr:street": "15 Pu\u0142ku Piechoty \"Wilk\u00f3w\"",
                "addr:housenumber": "6",
                "addr:city:simc": 955740,
                "addr:street:sym_ul": 18139,
                "phone": "+48 818830091",
                "email": "zso@deblin.pl",
                "website": "http:\/\/www.lo.deblin.pl",
                "ref:regon": "431253813",
                "operator": "Miasto D\u0119blin",
                "operator:type": "government",
                "amenity": "school",
                "note": "Parent RSPO: 40162"
            }
        },
        {
            "id": 61346,
            "type": "Feature",
            "geometry": {
                "type": "Point",
                "coordinates": [
                    21.86933,
                    51.56313
                ]
            },
            "properties": {
                "ref:rspo": 61346,
                "official_name": "Specjalny O\u015brodek Szkolno-Wychowawczy im. Marsza\u0142ka J\u00f3zefa Pi\u0142sudskiego w D\u0119blinie",
                "name": "Specjalny O\u015brodek Szkolno-Wychowawczy",
                "addr:postcode": "08-530",
                "addr:city": "D\u0119blin",
                "addr:street": "Niepodleg\u0142o\u015bci",
                "addr:housenumber": "8",
                "addr:city:simc": 955740,
                "addr:street:sym_ul": 14203,
                "phone": "+48 818830017",
                "email": "sosw@deblin.pl",
                "website": "http:\/\/www.sosw.deblin.pl",
                "ref:regon": "430075090",
                "ref:vatin": "PL7161858341",
                "operator": "Miasto D\u0119blin",
                "operator:type": "government",
                "amenity": "school",
                "note": "Children RSPO: 86514;274696;274697"
            }
        },
        {
            "id": 86514,
            "type": "Feature",
            "geometry": {
                "type": "Point",
                "coordinates": [
                    21.86933,
                    51.5631
                ]
            },
            "properties": {
                "isced:level": "1;2",
                "ref:rspo": 86514,
                "official_name": "Szko\u0142a Podstawowa Nr 1 Specjalna",
                "name": "Szko\u0142a Podstawowa Nr 1 Specjalna",
                "addr:postcode": "08-530",
                "addr:city": "D\u0119blin",
                "addr:street": "Niepodleg\u0142o\u015bci",
                "addr:housenumber": "8",
                "addr:city:simc": 955740,
                "addr:street:sym_ul": 14203,
                "phone": "+48 818830017",
                "email": "sosw@deblin.pl",
                "website": "http:\/\/sosw.deblin.pl",
                "ref:regon": "431257797",
                "operator": "Miasto D\u0119blin",
                "operator:type": "government",
                "amenity": "school",
                "note": "Parent RSPO: 61346"
            }
        },
        {
            "id": 274696,
            "type": "Feature",
            "geometry": {
                "type": "Point",
                "coordinates": [
                    21.86933,
                    51.56307
                ]
            },
            "properties": {
                "ref:rspo": 274696,
                "official_name": "Miejskie Przedszkole Specjalne Nr 5 \"Iskierka\"",
                "name": "Miejskie Przedszkole Specjalne Nr 5 \"Iskierka\"",
                "addr:postcode": "08-530",
                "addr:city": "D\u0119blin",
                "addr:street": "Niepodleg\u0142o\u015bci",
                "addr:housenumber": "8",
                "addr:city:simc": 955740,
                "addr:street:sym_ul": 14203,
                "phone": "+48 818830017",
                "email": "sosw@deblin.pl",
                "website": "http:\/\/www.sosw.deblin.pl",
                "ref:regon": "386255258",
                "ref:vatin": "PL7161858341",
                "operator": "Miasto D\u0119blin",
                "operator:type": "government",
                "amenity": "kindergarten",
                "note": "Parent RSPO: 61346"
            }
        },
        {
            "id": 274697,
            "type": "Feature",
            "geometry": {
                "type": "Point",
                "coordinates": [
                    21.86933,
                    51.56304
                ]
            },
            "properties": {
                "ref:rspo": 274697,
                "official_name": "Szko\u0142a Specjalna Przysposabiaj\u0105ca Do Pracy",
                "name": "Szko\u0142a Specjalna Przysposabiaj\u0105ca Do Pracy",
                "addr:postcode": "08-530",
                "addr:city": "D\u0119blin",
                "addr:street": "Niepodleg\u0142o\u015bci",
                "addr:housenumber": "8",
                "addr:city:simc": 955740,
                "addr:street:sym_ul": 14203,
                "phone": "+48 818830017",
                "email": "sosw@deblin.pl",
                "website": "http:\/\/www.sosw.deblin.pl",
                "ref:regon": "386255809",
                "ref:vatin": "PL7161858341",
                "operator": "Miasto D\u0119blin",
                "operator:type": "government",
                "amenity": "school",
                "note": "Parent RSPO: 61346"
            }
        },
        {
            "id": 40149,
            "type": "Feature",
            "geometry": {
                "type": "Point",
                "coordinates": [
                    21.8702,
                    51.56346
                ]
            },
            "properties": {
                "ref:rspo": 40149,
                "official_name": "Miejskie Przedszkole Nr 1 Bajka w D\u0119blinie",
                "name": "Miejskie Przedszkole Nr 1 Bajka w D\u0119blinie",
                "addr:postcode": "08-530",
                "addr:city": "D\u0119blin",
                "addr:street": "Niepodleg\u0142o\u015bci",
                "addr:housenumber": "10a",
                "addr:city:simc": 955740,
                "addr:street:sym_ul": 14203,
                "phone": "+48 818830607",
                "email": "mp1@deblin.pl",
                "website": "http:\/\/www.mp1deblin.szkolnastrona.pl\/",
                "ref:regon": "060705633",
                "ref:vatin": "PL5060104094",
                "operator": "Miasto D\u0119blin",
                "operator:type": "government",
                "amenity": "kindergarten"
            }
        },
        {
            "id": 11116,
            "type": "Feature",
            "geometry": {
                "type": "Point",
                "coordinates": [
                    21.8332799,
                    51.5648
                ]
            },
            "properties": {
                "ref:rspo": 11116,
                "official_name": "Zesp\u00f3\u0142 Szk\u00f3\u0142 Zawodowych Nr 2 im. Marii D\u0105browskiej w D\u0119blinie",
                "name": "Zesp\u00f3\u0142 Szk\u00f3\u0142 Zawodowych Nr 2",
                "addr:postcode": "08-530",
                "addr:city": "D\u0119blin",
                "addr:street": "Wi\u015blana",
                "addr:housenumber": "3b",
                "addr:city:simc": 955740,
                "addr:street:sym_ul": 24398,
                "phone": "+48 818830289",
                "email": "zsznr2deblin@interia.pl",
                "website": "http:\/\/zsz2deblin.pl",
                "ref:regon": "060707158",
                "ref:vatin": "PL5060103858",
                "operator": "Powiat Rycki",
                "operator:type": "government",
                "landuse": "education",
                "fixme": "amenity=school, amenity=college albo landuse=education w zale\u017cno\u015bci od tego, jakie plac\u00f3wki wchodz\u0105 w sk\u0142ad zespo\u0142u. Sprawd\u017a, kiedy stosowa\u0107 amenity=* a kiedy landuse=education.",
                "note": "Children RSPO: 19575;19577;275793"
            }
        },
        {
            "id": 19575,
            "type": "Feature",
            "geometry": {
                "type": "Point",
                "coordinates": [
                    21.8332799,
                    51.564769999999996
                ]
            },
            "properties": {
                "isced:level": "3",
                "ref:rspo": 19575,
                "official_name": "Iii Liceum Og\u00f3lnokszta\u0142c\u0105ce w D\u0119blinie",
                "name": "Iii Liceum Og\u00f3lnokszta\u0142c\u0105ce w D\u0119blinie",
                "addr:postcode": "08-530",
                "addr:city": "D\u0119blin",
                "addr:street": "Wi\u015blana",
                "addr:housenumber": "3b",
                "addr:city:simc": 955740,
                "addr:street:sym_ul": 24398,
                "phone": "+48 818830289",
                "email": "zsznr2deblin@interia.pl",
                "website": "http:\/\/zsz2deblin.pl",
                "ref:regon": "060707218",
                "operator": "Powiat Rycki",
                "operator:type": "government",
                "amenity": "school",
                "note": "Parent RSPO: 11116"
            }
        },
        {
            "id": 19577,
            "type": "Feature",
            "geometry": {
                "type": "Point",
                "coordinates": [
                    21.8332799,
                    51.56474
                ]
            },
            "properties": {
                "isced:level": "3",
                "ref:rspo": 19577,
                "official_name": "Bran\u017cowa Szko\u0142a I Stopnia Nr 2 w D\u0119blinie",
                "name": "Bran\u017cowa Szko\u0142a I Stopnia Nr 2 w D\u0119blinie",
                "addr:postcode": "08-530",
                "addr:city": "D\u0119blin",
                "addr:street": "Wi\u015blana",
                "addr:housenumber": "3b",
                "addr:city:simc": 955740,
                "addr:street:sym_ul": 24398,
                "phone": "+48 818830289",
                "email": "zsznr2deblin@interia.pl",
                "website": "http:\/\/zsz2deblin.pl",
                "ref:regon": "060707359",
                "operator": "Powiat Rycki",
                "operator:type": "government",
                "amenity": "school",
                "note": "Parent RSPO: 11116"
            }
        },
        {
            "id": 275793,
            "type": "Feature",
            "geometry": {
                "type": "Point",
                "coordinates": [
                    21.8332799,
                    51.56471
                ]
            },
            "properties": {
                "isced:level": "3",
                "ref:rspo": 275793,
                "official_name": "Technikum Nr 2 w D\u0119blinie",
                "name": "Technikum Nr 2 w D\u0119blinie",
                "addr:postcode": "08-530",
                "addr:city": "D\u0119blin",
                "addr:street": "Wi\u015blana",
                "addr:housenumber": "3B",
                "addr:city:simc": 955740,
                "addr:street:sym_ul": 24398,
                "phone": "+48 818830289",
                "email": "sekretariat@zsz2deblin.pl",
                "website": "http:\/\/zsz2deblin.pl",
                "ref:regon": "386936863",
                "operator": "Powiat Rycki",
                "operator:type": "government",
                "amenity": "school",
                "note": "Parent RSPO: 11116"
            }
        },
        {
            "id": 40151,
            "type": "Feature",
            "geometry": {
                "type": "Point",
                "coordinates": [
                    21.8375,
                    51.57467
                ]
            },
            "properties": {
                "ref:rspo": 40151,
                "official_name": "Miejskie Przedszkole Nr 3 w D\u0119blinie",
                "name": "Miejskie Przedszkole Nr 3 w D\u0119blinie",
                "addr:postcode": "08-530",
                "addr:city": "D\u0119blin",
                "addr:street": "Michalinowska",
                "addr:housenumber": "1a",
                "addr:city:simc": 955740,
                "addr:street:sym_ul": 12688,
                "phone": "+48 818833883",
                "email": "mp3@deblin.pl",
                "website": "http:\/\/www.mp3.deblin.szkolnastrona.pl\/",
                "ref:regon": "060705662",
                "ref:vatin": "PL5060104088",
                "operator": "Miasto D\u0119blin",
                "operator:type": "government",
                "amenity": "kindergarten",
                "note": "Parent RSPO: 277544"
            }
        },
        {
            "id": 277544,
            "type": "Feature",
            "geometry": {
                "type": "Point",
                "coordinates": [
                    21.84395,
                    51.57626
                ]
            },
            "properties": {
                "ref:rspo": 277544,
                "official_name": "Zesp\u00f3\u0142 Szkolno-Przedszkolny Nr 3 w D\u0119blinie",
                "name": "Zesp\u00f3\u0142 Szkolno-Przedszkolny Nr 3 w D\u0119blinie",
                "addr:postcode": "08-530",
                "addr:city": "D\u0119blin",
                "addr:street": "Tysi\u0105clecia",
                "addr:housenumber": "25",
                "addr:city:simc": 955740,
                "addr:street:sym_ul": 23270,
                "phone": "+48 818801960",
                "email": "zsnr3deblin@wp.pl",
                "website": "http:\/\/www.zs3deblin.szkolnastrona.pl",
                "ref:regon": "389070312",
                "operator": "Miasto D\u0119blin",
                "operator:type": "government",
                "landuse": "education",
                "fixme": "amenity=school, amenity=college albo landuse=education w zale\u017cno\u015bci od tego, jakie plac\u00f3wki wchodz\u0105 w sk\u0142ad zespo\u0142u. Sprawd\u017a, kiedy stosowa\u0107 amenity=* a kiedy landuse=education.",
                "note": "Children RSPO: 40151;86511"
            }
        },
        {
            "id": 86511,
            "type": "Feature",
            "geometry": {
                "type": "Point",
                "coordinates": [
                    21.84395,
                    51.576229999999995
                ]
            },
            "properties": {
                "isced:level": "1;2",
                "ref:rspo": 86511,
                "official_name": "Szko\u0142a Podstawowa Nr 3 im. Marii Sk\u0142odowskiej-Curie w D\u0119blinie",
                "name": "Szko\u0142a Podstawowa Nr 3",
                "addr:postcode": "08-530",
                "addr:city": "D\u0119blin",
                "addr:street": "Tysi\u0105clecia",
                "addr:housenumber": "25",
                "addr:city:simc": 955740,
                "addr:street:sym_ul": 23270,
                "phone": "+48 818801960",
                "email": "zsnr3deblin@wp.pl",
                "website": "http:\/\/www.zs3deblin.szkolnastrona.pl",
                "ref:regon": "431254132",
                "ref:vatin": "PL7161887288",
                "operator": "Miasto D\u0119blin",
                "operator:type": "government",
                "amenity": "school",
                "note": "Parent RSPO: 277544"
            }
        },
        {
            "id": 16415,
            "type": "Feature",
            "geometry": {
                "type": "Point",
                "coordinates": [
                    21.842559,
                    51.5768865
                ]
            },
            "properties": {
                "ref:rspo": 16415,
                "official_name": "Zesp\u00f3\u0142 Szk\u00f3\u0142 Zawodowych Nr 1 im. Gen. Franciszka Kleeberga w D\u0119blinie",
                "name": "Zesp\u00f3\u0142 Szk\u00f3\u0142 Zawodowych Nr 1",
                "addr:postcode": "08-530",
                "addr:city": "D\u0119blin",
                "addr:street": "Tysi\u0105clecia",
                "addr:housenumber": "27",
                "addr:city:simc": 955740,
                "addr:street:sym_ul": 23270,
                "phone": "+48 818830274",
                "email": "zsz1deblin@interia.pl",
                "website": "http:\/\/zsz1deblin.pl",
                "ref:regon": "060707307",
                "ref:vatin": "PL5060103870",
                "operator": "Powiat Rycki",
                "operator:type": "government",
                "landuse": "education",
                "fixme": "amenity=school, amenity=college albo landuse=education w zale\u017cno\u015bci od tego, jakie plac\u00f3wki wchodz\u0105 w sk\u0142ad zespo\u0142u. Sprawd\u017a, kiedy stosowa\u0107 amenity=* a kiedy landuse=education.",
                "note": "Children RSPO: 22153;275791"
            }
        },
        {
            "id": 22153,
            "type": "Feature",
            "geometry": {
                "type": "Point",
                "coordinates": [
                    21.842559,
                    51.5768565
                ]
            },
            "properties": {
                "isced:level": "3",
                "ref:rspo": 22153,
                "official_name": "Bran\u017cowa Szko\u0142a I Stopnia Nr 1 w D\u0119blinie",
                "name": "Bran\u017cowa Szko\u0142a I Stopnia Nr 1 w D\u0119blinie",
                "addr:postcode": "08-530",
                "addr:city": "D\u0119blin",
                "addr:street": "Tysi\u0105clecia",
                "addr:housenumber": "27",
                "addr:city:simc": 955740,
                "addr:street:sym_ul": 23270,
                "phone": "+48 818830274",
                "email": "zsz1deblin@interia.pl",
                "website": "http:\/\/zsz1deblin.pl",
                "ref:regon": "060707610",
                "operator": "Powiat Rycki",
                "operator:type": "government",
                "amenity": "school",
                "note": "Parent RSPO: 16415"
            }
        },
        {
            "id": 275791,
            "type": "Feature",
            "geometry": {
                "type": "Point",
                "coordinates": [
                    21.842559,
                    51.5768265
                ]
            },
            "properties": {
                "isced:level": "3",
                "ref:rspo": 275791,
                "official_name": "Technikum Nr 1 w D\u0119blinie",
                "name": "Technikum Nr 1 w D\u0119blinie",
                "addr:postcode": "08-530",
                "addr:city": "D\u0119blin",
                "addr:street": "Tysi\u0105clecia",
                "addr:housenumber": "27",
                "addr:city:simc": 955740,
                "addr:street:sym_ul": 23270,
                "phone": "+48 818830274",
                "email": "zsz1deblin@interia.pl",
                "website": "http:\/\/zsz1deblin.pl\/",
                "ref:regon": "386936478",
                "operator": "Powiat Rycki",
                "operator:type": "government",
                "amenity": "school",
                "note": "Parent RSPO: 16415"
            }
        },
        {
            "id": 268972,
            "type": "Feature",
            "geometry": {
                "type": "Point",
                "coordinates": [
                    21.87632,
                    51.59588
                ]
            },
            "properties": {
                "ref:rspo": 268972,
                "official_name": "Niepubliczne Przedszkole Integracyjne \"Mi\u015b Uszatek\"",
                "name": "Niepubliczne Przedszkole Integracyjne \"Mi\u015b Uszatek\"",
                "addr:postcode": "08-530",
                "addr:city": "D\u0119blin",
                "addr:street": "Osiedle Osiedle Stawy",
                "addr:housenumber": "62",
                "addr:city:simc": 955740,
                "addr:street:sym_ul": 38357,
                "ref:regon": "381316914",
                "ref:vatin": "PL7161229680",
                "operator": "F.h.u. Mikad Adam Krzysztof Ka\u0142aska; Niepubliczne Przedszkole Integracyjne\"Mi\u015b Uszatek\"",
                "operator:type": "consortium",
                "amenity": "kindergarten"
            }
        }
    ]
}