{
    "type": "FeatureCollection",
    "features": [
        {
            "id": 38762,
            "type": "Feature",
            "geometry": {
                "type": "Point",
                "coordinates": [
                    21.77666,
                    51.57575
                ]
            },
            "properties": {
                "ref:rspo": 38762,
                "official_name": "Publiczne Przedszkole w St\u0119\u017cycy",
                "name": "Publiczne Przedszkole w St\u0119\u017cycy",
                "addr:country": "PL",
                "addr:postcode": "08-540",
                "addr:city": "St\u0119\u017cyca",
                "addr:street": "Podwale",
                "addr:housenumber": "9",
                "addr:teryt:simc": 16874,
                "addr:teryt:sym_ul": 391638,
                "contact:phone": "+48 818663012",
                "contact:email": "zsstezyca@onet.eu",
                "ref:regon": "431163412",
                "ref:vatin": "PL5060069682",
                "operator": "Gmina St\u0119\u017cyca",
                "operator:type": "government",
                "amenity": "kindergarten",
                "note": "Parent RSPO: 271939"
            }
        },
        {
            "id": 271939,
            "type": "Feature",
            "geometry": {
                "type": "Point",
                "coordinates": [
                    21.77193,
                    51.57616
                ]
            },
            "properties": {
                "ref:rspo": 271939,
                "official_name": "Zesp\u00f3\u0142 Szkolno - Przedszkolny",
                "name": "Zesp\u00f3\u0142 Szkolno - Przedszkolny",
                "addr:country": "PL",
                "addr:postcode": "08-540",
                "addr:city": "St\u0119\u017cyca",
                "addr:street": "Kr\u00f3lewska",
                "addr:housenumber": "2a",
                "addr:teryt:simc": 9987,
                "addr:teryt:sym_ul": 391638,
                "contact:phone": "+48 818663150",
                "contact:email": "zsstezyca@onet.eu",
                "contact:website": "http:\/\/www.spstezyca.pl",
                "ref:regon": "383817678",
                "ref:vatin": "PL5060118759",
                "operator": "Gmina St\u0119\u017cyca",
                "operator:type": "government",
                "landuse": "education",
                "fixme": "amenity=school, amenity=college albo landuse=education w zale\u017cno\u015bci od tego, jakie plac\u00f3wki wchodz\u0105 w sk\u0142ad zespo\u0142u. Sprawd\u017a, kiedy stosowa\u0107 amenity=* a kiedy landuse=education.",
                "note": "Children RSPO: 38758;38762"
            }
        },
        {
            "id": 38758,
            "type": "Feature",
            "geometry": {
                "type": "Point",
                "coordinates": [
                    21.77193,
                    51.57613
                ]
            },
            "properties": {
                "isced:level": "1;2",
                "ref:rspo": 38758,
                "official_name": "Publiczna Szko\u0142a Podstawowa im. Marii Konopnickiej w St\u0119\u017cycy",
                "name": "Publiczna Szko\u0142a Podstawowa",
                "addr:country": "PL",
                "addr:postcode": "08-540",
                "addr:city": "St\u0119\u017cyca",
                "addr:street": "Kr\u00f3lewska",
                "addr:housenumber": "2a",
                "addr:teryt:simc": 9987,
                "addr:teryt:sym_ul": 391638,
                "contact:phone": "+48 818663150",
                "contact:email": "zsstezyca@onet.eu",
                "contact:website": "http:\/\/www.spstezyca.pl",
                "ref:regon": "000593164",
                "ref:vatin": "PL5060112768",
                "operator": "Gmina St\u0119\u017cyca",
                "operator:type": "government",
                "amenity": "school",
                "note": "Parent RSPO: 271939"
            }
        },
        {
            "id": 38759,
            "type": "Feature",
            "geometry": {
                "type": "Point",
                "coordinates": [
                    21.67052,
                    51.60714
                ]
            },
            "properties": {
                "ref:rspo": 38759,
                "official_name": "Zesp\u00f3\u0142 Plac\u00f3wek O\u015bwiatowych w Paw\u0142owicach",
                "name": "Zesp\u00f3\u0142 Plac\u00f3wek O\u015bwiatowych w Paw\u0142owicach",
                "addr:country": "PL",
                "addr:postcode": "08-540",
                "addr:place": "Paw\u0142owice",
                "addr:housenumber": "90",
                "addr:teryt:sym_ul": 391584,
                "contact:phone": "+48 818665028",
                "contact:email": "pawlowice_zpo@wp.pl",
                "contact:website": "http:\/\/www.zpopawlowice.szkolnastrona.pl",
                "ref:regon": "001151824",
                "ref:vatin": "PL7162464621",
                "operator": "Gmina St\u0119\u017cyca",
                "operator:type": "government",
                "landuse": "education",
                "fixme": "amenity=school, amenity=college albo landuse=education w zale\u017cno\u015bci od tego, jakie plac\u00f3wki wchodz\u0105 w sk\u0142ad zespo\u0142u. Sprawd\u017a, kiedy stosowa\u0107 amenity=* a kiedy landuse=education.",
                "note": "Children RSPO: 83787;83788"
            }
        },
        {
            "id": 83787,
            "type": "Feature",
            "geometry": {
                "type": "Point",
                "coordinates": [
                    21.67052,
                    51.60711
                ]
            },
            "properties": {
                "isced:level": "1;2",
                "ref:rspo": 83787,
                "official_name": "Publiczna Szko\u0142a Podstawowa w Paw\u0142owicach",
                "name": "Publiczna Szko\u0142a Podstawowa w Paw\u0142owicach",
                "addr:country": "PL",
                "addr:postcode": "08-540",
                "addr:place": "Paw\u0142owice",
                "addr:housenumber": "90",
                "addr:teryt:sym_ul": 391584,
                "contact:phone": "+48 818665028",
                "contact:email": "pawlowice_zpo@wp.pl",
                "contact:website": "http:\/\/www.zpopawlowice.szkolnastrona.pl",
                "ref:regon": "432666530",
                "operator": "Gmina St\u0119\u017cyca",
                "operator:type": "government",
                "amenity": "school",
                "note": "Parent RSPO: 38759"
            }
        },
        {
            "id": 83788,
            "type": "Feature",
            "geometry": {
                "type": "Point",
                "coordinates": [
                    21.67052,
                    51.60708
                ]
            },
            "properties": {
                "ref:rspo": 83788,
                "official_name": "Publiczne Przedszkole w Paw\u0142owicach",
                "name": "Publiczne Przedszkole w Paw\u0142owicach",
                "addr:country": "PL",
                "addr:postcode": "08-540",
                "addr:place": "Paw\u0142owice",
                "addr:housenumber": "90",
                "addr:teryt:sym_ul": 391584,
                "contact:phone": "+48 818665028",
                "contact:email": "pawlowice_zpo@wp.pl",
                "contact:website": "http:\/\/www.zpopawlowice.szkolnastrona.pl",
                "ref:regon": "432666546",
                "operator": "Gmina St\u0119\u017cyca",
                "operator:type": "government",
                "amenity": "kindergarten",
                "note": "Parent RSPO: 38759"
            }
        },
        {
            "id": 38760,
            "type": "Feature",
            "geometry": {
                "type": "Point",
                "coordinates": [
                    21.7873813,
                    51.6294408
                ]
            },
            "properties": {
                "isced:level": "1;2",
                "ref:rspo": 38760,
                "official_name": "Publiczna Szko\u0142a Podstawowa w Nowej Rokitni im. \u015aw. Jana Paw\u0142a Ii",
                "name": "Publiczna Szko\u0142a Podstawowa w Nowej Rokitni",
                "addr:country": "PL",
                "addr:postcode": "08-540",
                "addr:place": "Nowa Rokitnia",
                "addr:housenumber": "81",
                "addr:teryt:sym_ul": 391561,
                "contact:phone": "+48 818663090",
                "contact:email": "sp.rokitnia@wp.pl",
                "contact:website": "http:\/\/www.psprokitnian.superszkolna.pl",
                "ref:regon": "001151830",
                "ref:vatin": "PL7162461195",
                "operator": "Gmina St\u0119\u017cyca",
                "operator:type": "government",
                "amenity": "school"
            }
        }
    ]
}