{
    "type": "FeatureCollection",
    "features": [
        {
            "id": 268408,
            "type": "Feature",
            "geometry": {
                "type": "Point",
                "coordinates": [
                    21.95414352417,
                    51.64741897583
                ]
            },
            "properties": {
                "ref:rspo": 268408,
                "official_name": "Przedszkole Samorz\u0105dowe w K\u0142oczewie",
                "name": "Przedszkole Samorz\u0105dowe w K\u0142oczewie",
                "addr:postcode": "08-550",
                "addr:place": "K\u0142oczew",
                "addr:housenumber": "69",
                "addr:teryt:simc": 674247,
                "phone": "+48 257946215",
                "email": "anna.jagiello.ryki@gmail.com",
                "website": "http:\/\/przedszkolekloczew.pl",
                "ref:regon": "381151057",
                "ref:vatin": "PL5060118794",
                "operator": "Gmina K\u0142oczew",
                "operator:type": "government",
                "amenity": "kindergarten"
            }
        },
        {
            "id": 17537,
            "type": "Feature",
            "geometry": {
                "type": "Point",
                "coordinates": [
                    22.00697,
                    51.69965
                ]
            },
            "properties": {
                "isced:level": "1;2",
                "ref:rspo": 17537,
                "official_name": "Szko\u0142a Podstawowa im. Or\u0142a Bia\u0142ego Z Oddzia\u0142ami Przedszkolnymi w Czernicu",
                "name": "Szko\u0142a Podstawowa",
                "addr:postcode": "08-550",
                "addr:place": "Czernic",
                "addr:housenumber": "95",
                "addr:teryt:simc": 674112,
                "phone": "+48 257543299",
                "email": "czernic@vp.pl",
                "website": "http:\/\/spczernic.szkolna.net",
                "ref:regon": "001125548",
                "ref:vatin": "PL7162603063",
                "operator": "Gmina K\u0142oczew",
                "operator:type": "government",
                "amenity": "school"
            }
        },
        {
            "id": 268414,
            "type": "Feature",
            "geometry": {
                "type": "Point",
                "coordinates": [
                    22.00697,
                    51.699619999999996
                ]
            },
            "properties": {
                "ref:rspo": 268414,
                "official_name": "Punkt Przedszkolny w Czernicu",
                "name": "Punkt Przedszkolny w Czernicu",
                "addr:postcode": "08-550",
                "addr:place": "Czernic",
                "addr:housenumber": "95",
                "addr:teryt:simc": 674112,
                "phone": "+48 257543299",
                "email": "czernic@vp.pl",
                "website": "http:\/\/spczernic.szkolna.net",
                "ref:regon": "381151117",
                "operator": "Gmina K\u0142oczew",
                "operator:type": "government",
                "amenity": "kindergarten"
            }
        },
        {
            "id": 17359,
            "type": "Feature",
            "geometry": {
                "type": "Point",
                "coordinates": [
                    21.95586,
                    51.7233
                ]
            },
            "properties": {
                "isced:level": "1;2",
                "ref:rspo": 17359,
                "official_name": "Szko\u0142a Podstawowa im. Polskich Noblist\u00f3w Z Oddzia\u0142ami Przedszkolnymi w K\u0142oczewie",
                "name": "Szko\u0142a Podstawowa",
                "addr:postcode": "08-550",
                "addr:city": "K\u0142oczew",
                "addr:street": "D\u0142uga",
                "addr:housenumber": "69",
                "addr:teryt:simc": 674247,
                "addr:teryt:sym_ul": 3839,
                "phone": "+48 257511756",
                "email": "szkola_kloczew@wp.pl",
                "website": "http:\/\/www.zskloczew.szkolna.net",
                "ref:regon": "000586655",
                "ref:vatin": "PL7162603057",
                "operator": "Gmina K\u0142oczew",
                "operator:type": "government",
                "amenity": "school"
            }
        },
        {
            "id": 274146,
            "type": "Feature",
            "geometry": {
                "type": "Point",
                "coordinates": [
                    21.938285033656,
                    51.737594983968
                ]
            },
            "properties": {
                "ref:rspo": 274146,
                "official_name": "Centrum Edukacyjne Profectus",
                "name": "Centrum Edukacyjne Profectus",
                "addr:postcode": "08-550",
                "addr:place": "Stare Zadybie",
                "addr:housenumber": "5",
                "addr:teryt:simc": 674394,
                "phone": "+48 506167634",
                "email": "ewa.kania@profectus.edu.pl",
                "website": "http:\/\/www.profectus.edu.pl",
                "ref:regon": "385305913",
                "operator": "Ewa Kania",
                "operator:type": "private",
                "amenity": "training"
            }
        },
        {
            "id": 12922,
            "type": "Feature",
            "geometry": {
                "type": "Point",
                "coordinates": [
                    21.86188,
                    51.74942
                ]
            },
            "properties": {
                "isced:level": "1;2",
                "ref:rspo": 12922,
                "official_name": "Szko\u0142a Podstawowa im. Jana Kupczyka Z Oddzia\u0142ami Przedszkolnymi w Woli Zadybskiej",
                "name": "Szko\u0142a Podstawowa",
                "addr:postcode": "08-550",
                "addr:place": "Wola Zadybska",
                "addr:housenumber": "82",
                "addr:teryt:simc": 674477,
                "phone": "+48 257543024",
                "email": "wolazadybskaszkola@o2.pl",
                "ref:regon": "001125590",
                "ref:vatin": "PL7162471302",
                "operator": "Gmina K\u0142oczew",
                "operator:type": "government",
                "amenity": "school"
            }
        },
        {
            "id": 17439,
            "type": "Feature",
            "geometry": {
                "type": "Point",
                "coordinates": [
                    22.0265099,
                    51.7552
                ]
            },
            "properties": {
                "isced:level": "1;2",
                "ref:rspo": 17439,
                "official_name": "Szko\u0142a Podstawowa im. Henryka Sienkiewicza Z Oddzia\u0142ami Przedszkolnymi w Go\u017adzie",
                "name": "Szko\u0142a Podstawowa",
                "addr:postcode": "08-550",
                "addr:place": "G\u00f3zd",
                "addr:housenumber": "109",
                "addr:teryt:simc": 674141,
                "phone": "+48 257550834",
                "email": "szkolagozd@op.pl",
                "ref:regon": "001125560",
                "ref:vatin": "PL7162603086",
                "operator": "Gmina K\u0142oczew",
                "operator:type": "government",
                "amenity": "school"
            }
        },
        {
            "id": 268411,
            "type": "Feature",
            "geometry": {
                "type": "Point",
                "coordinates": [
                    22.0265099,
                    51.75517
                ]
            },
            "properties": {
                "ref:rspo": 268411,
                "official_name": "Punkt Przedszkolny w Go\u017adzie",
                "name": "Punkt Przedszkolny w Go\u017adzie",
                "addr:postcode": "08-550",
                "addr:place": "G\u00f3zd",
                "addr:housenumber": "109 A",
                "addr:teryt:simc": 674141,
                "phone": "+48 257550834",
                "email": "szkolagozd@op.pl",
                "ref:regon": "381151086",
                "operator": "Gmina K\u0142oczew",
                "operator:type": "government",
                "amenity": "kindergarten"
            }
        }
    ]
}