{
    "type": "FeatureCollection",
    "features": [
        {
            "id": 127708,
            "type": "Feature",
            "geometry": {
                "type": "Point",
                "coordinates": [
                    22.0582299,
                    51.62024
                ]
            },
            "properties": {
                "isced:level": "1;2",
                "ref:rspo": 127708,
                "official_name": "Szko\u0142a Podstawowa w Nowodworze Filia w Trzciankach",
                "name": "Szko\u0142a Podstawowa w Nowodworze Filia w Trzciankach",
                "addr:postcode": "08-503",
                "addr:place": "Trzcianki",
                "addr:housenumber": "64",
                "addr:city:simc": 388079,
                "phone": "+48 818661004",
                "ref:regon": "593187000",
                "operator": "Gmina Nowodw\u00f3r",
                "operator:type": "government",
                "amenity": "school",
                "note": "Parent RSPO: 107737"
            }
        },
        {
            "id": 107737,
            "type": "Feature",
            "geometry": {
                "type": "Point",
                "coordinates": [
                    22.10222,
                    51.63895
                ]
            },
            "properties": {
                "isced:level": "1;2",
                "ref:rspo": 107737,
                "official_name": "Szko\u0142a Podstawowa im. Wac\u0142awa Na\u0142kowskiego w Nowodworze",
                "name": "Szko\u0142a Podstawowa",
                "addr:postcode": "08-503",
                "addr:place": "Nowodw\u00f3r",
                "addr:housenumber": "73",
                "addr:city:simc": 388010,
                "phone": "+48 818661006",
                "email": "zsonowodwor@gmail.com",
                "ref:regon": "000593187",
                "operator": "Gmina Nowodw\u00f3r",
                "operator:type": "government",
                "amenity": "school",
                "note": "Children RSPO: 127708"
            }
        },
        {
            "id": 127704,
            "type": "Feature",
            "geometry": {
                "type": "Point",
                "coordinates": [
                    22.10222,
                    51.63892
                ]
            },
            "properties": {
                "ref:rspo": 127704,
                "official_name": "Punkt Przedszkolny w Nowodworze",
                "name": "Punkt Przedszkolny w Nowodworze",
                "addr:postcode": "08-503",
                "addr:place": "Nowodw\u00f3r",
                "addr:housenumber": "73",
                "addr:city:simc": 388010,
                "phone": "+48 818661920",
                "email": "oswiata@nowodwor.eurzad.eu",
                "ref:regon": "361810736",
                "operator": "Gmina Nowodw\u00f3r",
                "operator:type": "government",
                "amenity": "kindergarten"
            }
        },
        {
            "id": 106638,
            "type": "Feature",
            "geometry": {
                "type": "Point",
                "coordinates": [
                    22.05041,
                    51.65088
                ]
            },
            "properties": {
                "isced:level": "1;2",
                "ref:rspo": 106638,
                "official_name": "Szko\u0142a Podstawowa w Jakub\u00f3wce",
                "name": "Szko\u0142a Podstawowa w Jakub\u00f3wce",
                "addr:postcode": "08-503",
                "addr:place": "Jakub\u00f3wka",
                "addr:housenumber": "65",
                "addr:city:simc": 387980,
                "email": "acuch@o2.pl",
                "website": "http:\/\/www.jakubowka.szkolna.net",
                "ref:regon": "061508478",
                "ref:vatin": "PL5060074306",
                "operator": "Stowarzyszenie Rozwoju I Promocji Jakub\u00f3wki",
                "operator:type": "ngo",
                "amenity": "school"
            }
        },
        {
            "id": 104717,
            "type": "Feature",
            "geometry": {
                "type": "Point",
                "coordinates": [
                    22.1466,
                    51.6718199
                ]
            },
            "properties": {
                "isced:level": "1;2",
                "ref:rspo": 104717,
                "official_name": "Szko\u0142a Podstawowa w Nied\u017awiedziu",
                "name": "Szko\u0142a Podstawowa w Nied\u017awiedziu",
                "addr:postcode": "08-503",
                "addr:place": "Nied\u017awied\u017a",
                "addr:housenumber": "62",
                "addr:city:simc": 388004,
                "phone": "+48 818661011",
                "email": "sp.niedzwiedz@vp.pl",
                "website": "http:\/\/www.sp.niedzwiedz.szkolnastrona.pl",
                "ref:regon": "001151623",
                "ref:vatin": "PL5060037021",
                "operator": "Gmina Nowodw\u00f3r",
                "operator:type": "government",
                "amenity": "school"
            }
        },
        {
            "id": 127711,
            "type": "Feature",
            "geometry": {
                "type": "Point",
                "coordinates": [
                    22.1466,
                    51.6717899
                ]
            },
            "properties": {
                "ref:rspo": 127711,
                "official_name": "Zesp\u00f3\u0142 Wychowania Przedszkolnego w Nied\u017awiedziu",
                "name": "Zesp\u00f3\u0142 Wychowania Przedszkolnego w Nied\u017awiedziu",
                "addr:postcode": "08-503",
                "addr:place": "Nied\u017awied\u017a",
                "addr:housenumber": "62",
                "addr:city:simc": 388004,
                "phone": "+48 818661920",
                "email": "oswiata@nowodwor.eurzad.eu",
                "ref:regon": "361810890",
                "operator": "Gmina Nowodw\u00f3r",
                "operator:type": "government",
                "amenity": "kindergarten"
            }
        },
        {
            "id": 108790,
            "type": "Feature",
            "geometry": {
                "type": "Point",
                "coordinates": [
                    22.09566,
                    51.69975
                ]
            },
            "properties": {
                "isced:level": "1;2",
                "ref:rspo": 108790,
                "official_name": "Szko\u0142a Podstawowa im. Henryka Sienkiewicza w Grabowie Szlacheckim",
                "name": "Szko\u0142a Podstawowa",
                "addr:postcode": "08-503",
                "addr:place": "Grab\u00f3w Szlachecki",
                "addr:housenumber": "61",
                "addr:city:simc": 387950,
                "phone": "+48 817234677",
                "email": "zsograbow@wp.pl",
                "website": "http:\/\/www.zsograbow.szkolnastrona.pl",
                "ref:regon": "001151793",
                "operator": "Gmina Nowodw\u00f3r",
                "operator:type": "government",
                "amenity": "school"
            }
        },
        {
            "id": 127709,
            "type": "Feature",
            "geometry": {
                "type": "Point",
                "coordinates": [
                    22.09566,
                    51.69972
                ]
            },
            "properties": {
                "ref:rspo": 127709,
                "official_name": "Punkt Przedszkolny w Grabowie Szlacheckim",
                "name": "Punkt Przedszkolny w Grabowie Szlacheckim",
                "addr:postcode": "08-503",
                "addr:place": "Grab\u00f3w Szlachecki",
                "addr:housenumber": "61",
                "addr:city:simc": 387950,
                "phone": "+48 818661920",
                "email": "oswiata@nowodwor.eurzad.eu",
                "ref:regon": "361810788",
                "operator": "Gmina Nowodw\u00f3r",
                "operator:type": "government",
                "amenity": "kindergarten"
            }
        }
    ]
}