{
    "type": "FeatureCollection",
    "features": [
        {
            "id": 89285,
            "type": "Feature",
            "geometry": {
                "type": "Point",
                "coordinates": [
                    22.3820239,
                    51.0628907
                ]
            },
            "properties": {
                "isced:level": "1;2",
                "ref:rspo": 89285,
                "official_name": "Szko\u0142a Podstawowa im. Jana Paw\u0142a II w Sobieszczanach",
                "name": "Szko\u0142a Podstawowa",
                "addr:postcode": "24-220",
                "addr:place": "Sobieszczany",
                "addr:housenumber": "35",
                "addr:teryt:simc": 387045,
                "phone": "+48 815116012",
                "email": "spsob@poczta.onet.pl",
                "website": "http:\/\/www.spsobieszczany.tnb.pl",
                "ref:regon": "001151468",
                "ref:vatin": "PL7132492239",
                "operator": "Gmina Niedrzwica Du\u017ca",
                "operator:type": "government",
                "amenity": "school"
            }
        },
        {
            "id": 56399,
            "type": "Feature",
            "geometry": {
                "type": "Point",
                "coordinates": [
                    22.3904299,
                    51.08018
                ]
            },
            "properties": {
                "ref:rspo": 56399,
                "official_name": "Specjalny O\u015brodek Szkolno - Wychowawczy w Za\u0142uczu",
                "name": "Specjalny O\u015brodek Szkolno - Wychowawczy w Za\u0142uczu",
                "addr:postcode": "24-220",
                "addr:place": "Za\u0142ucze",
                "addr:housenumber": "59",
                "addr:teryt:simc": 387186,
                "phone": "+48 815116001",
                "email": "sosw.zalucze@interia.pl",
                "website": "http:\/\/www.soswzalucze.szkolnastrona.pl",
                "ref:regon": "060710380",
                "ref:vatin": "PL7133063279",
                "operator": "Powiat Lubelski",
                "operator:type": "government",
                "amenity": "school",
                "note": "Children RSPO: 85630;89343"
            }
        },
        {
            "id": 85630,
            "type": "Feature",
            "geometry": {
                "type": "Point",
                "coordinates": [
                    22.3904299,
                    51.080149999999996
                ]
            },
            "properties": {
                "isced:level": "1;2",
                "ref:rspo": 85630,
                "official_name": "Szko\u0142a Podstawowa Specjalna w Za\u0142uczu",
                "name": "Szko\u0142a Podstawowa Specjalna w Za\u0142uczu",
                "addr:postcode": "24-220",
                "addr:place": "Za\u0142ucze",
                "addr:housenumber": "59",
                "addr:teryt:simc": 387186,
                "phone": "+48 815116001",
                "email": "sosw.zalucze@interia.pl",
                "website": "http:\/\/www.soswzalucze.szkolnastrona.pl",
                "ref:regon": "060710367",
                "ref:vatin": "PL7133063279",
                "operator": "Powiat Lubelski",
                "operator:type": "government",
                "amenity": "school",
                "note": "Parent RSPO: 56399"
            }
        },
        {
            "id": 89343,
            "type": "Feature",
            "geometry": {
                "type": "Point",
                "coordinates": [
                    22.3904299,
                    51.08012
                ]
            },
            "properties": {
                "ref:rspo": 89343,
                "official_name": "Szko\u0142a Specjalna Przysposabiaj\u0105ca Do Pracy w Za\u0142uczu",
                "name": "Szko\u0142a Specjalna Przysposabiaj\u0105ca Do Pracy w Za\u0142uczu",
                "addr:postcode": "24-220",
                "addr:place": "Za\u0142ucze",
                "addr:housenumber": "59",
                "addr:teryt:simc": 387186,
                "phone": "+48 815116001",
                "email": "sosw.zalucze@interia.pl",
                "ref:regon": "060710373",
                "ref:vatin": "PL7133063279",
                "operator": "Powiat Lubelski",
                "operator:type": "government",
                "amenity": "school",
                "note": "Parent RSPO: 56399"
            }
        },
        {
            "id": 86203,
            "type": "Feature",
            "geometry": {
                "type": "Point",
                "coordinates": [
                    22.36103,
                    51.08508
                ]
            },
            "properties": {
                "isced:level": "1;2",
                "ref:rspo": 86203,
                "official_name": "Szko\u0142a Podstawowa w Niedrzwicy Ko\u015bcielnej M. Ks Stanis\u0142awa Konarskiego",
                "name": "Szko\u0142a Podstawowa w Niedrzwicy Ko\u015bcielnej M. Ks Stanis\u0142awa Konarskiego",
                "addr:postcode": "24-220",
                "addr:city": "Niedrzwica Ko\u015bcielna",
                "addr:street": "Lipowa",
                "addr:housenumber": "26",
                "addr:teryt:simc": 386873,
                "addr:teryt:sym_ul": 11139,
                "phone": "+48 815116301",
                "email": "zs.koscielna@wp.pl",
                "website": "http:\/\/www.zskoscielna.niedrzwicaduza.pl",
                "ref:regon": "001151445",
                "ref:vatin": "PL7132492216",
                "operator": "Gmina Niedrzwica Du\u017ca",
                "operator:type": "government",
                "amenity": "school"
            }
        },
        {
            "id": 61573,
            "type": "Feature",
            "geometry": {
                "type": "Point",
                "coordinates": [
                    22.36469,
                    51.09088
                ]
            },
            "properties": {
                "ref:rspo": 61573,
                "official_name": "Przedszkole w Niedrzwicy Ko\u015bcielnej",
                "name": "Przedszkole w Niedrzwicy Ko\u015bcielnej",
                "addr:postcode": "24-220",
                "addr:city": "Niedrzwica Ko\u015bcielna",
                "addr:street": "Krakowska",
                "addr:housenumber": "72",
                "addr:teryt:simc": 386873,
                "addr:teryt:sym_ul": 9796,
                "phone": "+48 815116302",
                "email": "przedszkole.nk@wp.pl",
                "website": "http:\/\/www.przedszkole-nk.szkolnastrona.pl",
                "ref:regon": "060717211",
                "ref:vatin": "PL7133063977",
                "operator": "Gmina Niedrzwica Du\u017ca",
                "operator:type": "government",
                "amenity": "kindergarten"
            }
        },
        {
            "id": 62371,
            "type": "Feature",
            "geometry": {
                "type": "Point",
                "coordinates": [
                    22.31987,
                    51.10606
                ]
            },
            "properties": {
                "isced:level": "1;2",
                "ref:rspo": 62371,
                "official_name": "Publiczna Szko\u0142a Podstawowa w Warszawiakach",
                "name": "Publiczna Szko\u0142a Podstawowa w Warszawiakach",
                "addr:postcode": "24-220",
                "addr:place": "Warszawiaki",
                "addr:housenumber": "58",
                "addr:teryt:simc": 387170,
                "phone": "+48 815175078",
                "email": "dyr.sp.warszawiaki@gmail.com",
                "ref:regon": "061487061",
                "ref:vatin": "PL7132977356",
                "operator": "Stowarzyszenie Rozwoju Wsi Radawczyk",
                "operator:type": "ngo",
                "amenity": "school"
            }
        },
        {
            "id": 124273,
            "type": "Feature",
            "geometry": {
                "type": "Point",
                "coordinates": [
                    22.43693,
                    51.11152
                ]
            },
            "properties": {
                "isced:level": "1;2",
                "ref:rspo": 124273,
                "official_name": "Szko\u0142a Podstawowa w Mariance",
                "name": "Szko\u0142a Podstawowa w Mariance",
                "addr:postcode": "24-220",
                "addr:place": "Marianka",
                "addr:housenumber": "97",
                "addr:teryt:simc": 386821,
                "phone": "+48 815175034",
                "email": "szkola.marianka@wp.pl",
                "website": "http:\/\/www.spmarianka.pl",
                "ref:regon": "061721048",
                "operator": "Stowarzyszenie \"Ma\u0142a Szko\u0142a - Wielkie Szanse\"",
                "operator:type": "ngo",
                "amenity": "school"
            }
        },
        {
            "id": 62377,
            "type": "Feature",
            "geometry": {
                "type": "Point",
                "coordinates": [
                    22.37944,
                    51.11316
                ]
            },
            "properties": {
                "ref:rspo": 62377,
                "official_name": "Niepubliczne Przedszkole J\u0119zykowo - Artystyczne \"U Pana Kleksa\"",
                "name": "Niepubliczne Przedszkole J\u0119zykowo - Artystyczne \"U Pana Kleksa\"",
                "addr:postcode": "24-220",
                "addr:city": "Niedrzwica Du\u017ca",
                "addr:street": "Dworcowa",
                "addr:housenumber": "17A",
                "addr:teryt:simc": 386844,
                "addr:teryt:sym_ul": 4434,
                "phone": "+48 662662212",
                "email": "asilo.lublin@gmail.com",
                "ref:regon": "061479989",
                "ref:vatin": "PL7171785230",
                "operator": "Asilo Sp\u00f3\u0142ka Z Ograniczon\u0105 Odpowiedzialno\u015bci\u0105",
                "operator:type": "private",
                "amenity": "kindergarten"
            }
        },
        {
            "id": 57689,
            "type": "Feature",
            "geometry": {
                "type": "Point",
                "coordinates": [
                    22.38684,
                    51.11334
                ]
            },
            "properties": {
                "isced:level": "1;2",
                "ref:rspo": 57689,
                "official_name": "Szko\u0142a Podstawowa im.bohater\u00f3w 7 Ko\u0142obrzeskiego Pu\u0142ku Piechoty w Niedrzwicy Du\u017cej",
                "name": "Szko\u0142a Podstawowa im.bohater\u00f3w 7 Ko\u0142obrzeskiego Pu\u0142ku Piechoty w Niedrzwicy Du\u017cej",
                "addr:postcode": "24-220",
                "addr:city": "Niedrzwica Du\u017ca",
                "addr:street": "Lubelska",
                "addr:housenumber": "21A",
                "addr:teryt:simc": 386844,
                "addr:teryt:sym_ul": 11307,
                "phone": "+48 815175024",
                "email": "apastuszak@op.pl",
                "website": "http:\/\/www.sp.niedrzwicaduza.pl",
                "ref:regon": "000269080",
                "ref:vatin": "PL7132492191",
                "operator": "Gmina Niedrzwica Du\u017ca",
                "operator:type": "government",
                "amenity": "school"
            }
        },
        {
            "id": 59601,
            "type": "Feature",
            "geometry": {
                "type": "Point",
                "coordinates": [
                    22.3866,
                    51.11349
                ]
            },
            "properties": {
                "ref:rspo": 59601,
                "official_name": "Przedszkole w Niedrzwicy Du\u017cej",
                "name": "Przedszkole w Niedrzwicy Du\u017cej",
                "addr:postcode": "24-220",
                "addr:city": "Niedrzwica Du\u017ca",
                "addr:street": "Lubelska",
                "addr:housenumber": "21",
                "addr:teryt:simc": 386844,
                "addr:teryt:sym_ul": 11307,
                "phone": "+48 815175113",
                "email": "b.gaska@wp.pl",
                "website": "http:\/\/www.przedszkole-niedrzwicaduza.com\/",
                "ref:regon": "060717205",
                "ref:vatin": "PL7133063983",
                "operator": "Gmina Niedrzwica Du\u017ca",
                "operator:type": "government",
                "amenity": "kindergarten"
            }
        },
        {
            "id": 61578,
            "type": "Feature",
            "geometry": {
                "type": "Point",
                "coordinates": [
                    22.3365,
                    51.13425
                ]
            },
            "properties": {
                "isced:level": "1;2",
                "ref:rspo": 61578,
                "official_name": "Szko\u0142a Podstawowa im. Or\u0142a Bia\u0142ego w Cz\u00f3\u0142nach",
                "name": "Szko\u0142a Podstawowa",
                "addr:postcode": "24-220",
                "addr:place": "Cz\u00f3\u0142na",
                "addr:housenumber": "103",
                "addr:teryt:simc": 386732,
                "phone": "+48 815175035",
                "email": "spczolna@wp.pl",
                "website": "http:\/\/www.czolna.pl",
                "ref:regon": "001250408",
                "ref:vatin": "PL7132491903",
                "operator": "Gmina Niedrzwica Du\u017ca",
                "operator:type": "government",
                "amenity": "school"
            }
        },
        {
            "id": 87004,
            "type": "Feature",
            "geometry": {
                "type": "Point",
                "coordinates": [
                    22.46683,
                    51.14844
                ]
            },
            "properties": {
                "isced:level": "1;2",
                "ref:rspo": 87004,
                "official_name": "Szko\u0142a Podstawowa im. \u017bo\u0142nierzy - Bohater\u00f3w Armii Krajowej",
                "name": "Szko\u0142a Podstawowa",
                "addr:postcode": "20-515",
                "addr:place": "Kr\u0119\u017cnica Jara",
                "addr:housenumber": "321",
                "addr:teryt:simc": 386761,
                "phone": "+48 815119125",
                "email": "kreznica@interia.pl",
                "website": "http:\/\/www.kreznicajara.pl",
                "ref:regon": "001151451",
                "ref:vatin": "PL7132491872",
                "operator": "Gmina Niedrzwica Du\u017ca",
                "operator:type": "government",
                "amenity": "school"
            }
        },
        {
            "id": 62378,
            "type": "Feature",
            "geometry": {
                "type": "Point",
                "coordinates": [
                    22.4034799,
                    51.15488
                ]
            },
            "properties": {
                "isced:level": "1;2",
                "ref:rspo": 62378,
                "official_name": "Szko\u0142a Podstawowa im. Ks. Jana Twardowskiego w Strzeszkowicach Du\u017cych",
                "name": "Szko\u0142a Podstawowa",
                "addr:postcode": "24-220",
                "addr:place": "Strzeszkowice Du\u017ce",
                "addr:housenumber": "255A",
                "addr:teryt:simc": 387068,
                "phone": "+48 815118005",
                "email": "strzeszkowice@wp.pl",
                "website": "http:\/\/strzeszkowice.pl",
                "ref:regon": "001151474",
                "ref:vatin": "PL7132492222",
                "operator": "Gmina Niedrzwica Du\u017ca",
                "operator:type": "government",
                "amenity": "school"
            }
        },
        {
            "id": 62372,
            "type": "Feature",
            "geometry": {
                "type": "Point",
                "coordinates": [
                    22.37916,
                    51.16239
                ]
            },
            "properties": {
                "isced:level": "1;2",
                "ref:rspo": 62372,
                "official_name": "Publiczna Szko\u0142a Podstawowa w Radawczyku",
                "name": "Publiczna Szko\u0142a Podstawowa w Radawczyku",
                "addr:postcode": "24-220",
                "addr:place": "Radawczyk",
                "addr:housenumber": "79",
                "addr:teryt:simc": 387000,
                "phone": "+48 815118010",
                "email": "zosia5-39@tlen.p",
                "website": "http:\/\/szkola-warszawiaki-radawczyk.edu.pl",
                "ref:regon": "061487078",
                "ref:vatin": "PL7132977356",
                "operator": "Stowarzyszenie Rozwoju Wsi Radawczyk",
                "operator:type": "ngo",
                "amenity": "school"
            }
        }
    ]
}