{
    "type": "FeatureCollection",
    "features": [
        {
            "id": 11753,
            "type": "Feature",
            "geometry": {
                "type": "Point",
                "coordinates": [
                    22.51281,
                    51.1389799
                ]
            },
            "properties": {
                "isced:level": "1;2",
                "ref:rspo": 11753,
                "official_name": "Publiczna Szko\u0142a Podstawowa im. Kornela Makuszy\u0144skiego w Prawiednikach",
                "name": "Publiczna Szko\u0142a Podstawowa",
                "addr:postcode": "20-515",
                "addr:place": "Prawiedniki",
                "addr:housenumber": "165",
                "addr:city:simc": 381090,
                "phone": "+48 817500924",
                "email": "szkolawprawiednikach@wp.pl",
                "website": "https:\/\/szkolawprawiednikach.edupage.org\/",
                "ref:regon": "001180369",
                "ref:vatin": "PL7132228241",
                "operator": "Gmina G\u0142usk",
                "operator:type": "government",
                "amenity": "school"
            }
        },
        {
            "id": 41234,
            "type": "Feature",
            "geometry": {
                "type": "Point",
                "coordinates": [
                    22.58423,
                    51.15501
                ]
            },
            "properties": {
                "isced:level": "1;2",
                "ref:rspo": 41234,
                "official_name": "Szko\u0142a Podstawowa im. Jana Paw\u0142a II w M\u0119towie",
                "name": "Szko\u0142a Podstawowa",
                "addr:postcode": "20-388",
                "addr:place": "M\u0119t\u00f3w",
                "addr:housenumber": "124",
                "addr:city:simc": 381083,
                "phone": "+48 817518622",
                "email": "zsmetow@wp.pl",
                "website": "https:\/\/metow.edupage.org",
                "ref:regon": "001180346",
                "ref:vatin": "PL7132974085",
                "operator": "Gmina G\u0142usk",
                "operator:type": "government",
                "amenity": "school"
            }
        },
        {
            "id": 41237,
            "type": "Feature",
            "geometry": {
                "type": "Point",
                "coordinates": [
                    22.64908,
                    51.16696
                ]
            },
            "properties": {
                "isced:level": "1;2",
                "ref:rspo": 41237,
                "official_name": "Szko\u0142a Podstawowa im. Stefana Kardyna\u0142a Wyszy\u0144skiego w Wilczopole-Kolonia",
                "name": "Szko\u0142a Podstawowa",
                "addr:postcode": "20-388",
                "addr:place": "Wilczopole-Kolonia",
                "addr:housenumber": "97",
                "addr:city:simc": 381137,
                "phone": "+48 817598006",
                "email": "wilczopolesp@wp.pl",
                "website": "https:\/\/spwilczopole.edupage.org\/",
                "ref:regon": "001180352",
                "ref:vatin": "PL7132800942",
                "operator": "Gmina G\u0142usk",
                "operator:type": "government",
                "amenity": "school"
            }
        },
        {
            "id": 120748,
            "type": "Feature",
            "geometry": {
                "type": "Point",
                "coordinates": [
                    22.58445,
                    51.16813
                ]
            },
            "properties": {
                "ref:rspo": 120748,
                "official_name": "Niepubliczne Przedszkole \"Bajka\"",
                "name": "Niepubliczne Przedszkole \"Bajka\"",
                "addr:postcode": "20-388",
                "addr:place": "Domin\u00f3w",
                "addr:housenumber": "96D",
                "addr:city:simc": 381002,
                "phone": "+48 796645768",
                "email": "m.kifer@op.pl",
                "ref:regon": "061618630",
                "ref:vatin": "PL7122413244",
                "operator": "Maria Wolfram-Kifer",
                "operator:type": "private",
                "amenity": "kindergarten"
            }
        },
        {
            "id": 273386,
            "type": "Feature",
            "geometry": {
                "type": "Point",
                "coordinates": [
                    22.59515,
                    51.17083
                ]
            },
            "properties": {
                "ref:rspo": 273386,
                "official_name": "Przedszkole Niepubliczne Z\u0142ota Rybka",
                "name": "Przedszkole Niepubliczne Z\u0142ota Rybka",
                "addr:postcode": "20-388",
                "addr:city": "Domin\u00f3w",
                "addr:street": "Rynek",
                "addr:housenumber": "3",
                "addr:door": "4",
                "addr:city:simc": 381002,
                "addr:street:sym_ul": 19253,
                "phone": "+48 797848206",
                "email": "kontakt@przedszkole-zlota-rybka.pl",
                "website": "http:\/\/przedszkole-zlota-rybka.pl",
                "ref:regon": "384460416",
                "ref:vatin": "PL9461467700",
                "operator": "Ma\u0142gorzata Reszka-Ryczek",
                "operator:type": "private",
                "amenity": "kindergarten"
            }
        },
        {
            "id": 105088,
            "type": "Feature",
            "geometry": {
                "type": "Point",
                "coordinates": [
                    22.59115,
                    51.17167
                ]
            },
            "properties": {
                "ref:rspo": 105088,
                "official_name": "Schronisko dla Nieletnich w Dominowie",
                "name": "Schronisko dla Nieletnich w Dominowie",
                "addr:postcode": "20-388",
                "addr:place": "Domin\u00f3w",
                "addr:housenumber": "81C",
                "addr:city:simc": 381002,
                "phone": "+48 817518741",
                "email": "sekretariat@dominow.sdn.gov.pl",
                "website": "http:\/\/www.dominow.sdn.gov.pl",
                "ref:regon": "000323140",
                "operator": "Ministerstwo Sprawiedliwo\u015bci",
                "operator:type": "public",
                "note": "Children RSPO: 124791;124795"
            }
        },
        {
            "id": 124791,
            "type": "Feature",
            "geometry": {
                "type": "Point",
                "coordinates": [
                    22.59115,
                    51.17164
                ]
            },
            "properties": {
                "isced:level": "1;2",
                "ref:rspo": 124791,
                "official_name": "Szko\u0142a Podstawowa w Schronisku dla Nieletnich Dominowie",
                "name": "Szko\u0142a Podstawowa w Schronisku dla Nieletnich Dominowie",
                "addr:postcode": "20-388",
                "addr:place": "Domin\u00f3w",
                "addr:housenumber": "81 C",
                "addr:city:simc": 381002,
                "phone": "+48 817518741",
                "email": "sekretariat@dominow.sdn.gov.pl",
                "website": "http:\/\/www.dominow.sdn.gov.pl",
                "ref:regon": "431926152",
                "operator": "Ministerstwo Sprawiedliwo\u015bci",
                "operator:type": "public",
                "amenity": "school",
                "note": "Parent RSPO: 105088"
            }
        },
        {
            "id": 124795,
            "type": "Feature",
            "geometry": {
                "type": "Point",
                "coordinates": [
                    22.59115,
                    51.17161
                ]
            },
            "properties": {
                "isced:level": "3",
                "ref:rspo": 124795,
                "official_name": "Bran\u017cowa Szko\u0142a I St. w Schronisku dla Nieletnich w Dominowie",
                "name": "Bran\u017cowa Szko\u0142a I St. w Schronisku dla Nieletnich w Dominowie",
                "addr:postcode": "20-388",
                "addr:place": "Domin\u00f3w",
                "addr:housenumber": "81 C",
                "addr:city:simc": 381002,
                "phone": "+48 817518741",
                "email": "sekretariat@dominow.sdn.gov.pl",
                "website": "http:\/\/www.dominow.sdn.gov.pl",
                "ref:regon": "431925610",
                "operator": "Ministerstwo Sprawiedliwo\u015bci",
                "operator:type": "public",
                "amenity": "school",
                "note": "Parent RSPO: 105088"
            }
        },
        {
            "id": 41242,
            "type": "Feature",
            "geometry": {
                "type": "Point",
                "coordinates": [
                    22.28184,
                    51.17445
                ]
            },
            "properties": {
                "ref:rspo": 41242,
                "official_name": "Niepubliczne Przedszkole Kubu\u015b",
                "name": "Niepubliczne Przedszkole Kubu\u015b",
                "addr:postcode": "20-388",
                "addr:city": "Domin\u00f3w",
                "addr:street": "Rynek",
                "addr:housenumber": "1",
                "addr:city:simc": 381002,
                "addr:street:sym_ul": 19253,
                "phone": "+48 797791473",
                "email": "przedszkolemarzen@interia.pl",
                "website": "http:\/\/kubus-przedszkole.pl",
                "ref:regon": "061475218",
                "ref:vatin": "PL7132904860",
                "operator": "Stowarzyszenie \"Szko\u0142a Marze\u0144\"",
                "operator:type": "ngo",
                "amenity": "kindergarten"
            }
        },
        {
            "id": 120746,
            "type": "Feature",
            "geometry": {
                "type": "Point",
                "coordinates": [
                    22.6628,
                    51.18399
                ]
            },
            "properties": {
                "ref:rspo": 120746,
                "official_name": "Niepubliczne Przedszkole \"Kucykowa Kraina\"",
                "name": "Niepubliczne Przedszkole \"Kucykowa Kraina\"",
                "addr:postcode": "21-040",
                "addr:place": "Kalin\u00f3wka",
                "addr:housenumber": "1A",
                "addr:city:simc": 381031,
                "phone": "+48 815848050",
                "email": "biuro@kucykowakraina.pl",
                "website": "http:\/\/www.kucykowakraina.pl",
                "ref:regon": "061618623",
                "ref:vatin": "PL7122846055",
                "operator": "Ewa Bednarczyk",
                "operator:type": "private",
                "amenity": "kindergarten"
            }
        },
        {
            "id": 41240,
            "type": "Feature",
            "geometry": {
                "type": "Point",
                "coordinates": [
                    22.65951,
                    51.20139
                ]
            },
            "properties": {
                "isced:level": "1;2",
                "ref:rspo": 41240,
                "official_name": "Szko\u0142a Podstawowa im. 100-Lecia Niepodleg\u0142o\u015bci Polski w Kalin\u00f3wce",
                "name": "Szko\u0142a Podstawowa",
                "addr:postcode": "21-040",
                "addr:place": "Kalin\u00f3wka",
                "addr:housenumber": "78",
                "addr:city:simc": 381031,
                "phone": "+48 817512174",
                "email": "sekretariat@kalinowka.eu",
                "website": "http:\/\/www.szkola.kalinowka.eu",
                "ref:regon": "430542946",
                "ref:vatin": "PL7132801870",
                "operator": "Gmina G\u0142usk",
                "operator:type": "government",
                "amenity": "school"
            }
        },
        {
            "id": 276288,
            "type": "Feature",
            "geometry": {
                "type": "Point",
                "coordinates": [
                    22.65812,
                    51.20628
                ]
            },
            "properties": {
                "ref:rspo": 276288,
                "official_name": "Niepubliczne Przedszkole \"Przysta\u0144 Blisko\u015bci\"",
                "name": "Niepubliczne Przedszkole \"Przysta\u0144 Blisko\u015bci\"",
                "addr:postcode": "21-040",
                "addr:place": "Kalin\u00f3wka",
                "addr:housenumber": "62 C",
                "addr:city:simc": 381031,
                "phone": "+48 501501137",
                "email": "biuro@przystanbliskosci.pl",
                "website": "http:\/\/www.przystanbliskosci.pl",
                "ref:regon": "387071454",
                "ref:vatin": "PL7162754603",
                "operator": "Miko\u0142aj Ko\u0142ody\u0144ski",
                "operator:type": "private",
                "amenity": "kindergarten"
            }
        }
    ]
}