{"type":"FeatureCollection","features":[{"id":43819,"type":"Feature","geometry":{"type":"Point","coordinates":[22.45916,51.25544]},"properties":{"ref:rspo":43819,"official_name":"Przedszkole Niepubliczne ,,Smyk\"","name":"Przedszkole Niepubliczne ,,Smyk\"","addr:country":"PL","addr:postcode":"21-002","addr:place":"D\u0105browica","addr:housenumber":"181","addr:teryt:sym_ul":381456,"contact:email":"przedszkolesmyk@interia.pl","contact:website":"http:\/\/www.przedszkole-smyk.edu.pl","ref:regon":"061476005","ref:vatin":"PL7131405600","operator":"Monika \u0141azuka","operator:type":"private","amenity":"kindergarten"}},{"id":121875,"type":"Feature","geometry":{"type":"Point","coordinates":[22.46268,51.26291]},"properties":{"ref:rspo":121875,"official_name":"Niepubliczne Przedszkole im.\u015bw. Franciszka Z Asy\u017cu","name":"Niepubliczne Przedszkole im.\u015bw. Franciszka Z Asy\u017cu","addr:country":"PL","addr:postcode":"21-008","addr:place":"D\u0105browica","addr:housenumber":"158","addr:teryt:sym_ul":381456,"contact:phone":"+48 815021415","ref:regon":"061649055","operator":"Zgromadzenie S\u0142u\u017cebnic Matki Dobrego Pasterza, Dom Generalny","operator:type":"religious","amenity":"kindergarten"}},{"id":43814,"type":"Feature","geometry":{"type":"Point","coordinates":[22.41594,51.26916]},"properties":{"isced:level":"1;2","ref:rspo":43814,"official_name":"Szko\u0142a Podstawowa im. Boles\u0142awa Prusa w P\u0142ouszowicach","name":"Szko\u0142a Podstawowa","addr:country":"PL","addr:postcode":"21-008","addr:place":"P\u0142ouszowice","addr:housenumber":"17","addr:teryt:sym_ul":381657,"contact:phone":"+48 815020879","contact:email":"spplouszowice@op.pl","contact:website":"http:\/\/www-spplouszowice.edupage.org","ref:regon":"001180228","ref:vatin":"PL7132596387","operator":"Gmina Jastk\u00f3w","operator:type":"government","amenity":"school"}},{"id":43812,"type":"Feature","geometry":{"type":"Point","coordinates":[22.3688499,51.27591]},"properties":{"isced:level":"1;2","ref:rspo":43812,"official_name":"Szko\u0142a Podstawowa im. Jana Paw\u0142a II w Tomaszowicach","name":"Szko\u0142a Podstawowa","addr:country":"PL","addr:postcode":"21-008","addr:place":"Tomaszowice-Kolonia","addr:housenumber":"40A","addr:teryt:sym_ul":381781,"contact:phone":"+48 815029228","contact:email":"sptomaszowice3@wp.pl","contact:website":"http:\/\/www.sptomaszowice.edupage.org","ref:regon":"001180205","ref:vatin":"PL7132593176","operator":"Gmina Jastk\u00f3w","operator:type":"government","amenity":"school"}},{"id":131103,"type":"Feature","geometry":{"type":"Point","coordinates":[22.46727,51.28838]},"properties":{"ref:rspo":131103,"official_name":"Przedszkole Samorz\u0105dowe w Jastkowie","name":"Przedszkole Samorz\u0105dowe w Jastkowie","addr:country":"PL","addr:postcode":"21-002","addr:city":"Panie\u0144szczyzna","addr:street":"ul. Lubelska","addr:housenumber":"3","addr:teryt:simc":11307,"addr:teryt:sym_ul":381605,"contact:phone":"+48 695737263","contact:email":"przedszkolewjastkowie@gmail.com","ref:regon":"364952804","ref:vatin":"PL7133092418","operator":"Gmina Jastk\u00f3w","operator:type":"government","amenity":"kindergarten"}},{"id":43818,"type":"Feature","geometry":{"type":"Point","coordinates":[22.45402,51.2927899]},"properties":{"isced:level":"1;2","ref:rspo":43818,"official_name":"Szko\u0142a Podstawowa im. J\u00f3zefa Pi\u0142sudskiego w Jastkowie","name":"Szko\u0142a Podstawowa","addr:country":"PL","addr:postcode":"21-002","addr:city":"Panie\u0144szczyzna","addr:street":"al. Warszawska","addr:housenumber":"43","addr:teryt:simc":23680,"addr:teryt:sym_ul":381605,"contact:phone":"+48 815020419","contact:email":"sp.jastkow@wp.pl","contact:website":"http:\/\/sp.jastkow.pl","ref:regon":"430583537","ref:vatin":"PL7132852821","operator":"Gmina Jastk\u00f3w","operator:type":"government","amenity":"school"}},{"id":43815,"type":"Feature","geometry":{"type":"Point","coordinates":[22.46695,51.30956]},"properties":{"isced:level":"1;2","ref:rspo":43815,"official_name":"Szko\u0142a Podstawowa im.j\u00f3zefa Ignacego Kraszewskiego w Snopkowie","name":"Szko\u0142a Podstawowa im.j\u00f3zefa Ignacego Kraszewskiego w Snopkowie","addr:country":"PL","addr:postcode":"21-002","addr:city":"Snopk\u00f3w","addr:street":"ul. Szkolna","addr:housenumber":"1","addr:teryt:simc":21970,"addr:teryt:sym_ul":381752,"contact:phone":"+48 815022860","contact:email":"spsnopkow@o2.pl","contact:website":"http:\/\/www.spsnopkow.jastkow.pl","ref:regon":"001180234","ref:vatin":"PL7132592662","operator":"Gmina Jastk\u00f3w","operator:type":"government","amenity":"school"}},{"id":24157,"type":"Feature","geometry":{"type":"Point","coordinates":[22.3084,51.31218]},"properties":{"isced:level":"1;2","ref:rspo":24157,"official_name":"Szko\u0142a Podstawowa im. Anny I Andrzeja Nowak\u00f3w w O\u017carowie","name":"Szko\u0142a Podstawowa","addr:country":"PL","addr:postcode":"24-150","addr:place":"O\u017car\u00f3w","addr:housenumber":"160","addr:teryt:sym_ul":381597,"contact:phone":"+48 815017819","contact:email":"spozarow@poczta.onet.pl","contact:website":"http:\/\/spozarow.jastkow.pl","ref:regon":"001180211","ref:vatin":"PL7132607091","operator":"Gmina Jastk\u00f3w","operator:type":"government","amenity":"school"}},{"id":279117,"type":"Feature","geometry":{"type":"Point","coordinates":[22.48987,51.31223]},"properties":{"ref:rspo":279117,"official_name":"Przedszkole Niepubliczne Kolorowe Kredki w Snopkowie","name":"Przedszkole Niepubliczne Kolorowe Kredki w Snopkowie","addr:country":"PL","addr:postcode":"21-002","addr:place":"Snopk\u00f3w","addr:housenumber":"102","addr:teryt:sym_ul":381752,"contact:email":"agnieszka@rozpedowscy.pl","ref:regon":"520683278","operator":"Agnieszka Rozp\u0119dowska","operator:type":"private","amenity":"kindergarten"}}]}