{
    "type": "FeatureCollection",
    "features": [
        {
            "id": 61365,
            "type": "Feature",
            "geometry": {
                "type": "Point",
                "coordinates": [
                    22.64369,
                    51.04267
                ]
            },
            "properties": {
                "ref:rspo": 61365,
                "official_name": "Strzelecki O\u015brodek Szkoleniowy \"10.9\"",
                "name": "Strzelecki O\u015brodek Szkoleniowy \"10.9\"",
                "addr:postcode": "20-211",
                "addr:place": "Piotrk\u00f3w Pierwszy",
                "addr:housenumber": "27",
                "addr:city:simc": 381255,
                "phone": "+48 814443444",
                "ref:regon": "061479860",
                "ref:vatin": "PL7121480669",
                "operator": "Romuald Witamborski",
                "operator:type": "private",
                "fixme": "w zale\u017cno\u015bci od przedmiotu dzia\u0142alno\u015bci (np. amenity=training + training=*, amenity=dancing_school, amenity=language_school, amenity=music_school)"
            }
        },
        {
            "id": 5047,
            "type": "Feature",
            "geometry": {
                "type": "Point",
                "coordinates": [
                    22.6336209,
                    51.0531296
                ]
            },
            "properties": {
                "ref:rspo": 5047,
                "official_name": "Zesp\u00f3\u0142 Szk\u00f3\u0142 w Piotrkowie",
                "name": "Zesp\u00f3\u0142 Szk\u00f3\u0142 w Piotrkowie",
                "addr:postcode": "23-114",
                "addr:place": "Piotrk\u00f3w Pierwszy",
                "addr:housenumber": "105",
                "addr:city:simc": 381255,
                "phone": "+48 815613003",
                "email": "zspiotrkow@jablonna.lubelskie.pl",
                "website": "http:\/\/zspiotrkow.edupage.org",
                "ref:regon": "061449971",
                "operator": "Gmina Jab\u0142onna",
                "operator:type": "government",
                "landuse": "education",
                "fixme": "amenity=school, amenity=college albo landuse=education w zale\u017cno\u015bci od tego, jakie plac\u00f3wki wchodz\u0105 w sk\u0142ad zespo\u0142u. Sprawd\u017a, kiedy stosowa\u0107 amenity=* a kiedy landuse=education.",
                "note": "Children RSPO: 5045;7959"
            }
        },
        {
            "id": 5045,
            "type": "Feature",
            "geometry": {
                "type": "Point",
                "coordinates": [
                    22.6336209,
                    51.053099599999996
                ]
            },
            "properties": {
                "isced:level": "1;2",
                "ref:rspo": 5045,
                "official_name": "Szko\u0142a Podstawowa w Piotrkowie",
                "name": "Szko\u0142a Podstawowa w Piotrkowie",
                "addr:postcode": "23-114",
                "addr:place": "Piotrk\u00f3w Pierwszy",
                "addr:housenumber": "105",
                "addr:city:simc": 381255,
                "phone": "+48 815613003",
                "email": "zspiotrkow@jablonna.lubleskie.pl",
                "website": "http:\/\/zspiotrkow.gminajablonna.pl\/",
                "ref:regon": "000266637",
                "ref:vatin": "PL7132611508",
                "operator": "Gmina Jab\u0142onna",
                "operator:type": "government",
                "amenity": "school",
                "note": "Parent RSPO: 5047"
            }
        },
        {
            "id": 7959,
            "type": "Feature",
            "geometry": {
                "type": "Point",
                "coordinates": [
                    22.6336209,
                    51.0530696
                ]
            },
            "properties": {
                "ref:rspo": 7959,
                "official_name": "Przedszkole Publiczne w Piotrkowie",
                "name": "Przedszkole Publiczne w Piotrkowie",
                "addr:postcode": "23-114",
                "addr:place": "Piotrk\u00f3w Pierwszy",
                "addr:housenumber": "105",
                "addr:city:simc": 381255,
                "phone": "+48 815613003",
                "email": "zspiotrkow@jablonna.lubelskie.pl",
                "ref:regon": "431178307",
                "operator": "Gmina Jab\u0142onna",
                "operator:type": "government",
                "amenity": "kindergarten",
                "note": "Parent RSPO: 5047"
            }
        },
        {
            "id": 5046,
            "type": "Feature",
            "geometry": {
                "type": "Point",
                "coordinates": [
                    22.58909,
                    51.0844
                ]
            },
            "properties": {
                "ref:rspo": 5046,
                "official_name": "Zesp\u00f3\u0142 Szk\u00f3\u0142 w Jab\u0142onnie",
                "name": "Zesp\u00f3\u0142 Szk\u00f3\u0142 w Jab\u0142onnie",
                "addr:postcode": "23-114",
                "addr:place": "Jab\u0142onna Druga",
                "addr:housenumber": "45",
                "addr:city:simc": 381249,
                "phone": "+48 605981516",
                "email": "wherecka@interia.pl",
                "website": "http:\/\/zsjablonna.gminajablonna.pl",
                "ref:regon": "061449965",
                "operator": "Gmina Jab\u0142onna",
                "operator:type": "government",
                "landuse": "education",
                "fixme": "amenity=school, amenity=college albo landuse=education w zale\u017cno\u015bci od tego, jakie plac\u00f3wki wchodz\u0105 w sk\u0142ad zespo\u0142u. Sprawd\u017a, kiedy stosowa\u0107 amenity=* a kiedy landuse=education.",
                "note": "Children RSPO: 7957;7958"
            }
        },
        {
            "id": 7957,
            "type": "Feature",
            "geometry": {
                "type": "Point",
                "coordinates": [
                    22.58909,
                    51.08437
                ]
            },
            "properties": {
                "isced:level": "1;2",
                "ref:rspo": 7957,
                "official_name": "Szko\u0142a Podstawowa im. St.konarskiego w Jab\u0142onnie",
                "name": "Szko\u0142a Podstawowa",
                "addr:postcode": "23-114",
                "addr:place": "Jab\u0142onna Druga",
                "addr:housenumber": "45",
                "addr:city:simc": 381249,
                "phone": "+48 815610525",
                "email": "zsjablonna@jablonna.lubelskie.pl",
                "website": "http:\/\/spjablonna.edupage.org",
                "ref:regon": "001180375",
                "ref:vatin": "PL7132611520",
                "operator": "Gmina Jab\u0142onna",
                "operator:type": "government",
                "amenity": "school",
                "note": "Parent RSPO: 5046"
            }
        },
        {
            "id": 7958,
            "type": "Feature",
            "geometry": {
                "type": "Point",
                "coordinates": [
                    22.58909,
                    51.084340000000005
                ]
            },
            "properties": {
                "ref:rspo": 7958,
                "official_name": "Przedszkole Publiczne w Jab\u0142onnie",
                "name": "Przedszkole Publiczne w Jab\u0142onnie",
                "addr:postcode": "23-114",
                "addr:place": "Jab\u0142onna Druga",
                "addr:housenumber": "45",
                "addr:city:simc": 381249,
                "phone": "+48 815610525",
                "email": "zsjablonna@jablonna.lubelskie.pl",
                "website": "http:\/\/spjablonna.edupage.org",
                "ref:regon": "431178780",
                "operator": "Gmina Jab\u0142onna",
                "operator:type": "government",
                "amenity": "kindergarten",
                "note": "Parent RSPO: 5046"
            }
        },
        {
            "id": 5051,
            "type": "Feature",
            "geometry": {
                "type": "Point",
                "coordinates": [
                    22.52925,
                    51.09239
                ]
            },
            "properties": {
                "isced:level": "1;2",
                "ref:rspo": 5051,
                "official_name": "Szko\u0142a Podstawowa w Tuszowie",
                "name": "Szko\u0142a Podstawowa w Tuszowie",
                "addr:postcode": "23-114",
                "addr:place": "Tusz\u00f3w",
                "addr:housenumber": "159",
                "addr:city:simc": 381315,
                "phone": "+48 815628724",
                "email": "szkolatuszow@o2.pl",
                "website": "http:\/\/sptuszow.gminajablonna.pl",
                "ref:regon": "001180381",
                "ref:vatin": "PL7132611477",
                "operator": "Gmina Jab\u0142onna",
                "operator:type": "government",
                "amenity": "school"
            }
        },
        {
            "id": 5050,
            "type": "Feature",
            "geometry": {
                "type": "Point",
                "coordinates": [
                    22.60088,
                    51.12295
                ]
            },
            "properties": {
                "isced:level": "1;2",
                "ref:rspo": 5050,
                "official_name": "Szko\u0142a Podstawowa w Czerniejowie",
                "name": "Szko\u0142a Podstawowa w Czerniejowie",
                "addr:postcode": "23-114",
                "addr:place": "Czerniej\u00f3w",
                "addr:housenumber": "130",
                "addr:city:simc": 381210,
                "phone": "+48 815610516",
                "email": "spczerniejow130@interia.pl",
                "website": "http:\/\/spczerniejow.edupage.org",
                "ref:regon": "001180398",
                "ref:vatin": "PL7132611514",
                "operator": "Gmina Jab\u0142onna",
                "operator:type": "government",
                "amenity": "school"
            }
        },
        {
            "id": 5052,
            "type": "Feature",
            "geometry": {
                "type": "Point",
                "coordinates": [
                    22.6286999,
                    51.12716
                ]
            },
            "properties": {
                "isced:level": "1;2",
                "ref:rspo": 5052,
                "official_name": "Szko\u0142a Podstawowa w Skrzynicach",
                "name": "Szko\u0142a Podstawowa w Skrzynicach",
                "addr:postcode": "23-114",
                "addr:place": "Skrzynice Pierwsze",
                "addr:housenumber": "110",
                "addr:city:simc": 381284,
                "phone": "+48 815615524",
                "email": "spskrzynice@jablonna.lubelskie.pl",
                "website": "http:\/\/spskrzynice.gminajablonna.pl",
                "ref:regon": "001273220",
                "ref:vatin": "PL7132611483",
                "operator": "Gmina Jab\u0142onna",
                "operator:type": "government",
                "amenity": "school"
            }
        }
    ]
}