{"type":"FeatureCollection","features":[{"id":64853,"type":"Feature","geometry":{"type":"Point","coordinates":[22.31131,51.23314]},"properties":{"isced:level":"1;2","ref:rspo":64853,"official_name":"Szko\u0142a Podstawowa w Palikijach","name":"Szko\u0142a Podstawowa w Palikijach","addr:country":"PL","addr:postcode":"24-204","addr:place":"Palikije Pierwsze","addr:housenumber":"85B","addr:teryt:sym_ul":393761,"contact:phone":"+48 815177013","contact:email":"sppalikije@wp.pl","contact:website":"http:\/\/www.palikije.eu","ref:regon":"001152261","ref:vatin":"PL7132598506","operator":"Gmina Wojciech\u00f3w","operator:type":"government","amenity":"school"}},{"id":64855,"type":"Feature","geometry":{"type":"Point","coordinates":[22.17837,51.23699]},"properties":{"isced:level":"1;2","ref:rspo":64855,"official_name":"Szko\u0142a Podstawowa w \u0141ubkach","name":"Szko\u0142a Podstawowa w \u0141ubkach","addr:country":"PL","addr:postcode":"24-204","addr:place":"\u0141ubki","addr:housenumber":"58","addr:teryt:sym_ul":393672,"contact:phone":"+48 815171006","contact:email":"lubki1830@op.pl","contact:website":"http:\/\/www.splubki.pl","ref:regon":"001152290","ref:vatin":"PL7132598481","operator":"Gmina Wojciech\u00f3w","operator:type":"government","amenity":"school"}},{"id":64856,"type":"Feature","geometry":{"type":"Point","coordinates":[22.24262,51.23739]},"properties":{"isced:level":"1;2","ref:rspo":64856,"official_name":"Szko\u0142a Podstawowa im. Stanis\u0142awa Marusarza","name":"Szko\u0142a Podstawowa","addr:country":"PL","addr:postcode":"24-204","addr:place":"Wojciech\u00f3w","addr:housenumber":"8","addr:teryt:sym_ul":393844,"contact:phone":"+48 815177240","contact:email":"sp.wojciechow@interia.pl","contact:website":"http:\/\/www.zswojciechow.pl","ref:regon":"000270403","ref:vatin":"PL7132598469","operator":"Gmina Wojciech\u00f3w","operator:type":"government","amenity":"school"}},{"id":89197,"type":"Feature","geometry":{"type":"Point","coordinates":[22.27012,51.25247]},"properties":{"isced:level":"1;2","ref:rspo":89197,"official_name":"Publiczna Szko\u0142a Podstawowa im. Szarych Szereg\u00f3w w Maszkach","name":"Publiczna Szko\u0142a Podstawowa","addr:country":"PL","addr:postcode":"24-204","addr:place":"Maszki","addr:housenumber":"75","addr:teryt:sym_ul":393703,"contact:phone":"+48 815177228","contact:email":"spmaszki@o2.pl","ref:regon":"061493529","ref:vatin":"PL7132570502","operator":"Stowarzyszenie Rozwoju I Promocji Wsi Maszki Z\\S W Maszkach","operator:type":"ngo","amenity":"school"}},{"id":64854,"type":"Feature","geometry":{"type":"Point","coordinates":[22.31117,51.2669799]},"properties":{"isced:level":"1;2","ref:rspo":64854,"official_name":"Szko\u0142a Podstawowa im. Polskich Olimpijczyk\u00f3w w Mi\u0142ocinie","name":"Szko\u0142a Podstawowa","addr:country":"PL","addr:postcode":"24-150","addr:place":"Mi\u0142ocin","addr:housenumber":"7","addr:teryt:sym_ul":393732,"contact:phone":"+48 815177031","contact:email":"szkola@sp-milocin.pl","contact:website":"http:\/\/www.sp-milocin.pl","ref:regon":"001152255","ref:vatin":"PL7132617876","operator":"Gmina Wojciech\u00f3w","operator:type":"government","amenity":"school"}}]}