{
    "type": "FeatureCollection",
    "features": [
        {
            "id": 72001,
            "type": "Feature",
            "geometry": {
                "type": "Point",
                "coordinates": [
                    22.54004,
                    50.94368
                ]
            },
            "properties": {
                "isced:level": "1;2",
                "ref:rspo": 72001,
                "official_name": "Szko\u0142a Podstawowa im. Franciszka Lebiedy w Starej Wsi Drugiej",
                "name": "Szko\u0142a Podstawowa",
                "addr:postcode": "23-100",
                "addr:place": "Stara Wie\u015b Druga",
                "addr:housenumber": "56",
                "addr:city:simc": 379643,
                "phone": "+48 815625069",
                "email": "spstarawies@bychawa.pl",
                "website": "http:\/\/www.starawies2.szkola.pl",
                "ref:regon": "431163910",
                "ref:vatin": "PL7132558837",
                "operator": "Gmina Bychawa",
                "operator:type": "government",
                "amenity": "school"
            }
        },
        {
            "id": 72002,
            "type": "Feature",
            "geometry": {
                "type": "Point",
                "coordinates": [
                    22.53018,
                    50.97013
                ]
            },
            "properties": {
                "isced:level": "1;2",
                "ref:rspo": 72002,
                "official_name": "Szko\u0142a Podstawowa im. Zofii Przew\u0142ockiej w Woli Ga\u0142\u0119zowskiej",
                "name": "Szko\u0142a Podstawowa",
                "addr:postcode": "23-100",
                "addr:place": "Wola Ga\u0142\u0119zowska",
                "addr:housenumber": "116a",
                "addr:city:simc": 379710,
                "phone": "+48 815658023",
                "email": "spwolagalezowska@bychawa.pl",
                "website": "http:\/\/www.wolagalezowska.pl",
                "ref:regon": "001152143",
                "ref:vatin": "PL7132558783",
                "operator": "Gmina Bychawa",
                "operator:type": "government",
                "amenity": "school"
            }
        },
        {
            "id": 120479,
            "type": "Feature",
            "geometry": {
                "type": "Point",
                "coordinates": [
                    22.58457,
                    50.97701
                ]
            },
            "properties": {
                "isced:level": "1;2",
                "ref:rspo": 120479,
                "official_name": "Szko\u0142a Podstawowa im. Ks. Dominika Maja w Zaraszowie",
                "name": "Szko\u0142a Podstawowa",
                "addr:postcode": "23-100",
                "addr:place": "Zarasz\u00f3w",
                "addr:housenumber": "64",
                "addr:city:simc": 379749,
                "phone": "+48 815660098",
                "email": "sp.zaraszow@interia.pl",
                "website": "http:\/\/www.spzaraszow.szkolnastrona.pl",
                "ref:regon": "061607967",
                "ref:vatin": "PL7133085743",
                "operator": "Stowarzyszenie Na Rzecz Rozwoju Wsi Zarasz\u00f3w I Okolic",
                "operator:type": "ngo",
                "amenity": "school"
            }
        },
        {
            "id": 60734,
            "type": "Feature",
            "geometry": {
                "type": "Point",
                "coordinates": [
                    22.55854,
                    51.00846
                ]
            },
            "properties": {
                "ref:rspo": 60734,
                "official_name": "Zesp\u00f3\u0142 Szk\u00f3\u0142 Zawodowych nr 1 im. Mjr Henryka Dobrza\u0144skiego w Bychawie",
                "name": "Zesp\u00f3\u0142 Szk\u00f3\u0142 Zawodowych nr 1",
                "addr:postcode": "23-100",
                "addr:city": "Bychawa",
                "addr:street": "W\u0142adys\u0142awa Reymonta",
                "addr:housenumber": "4b",
                "addr:city:simc": 955621,
                "addr:street:sym_ul": 18648,
                "phone": "+48 815660045",
                "email": "majorhubal@wp.pl",
                "website": "http:\/\/www.zsz.bychawa.pl\/",
                "ref:regon": "060700937",
                "ref:vatin": "PL7133063032",
                "operator": "Powiat Lubelski",
                "operator:type": "government",
                "landuse": "education",
                "fixme": "amenity=school, amenity=college albo landuse=education w zale\u017cno\u015bci od tego, jakie plac\u00f3wki wchodz\u0105 w sk\u0142ad zespo\u0142u. Sprawd\u017a, kiedy stosowa\u0107 amenity=* a kiedy landuse=education.",
                "note": "Children RSPO: 87384;87385;87401"
            }
        },
        {
            "id": 87384,
            "type": "Feature",
            "geometry": {
                "type": "Point",
                "coordinates": [
                    22.55854,
                    51.00843
                ]
            },
            "properties": {
                "isced:level": "3",
                "ref:rspo": 87384,
                "official_name": "Bran\u017cowa Szko\u0142a I Stopnia w Bychawie",
                "name": "Bran\u017cowa Szko\u0142a I Stopnia w Bychawie",
                "addr:postcode": "23-100",
                "addr:city": "Bychawa",
                "addr:street": "W\u0142adys\u0142awa Reymonta",
                "addr:housenumber": "4b",
                "addr:city:simc": 955621,
                "addr:street:sym_ul": 18648,
                "phone": "+48 815660045",
                "email": "majorhubal@wp.pl",
                "ref:regon": "060700950",
                "ref:vatin": "PL7133063032",
                "operator": "Powiat Lubelski",
                "operator:type": "government",
                "amenity": "school",
                "note": "Parent RSPO: 60734"
            }
        },
        {
            "id": 87385,
            "type": "Feature",
            "geometry": {
                "type": "Point",
                "coordinates": [
                    22.55854,
                    51.0084
                ]
            },
            "properties": {
                "isced:level": "3",
                "ref:rspo": 87385,
                "official_name": "Technikum nr 1 w Bychawie",
                "name": "Technikum nr 1 w Bychawie",
                "addr:postcode": "23-100",
                "addr:city": "Bychawa",
                "addr:street": "W\u0142adys\u0142awa Reymonta",
                "addr:housenumber": "4b",
                "addr:city:simc": 955621,
                "addr:street:sym_ul": 18648,
                "phone": "+48 815660045",
                "email": "majorhubal@wp.pl",
                "ref:regon": "060700943",
                "operator": "Powiat Lubelski",
                "operator:type": "government",
                "amenity": "school",
                "note": "Parent RSPO: 60734"
            }
        },
        {
            "id": 87401,
            "type": "Feature",
            "geometry": {
                "type": "Point",
                "coordinates": [
                    22.55854,
                    51.00837
                ]
            },
            "properties": {
                "isced:level": "4",
                "ref:rspo": 87401,
                "official_name": "Szko\u0142a Policealna w Bychawie",
                "name": "Szko\u0142a Policealna w Bychawie",
                "addr:postcode": "23-100",
                "addr:city": "Bychawa",
                "addr:street": "W\u0142adys\u0142awa Reymonta",
                "addr:housenumber": "4b",
                "addr:city:simc": 955621,
                "addr:street:sym_ul": 18648,
                "phone": "+48 815660045",
                "email": "majorhubal@wp.pl",
                "ref:regon": "060700883",
                "ref:vatin": "PL7133063032",
                "operator": "Powiat Lubelski",
                "operator:type": "government",
                "amenity": "college",
                "note": "Parent RSPO: 60734"
            }
        },
        {
            "id": 56146,
            "type": "Feature",
            "geometry": {
                "type": "Point",
                "coordinates": [
                    22.53547,
                    51.01071
                ]
            },
            "properties": {
                "ref:rspo": 56146,
                "official_name": "Poradnia Psychologiczno - Pedagogiczna w Bychawie",
                "name": "Poradnia Psychologiczno - Pedagogiczna w Bychawie",
                "addr:postcode": "23-100",
                "addr:city": "Bychawa",
                "addr:street": "Genera\u0142a W\u0142adys\u0142awa Andersa",
                "addr:housenumber": "2",
                "addr:city:simc": 955621,
                "addr:street:sym_ul": 285,
                "phone": "+48 815660232",
                "email": "ppp.bychawa@powiat.lublin.pl",
                "website": "http:\/\/www.poradniawbychawie.pl",
                "ref:regon": "060697170",
                "ref:vatin": "PL7133104647",
                "operator": "Powiat Lubelski",
                "operator:type": "government",
                "healthcare": "counselling",
                "counselling_type": "education",
                "fixme": "w zale\u017cno\u015bci od przedmiotu dzia\u0142alno\u015bci (np. healthcare=counselling + counselling_type=education albo healthcare=psychotherapist)"
            }
        },
        {
            "id": 82650,
            "type": "Feature",
            "geometry": {
                "type": "Point",
                "coordinates": [
                    22.54234,
                    51.01256
                ]
            },
            "properties": {
                "ref:rspo": 82650,
                "official_name": "Zesp\u00f3\u0142 Szk\u00f3\u0142 im. Ks. Antoniego Kwiatkowskiego w Bychawie",
                "name": "Zesp\u00f3\u0142 Szk\u00f3\u0142",
                "addr:postcode": "23-100",
                "addr:city": "Bychawa",
                "addr:street": "Marsza\u0142ka J\u00f3zefa Pi\u0142sudskiego",
                "addr:housenumber": "81",
                "addr:city:simc": 955621,
                "addr:street:sym_ul": 36029,
                "phone": "+48 815660019",
                "email": "liceum@kwiateklo.pl",
                "website": "http:\/\/www.kwiateklo.pl",
                "ref:regon": "060709192",
                "ref:vatin": "PL7133063233",
                "operator": "Powiat Lubelski",
                "operator:type": "government",
                "landuse": "education",
                "fixme": "amenity=school, amenity=college albo landuse=education w zale\u017cno\u015bci od tego, jakie plac\u00f3wki wchodz\u0105 w sk\u0142ad zespo\u0142u. Sprawd\u017a, kiedy stosowa\u0107 amenity=* a kiedy landuse=education.",
                "note": "Children RSPO: 103477;113803"
            }
        },
        {
            "id": 103477,
            "type": "Feature",
            "geometry": {
                "type": "Point",
                "coordinates": [
                    22.54234,
                    51.01253
                ]
            },
            "properties": {
                "isced:level": "3",
                "ref:rspo": 103477,
                "official_name": "Liceum Og\u00f3lnokszta\u0142c\u0105ce w Zespole Szk\u00f3\u0142 im. Ks. Antoniego Kwiatkowskiego w Bychawie",
                "name": "Liceum Og\u00f3lnokszta\u0142c\u0105ce w Zespole Szk\u00f3\u0142",
                "addr:postcode": "23-100",
                "addr:city": "Bychawa",
                "addr:street": "Marsza\u0142ka J\u00f3zefa Pi\u0142sudskiego",
                "addr:housenumber": "81",
                "addr:city:simc": 955621,
                "addr:street:sym_ul": 36029,
                "phone": "+48 815660019",
                "email": "liceum@kwiateklo.pl",
                "website": "http:\/\/www.kwiateklo.pl",
                "ref:regon": "060709217",
                "ref:vatin": "PL7133063233",
                "operator": "Powiat Lubelski",
                "operator:type": "government",
                "amenity": "school",
                "note": "Parent RSPO: 82650"
            }
        },
        {
            "id": 113803,
            "type": "Feature",
            "geometry": {
                "type": "Point",
                "coordinates": [
                    22.54234,
                    51.0125
                ]
            },
            "properties": {
                "isced:level": "3",
                "ref:rspo": 113803,
                "official_name": "Technikum nr 2 w Bychawie",
                "name": "Technikum nr 2 w Bychawie",
                "addr:postcode": "23-100",
                "addr:city": "Bychawa",
                "addr:street": "Marsza\u0142ka J\u00f3zefa Pi\u0142sudskiego",
                "addr:housenumber": "81",
                "addr:city:simc": 955621,
                "addr:street:sym_ul": 36029,
                "phone": "+48 815660019",
                "email": "liceum@kwiateklo.pl",
                "website": "http:\/\/www.kwiateklo.pl",
                "ref:regon": "061544474",
                "ref:vatin": "PL7133063233",
                "operator": "Powiat Lubelski",
                "operator:type": "government",
                "amenity": "school",
                "note": "Parent RSPO: 82650"
            }
        },
        {
            "id": 72063,
            "type": "Feature",
            "geometry": {
                "type": "Point",
                "coordinates": [
                    22.5349499,
                    51.01382
                ]
            },
            "properties": {
                "ref:rspo": 72063,
                "official_name": "Samorz\u0105dowe Przedszkole nr 1 w Bychawie",
                "name": "Samorz\u0105dowe Przedszkole nr 1 w Bychawie",
                "addr:postcode": "23-100",
                "addr:city": "Bychawa",
                "addr:street": "Partyzant\u00f3w",
                "addr:housenumber": "5",
                "addr:city:simc": 955621,
                "addr:street:sym_ul": 15733,
                "phone": "+48 815661568",
                "email": "ps.bychawa@gmail.com",
                "ref:regon": "430575041",
                "ref:vatin": "PL7132275022",
                "operator": "Gmina Bychawa",
                "operator:type": "government",
                "amenity": "kindergarten"
            }
        },
        {
            "id": 72004,
            "type": "Feature",
            "geometry": {
                "type": "Point",
                "coordinates": [
                    22.5317599,
                    51.01403
                ]
            },
            "properties": {
                "isced:level": "1;2",
                "ref:rspo": 72004,
                "official_name": "Szko\u0142a Podstawowa im. Polski Niepodleg\u0142ej w Bychawie",
                "name": "Szko\u0142a Podstawowa",
                "addr:postcode": "23-100",
                "addr:city": "Bychawa",
                "addr:street": "Szkolna",
                "addr:housenumber": "8",
                "addr:city:simc": 955621,
                "addr:street:sym_ul": 21970,
                "phone": "+48 815660142",
                "email": "sekretariat@sp.bychawa.pl",
                "website": "http:\/\/www.sp.bychawa.pl",
                "ref:regon": "000593129",
                "ref:vatin": "PL7132558814",
                "operator": "Gmina Bychawa",
                "operator:type": "government",
                "amenity": "school"
            }
        },
        {
            "id": 92968,
            "type": "Feature",
            "geometry": {
                "type": "Point",
                "coordinates": [
                    22.53402,
                    51.01571
                ]
            },
            "properties": {
                "ref:rspo": 92968,
                "official_name": "Przedszkole Niepubliczne \"Akademia Poziomkowa\"",
                "name": "Przedszkole Niepubliczne \"Akademia Poziomkowa\"",
                "addr:postcode": "23-100",
                "addr:city": "Bychawa",
                "addr:street": "Marsza\u0142ka J\u00f3zefa Pi\u0142sudskiego",
                "addr:housenumber": "7-15",
                "addr:city:simc": 955621,
                "addr:street:sym_ul": 36029,
                "phone": "+48 795555754",
                "email": "akademiapoziomkowa@gmail.com",
                "ref:regon": "061500643",
                "ref:vatin": "PL7122685959",
                "operator": "Wioletta Rak",
                "operator:type": "private",
                "amenity": "kindergarten"
            }
        },
        {
            "id": 72005,
            "type": "Feature",
            "geometry": {
                "type": "Point",
                "coordinates": [
                    22.53338,
                    51.06367
                ]
            },
            "properties": {
                "isced:level": "1;2",
                "ref:rspo": 72005,
                "official_name": "Szko\u0142a Podstawowa im. K. Ko\u017amiana w Bychawce",
                "name": "Szko\u0142a Podstawowa",
                "addr:postcode": "23-100",
                "addr:place": "Bychawka Druga-Kolonia",
                "addr:housenumber": "75",
                "addr:city:simc": 379436,
                "phone": "+48 815660401",
                "email": "spbychawka@bychawa.pl",
                "website": "http:\/\/spbychawka.edupage.org",
                "ref:regon": "001152114",
                "ref:vatin": "PL7132558820",
                "operator": "Gmina Bychawa",
                "operator:type": "government",
                "amenity": "school"
            }
        }
    ]
}