{
    "type": "FeatureCollection",
    "features": [
        {
            "id": 20484,
            "type": "Feature",
            "geometry": {
                "type": "Point",
                "coordinates": [
                    22.35831,
                    51.331
                ]
            },
            "properties": {
                "isced:level": "1;2",
                "ref:rspo": 20484,
                "official_name": "Szko\u0142a Podstawowa im.wandy Chotomskiej",
                "name": "Szko\u0142a Podstawowa im.wandy Chotomskiej",
                "addr:postcode": "21-080",
                "addr:place": "Bogucin",
                "addr:housenumber": "64",
                "addr:city:simc": 380801,
                "phone": "+48 815018061",
                "email": "spbogucin@gmail.com",
                "website": "http:\/\/szkolabogucin.garbow.pl",
                "ref:regon": "001180300",
                "ref:vatin": "PL7161748440",
                "operator": "Gmina Garb\u00f3w",
                "operator:type": "government",
                "amenity": "school"
            }
        },
        {
            "id": 126042,
            "type": "Feature",
            "geometry": {
                "type": "Point",
                "coordinates": [
                    22.35831,
                    51.33097
                ]
            },
            "properties": {
                "ref:rspo": 126042,
                "official_name": "Zesp\u00f3\u0142 Wychowania Przedszkolnego w Bogucinie",
                "name": "Zesp\u00f3\u0142 Wychowania Przedszkolnego w Bogucinie",
                "addr:postcode": "21-080",
                "addr:place": "Bogucin",
                "addr:housenumber": "64",
                "addr:city:simc": 380801,
                "phone": "+48 815018061",
                "email": "spbogucin@gmail.com",
                "ref:regon": "360149602",
                "operator": "Gmina Garb\u00f3w",
                "operator:type": "government",
                "amenity": "kindergarten"
            }
        },
        {
            "id": 19526,
            "type": "Feature",
            "geometry": {
                "type": "Point",
                "coordinates": [
                    22.33984,
                    51.35195
                ]
            },
            "properties": {
                "isced:level": "1;2",
                "ref:rspo": 19526,
                "official_name": "Szko\u0142a Podstawowa im.marii Konopnickiej",
                "name": "Szko\u0142a Podstawowa im.marii Konopnickiej",
                "addr:postcode": "21-080",
                "addr:city": "Garb\u00f3w",
                "addr:street": "Szkolna",
                "addr:housenumber": "25",
                "addr:city:simc": 380824,
                "addr:street:sym_ul": 21970,
                "phone": "+48 815018014",
                "email": "szkola@garbow.pl",
                "ref:regon": "001180317",
                "ref:vatin": "PL7161748486",
                "operator": "Gmina Garb\u00f3w",
                "operator:type": "government",
                "amenity": "school"
            }
        },
        {
            "id": 126043,
            "type": "Feature",
            "geometry": {
                "type": "Point",
                "coordinates": [
                    22.33984,
                    51.35192
                ]
            },
            "properties": {
                "ref:rspo": 126043,
                "official_name": "Zesp\u00f3\u0142 Wychowania Przedszkolnego w Garbowie",
                "name": "Zesp\u00f3\u0142 Wychowania Przedszkolnego w Garbowie",
                "addr:postcode": "21-080",
                "addr:city": "Garb\u00f3w",
                "addr:street": "Szkolna",
                "addr:housenumber": "25",
                "addr:city:simc": 380824,
                "addr:street:sym_ul": 21970,
                "phone": "+48 815018014",
                "email": "szkola@garbow.pl",
                "ref:regon": "360144958",
                "operator": "Gmina Garb\u00f3w",
                "operator:type": "government",
                "amenity": "kindergarten"
            }
        },
        {
            "id": 73520,
            "type": "Feature",
            "geometry": {
                "type": "Point",
                "coordinates": [
                    22.40008,
                    51.35277
                ]
            },
            "properties": {
                "ref:rspo": 73520,
                "official_name": "Spo\u0142eczne Przedszkole w Le\u015bcach",
                "name": "Spo\u0142eczne Przedszkole w Le\u015bcach",
                "addr:postcode": "21-080",
                "addr:place": "Le\u015bce",
                "addr:housenumber": "63",
                "addr:city:simc": 380876,
                "phone": "+48 660350356",
                "ref:regon": "061490100",
                "operator": "Stowarzyszenie Rozwoju Wsi Le\u015bce",
                "operator:type": "ngo",
                "amenity": "kindergarten"
            }
        },
        {
            "id": 106649,
            "type": "Feature",
            "geometry": {
                "type": "Point",
                "coordinates": [
                    22.40008,
                    51.35274
                ]
            },
            "properties": {
                "isced:level": "1;2",
                "ref:rspo": 106649,
                "official_name": "Szko\u0142a Podstawowa im.zofii Trzci\u0144skiej-Kami\u0144skiej",
                "name": "Szko\u0142a Podstawowa im.zofii Trzci\u0144skiej-Kami\u0144skiej",
                "addr:postcode": "21-080",
                "addr:place": "Le\u015bce",
                "addr:housenumber": "63",
                "addr:city:simc": 380876,
                "phone": "+48 815018027",
                "email": "splesce@op.pl",
                "website": "http:\/\/www.splesce.kylos.pl",
                "ref:regon": "061509029",
                "operator": "Stowarzyszenie Rozwoju Wsi Le\u015bce",
                "operator:type": "ngo",
                "amenity": "school"
            }
        },
        {
            "id": 73522,
            "type": "Feature",
            "geometry": {
                "type": "Point",
                "coordinates": [
                    22.331399917602,
                    51.354671478271
                ]
            },
            "properties": {
                "ref:rspo": 73522,
                "official_name": "Przedszkole Niepubliczne Si\u00f3str Salezjanek im.laury Vicuna w Garbowie",
                "name": "Przedszkole Niepubliczne Si\u00f3str Salezjanek im.laury Vicuna w Garbowie",
                "addr:postcode": "21-080",
                "addr:city": "Garb\u00f3w",
                "addr:street": "Krakowskie Przedmie\u015bcie",
                "addr:housenumber": "1",
                "addr:city:simc": 380824,
                "addr:street:sym_ul": 9803,
                "phone": "+48 815018076",
                "email": "laura@cmw.waw.pl",
                "website": "http:\/\/salezjanki.waw.pl",
                "ref:regon": "061495505",
                "operator": "Zgromadzenie C\u00f3rek Maryi Wspomo\u017cycielki (Siostry Salezjanki) Inspektoria Warszawska",
                "operator:type": "religious",
                "amenity": "kindergarten"
            }
        },
        {
            "id": 19606,
            "type": "Feature",
            "geometry": {
                "type": "Point",
                "coordinates": [
                    22.2958,
                    51.36648
                ]
            },
            "properties": {
                "isced:level": "1;2",
                "ref:rspo": 19606,
                "official_name": "Szko\u0142a Podstawowa im.boles\u0142awa Prusa",
                "name": "Szko\u0142a Podstawowa im.boles\u0142awa Prusa",
                "addr:postcode": "21-080",
                "addr:place": "Przybys\u0142awice",
                "addr:housenumber": "1",
                "addr:city:simc": 380920,
                "phone": "+48 815018653",
                "email": "sp-przybyslawice@oswiata.org.pl",
                "ref:regon": "000266689",
                "ref:vatin": "PL7161745453",
                "operator": "Gmina Garb\u00f3w",
                "operator:type": "government",
                "amenity": "school"
            }
        },
        {
            "id": 126041,
            "type": "Feature",
            "geometry": {
                "type": "Point",
                "coordinates": [
                    22.2958,
                    51.36645
                ]
            },
            "properties": {
                "ref:rspo": 126041,
                "official_name": "Zesp\u00f3\u0142 Wychowania Przedszkolnego w Przybys\u0142awicach",
                "name": "Zesp\u00f3\u0142 Wychowania Przedszkolnego w Przybys\u0142awicach",
                "addr:postcode": "21-080",
                "addr:place": "Przybys\u0142awice",
                "addr:housenumber": "1",
                "addr:city:simc": 380920,
                "phone": "+48 815018653",
                "email": "sp-przybyslawice@oswiata.org.pl",
                "ref:regon": "360149513",
                "operator": "Gmina Garb\u00f3w",
                "operator:type": "government",
                "amenity": "kindergarten"
            }
        },
        {
            "id": 267737,
            "type": "Feature",
            "geometry": {
                "type": "Point",
                "coordinates": [
                    22.3558,
                    51.37022
                ]
            },
            "properties": {
                "ref:rspo": 267737,
                "official_name": "Przedszkole Niepubliczne Kolorowe Kredki",
                "name": "Przedszkole Niepubliczne Kolorowe Kredki",
                "addr:postcode": "21-080",
                "addr:city": "Garb\u00f3w",
                "addr:street": "Lipowa",
                "addr:housenumber": "69",
                "addr:city:simc": 380824,
                "addr:street:sym_ul": 11139,
                "phone": "+48 733120120",
                "email": "przedszkole@kolorowekredki.org.pl",
                "website": "http:\/\/www.kolorowekredki.org.pl",
                "ref:regon": "380572549",
                "operator": "Agnieszka Rozp\u0119dowska",
                "operator:type": "private",
                "amenity": "kindergarten"
            }
        },
        {
            "id": 3795,
            "type": "Feature",
            "geometry": {
                "type": "Point",
                "coordinates": [
                    22.37952,
                    51.38322
                ]
            },
            "properties": {
                "isced:level": "1;2",
                "ref:rspo": 3795,
                "official_name": "Publiczna Szkola Podstawowa",
                "name": "Publiczna Szkola Podstawowa",
                "addr:postcode": "21-080",
                "addr:place": "Bork\u00f3w",
                "addr:housenumber": "13",
                "addr:city:simc": 380818,
                "phone": "+48 722179408",
                "email": "pspborkow@o2.pl",
                "ref:regon": "061446990",
                "operator": "Stowarzyszenie Rozwoju Wsi Bork\u00f3w I Jan\u00f3w",
                "operator:type": "ngo",
                "amenity": "school"
            }
        },
        {
            "id": 19818,
            "type": "Feature",
            "geometry": {
                "type": "Point",
                "coordinates": [
                    22.33211,
                    51.40201
                ]
            },
            "properties": {
                "isced:level": "1;2",
                "ref:rspo": 19818,
                "official_name": "Szko\u0142a Podstawowa",
                "name": "Szko\u0142a Podstawowa",
                "addr:postcode": "21-080",
                "addr:place": "Wola Przybys\u0142awska",
                "addr:housenumber": "331",
                "addr:city:simc": 380936,
                "phone": "+48 815019889",
                "email": "sp-wolaprzybyslawska@o2.pl",
                "website": "http:\/\/www.spwola.garbow.pl",
                "ref:regon": "001180330",
                "ref:vatin": "PL7161954754",
                "operator": "Gmina Garb\u00f3w",
                "operator:type": "government",
                "amenity": "school"
            }
        },
        {
            "id": 126044,
            "type": "Feature",
            "geometry": {
                "type": "Point",
                "coordinates": [
                    22.33211,
                    51.401979999999995
                ]
            },
            "properties": {
                "ref:rspo": 126044,
                "official_name": "Zesp\u00f3\u0142 Wychowania Przedszkolnego w Woli Przybys\u0142awskiej",
                "name": "Zesp\u00f3\u0142 Wychowania Przedszkolnego w Woli Przybys\u0142awskiej",
                "addr:postcode": "21-080",
                "addr:place": "Wola Przybys\u0142awska",
                "addr:housenumber": "331",
                "addr:city:simc": 380936,
                "phone": "+48 815019889",
                "email": "sp-wolaprzybyslawska@o2.pl",
                "website": "http:\/\/www.spwola.garbow.pl",
                "ref:regon": "360149660",
                "operator": "Gmina Garb\u00f3w",
                "operator:type": "government",
                "amenity": "kindergarten"
            }
        }
    ]
}