{
    "type": "FeatureCollection",
    "features": [
        {
            "id": 85902,
            "type": "Feature",
            "geometry": {
                "type": "Point",
                "coordinates": [
                    22.42623,
                    51.00652
                ]
            },
            "properties": {
                "isced:level": "1;2",
                "ref:rspo": 85902,
                "official_name": "Publiczna Szko\u0142a Podstawowa Imienia Or\u0142a Bia\u0142ego w Kie\u0142czewicach G\u00f3rnych",
                "name": "Publiczna Szko\u0142a Podstawowa Imienia Or\u0142a Bia\u0142ego w Kie\u0142czewicach G\u00f3rnych",
                "addr:postcode": "23-107",
                "addr:place": "Kie\u0142czewice G\u00f3rne",
                "addr:housenumber": "41",
                "addr:city:simc": 391816,
                "phone": "+48 815666604",
                "email": "sp.kielczewice@strzyzewice.lubelskie.pl",
                "website": "http:\/\/spkielczewice.strzyzewice.lubelskie.pl",
                "ref:regon": "001151853",
                "ref:vatin": "PL7132491636",
                "operator": "Gmina Strzy\u017cewice",
                "operator:type": "government",
                "amenity": "school"
            }
        },
        {
            "id": 60865,
            "type": "Feature",
            "geometry": {
                "type": "Point",
                "coordinates": [
                    22.42784,
                    51.03645
                ]
            },
            "properties": {
                "isced:level": "1;2",
                "ref:rspo": 60865,
                "official_name": "Publiczna Szko\u0142a Podstawowa im.marsza\u0142ka J\u00f3zefa Pi\u0142sudskiego w Strzy\u017cewicach- Rechcie",
                "name": "Publiczna Szko\u0142a Podstawowa im.marsza\u0142ka J\u00f3zefa Pi\u0142sudskiego w Strzy\u017cewicach- Rechcie",
                "addr:postcode": "23-107",
                "addr:place": "Strzy\u017cewice",
                "addr:housenumber": "13",
                "addr:city:simc": 392030,
                "phone": "+48 815666012",
                "email": "sp.rechta@strzyzewice.lubelskie.pl",
                "website": "http:\/\/sprechta.strzyzewice.lubelskie.pl",
                "ref:regon": "001151847",
                "ref:vatin": "PL7132491671",
                "operator": "Gmina Strzy\u017cewice",
                "operator:type": "government",
                "amenity": "school"
            }
        },
        {
            "id": 4362,
            "type": "Feature",
            "geometry": {
                "type": "Point",
                "coordinates": [
                    22.46858,
                    51.07836
                ]
            },
            "properties": {
                "isced:level": "1;2",
                "ref:rspo": 4362,
                "official_name": "Publiczna Szko\u0142a Podstawowa im.marii Konopnickiej w Bystrzycy Starej",
                "name": "Publiczna Szko\u0142a Podstawowa im.marii Konopnickiej w Bystrzycy Starej",
                "addr:postcode": "23-107",
                "addr:place": "Bystrzyca Stara",
                "addr:housenumber": "89",
                "addr:city:simc": 392023,
                "phone": "+48 815666277",
                "email": "sp.bystrzycastara@strzyzewice.lubelskie.pl",
                "website": "http:\/\/bystrzycastara.strzyzewice.lubelskie.pl",
                "ref:regon": "000270426",
                "ref:vatin": "PL7132802728",
                "operator": "Gmina Strzy\u017cewice",
                "operator:type": "government",
                "amenity": "school"
            }
        },
        {
            "id": 81625,
            "type": "Feature",
            "geometry": {
                "type": "Point",
                "coordinates": [
                    22.47569,
                    51.08709
                ]
            },
            "properties": {
                "ref:rspo": 81625,
                "official_name": "Samorz\u0105dowe Przedszkole Publiczne w Piotrowicach ,,Parkowe Skrzaty'",
                "name": "Samorz\u0105dowe Przedszkole Publiczne w Piotrowicach ,,Parkowe Skrzaty'",
                "addr:postcode": "23-107",
                "addr:place": "Piotrowice",
                "addr:housenumber": "94A",
                "addr:city:simc": 391963,
                "phone": "+48 815628780",
                "email": "przedszkole@strzyzewice.lubelskie.pl",
                "website": "http:\/\/przedszkole.strzyzewice.lubelskie.pl",
                "ref:regon": "431227862",
                "ref:vatin": "PL7132486121",
                "operator": "Gmina Strzy\u017cewice",
                "operator:type": "government",
                "amenity": "kindergarten"
            }
        },
        {
            "id": 57383,
            "type": "Feature",
            "geometry": {
                "type": "Point",
                "coordinates": [
                    22.47748,
                    51.08873
                ]
            },
            "properties": {
                "ref:rspo": 57383,
                "official_name": "Zesp\u00f3\u0142 Szk\u00f3\u0142 Techniki Rolniczej im. Wincentego Witosa w Piotrowicach",
                "name": "Zesp\u00f3\u0142 Szk\u00f3\u0142 Techniki Rolniczej",
                "addr:postcode": "23-107",
                "addr:place": "Piotrowice",
                "addr:housenumber": "183",
                "addr:city:simc": 391963,
                "phone": "+48 815628150",
                "email": "zstrpiotrow@powiat.lublin.pl",
                "website": "http:\/\/www.zstrpiotrowice.pl",
                "ref:regon": "060708465",
                "ref:vatin": "PL7133063227",
                "operator": "Powiat Lubelski",
                "operator:type": "government",
                "landuse": "education",
                "fixme": "amenity=school, amenity=college albo landuse=education w zale\u017cno\u015bci od tego, jakie plac\u00f3wki wchodz\u0105 w sk\u0142ad zespo\u0142u. Sprawd\u017a, kiedy stosowa\u0107 amenity=* a kiedy landuse=education.",
                "note": "Children RSPO: 87275;87278;277086"
            }
        },
        {
            "id": 87275,
            "type": "Feature",
            "geometry": {
                "type": "Point",
                "coordinates": [
                    22.47748,
                    51.088699999999996
                ]
            },
            "properties": {
                "isced:level": "3",
                "ref:rspo": 87275,
                "official_name": "Bran\u017cowa Szko\u0142a I Stopnia w Piotrowicach",
                "name": "Bran\u017cowa Szko\u0142a I Stopnia w Piotrowicach",
                "addr:postcode": "23-107",
                "addr:place": "Piotrowice",
                "addr:housenumber": "183",
                "addr:city:simc": 391963,
                "phone": "+48 815628150",
                "email": "zstrpiotrow@powiat.lublin.pl",
                "ref:regon": "060708376",
                "ref:vatin": "PL7133063227",
                "operator": "Powiat Lubelski",
                "operator:type": "government",
                "amenity": "school",
                "note": "Parent RSPO: 57383"
            }
        },
        {
            "id": 87278,
            "type": "Feature",
            "geometry": {
                "type": "Point",
                "coordinates": [
                    22.47748,
                    51.08867
                ]
            },
            "properties": {
                "isced:level": "3",
                "ref:rspo": 87278,
                "official_name": "Technikum w Piotrowicach",
                "name": "Technikum w Piotrowicach",
                "addr:postcode": "23-107",
                "addr:place": "Piotrowice",
                "addr:housenumber": "183",
                "addr:city:simc": 391963,
                "phone": "+48 815628150",
                "email": "zstrpiotrow@powiat.lublin.pl",
                "website": "http:\/\/www.zstrpiotrowice.pl",
                "ref:regon": "060708420",
                "ref:vatin": "PL7133063227",
                "operator": "Powiat Lubelski",
                "operator:type": "government",
                "amenity": "school",
                "note": "Parent RSPO: 57383"
            }
        },
        {
            "id": 277086,
            "type": "Feature",
            "geometry": {
                "type": "Point",
                "coordinates": [
                    22.47748,
                    51.08864
                ]
            },
            "properties": {
                "isced:level": "3",
                "ref:rspo": 277086,
                "official_name": "Bran\u017cowa Szko\u0142a II Stopnia w Zespole Szk\u00f3\u0142 Techniki Rolniczej im. Wincentego Witosa w Piotrowicach",
                "name": "Bran\u017cowa Szko\u0142a II Stopnia w Zespole Szk\u00f3\u0142 Techniki Rolniczej",
                "addr:postcode": "23-107",
                "addr:place": "Piotrowice",
                "addr:housenumber": "183",
                "addr:city:simc": 391963,
                "phone": "+48 815628150",
                "email": "zstr.piotrow@powiat.lublin.pl",
                "website": "http:\/\/zstrpiotrowice.pl",
                "ref:regon": "388139361",
                "operator": "Powiat Lubelski",
                "operator:type": "government",
                "amenity": "school",
                "note": "Parent RSPO: 57383"
            }
        },
        {
            "id": 57110,
            "type": "Feature",
            "geometry": {
                "type": "Point",
                "coordinates": [
                    22.50398,
                    51.1131699
                ]
            },
            "properties": {
                "ref:rspo": 57110,
                "official_name": "Zesp\u00f3\u0142 Szk\u00f3\u0142 Rolniczych Centrum Kszta\u0142cenia Zawodowego w Pszczelej Woli",
                "name": "Zesp\u00f3\u0142 Szk\u00f3\u0142 Rolniczych Centrum Kszta\u0142cenia Zawodowego w Pszczelej Woli",
                "addr:postcode": "23-107",
                "addr:place": "Pszczela Wola",
                "addr:housenumber": "9",
                "addr:city:simc": 392017,
                "phone": "+48 815628076",
                "email": "sekretariat@pszczelawola.edu.pl",
                "website": "http:\/\/www.pszczelawola.edu.pl\/",
                "ref:regon": "060709430",
                "ref:vatin": "PL7133063285",
                "operator": "Powiat Lubelski",
                "operator:type": "government",
                "landuse": "education",
                "fixme": "amenity=school, amenity=college albo landuse=education w zale\u017cno\u015bci od tego, jakie plac\u00f3wki wchodz\u0105 w sk\u0142ad zespo\u0142u. Sprawd\u017a, kiedy stosowa\u0107 amenity=* a kiedy landuse=education.",
                "note": "Children RSPO: 87868;87870;91648;91664;91665;277087"
            }
        },
        {
            "id": 123588,
            "type": "Feature",
            "geometry": {
                "type": "Point",
                "coordinates": [
                    22.50398,
                    51.1131399
                ]
            },
            "properties": {
                "ref:rspo": 123588,
                "official_name": "Niepubliczne Przedszkole \"Pszcz\u00f3\u0142ka Maja\"",
                "name": "Niepubliczne Przedszkole \"Pszcz\u00f3\u0142ka Maja\"",
                "addr:postcode": "23-107",
                "addr:place": "Pszczela Wola",
                "addr:housenumber": "9",
                "addr:city:simc": 392017,
                "phone": "+48 730140176",
                "email": "przedszkole.pszczelawola@gmail.com",
                "ref:regon": "061707404",
                "operator": "Jakub Szafruga",
                "operator:type": "private",
                "amenity": "kindergarten"
            }
        },
        {
            "id": 87868,
            "type": "Feature",
            "geometry": {
                "type": "Point",
                "coordinates": [
                    22.50398,
                    51.113109900000005
                ]
            },
            "properties": {
                "isced:level": "3",
                "ref:rspo": 87868,
                "official_name": "Liceum Og\u00f3lnokszta\u0142c\u0105ce",
                "name": "Liceum Og\u00f3lnokszta\u0142c\u0105ce",
                "addr:postcode": "23-107",
                "addr:place": "Pszczela Wola",
                "addr:housenumber": "9",
                "addr:city:simc": 392017,
                "phone": "+48 815628076",
                "email": "sekretariat@pszczelawola.edu.pl",
                "website": "http:\/\/www.pszczelawola.edu.pl",
                "ref:regon": "060709393",
                "ref:vatin": "PL7133063285",
                "operator": "Powiat Lubelski",
                "operator:type": "government",
                "amenity": "school",
                "note": "Parent RSPO: 57110"
            }
        },
        {
            "id": 87870,
            "type": "Feature",
            "geometry": {
                "type": "Point",
                "coordinates": [
                    22.50398,
                    51.1130799
                ]
            },
            "properties": {
                "isced:level": "3",
                "ref:rspo": 87870,
                "official_name": "Technikum Pszczelarskie im. Zofii I Tadeusza Wawryn\u00f3w",
                "name": "Technikum Pszczelarskie",
                "addr:postcode": "23-107",
                "addr:place": "Pszczela Wola",
                "addr:housenumber": "9",
                "addr:city:simc": 392017,
                "phone": "+48 815628076",
                "email": "sekretariat@pszczelawola.edu.pl",
                "website": "http:\/\/www.pszczelawola.edu.pl",
                "ref:regon": "060709401",
                "ref:vatin": "PL7133063285",
                "operator": "Powiat Lubelski",
                "operator:type": "government",
                "amenity": "school",
                "note": "Parent RSPO: 57110"
            }
        },
        {
            "id": 91648,
            "type": "Feature",
            "geometry": {
                "type": "Point",
                "coordinates": [
                    22.50398,
                    51.1130499
                ]
            },
            "properties": {
                "isced:level": "3",
                "ref:rspo": 91648,
                "official_name": "Bran\u017cowa Szko\u0142a I Stopnia w Pszczelej Woli",
                "name": "Bran\u017cowa Szko\u0142a I Stopnia w Pszczelej Woli",
                "addr:postcode": "23-107",
                "addr:place": "Pszczela Wola",
                "addr:housenumber": "9",
                "addr:city:simc": 392017,
                "phone": "+48 815628076",
                "email": "sekretariat@pszczelawola.edu.pl",
                "ref:regon": "060709269",
                "ref:vatin": "PL7133063285",
                "operator": "Powiat Lubelski",
                "operator:type": "government",
                "amenity": "school",
                "note": "Parent RSPO: 57110"
            }
        },
        {
            "id": 91664,
            "type": "Feature",
            "geometry": {
                "type": "Point",
                "coordinates": [
                    22.50398,
                    51.113019900000005
                ]
            },
            "properties": {
                "isced:level": "3",
                "ref:rspo": 91664,
                "official_name": "Liceum Og\u00f3lnokszta\u0142c\u0105ce dla Doros\u0142ych",
                "name": "Liceum Og\u00f3lnokszta\u0142c\u0105ce dla Doros\u0142ych",
                "addr:postcode": "23-107",
                "addr:place": "Pszczela Wola",
                "addr:housenumber": "9",
                "addr:city:simc": 392017,
                "phone": "+48 815628076",
                "email": "sekretariat@pszczelawola.edu.pl",
                "ref:regon": "061496769",
                "ref:vatin": "PL7133063285",
                "operator": "Powiat Lubelski",
                "operator:type": "government",
                "amenity": "school",
                "note": "Parent RSPO: 57110"
            }
        },
        {
            "id": 91665,
            "type": "Feature",
            "geometry": {
                "type": "Point",
                "coordinates": [
                    22.50398,
                    51.1129899
                ]
            },
            "properties": {
                "isced:level": "4",
                "ref:rspo": 91665,
                "official_name": "Policealna Szko\u0142a Administracji w Pszczelej Woli",
                "name": "Policealna Szko\u0142a Administracji w Pszczelej Woli",
                "addr:postcode": "23-107",
                "addr:place": "Pszczela Wola",
                "addr:housenumber": "9",
                "addr:city:simc": 392017,
                "phone": "+48 815628076",
                "email": "sekretariat@pszczelawola.edu.pl",
                "ref:regon": "061496893",
                "ref:vatin": "PL7133063285",
                "operator": "Powiat Lubelski",
                "operator:type": "government",
                "amenity": "college",
                "note": "Parent RSPO: 57110"
            }
        },
        {
            "id": 277087,
            "type": "Feature",
            "geometry": {
                "type": "Point",
                "coordinates": [
                    22.50398,
                    51.1129599
                ]
            },
            "properties": {
                "isced:level": "3",
                "ref:rspo": 277087,
                "official_name": "Bran\u017cowa Szko\u0142a II Stopnia w Zespole Szk\u00f3\u0142 Rolniczych Centrum Kszta\u0142cenia Zawodowego w Pszczelej Woli",
                "name": "Bran\u017cowa Szko\u0142a II Stopnia w Zespole Szk\u00f3\u0142 Rolniczych Centrum Kszta\u0142cenia Zawodowego w Pszczelej Woli",
                "addr:postcode": "23-107",
                "addr:place": "Pszczela Wola",
                "addr:housenumber": "9",
                "addr:city:simc": 392017,
                "phone": "+48 815628076",
                "email": "sekretariat@pszczelawola.edu.pl",
                "website": "http:\/\/pszczelawola.edu.pl",
                "ref:regon": "388139964",
                "operator": "Powiat Lubelski",
                "operator:type": "government",
                "amenity": "school",
                "note": "Parent RSPO: 57110"
            }
        },
        {
            "id": 81624,
            "type": "Feature",
            "geometry": {
                "type": "Point",
                "coordinates": [
                    22.51031,
                    51.11826
                ]
            },
            "properties": {
                "isced:level": "1;2",
                "ref:rspo": 81624,
                "official_name": "Publiczna Szko\u0142a Podstawowa im.rodziny Rohland\u00f3w w \u017babiej Woli",
                "name": "Publiczna Szko\u0142a Podstawowa im.rodziny Rohland\u00f3w w \u017babiej Woli",
                "addr:postcode": "23-107",
                "addr:place": "\u017babia Wola",
                "addr:housenumber": "77",
                "addr:city:simc": 392081,
                "phone": "+48 815628011",
                "email": "sp.zabiawola@strzyzewice.lubelskie.pl",
                "website": "http:\/\/spzabiawola.strzyzewice.lubelskie.pl",
                "ref:regon": "001151876",
                "ref:vatin": "PL7132491694",
                "operator": "Gmina Strzy\u017cewice",
                "operator:type": "government",
                "amenity": "school"
            }
        },
        {
            "id": 81622,
            "type": "Feature",
            "geometry": {
                "type": "Point",
                "coordinates": [
                    22.49259,
                    51.12544
                ]
            },
            "properties": {
                "isced:level": "1;2",
                "ref:rspo": 81622,
                "official_name": "Publiczna Szko\u0142a Podstawowa w Osmolicach im. Zofii I Juliusza Stadnickich",
                "name": "Publiczna Szko\u0142a Podstawowa w Osmolicach",
                "addr:postcode": "23-107",
                "addr:place": "Osmolice Pierwsze",
                "addr:housenumber": "165",
                "addr:city:simc": 391897,
                "phone": "+48 815628013",
                "email": "sp.osmolice@strzyzewice.lubelskie.pl",
                "website": "http:\/\/szkolaosmolice.strzyzewice.lubelskie.pl",
                "ref:regon": "001151860",
                "ref:vatin": "PL7132491702",
                "operator": "Gmina Strzy\u017cewice",
                "operator:type": "government",
                "amenity": "school"
            }
        }
    ]
}