{"type":"FeatureCollection","features":[{"id":268749,"type":"Feature","geometry":{"type":"Point","coordinates":[22.40979,51.1828]},"properties":{"isced:level":"1;2","ref:rspo":268749,"official_name":"Niepubliczna Szko\u0142a Podstawowa Z Oddzia\u0142em Przedszkolnym w Radawczyku Drugim","name":"Niepubliczna Szko\u0142a Podstawowa Z Oddzia\u0142em Przedszkolnym w Radawczyku Drugim","addr:country":"PL","addr:postcode":"21-030","addr:place":"Radawczyk Drugi","addr:housenumber":"36","addr:teryt:sym_ul":383509,"contact:phone":"+48 815031420","contact:email":"nsp.radawczyk2@gmail.com","ref:regon":"381246935","operator":"Fundacja Teresianum","operator:type":"ngo","amenity":"school"}},{"id":268750,"type":"Feature","geometry":{"type":"Point","coordinates":[22.40979,51.18277]},"properties":{"ref:rspo":268750,"official_name":"Niepubliczne Przedszkole w Radawczyku Drugim","name":"Niepubliczne Przedszkole w Radawczyku Drugim","addr:country":"PL","addr:postcode":"21-030","addr:place":"Radawczyk Drugi","addr:housenumber":"36","addr:teryt:sym_ul":383509,"contact:phone":"+48 815031420","contact:email":"f.a.u.lublin@gmail.com","ref:regon":"381246846","operator":"Fundacja Teresianum","operator:type":"ngo","amenity":"kindergarten"}},{"id":25471,"type":"Feature","geometry":{"type":"Point","coordinates":[22.46186,51.1831]},"properties":{"isced:level":"1;2","ref:rspo":25471,"official_name":"Szko\u0142a Podstawowa Im Ks Jana Twardowskiego w Zemborzycach Tereszy\u0144skich","name":"Szko\u0142a Podstawowa Im Ks Jana Twardowskiego w Zemborzycach Tereszy\u0144skich","addr:country":"PL","addr:postcode":"20-515","addr:place":"Zemborzyce Tereszy\u0144skie","addr:housenumber":"2","addr:teryt:sym_ul":383610,"contact:phone":"+48 817500064","contact:email":"sekretariatzt@wp.pl","contact:website":"http:\/\/spzemborzyce.weebly.com","ref:regon":"001180524","ref:vatin":"PL7132492251","operator":"Gmina Konopnica","operator:type":"government","amenity":"school"}},{"id":25355,"type":"Feature","geometry":{"type":"Point","coordinates":[22.3869599,51.2078]},"properties":{"isced:level":"1;2","ref:rspo":25355,"official_name":"Szko\u0142a Podstawowa im. Ziemi Lubelskiej w Radawcu Du\u017cym","name":"Szko\u0142a Podstawowa","addr:country":"PL","addr:postcode":"21-030","addr:place":"Radawiec Du\u017cy","addr:housenumber":"145","addr:teryt:sym_ul":383515,"contact:phone":"+48 815030022","contact:email":"sp_radawiec@poczta.onet.pl","contact:website":"http:\/\/www.radawiec.pl","ref:regon":"001180501","ref:vatin":"PL7132492400","operator":"Gmina Konopnica","operator:type":"government","amenity":"school"}},{"id":26123,"type":"Feature","geometry":{"type":"Point","coordinates":[22.38956,51.20832]},"properties":{"ref:rspo":26123,"official_name":"Niepubliczne Przedszkole Honoratka","name":"Niepubliczne Przedszkole Honoratka","addr:country":"PL","addr:postcode":"21-030","addr:place":"Radawiec Du\u017cy","addr:housenumber":"250c","addr:teryt:sym_ul":383515,"contact:email":"honoratka250@wp.pl","ref:regon":"061469146","ref:vatin":"PL7122024838","operator":"Zdzis\u0142awa Jarosz- Madej","operator:type":"private","amenity":"kindergarten"}},{"id":25225,"type":"Feature","geometry":{"type":"Point","coordinates":[22.44781,51.22169]},"properties":{"isced:level":"1;2","ref:rspo":25225,"official_name":"Szko\u0142a Podstawowa im.kardyna\u0142a Stefana Wyszy\u0144skiego w Konopnicy","name":"Szko\u0142a Podstawowa im.kardyna\u0142a Stefana Wyszy\u0144skiego w Konopnicy","addr:country":"PL","addr:postcode":"21-030","addr:place":"Kozubszczyzna","addr:housenumber":"40","addr:teryt:sym_ul":383432,"contact:phone":"+48 815031013","contact:email":"konopnica.sp@wp.pl","contact:website":"http:\/\/www.konopnica.edu.pl","ref:regon":"000593069","ref:vatin":"PL7132492512","operator":"Gmina Konopnica","operator:type":"government","amenity":"school"}},{"id":106294,"type":"Feature","geometry":{"type":"Point","coordinates":[22.42457,51.22231]},"properties":{"ref:rspo":106294,"official_name":"Prywatne Przedszkole\nMi\u015b","name":"Prywatne Przedszkole\nMi\u015b","addr:country":"PL","addr:postcode":"21-030","addr:place":"Kozubszczyzna","addr:housenumber":"92","addr:teryt:sym_ul":383432,"contact:phone":"+48 601750260","ref:regon":"061508082","ref:vatin":"PL9462428375","operator":"Ma\u0142gorzata Piskorek - Burek","operator:type":"private","amenity":"kindergarten"}},{"id":265086,"type":"Feature","geometry":{"type":"Point","coordinates":[22.47802,51.2302]},"properties":{"ref:rspo":265086,"official_name":"Niepubliczne Przedszkole Z Oddzia\u0142ami Integracyjnymi \"Mistrzowie Zabawy\"","name":"Niepubliczne Przedszkole Z Oddzia\u0142ami Integracyjnymi \"Mistrzowie Zabawy\"","addr:country":"PL","addr:postcode":"21-030","addr:place":"Konopnica","addr:housenumber":"86 C","addr:teryt:sym_ul":383426,"contact:phone":"+48 530499323","contact:email":"biuro@mistrzowiezabawy.lublin.pl","contact:website":"http:\/\/www.mistrzowiezabawy.lublin.pl","ref:regon":"368589306","operator":"Mistrzowie Zabawy Z Lublina Sp\u00f3\u0142ka Z Ograniczon\u0105 Odpowiedzialno\u015bci\u0105","operator:type":"private","amenity":"kindergarten"}},{"id":25398,"type":"Feature","geometry":{"type":"Point","coordinates":[22.37873,51.23964]},"properties":{"isced:level":"1;2","ref:rspo":25398,"official_name":"Szko\u0142a Podstawowa im.wincentego Witosa w Motyczu","name":"Szko\u0142a Podstawowa im.wincentego Witosa w Motyczu","addr:country":"PL","addr:postcode":"21-030","addr:place":"Motycz","addr:housenumber":"33","addr:teryt:sym_ul":1021056,"contact:phone":"+48 815031006","contact:email":"sekretariat@motycz.eu","contact:website":"http:\/\/www.motycz.eu","ref:regon":"001180493","ref:vatin":"PL7132492357","operator":"Gmina Konopnica","operator:type":"government","amenity":"school"}},{"id":7100,"type":"Feature","geometry":{"type":"Point","coordinates":[22.46774,51.25426]},"properties":{"isced:level":"1;2","ref:rspo":7100,"official_name":"Dwuj\u0119zyczna Szko\u0142a Podstawowa Europejczyk w Szerokiem","name":"Dwuj\u0119zyczna Szko\u0142a Podstawowa Europejczyk w Szerokiem","addr:country":"PL","addr:postcode":"20-050","addr:place":"Szerokie","addr:housenumber":"107A","addr:door":"BRAK","addr:teryt:sym_ul":383550,"contact:phone":"+48 601721666","contact:email":"sekretariat@albion.edu.pl","contact:website":"http:\/\/www.dsp.edu.pl","ref:regon":"061452743","ref:vatin":"PL9461793664","operator":"Robert Kowalski","operator:type":"private","amenity":"school"}},{"id":26047,"type":"Feature","geometry":{"type":"Point","coordinates":[22.46774,51.25423]},"properties":{"ref:rspo":26047,"official_name":"Przedszkole Dwuj\u0119zyczne Ma\u0142y Europejczyk","name":"Przedszkole Dwuj\u0119zyczne Ma\u0142y Europejczyk","addr:country":"PL","addr:postcode":"20-050","addr:place":"Szerokie","addr:housenumber":"107A","addr:teryt:sym_ul":383550,"contact:phone":"+48 601721666","contact:email":"sekretariat@albion.edu.pl","contact:website":"http:\/\/www.malyeuropejczyk.edu.pl","ref:regon":"061469123","ref:vatin":"PL9461793687","operator":"Beata Kowalska","operator:type":"private","amenity":"kindergarten"}},{"id":25425,"type":"Feature","geometry":{"type":"Point","coordinates":[22.00222,51.41406]},"properties":{"isced:level":"1;2","ref:rspo":25425,"official_name":"Szko\u0142a Podstawowa w Stasinie","name":"Szko\u0142a Podstawowa w Stasinie","addr:country":"PL","addr:postcode":"21-030","addr:place":"Stasin","addr:housenumber":"61","addr:teryt:sym_ul":383544,"contact:phone":"+48 815031039","contact:email":"spstasin@wp.pl","ref:regon":"001272597","ref:vatin":"PL7132492452","operator":"Gmina Konopnica","operator:type":"government","amenity":"school"}}]}