{
    "type": "FeatureCollection",
    "features": [
        {
            "id": 272631,
            "type": "Feature",
            "geometry": {
                "type": "Point",
                "coordinates": [
                    22.6808799,
                    51.2562
                ]
            },
            "properties": {
                "ref:rspo": 272631,
                "official_name": "Zesp\u00f3\u0142 Szkolno-Przedszkolny w \u015awidniku Ma\u0142ym",
                "name": "Zesp\u00f3\u0142 Szkolno-Przedszkolny w \u015awidniku Ma\u0142ym",
                "addr:country": "PL",
                "addr:postcode": "20-258",
                "addr:place": "\u015awidnik Ma\u0142y",
                "addr:housenumber": "39",
                "addr:teryt:simc": 394080,
                "contact:phone": "+48 817510094",
                "contact:email": "spswid-mal@wp.pl",
                "ref:regon": "384275920",
                "ref:vatin": "PL7133104937",
                "operator": "Gmina W\u00f3lka",
                "operator:type": "government",
                "landuse": "education",
                "fixme": "amenity=school, amenity=college albo landuse=education w zale\u017cno\u015bci od tego, jakie plac\u00f3wki wchodz\u0105 w sk\u0142ad zespo\u0142u. Sprawd\u017a, kiedy stosowa\u0107 amenity=* a kiedy landuse=education.",
                "note": "Children RSPO: 107517;272637"
            }
        },
        {
            "id": 107517,
            "type": "Feature",
            "geometry": {
                "type": "Point",
                "coordinates": [
                    22.6808799,
                    51.25617
                ]
            },
            "properties": {
                "isced:level": "1;2",
                "ref:rspo": 107517,
                "official_name": "Szko\u0142a Podstawowa w \u015awidniku Ma\u0142ym",
                "name": "Szko\u0142a Podstawowa w \u015awidniku Ma\u0142ym",
                "addr:country": "PL",
                "addr:postcode": "20-258",
                "addr:place": "\u015awidnik Ma\u0142y",
                "addr:housenumber": "39",
                "addr:teryt:simc": 394080,
                "contact:phone": "+48 817510094",
                "contact:email": "spswid-mal@wp.pl",
                "contact:website": "http:\/\/www.sp.swid-mal.superszkolna.pl",
                "ref:regon": "001152309",
                "ref:vatin": "PL7132529250",
                "operator": "Gmina W\u00f3lka",
                "operator:type": "government",
                "amenity": "school",
                "note": "Parent RSPO: 272631"
            }
        },
        {
            "id": 272637,
            "type": "Feature",
            "geometry": {
                "type": "Point",
                "coordinates": [
                    22.6808799,
                    51.25614
                ]
            },
            "properties": {
                "ref:rspo": 272637,
                "official_name": "Samorz\u0105dowe Przedszkole \"T\u0119czowy Zak\u0105tek\"",
                "name": "Samorz\u0105dowe Przedszkole \"T\u0119czowy Zak\u0105tek\"",
                "addr:country": "PL",
                "addr:postcode": "20-258",
                "addr:place": "\u015awidnik Ma\u0142y",
                "addr:housenumber": "39",
                "addr:teryt:simc": 394080,
                "contact:phone": "+48 817510094",
                "contact:email": "spswid-mal@wp.pl",
                "ref:regon": "384276090",
                "operator": "Gmina W\u00f3lka",
                "operator:type": "government",
                "amenity": "kindergarten",
                "note": "Parent RSPO: 272631"
            }
        },
        {
            "id": 273340,
            "type": "Feature",
            "geometry": {
                "type": "Point",
                "coordinates": [
                    22.66668,
                    51.27264
                ]
            },
            "properties": {
                "ref:rspo": 273340,
                "official_name": "Niepubliczne Przedszkole Integracyjne \"Bajkowy Dworek\"",
                "name": "Niepubliczne Przedszkole Integracyjne \"Bajkowy Dworek\"",
                "addr:country": "PL",
                "addr:postcode": "20-258",
                "addr:city": "Turka",
                "addr:street": "Grabowa",
                "addr:housenumber": "4",
                "addr:teryt:simc": 394097,
                "addr:teryt:sym_ul": 6029,
                "contact:phone": "+48 500100460",
                "contact:email": "turka@bajkowydworek.lublin.pl",
                "contact:website": "http:\/\/www.bajkowydworek.lublin.pl",
                "ref:regon": "384449544",
                "ref:vatin": "PL5631910122",
                "operator": "Marta \u017bwirska",
                "operator:type": "private",
                "amenity": "kindergarten"
            }
        },
        {
            "id": 276883,
            "type": "Feature",
            "geometry": {
                "type": "Point",
                "coordinates": [
                    22.67102,
                    51.28527
                ]
            },
            "properties": {
                "ref:rspo": 276883,
                "official_name": "Niepubliczny Punkt Przedszkolny \"Z U\u015bmiechem\"",
                "name": "Niepubliczny Punkt Przedszkolny \"Z U\u015bmiechem\"",
                "addr:country": "PL",
                "addr:postcode": "20-258",
                "addr:city": "Turka",
                "addr:street": "Je\u017cynowa",
                "addr:housenumber": "9",
                "addr:teryt:simc": 394097,
                "addr:teryt:sym_ul": 7562,
                "contact:phone": "+48 600311899",
                "contact:email": "j.jarocka@vp.pl",
                "ref:regon": "387784450",
                "operator": "Roman Skublewski",
                "operator:type": "private",
                "amenity": "kindergarten"
            }
        },
        {
            "id": 272786,
            "type": "Feature",
            "geometry": {
                "type": "Point",
                "coordinates": [
                    22.67754,
                    51.28611
                ]
            },
            "properties": {
                "ref:rspo": 272786,
                "official_name": "Zesp\u00f3\u0142 Szkolno-Przedszkolny w Turce",
                "name": "Zesp\u00f3\u0142 Szkolno-Przedszkolny w Turce",
                "addr:country": "PL",
                "addr:postcode": "20-258",
                "addr:place": "Turka",
                "addr:housenumber": "294",
                "addr:teryt:simc": 394097,
                "contact:phone": "+48 817510015",
                "contact:email": "turka@op.pl",
                "ref:regon": "384289773",
                "ref:vatin": "PL7133104920",
                "operator": "Gmina W\u00f3lka",
                "operator:type": "government",
                "landuse": "education",
                "fixme": "amenity=school, amenity=college albo landuse=education w zale\u017cno\u015bci od tego, jakie plac\u00f3wki wchodz\u0105 w sk\u0142ad zespo\u0142u. Sprawd\u017a, kiedy stosowa\u0107 amenity=* a kiedy landuse=education.",
                "note": "Children RSPO: 122669;122672"
            }
        },
        {
            "id": 122669,
            "type": "Feature",
            "geometry": {
                "type": "Point",
                "coordinates": [
                    22.67754,
                    51.28608
                ]
            },
            "properties": {
                "isced:level": "1;2",
                "ref:rspo": 122669,
                "official_name": "Szko\u0142a Podstawowa im. Jana III Sobieskiego w Turce",
                "name": "Szko\u0142a Podstawowa",
                "addr:country": "PL",
                "addr:postcode": "20-258",
                "addr:place": "Turka",
                "addr:housenumber": "294",
                "addr:teryt:simc": 394097,
                "contact:phone": "+48 817510015",
                "contact:email": "turka@op.pl",
                "contact:website": "http:\/\/www.szkolaturka.superszkolna.pl",
                "ref:regon": "001152321",
                "ref:vatin": "PL7132540228",
                "operator": "Gmina W\u00f3lka",
                "operator:type": "government",
                "amenity": "school",
                "note": "Parent RSPO: 272786"
            }
        },
        {
            "id": 122672,
            "type": "Feature",
            "geometry": {
                "type": "Point",
                "coordinates": [
                    22.67754,
                    51.28605
                ]
            },
            "properties": {
                "ref:rspo": 122672,
                "official_name": "Samorz\u0105dowe Przedszkole w Turce",
                "name": "Samorz\u0105dowe Przedszkole w Turce",
                "addr:country": "PL",
                "addr:postcode": "20-258",
                "addr:place": "Turka",
                "addr:housenumber": "294",
                "addr:teryt:simc": 394097,
                "contact:phone": "+48 817596019",
                "contact:email": "turka@op.pl",
                "contact:website": "http:\/\/szkolaturka.superszkolna.pl",
                "ref:regon": "432323697",
                "ref:vatin": "PL7132495522",
                "operator": "Gmina W\u00f3lka",
                "operator:type": "government",
                "amenity": "kindergarten",
                "note": "Parent RSPO: 272786"
            }
        },
        {
            "id": 107295,
            "type": "Feature",
            "geometry": {
                "type": "Point",
                "coordinates": [
                    22.67013,
                    51.28695
                ]
            },
            "properties": {
                "ref:rspo": 107295,
                "official_name": "Przedszkole Niepubliczne \"Krasnal I\" w Turce",
                "name": "Przedszkole Niepubliczne \"Krasnal I\" w Turce",
                "addr:country": "PL",
                "addr:postcode": "20-258",
                "addr:city": "Turka",
                "addr:street": "Lipowa",
                "addr:housenumber": "16",
                "addr:teryt:simc": 394097,
                "addr:teryt:sym_ul": 11139,
                "contact:phone": "+48 817238834",
                "contact:email": "aldaszust@o2.pl",
                "contact:website": "https:\/\/krasnal.eu",
                "ref:regon": "061510653",
                "ref:vatin": "PL7120251085",
                "operator": "Monika Szust",
                "operator:type": "private",
                "amenity": "kindergarten"
            }
        },
        {
            "id": 107287,
            "type": "Feature",
            "geometry": {
                "type": "Point",
                "coordinates": [
                    22.67085,
                    51.28853
                ]
            },
            "properties": {
                "ref:rspo": 107287,
                "official_name": "Przedszkole Niepubliczne \"Ole\u0144ka\" Agnieszka Biadu\u0144 , Iwona Brus, S.c.",
                "name": "Przedszkole Niepubliczne \"Ole\u0144ka\" Agnieszka Biadu\u0144 , Iwona Brus, S.c.",
                "addr:country": "PL",
                "addr:postcode": "20-258",
                "addr:city": "Turka",
                "addr:street": "Klonowa",
                "addr:housenumber": "59",
                "addr:teryt:simc": 394097,
                "addr:teryt:sym_ul": 8574,
                "contact:phone": "+48 516667726",
                "contact:email": "iwona.brus@wp.pl",
                "contact:website": "http:\/\/www.przedszkole-olenka.webnode.com",
                "ref:regon": "061510630",
                "ref:vatin": "PL7133077531",
                "operator": "Agnieszka Biadu\u0144",
                "operator:type": "private",
                "amenity": "kindergarten"
            }
        },
        {
            "id": 272595,
            "type": "Feature",
            "geometry": {
                "type": "Point",
                "coordinates": [
                    22.74029,
                    51.29509
                ]
            },
            "properties": {
                "ref:rspo": 272595,
                "official_name": "Zesp\u00f3\u0142 Szkolno-Przedszkolny w \u0141uszczowie",
                "name": "Zesp\u00f3\u0142 Szkolno-Przedszkolny w \u0141uszczowie",
                "addr:country": "PL",
                "addr:postcode": "20-258",
                "addr:place": "\u0141uszcz\u00f3w Drugi",
                "addr:housenumber": "102",
                "addr:teryt:simc": 393940,
                "contact:phone": "+48 817501177",
                "contact:email": "spluszczow@wp.pl",
                "ref:regon": "384269090",
                "ref:vatin": "PL7133104860",
                "operator": "Gmina W\u00f3lka",
                "operator:type": "government",
                "landuse": "education",
                "fixme": "amenity=school, amenity=college albo landuse=education w zale\u017cno\u015bci od tego, jakie plac\u00f3wki wchodz\u0105 w sk\u0142ad zespo\u0142u. Sprawd\u017a, kiedy stosowa\u0107 amenity=* a kiedy landuse=education.",
                "note": "Children RSPO: 107513;272609"
            }
        },
        {
            "id": 107513,
            "type": "Feature",
            "geometry": {
                "type": "Point",
                "coordinates": [
                    22.74029,
                    51.29506
                ]
            },
            "properties": {
                "isced:level": "1;2",
                "ref:rspo": 107513,
                "official_name": "Szko\u0142a Podstawowa im. \u015aw. Jana Paw\u0142a II w \u0141uszczowie",
                "name": "Szko\u0142a Podstawowa",
                "addr:country": "PL",
                "addr:postcode": "20-258",
                "addr:place": "\u0141uszcz\u00f3w Drugi",
                "addr:housenumber": "102",
                "addr:teryt:simc": 393940,
                "contact:phone": "+48 817501177",
                "contact:email": "spluszczow@wp.pl",
                "contact:website": "http:\/\/www.spluszczow.superszkolna.pl",
                "ref:regon": "001152344",
                "ref:vatin": "PL7132492699",
                "operator": "Gmina W\u00f3lka",
                "operator:type": "government",
                "amenity": "school",
                "note": "Parent RSPO: 272595"
            }
        },
        {
            "id": 272609,
            "type": "Feature",
            "geometry": {
                "type": "Point",
                "coordinates": [
                    22.74029,
                    51.295030000000004
                ]
            },
            "properties": {
                "ref:rspo": 272609,
                "official_name": "Samorz\u0105dowe Przedszkole \"Tygrysek\" w \u0141uszczowie",
                "name": "Samorz\u0105dowe Przedszkole \"Tygrysek\" w \u0141uszczowie",
                "addr:country": "PL",
                "addr:postcode": "20-258",
                "addr:place": "\u0141uszcz\u00f3w Drugi",
                "addr:housenumber": "102",
                "addr:teryt:simc": 393940,
                "contact:phone": "+48 817501177",
                "contact:email": "spluszczow@wp.pl",
                "ref:regon": "384269256",
                "operator": "Gmina W\u00f3lka",
                "operator:type": "government",
                "amenity": "kindergarten",
                "note": "Parent RSPO: 272595"
            }
        },
        {
            "id": 272655,
            "type": "Feature",
            "geometry": {
                "type": "Point",
                "coordinates": [
                    22.63343,
                    51.29946
                ]
            },
            "properties": {
                "ref:rspo": 272655,
                "official_name": "Zesp\u00f3\u0142 Szkolno-Przedszkolny w Pliszczynie",
                "name": "Zesp\u00f3\u0142 Szkolno-Przedszkolny w Pliszczynie",
                "addr:country": "PL",
                "addr:postcode": "20-258",
                "addr:place": "Kolonia Pliszczyn",
                "addr:housenumber": "100",
                "addr:teryt:simc": 393985,
                "contact:phone": "+48 817510863",
                "contact:email": "pliszczyn@op.pl",
                "ref:regon": "384276167",
                "ref:vatin": "PL7133104966",
                "operator": "Gmina W\u00f3lka",
                "operator:type": "government",
                "landuse": "education",
                "fixme": "amenity=school, amenity=college albo landuse=education w zale\u017cno\u015bci od tego, jakie plac\u00f3wki wchodz\u0105 w sk\u0142ad zespo\u0142u. Sprawd\u017a, kiedy stosowa\u0107 amenity=* a kiedy landuse=education.",
                "note": "Children RSPO: 107515;272657"
            }
        },
        {
            "id": 107515,
            "type": "Feature",
            "geometry": {
                "type": "Point",
                "coordinates": [
                    22.63343,
                    51.29943
                ]
            },
            "properties": {
                "isced:level": "1;2",
                "ref:rspo": 107515,
                "official_name": "Szko\u0142a Podstawowa im. R\u00f3\u017cy Ko\u0142aczkowskiej w Pliszczynie",
                "name": "Szko\u0142a Podstawowa",
                "addr:country": "PL",
                "addr:postcode": "20-258",
                "addr:place": "Kolonia Pliszczyn",
                "addr:housenumber": "100",
                "addr:teryt:simc": 393985,
                "contact:phone": "+48 817510863",
                "contact:email": "zsp@sppliszczyn.pl",
                "contact:website": "http:\/\/www.sppliszczyn.superszkolna.pl",
                "ref:regon": "001152315",
                "ref:vatin": "PL7132495634",
                "operator": "Gmina W\u00f3lka",
                "operator:type": "government",
                "amenity": "school",
                "note": "Parent RSPO: 272655"
            }
        },
        {
            "id": 272657,
            "type": "Feature",
            "geometry": {
                "type": "Point",
                "coordinates": [
                    22.63343,
                    51.299400000000006
                ]
            },
            "properties": {
                "ref:rspo": 272657,
                "official_name": "Samorzadowe Przedszkole \"Pliszka\" w Pliszczynie",
                "name": "Samorzadowe Przedszkole \"Pliszka\" w Pliszczynie",
                "addr:country": "PL",
                "addr:postcode": "20-258",
                "addr:place": "Kolonia Pliszczyn",
                "addr:housenumber": "100",
                "addr:teryt:simc": 393985,
                "contact:phone": "+48 817510863",
                "contact:email": "pliszczyn@op.pl",
                "ref:regon": "384276173",
                "operator": "Gmina W\u00f3lka",
                "operator:type": "government",
                "amenity": "kindergarten",
                "note": "Parent RSPO: 272655"
            }
        },
        {
            "id": 272612,
            "type": "Feature",
            "geometry": {
                "type": "Point",
                "coordinates": [
                    22.68541,
                    51.30346
                ]
            },
            "properties": {
                "ref:rspo": 272612,
                "official_name": "Zesp\u00f3\u0142 Szkolno-Przedszkolny w Sobianowicach",
                "name": "Zesp\u00f3\u0142 Szkolno-Przedszkolny w Sobianowicach",
                "addr:country": "PL",
                "addr:postcode": "20-258",
                "addr:place": "Sobianowice",
                "addr:housenumber": "32a",
                "addr:teryt:simc": 394016,
                "contact:phone": "+48 817510793",
                "contact:email": "sp-sobianowice@o2.pl",
                "contact:website": "https:\/\/sobianowice.eu\/",
                "ref:regon": "384269463",
                "operator": "Gmina W\u00f3lka",
                "operator:type": "government",
                "landuse": "education",
                "fixme": "amenity=school, amenity=college albo landuse=education w zale\u017cno\u015bci od tego, jakie plac\u00f3wki wchodz\u0105 w sk\u0142ad zespo\u0142u. Sprawd\u017a, kiedy stosowa\u0107 amenity=* a kiedy landuse=education.",
                "note": "Children RSPO: 107520;272621"
            }
        },
        {
            "id": 107520,
            "type": "Feature",
            "geometry": {
                "type": "Point",
                "coordinates": [
                    22.68541,
                    51.30343
                ]
            },
            "properties": {
                "isced:level": "1;2",
                "ref:rspo": 107520,
                "official_name": "Szko\u0142a Podstawowa im. Tadeusza Ko\u015bciuszki w Sobianowicach",
                "name": "Szko\u0142a Podstawowa",
                "addr:country": "PL",
                "addr:postcode": "20-258",
                "addr:place": "Sobianowice",
                "addr:housenumber": "32a",
                "addr:teryt:simc": 394016,
                "contact:phone": "+48 817510793",
                "contact:email": "sp-sobianowice@o2.pl",
                "contact:website": "http:\/\/www.sobianowice.eu",
                "ref:regon": "001152338",
                "ref:vatin": "PL7132265822",
                "operator": "Gmina W\u00f3lka",
                "operator:type": "government",
                "amenity": "school",
                "note": "Parent RSPO: 272612"
            }
        },
        {
            "id": 272621,
            "type": "Feature",
            "geometry": {
                "type": "Point",
                "coordinates": [
                    22.68541,
                    51.3034
                ]
            },
            "properties": {
                "ref:rspo": 272621,
                "official_name": "Samorz\u0105dowe Przedszkole \"Stokrotka\" w Sobianowicach",
                "name": "Samorz\u0105dowe Przedszkole \"Stokrotka\" w Sobianowicach",
                "addr:country": "PL",
                "addr:postcode": "20-258",
                "addr:place": "Sobianowice",
                "addr:housenumber": "32a",
                "addr:teryt:simc": 394016,
                "contact:phone": "+48 817510793",
                "contact:email": "sp-sobianowice@o2.pl",
                "ref:regon": "384275860",
                "operator": "Gmina W\u00f3lka",
                "operator:type": "government",
                "amenity": "kindergarten",
                "note": "Parent RSPO: 272612"
            }
        },
        {
            "id": 60733,
            "type": "Feature",
            "geometry": {
                "type": "Point",
                "coordinates": [
                    22.71146,
                    51.31284
                ]
            },
            "properties": {
                "ref:rspo": 60733,
                "official_name": "Specjalny O\u015brodek Szkolno - Wychowawczy w Bystrzycy",
                "name": "Specjalny O\u015brodek Szkolno - Wychowawczy w Bystrzycy",
                "addr:country": "PL",
                "addr:postcode": "20-258",
                "addr:place": "Bystrzyca",
                "addr:housenumber": "92",
                "addr:teryt:simc": 393910,
                "contact:phone": "+48 817510790",
                "contact:email": "sosw-bystrzyca@tlen.pl",
                "ref:regon": "060701960",
                "ref:vatin": "PL7133062794",
                "operator": "Powiat Lubelski",
                "operator:type": "government",
                "amenity": "school",
                "note": "Children RSPO: 110532;110534"
            }
        },
        {
            "id": 110532,
            "type": "Feature",
            "geometry": {
                "type": "Point",
                "coordinates": [
                    22.71146,
                    51.31281
                ]
            },
            "properties": {
                "isced:level": "1;2",
                "ref:rspo": 110532,
                "official_name": "Szko\u0142a Podstawowa Specjalna w Bystrzycy",
                "name": "Szko\u0142a Podstawowa Specjalna w Bystrzycy",
                "addr:country": "PL",
                "addr:postcode": "20-258",
                "addr:place": "Bystrzyca",
                "addr:housenumber": "92",
                "addr:teryt:simc": 393910,
                "contact:phone": "+48 817510790",
                "contact:email": "sosw-bystrzyca@tlen.pl",
                "contact:website": "http:\/\/www.soswbystrzyca.edu.pl",
                "ref:regon": "061528104",
                "ref:vatin": "PL7133062794",
                "operator": "Powiat Lubelski",
                "operator:type": "government",
                "amenity": "school",
                "note": "Parent RSPO: 60733"
            }
        },
        {
            "id": 110534,
            "type": "Feature",
            "geometry": {
                "type": "Point",
                "coordinates": [
                    22.71146,
                    51.312780000000004
                ]
            },
            "properties": {
                "ref:rspo": 110534,
                "official_name": "Szko\u0142a Specjalna Przysposabiaj\u0105ca Do Pracy w Bystrzycy",
                "name": "Szko\u0142a Specjalna Przysposabiaj\u0105ca Do Pracy w Bystrzycy",
                "addr:country": "PL",
                "addr:postcode": "20-258",
                "addr:place": "Bystrzyca",
                "addr:housenumber": "92",
                "addr:teryt:simc": 393910,
                "contact:phone": "+48 817510790",
                "contact:email": "sosw-bystrzyca@tlen.pl",
                "ref:regon": "061528133",
                "ref:vatin": "PL7133062794",
                "operator": "Powiat Lubelski",
                "operator:type": "government",
                "amenity": "school",
                "note": "Parent RSPO: 60733"
            }
        }
    ]
}