{
    "type": "FeatureCollection",
    "features": [
        {
            "id": 4064,
            "type": "Feature",
            "geometry": {
                "type": "Point",
                "coordinates": [
                    18.03413,
                    52.70695
                ]
            },
            "properties": {
                "isced:level": "1;2",
                "ref:rspo": 4064,
                "official_name": "Szko\u0142a Podstawowa im. Janusza Kusoci\u0144skiego w Ko\u0142odziejewie",
                "name": "Szko\u0142a Podstawowa",
                "addr:postcode": "88-160",
                "addr:city": "Ko\u0142odziejewo",
                "addr:street": "Szkolna",
                "addr:housenumber": "10",
                "addr:city:simc": 86421,
                "addr:street:sym_ul": 21970,
                "phone": "+48 523513028",
                "email": "spkolodziejewo@janikowo.com.pl",
                "website": "http:\/\/spkolodziejewo.edupage.org\/",
                "ref:regon": "001144422",
                "ref:vatin": "PL5562360309",
                "operator": "Gmina Janikowo",
                "operator:type": "government",
                "amenity": "school"
            }
        },
        {
            "id": 4062,
            "type": "Feature",
            "geometry": {
                "type": "Point",
                "coordinates": [
                    18.1658234,
                    52.7241419
                ]
            },
            "properties": {
                "isced:level": "1;2",
                "ref:rspo": 4062,
                "official_name": "Szko\u0142a Podstawowa im. Jana Z Ludziska w Ludzisku",
                "name": "Szko\u0142a Podstawowa",
                "addr:postcode": "88-160",
                "addr:place": "Ludzisko",
                "addr:housenumber": "10",
                "addr:city:simc": 86450,
                "phone": "+48 523514452",
                "email": "spludzisko@janikowo.com.pl",
                "website": "http:\/\/spludzisko.superszkolna.pl\/",
                "ref:regon": "001144451",
                "ref:vatin": "PL5562365330",
                "operator": "Gmina Janikowo",
                "operator:type": "government",
                "amenity": "school"
            }
        },
        {
            "id": 3378,
            "type": "Feature",
            "geometry": {
                "type": "Point",
                "coordinates": [
                    18.084037,
                    52.7463009
                ]
            },
            "properties": {
                "isced:level": "1;2",
                "ref:rspo": 3378,
                "official_name": "Szko\u0142a Podstawowa im. Janusza Korczaka w Broniewicach",
                "name": "Szko\u0142a Podstawowa",
                "addr:postcode": "88-160",
                "addr:place": "Broniewice",
                "addr:housenumber": "3",
                "addr:city:simc": 86355,
                "phone": "+48 523514451",
                "email": "spbroniewice@janikowo.com.pl",
                "website": "http:\/\/spbroniewice.edupage.org",
                "ref:regon": "001144439",
                "ref:vatin": "PL5562365324",
                "operator": "Gmina Janikowo",
                "operator:type": "government",
                "amenity": "school"
            }
        },
        {
            "id": 11252,
            "type": "Feature",
            "geometry": {
                "type": "Point",
                "coordinates": [
                    18.11789,
                    52.74829
                ]
            },
            "properties": {
                "isced:level": "3",
                "ref:rspo": 11252,
                "official_name": "Prywatne Liceum Og\u00f3lnokszta\u0142c\u0105ce",
                "name": "Prywatne Liceum Og\u00f3lnokszta\u0142c\u0105ce",
                "addr:postcode": "88-160",
                "addr:city": "Janikowo",
                "addr:street": "Szkolna",
                "addr:housenumber": "1",
                "addr:city:simc": 929109,
                "addr:street:sym_ul": 21970,
                "phone": "+48 788717092",
                "email": "kontakt@zsprestige.pl",
                "ref:regon": "341324661",
                "operator": "Tw\u00f3j Prestige Sp\u00f3\u0142ka Z Ograniczon\u0105 Odpowiedzialno\u015bci\u0105",
                "operator:type": "private",
                "amenity": "school"
            }
        },
        {
            "id": 11319,
            "type": "Feature",
            "geometry": {
                "type": "Point",
                "coordinates": [
                    18.11789,
                    52.748259999999995
                ]
            },
            "properties": {
                "isced:level": "4",
                "ref:rspo": 11319,
                "official_name": "Prywatna Szko\u0142a Policealna",
                "name": "Prywatna Szko\u0142a Policealna",
                "addr:postcode": "88-160",
                "addr:city": "Janikowo",
                "addr:street": "Szkolna",
                "addr:housenumber": "1",
                "addr:city:simc": 929109,
                "addr:street:sym_ul": 21970,
                "phone": "+48 788717092",
                "email": "kontakt@zsprestige.pl",
                "ref:regon": "341326884",
                "operator": "Tw\u00f3j Prestige Sp\u00f3\u0142ka Z Ograniczon\u0105 Odpowiedzialno\u015bci\u0105",
                "operator:type": "private",
                "amenity": "college"
            }
        },
        {
            "id": 13648,
            "type": "Feature",
            "geometry": {
                "type": "Point",
                "coordinates": [
                    18.10459,
                    52.75005
                ]
            },
            "properties": {
                "isced:level": "1;2",
                "ref:rspo": 13648,
                "official_name": "Szko\u0142a Podstawowa w Janikowie",
                "name": "Szko\u0142a Podstawowa w Janikowie",
                "addr:postcode": "88-160",
                "addr:city": "Janikowo",
                "addr:street": "Biskupa Micha\u0142a Kozala",
                "addr:housenumber": "3",
                "addr:city:simc": 929109,
                "addr:street:sym_ul": 9699,
                "phone": "+48 523514448",
                "email": "spjanikowo@janikowo.com.pl",
                "website": "http:\/\/www.spjan.edupage.org",
                "ref:regon": "091169969",
                "ref:vatin": "PL5562372910",
                "operator": "Gmina Janikowo",
                "operator:type": "government",
                "amenity": "school"
            }
        },
        {
            "id": 132066,
            "type": "Feature",
            "geometry": {
                "type": "Point",
                "coordinates": [
                    18.10963,
                    52.75282
                ]
            },
            "properties": {
                "ref:rspo": 132066,
                "official_name": "Niepubliczne Przedszkole \"Frogu\u015b\"",
                "name": "Niepubliczne Przedszkole \"Frogu\u015b\"",
                "addr:postcode": "88-160",
                "addr:city": "Janikowo",
                "addr:street": "Dworcowa",
                "addr:housenumber": "1",
                "addr:city:simc": 929109,
                "addr:street:sym_ul": 4434,
                "phone": "+48 606821143",
                "email": "frogus.ino@gmail.com",
                "website": "http:\/\/www.przedszkole-frogus.pl",
                "ref:regon": "365444234",
                "operator": "Joanna Loks-Wi\u015bniewska",
                "operator:type": "private",
                "amenity": "kindergarten"
            }
        },
        {
            "id": 4334,
            "type": "Feature",
            "geometry": {
                "type": "Point",
                "coordinates": [
                    18.1069299,
                    52.75641
                ]
            },
            "properties": {
                "ref:rspo": 4334,
                "official_name": "Przedszkole \"S\u0142oneczko\" w Janikowie",
                "name": "Przedszkole \"S\u0142oneczko\" w Janikowie",
                "addr:postcode": "88-160",
                "addr:city": "Janikowo",
                "addr:street": "S\u0142oneczna",
                "addr:housenumber": "31",
                "addr:city:simc": 929109,
                "addr:street:sym_ul": 20254,
                "phone": "+48 523514441",
                "email": "przedszkole.publicznenr1@gmail.com",
                "ref:regon": "000258678",
                "ref:vatin": "PL5562357276",
                "operator": "Gmina Janikowo",
                "operator:type": "government",
                "amenity": "kindergarten"
            }
        },
        {
            "id": 123107,
            "type": "Feature",
            "geometry": {
                "type": "Point",
                "coordinates": [
                    18.1072,
                    52.75673
                ]
            },
            "properties": {
                "ref:rspo": 123107,
                "official_name": "Niepubliczne Przedszkole \"Mali Odkrywcy\"",
                "name": "Niepubliczne Przedszkole \"Mali Odkrywcy\"",
                "addr:postcode": "88-160",
                "addr:city": "Janikowo",
                "addr:street": "S\u0142oneczna",
                "addr:housenumber": "29",
                "addr:city:simc": 929109,
                "addr:street:sym_ul": 20254,
                "phone": "+48 884991030",
                "email": "mali.odkrywcy@onet.pl",
                "ref:regon": "341579303",
                "operator": "Hubert Fabiszewski",
                "operator:type": "private",
                "amenity": "kindergarten"
            }
        }
    ]
}