{
    "type": "FeatureCollection",
    "features": [
        {
            "id": 274618,
            "type": "Feature",
            "geometry": {
                "type": "Point",
                "coordinates": [
                    18.435346,
                    52.835994
                ]
            },
            "properties": {
                "isced:level": "1;2",
                "ref:rspo": 274618,
                "official_name": "Szko\u0142a Podstawowa w G\u0105skach",
                "name": "Szko\u0142a Podstawowa w G\u0105skach",
                "addr:country": "PL",
                "addr:postcode": "88-140",
                "addr:place": "G\u0105ski",
                "addr:housenumber": "19",
                "addr:teryt:sym_ul": 85433,
                "contact:phone": "+48 523512770",
                "contact:email": "gaskiszkola@op.pl",
                "contact:website": "http:\/\/szkolagaski.szkolnastrona.pl\/",
                "ref:regon": "386070636",
                "ref:vatin": "PL5562787605",
                "operator": "Gmina Gniewkowo",
                "operator:type": "government",
                "amenity": "school"
            }
        },
        {
            "id": 44278,
            "type": "Feature",
            "geometry": {
                "type": "Point",
                "coordinates": [
                    18.33792,
                    52.8466639
                ]
            },
            "properties": {
                "isced:level": "1;2",
                "ref:rspo": 44278,
                "official_name": "Szko\u0142a Podstawowa im. Ksi\u0119dza Ignacego Posadzego w Szad\u0142owicach",
                "name": "Szko\u0142a Podstawowa",
                "addr:country": "PL",
                "addr:postcode": "88-140",
                "addr:place": "Szad\u0142owice",
                "addr:housenumber": "36",
                "addr:teryt:sym_ul": 85580,
                "contact:phone": "+48 523511721",
                "contact:email": "szkolaszadlowice@wp.pl",
                "contact:website": "http:\/\/www.spszadlowice.szkolna.net",
                "ref:regon": "001144385",
                "ref:vatin": "PL5562372784",
                "operator": "Gmina Gniewkowo",
                "operator:type": "government",
                "amenity": "school"
            }
        },
        {
            "id": 44275,
            "type": "Feature",
            "geometry": {
                "type": "Point",
                "coordinates": [
                    18.493917,
                    52.857696
                ]
            },
            "properties": {
                "isced:level": "1;2",
                "ref:rspo": 44275,
                "official_name": "Szko\u0142a Podstawowa im. Ksi\u0119stwa Gniewkowskiego w Murzynnie",
                "name": "Szko\u0142a Podstawowa",
                "addr:country": "PL",
                "addr:postcode": "88-140",
                "addr:place": "Murzynno",
                "addr:housenumber": "51",
                "addr:teryt:sym_ul": 85539,
                "contact:phone": "+48 523512427",
                "contact:email": "murzynno33@poczta.onet.pl",
                "contact:website": "http:\/\/www.spmurzynno.edu.pl",
                "ref:regon": "001144379",
                "ref:vatin": "PL5562372815",
                "operator": "Gmina Gniewkowo",
                "operator:type": "government",
                "amenity": "school"
            }
        },
        {
            "id": 44279,
            "type": "Feature",
            "geometry": {
                "type": "Point",
                "coordinates": [
                    18.35391,
                    52.8697299
                ]
            },
            "properties": {
                "isced:level": "1;2",
                "ref:rspo": 44279,
                "official_name": "Szko\u0142a Podstawowa im. Miko\u0142aja Kopernika w Wierzchos\u0142awicach",
                "name": "Szko\u0142a Podstawowa",
                "addr:country": "PL",
                "addr:postcode": "88-140",
                "addr:place": "Wierzchos\u0142awice",
                "addr:housenumber": "19",
                "addr:teryt:sym_ul": 1028822,
                "contact:phone": "+48 523512279",
                "contact:email": "sekretariat@spwierzchoslawice.szkolnastrona.pl",
                "contact:website": "http:\/\/www.spwierzchoslawice.szkolnastrona.pl",
                "ref:regon": "001144362",
                "ref:vatin": "PL5562372778",
                "operator": "Gmina Gniewkowo",
                "operator:type": "government",
                "amenity": "school"
            }
        },
        {
            "id": 44276,
            "type": "Feature",
            "geometry": {
                "type": "Point",
                "coordinates": [
                    18.527142,
                    52.883086
                ]
            },
            "properties": {
                "isced:level": "1;2",
                "ref:rspo": 44276,
                "official_name": "Szko\u0142a Podstawowa im. Or\u0142a Bia\u0142ego w Kijewie",
                "name": "Szko\u0142a Podstawowa",
                "addr:country": "PL",
                "addr:postcode": "88-140",
                "addr:place": "Kijewo",
                "addr:housenumber": "40",
                "addr:teryt:sym_ul": 85485,
                "contact:phone": "+48 523512495",
                "contact:email": "kijewo40@poczta.onet.pl",
                "contact:website": "http:\/\/www.spkijewo.szkolnastrona.pl",
                "ref:regon": "001144391",
                "ref:vatin": "PL5562372821",
                "operator": "Gmina Gniewkowo",
                "operator:type": "government",
                "amenity": "school"
            }
        },
        {
            "id": 44282,
            "type": "Feature",
            "geometry": {
                "type": "Point",
                "coordinates": [
                    18.40428,
                    52.89045
                ]
            },
            "properties": {
                "ref:rspo": 44282,
                "official_name": "Przedszkole Bajkowa Kraina w Gniewkowie",
                "name": "Przedszkole Bajkowa Kraina w Gniewkowie",
                "addr:country": "PL",
                "addr:postcode": "88-140",
                "addr:city": "Gniewkowo",
                "addr:street": "Stanis\u0142awa Moniuszki",
                "addr:housenumber": "2",
                "addr:teryt:simc": 13246,
                "addr:teryt:sym_ul": 928937,
                "contact:phone": "+48 523558641",
                "contact:email": "przedszkole.gniewkowo@onet.eu",
                "contact:website": "http:\/\/www.samorzadoweprzedszkole.gniewkowo.szkolnastrona.pl",
                "ref:regon": "092362355",
                "ref:vatin": "PL5562282489",
                "operator": "Gmina Gniewkowo",
                "operator:type": "government",
                "amenity": "kindergarten"
            }
        },
        {
            "id": 120226,
            "type": "Feature",
            "geometry": {
                "type": "Point",
                "coordinates": [
                    18.40698,
                    52.89115
                ]
            },
            "properties": {
                "isced:level": "3",
                "ref:rspo": 120226,
                "official_name": "Prestige Liceum Og\u00f3lnokszta\u0142c\u0105ce w Gniewkowie",
                "name": "Prestige Liceum Og\u00f3lnokszta\u0142c\u0105ce w Gniewkowie",
                "addr:country": "PL",
                "addr:postcode": "88-140",
                "addr:city": "Gniewkowo",
                "addr:street": "Dworcowa",
                "addr:housenumber": "11",
                "addr:teryt:simc": 4434,
                "addr:teryt:sym_ul": 928937,
                "contact:phone": "+48 523543027",
                "ref:regon": "341483589",
                "operator": "Tw\u00f3j Prestige Sp\u00f3\u0142ka Z Ograniczon\u0105 Odpowiedzialno\u015bci\u0105",
                "operator:type": "private",
                "amenity": "school"
            }
        },
        {
            "id": 125172,
            "type": "Feature",
            "geometry": {
                "type": "Point",
                "coordinates": [
                    18.40698,
                    52.89112
                ]
            },
            "properties": {
                "isced:level": "4",
                "ref:rspo": 125172,
                "official_name": "Prestige Szko\u0142a Policealna w Gniewkowie",
                "name": "Prestige Szko\u0142a Policealna w Gniewkowie",
                "addr:country": "PL",
                "addr:postcode": "88-140",
                "addr:city": "Gniewkowo",
                "addr:street": "Dworcowa",
                "addr:housenumber": "11",
                "addr:teryt:simc": 4434,
                "addr:teryt:sym_ul": 928937,
                "contact:phone": "+48 788717092",
                "ref:regon": "341625345",
                "operator": "Tw\u00f3j Prestige Sp\u00f3\u0142ka Z Ograniczon\u0105 Odpowiedzialno\u015bci\u0105",
                "operator:type": "private",
                "amenity": "college"
            }
        },
        {
            "id": 272040,
            "type": "Feature",
            "geometry": {
                "type": "Point",
                "coordinates": [
                    18.40698,
                    52.891090000000005
                ]
            },
            "properties": {
                "isced:level": "1;2",
                "ref:rspo": 272040,
                "official_name": "Szko\u0142a Podstawowa Nr 2 im. Doktora Jana Dreckiego",
                "name": "Szko\u0142a Podstawowa Nr 2",
                "addr:country": "PL",
                "addr:postcode": "88-140",
                "addr:city": "Gniewkowo",
                "addr:street": "Dworcowa",
                "addr:housenumber": "11",
                "addr:teryt:simc": 4434,
                "addr:teryt:sym_ul": 928937,
                "contact:phone": "+48 523558657",
                "contact:email": "sp2gniewkowo@onet.pl",
                "contact:website": "http:\/\/sp2gniewkowo.edupage.org",
                "ref:regon": "383884516",
                "operator": "Gmina Gniewkowo",
                "operator:type": "government",
                "amenity": "school"
            }
        },
        {
            "id": 9517,
            "type": "Feature",
            "geometry": {
                "type": "Point",
                "coordinates": [
                    18.40267,
                    52.89499
                ]
            },
            "properties": {
                "isced:level": "3",
                "ref:rspo": 9517,
                "official_name": "Liceum Og\u00f3lnokszta\u0142c\u0105ce dla Doros\u0142ych w Gniewkowie",
                "name": "Liceum Og\u00f3lnokszta\u0142c\u0105ce dla Doros\u0142ych w Gniewkowie",
                "addr:country": "PL",
                "addr:postcode": "88-140",
                "addr:city": "Gniewkowo",
                "addr:street": "Powsta\u0144c\u00f3w Wielkopolskich",
                "addr:housenumber": "5",
                "addr:teryt:simc": 17377,
                "addr:teryt:sym_ul": 928937,
                "contact:phone": "+48 500085436",
                "contact:email": "lo.gniewkowo@gmail.com",
                "ref:regon": "341323093",
                "operator": "Zdzis\u0142aw Kin",
                "operator:type": "private",
                "amenity": "school"
            }
        },
        {
            "id": 48392,
            "type": "Feature",
            "geometry": {
                "type": "Point",
                "coordinates": [
                    18.40267,
                    52.89496
                ]
            },
            "properties": {
                "isced:level": "3",
                "ref:rspo": 48392,
                "official_name": "Bran\u017cowa Szko\u0142a I Stopnia",
                "name": "Bran\u017cowa Szko\u0142a I Stopnia",
                "addr:country": "PL",
                "addr:postcode": "88-140",
                "addr:city": "Gniewkowo",
                "addr:street": "Powsta\u0144c\u00f3w Wielkopolskich",
                "addr:housenumber": "5",
                "addr:teryt:simc": 17377,
                "addr:teryt:sym_ul": 928937,
                "contact:phone": "+48 523558425",
                "contact:email": "sekretariat@szgniewkowo.edu.pl",
                "contact:website": "http:\/\/www.szgniewkowo.edu.pl",
                "ref:regon": "093164634",
                "ref:vatin": "PL5562237098",
                "operator": "Gmina Gniewkowo",
                "operator:type": "government",
                "amenity": "school"
            }
        },
        {
            "id": 44280,
            "type": "Feature",
            "geometry": {
                "type": "Point",
                "coordinates": [
                    18.41444,
                    52.89612
                ]
            },
            "properties": {
                "isced:level": "1;2",
                "ref:rspo": 44280,
                "official_name": "Szko\u0142a Podstawowa Nr 1 im. Wojska Polskiego w Gniewkowie",
                "name": "Szko\u0142a Podstawowa Nr 1",
                "addr:country": "PL",
                "addr:postcode": "88-140",
                "addr:city": "Gniewkowo",
                "addr:street": "Toru\u0144ska",
                "addr:housenumber": "40",
                "addr:teryt:simc": 22902,
                "addr:teryt:sym_ul": 928937,
                "contact:phone": "+48 523558662",
                "contact:email": "sekretariat@sp1gniewkowo.home.pl",
                "contact:website": "http:\/\/www.sp1gniewkowo.home.pl",
                "ref:regon": "001144356",
                "ref:vatin": "PL5562372554",
                "operator": "Gmina Gniewkowo",
                "operator:type": "government",
                "amenity": "school"
            }
        },
        {
            "id": 51264,
            "type": "Feature",
            "geometry": {
                "type": "Point",
                "coordinates": [
                    18.4154992,
                    52.9001791
                ]
            },
            "properties": {
                "ref:rspo": 51264,
                "official_name": "Prywatne Przedszkole \"Parowozik\" w Gniewkowie",
                "name": "Prywatne Przedszkole \"Parowozik\" w Gniewkowie",
                "addr:country": "PL",
                "addr:postcode": "88-140",
                "addr:city": "Gniewkowo",
                "addr:street": "Zajezierna",
                "addr:housenumber": "8",
                "addr:teryt:simc": 25424,
                "addr:teryt:sym_ul": 928937,
                "contact:phone": "+48 696895068",
                "contact:email": "p_parowozik@wp.pl",
                "ref:regon": "341344439",
                "ref:vatin": "PL5561812554",
                "operator": "P.w. \"E-Mir\" Majewski Miros\u0142aw",
                "operator:type": "consortium",
                "amenity": "kindergarten"
            }
        }
    ]
}