{
    "type": "FeatureCollection",
    "features": [
        {
            "id": 16666,
            "type": "Feature",
            "geometry": {
                "type": "Point",
                "coordinates": [
                    18.25694,
                    52.75387
                ]
            },
            "properties": {
                "ref:rspo": 16666,
                "official_name": "Zesp\u00f3\u0142 Szk\u00f3\u0142 Chemiczno-Elektronicznych im. Jana Paw\u0142a II w Inowroc\u0142awiu",
                "name": "Zesp\u00f3\u0142 Szk\u00f3\u0142 Chemiczno-Elektronicznych",
                "addr:country": "PL",
                "addr:postcode": "88-100",
                "addr:city": "Inowroc\u0142aw",
                "addr:street": "Pozna\u0144ska",
                "addr:housenumber": "345",
                "addr:teryt:simc": 17394,
                "addr:teryt:sym_ul": 928989,
                "contact:phone": "+48 523537210",
                "contact:email": "sek@zsp1-inowr.internetdsl.pl",
                "contact:website": "http:\/\/zsp1ino.pl",
                "ref:regon": "000190472",
                "operator": "Powiat Inowroc\u0142awski",
                "operator:type": "government",
                "landuse": "education",
                "fixme": "amenity=school, amenity=college albo landuse=education w zale\u017cno\u015bci od tego, jakie plac\u00f3wki wchodz\u0105 w sk\u0142ad zespo\u0142u. Sprawd\u017a, kiedy stosowa\u0107 amenity=* a kiedy landuse=education.",
                "note": "Children RSPO: 21854;22840;22841"
            }
        },
        {
            "id": 21854,
            "type": "Feature",
            "geometry": {
                "type": "Point",
                "coordinates": [
                    18.25694,
                    52.75384
                ]
            },
            "properties": {
                "isced:level": "3",
                "ref:rspo": 21854,
                "official_name": "Iv Liceum Og\u00f3lnokszta\u0142c\u0105ce w Zespole Szk\u00f3\u0142 Chemiczno-Elektronicznych im. Jana Paw\u0142a II w Inowroc\u0142awiu",
                "name": "Iv Liceum Og\u00f3lnokszta\u0142c\u0105ce w Zespole Szk\u00f3\u0142 Chemiczno-Elektronicznych",
                "addr:country": "PL",
                "addr:postcode": "88-100",
                "addr:city": "Inowroc\u0142aw",
                "addr:street": "Pozna\u0144ska",
                "addr:housenumber": "345",
                "addr:teryt:simc": 17394,
                "addr:teryt:sym_ul": 928989,
                "contact:phone": "+48 523537210",
                "contact:email": "sek@zsp1-inowr.internetdsl.pl",
                "contact:website": "http:\/\/zsp1ino.pl",
                "ref:regon": "093043913",
                "operator": "Powiat Inowroc\u0142awski",
                "operator:type": "government",
                "amenity": "school",
                "note": "Parent RSPO: 16666"
            }
        },
        {
            "id": 22840,
            "type": "Feature",
            "geometry": {
                "type": "Point",
                "coordinates": [
                    18.25694,
                    52.75381
                ]
            },
            "properties": {
                "isced:level": "3",
                "ref:rspo": 22840,
                "official_name": "Technikum w Zespole Szk\u00f3\u0142 Chemiczno-Elektronicznych im. Jana Paw\u0142a II w Inowroc\u0142awiu",
                "name": "Technikum w Zespole Szk\u00f3\u0142 Chemiczno-Elektronicznych",
                "addr:country": "PL",
                "addr:postcode": "88-100",
                "addr:city": "Inowroc\u0142aw",
                "addr:street": "Pozna\u0144ska",
                "addr:housenumber": "345",
                "addr:teryt:simc": 17394,
                "addr:teryt:sym_ul": 928989,
                "contact:phone": "+48 523537210",
                "contact:email": "sek@zsp1-inowr.internetdsl.pl",
                "contact:website": "http:\/\/zsp1ino.pl",
                "ref:regon": "340038203",
                "operator": "Powiat Inowroc\u0142awski",
                "operator:type": "government",
                "amenity": "school",
                "note": "Parent RSPO: 16666"
            }
        },
        {
            "id": 22841,
            "type": "Feature",
            "geometry": {
                "type": "Point",
                "coordinates": [
                    18.25694,
                    52.75378
                ]
            },
            "properties": {
                "isced:level": "3",
                "ref:rspo": 22841,
                "official_name": "Bran\u017cowa Szko\u0142a I Stopnia w Zespole Szk\u00f3\u0142 Chemiczno-Elektronicznych im. Jana Paw\u0142a II w Inowroc\u0142awiu",
                "name": "Bran\u017cowa Szko\u0142a I Stopnia w Zespole Szk\u00f3\u0142 Chemiczno-Elektronicznych",
                "addr:country": "PL",
                "addr:postcode": "88-100",
                "addr:city": "Inowroc\u0142aw",
                "addr:street": "Pozna\u0144ska",
                "addr:housenumber": "345",
                "addr:teryt:simc": 17394,
                "addr:teryt:sym_ul": 928989,
                "contact:phone": "+48 523537210",
                "contact:email": "sek@zsp1-inowr.internetdsl.pl",
                "contact:website": "http:\/\/zsp1ino.pl",
                "ref:regon": "093043907",
                "operator": "Powiat Inowroc\u0142awski",
                "operator:type": "government",
                "amenity": "school",
                "note": "Parent RSPO: 16666"
            }
        },
        {
            "id": 4207,
            "type": "Feature",
            "geometry": {
                "type": "Point",
                "coordinates": [
                    18.2541,
                    52.75641
                ]
            },
            "properties": {
                "isced:level": "1;2",
                "ref:rspo": 4207,
                "official_name": "Szko\u0142a Podstawowa Nr 9 Z Oddzia\u0142ami Przedszkolnymi im. Marii Sk\u0142odowskiej-Curie",
                "name": "Szko\u0142a Podstawowa Nr 9 Z Oddzia\u0142ami Przedszkolnymi",
                "addr:country": "PL",
                "addr:postcode": "88-100",
                "addr:city": "Inowroc\u0142aw",
                "addr:street": "Chemiczna",
                "addr:housenumber": "9",
                "addr:teryt:simc": 2712,
                "addr:teryt:sym_ul": 928989,
                "contact:phone": "+48 523537217",
                "contact:email": "sp9inowroclaw@poczta.onet.pl",
                "contact:website": "http:\/\/www.sp9ino.com",
                "ref:regon": "000209852",
                "operator": "Miasto Inowroc\u0142aw",
                "operator:type": "government",
                "amenity": "school"
            }
        },
        {
            "id": 264419,
            "type": "Feature",
            "geometry": {
                "type": "Point",
                "coordinates": [
                    18.2511079,
                    52.7647687
                ]
            },
            "properties": {
                "ref:rspo": 264419,
                "official_name": "Przedszkole Niepubliczne \"U Cioci Kloci\" Sp. Z O.o.",
                "name": "Przedszkole Niepubliczne \"U Cioci Kloci\" Sp. Z O.o.",
                "addr:country": "PL",
                "addr:postcode": "88-100",
                "addr:city": "Inowroc\u0142aw",
                "addr:street": "Staropozna\u0144ska",
                "addr:housenumber": "49",
                "addr:teryt:simc": 20972,
                "addr:teryt:sym_ul": 928989,
                "contact:phone": "+48 512194104",
                "contact:email": "kontakt@uciocikloci.pl",
                "contact:website": "http:\/\/www.uciocikloci.pl",
                "ref:regon": "368337645",
                "ref:vatin": "PL5562764136",
                "operator": "Niepubliczne Przedszkole I \u017b\u0142obek \"U Cioci Kloci\" Sp\u00f3\u0142ka Z Ograniczon\u0105 Odpowiedzialno\u015bci\u0105",
                "operator:type": "private",
                "amenity": "kindergarten"
            }
        },
        {
            "id": 4208,
            "type": "Feature",
            "geometry": {
                "type": "Point",
                "coordinates": [
                    18.2759,
                    52.7654
                ]
            },
            "properties": {
                "isced:level": "1;2",
                "ref:rspo": 4208,
                "official_name": "Szko\u0142a Podstawowa Nr 10 im. Jana Kasprowicza",
                "name": "Szko\u0142a Podstawowa Nr 10",
                "addr:country": "PL",
                "addr:postcode": "88-100",
                "addr:city": "Inowroc\u0142aw",
                "addr:street": "Stanis\u0142awa Przybyszewskiego",
                "addr:housenumber": "119",
                "addr:teryt:simc": 17892,
                "addr:teryt:sym_ul": 928989,
                "contact:phone": "+48 523527262",
                "contact:email": "sp10inowroclaw@poczta.onet.eu",
                "contact:website": "http:\/\/www.sp10ino.edupage.org",
                "ref:regon": "000210269",
                "operator": "Miasto Inowroc\u0142aw",
                "operator:type": "government",
                "amenity": "school"
            }
        },
        {
            "id": 269741,
            "type": "Feature",
            "geometry": {
                "type": "Point",
                "coordinates": [
                    18.2522,
                    52.772
                ]
            },
            "properties": {
                "ref:rspo": 269741,
                "official_name": "Integracyjne Przedszkole Niepubliczne \" U Natalki I Kubusia\"",
                "name": "Integracyjne Przedszkole Niepubliczne \" U Natalki I Kubusia\"",
                "addr:country": "PL",
                "addr:postcode": "88-100",
                "addr:city": "Inowroc\u0142aw",
                "addr:street": "Aleja Niepodleg\u0142o\u015bci",
                "addr:housenumber": "134",
                "addr:teryt:simc": 14199,
                "addr:teryt:sym_ul": 928989,
                "contact:phone": "+48 523522498",
                "contact:email": "centrum.ino@onet.pl",
                "ref:regon": "381746371",
                "operator": "Barbara Rydlichowska",
                "operator:type": "private",
                "amenity": "kindergarten"
            }
        },
        {
            "id": 3566,
            "type": "Feature",
            "geometry": {
                "type": "Point",
                "coordinates": [
                    18.24241,
                    52.7735
                ]
            },
            "properties": {
                "ref:rspo": 3566,
                "official_name": "Niepubliczne Przedszkole \"Juniorek\"",
                "name": "Niepubliczne Przedszkole \"Juniorek\"",
                "addr:country": "PL",
                "addr:postcode": "88-100",
                "addr:city": "Inowroc\u0142aw",
                "addr:street": "Aleja 800-lecia Inowroc\u0142awia",
                "addr:housenumber": "3",
                "addr:teryt:simc": 82,
                "addr:teryt:sym_ul": 928989,
                "contact:phone": "+48 691717592",
                "contact:email": "annaslawko@wp.pl",
                "ref:regon": "341313781",
                "operator": "Anna S\u0142awkowska",
                "operator:type": "private",
                "amenity": "kindergarten"
            }
        },
        {
            "id": 59686,
            "type": "Feature",
            "geometry": {
                "type": "Point",
                "coordinates": [
                    18.2548716,
                    52.7771571
                ]
            },
            "properties": {
                "ref:rspo": 59686,
                "official_name": "Niepubliczne Centrum Doskonalenia Nauczycieli \"Ekspert\"",
                "name": "Niepubliczne Centrum Doskonalenia Nauczycieli \"Ekspert\"",
                "addr:country": "PL",
                "addr:postcode": "88-100",
                "addr:city": "Inowroc\u0142aw",
                "addr:street": "Aleja Niepodleg\u0142o\u015bci",
                "addr:housenumber": "77",
                "addr:teryt:simc": 14199,
                "addr:teryt:sym_ul": 928989,
                "contact:phone": "+48 523550384",
                "contact:email": "tomarc@gazeta.pl",
                "contact:website": "http:\/\/www.ncdnekspert.pl",
                "ref:regon": "341343003",
                "ref:vatin": "PL5561031259",
                "operator": "Dane Do Uzupe\u0142nienia",
                "operator:type": "private",
                "amenity": "training"
            }
        },
        {
            "id": 10021,
            "type": "Feature",
            "geometry": {
                "type": "Point",
                "coordinates": [
                    18.2449152,
                    52.7779932
                ]
            },
            "properties": {
                "isced:level": "3",
                "ref:rspo": 10021,
                "official_name": "Prywatne Liceum Og\u00f3lnokszta\u0142c\u0105ce dla Doros\u0142ych",
                "name": "Prywatne Liceum Og\u00f3lnokszta\u0142c\u0105ce dla Doros\u0142ych",
                "addr:country": "PL",
                "addr:postcode": "88-100",
                "addr:city": "Inowroc\u0142aw",
                "addr:street": "Stanis\u0142awa Kie\u0142basiewicza",
                "addr:housenumber": "7",
                "addr:teryt:simc": 8382,
                "addr:teryt:sym_ul": 928989,
                "contact:phone": "+48 523079010",
                "contact:email": "inowroclaw@twoja-szkola.pl",
                "contact:website": "http:\/\/twoja-szkola.pl",
                "ref:regon": "341326588",
                "operator": "Twoja Szko\u0142a Sp\u00f3\u0142ka Z Ograniczon\u0105 Odpowiedzialno\u015bci\u0105",
                "operator:type": "private",
                "amenity": "school"
            }
        },
        {
            "id": 10056,
            "type": "Feature",
            "geometry": {
                "type": "Point",
                "coordinates": [
                    18.2449152,
                    52.777963199999995
                ]
            },
            "properties": {
                "isced:level": "4",
                "ref:rspo": 10056,
                "official_name": "Prywatna Szko\u0142a Policealna \"Twoja Szko\u0142a\" w Inowroc\u0142awiu",
                "name": "Prywatna Szko\u0142a Policealna \"Twoja Szko\u0142a\" w Inowroc\u0142awiu",
                "addr:country": "PL",
                "addr:postcode": "88-100",
                "addr:city": "Inowroc\u0142aw",
                "addr:street": "Stanis\u0142awa Kie\u0142basiewicza",
                "addr:housenumber": "7",
                "addr:teryt:simc": 8382,
                "addr:teryt:sym_ul": 928989,
                "contact:phone": "+48 523554783",
                "ref:regon": "341322952",
                "operator": "Twoja Szko\u0142a Sp\u00f3\u0142ka Z Ograniczon\u0105 Odpowiedzialno\u015bci\u0105",
                "operator:type": "private",
                "amenity": "college"
            }
        },
        {
            "id": 11209,
            "type": "Feature",
            "geometry": {
                "type": "Point",
                "coordinates": [
                    18.2449152,
                    52.7779332
                ]
            },
            "properties": {
                "isced:level": "4",
                "ref:rspo": 11209,
                "official_name": "Szko\u0142a Policealna. Elitarne Studium S\u0142u\u017cb Ochrony \"Delta\"",
                "name": "Szko\u0142a Policealna. Elitarne Studium S\u0142u\u017cb Ochrony \"Delta\"",
                "addr:country": "PL",
                "addr:postcode": "88-100",
                "addr:city": "Inowroc\u0142aw",
                "addr:street": "Stanis\u0142awa Kie\u0142basiewicza",
                "addr:housenumber": "7",
                "addr:teryt:simc": 8382,
                "addr:teryt:sym_ul": 928989,
                "contact:phone": "+48 523530216",
                "contact:email": "inowroclaw@deltasc.pl",
                "contact:website": "http:\/\/www.deltasc.pl",
                "ref:regon": "341324655",
                "operator": "Centrum Szkoleniowe S\u0142u\u017cb Ochrony Delta Sp\u00f3\u0142ka Z Ograniczon\u0105 Odpowiedzialno\u015bci\u0105",
                "operator:type": "private",
                "amenity": "college"
            }
        },
        {
            "id": 262616,
            "type": "Feature",
            "geometry": {
                "type": "Point",
                "coordinates": [
                    18.2449152,
                    52.7779032
                ]
            },
            "properties": {
                "isced:level": "1;2",
                "ref:rspo": 262616,
                "official_name": "Szko\u0142a Podstawowa Nr 5 im. Dra J\u00f3zefa Krzymi\u0144skiego",
                "name": "Szko\u0142a Podstawowa Nr 5",
                "addr:country": "PL",
                "addr:postcode": "88-100",
                "addr:city": "Inowroc\u0142aw",
                "addr:street": "Stanis\u0142awa Kie\u0142basiewicza",
                "addr:housenumber": "7",
                "addr:teryt:simc": 8382,
                "addr:teryt:sym_ul": 928989,
                "contact:phone": "+48 523520701",
                "contact:email": "sp5ino@wp.pl",
                "contact:website": "http:\/\/www.sp5ino.pl",
                "ref:regon": "368041063",
                "operator": "Miasto Inowroc\u0142aw",
                "operator:type": "government",
                "amenity": "school"
            }
        },
        {
            "id": 4203,
            "type": "Feature",
            "geometry": {
                "type": "Point",
                "coordinates": [
                    18.24897,
                    52.78102
                ]
            },
            "properties": {
                "isced:level": "1;2",
                "ref:rspo": 4203,
                "official_name": "Szko\u0142a Podstawowa Nr 4 im. Janusza Kusoci\u0144skiego",
                "name": "Szko\u0142a Podstawowa Nr 4",
                "addr:country": "PL",
                "addr:postcode": "88-100",
                "addr:city": "Inowroc\u0142aw",
                "addr:street": "Szarych Szereg\u00f3w",
                "addr:housenumber": "1",
                "addr:teryt:simc": 21787,
                "addr:teryt:sym_ul": 928989,
                "contact:phone": "+48 523580260",
                "contact:email": "sp4ino@vp.pl",
                "ref:regon": "001218480",
                "operator": "Miasto Inowroc\u0142aw",
                "operator:type": "government",
                "amenity": "school"
            }
        },
        {
            "id": 3112,
            "type": "Feature",
            "geometry": {
                "type": "Point",
                "coordinates": [
                    18.2465,
                    52.78159
                ]
            },
            "properties": {
                "ref:rspo": 3112,
                "official_name": "Przedszkole Nr 20 \"Kujawskie Dzieci\"",
                "name": "Przedszkole Nr 20 \"Kujawskie Dzieci\"",
                "addr:country": "PL",
                "addr:postcode": "88-100",
                "addr:city": "Inowroc\u0142aw",
                "addr:street": "Wojska Polskiego",
                "addr:housenumber": "13A",
                "addr:teryt:simc": 24628,
                "addr:teryt:sym_ul": 928989,
                "contact:phone": "+48 523522768",
                "contact:email": "biuro.kujawskiedzieci@wp.pl",
                "contact:website": "http:\/\/www.kujawskiedzieci.pl",
                "ref:regon": "001321491",
                "operator": "Miasto Inowroc\u0142aw",
                "operator:type": "government",
                "amenity": "kindergarten"
            }
        },
        {
            "id": 3104,
            "type": "Feature",
            "geometry": {
                "type": "Point",
                "coordinates": [
                    18.24998,
                    52.78269
                ]
            },
            "properties": {
                "ref:rspo": 3104,
                "official_name": "\"S\u0142oneczko\" Przedszkole Nr 4 Z Oddzia\u0142ami Integracyjnymi",
                "name": "\"S\u0142oneczko\" Przedszkole Nr 4 Z Oddzia\u0142ami Integracyjnymi",
                "addr:country": "PL",
                "addr:postcode": "88-100",
                "addr:city": "Inowroc\u0142aw",
                "addr:street": "Janusza Kusoci\u0144skiego",
                "addr:housenumber": "11",
                "addr:teryt:simc": 10493,
                "addr:teryt:sym_ul": 928989,
                "contact:phone": "+48 523578130",
                "contact:email": "dyrektorp4ino@wp.pl",
                "ref:regon": "001097467",
                "operator": "Miasto Inowroc\u0142aw",
                "operator:type": "government",
                "amenity": "kindergarten"
            }
        },
        {
            "id": 3214,
            "type": "Feature",
            "geometry": {
                "type": "Point",
                "coordinates": [
                    18.24009,
                    52.7827
                ]
            },
            "properties": {
                "isced:level": "1;2",
                "ref:rspo": 3214,
                "official_name": "Katolicka Szko\u0142a Podstawowa im.b\u0142.ks. W\u0142adys\u0142awa Demskiego",
                "name": "Katolicka Szko\u0142a Podstawowa im.b\u0142.ks. W\u0142adys\u0142awa Demskiego",
                "addr:country": "PL",
                "addr:postcode": "88-100",
                "addr:city": "Inowroc\u0142aw",
                "addr:street": "Wojska Polskiego",
                "addr:housenumber": "20",
                "addr:teryt:simc": 24628,
                "addr:teryt:sym_ul": 928989,
                "contact:phone": "+48 523526595",
                "contact:email": "sekretariat@kspinowroclaw.pl",
                "contact:website": "http:\/\/www.kspinowroclaw.pl",
                "ref:regon": "341312681",
                "operator": "Archidiecezja Gnie\u017anie\u0144ska",
                "operator:type": "religious",
                "amenity": "school"
            }
        },
        {
            "id": 124018,
            "type": "Feature",
            "geometry": {
                "type": "Point",
                "coordinates": [
                    18.2475651,
                    52.7837968
                ]
            },
            "properties": {
                "ref:rspo": 124018,
                "official_name": "Niepubliczne Przedszkole \"Frogu\u015b\"",
                "name": "Niepubliczne Przedszkole \"Frogu\u015b\"",
                "addr:country": "PL",
                "addr:postcode": "88-100",
                "addr:city": "Inowroc\u0142aw",
                "addr:street": "Wojska Polskiego",
                "addr:housenumber": "5",
                "addr:teryt:simc": 24628,
                "addr:teryt:sym_ul": 928989,
                "contact:phone": "+48 606821143",
                "contact:email": "frogus.ino@gmail.com",
                "ref:regon": "341609323",
                "operator": "Artur Wi\u015bniewski",
                "operator:type": "private",
                "amenity": "kindergarten"
            }
        },
        {
            "id": 16458,
            "type": "Feature",
            "geometry": {
                "type": "Point",
                "coordinates": [
                    18.24851,
                    52.78779
                ]
            },
            "properties": {
                "ref:rspo": 16458,
                "official_name": "Zesp\u00f3\u0142 Szk\u00f3\u0142 Ekonomiczno-Logistycznych w Inowroc\u0142awiu",
                "name": "Zesp\u00f3\u0142 Szk\u00f3\u0142 Ekonomiczno-Logistycznych w Inowroc\u0142awiu",
                "addr:country": "PL",
                "addr:postcode": "88-100",
                "addr:city": "Inowroc\u0142aw",
                "addr:street": "J\u00f3zefa Krzymi\u0144skiego",
                "addr:housenumber": "8",
                "addr:teryt:simc": 10146,
                "addr:teryt:sym_ul": 928989,
                "contact:phone": "+48 523530365",
                "contact:email": "ekonom@ekonom-ino.pl",
                "contact:website": "http:\/\/ekonom-ino.pl",
                "ref:regon": "000185100",
                "operator": "Powiat Inowroc\u0142awski",
                "operator:type": "government",
                "landuse": "education",
                "fixme": "amenity=school, amenity=college albo landuse=education w zale\u017cno\u015bci od tego, jakie plac\u00f3wki wchodz\u0105 w sk\u0142ad zespo\u0142u. Sprawd\u017a, kiedy stosowa\u0107 amenity=* a kiedy landuse=education.",
                "note": "Children RSPO: 27374;27377"
            }
        },
        {
            "id": 27374,
            "type": "Feature",
            "geometry": {
                "type": "Point",
                "coordinates": [
                    18.24851,
                    52.78776
                ]
            },
            "properties": {
                "isced:level": "3",
                "ref:rspo": 27374,
                "official_name": "Bran\u017cowa Szko\u0142a I Stopnia im. 59 Pu\u0142ku Piechoty Wielkopolskiej w Zespole Szk\u00f3\u0142 Ekonomiczno-Logistycznych w Inowroc\u0142awiu",
                "name": "Bran\u017cowa Szko\u0142a I Stopnia",
                "addr:country": "PL",
                "addr:postcode": "88-100",
                "addr:city": "Inowroc\u0142aw",
                "addr:street": "J\u00f3zefa Krzymi\u0144skiego",
                "addr:housenumber": "8",
                "addr:teryt:simc": 10146,
                "addr:teryt:sym_ul": 928989,
                "contact:phone": "+48 523530365",
                "ref:regon": "093043669",
                "operator": "Powiat Inowroc\u0142awski",
                "operator:type": "government",
                "amenity": "school",
                "note": "Parent RSPO: 16458"
            }
        },
        {
            "id": 27377,
            "type": "Feature",
            "geometry": {
                "type": "Point",
                "coordinates": [
                    18.24851,
                    52.78773
                ]
            },
            "properties": {
                "isced:level": "3",
                "ref:rspo": 27377,
                "official_name": "Technikum im. 59 Pu\u0142ku Piechoty Wielkopolskiej w Zespole Szk\u00f3\u0142 Ekonomiczno-Logistycznych w Inowroc\u0142awiu",
                "name": "Technikum",
                "addr:country": "PL",
                "addr:postcode": "88-100",
                "addr:city": "Inowroc\u0142aw",
                "addr:street": "J\u00f3zefa Krzymi\u0144skiego",
                "addr:housenumber": "8",
                "addr:teryt:simc": 10146,
                "addr:teryt:sym_ul": 928989,
                "contact:phone": "+48 523530365",
                "contact:email": "ekonom@ekonom-ino.pl",
                "contact:website": "http:\/\/www.ekonom-ino.pl",
                "ref:regon": "093043646",
                "operator": "Powiat Inowroc\u0142awski",
                "operator:type": "government",
                "amenity": "school",
                "note": "Parent RSPO: 16458"
            }
        },
        {
            "id": 6157,
            "type": "Feature",
            "geometry": {
                "type": "Point",
                "coordinates": [
                    18.24828,
                    52.78876
                ]
            },
            "properties": {
                "isced:level": "1;2",
                "ref:rspo": 6157,
                "official_name": "Szko\u0142a Podstawowa Integracyjna im. Powsta\u0144c\u00f3w Wielkopolskich",
                "name": "Szko\u0142a Podstawowa Integracyjna",
                "addr:country": "PL",
                "addr:postcode": "88-100",
                "addr:city": "Inowroc\u0142aw",
                "addr:street": "J\u00f3zefa Krzymi\u0144skiego",
                "addr:housenumber": "4",
                "addr:teryt:simc": 10146,
                "addr:teryt:sym_ul": 928989,
                "contact:phone": "+48 523530366",
                "contact:email": "spi.inowroclaw@wp.pl",
                "contact:website": "http:\/\/spi-ino.com",
                "ref:regon": "000269883",
                "ref:vatin": "PL5562477655",
                "operator": "Miasto Inowroc\u0142aw",
                "operator:type": "government",
                "amenity": "school"
            }
        },
        {
            "id": 3215,
            "type": "Feature",
            "geometry": {
                "type": "Point",
                "coordinates": [
                    18.24902,
                    52.78878
                ]
            },
            "properties": {
                "ref:rspo": 3215,
                "official_name": "Przedszkole Niepubliczne\"Stokrotka\"",
                "name": "Przedszkole Niepubliczne\"Stokrotka\"",
                "addr:country": "PL",
                "addr:postcode": "88-100",
                "addr:city": "Inowroc\u0142aw",
                "addr:street": "J\u00f3zefa Krzymi\u0144skiego",
                "addr:housenumber": "6",
                "addr:teryt:simc": 10146,
                "addr:teryt:sym_ul": 928989,
                "contact:phone": "+48 523539305",
                "contact:email": "stokrotka.ino@wp.pl",
                "ref:regon": "341313261",
                "operator": "Alicja Przybyli\u0144ska",
                "operator:type": "private",
                "amenity": "kindergarten"
            }
        },
        {
            "id": 4209,
            "type": "Feature",
            "geometry": {
                "type": "Point",
                "coordinates": [
                    18.26764,
                    52.7907
                ]
            },
            "properties": {
                "isced:level": "1;2",
                "ref:rspo": 4209,
                "official_name": "Szko\u0142a Podstawowa Nr 11 im. Stefana Batorego",
                "name": "Szko\u0142a Podstawowa Nr 11",
                "addr:country": "PL",
                "addr:postcode": "88-100",
                "addr:city": "Inowroc\u0142aw",
                "addr:street": "Jana III Sobieskiego",
                "addr:housenumber": "5\/7",
                "addr:teryt:simc": 20431,
                "addr:teryt:sym_ul": 928989,
                "contact:phone": "+48 523575683",
                "contact:email": "sp11ino@poczta.onet.pl",
                "ref:regon": "000210648",
                "operator": "Miasto Inowroc\u0142aw",
                "operator:type": "government",
                "amenity": "school"
            }
        },
        {
            "id": 130111,
            "type": "Feature",
            "geometry": {
                "type": "Point",
                "coordinates": [
                    18.26902,
                    52.79104
                ]
            },
            "properties": {
                "ref:rspo": 130111,
                "official_name": "Niepubliczne Przedszkole Terapeutyczne \"Sowa'",
                "name": "Niepubliczne Przedszkole Terapeutyczne \"Sowa'",
                "addr:country": "PL",
                "addr:postcode": "88-100",
                "addr:city": "Inowroc\u0142aw",
                "addr:street": "Marulewska",
                "addr:housenumber": "28",
                "addr:teryt:simc": 12414,
                "addr:teryt:sym_ul": 928989,
                "contact:phone": "+48 601389428",
                "contact:email": "agnieszka.uniewska@op.pl",
                "ref:regon": "363485080",
                "operator": "Magdalena Niemiec",
                "operator:type": "private",
                "amenity": "kindergarten"
            }
        },
        {
            "id": 130501,
            "type": "Feature",
            "geometry": {
                "type": "Point",
                "coordinates": [
                    18.26902,
                    52.79101
                ]
            },
            "properties": {
                "ref:rspo": 130501,
                "official_name": "Niepubliczna Poradnia Psychologiczno-Pedagogiczna \"Sowa\" w Inowroc\u0142awiu",
                "name": "Niepubliczna Poradnia Psychologiczno-Pedagogiczna \"Sowa\" w Inowroc\u0142awiu",
                "addr:country": "PL",
                "addr:postcode": "88-100",
                "addr:city": "Inowroc\u0142aw",
                "addr:street": "Marulewska",
                "addr:housenumber": "28",
                "addr:teryt:simc": 12414,
                "addr:teryt:sym_ul": 928989,
                "contact:phone": "+48 601389428",
                "ref:regon": "364118484",
                "operator": "Magdalena Niemiec",
                "operator:type": "private",
                "healthcare": "counselling",
                "counselling_type": "education",
                "fixme": "w zale\u017cno\u015bci od przedmiotu dzia\u0142alno\u015bci (np. healthcare=counselling + counselling_type=education albo healthcare=psychotherapist)"
            }
        },
        {
            "id": 123987,
            "type": "Feature",
            "geometry": {
                "type": "Point",
                "coordinates": [
                    18.27289,
                    52.79143
                ]
            },
            "properties": {
                "isced:level": "1;2",
                "ref:rspo": 123987,
                "official_name": "Niepubliczna Szko\u0142a Podstawowa \"Jagiellonka\" w Inowroc\u0142awiu",
                "name": "Niepubliczna Szko\u0142a Podstawowa \"Jagiellonka\" w Inowroc\u0142awiu",
                "addr:country": "PL",
                "addr:postcode": "88-100",
                "addr:city": "Inowroc\u0142aw",
                "addr:street": "Jagiello\u0144ska",
                "addr:housenumber": "8",
                "addr:teryt:simc": 7029,
                "addr:teryt:sym_ul": 928989,
                "contact:phone": "+48 693158389",
                "contact:email": "szkola@jagiellonka.edu.pl",
                "contact:website": "http:\/\/www.jagiellonka.edu.pl",
                "ref:regon": "341608677",
                "operator": "Karolina Lekan-Ojczenasz",
                "operator:type": "private",
                "amenity": "school"
            }
        },
        {
            "id": 25074,
            "type": "Feature",
            "geometry": {
                "type": "Point",
                "coordinates": [
                    18.27592,
                    52.79173
                ]
            },
            "properties": {
                "ref:rspo": 25074,
                "official_name": "Niepubliczne Przedszkole \"Duszek\"",
                "name": "Niepubliczne Przedszkole \"Duszek\"",
                "addr:country": "PL",
                "addr:postcode": "88-100",
                "addr:city": "Inowroc\u0142aw",
                "addr:street": "Jagiello\u0144ska",
                "addr:housenumber": "22",
                "addr:teryt:simc": 7029,
                "addr:teryt:sym_ul": 928989,
                "contact:phone": "+48 523574534",
                "contact:email": "duszek-przedszkole.ino@wp.pl",
                "ref:regon": "341336865",
                "operator": "Archidiecezja Gnie\u017anie\u0144ska",
                "operator:type": "religious",
                "amenity": "kindergarten"
            }
        },
        {
            "id": 12730,
            "type": "Feature",
            "geometry": {
                "type": "Point",
                "coordinates": [
                    18.2613803,
                    52.7920368
                ]
            },
            "properties": {
                "ref:rspo": 12730,
                "official_name": "Zesp\u00f3\u0142 Szk\u00f3\u0142 Zawodowych Rzemios\u0142a",
                "name": "Zesp\u00f3\u0142 Szk\u00f3\u0142 Zawodowych Rzemios\u0142a",
                "addr:country": "PL",
                "addr:postcode": "88-100",
                "addr:city": "Inowroc\u0142aw",
                "addr:street": "Pozna\u0144ska",
                "addr:housenumber": "18",
                "addr:teryt:simc": 17394,
                "addr:teryt:sym_ul": 928989,
                "contact:phone": "+48 523522722",
                "contact:email": "sekretariat@szkolarzemiosla.pl",
                "contact:website": "http:\/\/szkolarzemiosla.pl",
                "ref:regon": "341325844",
                "operator": "Cech Rzemios\u0142 R\u00f3\u017cnych",
                "operator:type": "cooperative",
                "landuse": "education",
                "fixme": "amenity=school, amenity=college albo landuse=education w zale\u017cno\u015bci od tego, jakie plac\u00f3wki wchodz\u0105 w sk\u0142ad zespo\u0142u. Sprawd\u017a, kiedy stosowa\u0107 amenity=* a kiedy landuse=education.",
                "note": "Children RSPO: 56486"
            }
        },
        {
            "id": 124996,
            "type": "Feature",
            "geometry": {
                "type": "Point",
                "coordinates": [
                    18.2613803,
                    52.792006799999996
                ]
            },
            "properties": {
                "ref:rspo": 124996,
                "official_name": "Centrum Kszta\u0142cenia Ustawicznego Cechu Rzemios\u0142 R\u00f3\u017cnych w Inowroc\u0142awiu",
                "name": "Centrum Kszta\u0142cenia Ustawicznego Cechu Rzemios\u0142 R\u00f3\u017cnych w Inowroc\u0142awiu",
                "addr:country": "PL",
                "addr:postcode": "88-100",
                "addr:city": "Inowroc\u0142aw",
                "addr:street": "Pozna\u0144ska",
                "addr:housenumber": "18",
                "addr:teryt:simc": 17394,
                "addr:teryt:sym_ul": 928989,
                "contact:phone": "+48 523522722",
                "ref:regon": "341623091",
                "operator": "Cech Rzemios\u0142 R\u00f3\u017cnych",
                "operator:type": "cooperative",
                "fixme": "w zale\u017cno\u015bci od przedmiotu dzia\u0142alno\u015bci (np. amenity=training + training=*, amenity=dancing_school, amenity=language_school, amenity=music_school)"
            }
        },
        {
            "id": 56486,
            "type": "Feature",
            "geometry": {
                "type": "Point",
                "coordinates": [
                    18.2613803,
                    52.7919768
                ]
            },
            "properties": {
                "isced:level": "3",
                "ref:rspo": 56486,
                "official_name": "Zesp\u00f3\u0142 Szk\u00f3\u0142 Zawodowych Rzemios\u0142a - Rzemie\u015blnicza Szko\u0142a Bran\u017cowa I Stopnia w Inowroc\u0142awiu",
                "name": "Zesp\u00f3\u0142 Szk\u00f3\u0142 Zawodowych Rzemios\u0142a - Rzemie\u015blnicza Szko\u0142a Bran\u017cowa I Stopnia w Inowroc\u0142awiu",
                "addr:country": "PL",
                "addr:postcode": "88-100",
                "addr:city": "Inowroc\u0142aw",
                "addr:street": "Pozna\u0144ska",
                "addr:housenumber": "18",
                "addr:teryt:simc": 17394,
                "addr:teryt:sym_ul": 928989,
                "contact:phone": "+48 523522722",
                "contact:email": "sekretariat@szkolarzemiosla.pl",
                "contact:website": "http:\/\/szkolarzemiosla.pl",
                "ref:regon": "341343836",
                "operator": "Cech Rzemios\u0142 R\u00f3\u017cnych",
                "operator:type": "cooperative",
                "amenity": "school",
                "note": "Parent RSPO: 12730"
            }
        },
        {
            "id": 278380,
            "type": "Feature",
            "geometry": {
                "type": "Point",
                "coordinates": [
                    18.26034,
                    52.79263
                ]
            },
            "properties": {
                "ref:rspo": 278380,
                "official_name": "Niepubliczne Przedszkole Akademickie w Inowroc\u0142awiu Wy\u017cszej Szko\u0142y Gospodarki",
                "name": "Niepubliczne Przedszkole Akademickie w Inowroc\u0142awiu Wy\u017cszej Szko\u0142y Gospodarki",
                "addr:country": "PL",
                "addr:postcode": "88-100",
                "addr:city": "Inowroc\u0142aw",
                "addr:street": "\u015awi\u0119tokrzyska",
                "addr:housenumber": "6",
                "addr:teryt:simc": 22552,
                "addr:teryt:sym_ul": 928989,
                "contact:phone": "+48 525670085",
                "contact:email": "dzieci.inowroclaw@byd.pl",
                "ref:regon": "389874447",
                "operator": "Wy\u017csza Szko\u0142a Gospodarki Z Siedzib\u0105 W Bydgoszczy",
                "operator:type": "private",
                "amenity": "kindergarten"
            }
        },
        {
            "id": 3352,
            "type": "Feature",
            "geometry": {
                "type": "Point",
                "coordinates": [
                    18.27827,
                    52.79358
                ]
            },
            "properties": {
                "ref:rspo": 3352,
                "official_name": "Przedszkole Niepubliczne \"Piastu\u015b\"",
                "name": "Przedszkole Niepubliczne \"Piastu\u015b\"",
                "addr:country": "PL",
                "addr:postcode": "88-100",
                "addr:city": "Inowroc\u0142aw",
                "addr:street": "Boles\u0142awa Krzywoustego",
                "addr:housenumber": "23",
                "addr:teryt:simc": 1749,
                "addr:teryt:sym_ul": 928989,
                "contact:phone": "+48 693158389",
                "contact:email": "przedszkolepiastus@wp.pl",
                "ref:regon": "341313290",
                "operator": "Karolina Lekan-Ojczenasz",
                "operator:type": "private",
                "amenity": "kindergarten"
            }
        },
        {
            "id": 27542,
            "type": "Feature",
            "geometry": {
                "type": "Point",
                "coordinates": [
                    18.26582,
                    52.79371
                ]
            },
            "properties": {
                "ref:rspo": 27542,
                "official_name": "Przedszkole Niepubliczne \"Pod T\u0119cz\u0105",
                "name": "Przedszkole Niepubliczne \"Pod T\u0119cz\u0105",
                "addr:country": "PL",
                "addr:postcode": "88-100",
                "addr:city": "Inowroc\u0142aw",
                "addr:street": "W\u0142adys\u0142awa \u0141okietka",
                "addr:housenumber": "2",
                "addr:teryt:simc": 11653,
                "addr:teryt:sym_ul": 928989,
                "contact:phone": "+48 523573857",
                "contact:email": "podtecza@podtecza.pl",
                "contact:website": "http:\/\/www.podtecza.pl",
                "ref:regon": "341338580",
                "operator": "Marzenna K\u0142os",
                "operator:type": "private",
                "amenity": "kindergarten"
            }
        },
        {
            "id": 125085,
            "type": "Feature",
            "geometry": {
                "type": "Point",
                "coordinates": [
                    18.26838,
                    52.7938
                ]
            },
            "properties": {
                "isced:level": "4",
                "ref:rspo": 125085,
                "official_name": "Szko\u0142a Policealna Centrum Nauki I Biznesu \"\u017bak\" w Inowroc\u0142awiu",
                "name": "Szko\u0142a Policealna Centrum Nauki I Biznesu \"\u017bak\" w Inowroc\u0142awiu",
                "addr:country": "PL",
                "addr:postcode": "88-100",
                "addr:city": "Inowroc\u0142aw",
                "addr:street": "W\u0142adys\u0142awa \u0141okietka",
                "addr:housenumber": "3",
                "addr:teryt:simc": 11653,
                "addr:teryt:sym_ul": 928989,
                "contact:phone": "+48 663771916",
                "contact:email": "inowroclaw@zak.edu.pl",
                "ref:regon": "341624676",
                "operator": "Centrum Nauki I Biznesu \"\u017bak\" Sp\u00f3\u0142ka Z Ograniczon\u0105 Odpowiedzialno\u015bci\u0105",
                "operator:type": "private",
                "amenity": "college"
            }
        },
        {
            "id": 127483,
            "type": "Feature",
            "geometry": {
                "type": "Point",
                "coordinates": [
                    18.26838,
                    52.793769999999995
                ]
            },
            "properties": {
                "isced:level": "3",
                "ref:rspo": 127483,
                "official_name": "Liceum Og\u00f3lnokszta\u0142c\u0105ce dla Doros\u0142ych \"\u017bak\" w Inowroc\u0142awiu",
                "name": "Liceum Og\u00f3lnokszta\u0142c\u0105ce dla Doros\u0142ych \"\u017bak\" w Inowroc\u0142awiu",
                "addr:country": "PL",
                "addr:postcode": "88-100",
                "addr:city": "Inowroc\u0142aw",
                "addr:street": "W\u0142adys\u0142awa \u0141okietka",
                "addr:housenumber": "3",
                "addr:teryt:simc": 11653,
                "addr:teryt:sym_ul": 928989,
                "contact:phone": "+48 663771916",
                "contact:email": "inowroclaw@zak.edu.pl",
                "contact:website": "http:\/\/zak.edu.pl",
                "ref:regon": "361663011",
                "operator": "Centrum Nauki I Biznesu \"\u017bak\" Sp\u00f3\u0142ka Z Ograniczon\u0105 Odpowiedzialno\u015bci\u0105",
                "operator:type": "private",
                "amenity": "school"
            }
        },
        {
            "id": 127484,
            "type": "Feature",
            "geometry": {
                "type": "Point",
                "coordinates": [
                    18.26838,
                    52.79374
                ]
            },
            "properties": {
                "isced:level": "4",
                "ref:rspo": 127484,
                "official_name": "Szko\u0142a Policealna Medyczna \"\u017bak\" w Inowroc\u0142awiu",
                "name": "Szko\u0142a Policealna Medyczna \"\u017bak\" w Inowroc\u0142awiu",
                "addr:country": "PL",
                "addr:postcode": "88-100",
                "addr:city": "Inowroc\u0142aw",
                "addr:street": "W\u0142adys\u0142awa \u0141okietka",
                "addr:housenumber": "3",
                "addr:teryt:simc": 11653,
                "addr:teryt:sym_ul": 928989,
                "contact:phone": "+48 667977948",
                "contact:email": "inowroclaw@zak.edu.pl",
                "contact:website": "http:\/\/zak.edu.pl",
                "ref:regon": "361663070",
                "operator": "Centrum Nauki I Biznesu \"\u017bak\" Sp\u00f3\u0142ka Z Ograniczon\u0105 Odpowiedzialno\u015bci\u0105",
                "operator:type": "private",
                "amenity": "college"
            }
        },
        {
            "id": 127485,
            "type": "Feature",
            "geometry": {
                "type": "Point",
                "coordinates": [
                    18.26838,
                    52.79371
                ]
            },
            "properties": {
                "isced:level": "4",
                "ref:rspo": 127485,
                "official_name": "Szko\u0142a Policealna Opieki Medycznej \"\u017bak\" w Inowroc\u0142awiu",
                "name": "Szko\u0142a Policealna Opieki Medycznej \"\u017bak\" w Inowroc\u0142awiu",
                "addr:country": "PL",
                "addr:postcode": "88-100",
                "addr:city": "Inowroc\u0142aw",
                "addr:street": "W\u0142adys\u0142awa \u0141okietka",
                "addr:housenumber": "3",
                "addr:teryt:simc": 11653,
                "addr:teryt:sym_ul": 928989,
                "contact:phone": "+48 667977948",
                "contact:email": "inowroclaw@zak.edu.pl",
                "contact:website": "http:\/\/zak.edu.pl",
                "ref:regon": "361663130",
                "operator": "Centrum Nauki I Biznesu \"\u017bak\" Sp\u00f3\u0142ka Z Ograniczon\u0105 Odpowiedzialno\u015bci\u0105",
                "operator:type": "private",
                "amenity": "college"
            }
        },
        {
            "id": 129417,
            "type": "Feature",
            "geometry": {
                "type": "Point",
                "coordinates": [
                    18.26838,
                    52.793679999999995
                ]
            },
            "properties": {
                "ref:rspo": 129417,
                "official_name": "O\u015brodek Szkoleniowy Centrum Nauki I Biznesu \"\u017bak\" w Inowroc\u0142awiu",
                "name": "O\u015brodek Szkoleniowy Centrum Nauki I Biznesu \"\u017bak\" w Inowroc\u0142awiu",
                "addr:country": "PL",
                "addr:postcode": "88-100",
                "addr:city": "Inowroc\u0142aw",
                "addr:street": "W\u0142adys\u0142awa \u0141okietka",
                "addr:housenumber": "3",
                "addr:teryt:simc": 11653,
                "addr:teryt:sym_ul": 928989,
                "contact:website": "http:\/\/zak.edu.pl",
                "ref:regon": "362599634",
                "operator": "Centrum Nauki I Biznesu \"\u017bak\" Sp\u00f3\u0142ka Z Ograniczon\u0105 Odpowiedzialno\u015bci\u0105",
                "operator:type": "private",
                "fixme": "w zale\u017cno\u015bci od przedmiotu dzia\u0142alno\u015bci (np. amenity=training + training=*, amenity=dancing_school, amenity=language_school, amenity=music_school)"
            }
        },
        {
            "id": 262629,
            "type": "Feature",
            "geometry": {
                "type": "Point",
                "coordinates": [
                    18.26838,
                    52.79365
                ]
            },
            "properties": {
                "isced:level": "1;2",
                "ref:rspo": 262629,
                "official_name": "Szko\u0142a Podstawowa Nr 8 im. 4. Kujawskiego Pu\u0142ku Artylerii Lekkiej",
                "name": "Szko\u0142a Podstawowa Nr 8",
                "addr:country": "PL",
                "addr:postcode": "88-100",
                "addr:city": "Inowroc\u0142aw",
                "addr:street": "W\u0142adys\u0142awa \u0141okietka",
                "addr:housenumber": "3",
                "addr:teryt:simc": 11653,
                "addr:teryt:sym_ul": 928989,
                "contact:phone": "+48 523573870",
                "contact:email": "sp8ino@onet.pl",
                "contact:website": "http:\/\/sp8ino.edu.pl",
                "ref:regon": "368042170",
                "operator": "Miasto Inowroc\u0142aw",
                "operator:type": "government",
                "amenity": "school"
            }
        },
        {
            "id": 3581,
            "type": "Feature",
            "geometry": {
                "type": "Point",
                "coordinates": [
                    18.2607,
                    52.79405
                ]
            },
            "properties": {
                "ref:rspo": 3581,
                "official_name": "Przedszkole Niepubliczne \"U Natalki I Kubusia\"",
                "name": "Przedszkole Niepubliczne \"U Natalki I Kubusia\"",
                "addr:country": "PL",
                "addr:postcode": "88-100",
                "addr:city": "Inowroc\u0142aw",
                "addr:street": "Kasztela\u0144ska",
                "addr:housenumber": "17",
                "addr:teryt:simc": 8179,
                "addr:teryt:sym_ul": 928989,
                "contact:phone": "+48 509259130",
                "contact:email": "centrum.ino@onet.pl",
                "ref:regon": "341313775",
                "operator": "Barbara Rydlichowska",
                "operator:type": "private",
                "amenity": "kindergarten"
            }
        },
        {
            "id": 55503,
            "type": "Feature",
            "geometry": {
                "type": "Point",
                "coordinates": [
                    18.25086,
                    52.79425
                ]
            },
            "properties": {
                "ref:rspo": 55503,
                "official_name": "Poradnia Psychologiczno-Pedagogiczna w Inowroc\u0142awiu",
                "name": "Poradnia Psychologiczno-Pedagogiczna w Inowroc\u0142awiu",
                "addr:country": "PL",
                "addr:postcode": "88-100",
                "addr:city": "Inowroc\u0142aw",
                "addr:street": "aleja Ratuszowa",
                "addr:housenumber": "38",
                "addr:teryt:simc": 56010,
                "addr:teryt:sym_ul": 928989,
                "contact:phone": "+48 523592145",
                "contact:email": "ppp-ino@o2.pl",
                "ref:regon": "000217870",
                "operator": "Powiat Inowroc\u0142awski",
                "operator:type": "government",
                "healthcare": "counselling",
                "counselling_type": "education",
                "fixme": "w zale\u017cno\u015bci od przedmiotu dzia\u0142alno\u015bci (np. healthcare=counselling + counselling_type=education albo healthcare=psychotherapist)",
                "note": "Children RSPO: 71846"
            }
        },
        {
            "id": 3216,
            "type": "Feature",
            "geometry": {
                "type": "Point",
                "coordinates": [
                    18.252,
                    52.79545
                ]
            },
            "properties": {
                "ref:rspo": 3216,
                "official_name": "Przedszkole Niepubliczne \"Mi\u015b\"",
                "name": "Przedszkole Niepubliczne \"Mi\u015b\"",
                "addr:country": "PL",
                "addr:postcode": "88-100",
                "addr:city": "Inowroc\u0142aw",
                "addr:street": "Solankowa",
                "addr:housenumber": "29",
                "addr:teryt:simc": 20512,
                "addr:teryt:sym_ul": 928989,
                "contact:phone": "+48 523576077",
                "contact:email": "mis55@poczta.onet.pl",
                "ref:regon": "341313278",
                "operator": "Lidia \u015amigerska",
                "operator:type": "private",
                "amenity": "kindergarten"
            }
        },
        {
            "id": 6194,
            "type": "Feature",
            "geometry": {
                "type": "Point",
                "coordinates": [
                    18.2365299,
                    52.79553
                ]
            },
            "properties": {
                "ref:rspo": 6194,
                "official_name": "Przedszkole Niepubliczne \"Krasnal\"",
                "name": "Przedszkole Niepubliczne \"Krasnal\"",
                "addr:country": "PL",
                "addr:postcode": "88-100",
                "addr:city": "Inowroc\u0142aw",
                "addr:street": "Przy Stawku",
                "addr:housenumber": "7",
                "addr:teryt:simc": 17844,
                "addr:teryt:sym_ul": 928989,
                "contact:phone": "+48 523571202",
                "contact:email": "sekretariat@przedszkole-krasnal.com",
                "ref:regon": "341320025",
                "operator": "Jaros\u0142aw Or\u0142owski",
                "operator:type": "private",
                "amenity": "kindergarten"
            }
        },
        {
            "id": 17773,
            "type": "Feature",
            "geometry": {
                "type": "Point",
                "coordinates": [
                    18.25322,
                    52.79587
                ]
            },
            "properties": {
                "ref:rspo": 17773,
                "official_name": "Zesp\u00f3\u0142 Szk\u00f3\u0142 im. Marka Kota\u0144skiego",
                "name": "Zesp\u00f3\u0142 Szk\u00f3\u0142",
                "addr:country": "PL",
                "addr:postcode": "88-100",
                "addr:city": "Inowroc\u0142aw",
                "addr:street": "Solankowa",
                "addr:housenumber": "21",
                "addr:teryt:simc": 20512,
                "addr:teryt:sym_ul": 928989,
                "contact:phone": "+48 523572836",
                "contact:email": "inospec@wp.pl",
                "contact:website": "http:\/\/www.inokotan.pl",
                "ref:regon": "000895698",
                "operator": "Powiat Inowroc\u0142awski",
                "operator:type": "government",
                "landuse": "education",
                "fixme": "amenity=school, amenity=college albo landuse=education w zale\u017cno\u015bci od tego, jakie plac\u00f3wki wchodz\u0105 w sk\u0142ad zespo\u0142u. Sprawd\u017a, kiedy stosowa\u0107 amenity=* a kiedy landuse=education.",
                "note": "Children RSPO: 48637;49255;49258"
            }
        },
        {
            "id": 48637,
            "type": "Feature",
            "geometry": {
                "type": "Point",
                "coordinates": [
                    18.25322,
                    52.79584
                ]
            },
            "properties": {
                "isced:level": "3",
                "ref:rspo": 48637,
                "official_name": "Zesp\u00f3\u0142 Szk\u00f3\u0142 im. Marka Kota\u0144skiego w Inowroc\u0142awiu - Specjalna Bran\u017cowa Szko\u0142a I Stopnia",
                "name": "Zesp\u00f3\u0142 Szk\u00f3\u0142",
                "addr:country": "PL",
                "addr:postcode": "88-100",
                "addr:city": "Inowroc\u0142aw",
                "addr:street": "Solankowa",
                "addr:housenumber": "21",
                "addr:teryt:simc": 20512,
                "addr:teryt:sym_ul": 928989,
                "contact:phone": "+48 523572836",
                "contact:email": "inospec@wp.pl",
                "ref:regon": "093042380",
                "operator": "Powiat Inowroc\u0142awski",
                "operator:type": "government",
                "amenity": "school",
                "note": "Parent RSPO: 17773"
            }
        },
        {
            "id": 49255,
            "type": "Feature",
            "geometry": {
                "type": "Point",
                "coordinates": [
                    18.25322,
                    52.79581
                ]
            },
            "properties": {
                "ref:rspo": 49255,
                "official_name": "Zesp\u00f3\u0142 Szk\u00f3\u0142 im. Marka Kota\u0144skiego w Inowroc\u0142awiu - Szko\u0142a Specjalna Przysposabiaj\u0105ca Do Pracy",
                "name": "Zesp\u00f3\u0142 Szk\u00f3\u0142",
                "addr:country": "PL",
                "addr:postcode": "88-100",
                "addr:city": "Inowroc\u0142aw",
                "addr:street": "Solankowa",
                "addr:housenumber": "21",
                "addr:teryt:simc": 20512,
                "addr:teryt:sym_ul": 928989,
                "contact:phone": "+48 523572836",
                "ref:regon": "340079751",
                "operator": "Powiat Inowroc\u0142awski",
                "operator:type": "government",
                "amenity": "school",
                "note": "Parent RSPO: 17773"
            }
        },
        {
            "id": 49258,
            "type": "Feature",
            "geometry": {
                "type": "Point",
                "coordinates": [
                    18.25322,
                    52.79578
                ]
            },
            "properties": {
                "isced:level": "1;2",
                "ref:rspo": 49258,
                "official_name": "Zesp\u00f3\u0142 Szk\u00f3\u0142 im. Marka Kota\u0144skiego w Inowroc\u0142awiu - Szko\u0142a Podstawowa Specjalna",
                "name": "Zesp\u00f3\u0142 Szk\u00f3\u0142",
                "addr:country": "PL",
                "addr:postcode": "88-100",
                "addr:city": "Inowroc\u0142aw",
                "addr:street": "Solankowa",
                "addr:housenumber": "21",
                "addr:teryt:simc": 20512,
                "addr:teryt:sym_ul": 928989,
                "contact:phone": "+48 523572836",
                "contact:email": "inospec@wp.pl",
                "ref:regon": "093042351",
                "operator": "Powiat Inowroc\u0142awski",
                "operator:type": "government",
                "amenity": "school",
                "note": "Parent RSPO: 17773"
            }
        },
        {
            "id": 3110,
            "type": "Feature",
            "geometry": {
                "type": "Point",
                "coordinates": [
                    18.27357,
                    52.79602
                ]
            },
            "properties": {
                "ref:rspo": 3110,
                "official_name": "Przedszkole Nr 14 Muzyczna Kraina\"",
                "name": "Przedszkole Nr 14 Muzyczna Kraina\"",
                "addr:country": "PL",
                "addr:postcode": "88-100",
                "addr:city": "Inowroc\u0142aw",
                "addr:street": "\u015awi\u0119tego Ducha",
                "addr:housenumber": "86",
                "addr:teryt:simc": 4346,
                "addr:teryt:sym_ul": 928989,
                "contact:phone": "+48 523570089",
                "contact:email": "biuro@muzycznakraina.pl",
                "ref:regon": "001013660",
                "ref:vatin": "PL5562327571",
                "operator": "Miasto Inowroc\u0142aw",
                "operator:type": "government",
                "amenity": "kindergarten"
            }
        },
        {
            "id": 16468,
            "type": "Feature",
            "geometry": {
                "type": "Point",
                "coordinates": [
                    18.24754,
                    52.7962599
                ]
            },
            "properties": {
                "ref:rspo": 16468,
                "official_name": "Zesp\u00f3\u0142 Szk\u00f3\u0142 Gastronomiczno-Hotelarskich im. Genowefy Jaworskiej",
                "name": "Zesp\u00f3\u0142 Szk\u00f3\u0142 Gastronomiczno-Hotelarskich",
                "addr:country": "PL",
                "addr:postcode": "88-100",
                "addr:city": "Inowroc\u0142aw",
                "addr:street": "Aleja Sienkiewicza",
                "addr:housenumber": "33",
                "addr:teryt:simc": 19827,
                "addr:teryt:sym_ul": 928989,
                "contact:phone": "+48 523574453",
                "contact:email": "sekretariat@zsp2.com.pl",
                "contact:website": "http:\/\/zsp2.com.pl",
                "ref:regon": "000185382",
                "operator": "Powiat Inowroc\u0142awski",
                "operator:type": "government",
                "landuse": "education",
                "fixme": "amenity=school, amenity=college albo landuse=education w zale\u017cno\u015bci od tego, jakie plac\u00f3wki wchodz\u0105 w sk\u0142ad zespo\u0142u. Sprawd\u017a, kiedy stosowa\u0107 amenity=* a kiedy landuse=education.",
                "note": "Children RSPO: 22839;22843"
            }
        },
        {
            "id": 22839,
            "type": "Feature",
            "geometry": {
                "type": "Point",
                "coordinates": [
                    18.24754,
                    52.7962299
                ]
            },
            "properties": {
                "isced:level": "3",
                "ref:rspo": 22839,
                "official_name": "Technikum w Zespole Szk\u00f3\u0142 Gastronomiczno-Hotelarskich im. Genowefy Jaworskiej w Inowroc\u0142awiu",
                "name": "Technikum w Zespole Szk\u00f3\u0142 Gastronomiczno-Hotelarskich",
                "addr:country": "PL",
                "addr:postcode": "88-100",
                "addr:city": "Inowroc\u0142aw",
                "addr:street": "Aleja Sienkiewicza",
                "addr:housenumber": "33",
                "addr:teryt:simc": 19827,
                "addr:teryt:sym_ul": 928989,
                "contact:phone": "+48 523574453",
                "contact:email": "sekretariat@zsp2.com.pl",
                "contact:website": "http:\/\/zsp2.com.pl",
                "ref:regon": "093064200",
                "operator": "Powiat Inowroc\u0142awski",
                "operator:type": "government",
                "amenity": "school",
                "note": "Parent RSPO: 16468"
            }
        },
        {
            "id": 22843,
            "type": "Feature",
            "geometry": {
                "type": "Point",
                "coordinates": [
                    18.24754,
                    52.796199900000005
                ]
            },
            "properties": {
                "isced:level": "3",
                "ref:rspo": 22843,
                "official_name": "Bran\u017cowa Szko\u0142a I Stopnia w Zespole Szk\u00f3\u0142 Gastronomiczno-Hotelarskich im. Genowefy Jaworskiej w Inowroc\u0142awiu",
                "name": "Bran\u017cowa Szko\u0142a I Stopnia w Zespole Szk\u00f3\u0142 Gastronomiczno-Hotelarskich",
                "addr:country": "PL",
                "addr:postcode": "88-100",
                "addr:city": "Inowroc\u0142aw",
                "addr:street": "Aleja Sienkiewicza",
                "addr:housenumber": "33",
                "addr:teryt:simc": 19827,
                "addr:teryt:sym_ul": 928989,
                "contact:phone": "+48 523574453",
                "contact:email": "sekretariat@zsp2.com.pl",
                "ref:regon": "093064186",
                "operator": "Powiat Inowroc\u0142awski",
                "operator:type": "government",
                "amenity": "school",
                "note": "Parent RSPO: 16468"
            }
        },
        {
            "id": 274612,
            "type": "Feature",
            "geometry": {
                "type": "Point",
                "coordinates": [
                    18.25336,
                    52.79632
                ]
            },
            "properties": {
                "ref:rspo": 274612,
                "official_name": "Centrum Doskonalenia Zawodowego Pawe\u0142 Kilia\u0144ski",
                "name": "Centrum Doskonalenia Zawodowego Pawe\u0142 Kilia\u0144ski",
                "addr:country": "PL",
                "addr:postcode": "88-100",
                "addr:city": "Inowroc\u0142aw",
                "addr:street": "Solankowa",
                "addr:housenumber": "20",
                "addr:door": "1",
                "addr:teryt:simc": 20512,
                "addr:teryt:sym_ul": 928989,
                "contact:phone": "+48 523574670",
                "contact:email": "cdzino@wp.pl",
                "ref:regon": "386045503",
                "operator": "Pawe\u0142 Kilia\u0144ski",
                "operator:type": "private",
                "fixme": "w zale\u017cno\u015bci od przedmiotu dzia\u0142alno\u015bci (np. amenity=training + training=*, amenity=dancing_school, amenity=language_school, amenity=music_school)"
            }
        },
        {
            "id": 18731,
            "type": "Feature",
            "geometry": {
                "type": "Point",
                "coordinates": [
                    18.24656,
                    52.79663
                ]
            },
            "properties": {
                "isced:level": "3",
                "ref:rspo": 18731,
                "official_name": "Ii Liceum Og\u00f3lnokszta\u0142c\u0105ce im. Marii Konopnickiej w Inowroc\u0142awiu",
                "name": "Ii Liceum Og\u00f3lnokszta\u0142c\u0105ce",
                "addr:country": "PL",
                "addr:postcode": "88-100",
                "addr:city": "Inowroc\u0142aw",
                "addr:street": "Marii Konopnickiej",
                "addr:housenumber": "15",
                "addr:teryt:simc": 9186,
                "addr:teryt:sym_ul": 928989,
                "contact:phone": "+48 523572534",
                "contact:email": "iilosekretariat@gmail.com",
                "contact:website": "http:\/\/konopa.pl",
                "ref:regon": "000212966",
                "operator": "Powiat Inowroc\u0142awski",
                "operator:type": "government",
                "amenity": "school"
            }
        },
        {
            "id": 15473,
            "type": "Feature",
            "geometry": {
                "type": "Point",
                "coordinates": [
                    18.26008,
                    52.79718
                ]
            },
            "properties": {
                "ref:rspo": 15473,
                "official_name": "Pa\u0144stwowa Szko\u0142a Muzyczna I I II St. im. Juliusza Zar\u0119bskiego w Inowroc\u0142awiu",
                "name": "Pa\u0144stwowa Szko\u0142a Muzyczna I I II St.",
                "addr:country": "PL",
                "addr:postcode": "88-100",
                "addr:city": "Inowroc\u0142aw",
                "addr:street": "Jana Kili\u0144skiego",
                "addr:housenumber": "16a",
                "addr:teryt:simc": 8435,
                "addr:teryt:sym_ul": 928989,
                "contact:phone": "+48 523574650",
                "contact:email": "psm_ino@pro.onet.pl",
                "contact:website": "http:\/\/psmino.com.pl",
                "ref:regon": "340025873",
                "operator": "Ministerstwo Kultury I Dziedzictwa Narodowego",
                "operator:type": "public",
                "landuse": "education",
                "fixme": "amenity=school, amenity=college albo landuse=education w zale\u017cno\u015bci od tego, jakie plac\u00f3wki wchodz\u0105 w sk\u0142ad zespo\u0142u. Sprawd\u017a, kiedy stosowa\u0107 amenity=* a kiedy landuse=education.",
                "note": "Children RSPO: 78091;78092"
            }
        },
        {
            "id": 78091,
            "type": "Feature",
            "geometry": {
                "type": "Point",
                "coordinates": [
                    18.26008,
                    52.797149999999995
                ]
            },
            "properties": {
                "ref:rspo": 78091,
                "official_name": "Pa\u0144stwowa Szko\u0142a Muzyczna I St. w Inowroc\u0142awiu",
                "name": "Pa\u0144stwowa Szko\u0142a Muzyczna I St. w Inowroc\u0142awiu",
                "addr:country": "PL",
                "addr:postcode": "88-100",
                "addr:city": "Inowroc\u0142aw",
                "addr:street": "Jana Kili\u0144skiego",
                "addr:housenumber": "16a",
                "addr:teryt:simc": 8435,
                "addr:teryt:sym_ul": 928989,
                "contact:phone": "+48 523574650",
                "contact:email": "psm_ino@pro.onet.pl",
                "contact:website": "http:\/\/www.psmino.com.pl\/",
                "ref:regon": "000277405",
                "operator": "Ministerstwo Kultury I Dziedzictwa Narodowego",
                "operator:type": "public",
                "amenity": "music_school",
                "note": "Parent RSPO: 15473"
            }
        },
        {
            "id": 78092,
            "type": "Feature",
            "geometry": {
                "type": "Point",
                "coordinates": [
                    18.26008,
                    52.79712
                ]
            },
            "properties": {
                "ref:rspo": 78092,
                "official_name": "Pa\u0144stwowa Szko\u0142a Muzyczna II St. w Inowroc\u0142awiu",
                "name": "Pa\u0144stwowa Szko\u0142a Muzyczna II St. w Inowroc\u0142awiu",
                "addr:country": "PL",
                "addr:postcode": "88-100",
                "addr:city": "Inowroc\u0142aw",
                "addr:street": "Jana Kili\u0144skiego",
                "addr:housenumber": "16a",
                "addr:teryt:simc": 8435,
                "addr:teryt:sym_ul": 928989,
                "contact:phone": "+48 523574650",
                "contact:email": "psm_ino@pro.onet.pl",
                "contact:website": "http:\/\/www.psmino.com.pl\/",
                "ref:regon": "340025867",
                "operator": "Ministerstwo Kultury I Dziedzictwa Narodowego",
                "operator:type": "public",
                "amenity": "music_school",
                "note": "Parent RSPO: 15473"
            }
        },
        {
            "id": 21582,
            "type": "Feature",
            "geometry": {
                "type": "Point",
                "coordinates": [
                    18.24805,
                    52.79749
                ]
            },
            "properties": {
                "isced:level": "3",
                "ref:rspo": 21582,
                "official_name": "Iii Liceum Og\u00f3lnokszta\u0142c\u0105ce im. Kr\u00f3lowej Jadwigi w Inowroc\u0142awiu",
                "name": "Iii Liceum Og\u00f3lnokszta\u0142c\u0105ce",
                "addr:country": "PL",
                "addr:postcode": "88-100",
                "addr:city": "Inowroc\u0142aw",
                "addr:street": "Prezydenta Gabriela Narutowicza",
                "addr:housenumber": "53",
                "addr:teryt:simc": 14019,
                "addr:teryt:sym_ul": 928989,
                "contact:phone": "+48 523575407",
                "contact:email": "sekretariat3lo@krolowka.com",
                "contact:website": "http:\/\/krolowka.com",
                "ref:regon": "090013952",
                "operator": "Powiat Inowroc\u0142awski",
                "operator:type": "government",
                "amenity": "school"
            }
        },
        {
            "id": 118513,
            "type": "Feature",
            "geometry": {
                "type": "Point",
                "coordinates": [
                    18.24805,
                    52.79746
                ]
            },
            "properties": {
                "ref:rspo": 118513,
                "official_name": "Medyczno-Spo\u0142eczne Centrum Kszta\u0142cenia Zawodowego I Ustawicznego w Inowroc\u0142awiu",
                "name": "Medyczno-Spo\u0142eczne Centrum Kszta\u0142cenia Zawodowego I Ustawicznego w Inowroc\u0142awiu",
                "addr:country": "PL",
                "addr:postcode": "88-100",
                "addr:city": "Inowroc\u0142aw",
                "addr:street": "Prezydenta Gabriela Narutowicza",
                "addr:housenumber": "53",
                "addr:teryt:simc": 14019,
                "addr:teryt:sym_ul": 928989,
                "contact:phone": "+48 523576222",
                "contact:email": "poczta@medykino.com.pl",
                "ref:regon": "341463486",
                "operator": "Wojew\u00f3dztwo Kujawsko-Pomorskie",
                "operator:type": "government",
                "landuse": "education",
                "fixme": "amenity=school, amenity=college albo landuse=education w zale\u017cno\u015bci od tego, jakie plac\u00f3wki wchodz\u0105 w sk\u0142ad zespo\u0142u. Sprawd\u017a, kiedy stosowa\u0107 amenity=* a kiedy landuse=education.",
                "note": "Children RSPO: 48572;272606"
            }
        },
        {
            "id": 48572,
            "type": "Feature",
            "geometry": {
                "type": "Point",
                "coordinates": [
                    18.24805,
                    52.797430000000006
                ]
            },
            "properties": {
                "isced:level": "4",
                "ref:rspo": 48572,
                "official_name": "Szko\u0142a Policealna Medyczno-Spo\u0142eczna w Inowroc\u0142awiu",
                "name": "Szko\u0142a Policealna Medyczno-Spo\u0142eczna w Inowroc\u0142awiu",
                "addr:country": "PL",
                "addr:postcode": "88-100",
                "addr:city": "Inowroc\u0142aw",
                "addr:street": "Prezydenta Gabriela Narutowicza",
                "addr:housenumber": "53",
                "addr:teryt:simc": 14019,
                "addr:teryt:sym_ul": 928989,
                "contact:phone": "+48 523576222",
                "contact:email": "poczta@medykino.com.pl",
                "contact:website": "http:\/\/www.medykino.com.pl",
                "ref:regon": "092943342",
                "ref:vatin": "PL5562570892",
                "operator": "Wojew\u00f3dztwo Kujawsko-Pomorskie",
                "operator:type": "government",
                "amenity": "college",
                "note": "Parent RSPO: 118513"
            }
        },
        {
            "id": 272606,
            "type": "Feature",
            "geometry": {
                "type": "Point",
                "coordinates": [
                    18.24805,
                    52.7974
                ]
            },
            "properties": {
                "ref:rspo": 272606,
                "official_name": "Kujawsko-Pomorskie Centrum Kszta\u0142cenia Zawodowego w Inowroc\u0142wiu",
                "name": "Kujawsko-Pomorskie Centrum Kszta\u0142cenia Zawodowego w Inowroc\u0142wiu",
                "addr:country": "PL",
                "addr:postcode": "88-100",
                "addr:city": "Inowroc\u0142aw",
                "addr:street": "Prezydenta Gabriela Narutowicza",
                "addr:housenumber": "53",
                "addr:teryt:simc": 14019,
                "addr:teryt:sym_ul": 928989,
                "contact:phone": "+48 523576222",
                "ref:regon": "384269411",
                "operator": "Wojew\u00f3dztwo Kujawsko-Pomorskie",
                "operator:type": "government",
                "fixme": "w zale\u017cno\u015bci od przedmiotu dzia\u0142alno\u015bci (np. amenity=training + training=*, amenity=dancing_school, amenity=language_school, amenity=music_school) albo amenity=school, amenity=college, albo landuse=education w zale\u017cno\u015bci od tego, jakie plac\u00f3wki wchodz\u0105 w sk\u0142ad zespo\u0142u. Sprawd\u017a, kiedy stosowa\u0107 amenity=* a kiedy landuse=education.",
                "note": "Parent RSPO: 118513"
            }
        },
        {
            "id": 17595,
            "type": "Feature",
            "geometry": {
                "type": "Point",
                "coordinates": [
                    18.25177,
                    52.7978499
                ]
            },
            "properties": {
                "ref:rspo": 17595,
                "official_name": "Zesp\u00f3\u0142 Szk\u00f3\u0142 Budowlanych im. Genera\u0142a W\u0142adys\u0142awa Sikorskiego w Inowroc\u0142awiu",
                "name": "Zesp\u00f3\u0142 Szk\u00f3\u0142 Budowlanych",
                "addr:country": "PL",
                "addr:postcode": "88-100",
                "addr:city": "Inowroc\u0142aw",
                "addr:street": "Prezydenta Gabriela Narutowicza",
                "addr:housenumber": "34",
                "addr:teryt:simc": 14019,
                "addr:teryt:sym_ul": 928989,
                "contact:phone": "+48 523574680",
                "contact:email": "sekretariat-zspnr5@o2.pl",
                "contact:website": "http:\/\/budowlankaino.com",
                "ref:regon": "093067894",
                "operator": "Powiat Inowroc\u0142awski",
                "operator:type": "government",
                "landuse": "education",
                "fixme": "amenity=school, amenity=college albo landuse=education w zale\u017cno\u015bci od tego, jakie plac\u00f3wki wchodz\u0105 w sk\u0142ad zespo\u0142u. Sprawd\u017a, kiedy stosowa\u0107 amenity=* a kiedy landuse=education.",
                "note": "Children RSPO: 40881;40885"
            }
        },
        {
            "id": 128635,
            "type": "Feature",
            "geometry": {
                "type": "Point",
                "coordinates": [
                    18.25177,
                    52.7978199
                ]
            },
            "properties": {
                "ref:rspo": 128635,
                "official_name": "Niepubliczna Bursa w Inowroc\u0142awiu",
                "name": "Niepubliczna Bursa w Inowroc\u0142awiu",
                "addr:country": "PL",
                "addr:postcode": "88-100",
                "addr:city": "Inowroc\u0142aw",
                "addr:street": "Prezydenta Gabriela Narutowicza",
                "addr:housenumber": "34",
                "addr:teryt:simc": 14019,
                "addr:teryt:sym_ul": 928989,
                "contact:phone": "+48 523573260",
                "ref:regon": "362336426",
                "operator": "Iwona Stanek",
                "operator:type": "private",
                "building": "dormitory"
            }
        },
        {
            "id": 40881,
            "type": "Feature",
            "geometry": {
                "type": "Point",
                "coordinates": [
                    18.25177,
                    52.797789900000005
                ]
            },
            "properties": {
                "isced:level": "3",
                "ref:rspo": 40881,
                "official_name": "Bran\u017cowa Szko\u0142a I Stopnia w Zespole Szk\u00f3\u0142 Budowlanych im. Genera\u0142a W\u0142adys\u0142awa Sikorskiego w Inowroc\u0142awiu",
                "name": "Bran\u017cowa Szko\u0142a I Stopnia w Zespole Szk\u00f3\u0142 Budowlanych",
                "addr:country": "PL",
                "addr:postcode": "88-100",
                "addr:city": "Inowroc\u0142aw",
                "addr:street": "Prezydenta Gabriela Narutowicza",
                "addr:housenumber": "34",
                "addr:teryt:simc": 14019,
                "addr:teryt:sym_ul": 928989,
                "contact:phone": "+48 523574680",
                "contact:email": "sekretariat-zspnr5@o2.pl",
                "ref:regon": "093067902",
                "operator": "Powiat Inowroc\u0142awski",
                "operator:type": "government",
                "amenity": "school",
                "note": "Parent RSPO: 17595"
            }
        },
        {
            "id": 40885,
            "type": "Feature",
            "geometry": {
                "type": "Point",
                "coordinates": [
                    18.25177,
                    52.7977599
                ]
            },
            "properties": {
                "isced:level": "3",
                "ref:rspo": 40885,
                "official_name": "Technikum w Zespole Szk\u00f3\u0142 Budowlanych im. Genera\u0142a W\u0142adys\u0142awa Sikorskiego w Inowroc\u0142awiu",
                "name": "Technikum w Zespole Szk\u00f3\u0142 Budowlanych",
                "addr:country": "PL",
                "addr:postcode": "88-100",
                "addr:city": "Inowroc\u0142aw",
                "addr:street": "Prezydenta Gabriela Narutowicza",
                "addr:housenumber": "34",
                "addr:teryt:simc": 14019,
                "addr:teryt:sym_ul": 928989,
                "contact:phone": "+48 523574680",
                "contact:email": "sekretariat-zspnr5@o2.pl",
                "ref:regon": "093067859",
                "operator": "Powiat Inowroc\u0142awski",
                "operator:type": "government",
                "amenity": "school",
                "note": "Parent RSPO: 17595"
            }
        },
        {
            "id": 18732,
            "type": "Feature",
            "geometry": {
                "type": "Point",
                "coordinates": [
                    18.2624299,
                    52.79786
                ]
            },
            "properties": {
                "ref:rspo": 18732,
                "official_name": "Centrum Kszta\u0142cenia Ustawicznego im. Stefana \u017beromskiego",
                "name": "Centrum Kszta\u0142cenia Ustawicznego",
                "addr:country": "PL",
                "addr:postcode": "88-100",
                "addr:city": "Inowroc\u0142aw",
                "addr:street": "\u015arednia",
                "addr:housenumber": "9",
                "addr:teryt:simc": 22409,
                "addr:teryt:sym_ul": 928989,
                "contact:phone": "+48 523572805",
                "contact:email": "sekretariat@cku-ino.com.pl",
                "contact:website": "http:\/\/cku-ino.com.pl",
                "ref:regon": "000833929",
                "operator": "Powiat Inowroc\u0142awski",
                "operator:type": "government",
                "amenity": "school",
                "fixme": "amenity=school lub amenity=college",
                "note": "Children RSPO: 55496;55500;264193;275742"
            }
        },
        {
            "id": 55496,
            "type": "Feature",
            "geometry": {
                "type": "Point",
                "coordinates": [
                    18.2624299,
                    52.79783
                ]
            },
            "properties": {
                "isced:level": "3",
                "ref:rspo": 55496,
                "official_name": "Liceum Og\u00f3lnokszta\u0142c\u0105ce dla Doros\u0142ych w Centrum Kszta\u0142cenia Ustawicznego im. Stefana \u017beromskiego w Inowroc\u0142awiu",
                "name": "Liceum Og\u00f3lnokszta\u0142c\u0105ce dla Doros\u0142ych w Centrum Kszta\u0142cenia Ustawicznego",
                "addr:country": "PL",
                "addr:postcode": "88-100",
                "addr:city": "Inowroc\u0142aw",
                "addr:street": "\u015arednia",
                "addr:housenumber": "9",
                "addr:teryt:simc": 22409,
                "addr:teryt:sym_ul": 928989,
                "contact:phone": "+48 523572805",
                "ref:regon": "000213747",
                "operator": "Powiat Inowroc\u0142awski",
                "operator:type": "government",
                "amenity": "school",
                "note": "Parent RSPO: 18732"
            }
        },
        {
            "id": 55500,
            "type": "Feature",
            "geometry": {
                "type": "Point",
                "coordinates": [
                    18.2624299,
                    52.7978
                ]
            },
            "properties": {
                "isced:level": "4",
                "ref:rspo": 55500,
                "official_name": "Szko\u0142a Policealna w Centrum Kszta\u0142cenia Ustawicznego im. Stefana \u017beromskiego w Inowroc\u0142awiu",
                "name": "Szko\u0142a Policealna w Centrum Kszta\u0142cenia Ustawicznego",
                "addr:country": "PL",
                "addr:postcode": "88-100",
                "addr:city": "Inowroc\u0142aw",
                "addr:street": "\u015arednia",
                "addr:housenumber": "9",
                "addr:teryt:simc": 22409,
                "addr:teryt:sym_ul": 928989,
                "contact:phone": "+48 523572805",
                "contact:email": "sekretariat@cku-ino.com.pl",
                "contact:website": "http:\/\/www.cku-ino.com.pl",
                "ref:regon": "340095000",
                "operator": "Powiat Inowroc\u0142awski",
                "operator:type": "government",
                "amenity": "college",
                "note": "Parent RSPO: 18732"
            }
        },
        {
            "id": 264193,
            "type": "Feature",
            "geometry": {
                "type": "Point",
                "coordinates": [
                    18.2624299,
                    52.79777
                ]
            },
            "properties": {
                "isced:level": "1;2",
                "ref:rspo": 264193,
                "official_name": "Szko\u0142a Podstawowa dla Doros\u0142ych w Centrum Kszta\u0142cenia Ustawicznego im. Stefana \u017beromskiego w Inowroc\u0142awiu",
                "name": "Szko\u0142a Podstawowa dla Doros\u0142ych w Centrum Kszta\u0142cenia Ustawicznego",
                "addr:country": "PL",
                "addr:postcode": "88-100",
                "addr:city": "Inowroc\u0142aw",
                "addr:street": "\u015arednia",
                "addr:housenumber": "9",
                "addr:teryt:simc": 22409,
                "addr:teryt:sym_ul": 928989,
                "contact:phone": "+48 523572805",
                "contact:email": "sekretariat@cku-ino.com.pl",
                "contact:website": "http:\/\/www.cku-ino.com.pl",
                "ref:regon": "368282594",
                "operator": "Powiat Inowroc\u0142awski",
                "operator:type": "government",
                "amenity": "school",
                "note": "Parent RSPO: 18732"
            }
        },
        {
            "id": 275742,
            "type": "Feature",
            "geometry": {
                "type": "Point",
                "coordinates": [
                    18.2624299,
                    52.79774
                ]
            },
            "properties": {
                "isced:level": "3",
                "ref:rspo": 275742,
                "official_name": "Bran\u017cowa Szko\u0142a II Stopnia w Inowroc\u0142awiu w Centrum Kszta\u0142cenia Ustawicznego im. Stefana \u017beromskiego w Inowroc\u0142awiu",
                "name": "Bran\u017cowa Szko\u0142a II Stopnia w Inowroc\u0142awiu w Centrum Kszta\u0142cenia Ustawicznego",
                "addr:country": "PL",
                "addr:postcode": "88-100",
                "addr:city": "Inowroc\u0142aw",
                "addr:street": "\u015arednia",
                "addr:housenumber": "9",
                "addr:teryt:simc": 22409,
                "addr:teryt:sym_ul": 928989,
                "contact:phone": "+48 523572805",
                "contact:email": "sekretariat@cku-ino.com.pl",
                "ref:regon": "386943550",
                "operator": "Powiat Inowroc\u0142awski",
                "operator:type": "government",
                "amenity": "school",
                "note": "Parent RSPO: 18732"
            }
        },
        {
            "id": 21581,
            "type": "Feature",
            "geometry": {
                "type": "Point",
                "coordinates": [
                    18.26474,
                    52.79791
                ]
            },
            "properties": {
                "ref:rspo": 21581,
                "official_name": "M\u0142odzie\u017cowy Dom Kultury im. Janusza Korczaka w Inowroc\u0142awiu",
                "name": "M\u0142odzie\u017cowy Dom Kultury",
                "addr:country": "PL",
                "addr:postcode": "88-100",
                "addr:city": "Inowroc\u0142aw",
                "addr:street": "Naj\u015bwi\u0119tszej Marii Panny",
                "addr:housenumber": "14",
                "addr:door": "16",
                "addr:teryt:simc": 13947,
                "addr:teryt:sym_ul": 928989,
                "contact:phone": "+48 523070170",
                "contact:email": "dyrektor@mdk-inowroclaw.pl",
                "contact:website": "http:\/\/mdk-inowroclaw.pl",
                "ref:regon": "000218495",
                "operator": "Powiat Inowroc\u0142awski",
                "operator:type": "government",
                "amenity": "community_centre",
                "community_centre:for": "juvenile"
            }
        },
        {
            "id": 4202,
            "type": "Feature",
            "geometry": {
                "type": "Point",
                "coordinates": [
                    18.26457,
                    52.79857
                ]
            },
            "properties": {
                "isced:level": "1;2",
                "ref:rspo": 4202,
                "official_name": "Szko\u0142a Podstawowa Nr 2 im. Panny Maryi",
                "name": "Szko\u0142a Podstawowa Nr 2",
                "addr:country": "PL",
                "addr:postcode": "88-100",
                "addr:city": "Inowroc\u0142aw",
                "addr:street": "Naj\u015bwi\u0119tszej Marii Panny",
                "addr:housenumber": "22\/24",
                "addr:teryt:simc": 13947,
                "addr:teryt:sym_ul": 928989,
                "contact:phone": "+48 523574181",
                "contact:email": "sekretariatsp2ino@wp.pl",
                "ref:regon": "000204926",
                "operator": "Miasto Inowroc\u0142aw",
                "operator:type": "government",
                "amenity": "school"
            }
        },
        {
            "id": 9513,
            "type": "Feature",
            "geometry": {
                "type": "Point",
                "coordinates": [
                    18.26457,
                    52.798539999999996
                ]
            },
            "properties": {
                "isced:level": "3",
                "ref:rspo": 9513,
                "official_name": "Liceum dla Doros\u0142ych Fama",
                "name": "Liceum dla Doros\u0142ych Fama",
                "addr:country": "PL",
                "addr:postcode": "88-100",
                "addr:city": "Inowroc\u0142aw",
                "addr:street": "Naj\u015bwi\u0119tszej Marii Panny",
                "addr:housenumber": "22",
                "addr:door": "24",
                "addr:teryt:simc": 13947,
                "addr:teryt:sym_ul": 928989,
                "contact:phone": "+48 523533089",
                "ref:regon": "341322656",
                "operator": "Pomorskie Towarzystwo Edukacyjne \"Fama\" Sp\u00f3\u0142ka Z Ograniczon\u0105 Odpowiedzialno\u015bci\u0105",
                "operator:type": "private",
                "amenity": "school"
            }
        },
        {
            "id": 4206,
            "type": "Feature",
            "geometry": {
                "type": "Point",
                "coordinates": [
                    18.24887,
                    52.79858
                ]
            },
            "properties": {
                "isced:level": "1;2",
                "ref:rspo": 4206,
                "official_name": "Szko\u0142a Podstawowa Nr 6 im. Miko\u0142aja Kopernika",
                "name": "Szko\u0142a Podstawowa Nr 6",
                "addr:country": "PL",
                "addr:postcode": "88-100",
                "addr:city": "Inowroc\u0142aw",
                "addr:street": "Aleja Miko\u0142aja Kopernika",
                "addr:housenumber": "18",
                "addr:teryt:simc": 9279,
                "addr:teryt:sym_ul": 928989,
                "contact:phone": "+48 523576427",
                "contact:email": "szkola6kopernika@poczta.onet.pl",
                "contact:website": "http:\/\/sp6.inowroclaw.pl",
                "ref:regon": "000208137",
                "operator": "Miasto Inowroc\u0142aw",
                "operator:type": "government",
                "amenity": "school"
            }
        },
        {
            "id": 132316,
            "type": "Feature",
            "geometry": {
                "type": "Point",
                "coordinates": [
                    18.26381,
                    52.79866
                ]
            },
            "properties": {
                "isced:level": "3",
                "ref:rspo": 132316,
                "official_name": "Inowroc\u0142awskie Technikum im. Henryka Arctowskiego w Inowroc\u0142awiu",
                "name": "Inowroc\u0142awskie Technikum",
                "addr:country": "PL",
                "addr:postcode": "88-100",
                "addr:city": "Inowroc\u0142aw",
                "addr:street": "Naj\u015bwi\u0119tszej Marii Panny",
                "addr:housenumber": "23",
                "addr:teryt:simc": 13947,
                "addr:teryt:sym_ul": 928989,
                "contact:phone": "+48 523533089",
                "ref:regon": "365545662",
                "operator": "Pomorskie Towarzystwo Edukacyjne \"Fama\" Sp\u00f3\u0142ka Z Ograniczon\u0105 Odpowiedzialno\u015bci\u0105",
                "operator:type": "private",
                "amenity": "school"
            }
        },
        {
            "id": 270655,
            "type": "Feature",
            "geometry": {
                "type": "Point",
                "coordinates": [
                    18.26381,
                    52.798629999999996
                ]
            },
            "properties": {
                "ref:rspo": 270655,
                "official_name": "Przdszkole Niepubliczne \" Gucio\" Z Oddzia\u0142ami Integracyjnymi I Oddzia\u0142ami Specjalnymi",
                "name": "Przdszkole Niepubliczne \" Gucio\" Z Oddzia\u0142ami Integracyjnymi I Oddzia\u0142ami Specjalnymi",
                "addr:country": "PL",
                "addr:postcode": "88-100",
                "addr:city": "Inowroc\u0142aw",
                "addr:street": "Naj\u015bwi\u0119tszej Marii Panny",
                "addr:housenumber": "23",
                "addr:teryt:simc": 13947,
                "addr:teryt:sym_ul": 928989,
                "contact:phone": "+48 698902481",
                "contact:email": "npo.inowroclaw@gmail.com",
                "ref:regon": "382847275",
                "operator": "Policealne Studium Zawodowe Sp\u00f3\u0142ka Z Ograniczon\u0105 Odpowiedzialno\u015bci\u0105",
                "operator:type": "private",
                "amenity": "kindergarten"
            }
        },
        {
            "id": 272148,
            "type": "Feature",
            "geometry": {
                "type": "Point",
                "coordinates": [
                    18.24095,
                    52.79891
                ]
            },
            "properties": {
                "ref:rspo": 272148,
                "official_name": "Centrum Terapii Sensuo Niepubliczna Poradnia Psychologiczno-Pedagogiczna w Inowroc\u0142awiu",
                "name": "Centrum Terapii Sensuo Niepubliczna Poradnia Psychologiczno-Pedagogiczna w Inowroc\u0142awiu",
                "addr:country": "PL",
                "addr:postcode": "88-100",
                "addr:city": "Inowroc\u0142aw",
                "addr:street": "Aleja Okr\u0119\u017cna",
                "addr:housenumber": "79",
                "addr:teryt:simc": 14905,
                "addr:teryt:sym_ul": 928989,
                "contact:email": "fundacja@sensuo.pl",
                "contact:website": "http:\/\/sensuo.pl",
                "ref:regon": "383961286",
                "operator": "Fundacja Na Rzecz Dzieci Z Dysfunkcjami Psychomotorycznymi Oraz Ich Rodzin \"Sensuo\"",
                "operator:type": "ngo",
                "healthcare": "counselling",
                "counselling_type": "education",
                "fixme": "w zale\u017cno\u015bci od przedmiotu dzia\u0142alno\u015bci (np. healthcare=counselling + counselling_type=education albo healthcare=psychotherapist)"
            }
        },
        {
            "id": 17594,
            "type": "Feature",
            "geometry": {
                "type": "Point",
                "coordinates": [
                    18.25366,
                    52.79944
                ]
            },
            "properties": {
                "ref:rspo": 17594,
                "official_name": "Zesp\u00f3\u0142 Szk\u00f3\u0142 Mechaniczno-Elektrycznych w Inowroc\u0142awiu",
                "name": "Zesp\u00f3\u0142 Szk\u00f3\u0142 Mechaniczno-Elektrycznych w Inowroc\u0142awiu",
                "addr:country": "PL",
                "addr:postcode": "88-100",
                "addr:city": "Inowroc\u0142aw",
                "addr:street": "Dworcowa",
                "addr:housenumber": "25",
                "addr:teryt:simc": 4434,
                "addr:teryt:sym_ul": 928989,
                "contact:phone": "+48 523576091",
                "contact:email": "zspnr3_inowroclaw@poczta.fm",
                "contact:website": "http:\/\/zspnr3inowroclaw.internetdsl.pl",
                "ref:regon": "000192703",
                "operator": "Powiat Inowroc\u0142awski",
                "operator:type": "government",
                "landuse": "education",
                "fixme": "amenity=school, amenity=college albo landuse=education w zale\u017cno\u015bci od tego, jakie plac\u00f3wki wchodz\u0105 w sk\u0142ad zespo\u0142u. Sprawd\u017a, kiedy stosowa\u0107 amenity=* a kiedy landuse=education.",
                "note": "Children RSPO: 25751;25752"
            }
        },
        {
            "id": 21583,
            "type": "Feature",
            "geometry": {
                "type": "Point",
                "coordinates": [
                    18.25366,
                    52.799409999999995
                ]
            },
            "properties": {
                "ref:rspo": 21583,
                "official_name": "Centrum Kszta\u0142cenia Zawodowego w Inowroc\u0142awiu",
                "name": "Centrum Kszta\u0142cenia Zawodowego w Inowroc\u0142awiu",
                "addr:country": "PL",
                "addr:postcode": "88-100",
                "addr:city": "Inowroc\u0142aw",
                "addr:street": "Dworcowa",
                "addr:housenumber": "25",
                "addr:teryt:simc": 4434,
                "addr:teryt:sym_ul": 928989,
                "contact:phone": "+48 523573006",
                "contact:email": "ckpino@poczta.onet.pl",
                "contact:website": "http:\/\/ckpino.pl",
                "ref:regon": "092914010",
                "operator": "Powiat Inowroc\u0142awski",
                "operator:type": "government",
                "fixme": "w zale\u017cno\u015bci od przedmiotu dzia\u0142alno\u015bci (np. amenity=training + training=*, amenity=dancing_school, amenity=language_school, amenity=music_school) albo amenity=school, amenity=college, albo landuse=education w zale\u017cno\u015bci od tego, jakie plac\u00f3wki wchodz\u0105 w sk\u0142ad zespo\u0142u. Sprawd\u017a, kiedy stosowa\u0107 amenity=* a kiedy landuse=education."
            }
        },
        {
            "id": 25751,
            "type": "Feature",
            "geometry": {
                "type": "Point",
                "coordinates": [
                    18.25366,
                    52.79938
                ]
            },
            "properties": {
                "isced:level": "3",
                "ref:rspo": 25751,
                "official_name": "Bran\u017cowa Szko\u0142a I Stopnia w Zespole Szk\u00f3\u0142 Mechaniczno-Elektrycznych w Inowroc\u0142awiu",
                "name": "Bran\u017cowa Szko\u0142a I Stopnia w Zespole Szk\u00f3\u0142 Mechaniczno-Elektrycznych w Inowroc\u0142awiu",
                "addr:country": "PL",
                "addr:postcode": "88-100",
                "addr:city": "Inowroc\u0142aw",
                "addr:street": "Dworcowa",
                "addr:housenumber": "25",
                "addr:teryt:simc": 4434,
                "addr:teryt:sym_ul": 928989,
                "contact:phone": "+48 523576091",
                "ref:regon": "093052734",
                "operator": "Powiat Inowroc\u0142awski",
                "operator:type": "government",
                "amenity": "school",
                "note": "Parent RSPO: 17594"
            }
        },
        {
            "id": 25752,
            "type": "Feature",
            "geometry": {
                "type": "Point",
                "coordinates": [
                    18.25366,
                    52.79935
                ]
            },
            "properties": {
                "isced:level": "3",
                "ref:rspo": 25752,
                "official_name": "Technikum w Zespole Szk\u00f3\u0142 Mechaniczno-Elektrycznych w Inowroc\u0142awiu",
                "name": "Technikum w Zespole Szk\u00f3\u0142 Mechaniczno-Elektrycznych w Inowroc\u0142awiu",
                "addr:country": "PL",
                "addr:postcode": "88-100",
                "addr:city": "Inowroc\u0142aw",
                "addr:street": "Dworcowa",
                "addr:housenumber": "25",
                "addr:teryt:simc": 4434,
                "addr:teryt:sym_ul": 928989,
                "contact:phone": "+48 523576091",
                "ref:regon": "093068161",
                "operator": "Powiat Inowroc\u0142awski",
                "operator:type": "government",
                "amenity": "school",
                "note": "Parent RSPO: 17594"
            }
        },
        {
            "id": 262653,
            "type": "Feature",
            "geometry": {
                "type": "Point",
                "coordinates": [
                    18.24269,
                    52.79946
                ]
            },
            "properties": {
                "isced:level": "1;2",
                "ref:rspo": 262653,
                "official_name": "Szko\u0142a Podstawowa Nr 14 Z Oddzia\u0142ami Dwuj\u0119zycznymi im.zygmunta Wilko\u0144skiego",
                "name": "Szko\u0142a Podstawowa Nr 14 Z Oddzia\u0142ami Dwuj\u0119zycznymi im.zygmunta Wilko\u0144skiego",
                "addr:country": "PL",
                "addr:postcode": "88-100",
                "addr:city": "Inowroc\u0142aw",
                "addr:street": "Ignacego Daszy\u0144skiego",
                "addr:housenumber": "29",
                "addr:teryt:simc": 3639,
                "addr:teryt:sym_ul": 928989,
                "contact:phone": "+48 523552444",
                "contact:email": "sp-14inowroclaw@wp.pl",
                "contact:website": "http:\/\/www.sp14ino.pl",
                "ref:regon": "368046333",
                "operator": "Miasto Inowroc\u0142aw",
                "operator:type": "government",
                "amenity": "school"
            }
        },
        {
            "id": 4210,
            "type": "Feature",
            "geometry": {
                "type": "Point",
                "coordinates": [
                    18.264320373535,
                    52.79951095581
                ]
            },
            "properties": {
                "isced:level": "1;2",
                "ref:rspo": 4210,
                "official_name": "Szko\u0142a Podstawowa Nr 16 im. Jana Paw\u0142a Ii",
                "name": "Szko\u0142a Podstawowa Nr 16",
                "addr:country": "PL",
                "addr:postcode": "88-100",
                "addr:city": "Inowroc\u0142aw",
                "addr:street": "Zygmunta Kurka",
                "addr:housenumber": "16",
                "addr:teryt:simc": 43084,
                "addr:teryt:sym_ul": 928989,
                "contact:phone": "+48 523574180",
                "contact:email": "sekretariat@sp16.eu",
                "contact:website": "http:\/\/www.sp16.eu",
                "ref:regon": "000211731",
                "operator": "Miasto Inowroc\u0142aw",
                "operator:type": "government",
                "amenity": "school"
            }
        },
        {
            "id": 9514,
            "type": "Feature",
            "geometry": {
                "type": "Point",
                "coordinates": [
                    18.264320373535,
                    52.79948095581
                ]
            },
            "properties": {
                "isced:level": "4",
                "ref:rspo": 9514,
                "official_name": "Policealne Medyczne Studium Zawodowe \"Fama\"",
                "name": "Policealne Medyczne Studium Zawodowe \"Fama\"",
                "addr:country": "PL",
                "addr:postcode": "88-100",
                "addr:city": "Inowroc\u0142aw",
                "addr:street": "3 Maja",
                "addr:housenumber": "11",
                "addr:door": "13",
                "addr:teryt:simc": 11937,
                "addr:teryt:sym_ul": 928989,
                "contact:phone": "+48 523533089",
                "contact:email": "fama-ino@wp.pl",
                "ref:regon": "341322685",
                "operator": "Pomorskie Towarzystwo Edukacyjne \"Fama\" Sp\u00f3\u0142ka Z Ograniczon\u0105 Odpowiedzialno\u015bci\u0105",
                "operator:type": "private",
                "amenity": "college"
            }
        },
        {
            "id": 9515,
            "type": "Feature",
            "geometry": {
                "type": "Point",
                "coordinates": [
                    18.264320373535,
                    52.79945095581
                ]
            },
            "properties": {
                "isced:level": "4",
                "ref:rspo": 9515,
                "official_name": "Policealne Studium Zawodowe \"Fama\" im. Henryka Arctowskiego",
                "name": "Policealne Studium Zawodowe \"Fama\"",
                "addr:country": "PL",
                "addr:postcode": "88-100",
                "addr:city": "Inowroc\u0142aw",
                "addr:street": "3 Maja",
                "addr:housenumber": "11",
                "addr:door": "13",
                "addr:teryt:simc": 11937,
                "addr:teryt:sym_ul": 928989,
                "contact:phone": "+48 523533089",
                "contact:email": "fama-ino@wp.pl",
                "ref:regon": "341322700",
                "operator": "Pomorskie Towarzystwo Edukacyjne \"Fama\" Sp\u00f3\u0142ka Z Ograniczon\u0105 Odpowiedzialno\u015bci\u0105",
                "operator:type": "private",
                "amenity": "college"
            }
        },
        {
            "id": 21855,
            "type": "Feature",
            "geometry": {
                "type": "Point",
                "coordinates": [
                    18.264320373535,
                    52.79942095581
                ]
            },
            "properties": {
                "isced:level": "3",
                "ref:rspo": 21855,
                "official_name": "I Liceum Og\u00f3lnokszta\u0142c\u0105ce im. Jana Kasprowicza Z Oddzia\u0142ami Dwuj\u0119zycznymi w Inowroc\u0142awiu",
                "name": "I Liceum Og\u00f3lnokszta\u0142c\u0105ce",
                "addr:country": "PL",
                "addr:postcode": "88-100",
                "addr:city": "Inowroc\u0142aw",
                "addr:street": "3 Maja",
                "addr:housenumber": "11",
                "addr:teryt:simc": 11937,
                "addr:teryt:sym_ul": 928989,
                "contact:phone": "+48 523572207",
                "contact:email": "szkola@kasprowicz.az.pl",
                "contact:website": "http:\/\/kasprowicz.az.pl",
                "ref:regon": "000212676",
                "ref:vatin": "PL5561149564",
                "operator": "Powiat Inowroc\u0142awski",
                "operator:type": "government",
                "amenity": "school"
            }
        },
        {
            "id": 3098,
            "type": "Feature",
            "geometry": {
                "type": "Point",
                "coordinates": [
                    18.2467599,
                    52.7996399
                ]
            },
            "properties": {
                "ref:rspo": 3098,
                "official_name": "Przedszkole Nr 2 \"U Jasia I Ma\u0142gosi\"",
                "name": "Przedszkole Nr 2 \"U Jasia I Ma\u0142gosi\"",
                "addr:country": "PL",
                "addr:postcode": "88-100",
                "addr:city": "Inowroc\u0142aw",
                "addr:street": "Harcerstwa Polskiego",
                "addr:housenumber": "6A",
                "addr:teryt:simc": 6524,
                "addr:teryt:sym_ul": 928989,
                "contact:phone": "+48 523574244",
                "contact:email": "biuro@przedszkole2ino.pl",
                "contact:website": "http:\/\/www.przedszkole2ino.pl",
                "ref:regon": "000214646",
                "operator": "Miasto Inowroc\u0142aw",
                "operator:type": "government",
                "amenity": "kindergarten"
            }
        },
        {
            "id": 122771,
            "type": "Feature",
            "geometry": {
                "type": "Point",
                "coordinates": [
                    18.26269,
                    52.7998849
                ]
            },
            "properties": {
                "isced:level": "3",
                "ref:rspo": 122771,
                "official_name": "Akademia Szkolnictwa \"As\" Bran\u017cowa Szko\u0142a I Stopnia w Inowroc\u0142awiu",
                "name": "Akademia Szkolnictwa \"As\" Bran\u017cowa Szko\u0142a I Stopnia w Inowroc\u0142awiu",
                "addr:country": "PL",
                "addr:postcode": "88-100",
                "addr:city": "Inowroc\u0142aw",
                "addr:street": "Biskupa Antoniego Laubitza",
                "addr:housenumber": "9",
                "addr:teryt:simc": 10712,
                "addr:teryt:sym_ul": 928989,
                "contact:phone": "+48 690665990",
                "contact:email": "sekretariat@akademiaszkolnictwa.pl",
                "contact:website": "http:\/\/www.akademiaszkolnictwa.pl",
                "ref:regon": "341562410",
                "operator": "W\u0142odzimierz Peta",
                "operator:type": "private",
                "amenity": "school"
            }
        },
        {
            "id": 3362,
            "type": "Feature",
            "geometry": {
                "type": "Point",
                "coordinates": [
                    18.2434,
                    52.80008
                ]
            },
            "properties": {
                "ref:rspo": 3362,
                "official_name": "Niepubliczne Przedszkole Z Oddzia\u0142ami Integracyjnymi \"Ciuchcia\"",
                "name": "Niepubliczne Przedszkole Z Oddzia\u0142ami Integracyjnymi \"Ciuchcia\"",
                "addr:country": "PL",
                "addr:postcode": "88-100",
                "addr:city": "Inowroc\u0142aw",
                "addr:street": "Armii Krajowej",
                "addr:housenumber": "16",
                "addr:teryt:simc": 432,
                "addr:teryt:sym_ul": 928989,
                "contact:phone": "+48 660427513",
                "contact:email": "przedszkoleciuchcia@wp.pl",
                "ref:regon": "341313077",
                "operator": "Joanna Pabisz",
                "operator:type": "private",
                "amenity": "kindergarten"
            }
        },
        {
            "id": 125083,
            "type": "Feature",
            "geometry": {
                "type": "Point",
                "coordinates": [
                    18.26554,
                    52.80031
                ]
            },
            "properties": {
                "isced:level": "3",
                "ref:rspo": 125083,
                "official_name": "Zaoczne Liceum Og\u00f3lnokszta\u0142c\u0105ce dla Doros\u0142ych \"Cosinus Plus\" w Inowroc\u0142awiu",
                "name": "Zaoczne Liceum Og\u00f3lnokszta\u0142c\u0105ce dla Doros\u0142ych \"Cosinus Plus\" w Inowroc\u0142awiu",
                "addr:country": "PL",
                "addr:postcode": "88-100",
                "addr:city": "Inowroc\u0142aw",
                "addr:street": "Toru\u0144ska",
                "addr:housenumber": "46-48",
                "addr:teryt:simc": 22902,
                "addr:teryt:sym_ul": 928989,
                "contact:email": "inowroclaw@cosinus.pl",
                "contact:website": "http:\/\/www.cosinus.pl\/inowroclaw",
                "ref:regon": "341624624",
                "operator": "\"Fundacja Conatus\"",
                "operator:type": "ngo",
                "amenity": "school"
            }
        },
        {
            "id": 125084,
            "type": "Feature",
            "geometry": {
                "type": "Point",
                "coordinates": [
                    18.26554,
                    52.80028
                ]
            },
            "properties": {
                "isced:level": "4",
                "ref:rspo": 125084,
                "official_name": "Szko\u0142a Policealna \"Cosinus Plus\" w Inowroc\u0142awiu",
                "name": "Szko\u0142a Policealna \"Cosinus Plus\" w Inowroc\u0142awiu",
                "addr:country": "PL",
                "addr:postcode": "88-100",
                "addr:city": "Inowroc\u0142aw",
                "addr:street": "Toru\u0144ska",
                "addr:housenumber": "46-48",
                "addr:teryt:simc": 22902,
                "addr:teryt:sym_ul": 928989,
                "contact:email": "inowroclaw@cosinus.pl",
                "contact:website": "http:\/\/www.cosinus.pl\/inowroclaw",
                "ref:regon": "341624660",
                "operator": "\"Fundacja Conatus\"",
                "operator:type": "ngo",
                "amenity": "college"
            }
        },
        {
            "id": 125171,
            "type": "Feature",
            "geometry": {
                "type": "Point",
                "coordinates": [
                    18.26554,
                    52.800250000000005
                ]
            },
            "properties": {
                "isced:level": "4",
                "ref:rspo": 125171,
                "official_name": "Medyczna Szko\u0142a Policealna \"Cosinus\" w Inowroc\u0142awiu",
                "name": "Medyczna Szko\u0142a Policealna \"Cosinus\" w Inowroc\u0142awiu",
                "addr:country": "PL",
                "addr:postcode": "88-100",
                "addr:city": "Inowroc\u0142aw",
                "addr:street": "Toru\u0144ska",
                "addr:housenumber": "46-48",
                "addr:teryt:simc": 22902,
                "addr:teryt:sym_ul": 928989,
                "contact:email": "inowroclaw@cosinus.pl",
                "contact:website": "http:\/\/cosinus.pl",
                "ref:regon": "341625405",
                "operator": "\"Fundacja Conatus\"",
                "operator:type": "ngo",
                "amenity": "college"
            }
        },
        {
            "id": 262594,
            "type": "Feature",
            "geometry": {
                "type": "Point",
                "coordinates": [
                    18.26554,
                    52.80022
                ]
            },
            "properties": {
                "isced:level": "1;2",
                "ref:rspo": 262594,
                "official_name": "Szko\u0142a Podstawowa Nr 1 im. \u015aw. Wojciecha",
                "name": "Szko\u0142a Podstawowa Nr 1",
                "addr:country": "PL",
                "addr:postcode": "88-100",
                "addr:city": "Inowroc\u0142aw",
                "addr:street": "Toru\u0144ska",
                "addr:housenumber": "46-48",
                "addr:teryt:simc": 22902,
                "addr:teryt:sym_ul": 928989,
                "contact:phone": "+48 523574182",
                "contact:email": "sekretariat@sp1ino.pl",
                "contact:website": "http:\/\/sp1ino.pl\/",
                "ref:regon": "368039586",
                "ref:vatin": "PL5562770651",
                "operator": "Miasto Inowroc\u0142aw",
                "operator:type": "government",
                "amenity": "school"
            }
        },
        {
            "id": 269847,
            "type": "Feature",
            "geometry": {
                "type": "Point",
                "coordinates": [
                    18.26554,
                    52.80019
                ]
            },
            "properties": {
                "ref:rspo": 269847,
                "official_name": "Niepubliczna Plac\u00f3wka Kszta\u0142cenia Ustawicznego \"Cosinus Plus\" w Inowroc\u0142awiu",
                "name": "Niepubliczna Plac\u00f3wka Kszta\u0142cenia Ustawicznego \"Cosinus Plus\" w Inowroc\u0142awiu",
                "addr:country": "PL",
                "addr:postcode": "88-100",
                "addr:city": "Inowroc\u0142aw",
                "addr:street": "Toru\u0144ska",
                "addr:housenumber": "46-48",
                "addr:teryt:simc": 22902,
                "addr:teryt:sym_ul": 928989,
                "contact:phone": "+48 505273665",
                "contact:email": "inowroclaw@cosinus.pl",
                "contact:website": "http:\/\/cosinus.pl",
                "ref:regon": "381791667",
                "operator": "\"Fundacja Equamp-Fiz\"",
                "operator:type": "ngo",
                "fixme": "w zale\u017cno\u015bci od przedmiotu dzia\u0142alno\u015bci (np. amenity=training + training=*, amenity=dancing_school, amenity=language_school, amenity=music_school)"
            }
        },
        {
            "id": 132487,
            "type": "Feature",
            "geometry": {
                "type": "Point",
                "coordinates": [
                    18.25327,
                    52.80072
                ]
            },
            "properties": {
                "ref:rspo": 132487,
                "official_name": "Kujawskie Centrum Pomocy Psychologiczno-Pedagogicznej w Inowroc\u0142awiu",
                "name": "Kujawskie Centrum Pomocy Psychologiczno-Pedagogicznej w Inowroc\u0142awiu",
                "addr:country": "PL",
                "addr:postcode": "88-100",
                "addr:city": "Inowroc\u0142aw",
                "addr:street": "Dworcowa",
                "addr:housenumber": "31",
                "addr:teryt:simc": 4434,
                "addr:teryt:sym_ul": 928989,
                "contact:phone": "+48 604150538",
                "contact:email": "kujawskiecentrum@gmail.com",
                "ref:regon": "365675590",
                "operator": "Paulina \u0141yk-Budna",
                "operator:type": "private",
                "healthcare": "counselling",
                "counselling_type": "education",
                "fixme": "w zale\u017cno\u015bci od przedmiotu dzia\u0142alno\u015bci (np. healthcare=counselling + counselling_type=education albo healthcare=psychotherapist)"
            }
        },
        {
            "id": 56381,
            "type": "Feature",
            "geometry": {
                "type": "Point",
                "coordinates": [
                    18.24927,
                    52.80384
                ]
            },
            "properties": {
                "ref:rspo": 56381,
                "official_name": "O\u015brodek Doskonalenia Nauczycieli Fundacji Ekspert - Kujawy",
                "name": "O\u015brodek Doskonalenia Nauczycieli Fundacji Ekspert - Kujawy",
                "addr:country": "PL",
                "addr:postcode": "88-100",
                "addr:city": "Inowroc\u0142aw",
                "addr:street": "Dworcowa",
                "addr:housenumber": "65",
                "addr:teryt:simc": 4434,
                "addr:teryt:sym_ul": 928989,
                "contact:phone": "+48 523576215",
                "contact:email": "odn@ekspert-kujawy.pl",
                "contact:website": "http:\/\/www.fundacja.ekspert-kujawy.pl",
                "ref:regon": "341342890",
                "ref:vatin": "PL5562417498",
                "operator": "\"Fundacja Ekspert-Kujawy\"",
                "operator:type": "ngo",
                "amenity": "training"
            }
        },
        {
            "id": 125082,
            "type": "Feature",
            "geometry": {
                "type": "Point",
                "coordinates": [
                    18.24927,
                    52.80381
                ]
            },
            "properties": {
                "ref:rspo": 125082,
                "official_name": "Plac\u00f3wka Kszta\u0142cenia Ustawicznego \"Perspektywa\" w Inowroc\u0142awiu",
                "name": "Plac\u00f3wka Kszta\u0142cenia Ustawicznego \"Perspektywa\" w Inowroc\u0142awiu",
                "addr:country": "PL",
                "addr:postcode": "88-100",
                "addr:city": "Inowroc\u0142aw",
                "addr:street": "Dworcowa",
                "addr:housenumber": "65",
                "addr:teryt:simc": 4434,
                "addr:teryt:sym_ul": 928989,
                "contact:phone": "+48 523576215",
                "ref:regon": "341624541",
                "operator": "\"Fundacja Ekspert-Kujawy\"",
                "operator:type": "ngo",
                "fixme": "w zale\u017cno\u015bci od przedmiotu dzia\u0142alno\u015bci (np. amenity=training + training=*, amenity=dancing_school, amenity=language_school, amenity=music_school)"
            }
        },
        {
            "id": 29530,
            "type": "Feature",
            "geometry": {
                "type": "Point",
                "coordinates": [
                    18.24506,
                    52.80417
                ]
            },
            "properties": {
                "ref:rspo": 29530,
                "official_name": "Przedszkole Niepubliczne \"Smyk\" Sp Z O.o.",
                "name": "Przedszkole Niepubliczne \"Smyk\" Sp Z O.o.",
                "addr:country": "PL",
                "addr:postcode": "88-100",
                "addr:city": "Inowroc\u0142aw",
                "addr:street": "Magazynowa",
                "addr:housenumber": "23",
                "addr:teryt:simc": 11891,
                "addr:teryt:sym_ul": 928989,
                "contact:phone": "+48 509907172",
                "contact:email": "smykprzedszkole@wp.pl",
                "contact:website": "http:\/\/smykprzedszkole.pl\/",
                "ref:regon": "341338812",
                "operator": "Przedszkole Niepubliczne Smyk Sp\u00f3\u0142ka Z Ograniczon\u0105 Odpowiedzialno\u015bci\u0105",
                "operator:type": "private",
                "amenity": "kindergarten"
            }
        },
        {
            "id": 9570,
            "type": "Feature",
            "geometry": {
                "type": "Point",
                "coordinates": [
                    18.2467599,
                    52.80801
                ]
            },
            "properties": {
                "isced:level": "4",
                "ref:rspo": 9570,
                "official_name": "Policealne Studium Zawodowe",
                "name": "Policealne Studium Zawodowe",
                "addr:country": "PL",
                "addr:postcode": "88-100",
                "addr:city": "Inowroc\u0142aw",
                "addr:street": "Szklarska",
                "addr:housenumber": "7",
                "addr:teryt:simc": 21962,
                "addr:teryt:sym_ul": 928989,
                "contact:phone": "+48 523571597",
                "ref:regon": "341322751",
                "operator": "Iwona Stanek",
                "operator:type": "private",
                "amenity": "college"
            }
        },
        {
            "id": 9646,
            "type": "Feature",
            "geometry": {
                "type": "Point",
                "coordinates": [
                    18.2467599,
                    52.80798
                ]
            },
            "properties": {
                "isced:level": "3",
                "ref:rspo": 9646,
                "official_name": "Technikum Fryzjerskie w Inowroc\u0142awiu",
                "name": "Technikum Fryzjerskie w Inowroc\u0142awiu",
                "addr:country": "PL",
                "addr:postcode": "88-100",
                "addr:city": "Inowroc\u0142aw",
                "addr:street": "Szklarska",
                "addr:housenumber": "7",
                "addr:teryt:simc": 21962,
                "addr:teryt:sym_ul": 928989,
                "contact:phone": "+48 523832780",
                "contact:email": "psz_tempus@op.pl",
                "ref:regon": "341322768",
                "operator": "Magdalena Wojciechowska",
                "operator:type": "private",
                "amenity": "school"
            }
        },
        {
            "id": 9672,
            "type": "Feature",
            "geometry": {
                "type": "Point",
                "coordinates": [
                    18.2467599,
                    52.807950000000005
                ]
            },
            "properties": {
                "isced:level": "3",
                "ref:rspo": 9672,
                "official_name": "Liceum Og\u00f3lnokszta\u0142c\u0105ce dla Doros\u0142ych",
                "name": "Liceum Og\u00f3lnokszta\u0142c\u0105ce dla Doros\u0142ych",
                "addr:country": "PL",
                "addr:postcode": "88-100",
                "addr:city": "Inowroc\u0142aw",
                "addr:street": "Szklarska",
                "addr:housenumber": "7",
                "addr:teryt:simc": 21962,
                "addr:teryt:sym_ul": 928989,
                "contact:phone": "+48 523571597",
                "ref:regon": "341322774",
                "operator": "Iwona Stanek",
                "operator:type": "private",
                "amenity": "school"
            }
        },
        {
            "id": 9702,
            "type": "Feature",
            "geometry": {
                "type": "Point",
                "coordinates": [
                    18.2467599,
                    52.80792
                ]
            },
            "properties": {
                "isced:level": "3",
                "ref:rspo": 9702,
                "official_name": "Technikum Informatyczne w Inowroc\u0142awiu",
                "name": "Technikum Informatyczne w Inowroc\u0142awiu",
                "addr:country": "PL",
                "addr:postcode": "88-100",
                "addr:city": "Inowroc\u0142aw",
                "addr:street": "Szklarska",
                "addr:housenumber": "7",
                "addr:teryt:simc": 21962,
                "addr:teryt:sym_ul": 928989,
                "contact:phone": "+48 523832780",
                "contact:email": "psz_tempus@op.pl",
                "ref:regon": "341322797",
                "operator": "Magdalena Wojciechowska",
                "operator:type": "private",
                "amenity": "school"
            }
        },
        {
            "id": 9721,
            "type": "Feature",
            "geometry": {
                "type": "Point",
                "coordinates": [
                    18.2467599,
                    52.80789
                ]
            },
            "properties": {
                "isced:level": "3",
                "ref:rspo": 9721,
                "official_name": "Technikum Hotelarskie w Inowroc\u0142awiu",
                "name": "Technikum Hotelarskie w Inowroc\u0142awiu",
                "addr:country": "PL",
                "addr:postcode": "88-100",
                "addr:city": "Inowroc\u0142aw",
                "addr:street": "Szklarska",
                "addr:housenumber": "7",
                "addr:teryt:simc": 21962,
                "addr:teryt:sym_ul": 928989,
                "contact:phone": "+48 523571597",
                "ref:regon": "341322811",
                "operator": "Magdalena Wojciechowska",
                "operator:type": "private",
                "amenity": "school"
            }
        },
        {
            "id": 9733,
            "type": "Feature",
            "geometry": {
                "type": "Point",
                "coordinates": [
                    18.2467599,
                    52.807860000000005
                ]
            },
            "properties": {
                "isced:level": "3",
                "ref:rspo": 9733,
                "official_name": "Liceum Og\u00f3lnokszta\u0142c\u0105ce dla M\u0142odzie\u017cy w Inowroc\u0142awiu",
                "name": "Liceum Og\u00f3lnokszta\u0142c\u0105ce dla M\u0142odzie\u017cy w Inowroc\u0142awiu",
                "addr:country": "PL",
                "addr:postcode": "88-100",
                "addr:city": "Inowroc\u0142aw",
                "addr:street": "Szklarska",
                "addr:housenumber": "7",
                "addr:teryt:simc": 21962,
                "addr:teryt:sym_ul": 928989,
                "contact:phone": "+48 523832780",
                "contact:email": "psz_tempus@op.pl",
                "ref:regon": "341322805",
                "operator": "Magdalena Wojciechowska",
                "operator:type": "private",
                "amenity": "school"
            }
        },
        {
            "id": 120706,
            "type": "Feature",
            "geometry": {
                "type": "Point",
                "coordinates": [
                    18.2467599,
                    52.80783
                ]
            },
            "properties": {
                "isced:level": "1;2",
                "ref:rspo": 120706,
                "official_name": "Niepubliczna Szko\u0142a Podstawowa w Inowroc\u0142awiu",
                "name": "Niepubliczna Szko\u0142a Podstawowa w Inowroc\u0142awiu",
                "addr:country": "PL",
                "addr:postcode": "88-100",
                "addr:city": "Inowroc\u0142aw",
                "addr:street": "Szklarska",
                "addr:housenumber": "7",
                "addr:teryt:simc": 21962,
                "addr:teryt:sym_ul": 928989,
                "contact:phone": "+48 523531254",
                "contact:email": "nspino@op.pl",
                "contact:website": "http:\/\/www.szkola-inowroclaw.pl",
                "ref:regon": "341498071",
                "operator": "Monika Stanek",
                "operator:type": "private",
                "amenity": "school"
            }
        },
        {
            "id": 127476,
            "type": "Feature",
            "geometry": {
                "type": "Point",
                "coordinates": [
                    18.2467599,
                    52.8078
                ]
            },
            "properties": {
                "ref:rspo": 127476,
                "official_name": "Niepubliczna Poradnia Psychologiczno-Pedagogiczna w Inowroc\u0142awiu",
                "name": "Niepubliczna Poradnia Psychologiczno-Pedagogiczna w Inowroc\u0142awiu",
                "addr:country": "PL",
                "addr:postcode": "88-100",
                "addr:city": "Inowroc\u0142aw",
                "addr:street": "Szklarska",
                "addr:housenumber": "7",
                "addr:teryt:simc": 21962,
                "addr:teryt:sym_ul": 928989,
                "contact:phone": "+48 523571597",
                "ref:regon": "361642457",
                "operator": "Monika Stanek",
                "operator:type": "private",
                "healthcare": "counselling",
                "counselling_type": "education",
                "fixme": "w zale\u017cno\u015bci od przedmiotu dzia\u0142alno\u015bci (np. healthcare=counselling + counselling_type=education albo healthcare=psychotherapist)"
            }
        },
        {
            "id": 274221,
            "type": "Feature",
            "geometry": {
                "type": "Point",
                "coordinates": [
                    18.2467599,
                    52.807770000000005
                ]
            },
            "properties": {
                "ref:rspo": 274221,
                "official_name": "Niepubliczna Szko\u0142a Specjalna Przysposabiaj\u0105ca Do Pracy w Inowroc\u0142awiu",
                "name": "Niepubliczna Szko\u0142a Specjalna Przysposabiaj\u0105ca Do Pracy w Inowroc\u0142awiu",
                "addr:country": "PL",
                "addr:postcode": "88-100",
                "addr:city": "Inowroc\u0142aw",
                "addr:street": "Szklarska",
                "addr:housenumber": "7",
                "addr:teryt:simc": 21962,
                "addr:teryt:sym_ul": 928989,
                "contact:phone": "+48 523571597",
                "ref:regon": "385437968",
                "operator": "Niepubliczne Plac\u00f3wki O\u015bwiatowe Sp\u00f3\u0142ka Z Ograniczon\u0105 Odpowiedzialno\u015bci\u0105",
                "operator:type": "private",
                "amenity": "school"
            }
        }
    ]
}