{
    "type": "FeatureCollection",
    "features": [
        {
            "id": 58574,
            "type": "Feature",
            "geometry": {
                "type": "Point",
                "coordinates": [
                    18.45197,
                    52.6149
                ]
            },
            "properties": {
                "isced:level": "1;2",
                "ref:rspo": 58574,
                "official_name": "Szko\u0142a Podstawowa im. Armii Krajowej w Che\u0142mcach",
                "name": "Szko\u0142a Podstawowa",
                "addr:country": "PL",
                "addr:postcode": "88-121",
                "addr:place": "Che\u0142mce",
                "addr:housenumber": "51",
                "addr:teryt:sym_ul": 89454,
                "contact:phone": "+48 523516876",
                "contact:email": "spchelmce@op.pl",
                "contact:website": "http:\/\/www.spchelmce.stronyzklasa.pl",
                "ref:regon": "001155526",
                "ref:vatin": "PL5562365459",
                "operator": "Gmina Kruszwica",
                "operator:type": "government",
                "amenity": "school"
            }
        },
        {
            "id": 70071,
            "type": "Feature",
            "geometry": {
                "type": "Point",
                "coordinates": [
                    18.3176641,
                    52.6224254
                ]
            },
            "properties": {
                "isced:level": "1;2",
                "ref:rspo": 70071,
                "official_name": "Niepubliczna Szko\u0142a Podstawowa im. Zbigniewa Ry\u017ca w Racicach",
                "name": "Niepubliczna Szko\u0142a Podstawowa",
                "addr:country": "PL",
                "addr:postcode": "88-150",
                "addr:place": "Racice",
                "addr:housenumber": "16",
                "addr:teryt:sym_ul": 89856,
                "contact:phone": "+48 523516526",
                "contact:email": "niepubliczna_racice@o2.pl",
                "ref:regon": "341345367",
                "ref:vatin": "PL5562616619",
                "operator": "Stowarzyszenie Kulturalno - O\u015bwiatowe \"Nasz Dom\" W Racicach",
                "operator:type": "ngo",
                "amenity": "school"
            }
        },
        {
            "id": 58586,
            "type": "Feature",
            "geometry": {
                "type": "Point",
                "coordinates": [
                    18.381521,
                    52.623801
                ]
            },
            "properties": {
                "isced:level": "1;2",
                "ref:rspo": 58586,
                "official_name": "Szko\u0142a Podstawowa im. Wojska Polskiego w Rusinowie",
                "name": "Szko\u0142a Podstawowa",
                "addr:country": "PL",
                "addr:postcode": "88-153",
                "addr:place": "Rusinowo",
                "addr:housenumber": "23",
                "addr:teryt:sym_ul": 89900,
                "contact:phone": "+48 523516084",
                "contact:email": "sp.rusinowo23@wp.pl",
                "ref:regon": "001155510",
                "ref:vatin": "PL5562369380",
                "operator": "Gmina Kruszwica",
                "operator:type": "government",
                "amenity": "school"
            }
        },
        {
            "id": 54186,
            "type": "Feature",
            "geometry": {
                "type": "Point",
                "coordinates": [
                    18.288258,
                    52.642247
                ]
            },
            "properties": {
                "isced:level": "1;2",
                "ref:rspo": 54186,
                "official_name": "Szko\u0142a Podstawowa im. Janusza Kusoci\u0144skiego w Polanowicach",
                "name": "Szko\u0142a Podstawowa",
                "addr:country": "PL",
                "addr:postcode": "88-150",
                "addr:place": "Polanowice",
                "addr:housenumber": "27",
                "addr:teryt:sym_ul": 89804,
                "contact:phone": "+48 523515615",
                "contact:email": "sppolanow2011@wp.pl",
                "contact:website": "http:\/\/sppolanowice.ekruszwica.pl",
                "ref:regon": "001155495",
                "ref:vatin": "PL5562365614",
                "operator": "Gmina Kruszwica",
                "operator:type": "government",
                "amenity": "school"
            }
        },
        {
            "id": 274312,
            "type": "Feature",
            "geometry": {
                "type": "Point",
                "coordinates": [
                    18.32775,
                    52.67326
                ]
            },
            "properties": {
                "ref:rspo": 274312,
                "official_name": "Niepubliczna Plac\u00f3wka Kszta\u0142cenia Ustawicznego Nadgopla\u0144skie Wopr w Kruszwicy",
                "name": "Niepubliczna Plac\u00f3wka Kszta\u0142cenia Ustawicznego Nadgopla\u0144skie Wopr w Kruszwicy",
                "addr:country": "PL",
                "addr:postcode": "88-150",
                "addr:city": "Kruszwica",
                "addr:street": "Popiela",
                "addr:housenumber": "2",
                "addr:teryt:simc": 17134,
                "addr:teryt:sym_ul": 929380,
                "ref:regon": "385551954",
                "operator": "Nadgopla\u0144skie Wodne Ochotnicze Pogotowie Ratunkowe",
                "operator:type": "ngo",
                "fixme": "w zale\u017cno\u015bci od przedmiotu dzia\u0142alno\u015bci (np. amenity=training + training=*, amenity=dancing_school, amenity=language_school, amenity=music_school)"
            }
        },
        {
            "id": 58549,
            "type": "Feature",
            "geometry": {
                "type": "Point",
                "coordinates": [
                    18.31829,
                    52.67336
                ]
            },
            "properties": {
                "isced:level": "1;2",
                "ref:rspo": 58549,
                "official_name": "Szko\u0142a Podstawowa Nr 2 im. Tysi\u0105clecia Pa\u0144stwa Polskiego w Kruszwicy",
                "name": "Szko\u0142a Podstawowa Nr 2",
                "addr:country": "PL",
                "addr:postcode": "88-150",
                "addr:city": "Kruszwica",
                "addr:street": "Adama Mickiewicza",
                "addr:housenumber": "11",
                "addr:teryt:simc": 12740,
                "addr:teryt:sym_ul": 929380,
                "contact:phone": "+48 523515391",
                "contact:email": "sp2_kruszwica@op.pl",
                "ref:regon": "000212328",
                "ref:vatin": "PL5562365577",
                "operator": "Gmina Kruszwica",
                "operator:type": "government",
                "amenity": "school",
                "note": "Parent RSPO: 3996"
            }
        },
        {
            "id": 3996,
            "type": "Feature",
            "geometry": {
                "type": "Point",
                "coordinates": [
                    18.31871,
                    52.67553
                ]
            },
            "properties": {
                "ref:rspo": 3996,
                "official_name": "Zesp\u00f3\u0142 Szk\u00f3\u0142 Og\u00f3lnokszta\u0142c\u0105cych w Kruszwicy",
                "name": "Zesp\u00f3\u0142 Szk\u00f3\u0142 Og\u00f3lnokszta\u0142c\u0105cych w Kruszwicy",
                "addr:country": "PL",
                "addr:postcode": "88-150",
                "addr:city": "Kruszwica",
                "addr:street": "Jana Kasprowicza",
                "addr:housenumber": "7",
                "addr:teryt:simc": 8153,
                "addr:teryt:sym_ul": 929380,
                "contact:phone": "+48 523515259",
                "contact:email": "sp2_kruszwica@op.pl",
                "ref:regon": "341314600",
                "operator": "Gmina Kruszwica",
                "operator:type": "government",
                "landuse": "education",
                "fixme": "amenity=school, amenity=college albo landuse=education w zale\u017cno\u015bci od tego, jakie plac\u00f3wki wchodz\u0105 w sk\u0142ad zespo\u0142u. Sprawd\u017a, kiedy stosowa\u0107 amenity=* a kiedy landuse=education.",
                "note": "Children RSPO: 58549;59713;113729"
            }
        },
        {
            "id": 113729,
            "type": "Feature",
            "geometry": {
                "type": "Point",
                "coordinates": [
                    18.31871,
                    52.6755
                ]
            },
            "properties": {
                "isced:level": "3",
                "ref:rspo": 113729,
                "official_name": "Liceum Og\u00f3lnokszta\u0142c\u0105ce im.juliusza S\u0142owackiego w Kruszwicy",
                "name": "Liceum Og\u00f3lnokszta\u0142c\u0105ce im.juliusza S\u0142owackiego w Kruszwicy",
                "addr:country": "PL",
                "addr:postcode": "88-150",
                "addr:city": "Kruszwica",
                "addr:street": "Jana Kasprowicza",
                "addr:housenumber": "7",
                "addr:teryt:simc": 8153,
                "addr:teryt:sym_ul": 929380,
                "contact:phone": "+48 523515259",
                "contact:email": "lokruszwica@wp.pl",
                "ref:regon": "000213256",
                "operator": "Gmina Kruszwica",
                "operator:type": "government",
                "amenity": "school",
                "note": "Parent RSPO: 3996"
            }
        },
        {
            "id": 21542,
            "type": "Feature",
            "geometry": {
                "type": "Point",
                "coordinates": [
                    18.33406,
                    52.67575
                ]
            },
            "properties": {
                "ref:rspo": 21542,
                "official_name": "Zesp\u00f3\u0142 Szk\u00f3\u0142 im. Kazimierza Wielkiego w Kruszwicy",
                "name": "Zesp\u00f3\u0142 Szk\u00f3\u0142",
                "addr:country": "PL",
                "addr:postcode": "88-150",
                "addr:city": "Kruszwica",
                "addr:street": "Kujawska",
                "addr:housenumber": "20",
                "addr:teryt:simc": 10344,
                "addr:teryt:sym_ul": 929380,
                "contact:phone": "+48 523516085",
                "contact:email": "zsp.kruszwica@wp.pl",
                "contact:website": "http:\/\/zspkruszwica.pl",
                "ref:regon": "092558176",
                "operator": "Powiat Inowroc\u0142awski",
                "operator:type": "government",
                "landuse": "education",
                "fixme": "amenity=school, amenity=college albo landuse=education w zale\u017cno\u015bci od tego, jakie plac\u00f3wki wchodz\u0105 w sk\u0142ad zespo\u0142u. Sprawd\u017a, kiedy stosowa\u0107 amenity=* a kiedy landuse=education.",
                "note": "Children RSPO: 55481;55482;55484;55486;119452"
            }
        },
        {
            "id": 21580,
            "type": "Feature",
            "geometry": {
                "type": "Point",
                "coordinates": [
                    18.33406,
                    52.67572
                ]
            },
            "properties": {
                "ref:rspo": 21580,
                "official_name": "M\u0142odzie\u017cowy O\u015brodek Wychowawczy dla Dziewcz\u0105t im. Polskich Olimpijczyk\u00f3w w Kruszwicy",
                "name": "M\u0142odzie\u017cowy O\u015brodek Wychowawczy dla Dziewcz\u0105t",
                "addr:country": "PL",
                "addr:postcode": "88-150",
                "addr:city": "Kruszwica",
                "addr:street": "Kujawska",
                "addr:housenumber": "20",
                "addr:teryt:simc": 10344,
                "addr:teryt:sym_ul": 929380,
                "contact:phone": "+48 523534756",
                "contact:email": "mowkruszwica.powiat@wp.pl",
                "contact:website": "http:\/\/mow-kruszwica.cba.pl",
                "ref:regon": "340482702",
                "operator": "Powiat Inowroc\u0142awski",
                "operator:type": "government",
                "fixme": "amenity=social_facility + social_facility=group_home + social_facility:for=juvenile",
                "note": "Children RSPO: 55501;263923"
            }
        },
        {
            "id": 55481,
            "type": "Feature",
            "geometry": {
                "type": "Point",
                "coordinates": [
                    18.33406,
                    52.67569
                ]
            },
            "properties": {
                "isced:level": "3",
                "ref:rspo": 55481,
                "official_name": "Bran\u017cowa Szko\u0142a I Stopnia w Zespole Szk\u00f3\u0142 im. Kazimierza Wielkiego w Kruszwicy",
                "name": "Bran\u017cowa Szko\u0142a I Stopnia w Zespole Szk\u00f3\u0142",
                "addr:country": "PL",
                "addr:postcode": "88-153",
                "addr:city": "Kruszwica",
                "addr:street": "Kujawska",
                "addr:housenumber": "20",
                "addr:teryt:simc": 10344,
                "addr:teryt:sym_ul": 929380,
                "contact:phone": "+48 523516085",
                "ref:regon": "092558160",
                "operator": "Powiat Inowroc\u0142awski",
                "operator:type": "government",
                "amenity": "school",
                "note": "Parent RSPO: 21542"
            }
        },
        {
            "id": 55482,
            "type": "Feature",
            "geometry": {
                "type": "Point",
                "coordinates": [
                    18.33406,
                    52.67566
                ]
            },
            "properties": {
                "isced:level": "3",
                "ref:rspo": 55482,
                "official_name": "Specjalna Bran\u017cowa Szko\u0142a I Stopnia w Zespole Szk\u00f3\u0142 im. Kazimierza Wielkiego w Kruszwicy",
                "name": "Specjalna Bran\u017cowa Szko\u0142a I Stopnia w Zespole Szk\u00f3\u0142",
                "addr:country": "PL",
                "addr:postcode": "88-153",
                "addr:city": "Kruszwica",
                "addr:street": "Kujawska",
                "addr:housenumber": "20",
                "addr:teryt:simc": 10344,
                "addr:teryt:sym_ul": 929380,
                "contact:phone": "+48 523516085",
                "ref:regon": "092558153",
                "operator": "Powiat Inowroc\u0142awski",
                "operator:type": "government",
                "amenity": "school",
                "note": "Parent RSPO: 21542"
            }
        },
        {
            "id": 55484,
            "type": "Feature",
            "geometry": {
                "type": "Point",
                "coordinates": [
                    18.33406,
                    52.67563
                ]
            },
            "properties": {
                "isced:level": "3",
                "ref:rspo": 55484,
                "official_name": "Technikum w Zespole Szk\u00f3\u0142 im. Kazimierza Wielkiego w Kruszwicy",
                "name": "Technikum w Zespole Szk\u00f3\u0142",
                "addr:country": "PL",
                "addr:postcode": "88-153",
                "addr:city": "Kruszwica",
                "addr:street": "Kujawska",
                "addr:housenumber": "20",
                "addr:teryt:simc": 10344,
                "addr:teryt:sym_ul": 929380,
                "contact:phone": "+48 523516085",
                "ref:regon": "093069232",
                "operator": "Powiat Inowroc\u0142awski",
                "operator:type": "government",
                "amenity": "school",
                "note": "Parent RSPO: 21542"
            }
        },
        {
            "id": 55486,
            "type": "Feature",
            "geometry": {
                "type": "Point",
                "coordinates": [
                    18.33406,
                    52.6756
                ]
            },
            "properties": {
                "isced:level": "3",
                "ref:rspo": 55486,
                "official_name": "Liceum Og\u00f3lnokszta\u0142c\u0105ce dla Doros\u0142ych w Zespole Szk\u00f3\u0142 im. Kazimierza Wielkiego w Kruszwicy",
                "name": "Liceum Og\u00f3lnokszta\u0142c\u0105ce dla Doros\u0142ych w Zespole Szk\u00f3\u0142",
                "addr:country": "PL",
                "addr:postcode": "88-153",
                "addr:city": "Kruszwica",
                "addr:street": "Kujawska",
                "addr:housenumber": "20",
                "addr:teryt:simc": 10344,
                "addr:teryt:sym_ul": 929380,
                "contact:phone": "+48 523518560",
                "ref:regon": "340522749",
                "operator": "Powiat Inowroc\u0142awski",
                "operator:type": "government",
                "amenity": "school",
                "note": "Parent RSPO: 21542"
            }
        },
        {
            "id": 119452,
            "type": "Feature",
            "geometry": {
                "type": "Point",
                "coordinates": [
                    18.33406,
                    52.67557
                ]
            },
            "properties": {
                "isced:level": "3",
                "ref:rspo": 119452,
                "official_name": "Liceum Og\u00f3lnokszta\u0142c\u0105ce w Zespole Szk\u00f3\u0142 im. Kazimierza Wielkiego w Kruszwicy",
                "name": "Liceum Og\u00f3lnokszta\u0142c\u0105ce w Zespole Szk\u00f3\u0142",
                "addr:country": "PL",
                "addr:postcode": "88-150",
                "addr:city": "Kruszwica",
                "addr:street": "Kujawska",
                "addr:housenumber": "20",
                "addr:teryt:simc": 10344,
                "addr:teryt:sym_ul": 929380,
                "contact:phone": "+48 523516085",
                "ref:regon": "341474975",
                "operator": "Powiat Inowroc\u0142awski",
                "operator:type": "government",
                "amenity": "school",
                "note": "Parent RSPO: 21542"
            }
        },
        {
            "id": 55501,
            "type": "Feature",
            "geometry": {
                "type": "Point",
                "coordinates": [
                    18.33406,
                    52.67554
                ]
            },
            "properties": {
                "isced:level": "1;2",
                "ref:rspo": 55501,
                "official_name": "M\u0142odzie\u017cowy O\u015brodek Wychowawczy dla Dziewcz\u0105t w Kruszwicy - Szko\u0142a Podstawowa Specjalna",
                "name": "M\u0142odzie\u017cowy O\u015brodek Wychowawczy dla Dziewcz\u0105t w Kruszwicy - Szko\u0142a Podstawowa Specjalna",
                "addr:country": "PL",
                "addr:postcode": "88-150",
                "addr:city": "Kruszwica",
                "addr:street": "Kujawska",
                "addr:housenumber": "20",
                "addr:teryt:simc": 10344,
                "addr:teryt:sym_ul": 929380,
                "contact:phone": "+48 523534756",
                "contact:email": "mowkruszwica.powiat@wp.pl",
                "ref:regon": "340482719",
                "operator": "Powiat Inowroc\u0142awski",
                "operator:type": "government",
                "amenity": "school",
                "note": "Parent RSPO: 21580"
            }
        },
        {
            "id": 263923,
            "type": "Feature",
            "geometry": {
                "type": "Point",
                "coordinates": [
                    18.33406,
                    52.67551
                ]
            },
            "properties": {
                "isced:level": "3",
                "ref:rspo": 263923,
                "official_name": "Specjalna Bran\u017cowa Szko\u0142a I Stopnia w Kruszwicy",
                "name": "Specjalna Bran\u017cowa Szko\u0142a I Stopnia w Kruszwicy",
                "addr:country": "PL",
                "addr:postcode": "88-150",
                "addr:city": "Kruszwica",
                "addr:street": "Kujawska",
                "addr:housenumber": "20",
                "addr:teryt:simc": 10344,
                "addr:teryt:sym_ul": 929380,
                "contact:phone": "+48 523534756",
                "ref:regon": "368241939",
                "operator": "Powiat Inowroc\u0142awski",
                "operator:type": "government",
                "amenity": "school",
                "note": "Parent RSPO: 21580"
            }
        },
        {
            "id": 18730,
            "type": "Feature",
            "geometry": {
                "type": "Point",
                "coordinates": [
                    18.33709,
                    52.67575
                ]
            },
            "properties": {
                "ref:rspo": 18730,
                "official_name": "Kruszwicka Szko\u0142a Realna",
                "name": "Kruszwicka Szko\u0142a Realna",
                "addr:country": "PL",
                "addr:postcode": "88-150",
                "addr:city": "Kruszwica",
                "addr:street": "Kujawska",
                "addr:housenumber": "22",
                "addr:teryt:simc": 10344,
                "addr:teryt:sym_ul": 929380,
                "contact:phone": "+48 525691039",
                "contact:email": "ksrkruszwica@wp.pl",
                "ref:regon": "341333157",
                "operator": "Spo\u0142eczne Towarzystwo Edukacyjne",
                "operator:type": "ngo",
                "landuse": "education",
                "fixme": "amenity=school, amenity=college albo landuse=education w zale\u017cno\u015bci od tego, jakie plac\u00f3wki wchodz\u0105 w sk\u0142ad zespo\u0142u. Sprawd\u017a, kiedy stosowa\u0107 amenity=* a kiedy landuse=education.",
                "note": "Children RSPO: 52454"
            }
        },
        {
            "id": 131226,
            "type": "Feature",
            "geometry": {
                "type": "Point",
                "coordinates": [
                    18.33709,
                    52.67572
                ]
            },
            "properties": {
                "ref:rspo": 131226,
                "official_name": "Zesp\u00f3\u0142 Szk\u00f3\u0142 Samorz\u0105dowych Nr 1 w Kruszwicy",
                "name": "Zesp\u00f3\u0142 Szk\u00f3\u0142 Samorz\u0105dowych Nr 1 w Kruszwicy",
                "addr:country": "PL",
                "addr:postcode": "88-153",
                "addr:city": "Kruszwica",
                "addr:street": "Kujawska",
                "addr:housenumber": "22",
                "addr:teryt:simc": 10344,
                "addr:teryt:sym_ul": 929380,
                "contact:phone": "+48 523515012",
                "contact:email": "kru.sp1@wp.pl",
                "ref:regon": "365041453",
                "operator": "Gmina Kruszwica",
                "operator:type": "government",
                "landuse": "education",
                "fixme": "amenity=school, amenity=college albo landuse=education w zale\u017cno\u015bci od tego, jakie plac\u00f3wki wchodz\u0105 w sk\u0142ad zespo\u0142u. Sprawd\u017a, kiedy stosowa\u0107 amenity=* a kiedy landuse=education.",
                "note": "Children RSPO: 58539;59711"
            }
        },
        {
            "id": 52454,
            "type": "Feature",
            "geometry": {
                "type": "Point",
                "coordinates": [
                    18.33709,
                    52.67569
                ]
            },
            "properties": {
                "isced:level": "3",
                "ref:rspo": 52454,
                "official_name": "Kruszwicka Szko\u0142a Realna - Liceum Og\u00f3lnokszta\u0142c\u0105ce dla M\u0142odzie\u017cy",
                "name": "Kruszwicka Szko\u0142a Realna - Liceum Og\u00f3lnokszta\u0142c\u0105ce dla M\u0142odzie\u017cy",
                "addr:country": "PL",
                "addr:postcode": "88-153",
                "addr:city": "Kruszwica",
                "addr:street": "Kujawska",
                "addr:housenumber": "22",
                "addr:teryt:simc": 10344,
                "addr:teryt:sym_ul": 929380,
                "contact:phone": "+48 525691039",
                "ref:regon": "341343026",
                "operator": "Spo\u0142eczne Towarzystwo Edukacyjne",
                "operator:type": "ngo",
                "amenity": "school",
                "note": "Parent RSPO: 18730"
            }
        },
        {
            "id": 58539,
            "type": "Feature",
            "geometry": {
                "type": "Point",
                "coordinates": [
                    18.33709,
                    52.67566
                ]
            },
            "properties": {
                "isced:level": "1;2",
                "ref:rspo": 58539,
                "official_name": "Szko\u0142a Podstawowa Nr 1 im. Jana Kasprowicza w Kruszwicy",
                "name": "Szko\u0142a Podstawowa Nr 1",
                "addr:country": "PL",
                "addr:postcode": "88-153",
                "addr:city": "Kruszwica",
                "addr:street": "Kujawska",
                "addr:housenumber": "22",
                "addr:teryt:simc": 10344,
                "addr:teryt:sym_ul": 929380,
                "contact:phone": "+48 523515012",
                "contact:email": "kru.sp1@wp.pl",
                "contact:website": "http:\/\/sp1kruszwica.pl",
                "ref:regon": "001155466",
                "ref:vatin": "PL5562375239",
                "operator": "Gmina Kruszwica",
                "operator:type": "government",
                "amenity": "school",
                "note": "Parent RSPO: 131226"
            }
        },
        {
            "id": 71846,
            "type": "Feature",
            "geometry": {
                "type": "Point",
                "coordinates": [
                    18.32349,
                    52.67629
                ]
            },
            "properties": {
                "ref:rspo": 71846,
                "official_name": "Poradnia Psychologiczno-Pedagogiczna w Inowroc\u0142awiu - Filia w Kruszwicy",
                "name": "Poradnia Psychologiczno-Pedagogiczna w Inowroc\u0142awiu - Filia w Kruszwicy",
                "addr:country": "PL",
                "addr:postcode": "88-150",
                "addr:city": "Kruszwica",
                "addr:street": "Rybacka",
                "addr:housenumber": "22",
                "addr:teryt:simc": 19142,
                "addr:teryt:sym_ul": 929380,
                "contact:phone": "+48 525674698",
                "ref:regon": "217870000",
                "operator": "Powiat Inowroc\u0142awski",
                "operator:type": "government",
                "healthcare": "counselling",
                "counselling_type": "education",
                "fixme": "w zale\u017cno\u015bci od przedmiotu dzia\u0142alno\u015bci (np. healthcare=counselling + counselling_type=education albo healthcare=psychotherapist)",
                "note": "Parent RSPO: 55503"
            }
        },
        {
            "id": 59713,
            "type": "Feature",
            "geometry": {
                "type": "Point",
                "coordinates": [
                    18.31824,
                    52.67658
                ]
            },
            "properties": {
                "ref:rspo": 59713,
                "official_name": "Przedszkole Samorz\u0105dowe Nr 3 im. Ewy Lewa\u0144skiej w Kruszwicy",
                "name": "Przedszkole Samorz\u0105dowe Nr 3",
                "addr:country": "PL",
                "addr:postcode": "88-150",
                "addr:city": "Kruszwica",
                "addr:street": "Niepodleg\u0142o\u015bci",
                "addr:housenumber": "27",
                "addr:teryt:simc": 14203,
                "addr:teryt:sym_ul": 929380,
                "contact:phone": "+48 523515872",
                "contact:email": "przedszkolepodtopola@wp.pl",
                "ref:regon": "000216533",
                "ref:vatin": "PL5562429627",
                "operator": "Gmina Kruszwica",
                "operator:type": "government",
                "amenity": "kindergarten",
                "note": "Parent RSPO: 3996"
            }
        },
        {
            "id": 59711,
            "type": "Feature",
            "geometry": {
                "type": "Point",
                "coordinates": [
                    18.32937,
                    52.67694
                ]
            },
            "properties": {
                "ref:rspo": 59711,
                "official_name": "Przedszkole Samorz\u0105dowe Nr 1 im. \"Nad Gop\u0142em\" w Kruszwicy",
                "name": "Przedszkole Samorz\u0105dowe Nr 1",
                "addr:country": "PL",
                "addr:postcode": "88-153",
                "addr:city": "Kruszwica",
                "addr:street": "Kolegiacka",
                "addr:housenumber": "13",
                "addr:teryt:simc": 8816,
                "addr:teryt:sym_ul": 929380,
                "contact:phone": "+48 523516060",
                "contact:email": "ps1nadgoplem@gmail.com",
                "contact:website": "http:\/\/ps1nadgoplem.pl",
                "ref:regon": "093032335",
                "ref:vatin": "PL5562429633",
                "operator": "Gmina Kruszwica",
                "operator:type": "government",
                "amenity": "kindergarten",
                "note": "Parent RSPO: 131226"
            }
        },
        {
            "id": 58599,
            "type": "Feature",
            "geometry": {
                "type": "Point",
                "coordinates": [
                    18.2649981,
                    52.683363
                ]
            },
            "properties": {
                "isced:level": "1;2",
                "ref:rspo": 58599,
                "official_name": "Szko\u0142a Podstawowa im. Marii Patyk w S\u0142awsku Wielkim",
                "name": "Szko\u0142a Podstawowa",
                "addr:country": "PL",
                "addr:postcode": "88-150",
                "addr:place": "S\u0142awsk Wielki",
                "addr:housenumber": "77",
                "addr:teryt:sym_ul": 90032,
                "contact:phone": "+48 523516395",
                "contact:email": "spslawskwielki@wp.pl",
                "contact:website": "http:\/\/www.spslawskwielki.pl",
                "ref:regon": "001155489",
                "ref:vatin": "PL5562365838",
                "operator": "Gmina Kruszwica",
                "operator:type": "government",
                "amenity": "school"
            }
        },
        {
            "id": 16448,
            "type": "Feature",
            "geometry": {
                "type": "Point",
                "coordinates": [
                    18.3108599,
                    52.690708
                ]
            },
            "properties": {
                "ref:rspo": 16448,
                "official_name": "Zesp\u00f3\u0142 Szk\u00f3\u0142 Weterynaryjno-Przyrodniczych w Kobylnikach",
                "name": "Zesp\u00f3\u0142 Szk\u00f3\u0142 Weterynaryjno-Przyrodniczych w Kobylnikach",
                "addr:country": "PL",
                "addr:postcode": "88-150",
                "addr:place": "Kobylniki",
                "addr:housenumber": "3",
                "addr:teryt:sym_ul": 89678,
                "contact:phone": "+48 523515586",
                "contact:email": "sekretariat@zsw-pk.pl",
                "contact:website": "http:\/\/zspk.pl",
                "ref:regon": "000099843",
                "operator": "Powiat Inowroc\u0142awski",
                "operator:type": "government",
                "landuse": "education",
                "fixme": "amenity=school, amenity=college albo landuse=education w zale\u017cno\u015bci od tego, jakie plac\u00f3wki wchodz\u0105 w sk\u0142ad zespo\u0142u. Sprawd\u017a, kiedy stosowa\u0107 amenity=* a kiedy landuse=education.",
                "note": "Children RSPO: 55505;55507;122963"
            }
        },
        {
            "id": 55505,
            "type": "Feature",
            "geometry": {
                "type": "Point",
                "coordinates": [
                    18.3108599,
                    52.690678
                ]
            },
            "properties": {
                "isced:level": "3",
                "ref:rspo": 55505,
                "official_name": "Technikum w Zespole Szk\u00f3\u0142 Weterynaryjno-Przyrodniczych w Kobylnikach",
                "name": "Technikum w Zespole Szk\u00f3\u0142 Weterynaryjno-Przyrodniczych w Kobylnikach",
                "addr:country": "PL",
                "addr:postcode": "88-150",
                "addr:place": "Kobylniki",
                "addr:housenumber": "3",
                "addr:teryt:sym_ul": 89678,
                "contact:phone": "+48 523515586",
                "ref:regon": "093058843",
                "operator": "Powiat Inowroc\u0142awski",
                "operator:type": "government",
                "amenity": "school",
                "note": "Parent RSPO: 16448"
            }
        },
        {
            "id": 55507,
            "type": "Feature",
            "geometry": {
                "type": "Point",
                "coordinates": [
                    18.3108599,
                    52.690648
                ]
            },
            "properties": {
                "isced:level": "4",
                "ref:rspo": 55507,
                "official_name": "Szko\u0142a Policealna w Zespole Szk\u00f3\u0142 Weterynaryjno-Przyrodniczych w Kobylnikach",
                "name": "Szko\u0142a Policealna w Zespole Szk\u00f3\u0142 Weterynaryjno-Przyrodniczych w Kobylnikach",
                "addr:country": "PL",
                "addr:postcode": "88-150",
                "addr:place": "Kobylniki",
                "addr:housenumber": "3",
                "addr:teryt:sym_ul": 89678,
                "contact:phone": "+48 523515586",
                "ref:regon": "093207332",
                "operator": "Powiat Inowroc\u0142awski",
                "operator:type": "government",
                "amenity": "college",
                "note": "Parent RSPO: 16448"
            }
        },
        {
            "id": 122963,
            "type": "Feature",
            "geometry": {
                "type": "Point",
                "coordinates": [
                    18.3108599,
                    52.690618
                ]
            },
            "properties": {
                "isced:level": "3",
                "ref:rspo": 122963,
                "official_name": "Liceum Og\u00f3lnokszta\u0142c\u0105ce w Zespole Szk\u00f3\u0142 Weterynaryjno-Przyrodniczych w Kobylnikach",
                "name": "Liceum Og\u00f3lnokszta\u0142c\u0105ce w Zespole Szk\u00f3\u0142 Weterynaryjno-Przyrodniczych w Kobylnikach",
                "addr:country": "PL",
                "addr:postcode": "88-150",
                "addr:place": "Kobylniki",
                "addr:housenumber": "3",
                "addr:teryt:sym_ul": 89678,
                "contact:phone": "+48 523515586",
                "ref:regon": "341571394",
                "operator": "Powiat Inowroc\u0142awski",
                "operator:type": "government",
                "amenity": "school",
                "note": "Parent RSPO: 16448"
            }
        },
        {
            "id": 59718,
            "type": "Feature",
            "geometry": {
                "type": "Point",
                "coordinates": [
                    18.44152,
                    52.6966
                ]
            },
            "properties": {
                "isced:level": "1;2",
                "ref:rspo": 59718,
                "official_name": "Szko\u0142a Podstawowa im. Wincentego Witosa w Woli Wapowskiej",
                "name": "Szko\u0142a Podstawowa",
                "addr:country": "PL",
                "addr:postcode": "88-153",
                "addr:place": "Wola Wapowska",
                "addr:housenumber": "6A",
                "addr:teryt:sym_ul": 90049,
                "contact:phone": "+48 523516794",
                "contact:email": "wolawitos@wp.pl",
                "contact:website": "http:\/\/www.spwola.pl",
                "ref:regon": "001155503",
                "ref:vatin": "PL5562365790",
                "operator": "Gmina Kruszwica",
                "operator:type": "government",
                "amenity": "school"
            }
        }
    ]
}