{"type":"FeatureCollection","features":[{"id":53422,"type":"Feature","geometry":{"type":"Point","coordinates":[18.48225,52.74786]},"properties":{"isced:level":"1;2","ref:rspo":53422,"official_name":"Szko\u0142a Podstawowa im. Piera\u0144skiego Oddzia\u0142u Stra\u017cy Ludowej w Pieraniu","name":"Szko\u0142a Podstawowa","addr:country":"PL","addr:postcode":"88-133","addr:place":"Pieranie","addr:housenumber":"7","addr:teryt:sym_ul":83983,"contact:phone":"+48 523511521","contact:email":"sp-pieranie@wp.pl","contact:website":"http:\/\/www.sppieranie.szkolnastrona.pl","ref:regon":"001221826","ref:vatin":"PL5562608241","operator":"Gmina D\u0105browa Biskupia","operator:type":"government","amenity":"school"}},{"id":272152,"type":"Feature","geometry":{"type":"Point","coordinates":[18.5405799,52.77813]},"properties":{"ref:rspo":272152,"official_name":"Zesp\u00f3\u0142 Szkolno-Przedszkolny w D\u0105browie Biskupiej","name":"Zesp\u00f3\u0142 Szkolno-Przedszkolny w D\u0105browie Biskupiej","addr:country":"PL","addr:postcode":"88-133","addr:city":"D\u0105browa Biskupia","addr:street":"ul. Szkolna","addr:housenumber":"2","addr:teryt:simc":21970,"addr:teryt:sym_ul":83842,"contact:phone":"+48 523512191","contact:email":"zs_dbis@poczta.onet.pl","contact:website":"http:\/\/zsdabrowabiskupia.edu.pl","ref:regon":"383970090","operator":"Gmina D\u0105browa Biskupia","operator:type":"government","landuse":"education","fixme":"amenity=school, amenity=college albo landuse=education w zale\u017cno\u015bci od tego, jakie plac\u00f3wki wchodz\u0105 w sk\u0142ad zespo\u0142u. Sprawd\u017a, kiedy stosowa\u0107 amenity=* a kiedy landuse=education.","note":"Children RSPO: 64955;272140"}},{"id":64955,"type":"Feature","geometry":{"type":"Point","coordinates":[18.5405799,52.778099999999995]},"properties":{"isced:level":"1;2","ref:rspo":64955,"official_name":"Szko\u0142a Podstawowa im.ziemi Kujawskiej w D\u0105browie Biskupiej","name":"Szko\u0142a Podstawowa im.ziemi Kujawskiej w D\u0105browie Biskupiej","addr:country":"PL","addr:postcode":"88-133","addr:city":"D\u0105browa Biskupia","addr:street":"ul. Szkolna","addr:housenumber":"2","addr:teryt:simc":21970,"addr:teryt:sym_ul":83842,"contact:phone":"+48 523512191","contact:email":"zs_dbis@poczta.onet.pl","contact:website":"http:\/\/zsdabrowabiskupia.edu.pl","ref:regon":"000267418","ref:vatin":"PL5562608258","operator":"Gmina D\u0105browa Biskupia","operator:type":"government","amenity":"school","note":"Parent RSPO: 272152"}},{"id":272140,"type":"Feature","geometry":{"type":"Point","coordinates":[18.5405799,52.77807]},"properties":{"ref:rspo":272140,"official_name":"Publiczne Przedszkole Le\u015bna Kraina w D\u0105browie Biskupiej","name":"Publiczne Przedszkole Le\u015bna Kraina w D\u0105browie Biskupiej","addr:country":"PL","addr:postcode":"88-133","addr:city":"D\u0105browa Biskupia","addr:street":"ul. Szkolna","addr:housenumber":"2","addr:teryt:simc":21970,"addr:teryt:sym_ul":83842,"contact:phone":"+48 523512191","contact:email":"zs_dbis@poczta.onet.pl","contact:website":"http:\/\/zsdabrowabiskupia.edu.pl","ref:regon":"383960016","operator":"Gmina D\u0105browa Biskupia","operator:type":"government","amenity":"kindergarten","note":"Parent RSPO: 272152"}},{"id":53421,"type":"Feature","geometry":{"type":"Point","coordinates":[18.3994904,52.8038578]},"properties":{"isced:level":"1;2","ref:rspo":53421,"official_name":"Szko\u0142a Podstawowa im. Gen. W\u0142adys\u0142awa Sikorskiego w Parchaniu","name":"Szko\u0142a Podstawowa","addr:country":"PL","addr:postcode":"88-110","addr:place":"Parchanie","addr:housenumber":"38","addr:teryt:sym_ul":83954,"contact:phone":"+48 523512727","contact:email":"sppdyrektor@o2.pl","contact:website":"https:\/\/spparchanie.edupage.org\/","ref:regon":"001198903","ref:vatin":"PL5562608270","operator":"Gmina D\u0105browa Biskupia","operator:type":"government","amenity":"school"}},{"id":53419,"type":"Feature","geometry":{"type":"Point","coordinates":[18.5109439,52.8168099]},"properties":{"isced:level":"1;2","ref:rspo":53419,"official_name":"Szko\u0142a Podstawowa w O\u015bniszczewku","name":"Szko\u0142a Podstawowa w O\u015bniszczewku","addr:country":"PL","addr:postcode":"88-133","addr:place":"O\u015bniszczewko","addr:housenumber":"1","addr:teryt:sym_ul":83925,"contact:phone":"+48 523512319","contact:email":"szkola@spo.net.pl","contact:website":"http:\/\/www.spo.net.pl","ref:regon":"001198895","ref:vatin":"PL5562608235","operator":"Gmina D\u0105browa Biskupia","operator:type":"government","amenity":"school"}}]}