{
    "type": "FeatureCollection",
    "features": [
        {
            "id": 3571,
            "type": "Feature",
            "geometry": {
                "type": "Point",
                "coordinates": [
                    18.2533679,
                    52.742546
                ]
            },
            "properties": {
                "isced:level": "1;2",
                "ref:rspo": 3571,
                "official_name": "Szko\u0142a Podstawowa im. Rodu Piast\u00f3w w Tupad\u0142ach",
                "name": "Szko\u0142a Podstawowa",
                "addr:postcode": "88-101",
                "addr:place": "Tupad\u0142y",
                "addr:housenumber": "95",
                "addr:city:simc": 86295,
                "phone": "+48 523537974",
                "email": "szkola.tupadly@gminainowroclaw.eu",
                "website": "http:\/\/www.sptupadly.szkolnastrona.pl\/",
                "ref:regon": "001201290",
                "ref:vatin": "PL5562384422",
                "operator": "Gmina Inowroc\u0142aw",
                "operator:type": "government",
                "amenity": "school"
            }
        },
        {
            "id": 3561,
            "type": "Feature",
            "geometry": {
                "type": "Point",
                "coordinates": [
                    18.36579,
                    52.7485779
                ]
            },
            "properties": {
                "isced:level": "1;2",
                "ref:rspo": 3561,
                "official_name": "Szko\u0142a Podstawowa im. Polskich Olimpijczyk\u00f3w w G\u00f3rze",
                "name": "Szko\u0142a Podstawowa",
                "addr:postcode": "88-101",
                "addr:place": "G\u00f3ra",
                "addr:housenumber": "4",
                "addr:city:simc": 85947,
                "phone": "+48 523525111",
                "email": "szkola.gora@gminainowroclaw.eu",
                "website": "http:\/\/www.spgora.edupage.org",
                "ref:regon": "001201255",
                "ref:vatin": "PL5562385551",
                "operator": "Gmina Inowroc\u0142aw",
                "operator:type": "government",
                "amenity": "school"
            }
        },
        {
            "id": 3973,
            "type": "Feature",
            "geometry": {
                "type": "Point",
                "coordinates": [
                    18.334339,
                    52.790135
                ]
            },
            "properties": {
                "isced:level": "1;2",
                "ref:rspo": 3973,
                "official_name": "Szko\u0142a Podstawowa im. Or\u0142a Bia\u0142ego w Turzanach",
                "name": "Szko\u0142a Podstawowa",
                "addr:postcode": "88-110",
                "addr:place": "Turzany",
                "addr:housenumber": "6",
                "addr:city:simc": 86310,
                "phone": "+48 523573648",
                "email": "szkola.turzany@gminainowroclaw.eu",
                "website": "http:\/\/www.spturzany.edupage.org",
                "ref:regon": "001201315",
                "ref:vatin": "PL5562385516",
                "operator": "Gmina Inowroc\u0142aw",
                "operator:type": "government",
                "amenity": "school"
            }
        },
        {
            "id": 3570,
            "type": "Feature",
            "geometry": {
                "type": "Point",
                "coordinates": [
                    18.2627217,
                    52.8042487
                ]
            },
            "properties": {
                "isced:level": "1;2",
                "ref:rspo": 3570,
                "official_name": "Szko\u0142a Podstawowa im. Ksi\u0119dza Kardyna\u0142a Stefana Wyszy\u0144skiego w Or\u0142owie",
                "name": "Szko\u0142a Podstawowa",
                "addr:postcode": "88-110",
                "addr:place": "Or\u0142owo",
                "addr:housenumber": "40",
                "addr:city:simc": 86177,
                "phone": "+48 523512982",
                "email": "szkola.orlowo@gminainowroclaw.eu",
                "website": "http:\/\/www.sporlowo.szkolnastrona.pl\/",
                "ref:regon": "001201284",
                "ref:vatin": "PL5562384468",
                "operator": "Gmina Inowroc\u0142aw",
                "operator:type": "government",
                "amenity": "school"
            }
        },
        {
            "id": 133573,
            "type": "Feature",
            "geometry": {
                "type": "Point",
                "coordinates": [
                    18.2197639,
                    52.8279019
                ]
            },
            "properties": {
                "isced:level": "1;2",
                "ref:rspo": 133573,
                "official_name": "Szko\u0142a Podstawowa Z Oddzia\u0142ami Integracyjnymi im. Miko\u0142aja Kopernika w S\u0142aw\u0119cinku",
                "name": "Szko\u0142a Podstawowa Z Oddzia\u0142ami Integracyjnymi",
                "addr:postcode": "88-110",
                "addr:place": "S\u0142aw\u0119cinek",
                "addr:housenumber": "12",
                "addr:city:simc": 86243,
                "phone": "+48 523572459",
                "email": "szkola.slawecinek@gminainowroclaw.eu",
                "website": "http:\/\/www.gimslawecinek.szkolnastrona.pl",
                "ref:regon": "367420203",
                "ref:vatin": "PL5562770326",
                "operator": "Gmina Inowroc\u0142aw",
                "operator:type": "government",
                "amenity": "school"
            }
        },
        {
            "id": 123385,
            "type": "Feature",
            "geometry": {
                "type": "Point",
                "coordinates": [
                    18.19173,
                    52.85456
                ]
            },
            "properties": {
                "ref:rspo": 123385,
                "official_name": "Przedszkole Samorz\u0105dowe Gminy Inowroc\u0142aw Akademia Przedszkolaka",
                "name": "Przedszkole Samorz\u0105dowe Gminy Inowroc\u0142aw Akademia Przedszkolaka",
                "addr:postcode": "88-181",
                "addr:city": "Jaksice",
                "addr:street": "Szkolna",
                "addr:housenumber": "2",
                "addr:city:simc": 85976,
                "addr:street:sym_ul": 21970,
                "phone": "+48 525190219",
                "email": "przedszkole@gminainowroclaw.eu",
                "ref:regon": "341592901",
                "operator": "Gmina Inowroc\u0142aw",
                "operator:type": "government",
                "amenity": "kindergarten"
            }
        },
        {
            "id": 3986,
            "type": "Feature",
            "geometry": {
                "type": "Point",
                "coordinates": [
                    18.19345,
                    52.85573
                ]
            },
            "properties": {
                "isced:level": "1;2",
                "ref:rspo": 3986,
                "official_name": "Szko\u0142a Podstawowa im. W\u0142adys\u0142awa Broniewskiego w Jaksicach",
                "name": "Szko\u0142a Podstawowa",
                "addr:postcode": "88-181",
                "addr:city": "Jaksice",
                "addr:street": "Szosa Bydgoska",
                "addr:housenumber": "11",
                "addr:city:simc": 85976,
                "addr:street:sym_ul": 26708,
                "phone": "+48 523546041",
                "email": "szkola.jaksice@gminainowroclaw.eu",
                "website": "http:\/\/www.spjaksice.szkolnastrona.pl",
                "ref:regon": "001201261",
                "ref:vatin": "PL5562384327",
                "operator": "Gmina Inowroc\u0142aw",
                "operator:type": "government",
                "amenity": "school"
            }
        }
    ]
}