{
    "type": "FeatureCollection",
    "features": [
        {
            "id": 16408,
            "type": "Feature",
            "geometry": {
                "type": "Point",
                "coordinates": [
                    18.1619319,
                    52.79266
                ]
            },
            "properties": {
                "ref:rspo": 16408,
                "official_name": "Zesp\u00f3\u0142 Szk\u00f3\u0142 im. Jana Paw\u0142a II w Ko\u015bcielcu",
                "name": "Zesp\u00f3\u0142 Szk\u00f3\u0142",
                "addr:postcode": "88-170",
                "addr:place": "Ko\u015bcielec",
                "addr:housenumber": "125",
                "addr:city:simc": 93734,
                "phone": "+48 523511131",
                "email": "zsp@koscielec.pl",
                "website": "http:\/\/zsckr.koscielec.pl",
                "ref:regon": "000096419",
                "operator": "Powiat Inowroc\u0142awski",
                "operator:type": "government",
                "landuse": "education",
                "fixme": "amenity=school, amenity=college albo landuse=education w zale\u017cno\u015bci od tego, jakie plac\u00f3wki wchodz\u0105 w sk\u0142ad zespo\u0142u. Sprawd\u017a, kiedy stosowa\u0107 amenity=* a kiedy landuse=education.",
                "note": "Children RSPO: 40906;40912;40918;122964"
            }
        },
        {
            "id": 40906,
            "type": "Feature",
            "geometry": {
                "type": "Point",
                "coordinates": [
                    18.1619319,
                    52.792629999999996
                ]
            },
            "properties": {
                "isced:level": "3",
                "ref:rspo": 40906,
                "official_name": "Bran\u017cowa Szko\u0142a I Stopnia w Zespole Szk\u00f3\u0142 im. Jana Paw\u0142a II w Ko\u015bcielcu",
                "name": "Bran\u017cowa Szko\u0142a I Stopnia w Zespole Szk\u00f3\u0142",
                "addr:postcode": "88-170",
                "addr:place": "Ko\u015bcielec",
                "addr:housenumber": "125",
                "addr:city:simc": 93734,
                "phone": "+48 523511130",
                "email": "zsp@koscielec.pl",
                "ref:regon": "340424455",
                "operator": "Powiat Inowroc\u0142awski",
                "operator:type": "government",
                "amenity": "school",
                "note": "Parent RSPO: 16408"
            }
        },
        {
            "id": 40912,
            "type": "Feature",
            "geometry": {
                "type": "Point",
                "coordinates": [
                    18.1619319,
                    52.7926
                ]
            },
            "properties": {
                "isced:level": "3",
                "ref:rspo": 40912,
                "official_name": "Liceum Og\u00f3lnokszta\u0142c\u0105ce w Zespole Szk\u00f3\u0142 im. Jana Paw\u0142a II w Ko\u015bcielcu",
                "name": "Liceum Og\u00f3lnokszta\u0142c\u0105ce w Zespole Szk\u00f3\u0142",
                "addr:postcode": "88-170",
                "addr:place": "Ko\u015bcielec",
                "addr:housenumber": "125",
                "addr:city:simc": 93734,
                "phone": "+48 523511130",
                "email": "zsp@koscielec.pl",
                "website": "http:\/\/koscielec.pl",
                "ref:regon": "093053337",
                "operator": "Powiat Inowroc\u0142awski",
                "operator:type": "government",
                "amenity": "school",
                "note": "Parent RSPO: 16408"
            }
        },
        {
            "id": 40918,
            "type": "Feature",
            "geometry": {
                "type": "Point",
                "coordinates": [
                    18.1619319,
                    52.79257
                ]
            },
            "properties": {
                "isced:level": "3",
                "ref:rspo": 40918,
                "official_name": "Technikum w Zespole Szk\u00f3\u0142 im. Jana Paw\u0142a II w Ko\u015bcielcu",
                "name": "Technikum w Zespole Szk\u00f3\u0142",
                "addr:postcode": "88-170",
                "addr:place": "Ko\u015bcielec",
                "addr:housenumber": "125",
                "addr:city:simc": 93734,
                "phone": "+48 523511130",
                "email": "zsp@koscielec.pl",
                "ref:regon": "093053389",
                "operator": "Powiat Inowroc\u0142awski",
                "operator:type": "government",
                "amenity": "school",
                "note": "Parent RSPO: 16408"
            }
        },
        {
            "id": 122964,
            "type": "Feature",
            "geometry": {
                "type": "Point",
                "coordinates": [
                    18.1619319,
                    52.792539999999995
                ]
            },
            "properties": {
                "isced:level": "3",
                "ref:rspo": 122964,
                "official_name": "Liceum Og\u00f3lnokszta\u0142c\u0105ce dla Doros\u0142ych w Zespole Szk\u00f3\u0142 im. Jana Paw\u0142a II w Ko\u015bcielcu",
                "name": "Liceum Og\u00f3lnokszta\u0142c\u0105ce dla Doros\u0142ych w Zespole Szk\u00f3\u0142",
                "addr:postcode": "88-170",
                "addr:place": "Ko\u015bcielec",
                "addr:housenumber": "125",
                "addr:city:simc": 93734,
                "phone": "+48 523511131",
                "ref:regon": "341571402",
                "operator": "Powiat Inowroc\u0142awski",
                "operator:type": "government",
                "amenity": "school",
                "note": "Parent RSPO: 16408"
            }
        },
        {
            "id": 4217,
            "type": "Feature",
            "geometry": {
                "type": "Point",
                "coordinates": [
                    18.156413,
                    52.795896
                ]
            },
            "properties": {
                "ref:rspo": 4217,
                "official_name": "Zesp\u00f3\u0142 Plac\u00f3wek O\u015bwiatowych w Ko\u015bcielcu",
                "name": "Zesp\u00f3\u0142 Plac\u00f3wek O\u015bwiatowych w Ko\u015bcielcu",
                "addr:postcode": "88-170",
                "addr:place": "Ko\u015bcielec",
                "addr:housenumber": "14",
                "addr:city:simc": 93734,
                "phone": "+48 523511426",
                "email": "zpokoscielec@op.pl",
                "website": "http:\/\/zpokoscielec.pl\/",
                "ref:regon": "340030727",
                "ref:vatin": "PL5562566620",
                "operator": "Gmina Pako\u015b\u0107",
                "operator:type": "government",
                "landuse": "education",
                "fixme": "amenity=school, amenity=college albo landuse=education w zale\u017cno\u015bci od tego, jakie plac\u00f3wki wchodz\u0105 w sk\u0142ad zespo\u0142u. Sprawd\u017a, kiedy stosowa\u0107 amenity=* a kiedy landuse=education.",
                "note": "Children RSPO: 18169;18170"
            }
        },
        {
            "id": 18169,
            "type": "Feature",
            "geometry": {
                "type": "Point",
                "coordinates": [
                    18.156413,
                    52.795866
                ]
            },
            "properties": {
                "isced:level": "1;2",
                "ref:rspo": 18169,
                "official_name": "Szko\u0142a Podstawowa im. Armii Krajowej w Ko\u015bcielcu",
                "name": "Szko\u0142a Podstawowa",
                "addr:postcode": "88-170",
                "addr:place": "Ko\u015bcielec",
                "addr:housenumber": "14",
                "addr:city:simc": 93734,
                "phone": "+48 523511426",
                "email": "zpokoscielec@op.pl",
                "website": "http:\/\/zpokoscielec.pl\/",
                "ref:regon": "091153767",
                "operator": "Gmina Pako\u015b\u0107",
                "operator:type": "government",
                "amenity": "school",
                "note": "Parent RSPO: 4217"
            }
        },
        {
            "id": 18170,
            "type": "Feature",
            "geometry": {
                "type": "Point",
                "coordinates": [
                    18.156413,
                    52.795836
                ]
            },
            "properties": {
                "ref:rspo": 18170,
                "official_name": "Przedszkole w Ko\u015bcielcu",
                "name": "Przedszkole w Ko\u015bcielcu",
                "addr:postcode": "88-170",
                "addr:place": "Ko\u015bcielec",
                "addr:housenumber": "14",
                "addr:city:simc": 93734,
                "phone": "+48 523511426",
                "email": "zpokoscielec@op.pl",
                "website": "http:\/\/zpokoscielec.pl\/",
                "ref:regon": "341333128",
                "operator": "Gmina Pako\u015b\u0107",
                "operator:type": "government",
                "amenity": "kindergarten",
                "note": "Parent RSPO: 4217"
            }
        },
        {
            "id": 121330,
            "type": "Feature",
            "geometry": {
                "type": "Point",
                "coordinates": [
                    18.08282,
                    52.7999
                ]
            },
            "properties": {
                "ref:rspo": 121330,
                "official_name": "Niepubliczne Przedszkole Hop Siup Z Oddzia\u0142ami Integracyjnymi",
                "name": "Niepubliczne Przedszkole Hop Siup Z Oddzia\u0142ami Integracyjnymi",
                "addr:postcode": "88-170",
                "addr:city": "Pako\u015b\u0107",
                "addr:street": "Mogile\u0144ska",
                "addr:housenumber": "21A",
                "addr:city:simc": 929517,
                "addr:street:sym_ul": 13195,
                "phone": "+48 794049769",
                "email": "przedszkole.hopsiup@gmail.com",
                "ref:regon": "341524012",
                "ref:vatin": "PL5562289215",
                "operator": "Beata Kumar",
                "operator:type": "private",
                "amenity": "kindergarten"
            }
        },
        {
            "id": 279162,
            "type": "Feature",
            "geometry": {
                "type": "Point",
                "coordinates": [
                    18.08231,
                    52.80006
                ]
            },
            "properties": {
                "ref:rspo": 279162,
                "official_name": "Niepubliczne Przedszkole Gucio Z Oddzia\u0142em Integracyjnym I Oddzia\u0142ami Specjalnymi",
                "name": "Niepubliczne Przedszkole Gucio Z Oddzia\u0142em Integracyjnym I Oddzia\u0142ami Specjalnymi",
                "addr:postcode": "88-170",
                "addr:city": "Pako\u015b\u0107",
                "addr:street": "Mogile\u0144ska",
                "addr:housenumber": "21 A",
                "addr:city:simc": 929517,
                "addr:street:sym_ul": 13195,
                "phone": "+48 523525449",
                "email": "pszszkolenia@gmail.com",
                "ref:regon": "520794546",
                "operator": "Policealne Studium Zawodowe Sp\u00f3\u0142ka Z Ograniczon\u0105 Odpowiedzialno\u015bci\u0105",
                "operator:type": "private",
                "amenity": "kindergarten"
            }
        },
        {
            "id": 4218,
            "type": "Feature",
            "geometry": {
                "type": "Point",
                "coordinates": [
                    18.08503,
                    52.8076999
                ]
            },
            "properties": {
                "isced:level": "1;2",
                "ref:rspo": 4218,
                "official_name": "Szko\u0142a Podstawowa im. Powsta\u0144c\u00f3w Wielkopolskich w Pako\u015bci",
                "name": "Szko\u0142a Podstawowa",
                "addr:postcode": "88-170",
                "addr:city": "Pako\u015b\u0107",
                "addr:street": "B\u0142onie",
                "addr:housenumber": "2",
                "addr:city:simc": 929517,
                "addr:street:sym_ul": 1465,
                "phone": "+48 523518170",
                "email": "sppakosc@gmail.com",
                "website": "http:\/\/www.sppakosc.2ap.pl",
                "ref:regon": "091153678",
                "ref:vatin": "PL5562568636",
                "operator": "Gmina Pako\u015b\u0107",
                "operator:type": "government",
                "amenity": "school"
            }
        },
        {
            "id": 16925,
            "type": "Feature",
            "geometry": {
                "type": "Point",
                "coordinates": [
                    18.08503,
                    52.8077
                ]
            },
            "properties": {
                "ref:rspo": 16925,
                "official_name": "Przedszkole Miejskie w Pako\u015bci",
                "name": "Przedszkole Miejskie w Pako\u015bci",
                "addr:postcode": "88-170",
                "addr:city": "Pako\u015b\u0107",
                "addr:street": "B\u0142onie",
                "addr:housenumber": "2a",
                "addr:city:simc": 929517,
                "addr:street:sym_ul": 1465,
                "phone": "+48 523518598",
                "email": "przedszkolemiejskiepakosc@wp.pl",
                "website": "http:\/\/przedszkolemiejskiepakosc.edupage.org",
                "ref:regon": "340114453",
                "ref:vatin": "PL5562569015",
                "operator": "Gmina Pako\u015b\u0107",
                "operator:type": "government",
                "amenity": "kindergarten"
            }
        },
        {
            "id": 262538,
            "type": "Feature",
            "geometry": {
                "type": "Point",
                "coordinates": [
                    18.0875999,
                    52.8081
                ]
            },
            "properties": {
                "isced:level": "1;2",
                "ref:rspo": 262538,
                "official_name": "Szko\u0142a Podstawowa im. Ewarysta Estkowskiego w Pako\u015bci",
                "name": "Szko\u0142a Podstawowa",
                "addr:postcode": "88-170",
                "addr:city": "Pako\u015b\u0107",
                "addr:street": "Szkolna",
                "addr:housenumber": "44",
                "addr:city:simc": 929517,
                "addr:street:sym_ul": 21970,
                "phone": "+48 525665812",
                "email": "gimnazjumpa@wp.pl",
                "website": "http:\/\/www.gimnazjumpak.edupage.org.pl",
                "ref:regon": "368030987",
                "operator": "Gmina Pako\u015b\u0107",
                "operator:type": "government",
                "amenity": "school"
            }
        }
    ]
}