{"type":"FeatureCollection","features":[{"id":41068,"type":"Feature","geometry":{"type":"Point","coordinates":[19.6144,51.73125]},"properties":{"ref:rspo":41068,"official_name":"Przedszkole Miejskie Nr 230","name":"Przedszkole Miejskie Nr 230","addr:country":"PL","addr:postcode":"92-601","addr:city":"\u0141\u00f3d\u017a","addr:street":"ul. Przylesie","addr:housenumber":"22","addr:teryt:simc":17952,"addr:teryt:sym_ul":958453,"contact:phone":"+48 426488322","contact:email":"kontakt@pm230.elodz.edu.pl","contact:website":"http:\/\/www.pm230lodz.cba.pl","ref:regon":"004341494","ref:vatin":"PL7282596986","operator":"\u0141\u00f3d\u017a-Miasto Na Prawach Powiatu","operator:type":"government","amenity":"kindergarten"}},{"id":27313,"type":"Feature","geometry":{"type":"Point","coordinates":[19.6117,51.7391999]},"properties":{"ref:rspo":27313,"official_name":"Przedszkole Miejskie Nr 229","name":"Przedszkole Miejskie Nr 229","addr:country":"PL","addr:postcode":"92-613","addr:city":"\u0141\u00f3d\u017a","addr:street":"ul. Artura Gliszczy\u0144skiego","addr:housenumber":"3\/5","addr:teryt:simc":5582,"addr:teryt:sym_ul":958453,"contact:phone":"+48 426488074","contact:email":"kontakt@pm229.elodz.edu.pl","contact:website":"http:\/\/www.pm229.pl","ref:regon":"470619741","ref:vatin":"PL7282596940","operator":"\u0141\u00f3d\u017a-Miasto Na Prawach Powiatu","operator:type":"government","amenity":"kindergarten"}},{"id":29475,"type":"Feature","geometry":{"type":"Point","coordinates":[19.57574,51.74096]},"properties":{"ref:rspo":29475,"official_name":"Abc 123 Ma\u0142e Przedszkole","name":"Abc 123 Ma\u0142e Przedszkole","addr:country":"PL","addr:postcode":"92-447","addr:city":"\u0141\u00f3d\u017a","addr:street":"ul. Mariana Cynarskiego","addr:housenumber":"9","addr:teryt:simc":34797,"addr:teryt:sym_ul":958453,"contact:phone":"+48 698649489","contact:email":"pabc123z@gmail.com","contact:website":"http:\/\/www.przedszkole-zakladowa.pl","ref:regon":"101481636","operator":"Edward Arkuszewski","operator:type":"private","amenity":"kindergarten"}},{"id":25554,"type":"Feature","geometry":{"type":"Point","coordinates":[19.62527,51.74123]},"properties":{"ref:rspo":25554,"official_name":"Przedszkole Zgromadzenia Si\u00f3str \u015aw. Karola Boromeusza","name":"Przedszkole Zgromadzenia Si\u00f3str \u015aw. Karola Boromeusza","addr:country":"PL","addr:postcode":"92-604","addr:city":"\u0141\u00f3d\u017a","addr:street":"ul. Skrzat\u00f3w","addr:housenumber":"12","addr:teryt:simc":20147,"addr:teryt:sym_ul":958453,"contact:phone":"+48 426488439","contact:email":"kontakt@przedszkolekarolanki.pl","contact:website":"http:\/\/przedszkolekarolanki.pl","ref:regon":"101479556","ref:vatin":"PL7282287995","operator":"Zgromadzenie Si\u00f3str \u015aw. Karola Boromeusza","operator:type":"religious","amenity":"kindergarten"}},{"id":26038,"type":"Feature","geometry":{"type":"Point","coordinates":[19.5609188,51.7417684]},"properties":{"isced:level":"1;2","ref:rspo":26038,"official_name":"Szko\u0142a Podstawowa Nr 141 im. Mariusza Zaruskiego","name":"Szko\u0142a Podstawowa Nr 141","addr:country":"PL","addr:postcode":"92-402","addr:city":"\u0141\u00f3d\u017a","addr:street":"ul. Zak\u0142adowa","addr:housenumber":"35","addr:teryt:simc":25449,"addr:teryt:sym_ul":958453,"contact:phone":"+48 426709993","contact:email":"kontakt@sp141.elodz.edu.pl","contact:website":"http:\/\/www.sp141lodz.pl","ref:regon":"000732039","operator":"\u0141\u00f3d\u017a-Miasto Na Prawach Powiatu","operator:type":"government","amenity":"school"}},{"id":104588,"type":"Feature","geometry":{"type":"Point","coordinates":[19.5756799,51.74188]},"properties":{"ref:rspo":104588,"official_name":"Przedszkole Publiczne \"Kolorowe Kredki\"","name":"Przedszkole Publiczne \"Kolorowe Kredki\"","addr:country":"PL","addr:postcode":"92-446","addr:city":"\u0141\u00f3d\u017a","addr:street":"ul. Wac\u0142awa Wojew\u00f3dzkiego","addr:housenumber":"30B","addr:teryt:simc":34796,"addr:teryt:sym_ul":958453,"contact:phone":"+48 501710512","contact:email":"biuro@przedszkole-kolorowekredki.pl","contact:website":"http:\/\/www.przedszkole-kolorowekredki.pl","ref:regon":"101518138","operator":"Im Trade Sp\u00f3\u0142ka Z Ograniczon\u0105 Odpowiedzialno\u015bci\u0105","operator:type":"private","amenity":"kindergarten"}},{"id":109906,"type":"Feature","geometry":{"type":"Point","coordinates":[19.5667,51.74219]},"properties":{"ref:rspo":109906,"official_name":"Przedszkole Miejskie Nr 234","name":"Przedszkole Miejskie Nr 234","addr:country":"PL","addr:postcode":"92-413","addr:city":"\u0141\u00f3d\u017a","addr:street":"ul. Ziemowita","addr:housenumber":"23","addr:teryt:simc":26129,"addr:teryt:sym_ul":958453,"contact:phone":"+48 426709994","contact:email":"kontakt@pm234.elodz.edu.pl","contact:website":"http:\/\/pm234lodz.wikom.pl","ref:regon":"004341502","ref:vatin":"PL7282595685","operator":"\u0141\u00f3d\u017a-Miasto Na Prawach Powiatu","operator:type":"government","amenity":"kindergarten"}},{"id":26093,"type":"Feature","geometry":{"type":"Point","coordinates":[19.4929099,51.74233]},"properties":{"isced:level":"1;2","ref:rspo":26093,"official_name":"Szko\u0142a Podstawowa Nr 149 im. Obro\u0144c\u00f3w Westerplatte","name":"Szko\u0142a Podstawowa Nr 149","addr:country":"PL","addr:postcode":"93-219","addr:city":"\u0141\u00f3d\u017a","addr:street":"ul. Tatrza\u0144ska","addr:housenumber":"69a","addr:teryt:simc":22717,"addr:teryt:sym_ul":958453,"contact:phone":"+48 426435242","contact:email":"kontakt@sp149.elodz.edu.pl","contact:website":"http:\/\/www.sp149.lodz.pl","ref:regon":"000811945","operator":"\u0141\u00f3d\u017a-Miasto Na Prawach Powiatu","operator:type":"government","amenity":"school"}},{"id":44592,"type":"Feature","geometry":{"type":"Point","coordinates":[19.55676,51.74304]},"properties":{"ref:rspo":44592,"official_name":"Przedszkole Miejskie Nr 221 - Integracyjne","name":"Przedszkole Miejskie Nr 221 - Integracyjne","addr:country":"PL","addr:postcode":"93-281","addr:city":"\u0141\u00f3d\u017a","addr:street":"al. Marsza\u0142ka Edwarda \u015amig\u0142ego-Rydza","addr:housenumber":"38","addr:teryt:simc":53912,"addr:teryt:sym_ul":958453,"contact:phone":"+48 426439398","contact:email":"kontakt@pm221.elodz.edu.pl","contact:website":"http:\/\/pm221.kappa.pl","ref:regon":"004341301","ref:vatin":"PL7282598471","operator":"\u0141\u00f3d\u017a-Miasto Na Prawach Powiatu","operator:type":"government","amenity":"kindergarten"}},{"id":20795,"type":"Feature","geometry":{"type":"Point","coordinates":[19.56342,51.74341]},"properties":{"ref:rspo":20795,"official_name":"Przedszkole Lingwistyczne Nr 2 Dobry Start","name":"Przedszkole Lingwistyczne Nr 2 Dobry Start","addr:country":"PL","addr:postcode":"92-413","addr:city":"\u0141\u00f3d\u017a","addr:street":"ul. D\u0105br\u00f3wki","addr:housenumber":"3","addr:door":"7","addr:teryt:simc":3701,"addr:teryt:sym_ul":958453,"contact:phone":"+48 426610400","contact:email":"dyrektor@plingwistyczne2.pl","contact:website":"http:\/\/www.plingwistyczne1.pl","ref:regon":"101474926","operator":"Joanna Bartlewicz","operator:type":"private","amenity":"kindergarten"}},{"id":26694,"type":"Feature","geometry":{"type":"Point","coordinates":[19.56247,51.74377]},"properties":{"isced:level":"1;2","ref:rspo":26694,"official_name":"Szko\u0142a Podstawowa Nr 205 im. \u015aw. Jadwigi Kr\u00f3lowej Polski","name":"Szko\u0142a Podstawowa Nr 205","addr:country":"PL","addr:postcode":"92-413","addr:city":"\u0141\u00f3d\u017a","addr:street":"ul. D\u0105br\u00f3wki","addr:housenumber":"1","addr:teryt:simc":3701,"addr:teryt:sym_ul":958453,"contact:phone":"+48 426709998","contact:email":"kontakt@sp205.elodz.edu.pl","contact:website":"https:\/\/sp205lodz.edupage.org","ref:regon":"004289718","operator":"\u0141\u00f3d\u017a-Miasto Na Prawach Powiatu","operator:type":"government","amenity":"school"}},{"id":44585,"type":"Feature","geometry":{"type":"Point","coordinates":[19.49663,51.74432]},"properties":{"ref:rspo":44585,"official_name":"Przedszkole Miejskie Nr 137 - Integracyjne","name":"Przedszkole Miejskie Nr 137 - Integracyjne","addr:country":"PL","addr:postcode":"93-217","addr:city":"\u0141\u00f3d\u017a","addr:street":"ul. Gen. Stefana Grota-Roweckiego","addr:housenumber":"6","addr:teryt:simc":48700,"addr:teryt:sym_ul":958453,"contact:phone":"+48 422529100","contact:email":"kontakt@pm137.elodz.edu.pl","contact:website":"http:\/\/wikom.pl\/pm137lodz","ref:regon":"004341100","ref:vatin":"PL7282596928","operator":"\u0141\u00f3d\u017a-Miasto Na Prawach Powiatu","operator:type":"government","amenity":"kindergarten"}},{"id":55827,"type":"Feature","geometry":{"type":"Point","coordinates":[19.49179,51.74478]},"properties":{"ref:rspo":55827,"official_name":"Przedszkole Miejskie Nr 156","name":"Przedszkole Miejskie Nr 156","addr:country":"PL","addr:postcode":"93-219","addr:city":"\u0141\u00f3d\u017a","addr:street":"ul. Tatrza\u0144ska","addr:housenumber":"59","addr:teryt:simc":22717,"addr:teryt:sym_ul":958453,"contact:phone":"+48 426430664","contact:email":"kontakt@pm156.elodz.edu.pl","contact:website":"http:\/\/pm156lodz.wikom.pl","ref:regon":"004341152","ref:vatin":"PL7282596957","operator":"\u0141\u00f3d\u017a-Miasto Na Prawach Powiatu","operator:type":"government","amenity":"kindergarten"}},{"id":55824,"type":"Feature","geometry":{"type":"Point","coordinates":[19.49613,51.74597]},"properties":{"ref:rspo":55824,"official_name":"Przedszkole Miejskie Nr 142","name":"Przedszkole Miejskie Nr 142","addr:country":"PL","addr:postcode":"93-219","addr:city":"\u0141\u00f3d\u017a","addr:street":"ul. Jana Brzechwy","addr:housenumber":"3","addr:teryt:simc":2225,"addr:teryt:sym_ul":958453,"contact:phone":"+48 426439605","contact:email":"kontakt@pm142.elodz.edu.pl","contact:website":"http:\/\/www.pm142lodz.wikom1.pl","ref:regon":"004341123","ref:vatin":"PL7282595627","operator":"\u0141\u00f3d\u017a-Miasto Na Prawach Powiatu","operator:type":"government","amenity":"kindergarten"}},{"id":55826,"type":"Feature","geometry":{"type":"Point","coordinates":[19.50032,51.74701]},"properties":{"ref:rspo":55826,"official_name":"Przedszkole Miejskie Nr 146","name":"Przedszkole Miejskie Nr 146","addr:country":"PL","addr:postcode":"93-217","addr:city":"\u0141\u00f3d\u017a","addr:street":"ul. Gustawa Morcinka","addr:housenumber":"3","addr:teryt:simc":13279,"addr:teryt:sym_ul":958453,"contact:phone":"+48 426438821","contact:email":"kontakt@pm146.elodz.edu.pl","contact:website":"http:\/\/pm146.szkoly.lodz.pl","ref:regon":"004341146","ref:vatin":"PL7282595656","operator":"\u0141\u00f3d\u017a-Miasto Na Prawach Powiatu","operator:type":"government","amenity":"kindergarten"}},{"id":27434,"type":"Feature","geometry":{"type":"Point","coordinates":[19.48792,51.74768]},"properties":{"ref:rspo":27434,"official_name":"Przedszkole Miejskie Nr 65","name":"Przedszkole Miejskie Nr 65","addr:country":"PL","addr:postcode":"93-100","addr:city":"\u0141\u00f3d\u017a","addr:street":"ul. Stanis\u0142awa Przybyszewskiego","addr:housenumber":"92","addr:teryt:simc":17892,"addr:teryt:sym_ul":958453,"contact:phone":"+48 426844952","contact:email":"kontakt@pm65.elodz.edu.pl","contact:website":"http:\/\/pm65lodz.wikom.pl","ref:regon":"004341057","ref:vatin":"PL7282599482","operator":"\u0141\u00f3d\u017a-Miasto Na Prawach Powiatu","operator:type":"government","amenity":"kindergarten"}},{"id":40743,"type":"Feature","geometry":{"type":"Point","coordinates":[19.5639608,51.7477079]},"properties":{"ref:rspo":40743,"official_name":"Przedszkole Miejskie Nr 4","name":"Przedszkole Miejskie Nr 4","addr:country":"PL","addr:postcode":"92-433","addr:city":"\u0141\u00f3d\u017a","addr:street":"ul. Andrzeja Kmicica","addr:housenumber":"5","addr:teryt:simc":8644,"addr:teryt:sym_ul":958453,"contact:phone":"+48 426700957","contact:email":"kontakt@pm4.elodz.edu.pl","contact:website":"http:\/\/www.pm4lodz.wikom.pl","ref:regon":"471027712","ref:vatin":"PL7282597359","operator":"\u0141\u00f3d\u017a-Miasto Na Prawach Powiatu","operator:type":"government","amenity":"kindergarten"}},{"id":69817,"type":"Feature","geometry":{"type":"Point","coordinates":[19.56565,51.74826]},"properties":{"ref:rspo":69817,"official_name":"Centrum \"Hajdasz\"","name":"Centrum \"Hajdasz\"","addr:country":"PL","addr:postcode":"92-440","addr:city":"\u0141\u00f3d\u017a","addr:street":"ul. Longinusa Podbipi\u0119ty","addr:housenumber":"7","addr:door":"19","addr:teryt:simc":16694,"addr:teryt:sym_ul":958453,"contact:phone":"+48 507040770","contact:email":"biuro@hajdasz.pl","ref:regon":"101492462","ref:vatin":"PL9720905018","operator":"Jacek Hajdasz","operator:type":"private","fixme":"w zale\u017cno\u015bci od przedmiotu dzia\u0142alno\u015bci (np. amenity=training + training=*, amenity=dancing_school, amenity=language_school, amenity=music_school)"}},{"id":25228,"type":"Feature","geometry":{"type":"Point","coordinates":[19.56687,51.74865]},"properties":{"ref:rspo":25228,"official_name":"Przedszkole \"Witaminka\"","name":"Przedszkole \"Witaminka\"","addr:country":"PL","addr:postcode":"92-430","addr:city":"\u0141\u00f3d\u017a","addr:street":"ul. Jana Onufrego Zag\u0142oby","addr:housenumber":"14","addr:teryt:simc":25354,"addr:teryt:sym_ul":958453,"contact:phone":"+48 501263340","contact:email":"marg8@o2.pl","ref:regon":"101478692","ref:vatin":"PL7281068564","operator":"Iwona Gliszczy\u0144ska","operator:type":"private","amenity":"kindergarten"}},{"id":25653,"type":"Feature","geometry":{"type":"Point","coordinates":[19.48999,51.74877]},"properties":{"ref:rspo":25653,"official_name":"Przedszkole \u015awi\u0119tej Anny","name":"Przedszkole \u015awi\u0119tej Anny","addr:country":"PL","addr:postcode":"93-281","addr:city":"\u0141\u00f3d\u017a","addr:street":"al. Marsza\u0142ka Edwarda \u015amig\u0142ego-Rydza","addr:housenumber":"24\/26","addr:teryt:simc":53912,"addr:teryt:sym_ul":958453,"contact:phone":"+48 422072450","contact:email":"przedszkoleanny@wp.pl","ref:regon":"101479496","ref:vatin":"PL7282790085","operator":"Rzymskokatolicka Parafia \u015aw.anny","operator:type":"religious","amenity":"kindergarten"}},{"id":278897,"type":"Feature","geometry":{"type":"Point","coordinates":[19.571593,51.748963]},"properties":{"ref:rspo":278897,"official_name":"Learn & Laugh Przedszkole Niepubliczne Maria Ptaszy\u0144ska-Szyma\u0144ska","name":"Learn & Laugh Przedszkole Niepubliczne Maria Ptaszy\u0144ska-Szyma\u0144ska","addr:country":"PL","addr:postcode":"92-431","addr:city":"\u0141\u00f3d\u017a","addr:street":"ul. Ketlinga","addr:housenumber":"23","addr:door":"11U","addr:teryt:simc":8325,"addr:teryt:sym_ul":958453,"contact:phone":"+48 661851956","contact:email":"learnandlaughkg@gmail.com","ref:regon":"520162266","operator":"Maria Ptaszy\u0144ska-Szyma\u0144ska","operator:type":"private","amenity":"kindergarten"}},{"id":25629,"type":"Feature","geometry":{"type":"Point","coordinates":[19.49476,51.7496]},"properties":{"isced:level":"3","ref:rspo":25629,"official_name":"Xliv Liceum Og\u00f3lnokszta\u0142c\u0105ce","name":"Xliv Liceum Og\u00f3lnokszta\u0142c\u0105ce","addr:country":"PL","addr:postcode":"93-118","addr:city":"\u0141\u00f3d\u017a","addr:street":"ul. Wac\u0142awa","addr:housenumber":"22\/24","addr:teryt:simc":23480,"addr:teryt:sym_ul":958453,"contact:phone":"+48 422518005","contact:email":"lo44lodz@o2.pl","ref:regon":"471029993","operator":"\u0141\u00f3d\u017a-Miasto Na Prawach Powiatu","operator:type":"government","amenity":"school"}},{"id":25844,"type":"Feature","geometry":{"type":"Point","coordinates":[19.49851,51.74971]},"properties":{"ref:rspo":25844,"official_name":"Akademia Przedszkolaka \"Promyczek\"","name":"Akademia Przedszkolaka \"Promyczek\"","addr:country":"PL","addr:postcode":"93-118","addr:city":"\u0141\u00f3d\u017a","addr:street":"ul. Wac\u0142awa","addr:housenumber":"46","addr:teryt:simc":23480,"addr:teryt:sym_ul":958453,"contact:phone":"+48 426762817","contact:email":"promyczek-przedszkole@o2.pl","contact:website":"http:\/\/www.promyczek-przedszkole.pl","ref:regon":"101479266","ref:vatin":"PL7250025111","operator":"Ma\u0142gorzata Ostrowska","operator:type":"private","amenity":"kindergarten"}},{"id":127241,"type":"Feature","geometry":{"type":"Point","coordinates":[19.46679,51.75018]},"properties":{"ref:rspo":127241,"official_name":"O\u015brodek Rozwoju Kapita\u0142u Spo\u0142ecznego","name":"O\u015brodek Rozwoju Kapita\u0142u Spo\u0142ecznego","addr:country":"PL","addr:postcode":"90-349","addr:city":"\u0141\u00f3d\u017a","addr:street":"ul. Ks. Biskupa Wincentego Tymienieckiego","addr:housenumber":"16f","addr:door":"U6","addr:teryt:simc":53875,"addr:teryt:sym_ul":958453,"contact:phone":"+48 429422060","contact:email":"fundacja@innopolis.pl","ref:regon":"361247531","operator":"Fundacja Innopolis","operator:type":"ngo","fixme":"w zale\u017cno\u015bci od przedmiotu dzia\u0142alno\u015bci (np. amenity=training + training=*, amenity=dancing_school, amenity=language_school, amenity=music_school)"}},{"id":127242,"type":"Feature","geometry":{"type":"Point","coordinates":[19.46679,51.75015]},"properties":{"ref:rspo":127242,"official_name":"O\u015brodek Rozwoju Kapita\u0142u Spo\u0142ecznego - Fundacja Innopolis","name":"O\u015brodek Rozwoju Kapita\u0142u Spo\u0142ecznego - Fundacja Innopolis","addr:country":"PL","addr:postcode":"90-349","addr:city":"\u0141\u00f3d\u017a","addr:street":"ul. Ks. Biskupa Wincentego Tymienieckiego","addr:housenumber":"16F","addr:door":"U6","addr:teryt:simc":53875,"addr:teryt:sym_ul":958453,"contact:phone":"+48 429422124","contact:email":"fundacja@innopolis.pl","ref:regon":"361260951","operator":"Fundacja Innopolis","operator:type":"ngo","fixme":"w zale\u017cno\u015bci od przedmiotu dzia\u0142alno\u015bci (np. amenity=training + training=*, amenity=dancing_school, amenity=language_school, amenity=music_school)"}},{"id":123933,"type":"Feature","geometry":{"type":"Point","coordinates":[19.4791,51.75066]},"properties":{"ref:rspo":123933,"official_name":"Bursa Szkolna Sms","name":"Bursa Szkolna Sms","addr:country":"PL","addr:postcode":"93-193","addr:city":"\u0141\u00f3d\u017a","addr:street":"ul. Milionowa","addr:housenumber":"12","addr:teryt:simc":12938,"addr:teryt:sym_ul":958453,"contact:phone":"+48 422540570","contact:email":"sekretariat@smslodz.pl","ref:regon":"101821724","operator":"Ma\u0142gorzata Ja\u0142kiewiczhoffmann","operator:type":"private","building":"dormitory"}},{"id":28035,"type":"Feature","geometry":{"type":"Point","coordinates":[19.49317,51.75161]},"properties":{"ref:rspo":28035,"official_name":"M\u0142odzie\u017cowy O\u015brodek Socjoterapii Nr 3","name":"M\u0142odzie\u017cowy O\u015brodek Socjoterapii Nr 3","addr:country":"PL","addr:postcode":"93-121","addr:city":"\u0141\u00f3d\u017a","addr:street":"ul. Cz\u0119stochowska","addr:housenumber":"36","addr:teryt:simc":3458,"addr:teryt:sym_ul":958453,"contact:phone":"+48 426331485","contact:email":"kontakt@mos3.elodz.edu.pl","ref:regon":"007012466","ref:vatin":"PL7271123528","operator":"\u0141\u00f3d\u017a-Miasto Na Prawach Powiatu","operator:type":"government","fixme":"amenity=social facility + social_facility=group_home + social_facility:for=juvenile","note":"Children RSPO: 41991"}},{"id":41991,"type":"Feature","geometry":{"type":"Point","coordinates":[19.49317,51.75158]},"properties":{"isced:level":"1;2","ref:rspo":41991,"official_name":"Szko\u0142a Podstawowa Specjalna Nr 212","name":"Szko\u0142a Podstawowa Specjalna Nr 212","addr:country":"PL","addr:postcode":"93-121","addr:city":"\u0141\u00f3d\u017a","addr:street":"ul. Cz\u0119stochowska","addr:housenumber":"36","addr:teryt:simc":3458,"addr:teryt:sym_ul":958453,"contact:phone":"+48 426331485","contact:email":"kontakt@mos3elodz.edu.pl","contact:website":"http:\/\/www.mosnr3.pl","ref:regon":"471462253","operator":"\u0141\u00f3d\u017a-Miasto Na Prawach Powiatu","operator:type":"government","amenity":"school","note":"Parent RSPO: 28035"}},{"id":29464,"type":"Feature","geometry":{"type":"Point","coordinates":[19.57301,51.75197]},"properties":{"ref:rspo":29464,"official_name":"Publiczne Przedszkole \"Galileo\"","name":"Publiczne Przedszkole \"Galileo\"","addr:country":"PL","addr:postcode":"92-437","addr:city":"\u0141\u00f3d\u017a","addr:street":"ul. Ole\u0144ki Billewicz\u00f3wny","addr:housenumber":"15","addr:teryt:simc":1344,"addr:teryt:sym_ul":958453,"contact:email":"j.poselt@operator.edu.pl","contact:website":"http:\/\/www.galileo-lodz.operator.edu.pl","ref:regon":"101481719","ref:vatin":"PL7781395875","operator":"Og\u00f3lnopolski Operator O\u015bwiaty","operator:type":"ngo","amenity":"kindergarten"}},{"id":131004,"type":"Feature","geometry":{"type":"Point","coordinates":[19.47678,51.7524]},"properties":{"ref:rspo":131004,"official_name":"Techtrain","name":"Techtrain","addr:country":"PL","addr:postcode":"90-349","addr:city":"\u0141\u00f3d\u017a","addr:street":"ul. Ks. Biskupa Wincentego Tymienieckiego","addr:housenumber":"19A","addr:teryt:simc":53875,"addr:teryt:sym_ul":958453,"contact:phone":"+48 501413683","contact:email":"kontakt@techtrain.pl","ref:regon":"364858519","operator":"Hrp Train Sp\u00f3\u0142ka Z Ograniczon\u0105 Odpowiedzialno\u015bci\u0105","operator:type":"private","fixme":"w zale\u017cno\u015bci od przedmiotu dzia\u0142alno\u015bci (np. amenity=training + training=*, amenity=dancing_school, amenity=language_school, amenity=music_school)"}},{"id":133683,"type":"Feature","geometry":{"type":"Point","coordinates":[19.47678,51.75237]},"properties":{"ref:rspo":133683,"official_name":"4Future","name":"4Future","addr:country":"PL","addr:postcode":"90-349","addr:city":"\u0141\u00f3d\u017a","addr:street":"ul. Ks. Biskupa Wincentego Tymienieckiego","addr:housenumber":"19A","addr:teryt:simc":53875,"addr:teryt:sym_ul":958453,"contact:phone":"+48 422072200","contact:email":"fundacja@4future.org.pl","contact:website":"http:\/\/www.4future.pl","ref:regon":"367529035","operator":"Fundacja 4Future","operator:type":"ngo","fixme":"w zale\u017cno\u015bci od przedmiotu dzia\u0142alno\u015bci (np. amenity=training + training=*, amenity=dancing_school, amenity=language_school, amenity=music_school)"}},{"id":264017,"type":"Feature","geometry":{"type":"Point","coordinates":[19.47678,51.752340000000004]},"properties":{"ref:rspo":264017,"official_name":"Hrp","name":"Hrp","addr:country":"PL","addr:postcode":"90-349","addr:city":"\u0141\u00f3d\u017a","addr:street":"ul. Ks. Biskupa Wincentego Tymienieckiego","addr:housenumber":"19a","addr:teryt:simc":53875,"addr:teryt:sym_ul":958453,"contact:phone":"+48 422072200","contact:email":"biuro@hrp.com.pl","ref:regon":"368253180","operator":"\"Hrp Group\" Sp\u00f3\u0142ka Z Ograniczon\u0105 Odpowiedzialno\u015bci\u0105","operator:type":"private","fixme":"w zale\u017cno\u015bci od przedmiotu dzia\u0142alno\u015bci (np. amenity=training + training=*, amenity=dancing_school, amenity=language_school, amenity=music_school)"}},{"id":23082,"type":"Feature","geometry":{"type":"Point","coordinates":[19.53851,51.75244]},"properties":{"isced:level":"1;2","ref:rspo":23082,"official_name":"Szko\u0142a Podstawowa Nr 34 im. Wis\u0142awy Szymborskiej","name":"Szko\u0142a Podstawowa Nr 34","addr:country":"PL","addr:postcode":"92-508","addr:city":"\u0141\u00f3d\u017a","addr:street":"ul. Mieczys\u0142awy \u0106wikli\u0144skiej","addr:housenumber":"9","addr:teryt:simc":3542,"addr:teryt:sym_ul":958453,"contact:phone":"+48 426730115","contact:email":"kontakt@sp34.elodz.edu.pl","ref:regon":"000772240","operator":"\u0141\u00f3d\u017a-Miasto Na Prawach Powiatu","operator:type":"government","amenity":"school"}},{"id":27939,"type":"Feature","geometry":{"type":"Point","coordinates":[19.53851,51.75241]},"properties":{"ref:rspo":27939,"official_name":"Przedszkole Miejskie Nr 175","name":"Przedszkole Miejskie Nr 175","addr:country":"PL","addr:postcode":"92-508","addr:city":"\u0141\u00f3d\u017a","addr:street":"ul. Mieczys\u0142awy \u0106wikli\u0144skiej","addr:housenumber":"9","addr:teryt:simc":3542,"addr:teryt:sym_ul":958453,"contact:phone":"+48 426730118","contact:email":"kontakt@pm175.elodz.edu.pl","contact:website":"http:\/\/www.pm175.szkoly.lodz.pl","ref:regon":"470010477","ref:vatin":"PL7282596911","operator":"\u0141\u00f3d\u017a-Miasto Na Prawach Powiatu","operator:type":"government","amenity":"kindergarten"}},{"id":48096,"type":"Feature","geometry":{"type":"Point","coordinates":[19.54116,51.75247]},"properties":{"ref:rspo":48096,"official_name":"Przedszkole Miejskie Nr 164","name":"Przedszkole Miejskie Nr 164","addr:country":"PL","addr:postcode":"92-511","addr:city":"\u0141\u00f3d\u017a","addr:street":"ul. Piotra Czajkowskiego","addr:housenumber":"4","addr:teryt:simc":3235,"addr:teryt:sym_ul":958453,"contact:phone":"+48 426730110","contact:email":"kontakt@pm164.elodz.edu.pl","contact:website":"http:\/\/www.pm164lodz.wikom.pl","ref:regon":"004341175","ref:vatin":"PL7282596905","operator":"\u0141\u00f3d\u017a-Miasto Na Prawach Powiatu","operator:type":"government","amenity":"kindergarten"}},{"id":25979,"type":"Feature","geometry":{"type":"Point","coordinates":[19.5409015,51.7543665]},"properties":{"ref:rspo":25979,"official_name":"Zesp\u00f3\u0142 Szk\u00f3\u0142 Og\u00f3lnokszta\u0142c\u0105cych Nr 1","name":"Zesp\u00f3\u0142 Szk\u00f3\u0142 Og\u00f3lnokszta\u0142c\u0105cych Nr 1","addr:country":"PL","addr:postcode":"92-511","addr:city":"\u0141\u00f3d\u017a","addr:street":"ul. Piotra Czajkowskiego","addr:housenumber":"14","addr:teryt:simc":3235,"addr:teryt:sym_ul":958453,"contact:phone":"+48 426730125","contact:email":"kontakt@zso1.elodz.edu.pl","ref:regon":"001397637","operator":"\u0141\u00f3d\u017a-Miasto Na Prawach Powiatu","operator:type":"government","landuse":"education","fixme":"amenity=school, amenity=college albo landuse=education w zale\u017cno\u015bci od tego, jakie plac\u00f3wki wchodz\u0105 w sk\u0142ad zespo\u0142u. Sprawd\u017a, kiedy stosowa\u0107 amenity=* a kiedy landuse=education.","note":"Children RSPO: 27323;267032"}},{"id":30749,"type":"Feature","geometry":{"type":"Point","coordinates":[19.5409015,51.7543365]},"properties":{"isced:level":"3","ref:rspo":30749,"official_name":"Liceum Og\u00f3lnokszta\u0142c\u0105ce dla Doros\u0142ych \u201eDr Piontek\" w \u0141odzi","name":"Liceum Og\u00f3lnokszta\u0142c\u0105ce dla Doros\u0142ych \u201eDr Piontek\" w \u0141odzi","addr:country":"PL","addr:postcode":"92-511","addr:city":"\u0141\u00f3d\u017a","addr:street":"ul. Piotra Czajkowskiego","addr:housenumber":"14","addr:teryt:simc":3235,"addr:teryt:sym_ul":958453,"contact:phone":"+48 426727490","contact:email":"jerzy@piontek.edu.pl","ref:regon":"101488118","ref:vatin":"PL7691868778","operator":"Jerzy Piontek","operator:type":"private","amenity":"school"}},{"id":272444,"type":"Feature","geometry":{"type":"Point","coordinates":[19.5409015,51.754306500000006]},"properties":{"isced:level":"1;2","ref:rspo":272444,"official_name":"Szko\u0142a Podstawowa dla Doros\u0142ych \"Dr Piontek\"","name":"Szko\u0142a Podstawowa dla Doros\u0142ych \"Dr Piontek\"","addr:country":"PL","addr:postcode":"92-511","addr:city":"\u0141\u00f3d\u017a","addr:street":"ul. Piotra Czajkowskiego","addr:housenumber":"14","addr:teryt:simc":3235,"addr:teryt:sym_ul":958453,"contact:phone":"+48 426727490","contact:email":"dyrekcja@piontek.edu.pl","contact:website":"http:\/\/www.piontek.edu.pl","ref:regon":"384173869","operator":"Jerzy Piontek","operator:type":"private","amenity":"school"}},{"id":27323,"type":"Feature","geometry":{"type":"Point","coordinates":[19.5409015,51.7542765]},"properties":{"isced:level":"3","ref:rspo":27323,"official_name":"Xxxii Liceum Og\u00f3lnokszta\u0142c\u0105ce im. Haliny Po\u015bwiatowskiej w Zespole Szk\u00f3\u0142 Og\u00f3lnokszta\u0142c\u0105cych Nr 1","name":"Xxxii Liceum Og\u00f3lnokszta\u0142c\u0105ce","addr:country":"PL","addr:postcode":"92-511","addr:city":"\u0141\u00f3d\u017a","addr:street":"ul. Piotra Czajkowskiego","addr:housenumber":"14","addr:teryt:simc":3235,"addr:teryt:sym_ul":958453,"contact:phone":"+48 426730125","contact:email":"kontakt@zso1.elodz.edu.pl","ref:regon":"472892576","operator":"\u0141\u00f3d\u017a-Miasto Na Prawach Powiatu","operator:type":"government","amenity":"school","note":"Parent RSPO: 25979"}},{"id":267032,"type":"Feature","geometry":{"type":"Point","coordinates":[19.5409015,51.7542465]},"properties":{"isced:level":"1;2","ref:rspo":267032,"official_name":"Szko\u0142a Podstawowa Nr 198 Z Oddzia\u0142ami Sportowymi w Zespole Szk\u00f3\u0142 Og\u00f3lnokszta\u0142c\u0105cych Nr 1","name":"Szko\u0142a Podstawowa Nr 198 Z Oddzia\u0142ami Sportowymi w Zespole Szk\u00f3\u0142 Og\u00f3lnokszta\u0142c\u0105cych Nr 1","addr:country":"PL","addr:postcode":"92-511","addr:city":"\u0141\u00f3d\u017a","addr:street":"ul. Piotra Czajkowskiego","addr:housenumber":"14","addr:teryt:simc":3235,"addr:teryt:sym_ul":958453,"contact:phone":"+48 426730125","contact:email":"kontakt@zso1.elodz.edu.pl","ref:regon":"369807662","operator":"\u0141\u00f3d\u017a-Miasto Na Prawach Powiatu","operator:type":"government","amenity":"school","note":"Parent RSPO: 25979"}},{"id":268033,"type":"Feature","geometry":{"type":"Point","coordinates":[19.48448,51.75486]},"properties":{"ref:rspo":268033,"official_name":"Zesp\u00f3\u0142 Szkolno-Przedszkolny Nr 3","name":"Zesp\u00f3\u0142 Szkolno-Przedszkolny Nr 3","addr:country":"PL","addr:postcode":"90-338","addr:city":"\u0141\u00f3d\u017a","addr:street":"ul. Prz\u0119dzalniana","addr:housenumber":"70","addr:teryt:simc":17793,"addr:teryt:sym_ul":958453,"contact:phone":"+48 422567271","contact:email":"kontakt@zszp3elodz.edu.pl","ref:regon":"380875480","operator":"\u0141\u00f3d\u017a-Miasto Na Prawach Powiatu","operator:type":"government","landuse":"education","fixme":"amenity=school, amenity=college albo landuse=education w zale\u017cno\u015bci od tego, jakie plac\u00f3wki wchodz\u0105 w sk\u0142ad zespo\u0142u. Sprawd\u017a, kiedy stosowa\u0107 amenity=* a kiedy landuse=education.","note":"Children RSPO: 23078;48092"}},{"id":23078,"type":"Feature","geometry":{"type":"Point","coordinates":[19.48448,51.75483]},"properties":{"isced:level":"1;2","ref:rspo":23078,"official_name":"Szko\u0142a Podstawowa Nr 29 im. Jana Kochanowskiego","name":"Szko\u0142a Podstawowa Nr 29","addr:country":"PL","addr:postcode":"90-338","addr:city":"\u0141\u00f3d\u017a","addr:street":"ul. Prz\u0119dzalniana","addr:housenumber":"70","addr:teryt:simc":17793,"addr:teryt:sym_ul":958453,"contact:phone":"+48 422567271","contact:email":"kontakt@zszp3.elodz.edu.pl","contact:website":"http:\/\/www.zsp3lodz.pl","ref:regon":"000731962","operator":"\u0141\u00f3d\u017a-Miasto Na Prawach Powiatu","operator:type":"government","amenity":"school","note":"Parent RSPO: 268033"}},{"id":48092,"type":"Feature","geometry":{"type":"Point","coordinates":[19.48448,51.7548]},"properties":{"ref:rspo":48092,"official_name":"Przedszkole Miejskie Nr 10","name":"Przedszkole Miejskie Nr 10","addr:country":"PL","addr:postcode":"90-338","addr:city":"\u0141\u00f3d\u017a","addr:street":"ul. Prz\u0119dzalniana","addr:housenumber":"70","addr:teryt:simc":17793,"addr:teryt:sym_ul":958453,"contact:phone":"+48 426742464","contact:email":"pm10lodz@wp.pl","contact:website":"http:\/\/wikom.pl\/pm10lodz","ref:regon":"004341011","ref:vatin":"PL7282595076","operator":"\u0141\u00f3d\u017a-Miasto Na Prawach Powiatu","operator:type":"government","amenity":"kindergarten","note":"Parent RSPO: 268033"}},{"id":267277,"type":"Feature","geometry":{"type":"Point","coordinates":[19.52001,51.75559]},"properties":{"ref:rspo":267277,"official_name":"Zesp\u00f3\u0142 Szkolno-Przedszkolny Nr 5","name":"Zesp\u00f3\u0142 Szkolno-Przedszkolny Nr 5","addr:country":"PL","addr:postcode":"90-001","addr:city":"\u0141\u00f3d\u017a","addr:street":"ul. Milionowa","addr:housenumber":"64","addr:teryt:simc":12938,"addr:teryt:sym_ul":958453,"contact:phone":"+48 426723346","contact:email":"kontakt@zszp5.elodz.edu.pl","contact:website":"http:\/\/sp114lodz.edupage.org","ref:regon":"380052235","operator":"\u0141\u00f3d\u017a-Miasto Na Prawach Powiatu","operator:type":"government","landuse":"education","fixme":"amenity=school, amenity=college albo landuse=education w zale\u017cno\u015bci od tego, jakie plac\u00f3wki wchodz\u0105 w sk\u0142ad zespo\u0142u. Sprawd\u017a, kiedy stosowa\u0107 amenity=* a kiedy landuse=education.","note":"Children RSPO: 23404;27506"}},{"id":23404,"type":"Feature","geometry":{"type":"Point","coordinates":[19.52001,51.755559999999996]},"properties":{"isced:level":"1;2","ref:rspo":23404,"official_name":"Szko\u0142a Podstawowa Nr 114","name":"Szko\u0142a Podstawowa Nr 114","addr:country":"PL","addr:postcode":"92-310","addr:city":"\u0141\u00f3d\u017a","addr:street":"ul. Milionowa","addr:housenumber":"64","addr:teryt:simc":12938,"addr:teryt:sym_ul":958453,"contact:phone":"+48 426723346","contact:email":"kontakt@zszp5.elodz.edu.pl","contact:website":"http:\/\/www.sp114lodz.edupage.org","ref:regon":"000732022","operator":"\u0141\u00f3d\u017a-Miasto Na Prawach Powiatu","operator:type":"government","amenity":"school","note":"Parent RSPO: 267277"}},{"id":27506,"type":"Feature","geometry":{"type":"Point","coordinates":[19.52062,51.75608]},"properties":{"ref:rspo":27506,"official_name":"Przedszkole Miejskie Nr 227","name":"Przedszkole Miejskie Nr 227","addr:country":"PL","addr:postcode":"92-310","addr:city":"\u0141\u00f3d\u017a","addr:street":"ul. Milionowa","addr:housenumber":"72","addr:teryt:simc":12938,"addr:teryt:sym_ul":958453,"contact:phone":"+48 426723300","contact:email":"pm227@onet.pl","contact:website":"http:\/\/www.pm227.edu.lodz.pl","ref:regon":"004341330","ref:vatin":"PL7282595679","operator":"\u0141\u00f3d\u017a-Miasto Na Prawach Powiatu","operator:type":"government","amenity":"kindergarten","note":"Parent RSPO: 267277"}},{"id":23081,"type":"Feature","geometry":{"type":"Point","coordinates":[19.5455599,51.75623]},"properties":{"isced:level":"1;2","ref:rspo":23081,"official_name":"Szko\u0142a Podstawowa Nr 33 im. Dr. Stefana Kopci\u0144skiego","name":"Szko\u0142a Podstawowa Nr 33","addr:country":"PL","addr:postcode":"92-512","addr:city":"\u0141\u00f3d\u017a","addr:street":"ul. Micha\u0142a Lermontowa","addr:housenumber":"7","addr:teryt:simc":10845,"addr:teryt:sym_ul":958453,"contact:phone":"+48 426727095","contact:email":"kontakt@sp33.elodz.edu.pl","contact:website":"http:\/\/sp33.org","ref:regon":"470009600","operator":"\u0141\u00f3d\u017a-Miasto Na Prawach Powiatu","operator:type":"government","amenity":"school"}},{"id":35064,"type":"Feature","geometry":{"type":"Point","coordinates":[19.5455599,51.7562]},"properties":{"ref:rspo":35064,"official_name":"Przedszkole Miejskie Nr 206 - Z Oddzia\u0142ami Integracyjnymi","name":"Przedszkole Miejskie Nr 206 - Z Oddzia\u0142ami Integracyjnymi","addr:country":"PL","addr:postcode":"92-512","addr:city":"\u0141\u00f3d\u017a","addr:street":"ul. Micha\u0142a Lermontowa","addr:housenumber":"7","addr:teryt:simc":10845,"addr:teryt:sym_ul":958453,"contact:phone":"+48 426727089","contact:email":"kontakt@pm206.elodz.edu.pl","contact:website":"http:\/\/przedszkole206lodz.pl","ref:regon":"470010483","ref:vatin":"PL7282598040","operator":"\u0141\u00f3d\u017a-Miasto Na Prawach Powiatu","operator:type":"government","amenity":"kindergarten"}},{"id":126306,"type":"Feature","geometry":{"type":"Point","coordinates":[19.47231,51.7565]},"properties":{"ref:rspo":126306,"official_name":"Przedszkole British International School Of The University Of \u0141\u00f3d\u017a","name":"Przedszkole British International School Of The University Of \u0141\u00f3d\u017a","addr:country":"PL","addr:postcode":"90-325","addr:city":"\u0141\u00f3d\u017a","addr:street":"ul. Fabryczna","addr:housenumber":"4","addr:teryt:simc":4863,"addr:teryt:sym_ul":958453,"contact:phone":"+48 795139079","contact:email":"interschool@interschool.uni.lodz.pl","ref:regon":"360207280","operator":"British International School Of The University Of \u0141\u00f3d\u017a Sp\u00f3\u0142ka Z Ograniczon\u0105 Odpowiedzialno\u015bci\u0105","operator:type":"private","amenity":"kindergarten"}},{"id":130194,"type":"Feature","geometry":{"type":"Point","coordinates":[19.47231,51.75647]},"properties":{"ref:rspo":130194,"official_name":"Zesp\u00f3\u0142 Szk\u00f3\u0142 British International School Of The University Of \u0141\u00f3d\u017a","name":"Zesp\u00f3\u0142 Szk\u00f3\u0142 British International School Of The University Of \u0141\u00f3d\u017a","addr:country":"PL","addr:postcode":"90-325","addr:city":"\u0141\u00f3d\u017a","addr:street":"ul. Fabryczna","addr:housenumber":"4","addr:teryt:simc":4863,"addr:teryt:sym_ul":958453,"contact:phone":"+48 795139079","contact:email":"interschool@interschool.uni.lodz.pl","ref:regon":"363618434","ref:vatin":"PL7252069905","operator":"British International School Of The University Of \u0141\u00f3d\u017a Sp\u00f3\u0142ka Z Ograniczon\u0105 Odpowiedzialno\u015bci\u0105","operator:type":"private","landuse":"education","fixme":"amenity=school, amenity=college albo landuse=education w zale\u017cno\u015bci od tego, jakie plac\u00f3wki wchodz\u0105 w sk\u0142ad zespo\u0142u. Sprawd\u017a, kiedy stosowa\u0107 amenity=* a kiedy landuse=education.","note":"Children RSPO: 121610;273410"}},{"id":121610,"type":"Feature","geometry":{"type":"Point","coordinates":[19.47231,51.756440000000005]},"properties":{"isced:level":"1;2","ref:rspo":121610,"official_name":"Niepubliczna Szko\u0142a Podstawowa British International School Of The University \nOf \u0141\u00f3d\u017a","name":"Niepubliczna Szko\u0142a Podstawowa British International School Of The University \nOf \u0141\u00f3d\u017a","addr:country":"PL","addr:postcode":"90-325","addr:city":"\u0141\u00f3d\u017a","addr:street":"ul. Fabryczna","addr:housenumber":"4","addr:teryt:simc":4863,"addr:teryt:sym_ul":958453,"contact:email":"interschool@interschool.uni.lodz.pl","contact:website":"http:\/\/www.interschool.uni.lodz.pl","ref:regon":"101721738","operator":"British International School Of The University Of \u0141\u00f3d\u017a Sp\u00f3\u0142ka Z Ograniczon\u0105 Odpowiedzialno\u015bci\u0105","operator:type":"private","amenity":"school","note":"Parent RSPO: 130194"}},{"id":273410,"type":"Feature","geometry":{"type":"Point","coordinates":[19.47231,51.75641]},"properties":{"isced:level":"3","ref:rspo":273410,"official_name":"Niepubliczne Liceum Og\u00f3lnokszta\u0142c\u0105ce British International School Of The University Of \u0141\u00f3d\u017a","name":"Niepubliczne Liceum Og\u00f3lnokszta\u0142c\u0105ce British International School Of The University Of \u0141\u00f3d\u017a","addr:country":"PL","addr:postcode":"90-325","addr:city":"\u0141\u00f3d\u017a","addr:street":"ul. Fabryczna","addr:housenumber":"4","addr:teryt:simc":4863,"addr:teryt:sym_ul":958453,"contact:phone":"+48 795139079","contact:email":"interschool@interschool.uni.lodz.pl","contact:website":"http:\/\/www.interschool.uni.lodz.pl","ref:regon":"384466376","operator":"British International School Of The University Of \u0141\u00f3d\u017a Sp\u00f3\u0142ka Z Ograniczon\u0105 Odpowiedzialno\u015bci\u0105","operator:type":"private","amenity":"school","note":"Parent RSPO: 130194"}},{"id":25229,"type":"Feature","geometry":{"type":"Point","coordinates":[19.5313421,51.7565171]},"properties":{"ref:rspo":25229,"official_name":"Przedszkole Integracyjne \"Hulajnoga\"","name":"Przedszkole Integracyjne \"Hulajnoga\"","addr:country":"PL","addr:postcode":"92-504","addr:city":"\u0141\u00f3d\u017a","addr:street":"ul. J\u00f3zefa Elsnera","addr:housenumber":"8","addr:teryt:simc":4785,"addr:teryt:sym_ul":958453,"contact:phone":"+48 514169999","contact:email":"biuro.hulajnoga@gmail.com","contact:website":"http:\/\/www.hulajnoga.org.pl","ref:regon":"101478670","operator":"Stowarzyszenie Na Rzecz Dzieci I M\u0142odzie\u017cy - Hulajnoga","operator:type":"ngo","amenity":"kindergarten"}},{"id":26689,"type":"Feature","geometry":{"type":"Point","coordinates":[19.5313421,51.7564871]},"properties":{"isced:level":"1;2","ref:rspo":26689,"official_name":"Szko\u0142a Podstawowa Nr 199 im. Juliana Tuwima","name":"Szko\u0142a Podstawowa Nr 199","addr:country":"PL","addr:postcode":"92-504","addr:city":"\u0141\u00f3d\u017a","addr:street":"ul. J\u00f3zefa Elsnera","addr:housenumber":"8","addr:teryt:simc":4785,"addr:teryt:sym_ul":958453,"contact:phone":"+48 426710363","contact:email":"kontakt@sp199.elodz.edu.pl","contact:website":"http:\/\/www.sp199.edu.lodz.pl","ref:regon":"470009630","operator":"\u0141\u00f3d\u017a-Miasto Na Prawach Powiatu","operator:type":"government","amenity":"school"}},{"id":22564,"type":"Feature","geometry":{"type":"Point","coordinates":[19.54325,51.75672]},"properties":{"ref:rspo":22564,"official_name":"Przedszkole Niepubliczne Artystyczno-J\u0119zykowe \"Anio\u0142kowo\"","name":"Przedszkole Niepubliczne Artystyczno-J\u0119zykowe \"Anio\u0142kowo\"","addr:country":"PL","addr:postcode":"92-513","addr:city":"\u0141\u00f3d\u017a","addr:street":"ul. Miko\u0142aja Gogola","addr:housenumber":"12","addr:teryt:simc":5706,"addr:teryt:sym_ul":958453,"contact:phone":"+48 509336709","contact:email":"info@kids-club.pl","contact:website":"http:\/\/www.kids-club.pl","ref:regon":"101476374","operator":"Monika Pietrusza","operator:type":"private","amenity":"kindergarten"}},{"id":133392,"type":"Feature","geometry":{"type":"Point","coordinates":[19.47895,51.75676]},"properties":{"ref:rspo":133392,"official_name":"Centrum Doskonalenia Nauczycieli Pcg Edukacja","name":"Centrum Doskonalenia Nauczycieli Pcg Edukacja","addr:country":"PL","addr:postcode":"90-344","addr:city":"\u0141\u00f3d\u017a","addr:street":"ul. Fabryczna","addr:housenumber":"17","addr:teryt:simc":4863,"addr:teryt:sym_ul":958453,"contact:phone":"+48 422908228","contact:website":"http:\/\/www.pcgedukacja.pl","ref:regon":"367172254","operator":"Pcg Edukacja Sp\u00f3\u0142ka Z Ograniczon\u0105 Odpowiedzialno\u015bci\u0105","operator:type":"consortium","amenity":"training"}},{"id":26084,"type":"Feature","geometry":{"type":"Point","coordinates":[19.5209699,51.75689]},"properties":{"ref:rspo":26084,"official_name":"\"Ma\u0142e Fantazje\" Punkt Przedszkolny","name":"\"Ma\u0142e Fantazje\" Punkt Przedszkolny","addr:country":"PL","addr:postcode":"92-334","addr:city":"\u0141\u00f3d\u017a","addr:street":"ul. Milionowa","addr:housenumber":"80","addr:teryt:simc":12938,"addr:teryt:sym_ul":958453,"contact:phone":"+48 505821279","contact:email":"malefantazje@op.pl","ref:regon":"101479504","operator":"Ewa Kurczewska","operator:type":"private","amenity":"kindergarten"}},{"id":27598,"type":"Feature","geometry":{"type":"Point","coordinates":[19.5272599,51.75873]},"properties":{"isced:level":"3","ref:rspo":27598,"official_name":"Xlvii Liceum Og\u00f3lnokszta\u0142c\u0105ce im. Stanis\u0142awa Staszica","name":"Xlvii Liceum Og\u00f3lnokszta\u0142c\u0105ce","addr:country":"PL","addr:postcode":"92-538","addr:city":"\u0141\u00f3d\u017a","addr:street":"ul. Stanis\u0142awa Czernika","addr:housenumber":"1\/3","addr:teryt:simc":3399,"addr:teryt:sym_ul":958453,"contact:phone":"+48 426738683","contact:email":"szkola@47lo.pl","contact:website":"http:\/\/www.47lo.pl","ref:regon":"470909479","operator":"\u0141\u00f3d\u017a-Miasto Na Prawach Powiatu","operator:type":"government","amenity":"school"}},{"id":55828,"type":"Feature","geometry":{"type":"Point","coordinates":[19.5272599,51.7587]},"properties":{"ref:rspo":55828,"official_name":"Przedszkole Miejskie Nr 163","name":"Przedszkole Miejskie Nr 163","addr:country":"PL","addr:postcode":"92-538","addr:city":"\u0141\u00f3d\u017a","addr:street":"ul. Stanis\u0142awa Czernika","addr:housenumber":"1\/3","addr:teryt:simc":3399,"addr:teryt:sym_ul":958453,"contact:phone":"+48 426738097","contact:email":"kontakt@pm163.elodz.edu.pl","contact:website":"http:\/\/www.pm163lodz.wikom.pl","ref:regon":"004341169","ref:vatin":"PL7282595053","operator":"\u0141\u00f3d\u017a-Miasto Na Prawach Powiatu","operator:type":"government","amenity":"kindergarten"}},{"id":29477,"type":"Feature","geometry":{"type":"Point","coordinates":[19.5217791,51.7587811]},"properties":{"ref:rspo":29477,"official_name":"Katolickie Przedszkole Parafii \u015aw. A. Chmielowskiego w \u0141odzi","name":"Katolickie Przedszkole Parafii \u015aw. A. Chmielowskiego w \u0141odzi","addr:country":"PL","addr:postcode":"92-547","addr:city":"\u0141\u00f3d\u017a","addr:street":"ul. \u015bw. Brata Alberta Chmielowskiego","addr:housenumber":"7B","addr:teryt:simc":30346,"addr:teryt:sym_ul":958453,"contact:phone":"+48 785890409","contact:email":"przedszkole.albert@wp.pl","ref:regon":"101482239","ref:vatin":"PL7282782418","operator":"Parafia Rzymskokatolicka Pw.\u015bwi\u0119tego Alberta Chmielowskiego","operator:type":"religious","amenity":"kindergarten"}},{"id":55820,"type":"Feature","geometry":{"type":"Point","coordinates":[19.48854,51.7596]},"properties":{"ref:rspo":55820,"official_name":"Przedszkole Miejskie Nr 83","name":"Przedszkole Miejskie Nr 83","addr:country":"PL","addr:postcode":"92-328","addr:city":"\u0141\u00f3d\u017a","addr:street":"ul. Zbiorcza","addr:housenumber":"3","addr:teryt:simc":25894,"addr:teryt:sym_ul":958453,"contact:phone":"+48 426743366","contact:email":"kontakt@pm83.elodz.edu.pl","contact:website":"http:\/\/pm83lodz.edupage.org","ref:regon":"004341063","ref:vatin":"PL7282595691","operator":"\u0141\u00f3d\u017a-Miasto Na Prawach Powiatu","operator:type":"government","amenity":"kindergarten"}},{"id":23072,"type":"Feature","geometry":{"type":"Point","coordinates":[19.5453699,51.76075]},"properties":{"isced:level":"1;2","ref:rspo":23072,"official_name":"Szko\u0142a Podstawowa Nr 12 im. Mariana Batki","name":"Szko\u0142a Podstawowa Nr 12","addr:country":"PL","addr:postcode":"92-306","addr:city":"\u0141\u00f3d\u017a","addr:street":"ul. Juliusza Jurczy\u0144skiego","addr:housenumber":"1\/3","addr:teryt:simc":7679,"addr:teryt:sym_ul":958453,"contact:phone":"+48 426729427","contact:email":"kontakt@sp12.elodz.edu.pl","contact:website":"http:\/\/www.sp12.edu.pl","ref:regon":"470009623","operator":"\u0141\u00f3d\u017a-Miasto Na Prawach Powiatu","operator:type":"government","amenity":"school"}},{"id":27814,"type":"Feature","geometry":{"type":"Point","coordinates":[19.5453699,51.76072]},"properties":{"ref:rspo":27814,"official_name":"Przedszkole Miejskie Nr 218","name":"Przedszkole Miejskie Nr 218","addr:country":"PL","addr:postcode":"92-306","addr:city":"\u0141\u00f3d\u017a","addr:street":"ul. Juliusza Jurczy\u0144skiego","addr:housenumber":"1\/3","addr:teryt:simc":7679,"addr:teryt:sym_ul":958453,"contact:phone":"+48 426729426","contact:email":"kontakt@pm218.elodz.edu.pl","contact:website":"http:\/\/www.pm218lodz.wikom.pl","ref:regon":"470572229","ref:vatin":"PL7282596992","operator":"\u0141\u00f3d\u017a-Miasto Na Prawach Powiatu","operator:type":"government","amenity":"kindergarten"}},{"id":128090,"type":"Feature","geometry":{"type":"Point","coordinates":[19.5453699,51.760690000000004]},"properties":{"ref:rspo":128090,"official_name":"Mp System Micha\u0142 Pytlik","name":"Mp System Micha\u0142 Pytlik","addr:country":"PL","addr:postcode":"92-306","addr:city":"\u0141\u00f3d\u017a","addr:street":"ul. Juliusza Jurczy\u0144skiego","addr:housenumber":"1\/3","addr:teryt:simc":7679,"addr:teryt:sym_ul":958453,"contact:phone":"+48 507850407","contact:email":"cris.lodz@poczta.onet.pl","ref:regon":"362085295","operator":"Micha\u0142 Pytlik","operator:type":"private","fixme":"w zale\u017cno\u015bci od przedmiotu dzia\u0142alno\u015bci (np. amenity=training + training=*, amenity=dancing_school, amenity=language_school, amenity=music_school)"}},{"id":93081,"type":"Feature","geometry":{"type":"Point","coordinates":[19.48432,51.76109]},"properties":{"isced:level":"1;2","ref:rspo":93081,"official_name":"Szko\u0142a Podstawowa Specjalna Nr 146. Filia Nr 2.","name":"Szko\u0142a Podstawowa Specjalna Nr 146. Filia Nr 2.","addr:country":"PL","addr:postcode":"90-329","addr:city":"\u0141\u00f3d\u017a","addr:street":"al. marsz. J\u00f3zefa Pi\u0142sudskiego","addr:housenumber":"71","addr:teryt:simc":16270,"addr:teryt:sym_ul":958453,"contact:email":"kontakt@sps146.elodz.edu.pl","contact:website":"http:\/\/www.sps146lodz.ugu.pl","ref:regon":"472912540","operator":"\u0141\u00f3d\u017a-Miasto Na Prawach Powiatu","operator:type":"government","amenity":"school","note":"Parent RSPO: 34195"}},{"id":42466,"type":"Feature","geometry":{"type":"Point","coordinates":[19.50067,51.76122]},"properties":{"isced:level":"4","ref:rspo":42466,"official_name":"Policealna Szko\u0142a Opiekun\u00f3w Medycznych Centrum Edukacji I Rozwoju Osobistego \"Ceiro\" w \u0141odzi","name":"Policealna Szko\u0142a Opiekun\u00f3w Medycznych Centrum Edukacji I Rozwoju Osobistego \"Ceiro\" w \u0141odzi","addr:country":"PL","addr:postcode":"92-318","addr:city":"\u0141\u00f3d\u017a","addr:street":"al. marsz. J\u00f3zefa Pi\u0142sudskiego","addr:housenumber":"135","addr:teryt:simc":16270,"addr:teryt:sym_ul":958453,"contact:phone":"+48 668444502","contact:email":"garstkamarek@wp.pl","contact:website":"http:\/\/www.ceiro.com.pl","ref:regon":"101485090","ref:vatin":"PL7321507261","operator":"Krystyna Walewska","operator:type":"private","amenity":"college"}},{"id":17954,"type":"Feature","geometry":{"type":"Point","coordinates":[19.4901,51.76165]},"properties":{"ref:rspo":17954,"official_name":"Poradnia Psychologiczno-Pedagogiczna Nr 4","name":"Poradnia Psychologiczno-Pedagogiczna Nr 4","addr:country":"PL","addr:postcode":"92-332","addr:city":"\u0141\u00f3d\u017a","addr:street":"al. marsz. J\u00f3zefa Pi\u0142sudskiego","addr:housenumber":"101","addr:teryt:simc":16270,"addr:teryt:sym_ul":958453,"contact:phone":"+48 426745973","contact:email":"kontakt@ppp4.elodz.edu.pl","contact:website":"http:\/\/www.ppp4.edu.lodz.pl","ref:regon":"000732163","ref:vatin":"PL7282328346","operator":"\u0141\u00f3d\u017a-Miasto Na Prawach Powiatu","operator:type":"government","healthcare":"councelling","counselling_type":"education","fixme":"w zale\u017cno\u015bci od przedmiotu dzia\u0142alno\u015bci (np. healthcare=councelling + counselling_type=education albo healthcare=psychotherapist)"}},{"id":34697,"type":"Feature","geometry":{"type":"Point","coordinates":[19.4901,51.76162]},"properties":{"isced:level":"1;2","ref:rspo":34697,"official_name":"Szko\u0142a Podstawowa Nr 4 im. Komisji Edukacji Narodowej","name":"Szko\u0142a Podstawowa Nr 4","addr:country":"PL","addr:postcode":"92-332","addr:city":"\u0141\u00f3d\u017a","addr:street":"al. marsz. J\u00f3zefa Pi\u0142sudskiego","addr:housenumber":"101","addr:teryt:simc":16270,"addr:teryt:sym_ul":958453,"contact:phone":"+48 426743576","contact:email":"sp4ken@wp.pl","contact:website":"http:\/\/www.sp4lodz.wikom.pl","ref:regon":"000731956","operator":"\u0141\u00f3d\u017a-Miasto Na Prawach Powiatu","operator:type":"government","amenity":"school"}},{"id":27406,"type":"Feature","geometry":{"type":"Point","coordinates":[19.52622,51.7617199]},"properties":{"ref:rspo":27406,"official_name":"Przedszkole Miejskie Nr 183","name":"Przedszkole Miejskie Nr 183","addr:country":"PL","addr:postcode":"92-555","addr:city":"\u0141\u00f3d\u017a","addr:street":"ul. Stanis\u0142awa Czernika","addr:housenumber":"18","addr:teryt:simc":3399,"addr:teryt:sym_ul":958453,"contact:phone":"+48 426738597","contact:email":"kontakt@pm183.elodz.edu.pl","contact:website":"http:\/\/www.pm183.net.pl","ref:regon":"004341241","ref:vatin":"PL7282598488","operator":"\u0141\u00f3d\u017a-Miasto Na Prawach Powiatu","operator:type":"government","amenity":"kindergarten"}},{"id":26268,"type":"Feature","geometry":{"type":"Point","coordinates":[19.47766,51.7618]},"properties":{"isced:level":"1;2","ref:rspo":26268,"official_name":"Szko\u0142a Podstawowa Nr 170 im. Anieli Krzywo\u0144","name":"Szko\u0142a Podstawowa Nr 170","addr:country":"PL","addr:postcode":"90-038","addr:city":"\u0141\u00f3d\u017a","addr:street":"ul. Miedziana","addr:housenumber":"1\/3","addr:teryt:simc":12765,"addr:teryt:sym_ul":958453,"contact:phone":"+48 426743742","contact:email":"kontakt@sp170.elodz.edu.pl","contact:website":"http:\/\/sp170.edupage.org","ref:regon":"000732074","operator":"\u0141\u00f3d\u017a-Miasto Na Prawach Powiatu","operator:type":"government","amenity":"school"}},{"id":27887,"type":"Feature","geometry":{"type":"Point","coordinates":[19.4813,51.76217]},"properties":{"ref:rspo":27887,"official_name":"Przedszkole Miejskie Nr 138","name":"Przedszkole Miejskie Nr 138","addr:country":"PL","addr:postcode":"90-030","addr:city":"\u0141\u00f3d\u017a","addr:street":"ul. Prz\u0119dzalniana","addr:housenumber":"40","addr:teryt:simc":17793,"addr:teryt:sym_ul":958453,"contact:phone":"+48 426747239","contact:email":"kontakt@pm138.elodz.edu.pl","contact:website":"http:\/\/www.pm138lodz.wikom.pl","ref:regon":"004341117","ref:vatin":"PL7282596934","operator":"\u0141\u00f3d\u017a-Miasto Na Prawach Powiatu","operator:type":"government","amenity":"kindergarten"}},{"id":55829,"type":"Feature","geometry":{"type":"Point","coordinates":[19.543279647827,51.762439727783]},"properties":{"ref:rspo":55829,"official_name":"Przedszkole Miejskie Nr 171","name":"Przedszkole Miejskie Nr 171","addr:country":"PL","addr:postcode":"92-524","addr:city":"\u0141\u00f3d\u017a","addr:street":"ul. Andrzeja Sacharowa","addr:housenumber":"41","addr:teryt:simc":53139,"addr:teryt:sym_ul":958453,"contact:phone":"+48 426730120","contact:email":"kontakt@pm171.elodz.edu.pl","contact:website":"http:\/\/www.pm171.edu.lodz.pl","ref:regon":"004341181","ref:vatin":"PL7282596963","operator":"\u0141\u00f3d\u017a-Miasto Na Prawach Powiatu","operator:type":"government","amenity":"kindergarten"}},{"id":269664,"type":"Feature","geometry":{"type":"Point","coordinates":[19.4950699,51.76249]},"properties":{"ref:rspo":269664,"official_name":"Centrum Szkole\u0144 Specjalistycznych C4G","name":"Centrum Szkole\u0144 Specjalistycznych C4G","addr:country":"PL","addr:postcode":"92-318","addr:city":"\u0141\u00f3d\u017a","addr:street":"al. marsz. J\u00f3zefa Pi\u0142sudskiego","addr:housenumber":"141","addr:teryt:simc":16270,"addr:teryt:sym_ul":958453,"contact:phone":"+48 507058141","contact:email":"kontakt@c4guns.pl","ref:regon":"381651251","operator":"Sebastian Straszy\u0144ski","operator:type":"private","fixme":"w zale\u017cno\u015bci od przedmiotu dzia\u0142alno\u015bci (np. amenity=training + training=*, amenity=dancing_school, amenity=language_school, amenity=music_school)"}},{"id":272718,"type":"Feature","geometry":{"type":"Point","coordinates":[19.49507,51.76249]},"properties":{"ref:rspo":272718,"official_name":"Niepubliczne Dwuj\u0119zyczne Przedszkole Kids&Co.2","name":"Niepubliczne Dwuj\u0119zyczne Przedszkole Kids&Co.2","addr:country":"PL","addr:postcode":"92-322","addr:city":"\u0141\u00f3d\u017a","addr:street":"al. marsz. J\u00f3zefa Pi\u0142sudskiego","addr:housenumber":"87","addr:teryt:simc":16270,"addr:teryt:sym_ul":958453,"contact:phone":"+48 575008410","contact:email":"magdalena.jakubowska@kids-co.pl","ref:regon":"384280849","operator":"Centrum Rozwoju Dziecka Sp\u00f3\u0142ka Z Ograniczon\u0105 Odpowiedzialno\u015bci\u0105","operator:type":"private","amenity":"kindergarten"}},{"id":26688,"type":"Feature","geometry":{"type":"Point","coordinates":[19.542980194092,51.762550354004]},"properties":{"isced:level":"1;2","ref:rspo":26688,"official_name":"Szko\u0142a Podstawowa Nr 193 im. Krzysztofa Kamila Baczy\u0144skiego","name":"Szko\u0142a Podstawowa Nr 193","addr:country":"PL","addr:postcode":"93-221","addr:city":"\u0141\u00f3d\u017a","addr:street":"ul. Ma\u0142ej Pi\u0119tnastki","addr:housenumber":"1","addr:teryt:simc":53141,"addr:teryt:sym_ul":958453,"contact:phone":"+48 426439273","contact:email":"kontakt@sp193.elodz.edu.pl","contact:website":"http:\/\/www.sp193.edu.lodz.pl","ref:regon":"470014357","operator":"\u0141\u00f3d\u017a-Miasto Na Prawach Powiatu","operator:type":"government","amenity":"school"}},{"id":25401,"type":"Feature","geometry":{"type":"Point","coordinates":[19.50953,51.76307]},"properties":{"isced:level":"3","ref:rspo":25401,"official_name":"Xxiii Liceum Og\u00f3lnokszta\u0142c\u0105ce im. Ks. Prof. J\u00f3zefa Tischnera","name":"Xxiii Liceum Og\u00f3lnokszta\u0142c\u0105ce","addr:country":"PL","addr:postcode":"92-301","addr:city":"\u0141\u00f3d\u017a","addr:street":"al. marsz. J\u00f3zefa Pi\u0142sudskiego","addr:housenumber":"159","addr:teryt:simc":16270,"addr:teryt:sym_ul":958453,"contact:phone":"+48 426745872","contact:email":"kontakt@lo23.elodz.edu.pl","ref:regon":"000732111","operator":"\u0141\u00f3d\u017a-Miasto Na Prawach Powiatu","operator:type":"government","amenity":"school"}},{"id":274483,"type":"Feature","geometry":{"type":"Point","coordinates":[19.47669,51.76331]},"properties":{"ref:rspo":274483,"official_name":"Salezja\u0144skie Szko\u0142y Rzemios\u0142 w \u0141odzi","name":"Salezja\u0144skie Szko\u0142y Rzemios\u0142 w \u0141odzi","addr:country":"PL","addr:postcode":"90-046","addr:city":"\u0141\u00f3d\u017a","addr:street":"ul. Wodna","addr:housenumber":"34","addr:teryt:simc":24550,"addr:teryt:sym_ul":958453,"contact:phone":"+48 426718480","contact:email":"sekretariat@szkolyrzemiosl.edu.pl","ref:regon":"385834327","operator":"Towarzystwo Salezja\u0144skie - Inspektoria (Prowincja) \u015aw.stanis\u0142awa Kostki","operator:type":"religious","landuse":"education","fixme":"amenity=school, amenity=college albo landuse=education w zale\u017cno\u015bci od tego, jakie plac\u00f3wki wchodz\u0105 w sk\u0142ad zespo\u0142u. Sprawd\u017a, kiedy stosowa\u0107 amenity=* a kiedy landuse=education.","note":"Children RSPO: 274276;274282"}},{"id":76156,"type":"Feature","geometry":{"type":"Point","coordinates":[19.47669,51.763279999999995]},"properties":{"ref:rspo":76156,"official_name":"Bursa Salezja\u0144ska dla M\u0142odzie\u017cy im. Ksi\u0119dza Bosko","name":"Bursa Salezja\u0144ska dla M\u0142odzie\u017cy","addr:country":"PL","addr:postcode":"90-046","addr:city":"\u0141\u00f3d\u017a","addr:street":"ul. Wodna","addr:housenumber":"34\/36","addr:teryt:simc":24550,"addr:teryt:sym_ul":958453,"contact:phone":"+48 426718500","contact:email":"szkola@wodna.edu.pl","contact:website":"http:\/\/wodna.edu.pl","ref:regon":"101507703","ref:vatin":"PL1131083010","operator":"Towarzystwo Salezja\u0144skie - Inspektoria (Prowincja) \u015aw.stanis\u0142awa Kostki","operator:type":"religious","building":"dormitory","note":"Parent RSPO: 69344"}},{"id":132593,"type":"Feature","geometry":{"type":"Point","coordinates":[19.47669,51.76325]},"properties":{"isced:level":"1;2","ref:rspo":132593,"official_name":"Salezja\u0144ska Szko\u0142a Podstawowa im. Ksi\u0119dza Bosko","name":"Salezja\u0144ska Szko\u0142a Podstawowa","addr:country":"PL","addr:postcode":"90-046","addr:city":"\u0141\u00f3d\u017a","addr:street":"ul. Wodna","addr:housenumber":"34","addr:teryt:simc":24550,"addr:teryt:sym_ul":958453,"contact:phone":"+48 426718500","contact:email":"szkola@wodna.edu.pl","contact:website":"http:\/\/wodna.edu.pl","ref:regon":"365878100","operator":"Towarzystwo Salezja\u0144skie - Inspektoria (Prowincja) \u015aw.stanis\u0142awa Kostki","operator:type":"religious","amenity":"school","note":"Parent RSPO: 69344"}},{"id":274276,"type":"Feature","geometry":{"type":"Point","coordinates":[19.47669,51.76322]},"properties":{"isced:level":"3","ref:rspo":274276,"official_name":"Salezja\u0144ska Szko\u0142a Bran\u017cowa I Stopnia im. \u015aw. J\u00f3zefa Rzemie\u015blnika w Zespole Salezja\u0144skich Szk\u00f3\u0142 Rzemios\u0142 w \u0141odzi","name":"Salezja\u0144ska Szko\u0142a Bran\u017cowa I Stopnia","addr:country":"PL","addr:postcode":"90-046","addr:city":"\u0141\u00f3d\u017a","addr:street":"ul. Wodna","addr:housenumber":"34","addr:teryt:simc":24550,"addr:teryt:sym_ul":958453,"contact:phone":"+48 426718480","contact:email":"sekretariat@szkolyrzemiosl.edu.pl","ref:regon":"385510560","operator":"Towarzystwo Salezja\u0144skie - Inspektoria (Prowincja) \u015aw.stanis\u0142awa Kostki","operator:type":"religious","amenity":"school","note":"Parent RSPO: 274483"}},{"id":274282,"type":"Feature","geometry":{"type":"Point","coordinates":[19.47669,51.763189999999994]},"properties":{"isced:level":"3","ref:rspo":274282,"official_name":"Technikum Salezja\u0144skie im. \u015aw. J\u00f3zefa Rzemie\u015blnika w Zespole Salezja\u0144skich Szk\u00f3\u0142 Rzemios\u0142 w \u0141odzi","name":"Technikum Salezja\u0144skie","addr:country":"PL","addr:postcode":"90-046","addr:city":"\u0141\u00f3d\u017a","addr:street":"ul. Wodna","addr:housenumber":"34","addr:teryt:simc":24550,"addr:teryt:sym_ul":958453,"contact:phone":"+48 426718480","contact:email":"sekretariat@szkolyrzemiosl.edu.pl","ref:regon":"385518388","operator":"Towarzystwo Salezja\u0144skie - Inspektoria (Prowincja) \u015aw.stanis\u0142awa Kostki","operator:type":"religious","amenity":"school","note":"Parent RSPO: 274483"}},{"id":35062,"type":"Feature","geometry":{"type":"Point","coordinates":[19.50419,51.7638]},"properties":{"ref:rspo":35062,"official_name":"Przedszkole Miejskie Nr 185","name":"Przedszkole Miejskie Nr 185","addr:country":"PL","addr:postcode":"92-207","addr:city":"\u0141\u00f3d\u017a","addr:street":"ul. Szpitalna","addr:housenumber":"13","addr:teryt:simc":22073,"addr:teryt:sym_ul":958453,"contact:phone":"+48 426743612","contact:email":"kontakt@pm185.elodz.edu.pl","contact:website":"http:\/\/pm185.szkoly.net.pl","ref:regon":"004341264","ref:vatin":"PL7282598502","operator":"\u0141\u00f3d\u017a-Miasto Na Prawach Powiatu","operator:type":"government","amenity":"kindergarten"}},{"id":277984,"type":"Feature","geometry":{"type":"Point","coordinates":[19.48123,51.76445]},"properties":{"ref:rspo":277984,"official_name":"Centrum Zdrowia Sensomed Wojciech Modzelewski","name":"Centrum Zdrowia Sensomed Wojciech Modzelewski","addr:country":"PL","addr:postcode":"90-029","addr:city":"\u0141\u00f3d\u017a","addr:street":"ul. Nawrot","addr:housenumber":"104","addr:teryt:simc":14060,"addr:teryt:sym_ul":958453,"contact:phone":"+48 694304569","contact:email":"kontakt@czdrowia.pl","ref:regon":"389724541","operator":"Wojciech Modzelewski","operator:type":"private","healthcare":"councelling","counselling_type":"education","fixme":"w zale\u017cno\u015bci od przedmiotu dzia\u0142alno\u015bci (np. healthcare=councelling + counselling_type=education albo healthcare=psychotherapist)"}},{"id":279029,"type":"Feature","geometry":{"type":"Point","coordinates":[19.51959,51.76478]},"properties":{"ref:rspo":279029,"official_name":"Innowacyjne Przedszkole Sensoryczne Plastynka","name":"Innowacyjne Przedszkole Sensoryczne Plastynka","addr:country":"PL","addr:postcode":"92-230","addr:city":"\u0141\u00f3d\u017a","addr:street":"al. marsz. J\u00f3zefa Pi\u0142sudskiego","addr:housenumber":"158A","addr:teryt:simc":16270,"addr:teryt:sym_ul":958453,"contact:email":"inposterum.nonprofit@gmail.com","ref:regon":"520448614","operator":"In Posterum Non-Profit Sp\u00f3\u0142ka Z Ograniczon\u0105 Odpowiedzialno\u015bci\u0105","operator:type":"private","amenity":"kindergarten"}},{"id":55818,"type":"Feature","geometry":{"type":"Point","coordinates":[19.47841,51.76489]},"properties":{"ref:rspo":55818,"official_name":"Przedszkole Miejskie Nr 15","name":"Przedszkole Miejskie Nr 15","addr:country":"PL","addr:postcode":"90-036","addr:city":"\u0141\u00f3d\u017a","addr:street":"ul. Wysoka","addr:housenumber":"28","addr:teryt:simc":25067,"addr:teryt:sym_ul":958453,"contact:phone":"+48 426742121","contact:email":"kontakt@pm15.elodz.edu.pl","contact:website":"http:\/\/www.pm15lodz.przedszkolna.net","ref:regon":"004341028","ref:vatin":"PL7282598519","operator":"\u0141\u00f3d\u017a-Miasto Na Prawach Powiatu","operator:type":"government","amenity":"kindergarten"}},{"id":53196,"type":"Feature","geometry":{"type":"Point","coordinates":[19.5021,51.76501]},"properties":{"ref:rspo":53196,"official_name":"\"Pro-Futuro\" Sp. Z O.o.","name":"\"Pro-Futuro\" Sp. Z O.o.","addr:country":"PL","addr:postcode":"92-203","addr:city":"\u0141\u00f3d\u017a","addr:street":"ul. Konstytucyjna","addr:housenumber":"42c","addr:teryt:simc":9214,"addr:teryt:sym_ul":958453,"contact:phone":"+48 426744466","contact:email":"pro-futuro@pro-futuro.net","contact:website":"http:\/\/www.ceiron.org.pl","ref:regon":"101487998","ref:vatin":"PL7292458240","operator":"\"Pro-Futuro\" Sp. Z O.o.","operator:type":"private","fixme":"w zale\u017cno\u015bci od przedmiotu dzia\u0142alno\u015bci (np. amenity=training + training=*, amenity=dancing_school, amenity=language_school, amenity=music_school)"}},{"id":54077,"type":"Feature","geometry":{"type":"Point","coordinates":[19.5021,51.764979999999994]},"properties":{"ref:rspo":54077,"official_name":"Centrum Edukacji I Rehabilitacji Os\u00f3b Niepe\u0142nosprawnych w \u0141odzi","name":"Centrum Edukacji I Rehabilitacji Os\u00f3b Niepe\u0142nosprawnych w \u0141odzi","addr:country":"PL","addr:postcode":"92-203","addr:city":"\u0141\u00f3d\u017a","addr:street":"ul. Konstytucyjna","addr:housenumber":"42c","addr:teryt:simc":9214,"addr:teryt:sym_ul":958453,"contact:phone":"+48 426744466","contact:email":"ceiron@ceiron.org.pl","contact:website":"http:\/\/www.ceiron.org.pl","ref:regon":"101489900","ref:vatin":"PL7282493387","operator":"Centrum Edukacji I Rehabilitacji Os\u00f3b Niepe\u0142nosprawnych","operator:type":"ngo","fixme":"w zale\u017cno\u015bci od przedmiotu dzia\u0142alno\u015bci (np. amenity=training + training=*, amenity=dancing_school, amenity=language_school, amenity=music_school)"}},{"id":23085,"type":"Feature","geometry":{"type":"Point","coordinates":[19.50384,51.76504]},"properties":{"isced:level":"1;2","ref:rspo":23085,"official_name":"Szko\u0142a Podstawowa Nr 37 im. Janusza Kusoci\u0144skiego","name":"Szko\u0142a Podstawowa Nr 37","addr:country":"PL","addr:postcode":"92-207","addr:city":"\u0141\u00f3d\u017a","addr:street":"ul. Szpitalna","addr:housenumber":"9\/11","addr:teryt:simc":22073,"addr:teryt:sym_ul":958453,"contact:phone":"+48 426741908","contact:email":"kontakt@sp37.elodz.edu.pl","contact:website":"http:\/\/www.sp37lodz.wikom.pl","ref:regon":"000731985","operator":"\u0141\u00f3d\u017a-Miasto Na Prawach Powiatu","operator:type":"government","amenity":"school"}},{"id":53222,"type":"Feature","geometry":{"type":"Point","coordinates":[19.51677,51.76521]},"properties":{"ref:rspo":53222,"official_name":"Specjalistyczny O\u015brodek Szkolenia","name":"Specjalistyczny O\u015brodek Szkolenia","addr:country":"PL","addr:postcode":"92-229","addr:city":"\u0141\u00f3d\u017a","addr:street":"ul. Widzewska","addr:housenumber":"14","addr:teryt:simc":24015,"addr:teryt:sym_ul":958453,"contact:phone":"+48 426775701","contact:email":"ochrona@atos.pl","contact:website":"http:\/\/www.atosochrona.com.pl","ref:regon":"101490167","ref:vatin":"PL7280008525","operator":"Atos Sp. Z O.o.","operator:type":"private","fixme":"w zale\u017cno\u015bci od przedmiotu dzia\u0142alno\u015bci (np. amenity=training + training=*, amenity=dancing_school, amenity=language_school, amenity=music_school)"}},{"id":22518,"type":"Feature","geometry":{"type":"Point","coordinates":[19.48169,51.766]},"properties":{"isced:level":"3","ref:rspo":22518,"official_name":"Ii Liceum Og\u00f3lnokszta\u0142c\u0105ce im. Gabriela Narutowicza","name":"Ii Liceum Og\u00f3lnokszta\u0142c\u0105ce","addr:country":"PL","addr:postcode":"90-031","addr:city":"\u0141\u00f3d\u017a","addr:street":"ul. Nowa","addr:housenumber":"11\/13","addr:teryt:simc":14330,"addr:teryt:sym_ul":958453,"contact:phone":"+48 426741999","contact:email":"kontakt@lo2.elodz.edu.pl","contact:website":"http:\/\/lo2-lodz.edupage.org\/","ref:regon":"000732105","operator":"\u0141\u00f3d\u017a-Miasto Na Prawach Powiatu","operator:type":"government","amenity":"school"}},{"id":48094,"type":"Feature","geometry":{"type":"Point","coordinates":[19.48466,51.76621]},"properties":{"ref:rspo":48094,"official_name":"Przedszkole Miejskie Nr 224","name":"Przedszkole Miejskie Nr 224","addr:country":"PL","addr:postcode":"90-032","addr:city":"\u0141\u00f3d\u017a","addr:street":"ul. dr. Stefana Kopci\u0144skiego","addr:housenumber":"54","addr:teryt:simc":9257,"addr:teryt:sym_ul":958453,"contact:phone":"+48 426741863","contact:email":"kontakt@pm224.elodz.edu.pl","contact:website":"http:\/\/www.pm224lodz.wikom.pl","ref:regon":"470009793","ref:vatin":"PL7282597773","operator":"\u0141\u00f3d\u017a-Miasto Na Prawach Powiatu","operator:type":"government","amenity":"kindergarten"}},{"id":267033,"type":"Feature","geometry":{"type":"Point","coordinates":[19.48466,51.76618]},"properties":{"isced:level":"3","ref:rspo":267033,"official_name":"Xi Liceum Og\u00f3lnokszta\u0142c\u0105ce","name":"Xi Liceum Og\u00f3lnokszta\u0142c\u0105ce","addr:country":"PL","addr:postcode":"90-032","addr:city":"\u0141\u00f3d\u017a","addr:street":"ul. dr. Stefana Kopci\u0144skiego","addr:housenumber":"54","addr:teryt:simc":9257,"addr:teryt:sym_ul":958453,"contact:phone":"+48 426747778","contact:email":"11liceumlodz@wikom.pl","contact:website":"http:\/\/11liceumlodz.wikom.pl","ref:regon":"369807596","operator":"\u0141\u00f3d\u017a-Miasto Na Prawach Powiatu","operator:type":"government","amenity":"school"}},{"id":55822,"type":"Feature","geometry":{"type":"Point","coordinates":[19.50664,51.76621]},"properties":{"ref:rspo":55822,"official_name":"Przedszkole Miejskie Nr 107","name":"Przedszkole Miejskie Nr 107","addr:country":"PL","addr:postcode":"92-235","addr:city":"\u0141\u00f3d\u017a","addr:street":"ul. J\u00f3zefa","addr:housenumber":"19","addr:teryt:simc":7623,"addr:teryt:sym_ul":958453,"contact:phone":"+48 426745819","contact:email":"kontakt@pm107.elodz.edu.pl","contact:website":"http:\/\/wikom.pl\/pm107lodz","ref:regon":"004341092","ref:vatin":"PL7282598927","operator":"\u0141\u00f3d\u017a-Miasto Na Prawach Powiatu","operator:type":"government","amenity":"kindergarten"}},{"id":133352,"type":"Feature","geometry":{"type":"Point","coordinates":[19.48222,51.76709]},"properties":{"ref:rspo":133352,"official_name":"Centrum Edukacji I Kszta\u0142cenia Regionalnego Oddzia\u0142u Polskiej Izby Bieg\u0142ych Rewident\u00f3w w \u0141odzi (Cek \u0141\u00f3d\u017a)","name":"Centrum Edukacji I Kszta\u0142cenia Regionalnego Oddzia\u0142u Polskiej Izby Bieg\u0142ych Rewident\u00f3w w \u0141odzi (Cek \u0141\u00f3d\u017a)","addr:country":"PL","addr:postcode":"90-031","addr:city":"\u0141\u00f3d\u017a","addr:street":"ul. Nowa","addr:housenumber":"6\/12","addr:teryt:simc":14330,"addr:teryt:sym_ul":958453,"contact:phone":"+48 426399923","contact:email":"biuro@pibr.org.pl","ref:regon":"367099379","operator":"Polska Izba Bieg\u0142ych Rewident\u00f3w","operator:type":"cooperative","fixme":"w zale\u017cno\u015bci od przedmiotu dzia\u0142alno\u015bci (np. amenity=training + training=*, amenity=dancing_school, amenity=language_school, amenity=music_school)"}},{"id":119364,"type":"Feature","geometry":{"type":"Point","coordinates":[19.56776,51.7697999]},"properties":{"isced:level":"1;2","ref:rspo":119364,"official_name":"Publiczna Szko\u0142a Podstawowa \"Mileszki\" w \u0141odzi","name":"Publiczna Szko\u0142a Podstawowa \"Mileszki\" w \u0141odzi","addr:country":"PL","addr:postcode":"92-735","addr:city":"\u0141\u00f3d\u017a","addr:street":"ul. Pomorska","addr:housenumber":"437","addr:teryt:simc":17088,"addr:teryt:sym_ul":958453,"contact:phone":"+48 512552182","contact:email":"szkolamileszki@interia.pl","contact:website":"http:\/\/www.mileszki.pl","ref:regon":"101657733","operator":"Stowarzyszenie \"Towarzystwo O\u015bwiatowe Mileszki\"","operator:type":"ngo","amenity":"school"}},{"id":26409,"type":"Feature","geometry":{"type":"Point","coordinates":[19.51781,51.77174]},"properties":{"ref:rspo":26409,"official_name":"Zesp\u00f3\u0142 Szk\u00f3\u0142 Poligraficznych im. Miko\u0142aja Reja","name":"Zesp\u00f3\u0142 Szk\u00f3\u0142 Poligraficznych","addr:country":"PL","addr:postcode":"92-229","addr:city":"\u0141\u00f3d\u017a","addr:street":"ul. Edwarda","addr:housenumber":"41","addr:teryt:simc":4734,"addr:teryt:sym_ul":958453,"contact:phone":"+48 426788265","contact:email":"sekretariat@poligrafik-lodz.pl","ref:regon":"000186660","operator":"\u0141\u00f3d\u017a-Miasto Na Prawach Powiatu","operator:type":"government","landuse":"education","fixme":"amenity=school, amenity=college albo landuse=education w zale\u017cno\u015bci od tego, jakie plac\u00f3wki wchodz\u0105 w sk\u0142ad zespo\u0142u. Sprawd\u017a, kiedy stosowa\u0107 amenity=* a kiedy landuse=education.","note":"Children RSPO: 41437;41438"}},{"id":41437,"type":"Feature","geometry":{"type":"Point","coordinates":[19.51781,51.77171]},"properties":{"isced:level":"3","ref:rspo":41437,"official_name":"Bran\u017cowa Szko\u0142a I Stopnia Nr 18 Poligraficzna w Zespole Szk\u00f3\u0142 Poligraficznych im. Miko\u0142aja Reja","name":"Bran\u017cowa Szko\u0142a I Stopnia Nr 18 Poligraficzna w Zespole Szk\u00f3\u0142 Poligraficznych","addr:country":"PL","addr:postcode":"92-229","addr:city":"\u0141\u00f3d\u017a","addr:street":"ul. Edwarda","addr:housenumber":"41","addr:teryt:simc":4734,"addr:teryt:sym_ul":958453,"contact:phone":"+48 426788265","contact:email":"sekretariat@poligrafik-lodz.pl","ref:regon":"473065438","operator":"\u0141\u00f3d\u017a-Miasto Na Prawach Powiatu","operator:type":"government","amenity":"school","note":"Parent RSPO: 26409"}},{"id":41438,"type":"Feature","geometry":{"type":"Point","coordinates":[19.51781,51.77168]},"properties":{"isced:level":"3","ref:rspo":41438,"official_name":"Technikum Nr 18 Poligraficzne w Zespole Szk\u00f3\u0142 Poligraficznych im. Miko\u0142aja Reja","name":"Technikum Nr 18 Poligraficzne w Zespole Szk\u00f3\u0142 Poligraficznych","addr:country":"PL","addr:postcode":"92-229","addr:city":"\u0141\u00f3d\u017a","addr:street":"ul. Edwarda","addr:housenumber":"41","addr:teryt:simc":4734,"addr:teryt:sym_ul":958453,"contact:phone":"+48 426788265","contact:email":"sekretariat@poligrafik-lodz.pl","ref:regon":"473065421","operator":"\u0141\u00f3d\u017a-Miasto Na Prawach Powiatu","operator:type":"government","amenity":"school","note":"Parent RSPO: 26409"}},{"id":51290,"type":"Feature","geometry":{"type":"Point","coordinates":[19.50582,51.77212]},"properties":{"isced:level":"1;2","ref:rspo":51290,"official_name":"Szko\u0142a Podstawowa Specjalna Nr 128","name":"Szko\u0142a Podstawowa Specjalna Nr 128","addr:country":"PL","addr:postcode":"92-208","addr:city":"\u0141\u00f3d\u017a","addr:street":"ul. Niciarniana","addr:housenumber":"2a","addr:teryt:simc":14104,"addr:teryt:sym_ul":958453,"contact:phone":"+48 426789305","contact:email":"kontakt@sp128.elodz.edu.pl","contact:website":"http:\/\/www.zss4.edu.pl","ref:regon":"472891105","operator":"\u0141\u00f3d\u017a-Miasto Na Prawach Powiatu","operator:type":"government","amenity":"school"}},{"id":26693,"type":"Feature","geometry":{"type":"Point","coordinates":[19.474870681763,51.772308349609]},"properties":{"isced:level":"1;2","ref:rspo":26693,"official_name":"Szko\u0142a Podstawowa Nr 204 im. Stefana Kardyna\u0142a Wyszy\u0144skiego","name":"Szko\u0142a Podstawowa Nr 204","addr:country":"PL","addr:postcode":"92-610","addr:city":"\u0141\u00f3d\u017a","addr:street":"ul. Tadeusza Gajcego","addr:housenumber":"7\/11","addr:teryt:simc":5250,"addr:teryt:sym_ul":958453,"contact:phone":"+48 426488039","contact:email":"kontakt@sp204.elodz.edu.pl","ref:regon":"470009557","operator":"\u0141\u00f3d\u017a-Miasto Na Prawach Powiatu","operator:type":"government","amenity":"school"}},{"id":93083,"type":"Feature","geometry":{"type":"Point","coordinates":[19.50693,51.77533]},"properties":{"isced:level":"1;2","ref:rspo":93083,"official_name":"Szko\u0142a Podstawowa Specjalna Nr 146. Filia Nr 4.","name":"Szko\u0142a Podstawowa Specjalna Nr 146. Filia Nr 4.","addr:country":"PL","addr:postcode":"92-213","addr:city":"\u0141\u00f3d\u017a","addr:street":"ul. Pomorska","addr:housenumber":"251","addr:teryt:simc":17088,"addr:teryt:sym_ul":958453,"contact:email":"kontakt@sps146.elodz.edu.pl","contact:website":"http:\/\/www.sps146lodz.ugu.pl","ref:regon":"472912540","operator":"\u0141\u00f3d\u017a-Miasto Na Prawach Powiatu","operator:type":"government","amenity":"school","note":"Parent RSPO: 34195"}},{"id":124604,"type":"Feature","geometry":{"type":"Point","coordinates":[19.48198,51.77696]},"properties":{"isced:level":"4","ref:rspo":124604,"official_name":"Szko\u0142a Policealna Studium Pracownik\u00f3w Medycznych I Spo\u0142ecznych","name":"Szko\u0142a Policealna Studium Pracownik\u00f3w Medycznych I Spo\u0142ecznych","addr:country":"PL","addr:postcode":"90-242","addr:city":"\u0141\u00f3d\u017a","addr:street":"ul. dr. Stefana Kopci\u0144skiego","addr:housenumber":"5\/11","addr:teryt:simc":9257,"addr:teryt:sym_ul":958453,"contact:phone":"+48 501763713","contact:email":"info@oswiatalingwista.eu","ref:regon":"101834537","operator":"\"O\u015bwiata-Lingwista\" Nadba\u0142tyckie Centrum Edukacji Sp\u00f3\u0142ka Z Ograniczon\u0105 Odpowiedzialno\u015bci\u0105","operator:type":"private","amenity":"college"}},{"id":40192,"type":"Feature","geometry":{"type":"Point","coordinates":[19.5331699,51.77735]},"properties":{"ref:rspo":40192,"official_name":"Przedszkole Miejskie Nr 63","name":"Przedszkole Miejskie Nr 63","addr:country":"PL","addr:postcode":"92-002","addr:city":"\u0141\u00f3d\u017a","addr:street":"ul. Potokowa","addr:housenumber":"15","addr:teryt:simc":17298,"addr:teryt:sym_ul":958453,"contact:phone":"+48 426793902","contact:email":"kontakt@pm63.elodz.edu.pl","contact:website":"http:\/\/www.pm63lodz.wikom.pl","ref:regon":"004341040","ref:vatin":"PL7282597394","operator":"\u0141\u00f3d\u017a-Miasto Na Prawach Powiatu","operator:type":"government","amenity":"kindergarten"}},{"id":58640,"type":"Feature","geometry":{"type":"Point","coordinates":[19.49111,51.77815]},"properties":{"ref:rspo":58640,"official_name":"British Centre","name":"British Centre","addr:country":"PL","addr:postcode":"91-404","addr:city":"\u0141\u00f3d\u017a","addr:street":"ul. Pomorska","addr:housenumber":"140","addr:teryt:simc":17088,"addr:teryt:sym_ul":958453,"contact:phone":"+48 426786444","contact:email":"pomorska@british-centre.pl","contact:website":"http:\/\/www.british-centre.pl","ref:regon":"101489649","ref:vatin":"PL7251792640","operator":"Bo\u017cena Ziemniewicz","operator:type":"private","fixme":"w zale\u017cno\u015bci od przedmiotu dzia\u0142alno\u015bci (np. amenity=training + training=*, amenity=dancing_school, amenity=language_school, amenity=music_school)"}},{"id":25197,"type":"Feature","geometry":{"type":"Point","coordinates":[19.4906896,51.778186]},"properties":{"isced:level":"1;2","ref:rspo":25197,"official_name":"Szko\u0142a Podstawowa Nr 79 im. \u0141\u00f3dzkich Olimpijczyk\u00f3w","name":"Szko\u0142a Podstawowa Nr 79","addr:country":"PL","addr:postcode":"91-404","addr:city":"\u0141\u00f3d\u017a","addr:street":"ul. Pomorska","addr:housenumber":"138","addr:teryt:simc":17088,"addr:teryt:sym_ul":958453,"contact:phone":"+48 426786070","contact:email":"kontakt@sp79.elodz.edu.pl","contact:website":"http:\/\/www.sp79.edu.lodz.pl","ref:regon":"000731548","operator":"\u0141\u00f3d\u017a-Miasto Na Prawach Powiatu","operator:type":"government","amenity":"school"}},{"id":69807,"type":"Feature","geometry":{"type":"Point","coordinates":[19.47348,51.77824]},"properties":{"ref:rspo":69807,"official_name":"Erudio - Centrum Kszta\u0142cenia Ustawicznego","name":"Erudio - Centrum Kszta\u0142cenia Ustawicznego","addr:country":"PL","addr:postcode":"90-224","addr:city":"\u0141\u00f3d\u017a","addr:street":"ul. Pomorska","addr:housenumber":"83\/85","addr:teryt:simc":17088,"addr:teryt:sym_ul":958453,"contact:email":"erudio@erudio.com.pl","contact:website":"http:\/\/www.erudio.com.pl","ref:regon":"101494662","ref:vatin":"PL7262191571","operator":"Bartosz Zar\u0119bski","operator:type":"private","fixme":"w zale\u017cno\u015bci od przedmiotu dzia\u0142alno\u015bci (np. amenity=training + training=*, amenity=dancing_school, amenity=language_school, amenity=music_school)"}},{"id":132594,"type":"Feature","geometry":{"type":"Point","coordinates":[19.5225547,51.7784054]},"properties":{"ref:rspo":132594,"official_name":"Przedszkole Niepubliczne \"Akademia Ma\u0142ych Odkrywc\u00f3w\"","name":"Przedszkole Niepubliczne \"Akademia Ma\u0142ych Odkrywc\u00f3w\"","addr:country":"PL","addr:postcode":"92-101","addr:city":"\u0141\u00f3d\u017a","addr:street":"ul. Krokusowa","addr:housenumber":"32\/34","addr:teryt:simc":9946,"addr:teryt:sym_ul":958453,"contact:phone":"+48 667208200","contact:email":"przedszkole@maliodkrywcy.eu","ref:regon":"365878122","operator":"Rafa\u0142 W\u0142odarski","operator:type":"private","amenity":"kindergarten"}},{"id":28084,"type":"Feature","geometry":{"type":"Point","coordinates":[19.5233,51.77853]},"properties":{"isced:level":"1;2","ref:rspo":28084,"official_name":"Szko\u0142a Podstawowa Specjalna Nr 145","name":"Szko\u0142a Podstawowa Specjalna Nr 145","addr:country":"PL","addr:postcode":"92-101","addr:city":"\u0141\u00f3d\u017a","addr:street":"ul. Krokusowa","addr:housenumber":"15\/17","addr:teryt:simc":9946,"addr:teryt:sym_ul":958453,"contact:phone":"+48 426795847","contact:email":"kontakt@sp145.elodz.edu.pl","contact:website":"http:\/\/www.sp145.edu.lodz.pl","ref:regon":"000932063","ref:vatin":"PL7282242538","operator":"\u0141\u00f3d\u017a-Miasto Na Prawach Powiatu","operator:type":"government","amenity":"school"}},{"id":26447,"type":"Feature","geometry":{"type":"Point","coordinates":[19.53482,51.77987]},"properties":{"ref:rspo":26447,"official_name":"Przedszkole Miejskie Nr 93","name":"Przedszkole Miejskie Nr 93","addr:country":"PL","addr:postcode":"92-005","addr:city":"\u0141\u00f3d\u017a","addr:street":"ul. Wichrowa","addr:housenumber":"1A","addr:teryt:simc":23989,"addr:teryt:sym_ul":958453,"contact:phone":"+48 426793673","contact:email":"kontakt@pm93.elodz.edu.pl","contact:website":"http:\/\/pm93.szkoly.lodz.pl","ref:regon":"004341070","ref:vatin":"PL7282599737","operator":"\u0141\u00f3d\u017a-Miasto Na Prawach Powiatu","operator:type":"government","amenity":"kindergarten"}},{"id":26037,"type":"Feature","geometry":{"type":"Point","coordinates":[19.5338,51.7808599]},"properties":{"isced:level":"1;2","ref:rspo":26037,"official_name":"Szko\u0142a Podstawowa Nr 139 im. Wojska Polskiego","name":"Szko\u0142a Podstawowa Nr 139","addr:country":"PL","addr:postcode":"92-116","addr:city":"\u0141\u00f3d\u017a","addr:street":"ul. Giewont","addr:housenumber":"28","addr:teryt:simc":5517,"addr:teryt:sym_ul":958453,"contact:phone":"+48 426793167","contact:email":"kontakt@sp139.elodz.edu.pl","contact:website":"http:\/\/www.sp139.nstrefa.pl","ref:regon":"000814547","operator":"\u0141\u00f3d\u017a-Miasto Na Prawach Powiatu","operator:type":"government","amenity":"school"}},{"id":133681,"type":"Feature","geometry":{"type":"Point","coordinates":[19.59578,51.79036]},"properties":{"ref:rspo":133681,"official_name":"Przedszkole Montessori","name":"Przedszkole Montessori","addr:country":"PL","addr:postcode":"92-760","addr:city":"\u0141\u00f3d\u017a","addr:street":"ul. Wi\u0105czy\u0144ska","addr:housenumber":"13c","addr:teryt:simc":23980,"addr:teryt:sym_ul":958453,"contact:phone":"+48 426760137","contact:email":"biuro@przedszkolemontessori.info","ref:regon":"367529130","operator":"Ulala Sp\u00f3\u0142ka Z Ograniczon\u0105 Odpowiedzialno\u015bci\u0105","operator:type":"private","amenity":"kindergarten"}},{"id":25996,"type":"Feature","geometry":{"type":"Point","coordinates":[19.52661,51.79122]},"properties":{"ref:rspo":25996,"official_name":"Punkt Przedszkolny \"Ogrodowe Przedszkole\"","name":"Punkt Przedszkolny \"Ogrodowe Przedszkole\"","addr:country":"PL","addr:postcode":"92-109","addr:city":"\u0141\u00f3d\u017a","addr:street":"ul. Cha\u0142ubi\u0144skiego","addr:housenumber":"32a","addr:teryt:simc":2661,"addr:teryt:sym_ul":958453,"contact:phone":"+48 667208200","contact:email":"przedszkole@maliodkrywcy.eu","ref:regon":"101479355","ref:vatin":"PL7291889446","operator":"Rafa\u0142 W\u0142odarski","operator:type":"private","amenity":"kindergarten"}},{"id":269654,"type":"Feature","geometry":{"type":"Point","coordinates":[19.5237,51.7918499]},"properties":{"ref:rspo":269654,"official_name":"Zesp\u00f3\u0142 Szkolno-Przedszkolny Nr 6","name":"Zesp\u00f3\u0142 Szkolno-Przedszkolny Nr 6","addr:country":"PL","addr:postcode":"92-108","addr:city":"\u0141\u00f3d\u017a","addr:street":"ul. Janosika","addr:housenumber":"136","addr:teryt:simc":7194,"addr:teryt:sym_ul":958453,"contact:phone":"+48 426792564","contact:email":"kontakt@zszp6.elodz.edu.pl","contact:website":"http:\/\/zszp6lodz.pl","ref:regon":"381658550","operator":"\u0141\u00f3d\u017a-Miasto Na Prawach Powiatu","operator:type":"government","landuse":"education","fixme":"amenity=school, amenity=college albo landuse=education w zale\u017cno\u015bci od tego, jakie plac\u00f3wki wchodz\u0105 w sk\u0142ad zespo\u0142u. Sprawd\u017a, kiedy stosowa\u0107 amenity=* a kiedy landuse=education.","note":"Children RSPO: 40562;267031"}},{"id":40562,"type":"Feature","geometry":{"type":"Point","coordinates":[19.5237,51.7918199]},"properties":{"ref:rspo":40562,"official_name":"Przedszkole Miejskie Nr 94","name":"Przedszkole Miejskie Nr 94","addr:country":"PL","addr:postcode":"92-108","addr:city":"\u0141\u00f3d\u017a","addr:street":"ul. Janosika","addr:housenumber":"136","addr:teryt:simc":7194,"addr:teryt:sym_ul":958453,"contact:phone":"+48 426792564","contact:email":"kontakt@zszp6.elodz.edu.pl","contact:website":"http:\/\/www.pm94lodz.wikom.pl","ref:regon":"470541312","ref:vatin":"PL7282595662","operator":"\u0141\u00f3d\u017a-Miasto Na Prawach Powiatu","operator:type":"government","amenity":"kindergarten","note":"Parent RSPO: 269654"}},{"id":267031,"type":"Feature","geometry":{"type":"Point","coordinates":[19.5237,51.791789900000005]},"properties":{"isced:level":"1;2","ref:rspo":267031,"official_name":"Szko\u0142a Podstawowa Nr 158","name":"Szko\u0142a Podstawowa Nr 158","addr:country":"PL","addr:postcode":"92-108","addr:city":"\u0141\u00f3d\u017a","addr:street":"ul. Janosika","addr:housenumber":"136","addr:teryt:simc":7194,"addr:teryt:sym_ul":958453,"contact:phone":"+48 426792564","contact:email":"kontakt@zszp6.elodz.edu.pl","contact:website":"http:\/\/zszp6lodz.pl","ref:regon":"369807656","operator":"\u0141\u00f3d\u017a-Miasto Na Prawach Powiatu","operator:type":"government","amenity":"school","note":"Parent RSPO: 269654"}},{"id":122413,"type":"Feature","geometry":{"type":"Point","coordinates":[19.5873199,51.7928799]},"properties":{"ref:rspo":122413,"official_name":"Zesp\u00f3\u0142 Szkolno-Przedszkolny Nr 2","name":"Zesp\u00f3\u0142 Szkolno-Przedszkolny Nr 2","addr:country":"PL","addr:postcode":"92-720","addr:city":"\u0141\u00f3d\u017a","addr:street":"ul. Jugos\u0142owia\u0144ska","addr:housenumber":"2","addr:teryt:simc":7649,"addr:teryt:sym_ul":958453,"contact:phone":"+48 426484170","contact:email":"kontakt@zszp2.elodz.edu.pl","contact:website":"http:\/\/www.zs-p2lodz.wikom.pl","ref:regon":"101744082","operator":"\u0141\u00f3d\u017a-Miasto Na Prawach Powiatu","operator:type":"government","landuse":"education","fixme":"amenity=school, amenity=college albo landuse=education w zale\u017cno\u015bci od tego, jakie plac\u00f3wki wchodz\u0105 w sk\u0142ad zespo\u0142u. Sprawd\u017a, kiedy stosowa\u0107 amenity=* a kiedy landuse=education.","note":"Children RSPO: 26690;40880"}},{"id":26690,"type":"Feature","geometry":{"type":"Point","coordinates":[19.5873199,51.7928499]},"properties":{"isced:level":"1;2","ref:rspo":26690,"official_name":"Szko\u0142a Podstawowa Nr 202 im. Jana Paw\u0142a Ii","name":"Szko\u0142a Podstawowa Nr 202","addr:country":"PL","addr:postcode":"92-720","addr:city":"\u0141\u00f3d\u017a","addr:street":"ul. Jugos\u0142owia\u0144ska","addr:housenumber":"2","addr:teryt:simc":7649,"addr:teryt:sym_ul":958453,"contact:phone":"+48 426484170","contact:email":"kontakt@zszp2.elodz.edu.pl","ref:regon":"000558966","operator":"\u0141\u00f3d\u017a-Miasto Na Prawach Powiatu","operator:type":"government","amenity":"school","note":"Parent RSPO: 122413"}},{"id":40880,"type":"Feature","geometry":{"type":"Point","coordinates":[19.5873199,51.792819900000005]},"properties":{"ref:rspo":40880,"official_name":"Przedszkole Miejskie Nr 228","name":"Przedszkole Miejskie Nr 228","addr:country":"PL","addr:postcode":"92-720","addr:city":"\u0141\u00f3d\u017a","addr:street":"ul. Jugos\u0142owia\u0144ska","addr:housenumber":"2","addr:teryt:simc":7649,"addr:teryt:sym_ul":958453,"contact:phone":"+48 426484170","contact:email":"przedszkole228@tlen.pl","contact:website":"http:\/\/www.pm228.edu.lodz.pl","ref:regon":"004341471","ref:vatin":"PL7282597342","operator":"\u0141\u00f3d\u017a-Miasto Na Prawach Powiatu","operator:type":"government","amenity":"kindergarten","note":"Parent RSPO: 122413"}},{"id":25995,"type":"Feature","geometry":{"type":"Point","coordinates":[19.52167,51.79377]},"properties":{"ref:rspo":25995,"official_name":"Punkt Przedszkolny \"Przedszkolaczek\"","name":"Punkt Przedszkolny \"Przedszkolaczek\"","addr:country":"PL","addr:postcode":"92-109","addr:city":"\u0141\u00f3d\u017a","addr:street":"ul. Junacka","addr:housenumber":"3","addr:door":"1","addr:teryt:simc":7660,"addr:teryt:sym_ul":958453,"contact:email":"biuro@przedszkolaczek.info","contact:website":"http:\/\/www.przedszkolaczek.info","ref:regon":"101479332","ref:vatin":"PL7262388434","operator":"Agnieszka Sternicka","operator:type":"private","amenity":"kindergarten"}},{"id":274047,"type":"Feature","geometry":{"type":"Point","coordinates":[19.59229,51.79479]},"properties":{"ref:rspo":274047,"official_name":"Przedszkole Familijna \u0141\u00f3dka","name":"Przedszkole Familijna \u0141\u00f3dka","addr:country":"PL","addr:postcode":"92-770","addr:city":"\u0141\u00f3d\u017a","addr:street":"ul. Byszewska","addr:housenumber":"4","addr:teryt:simc":2518,"addr:teryt:sym_ul":958453,"contact:email":"j.poselt@operator.edu.pl","contact:website":"http:\/\/www.familijnalodka-lodz.operator.edu.pl","ref:regon":"385071668","operator":"Og\u00f3lnopolski Operator O\u015bwiaty","operator:type":"ngo","amenity":"kindergarten"}}]}