{"type":"FeatureCollection","features":[{"id":27711,"type":"Feature","geometry":{"type":"Point","coordinates":[19.46799,51.73726]},"properties":{"ref:rspo":27711,"official_name":"Poradnia Psychologiczno-Pedagogiczna Nr 6","name":"Poradnia Psychologiczno-Pedagogiczna Nr 6","addr:country":"PL","addr:postcode":"93-008","addr:city":"\u0141\u00f3d\u017a","addr:street":"ul. Rzgowska","addr:housenumber":"25","addr:teryt:simc":19377,"addr:teryt:sym_ul":957650,"contact:phone":"+48 426819282","contact:email":"kontakt@ppp6.elodz.edu.pl","contact:website":"http:\/\/www.ppp6lodz.pl","ref:regon":"000731169","ref:vatin":"PL7292425890","operator":"\u0141\u00f3d\u017a-Miasto Na Prawach Powiatu","operator:type":"government","healthcare":"councelling","counselling_type":"education","fixme":"w zale\u017cno\u015bci od przedmiotu dzia\u0142alno\u015bci (np. healthcare=councelling + counselling_type=education albo healthcare=psychotherapist)"}},{"id":29216,"type":"Feature","geometry":{"type":"Point","coordinates":[19.486786,51.7397127]},"properties":{"ref:rspo":29216,"official_name":"Bursa Szkolna Nr 12","name":"Bursa Szkolna Nr 12","addr:country":"PL","addr:postcode":"93-278","addr:city":"\u0141\u00f3d\u017a","addr:street":"ul. Podg\u00f3rna","addr:housenumber":"9\/11","addr:teryt:simc":16742,"addr:teryt:sym_ul":957650,"contact:phone":"+48 426432930","contact:email":"kontakt@bs12.elodz.edu.pl","contact:website":"http:\/\/www.bursaszkolna12.pl","ref:regon":"000989465","ref:vatin":"PL7292610966","operator":"\u0141\u00f3d\u017a-Miasto Na Prawach Powiatu","operator:type":"government","building":"dormitory"}},{"id":43962,"type":"Feature","geometry":{"type":"Point","coordinates":[19.49056,51.73997]},"properties":{"ref:rspo":43962,"official_name":"Bursa Szkolna \u0141\u00f3dzkiego Stowarzyszenia Pomocy Szkole","name":"Bursa Szkolna \u0141\u00f3dzkiego Stowarzyszenia Pomocy Szkole","addr:country":"PL","addr:postcode":"93-277","addr:city":"\u0141\u00f3d\u017a","addr:street":"ul. Henryka Rodakowskiego","addr:housenumber":"16","addr:teryt:simc":18709,"addr:teryt:sym_ul":957650,"contact:phone":"+48 426433323","contact:email":"bursa_szkolna@tlen.pl","ref:regon":"101485568","ref:vatin":"PL7280132277","operator":"\u0141\u00f3dzkie Stowarzyszenie Pomocy Szkole","operator:type":"ngo","building":"dormitory"}},{"id":29886,"type":"Feature","geometry":{"type":"Point","coordinates":[19.3904665,51.7415153]},"properties":{"ref:rspo":29886,"official_name":"Pa\u0142ac M\u0142odzie\u017cy","name":"Pa\u0142ac M\u0142odzie\u017cy","addr:country":"PL","addr:postcode":"94-050","addr:city":"\u0141\u00f3d\u017a","addr:street":"al. ks. kard. Stefana Wyszy\u0144skiego","addr:housenumber":"86","addr:teryt:simc":25112,"addr:teryt:sym_ul":957650,"contact:phone":"+48 426863445","contact:email":"palacmlodziezy@toya.net.pl","contact:website":"http:\/\/www.palacmlodziezy.lodz.pl","ref:regon":"000194079","ref:vatin":"PL7251110735","operator":"\u0141\u00f3d\u017a-Miasto Na Prawach Powiatu","operator:type":"government","fixme":"amenity=community_centre + community_centre:for=juvenile albo amenity=training + training=*"}},{"id":16197,"type":"Feature","geometry":{"type":"Point","coordinates":[19.48471,51.74183]},"properties":{"ref:rspo":16197,"official_name":"Specjalny O\u015brodek Szkolno-Wychowawczy Nr 1","name":"Specjalny O\u015brodek Szkolno-Wychowawczy Nr 1","addr:country":"PL","addr:postcode":"93-138","addr:city":"\u0141\u00f3d\u017a","addr:street":"ul. Siedlecka","addr:housenumber":"7\/21","addr:teryt:simc":19769,"addr:teryt:sym_ul":957650,"contact:phone":"+48 426845148","contact:email":"kontakt@sosw1.elodz.edu.pl","contact:website":"http:\/\/sosw1.szkoly.lodz.pl","ref:regon":"000193306","ref:vatin":"PL7291157826","operator":"\u0141\u00f3d\u017a-Miasto Na Prawach Powiatu","operator:type":"government","amenity":"school","note":"Children RSPO: 111278;111318;111319;111321;274851"}},{"id":28749,"type":"Feature","geometry":{"type":"Point","coordinates":[19.41207,51.74499]},"properties":{"ref:rspo":28749,"official_name":"Centrum Zaj\u0119\u0107 Pozaszkolnych Nr 3","name":"Centrum Zaj\u0119\u0107 Pozaszkolnych Nr 3","addr:country":"PL","addr:postcode":"94-043","addr:city":"\u0141\u00f3d\u017a","addr:street":"ul. Olimpijska","addr:housenumber":"9","addr:teryt:simc":14989,"addr:teryt:sym_ul":957650,"contact:phone":"+48 426870485","contact:email":"kontakt@czp3.elodz.edu.pl","contact:website":"http:\/\/www.centrum3.edu.lodz.pl","ref:regon":"000731465","ref:vatin":"PL7271062198","operator":"\u0141\u00f3d\u017a-Miasto Na Prawach Powiatu","operator:type":"government","amenity":"community_centre","community_centre:for":"juvenile"}},{"id":29889,"type":"Feature","geometry":{"type":"Point","coordinates":[19.43682,51.75884]},"properties":{"ref:rspo":29889,"official_name":"Szko\u0142a Specjalna Przysposabiaj\u0105ca Do Pracy Nr 1","name":"Szko\u0142a Specjalna Przysposabiaj\u0105ca Do Pracy Nr 1","addr:country":"PL","addr:postcode":"90-561","addr:city":"\u0141\u00f3d\u017a","addr:street":"ul. Karolewska","addr:housenumber":"30\/34","addr:teryt:simc":8081,"addr:teryt:sym_ul":957650,"contact:phone":"+48 426351780","contact:email":"kontakt@zss2.elodz.edu.pl","contact:website":"http:\/\/www.zss2.edu.pl","ref:regon":"473269595","operator":"\u0141\u00f3d\u017a-Miasto Na Prawach Powiatu","operator:type":"government","amenity":"school","note":"Parent RSPO: 17716"}},{"id":29311,"type":"Feature","geometry":{"type":"Point","coordinates":[19.50358,51.76577]},"properties":{"ref:rspo":29311,"official_name":"Pa\u0144stwowa Szko\u0142a Muzyczna I Stopnia im. Aleksandra Tansmana","name":"Pa\u0144stwowa Szko\u0142a Muzyczna I Stopnia","addr:country":"PL","addr:postcode":"92-207","addr:city":"\u0141\u00f3d\u017a","addr:street":"ul. Szpitalna","addr:housenumber":"5\/7","addr:teryt:simc":22073,"addr:teryt:sym_ul":957650,"contact:phone":"+48 426744505","contact:email":"sekretariat@psm.elodz.edu.pl","contact:website":"http:\/\/www.psmlodz.wikom.pl","ref:regon":"000276601","ref:vatin":"PL7281291888","operator":"\u0141\u00f3d\u017a-Miasto Na Prawach Powiatu","operator:type":"government","amenity":"music_school"}},{"id":40537,"type":"Feature","geometry":{"type":"Point","coordinates":[19.49189,51.77166]},"properties":{"isced:level":"1;2","ref:rspo":40537,"official_name":"Szko\u0142a Podstawowa Specjalna Nr 177","name":"Szko\u0142a Podstawowa Specjalna Nr 177","addr:country":"PL","addr:postcode":"90-156","addr:city":"\u0141\u00f3d\u017a","addr:street":"ul. Tkacka","addr:housenumber":"34\/36","addr:teryt:simc":22794,"addr:teryt:sym_ul":957650,"contact:phone":"+48 426789323","contact:email":"kontakt@sosw3.elodz.edu.pl","contact:website":"http:\/\/www.sosw3.pl","ref:regon":"000932034","operator":"\u0141\u00f3d\u017a-Miasto Na Prawach Powiatu","operator:type":"government","amenity":"school","note":"Parent RSPO: 27364"}},{"id":40539,"type":"Feature","geometry":{"type":"Point","coordinates":[19.49189,51.771629999999995]},"properties":{"ref:rspo":40539,"official_name":"Szko\u0142a Specjalna Przysposabiaj\u0105ca Do Pracy Nr 3","name":"Szko\u0142a Specjalna Przysposabiaj\u0105ca Do Pracy Nr 3","addr:country":"PL","addr:postcode":"90-156","addr:city":"\u0141\u00f3d\u017a","addr:street":"ul. Tkacka","addr:housenumber":"34\/36","addr:teryt:simc":22794,"addr:teryt:sym_ul":957650,"contact:phone":"+48 426789323","contact:email":"sosw3@interia.pl","contact:website":"http:\/\/www.sosw3.pl","ref:regon":"473270807","operator":"\u0141\u00f3d\u017a-Miasto Na Prawach Powiatu","operator:type":"government","amenity":"school","note":"Parent RSPO: 27364"}},{"id":51312,"type":"Feature","geometry":{"type":"Point","coordinates":[19.49438,51.7723]},"properties":{"isced:level":"1;2","ref:rspo":51312,"official_name":"Szko\u0142a Podstawowa Specjalna Nr 97","name":"Szko\u0142a Podstawowa Specjalna Nr 97","addr:country":"PL","addr:postcode":"90-149","addr:city":"\u0141\u00f3d\u017a","addr:street":"ul. Ludwika Krzywickiego","addr:housenumber":"20","addr:teryt:simc":10167,"addr:teryt:sym_ul":957650,"contact:phone":"+48 426784700","contact:email":"sekretariat@sosw4.elodz.edu.pl","contact:website":"http:\/\/www.sosw.edu.lodz.pl","ref:regon":"000932057","operator":"\u0141\u00f3d\u017a-Miasto Na Prawach Powiatu","operator:type":"government","amenity":"school","note":"Parent RSPO: 27449"}},{"id":20517,"type":"Feature","geometry":{"type":"Point","coordinates":[19.474870681763,51.772308349609]},"properties":{"ref:rspo":20517,"official_name":"Zesp\u00f3\u0142 Szk\u00f3\u0142 Muzycznych im. Stanis\u0142awa Moniuszki w \u0141odzi","name":"Zesp\u00f3\u0142 Szk\u00f3\u0142 Muzycznych","addr:country":"PL","addr:postcode":"91-134","addr:place":"\u0141\u00f3d\u017a","addr:housenumber":"20","addr:teryt:sym_ul":957650,"contact:phone":"+48 426110169","contact:email":"szkola@muzyczna.lodz.pl","contact:website":"http:\/\/muzyczna.lodz.pl","ref:regon":"000276943","operator":"Ministerstwo Kultury I Dziedzictwa Narodowego","operator:type":"public","landuse":"education","fixme":"amenity=school, amenity=college albo landuse=education w zale\u017cno\u015bci od tego, jakie plac\u00f3wki wchodz\u0105 w sk\u0142ad zespo\u0142u. Sprawd\u017a, kiedy stosowa\u0107 amenity=* a kiedy landuse=education.","note":"Children RSPO: 93189;93190;93191"}},{"id":27920,"type":"Feature","geometry":{"type":"Point","coordinates":[19.474870681763,51.772278349608996]},"properties":{"ref:rspo":27920,"official_name":"Specjalistyczna Poradnia Psychologiczno-Pedagogiczna Doradztwa Zawodowego I dla Dzieci Z Wadami Rozwojowymi","name":"Specjalistyczna Poradnia Psychologiczno-Pedagogiczna Doradztwa Zawodowego I dla Dzieci Z Wadami Rozwojowymi","addr:country":"PL","addr:postcode":"94-050","addr:place":"\u0141\u00f3d\u017a","addr:housenumber":"86","addr:teryt:sym_ul":957650,"contact:phone":"+48 426882070","contact:email":"sekretariat@spppdz.elodz.edu.pl","contact:website":"http:\/\/doradztwo.edu.lodz.pl","ref:regon":"000192809","ref:vatin":"PL7272474566","operator":"\u0141\u00f3d\u017a-Miasto Na Prawach Powiatu","operator:type":"government","fixme":"w zale\u017cno\u015bci od przedmiotu dzia\u0142alno\u015bci (np. healthcare=councelling + counselling_type=education albo healthcare=psychotherapist)"}},{"id":75611,"type":"Feature","geometry":{"type":"Point","coordinates":[19.474870681763,51.772248349609]},"properties":{"ref:rspo":75611,"official_name":"Bursa Szk\u00f3\u0142 Artystycznych w \u0141odzi","name":"Bursa Szk\u00f3\u0142 Artystycznych w \u0141odzi","addr:country":"PL","addr:postcode":"91-055","addr:place":"\u0141\u00f3d\u017a","addr:housenumber":"11","addr:door":"abc","addr:teryt:sym_ul":957650,"contact:phone":"+48 426542404","contact:email":"bursa-lodz@bsalodz.pl","contact:website":"http:\/\/bsalodz.pl","ref:regon":"000277345","operator":"Ministerstwo Kultury I Dziedzictwa Narodowego","operator:type":"public","building":"dormitory"}},{"id":69344,"type":"Feature","geometry":{"type":"Point","coordinates":[19.474899291992,51.772338867188]},"properties":{"ref:rspo":69344,"official_name":"Zesp\u00f3\u0142 Szk\u00f3\u0142 Salezja\u0144skich im. Ksi\u0119dza Bosko","name":"Zesp\u00f3\u0142 Szk\u00f3\u0142 Salezja\u0144skich","addr:country":"PL","addr:postcode":"90-046","addr:place":"\u0141\u00f3d\u017a","addr:housenumber":"34","addr:teryt:sym_ul":957650,"contact:phone":"+48 426718500","contact:email":"szkola@wodna.edu.pl","contact:website":"http:\/\/wodna.edu.pl","ref:regon":"101486562","operator":"Towarzystwo Salezja\u0144skie - Inspektoria (Prowincja) \u015aw.stanis\u0142awa Kostki","operator:type":"religious","landuse":"education","fixme":"amenity=school, amenity=college albo landuse=education w zale\u017cno\u015bci od tego, jakie plac\u00f3wki wchodz\u0105 w sk\u0142ad zespo\u0142u. Sprawd\u017a, kiedy stosowa\u0107 amenity=* a kiedy landuse=education.","note":"Children RSPO: 76156;83530;132593"}},{"id":86645,"type":"Feature","geometry":{"type":"Point","coordinates":[19.474899291992,51.772308867187995]},"properties":{"isced:level":"3","ref:rspo":86645,"official_name":"Bran\u017cowa Szko\u0142a Specjalna I Stopnia Nr 4","name":"Bran\u017cowa Szko\u0142a Specjalna I Stopnia Nr 4","addr:country":"PL","addr:postcode":"91-008","addr:place":"\u0141\u00f3d\u017a","addr:housenumber":"151","addr:teryt:sym_ul":957650,"contact:phone":"+48 426122935","contact:email":"kontakt@mow3.elodz.edu.pl","contact:website":"http:\/\/www.mow3.pl","ref:regon":"000932070","operator":"\u0141\u00f3d\u017a-Miasto Na Prawach Powiatu","operator:type":"government","amenity":"school","note":"Parent RSPO: 28066"}},{"id":83530,"type":"Feature","geometry":{"type":"Point","coordinates":[19.474899291992,51.772278867188]},"properties":{"isced:level":"3","ref:rspo":83530,"official_name":"Salezja\u0144skie Liceum Og\u00f3lnokszta\u0142c\u0105ce im. Ksi\u0119dza Bosko","name":"Salezja\u0144skie Liceum Og\u00f3lnokszta\u0142c\u0105ce","addr:country":"PL","addr:postcode":"90-046","addr:place":"\u0141\u00f3d\u017a","addr:housenumber":"34","addr:teryt:sym_ul":957650,"contact:phone":"+48 426718500","contact:email":"szkola@wodna.edu.pl","ref:regon":"101512733","ref:vatin":"PL1131083010","operator":"Towarzystwo Salezja\u0144skie - Inspektoria (Prowincja) \u015aw.stanis\u0142awa Kostki","operator:type":"religious","amenity":"school","note":"Parent RSPO: 69344"}},{"id":29414,"type":"Feature","geometry":{"type":"Point","coordinates":[19.44931,51.77644]},"properties":{"ref:rspo":29414,"official_name":"Szkolne Schronisko M\u0142odzie\u017cowe","name":"Szkolne Schronisko M\u0142odzie\u017cowe","addr:country":"PL","addr:postcode":"91-069","addr:city":"\u0141\u00f3d\u017a","addr:street":"ul. Legion\u00f3w","addr:housenumber":"27","addr:teryt:simc":10769,"addr:teryt:sym_ul":957650,"contact:phone":"+48 426306680","contact:email":"dyrekcja@yhlodz.pl","contact:website":"http:\/\/www.yhlodz.pl","ref:regon":"471464559","ref:vatin":"PL7251808708","operator":"\u0141\u00f3d\u017a-Miasto Na Prawach Powiatu","operator:type":"government","tourism":"hostel"}},{"id":31605,"type":"Feature","geometry":{"type":"Point","coordinates":[19.49049,51.77789]},"properties":{"isced:level":"3","ref:rspo":31605,"official_name":"Publiczne Liceum Og\u00f3lnokszta\u0142c\u0105ce Uniwersytetu \u0141\u00f3dzkiego im. \"Sprawiedliwych W\u015br\u00f3d Narod\u00f3w \u015awiata\"","name":"Publiczne Liceum Og\u00f3lnokszta\u0142c\u0105ce Uniwersytetu \u0141\u00f3dzkiego","addr:country":"PL","addr:postcode":"90-236","addr:city":"\u0141\u00f3d\u017a","addr:street":"ul. Pomorska","addr:housenumber":"161","addr:teryt:simc":17088,"addr:teryt:sym_ul":957650,"contact:phone":"+48 426655688","contact:email":"liceum@uni.lodz.pl","contact:website":"http:\/\/www.liceum.uni.lodz.pl","ref:regon":"101483256","ref:vatin":"PL7240003243","operator":"Uniwersytet \u0141\u00f3dzki","operator:type":"public","amenity":"school"}},{"id":29175,"type":"Feature","geometry":{"type":"Point","coordinates":[19.4310633,51.7813848]},"properties":{"ref:rspo":29175,"official_name":"Bursa Szkolna Nr 11","name":"Bursa Szkolna Nr 11","addr:country":"PL","addr:postcode":"91-008","addr:city":"\u0141\u00f3d\u017a","addr:street":"ul. Drewnowska","addr:housenumber":"153\/","addr:teryt:simc":4180,"addr:teryt:sym_ul":957650,"contact:phone":"+48 426540307","contact:email":"bursa11@wp.pl","ref:regon":"000194694","ref:vatin":"PL7262549481","operator":"\u0141\u00f3d\u017a-Miasto Na Prawach Powiatu","operator:type":"government","building":"dormitory"}},{"id":28066,"type":"Feature","geometry":{"type":"Point","coordinates":[19.43152,51.78148]},"properties":{"ref:rspo":28066,"official_name":"M\u0142odzie\u017cowy O\u015brodek Wychowawczy Nr 3","name":"M\u0142odzie\u017cowy O\u015brodek Wychowawczy Nr 3","addr:country":"PL","addr:postcode":"91-008","addr:city":"\u0141\u00f3d\u017a","addr:street":"ul. Drewnowska","addr:housenumber":"151","addr:teryt:simc":4180,"addr:teryt:sym_ul":957650,"contact:phone":"+48 426122935","contact:email":"kontakt@mow3.elodz.edu.pl","contact:website":"http:\/\/mow3.pl","ref:regon":"000192175","ref:vatin":"PL7261579267","operator":"\u0141\u00f3d\u017a-Miasto Na Prawach Powiatu","operator:type":"government","fixme":"amenity=social facility + social_facility=group_home + social_facility:for=juvenile","note":"Children RSPO: 86642;86645"}},{"id":86642,"type":"Feature","geometry":{"type":"Point","coordinates":[19.43152,51.78145]},"properties":{"isced:level":"1;2","ref:rspo":86642,"official_name":"Szko\u0142a Podstawowa Specjalna Nr 211","name":"Szko\u0142a Podstawowa Specjalna Nr 211","addr:country":"PL","addr:postcode":"91-008","addr:city":"\u0141\u00f3d\u017a","addr:street":"ul. Drewnowska","addr:housenumber":"151","addr:teryt:simc":4180,"addr:teryt:sym_ul":957650,"contact:phone":"+48 426122935","contact:email":"kontakt@mow3.elodz.edu.pl","contact:website":"http:\/\/mow3.pl","ref:regon":"473146131","operator":"\u0141\u00f3d\u017a-Miasto Na Prawach Powiatu","operator:type":"government","amenity":"school","note":"Parent RSPO: 28066"}},{"id":27025,"type":"Feature","geometry":{"type":"Point","coordinates":[19.47281,51.78914]},"properties":{"ref:rspo":27025,"official_name":"Zesp\u00f3\u0142 Szk\u00f3\u0142 Specjalnych Nr 3","name":"Zesp\u00f3\u0142 Szk\u00f3\u0142 Specjalnych Nr 3","addr:country":"PL","addr:postcode":"91-744","addr:city":"\u0141\u00f3d\u017a","addr:street":"ul. mjr. Henryka Sucharskiego","addr:housenumber":"2","addr:teryt:simc":21499,"addr:teryt:sym_ul":957650,"contact:email":"zss3@poczta.onet.pl","contact:website":"http:\/\/www.zss3.szkolnastrona.pl","ref:regon":"000218578","ref:vatin":"PL7261271492","operator":"\u0141\u00f3d\u017a-Miasto Na Prawach Powiatu","operator:type":"government","landuse":"education","fixme":"amenity=school, amenity=college albo landuse=education w zale\u017cno\u015bci od tego, jakie plac\u00f3wki wchodz\u0105 w sk\u0142ad zespo\u0142u. Sprawd\u017a, kiedy stosowa\u0107 amenity=* a kiedy landuse=education."}},{"id":51310,"type":"Feature","geometry":{"type":"Point","coordinates":[19.4623,51.78923]},"properties":{"ref:rspo":51310,"official_name":"Szko\u0142a Specjalna Przysposabiaj\u0105ca Do Pracy Nr 2","name":"Szko\u0142a Specjalna Przysposabiaj\u0105ca Do Pracy Nr 2","addr:country":"PL","addr:postcode":"91-836","addr:city":"\u0141\u00f3d\u017a","addr:street":"al. I Dywizji","addr:housenumber":"16\/18","addr:teryt:simc":4539,"addr:teryt:sym_ul":957650,"contact:phone":"+48 426571653","contact:email":"zszs2@poczta.internetdsl.pl","contact:website":"http:\/\/www.zszs2.szkolnastrona.pl","ref:regon":"100013940","operator":"\u0141\u00f3d\u017a-Miasto Na Prawach Powiatu","operator:type":"government","amenity":"school","note":"Parent RSPO: 17898"}},{"id":27560,"type":"Feature","geometry":{"type":"Point","coordinates":[19.43068,51.7908]},"properties":{"ref:rspo":27560,"official_name":"Poradnia Psychologiczno-Pedagogiczna Nr 1","name":"Poradnia Psychologiczno-Pedagogiczna Nr 1","addr:country":"PL","addr:postcode":"91-335","addr:city":"\u0141\u00f3d\u017a","addr:street":"ul. Hipoteczna","addr:housenumber":"3\/5","addr:teryt:simc":6663,"addr:teryt:sym_ul":957650,"contact:phone":"+48 426513652","contact:email":"kontakt@ppp1.elodz.edu.pl","contact:website":"http:\/\/www.ppp1lodz.edu.pl","ref:regon":"000731086","ref:vatin":"PL7262333539","operator":"\u0141\u00f3d\u017a-Miasto Na Prawach Powiatu","operator:type":"government","healthcare":"councelling","counselling_type":"education","fixme":"w zale\u017cno\u015bci od przedmiotu dzia\u0142alno\u015bci (np. healthcare=councelling + counselling_type=education albo healthcare=psychotherapist)"}},{"id":40207,"type":"Feature","geometry":{"type":"Point","coordinates":[19.48849,51.7945]},"properties":{"isced:level":"4","ref:rspo":40207,"official_name":"Policealna Szko\u0142a Ekonomiczno - Administracyjno - Prawna","name":"Policealna Szko\u0142a Ekonomiczno - Administracyjno - Prawna","addr:country":"PL","addr:postcode":"92-511","addr:place":"\u0141\u00f3d\u017a","addr:housenumber":"14","addr:teryt:sym_ul":957650,"contact:phone":"+48 426727490","contact:email":"jerzy@piontek.edu.pl","ref:regon":"101486616","ref:vatin":"PL7691868778","operator":"Jerzy Piontek","operator:type":"private","amenity":"college"}},{"id":39055,"type":"Feature","geometry":{"type":"Point","coordinates":[19.36896,51.79762]},"properties":{"isced:level":"3","ref:rspo":39055,"official_name":"Katolickie Liceum Og\u00f3lnokszta\u0142c\u0105ce im. Jana Paw\u0142a Ii","name":"Katolickie Liceum Og\u00f3lnokszta\u0142c\u0105ce","addr:country":"PL","addr:postcode":"91-170","addr:city":"\u0141\u00f3d\u017a","addr:street":"ul. Krzysztofa Kamila Baczy\u0144skiego","addr:housenumber":"156","addr:teryt:simc":569,"addr:teryt:sym_ul":957650,"contact:phone":"+48 426131860","contact:email":"liceum@katolik.edu.pl","contact:website":"http:\/\/www.katolik.edu.pl","ref:regon":"101488704","ref:vatin":"PL9471886700","operator":"Archidiecezja \u0141\u00f3dzka","operator:type":"religious","amenity":"school","note":"Parent RSPO: 29494"}},{"id":48503,"type":"Feature","geometry":{"type":"Point","coordinates":[19.36954,51.79793]},"properties":{"ref:rspo":48503,"official_name":"Bursa dla M\u0142odzie\u017cy Zgromadzenia Si\u00f3str Matki Bo\u017cej Mi\u0142osierdzia im. \u015awi\u0119tej S. Faustyny","name":"Bursa dla M\u0142odzie\u017cy Zgromadzenia Si\u00f3str Matki Bo\u017cej Mi\u0142osierdzia","addr:country":"PL","addr:postcode":"91-157","addr:city":"\u0141\u00f3d\u017a","addr:street":"ul. Wici","addr:housenumber":"47","addr:teryt:simc":23994,"addr:teryt:sym_ul":957650,"contact:phone":"+48 426558324","contact:email":"zmbm-lodz@faustyna.pl","ref:regon":"101492255","operator":"Zg.ss.matki Bo\u017cej Mi\u0142osierdzia, Dom Generalny","operator:type":"religious","building":"dormitory"}},{"id":27502,"type":"Feature","geometry":{"type":"Point","coordinates":[19.4682,51.80767]},"properties":{"ref:rspo":27502,"official_name":"Specjalny O\u015brodek Szkolno-Wychowawczy Nr 6","name":"Specjalny O\u015brodek Szkolno-Wychowawczy Nr 6","addr:country":"PL","addr:postcode":"91-866","addr:city":"\u0141\u00f3d\u017a","addr:street":"ul. Dziewanny","addr:housenumber":"24","addr:teryt:simc":4657,"addr:teryt:sym_ul":957650,"contact:phone":"+48 426577941","contact:email":"slabowidz@blind.edu.pl","contact:website":"http:\/\/www.blind.edu.pl","ref:regon":"000191678","ref:vatin":"PL7261578902","operator":"\u0141\u00f3d\u017a-Miasto Na Prawach Powiatu","operator:type":"government","amenity":"school","note":"Children RSPO: 41190;41192;41194;41195"}},{"id":41190,"type":"Feature","geometry":{"type":"Point","coordinates":[19.4682,51.80764]},"properties":{"isced:level":"1;2","ref:rspo":41190,"official_name":"Szko\u0142a Podstawowa Specjalna Nr 39","name":"Szko\u0142a Podstawowa Specjalna Nr 39","addr:country":"PL","addr:postcode":"91-866","addr:city":"\u0141\u00f3d\u017a","addr:street":"ul. Dziewanny","addr:housenumber":"24","addr:teryt:simc":4657,"addr:teryt:sym_ul":957650,"contact:phone":"+48 426577941","contact:email":"slabowidz@blind.edu.pl","contact:website":"http:\/\/www.blind.edu.pl","ref:regon":"000932040","operator":"\u0141\u00f3d\u017a-Miasto Na Prawach Powiatu","operator:type":"government","amenity":"school","note":"Parent RSPO: 27502"}},{"id":41194,"type":"Feature","geometry":{"type":"Point","coordinates":[19.4682,51.807610000000004]},"properties":{"isced:level":"3","ref:rspo":41194,"official_name":"Lvi Liceum Og\u00f3lnokszta\u0142c\u0105ce Specjalne","name":"Lvi Liceum Og\u00f3lnokszta\u0142c\u0105ce Specjalne","addr:country":"PL","addr:postcode":"91-866","addr:city":"\u0141\u00f3d\u017a","addr:street":"ul. Dziewanny","addr:housenumber":"24","addr:teryt:simc":4657,"addr:teryt:sym_ul":957650,"contact:phone":"+48 426577941","contact:email":"slabowidz@blind.edu.pl","contact:website":"http:\/\/www.blind.edu.pl","ref:regon":"470780940","operator":"\u0141\u00f3d\u017a-Miasto Na Prawach Powiatu","operator:type":"government","amenity":"school","note":"Parent RSPO: 27502"}},{"id":83722,"type":"Feature","geometry":{"type":"Point","coordinates":[19.35737,51.81322]},"properties":{"isced:level":"1;2","ref:rspo":83722,"official_name":"Szko\u0142a Podstawowa Specjalna Nr 213","name":"Szko\u0142a Podstawowa Specjalna Nr 213","addr:country":"PL","addr:postcode":"91-232","addr:city":"\u0141\u00f3d\u017a","addr:street":"ul. Spadkowa","addr:housenumber":"11","addr:teryt:simc":20644,"addr:teryt:sym_ul":957650,"contact:phone":"+48 426527893","contact:email":"mos2@onet.eu","contact:website":"http:\/\/www.mos2lodz.pl","ref:regon":"471462201","operator":"\u0141\u00f3d\u017a-Miasto Na Prawach Powiatu","operator:type":"government","amenity":"school","note":"Parent RSPO: 28011"}},{"id":28041,"type":"Feature","geometry":{"type":"Point","coordinates":[19.45136,51.81905]},"properties":{"ref:rspo":28041,"official_name":"M\u0142odzie\u017cowy O\u015brodek Socjoterapii Nr 4","name":"M\u0142odzie\u017cowy O\u015brodek Socjoterapii Nr 4","addr:country":"PL","addr:postcode":"91-491","addr:city":"\u0141\u00f3d\u017a","addr:street":"ul. \u0141ucji","addr:housenumber":"12\/16","addr:teryt:simc":11727,"addr:teryt:sym_ul":957650,"contact:phone":"+48 426594044","contact:email":"mos4lodz@gmail.com","contact:website":"http:\/\/www.mos4lodz.wikom.pl\/","ref:regon":"100942147","ref:vatin":"PL7262630970","operator":"\u0141\u00f3d\u017a-Miasto Na Prawach Powiatu","operator:type":"government","fixme":"amenity=social facility + social_facility=group_home + social_facility:for=juvenile","note":"Children RSPO: 41993;130662"}},{"id":41993,"type":"Feature","geometry":{"type":"Point","coordinates":[19.45136,51.819019999999995]},"properties":{"isced:level":"1;2","ref:rspo":41993,"official_name":"Szko\u0142a Podstawowa Specjalna Nr 214","name":"Szko\u0142a Podstawowa Specjalna Nr 214","addr:country":"PL","addr:postcode":"91-491","addr:city":"\u0141\u00f3d\u017a","addr:street":"ul. \u0141ucji","addr:housenumber":"12\/16","addr:teryt:simc":11727,"addr:teryt:sym_ul":957650,"contact:phone":"+48 426594044","contact:email":"mos4lodz@gmail.com","contact:website":"http:\/\/www.mos4lodz.wikom.pl\/","ref:regon":"100956215","operator":"\u0141\u00f3d\u017a-Miasto Na Prawach Powiatu","operator:type":"government","amenity":"school","note":"Parent RSPO: 28041"}},{"id":17839,"type":"Feature","geometry":{"type":"Point","coordinates":[19.48251,51.8351]},"properties":{"ref:rspo":17839,"official_name":"Zesp\u00f3\u0142 Szk\u00f3\u0142 Specjalnych Nr 9","name":"Zesp\u00f3\u0142 Szk\u00f3\u0142 Specjalnych Nr 9","addr:country":"PL","addr:postcode":"91-518","addr:city":"\u0141\u00f3d\u017a","addr:street":"ul. Wycieczkowa","addr:housenumber":"86","addr:teryt:simc":24957,"addr:teryt:sym_ul":957650,"contact:phone":"+48 426177480","contact:email":"zss9@op.pl","contact:website":"http:\/\/www.zss9.szkol.lodz.pl","ref:regon":"472485204","ref:vatin":"PL7262330995","operator":"\u0141\u00f3d\u017a-Miasto Na Prawach Powiatu","operator:type":"government","landuse":"education","fixme":"amenity=school, amenity=college albo landuse=education w zale\u017cno\u015bci od tego, jakie plac\u00f3wki wchodz\u0105 w sk\u0142ad zespo\u0142u. Sprawd\u017a, kiedy stosowa\u0107 amenity=* a kiedy landuse=education."}}]}