{
    "type": "FeatureCollection",
    "features": [
        {
            "id": 269694,
            "type": "Feature",
            "geometry": {
                "type": "Point",
                "coordinates": [
                    19.4408299,
                    51.69996
                ]
            },
            "properties": {
                "isced:level": "3",
                "ref:rspo": 269694,
                "official_name": "Liceum Og\u00f3lnokszta\u0142c\u0105ce Znp",
                "name": "Liceum Og\u00f3lnokszta\u0142c\u0105ce Znp",
                "addr:postcode": "93-436",
                "addr:city": "\u0141\u00f3d\u017a",
                "addr:street": "Scaleniowa",
                "addr:housenumber": "6",
                "addr:city:simc": 957985,
                "addr:street:sym_ul": 19588,
                "phone": "+48 426801936",
                "email": "szkolyznp@poczta.fm",
                "website": "http:\/\/gimznp.szkoly.pl",
                "ref:regon": "381676788",
                "operator": "Zwi\u0105zek Nauczycielstwa Polskiego",
                "operator:type": "cooperative",
                "amenity": "school",
                "note": "Parent RSPO: 106161"
            }
        },
        {
            "id": 121614,
            "type": "Feature",
            "geometry": {
                "type": "Point",
                "coordinates": [
                    19.43718,
                    51.7012
                ]
            },
            "properties": {
                "ref:rspo": 121614,
                "official_name": "Przedszkole im.\u015bw. Franciszka z Asy\u017cu Si\u00f3str Bernardynek",
                "name": "Przedszkole im.\u015bw. Franciszka z Asy\u017cu Si\u00f3str Bernardynek",
                "addr:postcode": "93-423",
                "addr:city": "\u0141\u00f3d\u017a",
                "addr:street": "Rudzka",
                "addr:housenumber": "55\/57",
                "addr:city:simc": 957985,
                "addr:street:sym_ul": 19082,
                "phone": "+48 426844343",
                "email": "przedszkole@archidiecezja.lodz.pl",
                "ref:regon": "101722175",
                "operator": "Mniszki Iii Zakonu Regularnego \u015aw.franciszka Z Asy\u017cu Zwane Bernardynkami",
                "operator:type": "religious",
                "amenity": "kindergarten"
            }
        },
        {
            "id": 50555,
            "type": "Feature",
            "geometry": {
                "type": "Point",
                "coordinates": [
                    19.4752189,
                    51.7045517
                ]
            },
            "properties": {
                "ref:rspo": 50555,
                "official_name": "Przedszkole Miejskie nr 20",
                "name": "Przedszkole Miejskie nr 20",
                "addr:postcode": "93-347",
                "addr:city": "\u0141\u00f3d\u017a",
                "addr:street": "Stanis\u0142awy Leszczy\u0144skiej",
                "addr:housenumber": "2",
                "addr:city:simc": 957985,
                "addr:street:sym_ul": 10880,
                "phone": "+48 426457360",
                "email": "kontakt@pm20.elodz.edu.pl",
                "website": "http:\/\/www.pm20lodz.wikom.pl",
                "ref:regon": "470938140",
                "ref:vatin": "PL7292588362",
                "operator": "\u0141\u00f3d\u017a-Miasto Na Prawach Powiatu",
                "operator:type": "government",
                "amenity": "kindergarten"
            }
        },
        {
            "id": 26092,
            "type": "Feature",
            "geometry": {
                "type": "Point",
                "coordinates": [
                    19.42513,
                    51.70469
                ]
            },
            "properties": {
                "isced:level": "1;2",
                "ref:rspo": 26092,
                "official_name": "Szko\u0142a Podstawowa nr 143",
                "name": "Szko\u0142a Podstawowa nr 143",
                "addr:postcode": "93-459",
                "addr:city": "\u0141\u00f3d\u017a",
                "addr:street": "Ku\u017anicka",
                "addr:housenumber": "12",
                "addr:city:simc": 957985,
                "addr:street:sym_ul": 10525,
                "phone": "+48 426847354",
                "email": "kontakt@sp143.elodz.edu.pl",
                "website": "http:\/\/sp143lodz.pl",
                "ref:regon": "000213813",
                "operator": "\u0141\u00f3d\u017a-Miasto Na Prawach Powiatu",
                "operator:type": "government",
                "amenity": "school"
            }
        },
        {
            "id": 93082,
            "type": "Feature",
            "geometry": {
                "type": "Point",
                "coordinates": [
                    19.48372,
                    51.70529
                ]
            },
            "properties": {
                "isced:level": "1;2",
                "ref:rspo": 93082,
                "official_name": "Szko\u0142a Podstawowa Specjalna nr 146. Filia nr 3.",
                "name": "Szko\u0142a Podstawowa Specjalna nr 146. Filia nr 3.",
                "addr:postcode": "93-338",
                "addr:city": "\u0141\u00f3d\u017a",
                "addr:street": "Rzgowska",
                "addr:housenumber": "281\/289",
                "addr:city:simc": 957985,
                "addr:street:sym_ul": 19377,
                "phone": "+48 422711780",
                "email": "kontakt@sps146.elodz.edu.pl",
                "website": "http:\/\/www.sps146lodz.ugu.pl",
                "ref:regon": "472912540",
                "operator": "\u0141\u00f3d\u017a-Miasto Na Prawach Powiatu",
                "operator:type": "government",
                "amenity": "school",
                "note": "Parent RSPO: 34195"
            }
        },
        {
            "id": 29465,
            "type": "Feature",
            "geometry": {
                "type": "Point",
                "coordinates": [
                    19.4375766,
                    51.7062046
                ]
            },
            "properties": {
                "ref:rspo": 29465,
                "official_name": "Verte Przedszkole",
                "name": "Verte Przedszkole",
                "addr:postcode": "93-423",
                "addr:city": "\u0141\u00f3d\u017a",
                "addr:street": "Municypalna",
                "addr:housenumber": "12",
                "addr:door": "18",
                "addr:city:simc": 957985,
                "addr:street:sym_ul": 13481,
                "phone": "+48 501231352",
                "email": "verteclub@op.pl",
                "website": "http:\/\/verte.neostrada.pl",
                "ref:regon": "101481754",
                "ref:vatin": "PL7290108300",
                "operator": "\"Verte\" Zbigniew Piwo\u0144ski Sp\u00f3\u0142ka Jawna",
                "operator:type": "private",
                "amenity": "kindergarten"
            }
        },
        {
            "id": 20574,
            "type": "Feature",
            "geometry": {
                "type": "Point",
                "coordinates": [
                    19.44056,
                    51.70744
                ]
            },
            "properties": {
                "ref:rspo": 20574,
                "official_name": "Przedszkole Miejskie nr 2",
                "name": "Przedszkole Miejskie nr 2",
                "addr:postcode": "93-426",
                "addr:city": "\u0141\u00f3d\u017a",
                "addr:street": "Sygna\u0142owa",
                "addr:housenumber": "1",
                "addr:city:simc": 957985,
                "addr:street:sym_ul": 21656,
                "phone": "+48 426846849",
                "email": "kontakt@pm2.elodz.edu.pl",
                "website": "http:\/\/www.pm2lodz.wikom.pl",
                "ref:regon": "000218093",
                "ref:vatin": "PL7292588712",
                "operator": "\u0141\u00f3d\u017a-Miasto Na Prawach Powiatu",
                "operator:type": "government",
                "amenity": "kindergarten",
                "note": "Parent RSPO: 276254"
            }
        },
        {
            "id": 55462,
            "type": "Feature",
            "geometry": {
                "type": "Point",
                "coordinates": [
                    19.38175,
                    51.70879
                ]
            },
            "properties": {
                "ref:rspo": 55462,
                "official_name": "O\u015brodek Terapeutyczno - Edukacyjny dla Dzieci I M\u0142odziezy z Autyzmem w Navicula - Centrum",
                "name": "O\u015brodek Terapeutyczno - Edukacyjny dla Dzieci I M\u0142odziezy z Autyzmem w Navicula - Centrum",
                "addr:postcode": "93-460",
                "addr:city": "\u0141\u00f3d\u017a",
                "addr:street": "Chocianowicka",
                "addr:housenumber": "198",
                "addr:city:simc": 957985,
                "addr:street:sym_ul": 2783,
                "phone": "+48 426118345",
                "email": "navicula@life.pl",
                "website": "http:\/\/www.navicula.pl",
                "ref:regon": "101488360",
                "operator": "Navicula - Centrum",
                "operator:type": "ngo",
                "amenity": "school",
                "note": "Children RSPO: 110353;110354;110356"
            }
        },
        {
            "id": 25427,
            "type": "Feature",
            "geometry": {
                "type": "Point",
                "coordinates": [
                    19.55295,
                    51.7093599
                ]
            },
            "properties": {
                "isced:level": "1;2",
                "ref:rspo": 25427,
                "official_name": "Szko\u0142a Podstawowa nr 130 im. Marsza\u0142ka J\u00f3zefa Pi\u0142sudskiego",
                "name": "Szko\u0142a Podstawowa nr 130",
                "addr:postcode": "93-645",
                "addr:city": "\u0141\u00f3d\u017a",
                "addr:street": "Go\u015bciniec",
                "addr:housenumber": "1",
                "addr:city:simc": 957985,
                "addr:street:sym_ul": 5875,
                "phone": "+48 426499583",
                "email": "kontakt@sp130.elodz.edu.pl",
                "website": "http:\/\/sp130.edu.pl\/",
                "ref:regon": "000565676",
                "operator": "\u0141\u00f3d\u017a-Miasto Na Prawach Powiatu",
                "operator:type": "government",
                "amenity": "school"
            }
        },
        {
            "id": 54323,
            "type": "Feature",
            "geometry": {
                "type": "Point",
                "coordinates": [
                    19.43648,
                    51.70987
                ]
            },
            "properties": {
                "ref:rspo": 54323,
                "official_name": "Szko\u0142a J\u0119zyk\u00f3w Obcych \"College Of Languages\"",
                "name": "Szko\u0142a J\u0119zyk\u00f3w Obcych \"College Of Languages\"",
                "addr:postcode": "93-404",
                "addr:city": "\u0141\u00f3d\u017a",
                "addr:street": "Demokratyczna",
                "addr:housenumber": "6",
                "addr:city:simc": 957985,
                "addr:street:sym_ul": 3753,
                "phone": "+48 426801075",
                "email": "collegewitaszek@gmail.com",
                "website": "http:\/\/www.egzaminycambridge.pl",
                "ref:regon": "101489655",
                "ref:vatin": "PL7290001223",
                "operator": "Dariusz Witaszek",
                "operator:type": "private",
                "fixme": "w zale\u017cno\u015bci od przedmiotu dzia\u0142alno\u015bci (np. amenity=training + training=*, amenity=dancing_school, amenity=language_school, amenity=music_school)"
            }
        },
        {
            "id": 22735,
            "type": "Feature",
            "geometry": {
                "type": "Point",
                "coordinates": [
                    19.43538,
                    51.71042
                ]
            },
            "properties": {
                "ref:rspo": 22735,
                "official_name": "Niepubliczne Przedszkole Prywatne w \u0141odzi \"Zielone Przedszkole\"",
                "name": "Niepubliczne Przedszkole Prywatne w \u0141odzi \"Zielone Przedszkole\"",
                "addr:postcode": "93-405",
                "addr:city": "\u0141\u00f3d\u017a",
                "addr:street": "Finansowa",
                "addr:housenumber": "1",
                "addr:city:simc": 957985,
                "addr:street:sym_ul": 5018,
                "phone": "+48 501383323",
                "email": "kierst.aneta@gmail.com",
                "website": "http:\/\/www.zielone-przedszkole.com",
                "ref:regon": "101476500",
                "operator": "Aneta Kierst",
                "operator:type": "private",
                "amenity": "kindergarten"
            }
        },
        {
            "id": 276254,
            "type": "Feature",
            "geometry": {
                "type": "Point",
                "coordinates": [
                    19.44652,
                    51.71075
                ]
            },
            "properties": {
                "ref:rspo": 276254,
                "official_name": "Zesp\u00f3\u0142 Przedszkoli Miejskich nr 2",
                "name": "Zesp\u00f3\u0142 Przedszkoli Miejskich nr 2",
                "addr:postcode": "93-430",
                "addr:city": "\u0141\u00f3d\u017a",
                "addr:street": "Demokratyczna",
                "addr:housenumber": "61\/63",
                "addr:city:simc": 957985,
                "addr:street:sym_ul": 3753,
                "phone": "+48 426841191",
                "email": "kontakt@zpm2.elodz.edu.pl",
                "ref:regon": "387058927",
                "operator": "\u0141\u00f3d\u017a-Miasto Na Prawach Powiatu",
                "operator:type": "government",
                "landuse": "education",
                "fixme": "amenity=school, amenity=college albo landuse=education w zale\u017cno\u015bci od tego, jakie plac\u00f3wki wchodz\u0105 w sk\u0142ad zespo\u0142u. Sprawd\u017a, kiedy stosowa\u0107 amenity=* a kiedy landuse=education.",
                "note": "Children RSPO: 20574;21985"
            }
        },
        {
            "id": 21985,
            "type": "Feature",
            "geometry": {
                "type": "Point",
                "coordinates": [
                    19.446107,
                    51.7107961
                ]
            },
            "properties": {
                "ref:rspo": 21985,
                "official_name": "Przedszkole Miejskie nr 86",
                "name": "Przedszkole Miejskie nr 86",
                "addr:postcode": "93-430",
                "addr:city": "\u0141\u00f3d\u017a",
                "addr:street": "Demokratyczna",
                "addr:housenumber": "61",
                "addr:door": "63",
                "addr:city:simc": 957985,
                "addr:street:sym_ul": 3753,
                "phone": "+48 426841191",
                "email": "kontakt@pm86.elodz.edu.pl",
                "website": "http:\/\/www.pm86.pl",
                "ref:regon": "000220463",
                "ref:vatin": "PL7292590637",
                "operator": "\u0141\u00f3d\u017a-Miasto Na Prawach Powiatu",
                "operator:type": "government",
                "amenity": "kindergarten",
                "note": "Parent RSPO: 276254"
            }
        },
        {
            "id": 22949,
            "type": "Feature",
            "geometry": {
                "type": "Point",
                "coordinates": [
                    19.54535,
                    51.71089
                ]
            },
            "properties": {
                "ref:rspo": 22949,
                "official_name": "Przedszkole Miejskie nr 233",
                "name": "Przedszkole Miejskie nr 233",
                "addr:postcode": "93-642",
                "addr:city": "\u0141\u00f3d\u017a",
                "addr:street": "Kolumny",
                "addr:housenumber": "301",
                "addr:city:simc": 957985,
                "addr:street:sym_ul": 8988,
                "phone": "+48 426499868",
                "email": "kontakt@pm233.elodz.edu.pl",
                "website": "http:\/\/www.pm233lodz.wikom.pl",
                "ref:regon": "004341465",
                "ref:vatin": "PL9820331634",
                "operator": "\u0141\u00f3d\u017a-Miasto Na Prawach Powiatu",
                "operator:type": "government",
                "amenity": "kindergarten"
            }
        },
        {
            "id": 25413,
            "type": "Feature",
            "geometry": {
                "type": "Point",
                "coordinates": [
                    19.4456426,
                    51.7113835
                ]
            },
            "properties": {
                "isced:level": "1;2",
                "ref:rspo": 25413,
                "official_name": "Szko\u0142a Podstawowa nr 125 im. Janusza Korczaka",
                "name": "Szko\u0142a Podstawowa nr 125",
                "addr:postcode": "93-429",
                "addr:city": "\u0141\u00f3d\u017a",
                "addr:street": "Dzwonowa",
                "addr:housenumber": "18\/20",
                "addr:city:simc": 957985,
                "addr:street:sym_ul": 4718,
                "phone": "+48 426848420",
                "email": "kontakt@sp125.elodz.edu.pl",
                "ref:regon": "000212848",
                "operator": "\u0141\u00f3d\u017a-Miasto Na Prawach Powiatu",
                "operator:type": "government",
                "amenity": "school"
            }
        },
        {
            "id": 28687,
            "type": "Feature",
            "geometry": {
                "type": "Point",
                "coordinates": [
                    19.42811,
                    51.71224
                ]
            },
            "properties": {
                "ref:rspo": 28687,
                "official_name": "Centrum Zaj\u0119\u0107 Pozaszkolnych nr 2",
                "name": "Centrum Zaj\u0119\u0107 Pozaszkolnych nr 2",
                "addr:postcode": "93-490",
                "addr:city": "\u0141\u00f3d\u017a",
                "addr:street": "Sopocka",
                "addr:housenumber": "3\/5",
                "addr:city:simc": 957985,
                "addr:street:sym_ul": 20582,
                "phone": "+48 426842487",
                "email": "centrumzp2@poczta.onet.pl",
                "website": "http:\/\/www.czp2.pl",
                "ref:regon": "000255220",
                "ref:vatin": "PL7292612385",
                "operator": "\u0141\u00f3d\u017a-Miasto Na Prawach Powiatu",
                "operator:type": "government",
                "amenity": "community_centre",
                "community_centre:for": "juvenile",
                "note": "Children RSPO: 93079"
            }
        },
        {
            "id": 22563,
            "type": "Feature",
            "geometry": {
                "type": "Point",
                "coordinates": [
                    19.48778,
                    51.71262
                ]
            },
            "properties": {
                "ref:rspo": 22563,
                "official_name": "Katolickie Przedszkole Parafialne im.b\u0142.edmunda Bojanowskiego",
                "name": "Katolickie Przedszkole Parafialne im.b\u0142.edmunda Bojanowskiego",
                "addr:postcode": "93-317",
                "addr:city": "\u0141\u00f3d\u017a",
                "addr:street": "Rzgowska",
                "addr:housenumber": "242",
                "addr:city:simc": 957985,
                "addr:street:sym_ul": 19377,
                "phone": "+48 426463530",
                "email": "przedszkole@kpp-lodz.pl",
                "website": "http:\/\/www.kpp-lodz.pl",
                "ref:regon": "101476888",
                "ref:vatin": "PL7292650463",
                "operator": "Rzymsko-Katolicka Parafia \u015aw.wojciecha",
                "operator:type": "religious",
                "amenity": "kindergarten"
            }
        },
        {
            "id": 276434,
            "type": "Feature",
            "geometry": {
                "type": "Point",
                "coordinates": [
                    19.4372,
                    51.71329
                ]
            },
            "properties": {
                "ref:rspo": 276434,
                "official_name": "Terapeutyczny Punkt Przedszkolny Supe\u0142ek",
                "name": "Terapeutyczny Punkt Przedszkolny Supe\u0142ek",
                "addr:postcode": "93-418",
                "addr:city": "\u0141\u00f3d\u017a",
                "addr:street": "Starorudzka",
                "addr:housenumber": "18",
                "addr:city:simc": 957985,
                "addr:street:sym_ul": 20976,
                "phone": "+48 696077729",
                "email": "mateuszkostrzewski@po.pl",
                "ref:regon": "387133586",
                "operator": "Mateusz Kostrzewski",
                "operator:type": "private",
                "amenity": "kindergarten"
            }
        },
        {
            "id": 22913,
            "type": "Feature",
            "geometry": {
                "type": "Point",
                "coordinates": [
                    19.49018,
                    51.71457
                ]
            },
            "properties": {
                "ref:rspo": 22913,
                "official_name": "Przedszkole Miejskie nr 192",
                "name": "Przedszkole Miejskie nr 192",
                "addr:postcode": "93-322",
                "addr:city": "\u0141\u00f3d\u017a",
                "addr:street": "Mieszcza\u0144ska",
                "addr:housenumber": "15",
                "addr:city:simc": 957985,
                "addr:street:sym_ul": 12825,
                "phone": "+48 426462432",
                "email": "kontakt@pm192.elodz.edu.pl",
                "website": "http:\/\/pm192lodz.wikom.pl",
                "ref:regon": "004341382",
                "ref:vatin": "PL9820331628",
                "operator": "\u0141\u00f3d\u017a-Miasto Na Prawach Powiatu",
                "operator:type": "government",
                "amenity": "kindergarten"
            }
        },
        {
            "id": 21809,
            "type": "Feature",
            "geometry": {
                "type": "Point",
                "coordinates": [
                    19.42613,
                    51.71478
                ]
            },
            "properties": {
                "ref:rspo": 21809,
                "official_name": "Przedszkole Miejskie nr 40",
                "name": "Przedszkole Miejskie nr 40",
                "addr:postcode": "93-472",
                "addr:city": "\u0141\u00f3d\u017a",
                "addr:street": "Uroczysko",
                "addr:housenumber": "17",
                "addr:city:simc": 957985,
                "addr:street:sym_ul": 23409,
                "phone": "+48 426846559",
                "email": "kontakt@pm40.elodz.edu.pl",
                "website": "http:\/\/www.pm40lodz.wikom.pl\/",
                "ref:regon": "000219767",
                "ref:vatin": "PL7292589054",
                "operator": "\u0141\u00f3d\u017a-Miasto Na Prawach Powiatu",
                "operator:type": "government",
                "amenity": "kindergarten"
            }
        },
        {
            "id": 27378,
            "type": "Feature",
            "geometry": {
                "type": "Point",
                "coordinates": [
                    19.48246,
                    51.71485
                ]
            },
            "properties": {
                "isced:level": "3",
                "ref:rspo": 27378,
                "official_name": "Xliii Liceum Og\u00f3lnokszta\u0142c\u0105ce im. Juliana Tuwima",
                "name": "Xliii Liceum Og\u00f3lnokszta\u0142c\u0105ce",
                "addr:postcode": "93-319",
                "addr:city": "\u0141\u00f3d\u017a",
                "addr:street": "Kr\u00f3lewska",
                "addr:housenumber": "13\/15",
                "addr:city:simc": 957985,
                "addr:street:sym_ul": 9987,
                "phone": "+48 426403441",
                "email": "kontakt@lo43.elodz.edu.pl",
                "website": "http:\/\/www.43lodz.edupage.org",
                "ref:regon": "471029958",
                "operator": "\u0141\u00f3d\u017a-Miasto Na Prawach Powiatu",
                "operator:type": "government",
                "amenity": "school"
            }
        },
        {
            "id": 21695,
            "type": "Feature",
            "geometry": {
                "type": "Point",
                "coordinates": [
                    19.48481,
                    51.7153599
                ]
            },
            "properties": {
                "ref:rspo": 21695,
                "official_name": "Przedszkole Miejskie nr 26",
                "name": "Przedszkole Miejskie nr 26",
                "addr:postcode": "93-319",
                "addr:city": "\u0141\u00f3d\u017a",
                "addr:street": "Potulna",
                "addr:housenumber": "4",
                "addr:city:simc": 957985,
                "addr:street:sym_ul": 17309,
                "phone": "+48 426464341",
                "email": "kontakt@pm26elodz.edu.pl",
                "website": "http:\/\/www.pm26lodz.wikom.pl",
                "ref:regon": "000218992",
                "ref:vatin": "PL7292588698",
                "operator": "\u0141\u00f3d\u017a-Miasto Na Prawach Powiatu",
                "operator:type": "government",
                "amenity": "kindergarten"
            }
        },
        {
            "id": 26133,
            "type": "Feature",
            "geometry": {
                "type": "Point",
                "coordinates": [
                    19.49224,
                    51.7165
                ]
            },
            "properties": {
                "isced:level": "1;2",
                "ref:rspo": 26133,
                "official_name": "Szko\u0142a Podstawowa nr 162 im. Jana Nowaka-Jeziora\u0144skiego",
                "name": "Szko\u0142a Podstawowa nr 162",
                "addr:postcode": "93-321",
                "addr:city": "\u0141\u00f3d\u017a",
                "addr:street": "Powszechna",
                "addr:housenumber": "15",
                "addr:city:simc": 957985,
                "addr:street:sym_ul": 17383,
                "phone": "+48 426462002",
                "email": "kontakt@sp162.elodz.edu.pl",
                "website": "http:\/\/www.sp162.szkoly.lodz.pl",
                "ref:regon": "001060375",
                "operator": "\u0141\u00f3d\u017a-Miasto Na Prawach Powiatu",
                "operator:type": "government",
                "amenity": "school"
            }
        },
        {
            "id": 22936,
            "type": "Feature",
            "geometry": {
                "type": "Point",
                "coordinates": [
                    19.4809099,
                    51.7167824
                ]
            },
            "properties": {
                "ref:rspo": 22936,
                "official_name": "Przedszkole Miejskie nr 215",
                "name": "Przedszkole Miejskie nr 215",
                "addr:postcode": "93-356",
                "addr:city": "\u0141\u00f3d\u017a",
                "addr:street": "Budowlana",
                "addr:housenumber": "11",
                "addr:door": "13",
                "addr:city:simc": 957985,
                "addr:street:sym_ul": 2335,
                "phone": "+48 426466143",
                "email": "kontakt@pm215.elodz.edu.pl",
                "website": "http:\/\/www.pm215lodz.wikom.pl",
                "ref:regon": "004341420",
                "ref:vatin": "PL7292588770",
                "operator": "\u0141\u00f3d\u017a-Miasto Na Prawach Powiatu",
                "operator:type": "government",
                "amenity": "kindergarten"
            }
        },
        {
            "id": 272721,
            "type": "Feature",
            "geometry": {
                "type": "Point",
                "coordinates": [
                    19.48557,
                    51.71736
                ]
            },
            "properties": {
                "ref:rspo": 272721,
                "official_name": "Niepubliczna Poradnia Psychologiczno-Pedagogiczna Planeta Integracji",
                "name": "Niepubliczna Poradnia Psychologiczno-Pedagogiczna Planeta Integracji",
                "addr:postcode": "93-317",
                "addr:city": "\u0141\u00f3d\u017a",
                "addr:street": "Rzgowska",
                "addr:housenumber": "198",
                "addr:city:simc": 957985,
                "addr:street:sym_ul": 19377,
                "phone": "+48 573238081",
                "email": "biuro@planetaintegracji.pl",
                "ref:regon": "384280909",
                "operator": "El\u017cbieta Jastrz\u0119bowska",
                "operator:type": "private",
                "healthcare": "counselling",
                "counselling_type": "education",
                "fixme": "w zale\u017cno\u015bci od przedmiotu dzia\u0142alno\u015bci (np. healthcare=counselling + counselling_type=education albo healthcare=psychotherapist)"
            }
        },
        {
            "id": 22930,
            "type": "Feature",
            "geometry": {
                "type": "Point",
                "coordinates": [
                    19.49174,
                    51.71931
                ]
            },
            "properties": {
                "ref:rspo": 22930,
                "official_name": "Przedszkole Miejskie nr 200",
                "name": "Przedszkole Miejskie nr 200",
                "addr:postcode": "93-323",
                "addr:city": "\u0141\u00f3d\u017a",
                "addr:street": "Zamkni\u0119ta",
                "addr:housenumber": "1",
                "addr:city:simc": 957985,
                "addr:street:sym_ul": 25545,
                "phone": "+48 426463120",
                "email": "kontakt@pm200.elodz.edu.pl",
                "website": "http:\/\/www.pm200lodz.wikom.pl",
                "ref:regon": "004341407",
                "ref:vatin": "PL9820331278",
                "operator": "\u0141\u00f3d\u017a-Miasto Na Prawach Powiatu",
                "operator:type": "government",
                "amenity": "kindergarten"
            }
        },
        {
            "id": 23391,
            "type": "Feature",
            "geometry": {
                "type": "Point",
                "coordinates": [
                    19.4913,
                    51.72013
                ]
            },
            "properties": {
                "isced:level": "1;2",
                "ref:rspo": 23391,
                "official_name": "Szko\u0142a Podstawowa nr 110 im. Partyzant\u00f3w Ziemi \u0141\u00f3dzkiej",
                "name": "Szko\u0142a Podstawowa nr 110",
                "addr:postcode": "93-323",
                "addr:city": "\u0141\u00f3d\u017a",
                "addr:street": "Zamkni\u0119ta",
                "addr:housenumber": "3",
                "addr:city:simc": 957985,
                "addr:street:sym_ul": 25545,
                "phone": "+48 426463140",
                "email": "kontakt@sp110.elodz.edu.pl",
                "website": "http:\/\/www.sp110.info",
                "ref:regon": "000210980",
                "operator": "\u0141\u00f3d\u017a-Miasto Na Prawach Powiatu",
                "operator:type": "government",
                "amenity": "school"
            }
        },
        {
            "id": 23390,
            "type": "Feature",
            "geometry": {
                "type": "Point",
                "coordinates": [
                    19.46878,
                    51.72157
                ]
            },
            "properties": {
                "isced:level": "1;2",
                "ref:rspo": 23390,
                "official_name": "Szko\u0142a Podstawowa nr 109 im. Ludwiki Wawrzy\u0144skiej",
                "name": "Szko\u0142a Podstawowa nr 109",
                "addr:postcode": "93-379",
                "addr:city": "\u0141\u00f3d\u017a",
                "addr:street": "Pryncypalna",
                "addr:housenumber": "74",
                "addr:city:simc": 957985,
                "addr:street:sym_ul": 17609,
                "phone": "+48 426409798",
                "email": "kontakt@sp109.elodz.edu.pl",
                "website": "http:\/\/sp109lodz.wikom",
                "ref:regon": "000210588",
                "operator": "\u0141\u00f3d\u017a-Miasto Na Prawach Powiatu",
                "operator:type": "government",
                "amenity": "school"
            }
        },
        {
            "id": 133684,
            "type": "Feature",
            "geometry": {
                "type": "Point",
                "coordinates": [
                    19.44302,
                    51.72161
                ]
            },
            "properties": {
                "ref:rspo": 133684,
                "official_name": "Niepubliczna Poradnia Psychologiczno-Pedagogiczna Sintonia",
                "name": "Niepubliczna Poradnia Psychologiczno-Pedagogiczna Sintonia",
                "addr:postcode": "93-411",
                "addr:city": "\u0141\u00f3d\u017a",
                "addr:street": "\u017byczliwa",
                "addr:housenumber": "3",
                "addr:door": "1",
                "addr:city:simc": 957985,
                "addr:street:sym_ul": 26615,
                "phone": "+48 697700906",
                "email": "kontakt@sintonia.pl",
                "ref:regon": "367532920",
                "operator": "Katarzyna Zubiel",
                "operator:type": "private",
                "healthcare": "counselling",
                "counselling_type": "education",
                "fixme": "w zale\u017cno\u015bci od przedmiotu dzia\u0142alno\u015bci (np. healthcare=counselling + counselling_type=education albo healthcare=psychotherapist)"
            }
        },
        {
            "id": 128250,
            "type": "Feature",
            "geometry": {
                "type": "Point",
                "coordinates": [
                    19.44603,
                    51.72238
                ]
            },
            "properties": {
                "ref:rspo": 128250,
                "official_name": "Terapeutyczny Punkt Przedszkolny Receptorek",
                "name": "Terapeutyczny Punkt Przedszkolny Receptorek",
                "addr:postcode": "93-487",
                "addr:city": "\u0141\u00f3d\u017a",
                "addr:street": "Beczkowa",
                "addr:housenumber": "10\/12",
                "addr:city:simc": 957985,
                "addr:street:sym_ul": 954,
                "phone": "+48 601271063",
                "email": "gabinety@receptor-terapia.pl",
                "ref:regon": "362196540",
                "operator": "Agnieszka Porada",
                "operator:type": "private",
                "amenity": "kindergarten"
            }
        },
        {
            "id": 126723,
            "type": "Feature",
            "geometry": {
                "type": "Point",
                "coordinates": [
                    19.44106,
                    51.72242
                ]
            },
            "properties": {
                "ref:rspo": 126723,
                "official_name": "Przedszkole E-Maluch",
                "name": "Przedszkole E-Maluch",
                "addr:postcode": "93-478",
                "addr:city": "\u0141\u00f3d\u017a",
                "addr:street": "Gen. Pr\u0105dzy\u0144skiego",
                "addr:housenumber": "6",
                "addr:city:simc": 957985,
                "addr:street:sym_ul": 53869,
                "phone": "+48 669557485",
                "email": "emaluchrafal@gmail.com",
                "website": "http:\/\/www.emaluch.eu",
                "ref:regon": "360664155",
                "operator": "Ma\u0142gorzata Piekarska",
                "operator:type": "private",
                "amenity": "kindergarten"
            }
        },
        {
            "id": 276836,
            "type": "Feature",
            "geometry": {
                "type": "Point",
                "coordinates": [
                    19.44036,
                    51.72277
                ]
            },
            "properties": {
                "ref:rspo": 276836,
                "official_name": "Przedszkole E-Maluch 9",
                "name": "Przedszkole E-Maluch 9",
                "addr:postcode": "93-478",
                "addr:city": "\u0141\u00f3d\u017a",
                "addr:street": "Gen. Pr\u0105dzy\u0144skiego",
                "addr:housenumber": "7",
                "addr:city:simc": 957985,
                "addr:street:sym_ul": 53869,
                "phone": "+48 574755363",
                "email": "emaluchsekretariat@gmail.com",
                "ref:regon": "387676223",
                "operator": "Ma\u0142gorzata Piekarska",
                "operator:type": "private",
                "amenity": "kindergarten"
            }
        },
        {
            "id": 23069,
            "type": "Feature",
            "geometry": {
                "type": "Point",
                "coordinates": [
                    19.45297,
                    51.72476
                ]
            },
            "properties": {
                "isced:level": "1;2",
                "ref:rspo": 23069,
                "official_name": "Szko\u0142a Podstawowa nr 7 im. Orl\u0105t Lwowskich",
                "name": "Szko\u0142a Podstawowa nr 7",
                "addr:postcode": "93-535",
                "addr:city": "\u0141\u00f3d\u017a",
                "addr:street": "Wiosenna",
                "addr:housenumber": "1",
                "addr:city:simc": 957985,
                "addr:street:sym_ul": 24364,
                "phone": "+48 426841976",
                "email": "kontakt@sp7.elodz.edu.pl",
                "website": "http:\/\/www.sp7.edu.lodz.pl",
                "ref:regon": "000731123",
                "operator": "\u0141\u00f3d\u017a-Miasto Na Prawach Powiatu",
                "operator:type": "government",
                "amenity": "school"
            }
        },
        {
            "id": 26061,
            "type": "Feature",
            "geometry": {
                "type": "Point",
                "coordinates": [
                    19.46095,
                    51.72592
                ]
            },
            "properties": {
                "ref:rspo": 26061,
                "official_name": "Zesp\u00f3\u0142 Szk\u00f3\u0142 Ekonomii I Us\u0142ug",
                "name": "Zesp\u00f3\u0142 Szk\u00f3\u0142 Ekonomii I Us\u0142ug",
                "addr:postcode": "93-533",
                "addr:city": "\u0141\u00f3d\u017a",
                "addr:street": "Astronaut\u00f3w",
                "addr:housenumber": "19",
                "addr:city:simc": 957985,
                "addr:street:sym_ul": 472,
                "phone": "+48 426814977",
                "email": "kontakt@zseiu.elodz.edu.pl",
                "ref:regon": "000182159",
                "operator": "\u0141\u00f3d\u017a-Miasto Na Prawach Powiatu",
                "operator:type": "government",
                "landuse": "education",
                "fixme": "amenity=school, amenity=college albo landuse=education w zale\u017cno\u015bci od tego, jakie plac\u00f3wki wchodz\u0105 w sk\u0142ad zespo\u0142u. Sprawd\u017a, kiedy stosowa\u0107 amenity=* a kiedy landuse=education.",
                "note": "Children RSPO: 29038;29039"
            }
        },
        {
            "id": 29038,
            "type": "Feature",
            "geometry": {
                "type": "Point",
                "coordinates": [
                    19.46095,
                    51.72589
                ]
            },
            "properties": {
                "isced:level": "4",
                "ref:rspo": 29038,
                "official_name": "Szko\u0142a Policealna nr 2 w Zespole Szk\u00f3\u0142 Ekonomii I Us\u0142ug",
                "name": "Szko\u0142a Policealna nr 2 w Zespole Szk\u00f3\u0142 Ekonomii I Us\u0142ug",
                "addr:postcode": "93-533",
                "addr:city": "\u0141\u00f3d\u017a",
                "addr:street": "Astronaut\u00f3w",
                "addr:housenumber": "19",
                "addr:city:simc": 957985,
                "addr:street:sym_ul": 472,
                "phone": "+48 426814977",
                "email": "kontakt@zseiu.elodz.edu.pl",
                "ref:regon": "100025050",
                "operator": "\u0141\u00f3d\u017a-Miasto Na Prawach Powiatu",
                "operator:type": "government",
                "amenity": "college",
                "note": "Parent RSPO: 26061"
            }
        },
        {
            "id": 29039,
            "type": "Feature",
            "geometry": {
                "type": "Point",
                "coordinates": [
                    19.46095,
                    51.725860000000004
                ]
            },
            "properties": {
                "isced:level": "3",
                "ref:rspo": 29039,
                "official_name": "Technikum nr 2 w Zespole Szk\u00f3\u0142 Ekonomii I Us\u0142ug",
                "name": "Technikum nr 2 w Zespole Szk\u00f3\u0142 Ekonomii I Us\u0142ug",
                "addr:postcode": "93-533",
                "addr:city": "\u0141\u00f3d\u017a",
                "addr:street": "Astronaut\u00f3w",
                "addr:housenumber": "19",
                "addr:city:simc": 957985,
                "addr:street:sym_ul": 472,
                "phone": "+48 426814977",
                "email": "kontakt@zseiu.elodz.edu.pl",
                "ref:regon": "472891690",
                "operator": "\u0141\u00f3d\u017a-Miasto Na Prawach Powiatu",
                "operator:type": "government",
                "amenity": "school",
                "note": "Parent RSPO: 26061"
            }
        },
        {
            "id": 22168,
            "type": "Feature",
            "geometry": {
                "type": "Point",
                "coordinates": [
                    19.46018,
                    51.72622
                ]
            },
            "properties": {
                "ref:rspo": 22168,
                "official_name": "Przedszkole Miejskie nr 106",
                "name": "Przedszkole Miejskie nr 106",
                "addr:postcode": "93-533",
                "addr:city": "\u0141\u00f3d\u017a",
                "addr:street": "Astronaut\u00f3w",
                "addr:housenumber": "17",
                "addr:city:simc": 957985,
                "addr:street:sym_ul": 472,
                "phone": "+48 426842251",
                "email": "kontakt@pm106.elodz.edu.pl",
                "website": "http:\/\/www.pm106.pl",
                "ref:regon": "000221238",
                "ref:vatin": "PL7292588735",
                "operator": "\u0141\u00f3d\u017a-Miasto Na Prawach Powiatu",
                "operator:type": "government",
                "amenity": "kindergarten"
            }
        },
        {
            "id": 126304,
            "type": "Feature",
            "geometry": {
                "type": "Point",
                "coordinates": [
                    19.46806,
                    51.72626
                ]
            },
            "properties": {
                "isced:level": "3",
                "ref:rspo": 126304,
                "official_name": "Mi\u0119dzynarodowa Szko\u0142a Mistrzostwa Sportowego Liceum Og\u00f3lnokszta\u0142c\u0105ce Edukacja I Sport",
                "name": "Mi\u0119dzynarodowa Szko\u0142a Mistrzostwa Sportowego Liceum Og\u00f3lnokszta\u0142c\u0105ce Edukacja I Sport",
                "addr:postcode": "93-524",
                "addr:city": "\u0141\u00f3d\u017a",
                "addr:street": "Jaros\u0142awska",
                "addr:housenumber": "29",
                "addr:city:simc": 957985,
                "addr:street:sym_ul": 7264,
                "phone": "+48 732734533",
                "email": "sekretariat@msms.eu",
                "ref:regon": "360212430",
                "operator": "Fundacja \"Edukacja I Sport\"",
                "operator:type": "ngo",
                "amenity": "school"
            }
        },
        {
            "id": 133445,
            "type": "Feature",
            "geometry": {
                "type": "Point",
                "coordinates": [
                    19.46806,
                    51.72623
                ]
            },
            "properties": {
                "isced:level": "1;2",
                "ref:rspo": 133445,
                "official_name": "Szko\u0142a Podstawowa \"Edukacja I Sport\" w \u0141odzi",
                "name": "Szko\u0142a Podstawowa \"Edukacja I Sport\" w \u0141odzi",
                "addr:postcode": "93-254",
                "addr:city": "\u0141\u00f3d\u017a",
                "addr:street": "Jaros\u0142awska",
                "addr:housenumber": "29",
                "addr:city:simc": 957985,
                "addr:street:sym_ul": 7264,
                "phone": "+48 732734533",
                "email": "sekretariat@msms.eu",
                "ref:regon": "367322802",
                "operator": "Fundacja \"Edukacja I Sport\"",
                "operator:type": "ngo",
                "amenity": "school"
            }
        },
        {
            "id": 22382,
            "type": "Feature",
            "geometry": {
                "type": "Point",
                "coordinates": [
                    19.4507,
                    51.72683
                ]
            },
            "properties": {
                "ref:rspo": 22382,
                "official_name": "Przedszkole Miejskie nr 122",
                "name": "Przedszkole Miejskie nr 122",
                "addr:postcode": "93-540",
                "addr:city": "\u0141\u00f3d\u017a",
                "addr:street": "B\u0119dzi\u0144ska",
                "addr:housenumber": "3",
                "addr:city:simc": 957985,
                "addr:street:sym_ul": 1127,
                "phone": "+48 426849659",
                "email": "kontakt@pm122.elodz.edu.pl",
                "website": "http:\/\/www.pm122lodz.wikom.pl",
                "ref:regon": "000221468",
                "ref:vatin": "PL7292588706",
                "operator": "\u0141\u00f3d\u017a-Miasto Na Prawach Powiatu",
                "operator:type": "government",
                "amenity": "kindergarten"
            }
        },
        {
            "id": 26036,
            "type": "Feature",
            "geometry": {
                "type": "Point",
                "coordinates": [
                    19.42948,
                    51.72724
                ]
            },
            "properties": {
                "isced:level": "1;2",
                "ref:rspo": 26036,
                "official_name": "Szko\u0142a Podstawowa nr 138 im. Leopolda Staffa",
                "name": "Szko\u0142a Podstawowa nr 138",
                "addr:postcode": "93-479",
                "addr:city": "\u0141\u00f3d\u017a",
                "addr:street": "\u015bw. Franciszka z Asy\u017cu",
                "addr:housenumber": "53",
                "addr:city:simc": 957985,
                "addr:street:sym_ul": 5150,
                "phone": "+48 426826710",
                "email": "kontakt@sp138.elodz.edu.pl",
                "website": "http:\/\/www.sp138.edu.lodz.pl",
                "ref:regon": "000213598",
                "operator": "\u0141\u00f3d\u017a-Miasto Na Prawach Powiatu",
                "operator:type": "government",
                "amenity": "school"
            }
        },
        {
            "id": 124540,
            "type": "Feature",
            "geometry": {
                "type": "Point",
                "coordinates": [
                    19.49715,
                    51.7277
                ]
            },
            "properties": {
                "ref:rspo": 124540,
                "official_name": "Punkt Przedszkolny Koala",
                "name": "Punkt Przedszkolny Koala",
                "addr:postcode": "93-237",
                "addr:city": "\u0141\u00f3d\u017a",
                "addr:street": "\u015al\u0105ska",
                "addr:housenumber": "49",
                "addr:city:simc": 957985,
                "addr:street:sym_ul": 22308,
                "phone": "+48 605041746",
                "email": "punktprzedszkolny.koala@gmail.com",
                "ref:regon": "101834490",
                "operator": "Monika Orczyk",
                "operator:type": "private",
                "amenity": "kindergarten"
            }
        },
        {
            "id": 22524,
            "type": "Feature",
            "geometry": {
                "type": "Point",
                "coordinates": [
                    19.46643,
                    51.72807
                ]
            },
            "properties": {
                "isced:level": "3",
                "ref:rspo": 22524,
                "official_name": "Ix Liceum Og\u00f3lnokszta\u0142c\u0105ce im. Jaros\u0142awa D\u0105browskiego",
                "name": "Ix Liceum Og\u00f3lnokszta\u0142c\u0105ce",
                "addr:postcode": "93-025",
                "addr:city": "\u0141\u00f3d\u017a",
                "addr:street": "Ignacego Paderewskiego",
                "addr:housenumber": "24",
                "addr:city:simc": 957985,
                "addr:street:sym_ul": 15529,
                "phone": "+48 426842445",
                "email": "lo9@toya.net.pl",
                "website": "http:\/\/www.dziewiatka.edu.pl",
                "ref:regon": "000216674",
                "operator": "\u0141\u00f3d\u017a-Miasto Na Prawach Powiatu",
                "operator:type": "government",
                "amenity": "school"
            }
        },
        {
            "id": 23106,
            "type": "Feature",
            "geometry": {
                "type": "Point",
                "coordinates": [
                    19.4627899,
                    51.72828
                ]
            },
            "properties": {
                "isced:level": "1;2",
                "ref:rspo": 23106,
                "official_name": "Szko\u0142a Podstawowa nr 51 im. Stefana Linkego",
                "name": "Szko\u0142a Podstawowa nr 51",
                "addr:postcode": "93-510",
                "addr:city": "\u0141\u00f3d\u017a",
                "addr:street": "Konstantego Cio\u0142kowskiego",
                "addr:housenumber": "11a",
                "addr:city:simc": 957985,
                "addr:street:sym_ul": 3089,
                "phone": "+48 426843818",
                "email": "kontakt@sp51.elodz.edu.pl",
                "ref:regon": "000203909",
                "operator": "\u0141\u00f3d\u017a-Miasto Na Prawach Powiatu",
                "operator:type": "government",
                "amenity": "school"
            }
        },
        {
            "id": 22068,
            "type": "Feature",
            "geometry": {
                "type": "Point",
                "coordinates": [
                    19.4614699,
                    51.72843
                ]
            },
            "properties": {
                "ref:rspo": 22068,
                "official_name": "Przedszkole Miejskie nr 89",
                "name": "Przedszkole Miejskie nr 89",
                "addr:postcode": "93-510",
                "addr:city": "\u0141\u00f3d\u017a",
                "addr:street": "Konstantego Cio\u0142kowskiego",
                "addr:housenumber": "7a",
                "addr:city:simc": 957985,
                "addr:street:sym_ul": 3089,
                "phone": "+48 426847663",
                "email": "kontakt@pm89.elodz.edu.pl",
                "website": "http:\/\/www.pm89lodz.wikom.pl",
                "ref:regon": "000220813",
                "ref:vatin": "PL7292588787",
                "operator": "\u0141\u00f3d\u017a-Miasto Na Prawach Powiatu",
                "operator:type": "government",
                "amenity": "kindergarten"
            }
        },
        {
            "id": 69343,
            "type": "Feature",
            "geometry": {
                "type": "Point",
                "coordinates": [
                    19.48818,
                    51.72877
                ]
            },
            "properties": {
                "ref:rspo": 69343,
                "official_name": "Akademia Szkoleniowa \"Grace\"",
                "name": "Akademia Szkoleniowa \"Grace\"",
                "addr:postcode": "93-155",
                "addr:city": "\u0141\u00f3d\u017a",
                "addr:street": "Karpia",
                "addr:housenumber": "65\/67",
                "addr:city:simc": 957985,
                "addr:street:sym_ul": 8099,
                "phone": "+48 426432028",
                "email": "szkolenia@grace.edu.pl",
                "website": "http:\/\/www.grace.edu.pl",
                "ref:regon": "101491333",
                "ref:vatin": "PL7292410747",
                "operator": "Marzena Dereda",
                "operator:type": "private",
                "fixme": "w zale\u017cno\u015bci od przedmiotu dzia\u0142alno\u015bci (np. amenity=training + training=*, amenity=dancing_school, amenity=language_school, amenity=music_school)"
            }
        },
        {
            "id": 26686,
            "type": "Feature",
            "geometry": {
                "type": "Point",
                "coordinates": [
                    19.4847499,
                    51.72911
                ]
            },
            "properties": {
                "isced:level": "1;2",
                "ref:rspo": 26686,
                "official_name": "Szko\u0142a Podstawowa nr 190 im. Jaros\u0142awa Iwaszkiewicza",
                "name": "Szko\u0142a Podstawowa nr 190",
                "addr:postcode": "93-154",
                "addr:city": "\u0141\u00f3d\u017a",
                "addr:street": "Jacka Malczewskiego",
                "addr:housenumber": "37\/47",
                "addr:city:simc": 957985,
                "addr:street:sym_ul": 12037,
                "phone": "+48 426432847",
                "email": "kontakt@sp190.elodz.edu.pl",
                "website": "http:\/\/www.sp190.szkoly.lodz.pl",
                "ref:regon": "000601780",
                "operator": "\u0141\u00f3d\u017a-Miasto Na Prawach Powiatu",
                "operator:type": "government",
                "amenity": "school"
            }
        },
        {
            "id": 24579,
            "type": "Feature",
            "geometry": {
                "type": "Point",
                "coordinates": [
                    19.45261,
                    51.72938
                ]
            },
            "properties": {
                "ref:rspo": 24579,
                "official_name": "Przedszkole Miejskie nr 36 - Integracyjne",
                "name": "Przedszkole Miejskie nr 36 - Integracyjne",
                "addr:postcode": "93-547",
                "addr:city": "\u0141\u00f3d\u017a",
                "addr:street": "Ceramiczna",
                "addr:housenumber": "7\/9",
                "addr:city:simc": 957985,
                "addr:street:sym_ul": 2629,
                "phone": "+48 426847897",
                "email": "kontakt@pm36.elodz.edu.pl",
                "website": "http:\/\/pm36lodz.wikom.pl",
                "ref:regon": "000219566",
                "ref:vatin": "PL7292589404",
                "operator": "\u0141\u00f3d\u017a-Miasto Na Prawach Powiatu",
                "operator:type": "government",
                "amenity": "kindergarten"
            }
        },
        {
            "id": 27042,
            "type": "Feature",
            "geometry": {
                "type": "Point",
                "coordinates": [
                    19.46833,
                    51.72994
                ]
            },
            "properties": {
                "isced:level": "1;2",
                "ref:rspo": 27042,
                "official_name": "Angloj\u0119zyczna Szko\u0142a Podstawowa Przy Szkole Europejskiej",
                "name": "Angloj\u0119zyczna Szko\u0142a Podstawowa Przy Szkole Europejskiej",
                "addr:postcode": "93-020",
                "addr:city": "\u0141\u00f3d\u017a",
                "addr:street": "Tuszy\u0144ska",
                "addr:housenumber": "31",
                "addr:city:simc": 957985,
                "addr:street:sym_ul": 23191,
                "phone": "+48 426821210",
                "email": "sekretariat@szkolaeuropejska.pl",
                "website": "http:\/\/www.szkolaeuropejska.pl",
                "ref:regon": "101480217",
                "ref:vatin": "PL7292657436",
                "operator": "Urszula Moryc",
                "operator:type": "private",
                "amenity": "school"
            }
        },
        {
            "id": 48505,
            "type": "Feature",
            "geometry": {
                "type": "Point",
                "coordinates": [
                    19.46833,
                    51.72991
                ]
            },
            "properties": {
                "ref:rspo": 48505,
                "official_name": "Studium J\u0119zyk\u00f3w Obcych \"Alma\"",
                "name": "Studium J\u0119zyk\u00f3w Obcych \"Alma\"",
                "addr:postcode": "93-020",
                "addr:city": "\u0141\u00f3d\u017a",
                "addr:street": "Tuszy\u0144ska",
                "addr:housenumber": "31",
                "addr:city:simc": 957985,
                "addr:street:sym_ul": 23191,
                "phone": "+48 426823696",
                "email": "poczta@studiumalma.pl",
                "website": "http:\/\/www.studiumalma.pl",
                "ref:regon": "101486705",
                "ref:vatin": "PL7291249273",
                "operator": "Urszula Moryc",
                "operator:type": "private",
                "fixme": "w zale\u017cno\u015bci od przedmiotu dzia\u0142alno\u015bci (np. amenity=training + training=*, amenity=dancing_school, amenity=language_school, amenity=music_school)"
            }
        },
        {
            "id": 106161,
            "type": "Feature",
            "geometry": {
                "type": "Point",
                "coordinates": [
                    19.44569,
                    51.73003
                ]
            },
            "properties": {
                "ref:rspo": 106161,
                "official_name": "Zesp\u00f3\u0142 Szk\u00f3\u0142 Zwi\u0105zku Nauczycielstwa Polskiego",
                "name": "Zesp\u00f3\u0142 Szk\u00f3\u0142 Zwi\u0105zku Nauczycielstwa Polskiego",
                "addr:postcode": "93-552",
                "addr:city": "\u0141\u00f3d\u017a",
                "addr:street": "Karola Bohdanowicza",
                "addr:housenumber": "4",
                "addr:city:simc": 957985,
                "addr:street:sym_ul": 1692,
                "phone": "+48 426801936",
                "email": "szkolyznp@poczta.fm",
                "ref:regon": "101529113",
                "operator": "Zwi\u0105zek Nauczycielstwa Polskiego",
                "operator:type": "cooperative",
                "landuse": "education",
                "fixme": "amenity=school, amenity=college albo landuse=education w zale\u017cno\u015bci od tego, jakie plac\u00f3wki wchodz\u0105 w sk\u0142ad zespo\u0142u. Sprawd\u017a, kiedy stosowa\u0107 amenity=* a kiedy landuse=education.",
                "note": "Children RSPO: 109295;269694"
            }
        },
        {
            "id": 109295,
            "type": "Feature",
            "geometry": {
                "type": "Point",
                "coordinates": [
                    19.44569,
                    51.73
                ]
            },
            "properties": {
                "isced:level": "1;2",
                "ref:rspo": 109295,
                "official_name": "Szko\u0142a Podstawowa Znp",
                "name": "Szko\u0142a Podstawowa Znp",
                "addr:postcode": "93-552",
                "addr:city": "\u0141\u00f3d\u017a",
                "addr:street": "Karola Bohdanowicza",
                "addr:housenumber": "4",
                "addr:city:simc": 957985,
                "addr:street:sym_ul": 1692,
                "phone": "+48 426801936",
                "email": "szkolyznp@poczta.fm",
                "website": "http:\/\/www.szkolaznp.edupage.org",
                "ref:regon": "101548151",
                "ref:vatin": "PL7292511431",
                "operator": "Zwi\u0105zek Nauczycielstwa Polskiego",
                "operator:type": "cooperative",
                "amenity": "school",
                "note": "Parent RSPO: 106161"
            }
        },
        {
            "id": 58641,
            "type": "Feature",
            "geometry": {
                "type": "Point",
                "coordinates": [
                    19.4773,
                    51.73012
                ]
            },
            "properties": {
                "ref:rspo": 58641,
                "official_name": "Akademia Lider\u00f3w Szko\u0142a \u017bycia C-U-D Terapie Konwencjonalne I Niekonwencjonalne",
                "name": "Akademia Lider\u00f3w Szko\u0142a \u017bycia C-U-D Terapie Konwencjonalne I Niekonwencjonalne",
                "addr:postcode": "93-150",
                "addr:city": "\u0141\u00f3d\u017a",
                "addr:street": "Ody\u0144ca",
                "addr:housenumber": "6",
                "addr:door": "3",
                "addr:city:simc": 957985,
                "addr:street:sym_ul": 29662,
                "phone": "+48 426820749",
                "email": "szkola@akademialiderow.pl",
                "website": "http:\/\/www.akademialiderow.pl",
                "ref:regon": "101489684",
                "ref:vatin": "PL7291045464",
                "operator": "El\u017cbieta Liszewska",
                "operator:type": "private",
                "fixme": "w zale\u017cno\u015bci od przedmiotu dzia\u0142alno\u015bci (np. amenity=training + training=*, amenity=dancing_school, amenity=language_school, amenity=music_school)"
            }
        },
        {
            "id": 22766,
            "type": "Feature",
            "geometry": {
                "type": "Point",
                "coordinates": [
                    19.48603,
                    51.73019
                ]
            },
            "properties": {
                "ref:rspo": 22766,
                "official_name": "Przedszkole Miejskie nr 155",
                "name": "Przedszkole Miejskie nr 155",
                "addr:postcode": "93-149",
                "addr:city": "\u0141\u00f3d\u017a",
                "addr:street": "Mazurska",
                "addr:housenumber": "47",
                "addr:city:simc": 957985,
                "addr:street:sym_ul": 12555,
                "phone": "+48 426438738",
                "email": "kontakt@pm155.elodz.edu.pl",
                "website": "http:\/\/www.pm155lodz.wikom.pl",
                "ref:regon": "000552811",
                "ref:vatin": "PL7292588801",
                "operator": "\u0141\u00f3d\u017a-Miasto Na Prawach Powiatu",
                "operator:type": "government",
                "amenity": "kindergarten"
            }
        },
        {
            "id": 21946,
            "type": "Feature",
            "geometry": {
                "type": "Point",
                "coordinates": [
                    19.49173,
                    51.7303
                ]
            },
            "properties": {
                "ref:rspo": 21946,
                "official_name": "Przedszkole Miejskie nr 76",
                "name": "Przedszkole Miejskie nr 76",
                "addr:postcode": "93-259",
                "addr:city": "\u0141\u00f3d\u017a",
                "addr:street": "Konstantego Ildefonsa Ga\u0142czy\u0144skiego",
                "addr:housenumber": "9",
                "addr:city:simc": 957985,
                "addr:street:sym_ul": 5300,
                "phone": "+48 426433665",
                "email": "kontakt@pm76.elodz.edu.pl",
                "website": "http:\/\/www.pm76lodz.wikom.pl",
                "ref:regon": "000220368",
                "ref:vatin": "PL9820331580",
                "operator": "\u0141\u00f3d\u017a-Miasto Na Prawach Powiatu",
                "operator:type": "government",
                "amenity": "kindergarten"
            }
        },
        {
            "id": 22220,
            "type": "Feature",
            "geometry": {
                "type": "Point",
                "coordinates": [
                    19.42611,
                    51.73031
                ]
            },
            "properties": {
                "ref:rspo": 22220,
                "official_name": "Przedszkole Niepubliczne Bim Bam Bom",
                "name": "Przedszkole Niepubliczne Bim Bam Bom",
                "addr:postcode": "93-479",
                "addr:city": "\u0141\u00f3d\u017a",
                "addr:street": "Nizinna",
                "addr:housenumber": "26A",
                "addr:city:simc": 957985,
                "addr:street:sym_ul": 14281,
                "phone": "+48 517446721",
                "email": "przedszkole@bimbambom.info",
                "website": "http:\/\/www.bimbambom.info",
                "ref:regon": "101476115",
                "ref:vatin": "PL7251822973",
                "operator": "Beata Kostrzewska",
                "operator:type": "private",
                "amenity": "kindergarten"
            }
        },
        {
            "id": 29463,
            "type": "Feature",
            "geometry": {
                "type": "Point",
                "coordinates": [
                    19.47209,
                    51.73035
                ]
            },
            "properties": {
                "ref:rspo": 29463,
                "official_name": "Przedszkole Si\u00f3str Honoratek im.s\u0142ugi Bo\u017cej Anieli R\u00f3\u017cy Godeckiej",
                "name": "Przedszkole Si\u00f3str Honoratek im.s\u0142ugi Bo\u017cej Anieli R\u00f3\u017cy Godeckiej",
                "addr:postcode": "93-024",
                "addr:city": "\u0141\u00f3d\u017a",
                "addr:street": "Lokatorska",
                "addr:housenumber": "12",
                "addr:city:simc": 957985,
                "addr:street:sym_ul": 11244,
                "phone": "+48 426846567",
                "email": "przedszkole@honoratki.pl",
                "website": "http:\/\/www.przedszkole.honoratki.pl",
                "ref:regon": "101487194",
                "ref:vatin": "PL7291862482",
                "operator": "Zgromadzenie Ma\u0142ych Si\u00f3str Niepokalanego Serca Maryi",
                "operator:type": "religious",
                "amenity": "kindergarten"
            }
        },
        {
            "id": 22196,
            "type": "Feature",
            "geometry": {
                "type": "Point",
                "coordinates": [
                    19.50218,
                    51.73043
                ]
            },
            "properties": {
                "ref:rspo": 22196,
                "official_name": "Przedszkole Miejskie nr 117",
                "name": "Przedszkole Miejskie nr 117",
                "addr:postcode": "93-248",
                "addr:city": "\u0141\u00f3d\u017a",
                "addr:street": "Wincentego Kad\u0142ubka",
                "addr:housenumber": "38",
                "addr:city:simc": 957985,
                "addr:street:sym_ul": 7759,
                "phone": "+48 426433672",
                "email": "kontakt@pm117.elodz.edu.pl",
                "website": "http:\/\/www.pm117lodz.wikom.pl",
                "ref:regon": "000221296",
                "ref:vatin": "PL9820331597",
                "operator": "\u0141\u00f3d\u017a-Miasto Na Prawach Powiatu",
                "operator:type": "government",
                "amenity": "kindergarten"
            }
        },
        {
            "id": 25445,
            "type": "Feature",
            "geometry": {
                "type": "Point",
                "coordinates": [
                    19.4445,
                    51.7306
                ]
            },
            "properties": {
                "isced:level": "3",
                "ref:rspo": 25445,
                "official_name": "Xx Liceum Og\u00f3lnokszta\u0142c\u0105ce im. Juliusza S\u0142owackiego",
                "name": "Xx Liceum Og\u00f3lnokszta\u0142c\u0105ce",
                "addr:postcode": "93-552",
                "addr:city": "\u0141\u00f3d\u017a",
                "addr:street": "Karola Bohdanowicza",
                "addr:housenumber": "11",
                "addr:city:simc": 957985,
                "addr:street:sym_ul": 1692,
                "phone": "+48 426482819",
                "email": "kontakt@lo20.elodz.edu.pl",
                "website": "http:\/\/www.loxxlodz.wikom.pl",
                "ref:regon": "000217047",
                "operator": "\u0141\u00f3d\u017a-Miasto Na Prawach Powiatu",
                "operator:type": "government",
                "amenity": "school"
            }
        },
        {
            "id": 28538,
            "type": "Feature",
            "geometry": {
                "type": "Point",
                "coordinates": [
                    19.50057,
                    51.73082
                ]
            },
            "properties": {
                "isced:level": "1;2",
                "ref:rspo": 28538,
                "official_name": "Szko\u0142a Podstawowa \"Mikron\"",
                "name": "Szko\u0142a Podstawowa \"Mikron\"",
                "addr:postcode": "93-248",
                "addr:city": "\u0141\u00f3d\u017a",
                "addr:street": "Wincentego Kad\u0142ubka",
                "addr:housenumber": "33",
                "addr:city:simc": 957985,
                "addr:street:sym_ul": 7759,
                "phone": "+48 426841668",
                "email": "szkoly@mikron.edu.pl",
                "website": "http:\/\/www.mikron.edu.pl",
                "ref:regon": "101482268",
                "operator": "\"Szko\u0142y Mikron Edelman, Bem Sp\u00f3\u0142ka Jawna\"",
                "operator:type": "private",
                "amenity": "school"
            }
        },
        {
            "id": 30813,
            "type": "Feature",
            "geometry": {
                "type": "Point",
                "coordinates": [
                    19.50057,
                    51.73079
                ]
            },
            "properties": {
                "isced:level": "3",
                "ref:rspo": 30813,
                "official_name": "Liceum Og\u00f3lnokszta\u0142c\u0105ce \"Mikron\"",
                "name": "Liceum Og\u00f3lnokszta\u0142c\u0105ce \"Mikron\"",
                "addr:postcode": "93-248",
                "addr:city": "\u0141\u00f3d\u017a",
                "addr:street": "Wincentego Kad\u0142ubka",
                "addr:housenumber": "33",
                "addr:city:simc": 957985,
                "addr:street:sym_ul": 7759,
                "phone": "+48 426841668",
                "email": "informacje@mikron.edu.pl",
                "website": "http:\/\/www.mikron.edu.pl",
                "ref:regon": "101489780",
                "operator": "\"Szko\u0142y Mikron Edelman, Bem Sp\u00f3\u0142ka Jawna\"",
                "operator:type": "private",
                "amenity": "school"
            }
        },
        {
            "id": 22205,
            "type": "Feature",
            "geometry": {
                "type": "Point",
                "coordinates": [
                    19.49513,
                    51.73084
                ]
            },
            "properties": {
                "ref:rspo": 22205,
                "official_name": "Przedszkole Miejskie nr 118",
                "name": "Przedszkole Miejskie nr 118",
                "addr:postcode": "93-256",
                "addr:city": "\u0141\u00f3d\u017a",
                "addr:street": "Gabrieli Zapolskiej",
                "addr:housenumber": "54",
                "addr:city:simc": 957985,
                "addr:street:sym_ul": 25632,
                "phone": "+48 426433193",
                "email": "kontakt@pm118.elodz.edu.pl",
                "website": "http:\/\/www.wikom.pl\/pm118lodz",
                "ref:regon": "000221356",
                "ref:vatin": "PL9820331640",
                "operator": "\u0141\u00f3d\u017a-Miasto Na Prawach Powiatu",
                "operator:type": "government",
                "amenity": "kindergarten"
            }
        },
        {
            "id": 26463,
            "type": "Feature",
            "geometry": {
                "type": "Point",
                "coordinates": [
                    19.49225,
                    51.73106
                ]
            },
            "properties": {
                "isced:level": "1;2",
                "ref:rspo": 26463,
                "official_name": "Szko\u0142a Podstawowa nr 174 im. Jana Machulskiego",
                "name": "Szko\u0142a Podstawowa nr 174",
                "addr:postcode": "93-259",
                "addr:city": "\u0141\u00f3d\u017a",
                "addr:street": "Konstantego Ildefonsa Ga\u0142czy\u0144skiego",
                "addr:housenumber": "6",
                "addr:city:simc": 957985,
                "addr:street:sym_ul": 5300,
                "phone": "+48 426431471",
                "email": "kontakt@sp174.elodz.edu.pl",
                "website": "http:\/\/www.sp174lodz.wikom.pl",
                "ref:regon": "000214860",
                "operator": "\u0141\u00f3d\u017a-Miasto Na Prawach Powiatu",
                "operator:type": "government",
                "amenity": "school"
            }
        },
        {
            "id": 26246,
            "type": "Feature",
            "geometry": {
                "type": "Point",
                "coordinates": [
                    19.48415,
                    51.73156
                ]
            },
            "properties": {
                "ref:rspo": 26246,
                "official_name": "Zesp\u00f3\u0142 Szk\u00f3\u0142 Przemys\u0142u Mody im. B\u0142ogos\u0142awionej Matki Teresy z Kalkuty",
                "name": "Zesp\u00f3\u0142 Szk\u00f3\u0142 Przemys\u0142u Mody",
                "addr:postcode": "93-161",
                "addr:city": "\u0141\u00f3d\u017a",
                "addr:street": "Adama Naruszewicza",
                "addr:housenumber": "35",
                "addr:city:simc": 957985,
                "addr:street:sym_ul": 14009,
                "phone": "+48 426433519",
                "email": "kontakt@zspm.elodz.edu.pl",
                "website": "http:\/\/www.zspm.net",
                "ref:regon": "000185086",
                "operator": "\u0141\u00f3d\u017a-Miasto Na Prawach Powiatu",
                "operator:type": "government",
                "landuse": "education",
                "fixme": "amenity=school, amenity=college albo landuse=education w zale\u017cno\u015bci od tego, jakie plac\u00f3wki wchodz\u0105 w sk\u0142ad zespo\u0142u. Sprawd\u017a, kiedy stosowa\u0107 amenity=* a kiedy landuse=education.",
                "note": "Children RSPO: 38994;120231"
            }
        },
        {
            "id": 38994,
            "type": "Feature",
            "geometry": {
                "type": "Point",
                "coordinates": [
                    19.48415,
                    51.73153
                ]
            },
            "properties": {
                "isced:level": "3",
                "ref:rspo": 38994,
                "official_name": "Technikum nr 12 w Zespole Szk\u00f3\u0142 Przemys\u0142u Mody im. B\u0142ogos\u0142awionej Matki Teresy z Kalkuty",
                "name": "Technikum nr 12 w Zespole Szk\u00f3\u0142 Przemys\u0142u Mody",
                "addr:postcode": "93-161",
                "addr:city": "\u0141\u00f3d\u017a",
                "addr:street": "Adama Naruszewicza",
                "addr:housenumber": "35",
                "addr:city:simc": 957985,
                "addr:street:sym_ul": 14009,
                "phone": "+48 426433519",
                "email": "kontakt@zspm.elodz.edu.pl",
                "website": "http:\/\/www.zspm.net",
                "ref:regon": "472913166",
                "operator": "\u0141\u00f3d\u017a-Miasto Na Prawach Powiatu",
                "operator:type": "government",
                "amenity": "school",
                "note": "Parent RSPO: 26246"
            }
        },
        {
            "id": 120231,
            "type": "Feature",
            "geometry": {
                "type": "Point",
                "coordinates": [
                    19.48415,
                    51.731500000000004
                ]
            },
            "properties": {
                "isced:level": "3",
                "ref:rspo": 120231,
                "official_name": "Bran\u017cowa Szko\u0142a I Stopnia nr 12 w Zespole Szk\u00f3\u0142 Przemys\u0142u Mody im. B\u0142ogos\u0142awionej Matki Teresy z Kalkuty",
                "name": "Bran\u017cowa Szko\u0142a I Stopnia nr 12 w Zespole Szk\u00f3\u0142 Przemys\u0142u Mody",
                "addr:postcode": "93-161",
                "addr:city": "\u0141\u00f3d\u017a",
                "addr:street": "Adama Naruszewicza",
                "addr:housenumber": "35",
                "addr:city:simc": 957985,
                "addr:street:sym_ul": 14009,
                "phone": "+48 426433519",
                "email": "kontakt@zspm.elodz.edu.pl",
                "website": "http:\/\/www.zspm.net",
                "ref:regon": "101668470",
                "operator": "\u0141\u00f3d\u017a-Miasto Na Prawach Powiatu",
                "operator:type": "government",
                "amenity": "school",
                "note": "Parent RSPO: 26246"
            }
        },
        {
            "id": 23089,
            "type": "Feature",
            "geometry": {
                "type": "Point",
                "coordinates": [
                    19.44635,
                    51.73227
                ]
            },
            "properties": {
                "isced:level": "1;2",
                "ref:rspo": 23089,
                "official_name": "Szko\u0142a Podstawowa nr 42 im. Stanis\u0142awa Staszica",
                "name": "Szko\u0142a Podstawowa nr 42",
                "addr:postcode": "93-552",
                "addr:city": "\u0141\u00f3d\u017a",
                "addr:street": "Przyszkole",
                "addr:housenumber": "42",
                "addr:city:simc": 957985,
                "addr:street:sym_ul": 17996,
                "phone": "+48 426842368",
                "email": "kontakt@sp42.elodz.edu.pl",
                "website": "http:\/\/www.sp42.szkoly.lodz.pl",
                "ref:regon": "000248898",
                "operator": "\u0141\u00f3d\u017a-Miasto Na Prawach Powiatu",
                "operator:type": "government",
                "amenity": "school"
            }
        },
        {
            "id": 20626,
            "type": "Feature",
            "geometry": {
                "type": "Point",
                "coordinates": [
                    19.4638233,
                    51.7324367
                ]
            },
            "properties": {
                "ref:rspo": 20626,
                "official_name": "Przedszkole Miejskie nr 7",
                "name": "Przedszkole Miejskie nr 7",
                "addr:postcode": "93-520",
                "addr:city": "\u0141\u00f3d\u017a",
                "addr:street": "Smocza",
                "addr:housenumber": "4",
                "addr:city:simc": 957985,
                "addr:street:sym_ul": 20334,
                "phone": "+48 426814374",
                "email": "kontakt@pm7.elodz.edu.pl",
                "website": "http:\/\/www.pm7lodz.wikom.pl\/",
                "ref:regon": "000218408",
                "ref:vatin": "PL7292589060",
                "operator": "\u0141\u00f3d\u017a-Miasto Na Prawach Powiatu",
                "operator:type": "government",
                "amenity": "kindergarten"
            }
        },
        {
            "id": 22035,
            "type": "Feature",
            "geometry": {
                "type": "Point",
                "coordinates": [
                    19.45036,
                    51.73276
                ]
            },
            "properties": {
                "ref:rspo": 22035,
                "official_name": "Przedszkole Miejskie nr 88",
                "name": "Przedszkole Miejskie nr 88",
                "addr:postcode": "93-503",
                "addr:city": "\u0141\u00f3d\u017a",
                "addr:street": "Stefana Rogozi\u0144skiego",
                "addr:housenumber": "4",
                "addr:city:simc": 957985,
                "addr:street:sym_ul": 18778,
                "phone": "+48 426842278",
                "email": "kontakt@pm88.elodz.edu.pl",
                "website": "http:\/\/www.pm88lodz.wikom.pl",
                "ref:regon": "000220724",
                "ref:vatin": "PL7292588741",
                "operator": "\u0141\u00f3d\u017a-Miasto Na Prawach Powiatu",
                "operator:type": "government",
                "amenity": "kindergarten"
            }
        },
        {
            "id": 23403,
            "type": "Feature",
            "geometry": {
                "type": "Point",
                "coordinates": [
                    19.46628,
                    51.73312
                ]
            },
            "properties": {
                "isced:level": "1;2",
                "ref:rspo": 23403,
                "official_name": "Szko\u0142a Podstawowa nr 113 im. Adolfa Dygasi\u0144skiego",
                "name": "Szko\u0142a Podstawowa nr 113",
                "addr:postcode": "93-010",
                "addr:city": "\u0141\u00f3d\u017a",
                "addr:street": "Unicka",
                "addr:housenumber": "6",
                "addr:city:simc": 957985,
                "addr:street:sym_ul": 23356,
                "phone": "+48 426846159",
                "email": "kontakt@sp113.elodz.edu.pl",
                "ref:regon": "000211665",
                "operator": "\u0141\u00f3d\u017a-Miasto Na Prawach Powiatu",
                "operator:type": "government",
                "amenity": "school"
            }
        },
        {
            "id": 22401,
            "type": "Feature",
            "geometry": {
                "type": "Point",
                "coordinates": [
                    19.5003977,
                    51.7331252
                ]
            },
            "properties": {
                "ref:rspo": 22401,
                "official_name": "Przedszkole Miejskie nr 126",
                "name": "Przedszkole Miejskie nr 126",
                "addr:postcode": "93-253",
                "addr:city": "\u0141\u00f3d\u017a",
                "addr:street": "W\u0142adys\u0142awa Broniewskiego",
                "addr:housenumber": "101",
                "addr:door": "103",
                "addr:city:simc": 957985,
                "addr:street:sym_ul": 2125,
                "phone": "+48 426435121",
                "email": "kontakt@pm126.elodz.edu.pl",
                "website": "https:\/\/pm126.schoolpage.pl",
                "ref:regon": "000221617",
                "ref:vatin": "PL9820331812",
                "operator": "\u0141\u00f3d\u017a-Miasto Na Prawach Powiatu",
                "operator:type": "government",
                "amenity": "kindergarten"
            }
        },
        {
            "id": 125164,
            "type": "Feature",
            "geometry": {
                "type": "Point",
                "coordinates": [
                    19.48006,
                    51.73345
                ]
            },
            "properties": {
                "ref:rspo": 125164,
                "official_name": "Specjalistyczny Punkt Przedszkolny \"Radosny Rozw\u00f3j\"",
                "name": "Specjalistyczny Punkt Przedszkolny \"Radosny Rozw\u00f3j\"",
                "addr:postcode": "93-167",
                "addr:city": "\u0141\u00f3d\u017a",
                "addr:street": "Walerego Przyborowskiego",
                "addr:housenumber": "4",
                "addr:city:simc": 957985,
                "addr:street:sym_ul": 17863,
                "phone": "+48 606872428",
                "email": "radosnyrozwoj@o2.pl",
                "ref:regon": "101842548",
                "operator": "Evoluo Sp\u00f3\u0142ka Z Ograniczon\u0105 Odpowiedzialno\u015bci\u0105",
                "operator:type": "private",
                "amenity": "kindergarten"
            }
        },
        {
            "id": 21896,
            "type": "Feature",
            "geometry": {
                "type": "Point",
                "coordinates": [
                    19.46616,
                    51.73361
                ]
            },
            "properties": {
                "ref:rspo": 21896,
                "official_name": "Przedszkole Miejskie nr 72",
                "name": "Przedszkole Miejskie nr 72",
                "addr:postcode": "93-009",
                "addr:city": "\u0141\u00f3d\u017a",
                "addr:street": "Unicka",
                "addr:housenumber": "4",
                "addr:city:simc": 957985,
                "addr:street:sym_ul": 23356,
                "phone": "+48 426841593",
                "email": "kontakt@pm72.elodz.edu.pl",
                "website": "http:\/\/www.pm72lodz.wikom.pl",
                "ref:regon": "000220262",
                "ref:vatin": "PL7292588391",
                "operator": "\u0141\u00f3d\u017a-Miasto Na Prawach Powiatu",
                "operator:type": "government",
                "amenity": "kindergarten"
            }
        },
        {
            "id": 22777,
            "type": "Feature",
            "geometry": {
                "type": "Point",
                "coordinates": [
                    19.47638,
                    51.73379
                ]
            },
            "properties": {
                "ref:rspo": 22777,
                "official_name": "Przedszkole Miejskie nr 159",
                "name": "Przedszkole Miejskie nr 159",
                "addr:postcode": "93-166",
                "addr:city": "\u0141\u00f3d\u017a",
                "addr:street": "\u0141\u0105czna",
                "addr:housenumber": "53",
                "addr:city:simc": 957985,
                "addr:street:sym_ul": 11577,
                "phone": "+48 426829560",
                "email": "kontakt@pm159.elodz.edu.pl",
                "website": "http:\/\/pm159lodz.wikom.pl",
                "ref:regon": "000731198",
                "ref:vatin": "PL7292588416",
                "operator": "\u0141\u00f3d\u017a-Miasto Na Prawach Powiatu",
                "operator:type": "government",
                "amenity": "kindergarten"
            }
        },
        {
            "id": 26408,
            "type": "Feature",
            "geometry": {
                "type": "Point",
                "coordinates": [
                    19.45203,
                    51.7338
                ]
            },
            "properties": {
                "ref:rspo": 26408,
                "official_name": "Zesp\u00f3\u0142 Szk\u00f3\u0142 Techniczno-Informatycznych im. Jana Nowaka-Jeziora\u0144skiego",
                "name": "Zesp\u00f3\u0142 Szk\u00f3\u0142 Techniczno-Informatycznych",
                "addr:postcode": "93-502",
                "addr:city": "\u0141\u00f3d\u017a",
                "addr:street": "Aleje Politechniki",
                "addr:housenumber": "37",
                "addr:city:simc": 957985,
                "addr:street:sym_ul": 53876,
                "phone": "+48 426487112",
                "email": "kontakt@zsti.elodz.edu.pl",
                "website": "http:\/\/zst-i.pl",
                "ref:regon": "473059550",
                "operator": "\u0141\u00f3d\u017a-Miasto Na Prawach Powiatu",
                "operator:type": "government",
                "landuse": "education",
                "fixme": "amenity=school, amenity=college albo landuse=education w zale\u017cno\u015bci od tego, jakie plac\u00f3wki wchodz\u0105 w sk\u0142ad zespo\u0142u. Sprawd\u017a, kiedy stosowa\u0107 amenity=* a kiedy landuse=education.",
                "note": "Children RSPO: 41431;41432"
            }
        },
        {
            "id": 41431,
            "type": "Feature",
            "geometry": {
                "type": "Point",
                "coordinates": [
                    19.45203,
                    51.73377
                ]
            },
            "properties": {
                "isced:level": "3",
                "ref:rspo": 41431,
                "official_name": "Technikum nr 17 w Zespole Szk\u00f3\u0142 Techniczno-Informatycznych im. Jana Nowaka-Jeziora\u0144skiego",
                "name": "Technikum nr 17 w Zespole Szk\u00f3\u0142 Techniczno-Informatycznych",
                "addr:postcode": "93-502",
                "addr:city": "\u0141\u00f3d\u017a",
                "addr:street": "Aleje Politechniki",
                "addr:housenumber": "37",
                "addr:city:simc": 957985,
                "addr:street:sym_ul": 53876,
                "phone": "+48 426487112",
                "email": "kontakt@zsti.elodz.edu.pl",
                "website": "http:\/\/zst-i.pl",
                "ref:regon": "473059633",
                "operator": "\u0141\u00f3d\u017a-Miasto Na Prawach Powiatu",
                "operator:type": "government",
                "amenity": "school",
                "note": "Parent RSPO: 26408"
            }
        },
        {
            "id": 41432,
            "type": "Feature",
            "geometry": {
                "type": "Point",
                "coordinates": [
                    19.45203,
                    51.733740000000004
                ]
            },
            "properties": {
                "isced:level": "3",
                "ref:rspo": 41432,
                "official_name": "Bran\u017cowa Szko\u0142a I Stopnia nr 17 w Zespole Szk\u00f3\u0142 Techniczno-Informatycznych im. Jana Nowaka-Jeziora\u0144skiego",
                "name": "Bran\u017cowa Szko\u0142a I Stopnia nr 17 w Zespole Szk\u00f3\u0142 Techniczno-Informatycznych",
                "addr:postcode": "93-502",
                "addr:city": "\u0141\u00f3d\u017a",
                "addr:street": "Aleje Politechniki",
                "addr:housenumber": "37",
                "addr:city:simc": 957985,
                "addr:street:sym_ul": 53876,
                "phone": "+48 426487112",
                "email": "kontakt@zsti.elodz.edu.pl",
                "website": "http:\/\/zst-i.pl",
                "ref:regon": "100600754",
                "operator": "\u0141\u00f3d\u017a-Miasto Na Prawach Powiatu",
                "operator:type": "government",
                "amenity": "school",
                "note": "Parent RSPO: 26408"
            }
        },
        {
            "id": 22391,
            "type": "Feature",
            "geometry": {
                "type": "Point",
                "coordinates": [
                    19.44584,
                    51.73388
                ]
            },
            "properties": {
                "ref:rspo": 22391,
                "official_name": "Przedszkole Miejskie nr 124",
                "name": "Przedszkole Miejskie nr 124",
                "addr:postcode": "93-554",
                "addr:city": "\u0141\u00f3d\u017a",
                "addr:street": "Cieszy\u0144ska",
                "addr:housenumber": "16",
                "addr:city:simc": 957985,
                "addr:street:sym_ul": 3061,
                "phone": "+48 426485719",
                "email": "kontakt@pm124.elodz.edu.pl",
                "website": "http:\/\/www.pm124lodz.wikom.pl",
                "ref:regon": "000221534",
                "ref:vatin": "PL7292589605",
                "operator": "\u0141\u00f3d\u017a-Miasto Na Prawach Powiatu",
                "operator:type": "government",
                "amenity": "kindergarten"
            }
        },
        {
            "id": 22156,
            "type": "Feature",
            "geometry": {
                "type": "Point",
                "coordinates": [
                    19.4831499,
                    51.73413
                ]
            },
            "properties": {
                "ref:rspo": 22156,
                "official_name": "Przedszkole Miejskie nr 102",
                "name": "Przedszkole Miejskie nr 102",
                "addr:postcode": "93-142",
                "addr:city": "\u0141\u00f3d\u017a",
                "addr:street": "Ko\u0142owa",
                "addr:housenumber": "31",
                "addr:city:simc": 957985,
                "addr:street:sym_ul": 9018,
                "phone": "+48 426470724",
                "email": "kontakt@pm102.elodz.edu.pl",
                "website": "http:\/\/www.pm102lodz.wikom.pl",
                "ref:regon": "000221066",
                "ref:vatin": "PL7292589628",
                "operator": "\u0141\u00f3d\u017a-Miasto Na Prawach Powiatu",
                "operator:type": "government",
                "amenity": "kindergarten"
            }
        },
        {
            "id": 18965,
            "type": "Feature",
            "geometry": {
                "type": "Point",
                "coordinates": [
                    19.48452,
                    51.73421
                ]
            },
            "properties": {
                "ref:rspo": 18965,
                "official_name": "Zesp\u00f3\u0142 Szk\u00f3\u0142 Specjalnych nr 7",
                "name": "Zesp\u00f3\u0142 Szk\u00f3\u0142 Specjalnych nr 7",
                "addr:postcode": "93-143",
                "addr:city": "\u0141\u00f3d\u017a",
                "addr:street": "Siarczana",
                "addr:housenumber": "29\/35",
                "addr:city:simc": 957985,
                "addr:street:sym_ul": 19745,
                "phone": "+48 426436626",
                "email": "siarczana@poczta.onet.pl",
                "website": "http:\/\/www.zss7.pl",
                "ref:regon": "000222410",
                "ref:vatin": "PL7292401398",
                "operator": "\u0141\u00f3d\u017a-Miasto Na Prawach Powiatu",
                "operator:type": "government",
                "landuse": "education",
                "fixme": "amenity=school, amenity=college albo landuse=education w zale\u017cno\u015bci od tego, jakie plac\u00f3wki wchodz\u0105 w sk\u0142ad zespo\u0142u. Sprawd\u017a, kiedy stosowa\u0107 amenity=* a kiedy landuse=education."
            }
        },
        {
            "id": 51299,
            "type": "Feature",
            "geometry": {
                "type": "Point",
                "coordinates": [
                    19.48452,
                    51.734179999999995
                ]
            },
            "properties": {
                "isced:level": "1;2",
                "ref:rspo": 51299,
                "official_name": "Szko\u0142a Podstawowa Specjalna nr 194",
                "name": "Szko\u0142a Podstawowa Specjalna nr 194",
                "addr:postcode": "93-143",
                "addr:city": "\u0141\u00f3d\u017a",
                "addr:street": "Siarczana",
                "addr:housenumber": "29\/35",
                "addr:city:simc": 957985,
                "addr:street:sym_ul": 19745,
                "phone": "+48 426436626",
                "email": "kontakt@sps194.elodz.edu.pl",
                "website": "http:\/\/sps194.pl",
                "ref:regon": "472889692",
                "operator": "\u0141\u00f3d\u017a-Miasto Na Prawach Powiatu",
                "operator:type": "government",
                "amenity": "school"
            }
        },
        {
            "id": 27143,
            "type": "Feature",
            "geometry": {
                "type": "Point",
                "coordinates": [
                    19.4913,
                    51.73427
                ]
            },
            "properties": {
                "isced:level": "1;2",
                "ref:rspo": 27143,
                "official_name": "Prywatna Szko\u0142a Podstawowa Krzysztofa Augustyniaka w \u0141odzi",
                "name": "Prywatna Szko\u0142a Podstawowa Krzysztofa Augustyniaka w \u0141odzi",
                "addr:postcode": "93-267",
                "addr:city": "\u0141\u00f3d\u017a",
                "addr:street": "Deotymy",
                "addr:housenumber": "7",
                "addr:city:simc": 957985,
                "addr:street:sym_ul": 3762,
                "phone": "+48 426437781",
                "email": "szkola@pska.lodz.ids.pl",
                "website": "http:\/\/www.augustyniak.edu.pl",
                "ref:regon": "101488673",
                "ref:vatin": "PL7291226585",
                "operator": "Krzysztof Augustyniak",
                "operator:type": "private",
                "amenity": "school"
            }
        },
        {
            "id": 64721,
            "type": "Feature",
            "geometry": {
                "type": "Point",
                "coordinates": [
                    19.4913,
                    51.73424
                ]
            },
            "properties": {
                "ref:rspo": 64721,
                "official_name": "Centrum Edukacji Ustawicznej Krzysztofa Augustyniaka",
                "name": "Centrum Edukacji Ustawicznej Krzysztofa Augustyniaka",
                "addr:postcode": "93-267",
                "addr:city": "\u0141\u00f3d\u017a",
                "addr:street": "Deotymy",
                "addr:housenumber": "7",
                "addr:city:simc": 957985,
                "addr:street:sym_ul": 3762,
                "phone": "+48 426437781",
                "email": "szkola@pska.lodz.ids.pl",
                "website": "http:\/\/www.psk.lodz.ids.pl",
                "ref:regon": "101494828",
                "ref:vatin": "PL7291226585",
                "operator": "Krzysztof Augustyniak",
                "operator:type": "private",
                "fixme": "w zale\u017cno\u015bci od przedmiotu dzia\u0142alno\u015bci (np. amenity=training + training=*, amenity=dancing_school, amenity=language_school, amenity=music_school)"
            }
        },
        {
            "id": 23086,
            "type": "Feature",
            "geometry": {
                "type": "Point",
                "coordinates": [
                    19.48568,
                    51.73451
                ]
            },
            "properties": {
                "isced:level": "1;2",
                "ref:rspo": 23086,
                "official_name": "Szko\u0142a Podstawowa nr 38 im. Dr. Henryka Jordana",
                "name": "Szko\u0142a Podstawowa nr 38",
                "addr:postcode": "93-144",
                "addr:city": "\u0141\u00f3d\u017a",
                "addr:street": "Krochmalna",
                "addr:housenumber": "21",
                "addr:city:simc": 957985,
                "addr:street:sym_ul": 9934,
                "phone": "+48 426636681",
                "email": "kontakt@sp38.elodz.edu.pl",
                "website": "http:\/\/www.sp38lodz.info",
                "ref:regon": "000204843",
                "operator": "\u0141\u00f3d\u017a-Miasto Na Prawach Powiatu",
                "operator:type": "government",
                "amenity": "school"
            }
        },
        {
            "id": 22587,
            "type": "Feature",
            "geometry": {
                "type": "Point",
                "coordinates": [
                    19.48637,
                    51.73455
                ]
            },
            "properties": {
                "ref:rspo": 22587,
                "official_name": "Przedszkole Miejskie nr 131",
                "name": "Przedszkole Miejskie nr 131",
                "addr:postcode": "93-272",
                "addr:city": "\u0141\u00f3d\u017a",
                "addr:street": "Podg\u00f3rna",
                "addr:housenumber": "57a",
                "addr:city:simc": 957985,
                "addr:street:sym_ul": 16742,
                "phone": "+48 426434550",
                "email": "kontakt@pm131.elodz.edu.pl",
                "website": "http:\/\/www.pm131lodz.wikom.pl",
                "ref:regon": "000221818",
                "ref:vatin": "PL7292590301",
                "operator": "\u0141\u00f3d\u017a-Miasto Na Prawach Powiatu",
                "operator:type": "government",
                "amenity": "kindergarten"
            }
        },
        {
            "id": 48496,
            "type": "Feature",
            "geometry": {
                "type": "Point",
                "coordinates": [
                    19.46684,
                    51.73494
                ]
            },
            "properties": {
                "ref:rspo": 48496,
                "official_name": "Szko\u0142a J\u0119zyk\u00f3w Obcych \"Abc\"",
                "name": "Szko\u0142a J\u0119zyk\u00f3w Obcych \"Abc\"",
                "addr:postcode": "93-009",
                "addr:city": "\u0141\u00f3d\u017a",
                "addr:street": "Bednarska",
                "addr:housenumber": "9",
                "addr:door": "77",
                "addr:city:simc": 957985,
                "addr:street:sym_ul": 956,
                "phone": "+48 696363801",
                "email": "jfk@toya.net.pl",
                "ref:regon": "101487018",
                "ref:vatin": "PL7291123939",
                "operator": "Franciszek Kluczy\u0144ski",
                "operator:type": "private",
                "fixme": "w zale\u017cno\u015bci od przedmiotu dzia\u0142alno\u015bci (np. amenity=training + training=*, amenity=dancing_school, amenity=language_school, amenity=music_school)"
            }
        },
        {
            "id": 22374,
            "type": "Feature",
            "geometry": {
                "type": "Point",
                "coordinates": [
                    19.4964799,
                    51.73525
                ]
            },
            "properties": {
                "ref:rspo": 22374,
                "official_name": "Przedszkole Miejskie nr 119",
                "name": "Przedszkole Miejskie nr 119",
                "addr:postcode": "93-203",
                "addr:city": "\u0141\u00f3d\u017a",
                "addr:street": "Lucjana Rydla",
                "addr:housenumber": "17",
                "addr:city:simc": 957985,
                "addr:street:sym_ul": 19208,
                "phone": "+48 426432354",
                "email": "kontakt@pm119.elodz.edu.pl",
                "website": "http:\/\/www.pm119lodz.wikom.pl",
                "ref:regon": "000221416",
                "ref:vatin": "PL9820331344",
                "operator": "\u0141\u00f3d\u017a-Miasto Na Prawach Powiatu",
                "operator:type": "government",
                "amenity": "kindergarten"
            }
        },
        {
            "id": 264014,
            "type": "Feature",
            "geometry": {
                "type": "Point",
                "coordinates": [
                    19.4856802,
                    51.7353037
                ]
            },
            "properties": {
                "isced:level": "1;2",
                "ref:rspo": 264014,
                "official_name": "Szko\u0142a Podstawowa Mistrzostwa Sportowego \"Szko\u0142a Mistrz\u00f3w Kokoro\" - Centrum Przygotowa\u0144 Olimpijskich",
                "name": "Szko\u0142a Podstawowa Mistrzostwa Sportowego \"Szko\u0142a Mistrz\u00f3w Kokoro\" - Centrum Przygotowa\u0144 Olimpijskich",
                "addr:postcode": "93-144",
                "addr:city": "\u0141\u00f3d\u017a",
                "addr:street": "Krochmalna",
                "addr:housenumber": "15",
                "addr:city:simc": 957985,
                "addr:street:sym_ul": 9934,
                "phone": "+48 423070404",
                "email": "sekretariat@kokoro.szkola.pl",
                "website": "http:\/\/www.kokoro.szkola.pl",
                "ref:regon": "368249243",
                "operator": "Klub Sportowy \"Kokoro\" Sp\u00f3\u0142ka Z Ograniczon\u0105 Odpowiedzialno\u015bci\u0105",
                "operator:type": "private",
                "amenity": "school"
            }
        },
        {
            "id": 264015,
            "type": "Feature",
            "geometry": {
                "type": "Point",
                "coordinates": [
                    19.4856802,
                    51.7352737
                ]
            },
            "properties": {
                "isced:level": "3",
                "ref:rspo": 264015,
                "official_name": "Liceum Og\u00f3lnokszta\u0142c\u0105ce Mistrzostwa Sportowego \"Szko\u0142a Mistrz\u00f3w Kokoro\" - Centrum Przygotowa\u0144 Olimpijskich",
                "name": "Liceum Og\u00f3lnokszta\u0142c\u0105ce Mistrzostwa Sportowego \"Szko\u0142a Mistrz\u00f3w Kokoro\" - Centrum Przygotowa\u0144 Olimpijskich",
                "addr:postcode": "93-144",
                "addr:city": "\u0141\u00f3d\u017a",
                "addr:street": "Krochmalna",
                "addr:housenumber": "15",
                "addr:city:simc": 957985,
                "addr:street:sym_ul": 9934,
                "phone": "+48 423070404",
                "email": "sekretariat@kokoro.szkola.pl",
                "website": "http:\/\/www.kokoro.szkola.pl",
                "ref:regon": "368249250",
                "operator": "Klub Sportowy \"Kokoro\" Sp\u00f3\u0142ka Z Ograniczon\u0105 Odpowiedzialno\u015bci\u0105",
                "operator:type": "private",
                "amenity": "school"
            }
        },
        {
            "id": 12924,
            "type": "Feature",
            "geometry": {
                "type": "Point",
                "coordinates": [
                    19.5023899,
                    51.73575
                ]
            },
            "properties": {
                "ref:rspo": 12924,
                "official_name": "Niepubliczna Szko\u0142a Muzyczna I St. Stowarzyszenia Przyjaci\u00f3\u0142 Szk\u00f3\u0142 Katolickich w \u0141odzi",
                "name": "Niepubliczna Szko\u0142a Muzyczna I St. Stowarzyszenia Przyjaci\u00f3\u0142 Szk\u00f3\u0142 Katolickich w \u0141odzi",
                "addr:postcode": "93-262",
                "addr:city": "\u0141\u00f3d\u017a",
                "addr:street": "Zofii Na\u0142kowskiej",
                "addr:housenumber": "2",
                "addr:city:simc": 957985,
                "addr:street:sym_ul": 13967,
                "phone": "+48 426434612",
                "email": "lodz@spsk.info.pl",
                "ref:regon": "101470791",
                "operator": "Stowarzyszenie Przyjaci\u00f3\u0142 Szk\u00f3\u0142 Katolickich",
                "operator:type": "ngo",
                "amenity": "music_school"
            }
        },
        {
            "id": 20790,
            "type": "Feature",
            "geometry": {
                "type": "Point",
                "coordinates": [
                    19.5023899,
                    51.73572
                ]
            },
            "properties": {
                "isced:level": "1;2",
                "ref:rspo": 20790,
                "official_name": "Katolicka Szko\u0142a Podstawowa Stowarzyszenia Przyjaci\u00f3\u0142 Szk\u00f3\u0142 Katolickich w \u0141odzi im. \u015aw. Dzieci z Fatimy",
                "name": "Katolicka Szko\u0142a Podstawowa Stowarzyszenia Przyjaci\u00f3\u0142 Szk\u00f3\u0142 Katolickich w \u0141odzi",
                "addr:postcode": "93-262",
                "addr:city": "\u0141\u00f3d\u017a",
                "addr:street": "Zofii Na\u0142kowskiej",
                "addr:housenumber": "2",
                "addr:city:simc": 957985,
                "addr:street:sym_ul": 13967,
                "phone": "+48 501489016",
                "email": "lodz@spsk.info.pl",
                "website": "http:\/\/www.lodz.spsk.pl",
                "ref:regon": "101475860",
                "operator": "Stowarzyszenie Przyjaci\u00f3\u0142 Szk\u00f3\u0142 Katolickich",
                "operator:type": "ngo",
                "amenity": "school"
            }
        },
        {
            "id": 39067,
            "type": "Feature",
            "geometry": {
                "type": "Point",
                "coordinates": [
                    19.5023899,
                    51.735690000000005
                ]
            },
            "properties": {
                "isced:level": "3",
                "ref:rspo": 39067,
                "official_name": "Katolickie Liceum Og\u00f3lnokszta\u0142c\u0105ce Stowarzyszenia Przyjaci\u00f3\u0142 Szk\u00f3\u0142 Katolickich w \u0141odzi B\u0142. Matki Teresy z Kalkuty",
                "name": "Katolickie Liceum Og\u00f3lnokszta\u0142c\u0105ce Stowarzyszenia Przyjaci\u00f3\u0142 Szk\u00f3\u0142 Katolickich w \u0141odzi B\u0142. Matki Teresy z Kalkuty",
                "addr:postcode": "93-262",
                "addr:city": "\u0141\u00f3d\u017a",
                "addr:street": "Zofii Na\u0142kowskiej",
                "addr:housenumber": "2",
                "addr:city:simc": 957985,
                "addr:street:sym_ul": 13967,
                "phone": "+48 501489016",
                "email": "lodz@spsk.info.pl",
                "website": "http:\/\/www.lodz.spsk.pl",
                "ref:regon": "101489419",
                "ref:vatin": "PL9820311850",
                "operator": "Stowarzyszenie Przyjaci\u00f3\u0142 Szk\u00f3\u0142 Katolickich",
                "operator:type": "ngo",
                "amenity": "school"
            }
        },
        {
            "id": 272445,
            "type": "Feature",
            "geometry": {
                "type": "Point",
                "coordinates": [
                    19.5023899,
                    51.73566
                ]
            },
            "properties": {
                "isced:level": "3",
                "ref:rspo": 272445,
                "official_name": "Technikum Stowarzyszenia Przyjaci\u00f3\u0142 Szk\u00f3\u0142 Katolickich im. \u015aw. Faustyny Kowalskiej",
                "name": "Technikum Stowarzyszenia Przyjaci\u00f3\u0142 Szk\u00f3\u0142 Katolickich",
                "addr:postcode": "93-262",
                "addr:city": "\u0141\u00f3d\u017a",
                "addr:street": "Zofii Na\u0142kowskiej",
                "addr:housenumber": "2",
                "addr:city:simc": 957985,
                "addr:street:sym_ul": 13967,
                "phone": "+48 426434612",
                "email": "lodz@spsk.info.pl",
                "ref:regon": "384174449",
                "operator": "Stowarzyszenie Przyjaci\u00f3\u0142 Szk\u00f3\u0142 Katolickich",
                "operator:type": "ngo",
                "amenity": "school"
            }
        },
        {
            "id": 22522,
            "type": "Feature",
            "geometry": {
                "type": "Point",
                "coordinates": [
                    19.49127,
                    51.73595
                ]
            },
            "properties": {
                "isced:level": "3",
                "ref:rspo": 22522,
                "official_name": "Vi Liceum Og\u00f3lnokszta\u0142c\u0105ce im. Joachima Lelewela",
                "name": "Vi Liceum Og\u00f3lnokszta\u0142c\u0105ce",
                "addr:postcode": "93-267",
                "addr:city": "\u0141\u00f3d\u017a",
                "addr:street": "Deotymy",
                "addr:housenumber": "1",
                "addr:city:simc": 957985,
                "addr:street:sym_ul": 3762,
                "phone": "+48 426842220",
                "email": "kontakt@lo6.elodz.edu.pl",
                "website": "http:\/\/www.lo6.szkoly.lodz.pl",
                "ref:regon": "000931974",
                "operator": "\u0141\u00f3d\u017a-Miasto Na Prawach Powiatu",
                "operator:type": "government",
                "amenity": "school"
            }
        },
        {
            "id": 23254,
            "type": "Feature",
            "geometry": {
                "type": "Point",
                "coordinates": [
                    19.4749899,
                    51.73605
                ]
            },
            "properties": {
                "isced:level": "1;2",
                "ref:rspo": 23254,
                "official_name": "Szko\u0142a Podstawowa nr 83 im. Stanis\u0142awa Jachowicza",
                "name": "Szko\u0142a Podstawowa nr 83",
                "addr:postcode": "93-165",
                "addr:city": "\u0141\u00f3d\u017a",
                "addr:street": "Podmiejska",
                "addr:housenumber": "21",
                "addr:city:simc": 957985,
                "addr:street:sym_ul": 16816,
                "phone": "+48 426840709",
                "email": "kontakt@sp83.elodz.edu.pl",
                "ref:regon": "000814524",
                "operator": "\u0141\u00f3d\u017a-Miasto Na Prawach Powiatu",
                "operator:type": "government",
                "amenity": "school"
            }
        },
        {
            "id": 129426,
            "type": "Feature",
            "geometry": {
                "type": "Point",
                "coordinates": [
                    19.44794,
                    51.73669
                ]
            },
            "properties": {
                "ref:rspo": 129426,
                "official_name": "Przedszkole \u017bywio\u0142y",
                "name": "Przedszkole \u017bywio\u0142y",
                "addr:postcode": "93-558",
                "addr:city": "\u0141\u00f3d\u017a",
                "addr:street": "Obywatelska",
                "addr:housenumber": "57",
                "addr:city:simc": 957985,
                "addr:street:sym_ul": 14686,
                "phone": "+48 503963223",
                "email": "mwawrzyniak@zywioly.edu.pl",
                "ref:regon": "362604507",
                "operator": "Fundacja \u017bywio\u0142y",
                "operator:type": "ngo",
                "amenity": "kindergarten"
            }
        },
        {
            "id": 132486,
            "type": "Feature",
            "geometry": {
                "type": "Point",
                "coordinates": [
                    19.44794,
                    51.73666
                ]
            },
            "properties": {
                "ref:rspo": 132486,
                "official_name": "Punkt Przedszkolny z Aspi-Racjami",
                "name": "Punkt Przedszkolny z Aspi-Racjami",
                "addr:postcode": "93-558",
                "addr:city": "\u0141\u00f3d\u017a",
                "addr:street": "Obywatelska",
                "addr:housenumber": "57",
                "addr:city:simc": 957985,
                "addr:street:sym_ul": 14686,
                "phone": "+48 537915760",
                "email": "centrum@aspi-racjami.org",
                "ref:regon": "365673800",
                "operator": "\"Fundacja Z Aspi-Racjami\"",
                "operator:type": "ngo",
                "amenity": "kindergarten"
            }
        },
        {
            "id": 268713,
            "type": "Feature",
            "geometry": {
                "type": "Point",
                "coordinates": [
                    19.44794,
                    51.736630000000005
                ]
            },
            "properties": {
                "isced:level": "1;2",
                "ref:rspo": 268713,
                "official_name": "Szko\u0142a Podstawowa Kompas",
                "name": "Szko\u0142a Podstawowa Kompas",
                "addr:postcode": "93-558",
                "addr:city": "\u0141\u00f3d\u017a",
                "addr:street": "Obywatelska",
                "addr:housenumber": "57",
                "addr:city:simc": 957985,
                "addr:street:sym_ul": 14686,
                "phone": "+48 698505019",
                "email": "sekretariat@szkolakompas.edu.pl",
                "ref:regon": "381235222",
                "operator": "Fundacja \u017bywio\u0142y",
                "operator:type": "ngo",
                "amenity": "school"
            }
        },
        {
            "id": 272796,
            "type": "Feature",
            "geometry": {
                "type": "Point",
                "coordinates": [
                    19.44794,
                    51.7366
                ]
            },
            "properties": {
                "isced:level": "1;2",
                "ref:rspo": 272796,
                "official_name": "Niepubliczna Szko\u0142a Podstawowa z Aspi-Racjami",
                "name": "Niepubliczna Szko\u0142a Podstawowa z Aspi-Racjami",
                "addr:postcode": "93-558",
                "addr:city": "\u0141\u00f3d\u017a",
                "addr:street": "Obywatelska",
                "addr:housenumber": "57",
                "addr:city:simc": 957985,
                "addr:street:sym_ul": 14686,
                "phone": "+48 570616497",
                "email": "biuro@aspi-racjami.org",
                "ref:regon": "384292611",
                "operator": "\"Fundacja Z Aspi-Racjami\"",
                "operator:type": "ngo",
                "amenity": "school"
            }
        },
        {
            "id": 58651,
            "type": "Feature",
            "geometry": {
                "type": "Point",
                "coordinates": [
                    19.4327441,
                    51.7367452
                ]
            },
            "properties": {
                "ref:rspo": 58651,
                "official_name": "O\u015brodek Szkoleniowy Przy Pphu \"Aspol\"",
                "name": "O\u015brodek Szkoleniowy Przy Pphu \"Aspol\"",
                "addr:postcode": "94-104",
                "addr:city": "\u0141\u00f3d\u017a",
                "addr:street": "Obywatelska",
                "addr:housenumber": "102\/10",
                "addr:city:simc": 957985,
                "addr:street:sym_ul": 14686,
                "phone": "+48 426407311",
                "email": "janusz.sawicki@aspol.com.pl",
                "website": "http:\/\/www.aspol.com.pl",
                "ref:regon": "101489721",
                "ref:vatin": "PL7250008992",
                "operator": "Cezary Sawicki",
                "operator:type": "private",
                "fixme": "w zale\u017cno\u015bci od przedmiotu dzia\u0142alno\u015bci (np. amenity=training + training=*, amenity=dancing_school, amenity=language_school, amenity=music_school)"
            }
        },
        {
            "id": 132073,
            "type": "Feature",
            "geometry": {
                "type": "Point",
                "coordinates": [
                    19.45158,
                    51.73758
                ]
            },
            "properties": {
                "ref:rspo": 132073,
                "official_name": "Przedszkole Kameleon",
                "name": "Przedszkole Kameleon",
                "addr:postcode": "93-558",
                "addr:city": "\u0141\u00f3d\u017a",
                "addr:street": "Pi\u0119kna",
                "addr:housenumber": "31\/33",
                "addr:city:simc": 957985,
                "addr:street:sym_ul": 16191,
                "phone": "+48 606289587",
                "email": "malgorzatakurek24@wp.pl",
                "ref:regon": "365447126",
                "operator": "Ma\u0142gorzata Kurek",
                "operator:type": "private",
                "amenity": "kindergarten"
            }
        },
        {
            "id": 21787,
            "type": "Feature",
            "geometry": {
                "type": "Point",
                "coordinates": [
                    19.47241,
                    51.73759
                ]
            },
            "properties": {
                "ref:rspo": 21787,
                "official_name": "Przedszkole Miejskie nr 38",
                "name": "Przedszkole Miejskie nr 38",
                "addr:postcode": "93-177",
                "addr:city": "\u0141\u00f3d\u017a",
                "addr:street": "Stanis\u0142awa Jachowicza",
                "addr:housenumber": "1",
                "addr:city:simc": 957985,
                "addr:street:sym_ul": 6990,
                "phone": "+48 426843334",
                "email": "kontakt@pm38.elodz.edu.pl",
                "website": "http:\/\/www.wikom.pl\/pm38lodz\/",
                "ref:regon": "000219678",
                "ref:vatin": "PL7292588379",
                "operator": "\u0141\u00f3d\u017a-Miasto Na Prawach Powiatu",
                "operator:type": "government",
                "amenity": "kindergarten"
            }
        },
        {
            "id": 27044,
            "type": "Feature",
            "geometry": {
                "type": "Point",
                "coordinates": [
                    19.46662,
                    51.73798
                ]
            },
            "properties": {
                "isced:level": "1;2",
                "ref:rspo": 27044,
                "official_name": "Szko\u0142a Podstawowa \u0141\u00f3dka Dalton School",
                "name": "Szko\u0142a Podstawowa \u0141\u00f3dka Dalton School",
                "addr:postcode": "93-008",
                "addr:city": "\u0141\u00f3d\u017a",
                "addr:street": "Rzgowska",
                "addr:housenumber": "17A",
                "addr:city:simc": 957985,
                "addr:street:sym_ul": 19377,
                "phone": "+48 422505500",
                "email": "sekretariat@school4child.pl",
                "website": "http:\/\/www.school4child.pl",
                "ref:regon": "101480223",
                "ref:vatin": "PL7292556215",
                "operator": "Abis Sp\u00f3\u0142ka Z Ograniczon\u0105 Odpowiedzialno\u015bci\u0105",
                "operator:type": "private",
                "amenity": "school"
            }
        },
        {
            "id": 60214,
            "type": "Feature",
            "geometry": {
                "type": "Point",
                "coordinates": [
                    19.46662,
                    51.73795
                ]
            },
            "properties": {
                "ref:rspo": 60214,
                "official_name": "O\u015brodek Doskonalenia I Dokszta\u0142cania Abis Sp. z o.o.",
                "name": "O\u015brodek Doskonalenia I Dokszta\u0142cania Abis Sp. z o.o.",
                "addr:postcode": "93-008",
                "addr:city": "\u0141\u00f3d\u017a",
                "addr:street": "Rzgowska",
                "addr:housenumber": "17A",
                "addr:city:simc": 957985,
                "addr:street:sym_ul": 19377,
                "phone": "+48 422750193",
                "email": "szkolenia@abis.lodz.pl",
                "website": "http:\/\/www.szkolenia.abis.lodz.pl",
                "ref:regon": "101490227",
                "ref:vatin": "PL7292556215",
                "operator": "Abis Sp\u00f3\u0142ka Z Ograniczon\u0105 Odpowiedzialno\u015bci\u0105",
                "operator:type": "private",
                "fixme": "w zale\u017cno\u015bci od przedmiotu dzia\u0142alno\u015bci (np. amenity=training + training=*, amenity=dancing_school, amenity=language_school, amenity=music_school)"
            }
        },
        {
            "id": 125299,
            "type": "Feature",
            "geometry": {
                "type": "Point",
                "coordinates": [
                    19.46662,
                    51.73792
                ]
            },
            "properties": {
                "ref:rspo": 125299,
                "official_name": "\u0141\u00f3dka Przedszkole Dalto\u0144skie",
                "name": "\u0141\u00f3dka Przedszkole Dalto\u0144skie",
                "addr:postcode": "93-008",
                "addr:city": "\u0141\u00f3d\u017a",
                "addr:street": "Rzgowska",
                "addr:housenumber": "17a",
                "addr:city:simc": 957985,
                "addr:street:sym_ul": 19377,
                "phone": "+48 422505500",
                "email": "abismyki@wsinf.edu.pl",
                "ref:regon": "101845009",
                "operator": "Abis Sp\u00f3\u0142ka Z Ograniczon\u0105 Odpowiedzialno\u015bci\u0105",
                "operator:type": "private",
                "amenity": "kindergarten"
            }
        },
        {
            "id": 133356,
            "type": "Feature",
            "geometry": {
                "type": "Point",
                "coordinates": [
                    19.46662,
                    51.73789
                ]
            },
            "properties": {
                "ref:rspo": 133356,
                "official_name": "Niepubliczne Przedszkole Pracownia",
                "name": "Niepubliczne Przedszkole Pracownia",
                "addr:postcode": "93-008",
                "addr:city": "\u0141\u00f3d\u017a",
                "addr:street": "Rzgowska",
                "addr:housenumber": "17A",
                "addr:city:simc": 957985,
                "addr:street:sym_ul": 19377,
                "phone": "+48 664116524",
                "email": "szkola@pracowniaedukacyjna.pl",
                "ref:regon": "367112890",
                "operator": "Fundacja Pracownia Edukacyjna",
                "operator:type": "ngo",
                "amenity": "kindergarten"
            }
        },
        {
            "id": 264909,
            "type": "Feature",
            "geometry": {
                "type": "Point",
                "coordinates": [
                    19.46662,
                    51.73786
                ]
            },
            "properties": {
                "isced:level": "1;2",
                "ref:rspo": 264909,
                "official_name": "Niepubliczna Szko\u0142a Podstawowa Pracownia",
                "name": "Niepubliczna Szko\u0142a Podstawowa Pracownia",
                "addr:postcode": "93-008",
                "addr:city": "\u0141\u00f3d\u017a",
                "addr:street": "Rzgowska",
                "addr:housenumber": "17A",
                "addr:door": "Budynek F",
                "addr:city:simc": 957985,
                "addr:street:sym_ul": 19377,
                "phone": "+48 664116524",
                "email": "szkola@pracowniaedukacyjna.pl",
                "website": "http:\/\/www.pracowniaedukacyjna.pl",
                "ref:regon": "368505309",
                "operator": "Fundacja Pracownia Edukacyjna",
                "operator:type": "ngo",
                "amenity": "school"
            }
        },
        {
            "id": 271690,
            "type": "Feature",
            "geometry": {
                "type": "Point",
                "coordinates": [
                    19.46662,
                    51.73783
                ]
            },
            "properties": {
                "isced:level": "3",
                "ref:rspo": 271690,
                "official_name": "Liceum Og\u00f3lnokszta\u0142c\u0105ce \"\u0141\u00f3dka\"",
                "name": "Liceum Og\u00f3lnokszta\u0142c\u0105ce \"\u0141\u00f3dka\"",
                "addr:postcode": "93-008",
                "addr:city": "\u0141\u00f3d\u017a",
                "addr:street": "Rzgowska",
                "addr:housenumber": "17A",
                "addr:city:simc": 957985,
                "addr:street:sym_ul": 19377,
                "phone": "+48 426826204",
                "ref:regon": "383531031",
                "operator": "Abis Sp\u00f3\u0142ka Z Ograniczon\u0105 Odpowiedzialno\u015bci\u0105",
                "operator:type": "private",
                "amenity": "school"
            }
        },
        {
            "id": 275417,
            "type": "Feature",
            "geometry": {
                "type": "Point",
                "coordinates": [
                    19.46662,
                    51.7378
                ]
            },
            "properties": {
                "isced:level": "3",
                "ref:rspo": 275417,
                "official_name": "Niepubliczne Liceum Og\u00f3lnokszta\u0142c\u0105ce Pracownia",
                "name": "Niepubliczne Liceum Og\u00f3lnokszta\u0142c\u0105ce Pracownia",
                "addr:postcode": "93-008",
                "addr:city": "\u0141\u00f3d\u017a",
                "addr:street": "Rzgowska",
                "addr:housenumber": "17A",
                "addr:door": "Budynek F",
                "addr:city:simc": 957985,
                "addr:street:sym_ul": 19377,
                "phone": "+48 664116524",
                "email": "biuro@pracowniaedukacyjna.pl",
                "ref:regon": "386916613",
                "operator": "Fundacja Pracownia Edukacyjna",
                "operator:type": "ngo",
                "amenity": "school"
            }
        },
        {
            "id": 22427,
            "type": "Feature",
            "geometry": {
                "type": "Point",
                "coordinates": [
                    19.50376,
                    51.73816
                ]
            },
            "properties": {
                "ref:rspo": 22427,
                "official_name": "Przedszkole Miejskie nr 130",
                "name": "Przedszkole Miejskie nr 130",
                "addr:postcode": "93-224",
                "addr:city": "\u0141\u00f3d\u017a",
                "addr:street": "Podhala\u0144ska",
                "addr:housenumber": "18",
                "addr:city:simc": 957985,
                "addr:street:sym_ul": 16756,
                "phone": "+48 426434216",
                "email": "kontakt@pm130.elodz.edu.pl",
                "website": "http:\/\/www.pm130lodz.wikom.pl",
                "ref:regon": "000221758",
                "ref:vatin": "PL9820331611",
                "operator": "\u0141\u00f3d\u017a-Miasto Na Prawach Powiatu",
                "operator:type": "government",
                "amenity": "kindergarten"
            }
        },
        {
            "id": 53650,
            "type": "Feature",
            "geometry": {
                "type": "Point",
                "coordinates": [
                    19.4997,
                    51.73829
                ]
            },
            "properties": {
                "ref:rspo": 53650,
                "official_name": "Przedszkole Miejskie nr 17",
                "name": "Przedszkole Miejskie nr 17",
                "addr:postcode": "93-213",
                "addr:city": "\u0141\u00f3d\u017a",
                "addr:street": "Juliusza Kossaka",
                "addr:housenumber": "13",
                "addr:city:simc": 957985,
                "addr:street:sym_ul": 9463,
                "phone": "+48 426434790",
                "email": "kontakt@pm17.elodz.edu.pl",
                "website": "http:\/\/www.pm17lodz.wikom.pl",
                "ref:regon": "000218584",
                "ref:vatin": "PL9820331284",
                "operator": "\u0141\u00f3d\u017a-Miasto Na Prawach Powiatu",
                "operator:type": "government",
                "amenity": "kindergarten"
            }
        },
        {
            "id": 26685,
            "type": "Feature",
            "geometry": {
                "type": "Point",
                "coordinates": [
                    19.4984,
                    51.73851
                ]
            },
            "properties": {
                "isced:level": "1;2",
                "ref:rspo": 26685,
                "official_name": "Szko\u0142a Podstawowa nr 189",
                "name": "Szko\u0142a Podstawowa nr 189",
                "addr:postcode": "93-213",
                "addr:city": "\u0141\u00f3d\u017a",
                "addr:street": "Juliusza Kossaka",
                "addr:housenumber": "19",
                "addr:city:simc": 957985,
                "addr:street:sym_ul": 9463,
                "phone": "+48 426434549",
                "email": "kontakt@sp189.elodz.edu.pl",
                "website": "http:\/\/www.sp189lodz.wikom.pl",
                "ref:regon": "000215870",
                "operator": "\u0141\u00f3d\u017a-Miasto Na Prawach Powiatu",
                "operator:type": "government",
                "amenity": "school"
            }
        },
        {
            "id": 17258,
            "type": "Feature",
            "geometry": {
                "type": "Point",
                "coordinates": [
                    19.49452,
                    51.73892
                ]
            },
            "properties": {
                "ref:rspo": 17258,
                "official_name": "Szko\u0142a Specjalna Przysposabiaj\u0105ca do Pracy Fundacj Jim",
                "name": "Szko\u0142a Specjalna Przysposabiaj\u0105ca do Pracy Fundacj Jim",
                "addr:postcode": "93-279",
                "addr:city": "\u0141\u00f3d\u017a",
                "addr:street": "Tatrza\u0144ska",
                "addr:housenumber": "105",
                "addr:city:simc": 957985,
                "addr:street:sym_ul": 22717,
                "phone": "+48 426434670",
                "email": "sekretariat@jim.org",
                "ref:regon": "101471974",
                "operator": "Fundacja Jim",
                "operator:type": "ngo",
                "amenity": "school"
            }
        },
        {
            "id": 29501,
            "type": "Feature",
            "geometry": {
                "type": "Point",
                "coordinates": [
                    19.49452,
                    51.73889
                ]
            },
            "properties": {
                "ref:rspo": 29501,
                "official_name": "Przedszkole Fundacji Jim",
                "name": "Przedszkole Fundacji Jim",
                "addr:postcode": "93-279",
                "addr:city": "\u0141\u00f3d\u017a",
                "addr:street": "Tatrza\u0144ska",
                "addr:housenumber": "105",
                "addr:city:simc": 957985,
                "addr:street:sym_ul": 22717,
                "phone": "+48 426434670",
                "email": "sekretariat@jim.org",
                "ref:regon": "101485210",
                "ref:vatin": "PL7282455613",
                "operator": "Fundacja Jim",
                "operator:type": "ngo",
                "amenity": "kindergarten"
            }
        },
        {
            "id": 39098,
            "type": "Feature",
            "geometry": {
                "type": "Point",
                "coordinates": [
                    19.49452,
                    51.73886
                ]
            },
            "properties": {
                "isced:level": "1;2",
                "ref:rspo": 39098,
                "official_name": "Szko\u0142a Podstawowa Fundacji Jim",
                "name": "Szko\u0142a Podstawowa Fundacji Jim",
                "addr:postcode": "93-279",
                "addr:city": "\u0141\u00f3d\u017a",
                "addr:street": "Tatrza\u0144ska",
                "addr:housenumber": "105",
                "addr:city:simc": 957985,
                "addr:street:sym_ul": 22717,
                "phone": "+48 426434670",
                "email": "sekretariat@jim.org",
                "website": "http:\/\/jim.org",
                "ref:regon": "101488153",
                "ref:vatin": "PL7282455613",
                "operator": "Fundacja Jim",
                "operator:type": "ngo",
                "amenity": "school"
            }
        },
        {
            "id": 48510,
            "type": "Feature",
            "geometry": {
                "type": "Point",
                "coordinates": [
                    19.45271,
                    51.73898
                ]
            },
            "properties": {
                "ref:rspo": 48510,
                "official_name": "Brost Centrum Edukacji I Technologii Komputerowej",
                "name": "Brost Centrum Edukacji I Technologii Komputerowej",
                "addr:postcode": "93-590",
                "addr:city": "\u0141\u00f3d\u017a",
                "addr:street": "Aleje Politechniki",
                "addr:housenumber": "44",
                "addr:door": "11U",
                "addr:city:simc": 957985,
                "addr:street:sym_ul": 53876,
                "phone": "+48 603650065",
                "email": "brost.centrum@gmail.com",
                "website": "http:\/\/www.brost.pl",
                "ref:regon": "101492114",
                "operator": "Beata Ostrowska",
                "operator:type": "private",
                "fixme": "w zale\u017cno\u015bci od przedmiotu dzia\u0142alno\u015bci (np. amenity=training + training=*, amenity=dancing_school, amenity=language_school, amenity=music_school)"
            }
        },
        {
            "id": 25654,
            "type": "Feature",
            "geometry": {
                "type": "Point",
                "coordinates": [
                    19.4918799,
                    51.739
                ]
            },
            "properties": {
                "ref:rspo": 25654,
                "official_name": "Przedszkole Prywatne El\u017cbiety Raczy\u0144skiej",
                "name": "Przedszkole Prywatne El\u017cbiety Raczy\u0144skiej",
                "addr:postcode": "93-277",
                "addr:city": "\u0141\u00f3d\u017a",
                "addr:street": "Henryka Rodakowskiego",
                "addr:housenumber": "1a",
                "addr:city:simc": 957985,
                "addr:street:sym_ul": 18709,
                "phone": "+48 426434792",
                "email": "pper1@op.pl",
                "ref:regon": "101478835",
                "ref:vatin": "PL7271569253",
                "operator": "El\u017cbieta Raczy\u0144ska",
                "operator:type": "private",
                "amenity": "kindergarten"
            }
        },
        {
            "id": 132288,
            "type": "Feature",
            "geometry": {
                "type": "Point",
                "coordinates": [
                    19.48423,
                    51.7391999
                ]
            },
            "properties": {
                "ref:rspo": 132288,
                "official_name": "Przedszkole Specjalne \"Milowe Ludki\"",
                "name": "Przedszkole Specjalne \"Milowe Ludki\"",
                "addr:postcode": "93-137",
                "addr:city": "\u0141\u00f3d\u017a",
                "addr:street": "Henryka Siemiradzkiego",
                "addr:housenumber": "4-8",
                "addr:city:simc": 957985,
                "addr:street:sym_ul": 19816,
                "phone": "+48 730645699",
                "email": "fundacja@kamienmilowy.org.pl",
                "website": "http:\/\/kamienmilowy.org.pl",
                "ref:regon": "365529491",
                "operator": "\u0141\u00f3dzka Fundacja Rehabilitacji \"Kamie\u0144 Milowy\"",
                "operator:type": "ngo",
                "amenity": "kindergarten"
            }
        },
        {
            "id": 22412,
            "type": "Feature",
            "geometry": {
                "type": "Point",
                "coordinates": [
                    19.49851,
                    51.73983
                ]
            },
            "properties": {
                "ref:rspo": 22412,
                "official_name": "Przedszkole Miejskie nr 129",
                "name": "Przedszkole Miejskie nr 129",
                "addr:postcode": "93-208",
                "addr:city": "\u0141\u00f3d\u017a",
                "addr:street": "Tatrza\u0144ska",
                "addr:housenumber": "100",
                "addr:city:simc": 957985,
                "addr:street:sym_ul": 22717,
                "phone": "+48 426435246",
                "email": "kontakt@pm129.elodz.edu.pl",
                "website": "http:\/\/www.pm129lodz.wikom.pl",
                "ref:regon": "000221698",
                "ref:vatin": "PL9820331605",
                "operator": "\u0141\u00f3d\u017a-Miasto Na Prawach Powiatu",
                "operator:type": "government",
                "amenity": "kindergarten"
            }
        },
        {
            "id": 25360,
            "type": "Feature",
            "geometry": {
                "type": "Point",
                "coordinates": [
                    19.50349,
                    51.74017
                ]
            },
            "properties": {
                "isced:level": "3",
                "ref:rspo": 25360,
                "official_name": "Xxv Liceum Og\u00f3lnokszta\u0142c\u0105ce im. Stefana \u017beromskiego",
                "name": "Xxv Liceum Og\u00f3lnokszta\u0142c\u0105ce",
                "addr:postcode": "93-224",
                "addr:city": "\u0141\u00f3d\u017a",
                "addr:street": "Podhala\u0144ska",
                "addr:housenumber": "2a",
                "addr:city:simc": 957985,
                "addr:street:sym_ul": 16756,
                "phone": "+48 422531050",
                "email": "kontakt@lo25.elodz.edu.pl",
                "ref:regon": "000217231",
                "operator": "\u0141\u00f3d\u017a-Miasto Na Prawach Powiatu",
                "operator:type": "government",
                "amenity": "school"
            }
        },
        {
            "id": 26243,
            "type": "Feature",
            "geometry": {
                "type": "Point",
                "coordinates": [
                    19.45284,
                    51.7406
                ]
            },
            "properties": {
                "ref:rspo": 26243,
                "official_name": "Zesp\u00f3\u0142 Szk\u00f3\u0142 Politechnicznych im. Komisji Edukacji Narodowej",
                "name": "Zesp\u00f3\u0142 Szk\u00f3\u0142 Politechnicznych",
                "addr:postcode": "93-590",
                "addr:city": "\u0141\u00f3d\u017a",
                "addr:street": "Aleje Politechniki",
                "addr:housenumber": "38",
                "addr:city:simc": 957985,
                "addr:street:sym_ul": 53876,
                "phone": "+48 426841127",
                "email": "info@zsp9.pl",
                "ref:regon": "000184299",
                "operator": "\u0141\u00f3d\u017a-Miasto Na Prawach Powiatu",
                "operator:type": "government",
                "landuse": "education",
                "fixme": "amenity=school, amenity=college albo landuse=education w zale\u017cno\u015bci od tego, jakie plac\u00f3wki wchodz\u0105 w sk\u0142ad zespo\u0142u. Sprawd\u017a, kiedy stosowa\u0107 amenity=* a kiedy landuse=education.",
                "note": "Children RSPO: 38977;38979"
            }
        },
        {
            "id": 38977,
            "type": "Feature",
            "geometry": {
                "type": "Point",
                "coordinates": [
                    19.45284,
                    51.74057
                ]
            },
            "properties": {
                "isced:level": "3",
                "ref:rspo": 38977,
                "official_name": "Bran\u017cowa Szko\u0142a I Stopnia nr 9 w Zespole Szk\u00f3\u0142 Politechnicznych im. Komisji Edukacji Narodowej",
                "name": "Bran\u017cowa Szko\u0142a I Stopnia nr 9 w Zespole Szk\u00f3\u0142 Politechnicznych",
                "addr:postcode": "93-590",
                "addr:city": "\u0141\u00f3d\u017a",
                "addr:street": "Aleje Politechniki",
                "addr:housenumber": "38",
                "addr:city:simc": 957985,
                "addr:street:sym_ul": 53876,
                "phone": "+48 426841127",
                "email": "info@zsp9.pl",
                "ref:regon": "100566891",
                "operator": "\u0141\u00f3d\u017a-Miasto Na Prawach Powiatu",
                "operator:type": "government",
                "amenity": "school",
                "note": "Parent RSPO: 26243"
            }
        },
        {
            "id": 38979,
            "type": "Feature",
            "geometry": {
                "type": "Point",
                "coordinates": [
                    19.45284,
                    51.74054
                ]
            },
            "properties": {
                "isced:level": "3",
                "ref:rspo": 38979,
                "official_name": "Technikum nr 9 w Zespole Szk\u00f3\u0142 Politechnicznych im. Komisji Edukacji Narodowej",
                "name": "Technikum nr 9 w Zespole Szk\u00f3\u0142 Politechnicznych",
                "addr:postcode": "93-590",
                "addr:city": "\u0141\u00f3d\u017a",
                "addr:street": "Aleje Politechniki",
                "addr:housenumber": "38",
                "addr:city:simc": 957985,
                "addr:street:sym_ul": 53876,
                "phone": "+48 426841127",
                "email": "info@zsp9.pl",
                "website": "http:\/\/www.zsp9.pl",
                "ref:regon": "472408853",
                "operator": "\u0141\u00f3d\u017a-Miasto Na Prawach Powiatu",
                "operator:type": "government",
                "amenity": "school",
                "note": "Parent RSPO: 26243"
            }
        },
        {
            "id": 274911,
            "type": "Feature",
            "geometry": {
                "type": "Point",
                "coordinates": [
                    19.48669,
                    51.74071
                ]
            },
            "properties": {
                "isced:level": "1;2",
                "ref:rspo": 274911,
                "official_name": "Franciszka\u0144ska Niepubliczna Szko\u0142a Podstawowa Montessori im. \u015aw. Maksymiliana Kolbego",
                "name": "Franciszka\u0144ska Niepubliczna Szko\u0142a Podstawowa Montessori",
                "addr:postcode": "93-279",
                "addr:city": "\u0141\u00f3d\u017a",
                "addr:street": "Skwer \u015awi\u0119tego Maksymiliana Marii Kolbego",
                "addr:housenumber": "1",
                "addr:city:simc": 957985,
                "addr:street:sym_ul": 40988,
                "phone": "+48 426489583",
                "email": "montessori.lodz.franciszkanie@gmail.com",
                "website": "http:\/\/www.montessori-lodz-franciszkanie.pl",
                "ref:regon": "386386204",
                "operator": "Fundacja Wsparcia Rodziny I Rozwoju Edukacji \"Maks\"",
                "operator:type": "ngo",
                "amenity": "school"
            }
        },
        {
            "id": 27041,
            "type": "Feature",
            "geometry": {
                "type": "Point",
                "coordinates": [
                    19.50275,
                    51.7412
                ]
            },
            "properties": {
                "isced:level": "1;2",
                "ref:rspo": 27041,
                "official_name": "Szko\u0142a Podstawowa Fundacji O\u015bwiatowej \"Nasza Szko\u0142a\" w \u0141odzi",
                "name": "Szko\u0142a Podstawowa Fundacji O\u015bwiatowej \"Nasza Szko\u0142a\" w \u0141odzi",
                "addr:postcode": "93-212",
                "addr:city": "\u0141\u00f3d\u017a",
                "addr:street": "Zbaraska",
                "addr:housenumber": "19",
                "addr:city:simc": 957985,
                "addr:street:sym_ul": 25883,
                "phone": "+48 426432216",
                "email": "naszaszkola@naszaszkola.eu",
                "website": "http:\/\/www.naszaszkola.eu",
                "ref:regon": "101480619",
                "ref:vatin": "PL7291192834",
                "operator": "Fundacja O\u015bwiatowa \"Nasza Szko\u0142a\"",
                "operator:type": "ngo",
                "amenity": "school"
            }
        },
        {
            "id": 111322,
            "type": "Feature",
            "geometry": {
                "type": "Point",
                "coordinates": [
                    19.48471,
                    51.74183
                ]
            },
            "properties": {
                "isced:level": "3",
                "ref:rspo": 111322,
                "official_name": "Lviii Liceum Og\u00f3lnokszta\u0142c\u0105ce Specjalne",
                "name": "Lviii Liceum Og\u00f3lnokszta\u0142c\u0105ce Specjalne",
                "addr:postcode": "93-138",
                "addr:city": "\u0141\u00f3d\u017a",
                "addr:street": "Siedlecka",
                "addr:housenumber": "7\/21",
                "addr:city:simc": 957985,
                "addr:street:sym_ul": 19769,
                "phone": "+48 426845148",
                "email": "sosw1lodz@poczta.onet.pl",
                "website": "http:\/\/sosw1szkoly.lodz.pl",
                "ref:regon": "101567941",
                "operator": "\u0141\u00f3d\u017a-Miasto Na Prawach Powiatu",
                "operator:type": "government",
                "amenity": "school"
            }
        },
        {
            "id": 111278,
            "type": "Feature",
            "geometry": {
                "type": "Point",
                "coordinates": [
                    19.48471,
                    51.7418
                ]
            },
            "properties": {
                "isced:level": "3",
                "ref:rspo": 111278,
                "official_name": "Lvii Liceum Og\u00f3lnokszta\u0142c\u0105ce Specjalne",
                "name": "Lvii Liceum Og\u00f3lnokszta\u0142c\u0105ce Specjalne",
                "addr:postcode": "93-138",
                "addr:city": "\u0141\u00f3d\u017a",
                "addr:street": "Siedlecka",
                "addr:housenumber": "7\/21",
                "addr:city:simc": 957985,
                "addr:street:sym_ul": 19769,
                "phone": "+48 426845148",
                "email": "sosw1lodz@poczta.onet.pl",
                "website": "http:\/\/sosw1szkoly.lodz.pl",
                "ref:regon": "101567668",
                "operator": "\u0141\u00f3d\u017a-Miasto Na Prawach Powiatu",
                "operator:type": "government",
                "amenity": "school",
                "note": "Parent RSPO: 16197"
            }
        },
        {
            "id": 111318,
            "type": "Feature",
            "geometry": {
                "type": "Point",
                "coordinates": [
                    19.48471,
                    51.74177
                ]
            },
            "properties": {
                "isced:level": "3",
                "ref:rspo": 111318,
                "official_name": "Bran\u017cowa Szko\u0142a I Stopnia Specjalna nr 22",
                "name": "Bran\u017cowa Szko\u0142a I Stopnia Specjalna nr 22",
                "addr:postcode": "93-138",
                "addr:city": "\u0141\u00f3d\u017a",
                "addr:street": "Siedlecka",
                "addr:housenumber": "7\/21",
                "addr:city:simc": 957985,
                "addr:street:sym_ul": 19769,
                "phone": "+48 426845148",
                "email": "sosw1lodz@poczta.onet.pl",
                "website": "http:\/\/sosw1szkoly.lodz.pl",
                "ref:regon": "100029176",
                "operator": "\u0141\u00f3d\u017a-Miasto Na Prawach Powiatu",
                "operator:type": "government",
                "amenity": "school",
                "note": "Parent RSPO: 16197"
            }
        },
        {
            "id": 111319,
            "type": "Feature",
            "geometry": {
                "type": "Point",
                "coordinates": [
                    19.48471,
                    51.74174
                ]
            },
            "properties": {
                "isced:level": "3",
                "ref:rspo": 111319,
                "official_name": "Technikum Specjalne nr 24",
                "name": "Technikum Specjalne nr 24",
                "addr:postcode": "93-138",
                "addr:city": "\u0141\u00f3d\u017a",
                "addr:street": "Siedlecka",
                "addr:housenumber": "7\/21",
                "addr:city:simc": 957985,
                "addr:street:sym_ul": 19769,
                "phone": "+48 426845148",
                "email": "kontakt@sosw1.elodz.edu.pl",
                "website": "http:\/\/sosw1szkoly.lodz.pl",
                "ref:regon": "100753050",
                "operator": "\u0141\u00f3d\u017a-Miasto Na Prawach Powiatu",
                "operator:type": "government",
                "amenity": "school",
                "note": "Parent RSPO: 16197"
            }
        },
        {
            "id": 111321,
            "type": "Feature",
            "geometry": {
                "type": "Point",
                "coordinates": [
                    19.48471,
                    51.74171
                ]
            },
            "properties": {
                "isced:level": "4",
                "ref:rspo": 111321,
                "official_name": "Szko\u0142a Policealna Specjalna nr 23",
                "name": "Szko\u0142a Policealna Specjalna nr 23",
                "addr:postcode": "93-138",
                "addr:city": "\u0141\u00f3d\u017a",
                "addr:street": "Siedlecka",
                "addr:housenumber": "7\/21",
                "addr:city:simc": 957985,
                "addr:street:sym_ul": 19769,
                "phone": "+48 426845148",
                "email": "sosw1lodz@poczta.onet.pl",
                "website": "http:\/\/sosw1szkoly.lodz.pl",
                "ref:regon": "100257150",
                "operator": "\u0141\u00f3d\u017a-Miasto Na Prawach Powiatu",
                "operator:type": "government",
                "amenity": "college",
                "note": "Parent RSPO: 16197"
            }
        },
        {
            "id": 274851,
            "type": "Feature",
            "geometry": {
                "type": "Point",
                "coordinates": [
                    19.48471,
                    51.74168
                ]
            },
            "properties": {
                "isced:level": "3",
                "ref:rspo": 274851,
                "official_name": "Bran\u017cowa Szko\u0142a Specjalna II Stopnia nr 1 w Specjalnym O\u015brodku Szkolno - Wychowawczym nr 1 im. Janusza Korczaka w \u0141odzi",
                "name": "Bran\u017cowa Szko\u0142a Specjalna II Stopnia nr 1 w Specjalnym O\u015brodku Szkolno - Wychowawczym nr 1",
                "addr:postcode": "93-138",
                "addr:city": "\u0141\u00f3d\u017a",
                "addr:street": "Siedlecka",
                "addr:housenumber": "7\/21",
                "addr:city:simc": 957985,
                "addr:street:sym_ul": 19769,
                "phone": "+48 426845148",
                "email": "kontakt@sosw1.elodz.edu.pl",
                "ref:regon": "386339498",
                "operator": "\u0141\u00f3d\u017a-Miasto Na Prawach Powiatu",
                "operator:type": "government",
                "amenity": "school",
                "note": "Parent RSPO: 16197"
            }
        },
        {
            "id": 21776,
            "type": "Feature",
            "geometry": {
                "type": "Point",
                "coordinates": [
                    19.4685655,
                    51.742244
                ]
            },
            "properties": {
                "ref:rspo": 21776,
                "official_name": "Przedszkole Miejskie nr 34",
                "name": "Przedszkole Miejskie nr 34",
                "addr:postcode": "93-180",
                "addr:city": "\u0141\u00f3d\u017a",
                "addr:street": "Zarzewska",
                "addr:housenumber": "26",
                "addr:door": "30",
                "addr:city:simc": 957985,
                "addr:street:sym_ul": 25694,
                "phone": "+48 426840639",
                "email": "kontakt@pm34.elodz.edu.pl",
                "website": "http:\/\/www.pm34.edu.pl",
                "ref:regon": "000219431",
                "ref:vatin": "PL7292589999",
                "operator": "\u0141\u00f3d\u017a-Miasto Na Prawach Powiatu",
                "operator:type": "government",
                "amenity": "kindergarten"
            }
        },
        {
            "id": 23070,
            "type": "Feature",
            "geometry": {
                "type": "Point",
                "coordinates": [
                    19.46583,
                    51.74293
                ]
            },
            "properties": {
                "isced:level": "1;2",
                "ref:rspo": 23070,
                "official_name": "Szko\u0142a Podstawowa nr 10 im. W\u0142adys\u0142awa Broniewskiego",
                "name": "Szko\u0142a Podstawowa nr 10",
                "addr:postcode": "93-188",
                "addr:city": "\u0141\u00f3d\u017a",
                "addr:street": "Stanis\u0142awa Przybyszewskiego",
                "addr:housenumber": "15\/21",
                "addr:city:simc": 957985,
                "addr:street:sym_ul": 17892,
                "phone": "+48 426841794",
                "email": "kontakt@sp10.elodz.edu.pl",
                "ref:regon": "000208060",
                "operator": "\u0141\u00f3d\u017a-Miasto Na Prawach Powiatu",
                "operator:type": "government",
                "amenity": "school"
            }
        },
        {
            "id": 22086,
            "type": "Feature",
            "geometry": {
                "type": "Point",
                "coordinates": [
                    19.47708,
                    51.7439899
                ]
            },
            "properties": {
                "ref:rspo": 22086,
                "official_name": "Przedszkole Miejskie nr 90",
                "name": "Przedszkole Miejskie nr 90",
                "addr:postcode": "93-124",
                "addr:city": "\u0141\u00f3d\u017a",
                "addr:street": "Jana Kili\u0144skiego",
                "addr:housenumber": "228",
                "addr:city:simc": 957985,
                "addr:street:sym_ul": 8435,
                "phone": "+48 426840539",
                "email": "kontakt@pm90.elodz.edu.pl",
                "website": "http:\/\/www.pm90lodz.edupage.org",
                "ref:regon": "470527559",
                "ref:vatin": "PL7292588793",
                "operator": "\u0141\u00f3d\u017a-Miasto Na Prawach Powiatu",
                "operator:type": "government",
                "amenity": "kindergarten"
            }
        },
        {
            "id": 30897,
            "type": "Feature",
            "geometry": {
                "type": "Point",
                "coordinates": [
                    19.46972,
                    51.74408
                ]
            },
            "properties": {
                "isced:level": "3",
                "ref:rspo": 30897,
                "official_name": "Liceum Og\u00f3lnokszta\u0142c\u0105ce dla Doros\u0142ych",
                "name": "Liceum Og\u00f3lnokszta\u0142c\u0105ce dla Doros\u0142ych",
                "addr:postcode": "93-188",
                "addr:city": "\u0141\u00f3d\u017a",
                "addr:street": "Stanis\u0142awa Przybyszewskiego",
                "addr:housenumber": "43",
                "addr:city:simc": 957985,
                "addr:street:sym_ul": 17892,
                "phone": "+48 422313434",
                "email": "dobreliceumgkj@gmail.com",
                "website": "http:\/\/www.gkj.edu.pl",
                "ref:regon": "101485255",
                "ref:vatin": "PL9471744696",
                "operator": "Gra\u017cyna Ka\u017amierczakjakubiak",
                "operator:type": "private",
                "amenity": "school"
            }
        },
        {
            "id": 31470,
            "type": "Feature",
            "geometry": {
                "type": "Point",
                "coordinates": [
                    19.46972,
                    51.744049999999994
                ]
            },
            "properties": {
                "isced:level": "3",
                "ref:rspo": 31470,
                "official_name": "Liceum Og\u00f3lnokszta\u0142c\u0105ce - Gkj",
                "name": "Liceum Og\u00f3lnokszta\u0142c\u0105ce - Gkj",
                "addr:postcode": "93-188",
                "addr:city": "\u0141\u00f3d\u017a",
                "addr:street": "Stanis\u0142awa Przybyszewskiego",
                "addr:housenumber": "43",
                "addr:city:simc": 957985,
                "addr:street:sym_ul": 17892,
                "phone": "+48 422313434",
                "email": "dobreliceumgkj@gmail.com",
                "website": "http:\/\/www.gkj.edu.pl",
                "ref:regon": "101488495",
                "ref:vatin": "PL7281676967",
                "operator": "Gra\u017cyna Ka\u017amierczakjakubiak",
                "operator:type": "private",
                "amenity": "school"
            }
        },
        {
            "id": 64717,
            "type": "Feature",
            "geometry": {
                "type": "Point",
                "coordinates": [
                    19.47412,
                    51.74436
                ]
            },
            "properties": {
                "ref:rspo": 64717,
                "official_name": "Agencja Prawa Pracy I Bhp Sp. z o.o. Sp. K.",
                "name": "Agencja Prawa Pracy I Bhp Sp. z o.o. Sp. K.",
                "addr:postcode": "93-129",
                "addr:city": "\u0141\u00f3d\u017a",
                "addr:street": "Lubelska",
                "addr:housenumber": "4\/6",
                "addr:door": "2",
                "addr:city:simc": 957985,
                "addr:street:sym_ul": 11307,
                "phone": "+48 604641407",
                "email": "uslugi-bhp@post.pl",
                "ref:regon": "101490730",
                "operator": "Agencja Prawa Pracy I Bhp Sp\u00f3\u0142ka Z Ograniczon\u0105 Odpowiedzialno\u015bci\u0105 Sp\u00f3\u0142ka Komandytowa",
                "operator:type": "private",
                "fixme": "w zale\u017cno\u015bci od przedmiotu dzia\u0142alno\u015bci (np. amenity=training + training=*, amenity=dancing_school, amenity=language_school, amenity=music_school)"
            }
        },
        {
            "id": 26414,
            "type": "Feature",
            "geometry": {
                "type": "Point",
                "coordinates": [
                    19.47469,
                    51.74474
                ]
            },
            "properties": {
                "ref:rspo": 26414,
                "official_name": "Zesp\u00f3\u0142 Szk\u00f3\u0142 Samochodowych I Mechatronicznych",
                "name": "Zesp\u00f3\u0142 Szk\u00f3\u0142 Samochodowych I Mechatronicznych",
                "addr:postcode": "93-126",
                "addr:city": "\u0141\u00f3d\u017a",
                "addr:street": "Stanis\u0142awa Przybyszewskiego",
                "addr:housenumber": "73\/75",
                "addr:city:simc": 957985,
                "addr:street:sym_ul": 17892,
                "phone": "+48 426811383",
                "email": "kontakt@zssim.elodz.edu.pl",
                "ref:regon": "100567985",
                "operator": "\u0141\u00f3d\u017a-Miasto Na Prawach Powiatu",
                "operator:type": "government",
                "landuse": "education",
                "fixme": "amenity=school, amenity=college albo landuse=education w zale\u017cno\u015bci od tego, jakie plac\u00f3wki wchodz\u0105 w sk\u0142ad zespo\u0142u. Sprawd\u017a, kiedy stosowa\u0107 amenity=* a kiedy landuse=education.",
                "note": "Children RSPO: 47289;120233"
            }
        },
        {
            "id": 56609,
            "type": "Feature",
            "geometry": {
                "type": "Point",
                "coordinates": [
                    19.47469,
                    51.74471
                ]
            },
            "properties": {
                "ref:rspo": 56609,
                "official_name": "Centrum Szkolenia Mened\u017cer\u00f3w I Sprzedawc\u00f3w J.c.",
                "name": "Centrum Szkolenia Mened\u017cer\u00f3w I Sprzedawc\u00f3w J.c.",
                "addr:postcode": "93-126",
                "addr:city": "\u0141\u00f3d\u017a",
                "addr:street": "Stanis\u0142awa Przybyszewskiego",
                "addr:housenumber": "73\/75",
                "addr:city:simc": 957985,
                "addr:street:sym_ul": 17892,
                "phone": "+48 422527486",
                "email": "koty_c@toya.net.pl",
                "website": "http:\/\/www.ciekaweszkolenia.com",
                "ref:regon": "101489371",
                "ref:vatin": "PL7281284150",
                "operator": "Jaros\u0142aw Ciesielski",
                "operator:type": "private",
                "fixme": "w zale\u017cno\u015bci od przedmiotu dzia\u0142alno\u015bci (np. amenity=training + training=*, amenity=dancing_school, amenity=language_school, amenity=music_school)"
            }
        },
        {
            "id": 47289,
            "type": "Feature",
            "geometry": {
                "type": "Point",
                "coordinates": [
                    19.47469,
                    51.74468
                ]
            },
            "properties": {
                "isced:level": "3",
                "ref:rspo": 47289,
                "official_name": "Technikum nr 22 im. Gen. Stanis\u0142awa Maczka w Zespole Szk\u00f3\u0142 Samochodowych I Mechatronicznych",
                "name": "Technikum nr 22",
                "addr:postcode": "93-126",
                "addr:city": "\u0141\u00f3d\u017a",
                "addr:street": "Stanis\u0142awa Przybyszewskiego",
                "addr:housenumber": "73\/75",
                "addr:city:simc": 957985,
                "addr:street:sym_ul": 17892,
                "phone": "+48 426811383",
                "email": "zspnr22@wp.pl",
                "ref:regon": "100568536",
                "operator": "\u0141\u00f3d\u017a-Miasto Na Prawach Powiatu",
                "operator:type": "government",
                "amenity": "school",
                "note": "Parent RSPO: 26414"
            }
        },
        {
            "id": 120233,
            "type": "Feature",
            "geometry": {
                "type": "Point",
                "coordinates": [
                    19.47469,
                    51.74465
                ]
            },
            "properties": {
                "isced:level": "3",
                "ref:rspo": 120233,
                "official_name": "Bran\u017cowa Szko\u0142a I Stopnia nr 22 im. Gen. Stanis\u0142awa Maczka w Zespole Szk\u00f3\u0142 Samochodowych I Mechatronicznych",
                "name": "Bran\u017cowa Szko\u0142a I Stopnia nr 22",
                "addr:postcode": "93-126",
                "addr:city": "\u0141\u00f3d\u017a",
                "addr:street": "Stanis\u0142awa Przybyszewskiego",
                "addr:housenumber": "73\/75",
                "addr:city:simc": 957985,
                "addr:street:sym_ul": 17892,
                "phone": "+48 426811383",
                "email": "zspnr22@wp.pl",
                "ref:regon": "101668487",
                "operator": "\u0141\u00f3d\u017a-Miasto Na Prawach Powiatu",
                "operator:type": "government",
                "amenity": "school",
                "note": "Parent RSPO: 26414"
            }
        },
        {
            "id": 60213,
            "type": "Feature",
            "geometry": {
                "type": "Point",
                "coordinates": [
                    19.46971,
                    51.74564
                ]
            },
            "properties": {
                "ref:rspo": 60213,
                "official_name": "Rzemie\u015blnicze Centrum Szkolenia Zawodowego Izby Rzemie\u015blniczej w \u0141odzi",
                "name": "Rzemie\u015blnicze Centrum Szkolenia Zawodowego Izby Rzemie\u015blniczej w \u0141odzi",
                "addr:postcode": "90-101",
                "addr:city": "\u0141\u00f3d\u017a",
                "addr:street": "Brzozowa",
                "addr:housenumber": "8",
                "addr:city:simc": 957985,
                "addr:street:sym_ul": 2276,
                "phone": "+48 426325581",
                "email": "szkolenia@irlodz.home.pl",
                "website": "http:\/\/www.izbarzem.eu",
                "ref:regon": "101490173",
                "ref:vatin": "PL7250011936",
                "operator": "Izba Rzemie\u015blnicza W \u0141odzi",
                "operator:type": "cooperative",
                "fixme": "w zale\u017cno\u015bci od przedmiotu dzia\u0142alno\u015bci (np. amenity=training + training=*, amenity=dancing_school, amenity=language_school, amenity=music_school)"
            }
        },
        {
            "id": 269058,
            "type": "Feature",
            "geometry": {
                "type": "Point",
                "coordinates": [
                    19.4689799,
                    51.74627
                ]
            },
            "properties": {
                "isced:level": "3",
                "ref:rspo": 269058,
                "official_name": "Bran\u017cowa Szko\u0142a Rzemios\u0142a I Stopnia w \u0141odzi",
                "name": "Bran\u017cowa Szko\u0142a Rzemios\u0142a I Stopnia w \u0141odzi",
                "addr:postcode": "93-101",
                "addr:city": "\u0141\u00f3d\u017a",
                "addr:street": "Brzozowa",
                "addr:housenumber": "3",
                "addr:city:simc": 957985,
                "addr:street:sym_ul": 2276,
                "phone": "+48 427159912",
                "email": "szkola@bsr1s.pl",
                "website": "http:\/\/www.izbarzem.eu",
                "ref:regon": "381350727",
                "operator": "Izba Rzemie\u015blnicza W \u0141odzi",
                "operator:type": "cooperative",
                "amenity": "school"
            }
        },
        {
            "id": 278809,
            "type": "Feature",
            "geometry": {
                "type": "Point",
                "coordinates": [
                    19.4689799,
                    51.74624
                ]
            },
            "properties": {
                "isced:level": "3",
                "ref:rspo": 278809,
                "official_name": "Liceum Og\u00f3lnokszta\u0142c\u0105ce dla Doros\u0142ych Pascal w \u0141odzi",
                "name": "Liceum Og\u00f3lnokszta\u0142c\u0105ce dla Doros\u0142ych Pascal w \u0141odzi",
                "addr:postcode": "93-101",
                "addr:city": "\u0141\u00f3d\u017a",
                "addr:street": "Brzozowa",
                "addr:housenumber": "3",
                "addr:city:simc": 957985,
                "addr:street:sym_ul": 2276,
                "phone": "+48 223784630",
                "email": "fnpo@fnpo.pl",
                "ref:regon": "520082165",
                "operator": "Federacja Niepublicznych Plac\u00f3wek O\u015bwiatowych Sp\u00f3\u0142ka Z Ograniczon\u0105 Odpowiedzialno\u015bci\u0105",
                "operator:type": "private",
                "amenity": "school"
            }
        },
        {
            "id": 278810,
            "type": "Feature",
            "geometry": {
                "type": "Point",
                "coordinates": [
                    19.4689799,
                    51.746210000000005
                ]
            },
            "properties": {
                "isced:level": "4",
                "ref:rspo": 278810,
                "official_name": "Szko\u0142a Policealna Pascal w \u0141odzi",
                "name": "Szko\u0142a Policealna Pascal w \u0141odzi",
                "addr:postcode": "93-101",
                "addr:city": "\u0141\u00f3d\u017a",
                "addr:street": "Brzozowa",
                "addr:housenumber": "3",
                "addr:city:simc": 957985,
                "addr:street:sym_ul": 2276,
                "phone": "+48 223784630",
                "email": "fnpo@fnpo.edu.pl",
                "ref:regon": "520083414",
                "operator": "Federacja Niepublicznych Plac\u00f3wek O\u015bwiatowych Sp\u00f3\u0142ka Z Ograniczon\u0105 Odpowiedzialno\u015bci\u0105",
                "operator:type": "private",
                "amenity": "college"
            }
        },
        {
            "id": 23067,
            "type": "Feature",
            "geometry": {
                "type": "Point",
                "coordinates": [
                    19.48442,
                    51.74629
                ]
            },
            "properties": {
                "isced:level": "1;2",
                "ref:rspo": 23067,
                "official_name": "Szko\u0142a Podstawowa nr 5 im. Kr\u00f3la Stefana Batorego",
                "name": "Szko\u0142a Podstawowa nr 5",
                "addr:postcode": "93-193",
                "addr:city": "\u0141\u00f3d\u017a",
                "addr:street": "\u0141\u0119czycka",
                "addr:housenumber": "23",
                "addr:city:simc": 957985,
                "addr:street:sym_ul": 11607,
                "phone": "+48 426817906",
                "email": "kontakt@sp5.elodz.edu.pl",
                "website": "http:\/\/www.sp5lodz.szkolnastrona.pl\/",
                "ref:regon": "000731117",
                "operator": "\u0141\u00f3d\u017a-Miasto Na Prawach Powiatu",
                "operator:type": "government",
                "amenity": "school"
            }
        },
        {
            "id": 89193,
            "type": "Feature",
            "geometry": {
                "type": "Point",
                "coordinates": [
                    19.46684,
                    51.74631
                ]
            },
            "properties": {
                "ref:rspo": 89193,
                "official_name": "Og\u00f3lnokszta\u0142c\u0105ca Szko\u0142a Muzyczna I I II St. im. Henryka Wieniawskiego w \u0141odzi",
                "name": "Og\u00f3lnokszta\u0142c\u0105ca Szko\u0142a Muzyczna I I II St.",
                "addr:postcode": "93-102",
                "addr:city": "\u0141\u00f3d\u017a",
                "addr:street": "Sosnowa",
                "addr:housenumber": "9",
                "addr:city:simc": 957985,
                "addr:street:sym_ul": 20598,
                "phone": "+48 426846384",
                "email": "sekretariat@muzyczna-sosnowa.pl",
                "website": "http:\/\/muzyczna-sosnowa.pl",
                "ref:regon": "000278304",
                "operator": "Ministerstwo Kultury I Dziedzictwa Narodowego",
                "operator:type": "government",
                "landuse": "education",
                "fixme": "amenity=school, amenity=college albo landuse=education w zale\u017cno\u015bci od tego, jakie plac\u00f3wki wchodz\u0105 w sk\u0142ad zespo\u0142u. Sprawd\u017a, kiedy stosowa\u0107 amenity=* a kiedy landuse=education.",
                "note": "Children RSPO: 114221;114222"
            }
        },
        {
            "id": 114221,
            "type": "Feature",
            "geometry": {
                "type": "Point",
                "coordinates": [
                    19.46684,
                    51.74628
                ]
            },
            "properties": {
                "isced:level": "1;2",
                "ref:rspo": 114221,
                "official_name": "Og\u00f3lnokszta\u0142c\u0105ca Szko\u0142a Muzyczna I St. w \u0141odzi",
                "name": "Og\u00f3lnokszta\u0142c\u0105ca Szko\u0142a Muzyczna I St. w \u0141odzi",
                "addr:postcode": "93-102",
                "addr:city": "\u0141\u00f3d\u017a",
                "addr:street": "Sosnowa",
                "addr:housenumber": "9",
                "addr:city:simc": 957985,
                "addr:street:sym_ul": 20598,
                "phone": "+48 426846384",
                "email": "sekretariat@muzyczna-sosnowa.pl",
                "website": "http:\/\/muzyczna-sosnowa.pl",
                "ref:regon": "100021039",
                "operator": "Ministerstwo Kultury I Dziedzictwa Narodowego",
                "operator:type": "government",
                "amenity": "school",
                "note": "Parent RSPO: 89193"
            }
        },
        {
            "id": 114222,
            "type": "Feature",
            "geometry": {
                "type": "Point",
                "coordinates": [
                    19.46684,
                    51.74625
                ]
            },
            "properties": {
                "isced:level": "3",
                "ref:rspo": 114222,
                "official_name": "Og\u00f3lnokszta\u0142c\u0105ca Szko\u0142a Muzyczna II St. w \u0141odzi",
                "name": "Og\u00f3lnokszta\u0142c\u0105ca Szko\u0142a Muzyczna II St. w \u0141odzi",
                "addr:postcode": "93-102",
                "addr:city": "\u0141\u00f3d\u017a",
                "addr:street": "Sosnowa",
                "addr:housenumber": "9",
                "addr:city:simc": 957985,
                "addr:street:sym_ul": 20598,
                "phone": "+48 426846384",
                "email": "sekretariat@muzyczna-sosnowa.pl",
                "website": "http:\/\/muzyczna-sosnowa.pl",
                "ref:regon": "100021045",
                "operator": "Ministerstwo Kultury I Dziedzictwa Narodowego",
                "operator:type": "government",
                "amenity": "school",
                "note": "Parent RSPO: 89193"
            }
        },
        {
            "id": 25432,
            "type": "Feature",
            "geometry": {
                "type": "Point",
                "coordinates": [
                    19.47092,
                    51.7468
                ]
            },
            "properties": {
                "ref:rspo": 25432,
                "official_name": "Family Pre-School Rodzinne Przedszkole",
                "name": "Family Pre-School Rodzinne Przedszkole",
                "addr:postcode": "93-192",
                "addr:city": "\u0141\u00f3d\u017a",
                "addr:street": "Senatorska",
                "addr:housenumber": "11",
                "addr:city:simc": 957985,
                "addr:street:sym_ul": 19677,
                "phone": "+48 422361450",
                "email": "biuro@familyschool.edu.pl",
                "website": "http:\/\/www.familyschool.edu.pl",
                "ref:regon": "101480507",
                "operator": "Katarzyna Kaczmarek",
                "operator:type": "private",
                "amenity": "kindergarten"
            }
        },
        {
            "id": 25775,
            "type": "Feature",
            "geometry": {
                "type": "Point",
                "coordinates": [
                    19.47092,
                    51.74677
                ]
            },
            "properties": {
                "isced:level": "1;2",
                "ref:rspo": 25775,
                "official_name": "Family Elementary School Rodzinna Szko\u0142a Podstawowa",
                "name": "Family Elementary School Rodzinna Szko\u0142a Podstawowa",
                "addr:postcode": "93-192",
                "addr:city": "\u0141\u00f3d\u017a",
                "addr:street": "Senatorska",
                "addr:housenumber": "11",
                "addr:city:simc": 957985,
                "addr:street:sym_ul": 19677,
                "phone": "+48 422361450",
                "email": "biuro@familyschool.edu.pl",
                "website": "http:\/\/www.familyschool.edu.pl",
                "ref:regon": "101480766",
                "operator": "Katarzyna Kaczmarek",
                "operator:type": "private",
                "amenity": "school"
            }
        },
        {
            "id": 126724,
            "type": "Feature",
            "geometry": {
                "type": "Point",
                "coordinates": [
                    19.47092,
                    51.74674
                ]
            },
            "properties": {
                "ref:rspo": 126724,
                "official_name": "Pdca Robert Go\u0142\u0119biewski Niepubliczne Centrum Kszta\u0142cenia Ustawicznego",
                "name": "Pdca Robert Go\u0142\u0119biewski Niepubliczne Centrum Kszta\u0142cenia Ustawicznego",
                "addr:postcode": "93-192",
                "addr:city": "\u0141\u00f3d\u017a",
                "addr:street": "Senatorska",
                "addr:housenumber": "11",
                "addr:city:simc": 957985,
                "addr:street:sym_ul": 19677,
                "phone": "+48 696033168",
                "email": "pdca.robert.golebiewski@o2.pl",
                "ref:regon": "360664132",
                "operator": "Robert Go\u0142\u0119biewski",
                "operator:type": "private",
                "fixme": "w zale\u017cno\u015bci od przedmiotu dzia\u0142alno\u015bci (np. amenity=training + training=*, amenity=dancing_school, amenity=language_school, amenity=music_school)"
            }
        },
        {
            "id": 126725,
            "type": "Feature",
            "geometry": {
                "type": "Point",
                "coordinates": [
                    19.47092,
                    51.74671
                ]
            },
            "properties": {
                "ref:rspo": 126725,
                "official_name": "Pdca Robert Go\u0142\u0119biewski Niepubliczna Plac\u00f3wka O\u015bwiatowo - Wychowawcza",
                "name": "Pdca Robert Go\u0142\u0119biewski Niepubliczna Plac\u00f3wka O\u015bwiatowo - Wychowawcza",
                "addr:postcode": "93-192",
                "addr:city": "\u0141\u00f3d\u017a",
                "addr:street": "Senatorska",
                "addr:housenumber": "11",
                "addr:city:simc": 957985,
                "addr:street:sym_ul": 19677,
                "phone": "+48 696033168",
                "email": "pdca.robert.golebiewski@o2.pl",
                "ref:regon": "360664126",
                "operator": "Robert Go\u0142\u0119biewski",
                "operator:type": "private",
                "fixme": "w zale\u017cno\u015bci od przedmiotu dzia\u0142alno\u015bci (np. amenity=training + training=*, amenity=dancing_school, amenity=language_school, amenity=music_school)"
            }
        },
        {
            "id": 130854,
            "type": "Feature",
            "geometry": {
                "type": "Point",
                "coordinates": [
                    19.47092,
                    51.74668
                ]
            },
            "properties": {
                "ref:rspo": 130854,
                "official_name": "Niepubliczna Poradnia Psychologiczno-Pedagogiczna Progresja",
                "name": "Niepubliczna Poradnia Psychologiczno-Pedagogiczna Progresja",
                "addr:postcode": "93-192",
                "addr:city": "\u0141\u00f3d\u017a",
                "addr:street": "Senatorska",
                "addr:housenumber": "11",
                "addr:city:simc": 957985,
                "addr:street:sym_ul": 19677,
                "phone": "+48 516890460",
                "email": "biuro@familyschool.edu.pl",
                "ref:regon": "364620500",
                "operator": "Katarzyna Kaczmarek",
                "operator:type": "private",
                "healthcare": "counselling",
                "counselling_type": "education",
                "fixme": "w zale\u017cno\u015bci od przedmiotu dzia\u0142alno\u015bci (np. healthcare=counselling + counselling_type=education albo healthcare=psychotherapist)"
            }
        },
        {
            "id": 29723,
            "type": "Feature",
            "geometry": {
                "type": "Point",
                "coordinates": [
                    19.4791,
                    51.75066
                ]
            },
            "properties": {
                "isced:level": "3",
                "ref:rspo": 29723,
                "official_name": "Szko\u0142a Mistrzostwa Sportowego im. Kazimierza G\u00f3rskiego w \u0141odzi - Liceum Og\u00f3lnokszta\u0142c\u0105ce",
                "name": "Szko\u0142a Mistrzostwa Sportowego",
                "addr:postcode": "93-193",
                "addr:city": "\u0141\u00f3d\u017a",
                "addr:street": "Milionowa",
                "addr:housenumber": "12",
                "addr:city:simc": 957985,
                "addr:street:sym_ul": 12938,
                "email": "sekretariat@smslodz.pl",
                "website": "http:\/\/www.smslodz.pl",
                "ref:regon": "101481760",
                "ref:vatin": "PL7292320004",
                "operator": "Ma\u0142gorzata Ja\u0142kiewiczhoffmann",
                "operator:type": "private",
                "amenity": "school"
            }
        },
        {
            "id": 263046,
            "type": "Feature",
            "geometry": {
                "type": "Point",
                "coordinates": [
                    19.4791,
                    51.75063
                ]
            },
            "properties": {
                "isced:level": "1;2",
                "ref:rspo": 263046,
                "official_name": "Szko\u0142a Mistrzostwa Sportowego im. Kazimierza G\u00f3rskiego w \u0141odzi - Szko\u0142a Podstawowa",
                "name": "Szko\u0142a Mistrzostwa Sportowego",
                "addr:postcode": "93-193",
                "addr:city": "\u0141\u00f3d\u017a",
                "addr:street": "Milionowa",
                "addr:housenumber": "12",
                "addr:city:simc": 957985,
                "addr:street:sym_ul": 12938,
                "phone": "+48 422540570",
                "email": "sekretariat@smslodz.pl",
                "website": "http:\/\/www.smslodz.pl",
                "ref:regon": "368096905",
                "operator": "Ma\u0142gorzata Ja\u0142kiewiczhoffmann",
                "operator:type": "private",
                "amenity": "school"
            }
        },
        {
            "id": 269949,
            "type": "Feature",
            "geometry": {
                "type": "Point",
                "coordinates": [
                    19.4791,
                    51.750600000000006
                ]
            },
            "properties": {
                "isced:level": "3",
                "ref:rspo": 269949,
                "official_name": "Technikum Automatyki I Robotyki w \u0141odzi",
                "name": "Technikum Automatyki I Robotyki w \u0141odzi",
                "addr:postcode": "90-193",
                "addr:city": "\u0141\u00f3d\u017a",
                "addr:street": "Milionowa",
                "addr:housenumber": "12",
                "addr:city:simc": 957985,
                "addr:street:sym_ul": 12938,
                "phone": "+48 422755098",
                "email": "sekretariat@technikum.io",
                "website": "http:\/\/www.technikum.io",
                "ref:regon": "381894114",
                "operator": "Strefa Edukacji Sp\u00f3\u0142ka Z Ograniczon\u0105 Odpowiedzialno\u015bci\u0105",
                "operator:type": "private",
                "amenity": "school"
            }
        },
        {
            "id": 26097,
            "type": "Feature",
            "geometry": {
                "type": "Point",
                "coordinates": [
                    19.4282499,
                    51.77487
                ]
            },
            "properties": {
                "isced:level": "1;2",
                "ref:rspo": 26097,
                "official_name": "Szko\u0142a Podstawowa nr 64 im. Hansa Christiana Andersena",
                "name": "Szko\u0142a Podstawowa nr 64",
                "addr:postcode": "93-262",
                "addr:city": "\u0141\u00f3d\u017a",
                "addr:street": "W\u0142adys\u0142awa Anczyca",
                "addr:housenumber": "6",
                "addr:city:simc": 957985,
                "addr:street:sym_ul": 277,
                "phone": "+48 426431201",
                "email": "kontakt@sp64.elodz.edu.pl",
                "website": "http:\/\/www.sp64lodz.wikom.pl",
                "ref:regon": "000206612",
                "operator": "\u0141\u00f3d\u017a-Miasto Na Prawach Powiatu",
                "operator:type": "government",
                "amenity": "school"
            }
        },
        {
            "id": 22130,
            "type": "Feature",
            "geometry": {
                "type": "Point",
                "coordinates": [
                    19.4283464,
                    51.7752097
                ]
            },
            "properties": {
                "ref:rspo": 22130,
                "official_name": "Przedszkole Miejskie nr 101",
                "name": "Przedszkole Miejskie nr 101",
                "addr:postcode": "93-583",
                "addr:city": "\u0141\u00f3d\u017a",
                "addr:street": "Tadeusza Rejtana",
                "addr:housenumber": "10",
                "addr:city:simc": 957985,
                "addr:street:sym_ul": 18575,
                "phone": "+48 426486402",
                "email": "kontakt@pm101.elodz.edu.pl",
                "website": "http:\/\/www.pm101lodz.wikom.pl",
                "ref:regon": "000220983",
                "ref:vatin": "PL7292588764",
                "operator": "\u0141\u00f3d\u017a-Miasto Na Prawach Powiatu",
                "operator:type": "government",
                "amenity": "kindergarten"
            }
        },
        {
            "id": 126308,
            "type": "Feature",
            "geometry": {
                "type": "Point",
                "coordinates": [
                    19.42849,
                    51.77621
                ]
            },
            "properties": {
                "ref:rspo": 126308,
                "official_name": "Niepubliczna Poradnia Psychologiczno - Pedagogiczna \"Sensitiva\"",
                "name": "Niepubliczna Poradnia Psychologiczno - Pedagogiczna \"Sensitiva\"",
                "addr:postcode": "93-578",
                "addr:city": "\u0141\u00f3d\u017a",
                "addr:street": "Walerego Wr\u00f3blewskiego",
                "addr:housenumber": "18",
                "addr:city:simc": 957985,
                "addr:street:sym_ul": 24838,
                "phone": "+48 608636970",
                "email": "biuro@sensitiva.pl",
                "website": "http:\/\/www.sensitiva.pl",
                "ref:regon": "360212424",
                "operator": "Sensitiva  Sp\u00f3\u0142ka Z Ograniczon\u0105 Odpowiedzialno\u015bci\u0105",
                "operator:type": "private",
                "healthcare": "counselling",
                "counselling_type": "education",
                "fixme": "w zale\u017cno\u015bci od przedmiotu dzia\u0142alno\u015bci (np. healthcare=counselling + counselling_type=education albo healthcare=psychotherapist)"
            }
        },
        {
            "id": 25776,
            "type": "Feature",
            "geometry": {
                "type": "Point",
                "coordinates": [
                    19.42865,
                    51.77711
                ]
            },
            "properties": {
                "ref:rspo": 25776,
                "official_name": "Przedszkole Niepubliczne \"Abc\"",
                "name": "Przedszkole Niepubliczne \"Abc\"",
                "addr:postcode": "93-238",
                "addr:city": "\u0141\u00f3d\u017a",
                "addr:street": "Solidarno\u015bci Walcz\u0105cej",
                "addr:housenumber": "24",
                "addr:city:simc": 957985,
                "addr:street:sym_ul": 53154,
                "phone": "+48 426471520",
                "email": "info@abc-przedszkole.pl",
                "website": "http:\/\/www.abc-przedszkole.pl",
                "ref:regon": "101478947",
                "operator": "Katarzyna Jag\u00f3ra",
                "operator:type": "private",
                "amenity": "kindergarten"
            }
        },
        {
            "id": 21874,
            "type": "Feature",
            "geometry": {
                "type": "Point",
                "coordinates": [
                    19.4285187,
                    51.7780508
                ]
            },
            "properties": {
                "ref:rspo": 21874,
                "official_name": "Przedszkole Miejskie nr 66",
                "name": "Przedszkole Miejskie nr 66",
                "addr:postcode": "93-309",
                "addr:city": "\u0141\u00f3d\u017a",
                "addr:street": "Gra\u017cyny",
                "addr:housenumber": "34",
                "addr:city:simc": 957985,
                "addr:street:sym_ul": 6083,
                "phone": "+48 426464070",
                "email": "kontakt@pm66.elodz.edu.pl",
                "website": "http:\/\/przedszkole66.net",
                "ref:regon": "000219974",
                "ref:vatin": "PL7292590620",
                "operator": "\u0141\u00f3d\u017a-Miasto Na Prawach Powiatu",
                "operator:type": "government",
                "amenity": "kindergarten"
            }
        },
        {
            "id": 25441,
            "type": "Feature",
            "geometry": {
                "type": "Point",
                "coordinates": [
                    19.45666,
                    51.78378
                ]
            },
            "properties": {
                "isced:level": "3",
                "ref:rspo": 25441,
                "official_name": "Xxxi Liceum Og\u00f3lnokszta\u0142c\u0105ce im. Ludwika Zamenhofa",
                "name": "Xxxi Liceum Og\u00f3lnokszta\u0142c\u0105ce",
                "addr:postcode": "93-236",
                "addr:city": "\u0141\u00f3d\u017a",
                "addr:street": "Konspiracyjnego Wojska Polskiego",
                "addr:housenumber": "5b",
                "addr:city:simc": 957985,
                "addr:street:sym_ul": 53152,
                "phone": "+48 426431415",
                "email": "kontakt@lo31.elodz.edu.pl",
                "website": "http:\/\/lo31.pl",
                "ref:regon": "000217403",
                "operator": "\u0141\u00f3d\u017a-Miasto Na Prawach Powiatu",
                "operator:type": "government",
                "amenity": "school"
            }
        },
        {
            "id": 31606,
            "type": "Feature",
            "geometry": {
                "type": "Point",
                "coordinates": [
                    19.49591,
                    51.81086
                ]
            },
            "properties": {
                "isced:level": "3",
                "ref:rspo": 31606,
                "official_name": "Publiczne Liceum Og\u00f3lnokszta\u0142c\u0105ce Politechniki \u0141\u00f3dzkiej",
                "name": "Publiczne Liceum Og\u00f3lnokszta\u0142c\u0105ce Politechniki \u0141\u00f3dzkiej",
                "addr:postcode": "93-586",
                "addr:city": "\u0141\u00f3d\u017a",
                "addr:street": "Ludomira R\u00f3\u017cyckiego",
                "addr:housenumber": "5",
                "addr:city:simc": 957985,
                "addr:street:sym_ul": 19021,
                "phone": "+48 426312086",
                "email": "liceum@info.p.lodz.pl",
                "ref:regon": "101483523",
                "ref:vatin": "PL1050003254",
                "operator": "Politechnika \u0141\u00f3dzka",
                "operator:type": "public",
                "amenity": "school"
            }
        }
    ]
}