{
    "type": "FeatureCollection",
    "features": [
        {
            "id": 29212,
            "type": "Feature",
            "geometry": {
                "type": "Point",
                "coordinates": [
                    21.7429717,
                    50.3485295
                ]
            },
            "properties": {
                "isced:level": "1;2",
                "ref:rspo": 29212,
                "official_name": "Publiczna Szko\u0142a Podstawowa im.marii Konopnickiej w Komorowie",
                "name": "Publiczna Szko\u0142a Podstawowa im.marii Konopnickiej w Komorowie",
                "addr:country": "PL",
                "addr:postcode": "36-110",
                "addr:place": "Komor\u00f3w",
                "addr:housenumber": "116",
                "addr:teryt:sym_ul": 799144,
                "contact:phone": "+48 158471005",
                "contact:email": "ewa.leptuch1@gmail.com",
                "ref:regon": "001186389",
                "ref:vatin": "PL8141533435",
                "operator": "Gmina Majdan Kr\u00f3lewski",
                "operator:type": "government",
                "amenity": "school"
            }
        },
        {
            "id": 29258,
            "type": "Feature",
            "geometry": {
                "type": "Point",
                "coordinates": [
                    21.82963,
                    50.35849
                ]
            },
            "properties": {
                "isced:level": "1;2",
                "ref:rspo": 29258,
                "official_name": "Publiczna Szko\u0142a Podstawowa w Woli Rusinowskiej",
                "name": "Publiczna Szko\u0142a Podstawowa w Woli Rusinowskiej",
                "addr:country": "PL",
                "addr:postcode": "36-110",
                "addr:place": "Wola Rusinowska",
                "addr:housenumber": "69",
                "addr:teryt:sym_ul": 799517,
                "contact:phone": "+48 158471017",
                "contact:email": "pspwolarusinowska@o2.pl",
                "ref:regon": "001186403",
                "ref:vatin": "PL8141533464",
                "operator": "Gmina Majdan Kr\u00f3lewski",
                "operator:type": "government",
                "amenity": "school"
            }
        },
        {
            "id": 273666,
            "type": "Feature",
            "geometry": {
                "type": "Point",
                "coordinates": [
                    21.73278,
                    50.36711
                ]
            },
            "properties": {
                "ref:rspo": 273666,
                "official_name": "Niepubliczne Przedszkole ,,S\u0142oneczny Zak\u0105tek\"",
                "name": "Niepubliczne Przedszkole ,,S\u0142oneczny Zak\u0105tek\"",
                "addr:country": "PL",
                "addr:postcode": "36-110",
                "addr:city": "Majdan Kr\u00f3lewski",
                "addr:street": "ul. Osiedle Podlasek",
                "addr:housenumber": "71",
                "addr:teryt:simc": 50507,
                "addr:teryt:sym_ul": 799405,
                "contact:phone": "+48 533038500",
                "contact:email": "przedszkole_slonecznyzakatek@wp.pl",
                "contact:website": "http:\/\/npslonecznyzakatek.pl",
                "ref:regon": "384549607",
                "operator": "Ewelina Mokrzycka",
                "operator:type": "private",
                "amenity": "kindergarten"
            }
        },
        {
            "id": 279189,
            "type": "Feature",
            "geometry": {
                "type": "Point",
                "coordinates": [
                    21.78977,
                    50.37373
                ]
            },
            "properties": {
                "isced:level": "1;2",
                "ref:rspo": 279189,
                "official_name": "Publiczna Szko\u0142a Podstawowa w Brzostowej G\u00f3rze",
                "name": "Publiczna Szko\u0142a Podstawowa w Brzostowej G\u00f3rze",
                "addr:country": "PL",
                "addr:postcode": "36-110",
                "addr:place": "Brzostowa G\u00f3ra",
                "addr:housenumber": "110",
                "addr:teryt:sym_ul": 799003,
                "contact:phone": "+48 158471077",
                "contact:email": "sp.brzostowa@o2.pl",
                "ref:regon": "520831520",
                "ref:vatin": "PL8141533458",
                "operator": "Gmina Majdan Kr\u00f3lewski",
                "operator:type": "government",
                "amenity": "school"
            }
        },
        {
            "id": 12385,
            "type": "Feature",
            "geometry": {
                "type": "Point",
                "coordinates": [
                    21.7481,
                    50.37859
                ]
            },
            "properties": {
                "ref:rspo": 12385,
                "official_name": "Publiczne Przedszkole w Majdanie Kr\u00f3lewskim",
                "name": "Publiczne Przedszkole w Majdanie Kr\u00f3lewskim",
                "addr:country": "PL",
                "addr:postcode": "36-110",
                "addr:city": "Majdan Kr\u00f3lewski",
                "addr:street": "ul. Jagiello\u0144ska",
                "addr:housenumber": "3",
                "addr:teryt:simc": 7029,
                "addr:teryt:sym_ul": 799405,
                "contact:phone": "+48 158471541",
                "contact:email": "przedszkolemk@o2.pl",
                "ref:regon": "180885898",
                "ref:vatin": "PL8141656882",
                "operator": "Stowarzyszenie Wspierania Inicjatyw Lokalnych W Gminie Majdan Kr\u00f3lewski \"Lokomotywa\"",
                "operator:type": "ngo",
                "amenity": "kindergarten"
            }
        },
        {
            "id": 13720,
            "type": "Feature",
            "geometry": {
                "type": "Point",
                "coordinates": [
                    21.74748,
                    50.37878
                ]
            },
            "properties": {
                "isced:level": "1;2",
                "ref:rspo": 13720,
                "official_name": "Publiczna Szko\u0142a Podstawowa im. Marii Sk\u0142odowskiej-Curie w Majdanie Kr\u00f3lewskim",
                "name": "Publiczna Szko\u0142a Podstawowa",
                "addr:country": "PL",
                "addr:postcode": "36-110",
                "addr:city": "Majdan Kr\u00f3lewski",
                "addr:street": "ul. Jagiello\u0144ska",
                "addr:housenumber": "1",
                "addr:teryt:simc": 7029,
                "addr:teryt:sym_ul": 799405,
                "contact:phone": "+48 158471059",
                "contact:email": "sp_majdan_krol@wp.pl",
                "contact:website": "http:\/\/sp.majdankrolewski.pl",
                "ref:regon": "001016240",
                "ref:vatin": "PL8141533487",
                "operator": "Gmina Majdan Kr\u00f3lewski",
                "operator:type": "government",
                "amenity": "school"
            }
        },
        {
            "id": 29578,
            "type": "Feature",
            "geometry": {
                "type": "Point",
                "coordinates": [
                    21.71642,
                    50.38894
                ]
            },
            "properties": {
                "isced:level": "1;2",
                "ref:rspo": 29578,
                "official_name": "Publiczna Szko\u0142a Podstawowa im. Kardyna\u0142a Adama Koz\u0142owieckiego w Hucie Komorowskiej",
                "name": "Publiczna Szko\u0142a Podstawowa",
                "addr:country": "PL",
                "addr:postcode": "36-110",
                "addr:place": "Huta Komorowska",
                "addr:housenumber": "102",
                "addr:teryt:sym_ul": 799055,
                "contact:phone": "+48 158471608",
                "contact:email": "sphutakom@op.pl",
                "contact:website": "http:\/\/www.sphutakom.szkolna.net",
                "ref:regon": "001186366",
                "ref:vatin": "PL8141533470",
                "operator": "Gmina Majdan Kr\u00f3lewski",
                "operator:type": "government",
                "amenity": "school"
            }
        },
        {
            "id": 129948,
            "type": "Feature",
            "geometry": {
                "type": "Point",
                "coordinates": [
                    21.8310819,
                    50.4004388
                ]
            },
            "properties": {
                "isced:level": "1;2",
                "ref:rspo": 129948,
                "official_name": "Publiczna Szko\u0142a Podstawowa w Klatkach",
                "name": "Publiczna Szko\u0142a Podstawowa w Klatkach",
                "addr:country": "PL",
                "addr:postcode": "36-110",
                "addr:place": "Krz\u0105tka",
                "addr:housenumber": "202",
                "addr:teryt:sym_ul": 799300,
                "contact:phone": "+48 158472105",
                "contact:email": "spklatki@poczta.onet.pl",
                "ref:regon": "363156761",
                "operator": "Stowarzyszenie Przyjaci\u00f3\u0142 Publicznej Szko\u0142y Podstawowej W Klatkach \"Nasza Szko\u0142a\"",
                "operator:type": "ngo",
                "amenity": "school"
            }
        },
        {
            "id": 29167,
            "type": "Feature",
            "geometry": {
                "type": "Point",
                "coordinates": [
                    21.82522,
                    50.40175
                ]
            },
            "properties": {
                "isced:level": "1;2",
                "ref:rspo": 29167,
                "official_name": "Publiczna Szko\u0142a Podstawowa w Krz\u0105tce",
                "name": "Publiczna Szko\u0142a Podstawowa w Krz\u0105tce",
                "addr:country": "PL",
                "addr:postcode": "36-110",
                "addr:place": "Krz\u0105tka",
                "addr:housenumber": "27",
                "addr:teryt:sym_ul": 799300,
                "contact:phone": "+48 158472103",
                "contact:email": "spkrzatka@poczta.onet.pl",
                "contact:website": "http:\/\/www.spkrzatka.szkolna.net",
                "ref:regon": "001186395",
                "ref:vatin": "PL8141533441",
                "operator": "Gmina Majdan Kr\u00f3lewski",
                "operator:type": "government",
                "amenity": "school"
            }
        },
        {
            "id": 119751,
            "type": "Feature",
            "geometry": {
                "type": "Point",
                "coordinates": [
                    21.82522,
                    50.40172
                ]
            },
            "properties": {
                "ref:rspo": 119751,
                "official_name": "Punkt Przedszkolny Przy Publicznej Szkole Podstawowej w Krz\u0105tce",
                "name": "Punkt Przedszkolny Przy Publicznej Szkole Podstawowej w Krz\u0105tce",
                "addr:country": "PL",
                "addr:postcode": "36-110",
                "addr:place": "Krz\u0105tka",
                "addr:housenumber": "27",
                "addr:teryt:sym_ul": 799300,
                "contact:phone": "+48 158472103",
                "contact:email": "spkrzatka@poczta.onet.pl",
                "ref:regon": "181020137",
                "ref:vatin": "PL8141533441",
                "operator": "Gmina Majdan Kr\u00f3lewski",
                "operator:type": "government",
                "amenity": "kindergarten"
            }
        }
    ]
}