{
    "type": "FeatureCollection",
    "features": [
        {
            "id": 58671,
            "type": "Feature",
            "geometry": {
                "type": "Point",
                "coordinates": [
                    21.9735799,
                    50.25841
                ]
            },
            "properties": {
                "ref:rspo": 58671,
                "official_name": "Zesp\u00f3\u0142 Szk\u00f3\u0142 w Rani\u017cowie",
                "name": "Zesp\u00f3\u0142 Szk\u00f3\u0142 w Rani\u017cowie",
                "addr:postcode": "36-130",
                "addr:city": "Rani\u017c\u00f3w",
                "addr:street": "Grunwaldzka",
                "addr:housenumber": "2",
                "addr:teryt:simc": 659408,
                "addr:teryt:sym_ul": 6260,
                "phone": "+48 172285773",
                "email": "spranizow@wp.pl",
                "ref:regon": "180161835",
                "operator": "Gmina Rani\u017c\u00f3w",
                "operator:type": "government",
                "landuse": "education",
                "fixme": "amenity=school, amenity=college albo landuse=education w zale\u017cno\u015bci od tego, jakie plac\u00f3wki wchodz\u0105 w sk\u0142ad zespo\u0142u. Sprawd\u017a, kiedy stosowa\u0107 amenity=* a kiedy landuse=education.",
                "note": "Children RSPO: 74465;74498"
            }
        },
        {
            "id": 74465,
            "type": "Feature",
            "geometry": {
                "type": "Point",
                "coordinates": [
                    21.9735799,
                    50.258379999999995
                ]
            },
            "properties": {
                "isced:level": "1;2",
                "ref:rspo": 74465,
                "official_name": "Szko\u0142a Podstawowa im.\u015bwi\u0119tego Jana Paw\u0142a II w Rani\u017cowie",
                "name": "Szko\u0142a Podstawowa im.\u015bwi\u0119tego Jana Paw\u0142a II w Rani\u017cowie",
                "addr:postcode": "36-130",
                "addr:city": "Rani\u017c\u00f3w",
                "addr:street": "Grunwaldzka",
                "addr:housenumber": "2",
                "addr:teryt:simc": 659408,
                "addr:teryt:sym_ul": 6260,
                "phone": "+48 172285773",
                "email": "spranizow@wp.pl",
                "ref:regon": "000599103",
                "ref:vatin": "PL8141534423",
                "operator": "Gmina Rani\u017c\u00f3w",
                "operator:type": "government",
                "amenity": "school",
                "note": "Parent RSPO: 58671"
            }
        },
        {
            "id": 74498,
            "type": "Feature",
            "geometry": {
                "type": "Point",
                "coordinates": [
                    21.9735799,
                    50.25835
                ]
            },
            "properties": {
                "ref:rspo": 74498,
                "official_name": "Przedszkole Samorz\u0105dowe w Rani\u017cowie",
                "name": "Przedszkole Samorz\u0105dowe w Rani\u017cowie",
                "addr:postcode": "36-130",
                "addr:city": "Rani\u017c\u00f3w",
                "addr:street": "Grunwaldzka",
                "addr:housenumber": "2",
                "addr:teryt:simc": 659408,
                "addr:teryt:sym_ul": 6260,
                "phone": "+48 172285068",
                "email": "spranizow@wp.pl",
                "ref:regon": "690007246",
                "ref:vatin": "PL8141534340",
                "operator": "Gmina Rani\u017c\u00f3w",
                "operator:type": "government",
                "amenity": "kindergarten",
                "note": "Parent RSPO: 58671"
            }
        },
        {
            "id": 124954,
            "type": "Feature",
            "geometry": {
                "type": "Point",
                "coordinates": [
                    21.97768,
                    50.25861
                ]
            },
            "properties": {
                "ref:rspo": 124954,
                "official_name": "Niepubliczne Przedszkole \"Ognisko\"",
                "name": "Niepubliczne Przedszkole \"Ognisko\"",
                "addr:postcode": "36-130",
                "addr:city": "Rani\u017c\u00f3w",
                "addr:street": "Grunwaldzka",
                "addr:housenumber": "32",
                "addr:teryt:simc": 659408,
                "addr:teryt:sym_ul": 6260,
                "phone": "+48 691873223",
                "email": "mietekb0@op.pl",
                "ref:regon": "181152962",
                "operator": "Stowarzyszenie Podkarpacki Zwi\u0105zek By\u0142ych Pracownik\u00f3w Pgr",
                "operator:type": "ngo",
                "amenity": "kindergarten"
            }
        },
        {
            "id": 131699,
            "type": "Feature",
            "geometry": {
                "type": "Point",
                "coordinates": [
                    21.98613,
                    50.26028
                ]
            },
            "properties": {
                "ref:rspo": 131699,
                "official_name": "Niepubliczne Przedszkole \"Ma\u0142y Mi\u015b\"",
                "name": "Niepubliczne Przedszkole \"Ma\u0142y Mi\u015b\"",
                "addr:postcode": "36-130",
                "addr:city": "Rani\u017c\u00f3w",
                "addr:street": "S\u0142oneczna",
                "addr:housenumber": "5",
                "addr:teryt:simc": 659408,
                "addr:teryt:sym_ul": 20254,
                "phone": "+48 663861694",
                "email": "iwkasss89@wp.pl",
                "ref:regon": "365329906",
                "ref:vatin": "PL8141642526",
                "operator": "Iwona Bajek",
                "operator:type": "private",
                "amenity": "kindergarten"
            }
        },
        {
            "id": 74316,
            "type": "Feature",
            "geometry": {
                "type": "Point",
                "coordinates": [
                    22.06791,
                    50.26451
                ]
            },
            "properties": {
                "ref:rspo": 74316,
                "official_name": "Zesp\u00f3\u0142 Plac\u00f3wek Oswiatowych w Mazurach",
                "name": "Zesp\u00f3\u0142 Plac\u00f3wek Oswiatowych w Mazurach",
                "addr:postcode": "36-130",
                "addr:place": "Mazury",
                "addr:housenumber": "128",
                "addr:teryt:simc": 659354,
                "phone": "+48 172285013",
                "email": "zpomazury@interia.pl",
                "ref:regon": "831310007",
                "operator": "Gmina Rani\u017c\u00f3w",
                "operator:type": "government",
                "landuse": "education",
                "fixme": "amenity=school, amenity=college albo landuse=education w zale\u017cno\u015bci od tego, jakie plac\u00f3wki wchodz\u0105 w sk\u0142ad zespo\u0142u. Sprawd\u017a, kiedy stosowa\u0107 amenity=* a kiedy landuse=education.",
                "note": "Children RSPO: 89393;89410"
            }
        },
        {
            "id": 89393,
            "type": "Feature",
            "geometry": {
                "type": "Point",
                "coordinates": [
                    22.06791,
                    50.26448
                ]
            },
            "properties": {
                "isced:level": "1;2",
                "ref:rspo": 89393,
                "official_name": "Szko\u0142a Podstawowa im.genera\u0142a Bronis\u0142awa Kwiatkowskiego w Mazurach",
                "name": "Szko\u0142a Podstawowa im.genera\u0142a Bronis\u0142awa Kwiatkowskiego w Mazurach",
                "addr:postcode": "36-130",
                "addr:place": "Mazury",
                "addr:housenumber": "128",
                "addr:teryt:simc": 659354,
                "phone": "+48 172285013",
                "email": "zpomazury@interia.pl",
                "ref:regon": "001139510",
                "ref:vatin": "PL8141534386",
                "operator": "Gmina Rani\u017c\u00f3w",
                "operator:type": "government",
                "amenity": "school",
                "note": "Parent RSPO: 74316"
            }
        },
        {
            "id": 89410,
            "type": "Feature",
            "geometry": {
                "type": "Point",
                "coordinates": [
                    22.06791,
                    50.264450000000004
                ]
            },
            "properties": {
                "ref:rspo": 89410,
                "official_name": "Przedszkole Samorz\u0105dowe w Mazurach",
                "name": "Przedszkole Samorz\u0105dowe w Mazurach",
                "addr:postcode": "36-130",
                "addr:place": "Mazury",
                "addr:housenumber": "128",
                "addr:teryt:simc": 659354,
                "phone": "+48 172285013",
                "email": "zpomazury@interia.pl",
                "ref:regon": "690007252",
                "ref:vatin": "PL8141534305",
                "operator": "Gmina Rani\u017c\u00f3w",
                "operator:type": "government",
                "amenity": "kindergarten",
                "note": "Parent RSPO: 74316"
            }
        },
        {
            "id": 18857,
            "type": "Feature",
            "geometry": {
                "type": "Point",
                "coordinates": [
                    22.02344,
                    50.28993
                ]
            },
            "properties": {
                "isced:level": "1;2",
                "ref:rspo": 18857,
                "official_name": "Szko\u0142a Podstawowa w Posuchach",
                "name": "Szko\u0142a Podstawowa w Posuchach",
                "addr:postcode": "36-130",
                "addr:place": "Posuchy",
                "addr:housenumber": "156",
                "addr:teryt:simc": 659590,
                "phone": "+48 172280387",
                "email": "spposuchy@interia.pl",
                "ref:regon": "690032942",
                "ref:vatin": "PL8141534363",
                "operator": "Gmina Rani\u017c\u00f3w",
                "operator:type": "government",
                "amenity": "school"
            }
        },
        {
            "id": 18881,
            "type": "Feature",
            "geometry": {
                "type": "Point",
                "coordinates": [
                    21.95396,
                    50.29478
                ]
            },
            "properties": {
                "ref:rspo": 18881,
                "official_name": "Zesp\u00f3\u0142 Szk\u00f3\u0142 w Woli Rani\u017cowskiej",
                "name": "Zesp\u00f3\u0142 Szk\u00f3\u0142 w Woli Rani\u017cowskiej",
                "addr:postcode": "36-125",
                "addr:place": "Wola Rani\u017cowska",
                "addr:housenumber": "317",
                "addr:teryt:simc": 659503,
                "phone": "+48 177443514",
                "email": "spwolar@op.pl",
                "ref:regon": "180116042",
                "operator": "Gmina Rani\u017c\u00f3w",
                "operator:type": "government",
                "landuse": "education",
                "fixme": "amenity=school, amenity=college albo landuse=education w zale\u017cno\u015bci od tego, jakie plac\u00f3wki wchodz\u0105 w sk\u0142ad zespo\u0142u. Sprawd\u017a, kiedy stosowa\u0107 amenity=* a kiedy landuse=education.",
                "note": "Children RSPO: 58664;74317"
            }
        },
        {
            "id": 58664,
            "type": "Feature",
            "geometry": {
                "type": "Point",
                "coordinates": [
                    21.95396,
                    50.29475
                ]
            },
            "properties": {
                "ref:rspo": 58664,
                "official_name": "Przedszkole w Woli Rani\u017cowskiej",
                "name": "Przedszkole w Woli Rani\u017cowskiej",
                "addr:postcode": "36-125",
                "addr:place": "Wola Rani\u017cowska",
                "addr:housenumber": "317",
                "addr:teryt:simc": 659503,
                "phone": "+48 177443514",
                "email": "spwolar@op.pl",
                "ref:regon": "690007230",
                "ref:vatin": "PL8141534311",
                "operator": "Gmina Rani\u017c\u00f3w",
                "operator:type": "government",
                "amenity": "kindergarten",
                "note": "Parent RSPO: 18881"
            }
        },
        {
            "id": 74317,
            "type": "Feature",
            "geometry": {
                "type": "Point",
                "coordinates": [
                    21.95396,
                    50.294720000000005
                ]
            },
            "properties": {
                "isced:level": "1;2",
                "ref:rspo": 74317,
                "official_name": "Szko\u0142a Podstawowa im. Biskupa Jana Ozgi w Woli Rani\u017cowskiej",
                "name": "Szko\u0142a Podstawowa",
                "addr:postcode": "36-125",
                "addr:place": "Wola Rani\u017cowska",
                "addr:housenumber": "317",
                "addr:teryt:simc": 659503,
                "phone": "+48 177443514",
                "email": "spwolar@op.pl",
                "website": "http:\/\/zswolar.szkolna.net",
                "ref:regon": "001139533",
                "ref:vatin": "PL8141534417",
                "operator": "Gmina Rani\u017c\u00f3w",
                "operator:type": "government",
                "amenity": "school",
                "note": "Parent RSPO: 18881"
            }
        },
        {
            "id": 131528,
            "type": "Feature",
            "geometry": {
                "type": "Point",
                "coordinates": [
                    22.07222,
                    50.29868
                ]
            },
            "properties": {
                "ref:rspo": 131528,
                "official_name": "O\u015brodek Rewalidacyjno-Edukacyjno-Wychowawczy",
                "name": "O\u015brodek Rewalidacyjno-Edukacyjno-Wychowawczy",
                "addr:postcode": "36-130",
                "addr:place": "Korczowiska",
                "addr:housenumber": "96",
                "addr:teryt:simc": 659331,
                "phone": "+48 172401042",
                "email": "krystianliszka87@gmail.com",
                "ref:regon": "365213753",
                "operator": "Stowarzyszenie \"Dobry Dom\"",
                "operator:type": "ngo",
                "amenity": "school"
            }
        }
    ]
}