{"type":"FeatureCollection","features":[{"id":83797,"type":"Feature","geometry":{"type":"Point","coordinates":[21.7499,50.26947]},"properties":{"isced:level":"1;2","ref:rspo":83797,"official_name":"Szko\u0142a Podstawowa im. Prof. Jana Czekanowskiego w Cmolasie","name":"Szko\u0142a Podstawowa","addr:country":"PL","addr:postcode":"36-105","addr:place":"Cmolas","addr:housenumber":"269","addr:teryt:sym_ul":646699,"contact:phone":"+48 172837708","contact:email":"spcmolas@spcmolas.pl","contact:website":"http:\/\/www.spcmolas.pl","ref:regon":"000650904","ref:vatin":"PL8141683726","operator":"Gmina Cmolas","operator:type":"government","amenity":"school"}},{"id":128687,"type":"Feature","geometry":{"type":"Point","coordinates":[21.7529499,50.26977]},"properties":{"ref:rspo":128687,"official_name":"Niepubliczne Przedszkole Akademia Przedszkolaka w Cmolasie","name":"Niepubliczne Przedszkole Akademia Przedszkolaka w Cmolasie","addr:country":"PL","addr:postcode":"36-105","addr:place":"Cmolas","addr:housenumber":"269A","addr:teryt:sym_ul":646699,"contact:phone":"+48 177444415","contact:email":"stowarzyszenie@cmolas.pl","ref:regon":"362359522","ref:vatin":"PL8141404672","operator":"Stowarzyszenie Rozwoju Gminy Cmolas","operator:type":"ngo","amenity":"kindergarten"}},{"id":103451,"type":"Feature","geometry":{"type":"Point","coordinates":[21.67785,50.29462]},"properties":{"isced:level":"1;2","ref:rspo":103451,"official_name":"Szko\u0142a Podstawowa w Trz\u0119s\u00f3wce im. Zygmunta Nowakowskiego","name":"Szko\u0142a Podstawowa w Trz\u0119s\u00f3wce","addr:country":"PL","addr:postcode":"36-106","addr:place":"Trz\u0119s\u00f3wka","addr:housenumber":"231","addr:teryt:sym_ul":647084,"contact:phone":"+48 172837391","contact:email":"zstrz@wp.pl","contact:website":"http:\/\/www.zs.trzesowka.org","ref:regon":"000802981","ref:vatin":"PL8141568155","operator":"Gmina Cmolas","operator:type":"government","amenity":"school"}},{"id":31048,"type":"Feature","geometry":{"type":"Point","coordinates":[21.7469,50.29497]},"properties":{"ref:rspo":31048,"official_name":"Przedszkole Niepubliczne Ochronka \u015aw. J\u00f3zefa w Cmolasie","name":"Przedszkole Niepubliczne Ochronka \u015aw. J\u00f3zefa w Cmolasie","addr:country":"PL","addr:postcode":"36-105","addr:place":"Cmolas","addr:housenumber":"223","addr:teryt:sym_ul":646699,"contact:phone":"+48 172837762","contact:email":"ochronka.cmolas@interia.pl","ref:regon":"180900712","ref:vatin":"PL8141443821","operator":"Zgromadzenie Si\u00f3str S\u0142u\u017cebniczek Naj\u015bwi\u0119tszej Maryi Panny Niepokalanie Pocz\u0119tej Prowincja Tarnowska","operator:type":"religious","amenity":"kindergarten"}},{"id":31046,"type":"Feature","geometry":{"type":"Point","coordinates":[21.69786,50.31254]},"properties":{"isced:level":"1;2","ref:rspo":31046,"official_name":"Niepubliczna Szko\u0142a Podstawowa w Jagodniku","name":"Niepubliczna Szko\u0142a Podstawowa w Jagodniku","addr:country":"PL","addr:postcode":"36-105","addr:place":"Jagodnik","addr:housenumber":"93","addr:teryt:sym_ul":646788,"contact:phone":"+48 177441713","contact:email":"niepublicznaszkola@onet.eu","contact:website":"http:\/\/jagodnik.cmolas.org","ref:regon":"180900706","operator":"Stowarzyszenie Rozwoju Wsi Jagodnik \"Nasza Wie\u015b\"","operator:type":"ngo","amenity":"school"}},{"id":31047,"type":"Feature","geometry":{"type":"Point","coordinates":[21.69786,50.312509999999996]},"properties":{"ref:rspo":31047,"official_name":"Niepubliczne Przedszkole \"Jag\u00f3dka\" w Jagodniku","name":"Niepubliczne Przedszkole \"Jag\u00f3dka\" w Jagodniku","addr:country":"PL","addr:postcode":"36-105","addr:place":"Jagodnik","addr:housenumber":"93","addr:teryt:sym_ul":646788,"contact:phone":"+48 177441713","contact:email":"niepublicznaszkola@onet.eu","contact:website":"http:\/\/jagodnik.cmolas.org","ref:regon":"180900698","operator":"Stowarzyszenie Rozwoju Wsi Jagodnik \"Nasza Wie\u015b\"","operator:type":"ngo","amenity":"kindergarten"}},{"id":130348,"type":"Feature","geometry":{"type":"Point","coordinates":[21.8062677,50.3172391]},"properties":{"isced:level":"1;2","ref:rspo":130348,"official_name":"Szko\u0142a Podstawowa w Por\u0119bach Dymarskich","name":"Szko\u0142a Podstawowa w Por\u0119bach Dymarskich","addr:country":"PL","addr:postcode":"36-105","addr:place":"Por\u0119by Dymarskie","addr:housenumber":"157B","addr:teryt:sym_ul":646966,"contact:phone":"+48 172837187","contact:email":"spporeby@wp.pl","contact:website":"http:\/\/spporeby.cmolas.org","ref:regon":"363896819","operator":"Stowarzyszenie Rozwoju Gminy Cmolas","operator:type":"ngo","amenity":"school"}},{"id":31045,"type":"Feature","geometry":{"type":"Point","coordinates":[21.65315,50.31829]},"properties":{"isced:level":"1;2","ref:rspo":31045,"official_name":"Szko\u0142a Podstawowa w Ostrowach Tuszowskich","name":"Szko\u0142a Podstawowa w Ostrowach Tuszowskich","addr:country":"PL","addr:postcode":"36-105","addr:place":"Ostrowy Tuszowskie","addr:housenumber":"100A","addr:teryt:sym_ul":646860,"contact:phone":"+48 177441547","contact:email":"spotusz@op.pl","contact:website":"http:\/\/www.spotusz.cba.pl","ref:regon":"000804508","ref:vatin":"PL8141267353","operator":"Gmina Cmolas","operator:type":"government","amenity":"school"}},{"id":130335,"type":"Feature","geometry":{"type":"Point","coordinates":[21.73556,50.32393]},"properties":{"isced:level":"1;2","ref:rspo":130335,"official_name":"Szko\u0142a Podstawowa w Hadyk\u00f3wce","name":"Szko\u0142a Podstawowa w Hadyk\u00f3wce","addr:country":"PL","addr:postcode":"36-105","addr:place":"Hadyk\u00f3wka","addr:housenumber":"47","addr:teryt:sym_ul":646771,"contact:phone":"+48 172837705","contact:email":"sph2@o2.pl","ref:regon":"363864943","operator":"Stowarzyszenie Rozwoju Gminy Cmolas","operator:type":"ngo","amenity":"school"}},{"id":121358,"type":"Feature","geometry":{"type":"Point","coordinates":[21.64106,50.34594]},"properties":{"isced:level":"1;2","ref:rspo":121358,"official_name":"Szko\u0142a Podstawowa w Ostrowach Baranowskich","name":"Szko\u0142a Podstawowa w Ostrowach Baranowskich","addr:country":"PL","addr:postcode":"36-105","addr:place":"Ostrowy Baranowskie","addr:housenumber":"106","addr:teryt:sym_ul":646794,"contact:phone":"+48 177441703","contact:email":"sp.ostrowybaranowskie@interia.pl","ref:regon":"181063276","operator":"Stowarzyszenie Rozwoju Gminy Cmolas","operator:type":"ngo","amenity":"school"}}]}