{
    "type": "FeatureCollection",
    "features": [
        {
            "id": 35024,
            "type": "Feature",
            "geometry": {
                "type": "Point",
                "coordinates": [
                    21.68488,
                    50.20362
                ]
            },
            "properties": {
                "isced:level": "1;2",
                "ref:rspo": 35024,
                "official_name": "Szko\u0142a Podstawowa im. Kardyna\u0142a Stefana Wyszy\u0144skiego w Hucisku",
                "name": "Szko\u0142a Podstawowa",
                "addr:country": "PL",
                "addr:postcode": "36-147",
                "addr:place": "Hucisko",
                "addr:housenumber": "51",
                "addr:teryt:sym_ul": 657094,
                "contact:phone": "+48 172271118",
                "contact:email": "sphucisko@poczta.onet.eu",
                "contact:website": "http:\/\/sphucisko.szkolna.net",
                "ref:regon": "000804460",
                "ref:vatin": "PL8141421713",
                "operator": "Gmina Niwiska",
                "operator:type": "government",
                "amenity": "school"
            }
        },
        {
            "id": 35023,
            "type": "Feature",
            "geometry": {
                "type": "Point",
                "coordinates": [
                    21.66864,
                    50.22078
                ]
            },
            "properties": {
                "isced:level": "1;2",
                "ref:rspo": 35023,
                "official_name": "Szko\u0142a Podstawowa im. \u015aw.jana Bosko w Trze\u015bni",
                "name": "Szko\u0142a Podstawowa",
                "addr:country": "PL",
                "addr:postcode": "36-147",
                "addr:place": "Trze\u015b\u0144",
                "addr:housenumber": "173",
                "addr:teryt:sym_ul": 657355,
                "contact:phone": "+48 172279005",
                "contact:email": "sptrzesn@gmail.com",
                "contact:website": "http:\/\/www.sptrzesn.szkolnastrona.pl",
                "ref:regon": "690005336",
                "ref:vatin": "PL8141424551",
                "operator": "Gmina Niwiska",
                "operator:type": "government",
                "amenity": "school"
            }
        },
        {
            "id": 269209,
            "type": "Feature",
            "geometry": {
                "type": "Point",
                "coordinates": [
                    21.66864,
                    50.220749999999995
                ]
            },
            "properties": {
                "ref:rspo": 269209,
                "official_name": "Niepubliczny Punkt Przedszkolny \u201eElemelek\u201d w Trze\u015bni",
                "name": "Niepubliczny Punkt Przedszkolny \u201eElemelek\u201d w Trze\u015bni",
                "addr:country": "PL",
                "addr:postcode": "36-147",
                "addr:place": "Trze\u015b\u0144",
                "addr:housenumber": "173\/1",
                "addr:teryt:sym_ul": 657355,
                "contact:email": "stowarzyszenie.niwiska@o2.pl",
                "ref:regon": "381401650",
                "operator": "Stowarzyszenie K\u00f3\u0142 Gospody\u0144 Wiejskich Gminy Niwiska",
                "operator:type": "ngo",
                "amenity": "kindergarten"
            }
        },
        {
            "id": 123771,
            "type": "Feature",
            "geometry": {
                "type": "Point",
                "coordinates": [
                    21.6334455,
                    50.2247979
                ]
            },
            "properties": {
                "ref:rspo": 123771,
                "official_name": "Szko\u0142a Muzyczna I Stopnia w Niwiskach",
                "name": "Szko\u0142a Muzyczna I Stopnia w Niwiskach",
                "addr:country": "PL",
                "addr:postcode": "36-147",
                "addr:place": "Niwiska",
                "addr:housenumber": "487",
                "addr:teryt:sym_ul": 657220,
                "contact:phone": "+48 172279022",
                "contact:email": "szkolamuzyczna@niwiska.pl",
                "ref:regon": "181136288",
                "operator": "Gmina Niwiska",
                "operator:type": "government",
                "amenity": "music_school"
            }
        },
        {
            "id": 35025,
            "type": "Feature",
            "geometry": {
                "type": "Point",
                "coordinates": [
                    21.63654,
                    50.22771
                ]
            },
            "properties": {
                "isced:level": "1;2",
                "ref:rspo": 35025,
                "official_name": "Szko\u0142a Podstawowa im. \u015awi\u0119tej Kr\u00f3lowej Jadwigi w Niwiskach",
                "name": "Szko\u0142a Podstawowa",
                "addr:country": "PL",
                "addr:postcode": "36-147",
                "addr:place": "Niwiska",
                "addr:housenumber": "465",
                "addr:teryt:sym_ul": 657220,
                "contact:phone": "+48 172279006",
                "contact:email": "sp.niwiska@op.pl",
                "ref:regon": "000597920",
                "ref:vatin": "PL8141421699",
                "operator": "Gmina Niwiska",
                "operator:type": "government",
                "amenity": "school"
            }
        },
        {
            "id": 133252,
            "type": "Feature",
            "geometry": {
                "type": "Point",
                "coordinates": [
                    21.63654,
                    50.22768
                ]
            },
            "properties": {
                "ref:rspo": 133252,
                "official_name": "Niepubliczny Punkt Przedszkolny w Niwiskach",
                "name": "Niepubliczny Punkt Przedszkolny w Niwiskach",
                "addr:country": "PL",
                "addr:postcode": "36-147",
                "addr:place": "Niwiska",
                "addr:housenumber": "465",
                "addr:teryt:sym_ul": 657220,
                "contact:phone": "+48 693865463",
                "contact:email": "stowarzyszenie.niwiska@o2.pl",
                "ref:regon": "366874630",
                "operator": "Stowarzyszenie K\u00f3\u0142 Gospody\u0144 Wiejskich Gminy Niwiska",
                "operator:type": "ngo",
                "amenity": "kindergarten"
            }
        },
        {
            "id": 29120,
            "type": "Feature",
            "geometry": {
                "type": "Point",
                "coordinates": [
                    21.6507599,
                    50.247
                ]
            },
            "properties": {
                "ref:rspo": 29120,
                "official_name": "Niepubliczne Przedszkole \"Kraina Rado\u015bci\" w Hucinie",
                "name": "Niepubliczne Przedszkole \"Kraina Rado\u015bci\" w Hucinie",
                "addr:country": "PL",
                "addr:postcode": "36-147",
                "addr:city": "Hucina",
                "addr:street": "Wsp\u00f3lna",
                "addr:housenumber": "54",
                "addr:teryt:simc": 24885,
                "addr:teryt:sym_ul": 657065,
                "contact:phone": "+48 172279176",
                "contact:email": "sphucina@interia.eu",
                "ref:regon": "180897186",
                "operator": "Stowarzyszenie Wie\u015b Przyjazna Dzieciom",
                "operator:type": "ngo",
                "amenity": "kindergarten"
            }
        },
        {
            "id": 35022,
            "type": "Feature",
            "geometry": {
                "type": "Point",
                "coordinates": [
                    21.6507599,
                    50.24697
                ]
            },
            "properties": {
                "isced:level": "1;2",
                "ref:rspo": 35022,
                "official_name": "Szko\u0142a Podstawowa im. \u015aw.jana Paw\u0142a II w Hucinie",
                "name": "Szko\u0142a Podstawowa",
                "addr:country": "PL",
                "addr:postcode": "36-147",
                "addr:city": "Hucina",
                "addr:street": "Wsp\u00f3lna",
                "addr:housenumber": "54",
                "addr:teryt:simc": 24885,
                "addr:teryt:sym_ul": 657065,
                "contact:phone": "+48 172279176",
                "contact:email": "sphucina@interia.eu",
                "contact:website": "http:\/\/sphucina.szkolnastrona.pl",
                "ref:regon": "180900729",
                "operator": "Stowarzyszenie Wie\u015b Przyjazna Dzieciom",
                "operator:type": "ngo",
                "amenity": "school"
            }
        },
        {
            "id": 269203,
            "type": "Feature",
            "geometry": {
                "type": "Point",
                "coordinates": [
                    21.68297,
                    50.25683
                ]
            },
            "properties": {
                "ref:rspo": 269203,
                "official_name": "Niepubliczny Punkt Przedszkolny \u201eWeso\u0142y Promyk\u201d w Siedlance",
                "name": "Niepubliczny Punkt Przedszkolny \u201eWeso\u0142y Promyk\u201d w Siedlance",
                "addr:country": "PL",
                "addr:postcode": "36-147",
                "addr:place": "Siedlanka",
                "addr:housenumber": "193",
                "addr:teryt:sym_ul": 657349,
                "contact:email": "stowarzyszenie.niwiska@o2.pl",
                "ref:regon": "381401614",
                "operator": "Stowarzyszenie K\u00f3\u0142 Gospody\u0144 Wiejskich Gminy Niwiska",
                "operator:type": "ngo",
                "amenity": "kindergarten"
            }
        },
        {
            "id": 35027,
            "type": "Feature",
            "geometry": {
                "type": "Point",
                "coordinates": [
                    21.67791,
                    50.2584
                ]
            },
            "properties": {
                "isced:level": "1;2",
                "ref:rspo": 35027,
                "official_name": "Szko\u0142a Podstawowa im. B\u0142. Karoliny K\u00f3zk\u00f3wny w Siedlance",
                "name": "Szko\u0142a Podstawowa",
                "addr:country": "PL",
                "addr:postcode": "36-147",
                "addr:place": "Siedlanka",
                "addr:housenumber": "72",
                "addr:teryt:sym_ul": 657349,
                "contact:phone": "+48 172278252",
                "contact:email": "spsiedlanka@gmail.com",
                "contact:website": "http:\/\/spsiedlanka.szkolnastrona.pl",
                "ref:regon": "000804454",
                "ref:vatin": "PL8141420174",
                "operator": "Gmina Niwiska",
                "operator:type": "government",
                "amenity": "school"
            }
        },
        {
            "id": 269208,
            "type": "Feature",
            "geometry": {
                "type": "Point",
                "coordinates": [
                    21.65872,
                    50.2638
                ]
            },
            "properties": {
                "ref:rspo": 269208,
                "official_name": "Niepubliczny Punkt Przedszkolny \u201eS\u0142oneczko\u201d w Kosowach",
                "name": "Niepubliczny Punkt Przedszkolny \u201eS\u0142oneczko\u201d w Kosowach",
                "addr:country": "PL",
                "addr:postcode": "36-147",
                "addr:city": "Kosowy",
                "addr:street": "Piaskowa",
                "addr:housenumber": "5",
                "addr:teryt:simc": 16033,
                "addr:teryt:sym_ul": 657125,
                "contact:email": "stowarzyszenie.niwiska@o2.pl",
                "ref:regon": "381401643",
                "operator": "Stowarzyszenie K\u00f3\u0142 Gospody\u0144 Wiejskich Gminy Niwiska",
                "operator:type": "ngo",
                "amenity": "kindergarten"
            }
        },
        {
            "id": 35028,
            "type": "Feature",
            "geometry": {
                "type": "Point",
                "coordinates": [
                    21.60411,
                    50.27183
                ]
            },
            "properties": {
                "isced:level": "1;2",
                "ref:rspo": 35028,
                "official_name": "Szko\u0142a Podstawowa w Przy\u0142\u0119ku",
                "name": "Szko\u0142a Podstawowa w Przy\u0142\u0119ku",
                "addr:country": "PL",
                "addr:postcode": "36-107",
                "addr:place": "Przy\u0142\u0119k",
                "addr:housenumber": "216",
                "addr:teryt:sym_ul": 657310,
                "contact:phone": "+48 172278270",
                "contact:email": "spprzylek@poczta.onet.pl",
                "ref:regon": "000804431",
                "ref:vatin": "PL8141421742",
                "operator": "Gmina Niwiska",
                "operator:type": "government",
                "amenity": "school"
            }
        },
        {
            "id": 133253,
            "type": "Feature",
            "geometry": {
                "type": "Point",
                "coordinates": [
                    21.60411,
                    50.2718
                ]
            },
            "properties": {
                "ref:rspo": 133253,
                "official_name": "Niepubliczny Punkt Przedszkolny w Przy\u0142\u0119ku",
                "name": "Niepubliczny Punkt Przedszkolny w Przy\u0142\u0119ku",
                "addr:country": "PL",
                "addr:postcode": "36-107",
                "addr:place": "Przy\u0142\u0119k",
                "addr:housenumber": "216",
                "addr:teryt:sym_ul": 657310,
                "contact:phone": "+48 667285045",
                "contact:email": "stowarzyszenie.niwiska@o2.pl",
                "ref:regon": "366874669",
                "operator": "Stowarzyszenie K\u00f3\u0142 Gospody\u0144 Wiejskich Gminy Niwiska",
                "operator:type": "ngo",
                "amenity": "kindergarten"
            }
        },
        {
            "id": 35026,
            "type": "Feature",
            "geometry": {
                "type": "Point",
                "coordinates": [
                    21.64368,
                    50.27971
                ]
            },
            "properties": {
                "isced:level": "1;2",
                "ref:rspo": 35026,
                "official_name": "Szko\u0142a Podstawowa im. Ks. Jerzego Popie\u0142uszki w Kosowach",
                "name": "Szko\u0142a Podstawowa",
                "addr:country": "PL",
                "addr:postcode": "36-147",
                "addr:city": "Kosowy",
                "addr:street": "Szkolna",
                "addr:housenumber": "108",
                "addr:teryt:simc": 21970,
                "addr:teryt:sym_ul": 657125,
                "contact:phone": "+48 172278164",
                "contact:email": "sp_kosowy@o2.pl",
                "ref:regon": "000804448",
                "ref:vatin": "PL8141421736",
                "operator": "Gmina Niwiska",
                "operator:type": "government",
                "amenity": "school"
            }
        }
    ]
}