{
    "type": "FeatureCollection",
    "features": [
        {
            "id": 90331,
            "type": "Feature",
            "geometry": {
                "type": "Point",
                "coordinates": [
                    22.15299,
                    53.06814
                ]
            },
            "properties": {
                "isced:level": "1;2",
                "ref:rspo": 90331,
                "official_name": "Szko\u0142a Podstawowa im. Marsza\u0142ka J\u00f3zefa Pi\u0142sudskiego w Wygodzie",
                "name": "Szko\u0142a Podstawowa",
                "addr:postcode": "18-400",
                "addr:city": "Wygoda",
                "addr:street": "\u0141om\u017cy\u0144ska",
                "addr:housenumber": "2",
                "addr:teryt:simc": 401147,
                "addr:teryt:sym_ul": 11659,
                "phone": "+48 862245050",
                "email": "spwygoda@poczta.onet.pl",
                "ref:regon": "001118880",
                "ref:vatin": "PL7181770307",
                "operator": "Gmina \u0141om\u017ca",
                "operator:type": "government",
                "amenity": "school"
            }
        },
        {
            "id": 111416,
            "type": "Feature",
            "geometry": {
                "type": "Point",
                "coordinates": [
                    22.15299,
                    53.06811
                ]
            },
            "properties": {
                "ref:rspo": 111416,
                "official_name": "Punkt Przedszkolny w Wygodzie",
                "name": "Punkt Przedszkolny w Wygodzie",
                "addr:postcode": "18-400",
                "addr:city": "Wygoda",
                "addr:street": "\u0141om\u017cy\u0144ska",
                "addr:housenumber": "2",
                "addr:teryt:simc": 401147,
                "addr:teryt:sym_ul": 11659,
                "phone": "+48 862245050",
                "email": "spwygoda@poczta.onet.pl",
                "ref:regon": "200763750",
                "operator": "Gmina \u0141om\u017ca",
                "operator:type": "government",
                "amenity": "kindergarten"
            }
        },
        {
            "id": 90349,
            "type": "Feature",
            "geometry": {
                "type": "Point",
                "coordinates": [
                    22.2235799,
                    53.07659
                ]
            },
            "properties": {
                "isced:level": "1;2",
                "ref:rspo": 90349,
                "official_name": "Szko\u0142a Podstawowa w Pucha\u0142ach",
                "name": "Szko\u0142a Podstawowa w Pucha\u0142ach",
                "addr:postcode": "18-400",
                "addr:place": "Pucha\u0142y",
                "addr:housenumber": "31",
                "addr:teryt:simc": 400998,
                "phone": "+48 862193123",
                "email": "szppuchaly@wp.pl",
                "website": "http:\/\/www.sppuchaly.szkolnastrona.pl",
                "ref:regon": "001118896",
                "ref:vatin": "PL7181770170",
                "operator": "Gmina \u0141om\u017ca",
                "operator:type": "government",
                "amenity": "school"
            }
        },
        {
            "id": 90329,
            "type": "Feature",
            "geometry": {
                "type": "Point",
                "coordinates": [
                    22.27692,
                    53.08967
                ]
            },
            "properties": {
                "isced:level": "1;2",
                "ref:rspo": 90329,
                "official_name": "Szko\u0142a Podstawowa w Lutostani",
                "name": "Szko\u0142a Podstawowa w Lutostani",
                "addr:postcode": "18-400",
                "addr:place": "Lutosta\u0144",
                "addr:housenumber": "1a",
                "addr:teryt:simc": 400811,
                "phone": "+48 862193192",
                "email": "spl111@poczta.onet.pl",
                "ref:regon": "200745018",
                "ref:vatin": "PL7181729859",
                "operator": "Spo\u0142eczno - O\u015bwiatowe Stowarzyszenie Pomocy Pokrzywdzonym I Niepe\u0142nosprawnym \"Edukator\"",
                "operator:type": "ngo",
                "amenity": "school"
            }
        },
        {
            "id": 90325,
            "type": "Feature",
            "geometry": {
                "type": "Point",
                "coordinates": [
                    22.20038,
                    53.10229
                ]
            },
            "properties": {
                "isced:level": "1;2",
                "ref:rspo": 90325,
                "official_name": "Szko\u0142a Podstawowa im. Rodziny Jab\u0142o\u0144skich w Pniewie",
                "name": "Szko\u0142a Podstawowa",
                "addr:postcode": "18-400",
                "addr:city": "Pniewo",
                "addr:street": "Akacjowa",
                "addr:housenumber": "1",
                "addr:teryt:simc": 400917,
                "addr:teryt:sym_ul": 157,
                "phone": "+48 862194851",
                "email": "hanka615@wp.pl",
                "ref:regon": "001118927",
                "ref:vatin": "PL7181770069",
                "operator": "Gmina \u0141om\u017ca",
                "operator:type": "government",
                "amenity": "school"
            }
        },
        {
            "id": 90342,
            "type": "Feature",
            "geometry": {
                "type": "Point",
                "coordinates": [
                    22.12929,
                    53.11019
                ]
            },
            "properties": {
                "isced:level": "1;2",
                "ref:rspo": 90342,
                "official_name": "Szko\u0142a Podstawowa w Podg\u00f3rzu im. Ks. Kardyna\u0142a Stefana Wyszy\u0144skiego",
                "name": "Szko\u0142a Podstawowa w Podg\u00f3rzu",
                "addr:postcode": "18-400",
                "addr:city": "Podg\u00f3rze",
                "addr:street": "Szkolna",
                "addr:housenumber": "1",
                "addr:teryt:simc": 400975,
                "addr:teryt:sym_ul": 21970,
                "phone": "+48 862178322",
                "email": "sppodgorze@poczta.onet.pl",
                "ref:regon": "001118815",
                "ref:vatin": "PL7181770098",
                "operator": "Gmina \u0141om\u017ca",
                "operator:type": "government",
                "amenity": "school"
            }
        },
        {
            "id": 111323,
            "type": "Feature",
            "geometry": {
                "type": "Point",
                "coordinates": [
                    22.04155,
                    53.13541
                ]
            },
            "properties": {
                "ref:rspo": 111323,
                "official_name": "Punkt Przedszkolny w Konarzycach",
                "name": "Punkt Przedszkolny w Konarzycach",
                "addr:postcode": "18-400",
                "addr:city": "Konarzyce",
                "addr:street": "\u0141om\u017cy\u0144ska",
                "addr:housenumber": "92",
                "addr:teryt:simc": 400780,
                "addr:teryt:sym_ul": 11659,
                "phone": "+48 862157524",
                "email": "spkonarzyce@gmail.com",
                "website": "http:\/\/www.spkonarzyce.szkolnastrona.pl",
                "ref:regon": "200763743",
                "operator": "Gmina \u0141om\u017ca",
                "operator:type": "government",
                "amenity": "kindergarten"
            }
        },
        {
            "id": 90339,
            "type": "Feature",
            "geometry": {
                "type": "Point",
                "coordinates": [
                    22.04578,
                    53.13749
                ]
            },
            "properties": {
                "isced:level": "1;2",
                "ref:rspo": 90339,
                "official_name": "Szko\u0142a Podstawowa im. Ppor.dh.jadwigi Dzieko\u0144skiej Ps.\"Jadzia\" w Konarzycach",
                "name": "Szko\u0142a Podstawowa",
                "addr:postcode": "18-400",
                "addr:city": "Konarzyce",
                "addr:street": "Szkolna",
                "addr:housenumber": "4",
                "addr:teryt:simc": 400780,
                "addr:teryt:sym_ul": 21970,
                "phone": "+48 862157524",
                "email": "sekretariat@spkonarzyce.edu.pl",
                "website": "http:\/\/www.spkonarzyce.szkolnastrona.pl",
                "ref:regon": "001118910",
                "ref:vatin": "PL7181770023",
                "operator": "Gmina \u0141om\u017ca",
                "operator:type": "government",
                "amenity": "school"
            }
        },
        {
            "id": 90348,
            "type": "Feature",
            "geometry": {
                "type": "Point",
                "coordinates": [
                    22.0036,
                    53.15454
                ]
            },
            "properties": {
                "isced:level": "1;2",
                "ref:rspo": 90348,
                "official_name": "Szko\u0142a Podstawowa w Jarnutach Im Papie\u017ca Jana Paw\u0142a Ii",
                "name": "Szko\u0142a Podstawowa w Jarnutach Im Papie\u017ca Jana Paw\u0142a Ii",
                "addr:postcode": "18-400",
                "addr:place": "Jarnuty",
                "addr:housenumber": "1",
                "addr:teryt:simc": 400716,
                "phone": "+48 862169185",
                "email": "jarnuty@poczta.fm",
                "website": "http:\/\/www.spjarnuty.szkolnastrona.pl",
                "ref:regon": "001118821",
                "ref:vatin": "PL7181770052",
                "operator": "Gmina \u0141om\u017ca",
                "operator:type": "government",
                "amenity": "school"
            }
        },
        {
            "id": 90332,
            "type": "Feature",
            "geometry": {
                "type": "Point",
                "coordinates": [
                    21.98594,
                    53.19733
                ]
            },
            "properties": {
                "isced:level": "1;2",
                "ref:rspo": 90332,
                "official_name": "Szko\u0142a Podstawowa im. Jana Paw\u0142a II w Kupiskach",
                "name": "Szko\u0142a Podstawowa",
                "addr:postcode": "18-400",
                "addr:place": "Nowe Kupiski",
                "addr:housenumber": "137",
                "addr:teryt:simc": 400892,
                "phone": "+48 862179113",
                "email": "sp@kupiski.webd.pl",
                "ref:regon": "001118904",
                "ref:vatin": "PL7181769273",
                "operator": "Gmina \u0141om\u017ca",
                "operator:type": "government",
                "amenity": "school"
            }
        },
        {
            "id": 111415,
            "type": "Feature",
            "geometry": {
                "type": "Point",
                "coordinates": [
                    21.98594,
                    53.1973
                ]
            },
            "properties": {
                "ref:rspo": 111415,
                "official_name": "Punkt Przedszkolny w Kupiskach",
                "name": "Punkt Przedszkolny w Kupiskach",
                "addr:postcode": "18-400",
                "addr:place": "Nowe Kupiski",
                "addr:housenumber": "137",
                "addr:teryt:simc": 400892,
                "phone": "+48 862179113",
                "ref:regon": "200768870",
                "operator": "Gmina \u0141om\u017ca",
                "operator:type": "government",
                "amenity": "kindergarten"
            }
        }
    ]
}