{
    "type": "FeatureCollection",
    "features": [
        {
            "id": 47762,
            "type": "Feature",
            "geometry": {
                "type": "Point",
                "coordinates": [
                    22.22447,
                    53.12808
                ]
            },
            "properties": {
                "isced:level": "1;2",
                "ref:rspo": 47762,
                "official_name": "Szko\u0142a Podstawowa w Rakowie-Boginiach",
                "name": "Szko\u0142a Podstawowa w Rakowie-Boginiach",
                "addr:country": "PL",
                "addr:postcode": "18-421",
                "addr:place": "Rakowo-Boginie",
                "addr:housenumber": "49",
                "addr:teryt:sym_ul": 403991,
                "contact:phone": "+48 862192079",
                "contact:email": "szkolawrakowie@interia.pl",
                "contact:website": "http:\/\/www.szkolawrakowie.pl\/",
                "ref:regon": "001120344",
                "ref:vatin": "PL7181779283",
                "operator": "Gmina Pi\u0105tnica",
                "operator:type": "government",
                "amenity": "school"
            }
        },
        {
            "id": 47766,
            "type": "Feature",
            "geometry": {
                "type": "Point",
                "coordinates": [
                    22.17468,
                    53.15076
                ]
            },
            "properties": {
                "isced:level": "1;2",
                "ref:rspo": 47766,
                "official_name": "Szko\u0142a Podstawowa w Drozdowie",
                "name": "Szko\u0142a Podstawowa w Drozdowie",
                "addr:country": "PL",
                "addr:postcode": "18-421",
                "addr:city": "Drozdowo",
                "addr:street": "ul. G\u0142\u00f3wna",
                "addr:housenumber": "15",
                "addr:teryt:simc": 5635,
                "addr:teryt:sym_ul": 403502,
                "contact:phone": "+48 862192022",
                "contact:email": "szkoladrozdowo@op.pl",
                "contact:website": "http:\/\/spdrozdowo.edupage.org\/",
                "ref:regon": "001120670",
                "ref:vatin": "PL7181773932",
                "operator": "Gmina Pi\u0105tnica",
                "operator:type": "government",
                "amenity": "school"
            }
        },
        {
            "id": 106472,
            "type": "Feature",
            "geometry": {
                "type": "Point",
                "coordinates": [
                    22.17468,
                    53.150729999999996
                ]
            },
            "properties": {
                "ref:rspo": 106472,
                "official_name": "Szkolne Schronisko M\u0142odzie\u017cowe w Drozdowie",
                "name": "Szkolne Schronisko M\u0142odzie\u017cowe w Drozdowie",
                "addr:country": "PL",
                "addr:postcode": "18-421",
                "addr:city": "Drozdowo",
                "addr:street": "ul. G\u0142\u00f3wna",
                "addr:housenumber": "15",
                "addr:teryt:simc": 5635,
                "addr:teryt:sym_ul": 403502,
                "contact:phone": "+48 862192020",
                "contact:email": "szkoladrozdowo@op.pl",
                "contact:website": "http:\/\/www.spdrozdowo.edupage.org",
                "ref:regon": "200755784",
                "ref:vatin": "PL7181773932",
                "operator": "Powiat \u0141om\u017cy\u0144ski",
                "operator:type": "government",
                "tourism": "hostel"
            }
        },
        {
            "id": 41199,
            "type": "Feature",
            "geometry": {
                "type": "Point",
                "coordinates": [
                    22.09606,
                    53.19453
                ]
            },
            "properties": {
                "ref:rspo": 41199,
                "official_name": "Zesp\u00f3\u0142 Szkolno-Przedszkolny w Pi\u0105tnicy",
                "name": "Zesp\u00f3\u0142 Szkolno-Przedszkolny w Pi\u0105tnicy",
                "addr:country": "PL",
                "addr:postcode": "18-421",
                "addr:city": "Pi\u0105tnica Poduchowna",
                "addr:street": "ul. Szkolna",
                "addr:housenumber": "29",
                "addr:teryt:simc": 21970,
                "addr:teryt:sym_ul": 403962,
                "contact:phone": "+48 862164590",
                "contact:email": "sekretariat@zszppiatnica.szkolnastrona.pl",
                "contact:website": "http:\/\/www.zszppiatnica.szkolnastrona.pl\/",
                "ref:regon": "450698331",
                "ref:vatin": "PL7181769899",
                "operator": "Gmina Pi\u0105tnica",
                "operator:type": "government",
                "landuse": "education",
                "fixme": "amenity=school, amenity=college albo landuse=education w zale\u017cno\u015bci od tego, jakie plac\u00f3wki wchodz\u0105 w sk\u0142ad zespo\u0142u. Sprawd\u017a, kiedy stosowa\u0107 amenity=* a kiedy landuse=education.",
                "note": "Children RSPO: 47767;47768"
            }
        },
        {
            "id": 47768,
            "type": "Feature",
            "geometry": {
                "type": "Point",
                "coordinates": [
                    22.09606,
                    53.1945
                ]
            },
            "properties": {
                "ref:rspo": 47768,
                "official_name": "Przedszkole Samorz\u0105dowe w Pi\u0105tnicy",
                "name": "Przedszkole Samorz\u0105dowe w Pi\u0105tnicy",
                "addr:country": "PL",
                "addr:postcode": "18-421",
                "addr:city": "Pi\u0105tnica Poduchowna",
                "addr:street": "ul. Szkolna",
                "addr:housenumber": "29",
                "addr:teryt:simc": 21970,
                "addr:teryt:sym_ul": 403962,
                "contact:phone": "+48 862164590",
                "contact:email": "sekretariat@zszppiatnica.szkolnastrona.pl",
                "contact:website": "http:\/\/www.zszppiatnica.szkolnastrona.pl\/",
                "ref:regon": "450009946",
                "ref:vatin": "PL7181769899",
                "operator": "Gmina Pi\u0105tnica",
                "operator:type": "government",
                "amenity": "kindergarten",
                "note": "Parent RSPO: 41199"
            }
        },
        {
            "id": 47767,
            "type": "Feature",
            "geometry": {
                "type": "Point",
                "coordinates": [
                    22.09537,
                    53.19466
                ]
            },
            "properties": {
                "isced:level": "1;2",
                "ref:rspo": 47767,
                "official_name": "Szko\u0142a Podstawowa im. Mjr. W\u0142. Raginisa w Pi\u0105tnicy",
                "name": "Szko\u0142a Podstawowa",
                "addr:country": "PL",
                "addr:postcode": "18-421",
                "addr:city": "Pi\u0105tnica Poduchowna",
                "addr:street": "ul. Szkolna",
                "addr:housenumber": "31",
                "addr:teryt:simc": 21970,
                "addr:teryt:sym_ul": 403962,
                "contact:phone": "+48 862164590",
                "contact:email": "sekretariat@zszppiatnica.szkolnastrona.pl",
                "contact:website": "http:\/\/www.zszppiatnica.szkolnastrona.pl\/",
                "ref:regon": "000270018",
                "ref:vatin": "PL7181769899",
                "operator": "Gmina Pi\u0105tnica",
                "operator:type": "government",
                "amenity": "school",
                "note": "Parent RSPO: 41199"
            }
        },
        {
            "id": 274040,
            "type": "Feature",
            "geometry": {
                "type": "Point",
                "coordinates": [
                    22.10034,
                    53.20205
                ]
            },
            "properties": {
                "ref:rspo": 274040,
                "official_name": "Centrum Szkolenia Ustawicznego Sagittarius",
                "name": "Centrum Szkolenia Ustawicznego Sagittarius",
                "addr:country": "PL",
                "addr:postcode": "18-421",
                "addr:city": "Pi\u0105tnica Poduchowna",
                "addr:street": "ul. Stawiskowska",
                "addr:housenumber": "57a",
                "addr:teryt:simc": 21093,
                "addr:teryt:sym_ul": 403962,
                "contact:email": "sagittarius.fundacja@gmail.com",
                "ref:regon": "385070597",
                "ref:vatin": "PL7182137434",
                "operator": "Fundacja \"Sagittarius\"",
                "operator:type": "ngo",
                "fixme": "w zale\u017cno\u015bci od przedmiotu dzia\u0142alno\u015bci (np. amenity=training + training=*, amenity=dancing_school, amenity=language_school, amenity=music_school)"
            }
        },
        {
            "id": 29546,
            "type": "Feature",
            "geometry": {
                "type": "Point",
                "coordinates": [
                    22.10316,
                    53.21065
                ]
            },
            "properties": {
                "ref:rspo": 29546,
                "official_name": "Zesp\u00f3\u0142 Szk\u00f3\u0142 Centrum Kszta\u0142cenia Rolniczego im. Chor. Jana Szyma\u0144skiego w Marianowie",
                "name": "Zesp\u00f3\u0142 Szk\u00f3\u0142 Centrum Kszta\u0142cenia Rolniczego",
                "addr:country": "PL",
                "addr:postcode": "18-421",
                "addr:place": "Marianowo",
                "addr:housenumber": "7",
                "addr:teryt:sym_ul": 403732,
                "contact:phone": "+48 862166611",
                "contact:email": "kontakt@zsmarianowo.pl",
                "contact:website": "http:\/\/www.marianowo.edupage.org",
                "ref:regon": "000098393",
                "ref:vatin": "PL7181103485",
                "operator": "Ministerstwo Rolnictwa I Rozwoju Wsi",
                "operator:type": "public",
                "landuse": "education",
                "fixme": "amenity=school, amenity=college albo landuse=education w zale\u017cno\u015bci od tego, jakie plac\u00f3wki wchodz\u0105 w sk\u0142ad zespo\u0142u. Sprawd\u017a, kiedy stosowa\u0107 amenity=* a kiedy landuse=education.",
                "note": "Children RSPO: 82492;82494;82498"
            }
        },
        {
            "id": 82492,
            "type": "Feature",
            "geometry": {
                "type": "Point",
                "coordinates": [
                    22.10316,
                    53.21062
                ]
            },
            "properties": {
                "isced:level": "3",
                "ref:rspo": 82492,
                "official_name": "Technikum w Marianowie",
                "name": "Technikum w Marianowie",
                "addr:country": "PL",
                "addr:postcode": "18-421",
                "addr:place": "Marianowo",
                "addr:housenumber": "7",
                "addr:teryt:sym_ul": 403732,
                "contact:phone": "+48 862166611",
                "contact:email": "kontakt@zsmarianowo.pl",
                "contact:website": "http:\/\/www.marianowo.edupage.org",
                "ref:regon": "451151741",
                "operator": "Ministerstwo Rolnictwa I Rozwoju Wsi",
                "operator:type": "public",
                "amenity": "school",
                "note": "Parent RSPO: 29546"
            }
        },
        {
            "id": 82494,
            "type": "Feature",
            "geometry": {
                "type": "Point",
                "coordinates": [
                    22.10316,
                    53.21059
                ]
            },
            "properties": {
                "isced:level": "3",
                "ref:rspo": 82494,
                "official_name": "Bran\u017cowa Szko\u0142a I Stopnia w Marianowie",
                "name": "Bran\u017cowa Szko\u0142a I Stopnia w Marianowie",
                "addr:country": "PL",
                "addr:postcode": "18-421",
                "addr:place": "Marianowo",
                "addr:housenumber": "7",
                "addr:teryt:sym_ul": 403732,
                "contact:phone": "+48 862166611",
                "contact:email": "kontakt@zsmarianowo.pl",
                "contact:website": "http:\/\/www.marianowo.edupage.org",
                "ref:regon": "451151770",
                "operator": "Ministerstwo Rolnictwa I Rozwoju Wsi",
                "operator:type": "public",
                "amenity": "school",
                "note": "Parent RSPO: 29546"
            }
        },
        {
            "id": 82498,
            "type": "Feature",
            "geometry": {
                "type": "Point",
                "coordinates": [
                    22.10316,
                    53.21056
                ]
            },
            "properties": {
                "ref:rspo": 82498,
                "official_name": "Centrum Kszta\u0142cenia Ustawicznego w Marianowie",
                "name": "Centrum Kszta\u0142cenia Ustawicznego w Marianowie",
                "addr:country": "PL",
                "addr:postcode": "18-421",
                "addr:place": "Marianowo",
                "addr:housenumber": "7",
                "addr:teryt:sym_ul": 403732,
                "contact:phone": "+48 862166611",
                "contact:email": "kontakt@zsmarianowo.pl",
                "contact:website": "http:\/\/www.marianowo.edupage.org",
                "ref:regon": "451203828",
                "operator": "Ministerstwo Rolnictwa I Rozwoju Wsi",
                "operator:type": "public",
                "fixme": "w zale\u017cno\u015bci od przedmiotu dzia\u0142alno\u015bci (np. amenity=training + training=*, amenity=dancing_school, amenity=language_school, amenity=music_school)",
                "note": "Parent RSPO: 29546"
            }
        },
        {
            "id": 47761,
            "type": "Feature",
            "geometry": {
                "type": "Point",
                "coordinates": [
                    22.15518,
                    53.21426
                ]
            },
            "properties": {
                "isced:level": "1;2",
                "ref:rspo": 47761,
                "official_name": "Szko\u0142a Podstawowa im. Ofiar Katynia w Jeziorku",
                "name": "Szko\u0142a Podstawowa",
                "addr:country": "PL",
                "addr:postcode": "18-421",
                "addr:city": "Jeziorko",
                "addr:street": "ul. D\u0142uga",
                "addr:housenumber": "49",
                "addr:teryt:simc": 3839,
                "addr:teryt:sym_ul": 403608,
                "contact:phone": "+48 862191328",
                "contact:email": "spjeziorko42@wp.pl",
                "contact:website": "http:\/\/spjeziorko42.szkolnastrona.pl\/",
                "ref:regon": "001120284",
                "ref:vatin": "PL7181781742",
                "operator": "Gmina Pi\u0105tnica",
                "operator:type": "government",
                "amenity": "school"
            }
        },
        {
            "id": 47765,
            "type": "Feature",
            "geometry": {
                "type": "Point",
                "coordinates": [
                    22.2494,
                    53.2161199
                ]
            },
            "properties": {
                "isced:level": "1;2",
                "ref:rspo": 47765,
                "official_name": "Szko\u0142a Podstawowa im. Zes\u0142a\u0144c\u00f3w Sybiru w Olszynach",
                "name": "Szko\u0142a Podstawowa",
                "addr:country": "PL",
                "addr:postcode": "18-421",
                "addr:city": "Olszyny",
                "addr:street": "ul. Wi\u015bniowa",
                "addr:housenumber": "19",
                "addr:teryt:simc": 24412,
                "addr:teryt:sym_ul": 403910,
                "contact:phone": "+48 862191722",
                "contact:email": "szkolaolszyny19@gmail.com",
                "contact:website": "https:\/\/spolszyny.gminapiatnica.pl\/",
                "ref:regon": "001120350",
                "ref:vatin": "PL7181782196",
                "operator": "Gmina Pi\u0105tnica",
                "operator:type": "government",
                "amenity": "school"
            }
        },
        {
            "id": 47764,
            "type": "Feature",
            "geometry": {
                "type": "Point",
                "coordinates": [
                    22.1178,
                    53.24706
                ]
            },
            "properties": {
                "isced:level": "1;2",
                "ref:rspo": 47764,
                "official_name": "Szko\u0142a Podstawowa w Kisielnicy",
                "name": "Szko\u0142a Podstawowa w Kisielnicy",
                "addr:country": "PL",
                "addr:postcode": "18-421",
                "addr:place": "Kisielnica",
                "addr:housenumber": "1",
                "addr:teryt:sym_ul": 403650,
                "contact:phone": "+48 862191877",
                "contact:email": "spkisielnica@gmail.com",
                "contact:website": "http:\/\/spkisielnica.lomza.pl",
                "ref:regon": "001120663",
                "ref:vatin": "PL7181782380",
                "operator": "Gmina Pi\u0105tnica",
                "operator:type": "government",
                "amenity": "school"
            }
        },
        {
            "id": 47760,
            "type": "Feature",
            "geometry": {
                "type": "Point",
                "coordinates": [
                    22.19453,
                    53.2724199
                ]
            },
            "properties": {
                "isced:level": "1;2",
                "ref:rspo": 47760,
                "official_name": "Szko\u0142a Podstawowa w Dobrzyja\u0142owie",
                "name": "Szko\u0142a Podstawowa w Dobrzyja\u0142owie",
                "addr:country": "PL",
                "addr:postcode": "18-421",
                "addr:city": "Dobrzyja\u0142owo",
                "addr:street": "ul. Zdrojowa",
                "addr:housenumber": "1",
                "addr:teryt:simc": 25944,
                "addr:teryt:sym_ul": 403494,
                "contact:phone": "+48 862191728",
                "contact:email": "dobrzyjalowo.sp@interia.pl",
                "contact:website": "http:\/\/sp.dobrzyjalowo.w.interia.pl\/",
                "ref:regon": "001120309",
                "ref:vatin": "PL7181777798",
                "operator": "Gmina Pi\u0105tnica",
                "operator:type": "government",
                "amenity": "school"
            }
        }
    ]
}