{
    "type": "FeatureCollection",
    "features": [
        {
            "id": 7930,
            "type": "Feature",
            "geometry": {
                "type": "Point",
                "coordinates": [
                    22.29253,
                    53.1904899
                ]
            },
            "properties": {
                "isced:level": "1;2",
                "ref:rspo": 7930,
                "official_name": "Publiczna Szko\u0142a Podstawowa w Starym Bo\u017cejewie",
                "name": "Publiczna Szko\u0142a Podstawowa w Starym Bo\u017cejewie",
                "addr:postcode": "18-430",
                "addr:place": "Stare Bo\u017cejewo",
                "addr:housenumber": "37",
                "addr:teryt:simc": 410034,
                "phone": "+48 862177125",
                "email": "szkolabozejewo@wp.pl",
                "ref:regon": "200724080",
                "ref:vatin": "PL7181729859",
                "operator": "Spo\u0142eczno - O\u015bwiatowe Stowarzyszenie Pomocy Pokrzywdzonym I Niepe\u0142nosprawnym \"Edukator\"",
                "operator:type": "ngo",
                "amenity": "school"
            }
        },
        {
            "id": 83902,
            "type": "Feature",
            "geometry": {
                "type": "Point",
                "coordinates": [
                    22.3863999,
                    53.19196
                ]
            },
            "properties": {
                "ref:rspo": 83902,
                "official_name": "Szkolne Schronisko M\u0142odzie\u017cowe w Wi\u017anie",
                "name": "Szkolne Schronisko M\u0142odzie\u017cowe w Wi\u017anie",
                "addr:postcode": "18-430",
                "addr:city": "Wizna",
                "addr:street": "Plac Kapitana W\u0142adys\u0142awa Raginisa",
                "addr:housenumber": "12",
                "addr:teryt:simc": 410086,
                "addr:teryt:sym_ul": 18387,
                "phone": "+48 668679772",
                "email": "dyrektor@spwizna.pl",
                "ref:regon": "200742209",
                "ref:vatin": "PL7182137144",
                "operator": "Powiat \u0141om\u017cy\u0144ski",
                "operator:type": "government",
                "tourism": "hostel"
            }
        },
        {
            "id": 272442,
            "type": "Feature",
            "geometry": {
                "type": "Point",
                "coordinates": [
                    22.3863999,
                    53.19193
                ]
            },
            "properties": {
                "ref:rspo": 272442,
                "official_name": "Zesp\u00f3\u0142 Szkolno-Przedszkolny w Wi\u017anie",
                "name": "Zesp\u00f3\u0142 Szkolno-Przedszkolny w Wi\u017anie",
                "addr:postcode": "18-430",
                "addr:city": "Wizna",
                "addr:street": "Plac Kapitana W\u0142adys\u0142awa Raginisa",
                "addr:housenumber": "12",
                "addr:teryt:simc": 410086,
                "addr:teryt:sym_ul": 18387,
                "phone": "+48 862196438",
                "email": "sekretariat@spwizna.pl",
                "ref:regon": "384178499",
                "operator": "Gmina Wizna",
                "operator:type": "government",
                "landuse": "education",
                "fixme": "amenity=school, amenity=college albo landuse=education w zale\u017cno\u015bci od tego, jakie plac\u00f3wki wchodz\u0105 w sk\u0142ad zespo\u0142u. Sprawd\u017a, kiedy stosowa\u0107 amenity=* a kiedy landuse=education.",
                "note": "Children RSPO: 44631;272439"
            }
        },
        {
            "id": 44631,
            "type": "Feature",
            "geometry": {
                "type": "Point",
                "coordinates": [
                    22.3863999,
                    53.191900000000004
                ]
            },
            "properties": {
                "isced:level": "1;2",
                "ref:rspo": 44631,
                "official_name": "Szko\u0142a Podstawowa im. Obro\u0144c\u00f3w Wizny w Wi\u017anie",
                "name": "Szko\u0142a Podstawowa",
                "addr:postcode": "18-430",
                "addr:city": "Wizna",
                "addr:street": "Plac Kapitana W\u0142adys\u0142awa Raginisa",
                "addr:housenumber": "12",
                "addr:teryt:simc": 410086,
                "addr:teryt:sym_ul": 18387,
                "phone": "+48 668679772",
                "email": "sekretariat@spwizna.pl",
                "website": "http:\/\/www.szkola.spwizna.pl",
                "ref:regon": "000273531",
                "ref:vatin": "PL7182137144",
                "operator": "Gmina Wizna",
                "operator:type": "government",
                "amenity": "school",
                "note": "Parent RSPO: 272442"
            }
        },
        {
            "id": 272439,
            "type": "Feature",
            "geometry": {
                "type": "Point",
                "coordinates": [
                    22.3844299,
                    53.19251
                ]
            },
            "properties": {
                "ref:rspo": 272439,
                "official_name": "Publiczne Przedszkole w Wi\u017anie",
                "name": "Publiczne Przedszkole w Wi\u017anie",
                "addr:postcode": "18-430",
                "addr:city": "Wizna",
                "addr:street": "Plac Kapitana W\u0142adys\u0142awa Raginisa",
                "addr:housenumber": "25",
                "addr:teryt:simc": 410086,
                "addr:teryt:sym_ul": 18387,
                "phone": "+48 862196438",
                "email": "sekretariat@spwizna.pl",
                "ref:regon": "384178447",
                "operator": "Gmina Wizna",
                "operator:type": "government",
                "amenity": "kindergarten",
                "note": "Parent RSPO: 272442"
            }
        },
        {
            "id": 40677,
            "type": "Feature",
            "geometry": {
                "type": "Point",
                "coordinates": [
                    22.34565,
                    53.21449
                ]
            },
            "properties": {
                "isced:level": "1;2",
                "ref:rspo": 40677,
                "official_name": "Szko\u0142a Podstawowa",
                "name": "Szko\u0142a Podstawowa",
                "addr:postcode": "18-430",
                "addr:place": "Rutki",
                "addr:housenumber": "2",
                "addr:teryt:simc": 409930,
                "phone": "+48 864720518",
                "email": "bozejewo@wp.pl",
                "ref:regon": "001129279",
                "operator": "Gmina Wizna",
                "operator:type": "government",
                "amenity": "school"
            }
        }
    ]
}