{
    "type": "FeatureCollection",
    "features": [
        {
            "id": 57323,
            "type": "Feature",
            "geometry": {
                "type": "Point",
                "coordinates": [
                    21.78972,
                    53.24208
                ]
            },
            "properties": {
                "isced:level": "1;2",
                "ref:rspo": 57323,
                "official_name": "Szko\u0142a Podstawowa im.marii Konopnickiej w Zb\u00f3jnej",
                "name": "Szko\u0142a Podstawowa im.marii Konopnickiej w Zb\u00f3jnej",
                "addr:country": "PL",
                "addr:postcode": "18-416",
                "addr:city": "Zb\u00f3jna",
                "addr:street": "ul. \u0141om\u017cy\u0144ska",
                "addr:housenumber": "35",
                "addr:teryt:simc": 11659,
                "addr:teryt:sym_ul": 412659,
                "contact:phone": "+48 862140185",
                "contact:email": "spzbojna@op.pl",
                "contact:website": "http:\/\/www.sp-zbojna.pl",
                "ref:regon": "000272840",
                "ref:vatin": "PL7181782210",
                "operator": "Gmina Zb\u00f3jna",
                "operator:type": "government",
                "amenity": "school"
            }
        },
        {
            "id": 60861,
            "type": "Feature",
            "geometry": {
                "type": "Point",
                "coordinates": [
                    21.8644399,
                    53.28329
                ]
            },
            "properties": {
                "isced:level": "1;2",
                "ref:rspo": 60861,
                "official_name": "Szko\u0142a Podstawowa w Dobrym Lesie",
                "name": "Szko\u0142a Podstawowa w Dobrym Lesie",
                "addr:country": "PL",
                "addr:postcode": "18-416",
                "addr:place": "Dobry Las",
                "addr:housenumber": "65",
                "addr:teryt:sym_ul": 412228,
                "contact:phone": "+48 862140205",
                "contact:email": "spdobrylas@o2.pl",
                "ref:regon": "001128624",
                "ref:vatin": "PL7181783729",
                "operator": "Gmina Zb\u00f3jna",
                "operator:type": "government",
                "amenity": "school"
            }
        },
        {
            "id": 60090,
            "type": "Feature",
            "geometry": {
                "type": "Point",
                "coordinates": [
                    21.67889,
                    53.30381
                ]
            },
            "properties": {
                "isced:level": "1;2",
                "ref:rspo": 60090,
                "official_name": "Szko\u0142a Podstawowa im.janusza Korczaka w Kuziach",
                "name": "Szko\u0142a Podstawowa im.janusza Korczaka w Kuziach",
                "addr:country": "PL",
                "addr:postcode": "18-416",
                "addr:place": "Kuzie",
                "addr:housenumber": "34",
                "addr:teryt:sym_ul": 412375,
                "contact:phone": "+48 862141186",
                "contact:email": "spkuzie@op.pl",
                "contact:website": "http:\/\/www.spkuzie.edupage.org",
                "ref:regon": "001128630",
                "ref:vatin": "PL7181782173",
                "operator": "Gmina Zb\u00f3jna",
                "operator:type": "government",
                "amenity": "school"
            }
        }
    ]
}