{"type":"FeatureCollection","features":[{"id":44036,"type":"Feature","geometry":{"type":"Point","coordinates":[16.1648,51.95672]},"properties":{"isced:level":"3","ref:rspo":44036,"official_name":"Bran\u017cowa Szko\u0142a I Stopnia","name":"Bran\u017cowa Szko\u0142a I Stopnia","addr:country":"PL","addr:postcode":"64-234","addr:city":"Przem\u0119t","addr:street":"ul. Powsta\u0144c\u00f3w Wielkopolskich","addr:housenumber":"1","addr:teryt:simc":17377,"addr:teryt:sym_ul":375527,"contact:phone":"+48 655496010","contact:email":"sekretariat_pp@szkola-przemet.pl","contact:website":"http:\/\/www.szkola-przemet.pl","ref:regon":"411492485","operator":"Gmina Przem\u0119t","operator:type":"government","amenity":"school","note":"Parent RSPO: 34435"}},{"id":44491,"type":"Feature","geometry":{"type":"Point","coordinates":[16.1648,51.956689999999995]},"properties":{"isced:level":"3","ref:rspo":44491,"official_name":"Technikum Ekonomiczne","name":"Technikum Ekonomiczne","addr:country":"PL","addr:postcode":"64-234","addr:city":"Przem\u0119t","addr:street":"ul. Powsta\u0144c\u00f3w Wielkopolskich","addr:housenumber":"1","addr:teryt:simc":17377,"addr:teryt:sym_ul":375527,"contact:phone":"+48 655496010","contact:email":"sekretariat_pp@szkola-przemet.pl","contact:website":"http:\/\/www.szkola-przemet.pl","ref:regon":"411492500","operator":"Gmina Przem\u0119t","operator:type":"government","amenity":"school","note":"Parent RSPO: 34435"}},{"id":44493,"type":"Feature","geometry":{"type":"Point","coordinates":[16.1648,51.95666]},"properties":{"isced:level":"3","ref:rspo":44493,"official_name":"Liceum Og\u00f3lnokszta\u0142c\u0105ce","name":"Liceum Og\u00f3lnokszta\u0142c\u0105ce","addr:country":"PL","addr:postcode":"64-234","addr:city":"Przem\u0119t","addr:street":"ul. Powsta\u0144c\u00f3w Wielkopolskich","addr:housenumber":"1","addr:teryt:simc":17377,"addr:teryt:sym_ul":375527,"contact:phone":"+48 655496010","contact:email":"sekretariat_pp@szkola-przemet.pl","contact:website":"http:\/\/www.szkola-przemet.pl","ref:regon":"301175643","operator":"Gmina Przem\u0119t","operator:type":"government","amenity":"school","note":"Parent RSPO: 34435"}},{"id":42783,"type":"Feature","geometry":{"type":"Point","coordinates":[16.16189,51.95785]},"properties":{"ref:rspo":42783,"official_name":"Zesp\u00f3\u0142 Szko\u0142a Podstawowa I Przedszkole Samorz\u0105dowe Z Oddzia\u0142em Integracyjnym w Kaszczorze","name":"Zesp\u00f3\u0142 Szko\u0142a Podstawowa I Przedszkole Samorz\u0105dowe Z Oddzia\u0142em Integracyjnym w Kaszczorze","addr:country":"PL","addr:postcode":"64-234","addr:city":"Kaszczor","addr:street":"ul. Cysterska","addr:housenumber":"9","addr:teryt:simc":3204,"addr:teryt:sym_ul":375384,"contact:phone":"+48 655499020","contact:email":"kaszczor@edu.mail.pl","contact:website":"http:\/\/www.zskaszczor.edupage.org","ref:regon":"411128609","ref:vatin":"PL9231535438","operator":"Gmina Przem\u0119t","operator:type":"government","landuse":"education","fixme":"amenity=school, amenity=college albo landuse=education w zale\u017cno\u015bci od tego, jakie plac\u00f3wki wchodz\u0105 w sk\u0142ad zespo\u0142u. Sprawd\u017a, kiedy stosowa\u0107 amenity=* a kiedy landuse=education.","note":"Children RSPO: 55453;55601"}},{"id":55453,"type":"Feature","geometry":{"type":"Point","coordinates":[16.16189,51.95782]},"properties":{"ref:rspo":55453,"official_name":"Przedszkole Samorz\u0105dowe Z Oddzia\u0142em Integracyjnym w Kaszczorze","name":"Przedszkole Samorz\u0105dowe Z Oddzia\u0142em Integracyjnym w Kaszczorze","addr:country":"PL","addr:postcode":"64-234","addr:city":"Kaszczor","addr:street":"ul. Cysterska","addr:housenumber":"9","addr:teryt:simc":3204,"addr:teryt:sym_ul":375384,"contact:phone":"+48 655499020","contact:email":"kaszczor@edu.mail.pl","contact:website":"http:\/\/www.kaszczor.edupage.org","ref:regon":"411559195","operator":"Gmina Przem\u0119t","operator:type":"government","amenity":"kindergarten","note":"Parent RSPO: 42783"}},{"id":55601,"type":"Feature","geometry":{"type":"Point","coordinates":[16.16189,51.95779]},"properties":{"isced:level":"1;2","ref:rspo":55601,"official_name":"Szko\u0142a Podstawowa im. Marcina Ro\u017cka w Kaszczorze","name":"Szko\u0142a Podstawowa","addr:country":"PL","addr:postcode":"64-234","addr:city":"Kaszczor","addr:street":"ul. Cysterska","addr:housenumber":"9","addr:teryt:simc":3204,"addr:teryt:sym_ul":375384,"contact:phone":"+48 667707034","contact:email":"kaszczor@edu.mail.pl","contact:website":"http:\/\/zskaszczor.edupage.org","ref:regon":"001117891","operator":"Gmina Przem\u0119t","operator:type":"government","amenity":"school","note":"Parent RSPO: 42783"}},{"id":124049,"type":"Feature","geometry":{"type":"Point","coordinates":[16.30819,51.97896]},"properties":{"ref:rspo":124049,"official_name":"Zesp\u00f3\u0142 Szkolno-Przedszkolny w Starkowie","name":"Zesp\u00f3\u0142 Szkolno-Przedszkolny w Starkowie","addr:country":"PL","addr:postcode":"64-234","addr:place":"Starkowo","addr:housenumber":"94","addr:teryt:sym_ul":375668,"contact:phone":"+48 655496045","contact:email":"starkowo6@wp.pl","contact:website":"http:\/\/szkola-starkowo.eu\/","ref:regon":"302252618","ref:vatin":"PL9231593217","operator":"Stowarzyszenie Gospodarczo - Edukacyjne \"Przyjaciele Szko\u0142y\"","operator:type":"ngo","landuse":"education","fixme":"amenity=school, amenity=college albo landuse=education w zale\u017cno\u015bci od tego, jakie plac\u00f3wki wchodz\u0105 w sk\u0142ad zespo\u0142u. Sprawd\u017a, kiedy stosowa\u0107 amenity=* a kiedy landuse=education.","note":"Children RSPO: 124250;124253"}},{"id":124250,"type":"Feature","geometry":{"type":"Point","coordinates":[16.30819,51.97893]},"properties":{"isced:level":"1;2","ref:rspo":124250,"official_name":"Niepubliczna Szko\u0142a Podstawowa w Starkowie","name":"Niepubliczna Szko\u0142a Podstawowa w Starkowie","addr:country":"PL","addr:postcode":"64-234","addr:place":"Starkowo","addr:housenumber":"94","addr:teryt:sym_ul":375668,"contact:phone":"+48 655496045","contact:email":"starkowo6@wp.pl","contact:website":"http:\/\/szkola-starkowo.eu","ref:regon":"302803567","operator":"Stowarzyszenie Gospodarczo - Edukacyjne \"Przyjaciele Szko\u0142y\"","operator:type":"ngo","amenity":"school","note":"Parent RSPO: 124049"}},{"id":124253,"type":"Feature","geometry":{"type":"Point","coordinates":[16.30819,51.9789]},"properties":{"ref:rspo":124253,"official_name":"Niepubliczne Przedszkole w Starkowie","name":"Niepubliczne Przedszkole w Starkowie","addr:country":"PL","addr:postcode":"64-234","addr:place":"Starkowo","addr:housenumber":"94","addr:teryt:sym_ul":375668,"contact:phone":"+48 655496045","contact:email":"starkowo6@wp.pl","contact:website":"http:\/\/szkola-starkowo.eu","ref:regon":"302803573","operator":"Stowarzyszenie Gospodarczo - Edukacyjne \"Przyjaciele Szko\u0142y\"","operator:type":"ngo","amenity":"kindergarten","note":"Parent RSPO: 124049"}},{"id":118725,"type":"Feature","geometry":{"type":"Point","coordinates":[16.28418,51.98346]},"properties":{"ref:rspo":118725,"official_name":"Zesp\u00f3\u0142 Szkolno-Przedszkolny Z Oddzia\u0142ami Integracyjnymi w Radomierzu","name":"Zesp\u00f3\u0142 Szkolno-Przedszkolny Z Oddzia\u0142ami Integracyjnymi w Radomierzu","addr:country":"PL","addr:postcode":"64-234","addr:city":"Radomierz","addr:street":"ul. S\u0142oneczna","addr:housenumber":"8","addr:teryt:simc":20254,"addr:teryt:sym_ul":375540,"contact:phone":"+48 655405089","contact:email":"sp_radomierz@interia.eu","contact:website":"http:\/\/www.zspradomierz.superszkolna.pl","ref:regon":"302500281","operator":"Stowarzyszenie Przyjaci\u00f3\u0142 Zespo\u0142u Szkolno-Przedszkolnego W Radomierzu","operator:type":"ngo","landuse":"education","fixme":"amenity=school, amenity=college albo landuse=education w zale\u017cno\u015bci od tego, jakie plac\u00f3wki wchodz\u0105 w sk\u0142ad zespo\u0142u. Sprawd\u017a, kiedy stosowa\u0107 amenity=* a kiedy landuse=education.","note":"Children RSPO: 119471;119480"}},{"id":119471,"type":"Feature","geometry":{"type":"Point","coordinates":[16.28418,51.98343]},"properties":{"ref:rspo":119471,"official_name":"Niepubliczne Przedszkole Z Oddzia\u0142em Integracyjnym w Radomierzu","name":"Niepubliczne Przedszkole Z Oddzia\u0142em Integracyjnym w Radomierzu","addr:country":"PL","addr:postcode":"64-234","addr:city":"Radomierz","addr:street":"ul. S\u0142oneczna","addr:housenumber":"8","addr:teryt:simc":20254,"addr:teryt:sym_ul":375540,"contact:phone":"+48 655405089","contact:email":"sp_radomierz@interia.eu","contact:website":"http:\/\/www.zspradomierz.superszkolna.pl","ref:regon":"302518105","operator":"Stowarzyszenie Przyjaci\u00f3\u0142 Zespo\u0142u Szkolno-Przedszkolnego W Radomierzu","operator:type":"ngo","amenity":"kindergarten","note":"Parent RSPO: 118725"}},{"id":119480,"type":"Feature","geometry":{"type":"Point","coordinates":[16.28418,51.9834]},"properties":{"isced:level":"1;2","ref:rspo":119480,"official_name":"Niepubliczna Szko\u0142a Podstawowa Z Oddzia\u0142ami Integracyjnymi w Radomierzu","name":"Niepubliczna Szko\u0142a Podstawowa Z Oddzia\u0142ami Integracyjnymi w Radomierzu","addr:country":"PL","addr:postcode":"64-234","addr:city":"Radomierz","addr:street":"ul. S\u0142oneczna","addr:housenumber":"8","addr:teryt:simc":20254,"addr:teryt:sym_ul":375540,"contact:phone":"+48 655405089","contact:email":"sp_radomierz@interia.eu","contact:website":"http:\/\/zspradomierz.superszkolna.pl","ref:regon":"302518619","operator":"Stowarzyszenie Przyjaci\u00f3\u0142 Zespo\u0142u Szkolno-Przedszkolnego W Radomierzu","operator:type":"ngo","amenity":"school","note":"Parent RSPO: 118725"}},{"id":34435,"type":"Feature","geometry":{"type":"Point","coordinates":[16.29607,51.99425]},"properties":{"ref:rspo":34435,"official_name":"Zesp\u00f3\u0142 Szk\u00f3\u0142 w Przem\u0119cie","name":"Zesp\u00f3\u0142 Szk\u00f3\u0142 w Przem\u0119cie","addr:country":"PL","addr:postcode":"64-234","addr:city":"Przem\u0119t","addr:street":"ul. Szkolna","addr:housenumber":"1","addr:teryt:simc":21970,"addr:teryt:sym_ul":375527,"contact:phone":"+48 655496004","contact:email":"sekretariat_sp@szkola-przemet.pl","contact:website":"http:\/\/www.szkola-przemet.pl","ref:regon":"411128970","ref:vatin":"PL9231530553","operator":"Gmina Przem\u0119t","operator:type":"government","landuse":"education","fixme":"amenity=school, amenity=college albo landuse=education w zale\u017cno\u015bci od tego, jakie plac\u00f3wki wchodz\u0105 w sk\u0142ad zespo\u0142u. Sprawd\u017a, kiedy stosowa\u0107 amenity=* a kiedy landuse=education.","note":"Children RSPO: 44036;44491;44493;47962"}},{"id":47962,"type":"Feature","geometry":{"type":"Point","coordinates":[16.29607,51.99422]},"properties":{"isced:level":"1;2","ref:rspo":47962,"official_name":"Szko\u0142a Podstawowa im. Powsta\u0144c\u00f3w Wielkopolskich w Przem\u0119cie","name":"Szko\u0142a Podstawowa","addr:country":"PL","addr:postcode":"64-234","addr:city":"Przem\u0119t","addr:street":"ul. Szkolna","addr:housenumber":"1","addr:teryt:simc":21970,"addr:teryt:sym_ul":375527,"contact:phone":"+48 655496004","contact:email":"sekretariat_sp@szkola-przemet.pl","ref:regon":"000265626","operator":"Gmina Przem\u0119t","operator:type":"government","amenity":"school","note":"Parent RSPO: 34435"}},{"id":55902,"type":"Feature","geometry":{"type":"Point","coordinates":[16.17017,51.99958]},"properties":{"isced:level":"1;2","ref:rspo":55902,"official_name":"Szko\u0142a Podstawowa im. Jana Paw\u0142a II w Mochach","name":"Szko\u0142a Podstawowa","addr:country":"PL","addr:postcode":"64-234","addr:city":"Mochy","addr:street":"ul. Szkolna","addr:housenumber":"7","addr:teryt:simc":21970,"addr:teryt:sym_ul":375409,"contact:phone":"+48 655490023","contact:email":"sekretariat@spmochy.pl","contact:website":"http:\/\/www.mochy.bior.pl","ref:regon":"001117879","ref:vatin":"PL9231535496","operator":"Gmina Przem\u0119t","operator:type":"government","amenity":"school"}},{"id":44670,"type":"Feature","geometry":{"type":"Point","coordinates":[16.37916,52.00182]},"properties":{"isced:level":"1;2","ref:rspo":44670,"official_name":"Szko\u0142a Podstawowa im. Edwarda Tomi\u0144skiego w Buczu","name":"Szko\u0142a Podstawowa","addr:country":"PL","addr:postcode":"64-234","addr:city":"Bucz","addr:street":"ul. Kasztanowa","addr:housenumber":"8","addr:teryt:simc":8171,"addr:teryt:sym_ul":375326,"contact:phone":"+48 655498121","contact:email":"info@zsbucz.pl","contact:website":"http:\/\/www.spbucz.pl","ref:regon":"001117885","ref:vatin":"PL9231531630","operator":"Gmina Przem\u0119t","operator:type":"government","amenity":"school"}},{"id":31515,"type":"Feature","geometry":{"type":"Point","coordinates":[16.17008,52.00344]},"properties":{"ref:rspo":31515,"official_name":"Przedszkole Samorz\u0105dowe Z Oddzia\u0142em Integracyjnym w Mochach","name":"Przedszkole Samorz\u0105dowe Z Oddzia\u0142em Integracyjnym w Mochach","addr:country":"PL","addr:postcode":"64-234","addr:city":"Mochy","addr:street":"ul. Wolszty\u0144ska","addr:housenumber":"10","addr:teryt:simc":24704,"addr:teryt:sym_ul":375409,"contact:phone":"+48 655490088","contact:email":"przedszkolemochy@wp.pl","contact:website":"http:\/\/www.mochy.bior.pl","ref:regon":"411559108","ref:vatin":"PL9231609332","operator":"Gmina Przem\u0119t","operator:type":"government","amenity":"kindergarten"}},{"id":42781,"type":"Feature","geometry":{"type":"Point","coordinates":[16.38294,52.00447]},"properties":{"ref:rspo":42781,"official_name":"Przedszkole Samorz\u0105dowe Z Oddzia\u0142em Integracyjnym w Buczu","name":"Przedszkole Samorz\u0105dowe Z Oddzia\u0142em Integracyjnym w Buczu","addr:country":"PL","addr:postcode":"64-234","addr:city":"Bucz","addr:street":"ul. Akacjowa","addr:housenumber":"4","addr:teryt:simc":157,"addr:teryt:sym_ul":375326,"contact:phone":"+48 655498169","contact:email":"przedszkolebucz@wp.pl","contact:website":"http:\/\/www.przedszkole.bucz.pl","ref:regon":"411559090","ref:vatin":"PL9231609326","operator":"Gmina Przem\u0119t","operator:type":"government","amenity":"kindergarten"}},{"id":42784,"type":"Feature","geometry":{"type":"Point","coordinates":[16.30029,52.0077]},"properties":{"ref:rspo":42784,"official_name":"Przedszkole Samorz\u0105dowe w Przem\u0119cie","name":"Przedszkole Samorz\u0105dowe w Przem\u0119cie","addr:country":"PL","addr:postcode":"64-234","addr:city":"Przem\u0119t","addr:street":"ul. Jagiello\u0144ska","addr:housenumber":"2","addr:teryt:simc":7029,"addr:teryt:sym_ul":375527,"contact:phone":"+48 655496089","contact:email":"przedszkoleprzemet@poczta.fm","contact:website":"http:\/\/www.przedszkole.przemet.pl","ref:regon":"411559210","ref:vatin":"PL9231609349","operator":"Gmina Przem\u0119t","operator:type":"government","amenity":"kindergarten"}},{"id":31534,"type":"Feature","geometry":{"type":"Point","coordinates":[16.21963,52.01196]},"properties":{"ref:rspo":31534,"official_name":"Przedszkole Samorz\u0105dowe w Nowej Wsi","name":"Przedszkole Samorz\u0105dowe w Nowej Wsi","addr:country":"PL","addr:postcode":"64-234","addr:city":"Nowa Wie\u015b","addr:street":"ul. Przem\u0119cka","addr:housenumber":"22","addr:teryt:simc":17727,"addr:teryt:sym_ul":375444,"contact:phone":"+48 655490123","contact:email":"przedszkolenowawies@op.pl","contact:website":"http:\/\/www.psnowawies.szkolnastrona.pl","ref:regon":"411559083","ref:vatin":"PL9231609303","operator":"Gmina Przem\u0119t","operator:type":"government","amenity":"kindergarten"}},{"id":42782,"type":"Feature","geometry":{"type":"Point","coordinates":[16.3775799,52.03233]},"properties":{"ref:rspo":42782,"official_name":"Zesp\u00f3\u0142 Szkolno - Przedszkolny w Kluczewie","name":"Zesp\u00f3\u0142 Szkolno - Przedszkolny w Kluczewie","addr:country":"PL","addr:postcode":"64-234","addr:city":"Kluczewo","addr:street":"ul. Szkolna","addr:housenumber":"19","addr:teryt:simc":21970,"addr:teryt:sym_ul":375390,"contact:phone":"+48 655498115","contact:email":"sp.kluczewo@interia.pl","contact:website":"http:\/\/www.kluczewo.edupage.org","ref:regon":"300240077","ref:vatin":"PL9231627488","operator":"Gmina Przem\u0119t","operator:type":"government","landuse":"education","fixme":"amenity=school, amenity=college albo landuse=education w zale\u017cno\u015bci od tego, jakie plac\u00f3wki wchodz\u0105 w sk\u0142ad zespo\u0142u. Sprawd\u017a, kiedy stosowa\u0107 amenity=* a kiedy landuse=education.","note":"Children RSPO: 54237;55455"}},{"id":55455,"type":"Feature","geometry":{"type":"Point","coordinates":[16.3775799,52.0323]},"properties":{"isced:level":"1;2","ref:rspo":55455,"official_name":"Szko\u0142a Podstawowa w Kluczewie","name":"Szko\u0142a Podstawowa w Kluczewie","addr:country":"PL","addr:postcode":"64-234","addr:city":"Kluczewo","addr:street":"ul. Szkolna","addr:housenumber":"19","addr:teryt:simc":21970,"addr:teryt:sym_ul":375390,"contact:phone":"+48 655498115","contact:email":"sp.kluczewo@interia.pl","contact:website":"http:\/\/www.kluczewo.edupage.org","ref:regon":"001202390","operator":"Gmina Przem\u0119t","operator:type":"government","amenity":"school","note":"Parent RSPO: 42782"}},{"id":54237,"type":"Feature","geometry":{"type":"Point","coordinates":[16.34822,52.04695]},"properties":{"ref:rspo":54237,"official_name":"Przedszkole Samorz\u0105dowe w Siekowie","name":"Przedszkole Samorz\u0105dowe w Siekowie","addr:country":"PL","addr:postcode":"64-234","addr:place":"Siekowo","addr:housenumber":"1","addr:teryt:sym_ul":375562,"contact:phone":"+48 655498115","contact:email":"sp.kluczewo@interia.pl","ref:regon":"300116756","operator":"Gmina Przem\u0119t","operator:type":"government","amenity":"kindergarten","note":"Parent RSPO: 42782"}}]}