{"type":"FeatureCollection","features":[{"id":67776,"type":"Feature","geometry":{"type":"Point","coordinates":[16.0025072,52.078554]},"properties":{"ref:rspo":67776,"official_name":"Przedszkole w Ja\u017cy\u0144cu","name":"Przedszkole w Ja\u017cy\u0144cu","addr:country":"PL","addr:postcode":"64-225","addr:place":"Ja\u017cyniec","addr:housenumber":"2","addr:teryt:sym_ul":913143,"contact:phone":"+48 683840618","contact:email":"gimkopanica@szkola.wp.pl","ref:regon":"300842296","ref:vatin":"PL9231693864","operator":"Gmina Siedlec","operator:type":"government","amenity":"kindergarten","note":"Parent RSPO: 47526"}},{"id":47526,"type":"Feature","geometry":{"type":"Point","coordinates":[15.91976,52.09592]},"properties":{"ref:rspo":47526,"official_name":"Zesp\u00f3\u0142 Szko\u0142y Podstawowej I Przedszkoli w Kopanicy","name":"Zesp\u00f3\u0142 Szko\u0142y Podstawowej I Przedszkoli w Kopanicy","addr:country":"PL","addr:postcode":"64-225","addr:city":"Kopanica","addr:street":"ul. Szkolna","addr:housenumber":"2","addr:teryt:simc":21970,"addr:teryt:sym_ul":913195,"contact:phone":"+48 683840585","contact:email":"gimkopanica@szkola.wp.pl","contact:website":"http:\/\/www.szkolakopanica.bior.pl","ref:regon":"411133438","ref:vatin":"PL9231535740","operator":"Gmina Siedlec","operator:type":"government","landuse":"education","fixme":"amenity=school, amenity=college albo landuse=education w zale\u017cno\u015bci od tego, jakie plac\u00f3wki wchodz\u0105 w sk\u0142ad zespo\u0142u. Sprawd\u017a, kiedy stosowa\u0107 amenity=* a kiedy landuse=education.","note":"Children RSPO: 67768;67776;67777"}},{"id":67768,"type":"Feature","geometry":{"type":"Point","coordinates":[15.91976,52.09589]},"properties":{"isced:level":"1;2","ref:rspo":67768,"official_name":"Szko\u0142a Podstawowa im. Kopanickiej Dru\u017cyny Powsta\u0144c\u00f3w Wielkopolskich","name":"Szko\u0142a Podstawowa","addr:country":"PL","addr:postcode":"64-225","addr:city":"Kopanica","addr:street":"ul. Szkolna","addr:housenumber":"2","addr:teryt:simc":21970,"addr:teryt:sym_ul":913195,"contact:phone":"+48 683840585","contact:email":"gimkopanica@szkola.wp.pl","contact:website":"http:\/\/www.szkolakopanica.bior.pl","ref:regon":"970571131","ref:vatin":"PL9231535740","operator":"Gmina Siedlec","operator:type":"government","amenity":"school","note":"Parent RSPO: 47526"}},{"id":67777,"type":"Feature","geometry":{"type":"Point","coordinates":[15.91696,52.09685]},"properties":{"ref:rspo":67777,"official_name":"Przedszkole w Kopanicy","name":"Przedszkole w Kopanicy","addr:country":"PL","addr:postcode":"64-222","addr:city":"Kopanica","addr:street":"ul. Zb\u0105szy\u0144ska","addr:housenumber":"35","addr:teryt:simc":25888,"addr:teryt:sym_ul":913195,"contact:phone":"+48 683840705","contact:email":"przedszkolekopanica@onet.pl","ref:regon":"300842280","ref:vatin":"PL9231655674","operator":"Gmina Siedlec","operator:type":"government","amenity":"kindergarten","note":"Parent RSPO: 47526"}},{"id":67771,"type":"Feature","geometry":{"type":"Point","coordinates":[16.00105,52.13733]},"properties":{"isced:level":"1;2","ref:rspo":67771,"official_name":"Szko\u0142a Podstawowa im. Powsta\u0144c\u00f3w Wielkopolskich w Siedlcu","name":"Szko\u0142a Podstawowa","addr:country":"PL","addr:postcode":"64-212","addr:city":"Siedlec","addr:street":"ul. Szkolna","addr:housenumber":"6","addr:teryt:simc":21970,"addr:teryt:sym_ul":913278,"contact:phone":"+48 683848521","contact:email":"poczta@zspigsiedlec.pl","contact:website":"http:\/\/www.zspigsiedlec.pl","ref:regon":"000699879","ref:vatin":"PL9231659979","operator":"Gmina Siedlec","operator:type":"government","amenity":"school"}},{"id":128965,"type":"Feature","geometry":{"type":"Point","coordinates":[16.00229,52.1375699]},"properties":{"ref:rspo":128965,"official_name":"Przedszkole Niepubliczne Abece Strumyk Wiedzy","name":"Przedszkole Niepubliczne Abece Strumyk Wiedzy","addr:country":"PL","addr:postcode":"64-212","addr:city":"Siedlec","addr:street":"ul. Szkolna","addr:housenumber":"2","addr:teryt:simc":21970,"addr:teryt:sym_ul":913278,"contact:phone":"+48 607397165","contact:email":"sekretariat@abcstrumykwiedzy.pl","contact:website":"http:\/\/www.abcstrumykwiedzy.pl","ref:regon":"362437593","operator":"El\u017cbieta Sobkowiak","operator:type":"private","amenity":"kindergarten"}},{"id":67778,"type":"Feature","geometry":{"type":"Point","coordinates":[16.00114,52.13863]},"properties":{"ref:rspo":67778,"official_name":"Przedszkole w Siedlcu","name":"Przedszkole w Siedlcu","addr:country":"PL","addr:postcode":"64-212","addr:city":"Siedlec","addr:street":"ul. Zb\u0105szy\u0144ska","addr:housenumber":"8","addr:teryt:simc":25888,"addr:teryt:sym_ul":913278,"contact:phone":"+48 683848311","contact:email":"przedszkole.siedlec@onet.pl","ref:regon":"300841374","ref:vatin":"PL9231693858","operator":"Gmina Siedlec","operator:type":"government","amenity":"kindergarten"}},{"id":67795,"type":"Feature","geometry":{"type":"Point","coordinates":[15.91895,52.16642]},"properties":{"ref:rspo":67795,"official_name":"Przedszkole im. Ignacego Miel\u017cy\u0144skiego w Chobienicach","name":"Przedszkole","addr:country":"PL","addr:postcode":"64-214","addr:place":"Chobienice","addr:housenumber":"145","addr:teryt:sym_ul":913048,"contact:phone":"+48 683844110","contact:email":"zschobienice@wp.pl","contact:website":"http:\/\/www.zschobienice.pl","ref:regon":"411531558","ref:vatin":"PL9231598344","operator":"Gmina Siedlec","operator:type":"government","amenity":"kindergarten","note":"Parent RSPO: 47525"}},{"id":67797,"type":"Feature","geometry":{"type":"Point","coordinates":[15.91895,52.16639]},"properties":{"isced:level":"1;2","ref:rspo":67797,"official_name":"Szko\u0142a Podstawowa im. Ignacego Miel\u017cy\u0144skiego w Chobienicach","name":"Szko\u0142a Podstawowa","addr:country":"PL","addr:postcode":"64-214","addr:place":"Chobienice","addr:housenumber":"145","addr:teryt:sym_ul":913048,"contact:phone":"+48 683844110","contact:email":"zschobienice@wp.pl","contact:website":"http:\/\/www.zschobienice.pl","ref:regon":"411503421","ref:vatin":"PL9231598344","operator":"Gmina Siedlec","operator:type":"government","amenity":"school","note":"Parent RSPO: 47525"}},{"id":47525,"type":"Feature","geometry":{"type":"Point","coordinates":[15.91992,52.16688]},"properties":{"ref:rspo":47525,"official_name":"Zesp\u00f3\u0142 Szko\u0142y Podstawowej I Przedszkola w Chobienicach","name":"Zesp\u00f3\u0142 Szko\u0142y Podstawowej I Przedszkola w Chobienicach","addr:country":"PL","addr:postcode":"64-214","addr:place":"Chobienice","addr:housenumber":"143","addr:teryt:sym_ul":913048,"contact:phone":"+48 683844110","contact:email":"zschobienice@wp.pl","contact:website":"http:\/\/www.zschobienice.pl","ref:regon":"411531541","ref:vatin":"PL9231598344","operator":"Gmina Siedlec","operator:type":"government","landuse":"education","fixme":"amenity=school, amenity=college albo landuse=education w zale\u017cno\u015bci od tego, jakie plac\u00f3wki wchodz\u0105 w sk\u0142ad zespo\u0142u. Sprawd\u017a, kiedy stosowa\u0107 amenity=* a kiedy landuse=education.","note":"Children RSPO: 67795;67797"}},{"id":10212,"type":"Feature","geometry":{"type":"Point","coordinates":[16.01987,52.17081]},"properties":{"isced:level":"4","ref:rspo":10212,"official_name":"Szko\u0142a Policealna \"Lider\" w Tuchorzy","name":"Szko\u0142a Policealna \"Lider\" w Tuchorzy","addr:country":"PL","addr:postcode":"64-232","addr:city":"Tuchorza","addr:street":"ul. Kasztanowa","addr:housenumber":"4","addr:teryt:simc":8171,"addr:teryt:sym_ul":913290,"contact:phone":"+48 683841826","contact:email":"lider.tuchorza@wp.pl","ref:regon":"302204128","operator":"Ma\u0142gorzata Szl\u0105zak","operator:type":"private","amenity":"college"}},{"id":67773,"type":"Feature","geometry":{"type":"Point","coordinates":[16.01987,52.17078]},"properties":{"isced:level":"1;2","ref:rspo":67773,"official_name":"Szko\u0142a Podstawowa w Tuchorzy","name":"Szko\u0142a Podstawowa w Tuchorzy","addr:country":"PL","addr:postcode":"64-232","addr:city":"Tuchorza","addr:street":"ul. Kasztanowa","addr:housenumber":"4","addr:teryt:simc":8171,"addr:teryt:sym_ul":913290,"contact:phone":"+48 683841826","contact:email":"zspig.tuchorza@wp.pl","contact:website":"http:\/\/www.szkolatuchorza.pl","ref:regon":"001115308","ref:vatin":"PL9231598338","operator":"Gmina Siedlec","operator:type":"government","amenity":"school"}},{"id":270162,"type":"Feature","geometry":{"type":"Point","coordinates":[16.01987,52.170750000000005]},"properties":{"isced:level":"3","ref:rspo":270162,"official_name":"Liceum Og\u00f3lnokszta\u0142c\u0105ce dla Doros\u0142ych Lider w Tuchorzy","name":"Liceum Og\u00f3lnokszta\u0142c\u0105ce dla Doros\u0142ych Lider w Tuchorzy","addr:country":"PL","addr:postcode":"64-232","addr:city":"Tuchorza","addr:street":"ul. Kasztanowa","addr:housenumber":"4","addr:teryt:simc":8171,"addr:teryt:sym_ul":913290,"contact:phone":"+48 683841826","contact:email":"lider.lotuchorza@wp.pl","ref:regon":"382115371","operator":"Ma\u0142gorzata Szl\u0105zak","operator:type":"private","amenity":"school"}},{"id":277796,"type":"Feature","geometry":{"type":"Point","coordinates":[16.01993,52.17095]},"properties":{"isced:level":"3","ref:rspo":277796,"official_name":"Szko\u0142a Bran\u017cowa II Stopnia Lider w Tuchorzy","name":"Szko\u0142a Bran\u017cowa II Stopnia Lider w Tuchorzy","addr:country":"PL","addr:postcode":"64-232","addr:place":"Tuchorza","addr:housenumber":"4","addr:teryt:sym_ul":913290,"contact:email":"biuro@cds-lider.com.pl","ref:regon":"389516191","ref:vatin":"PL7881340170","operator":"Ma\u0142gorzata Szl\u0105zak","operator:type":"private","amenity":"school"}},{"id":262715,"type":"Feature","geometry":{"type":"Point","coordinates":[16.02669,52.17286]},"properties":{"ref:rspo":262715,"official_name":"Zesp\u00f3\u0142 Publicznych Przedszkoli w Tuchorzy","name":"Zesp\u00f3\u0142 Publicznych Przedszkoli w Tuchorzy","addr:country":"PL","addr:postcode":"64-232","addr:city":"Tuchorza","addr:street":"ul. Ko\u015bcielna","addr:housenumber":"11","addr:teryt:simc":9546,"addr:teryt:sym_ul":913290,"contact:phone":"+48 683841805","contact:email":"przedszkole.tuchorza@poczta.onet.pl","ref:regon":"368053008","operator":"Gmina Siedlec","operator:type":"government","amenity":"kindergarten"}},{"id":47529,"type":"Feature","geometry":{"type":"Point","coordinates":[16.00356,52.20098]},"properties":{"ref:rspo":47529,"official_name":"Zesp\u00f3\u0142 Szko\u0142y Podstawowej I Przedszkola w Bel\u0119cinie","name":"Zesp\u00f3\u0142 Szko\u0142y Podstawowej I Przedszkola w Bel\u0119cinie","addr:country":"PL","addr:postcode":"64-231","addr:place":"Bel\u0119cin","addr:housenumber":"76","addr:teryt:sym_ul":913002,"contact:phone":"+48 683841728","contact:email":"zspig@wp.pl","contact:website":"http:\/\/www.szkolabelecin.pl","ref:regon":"411531529","ref:vatin":"PL9231598321","operator":"Gmina Siedlec","operator:type":"government","landuse":"education","fixme":"amenity=school, amenity=college albo landuse=education w zale\u017cno\u015bci od tego, jakie plac\u00f3wki wchodz\u0105 w sk\u0142ad zespo\u0142u. Sprawd\u017a, kiedy stosowa\u0107 amenity=* a kiedy landuse=education.","note":"Children RSPO: 67775;67793"}},{"id":67793,"type":"Feature","geometry":{"type":"Point","coordinates":[16.00356,52.20095]},"properties":{"isced:level":"1;2","ref:rspo":67793,"official_name":"Szko\u0142a Podstawowa w Bel\u0119cinie","name":"Szko\u0142a Podstawowa w Bel\u0119cinie","addr:country":"PL","addr:postcode":"64-231","addr:place":"Bel\u0119cin","addr:housenumber":"76","addr:teryt:sym_ul":913002,"contact:phone":"+48 683841728","contact:email":"zspig@wp.pl","contact:website":"http:\/\/belecin.szkolnastrona.pl\/","ref:regon":"411503438","ref:vatin":"PL9231598321","operator":"Gmina Siedlec","operator:type":"government","amenity":"school","note":"Parent RSPO: 47529"}},{"id":67775,"type":"Feature","geometry":{"type":"Point","coordinates":[16.00626,52.2036299]},"properties":{"ref:rspo":67775,"official_name":"Przedszkole w Bel\u0119cinie","name":"Przedszkole w Bel\u0119cinie","addr:country":"PL","addr:postcode":"64-231","addr:place":"Bel\u0119cin","addr:housenumber":"112","addr:teryt:sym_ul":913002,"contact:phone":"+48 683841716","contact:email":"przedszkolebelecin@o2.pl","ref:regon":"300842267","ref:vatin":"PL9231655674","operator":"Gmina Siedlec","operator:type":"government","amenity":"kindergarten","note":"Parent RSPO: 47529"}}]}