{
    "type": "FeatureCollection",
    "features": [
        {
            "id": 84174,
            "type": "Feature",
            "geometry": {
                "type": "Point",
                "coordinates": [
                    20.14276,
                    51.49434
                ]
            },
            "properties": {
                "isced:level": "1;2",
                "ref:rspo": 84174,
                "official_name": "Publiczna Szko\u0142a Podstawowa im. Jana Paw\u0142a II w Brzustowie",
                "name": "Publiczna Szko\u0142a Podstawowa",
                "addr:postcode": "97-215",
                "addr:place": "Brzust\u00f3w",
                "addr:housenumber": "1",
                "addr:city:simc": 540914,
                "phone": "+48 447100110",
                "email": "szkolabrzustow@interia.pl",
                "ref:regon": "001139929",
                "ref:vatin": "PL7732278425",
                "operator": "Gmina Inow\u0142\u00f3dz",
                "operator:type": "government",
                "amenity": "school"
            }
        },
        {
            "id": 75169,
            "type": "Feature",
            "geometry": {
                "type": "Point",
                "coordinates": [
                    20.2197,
                    51.52654
                ]
            },
            "properties": {
                "isced:level": "1;2",
                "ref:rspo": 75169,
                "official_name": "Publiczna Szko\u0142a Podstawowa im. Juliana Tuwima w Inow\u0142odzu",
                "name": "Publiczna Szko\u0142a Podstawowa",
                "addr:postcode": "97-215",
                "addr:city": "Inow\u0142\u00f3dz",
                "addr:street": "Spalska",
                "addr:housenumber": "5",
                "addr:city:simc": 540989,
                "addr:street:sym_ul": 20651,
                "phone": "+48 447101122",
                "email": "spinowlodz1@o2.pl",
                "website": "http:\/\/www.spinowlodz.edupage.org",
                "ref:regon": "000269179",
                "ref:vatin": "PL7732278448",
                "operator": "Gmina Inow\u0142\u00f3dz",
                "operator:type": "government",
                "amenity": "school"
            }
        },
        {
            "id": 118872,
            "type": "Feature",
            "geometry": {
                "type": "Point",
                "coordinates": [
                    20.2197,
                    51.526509999999995
                ]
            },
            "properties": {
                "ref:rspo": 118872,
                "official_name": "Niepubliczne Przedszkole Tpd w Inow\u0142odzu",
                "name": "Niepubliczne Przedszkole Tpd w Inow\u0142odzu",
                "addr:postcode": "97-215",
                "addr:city": "Inow\u0142\u00f3dz",
                "addr:street": "Spalska",
                "addr:housenumber": "5",
                "addr:city:simc": 540989,
                "addr:street:sym_ul": 20651,
                "email": "przedszkole.tpd@vp.pl",
                "ref:regon": "101650748",
                "ref:vatin": "PL7731708562",
                "operator": "Towarzystwo Przyjaci\u00f3\u0142 Dzieci Odzia\u0142 Gminny W Inow\u0142odzu",
                "operator:type": "ngo",
                "amenity": "kindergarten"
            }
        },
        {
            "id": 55808,
            "type": "Feature",
            "geometry": {
                "type": "Point",
                "coordinates": [
                    20.14757,
                    51.54127
                ]
            },
            "properties": {
                "isced:level": "3",
                "ref:rspo": 55808,
                "official_name": "Niepubliczne Liceum Og\u00f3lnokszta\u0142c\u0105ce Szko\u0142a Mistrzostwa Sportowego Polskiego Zwi\u0105zku Pi\u0142ki Siatkowej",
                "name": "Niepubliczne Liceum Og\u00f3lnokszta\u0142c\u0105ce Szko\u0142a Mistrzostwa Sportowego Polskiego Zwi\u0105zku Pi\u0142ki Siatkowej",
                "addr:postcode": "97-215",
                "addr:city": "Spa\u0142a",
                "addr:street": "Aleja Prezydenta Ignacego Mo\u015bcickiego",
                "addr:housenumber": "6",
                "addr:city:simc": 541049,
                "addr:street:sym_ul": 27700,
                "phone": "+48 447101582",
                "email": "smsspala@pzps.pl",
                "website": "http:\/\/www.smsspala.pl",
                "ref:regon": "101500204",
                "operator": "Polski Zwi\u0105zek Pi\u0142ki Siatkowej",
                "operator:type": "ngo",
                "amenity": "school"
            }
        },
        {
            "id": 7011,
            "type": "Feature",
            "geometry": {
                "type": "Point",
                "coordinates": [
                    20.17828,
                    51.55219
                ]
            },
            "properties": {
                "isced:level": "1;2",
                "ref:rspo": 7011,
                "official_name": "Szko\u0142a Podstawowa im. Ignacego Mo\u015bcickiego w Kr\u00f3lowej Woli",
                "name": "Szko\u0142a Podstawowa",
                "addr:postcode": "97-215",
                "addr:place": "Kr\u00f3lowa Wola",
                "addr:housenumber": "77",
                "addr:city:simc": 541010,
                "phone": "+48 447101357",
                "email": "sp_krolowawola@wp.pl",
                "ref:regon": "101460433",
                "operator": "Stowarzyszenie Na Rzecz Rozwoju Kr\u00f3lowej Woli \"Przyjazna Wie\u015b\"",
                "operator:type": "ngo",
                "amenity": "school"
            }
        }
    ]
}