{
    "type": "FeatureCollection",
    "features": [
        {
            "id": 26853,
            "type": "Feature",
            "geometry": {
                "type": "Point",
                "coordinates": [
                    20.0409,
                    51.51288
                ]
            },
            "properties": {
                "ref:rspo": 26853,
                "official_name": "Przedszkole Nr 9 im. Jana Paw\u0142a II w Tomaszowie Mazowieckim",
                "name": "Przedszkole Nr 9",
                "addr:postcode": "97-200",
                "addr:city": "Tomasz\u00f3w Mazowiecki",
                "addr:street": "Robotnicza",
                "addr:housenumber": "30",
                "addr:teryt:simc": 968300,
                "addr:teryt:sym_ul": 18695,
                "phone": "+48 447231233",
                "email": "przedszkole_nr9@op.pl",
                "website": "http:\/\/www.p9tomaszow.wikom.pl\/",
                "ref:regon": "000816434",
                "operator": "Gmina-Miasto Tomasz\u00f3w Mazowiecki",
                "operator:type": "government",
                "amenity": "kindergarten",
                "note": "Parent RSPO: 127996"
            }
        },
        {
            "id": 127996,
            "type": "Feature",
            "geometry": {
                "type": "Point",
                "coordinates": [
                    20.04343,
                    51.51315
                ]
            },
            "properties": {
                "ref:rspo": 127996,
                "official_name": "Zesp\u00f3\u0142 Szkolno-Przedszkolny Nr 3 w Tomaszowie Mazowieckim",
                "name": "Zesp\u00f3\u0142 Szkolno-Przedszkolny Nr 3 w Tomaszowie Mazowieckim",
                "addr:postcode": "97-200",
                "addr:city": "Tomasz\u00f3w Mazowiecki",
                "addr:street": "Ludwikowska",
                "addr:housenumber": "113\/115",
                "addr:teryt:simc": 968300,
                "addr:teryt:sym_ul": 11400,
                "phone": "+48 447231220",
                "email": "sp7tom@wp.pl",
                "website": "http:\/\/www.zs-p3tomaszow.wikom.pl\/",
                "ref:regon": "362016911",
                "ref:vatin": "PL7732476674",
                "operator": "Gmina-Miasto Tomasz\u00f3w Mazowiecki",
                "operator:type": "government",
                "landuse": "education",
                "fixme": "amenity=school, amenity=college albo landuse=education w zale\u017cno\u015bci od tego, jakie plac\u00f3wki wchodz\u0105 w sk\u0142ad zespo\u0142u. Sprawd\u017a, kiedy stosowa\u0107 amenity=* a kiedy landuse=education.",
                "note": "Children RSPO: 26853;29351"
            }
        },
        {
            "id": 29351,
            "type": "Feature",
            "geometry": {
                "type": "Point",
                "coordinates": [
                    20.04343,
                    51.51312
                ]
            },
            "properties": {
                "isced:level": "1;2",
                "ref:rspo": 29351,
                "official_name": "Szko\u0142a Podstawowa Nr 7 w Tomaszowie Mazowieckim",
                "name": "Szko\u0142a Podstawowa Nr 7 w Tomaszowie Mazowieckim",
                "addr:postcode": "97-200",
                "addr:city": "Tomasz\u00f3w Mazowiecki",
                "addr:street": "Ludwikowska",
                "addr:housenumber": "113\/115",
                "addr:teryt:simc": 968300,
                "addr:teryt:sym_ul": 11400,
                "phone": "+48 447231220",
                "email": "sp7tom@wp.pl",
                "website": "https:\/\/sp7tomaszow.wikom.pl\/",
                "ref:regon": "000783841",
                "operator": "Gmina-Miasto Tomasz\u00f3w Mazowiecki",
                "operator:type": "government",
                "amenity": "school",
                "note": "Parent RSPO: 127996"
            }
        },
        {
            "id": 26864,
            "type": "Feature",
            "geometry": {
                "type": "Point",
                "coordinates": [
                    20.0621,
                    51.5176299
                ]
            },
            "properties": {
                "ref:rspo": 26864,
                "official_name": "Przedszkole Nr 10 w Tomaszowie Mazowieckim",
                "name": "Przedszkole Nr 10 w Tomaszowie Mazowieckim",
                "addr:postcode": "97-200",
                "addr:city": "Tomasz\u00f3w Mazowiecki",
                "addr:street": "W\u0105walska",
                "addr:housenumber": "24",
                "addr:teryt:simc": 968300,
                "addr:teryt:sym_ul": 23807,
                "phone": "+48 447231533",
                "email": "przedszkole10.tm@wp.pl",
                "website": "http:\/\/www.p10tomaszow.wikom.pl",
                "ref:regon": "590033034",
                "operator": "Gmina-Miasto Tomasz\u00f3w Mazowiecki",
                "operator:type": "government",
                "amenity": "kindergarten",
                "note": "Parent RSPO: 29358"
            }
        },
        {
            "id": 124473,
            "type": "Feature",
            "geometry": {
                "type": "Point",
                "coordinates": [
                    20.0229399,
                    51.51907
                ]
            },
            "properties": {
                "ref:rspo": 124473,
                "official_name": "Niepubliczne Katolickie Przedszkole J\u0119zykowe \"Wyspa Szkrab\u00f3w\"",
                "name": "Niepubliczne Katolickie Przedszkole J\u0119zykowe \"Wyspa Szkrab\u00f3w\"",
                "addr:postcode": "97-200",
                "addr:city": "Tomasz\u00f3w Mazowiecki",
                "addr:street": "\u015awi\u0119tego Antoniego",
                "addr:housenumber": "97",
                "addr:teryt:simc": 968300,
                "addr:teryt:sym_ul": 351,
                "phone": "+48 447232323",
                "email": "przedszkolewyspaszkrabow@gmail.com",
                "website": "http:\/\/www.wyspa-szkrabow.pl",
                "ref:regon": "101832248",
                "operator": "Monika G\u0142owa",
                "operator:type": "private",
                "amenity": "kindergarten"
            }
        },
        {
            "id": 130294,
            "type": "Feature",
            "geometry": {
                "type": "Point",
                "coordinates": [
                    20.0229399,
                    51.51904
                ]
            },
            "properties": {
                "ref:rspo": 130294,
                "official_name": "Niepubliczna Poradnia Psychologiczno - Pedagogiczna ,,Anima\"",
                "name": "Niepubliczna Poradnia Psychologiczno - Pedagogiczna ,,Anima\"",
                "addr:postcode": "97-200",
                "addr:city": "Tomasz\u00f3w Mazowiecki",
                "addr:street": "\u015awi\u0119tego Antoniego",
                "addr:housenumber": "97",
                "addr:teryt:simc": 968300,
                "addr:teryt:sym_ul": 351,
                "phone": "+48 733410960",
                "email": "animaporadnia@gmail.com",
                "ref:regon": "363784339",
                "operator": "Hubert Caba\u0142a",
                "operator:type": "private",
                "healthcare": "counselling",
                "counselling_type": "education",
                "fixme": "w zale\u017cno\u015bci od przedmiotu dzia\u0142alno\u015bci (np. healthcare=counselling + counselling_type=education albo healthcare=psychotherapist)"
            }
        },
        {
            "id": 29358,
            "type": "Feature",
            "geometry": {
                "type": "Point",
                "coordinates": [
                    20.06267,
                    51.5212
                ]
            },
            "properties": {
                "ref:rspo": 29358,
                "official_name": "Zesp\u00f3\u0142 Szkolno-Przedszkolny Nr 8 w Tomaszowie Mazowieckim",
                "name": "Zesp\u00f3\u0142 Szkolno-Przedszkolny Nr 8 w Tomaszowie Mazowieckim",
                "addr:postcode": "97-200",
                "addr:city": "Tomasz\u00f3w Mazowiecki",
                "addr:street": "Gminna",
                "addr:housenumber": "5\/9",
                "addr:teryt:simc": 968300,
                "addr:teryt:sym_ul": 5654,
                "phone": "+48 447231563",
                "email": "dyrekcja.sp6@wp.pl",
                "ref:regon": "590727297",
                "ref:vatin": "PL7732127583",
                "operator": "Gmina-Miasto Tomasz\u00f3w Mazowiecki",
                "operator:type": "government",
                "landuse": "education",
                "fixme": "amenity=school, amenity=college albo landuse=education w zale\u017cno\u015bci od tego, jakie plac\u00f3wki wchodz\u0105 w sk\u0142ad zespo\u0142u. Sprawd\u017a, kiedy stosowa\u0107 amenity=* a kiedy landuse=education.",
                "note": "Children RSPO: 26864;103656"
            }
        },
        {
            "id": 103656,
            "type": "Feature",
            "geometry": {
                "type": "Point",
                "coordinates": [
                    20.06267,
                    51.52117
                ]
            },
            "properties": {
                "isced:level": "1;2",
                "ref:rspo": 103656,
                "official_name": "Szko\u0142a Podstawowa Nr 6 w Tomaszowie Mazowieckim",
                "name": "Szko\u0142a Podstawowa Nr 6 w Tomaszowie Mazowieckim",
                "addr:postcode": "97-200",
                "addr:city": "Tomasz\u00f3w Mazowiecki",
                "addr:street": "Gminna",
                "addr:housenumber": "5\/9",
                "addr:teryt:simc": 968300,
                "addr:teryt:sym_ul": 5654,
                "phone": "+48 447231563",
                "email": "sp6.sekretariat@wp.pl",
                "website": "http:\/\/www.sp6tomaszow.wikom.pl",
                "ref:regon": "000783835",
                "operator": "Gmina-Miasto Tomasz\u00f3w Mazowiecki",
                "operator:type": "government",
                "amenity": "school",
                "note": "Parent RSPO: 29358"
            }
        },
        {
            "id": 26875,
            "type": "Feature",
            "geometry": {
                "type": "Point",
                "coordinates": [
                    20.01669,
                    51.5212999
                ]
            },
            "properties": {
                "ref:rspo": 26875,
                "official_name": "Przedszkole Nr 20 w Tomaszowie Mazowieckim",
                "name": "Przedszkole Nr 20 w Tomaszowie Mazowieckim",
                "addr:postcode": "97-200",
                "addr:city": "Tomasz\u00f3w Mazowiecki",
                "addr:street": "Genera\u0142a W\u0142adys\u0142awa Sikorskiego",
                "addr:housenumber": "6a",
                "addr:teryt:simc": 968300,
                "addr:teryt:sym_ul": 19907,
                "phone": "+48 447239420",
                "email": "przedszkole20@tomaszow-maz.pl",
                "website": "http:\/\/www.p20tomaszow.wikom.pl",
                "ref:regon": "590033100",
                "operator": "Gmina-Miasto Tomasz\u00f3w Mazowiecki",
                "operator:type": "government",
                "amenity": "kindergarten",
                "note": "Parent RSPO: 128480"
            }
        },
        {
            "id": 26856,
            "type": "Feature",
            "geometry": {
                "type": "Point",
                "coordinates": [
                    20.02213,
                    51.52228
                ]
            },
            "properties": {
                "ref:rspo": 26856,
                "official_name": "Przedszkole Nr 19 w Tomaszowie Mazowieckim",
                "name": "Przedszkole Nr 19 w Tomaszowie Mazowieckim",
                "addr:postcode": "97-200",
                "addr:city": "Tomasz\u00f3w Mazowiecki",
                "addr:street": "Strzelecka",
                "addr:housenumber": "14",
                "addr:teryt:simc": 968300,
                "addr:teryt:sym_ul": 21381,
                "phone": "+48 447232475",
                "email": "zesp.szk.przedszk.p19@interia.pl",
                "website": "http:\/\/www.p19tomaszow.wikom.pl\/",
                "ref:regon": "590033092",
                "operator": "Gmina-Miasto Tomasz\u00f3w Mazowiecki",
                "operator:type": "government",
                "amenity": "kindergarten",
                "note": "Parent RSPO: 133504"
            }
        },
        {
            "id": 25574,
            "type": "Feature",
            "geometry": {
                "type": "Point",
                "coordinates": [
                    20.0166499,
                    51.5243899
                ]
            },
            "properties": {
                "ref:rspo": 25574,
                "official_name": "Zesp\u00f3\u0142 Szk\u00f3\u0142 Ponadpodstawowych Nr 2 im. Stanis\u0142awa Staszica",
                "name": "Zesp\u00f3\u0142 Szk\u00f3\u0142 Ponadpodstawowych Nr 2",
                "addr:postcode": "97-200",
                "addr:city": "Tomasz\u00f3w Mazowiecki",
                "addr:street": "\u015awi\u0119tego Antoniego",
                "addr:housenumber": "57\/61",
                "addr:teryt:simc": 968300,
                "addr:teryt:sym_ul": 351,
                "phone": "+48 447244336",
                "email": "zsz2tom@poczta.onet.pl",
                "website": "http:\/\/www.zsp2.nasztomaszow.pl",
                "ref:regon": "000190294",
                "ref:vatin": "PL7732256866",
                "operator": "Powiat Tomaszowski",
                "operator:type": "government",
                "landuse": "education",
                "fixme": "amenity=school, amenity=college albo landuse=education w zale\u017cno\u015bci od tego, jakie plac\u00f3wki wchodz\u0105 w sk\u0142ad zespo\u0142u. Sprawd\u017a, kiedy stosowa\u0107 amenity=* a kiedy landuse=education.",
                "note": "Children RSPO: 41814;41870;56126;113914;128414;129249;274032"
            }
        },
        {
            "id": 41814,
            "type": "Feature",
            "geometry": {
                "type": "Point",
                "coordinates": [
                    20.0166499,
                    51.5243599
                ]
            },
            "properties": {
                "isced:level": "3",
                "ref:rspo": 41814,
                "official_name": "Technikum Nr 2",
                "name": "Technikum Nr 2",
                "addr:postcode": "97-200",
                "addr:city": "Tomasz\u00f3w Mazowiecki",
                "addr:street": "\u015awi\u0119tego Antoniego",
                "addr:housenumber": "57\/61",
                "addr:teryt:simc": 968300,
                "addr:teryt:sym_ul": 351,
                "phone": "+48 447244336",
                "email": "zsz2tom@poczta.onet.pl",
                "website": "http:\/\/www.zsp2tm.pl",
                "ref:regon": "100244762",
                "operator": "Powiat Tomaszowski",
                "operator:type": "government",
                "amenity": "school",
                "note": "Parent RSPO: 25574"
            }
        },
        {
            "id": 41870,
            "type": "Feature",
            "geometry": {
                "type": "Point",
                "coordinates": [
                    20.0166499,
                    51.524329900000005
                ]
            },
            "properties": {
                "ref:rspo": 41870,
                "official_name": "Centrum Kszta\u0142cenia Praktycznego Przy Zsp Nr 2",
                "name": "Centrum Kszta\u0142cenia Praktycznego Przy Zsp Nr 2",
                "addr:postcode": "97-200",
                "addr:city": "Tomasz\u00f3w Mazowiecki",
                "addr:street": "\u015awi\u0119tego Antoniego",
                "addr:housenumber": "57\/61",
                "addr:teryt:simc": 968300,
                "addr:teryt:sym_ul": 351,
                "phone": "+48 447244336",
                "email": "zsz2tom@poczta.onet.pl",
                "website": "http:\/\/www.zsp2.nasztomaszow.pl",
                "ref:regon": "100955486",
                "operator": "Powiat Tomaszowski",
                "operator:type": "government",
                "note": "Parent RSPO: 25574"
            }
        },
        {
            "id": 56126,
            "type": "Feature",
            "geometry": {
                "type": "Point",
                "coordinates": [
                    20.0166499,
                    51.5242999
                ]
            },
            "properties": {
                "isced:level": "3",
                "ref:rspo": 56126,
                "official_name": "Bran\u017cowa Szko\u0142a I Stopnia Nr 2",
                "name": "Bran\u017cowa Szko\u0142a I Stopnia Nr 2",
                "addr:postcode": "97-200",
                "addr:city": "Tomasz\u00f3w Mazowiecki",
                "addr:street": "\u015awi\u0119tego Antoniego",
                "addr:housenumber": "57\/61",
                "addr:teryt:simc": 968300,
                "addr:teryt:sym_ul": 351,
                "phone": "+48 447244336",
                "email": "zsz2tom@poczta.onet.pl",
                "website": "http:\/\/www.zsp2tm.pl",
                "ref:regon": "592147581",
                "operator": "Powiat Tomaszowski",
                "operator:type": "government",
                "amenity": "school",
                "note": "Parent RSPO: 25574"
            }
        },
        {
            "id": 113914,
            "type": "Feature",
            "geometry": {
                "type": "Point",
                "coordinates": [
                    20.0166499,
                    51.5242699
                ]
            },
            "properties": {
                "ref:rspo": 113914,
                "official_name": "O\u015brodek Dokszta\u0142cania I Doskonalenia Zawodowego w Zsp Nr 2 im. Stanis\u0142awa Staszica w Tomaszowie Mazowieckim",
                "name": "O\u015brodek Dokszta\u0142cania I Doskonalenia Zawodowego w Zsp Nr 2",
                "addr:postcode": "97-200",
                "addr:city": "Tomasz\u00f3w Mazowiecki",
                "addr:street": "\u015awi\u0119tego Antoniego",
                "addr:housenumber": "57\/61",
                "addr:teryt:simc": 968300,
                "addr:teryt:sym_ul": 351,
                "ref:regon": "101589440",
                "operator": "Powiat Tomaszowski",
                "operator:type": "government",
                "fixme": "w zale\u017cno\u015bci od przedmiotu dzia\u0142alno\u015bci (np. amenity=training + training=*, amenity=dancing_school, amenity=language_school, amenity=music_school) albo amenity=school, amenity=college, albo landuse=education w zale\u017cno\u015bci od tego, jakie plac\u00f3wki wchodz\u0105 w sk\u0142ad zespo\u0142u. Sprawd\u017a, kiedy stosowa\u0107 amenity=* a kiedy landuse=education.",
                "note": "Parent RSPO: 25574"
            }
        },
        {
            "id": 128414,
            "type": "Feature",
            "geometry": {
                "type": "Point",
                "coordinates": [
                    20.0166499,
                    51.524239900000005
                ]
            },
            "properties": {
                "isced:level": "3",
                "ref:rspo": 128414,
                "official_name": "Liceum Og\u00f3lnokszta\u0142c\u0105ce dla Doros\u0142ych",
                "name": "Liceum Og\u00f3lnokszta\u0142c\u0105ce dla Doros\u0142ych",
                "addr:postcode": "97-200",
                "addr:city": "Tomasz\u00f3w Mazowiecki",
                "addr:street": "\u015awi\u0119tego Antoniego",
                "addr:housenumber": "57\/61",
                "addr:teryt:simc": 968300,
                "addr:teryt:sym_ul": 351,
                "phone": "+48 447244336",
                "ref:regon": "100737810",
                "operator": "Powiat Tomaszowski",
                "operator:type": "government",
                "amenity": "school",
                "note": "Parent RSPO: 25574"
            }
        },
        {
            "id": 129249,
            "type": "Feature",
            "geometry": {
                "type": "Point",
                "coordinates": [
                    20.0166499,
                    51.5242099
                ]
            },
            "properties": {
                "isced:level": "4",
                "ref:rspo": 129249,
                "official_name": "Policealna Szko\u0142a Nr 2",
                "name": "Policealna Szko\u0142a Nr 2",
                "addr:postcode": "97-200",
                "addr:city": "Tomasz\u00f3w Mazowiecki",
                "addr:street": "\u015awi\u0119tego Antoniego",
                "addr:housenumber": "57\/61",
                "addr:teryt:simc": 968300,
                "addr:teryt:sym_ul": 351,
                "phone": "+48 447244336",
                "ref:regon": "592147546",
                "operator": "Powiat Tomaszowski",
                "operator:type": "government",
                "amenity": "college",
                "note": "Parent RSPO: 25574"
            }
        },
        {
            "id": 274032,
            "type": "Feature",
            "geometry": {
                "type": "Point",
                "coordinates": [
                    20.0166499,
                    51.5241799
                ]
            },
            "properties": {
                "ref:rspo": 274032,
                "official_name": "Centrum Kszta\u0142cenia Zawodowego",
                "name": "Centrum Kszta\u0142cenia Zawodowego",
                "addr:postcode": "97-200",
                "addr:city": "Tomasz\u00f3w Mazowiecki",
                "addr:street": "\u015awi\u0119tego Antoniego",
                "addr:housenumber": "57\/61",
                "addr:teryt:simc": 968300,
                "addr:teryt:sym_ul": 351,
                "phone": "+48 447244336",
                "ref:regon": "385045582",
                "operator": "Powiat Tomaszowski",
                "operator:type": "government",
                "fixme": "w zale\u017cno\u015bci od przedmiotu dzia\u0142alno\u015bci (np. amenity=training + training=*, amenity=dancing_school, amenity=language_school, amenity=music_school) albo amenity=school, amenity=college, albo landuse=education w zale\u017cno\u015bci od tego, jakie plac\u00f3wki wchodz\u0105 w sk\u0142ad zespo\u0142u. Sprawd\u017a, kiedy stosowa\u0107 amenity=* a kiedy landuse=education.",
                "note": "Parent RSPO: 25574"
            }
        },
        {
            "id": 81359,
            "type": "Feature",
            "geometry": {
                "type": "Point",
                "coordinates": [
                    20.00345,
                    51.52502
                ]
            },
            "properties": {
                "ref:rspo": 81359,
                "official_name": "Przedszkole Niepubliczne \"Bajeczka\"",
                "name": "Przedszkole Niepubliczne \"Bajeczka\"",
                "addr:postcode": "97-200",
                "addr:city": "Tomasz\u00f3w Mazowiecki",
                "addr:street": "Smugowa",
                "addr:housenumber": "6a",
                "addr:door": "5,6",
                "addr:teryt:simc": 968300,
                "addr:teryt:sym_ul": 20388,
                "phone": "+48 502735025",
                "email": "przedszkole@bajeczkatomaszow.pl",
                "website": "http:\/\/www.bajeczkatomaszow.pl",
                "ref:regon": "101498571",
                "operator": "Magdalena St\u0119pie\u0144",
                "operator:type": "private",
                "amenity": "kindergarten"
            }
        },
        {
            "id": 127993,
            "type": "Feature",
            "geometry": {
                "type": "Point",
                "coordinates": [
                    20.02099,
                    51.52512
                ]
            },
            "properties": {
                "ref:rspo": 127993,
                "official_name": "Zesp\u00f3\u0142 Szkolno-Przedszkolny Nr 2 w Tomaszowie Mazowieckim",
                "name": "Zesp\u00f3\u0142 Szkolno-Przedszkolny Nr 2 w Tomaszowie Mazowieckim",
                "addr:postcode": "97-200",
                "addr:city": "Tomasz\u00f3w Mazowiecki",
                "addr:street": "Wiejska",
                "addr:housenumber": "29\/31",
                "addr:teryt:simc": 968300,
                "addr:teryt:sym_ul": 24048,
                "phone": "+48 447239586",
                "email": "zsp2@tomaszow-maz.pl",
                "website": "http:\/\/www.zs-p2tomaszow.wikom.pl",
                "ref:regon": "362012209",
                "ref:vatin": "PL7732476697",
                "operator": "Gmina-Miasto Tomasz\u00f3w Mazowiecki",
                "operator:type": "government",
                "landuse": "education",
                "fixme": "amenity=school, amenity=college albo landuse=education w zale\u017cno\u015bci od tego, jakie plac\u00f3wki wchodz\u0105 w sk\u0142ad zespo\u0142u. Sprawd\u017a, kiedy stosowa\u0107 amenity=* a kiedy landuse=education.",
                "note": "Children RSPO: 26852;29355"
            }
        },
        {
            "id": 29355,
            "type": "Feature",
            "geometry": {
                "type": "Point",
                "coordinates": [
                    20.02099,
                    51.52509
                ]
            },
            "properties": {
                "isced:level": "1;2",
                "ref:rspo": 29355,
                "official_name": "Szko\u0142a Podstawowa Nr 12 im. Jana Paw\u0142a II w Tomaszowie Mazowieckim",
                "name": "Szko\u0142a Podstawowa Nr 12",
                "addr:postcode": "97-200",
                "addr:city": "Tomasz\u00f3w Mazowiecki",
                "addr:street": "Wiejska",
                "addr:housenumber": "29\/31",
                "addr:teryt:simc": 968300,
                "addr:teryt:sym_ul": 24048,
                "phone": "+48 447239586",
                "email": "zsp2@tomaszow-maz.pl",
                "website": "http:\/\/www.sp12tomaszow.wikom.pl",
                "ref:regon": "000243889",
                "operator": "Gmina-Miasto Tomasz\u00f3w Mazowiecki",
                "operator:type": "government",
                "amenity": "school",
                "note": "Parent RSPO: 127993"
            }
        },
        {
            "id": 26869,
            "type": "Feature",
            "geometry": {
                "type": "Point",
                "coordinates": [
                    20.00724,
                    51.52541
                ]
            },
            "properties": {
                "ref:rspo": 26869,
                "official_name": "Przedszkole Nr 8 w Tomaszowie Mazowieckim",
                "name": "Przedszkole Nr 8 w Tomaszowie Mazowieckim",
                "addr:postcode": "97-200",
                "addr:city": "Tomasz\u00f3w Mazowiecki",
                "addr:street": "Stolarska",
                "addr:housenumber": "18\/20",
                "addr:teryt:simc": 968300,
                "addr:teryt:sym_ul": 21231,
                "phone": "+48 447241904",
                "email": "szkola.podstawowa8@zs-p5.tm.pl",
                "website": "https:\/\/p8tomaszow.wikom.pl\/",
                "ref:regon": "590033028",
                "operator": "Gmina-Miasto Tomasz\u00f3w Mazowiecki",
                "operator:type": "government",
                "amenity": "kindergarten",
                "note": "Parent RSPO: 128229"
            }
        },
        {
            "id": 25382,
            "type": "Feature",
            "geometry": {
                "type": "Point",
                "coordinates": [
                    20.0260399,
                    51.52591
                ]
            },
            "properties": {
                "isced:level": "3",
                "ref:rspo": 25382,
                "official_name": "Ii Liceum Og\u00f3lnokszta\u0142c\u0105ce im. Stefana \u017beromskiego",
                "name": "Ii Liceum Og\u00f3lnokszta\u0142c\u0105ce",
                "addr:postcode": "97-200",
                "addr:city": "Tomasz\u00f3w Mazowiecki",
                "addr:street": "Ja\u0142owcowa",
                "addr:housenumber": "10",
                "addr:teryt:simc": 968300,
                "addr:teryt:sym_ul": 7097,
                "phone": "+48 447245642",
                "email": "sekretariat@2liceum.pl",
                "website": "http:\/\/www.2liceum.pl",
                "ref:regon": "000245196",
                "ref:vatin": "PL7731189895",
                "operator": "Powiat Tomaszowski",
                "operator:type": "government",
                "amenity": "school"
            }
        },
        {
            "id": 269642,
            "type": "Feature",
            "geometry": {
                "type": "Point",
                "coordinates": [
                    20.07746,
                    51.52601
                ]
            },
            "properties": {
                "ref:rspo": 269642,
                "official_name": "Centrum Rehabilitacyjno Szkoleniowe Muscumed",
                "name": "Centrum Rehabilitacyjno Szkoleniowe Muscumed",
                "addr:postcode": "97-200",
                "addr:city": "Tomasz\u00f3w Mazowiecki",
                "addr:street": "Micha\u0142owska",
                "addr:housenumber": "55",
                "addr:teryt:simc": 968300,
                "addr:teryt:sym_ul": 12710,
                "ref:regon": "381631283",
                "ref:vatin": "PL7731503676",
                "operator": "\u017baneta Koprek",
                "operator:type": "private",
                "fixme": "w zale\u017cno\u015bci od przedmiotu dzia\u0142alno\u015bci (np. amenity=training + training=*, amenity=dancing_school, amenity=language_school, amenity=music_school)"
            }
        },
        {
            "id": 128229,
            "type": "Feature",
            "geometry": {
                "type": "Point",
                "coordinates": [
                    20.0072699,
                    51.52604
                ]
            },
            "properties": {
                "ref:rspo": 128229,
                "official_name": "Zesp\u00f3\u0142 Szkolno-Przedszkolny Nr 5 w Tomaszowie Mazowieckim",
                "name": "Zesp\u00f3\u0142 Szkolno-Przedszkolny Nr 5 w Tomaszowie Mazowieckim",
                "addr:postcode": "97-200",
                "addr:city": "Tomasz\u00f3w Mazowiecki",
                "addr:street": "Stolarska",
                "addr:housenumber": "21\/27",
                "addr:teryt:simc": 968300,
                "addr:teryt:sym_ul": 21231,
                "phone": "+48 447243008",
                "email": "szkola.podstawowa8@zs-p5.tm.pl",
                "website": "http:\/\/www.zs-p5tomaszow.wikom.pl",
                "ref:regon": "362190804",
                "ref:vatin": "PL7732476740",
                "operator": "Gmina-Miasto Tomasz\u00f3w Mazowiecki",
                "operator:type": "government",
                "landuse": "education",
                "fixme": "amenity=school, amenity=college albo landuse=education w zale\u017cno\u015bci od tego, jakie plac\u00f3wki wchodz\u0105 w sk\u0142ad zespo\u0142u. Sprawd\u017a, kiedy stosowa\u0107 amenity=* a kiedy landuse=education.",
                "note": "Children RSPO: 26869;29353"
            }
        },
        {
            "id": 29353,
            "type": "Feature",
            "geometry": {
                "type": "Point",
                "coordinates": [
                    20.0072699,
                    51.52601
                ]
            },
            "properties": {
                "isced:level": "1;2",
                "ref:rspo": 29353,
                "official_name": "Szko\u0142a Podstawowa Nr 8 w Tomaszowie Mazowieckim",
                "name": "Szko\u0142a Podstawowa Nr 8 w Tomaszowie Mazowieckim",
                "addr:postcode": "97-200",
                "addr:city": "Tomasz\u00f3w Mazowiecki",
                "addr:street": "Stolarska",
                "addr:housenumber": "21\/27",
                "addr:teryt:simc": 968300,
                "addr:teryt:sym_ul": 21231,
                "phone": "+48 447243008",
                "email": "szkola.podstawowa8@zs-p5.tm.pl",
                "website": "http:\/\/www.sp8tomaszow.wikom.pl",
                "ref:regon": "101259180",
                "operator": "Gmina-Miasto Tomasz\u00f3w Mazowiecki",
                "operator:type": "government",
                "amenity": "school",
                "note": "Parent RSPO: 128229"
            }
        },
        {
            "id": 26852,
            "type": "Feature",
            "geometry": {
                "type": "Point",
                "coordinates": [
                    20.02289,
                    51.52613
                ]
            },
            "properties": {
                "ref:rspo": 26852,
                "official_name": "Przedszkole Nr 7 w Tomaszowie Mazowieckim",
                "name": "Przedszkole Nr 7 w Tomaszowie Mazowieckim",
                "addr:postcode": "97-200",
                "addr:city": "Tomasz\u00f3w Mazowiecki",
                "addr:street": "Ja\u0142owcowa",
                "addr:housenumber": "6",
                "addr:teryt:simc": 968300,
                "addr:teryt:sym_ul": 7097,
                "phone": "+48 447242618",
                "email": "p7@tomaszow-maz.pl",
                "website": "https:\/\/p7tomaszow.wikom.pl\/",
                "ref:regon": "590033011",
                "operator": "Gmina-Miasto Tomasz\u00f3w Mazowiecki",
                "operator:type": "government",
                "amenity": "kindergarten",
                "note": "Parent RSPO: 127993"
            }
        },
        {
            "id": 262492,
            "type": "Feature",
            "geometry": {
                "type": "Point",
                "coordinates": [
                    20.01555,
                    51.52621
                ]
            },
            "properties": {
                "ref:rspo": 262492,
                "official_name": "Zesp\u00f3\u0142 Szk\u00f3\u0142 I Plac\u00f3wek O\u015bwiatowych Wojew\u00f3dztwa \u0141\u00f3dzkiego w Tomaszowie Mazowieckim",
                "name": "Zesp\u00f3\u0142 Szk\u00f3\u0142 I Plac\u00f3wek O\u015bwiatowych Wojew\u00f3dztwa \u0141\u00f3dzkiego w Tomaszowie Mazowieckim",
                "addr:postcode": "97-200",
                "addr:city": "Tomasz\u00f3w Mazowiecki",
                "addr:street": "\u015awi\u0119tego Antoniego",
                "addr:housenumber": "47",
                "addr:teryt:simc": 968300,
                "addr:teryt:sym_ul": 351,
                "phone": "+48 447242743",
                "email": "sekretariat@ckutomaszow.com.pl",
                "website": "http:\/\/www.ckutomaszow.com.pl",
                "ref:regon": "368022090",
                "operator": "Wojew\u00f3dztwo \u0141\u00f3dzkie",
                "operator:type": "government",
                "landuse": "education",
                "fixme": "amenity=school, amenity=college albo landuse=education w zale\u017cno\u015bci od tego, jakie plac\u00f3wki wchodz\u0105 w sk\u0142ad zespo\u0142u. Sprawd\u017a, kiedy stosowa\u0107 amenity=* a kiedy landuse=education.",
                "note": "Children RSPO: 13387;13478"
            }
        },
        {
            "id": 18928,
            "type": "Feature",
            "geometry": {
                "type": "Point",
                "coordinates": [
                    20.01555,
                    51.52618
                ]
            },
            "properties": {
                "ref:rspo": 18928,
                "official_name": "Biblioteka Pedagogiczna w Piotrkowie Trybunalskim Filia w Tomaszowie Mazowieckim",
                "name": "Biblioteka Pedagogiczna w Piotrkowie Trybunalskim Filia w Tomaszowie Mazowieckim",
                "addr:postcode": "97-200",
                "addr:city": "Tomasz\u00f3w Mazowiecki",
                "addr:street": "\u015awi\u0119tego Antoniego",
                "addr:housenumber": "47",
                "addr:teryt:simc": 968300,
                "addr:teryt:sym_ul": 351,
                "phone": "+48 447245134",
                "email": "tomaszow@pedagogiczna.edu.pl",
                "ref:regon": "103210800",
                "operator": "Wojew\u00f3dztwo \u0141\u00f3dzkie",
                "operator:type": "government",
                "amenity": "library",
                "note": "Parent RSPO: 12703"
            }
        },
        {
            "id": 17941,
            "type": "Feature",
            "geometry": {
                "type": "Point",
                "coordinates": [
                    20.01555,
                    51.52615
                ]
            },
            "properties": {
                "isced:level": "4",
                "ref:rspo": 17941,
                "official_name": "Szko\u0142a Policealna Samorz\u0105du Wojew\u00f3dztwa \u0141\u00f3dzkiego w Tomaszowie Mazowieckim",
                "name": "Szko\u0142a Policealna Samorz\u0105du Wojew\u00f3dztwa \u0141\u00f3dzkiego w Tomaszowie Mazowieckim",
                "addr:postcode": "97-200",
                "addr:city": "Tomasz\u00f3w Mazowiecki",
                "addr:street": "\u015awi\u0119tego Antoniego",
                "addr:housenumber": "47",
                "addr:teryt:simc": 968300,
                "addr:teryt:sym_ul": 351,
                "phone": "+48 447242555",
                "email": "sekretariat@ckutomaszow.com.pl",
                "website": "http:\/\/www.ckutomaszow.com.pl",
                "ref:regon": "590559753",
                "ref:vatin": "PL7731985244",
                "operator": "Wojew\u00f3dztwo \u0141\u00f3dzkie",
                "operator:type": "government",
                "amenity": "college",
                "note": "Parent RSPO: 13387"
            }
        },
        {
            "id": 17955,
            "type": "Feature",
            "geometry": {
                "type": "Point",
                "coordinates": [
                    20.01555,
                    51.52612
                ]
            },
            "properties": {
                "isced:level": "4",
                "ref:rspo": 17955,
                "official_name": "Samorz\u0105dowa Szko\u0142a Policealna w Tomaszowie Mazowieckim",
                "name": "Samorz\u0105dowa Szko\u0142a Policealna w Tomaszowie Mazowieckim",
                "addr:postcode": "97-200",
                "addr:city": "Tomasz\u00f3w Mazowiecki",
                "addr:street": "\u015awi\u0119tego Antoniego",
                "addr:housenumber": "47",
                "addr:teryt:simc": 968300,
                "addr:teryt:sym_ul": 351,
                "phone": "+48 447242555",
                "email": "sekretariat@policealna.net.pl",
                "ref:regon": "101259286",
                "operator": "Wojew\u00f3dztwo \u0141\u00f3dzkie",
                "operator:type": "government",
                "amenity": "college",
                "note": "Parent RSPO: 13387"
            }
        },
        {
            "id": 13387,
            "type": "Feature",
            "geometry": {
                "type": "Point",
                "coordinates": [
                    20.01555,
                    51.526089999999996
                ]
            },
            "properties": {
                "ref:rspo": 13387,
                "official_name": "Centrum Kszta\u0142cenia Ustawicznego Samorz\u0105du Wojew\u00f3dztwa \u0141\u00f3dzkiego w Tomaszowie Mazowieckim",
                "name": "Centrum Kszta\u0142cenia Ustawicznego Samorz\u0105du Wojew\u00f3dztwa \u0141\u00f3dzkiego w Tomaszowie Mazowieckim",
                "addr:postcode": "97-200",
                "addr:city": "Tomasz\u00f3w Mazowiecki",
                "addr:street": "\u015awi\u0119tego Antoniego",
                "addr:housenumber": "47",
                "addr:teryt:simc": 968300,
                "addr:teryt:sym_ul": 351,
                "phone": "+48 447242555",
                "email": "sekretariat@ckutomaszow.com.pl",
                "website": "http:\/\/www.ckutomaszow.com.pl",
                "ref:regon": "101259300",
                "ref:vatin": "PL7732468597",
                "operator": "Wojew\u00f3dztwo \u0141\u00f3dzkie",
                "operator:type": "government",
                "amenity": "school",
                "fixme": "amenity=school lub amenity=college",
                "note": "Children RSPO: 17941;17955Parent RSPO: 262492"
            }
        },
        {
            "id": 13478,
            "type": "Feature",
            "geometry": {
                "type": "Point",
                "coordinates": [
                    20.01555,
                    51.52606
                ]
            },
            "properties": {
                "ref:rspo": 13478,
                "official_name": "Bursa Samorz\u0105du Wojew\u00f3dztwa \u0141\u00f3dzkiego w Tomaszowie Mazowieckim",
                "name": "Bursa Samorz\u0105du Wojew\u00f3dztwa \u0141\u00f3dzkiego w Tomaszowie Mazowieckim",
                "addr:postcode": "97-200",
                "addr:city": "Tomasz\u00f3w Mazowiecki",
                "addr:street": "\u015awi\u0119tego Antoniego",
                "addr:housenumber": "47",
                "addr:teryt:simc": 968300,
                "addr:teryt:sym_ul": 351,
                "phone": "+48 447246200",
                "email": "bursatm@neostrada.pl",
                "website": "http:\/\/www.bursatm.pl",
                "ref:regon": "100723758",
                "ref:vatin": "PL7732435592",
                "operator": "Wojew\u00f3dztwo \u0141\u00f3dzkie",
                "operator:type": "government",
                "building": "dormitory",
                "note": "Parent RSPO: 262492"
            }
        },
        {
            "id": 133505,
            "type": "Feature",
            "geometry": {
                "type": "Point",
                "coordinates": [
                    20.02471,
                    51.52628
                ]
            },
            "properties": {
                "ref:rspo": 133505,
                "official_name": "Zesp\u00f3\u0142 Szkolno-Przedszkolny Nr 9 w Tomaszowie Mazowieckim",
                "name": "Zesp\u00f3\u0142 Szkolno-Przedszkolny Nr 9 w Tomaszowie Mazowieckim",
                "addr:postcode": "97-200",
                "addr:city": "Tomasz\u00f3w Mazowiecki",
                "addr:street": "Ja\u0142owcowa",
                "addr:housenumber": "8",
                "addr:teryt:simc": 968300,
                "addr:teryt:sym_ul": 7097,
                "phone": "+48 447244282",
                "email": "sp9tomaszow@gmail.com",
                "website": "http:\/\/www.zs-p9tomaszow.wikom.pl",
                "ref:regon": "367363422",
                "ref:vatin": "PL7732483088",
                "operator": "Gmina-Miasto Tomasz\u00f3w Mazowiecki",
                "operator:type": "government",
                "landuse": "education",
                "fixme": "amenity=school, amenity=college albo landuse=education w zale\u017cno\u015bci od tego, jakie plac\u00f3wki wchodz\u0105 w sk\u0142ad zespo\u0142u. Sprawd\u017a, kiedy stosowa\u0107 amenity=* a kiedy landuse=education.",
                "note": "Children RSPO: 26851;133526"
            }
        },
        {
            "id": 133526,
            "type": "Feature",
            "geometry": {
                "type": "Point",
                "coordinates": [
                    20.02471,
                    51.52625
                ]
            },
            "properties": {
                "isced:level": "1;2",
                "ref:rspo": 133526,
                "official_name": "Szko\u0142a Podstawowa Nr 9 im. Ks. Jana Twardowskiego w Tomaszowie Mazowieckim",
                "name": "Szko\u0142a Podstawowa Nr 9",
                "addr:postcode": "97-200",
                "addr:city": "Tomasz\u00f3w Mazowiecki",
                "addr:street": "Ja\u0142owcowa",
                "addr:housenumber": "8",
                "addr:teryt:simc": 968300,
                "addr:teryt:sym_ul": 7097,
                "phone": "+48 447244282",
                "email": "sp9tomaszow@gmail.com",
                "website": "http:\/\/www.sp9tomaszow.wikom.pl\/",
                "ref:regon": "367395095",
                "operator": "Gmina-Miasto Tomasz\u00f3w Mazowiecki",
                "operator:type": "government",
                "amenity": "school",
                "note": "Parent RSPO: 133505"
            }
        },
        {
            "id": 133504,
            "type": "Feature",
            "geometry": {
                "type": "Point",
                "coordinates": [
                    20.01469,
                    51.52635
                ]
            },
            "properties": {
                "ref:rspo": 133504,
                "official_name": "Zesp\u00f3\u0142 Szkolno-Przedszkolny Nr 7 w Tomaszowie Mazowieckim",
                "name": "Zesp\u00f3\u0142 Szkolno-Przedszkolny Nr 7 w Tomaszowie Mazowieckim",
                "addr:postcode": "97-200",
                "addr:city": "Tomasz\u00f3w Mazowiecki",
                "addr:street": "\u015awi\u0119tego Antoniego",
                "addr:housenumber": "43\/45",
                "addr:teryt:simc": 968300,
                "addr:teryt:sym_ul": 351,
                "phone": "+48 447244380",
                "email": "zsp7tommaz@wp.pl",
                "website": "https:\/\/sp11tomaszow.wikom.pl\/",
                "ref:regon": "367363304",
                "ref:vatin": "PL7732483071",
                "operator": "Gmina-Miasto Tomasz\u00f3w Mazowiecki",
                "operator:type": "government",
                "landuse": "education",
                "fixme": "amenity=school, amenity=college albo landuse=education w zale\u017cno\u015bci od tego, jakie plac\u00f3wki wchodz\u0105 w sk\u0142ad zespo\u0142u. Sprawd\u017a, kiedy stosowa\u0107 amenity=* a kiedy landuse=education.",
                "note": "Children RSPO: 26856;133525"
            }
        },
        {
            "id": 133525,
            "type": "Feature",
            "geometry": {
                "type": "Point",
                "coordinates": [
                    20.01469,
                    51.52632
                ]
            },
            "properties": {
                "isced:level": "1;2",
                "ref:rspo": 133525,
                "official_name": "Szko\u0142a Podstawowa Nr 11 w Tomaszowie Mazowieckim",
                "name": "Szko\u0142a Podstawowa Nr 11 w Tomaszowie Mazowieckim",
                "addr:postcode": "97-200",
                "addr:city": "Tomasz\u00f3w Mazowiecki",
                "addr:street": "\u015awi\u0119tego Antoniego",
                "addr:housenumber": "43\/45",
                "addr:teryt:simc": 968300,
                "addr:teryt:sym_ul": 351,
                "phone": "+48 447244380",
                "email": "zsp7tommaz@wp.pl",
                "website": "http:\/\/www.sp11tomaszow.wikom.pl\/",
                "ref:regon": "367394820",
                "operator": "Gmina-Miasto Tomasz\u00f3w Mazowiecki",
                "operator:type": "government",
                "amenity": "school",
                "note": "Parent RSPO: 133504"
            }
        },
        {
            "id": 126050,
            "type": "Feature",
            "geometry": {
                "type": "Point",
                "coordinates": [
                    20.00034,
                    51.5264
                ]
            },
            "properties": {
                "ref:rspo": 126050,
                "official_name": "Niepubliczne Przedszkole Basia",
                "name": "Niepubliczne Przedszkole Basia",
                "addr:postcode": "97-200",
                "addr:city": "Tomasz\u00f3w Mazowiecki",
                "addr:street": "Lewa",
                "addr:housenumber": "10",
                "addr:teryt:simc": 968300,
                "addr:teryt:sym_ul": 10976,
                "phone": "+48 502652879",
                "email": "przedszkole.basia@wp.pl",
                "website": "http:\/\/przedszkolebasia.pl",
                "ref:regon": "360139035",
                "operator": "Barbara Kondejewska",
                "operator:type": "private",
                "amenity": "kindergarten"
            }
        },
        {
            "id": 78219,
            "type": "Feature",
            "geometry": {
                "type": "Point",
                "coordinates": [
                    20.01019,
                    51.52642
                ]
            },
            "properties": {
                "ref:rspo": 78219,
                "official_name": "Przedszkole Niepubliczne \"Promyczek\"",
                "name": "Przedszkole Niepubliczne \"Promyczek\"",
                "addr:postcode": "97-200",
                "addr:city": "Tomasz\u00f3w Mazowiecki",
                "addr:street": "\u017bwirki i Wigury",
                "addr:housenumber": "3",
                "addr:teryt:simc": 968300,
                "addr:teryt:sym_ul": 26608,
                "phone": "+48 668119607",
                "email": "przedszkole@promyczek-tomaszow.pl",
                "website": "http:\/\/www.promyczek-tomaszow.pl",
                "ref:regon": "101497040",
                "operator": "Fundacja \"Promyczek\"",
                "operator:type": "ngo",
                "amenity": "kindergarten"
            }
        },
        {
            "id": 25669,
            "type": "Feature",
            "geometry": {
                "type": "Point",
                "coordinates": [
                    19.945280075073,
                    51.527420043945
                ]
            },
            "properties": {
                "ref:rspo": 25669,
                "official_name": "Ekofit Dariusz Bezat",
                "name": "Ekofit Dariusz Bezat",
                "addr:postcode": "97-200",
                "addr:city": "Tomasz\u00f3w Mazowiecki",
                "addr:street": "Polskiej Organizacji Wojskowej",
                "addr:housenumber": "5",
                "addr:door": "307",
                "addr:teryt:simc": 968300,
                "addr:teryt:sym_ul": 48563,
                "phone": "+48 447150108",
                "email": "biuro@ekofit.pl",
                "website": "http:\/\/www.ekofit.pl",
                "ref:regon": "101478870",
                "ref:vatin": "PL7731715579",
                "operator": "Dariusz Bezat",
                "operator:type": "private",
                "fixme": "w zale\u017cno\u015bci od przedmiotu dzia\u0142alno\u015bci (np. amenity=training + training=*, amenity=dancing_school, amenity=language_school, amenity=music_school)"
            }
        },
        {
            "id": 123954,
            "type": "Feature",
            "geometry": {
                "type": "Point",
                "coordinates": [
                    19.945280075073,
                    51.527390043945
                ]
            },
            "properties": {
                "ref:rspo": 123954,
                "official_name": "Katolickie Przedszkole \"Anto\u015b\" w Tomaszowie Mazowieckim",
                "name": "Katolickie Przedszkole \"Anto\u015b\" w Tomaszowie Mazowieckim",
                "addr:postcode": "97-200",
                "addr:city": "Tomasz\u00f3w Mazowiecki",
                "addr:street": "Polskiej Organizacji Wojskowej",
                "addr:housenumber": "8",
                "addr:teryt:simc": 968300,
                "addr:teryt:sym_ul": 48563,
                "phone": "+48 602335691",
                "email": "fundacja.educator@o2.pl",
                "ref:regon": "101822511",
                "operator": "Fundacja Educator Im. Ks. Stanis\u0142awa Grada",
                "operator:type": "ngo",
                "amenity": "kindergarten"
            }
        },
        {
            "id": 27416,
            "type": "Feature",
            "geometry": {
                "type": "Point",
                "coordinates": [
                    19.99561,
                    51.52758
                ]
            },
            "properties": {
                "ref:rspo": 27416,
                "official_name": "Przedszkole Nr 2 im. Marii Kownackiej w Tomaszowie Mazowieckim",
                "name": "Przedszkole Nr 2",
                "addr:postcode": "97-200",
                "addr:city": "Tomasz\u00f3w Mazowiecki",
                "addr:street": "Stefana Czarnieckiego",
                "addr:housenumber": "12\/14",
                "addr:teryt:simc": 968300,
                "addr:teryt:sym_ul": 3283,
                "phone": "+48 447243912",
                "email": "przedszkole2@tomaszow-maz.pl",
                "website": "https:\/\/p2tomaszow.wikom.pl\/",
                "ref:regon": "590032980",
                "operator": "Gmina-Miasto Tomasz\u00f3w Mazowiecki",
                "operator:type": "government",
                "amenity": "kindergarten",
                "note": "Parent RSPO: 128231"
            }
        },
        {
            "id": 128231,
            "type": "Feature",
            "geometry": {
                "type": "Point",
                "coordinates": [
                    19.9986,
                    51.52773
                ]
            },
            "properties": {
                "ref:rspo": 128231,
                "official_name": "Zesp\u00f3\u0142 Szkolno-Przedszkolny Nr 6 w Tomaszowie Mazowieckim",
                "name": "Zesp\u00f3\u0142 Szkolno-Przedszkolny Nr 6 w Tomaszowie Mazowieckim",
                "addr:postcode": "97-200",
                "addr:city": "Tomasz\u00f3w Mazowiecki",
                "addr:street": "Juliusza S\u0142owackiego",
                "addr:housenumber": "32\/42",
                "addr:teryt:simc": 968300,
                "addr:teryt:sym_ul": 20291,
                "phone": "+48 447244804",
                "email": "zsp6@tomaszow-maz.pl",
                "website": "http:\/\/www.zs-p6tomaszow.wikom.pl",
                "ref:regon": "362190885",
                "operator": "Gmina-Miasto Tomasz\u00f3w Mazowiecki",
                "operator:type": "government",
                "landuse": "education",
                "fixme": "amenity=school, amenity=college albo landuse=education w zale\u017cno\u015bci od tego, jakie plac\u00f3wki wchodz\u0105 w sk\u0142ad zespo\u0142u. Sprawd\u017a, kiedy stosowa\u0107 amenity=* a kiedy landuse=education.",
                "note": "Children RSPO: 27416;29357"
            }
        },
        {
            "id": 29357,
            "type": "Feature",
            "geometry": {
                "type": "Point",
                "coordinates": [
                    19.9986,
                    51.527699999999996
                ]
            },
            "properties": {
                "isced:level": "1;2",
                "ref:rspo": 29357,
                "official_name": "Szko\u0142a Podstawowa Nr 14 im. Or\u0142a Bia\u0142ego w Tomaszowie Mazowieckim",
                "name": "Szko\u0142a Podstawowa Nr 14",
                "addr:postcode": "97-200",
                "addr:city": "Tomasz\u00f3w Mazowiecki",
                "addr:street": "Juliusza S\u0142owackiego",
                "addr:housenumber": "32\/42",
                "addr:teryt:simc": 968300,
                "addr:teryt:sym_ul": 20291,
                "phone": "+48 447244804",
                "email": "zsp6@tomaszow-maz.pl",
                "website": "https:\/\/sp14tomaszow.wikom.pl\/",
                "ref:regon": "000244794",
                "operator": "Gmina-Miasto Tomasz\u00f3w Mazowiecki",
                "operator:type": "government",
                "amenity": "school",
                "note": "Parent RSPO: 128231"
            }
        },
        {
            "id": 122284,
            "type": "Feature",
            "geometry": {
                "type": "Point",
                "coordinates": [
                    20.00317,
                    51.52787
                ]
            },
            "properties": {
                "ref:rspo": 122284,
                "official_name": "Niepubliczne Przedszkole \"Bartek\"",
                "name": "Niepubliczne Przedszkole \"Bartek\"",
                "addr:postcode": "97-200",
                "addr:city": "Tomasz\u00f3w Mazowiecki",
                "addr:street": "Juliusza S\u0142owackiego",
                "addr:housenumber": "8\/10",
                "addr:teryt:simc": 968300,
                "addr:teryt:sym_ul": 20291,
                "phone": "+48 531408165",
                "email": "przedszkolebartek1@op.pl",
                "ref:regon": "101740701",
                "operator": "Izabela Borowik",
                "operator:type": "private",
                "amenity": "kindergarten"
            }
        },
        {
            "id": 26851,
            "type": "Feature",
            "geometry": {
                "type": "Point",
                "coordinates": [
                    20.02545,
                    51.52837
                ]
            },
            "properties": {
                "ref:rspo": 26851,
                "official_name": "Przedszkole Nr 5 w Tomaszowie Mazowieckim",
                "name": "Przedszkole Nr 5 w Tomaszowie Mazowieckim",
                "addr:postcode": "97-200",
                "addr:city": "Tomasz\u00f3w Mazowiecki",
                "addr:street": "Niska",
                "addr:housenumber": "20A",
                "addr:teryt:simc": 968300,
                "addr:teryt:sym_ul": 14264,
                "phone": "+48 447246131",
                "email": "p5tomaszow@gmail.com",
                "website": "http:\/\/www.p5tomaszow.wikom.pl\/",
                "ref:regon": "590033005",
                "operator": "Gmina-Miasto Tomasz\u00f3w Mazowiecki",
                "operator:type": "government",
                "amenity": "kindergarten",
                "note": "Parent RSPO: 133505"
            }
        },
        {
            "id": 25650,
            "type": "Feature",
            "geometry": {
                "type": "Point",
                "coordinates": [
                    19.99743,
                    51.52845
                ]
            },
            "properties": {
                "ref:rspo": 25650,
                "official_name": "Zesp\u00f3\u0142 Szk\u00f3\u0142 Ponadpodstawowych Nr 3 im. Jana Paw\u0142a Ii",
                "name": "Zesp\u00f3\u0142 Szk\u00f3\u0142 Ponadpodstawowych Nr 3",
                "addr:postcode": "97-200",
                "addr:city": "Tomasz\u00f3w Mazowiecki",
                "addr:street": "Legion\u00f3w",
                "addr:housenumber": "47",
                "addr:teryt:simc": 968300,
                "addr:teryt:sym_ul": 10769,
                "email": "zsp3@op.pl",
                "website": "http:\/\/www.zsp3.tm.pl",
                "ref:regon": "000190756",
                "ref:vatin": "PL7732257334",
                "operator": "Powiat Tomaszowski",
                "operator:type": "government",
                "landuse": "education",
                "fixme": "amenity=school, amenity=college albo landuse=education w zale\u017cno\u015bci od tego, jakie plac\u00f3wki wchodz\u0105 w sk\u0142ad zespo\u0142u. Sprawd\u017a, kiedy stosowa\u0107 amenity=* a kiedy landuse=education.",
                "note": "Children RSPO: 31473;31477;31480;31482;31483;31484;274031"
            }
        },
        {
            "id": 31473,
            "type": "Feature",
            "geometry": {
                "type": "Point",
                "coordinates": [
                    19.99743,
                    51.52842
                ]
            },
            "properties": {
                "isced:level": "3",
                "ref:rspo": 31473,
                "official_name": "Technikum Nr 3",
                "name": "Technikum Nr 3",
                "addr:postcode": "97-200",
                "addr:city": "Tomasz\u00f3w Mazowiecki",
                "addr:street": "Legion\u00f3w",
                "addr:housenumber": "47",
                "addr:teryt:simc": 968300,
                "addr:teryt:sym_ul": 10769,
                "phone": "+48 447245641",
                "email": "zsp3tm@op.pl",
                "website": "http:\/\/www.zsp3.tm.pl",
                "ref:regon": "100236314",
                "ref:vatin": "PL7732257334",
                "operator": "Powiat Tomaszowski",
                "operator:type": "government",
                "amenity": "school",
                "note": "Parent RSPO: 25650"
            }
        },
        {
            "id": 31477,
            "type": "Feature",
            "geometry": {
                "type": "Point",
                "coordinates": [
                    19.99743,
                    51.52839
                ]
            },
            "properties": {
                "isced:level": "3",
                "ref:rspo": 31477,
                "official_name": "Bran\u017cowa Szko\u0142a I Stopnia Nr 3",
                "name": "Bran\u017cowa Szko\u0142a I Stopnia Nr 3",
                "addr:postcode": "97-200",
                "addr:city": "Tomasz\u00f3w Mazowiecki",
                "addr:street": "Legion\u00f3w",
                "addr:housenumber": "47",
                "addr:teryt:simc": 968300,
                "addr:teryt:sym_ul": 10769,
                "phone": "+48 447245641",
                "email": "zsp3tm@op.pl",
                "website": "http:\/\/www.zsp3.tm.pl",
                "ref:regon": "592147753",
                "ref:vatin": "PL7732257334",
                "operator": "Powiat Tomaszowski",
                "operator:type": "government",
                "amenity": "school",
                "note": "Parent RSPO: 25650"
            }
        },
        {
            "id": 31480,
            "type": "Feature",
            "geometry": {
                "type": "Point",
                "coordinates": [
                    19.99743,
                    51.52836
                ]
            },
            "properties": {
                "isced:level": "4",
                "ref:rspo": 31480,
                "official_name": "Policealna Szko\u0142a dla Doros\u0142ych Nr 1",
                "name": "Policealna Szko\u0142a dla Doros\u0142ych Nr 1",
                "addr:postcode": "97-200",
                "addr:city": "Tomasz\u00f3w Mazowiecki",
                "addr:street": "Legion\u00f3w",
                "addr:housenumber": "47",
                "addr:teryt:simc": 968300,
                "addr:teryt:sym_ul": 10769,
                "phone": "+48 447245641",
                "email": "zsp3tm@op.pl",
                "website": "http:\/\/www.zsp3.tm.pl",
                "ref:regon": "100236320",
                "ref:vatin": "PL7732257334",
                "operator": "Powiat Tomaszowski",
                "operator:type": "government",
                "amenity": "college",
                "note": "Parent RSPO: 25650"
            }
        },
        {
            "id": 31482,
            "type": "Feature",
            "geometry": {
                "type": "Point",
                "coordinates": [
                    19.99743,
                    51.52833
                ]
            },
            "properties": {
                "ref:rspo": 31482,
                "official_name": "Bursa w Zespole Szk\u00f3\u0142 Ponadgimnazjalnych Nr 3",
                "name": "Bursa w Zespole Szk\u00f3\u0142 Ponadgimnazjalnych Nr 3",
                "addr:postcode": "97-200",
                "addr:city": "Tomasz\u00f3w Mazowiecki",
                "addr:street": "Legion\u00f3w",
                "addr:housenumber": "47",
                "addr:teryt:simc": 968300,
                "addr:teryt:sym_ul": 10769,
                "phone": "+48 447245641",
                "email": "zsp3tm@op.pl",
                "website": "http:\/\/www.bursa.cba.pl",
                "ref:regon": "100740662",
                "ref:vatin": "PL7732257334",
                "operator": "Powiat Tomaszowski",
                "operator:type": "government",
                "building": "dormitory",
                "note": "Parent RSPO: 25650"
            }
        },
        {
            "id": 31483,
            "type": "Feature",
            "geometry": {
                "type": "Point",
                "coordinates": [
                    19.99743,
                    51.5283
                ]
            },
            "properties": {
                "ref:rspo": 31483,
                "official_name": "O\u015brodek Dokszta\u0142cania I Doskonalenia Zawodowego Przy Zespole Szk\u00f3\u0142 Ponadgimnazjalnych Nr 3 im. Jana Pwa\u0142a Ii",
                "name": "O\u015brodek Dokszta\u0142cania I Doskonalenia Zawodowego Przy Zespole Szk\u00f3\u0142 Ponadgimnazjalnych Nr 3",
                "addr:postcode": "97-200",
                "addr:city": "Tomasz\u00f3w Mazowiecki",
                "addr:street": "Legion\u00f3w",
                "addr:housenumber": "47",
                "addr:teryt:simc": 968300,
                "addr:teryt:sym_ul": 10769,
                "phone": "+48 447245641",
                "email": "zsp3tm@op.pl",
                "website": "http:\/\/www.ckp-zsp3.strefa.pl",
                "ref:regon": "100955799",
                "ref:vatin": "PL7732257334",
                "operator": "Powiat Tomaszowski",
                "operator:type": "government",
                "fixme": "w zale\u017cno\u015bci od przedmiotu dzia\u0142alno\u015bci (np. amenity=training + training=*, amenity=dancing_school, amenity=language_school, amenity=music_school) albo amenity=school, amenity=college, albo landuse=education w zale\u017cno\u015bci od tego, jakie plac\u00f3wki wchodz\u0105 w sk\u0142ad zespo\u0142u. Sprawd\u017a, kiedy stosowa\u0107 amenity=* a kiedy landuse=education.",
                "note": "Parent RSPO: 25650"
            }
        },
        {
            "id": 31484,
            "type": "Feature",
            "geometry": {
                "type": "Point",
                "coordinates": [
                    19.99743,
                    51.52827
                ]
            },
            "properties": {
                "ref:rspo": 31484,
                "official_name": "Centrum Kszta\u0142cenia Praktycznego w Zsp Nr 3 w Tomaszowie Mazowieckim",
                "name": "Centrum Kszta\u0142cenia Praktycznego w Zsp Nr 3 w Tomaszowie Mazowieckim",
                "addr:postcode": "97-200",
                "addr:city": "Tomasz\u00f3w Mazowiecki",
                "addr:street": "Legion\u00f3w",
                "addr:housenumber": "47",
                "addr:teryt:simc": 968300,
                "addr:teryt:sym_ul": 10769,
                "phone": "+48 447245641",
                "email": "zsp2tm@op.pl",
                "website": "http:\/\/www.ckp-zsp3.strefa.pl",
                "ref:regon": "100955730",
                "ref:vatin": "PL7732257334",
                "operator": "Powiat Tomaszowski",
                "operator:type": "government",
                "note": "Parent RSPO: 25650"
            }
        },
        {
            "id": 274031,
            "type": "Feature",
            "geometry": {
                "type": "Point",
                "coordinates": [
                    19.99743,
                    51.52824
                ]
            },
            "properties": {
                "ref:rspo": 274031,
                "official_name": "Centrum Kszta\u0142cenia Zawodowego",
                "name": "Centrum Kszta\u0142cenia Zawodowego",
                "addr:postcode": "97-200",
                "addr:city": "Tomasz\u00f3w Mazowiecki",
                "addr:street": "Legion\u00f3w",
                "addr:housenumber": "47",
                "addr:teryt:simc": 968300,
                "addr:teryt:sym_ul": 10769,
                "phone": "+48 447245641",
                "ref:regon": "385045501",
                "operator": "Powiat Tomaszowski",
                "operator:type": "government",
                "fixme": "w zale\u017cno\u015bci od przedmiotu dzia\u0142alno\u015bci (np. amenity=training + training=*, amenity=dancing_school, amenity=language_school, amenity=music_school) albo amenity=school, amenity=college, albo landuse=education w zale\u017cno\u015bci od tego, jakie plac\u00f3wki wchodz\u0105 w sk\u0142ad zespo\u0142u. Sprawd\u017a, kiedy stosowa\u0107 amenity=* a kiedy landuse=education.",
                "note": "Parent RSPO: 25650"
            }
        },
        {
            "id": 25601,
            "type": "Feature",
            "geometry": {
                "type": "Point",
                "coordinates": [
                    20.01197,
                    51.52851
                ]
            },
            "properties": {
                "ref:rspo": 25601,
                "official_name": "Zesp\u00f3\u0142 Szk\u00f3\u0142 Ponadpodstawowych Nr 1 im. Tadeusza Ko\u015bciuszki",
                "name": "Zesp\u00f3\u0142 Szk\u00f3\u0142 Ponadpodstawowych Nr 1",
                "addr:postcode": "97-200",
                "addr:city": "Tomasz\u00f3w Mazowiecki",
                "addr:street": "\u015awi\u0119tego Antoniego",
                "addr:housenumber": "29",
                "addr:teryt:simc": 968300,
                "addr:teryt:sym_ul": 351,
                "phone": "+48 447245515",
                "email": "zsp1.sekretariat@onet.eu",
                "website": "http:\/\/www.zsp1.edu.pl",
                "ref:regon": "000190532",
                "ref:vatin": "PL7732256872",
                "operator": "Powiat Tomaszowski",
                "operator:type": "government",
                "landuse": "education",
                "fixme": "amenity=school, amenity=college albo landuse=education w zale\u017cno\u015bci od tego, jakie plac\u00f3wki wchodz\u0105 w sk\u0142ad zespo\u0142u. Sprawd\u017a, kiedy stosowa\u0107 amenity=* a kiedy landuse=education.",
                "note": "Children RSPO: 29305"
            }
        },
        {
            "id": 25713,
            "type": "Feature",
            "geometry": {
                "type": "Point",
                "coordinates": [
                    20.01197,
                    51.528479999999995
                ]
            },
            "properties": {
                "isced:level": "4",
                "ref:rspo": 25713,
                "official_name": "Szko\u0142a Policealna Mrowi\u0144ski w Tomaszowie Mazowieckim",
                "name": "Szko\u0142a Policealna Mrowi\u0144ski w Tomaszowie Mazowieckim",
                "addr:postcode": "97-200",
                "addr:city": "Tomasz\u00f3w Mazowiecki",
                "addr:street": "\u015awi\u0119tego Antoniego",
                "addr:housenumber": "29",
                "addr:teryt:simc": 968300,
                "addr:teryt:sym_ul": 351,
                "phone": "+48 447260538",
                "email": "szkolymrowinski@poczta.onet.pl",
                "website": "http:\/\/www.mrowinski.edu.pl",
                "ref:regon": "101479740",
                "ref:vatin": "PL8351007492",
                "operator": "Piotr Mrowi\u0144ski",
                "operator:type": "private",
                "amenity": "college"
            }
        },
        {
            "id": 29307,
            "type": "Feature",
            "geometry": {
                "type": "Point",
                "coordinates": [
                    20.01197,
                    51.52845
                ]
            },
            "properties": {
                "isced:level": "3",
                "ref:rspo": 29307,
                "official_name": "V Liceum Og\u00f3lnokszta\u0142c\u0105ce",
                "name": "V Liceum Og\u00f3lnokszta\u0142c\u0105ce",
                "addr:postcode": "97-200",
                "addr:city": "Tomasz\u00f3w Mazowiecki",
                "addr:street": "\u015awi\u0119tego Antoniego",
                "addr:housenumber": "29",
                "addr:teryt:simc": 968300,
                "addr:teryt:sym_ul": 351,
                "phone": "+48 447245515",
                "email": "zsp1@edu.eu",
                "website": "http:\/\/www.zsp1.edu.pl",
                "ref:regon": "592147180",
                "operator": "Powiat Tomaszowski",
                "operator:type": "government",
                "amenity": "school"
            }
        },
        {
            "id": 30816,
            "type": "Feature",
            "geometry": {
                "type": "Point",
                "coordinates": [
                    20.01197,
                    51.52842
                ]
            },
            "properties": {
                "isced:level": "3",
                "ref:rspo": 30816,
                "official_name": "Zaoczne Liceum Og\u00f3lnokszta\u0142c\u0105ce dla Doros\u0142ych w Tomaszowie Mazowieckim",
                "name": "Zaoczne Liceum Og\u00f3lnokszta\u0142c\u0105ce dla Doros\u0142ych w Tomaszowie Mazowieckim",
                "addr:postcode": "97-200",
                "addr:city": "Tomasz\u00f3w Mazowiecki",
                "addr:street": "\u015awi\u0119tego Antoniego",
                "addr:housenumber": "29",
                "addr:teryt:simc": 968300,
                "addr:teryt:sym_ul": 351,
                "phone": "+48 447251998",
                "email": "szkolyzaoczne1996@interia.pl",
                "ref:regon": "101489431",
                "operator": "Przemys\u0142aw Mrowi\u0144ski",
                "operator:type": "private",
                "amenity": "school"
            }
        },
        {
            "id": 29305,
            "type": "Feature",
            "geometry": {
                "type": "Point",
                "coordinates": [
                    20.01197,
                    51.528389999999995
                ]
            },
            "properties": {
                "isced:level": "3",
                "ref:rspo": 29305,
                "official_name": "Technikum Nr 1",
                "name": "Technikum Nr 1",
                "addr:postcode": "97-200",
                "addr:city": "Tomasz\u00f3w Mazowiecki",
                "addr:street": "\u015awi\u0119tego Antoniego",
                "addr:housenumber": "29",
                "addr:teryt:simc": 968300,
                "addr:teryt:sym_ul": 351,
                "phone": "+48 447245515",
                "email": "zsp1.sekretariat@onet.eu",
                "website": "http:\/\/www.zsp1.edu.pl",
                "ref:regon": "100235958",
                "operator": "Powiat Tomaszowski",
                "operator:type": "government",
                "amenity": "school",
                "note": "Parent RSPO: 25601"
            }
        },
        {
            "id": 20670,
            "type": "Feature",
            "geometry": {
                "type": "Point",
                "coordinates": [
                    20.01861,
                    51.52863
                ]
            },
            "properties": {
                "ref:rspo": 20670,
                "official_name": "Pa\u0144stwowa Szko\u0142a Muzyczna I I II St. im. Prof. Tadeusza Wro\u0144skiego w Tomaszowie Mazowieckim",
                "name": "Pa\u0144stwowa Szko\u0142a Muzyczna I I II St.",
                "addr:postcode": "97-200",
                "addr:city": "Tomasz\u00f3w Mazowiecki",
                "addr:street": "Zapiecek",
                "addr:housenumber": "8",
                "addr:teryt:simc": 968300,
                "addr:teryt:sym_ul": 25618,
                "phone": "+48 447244210",
                "email": "psm-sekretariat@wp.pl",
                "website": "http:\/\/psm-tm.edupage.org",
                "ref:regon": "000276825",
                "operator": "Ministerstwo Kultury I Dziedzictwa Narodowego",
                "operator:type": "public",
                "landuse": "education",
                "fixme": "amenity=school, amenity=college albo landuse=education w zale\u017cno\u015bci od tego, jakie plac\u00f3wki wchodz\u0105 w sk\u0142ad zespo\u0142u. Sprawd\u017a, kiedy stosowa\u0107 amenity=* a kiedy landuse=education.",
                "note": "Children RSPO: 91980;91981"
            }
        },
        {
            "id": 91980,
            "type": "Feature",
            "geometry": {
                "type": "Point",
                "coordinates": [
                    20.01861,
                    51.5286
                ]
            },
            "properties": {
                "ref:rspo": 91980,
                "official_name": "Pa\u0144stwowa Szko\u0142a Muzyczna I St. w Tomaszowie Mazowieckim",
                "name": "Pa\u0144stwowa Szko\u0142a Muzyczna I St. w Tomaszowie Mazowieckim",
                "addr:postcode": "97-200",
                "addr:city": "Tomasz\u00f3w Mazowiecki",
                "addr:street": "Zapiecek",
                "addr:housenumber": "8",
                "addr:teryt:simc": 968300,
                "addr:teryt:sym_ul": 25618,
                "phone": "+48 447244210",
                "ref:regon": "101509369",
                "operator": "Ministerstwo Kultury I Dziedzictwa Narodowego",
                "operator:type": "public",
                "amenity": "music_school",
                "note": "Parent RSPO: 20670"
            }
        },
        {
            "id": 91981,
            "type": "Feature",
            "geometry": {
                "type": "Point",
                "coordinates": [
                    20.01861,
                    51.52857
                ]
            },
            "properties": {
                "ref:rspo": 91981,
                "official_name": "Pa\u0144stwowa Szko\u0142a Muzyczna II St. w Tomaszowie Mazowieckim",
                "name": "Pa\u0144stwowa Szko\u0142a Muzyczna II St. w Tomaszowie Mazowieckim",
                "addr:postcode": "97-200",
                "addr:city": "Tomasz\u00f3w Mazowiecki",
                "addr:street": "Zapiecek",
                "addr:housenumber": "8",
                "addr:teryt:simc": 968300,
                "addr:teryt:sym_ul": 25618,
                "phone": "+48 447244210",
                "ref:regon": "101509375",
                "operator": "Ministerstwo Kultury I Dziedzictwa Narodowego",
                "operator:type": "public",
                "amenity": "music_school",
                "note": "Parent RSPO: 20670"
            }
        },
        {
            "id": 272488,
            "type": "Feature",
            "geometry": {
                "type": "Point",
                "coordinates": [
                    20.02052,
                    51.52863
                ]
            },
            "properties": {
                "isced:level": "1;2",
                "ref:rspo": 272488,
                "official_name": "Archidiecezjalna Katolicka Publiczna Szko\u0142a Podstawowa w Tomaszowie Mazowieckim",
                "name": "Archidiecezjalna Katolicka Publiczna Szko\u0142a Podstawowa w Tomaszowie Mazowieckim",
                "addr:postcode": "97-200",
                "addr:city": "Tomasz\u00f3w Mazowiecki",
                "addr:street": "Bartosza G\u0142owackiego",
                "addr:housenumber": "11",
                "addr:teryt:simc": 968300,
                "addr:teryt:sym_ul": 5627,
                "phone": "+48 447101076",
                "email": "akp_sp@onet.pl",
                "ref:regon": "384260901",
                "operator": "Archidiecezja \u0141\u00f3dzka",
                "operator:type": "religious",
                "amenity": "school"
            }
        },
        {
            "id": 120559,
            "type": "Feature",
            "geometry": {
                "type": "Point",
                "coordinates": [
                    20.01098,
                    51.52882
                ]
            },
            "properties": {
                "ref:rspo": 120559,
                "official_name": "Punkt Przedszkolny \"Paprotka\" w Tomaszowie Mazowieckim",
                "name": "Punkt Przedszkolny \"Paprotka\" w Tomaszowie Mazowieckim",
                "addr:postcode": "97-200",
                "addr:city": "Tomasz\u00f3w Mazowiecki",
                "addr:street": "\u015awi\u0119tego Antoniego",
                "addr:housenumber": "28",
                "addr:teryt:simc": 968300,
                "addr:teryt:sym_ul": 351,
                "phone": "+48 605314648",
                "email": "paprotka2@tlen.pl",
                "ref:regon": "101677285",
                "operator": "Krystyna St\u0119pie\u0144",
                "operator:type": "private",
                "amenity": "kindergarten"
            }
        },
        {
            "id": 128480,
            "type": "Feature",
            "geometry": {
                "type": "Point",
                "coordinates": [
                    20.00571,
                    51.52899
                ]
            },
            "properties": {
                "ref:rspo": 128480,
                "official_name": "Zesp\u00f3\u0142 Szkolno - Przedszkolny Nr 4 w Tomaszowie Mazowieckim",
                "name": "Zesp\u00f3\u0142 Szkolno - Przedszkolny Nr 4 w Tomaszowie Mazowieckim",
                "addr:postcode": "97-200",
                "addr:city": "Tomasz\u00f3w Mazowiecki",
                "addr:street": "Leona Witolda May'a",
                "addr:housenumber": "11\/13",
                "addr:teryt:simc": 968300,
                "addr:teryt:sym_ul": 48564,
                "phone": "+48 447239659",
                "email": "zs-pnr4@tomaszow-maz.pl",
                "website": "http:\/\/www.zs-p4tomaszow.wikom.pl\/",
                "ref:regon": "362294840",
                "ref:vatin": "PL7732476728",
                "operator": "Gmina-Miasto Tomasz\u00f3w Mazowiecki",
                "operator:type": "government",
                "landuse": "education",
                "fixme": "amenity=school, amenity=college albo landuse=education w zale\u017cno\u015bci od tego, jakie plac\u00f3wki wchodz\u0105 w sk\u0142ad zespo\u0142u. Sprawd\u017a, kiedy stosowa\u0107 amenity=* a kiedy landuse=education.",
                "note": "Children RSPO: 26859;26875;29349"
            }
        },
        {
            "id": 29349,
            "type": "Feature",
            "geometry": {
                "type": "Point",
                "coordinates": [
                    20.00571,
                    51.52896
                ]
            },
            "properties": {
                "isced:level": "1;2",
                "ref:rspo": 29349,
                "official_name": "Szko\u0142a Podstawowa Nr 1 im. Aleksandra Kami\u0144skiego w Tomaszowie Mazowieckim",
                "name": "Szko\u0142a Podstawowa Nr 1",
                "addr:postcode": "97-200",
                "addr:city": "Tomasz\u00f3w Mazowiecki",
                "addr:street": "Leona Witolda May'a",
                "addr:housenumber": "11\/13",
                "addr:teryt:simc": 968300,
                "addr:teryt:sym_ul": 48564,
                "phone": "+48 447239659",
                "email": "zs-pnr4@tomaszow-maz.pl",
                "website": "http:\/\/www.sp1.tm.pl",
                "ref:regon": "000227985",
                "operator": "Gmina-Miasto Tomasz\u00f3w Mazowiecki",
                "operator:type": "government",
                "amenity": "school",
                "note": "Parent RSPO: 128480"
            }
        },
        {
            "id": 26859,
            "type": "Feature",
            "geometry": {
                "type": "Point",
                "coordinates": [
                    20.00553,
                    51.52902
                ]
            },
            "properties": {
                "ref:rspo": 26859,
                "official_name": "Przedszkole Nr 14 w Tomaszowie Mazowieckim",
                "name": "Przedszkole Nr 14 w Tomaszowie Mazowieckim",
                "addr:postcode": "97-200",
                "addr:city": "Tomasz\u00f3w Mazowiecki",
                "addr:street": "Leona Witolda May'a",
                "addr:housenumber": "5\/6",
                "addr:teryt:simc": 968300,
                "addr:teryt:sym_ul": 48564,
                "phone": "+48 447239981",
                "email": "p14tomaszow@wikom.pl",
                "website": "http:\/\/www.p14tomaszow.wikom.pl",
                "ref:regon": "590033063",
                "operator": "Gmina-Miasto Tomasz\u00f3w Mazowiecki",
                "operator:type": "government",
                "amenity": "kindergarten",
                "note": "Parent RSPO: 128480"
            }
        },
        {
            "id": 263323,
            "type": "Feature",
            "geometry": {
                "type": "Point",
                "coordinates": [
                    20.00401,
                    51.52963
                ]
            },
            "properties": {
                "ref:rspo": 263323,
                "official_name": "Przedszkole Integracyjne \"Iskiereczki\"",
                "name": "Przedszkole Integracyjne \"Iskiereczki\"",
                "addr:postcode": "97-200",
                "addr:city": "Tomasz\u00f3w Mazowiecki",
                "addr:street": "Grunwaldzka",
                "addr:housenumber": "13\/15",
                "addr:teryt:simc": 968300,
                "addr:teryt:sym_ul": 6260,
                "phone": "+48 609373114",
                "email": "przedszkole.iskiereczki@onet.pl",
                "website": "https:\/\/pl-pl.facebook.com\/przedszkole-iskiereczki-296145580804140\/",
                "ref:regon": "368179695",
                "operator": "Agnieszka Lenartowicz",
                "operator:type": "private",
                "amenity": "kindergarten"
            }
        },
        {
            "id": 29713,
            "type": "Feature",
            "geometry": {
                "type": "Point",
                "coordinates": [
                    20.01502,
                    51.53008
                ]
            },
            "properties": {
                "isced:level": "3",
                "ref:rspo": 29713,
                "official_name": "I Liceum Og\u00f3lnokszta\u0142c\u0105ce im. Jaros\u0142awa D\u0105browskiego w Tomaszowie Mazowieckim",
                "name": "I Liceum Og\u00f3lnokszta\u0142c\u0105ce",
                "addr:postcode": "97-200",
                "addr:city": "Tomasz\u00f3w Mazowiecki",
                "addr:street": "Prezydenta Ignacego Mo\u015bcickiego",
                "addr:housenumber": "22\/24",
                "addr:teryt:simc": 968300,
                "addr:teryt:sym_ul": 13391,
                "phone": "+48 447245234",
                "email": "1lo@1lo-tomaszow.com.pl",
                "website": "http:\/\/www.1lo-tomaszow.com.pl",
                "ref:regon": "000245753",
                "ref:vatin": "PL7731036068",
                "operator": "Powiat Tomaszowski",
                "operator:type": "government",
                "amenity": "school"
            }
        },
        {
            "id": 133506,
            "type": "Feature",
            "geometry": {
                "type": "Point",
                "coordinates": [
                    19.99644,
                    51.53075
                ]
            },
            "properties": {
                "ref:rspo": 133506,
                "official_name": "Zesp\u00f3\u0142 Szkolno-Przedszkolny Nr 10 w Tomaszowie Mazowieckim",
                "name": "Zesp\u00f3\u0142 Szkolno-Przedszkolny Nr 10 w Tomaszowie Mazowieckim",
                "addr:postcode": "97-200",
                "addr:city": "Tomasz\u00f3w Mazowiecki",
                "addr:street": "Aleja Marsza\u0142ka J\u00f3zefa Pi\u0142sudskiego",
                "addr:housenumber": "42\/46",
                "addr:teryt:simc": 968300,
                "addr:teryt:sym_ul": 48194,
                "phone": "+48 447244330",
                "email": "zsp10@tomaszow-maz.pl",
                "website": "https:\/\/sp3tomaszow.wikom.pl\/",
                "ref:regon": "367363505",
                "ref:vatin": "PL7732483148",
                "operator": "Gmina-Miasto Tomasz\u00f3w Mazowiecki",
                "operator:type": "government",
                "landuse": "education",
                "fixme": "amenity=school, amenity=college albo landuse=education w zale\u017cno\u015bci od tego, jakie plac\u00f3wki wchodz\u0105 w sk\u0142ad zespo\u0142u. Sprawd\u017a, kiedy stosowa\u0107 amenity=* a kiedy landuse=education.",
                "note": "Children RSPO: 26850;133527"
            }
        },
        {
            "id": 133527,
            "type": "Feature",
            "geometry": {
                "type": "Point",
                "coordinates": [
                    19.99644,
                    51.530719999999995
                ]
            },
            "properties": {
                "isced:level": "1;2",
                "ref:rspo": 133527,
                "official_name": "Szko\u0142a Podstawowa Nr 3 im. J\u00f3zefa Pi\u0142sudskiego w Tomaszowie Mazowieckim",
                "name": "Szko\u0142a Podstawowa Nr 3",
                "addr:postcode": "97-200",
                "addr:city": "Tomasz\u00f3w Mazowiecki",
                "addr:street": "Aleja Marsza\u0142ka J\u00f3zefa Pi\u0142sudskiego",
                "addr:housenumber": "42\/46",
                "addr:teryt:simc": 968300,
                "addr:teryt:sym_ul": 48194,
                "phone": "+48 447244330",
                "email": "zsp10@tomaszow-maz.pl",
                "website": "http:\/\/www.sp3tomaszow.wikom.pl",
                "ref:regon": "367393771",
                "operator": "Gmina-Miasto Tomasz\u00f3w Mazowiecki",
                "operator:type": "government",
                "amenity": "school",
                "note": "Parent RSPO: 133506"
            }
        },
        {
            "id": 131721,
            "type": "Feature",
            "geometry": {
                "type": "Point",
                "coordinates": [
                    20.017,
                    51.53105
                ]
            },
            "properties": {
                "ref:rspo": 131721,
                "official_name": "Abc 123 Ma\u0142e Przedszkole",
                "name": "Abc 123 Ma\u0142e Przedszkole",
                "addr:postcode": "97-200",
                "addr:city": "Tomasz\u00f3w Mazowiecki",
                "addr:street": "Browarna",
                "addr:housenumber": "11\/13",
                "addr:door": "6",
                "addr:teryt:simc": 968300,
                "addr:teryt:sym_ul": 2148,
                "phone": "+48 698649489",
                "email": "abc123tmb@gmail.com",
                "website": "http:\/\/www.przedszkole-tomaszow.pl",
                "ref:regon": "365334244",
                "operator": "Edward Arkuszewski",
                "operator:type": "private",
                "amenity": "kindergarten"
            }
        },
        {
            "id": 18353,
            "type": "Feature",
            "geometry": {
                "type": "Point",
                "coordinates": [
                    20.02117,
                    51.53142
                ]
            },
            "properties": {
                "ref:rspo": 18353,
                "official_name": "Poradnia Psychologiczno-Pedagogiczna",
                "name": "Poradnia Psychologiczno-Pedagogiczna",
                "addr:postcode": "97-200",
                "addr:city": "Tomasz\u00f3w Mazowiecki",
                "addr:street": "Majowa",
                "addr:housenumber": "1\/13",
                "addr:teryt:simc": 968300,
                "addr:teryt:sym_ul": 11988,
                "phone": "+48 447233486",
                "email": "sekretariat@ppptm.pl",
                "website": "http:\/\/www.ppptm.prv.pl",
                "ref:regon": "001045832",
                "ref:vatin": "PL7732101833",
                "operator": "Powiat Tomaszowski",
                "operator:type": "government",
                "healthcare": "counselling",
                "counselling_type": "education",
                "fixme": "w zale\u017cno\u015bci od przedmiotu dzia\u0142alno\u015bci (np. healthcare=counselling + counselling_type=education albo healthcare=psychotherapist)"
            }
        },
        {
            "id": 31564,
            "type": "Feature",
            "geometry": {
                "type": "Point",
                "coordinates": [
                    20.02117,
                    51.531389999999995
                ]
            },
            "properties": {
                "ref:rspo": 31564,
                "official_name": "Specjalny O\u015brodek Szkolno-Wychowawczy im. Marii Grzegorzewskiej",
                "name": "Specjalny O\u015brodek Szkolno-Wychowawczy",
                "addr:postcode": "97-200",
                "addr:city": "Tomasz\u00f3w Mazowiecki",
                "addr:street": "Majowa",
                "addr:housenumber": "1\/13",
                "addr:teryt:simc": 968300,
                "addr:teryt:sym_ul": 11988,
                "phone": "+48 447245066",
                "email": "sekretariat@soswtomaszow.pl",
                "website": "http:\/\/www.soswtomaszow.pl",
                "ref:regon": "000195883",
                "ref:vatin": "PL7731036660",
                "operator": "Powiat Tomaszowski",
                "operator:type": "government",
                "amenity": "school",
                "note": "Children RSPO: 53575;55639;56491"
            }
        },
        {
            "id": 53575,
            "type": "Feature",
            "geometry": {
                "type": "Point",
                "coordinates": [
                    20.02117,
                    51.53136
                ]
            },
            "properties": {
                "ref:rspo": 53575,
                "official_name": "Specjalny O\u015brodek Szkolno-Wychowawczy im.marii Grzegorzewskiej Szko\u0142a Specjalna Przysposabiaj\u0105ca Do Pracy",
                "name": "Specjalny O\u015brodek Szkolno-Wychowawczy im.marii Grzegorzewskiej Szko\u0142a Specjalna Przysposabiaj\u0105ca Do Pracy",
                "addr:postcode": "97-200",
                "addr:city": "Tomasz\u00f3w Mazowiecki",
                "addr:street": "Majowa",
                "addr:housenumber": "1\/13",
                "addr:teryt:simc": 968300,
                "addr:teryt:sym_ul": 11988,
                "phone": "+48 447245066",
                "email": "sekretariat@soswtomaszow.pl",
                "website": "http:\/\/www.soswtomaszow.pl",
                "ref:regon": "592294804",
                "operator": "Powiat Tomaszowski",
                "operator:type": "government",
                "amenity": "school",
                "note": "Parent RSPO: 31564"
            }
        },
        {
            "id": 55639,
            "type": "Feature",
            "geometry": {
                "type": "Point",
                "coordinates": [
                    20.02117,
                    51.53133
                ]
            },
            "properties": {
                "isced:level": "1;2",
                "ref:rspo": 55639,
                "official_name": "Specjalny O\u015brodek Szkolno-Wychowawczy im.marii Grzegorzewskiej Szko\u0142a Podstawowa",
                "name": "Specjalny O\u015brodek Szkolno-Wychowawczy im.marii Grzegorzewskiej Szko\u0142a Podstawowa",
                "addr:postcode": "97-200",
                "addr:city": "Tomasz\u00f3w Mazowiecki",
                "addr:street": "Majowa",
                "addr:housenumber": "1\/13",
                "addr:teryt:simc": 968300,
                "addr:teryt:sym_ul": 11988,
                "phone": "+48 447245066",
                "email": "sekretariat@soswtomaszow.pl",
                "website": "http:\/\/www.soswtomaszow.pl",
                "ref:regon": "592147256",
                "operator": "Powiat Tomaszowski",
                "operator:type": "government",
                "amenity": "school",
                "note": "Parent RSPO: 31564"
            }
        },
        {
            "id": 56491,
            "type": "Feature",
            "geometry": {
                "type": "Point",
                "coordinates": [
                    20.02117,
                    51.531299999999995
                ]
            },
            "properties": {
                "isced:level": "3",
                "ref:rspo": 56491,
                "official_name": "Specjalny O\u015brodek Szkolno-Wychowawczy im.marii Grzegorzewskiej Bran\u017cowa Szko\u0142a Specjalna I Stopnia",
                "name": "Specjalny O\u015brodek Szkolno-Wychowawczy im.marii Grzegorzewskiej Bran\u017cowa Szko\u0142a Specjalna I Stopnia",
                "addr:postcode": "97-200",
                "addr:city": "Tomasz\u00f3w Mazowiecki",
                "addr:street": "Majowa",
                "addr:housenumber": "1\/13",
                "addr:teryt:simc": 968300,
                "addr:teryt:sym_ul": 11988,
                "phone": "+48 447245066",
                "email": "sekretariat@soswtomaszow.pl",
                "website": "http:\/\/www.soswtomaszow.pl",
                "ref:regon": "592147300",
                "operator": "Powiat Tomaszowski",
                "operator:type": "government",
                "amenity": "school",
                "note": "Parent RSPO: 31564"
            }
        },
        {
            "id": 52387,
            "type": "Feature",
            "geometry": {
                "type": "Point",
                "coordinates": [
                    20.00541,
                    51.53151
                ]
            },
            "properties": {
                "isced:level": "3",
                "ref:rspo": 52387,
                "official_name": "Liceum Og\u00f3lnokszta\u0142c\u0105ce dla Doros\u0142ych ,,\u017bak\"",
                "name": "Liceum Og\u00f3lnokszta\u0142c\u0105ce dla Doros\u0142ych ,,\u017bak\"",
                "addr:postcode": "97-200",
                "addr:city": "Tomasz\u00f3w Mazowiecki",
                "addr:street": "Plac Tadeusza Ko\u015bciuszki",
                "addr:housenumber": "19",
                "addr:teryt:simc": 968300,
                "addr:teryt:sym_ul": 42838,
                "phone": "+48 447260078",
                "email": "tomaszow@zak.edu.pl",
                "website": "http:\/\/www.zak.edu.pl",
                "ref:regon": "101494857",
                "operator": "Centrum Nauki I Biznesu \"\u017bak\" Sp\u00f3\u0142ka Z Ograniczon\u0105 Odpowiedzialno\u015bci\u0105",
                "operator:type": "private",
                "amenity": "school"
            }
        },
        {
            "id": 56011,
            "type": "Feature",
            "geometry": {
                "type": "Point",
                "coordinates": [
                    20.00541,
                    51.531479999999995
                ]
            },
            "properties": {
                "ref:rspo": 56011,
                "official_name": "O\u015brodek Szkoleniowy Centrum Nauki I Biznesu ,,\u017bak\u201d w Tomaszowie Mazowieckim",
                "name": "O\u015brodek Szkoleniowy Centrum Nauki I Biznesu ,,\u017bak\u201d w Tomaszowie Mazowieckim",
                "addr:postcode": "97-200",
                "addr:city": "Tomasz\u00f3w Mazowiecki",
                "addr:street": "Plac Tadeusza Ko\u015bciuszki",
                "addr:housenumber": "19",
                "addr:teryt:simc": 968300,
                "addr:teryt:sym_ul": 42838,
                "phone": "+48 447260078",
                "email": "tomaszow@zak.edu.pl",
                "website": "http:\/\/www.zak.edu.pl",
                "ref:regon": "101490351",
                "operator": "Centrum Nauki I Biznesu \"\u017bak\" Sp\u00f3\u0142ka Z Ograniczon\u0105 Odpowiedzialno\u015bci\u0105",
                "operator:type": "private",
                "fixme": "w zale\u017cno\u015bci od przedmiotu dzia\u0142alno\u015bci (np. amenity=training + training=*, amenity=dancing_school, amenity=language_school, amenity=music_school)"
            }
        },
        {
            "id": 60244,
            "type": "Feature",
            "geometry": {
                "type": "Point",
                "coordinates": [
                    20.00541,
                    51.53145
                ]
            },
            "properties": {
                "isced:level": "4",
                "ref:rspo": 60244,
                "official_name": "Szko\u0142a Policealna Centrum Nauki I Biznesu ,,\u017bak\"",
                "name": "Szko\u0142a Policealna Centrum Nauki I Biznesu ,,\u017bak\"",
                "addr:postcode": "97-200",
                "addr:city": "Tomasz\u00f3w Mazowiecki",
                "addr:street": "Plac Tadeusza Ko\u015bciuszki",
                "addr:housenumber": "19",
                "addr:teryt:simc": 968300,
                "addr:teryt:sym_ul": 42838,
                "phone": "+48 447260078",
                "email": "tomaszow@zak.edu.pl",
                "website": "http:\/\/www.zak.edu.pl",
                "ref:regon": "101494870",
                "operator": "Centrum Nauki I Biznesu \"\u017bak\" Sp\u00f3\u0142ka Z Ograniczon\u0105 Odpowiedzialno\u015bci\u0105",
                "operator:type": "private",
                "amenity": "college"
            }
        },
        {
            "id": 264283,
            "type": "Feature",
            "geometry": {
                "type": "Point",
                "coordinates": [
                    20.00541,
                    51.53142
                ]
            },
            "properties": {
                "isced:level": "4",
                "ref:rspo": 264283,
                "official_name": "Szko\u0142a Policealna Medyczna ,,\u017bak\" w Tomaszowie Mazowieckim",
                "name": "Szko\u0142a Policealna Medyczna ,,\u017bak\" w Tomaszowie Mazowieckim",
                "addr:postcode": "97-200",
                "addr:city": "Tomasz\u00f3w Mazowiecki",
                "addr:street": "Plac Tadeusza Ko\u015bciuszki",
                "addr:housenumber": "19",
                "addr:teryt:simc": 968300,
                "addr:teryt:sym_ul": 42838,
                "phone": "+48 447260078",
                "email": "tomaszow@zak.edu.pl",
                "ref:regon": "368305214",
                "operator": "Centrum Nauki I Biznesu \"\u017bak\" Sp\u00f3\u0142ka Z Ograniczon\u0105 Odpowiedzialno\u015bci\u0105",
                "operator:type": "private",
                "amenity": "college"
            }
        },
        {
            "id": 264284,
            "type": "Feature",
            "geometry": {
                "type": "Point",
                "coordinates": [
                    20.00541,
                    51.531389999999995
                ]
            },
            "properties": {
                "isced:level": "4",
                "ref:rspo": 264284,
                "official_name": "Szko\u0142a Policealna Opieki Medycznej ,,\u017bak\" w Tomaszowie Mazowieckim",
                "name": "Szko\u0142a Policealna Opieki Medycznej ,,\u017bak\" w Tomaszowie Mazowieckim",
                "addr:postcode": "97-200",
                "addr:city": "Tomasz\u00f3w Mazowiecki",
                "addr:street": "Plac Tadeusza Ko\u015bciuszki",
                "addr:housenumber": "19",
                "addr:teryt:simc": 968300,
                "addr:teryt:sym_ul": 42838,
                "phone": "+48 447260078",
                "email": "tomaszow@zak.edu.pl",
                "ref:regon": "368305243",
                "operator": "Centrum Nauki I Biznesu \"\u017bak\" Sp\u00f3\u0142ka Z Ograniczon\u0105 Odpowiedzialno\u015bci\u0105",
                "operator:type": "private",
                "amenity": "college"
            }
        },
        {
            "id": 110445,
            "type": "Feature",
            "geometry": {
                "type": "Point",
                "coordinates": [
                    20.00523,
                    51.53214
                ]
            },
            "properties": {
                "isced:level": "3",
                "ref:rspo": 110445,
                "official_name": "Bran\u017cowa Szko\u0142a I Stopnia",
                "name": "Bran\u017cowa Szko\u0142a I Stopnia",
                "addr:postcode": "97-200",
                "addr:city": "Tomasz\u00f3w Mazowiecki",
                "addr:street": "Tkacka",
                "addr:housenumber": "11",
                "addr:teryt:simc": 968300,
                "addr:teryt:sym_ul": 22794,
                "phone": "+48 447346000",
                "email": "bnskomed@o2.pl",
                "ref:regon": "101564552",
                "ref:vatin": "PL7732112564",
                "operator": "Bns Komed Sp\u00f3\u0142ka Z Ograniczon\u0105 Odpowiedzialno\u015bci\u0105",
                "operator:type": "private",
                "amenity": "school"
            }
        },
        {
            "id": 262694,
            "type": "Feature",
            "geometry": {
                "type": "Point",
                "coordinates": [
                    20.00523,
                    51.532109999999996
                ]
            },
            "properties": {
                "isced:level": "1;2",
                "ref:rspo": 262694,
                "official_name": "Szko\u0142a Podstawowa dla Doros\u0142ych w Tomaszowie Mazowieckim",
                "name": "Szko\u0142a Podstawowa dla Doros\u0142ych w Tomaszowie Mazowieckim",
                "addr:postcode": "97-200",
                "addr:city": "Tomasz\u00f3w Mazowiecki",
                "addr:street": "Tkacka",
                "addr:housenumber": "11",
                "addr:teryt:simc": 968300,
                "addr:teryt:sym_ul": 22794,
                "phone": "+48 447346000",
                "email": "bnskomed@o2.pl",
                "ref:regon": "368052109",
                "operator": "Bns Komed Sp\u00f3\u0142ka Z Ograniczon\u0105 Odpowiedzialno\u015bci\u0105",
                "operator:type": "private",
                "amenity": "school"
            }
        },
        {
            "id": 105438,
            "type": "Feature",
            "geometry": {
                "type": "Point",
                "coordinates": [
                    20.01386,
                    51.53382
                ]
            },
            "properties": {
                "ref:rspo": 105438,
                "official_name": "Niepubliczne Przedszkole \"Igna\u015b\"",
                "name": "Niepubliczne Przedszkole \"Igna\u015b\"",
                "addr:postcode": "97-200",
                "addr:city": "Tomasz\u00f3w Mazowiecki",
                "addr:street": "Konstytucji 3 Maja",
                "addr:housenumber": "23",
                "addr:teryt:simc": 968300,
                "addr:teryt:sym_ul": 9213,
                "phone": "+48 447231222",
                "email": "przedszkole.ignas@wp.pl",
                "ref:regon": "101524682",
                "operator": "Pawe\u0142 Trybulak",
                "operator:type": "private",
                "amenity": "kindergarten"
            }
        },
        {
            "id": 25056,
            "type": "Feature",
            "geometry": {
                "type": "Point",
                "coordinates": [
                    19.99579,
                    51.5339699
                ]
            },
            "properties": {
                "ref:rspo": 25056,
                "official_name": "\"Apro\" O\u015brodek Szkoleniowo-Konsultingowy Pawe\u0142 Robak",
                "name": "\"Apro\" O\u015brodek Szkoleniowo-Konsultingowy Pawe\u0142 Robak",
                "addr:postcode": "97-200",
                "addr:city": "Tomasz\u00f3w Mazowiecki",
                "addr:street": "Legion\u00f3w",
                "addr:housenumber": "18",
                "addr:teryt:simc": 968300,
                "addr:teryt:sym_ul": 10769,
                "phone": "+48 695035335",
                "email": "aprobhp@wp.pl",
                "website": "http:\/\/www.aprobhp.pl",
                "ref:regon": "101479728",
                "ref:vatin": "PL7732051093",
                "operator": "Pawe\u0142 Robak",
                "operator:type": "private",
                "fixme": "w zale\u017cno\u015bci od przedmiotu dzia\u0142alno\u015bci (np. amenity=training + training=*, amenity=dancing_school, amenity=language_school, amenity=music_school)"
            }
        },
        {
            "id": 79831,
            "type": "Feature",
            "geometry": {
                "type": "Point",
                "coordinates": [
                    20.03194,
                    51.53487
                ]
            },
            "properties": {
                "isced:level": "1;2",
                "ref:rspo": 79831,
                "official_name": "Szko\u0142a Podstawowa Tomek w Tomaszowie Mazowieckim",
                "name": "Szko\u0142a Podstawowa Tomek w Tomaszowie Mazowieckim",
                "addr:postcode": "97-200",
                "addr:city": "Tomasz\u00f3w Mazowiecki",
                "addr:street": "Sosnowa",
                "addr:housenumber": "62\/70",
                "addr:teryt:simc": 968300,
                "addr:teryt:sym_ul": 20598,
                "phone": "+48 447100123",
                "email": "biuro@proemedu.pl",
                "website": "http:\/\/www.proemedu.pl",
                "ref:regon": "101498625",
                "operator": "Fundacja Proem Edu",
                "operator:type": "ngo",
                "amenity": "school"
            }
        },
        {
            "id": 79835,
            "type": "Feature",
            "geometry": {
                "type": "Point",
                "coordinates": [
                    20.03194,
                    51.534839999999996
                ]
            },
            "properties": {
                "ref:rspo": 79835,
                "official_name": "Przedszkole \"Tomaszek\"",
                "name": "Przedszkole \"Tomaszek\"",
                "addr:postcode": "97-200",
                "addr:city": "Tomasz\u00f3w Mazowiecki",
                "addr:street": "Sosnowa",
                "addr:housenumber": "62\/70",
                "addr:teryt:simc": 968300,
                "addr:teryt:sym_ul": 20598,
                "phone": "+48 447100123",
                "email": "biuro@proemedu.pl",
                "website": "http:\/\/www.proemedu.pl",
                "ref:regon": "101502195",
                "operator": "Fundacja Proem Edu",
                "operator:type": "ngo",
                "amenity": "kindergarten"
            }
        },
        {
            "id": 132591,
            "type": "Feature",
            "geometry": {
                "type": "Point",
                "coordinates": [
                    20.03194,
                    51.53481
                ]
            },
            "properties": {
                "isced:level": "3",
                "ref:rspo": 132591,
                "official_name": "Liceum Og\u00f3lnokszta\u0142c\u0105ce Thomas",
                "name": "Liceum Og\u00f3lnokszta\u0142c\u0105ce Thomas",
                "addr:postcode": "97-200",
                "addr:city": "Tomasz\u00f3w Mazowiecki",
                "addr:street": "Sosnowa",
                "addr:housenumber": "62",
                "addr:door": "70",
                "addr:teryt:simc": 968300,
                "addr:teryt:sym_ul": 20598,
                "phone": "+48 502109922",
                "email": "biuro@proemedu.pl",
                "website": "http:\/\/www.proemedu.pl",
                "ref:regon": "365868023",
                "operator": "Fundacja Proem Edu",
                "operator:type": "ngo",
                "amenity": "school"
            }
        },
        {
            "id": 277333,
            "type": "Feature",
            "geometry": {
                "type": "Point",
                "coordinates": [
                    20.00922,
                    51.53488
                ]
            },
            "properties": {
                "ref:rspo": 277333,
                "official_name": "Centrum Szkoleniowe Fundacji Europejskich Inicjatyw Spo\u0142ecznych",
                "name": "Centrum Szkoleniowe Fundacji Europejskich Inicjatyw Spo\u0142ecznych",
                "addr:postcode": "97-200",
                "addr:city": "Tomasz\u00f3w Mazowiecki",
                "addr:street": "Warszawska",
                "addr:housenumber": "10\/14",
                "addr:door": "5",
                "addr:teryt:simc": 968300,
                "addr:teryt:sym_ul": 23682,
                "phone": "+48 500065540",
                "ref:regon": "388641439",
                "operator": "Fundacja Europejskich Inicjatyw Spo\u0142ecznych",
                "operator:type": "ngo",
                "fixme": "w zale\u017cno\u015bci od przedmiotu dzia\u0142alno\u015bci (np. amenity=training + training=*, amenity=dancing_school, amenity=language_school, amenity=music_school)"
            }
        },
        {
            "id": 26850,
            "type": "Feature",
            "geometry": {
                "type": "Point",
                "coordinates": [
                    19.9952,
                    51.53545
                ]
            },
            "properties": {
                "ref:rspo": 26850,
                "official_name": "Przedszkole Nr 11 w Tomaszowie Mazowieckim",
                "name": "Przedszkole Nr 11 w Tomaszowie Mazowieckim",
                "addr:postcode": "97-200",
                "addr:city": "Tomasz\u00f3w Mazowiecki",
                "addr:street": "Farbiarska",
                "addr:housenumber": "51\/57",
                "addr:teryt:simc": 968300,
                "addr:teryt:sym_ul": 4902,
                "phone": "+48 447242479",
                "email": "przedszkole.nr.11@tlen.pl",
                "website": "http:\/\/www.p11tomaszow.wikom.pl",
                "ref:regon": "590033040",
                "operator": "Gmina-Miasto Tomasz\u00f3w Mazowiecki",
                "operator:type": "government",
                "amenity": "kindergarten",
                "note": "Parent RSPO: 133506"
            }
        },
        {
            "id": 128319,
            "type": "Feature",
            "geometry": {
                "type": "Point",
                "coordinates": [
                    20.02405,
                    51.53551
                ]
            },
            "properties": {
                "ref:rspo": 128319,
                "official_name": "Zesp\u00f3\u0142 Szk\u00f3\u0142 Ponadpodstawowych Nr 8 w Tomaszowie Mazowieckim",
                "name": "Zesp\u00f3\u0142 Szk\u00f3\u0142 Ponadpodstawowych Nr 8 w Tomaszowie Mazowieckim",
                "addr:postcode": "97-200",
                "addr:city": "Tomasz\u00f3w Mazowiecki",
                "addr:street": "Nadrzeczna",
                "addr:housenumber": "17\/25",
                "addr:teryt:simc": 968300,
                "addr:teryt:sym_ul": 13902,
                "phone": "+48 447245308",
                "email": "www.zsp8tomaszow@wikom.pl",
                "ref:regon": "362233198",
                "operator": "Powiat Tomaszowski",
                "operator:type": "government",
                "landuse": "education",
                "fixme": "amenity=school, amenity=college albo landuse=education w zale\u017cno\u015bci od tego, jakie plac\u00f3wki wchodz\u0105 w sk\u0142ad zespo\u0142u. Sprawd\u017a, kiedy stosowa\u0107 amenity=* a kiedy landuse=education.",
                "note": "Children RSPO: 25384;128322"
            }
        },
        {
            "id": 262676,
            "type": "Feature",
            "geometry": {
                "type": "Point",
                "coordinates": [
                    20.02405,
                    51.53548
                ]
            },
            "properties": {
                "isced:level": "1;2",
                "ref:rspo": 262676,
                "official_name": "Szko\u0142a Podstawowa dla Doros\u0142ych",
                "name": "Szko\u0142a Podstawowa dla Doros\u0142ych",
                "addr:postcode": "97-200",
                "addr:city": "Tomasz\u00f3w Mazowiecki",
                "addr:street": "Nadrzeczna",
                "addr:housenumber": "17\/25",
                "addr:teryt:simc": 968300,
                "addr:teryt:sym_ul": 13902,
                "phone": "+48 426791996",
                "email": "sekretariatlko@wp.pl",
                "ref:regon": "368049870",
                "operator": "\"\u0141\u00f3dzka Korporacja O\u015bwiatowa\"- Sp\u00f3\u0142ka Z Ograniczon\u0105 Odpowiedzialno\u015bci\u0105",
                "operator:type": "private",
                "amenity": "school"
            }
        },
        {
            "id": 25384,
            "type": "Feature",
            "geometry": {
                "type": "Point",
                "coordinates": [
                    20.02405,
                    51.535450000000004
                ]
            },
            "properties": {
                "isced:level": "3",
                "ref:rspo": 25384,
                "official_name": "Iii Liceum Og\u00f3lnokszta\u0142c\u0105ce im. P\u0142k. Stanis\u0142awa Hojnowskiego",
                "name": "Iii Liceum Og\u00f3lnokszta\u0142c\u0105ce",
                "addr:postcode": "97-200",
                "addr:city": "Tomasz\u00f3w Mazowiecki",
                "addr:street": "Nadrzeczna",
                "addr:housenumber": "17\/25",
                "addr:teryt:simc": 968300,
                "addr:teryt:sym_ul": 13902,
                "phone": "+48 447245308",
                "email": "zsp8tomaszow@wikom.pl",
                "website": "http:\/\/www.zsp8.eu",
                "ref:regon": "592147523",
                "ref:vatin": "PL7732366460",
                "operator": "Powiat Tomaszowski",
                "operator:type": "government",
                "amenity": "school",
                "note": "Parent RSPO: 128319"
            }
        },
        {
            "id": 128322,
            "type": "Feature",
            "geometry": {
                "type": "Point",
                "coordinates": [
                    20.02405,
                    51.53542
                ]
            },
            "properties": {
                "isced:level": "3",
                "ref:rspo": 128322,
                "official_name": "Technikum Nr 6 w Tomaszowie Mazowieckim",
                "name": "Technikum Nr 6 w Tomaszowie Mazowieckim",
                "addr:postcode": "97-200",
                "addr:city": "Tomasz\u00f3w Mazowiecki",
                "addr:street": "Nadrzeczna",
                "addr:housenumber": "17\/25",
                "addr:teryt:simc": 968300,
                "addr:teryt:sym_ul": 13902,
                "phone": "+48 447245308",
                "email": "zsp8tomaszow@wikom.pl",
                "ref:regon": "362233241",
                "operator": "Powiat Tomaszowski",
                "operator:type": "government",
                "amenity": "school",
                "note": "Parent RSPO: 128319"
            }
        },
        {
            "id": 115426,
            "type": "Feature",
            "geometry": {
                "type": "Point",
                "coordinates": [
                    20.01866,
                    51.53753
                ]
            },
            "properties": {
                "ref:rspo": 115426,
                "official_name": "Zesp\u00f3\u0142 Szkolno-Przedszkolny Nr 1 w Tomaszowie Mazowieckim",
                "name": "Zesp\u00f3\u0142 Szkolno-Przedszkolny Nr 1 w Tomaszowie Mazowieckim",
                "addr:postcode": "97-200",
                "addr:city": "Tomasz\u00f3w Mazowiecki",
                "addr:street": "Juliana Ursyna Niemcewicza",
                "addr:housenumber": "50\/56",
                "addr:teryt:simc": 968300,
                "addr:teryt:sym_ul": 37931,
                "phone": "+48 447242061",
                "email": "zs-p1tomaszow@wikom.pl",
                "website": "https:\/\/sp13tomaszow.wikom.pl",
                "ref:regon": "101630237",
                "ref:vatin": "PL7732473546",
                "operator": "Gmina-Miasto Tomasz\u00f3w Mazowiecki",
                "operator:type": "government",
                "landuse": "education",
                "fixme": "amenity=school, amenity=college albo landuse=education w zale\u017cno\u015bci od tego, jakie plac\u00f3wki wchodz\u0105 w sk\u0142ad zespo\u0142u. Sprawd\u017a, kiedy stosowa\u0107 amenity=* a kiedy landuse=education.",
                "note": "Children RSPO: 26857;29356"
            }
        },
        {
            "id": 26857,
            "type": "Feature",
            "geometry": {
                "type": "Point",
                "coordinates": [
                    20.01866,
                    51.537499999999994
                ]
            },
            "properties": {
                "ref:rspo": 26857,
                "official_name": "Przedszkole Nr 16 w Tomaszowie Mazowieckim",
                "name": "Przedszkole Nr 16 w Tomaszowie Mazowieckim",
                "addr:postcode": "97-200",
                "addr:city": "Tomasz\u00f3w Mazowiecki",
                "addr:street": "Juliana Ursyna Niemcewicza",
                "addr:housenumber": "50\/56",
                "addr:teryt:simc": 968300,
                "addr:teryt:sym_ul": 37931,
                "phone": "+48 447246592",
                "email": "zs-p1tomaszow@wikom.pl",
                "website": "http:\/\/www.p16tomaszow.wikom.pl",
                "ref:regon": "590033070",
                "operator": "Gmina-Miasto Tomasz\u00f3w Mazowiecki",
                "operator:type": "government",
                "amenity": "kindergarten",
                "note": "Parent RSPO: 115426"
            }
        },
        {
            "id": 29356,
            "type": "Feature",
            "geometry": {
                "type": "Point",
                "coordinates": [
                    20.01866,
                    51.53747
                ]
            },
            "properties": {
                "isced:level": "1;2",
                "ref:rspo": 29356,
                "official_name": "Szko\u0142a Podstawowa Nr 13 Pomnik Tysi\u0105clecia Pa\u0144stwa Polskiego w Tomaszowie Mazowieckim",
                "name": "Szko\u0142a Podstawowa Nr 13 Pomnik Tysi\u0105clecia Pa\u0144stwa Polskiego w Tomaszowie Mazowieckim",
                "addr:postcode": "97-200",
                "addr:city": "Tomasz\u00f3w Mazowiecki",
                "addr:street": "Juliana Ursyna Niemcewicza",
                "addr:housenumber": "50\/56",
                "addr:teryt:simc": 968300,
                "addr:teryt:sym_ul": 37931,
                "phone": "+48 447242061",
                "email": "zs-p1tomaszow@wikom.pl",
                "website": "https:\/\/sp13tomaszow.wikom.pl",
                "ref:regon": "000244386",
                "operator": "Gmina-Miasto Tomasz\u00f3w Mazowiecki",
                "operator:type": "government",
                "amenity": "school",
                "note": "Parent RSPO: 115426"
            }
        },
        {
            "id": 275625,
            "type": "Feature",
            "geometry": {
                "type": "Point",
                "coordinates": [
                    20.02402,
                    51.53774
                ]
            },
            "properties": {
                "ref:rspo": 275625,
                "official_name": "Przedszkole Zielony Gaj",
                "name": "Przedszkole Zielony Gaj",
                "addr:postcode": "97-200",
                "addr:city": "Tomasz\u00f3w Mazowiecki",
                "addr:street": "Ksi\u0119dza Jerzego Popie\u0142uszki",
                "addr:housenumber": "1A\/3",
                "addr:teryt:simc": 968300,
                "addr:teryt:sym_ul": 48312,
                "phone": "+48 783223223",
                "email": "zielonygaj@poczta.onet.pl",
                "ref:regon": "386928728",
                "operator": "Joanna Grzybowska",
                "operator:type": "private",
                "amenity": "kindergarten"
            }
        },
        {
            "id": 48922,
            "type": "Feature",
            "geometry": {
                "type": "Point",
                "coordinates": [
                    20.0092399,
                    51.53967
                ]
            },
            "properties": {
                "ref:rspo": 48922,
                "official_name": "Centrum Kszta\u0142cenia Zawodowego I J\u0119zyk\u00f3w Obcych \"Pro Europa\"",
                "name": "Centrum Kszta\u0142cenia Zawodowego I J\u0119zyk\u00f3w Obcych \"Pro Europa\"",
                "addr:postcode": "97-200",
                "addr:city": "Tomasz\u00f3w Mazowiecki",
                "addr:street": "Szeroka",
                "addr:housenumber": "7\/11a",
                "addr:door": "17",
                "addr:teryt:simc": 968300,
                "addr:teryt:sym_ul": 21925,
                "phone": "+48 447864111",
                "email": "projekt@proeuropa.com.pl",
                "website": "http:\/\/www.proeuropa.com.pl",
                "ref:regon": "101487656",
                "ref:vatin": "PL7731384378",
                "operator": "Stanis\u0142aw Fija\u0142kowski",
                "operator:type": "private",
                "fixme": "w zale\u017cno\u015bci od przedmiotu dzia\u0142alno\u015bci (np. amenity=training + training=*, amenity=dancing_school, amenity=language_school, amenity=music_school)"
            }
        },
        {
            "id": 38786,
            "type": "Feature",
            "geometry": {
                "type": "Point",
                "coordinates": [
                    20.00658,
                    51.54116
                ]
            },
            "properties": {
                "ref:rspo": 38786,
                "official_name": "O\u015brodek Szkoleniowo-Us\u0142ugowy ,,Furora\" S.c. Adam Bubel I Piotr Chojnacki",
                "name": "O\u015brodek Szkoleniowo-Us\u0142ugowy ,,Furora\" S.c. Adam Bubel I Piotr Chojnacki",
                "addr:postcode": "97-200",
                "addr:city": "Tomasz\u00f3w Mazowiecki",
                "addr:street": "Stanis\u0142awa Dubois",
                "addr:housenumber": "4",
                "addr:door": "81",
                "addr:teryt:simc": 968300,
                "addr:teryt:sym_ul": 4337,
                "phone": "+48 608296220",
                "email": "chojnacki_piotr@interia.pl",
                "ref:regon": "101484818",
                "ref:vatin": "PL7732409258",
                "operator": "Adam Bubel",
                "operator:type": "private",
                "fixme": "w zale\u017cno\u015bci od przedmiotu dzia\u0142alno\u015bci (np. amenity=training + training=*, amenity=dancing_school, amenity=language_school, amenity=music_school)"
            }
        },
        {
            "id": 38806,
            "type": "Feature",
            "geometry": {
                "type": "Point",
                "coordinates": [
                    19.99808,
                    51.54233
                ]
            },
            "properties": {
                "ref:rspo": 38806,
                "official_name": "Centrum Kszta\u0142cenia Ustawicznego",
                "name": "Centrum Kszta\u0142cenia Ustawicznego",
                "addr:postcode": "97-200",
                "addr:city": "Tomasz\u00f3w Mazowiecki",
                "addr:street": "Tomasza Ostrowskiego",
                "addr:housenumber": "12",
                "addr:teryt:simc": 968300,
                "addr:teryt:sym_ul": 15394,
                "phone": "+48 447247530",
                "email": "office@audax.co.pl",
                "website": "http:\/\/www.audax.com.pl",
                "ref:regon": "101484899",
                "ref:vatin": "PL7730008549",
                "operator": " Ko\u0142odziejczyk",
                "operator:type": "private",
                "fixme": "w zale\u017cno\u015bci od przedmiotu dzia\u0142alno\u015bci (np. amenity=training + training=*, amenity=dancing_school, amenity=language_school, amenity=music_school)"
            }
        },
        {
            "id": 103658,
            "type": "Feature",
            "geometry": {
                "type": "Point",
                "coordinates": [
                    19.99907,
                    51.54285
                ]
            },
            "properties": {
                "isced:level": "1;2",
                "ref:rspo": 103658,
                "official_name": "Szko\u0142a Podstawowa Nr 10 im. Tomaszowskich Olimpijczyk\u00f3w w Tomaszowie Mazowieckim",
                "name": "Szko\u0142a Podstawowa Nr 10",
                "addr:postcode": "97-200",
                "addr:city": "Tomasz\u00f3w Mazowiecki",
                "addr:street": "Tomasza Ostrowskiego",
                "addr:housenumber": "14",
                "addr:teryt:simc": 968300,
                "addr:teryt:sym_ul": 15394,
                "phone": "+48 447236783",
                "email": "sp10@dziesiatka.tm.pl",
                "website": "http:\/\/dziesiatka.tm.pl\/",
                "ref:regon": "001074029",
                "ref:vatin": "PL7732125124",
                "operator": "Gmina-Miasto Tomasz\u00f3w Mazowiecki",
                "operator:type": "government",
                "amenity": "school"
            }
        },
        {
            "id": 26879,
            "type": "Feature",
            "geometry": {
                "type": "Point",
                "coordinates": [
                    20.00904,
                    51.5430599
                ]
            },
            "properties": {
                "ref:rspo": 26879,
                "official_name": "Przedszkole Nr 3 w Tomaszowie Mazowieckim",
                "name": "Przedszkole Nr 3 w Tomaszowie Mazowieckim",
                "addr:postcode": "97-200",
                "addr:city": "Tomasz\u00f3w Mazowiecki",
                "addr:street": "Kombatant\u00f3w",
                "addr:housenumber": "5",
                "addr:teryt:simc": 968300,
                "addr:teryt:sym_ul": 9043,
                "phone": "+48 447236518",
                "email": "p3tomaszow@wikom.pl",
                "website": "http:\/\/www.p3tomaszow.wikom.pl",
                "ref:regon": "590032997",
                "operator": "Gmina-Miasto Tomasz\u00f3w Mazowiecki",
                "operator:type": "government",
                "amenity": "kindergarten",
                "note": "Parent RSPO: 127997"
            }
        },
        {
            "id": 25528,
            "type": "Feature",
            "geometry": {
                "type": "Point",
                "coordinates": [
                    20.03112,
                    51.54321
                ]
            },
            "properties": {
                "ref:rspo": 25528,
                "official_name": "O\u015brodek Szkoleniowy Fortuna S.c.",
                "name": "O\u015brodek Szkoleniowy Fortuna S.c.",
                "addr:postcode": "97-200",
                "addr:city": "Tomasz\u00f3w Mazowiecki",
                "addr:street": "ks. Jerzego Popie\u0142uszki",
                "addr:housenumber": "58\/60",
                "addr:teryt:simc": 968300,
                "addr:teryt:sym_ul": 17149,
                "phone": "+48 447346393",
                "email": "fortuna.biuro@gmail.com",
                "website": "http:\/\/www.os-fortuna.prv.pl",
                "ref:regon": "101479734",
                "ref:vatin": "PL7731850030",
                "operator": " Wr\u00f3bel",
                "operator:type": "private",
                "fixme": "w zale\u017cno\u015bci od przedmiotu dzia\u0142alno\u015bci (np. amenity=training + training=*, amenity=dancing_school, amenity=language_school, amenity=music_school)"
            }
        },
        {
            "id": 26883,
            "type": "Feature",
            "geometry": {
                "type": "Point",
                "coordinates": [
                    20.00985,
                    51.54328
                ]
            },
            "properties": {
                "ref:rspo": 26883,
                "official_name": "Przedszkole Nr 12 w Tomaszowie Mazowieckim",
                "name": "Przedszkole Nr 12 w Tomaszowie Mazowieckim",
                "addr:postcode": "97-200",
                "addr:city": "Tomasz\u00f3w Mazowiecki",
                "addr:street": "Kombatant\u00f3w",
                "addr:housenumber": "1\/3",
                "addr:teryt:simc": 968300,
                "addr:teryt:sym_ul": 9043,
                "phone": "+48 447236790",
                "email": "p12tomaszow@wikom.pl",
                "website": "https:\/\/p12tomaszow.wikom.pl\/",
                "ref:regon": "590033057",
                "operator": "Gmina-Miasto Tomasz\u00f3w Mazowiecki",
                "operator:type": "government",
                "amenity": "kindergarten",
                "note": "Parent RSPO: 127997"
            }
        },
        {
            "id": 120312,
            "type": "Feature",
            "geometry": {
                "type": "Point",
                "coordinates": [
                    20.0135599,
                    51.54601
                ]
            },
            "properties": {
                "isced:level": "1;2",
                "ref:rspo": 120312,
                "official_name": "Katolicka Szko\u0142a Podstawowa im. Niepokalanego Serca Naj\u015bwi\u0119tszej Maryi Panny Kr\u00f3lowej Polski I \u015aw. Ojca Pio w Tomaszowie Mazowieckim",
                "name": "Katolicka Szko\u0142a Podstawowa",
                "addr:postcode": "97-200",
                "addr:city": "Tomasz\u00f3w Mazowiecki",
                "addr:street": "Warszawska",
                "addr:housenumber": "95\/97",
                "addr:teryt:simc": 968300,
                "addr:teryt:sym_ul": 23682,
                "phone": "+48 447237777",
                "email": "gimkatm@gmail.com",
                "ref:regon": "101668790",
                "operator": "\"Katolickie Stowarzyszenie O\u015bwiatowe Im. \u015aw. Ojca Pio\"",
                "operator:type": "ngo",
                "amenity": "school"
            }
        },
        {
            "id": 126132,
            "type": "Feature",
            "geometry": {
                "type": "Point",
                "coordinates": [
                    20.0135599,
                    51.54598
                ]
            },
            "properties": {
                "isced:level": "3",
                "ref:rspo": 126132,
                "official_name": "Katolickie Liceum Og\u00f3lnokszta\u0142c\u0105ce w Tomaszowie Mazowieckim",
                "name": "Katolickie Liceum Og\u00f3lnokszta\u0142c\u0105ce w Tomaszowie Mazowieckim",
                "addr:postcode": "97-200",
                "addr:city": "Tomasz\u00f3w Mazowiecki",
                "addr:street": "Warszawska",
                "addr:housenumber": "95\/97",
                "addr:teryt:simc": 968300,
                "addr:teryt:sym_ul": 23682,
                "email": "gimkatm@gmail.com",
                "ref:regon": "360154477",
                "operator": "\"Katolickie Stowarzyszenie O\u015bwiatowe Im. \u015aw. Ojca Pio\"",
                "operator:type": "ngo",
                "amenity": "school"
            }
        },
        {
            "id": 127997,
            "type": "Feature",
            "geometry": {
                "type": "Point",
                "coordinates": [
                    20.01418,
                    51.54811
                ]
            },
            "properties": {
                "ref:rspo": 127997,
                "official_name": "Zesp\u00f3\u0142 Przedszkolny w Tomaszowie Mazowieckim",
                "name": "Zesp\u00f3\u0142 Przedszkolny w Tomaszowie Mazowieckim",
                "addr:postcode": "97-200",
                "addr:city": "Tomasz\u00f3w Mazowiecki",
                "addr:street": "Warszawska",
                "addr:housenumber": "103 A",
                "addr:teryt:simc": 968300,
                "addr:teryt:sym_ul": 23682,
                "phone": "+48 447237042",
                "email": "zptomaszow@wikom.pl",
                "website": "http:\/\/www.zptomaszow.wikom.pl\/",
                "ref:regon": "362017218",
                "ref:vatin": "PL7732476651",
                "operator": "Gmina-Miasto Tomasz\u00f3w Mazowiecki",
                "operator:type": "government",
                "landuse": "education",
                "fixme": "amenity=school, amenity=college albo landuse=education w zale\u017cno\u015bci od tego, jakie plac\u00f3wki wchodz\u0105 w sk\u0142ad zespo\u0142u. Sprawd\u017a, kiedy stosowa\u0107 amenity=* a kiedy landuse=education.",
                "note": "Children RSPO: 26879;26881;26883"
            }
        },
        {
            "id": 26881,
            "type": "Feature",
            "geometry": {
                "type": "Point",
                "coordinates": [
                    20.01418,
                    51.54808
                ]
            },
            "properties": {
                "ref:rspo": 26881,
                "official_name": "Przedszkole Nr 17 w Tomaszowie Mazowieckim",
                "name": "Przedszkole Nr 17 w Tomaszowie Mazowieckim",
                "addr:postcode": "97-200",
                "addr:city": "Tomasz\u00f3w Mazowiecki",
                "addr:street": "Warszawska",
                "addr:housenumber": "103A",
                "addr:teryt:simc": 968300,
                "addr:teryt:sym_ul": 23682,
                "phone": "+48 447237042",
                "email": "zptomaszow@wikom.pl",
                "website": "http:\/\/www.p17tomaszow.wikom.pl",
                "ref:regon": "590033086",
                "operator": "Gmina-Miasto Tomasz\u00f3w Mazowiecki",
                "operator:type": "government",
                "amenity": "kindergarten",
                "note": "Parent RSPO: 127997"
            }
        },
        {
            "id": 25542,
            "type": "Feature",
            "geometry": {
                "type": "Point",
                "coordinates": [
                    20.0138399,
                    51.55257
                ]
            },
            "properties": {
                "ref:rspo": 25542,
                "official_name": "Zesp\u00f3\u0142 Szk\u00f3\u0142 Ponadpodstawowych Nr 6",
                "name": "Zesp\u00f3\u0142 Szk\u00f3\u0142 Ponadpodstawowych Nr 6",
                "addr:postcode": "97-200",
                "addr:city": "Tomasz\u00f3w Mazowiecki",
                "addr:street": "Strefowa",
                "addr:housenumber": "3",
                "addr:teryt:simc": 968300,
                "addr:teryt:sym_ul": 21285,
                "phone": "+48 447237719",
                "email": "zsp6tomaszow@wp.pl",
                "website": "http:\/\/zsp6tom.pl",
                "ref:regon": "000785633",
                "ref:vatin": "PL7732256642",
                "operator": "Powiat Tomaszowski",
                "operator:type": "government",
                "landuse": "education",
                "fixme": "amenity=school, amenity=college albo landuse=education w zale\u017cno\u015bci od tego, jakie plac\u00f3wki wchodz\u0105 w sk\u0142ad zespo\u0142u. Sprawd\u017a, kiedy stosowa\u0107 amenity=* a kiedy landuse=education.",
                "note": "Children RSPO: 30822;30824;30827;55348"
            }
        },
        {
            "id": 30822,
            "type": "Feature",
            "geometry": {
                "type": "Point",
                "coordinates": [
                    20.0138399,
                    51.55254
                ]
            },
            "properties": {
                "isced:level": "3",
                "ref:rspo": 30822,
                "official_name": "Bran\u017cowa Szko\u0142a I Stopnia Nr 6",
                "name": "Bran\u017cowa Szko\u0142a I Stopnia Nr 6",
                "addr:postcode": "97-200",
                "addr:city": "Tomasz\u00f3w Mazowiecki",
                "addr:street": "Strefowa",
                "addr:housenumber": "3",
                "addr:teryt:simc": 968300,
                "addr:teryt:sym_ul": 21285,
                "phone": "+48 447237719",
                "email": "zsp6tomaszow@wp.pl",
                "website": "http:\/\/www.zsp6tom.pl",
                "ref:regon": "592148149",
                "ref:vatin": "PL7732256642",
                "operator": "Powiat Tomaszowski",
                "operator:type": "government",
                "amenity": "school",
                "note": "Parent RSPO: 25542"
            }
        },
        {
            "id": 30824,
            "type": "Feature",
            "geometry": {
                "type": "Point",
                "coordinates": [
                    20.0138399,
                    51.552510000000005
                ]
            },
            "properties": {
                "isced:level": "3",
                "ref:rspo": 30824,
                "official_name": "Technikum Nr 5",
                "name": "Technikum Nr 5",
                "addr:postcode": "97-200",
                "addr:city": "Tomasz\u00f3w Mazowiecki",
                "addr:street": "Strefowa",
                "addr:housenumber": "3",
                "addr:teryt:simc": 968300,
                "addr:teryt:sym_ul": 21285,
                "phone": "+48 447237719",
                "email": "zsp6tomaszow@wp.pl",
                "website": "http:\/\/www.zsp6tom.pl",
                "ref:regon": "100245916",
                "ref:vatin": "PL7732256642",
                "operator": "Powiat Tomaszowski",
                "operator:type": "government",
                "amenity": "school",
                "note": "Parent RSPO: 25542"
            }
        },
        {
            "id": 30827,
            "type": "Feature",
            "geometry": {
                "type": "Point",
                "coordinates": [
                    20.0138399,
                    51.55248
                ]
            },
            "properties": {
                "isced:level": "3",
                "ref:rspo": 30827,
                "official_name": "Liceum Sztuk Plastycznych",
                "name": "Liceum Sztuk Plastycznych",
                "addr:postcode": "97-200",
                "addr:city": "Tomasz\u00f3w Mazowiecki",
                "addr:street": "Strefowa",
                "addr:housenumber": "3",
                "addr:teryt:simc": 968300,
                "addr:teryt:sym_ul": 21285,
                "phone": "+48 447237719",
                "email": "zsp6tomaszow@wp.pl",
                "website": "http:\/\/www.zsp6tom.pl",
                "ref:regon": "100947647",
                "ref:vatin": "PL7732256642",
                "operator": "Powiat Tomaszowski",
                "operator:type": "government",
                "amenity": "school",
                "note": "Parent RSPO: 25542"
            }
        },
        {
            "id": 55348,
            "type": "Feature",
            "geometry": {
                "type": "Point",
                "coordinates": [
                    20.0138399,
                    51.55245
                ]
            },
            "properties": {
                "isced:level": "3",
                "ref:rspo": 55348,
                "official_name": "Iv Liceum Og\u00f3lnokszta\u0142c\u0105ce w Tomaszowie Maz.",
                "name": "Iv Liceum Og\u00f3lnokszta\u0142c\u0105ce w Tomaszowie Maz.",
                "addr:postcode": "97-200",
                "addr:city": "Tomasz\u00f3w Mazowiecki",
                "addr:street": "Strefowa",
                "addr:housenumber": "3",
                "addr:teryt:simc": 968300,
                "addr:teryt:sym_ul": 21285,
                "phone": "+48 447237719",
                "email": "zsp6tomaszow@wp.pl",
                "website": "http:\/\/www.zsp6tom.pl",
                "ref:regon": "590010174",
                "ref:vatin": "PL7731192006",
                "operator": "Powiat Tomaszowski",
                "operator:type": "government",
                "amenity": "school",
                "note": "Parent RSPO: 25542"
            }
        }
    ]
}