{"type":"FeatureCollection","features":[{"id":56227,"type":"Feature","geometry":{"type":"Point","coordinates":[20.82753,54.15944]},"properties":{"isced:level":"1;2","ref:rspo":56227,"official_name":"Szko\u0142a Podstawowa im. Le\u015bnik\u00f3w Polskich w Galinach","name":"Szko\u0142a Podstawowa","addr:country":"PL","addr:postcode":"11-214","addr:place":"Galiny","addr:housenumber":"69","addr:teryt:sym_ul":470450,"contact:phone":"+48 897612224","contact:email":"sp-galiny@gmina-bartoszyce.pl","contact:website":"http:\/\/www.sp-galiny.edupage.org","ref:regon":"001124900","ref:vatin":"PL7431765426","operator":"Gmina Bartoszyce","operator:type":"government","amenity":"school"}},{"id":56230,"type":"Feature","geometry":{"type":"Point","coordinates":[20.8891,54.2163]},"properties":{"isced:level":"1;2","ref:rspo":56230,"official_name":"Szko\u0142a Podstawowa w Kinkajmach","name":"Szko\u0142a Podstawowa w Kinkajmach","addr:country":"PL","addr:postcode":"11-200","addr:place":"Kinkajmy","addr:housenumber":"18A","addr:teryt:sym_ul":470585,"contact:phone":"+48 897616864","contact:email":"sp-kinkajmy@gmina-bartoszyce.pl","contact:website":"http:\/\/www.spkinkajmy.edupage.org","ref:regon":"001124951","ref:vatin":"PL7431765455","operator":"Gmina Bartoszyce","operator:type":"government","amenity":"school"}},{"id":128067,"type":"Feature","geometry":{"type":"Point","coordinates":[20.64959,54.2258]},"properties":{"isced:level":"1;2","ref:rspo":128067,"official_name":"Niepubliczna Szko\u0142a Podstawowa w Rodnowie","name":"Niepubliczna Szko\u0142a Podstawowa w Rodnowie","addr:country":"PL","addr:postcode":"11-200","addr:place":"Rodnowo","addr:housenumber":"23","addr:teryt:sym_ul":471001,"contact:phone":"+48 897615921","contact:email":"szkola.r23@onet.pl","contact:website":"http:\/\/sprodnowo.edupage.org","ref:regon":"362065520","ref:vatin":"PL7432028517","operator":"Stowarzyszenie Na Rzecz Rozwoju Wsi Rodnowo I Okolic \"Szansa I Rozw\u00f3j\"","operator:type":"ngo","amenity":"school"}},{"id":275825,"type":"Feature","geometry":{"type":"Point","coordinates":[20.757438659668,54.247970581055]},"properties":{"isced:level":"1;2","ref:rspo":275825,"official_name":"Szko\u0142a Podstawowa im.janusza Korczaka w Krawczykach","name":"Szko\u0142a Podstawowa im.janusza Korczaka w Krawczykach","addr:country":"PL","addr:postcode":"11-200","addr:place":"Krawczyki","addr:housenumber":"8","addr:teryt:sym_ul":470622,"contact:phone":"+48 897625540","contact:email":"sp.krawczyki@wp.pl","ref:regon":"386939577","ref:vatin":"PL7431406271","operator":"Alicja Styczewska","operator:type":"private","amenity":"school"}},{"id":56231,"type":"Feature","geometry":{"type":"Point","coordinates":[20.6704599,54.26315]},"properties":{"isced:level":"1;2","ref:rspo":56231,"official_name":"Szko\u0142a Podstawowa im. Jana Brzechwy w Wojciechach","name":"Szko\u0142a Podstawowa","addr:country":"PL","addr:postcode":"11-200","addr:place":"Wojciechy","addr:housenumber":"66","addr:teryt:sym_ul":471314,"contact:phone":"+48 897615841","contact:email":"sp-wojciechy@gmina-bartoszyce.pl","contact:website":"http:\/\/www.sp-wojciechy.edupage.org","ref:regon":"001124968","ref:vatin":"PL7431771622","operator":"Gmina Bartoszyce","operator:type":"government","amenity":"school"}},{"id":56232,"type":"Feature","geometry":{"type":"Point","coordinates":[20.83849,54.30915]},"properties":{"isced:level":"1;2","ref:rspo":56232,"official_name":"Szko\u0142a Podstawowa im. Jana Henryka D\u0105browskiego w \u017bydowie","name":"Szko\u0142a Podstawowa","addr:country":"PL","addr:postcode":"11-200","addr:place":"\u017bydowo","addr:housenumber":"2","addr:teryt:sym_ul":471389,"contact:phone":"+48 897622887","contact:email":"sp-zydowo@gmina-bartoszyce.pl","contact:website":"http:\/\/zydowo.bartoszyce.info","ref:regon":"001124974","ref:vatin":"PL7431764869","operator":"Gmina Bartoszyce","operator:type":"government","amenity":"school"}},{"id":56277,"type":"Feature","geometry":{"type":"Point","coordinates":[20.7330599,54.32434]},"properties":{"ref:rspo":56277,"official_name":"Punkt Przedszkolny w Bezledach","name":"Punkt Przedszkolny w Bezledach","addr:country":"PL","addr:postcode":"11-200","addr:place":"Bezledy","addr:housenumber":"50","addr:teryt:sym_ul":470310,"contact:phone":"+48 897616006","contact:email":"zsp-bezledy@gmina-bartoszyce.pl","contact:website":"http:\/\/zsp-bezledy.edupage.org","ref:regon":"281438922","operator":"Gmina Bartoszyce","operator:type":"government","amenity":"kindergarten","note":"Parent RSPO: 131136"}},{"id":131136,"type":"Feature","geometry":{"type":"Point","coordinates":[20.73066,54.32439]},"properties":{"ref:rspo":131136,"official_name":"Zesp\u00f3\u0142 Szkolno-Przedszkolny w Bezledach","name":"Zesp\u00f3\u0142 Szkolno-Przedszkolny w Bezledach","addr:country":"PL","addr:postcode":"11-200","addr:place":"Bezledy","addr:housenumber":"13A","addr:teryt:sym_ul":470310,"contact:phone":"+48 897616006","contact:email":"zsp-bezledy@gmina-bartoszyce.pl","contact:website":"http:\/\/zsp-bezledy.edupage.org","ref:regon":"364972190","ref:vatin":"PL7432030187","operator":"Gmina Bartoszyce","operator:type":"government","landuse":"education","fixme":"amenity=school, amenity=college albo landuse=education w zale\u017cno\u015bci od tego, jakie plac\u00f3wki wchodz\u0105 w sk\u0142ad zespo\u0142u. Sprawd\u017a, kiedy stosowa\u0107 amenity=* a kiedy landuse=education.","note":"Children RSPO: 56226;56277"}},{"id":56226,"type":"Feature","geometry":{"type":"Point","coordinates":[20.73066,54.32436]},"properties":{"isced:level":"1;2","ref:rspo":56226,"official_name":"Szko\u0142a Podstawowa im. 20 Bartoszyckiej Brygady Zmechanizowanej w Bezledach","name":"Szko\u0142a Podstawowa","addr:country":"PL","addr:postcode":"11-200","addr:place":"Bezledy","addr:housenumber":"13A","addr:teryt:sym_ul":470310,"contact:phone":"+48 897616006","contact:email":"zsp-bezledy@gmina-bartoszyce.pl","contact:website":"http:\/\/zsp-bezledy.edupage.org","ref:regon":"001124891","operator":"Gmina Bartoszyce","operator:type":"government","amenity":"school","note":"Parent RSPO: 131136"}}]}