{
    "type": "FeatureCollection",
    "features": [
        {
            "id": 57123,
            "type": "Feature",
            "geometry": {
                "type": "Point",
                "coordinates": [
                    18.21043,
                    53.14664
                ]
            },
            "properties": {
                "ref:rspo": 57123,
                "official_name": "Przedszkole Publiczne w Ostromecku",
                "name": "Przedszkole Publiczne w Ostromecku",
                "addr:postcode": "86-070",
                "addr:city": "Ostromecko",
                "addr:street": "Bydgoska",
                "addr:housenumber": "7",
                "addr:city:simc": 84244,
                "addr:street:sym_ul": 2498,
                "phone": "+48 523817625",
                "email": "s.ostromecko@poczta.szkolna.net",
                "website": "https:\/\/ostromecko.edupage.org\/",
                "ref:regon": "340063046",
                "operator": "Gmina D\u0105browa Che\u0142mi\u0144ska",
                "operator:type": "government",
                "amenity": "kindergarten",
                "note": "Parent RSPO: 51249"
            }
        },
        {
            "id": 51249,
            "type": "Feature",
            "geometry": {
                "type": "Point",
                "coordinates": [
                    18.2093,
                    53.14711
                ]
            },
            "properties": {
                "ref:rspo": 51249,
                "official_name": "Zesp\u00f3\u0142 Szk\u00f3\u0142 Imienia Mariana Rejewskiego w Ostromecku",
                "name": "Zesp\u00f3\u0142 Szk\u00f3\u0142 Imienia Mariana Rejewskiego w Ostromecku",
                "addr:postcode": "86-070",
                "addr:city": "Ostromecko",
                "addr:street": "Szkolna",
                "addr:housenumber": "1",
                "addr:city:simc": 84244,
                "addr:street:sym_ul": 21970,
                "phone": "+48 523817625",
                "email": "s.ostromecko@poczta.szkolna.net",
                "website": "https:\/\/ostromecko.edupage.org\/",
                "ref:regon": "340063030",
                "ref:vatin": "PL5542723217",
                "operator": "Gmina D\u0105browa Che\u0142mi\u0144ska",
                "operator:type": "government",
                "landuse": "education",
                "fixme": "amenity=school, amenity=college albo landuse=education w zale\u017cno\u015bci od tego, jakie plac\u00f3wki wchodz\u0105 w sk\u0142ad zespo\u0142u. Sprawd\u017a, kiedy stosowa\u0107 amenity=* a kiedy landuse=education.",
                "note": "Children RSPO: 57123;57124"
            }
        },
        {
            "id": 57124,
            "type": "Feature",
            "geometry": {
                "type": "Point",
                "coordinates": [
                    18.2093,
                    53.147079999999995
                ]
            },
            "properties": {
                "isced:level": "1;2",
                "ref:rspo": 57124,
                "official_name": "Szko\u0142a Podstawowa w Ostromecku",
                "name": "Szko\u0142a Podstawowa w Ostromecku",
                "addr:postcode": "86-070",
                "addr:city": "Ostromecko",
                "addr:street": "Szkolna",
                "addr:housenumber": "1",
                "addr:city:simc": 84244,
                "addr:street:sym_ul": 21970,
                "phone": "+48 523817625",
                "email": "s.ostromecko@poczta.szkolna.net",
                "website": "https:\/\/ostromecko.edupage.org\/",
                "ref:regon": "091152779",
                "operator": "Gmina D\u0105browa Che\u0142mi\u0144ska",
                "operator:type": "government",
                "amenity": "school",
                "note": "Parent RSPO: 51249"
            }
        },
        {
            "id": 51248,
            "type": "Feature",
            "geometry": {
                "type": "Point",
                "coordinates": [
                    18.30198,
                    53.1781
                ]
            },
            "properties": {
                "ref:rspo": 51248,
                "official_name": "Zesp\u00f3\u0142 Szk\u00f3\u0142 im. Celestyna Kami\u0144skiego w D\u0105browie Che\u0142mi\u0144skiej",
                "name": "Zesp\u00f3\u0142 Szk\u00f3\u0142",
                "addr:postcode": "86-070",
                "addr:city": "D\u0105browa Che\u0142mi\u0144ska",
                "addr:street": "Sportowa",
                "addr:housenumber": "1",
                "addr:city:simc": 84132,
                "addr:street:sym_ul": 20683,
                "phone": "+48 523816060",
                "email": "sekretariat@zsdabrowach.pl",
                "website": "https:\/\/zsdabrowach.edupage.org\/",
                "ref:regon": "093145594",
                "ref:vatin": "PL5542723223",
                "operator": "Gmina D\u0105browa Che\u0142mi\u0144ska",
                "operator:type": "government",
                "landuse": "education",
                "fixme": "amenity=school, amenity=college albo landuse=education w zale\u017cno\u015bci od tego, jakie plac\u00f3wki wchodz\u0105 w sk\u0142ad zespo\u0142u. Sprawd\u017a, kiedy stosowa\u0107 amenity=* a kiedy landuse=education.",
                "note": "Children RSPO: 57117;57118"
            }
        },
        {
            "id": 57117,
            "type": "Feature",
            "geometry": {
                "type": "Point",
                "coordinates": [
                    18.30198,
                    53.17807
                ]
            },
            "properties": {
                "ref:rspo": 57117,
                "official_name": "Przedszkole Publiczne w D\u0105browie Che\u0142mi\u0144skiej",
                "name": "Przedszkole Publiczne w D\u0105browie Che\u0142mi\u0144skiej",
                "addr:postcode": "86-070",
                "addr:city": "D\u0105browa Che\u0142mi\u0144ska",
                "addr:street": "Sportowa",
                "addr:housenumber": "1",
                "addr:city:simc": 84132,
                "addr:street:sym_ul": 20683,
                "phone": "+48 523816060",
                "email": "sekretariat@zsdabrowach.pl",
                "website": "https:\/\/zsdabrowach.edupage.org\/",
                "ref:regon": "340607931",
                "operator": "Gmina D\u0105browa Che\u0142mi\u0144ska",
                "operator:type": "government",
                "amenity": "kindergarten",
                "note": "Parent RSPO: 51248"
            }
        },
        {
            "id": 57118,
            "type": "Feature",
            "geometry": {
                "type": "Point",
                "coordinates": [
                    18.30198,
                    53.17804
                ]
            },
            "properties": {
                "isced:level": "1;2",
                "ref:rspo": 57118,
                "official_name": "Szko\u0142a Podstawowa w D\u0105browie Che\u0142mi\u0144skiej",
                "name": "Szko\u0142a Podstawowa w D\u0105browie Che\u0142mi\u0144skiej",
                "addr:postcode": "86-070",
                "addr:city": "D\u0105browa Che\u0142mi\u0144ska",
                "addr:street": "Sportowa",
                "addr:housenumber": "1",
                "addr:city:simc": 84132,
                "addr:street:sym_ul": 20683,
                "phone": "+48 523816060",
                "email": "sekretariat@zsdabrowach.pl",
                "website": "https:\/\/zsdabrowach.edupage.org\/",
                "ref:regon": "091152740",
                "operator": "Gmina D\u0105browa Che\u0142mi\u0144ska",
                "operator:type": "government",
                "amenity": "school",
                "note": "Parent RSPO: 51248"
            }
        },
        {
            "id": 279130,
            "type": "Feature",
            "geometry": {
                "type": "Point",
                "coordinates": [
                    18.30423,
                    53.17822
                ]
            },
            "properties": {
                "ref:rspo": 279130,
                "official_name": "Przedszkole Niepubliczne \"Wyspa Przyg\u00f3d\"",
                "name": "Przedszkole Niepubliczne \"Wyspa Przyg\u00f3d\"",
                "addr:postcode": "86-070",
                "addr:city": "D\u0105browa Che\u0142mi\u0144ska",
                "addr:street": "Sportowa",
                "addr:housenumber": "14b",
                "addr:city:simc": 84132,
                "addr:street:sym_ul": 20683,
                "email": "m.szydlo2@gmail.com",
                "ref:regon": "520758941",
                "operator": "Monika Szyd\u0142o",
                "operator:type": "private",
                "amenity": "kindergarten"
            }
        },
        {
            "id": 57120,
            "type": "Feature",
            "geometry": {
                "type": "Point",
                "coordinates": [
                    18.27647,
                    53.22387
                ]
            },
            "properties": {
                "ref:rspo": 57120,
                "official_name": "Przedszkole Publiczne w Czar\u017cu",
                "name": "Przedszkole Publiczne w Czar\u017cu",
                "addr:postcode": "86-070",
                "addr:city": "Czar\u017ce",
                "addr:street": "Che\u0142mi\u0144ska",
                "addr:housenumber": "45",
                "addr:city:simc": 84110,
                "addr:street:sym_ul": 2700,
                "phone": "+48 523816504",
                "email": "sekretariat.zsczarze@poczta.szkolna.net",
                "website": "https:\/\/zsczarze.edupage.org\/",
                "ref:regon": "340060728",
                "operator": "Gmina D\u0105browa Che\u0142mi\u0144ska",
                "operator:type": "government",
                "amenity": "kindergarten",
                "note": "Parent RSPO: 51250"
            }
        },
        {
            "id": 51250,
            "type": "Feature",
            "geometry": {
                "type": "Point",
                "coordinates": [
                    18.27616,
                    53.2239999
                ]
            },
            "properties": {
                "ref:rspo": 51250,
                "official_name": "Zesp\u00f3\u0142 Szk\u00f3\u0142 w Czar\u017cu",
                "name": "Zesp\u00f3\u0142 Szk\u00f3\u0142 w Czar\u017cu",
                "addr:postcode": "86-070",
                "addr:city": "Czar\u017ce",
                "addr:street": "Che\u0142mi\u0144ska",
                "addr:housenumber": "47",
                "addr:city:simc": 84110,
                "addr:street:sym_ul": 2700,
                "phone": "+48 523816504",
                "email": "sekretariat.zsczarze@poczta.szkolna.net",
                "website": "https:\/\/zsczarze.edupage.org\/",
                "ref:regon": "340060740",
                "ref:vatin": "PL5542722844",
                "operator": "Gmina D\u0105browa Che\u0142mi\u0144ska",
                "operator:type": "government",
                "landuse": "education",
                "fixme": "amenity=school, amenity=college albo landuse=education w zale\u017cno\u015bci od tego, jakie plac\u00f3wki wchodz\u0105 w sk\u0142ad zespo\u0142u. Sprawd\u017a, kiedy stosowa\u0107 amenity=* a kiedy landuse=education.",
                "note": "Children RSPO: 57120;57121"
            }
        },
        {
            "id": 57121,
            "type": "Feature",
            "geometry": {
                "type": "Point",
                "coordinates": [
                    18.27616,
                    53.2239699
                ]
            },
            "properties": {
                "isced:level": "1;2",
                "ref:rspo": 57121,
                "official_name": "Szko\u0142a Podstawowa im. Magdaleny Mort\u0119skiej w Czar\u017cu",
                "name": "Szko\u0142a Podstawowa",
                "addr:postcode": "86-070",
                "addr:city": "Czar\u017ce",
                "addr:street": "Che\u0142mi\u0144ska",
                "addr:housenumber": "47",
                "addr:city:simc": 84110,
                "addr:street:sym_ul": 2700,
                "phone": "+48 523816504",
                "email": "sekretariat.zsczarze@poczta.szkolna.net",
                "website": "https:\/\/zsczarze.edupage.org\/",
                "ref:regon": "091152696",
                "operator": "Gmina D\u0105browa Che\u0142mi\u0144ska",
                "operator:type": "government",
                "amenity": "school",
                "note": "Parent RSPO: 51250"
            }
        }
    ]
}