{
    "type": "FeatureCollection",
    "features": [
        {
            "id": 50415,
            "type": "Feature",
            "geometry": {
                "type": "Point",
                "coordinates": [
                    18.2508899,
                    53.07709
                ]
            },
            "properties": {
                "isced:level": "1;2",
                "ref:rspo": 50415,
                "official_name": "Szko\u0142a Podstawowa Nr 1 im. Tadeusza Ko\u015bciuszki w Solcu Kujawskim",
                "name": "Szko\u0142a Podstawowa Nr 1",
                "addr:country": "PL",
                "addr:postcode": "86-050",
                "addr:city": "Solec Kujawski",
                "addr:street": "ul. Tartaczna",
                "addr:housenumber": "25",
                "addr:teryt:simc": 22690,
                "addr:teryt:sym_ul": 929552,
                "contact:phone": "+48 523871326",
                "contact:email": "sekretariat@jedynka.soleckujawski.pl",
                "ref:regon": "001155928",
                "ref:vatin": "PL9531386534",
                "operator": "Gmina Solec Kujawski",
                "operator:type": "government",
                "amenity": "school"
            }
        },
        {
            "id": 50413,
            "type": "Feature",
            "geometry": {
                "type": "Point",
                "coordinates": [
                    18.2490099,
                    53.0789199
                ]
            },
            "properties": {
                "ref:rspo": 50413,
                "official_name": "Przedszkole Publiczne Nr 1 \"Promyczek\" w Solcu Kujawskim",
                "name": "Przedszkole Publiczne Nr 1 \"Promyczek\" w Solcu Kujawskim",
                "addr:country": "PL",
                "addr:postcode": "86-050",
                "addr:city": "Solec Kujawski",
                "addr:street": "ul. Tartaczna",
                "addr:housenumber": "10",
                "addr:teryt:simc": 22690,
                "addr:teryt:sym_ul": 929552,
                "contact:phone": "+48 523871269",
                "contact:email": "przedszkole@promyczek.soleckujawski.pl",
                "ref:regon": "340812654",
                "ref:vatin": "PL5542887597",
                "operator": "Gmina Solec Kujawski",
                "operator:type": "government",
                "amenity": "kindergarten"
            }
        },
        {
            "id": 11782,
            "type": "Feature",
            "geometry": {
                "type": "Point",
                "coordinates": [
                    18.2265428,
                    53.0791957
                ]
            },
            "properties": {
                "ref:rspo": 11782,
                "official_name": "Zesp\u00f3\u0142 Szk\u00f3\u0142 Og\u00f3lnokszta\u0142c\u0105cych I Zawodowych w Solcu Kujawskim",
                "name": "Zesp\u00f3\u0142 Szk\u00f3\u0142 Og\u00f3lnokszta\u0142c\u0105cych I Zawodowych w Solcu Kujawskim",
                "addr:country": "PL",
                "addr:postcode": "86-050",
                "addr:city": "Solec Kujawski",
                "addr:street": "ul. 29 Listopada",
                "addr:housenumber": "7",
                "addr:teryt:simc": 11208,
                "addr:teryt:sym_ul": 929552,
                "contact:phone": "+48 523871309",
                "contact:email": "sekretariat@zsoizsolec.edu.pl",
                "contact:website": "http:\/\/zsoizsolec.edu.pl",
                "ref:regon": "093198716",
                "ref:vatin": "PL5542592583",
                "operator": "Powiat Bydgoski",
                "operator:type": "government",
                "landuse": "education",
                "fixme": "amenity=school, amenity=college albo landuse=education w zale\u017cno\u015bci od tego, jakie plac\u00f3wki wchodz\u0105 w sk\u0142ad zespo\u0142u. Sprawd\u017a, kiedy stosowa\u0107 amenity=* a kiedy landuse=education.",
                "note": "Children RSPO: 85245;85255;85324"
            }
        },
        {
            "id": 85245,
            "type": "Feature",
            "geometry": {
                "type": "Point",
                "coordinates": [
                    18.2265428,
                    53.0791657
                ]
            },
            "properties": {
                "isced:level": "3",
                "ref:rspo": 85245,
                "official_name": "Liceum Og\u00f3lnokszta\u0142c\u0105ce w Solcu Kujawskim w Zespole Szk\u00f3\u0142 Og\u00f3lnokszta\u0142cacych I Zawodowych w Solcu Kujawskim",
                "name": "Liceum Og\u00f3lnokszta\u0142c\u0105ce w Solcu Kujawskim w Zespole Szk\u00f3\u0142 Og\u00f3lnokszta\u0142cacych I Zawodowych w Solcu Kujawskim",
                "addr:country": "PL",
                "addr:postcode": "86-050",
                "addr:city": "Solec Kujawski",
                "addr:street": "ul. 29 Listopada",
                "addr:housenumber": "7",
                "addr:teryt:simc": 11208,
                "addr:teryt:sym_ul": 929552,
                "contact:phone": "+48 523871309",
                "contact:email": "sekretariat@zsoizsolec.edu.pl",
                "contact:website": "http:\/\/zsoizsolec.edu.pl",
                "ref:regon": "000230941",
                "operator": "Powiat Bydgoski",
                "operator:type": "government",
                "amenity": "school",
                "note": "Parent RSPO: 11782"
            }
        },
        {
            "id": 85255,
            "type": "Feature",
            "geometry": {
                "type": "Point",
                "coordinates": [
                    18.2265428,
                    53.0791357
                ]
            },
            "properties": {
                "isced:level": "3",
                "ref:rspo": 85255,
                "official_name": "Bran\u017cowa Szko\u0142a I Stopnia w Solcu Kujawskim w Zespole Szk\u00f3\u0142 Og\u00f3lnokszta\u0142c\u0105cych I Zawodowych w Solcu Kujawskim",
                "name": "Bran\u017cowa Szko\u0142a I Stopnia w Solcu Kujawskim w Zespole Szk\u00f3\u0142 Og\u00f3lnokszta\u0142c\u0105cych I Zawodowych w Solcu Kujawskim",
                "addr:country": "PL",
                "addr:postcode": "86-050",
                "addr:city": "Solec Kujawski",
                "addr:street": "ul. 29 Listopada",
                "addr:housenumber": "7",
                "addr:teryt:simc": 11208,
                "addr:teryt:sym_ul": 929552,
                "contact:phone": "+48 523871309",
                "contact:email": "sekretariat@zsoizsolec.edu.pl",
                "contact:website": "http:\/\/zsoizsolec.edu.pl",
                "ref:regon": "092992197",
                "operator": "Powiat Bydgoski",
                "operator:type": "government",
                "amenity": "school",
                "note": "Parent RSPO: 11782"
            }
        },
        {
            "id": 85324,
            "type": "Feature",
            "geometry": {
                "type": "Point",
                "coordinates": [
                    18.2265428,
                    53.0791057
                ]
            },
            "properties": {
                "isced:level": "3",
                "ref:rspo": 85324,
                "official_name": "Technikum w Solcu Kujawskim w Zespole Szk\u00f3\u0142 Og\u00f3lnokszta\u0142c\u0105cych I Zawodowych w Solcu Kujawskim",
                "name": "Technikum w Solcu Kujawskim w Zespole Szk\u00f3\u0142 Og\u00f3lnokszta\u0142c\u0105cych I Zawodowych w Solcu Kujawskim",
                "addr:country": "PL",
                "addr:postcode": "86-050",
                "addr:city": "Solec Kujawski",
                "addr:street": "ul. 29 Listopada",
                "addr:housenumber": "7",
                "addr:teryt:simc": 11208,
                "addr:teryt:sym_ul": 929552,
                "contact:phone": "+48 523871309",
                "contact:email": "sekretariat@zsoizsolec.edu.pl",
                "contact:website": "http:\/\/zsoizsolec.edu.pl",
                "ref:regon": "340199745",
                "operator": "Powiat Bydgoski",
                "operator:type": "government",
                "amenity": "school",
                "note": "Parent RSPO: 11782"
            }
        },
        {
            "id": 48618,
            "type": "Feature",
            "geometry": {
                "type": "Point",
                "coordinates": [
                    18.22509,
                    53.08049
                ]
            },
            "properties": {
                "ref:rspo": 48618,
                "official_name": "Szko\u0142a Muzyczna I Stopnia im. Fryderyka Chopina w Solcu Kujawskim",
                "name": "Szko\u0142a Muzyczna I Stopnia",
                "addr:country": "PL",
                "addr:postcode": "86-050",
                "addr:city": "Solec Kujawski",
                "addr:street": "ul. 23 Stycznia",
                "addr:housenumber": "13",
                "addr:teryt:simc": 21457,
                "addr:teryt:sym_ul": 929552,
                "contact:phone": "+48 605469610",
                "contact:email": "psm@psm.soleckujawski.pl",
                "contact:website": "http:\/\/www.psm.soleckujawski.pl\/",
                "ref:regon": "340626791",
                "ref:vatin": "PL5542846629",
                "operator": "Gmina Solec Kujawski",
                "operator:type": "government",
                "amenity": "music_school"
            }
        },
        {
            "id": 50417,
            "type": "Feature",
            "geometry": {
                "type": "Point",
                "coordinates": [
                    18.22301,
                    53.0808
                ]
            },
            "properties": {
                "ref:rspo": 50417,
                "official_name": "Ochronka Zgromadzenia Si\u00f3str S\u0142u\u017cebniczek Bdnp Niepubliczne Przedszkole",
                "name": "Ochronka Zgromadzenia Si\u00f3str S\u0142u\u017cebniczek Bdnp Niepubliczne Przedszkole",
                "addr:country": "PL",
                "addr:postcode": "86-050",
                "addr:city": "Solec Kujawski",
                "addr:street": "ul. Bohater\u00f3w Wrze\u015bnia",
                "addr:housenumber": "11",
                "addr:teryt:simc": 1688,
                "addr:teryt:sym_ul": 929552,
                "contact:phone": "+48 523878709",
                "contact:email": "ochronka.soleckujawski@siostry.net",
                "ref:regon": "341347774",
                "ref:vatin": "PL9532251026",
                "operator": "Zg.ss.s\u0142u\u017cebniczek Bdnp, Prowincja Krakowska",
                "operator:type": "religious",
                "amenity": "kindergarten"
            }
        },
        {
            "id": 81076,
            "type": "Feature",
            "geometry": {
                "type": "Point",
                "coordinates": [
                    18.22347,
                    53.08138
                ]
            },
            "properties": {
                "ref:rspo": 81076,
                "official_name": "Przedszkole Niepubliczne \"Reksio\"",
                "name": "Przedszkole Niepubliczne \"Reksio\"",
                "addr:country": "PL",
                "addr:postcode": "86-050",
                "addr:city": "Solec Kujawski",
                "addr:street": "ul. Bohater\u00f3w Wrze\u015bnia",
                "addr:housenumber": "5",
                "addr:teryt:simc": 1688,
                "addr:teryt:sym_ul": 929552,
                "contact:phone": "+48 523871347",
                "contact:email": "przedszkole.reksio@gmail.com",
                "contact:website": "http:\/\/przedszkole-reksio.pl\/",
                "ref:regon": "341349900",
                "operator": "\"Centrum Edukacji I Zabawy\" Sp\u00f3\u0142ka Z Ograniczon\u0105 Odpowiedzialno\u015bci\u0105",
                "operator:type": "private",
                "amenity": "kindergarten"
            }
        },
        {
            "id": 48616,
            "type": "Feature",
            "geometry": {
                "type": "Point",
                "coordinates": [
                    18.21847,
                    53.08164
                ]
            },
            "properties": {
                "isced:level": "1;2",
                "ref:rspo": 48616,
                "official_name": "Szko\u0142a Podstawowa Nr 4 im. Marii Sk\u0142odowskiej-Curie w Solcu Kujawskim",
                "name": "Szko\u0142a Podstawowa Nr 4",
                "addr:country": "PL",
                "addr:postcode": "86-050",
                "addr:city": "Solec Kujawski",
                "addr:street": "ul. Juliusza S\u0142owackiego",
                "addr:housenumber": "4",
                "addr:teryt:simc": 20291,
                "addr:teryt:sym_ul": 929552,
                "contact:phone": "+48 523871359",
                "contact:email": "sekretariat@sp4.soleckujawski.pl",
                "contact:website": "https:\/\/sp4soleckujawski.edupage.org\/",
                "ref:regon": "000263509",
                "ref:vatin": "PL9531522486",
                "operator": "Gmina Solec Kujawski",
                "operator:type": "government",
                "amenity": "school"
            }
        },
        {
            "id": 72014,
            "type": "Feature",
            "geometry": {
                "type": "Point",
                "coordinates": [
                    18.21847,
                    53.08161
                ]
            },
            "properties": {
                "isced:level": "3",
                "ref:rspo": 72014,
                "official_name": "Liceum Og\u00f3lnokszta\u0142c\u0105ce dla Doros\u0142ych Albert w Solcu Kujawskim",
                "name": "Liceum Og\u00f3lnokszta\u0142c\u0105ce dla Doros\u0142ych Albert w Solcu Kujawskim",
                "addr:country": "PL",
                "addr:postcode": "86-050",
                "addr:city": "Solec Kujawski",
                "addr:street": "ul. Juliusza S\u0142owackiego",
                "addr:housenumber": "4",
                "addr:teryt:simc": 20291,
                "addr:teryt:sym_ul": 929552,
                "contact:phone": "+48 523871359",
                "ref:regon": "341347627",
                "operator": "Edukacja Doros\u0142ych Albert Sp\u00f3\u0142ka Z Ograniczon\u0105 Odpowiedzialno\u015bci\u0105",
                "operator:type": "private",
                "amenity": "school"
            }
        },
        {
            "id": 72018,
            "type": "Feature",
            "geometry": {
                "type": "Point",
                "coordinates": [
                    18.21847,
                    53.08158
                ]
            },
            "properties": {
                "isced:level": "4",
                "ref:rspo": 72018,
                "official_name": "Szko\u0142a Policealna w Solcu Kujawskim",
                "name": "Szko\u0142a Policealna w Solcu Kujawskim",
                "addr:country": "PL",
                "addr:postcode": "86-050",
                "addr:city": "Solec Kujawski",
                "addr:street": "ul. Juliusza S\u0142owackiego",
                "addr:housenumber": "4",
                "addr:teryt:simc": 20291,
                "addr:teryt:sym_ul": 929552,
                "contact:phone": "+48 523871359",
                "ref:regon": "341347656",
                "operator": "Edukacja Doros\u0142ych Albert Sp\u00f3\u0142ka Z Ograniczon\u0105 Odpowiedzialno\u015bci\u0105",
                "operator:type": "private",
                "amenity": "college"
            }
        },
        {
            "id": 268748,
            "type": "Feature",
            "geometry": {
                "type": "Point",
                "coordinates": [
                    18.22407,
                    53.08421
                ]
            },
            "properties": {
                "ref:rspo": 268748,
                "official_name": "Przedszkole Publiczne Dinu\u015b",
                "name": "Przedszkole Publiczne Dinu\u015b",
                "addr:country": "PL",
                "addr:postcode": "86-050",
                "addr:city": "Solec Kujawski",
                "addr:street": "ul. Tadeusza Ko\u015bciuszki",
                "addr:housenumber": "12",
                "addr:teryt:simc": 9582,
                "addr:teryt:sym_ul": 929552,
                "contact:phone": "+48 516798644",
                "contact:email": "przedszkoledinus@wp.pl",
                "ref:regon": "381240826",
                "operator": "Piotr Echaust",
                "operator:type": "private",
                "amenity": "kindergarten"
            }
        },
        {
            "id": 274646,
            "type": "Feature",
            "geometry": {
                "type": "Point",
                "coordinates": [
                    18.22407,
                    53.084179999999996
                ]
            },
            "properties": {
                "ref:rspo": 274646,
                "official_name": "Niepubliczna Poradnia Psychologiczno-Pedagogiczna w Solcu Kujawskim",
                "name": "Niepubliczna Poradnia Psychologiczno-Pedagogiczna w Solcu Kujawskim",
                "addr:country": "PL",
                "addr:postcode": "86-050",
                "addr:city": "Solec Kujawski",
                "addr:street": "ul. Tadeusza Ko\u015bciuszki",
                "addr:housenumber": "12",
                "addr:teryt:simc": 9582,
                "addr:teryt:sym_ul": 929552,
                "contact:phone": "+48 602401593",
                "contact:email": "dinus@poradnia-soleckujawski.pl",
                "ref:regon": "386135442",
                "operator": "Piotr Echaust",
                "operator:type": "private",
                "healthcare": "counselling",
                "counselling_type": "education",
                "fixme": "w zale\u017cno\u015bci od przedmiotu dzia\u0142alno\u015bci (np. healthcare=counselling + counselling_type=education albo healthcare=psychotherapist)"
            }
        }
    ]
}