{
    "type": "FeatureCollection",
    "features": [
        {
            "id": 104764,
            "type": "Feature",
            "geometry": {
                "type": "Point",
                "coordinates": [
                    17.96975,
                    53.04018
                ]
            },
            "properties": {
                "isced:level": "1;2",
                "ref:rspo": 104764,
                "official_name": "Szko\u0142a Podstawowa im. Ks. Jana Twardowskiego w Przy\u0142\u0119kach",
                "name": "Szko\u0142a Podstawowa",
                "addr:postcode": "86-005",
                "addr:city": "Przy\u0142\u0119ki",
                "addr:street": "Zabytkowa",
                "addr:housenumber": "5",
                "addr:city:simc": 79639,
                "addr:street:sym_ul": 25294,
                "phone": "+48 523810184",
                "email": "sp@przyleki.edu.pl",
                "website": "http:\/\/www.przyleki.edu.pl",
                "ref:regon": "001237661",
                "ref:vatin": "PL5542395339",
                "operator": "Gmina Bia\u0142e B\u0142ota",
                "operator:type": "government",
                "amenity": "school"
            }
        },
        {
            "id": 112201,
            "type": "Feature",
            "geometry": {
                "type": "Point",
                "coordinates": [
                    17.89881,
                    53.07292
                ]
            },
            "properties": {
                "ref:rspo": 112201,
                "official_name": "Niepubliczne Przedszkole \"4 Pory Roku\"",
                "name": "Niepubliczne Przedszkole \"4 Pory Roku\"",
                "addr:postcode": "86-005",
                "addr:city": "Ciele",
                "addr:street": "Osiedle",
                "addr:housenumber": "76",
                "addr:city:simc": 79510,
                "addr:street:sym_ul": 15239,
                "phone": "+48 510140537",
                "email": "przedszkole.4poryroku@gmail.com",
                "website": "http:\/\/przedszkole4poryroku.edu.pl",
                "ref:regon": "341409127",
                "ref:vatin": "PL8761899159",
                "operator": "Beata Jakubowska",
                "operator:type": "private",
                "amenity": "kindergarten"
            }
        },
        {
            "id": 128617,
            "type": "Feature",
            "geometry": {
                "type": "Point",
                "coordinates": [
                    17.89881,
                    53.07289
                ]
            },
            "properties": {
                "isced:level": "1;2",
                "ref:rspo": 128617,
                "official_name": "Niepubliczna Szko\u0142a Podstawowa \"4 Pory Roku\" Szko\u0142a Tw\u00f3rcza I J\u0119zyk\u00f3w Obcych",
                "name": "Niepubliczna Szko\u0142a Podstawowa \"4 Pory Roku\" Szko\u0142a Tw\u00f3rcza I J\u0119zyk\u00f3w Obcych",
                "addr:postcode": "86-005",
                "addr:city": "Ciele",
                "addr:street": "Osiedle",
                "addr:housenumber": "76",
                "addr:city:simc": 79510,
                "addr:street:sym_ul": 15239,
                "phone": "+48 510140537",
                "email": "szkola.4poryroku@gmail.com",
                "ref:regon": "362334522",
                "operator": "Beata Jakubowska",
                "operator:type": "private",
                "amenity": "school"
            }
        },
        {
            "id": 128629,
            "type": "Feature",
            "geometry": {
                "type": "Point",
                "coordinates": [
                    17.85322,
                    53.09296
                ]
            },
            "properties": {
                "ref:rspo": 128629,
                "official_name": "Niepubliczne Przedszkole I \u017b\u0142obek Korona",
                "name": "Niepubliczne Przedszkole I \u017b\u0142obek Korona",
                "addr:postcode": "86-005",
                "addr:city": "Murowaniec",
                "addr:street": "Kolibra",
                "addr:housenumber": "2",
                "addr:city:simc": 79591,
                "addr:street:sym_ul": 8841,
                "phone": "+48 781818122",
                "email": "kontakt@przedszkolekorona.pl",
                "website": "http:\/\/www.przedszkolekorona.pl",
                "ref:regon": "362335763",
                "ref:vatin": "PL5591630970",
                "operator": "Korona Inwestycje Sp\u00f3\u0142ka Z Ograniczon\u0105 Odpowiedzialno\u015bci\u0105",
                "operator:type": "private",
                "amenity": "kindergarten"
            }
        },
        {
            "id": 275691,
            "type": "Feature",
            "geometry": {
                "type": "Point",
                "coordinates": [
                    17.85322,
                    53.092929999999996
                ]
            },
            "properties": {
                "ref:rspo": 275691,
                "official_name": "Przedszkole Publiczne \"Korona\" w Murowa\u0144cu",
                "name": "Przedszkole Publiczne \"Korona\" w Murowa\u0144cu",
                "addr:postcode": "86-005",
                "addr:city": "Murowaniec",
                "addr:street": "Kolibra",
                "addr:housenumber": "2",
                "addr:city:simc": 79591,
                "addr:street:sym_ul": 8841,
                "email": "kontakt@przedszkolekorona.pl",
                "website": "http:\/\/www.przedszkolekorona.pl",
                "ref:regon": "386943509",
                "ref:vatin": "PL5542981534",
                "operator": "Korona Inwestycje Sp\u00f3\u0142ka Z Ograniczon\u0105 Odpowiedzialno\u015bci\u0105",
                "operator:type": "private",
                "amenity": "kindergarten"
            }
        },
        {
            "id": 105709,
            "type": "Feature",
            "geometry": {
                "type": "Point",
                "coordinates": [
                    17.85822,
                    53.09404
                ]
            },
            "properties": {
                "ref:rspo": 105709,
                "official_name": "Niepubliczny Parafialny Punkt Przedszkolny w Murowa\u0144cu",
                "name": "Niepubliczny Parafialny Punkt Przedszkolny w Murowa\u0144cu",
                "addr:postcode": "86-005",
                "addr:city": "Murowaniec",
                "addr:street": "Staroszkolna",
                "addr:housenumber": "13",
                "addr:city:simc": 79591,
                "addr:street:sym_ul": 20988,
                "phone": "+48 502798560",
                "ref:regon": "341373168",
                "ref:vatin": "PL5542767321",
                "operator": "Dane Do Uzupe\u0142nienia",
                "operator:type": "private",
                "amenity": "kindergarten"
            }
        },
        {
            "id": 104794,
            "type": "Feature",
            "geometry": {
                "type": "Point",
                "coordinates": [
                    17.9195,
                    53.09587
                ]
            },
            "properties": {
                "ref:rspo": 104794,
                "official_name": "Gminne Przedszkole \"Wr\u00f3\u017cka\" w Bia\u0142ych B\u0142otach",
                "name": "Gminne Przedszkole \"Wr\u00f3\u017cka\" w Bia\u0142ych B\u0142otach",
                "addr:postcode": "86-005",
                "addr:city": "Bia\u0142e B\u0142ota",
                "addr:street": "Centralna",
                "addr:housenumber": "27",
                "addr:city:simc": 79496,
                "addr:street:sym_ul": 2614,
                "phone": "+48 523814047",
                "email": "sekretariat@wrozka.edu.pl",
                "website": "http:\/\/wrozka.edu.pl",
                "ref:regon": "090413195",
                "ref:vatin": "PL5542349517",
                "operator": "Gmina Bia\u0142e B\u0142ota",
                "operator:type": "government",
                "amenity": "kindergarten"
            }
        },
        {
            "id": 104808,
            "type": "Feature",
            "geometry": {
                "type": "Point",
                "coordinates": [
                    17.9195,
                    53.095839999999995
                ]
            },
            "properties": {
                "isced:level": "1;2",
                "ref:rspo": 104808,
                "official_name": "Szko\u0142a Podstawowa im. Mariana Rejewskiego w Bia\u0142ych B\u0142otach",
                "name": "Szko\u0142a Podstawowa",
                "addr:postcode": "86-005",
                "addr:city": "Bia\u0142e B\u0142ota",
                "addr:street": "Centralna",
                "addr:housenumber": "27",
                "addr:city:simc": 79496,
                "addr:street:sym_ul": 2614,
                "phone": "+48 523814011",
                "email": "sekretariat@spbb.pl",
                "website": "http:\/\/www.spbb.pl",
                "ref:regon": "000561980",
                "ref:vatin": "PL5542372120",
                "operator": "Gmina Bia\u0142e B\u0142ota",
                "operator:type": "government",
                "amenity": "school"
            }
        },
        {
            "id": 124116,
            "type": "Feature",
            "geometry": {
                "type": "Point",
                "coordinates": [
                    17.83614,
                    53.11995
                ]
            },
            "properties": {
                "ref:rspo": 124116,
                "official_name": "Niepubliczna Plac\u00f3wka Kszta\u0142cenia Ustawicznego \"Denar\"",
                "name": "Niepubliczna Plac\u00f3wka Kszta\u0142cenia Ustawicznego \"Denar\"",
                "addr:postcode": "86-065",
                "addr:city": "\u0141ochowo",
                "addr:street": "Iglasta",
                "addr:housenumber": "12A",
                "addr:city:simc": 79579,
                "addr:street:sym_ul": 6860,
                "phone": "+48 523819314",
                "email": "sekretariat@denar.edu.pl",
                "ref:regon": "341610852",
                "operator": "Dorota Wierzga\u0142a",
                "operator:type": "private",
                "fixme": "w zale\u017cno\u015bci od przedmiotu dzia\u0142alno\u015bci (np. amenity=training + training=*, amenity=dancing_school, amenity=language_school, amenity=music_school)"
            }
        },
        {
            "id": 131939,
            "type": "Feature",
            "geometry": {
                "type": "Point",
                "coordinates": [
                    17.82893,
                    53.12119
                ]
            },
            "properties": {
                "ref:rspo": 131939,
                "official_name": "Zak\u0105tek Przedszkolaka Niepubliczne Przedszkole Angloj\u0119zyczne",
                "name": "Zak\u0105tek Przedszkolaka Niepubliczne Przedszkole Angloj\u0119zyczne",
                "addr:postcode": "86-065",
                "addr:city": "\u0141ochowo",
                "addr:street": "Pla\u017cowa",
                "addr:housenumber": "1-3",
                "addr:city:simc": 79579,
                "addr:street:sym_ul": 16457,
                "phone": "+48 791509315",
                "email": "zakatekprzedszkolaka@wp.pl",
                "website": "http:\/\/www.zakatek-przedszkolaka.pl",
                "ref:regon": "365386005",
                "ref:vatin": "PL5542899519",
                "operator": "Zak\u0105tek Przedszkolaka, P.klesi\u0144ska-Mazur, P.nowak S.c.",
                "operator:type": "consortium",
                "amenity": "kindergarten"
            }
        },
        {
            "id": 110007,
            "type": "Feature",
            "geometry": {
                "type": "Point",
                "coordinates": [
                    17.83811,
                    53.12155
                ]
            },
            "properties": {
                "isced:level": "1;2",
                "ref:rspo": 110007,
                "official_name": "Szko\u0142a Podstawowa im. Jana Paw\u0142a II w \u0141ochowie",
                "name": "Szko\u0142a Podstawowa",
                "addr:postcode": "86-065",
                "addr:city": "\u0141ochowo",
                "addr:street": "Wierzbowa",
                "addr:housenumber": "2",
                "addr:city:simc": 79579,
                "addr:street:sym_ul": 24170,
                "phone": "+48 523639910",
                "email": "sekretariat@splochowo.pl",
                "website": "http:\/\/splochowo.pl",
                "ref:regon": "001159814",
                "ref:vatin": "PL5542349345",
                "operator": "Gmina Bia\u0142e B\u0142ota",
                "operator:type": "government",
                "amenity": "school"
            }
        },
        {
            "id": 125061,
            "type": "Feature",
            "geometry": {
                "type": "Point",
                "coordinates": [
                    17.83857,
                    53.12375
                ]
            },
            "properties": {
                "ref:rspo": 125061,
                "official_name": "T\u0119czowe Przedszkole",
                "name": "T\u0119czowe Przedszkole",
                "addr:postcode": "86-065",
                "addr:city": "\u0141ochowo",
                "addr:street": "Cyprysowa",
                "addr:housenumber": "9",
                "addr:city:simc": 79579,
                "addr:street:sym_ul": 3191,
                "phone": "+48 523819494",
                "email": "przedszkole.lochowo@gmail.com",
                "ref:regon": "341624021",
                "operator": "Stowarzyszenie Wspierania Rodzin \"Droga\"",
                "operator:type": "ngo",
                "amenity": "kindergarten"
            }
        },
        {
            "id": 105739,
            "type": "Feature",
            "geometry": {
                "type": "Point",
                "coordinates": [
                    17.80196,
                    53.12691
                ]
            },
            "properties": {
                "ref:rspo": 105739,
                "official_name": "Przedszkole Niepubliczne \"Igu\u015b\" w \u0141ochowicach",
                "name": "Przedszkole Niepubliczne \"Igu\u015b\" w \u0141ochowicach",
                "addr:postcode": "86-065",
                "addr:city": "\u0141ochowice",
                "addr:street": "\u0141ososiowa",
                "addr:housenumber": "11",
                "addr:city:simc": 79562,
                "addr:street:sym_ul": 11681,
                "phone": "+48 501389843",
                "email": "lochowice@przedszkoleigus.pl",
                "website": "http:\/\/www.przedszkoleigus.pl",
                "ref:regon": "341373180",
                "ref:vatin": "PL9532210949",
                "operator": "Anna Wierzbicka",
                "operator:type": "private",
                "amenity": "kindergarten"
            }
        },
        {
            "id": 266293,
            "type": "Feature",
            "geometry": {
                "type": "Point",
                "coordinates": [
                    17.80196,
                    53.12688
                ]
            },
            "properties": {
                "ref:rspo": 266293,
                "official_name": "Przedszkole Publiczne \"Igu\u015b\" w \u0141ochowicach",
                "name": "Przedszkole Publiczne \"Igu\u015b\" w \u0141ochowicach",
                "addr:postcode": "86-065",
                "addr:city": "\u0141ochowice",
                "addr:street": "\u0141ososiowa",
                "addr:housenumber": "11",
                "addr:city:simc": 79562,
                "addr:street:sym_ul": 11681,
                "phone": "+48 501389843",
                "email": "lochowice@przedszkoleigus.pl",
                "website": "http:\/\/www.przedszkoleigus.pl",
                "ref:regon": "369388120",
                "ref:vatin": "PL9532210949",
                "operator": "Anna Wierzbicka",
                "operator:type": "private",
                "amenity": "kindergarten"
            }
        },
        {
            "id": 125060,
            "type": "Feature",
            "geometry": {
                "type": "Point",
                "coordinates": [
                    17.87552,
                    53.12735
                ]
            },
            "properties": {
                "ref:rspo": 125060,
                "official_name": "Punkt Przedszkolny \"Ba\u015bniowe Przedszkole\"",
                "name": "Punkt Przedszkolny \"Ba\u015bniowe Przedszkole\"",
                "addr:postcode": "86-065",
                "addr:city": "Lisi Ogon",
                "addr:street": "Potulicka",
                "addr:housenumber": "14",
                "addr:city:simc": 79540,
                "addr:street:sym_ul": 17304,
                "phone": "+48 721584227",
                "ref:regon": "341623837",
                "ref:vatin": "PL9532205486",
                "operator": "Sp\u00f3\u0142dzielnia Socjalna \"Argo\"",
                "operator:type": "cooperative",
                "amenity": "kindergarten"
            }
        },
        {
            "id": 105728,
            "type": "Feature",
            "geometry": {
                "type": "Point",
                "coordinates": [
                    17.84622,
                    53.13107
                ]
            },
            "properties": {
                "ref:rspo": 105728,
                "official_name": "Zaktek Przedszkolaka Punky Przedszkolny",
                "name": "Zaktek Przedszkolaka Punky Przedszkolny",
                "addr:postcode": "86-065",
                "addr:city": "\u0141ochowo",
                "addr:street": "T\u0119czowa",
                "addr:housenumber": "18",
                "addr:city:simc": 79579,
                "addr:street:sym_ul": 22777,
                "phone": "+48 791509315",
                "email": "zakatekprzedszkolaka@wp.pl",
                "ref:regon": "341373174",
                "ref:vatin": "PL5542899519",
                "operator": "Dane Do Uzupe\u0142nienia",
                "operator:type": "private",
                "amenity": "kindergarten"
            }
        },
        {
            "id": 277504,
            "type": "Feature",
            "geometry": {
                "type": "Point",
                "coordinates": [
                    18.06055,
                    53.18399
                ]
            },
            "properties": {
                "ref:rspo": 277504,
                "official_name": "Przedszkole Pro-Integris nr 3 w \u0141ochowie",
                "name": "Przedszkole Pro-Integris nr 3 w \u0141ochowie",
                "addr:postcode": "86-065",
                "addr:city": "\u0141ochowo",
                "addr:street": "Zatokowa",
                "addr:housenumber": "6",
                "addr:city:simc": 79579,
                "addr:street:sym_ul": 25739,
                "phone": "+48 663551294",
                "email": "biuro.prointegris3@gmail.com",
                "website": "http:\/\/www.prointegris.pl",
                "ref:regon": "389030904",
                "operator": "Natalia Gibowska",
                "operator:type": "private",
                "amenity": "kindergarten"
            }
        }
    ]
}