{
    "type": "FeatureCollection",
    "features": [
        {
            "id": 28774,
            "type": "Feature",
            "geometry": {
                "type": "Point",
                "coordinates": [
                    18.03324,
                    53.18099
                ]
            },
            "properties": {
                "ref:rspo": 28774,
                "official_name": "Przedszkole Dzieci\u0119cy \u015awiat Montessori",
                "name": "Przedszkole Dzieci\u0119cy \u015awiat Montessori",
                "addr:country": "PL",
                "addr:postcode": "86-032",
                "addr:city": "Niemcz",
                "addr:street": "Bydgoska",
                "addr:housenumber": "40",
                "addr:teryt:simc": 93562,
                "addr:teryt:sym_ul": 2498,
                "contact:phone": "+48 502282312",
                "contact:email": "centrum.edukacji.montessori@gmail.com",
                "contact:website": "http:\/\/montessori.bydgoszcz.pl",
                "ref:regon": "341341056",
                "operator": "Marianna Mordka",
                "operator:type": "private",
                "amenity": "kindergarten"
            }
        },
        {
            "id": 26135,
            "type": "Feature",
            "geometry": {
                "type": "Point",
                "coordinates": [
                    18.03256,
                    53.18129
                ]
            },
            "properties": {
                "isced:level": "1;2",
                "ref:rspo": 26135,
                "official_name": "Szko\u0142a Podstawowa im. Agaty Mr\u00f3z w Niemczu",
                "name": "Szko\u0142a Podstawowa",
                "addr:country": "PL",
                "addr:postcode": "86-032",
                "addr:city": "Niemcz",
                "addr:street": "Bydgoska",
                "addr:housenumber": "35",
                "addr:teryt:simc": 93562,
                "addr:teryt:sym_ul": 2498,
                "contact:phone": "+48 523813623",
                "contact:email": "dyrektor@sp-niemcz.edu.pl",
                "contact:website": "http:\/\/www.sp-niemcz.edu.pl",
                "ref:regon": "091152822",
                "ref:vatin": "PL5542347553",
                "operator": "Gmina Osielsko",
                "operator:type": "government",
                "amenity": "school"
            }
        },
        {
            "id": 126973,
            "type": "Feature",
            "geometry": {
                "type": "Point",
                "coordinates": [
                    18.06346,
                    53.1824
                ]
            },
            "properties": {
                "ref:rspo": 126973,
                "official_name": "Akademia Przedszkolaka",
                "name": "Akademia Przedszkolaka",
                "addr:country": "PL",
                "addr:postcode": "86-031",
                "addr:city": "Osielsko",
                "addr:street": "Orla",
                "addr:housenumber": "12",
                "addr:teryt:simc": 93600,
                "addr:teryt:sym_ul": 15141,
                "contact:phone": "+48 500076520",
                "contact:email": "biuro@akademia-przedszkolaka.com.pl",
                "contact:website": "http:\/\/www.akademia-przedszkolaka.com.pl",
                "ref:regon": "360994059",
                "ref:vatin": "PL5542920691",
                "operator": "Norbert Raus",
                "operator:type": "private",
                "amenity": "kindergarten"
            }
        },
        {
            "id": 40044,
            "type": "Feature",
            "geometry": {
                "type": "Point",
                "coordinates": [
                    18.03977,
                    53.18367
                ]
            },
            "properties": {
                "ref:rspo": 40044,
                "official_name": "Niepubliczne Przedszkole Angloj\u0119zyczne \"T\u0119czowa Kraina\" Maciej Kulczewski",
                "name": "Niepubliczne Przedszkole Angloj\u0119zyczne \"T\u0119czowa Kraina\" Maciej Kulczewski",
                "addr:country": "PL",
                "addr:postcode": "86-032",
                "addr:city": "Niemcz",
                "addr:street": "Jana Matejki",
                "addr:housenumber": "8b",
                "addr:teryt:simc": 93562,
                "addr:teryt:sym_ul": 12489,
                "contact:phone": "+48 523246102",
                "contact:email": "przedszkole.teczowakraina@op.pl",
                "contact:website": "http:\/\/przedszkole-teczowakraina.com",
                "ref:regon": "341340571",
                "ref:vatin": "PL5541439419",
                "operator": "Maciej Kulczewski",
                "operator:type": "private",
                "amenity": "kindergarten"
            }
        },
        {
            "id": 26240,
            "type": "Feature",
            "geometry": {
                "type": "Point",
                "coordinates": [
                    18.0627,
                    53.18477
                ]
            },
            "properties": {
                "ref:rspo": 26240,
                "official_name": "Przedszkole Niepubliczne \"Chatka Puchatka\" Danuta Pi\u0105tek",
                "name": "Przedszkole Niepubliczne \"Chatka Puchatka\" Danuta Pi\u0105tek",
                "addr:country": "PL",
                "addr:postcode": "86-031",
                "addr:city": "Osielsko",
                "addr:street": "Ba\u0142tycka",
                "addr:housenumber": "19",
                "addr:teryt:simc": 93600,
                "addr:teryt:sym_ul": 656,
                "contact:phone": "+48 506260519",
                "contact:email": "kontakt@chatka-puchatka.com",
                "contact:website": "http:\/\/www.chatka-puchatka.com",
                "ref:regon": "341337712",
                "ref:vatin": "PL5542178895",
                "operator": "Danuta Pi\u0105tek",
                "operator:type": "private",
                "amenity": "kindergarten"
            }
        },
        {
            "id": 130630,
            "type": "Feature",
            "geometry": {
                "type": "Point",
                "coordinates": [
                    18.0625171,
                    53.1847984
                ]
            },
            "properties": {
                "ref:rspo": 130630,
                "official_name": "Publiczne Przedszkole Nr 1 w Osielsku",
                "name": "Publiczne Przedszkole Nr 1 w Osielsku",
                "addr:country": "PL",
                "addr:postcode": "86-031",
                "addr:city": "Osielsko",
                "addr:street": "Ba\u0142tycka",
                "addr:housenumber": "21",
                "addr:teryt:simc": 93600,
                "addr:teryt:sym_ul": 656,
                "contact:phone": "+48 533809277",
                "contact:email": "sekretariat@przedszkole1osielsko.pl",
                "contact:website": "http:\/\/przedszkole1osielsko.pl",
                "ref:regon": "364266173",
                "operator": "Gmina Osielsko",
                "operator:type": "government",
                "amenity": "kindergarten"
            }
        },
        {
            "id": 11269,
            "type": "Feature",
            "geometry": {
                "type": "Point",
                "coordinates": [
                    18.07092,
                    53.18566
                ]
            },
            "properties": {
                "ref:rspo": 11269,
                "official_name": "Niepubliczna Poradnia Psychologiczno-Pedagogiczna \"Senso\" w Osielsku",
                "name": "Niepubliczna Poradnia Psychologiczno-Pedagogiczna \"Senso\" w Osielsku",
                "addr:country": "PL",
                "addr:postcode": "86-031",
                "addr:city": "Osielsko",
                "addr:street": "Tapicerska",
                "addr:housenumber": "4",
                "addr:teryt:simc": 93600,
                "addr:teryt:sym_ul": 22636,
                "contact:phone": "+48 502524626",
                "contact:email": "info@poradnia-senso.pl",
                "ref:regon": "341324566",
                "operator": "Justyna Mrozi\u0144ska-Kleniewska",
                "operator:type": "private",
                "healthcare": "counselling",
                "counselling_type": "education",
                "fixme": "w zale\u017cno\u015bci od przedmiotu dzia\u0142alno\u015bci (np. healthcare=counselling + counselling_type=education albo healthcare=psychotherapist)"
            }
        },
        {
            "id": 132544,
            "type": "Feature",
            "geometry": {
                "type": "Point",
                "coordinates": [
                    18.07299,
                    53.1864599
                ]
            },
            "properties": {
                "ref:rspo": 132544,
                "official_name": "Niepubliczne Przedszkole \"Blu\"",
                "name": "Niepubliczne Przedszkole \"Blu\"",
                "addr:country": "PL",
                "addr:postcode": "86-031",
                "addr:city": "Osielsko",
                "addr:street": "Wiatrakowa",
                "addr:housenumber": "1",
                "addr:teryt:simc": 93600,
                "addr:teryt:sym_ul": 23974,
                "contact:phone": "+48 507109382",
                "contact:email": "przedszkole.blu@wp.pl",
                "contact:website": "http:\/\/przedszkoleblu.pl",
                "ref:regon": "365752697",
                "operator": "Marzena Bentlejewska",
                "operator:type": "private",
                "amenity": "kindergarten"
            }
        },
        {
            "id": 48737,
            "type": "Feature",
            "geometry": {
                "type": "Point",
                "coordinates": [
                    18.07548,
                    53.18677
                ]
            },
            "properties": {
                "isced:level": "1;2",
                "ref:rspo": 48737,
                "official_name": "Szko\u0142a Podstawowa im. Polskich Olimpijczyk\u00f3w w Osielsku",
                "name": "Szko\u0142a Podstawowa",
                "addr:country": "PL",
                "addr:postcode": "86-031",
                "addr:city": "Osielsko",
                "addr:street": "Centralna",
                "addr:housenumber": "7",
                "addr:teryt:simc": 93600,
                "addr:teryt:sym_ul": 2614,
                "contact:phone": "+48 523813119",
                "contact:email": "sekretariat@sposielsko.edu.pl",
                "contact:website": "http:\/\/sposielsko.edu.pl",
                "ref:regon": "091152845",
                "operator": "Gmina Osielsko",
                "operator:type": "government",
                "amenity": "school"
            }
        },
        {
            "id": 110156,
            "type": "Feature",
            "geometry": {
                "type": "Point",
                "coordinates": [
                    18.07397,
                    53.18882
                ]
            },
            "properties": {
                "ref:rspo": 110156,
                "official_name": "Przedszkole Niepubliczne \"Zameczek II\"",
                "name": "Przedszkole Niepubliczne \"Zameczek II\"",
                "addr:country": "PL",
                "addr:postcode": "86-031",
                "addr:city": "Osielsko",
                "addr:street": "Polna",
                "addr:housenumber": "10",
                "addr:teryt:simc": 93600,
                "addr:teryt:sym_ul": 17011,
                "contact:phone": "+48 525163316",
                "contact:email": "przedszkolezameczek@gazeta.pl",
                "contact:website": "http:\/\/przedszkolezameczek.edupage.org",
                "ref:regon": "341397588",
                "operator": "Maria Gaudzi\u0144ska",
                "operator:type": "private",
                "amenity": "kindergarten"
            }
        },
        {
            "id": 26112,
            "type": "Feature",
            "geometry": {
                "type": "Point",
                "coordinates": [
                    18.04029,
                    53.21535
                ]
            },
            "properties": {
                "isced:level": "1;2",
                "ref:rspo": 26112,
                "official_name": "Szko\u0142a Podstawowa im. Jana Paw\u0142a II w Maksymilianowie",
                "name": "Szko\u0142a Podstawowa",
                "addr:country": "PL",
                "addr:postcode": "86-021",
                "addr:city": "Maksymilianowo",
                "addr:street": "Szkolna",
                "addr:housenumber": "7",
                "addr:teryt:simc": 93533,
                "addr:teryt:sym_ul": 21970,
                "contact:phone": "+48 523818713",
                "contact:email": "spmax@gazeta.pl",
                "contact:website": "http:\/\/spmax.edupage.org",
                "ref:regon": "091152816",
                "ref:vatin": "PL5542348239",
                "operator": "Gmina Osielsko",
                "operator:type": "government",
                "amenity": "school"
            }
        },
        {
            "id": 133653,
            "type": "Feature",
            "geometry": {
                "type": "Point",
                "coordinates": [
                    18.05922,
                    53.21915
                ]
            },
            "properties": {
                "isced:level": "1;2",
                "ref:rspo": 133653,
                "official_name": "Szko\u0142a Podstawowa im. Janusza Korczaka w \u017bo\u0142\u0119dowie",
                "name": "Szko\u0142a Podstawowa",
                "addr:country": "PL",
                "addr:postcode": "86-021",
                "addr:city": "\u017bo\u0142\u0119dowo",
                "addr:street": "Bydgoska",
                "addr:housenumber": "24",
                "addr:teryt:simc": 93645,
                "addr:teryt:sym_ul": 2498,
                "contact:phone": "+48 523818728",
                "contact:email": "spzoledowo@edupolis.pl",
                "contact:website": "http:\/\/www.spzoledowo.edupage.org",
                "ref:regon": "367516044",
                "operator": "Gmina Osielsko",
                "operator:type": "government",
                "amenity": "school"
            }
        },
        {
            "id": 26279,
            "type": "Feature",
            "geometry": {
                "type": "Point",
                "coordinates": [
                    18.06334,
                    53.2207999
                ]
            },
            "properties": {
                "ref:rspo": 26279,
                "official_name": "Przedszkole Dobrego Pasterza",
                "name": "Przedszkole Dobrego Pasterza",
                "addr:country": "PL",
                "addr:postcode": "86-031",
                "addr:city": "\u017bo\u0142\u0119dowo",
                "addr:street": "Jastrz\u0119bia",
                "addr:housenumber": "27",
                "addr:teryt:simc": 93645,
                "addr:teryt:sym_ul": 7354,
                "contact:phone": "+48 523813030",
                "contact:email": "przedszkole_dp@onet.eu",
                "contact:website": "http:\/\/www.pasterki.schoolpage.pl",
                "ref:regon": "341338433",
                "ref:vatin": "PL5542614379",
                "operator": "Zgromadzenie Si\u00f3str Pasterek Od Opatrzno\u015bci Bo\u017cej Dom Generalny",
                "operator:type": "religious",
                "amenity": "kindergarten"
            }
        },
        {
            "id": 44616,
            "type": "Feature",
            "geometry": {
                "type": "Point",
                "coordinates": [
                    18.06334,
                    53.2207699
                ]
            },
            "properties": {
                "ref:rspo": 44616,
                "official_name": "Przedszkole Niepubliczne \"Humpty Dumpty\" Katarzyna Gulik-Malinowska",
                "name": "Przedszkole Niepubliczne \"Humpty Dumpty\" Katarzyna Gulik-Malinowska",
                "addr:country": "PL",
                "addr:postcode": "86-031",
                "addr:city": "\u017bo\u0142\u0119dowo",
                "addr:street": "Jastrz\u0119bia",
                "addr:housenumber": "74",
                "addr:teryt:simc": 93645,
                "addr:teryt:sym_ul": 7354,
                "contact:phone": "+48 509597030",
                "contact:email": "przedszkole_humptydumpty@onet.pl",
                "ref:regon": "341341062",
                "operator": "Katarzyna Gulik-Malinowska",
                "operator:type": "private",
                "amenity": "kindergarten"
            }
        }
    ]
}