{
    "type": "FeatureCollection",
    "features": [
        {
            "id": 85953,
            "type": "Feature",
            "geometry": {
                "type": "Point",
                "coordinates": [
                    15.379486,
                    51.0397539
                ]
            },
            "properties": {
                "isced:level": "1;2",
                "ref:rspo": 85953,
                "official_name": "Szko\u0142a Podstawowa im. Janusza Korczaka w Biedrzychowicach",
                "name": "Szko\u0142a Podstawowa",
                "addr:postcode": "59-830",
                "addr:place": "Biedrzychowice",
                "addr:housenumber": "93",
                "addr:city:simc": 191626,
                "phone": "+48 757221529",
                "email": "spkorczakbiedrzychowice@gmail.com",
                "website": "http:\/\/spbiedrzychowice.edupage.org",
                "ref:regon": "000711215",
                "ref:vatin": "PL6131394043",
                "operator": "Gmina Olszyna",
                "operator:type": "government",
                "amenity": "school"
            }
        },
        {
            "id": 57071,
            "type": "Feature",
            "geometry": {
                "type": "Point",
                "coordinates": [
                    15.3745929,
                    51.045966
                ]
            },
            "properties": {
                "ref:rspo": 57071,
                "official_name": "Dolno\u015bL\u0105ski Zesp\u00f3\u0142 Szk\u00f3\u0142 w Biedrzychowicach",
                "name": "Dolno\u015bL\u0105ski Zesp\u00f3\u0142 Szk\u00f3\u0142 w Biedrzychowicach",
                "addr:postcode": "59-830",
                "addr:place": "Biedrzychowice",
                "addr:housenumber": "20",
                "addr:city:simc": 191626,
                "phone": "+48 757221570",
                "email": "dzs@biedrzychowice.pl",
                "website": "http:\/\/www.dzs.biedrzychowice.pl",
                "ref:regon": "230915862",
                "operator": "Wojew\u00f3dztwo Dolno\u015bl\u0105skie",
                "operator:type": "government",
                "landuse": "education",
                "fixme": "amenity=school, amenity=college albo landuse=education w zale\u017cno\u015bci od tego, jakie plac\u00f3wki wchodz\u0105 w sk\u0142ad zespo\u0142u. Sprawd\u017a, kiedy stosowa\u0107 amenity=* a kiedy landuse=education.",
                "note": "Children RSPO: 69164;73626;73627"
            }
        },
        {
            "id": 69164,
            "type": "Feature",
            "geometry": {
                "type": "Point",
                "coordinates": [
                    15.3745929,
                    51.045936
                ]
            },
            "properties": {
                "isced:level": "3",
                "ref:rspo": 69164,
                "official_name": "Bran\u017cowa Szko\u0142a I Stopnia w Biedrzychowicach",
                "name": "Bran\u017cowa Szko\u0142a I Stopnia w Biedrzychowicach",
                "addr:postcode": "59-830",
                "addr:place": "Biedrzychowice",
                "addr:housenumber": "20",
                "addr:city:simc": 191626,
                "phone": "+48 757221570",
                "ref:regon": "021998634",
                "operator": "Wojew\u00f3dztwo Dolno\u015bl\u0105skie",
                "operator:type": "government",
                "amenity": "school",
                "note": "Parent RSPO: 57071"
            }
        },
        {
            "id": 73626,
            "type": "Feature",
            "geometry": {
                "type": "Point",
                "coordinates": [
                    15.3745929,
                    51.045906
                ]
            },
            "properties": {
                "isced:level": "3",
                "ref:rspo": 73626,
                "official_name": "Technikum w Biedrzychowicach",
                "name": "Technikum w Biedrzychowicach",
                "addr:postcode": "59-830",
                "addr:place": "Biedrzychowice",
                "addr:housenumber": "20",
                "addr:city:simc": 191626,
                "phone": "+48 757221570",
                "email": "dzs@biedrzychowice.pl",
                "website": "http:\/\/www.dzs.biedrzychowice.pl",
                "ref:regon": "231133558",
                "operator": "Wojew\u00f3dztwo Dolno\u015bl\u0105skie",
                "operator:type": "government",
                "amenity": "school",
                "note": "Parent RSPO: 57071"
            }
        },
        {
            "id": 73627,
            "type": "Feature",
            "geometry": {
                "type": "Point",
                "coordinates": [
                    15.3745929,
                    51.045876
                ]
            },
            "properties": {
                "isced:level": "4",
                "ref:rspo": 73627,
                "official_name": "Szko\u0142a Policealna w Biedrzychowicach",
                "name": "Szko\u0142a Policealna w Biedrzychowicach",
                "addr:postcode": "59-830",
                "addr:place": "Biedrzychowice",
                "addr:housenumber": "20",
                "addr:city:simc": 191626,
                "phone": "+48 757221570",
                "ref:regon": "021333662",
                "operator": "Wojew\u00f3dztwo Dolno\u015bl\u0105skie",
                "operator:type": "government",
                "amenity": "college",
                "note": "Parent RSPO: 57071"
            }
        },
        {
            "id": 85919,
            "type": "Feature",
            "geometry": {
                "type": "Point",
                "coordinates": [
                    15.37578,
                    51.06546
                ]
            },
            "properties": {
                "isced:level": "1;2",
                "ref:rspo": 85919,
                "official_name": "Szko\u0142a Podstawowa Nr 1 w Olszynie",
                "name": "Szko\u0142a Podstawowa Nr 1 w Olszynie",
                "addr:postcode": "59-830",
                "addr:city": "Olszyna",
                "addr:street": "Wolno\u015bci",
                "addr:housenumber": "17b",
                "addr:city:simc": 191684,
                "addr:street:sym_ul": 24687,
                "phone": "+48 757212262",
                "email": "sp1olszyna@interia.pl",
                "website": "http:\/\/sp1olszyna.superszkolna.pl",
                "ref:regon": "000711184",
                "ref:vatin": "PL6131395545",
                "operator": "Gmina Olszyna",
                "operator:type": "government",
                "amenity": "school"
            }
        },
        {
            "id": 85937,
            "type": "Feature",
            "geometry": {
                "type": "Point",
                "coordinates": [
                    15.37578,
                    51.06543
                ]
            },
            "properties": {
                "isced:level": "1;2",
                "ref:rspo": 85937,
                "official_name": "Szko\u0142a Podstawowa Nr 3",
                "name": "Szko\u0142a Podstawowa Nr 3",
                "addr:postcode": "59-830",
                "addr:city": "Olszyna",
                "addr:street": "Wolno\u015bci",
                "addr:housenumber": "17",
                "addr:city:simc": 191684,
                "addr:street:sym_ul": 24687,
                "phone": "+48 757212196",
                "email": "sp3olszyna3@op.pl",
                "website": "https:\/\/sp3olszyna.pl",
                "ref:regon": "000711209",
                "ref:vatin": "PL6131395539",
                "operator": "Gmina Olszyna",
                "operator:type": "government",
                "amenity": "school"
            }
        },
        {
            "id": 86069,
            "type": "Feature",
            "geometry": {
                "type": "Point",
                "coordinates": [
                    15.38616,
                    51.06785
                ]
            },
            "properties": {
                "ref:rspo": 86069,
                "official_name": "Gminne Przedszkole Publiczne",
                "name": "Gminne Przedszkole Publiczne",
                "addr:postcode": "59-830",
                "addr:city": "Olszyna",
                "addr:street": "Adama Mickiewicza",
                "addr:housenumber": "2",
                "addr:city:simc": 191684,
                "addr:street:sym_ul": 12740,
                "phone": "+48 757212428",
                "email": "przedszkole.olszyna6@wp.pl",
                "ref:regon": "230250807",
                "ref:vatin": "PL6131301320",
                "operator": "Gmina Olszyna",
                "operator:type": "government",
                "amenity": "kindergarten"
            }
        }
    ]
}