{
    "type": "FeatureCollection",
    "features": [
        {
            "id": 84445,
            "type": "Feature",
            "geometry": {
                "type": "Point",
                "coordinates": [
                    15.2924,
                    51.10437
                ]
            },
            "properties": {
                "isced:level": "1;2",
                "ref:rspo": 84445,
                "official_name": "Szko\u0142a Podstawowa Nr 3 im. Jana Paw\u0142a II Z Oddzia\u0142ami Integracyjnymi w Lubaniu",
                "name": "Szko\u0142a Podstawowa Nr 3",
                "addr:country": "PL",
                "addr:postcode": "59-800",
                "addr:city": "Luba\u0144",
                "addr:street": "ul. Skalnicza",
                "addr:housenumber": "3",
                "addr:teryt:simc": 19973,
                "addr:teryt:sym_ul": 936150,
                "contact:phone": "+48 756460261",
                "contact:email": "lubantrojka@wp.pl",
                "contact:website": "http:\/\/www.sp3luban.republika.pl",
                "ref:regon": "000711296",
                "ref:vatin": "PL6131003462",
                "operator": "Gmina Miejska Luba\u0144",
                "operator:type": "government",
                "amenity": "school"
            }
        },
        {
            "id": 84450,
            "type": "Feature",
            "geometry": {
                "type": "Point",
                "coordinates": [
                    15.2924,
                    51.10434
                ]
            },
            "properties": {
                "ref:rspo": 84450,
                "official_name": "Przedszkole Miejskie Nr 1 w Lubaniu",
                "name": "Przedszkole Miejskie Nr 1 w Lubaniu",
                "addr:country": "PL",
                "addr:postcode": "59-800",
                "addr:city": "Luba\u0144",
                "addr:street": "ul. Skalnicza",
                "addr:housenumber": "3",
                "addr:teryt:simc": 19973,
                "addr:teryt:sym_ul": 936150,
                "contact:phone": "+48 756464449",
                "contact:email": "pmnr1luban@op.pl",
                "ref:regon": "230511277",
                "ref:vatin": "PL6131417554",
                "operator": "Gmina Miejska Luba\u0144",
                "operator:type": "government",
                "amenity": "kindergarten"
            }
        },
        {
            "id": 11440,
            "type": "Feature",
            "geometry": {
                "type": "Point",
                "coordinates": [
                    15.29,
                    51.10813
                ]
            },
            "properties": {
                "ref:rspo": 11440,
                "official_name": "Zesp\u00f3\u0142 Szk\u00f3\u0142 Elektryczno-Mechanicznych w Lubaniu",
                "name": "Zesp\u00f3\u0142 Szk\u00f3\u0142 Elektryczno-Mechanicznych w Lubaniu",
                "addr:country": "PL",
                "addr:postcode": "59-800",
                "addr:city": "Luba\u0144",
                "addr:street": "ul. Le\u015bna",
                "addr:housenumber": "8",
                "addr:teryt:simc": 10898,
                "addr:teryt:sym_ul": 936150,
                "contact:phone": "+48 757222678",
                "contact:email": "zszluban@jg.onet.pl",
                "contact:website": "http:\/\/www.zsp2.boo.pl\/news.php",
                "ref:regon": "000124950",
                "ref:vatin": "PL6131464708",
                "operator": "Powiat Luba\u0144ski",
                "operator:type": "government",
                "landuse": "education",
                "fixme": "amenity=school, amenity=college albo landuse=education w zale\u017cno\u015bci od tego, jakie plac\u00f3wki wchodz\u0105 w sk\u0142ad zespo\u0142u. Sprawd\u017a, kiedy stosowa\u0107 amenity=* a kiedy landuse=education.",
                "note": "Children RSPO: 19362;19387;19405"
            }
        },
        {
            "id": 19362,
            "type": "Feature",
            "geometry": {
                "type": "Point",
                "coordinates": [
                    15.29,
                    51.1081
                ]
            },
            "properties": {
                "isced:level": "3",
                "ref:rspo": 19362,
                "official_name": "Liceum Og\u00f3lnokszta\u0142c\u0105ce im. Stefana Drzewieckiego w Zespole Szk\u00f3\u0142 Elektryczno-Mechanicznych w Lubaniu",
                "name": "Liceum Og\u00f3lnokszta\u0142c\u0105ce",
                "addr:country": "PL",
                "addr:postcode": "59-800",
                "addr:city": "Luba\u0144",
                "addr:street": "ul. Le\u015bna",
                "addr:housenumber": "8",
                "addr:teryt:simc": 10898,
                "addr:teryt:sym_ul": 936150,
                "contact:phone": "+48 757222678",
                "contact:email": "zszluban@jg.onet.pl",
                "contact:website": "https:\/\/zsem.powiatluban.pl",
                "ref:regon": "020811250",
                "operator": "Powiat Luba\u0144ski",
                "operator:type": "government",
                "amenity": "school",
                "note": "Parent RSPO: 11440"
            }
        },
        {
            "id": 19387,
            "type": "Feature",
            "geometry": {
                "type": "Point",
                "coordinates": [
                    15.29,
                    51.108070000000005
                ]
            },
            "properties": {
                "isced:level": "3",
                "ref:rspo": 19387,
                "official_name": "Technikum im. Stefana Drzewieckiego w Zespole Szk\u00f3\u0142 Elektryczno-Mechanicznych w Lubaniu",
                "name": "Technikum",
                "addr:country": "PL",
                "addr:postcode": "59-800",
                "addr:city": "Luba\u0144",
                "addr:street": "ul. Le\u015bna",
                "addr:housenumber": "8",
                "addr:teryt:simc": 10898,
                "addr:teryt:sym_ul": 936150,
                "contact:phone": "+48 757222678",
                "contact:email": "zszluban@jg.onet.pl",
                "contact:website": "https:\/\/zsem.powiatluban.pl",
                "ref:regon": "231135445",
                "ref:vatin": "PL6131464708",
                "operator": "Powiat Luba\u0144ski",
                "operator:type": "government",
                "amenity": "school",
                "note": "Parent RSPO: 11440"
            }
        },
        {
            "id": 19405,
            "type": "Feature",
            "geometry": {
                "type": "Point",
                "coordinates": [
                    15.29,
                    51.10804
                ]
            },
            "properties": {
                "isced:level": "3",
                "ref:rspo": 19405,
                "official_name": "Bran\u017cowa Szko\u0142a I Stopnia im. Stefana Drzewieckiego w Zespole Szk\u00f3\u0142 Elektryczno-Mechanicznych w Lubaniu",
                "name": "Bran\u017cowa Szko\u0142a I Stopnia",
                "addr:country": "PL",
                "addr:postcode": "59-800",
                "addr:city": "Luba\u0144",
                "addr:street": "ul. Le\u015bna",
                "addr:housenumber": "8",
                "addr:teryt:simc": 10898,
                "addr:teryt:sym_ul": 936150,
                "contact:phone": "+48 757222678",
                "contact:email": "zszluban@jg.onet.pl",
                "contact:website": "https:\/\/zsem.powiatluban.pl",
                "ref:regon": "231135451",
                "ref:vatin": "PL6131464708",
                "operator": "Powiat Luba\u0144ski",
                "operator:type": "government",
                "amenity": "school",
                "note": "Parent RSPO: 11440"
            }
        },
        {
            "id": 127272,
            "type": "Feature",
            "geometry": {
                "type": "Point",
                "coordinates": [
                    15.30009,
                    51.10978
                ]
            },
            "properties": {
                "ref:rspo": 127272,
                "official_name": "Niepubliczne Przedszkole Edukacyjne \"Planeta U\u015bmiechu\" w Lubaniu",
                "name": "Niepubliczne Przedszkole Edukacyjne \"Planeta U\u015bmiechu\" w Lubaniu",
                "addr:country": "PL",
                "addr:postcode": "59-800",
                "addr:city": "Luba\u0144",
                "addr:street": "ul. Jeleniog\u00f3rska",
                "addr:housenumber": "2",
                "addr:teryt:simc": 7459,
                "addr:teryt:sym_ul": 936150,
                "contact:phone": "+48 503125305",
                "contact:email": "planetausmiechu@wp.pl",
                "ref:regon": "361312613",
                "ref:vatin": "PL6131153090",
                "operator": "Magdalena Wieczorkowska",
                "operator:type": "private",
                "amenity": "kindergarten"
            }
        },
        {
            "id": 11451,
            "type": "Feature",
            "geometry": {
                "type": "Point",
                "coordinates": [
                    15.2872,
                    51.1124
                ]
            },
            "properties": {
                "ref:rspo": 11451,
                "official_name": "Zesp\u00f3\u0142 Szk\u00f3\u0142 Spo\u0142eczno-Medycznych w Lubaniu",
                "name": "Zesp\u00f3\u0142 Szk\u00f3\u0142 Spo\u0142eczno-Medycznych w Lubaniu",
                "addr:country": "PL",
                "addr:postcode": "59-800",
                "addr:city": "Luba\u0144",
                "addr:street": "ul. G\u00f3rna",
                "addr:housenumber": "1",
                "addr:teryt:simc": 5948,
                "addr:teryt:sym_ul": 936150,
                "contact:phone": "+48 757217267",
                "contact:email": "sekretariat@zssm.pl",
                "contact:website": "http:\/\/www.zssm.pl",
                "ref:regon": "021960063",
                "ref:vatin": "PL6131459133",
                "operator": "Agata Kulmatycka",
                "operator:type": "private",
                "landuse": "education",
                "fixme": "amenity=school, amenity=college albo landuse=education w zale\u017cno\u015bci od tego, jakie plac\u00f3wki wchodz\u0105 w sk\u0142ad zespo\u0142u. Sprawd\u017a, kiedy stosowa\u0107 amenity=* a kiedy landuse=education.",
                "note": "Children RSPO: 18464;19983;268304"
            }
        },
        {
            "id": 18464,
            "type": "Feature",
            "geometry": {
                "type": "Point",
                "coordinates": [
                    15.2872,
                    51.11237
                ]
            },
            "properties": {
                "isced:level": "3",
                "ref:rspo": 18464,
                "official_name": "Zaoczne Liceum Og\u00f3lnokszta\u0142c\u0105ce dla Doros\u0142ych w Lubaniu",
                "name": "Zaoczne Liceum Og\u00f3lnokszta\u0142c\u0105ce dla Doros\u0142ych w Lubaniu",
                "addr:country": "PL",
                "addr:postcode": "59-800",
                "addr:city": "Luba\u0144",
                "addr:street": "ul. G\u00f3rna",
                "addr:housenumber": "1",
                "addr:teryt:simc": 5948,
                "addr:teryt:sym_ul": 936150,
                "contact:phone": "+48 757217267",
                "contact:email": "sekretariat@zssm.pl",
                "contact:website": "http:\/\/www.zssm.pl",
                "ref:regon": "021972400",
                "ref:vatin": "PL6131459133",
                "operator": "Agata Kulmatycka",
                "operator:type": "private",
                "amenity": "school",
                "note": "Parent RSPO: 11451"
            }
        },
        {
            "id": 19983,
            "type": "Feature",
            "geometry": {
                "type": "Point",
                "coordinates": [
                    15.2872,
                    51.11234
                ]
            },
            "properties": {
                "isced:level": "4",
                "ref:rspo": 19983,
                "official_name": "Spo\u0142eczna Szko\u0142a Policealna w Lubaniu",
                "name": "Spo\u0142eczna Szko\u0142a Policealna w Lubaniu",
                "addr:country": "PL",
                "addr:postcode": "59-800",
                "addr:city": "Luba\u0144",
                "addr:street": "ul. G\u00f3rna",
                "addr:housenumber": "1",
                "addr:teryt:simc": 5948,
                "addr:teryt:sym_ul": 936150,
                "contact:phone": "+48 757217267",
                "contact:email": "sekretariat@zssm.pl",
                "contact:website": "http:\/\/www.zssm.pl",
                "ref:regon": "021976963",
                "ref:vatin": "PL6131459133",
                "operator": "Agata Kulmatycka",
                "operator:type": "private",
                "amenity": "college",
                "note": "Parent RSPO: 11451"
            }
        },
        {
            "id": 268304,
            "type": "Feature",
            "geometry": {
                "type": "Point",
                "coordinates": [
                    15.2872,
                    51.11231
                ]
            },
            "properties": {
                "isced:level": "4",
                "ref:rspo": 268304,
                "official_name": "Medyczna Szko\u0142a Policealna w Lubaniu",
                "name": "Medyczna Szko\u0142a Policealna w Lubaniu",
                "addr:country": "PL",
                "addr:postcode": "59-800",
                "addr:city": "Luba\u0144",
                "addr:street": "ul. G\u00f3rna",
                "addr:housenumber": "1",
                "addr:teryt:simc": 5948,
                "addr:teryt:sym_ul": 936150,
                "contact:phone": "+48 757217267",
                "contact:email": "sekretariat@zssm.pl",
                "ref:regon": "381090404",
                "ref:vatin": "PL6131459133",
                "operator": "Agata Kulmatycka",
                "operator:type": "private",
                "amenity": "college",
                "note": "Parent RSPO: 11451"
            }
        },
        {
            "id": 11448,
            "type": "Feature",
            "geometry": {
                "type": "Point",
                "coordinates": [
                    15.28327,
                    51.11251
                ]
            },
            "properties": {
                "ref:rspo": 11448,
                "official_name": "Szko\u0142a Muzyczna I St. im. Oskara Kolberga w Lubaniu",
                "name": "Szko\u0142a Muzyczna I St.",
                "addr:country": "PL",
                "addr:postcode": "59-800",
                "addr:city": "Luba\u0144",
                "addr:street": "al. Kombatant\u00f3w",
                "addr:housenumber": "11",
                "addr:teryt:simc": 9039,
                "addr:teryt:sym_ul": 936150,
                "contact:phone": "+48 757222891",
                "contact:email": "psmluban@wp.pl",
                "contact:website": "http:\/\/www.psmluban.bip.net.pl\/",
                "ref:regon": "230900613",
                "ref:vatin": "PL6131423276",
                "operator": "Powiat Luba\u0144ski",
                "operator:type": "government",
                "amenity": "music_school"
            }
        },
        {
            "id": 113502,
            "type": "Feature",
            "geometry": {
                "type": "Point",
                "coordinates": [
                    15.28853,
                    51.1147599
                ]
            },
            "properties": {
                "ref:rspo": 113502,
                "official_name": "Zesp\u00f3\u0142 - Powiatowe Centrum Edukacyjne w Lubaniu",
                "name": "Zesp\u00f3\u0142 - Powiatowe Centrum Edukacyjne w Lubaniu",
                "addr:country": "PL",
                "addr:postcode": "59-800",
                "addr:city": "Luba\u0144",
                "addr:street": "al. Kombatant\u00f3w",
                "addr:housenumber": "2",
                "addr:teryt:simc": 9039,
                "addr:teryt:sym_ul": 936150,
                "contact:phone": "+48 756464370",
                "contact:email": "sekretariatpce@interia.pl",
                "contact:website": "http:\/\/www.pceluban.republika.pl\/",
                "ref:regon": "022113649",
                "ref:vatin": "PL6131428256",
                "operator": "Powiat Luba\u0144ski",
                "operator:type": "government",
                "landuse": "education",
                "fixme": "amenity=school, amenity=college albo landuse=education w zale\u017cno\u015bci od tego, jakie plac\u00f3wki wchodz\u0105 w sk\u0142ad zespo\u0142u. Sprawd\u017a, kiedy stosowa\u0107 amenity=* a kiedy landuse=education.",
                "note": "Children RSPO: 11449;113666"
            }
        },
        {
            "id": 11449,
            "type": "Feature",
            "geometry": {
                "type": "Point",
                "coordinates": [
                    15.28853,
                    51.1147299
                ]
            },
            "properties": {
                "ref:rspo": 11449,
                "official_name": "Powiatowe Centrum Edukacyjne w Lubaniu-Odn",
                "name": "Powiatowe Centrum Edukacyjne w Lubaniu-Odn",
                "addr:country": "PL",
                "addr:postcode": "59-800",
                "addr:city": "Luba\u0144",
                "addr:street": "al. Kombatant\u00f3w",
                "addr:housenumber": "2",
                "addr:teryt:simc": 9039,
                "addr:teryt:sym_ul": 936150,
                "contact:phone": "+48 756464370",
                "contact:email": "sekretariatpce@interia.pl",
                "contact:website": "http:\/\/www.pceluban.republika.pl\/",
                "ref:regon": "230913449",
                "ref:vatin": "PL6131428256",
                "operator": "Powiat Luba\u0144ski",
                "operator:type": "government",
                "amenity": "training",
                "note": "Parent RSPO: 113502"
            }
        },
        {
            "id": 113666,
            "type": "Feature",
            "geometry": {
                "type": "Point",
                "coordinates": [
                    15.28853,
                    51.114699900000005
                ]
            },
            "properties": {
                "ref:rspo": 113666,
                "official_name": "Filia Dolno\u015bL\u0105skiej Biblioteki Pedagogicznej w Lubaniu",
                "name": "Filia Dolno\u015bL\u0105skiej Biblioteki Pedagogicznej w Lubaniu",
                "addr:country": "PL",
                "addr:postcode": "59-800",
                "addr:city": "Luba\u0144",
                "addr:street": "al. Kombatant\u00f3w",
                "addr:housenumber": "2",
                "addr:teryt:simc": 9039,
                "addr:teryt:sym_ul": 936150,
                "contact:phone": "+48 756464370",
                "contact:email": "sekretariatpce@interia.pl",
                "contact:website": "http:\/\/pceluban.republika.pl\/",
                "ref:regon": "022115720",
                "operator": "Powiat Luba\u0144ski",
                "operator:type": "government",
                "amenity": "library",
                "note": "Parent RSPO: 113502"
            }
        },
        {
            "id": 270128,
            "type": "Feature",
            "geometry": {
                "type": "Point",
                "coordinates": [
                    15.27141,
                    51.1148
                ]
            },
            "properties": {
                "ref:rspo": 270128,
                "official_name": "Prywatna Poradnia Psychologiczno-Pedagogiczna Edumedica, Mgr Arleta Czuchryta",
                "name": "Prywatna Poradnia Psychologiczno-Pedagogiczna Edumedica, Mgr Arleta Czuchryta",
                "addr:country": "PL",
                "addr:postcode": "59-800",
                "addr:city": "Luba\u0144",
                "addr:street": "ul. Zawidowska",
                "addr:housenumber": "7",
                "addr:teryt:simc": 25834,
                "addr:teryt:sym_ul": 936150,
                "contact:phone": "+48 515362552",
                "contact:email": "edumedica1@o2.pl",
                "ref:regon": "382051702",
                "ref:vatin": "PL6131380070",
                "operator": "Arleta Czuchryta",
                "operator:type": "private",
                "healthcare": "counselling",
                "counselling_type": "education",
                "fixme": "w zale\u017cno\u015bci od przedmiotu dzia\u0142alno\u015bci (np. healthcare=counselling + counselling_type=education albo healthcare=psychotherapist)"
            }
        },
        {
            "id": 274026,
            "type": "Feature",
            "geometry": {
                "type": "Point",
                "coordinates": [
                    15.28508,
                    51.11513
                ]
            },
            "properties": {
                "ref:rspo": 274026,
                "official_name": "Niepubliczne Przedszkole \"Bia\u0142y Mi\u015b\"",
                "name": "Niepubliczne Przedszkole \"Bia\u0142y Mi\u015b\"",
                "addr:country": "PL",
                "addr:postcode": "59-800",
                "addr:city": "Luba\u0144",
                "addr:street": "ul. Adama Mickiewicza",
                "addr:housenumber": "1c",
                "addr:teryt:simc": 12740,
                "addr:teryt:sym_ul": 936150,
                "contact:phone": "+48 690888288",
                "contact:email": "bialymis@vip.onet.pl",
                "contact:website": "http:\/\/bialy-mis-luban.pl\/",
                "ref:regon": "385031350",
                "operator": "Dariusz Niewiarowski",
                "operator:type": "private",
                "amenity": "kindergarten"
            }
        },
        {
            "id": 84453,
            "type": "Feature",
            "geometry": {
                "type": "Point",
                "coordinates": [
                    15.28679,
                    51.11639
                ]
            },
            "properties": {
                "ref:rspo": 84453,
                "official_name": "Przedszkole Niepubliczne Nr 1 w Lubaniu",
                "name": "Przedszkole Niepubliczne Nr 1 w Lubaniu",
                "addr:country": "PL",
                "addr:postcode": "59-800",
                "addr:city": "Luba\u0144",
                "addr:street": "ul. S\u0142oneczna",
                "addr:housenumber": "2",
                "addr:teryt:simc": 20254,
                "addr:teryt:sym_ul": 936150,
                "contact:phone": "+48 757222783",
                "contact:email": "przedszkoleluban@wp.pl",
                "contact:website": "http:\/\/www.sloneczne.org",
                "ref:regon": "022008295",
                "ref:vatin": "PL6131445421",
                "operator": "El\u017cbieta Kardela",
                "operator:type": "private",
                "amenity": "kindergarten"
            }
        },
        {
            "id": 84444,
            "type": "Feature",
            "geometry": {
                "type": "Point",
                "coordinates": [
                    15.28266,
                    51.11802
                ]
            },
            "properties": {
                "isced:level": "1;2",
                "ref:rspo": 84444,
                "official_name": "Szko\u0142a Podstawowa Nr 1 im. Tadeusza Ko\u015bciuszki w Lubaniu",
                "name": "Szko\u0142a Podstawowa Nr 1",
                "addr:country": "PL",
                "addr:postcode": "59-800",
                "addr:city": "Luba\u0144",
                "addr:street": "ul. Adama Mickiewicza",
                "addr:housenumber": "1",
                "addr:teryt:simc": 12740,
                "addr:teryt:sym_ul": 936150,
                "contact:phone": "+48 757222957",
                "contact:email": "lubansp1@wp.pl",
                "contact:website": "http:\/\/www.sp1luban.pl",
                "ref:regon": "000711280",
                "ref:vatin": "PL6131007359",
                "operator": "Gmina Miejska Luba\u0144",
                "operator:type": "government",
                "amenity": "school"
            }
        },
        {
            "id": 84451,
            "type": "Feature",
            "geometry": {
                "type": "Point",
                "coordinates": [
                    15.29575,
                    51.11818
                ]
            },
            "properties": {
                "ref:rspo": 84451,
                "official_name": "Przedszkole Miejskie Nr 3 w Lubaniu",
                "name": "Przedszkole Miejskie Nr 3 w Lubaniu",
                "addr:country": "PL",
                "addr:postcode": "59-800",
                "addr:city": "Luba\u0144",
                "addr:street": "ul. R\u00f3\u017cana",
                "addr:housenumber": "1",
                "addr:teryt:simc": 19000,
                "addr:teryt:sym_ul": 936150,
                "contact:phone": "+48 756464464",
                "contact:email": "pm3@onet.eu",
                "ref:regon": "230522252",
                "ref:vatin": "PL6131417531",
                "operator": "Gmina Miejska Luba\u0144",
                "operator:type": "government",
                "amenity": "kindergarten"
            }
        },
        {
            "id": 84454,
            "type": "Feature",
            "geometry": {
                "type": "Point",
                "coordinates": [
                    15.28141,
                    51.11819
                ]
            },
            "properties": {
                "ref:rspo": 84454,
                "official_name": "Akademia Malucha Niepubliczne Przedszkole J\u0119zykowe w Lubaniu",
                "name": "Akademia Malucha Niepubliczne Przedszkole J\u0119zykowe w Lubaniu",
                "addr:country": "PL",
                "addr:postcode": "59-800",
                "addr:city": "Luba\u0144",
                "addr:street": "ul. Armii Krajowej",
                "addr:housenumber": "9",
                "addr:teryt:simc": 432,
                "addr:teryt:sym_ul": 936150,
                "contact:phone": "+48 509516468",
                "contact:email": "renata.trendewicz@o2.pl",
                "contact:website": "http:\/\/www.przedszkoleluban.pl",
                "ref:regon": "022008289",
                "ref:vatin": "PL6131219742",
                "operator": "Renata J\u0119czmionek",
                "operator:type": "private",
                "amenity": "kindergarten"
            }
        },
        {
            "id": 63987,
            "type": "Feature",
            "geometry": {
                "type": "Point",
                "coordinates": [
                    15.29568,
                    51.11893
                ]
            },
            "properties": {
                "isced:level": "1;2",
                "ref:rspo": 63987,
                "official_name": "Szko\u0142a Podstawowa Nr 2 im. Europejskich Dr\u00f3g \u015awi\u0119tego Jakuba w Lubaniu",
                "name": "Szko\u0142a Podstawowa Nr 2",
                "addr:country": "PL",
                "addr:postcode": "59-800",
                "addr:city": "Luba\u0144",
                "addr:street": "ul. Rybacka",
                "addr:housenumber": "16",
                "addr:teryt:simc": 19142,
                "addr:teryt:sym_ul": 936150,
                "contact:phone": "+48 756464459",
                "contact:email": "sekretariat@sp2luban.pl",
                "ref:regon": "001030782",
                "ref:vatin": "PL6131003321",
                "operator": "Gmina Miejska Luba\u0144",
                "operator:type": "government",
                "amenity": "school"
            }
        },
        {
            "id": 84452,
            "type": "Feature",
            "geometry": {
                "type": "Point",
                "coordinates": [
                    15.27592,
                    51.11903
                ]
            },
            "properties": {
                "ref:rspo": 84452,
                "official_name": "Przedszkole Miejskie Nr 5 im. Juliana Tuwima w Lubaniu",
                "name": "Przedszkole Miejskie Nr 5",
                "addr:country": "PL",
                "addr:postcode": "59-800",
                "addr:city": "Luba\u0144",
                "addr:street": "ul. Mieszka II",
                "addr:housenumber": "1",
                "addr:teryt:simc": 12833,
                "addr:teryt:sym_ul": 936150,
                "contact:phone": "+48 757224000",
                "contact:email": "pmnr5luban@op.pl",
                "ref:regon": "230511248",
                "ref:vatin": "PL6131417519",
                "operator": "Gmina Miejska Luba\u0144",
                "operator:type": "government",
                "amenity": "kindergarten"
            }
        },
        {
            "id": 11438,
            "type": "Feature",
            "geometry": {
                "type": "Point",
                "coordinates": [
                    15.27458,
                    51.11966
                ]
            },
            "properties": {
                "ref:rspo": 11438,
                "official_name": "Zesp\u00f3\u0142 Szk\u00f3\u0142 Ponadpodstawowych im. Adama Mickiewicza w Lubaniu",
                "name": "Zesp\u00f3\u0142 Szk\u00f3\u0142 Ponadpodstawowych",
                "addr:country": "PL",
                "addr:postcode": "59-800",
                "addr:city": "Luba\u0144",
                "addr:street": "ul. W\u0142adys\u0142awa \u0141okietka",
                "addr:housenumber": "2",
                "addr:teryt:simc": 11653,
                "addr:teryt:sym_ul": 936150,
                "contact:phone": "+48 757218900",
                "contact:email": "zspam@zspmickiewicz.edu.pl",
                "contact:website": "http:\/\/www.zspmickiewicz.edu.pl\/",
                "ref:regon": "231133038",
                "ref:vatin": "PL6131463436",
                "operator": "Powiat Luba\u0144ski",
                "operator:type": "government",
                "landuse": "education",
                "fixme": "amenity=school, amenity=college albo landuse=education w zale\u017cno\u015bci od tego, jakie plac\u00f3wki wchodz\u0105 w sk\u0142ad zespo\u0142u. Sprawd\u017a, kiedy stosowa\u0107 amenity=* a kiedy landuse=education.",
                "note": "Children RSPO: 18895;19268"
            }
        },
        {
            "id": 11446,
            "type": "Feature",
            "geometry": {
                "type": "Point",
                "coordinates": [
                    15.27458,
                    51.11963
                ]
            },
            "properties": {
                "ref:rspo": 11446,
                "official_name": "Poradnia Psychologiczno-Pedagogiczna w Lubaniu",
                "name": "Poradnia Psychologiczno-Pedagogiczna w Lubaniu",
                "addr:country": "PL",
                "addr:postcode": "59-800",
                "addr:city": "Luba\u0144",
                "addr:street": "ul. W\u0142adys\u0142awa \u0141okietka",
                "addr:housenumber": "2",
                "addr:teryt:simc": 11653,
                "addr:teryt:sym_ul": 936150,
                "contact:phone": "+48 756465110",
                "contact:email": "pppluban@poczta.onet.pl",
                "contact:website": "http:\/\/www.pppluban.org\/",
                "ref:regon": "230919110",
                "ref:vatin": "PL6131405812",
                "operator": "Powiat Luba\u0144ski",
                "operator:type": "government",
                "healthcare": "counselling",
                "counselling_type": "education",
                "fixme": "w zale\u017cno\u015bci od przedmiotu dzia\u0142alno\u015bci (np. healthcare=counselling + counselling_type=education albo healthcare=psychotherapist)"
            }
        },
        {
            "id": 11447,
            "type": "Feature",
            "geometry": {
                "type": "Point",
                "coordinates": [
                    15.27458,
                    51.119600000000005
                ]
            },
            "properties": {
                "ref:rspo": 11447,
                "official_name": "M\u0142odzie\u017cowy Dom Kultury w Lubaniu",
                "name": "M\u0142odzie\u017cowy Dom Kultury w Lubaniu",
                "addr:country": "PL",
                "addr:postcode": "59-800",
                "addr:city": "Luba\u0144",
                "addr:street": "ul. W\u0142adys\u0142awa \u0141okietka",
                "addr:housenumber": "2",
                "addr:teryt:simc": 11653,
                "addr:teryt:sym_ul": 936150,
                "contact:phone": "+48 757222749",
                "contact:email": "mdk.luban@onet.pl",
                "ref:regon": "230921101",
                "ref:vatin": "PL6131405835",
                "operator": "Powiat Luba\u0144ski",
                "operator:type": "government",
                "amenity": "community_centre",
                "community_centre:for": "juvenile"
            }
        },
        {
            "id": 18895,
            "type": "Feature",
            "geometry": {
                "type": "Point",
                "coordinates": [
                    15.27458,
                    51.11957
                ]
            },
            "properties": {
                "isced:level": "3",
                "ref:rspo": 18895,
                "official_name": "Liceum Og\u00f3lnokszta\u0142c\u0105ce im. Adama Mickiewicza w Zespole Szk\u00f3\u0142 Ponadpodstawowych im. Adama Mickiewicza w Lubaniu",
                "name": "Liceum Og\u00f3lnokszta\u0142c\u0105ce",
                "addr:country": "PL",
                "addr:postcode": "59-800",
                "addr:city": "Luba\u0144",
                "addr:street": "ul. W\u0142adys\u0142awa \u0141okietka",
                "addr:housenumber": "2",
                "addr:teryt:simc": 11653,
                "addr:teryt:sym_ul": 936150,
                "contact:phone": "+48 757218900",
                "contact:email": "zspam@zspmickiewicz.edu.pl",
                "contact:website": "http:\/\/www.zspmickiewicz.edu.pl",
                "ref:regon": "000240307",
                "operator": "Powiat Luba\u0144ski",
                "operator:type": "government",
                "amenity": "school",
                "note": "Parent RSPO: 11438"
            }
        },
        {
            "id": 19268,
            "type": "Feature",
            "geometry": {
                "type": "Point",
                "coordinates": [
                    15.27458,
                    51.11954
                ]
            },
            "properties": {
                "isced:level": "3",
                "ref:rspo": 19268,
                "official_name": "Technikum w Zespole Szk\u00f3\u0142 Ponadpodstawowych im. Adama Mickiewicza w Lubaniu",
                "name": "Technikum w Zespole Szk\u00f3\u0142 Ponadpodstawowych",
                "addr:country": "PL",
                "addr:postcode": "59-800",
                "addr:city": "Luba\u0144",
                "addr:street": "ul. W\u0142adys\u0142awa \u0141okietka",
                "addr:housenumber": "2",
                "addr:teryt:simc": 11653,
                "addr:teryt:sym_ul": 936150,
                "contact:phone": "+48 757218900",
                "contact:email": "zspam@zspmickiewicz.edu.pl",
                "contact:website": "http:\/\/www.zspmickiewicz.edu.pl",
                "ref:regon": "231135043",
                "operator": "Powiat Luba\u0144ski",
                "operator:type": "government",
                "amenity": "school",
                "note": "Parent RSPO: 11438"
            }
        },
        {
            "id": 11442,
            "type": "Feature",
            "geometry": {
                "type": "Point",
                "coordinates": [
                    15.28491,
                    51.1218999
                ]
            },
            "properties": {
                "ref:rspo": 11442,
                "official_name": "Specjalny O\u015brodek Szkolno-Wychowawczy w Lubaniu",
                "name": "Specjalny O\u015brodek Szkolno-Wychowawczy w Lubaniu",
                "addr:country": "PL",
                "addr:postcode": "59-800",
                "addr:city": "Luba\u0144",
                "addr:street": "ul. Miko\u0142aja Kopernika",
                "addr:housenumber": "1",
                "addr:teryt:simc": 9282,
                "addr:teryt:sym_ul": 936150,
                "contact:phone": "+48 757222296",
                "contact:email": "soswluban@wp.pl",
                "contact:website": "http:\/\/www.soswluban.bip.net.pl",
                "ref:regon": "000236990",
                "ref:vatin": "PL6131405829",
                "operator": "Powiat Luba\u0144ski",
                "operator:type": "government",
                "amenity": "school",
                "note": "Children RSPO: 20305;20398"
            }
        },
        {
            "id": 20305,
            "type": "Feature",
            "geometry": {
                "type": "Point",
                "coordinates": [
                    15.28491,
                    51.1218699
                ]
            },
            "properties": {
                "isced:level": "1;2",
                "ref:rspo": 20305,
                "official_name": "O\u015bmioletnia Szko\u0142a Podstawowa Specjalna w Specjalnym O\u015brodku Szkolno-Wychowawczym w Lubaniu",
                "name": "O\u015bmioletnia Szko\u0142a Podstawowa Specjalna w Specjalnym O\u015brodku Szkolno-Wychowawczym w Lubaniu",
                "addr:country": "PL",
                "addr:postcode": "59-800",
                "addr:city": "Luba\u0144",
                "addr:street": "ul. Miko\u0142aja Kopernika",
                "addr:housenumber": "1",
                "addr:teryt:simc": 9282,
                "addr:teryt:sym_ul": 936150,
                "contact:phone": "+48 757222296",
                "contact:email": "soswluban@wp.pl",
                "contact:website": "http:\/\/www.soswluban.bip.net.pl",
                "ref:regon": "001031451",
                "ref:vatin": "PL6131405829",
                "operator": "Powiat Luba\u0144ski",
                "operator:type": "government",
                "amenity": "school",
                "note": "Parent RSPO: 11442"
            }
        },
        {
            "id": 20398,
            "type": "Feature",
            "geometry": {
                "type": "Point",
                "coordinates": [
                    15.28491,
                    51.121839900000005
                ]
            },
            "properties": {
                "ref:rspo": 20398,
                "official_name": "Szko\u0142a Specjalna Przysposabiaj\u0105ca Do Pracy w Specjalnym O\u015brodku Szkolno-Wychowawczym w Lubaniu",
                "name": "Szko\u0142a Specjalna Przysposabiaj\u0105ca Do Pracy w Specjalnym O\u015brodku Szkolno-Wychowawczym w Lubaniu",
                "addr:country": "PL",
                "addr:postcode": "59-800",
                "addr:city": "Luba\u0144",
                "addr:street": "ul. Miko\u0142aja Kopernika",
                "addr:housenumber": "1",
                "addr:teryt:simc": 9282,
                "addr:teryt:sym_ul": 936150,
                "contact:phone": "+48 757222296",
                "contact:email": "soswluban@wp.pl",
                "contact:website": "http:\/\/www.soswluban.bip.net.pl",
                "ref:regon": "020290436",
                "ref:vatin": "PL6131405829",
                "operator": "Powiat Luba\u0144ski",
                "operator:type": "government",
                "amenity": "school",
                "note": "Parent RSPO: 11442"
            }
        },
        {
            "id": 11439,
            "type": "Feature",
            "geometry": {
                "type": "Point",
                "coordinates": [
                    15.28538,
                    51.12323
                ]
            },
            "properties": {
                "ref:rspo": 11439,
                "official_name": "Zesp\u00f3\u0142 Szk\u00f3\u0142 Zawodowych I Og\u00f3lnokszta\u0142c\u0105cych im. Kombatant\u00f3w Ziemi Luba\u0144skiej w Lubaniu",
                "name": "Zesp\u00f3\u0142 Szk\u00f3\u0142 Zawodowych I Og\u00f3lnokszta\u0142c\u0105cych",
                "addr:country": "PL",
                "addr:postcode": "59-800",
                "addr:city": "Luba\u0144",
                "addr:street": "ul. Miko\u0142aja Kopernika",
                "addr:housenumber": "31",
                "addr:teryt:simc": 9282,
                "addr:teryt:sym_ul": 936150,
                "contact:phone": "+48 757222277",
                "contact:email": "zszioluban@wp.pl",
                "contact:website": "http:\/\/www.zszioluban.pl",
                "ref:regon": "000187895",
                "ref:vatin": "PL6131497694",
                "operator": "Powiat Luba\u0144ski",
                "operator:type": "government",
                "landuse": "education",
                "fixme": "amenity=school, amenity=college albo landuse=education w zale\u017cno\u015bci od tego, jakie plac\u00f3wki wchodz\u0105 w sk\u0142ad zespo\u0142u. Sprawd\u017a, kiedy stosowa\u0107 amenity=* a kiedy landuse=education.",
                "note": "Children RSPO: 19431;19461;19485;262427"
            }
        },
        {
            "id": 19431,
            "type": "Feature",
            "geometry": {
                "type": "Point",
                "coordinates": [
                    15.28538,
                    51.1232
                ]
            },
            "properties": {
                "isced:level": "3",
                "ref:rspo": 19431,
                "official_name": "Liceum Og\u00f3lnokszta\u0142c\u0105ce w Zespole Szk\u00f3\u0142 Zawodowych I Og\u00f3lnokszta\u0142c\u0105cych im. Kombatant\u00f3w Ziemi Luba\u0144skiej w Lubaniu",
                "name": "Liceum Og\u00f3lnokszta\u0142c\u0105ce w Zespole Szk\u00f3\u0142 Zawodowych I Og\u00f3lnokszta\u0142c\u0105cych",
                "addr:country": "PL",
                "addr:postcode": "59-800",
                "addr:city": "Luba\u0144",
                "addr:street": "ul. Miko\u0142aja Kopernika",
                "addr:housenumber": "31",
                "addr:teryt:simc": 9282,
                "addr:teryt:sym_ul": 936150,
                "contact:phone": "+48 757222277",
                "contact:email": "zszioluban@wp.pl",
                "contact:website": "http:\/\/www.zszioluban.pl",
                "ref:regon": "231163105",
                "ref:vatin": "PL6131497694",
                "operator": "Powiat Luba\u0144ski",
                "operator:type": "government",
                "amenity": "school",
                "note": "Parent RSPO: 11439"
            }
        },
        {
            "id": 19461,
            "type": "Feature",
            "geometry": {
                "type": "Point",
                "coordinates": [
                    15.28538,
                    51.12317
                ]
            },
            "properties": {
                "isced:level": "3",
                "ref:rspo": 19461,
                "official_name": "Technikum w Zespole Szk\u00f3\u0142 Zawodowych I Og\u00f3lnokszta\u0142c\u0105cych im. Kombatant\u00f3w Ziemi Luba\u0144skiej w Lubaniu",
                "name": "Technikum w Zespole Szk\u00f3\u0142 Zawodowych I Og\u00f3lnokszta\u0142c\u0105cych",
                "addr:country": "PL",
                "addr:postcode": "59-800",
                "addr:city": "Luba\u0144",
                "addr:street": "ul. Miko\u0142aja Kopernika",
                "addr:housenumber": "31",
                "addr:teryt:simc": 9282,
                "addr:teryt:sym_ul": 936150,
                "contact:phone": "+48 757222277",
                "contact:email": "zszioluban@wp.pl",
                "contact:website": "http:\/\/www.zszioluban.pl",
                "ref:regon": "231163594",
                "ref:vatin": "PL6131497694",
                "operator": "Powiat Luba\u0144ski",
                "operator:type": "government",
                "amenity": "school",
                "note": "Parent RSPO: 11439"
            }
        },
        {
            "id": 19485,
            "type": "Feature",
            "geometry": {
                "type": "Point",
                "coordinates": [
                    15.28538,
                    51.12314
                ]
            },
            "properties": {
                "isced:level": "3",
                "ref:rspo": 19485,
                "official_name": "Bran\u017cowa Szko\u0142a I Stopnia w Zespole Szk\u00f3\u0142 Zawodowych I Og\u00f3lnokszta\u0142c\u0105cych im. Kombatant\u00f3w Ziemi Luba\u0144skiej w Lubaniu",
                "name": "Bran\u017cowa Szko\u0142a I Stopnia w Zespole Szk\u00f3\u0142 Zawodowych I Og\u00f3lnokszta\u0142c\u0105cych",
                "addr:country": "PL",
                "addr:postcode": "59-800",
                "addr:city": "Luba\u0144",
                "addr:street": "ul. Miko\u0142aja Kopernika",
                "addr:housenumber": "31",
                "addr:teryt:simc": 9282,
                "addr:teryt:sym_ul": 936150,
                "contact:phone": "+48 757222277",
                "contact:email": "zszioluban@wp.pl",
                "contact:website": "http:\/\/www.zszioluban.pl",
                "ref:regon": "231163602",
                "ref:vatin": "PL6131497694",
                "operator": "Powiat Luba\u0144ski",
                "operator:type": "government",
                "amenity": "school",
                "note": "Parent RSPO: 11439"
            }
        },
        {
            "id": 262427,
            "type": "Feature",
            "geometry": {
                "type": "Point",
                "coordinates": [
                    15.28538,
                    51.12311
                ]
            },
            "properties": {
                "isced:level": "3",
                "ref:rspo": 262427,
                "official_name": "Liceum Og\u00f3lnokszta\u0142c\u0105ce dla Doros\u0142ych w Zespole Szk\u00f3\u0142 Zawodowych I Og\u00f3lnokszta\u0142c\u0105cych im. Kombatant\u00f3w Ziemi Luba\u0144skiej w Lubaniu",
                "name": "Liceum Og\u00f3lnokszta\u0142c\u0105ce dla Doros\u0142ych w Zespole Szk\u00f3\u0142 Zawodowych I Og\u00f3lnokszta\u0142c\u0105cych",
                "addr:country": "PL",
                "addr:postcode": "59-800",
                "addr:city": "Luba\u0144",
                "addr:street": "ul. Miko\u0142aja Kopernika",
                "addr:housenumber": "31",
                "addr:teryt:simc": 9282,
                "addr:teryt:sym_ul": 936150,
                "contact:phone": "+48 757222277",
                "contact:email": "zszioluban@wp.pl",
                "contact:website": "http:\/\/www.zszioluban.pl",
                "ref:regon": "368007830",
                "ref:vatin": "PL6131497694",
                "operator": "Powiat Luba\u0144ski",
                "operator:type": "government",
                "amenity": "school",
                "note": "Parent RSPO: 11439"
            }
        },
        {
            "id": 84447,
            "type": "Feature",
            "geometry": {
                "type": "Point",
                "coordinates": [
                    15.28603,
                    51.12404
                ]
            },
            "properties": {
                "isced:level": "1;2",
                "ref:rspo": 84447,
                "official_name": "Szko\u0142a Podstawowa Nr 4 im. Kawaler\u00f3w Orderu U\u015bmiechu w Lubaniu",
                "name": "Szko\u0142a Podstawowa Nr 4",
                "addr:country": "PL",
                "addr:postcode": "59-800",
                "addr:city": "Luba\u0144",
                "addr:street": "ul. Miko\u0142aja Kopernika",
                "addr:housenumber": "15",
                "addr:teryt:simc": 9282,
                "addr:teryt:sym_ul": 936150,
                "contact:phone": "+48 756464458",
                "contact:email": "sp4luban@post.pl",
                "contact:website": "http:\/\/www.sp4luban.pl",
                "ref:regon": "001180122",
                "ref:vatin": "PL6131003338",
                "operator": "Gmina Miejska Luba\u0144",
                "operator:type": "government",
                "amenity": "school"
            }
        }
    ]
}