{
    "type": "FeatureCollection",
    "features": [
        {
            "id": 5523,
            "type": "Feature",
            "geometry": {
                "type": "Point",
                "coordinates": [
                    21.04217,
                    50.39998
                ]
            },
            "properties": {
                "ref:rspo": 5523,
                "official_name": "Zesp\u00f3\u0142 Plac\u00f3wek O\u015bwiatowych w Sza\u0144cu",
                "name": "Zesp\u00f3\u0142 Plac\u00f3wek O\u015bwiatowych w Sza\u0144cu",
                "addr:country": "PL",
                "addr:postcode": "28-100",
                "addr:city": "Szaniec",
                "addr:street": "ul. Szkolna",
                "addr:housenumber": "10",
                "addr:teryt:simc": 21970,
                "addr:teryt:sym_ul": 232905,
                "contact:phone": "+48 413761327",
                "contact:email": "szaniec@oswiata.busko.pl",
                "contact:website": "http:\/\/www.zposzaniec.edupage.org",
                "ref:regon": "260237367",
                "ref:vatin": "PL6551938082",
                "operator": "Gmina Busko-Zdr\u00f3j",
                "operator:type": "government",
                "landuse": "education",
                "fixme": "amenity=school, amenity=college albo landuse=education w zale\u017cno\u015bci od tego, jakie plac\u00f3wki wchodz\u0105 w sk\u0142ad zespo\u0142u. Sprawd\u017a, kiedy stosowa\u0107 amenity=* a kiedy landuse=education.",
                "note": "Children RSPO: 7168;7170"
            }
        },
        {
            "id": 7168,
            "type": "Feature",
            "geometry": {
                "type": "Point",
                "coordinates": [
                    21.04217,
                    50.39995
                ]
            },
            "properties": {
                "isced:level": "1;2",
                "ref:rspo": 7168,
                "official_name": "Publiczna Szko\u0142a Podstawowa im. Jana Olrycha Szanieckiego w Sza\u0144cu",
                "name": "Publiczna Szko\u0142a Podstawowa",
                "addr:country": "PL",
                "addr:postcode": "28-100",
                "addr:city": "Szaniec",
                "addr:street": "ul. Szkolna",
                "addr:housenumber": "10",
                "addr:teryt:simc": 21970,
                "addr:teryt:sym_ul": 232905,
                "contact:phone": "+48 413761327",
                "contact:email": "szaniec@oswiata.busko.pl",
                "contact:website": "http:\/\/www.zposzaniec.edupage.org",
                "ref:regon": "000733234",
                "operator": "Gmina Busko-Zdr\u00f3j",
                "operator:type": "government",
                "amenity": "school",
                "note": "Parent RSPO: 5523"
            }
        },
        {
            "id": 7170,
            "type": "Feature",
            "geometry": {
                "type": "Point",
                "coordinates": [
                    21.04217,
                    50.39992
                ]
            },
            "properties": {
                "ref:rspo": 7170,
                "official_name": "Publiczne Przedszkole im. Jana Olrycha Szanieckiego w Sza\u0144cu",
                "name": "Publiczne Przedszkole",
                "addr:country": "PL",
                "addr:postcode": "28-100",
                "addr:city": "Szaniec",
                "addr:street": "ul. Szkolna",
                "addr:housenumber": "10",
                "addr:teryt:simc": 21970,
                "addr:teryt:sym_ul": 232905,
                "contact:phone": "+48 413761327",
                "contact:email": "szaniec@oswiata.busko.pl",
                "contact:website": "http:\/\/www.zposzaniec.edupage.org",
                "ref:regon": "290015330",
                "operator": "Gmina Busko-Zdr\u00f3j",
                "operator:type": "government",
                "amenity": "kindergarten",
                "note": "Parent RSPO: 5523"
            }
        },
        {
            "id": 132746,
            "type": "Feature",
            "geometry": {
                "type": "Point",
                "coordinates": [
                    20.766281,
                    50.402901
                ]
            },
            "properties": {
                "ref:rspo": 132746,
                "official_name": "Zesp\u00f3\u0142 Plac\u00f3wek O\u015bwiatowych w Dobrowodzie",
                "name": "Zesp\u00f3\u0142 Plac\u00f3wek O\u015bwiatowych w Dobrowodzie",
                "addr:country": "PL",
                "addr:postcode": "28-100",
                "addr:place": "Dobrowoda",
                "addr:housenumber": "26",
                "addr:teryt:sym_ul": 231580,
                "contact:phone": "+48 413781525",
                "contact:email": "dobrowoda@oswiata.busko.pl",
                "contact:website": "http:\/\/zpodobrowoda.edupage.org",
                "ref:regon": "366177261",
                "operator": "Gmina Busko-Zdr\u00f3j",
                "operator:type": "government",
                "landuse": "education",
                "fixme": "amenity=school, amenity=college albo landuse=education w zale\u017cno\u015bci od tego, jakie plac\u00f3wki wchodz\u0105 w sk\u0142ad zespo\u0142u. Sprawd\u017a, kiedy stosowa\u0107 amenity=* a kiedy landuse=education.",
                "note": "Children RSPO: 6449;131935"
            }
        },
        {
            "id": 6449,
            "type": "Feature",
            "geometry": {
                "type": "Point",
                "coordinates": [
                    20.766281,
                    50.402871
                ]
            },
            "properties": {
                "isced:level": "1;2",
                "ref:rspo": 6449,
                "official_name": "Publiczna Szko\u0142a Podstawowa im. Jana D\u0142ugosza w Dobrowodzie",
                "name": "Publiczna Szko\u0142a Podstawowa",
                "addr:country": "PL",
                "addr:postcode": "28-100",
                "addr:place": "Dobrowoda",
                "addr:housenumber": "26",
                "addr:teryt:sym_ul": 231580,
                "contact:phone": "+48 413781525",
                "contact:email": "dobrowoda@oswiata.busko.pl",
                "contact:website": "http:\/\/www.zpodobrowoda.edupage.org",
                "ref:regon": "000733300",
                "ref:vatin": "PL6551937970",
                "operator": "Gmina Busko-Zdr\u00f3j",
                "operator:type": "government",
                "amenity": "school",
                "note": "Parent RSPO: 132746"
            }
        },
        {
            "id": 131935,
            "type": "Feature",
            "geometry": {
                "type": "Point",
                "coordinates": [
                    20.766281,
                    50.402841
                ]
            },
            "properties": {
                "ref:rspo": 131935,
                "official_name": "Publiczne Przedszkole w Dobrowodzie",
                "name": "Publiczne Przedszkole w Dobrowodzie",
                "addr:country": "PL",
                "addr:postcode": "28-100",
                "addr:place": "Dobrowoda",
                "addr:housenumber": "26",
                "addr:teryt:sym_ul": 231580,
                "contact:phone": "+48 413781525",
                "contact:email": "dobrowoda@oswiata.busko.pl",
                "contact:website": "http:\/\/www.spdobrowoda.edupage.org",
                "ref:regon": "365385916",
                "operator": "Gmina Busko-Zdr\u00f3j",
                "operator:type": "government",
                "amenity": "kindergarten",
                "note": "Parent RSPO: 132746"
            }
        },
        {
            "id": 7172,
            "type": "Feature",
            "geometry": {
                "type": "Point",
                "coordinates": [
                    20.72732,
                    50.4478099
                ]
            },
            "properties": {
                "isced:level": "1;2",
                "ref:rspo": 7172,
                "official_name": "Publiczna Szko\u0142a Podstawowa im. Jana Paw\u0142a II w Zbludowicach",
                "name": "Publiczna Szko\u0142a Podstawowa",
                "addr:country": "PL",
                "addr:postcode": "28-100",
                "addr:city": "Zbludowice",
                "addr:street": "ul. \u015awi\u0119tokrzyska",
                "addr:housenumber": "9",
                "addr:teryt:simc": 22552,
                "addr:teryt:sym_ul": 233193,
                "contact:phone": "+48 413787950",
                "contact:email": "zbludowice@oswiata.busko.pl",
                "contact:website": "http:\/\/www.spzbludowice.busko.pl",
                "ref:regon": "000733330",
                "ref:vatin": "PL6551967818",
                "operator": "Gmina Busko-Zdr\u00f3j",
                "operator:type": "government",
                "amenity": "school"
            }
        },
        {
            "id": 5780,
            "type": "Feature",
            "geometry": {
                "type": "Point",
                "coordinates": [
                    20.72372,
                    50.44983
                ]
            },
            "properties": {
                "ref:rspo": 5780,
                "official_name": "Specjalny O\u015brodek Szkolno-Wychowawczy dla Niepe\u0142nosprawnych Ruchowo w Busku - Zdroju",
                "name": "Specjalny O\u015brodek Szkolno-Wychowawczy dla Niepe\u0142nosprawnych Ruchowo w Busku - Zdroju",
                "addr:country": "PL",
                "addr:postcode": "28-100",
                "addr:city": "Busko-Zdr\u00f3j",
                "addr:street": "ul. Rehabilitacyjna",
                "addr:housenumber": "1",
                "addr:teryt:simc": 18558,
                "addr:teryt:sym_ul": 946651,
                "contact:phone": "+48 413784119",
                "contact:email": "sekretariat@buskososw.internetdsl.pl",
                "contact:website": "http:\/\/sosw.busko.pl",
                "ref:regon": "291167591",
                "ref:vatin": "PL6551342685",
                "operator": "Powiat Buski",
                "operator:type": "government",
                "amenity": "school",
                "note": "Children RSPO: 89510;89514;89629;89648"
            }
        },
        {
            "id": 89510,
            "type": "Feature",
            "geometry": {
                "type": "Point",
                "coordinates": [
                    20.72372,
                    50.449799999999996
                ]
            },
            "properties": {
                "isced:level": "3",
                "ref:rspo": 89510,
                "official_name": "Bran\u017cowa Szko\u0142a I Stopnia Specjalna dla Niepe\u0142nosprawnych Ruchowo w Busku - Zdroju",
                "name": "Bran\u017cowa Szko\u0142a I Stopnia Specjalna dla Niepe\u0142nosprawnych Ruchowo w Busku - Zdroju",
                "addr:country": "PL",
                "addr:postcode": "28-100",
                "addr:city": "Busko-Zdr\u00f3j",
                "addr:street": "ul. Rehabilitacyjna",
                "addr:housenumber": "1",
                "addr:teryt:simc": 18558,
                "addr:teryt:sym_ul": 946651,
                "contact:phone": "+48 413784119",
                "contact:email": "sekretariat@buskososw.internetdsl.pl",
                "contact:website": "http:\/\/sosw.busko.pl",
                "ref:regon": "292441290",
                "operator": "Powiat Buski",
                "operator:type": "government",
                "amenity": "school",
                "note": "Parent RSPO: 5780"
            }
        },
        {
            "id": 89514,
            "type": "Feature",
            "geometry": {
                "type": "Point",
                "coordinates": [
                    20.72372,
                    50.44977
                ]
            },
            "properties": {
                "isced:level": "3",
                "ref:rspo": 89514,
                "official_name": "Technikum Specjalne dla Niepe\u0142nosprawnych Ruchowo",
                "name": "Technikum Specjalne dla Niepe\u0142nosprawnych Ruchowo",
                "addr:country": "PL",
                "addr:postcode": "28-100",
                "addr:city": "Busko-Zdr\u00f3j",
                "addr:street": "ul. Rehabilitacyjna",
                "addr:housenumber": "1",
                "addr:teryt:simc": 18558,
                "addr:teryt:sym_ul": 946651,
                "contact:phone": "+48 413784119",
                "contact:email": "sekretariat@buskososw.internetdsl.pl",
                "contact:website": "http:\/\/sosw.busko.pl",
                "ref:regon": "292441284",
                "operator": "Powiat Buski",
                "operator:type": "government",
                "amenity": "school",
                "note": "Parent RSPO: 5780"
            }
        },
        {
            "id": 89629,
            "type": "Feature",
            "geometry": {
                "type": "Point",
                "coordinates": [
                    20.72372,
                    50.44974
                ]
            },
            "properties": {
                "isced:level": "3",
                "ref:rspo": 89629,
                "official_name": "V Liceum Og\u00f3lnokszta\u0142c\u0105ce Specjalne w Busku-Zdroju",
                "name": "V Liceum Og\u00f3lnokszta\u0142c\u0105ce Specjalne w Busku-Zdroju",
                "addr:country": "PL",
                "addr:postcode": "28-100",
                "addr:city": "Busko-Zdr\u00f3j",
                "addr:street": "ul. Rehabilitacyjna",
                "addr:housenumber": "1",
                "addr:teryt:simc": 18558,
                "addr:teryt:sym_ul": 946651,
                "contact:phone": "+48 413784119",
                "contact:email": "sekretariat@buskososw.internetdsl.pl",
                "contact:website": "http:\/\/sosw.busko.pl",
                "ref:regon": "260249519",
                "operator": "Powiat Buski",
                "operator:type": "government",
                "amenity": "school",
                "note": "Parent RSPO: 5780"
            }
        },
        {
            "id": 89648,
            "type": "Feature",
            "geometry": {
                "type": "Point",
                "coordinates": [
                    20.72372,
                    50.449709999999996
                ]
            },
            "properties": {
                "isced:level": "4",
                "ref:rspo": 89648,
                "official_name": "Szko\u0142a Policealna Specjalna Nr 1 dla Niepe\u0142nosprawnych Ruchowo",
                "name": "Szko\u0142a Policealna Specjalna Nr 1 dla Niepe\u0142nosprawnych Ruchowo",
                "addr:country": "PL",
                "addr:postcode": "28-100",
                "addr:city": "Busko-Zdr\u00f3j",
                "addr:street": "ul. Rehabilitacyjna",
                "addr:housenumber": "1",
                "addr:teryt:simc": 18558,
                "addr:teryt:sym_ul": 946651,
                "contact:phone": "+48 413784119",
                "contact:email": "sekretariat@buskososw.internetdsl.pl",
                "contact:website": "http:\/\/sosw.busko.pl",
                "ref:regon": "260515292",
                "operator": "Powiat Buski",
                "operator:type": "government",
                "amenity": "college",
                "note": "Parent RSPO: 5780"
            }
        },
        {
            "id": 5778,
            "type": "Feature",
            "geometry": {
                "type": "Point",
                "coordinates": [
                    20.71774,
                    50.45006
                ]
            },
            "properties": {
                "ref:rspo": 5778,
                "official_name": "Zesp\u00f3\u0142 Szk\u00f3\u0142 Specjalnych w Busku - Zdroju",
                "name": "Zesp\u00f3\u0142 Szk\u00f3\u0142 Specjalnych w Busku - Zdroju",
                "addr:country": "PL",
                "addr:postcode": "28-100",
                "addr:city": "Busko-Zdr\u00f3j",
                "addr:street": "ul. Szymona Starkiewicza",
                "addr:housenumber": "1",
                "addr:teryt:simc": 20910,
                "addr:teryt:sym_ul": 946651,
                "contact:phone": "+48 413703406",
                "contact:email": "sekretariat@zssgorkabusko.pl",
                "contact:website": "http:\/\/www.zssgorkabusko.pl",
                "ref:regon": "292815655",
                "ref:vatin": "PL6551770501",
                "operator": "Powiat Buski",
                "operator:type": "government",
                "landuse": "education",
                "fixme": "amenity=school, amenity=college albo landuse=education w zale\u017cno\u015bci od tego, jakie plac\u00f3wki wchodz\u0105 w sk\u0142ad zespo\u0142u. Sprawd\u017a, kiedy stosowa\u0107 amenity=* a kiedy landuse=education.",
                "note": "Children RSPO: 7824;7827"
            }
        },
        {
            "id": 7824,
            "type": "Feature",
            "geometry": {
                "type": "Point",
                "coordinates": [
                    20.71774,
                    50.45003
                ]
            },
            "properties": {
                "isced:level": "1;2",
                "ref:rspo": 7824,
                "official_name": "Szko\u0142a Podstawowa Specjalna w Busku - Zdroju",
                "name": "Szko\u0142a Podstawowa Specjalna w Busku - Zdroju",
                "addr:country": "PL",
                "addr:postcode": "28-100",
                "addr:city": "Busko-Zdr\u00f3j",
                "addr:street": "ul. Szymona Starkiewicza",
                "addr:housenumber": "1",
                "addr:teryt:simc": 20910,
                "addr:teryt:sym_ul": 946651,
                "contact:phone": "+48 413703406",
                "contact:email": "sekretariat@zssgorkabusko.pl",
                "contact:website": "http:\/\/www.zssgorkabusko.pl",
                "ref:regon": "292387082",
                "operator": "Powiat Buski",
                "operator:type": "government",
                "amenity": "school",
                "note": "Parent RSPO: 5778"
            }
        },
        {
            "id": 7827,
            "type": "Feature",
            "geometry": {
                "type": "Point",
                "coordinates": [
                    20.71774,
                    50.45
                ]
            },
            "properties": {
                "isced:level": "3",
                "ref:rspo": 7827,
                "official_name": "Vi Liceum Og\u00f3lnokszta\u0142c\u0105ce Specjalne w Busku - Zdroju",
                "name": "Vi Liceum Og\u00f3lnokszta\u0142c\u0105ce Specjalne w Busku - Zdroju",
                "addr:country": "PL",
                "addr:postcode": "28-100",
                "addr:city": "Busko-Zdr\u00f3j",
                "addr:street": "ul. Szymona Starkiewicza",
                "addr:housenumber": "1",
                "addr:teryt:simc": 20910,
                "addr:teryt:sym_ul": 946651,
                "contact:phone": "+48 413703406",
                "contact:email": "sekretariat@zssgorkabusko.pl",
                "contact:website": "http:\/\/www.zssgorkabusko.pl",
                "ref:regon": "292677377",
                "operator": "Powiat Buski",
                "operator:type": "government",
                "amenity": "school",
                "note": "Parent RSPO: 5778"
            }
        },
        {
            "id": 6447,
            "type": "Feature",
            "geometry": {
                "type": "Point",
                "coordinates": [
                    20.6925609,
                    50.457302
                ]
            },
            "properties": {
                "isced:level": "1;2",
                "ref:rspo": 6447,
                "official_name": "Publiczna Szko\u0142a Podstawowa im. Kornela Makuszy\u0144skiego w Sies\u0142awicach",
                "name": "Publiczna Szko\u0142a Podstawowa",
                "addr:country": "PL",
                "addr:postcode": "28-100",
                "addr:place": "Sies\u0142awice",
                "addr:housenumber": "140",
                "addr:teryt:sym_ul": 232638,
                "contact:phone": "+48 413782535",
                "contact:email": "sieslawice@oswiata.busko.pl",
                "contact:website": "https:\/\/spsieslawice.edupage.org",
                "ref:regon": "290421484",
                "ref:vatin": "PL6551938024",
                "operator": "Gmina Busko-Zdr\u00f3j",
                "operator:type": "government",
                "amenity": "school"
            }
        },
        {
            "id": 14656,
            "type": "Feature",
            "geometry": {
                "type": "Point",
                "coordinates": [
                    20.7699399,
                    50.46121
                ]
            },
            "properties": {
                "isced:level": "1;2",
                "ref:rspo": 14656,
                "official_name": "Publiczna Szko\u0142a Podstawowa Nr 3 im. P\u0142k. Aleksandra Krzy\u017canowskiego \u201eWilka\u201d w Busku-Zdroju",
                "name": "Publiczna Szko\u0142a Podstawowa Nr 3",
                "addr:country": "PL",
                "addr:postcode": "28-100",
                "addr:city": "Busko-Zdr\u00f3j",
                "addr:street": "ul. Grotta",
                "addr:housenumber": "3",
                "addr:teryt:simc": 6202,
                "addr:teryt:sym_ul": 946651,
                "contact:phone": "+48 413786939",
                "contact:email": "sp3@oswiata.busko.pl",
                "contact:website": "http:\/\/www.sp3busko.szkolnastrona.pl",
                "ref:regon": "290506950",
                "ref:vatin": "PL6551937958",
                "operator": "Gmina Busko-Zdr\u00f3j",
                "operator:type": "government",
                "amenity": "school"
            }
        },
        {
            "id": 7936,
            "type": "Feature",
            "geometry": {
                "type": "Point",
                "coordinates": [
                    20.71937,
                    50.46169
                ]
            },
            "properties": {
                "ref:rspo": 7936,
                "official_name": "Szko\u0142a Muzyczna I Stopnia im. Krzysztofa Pendereckiego w Busku-Zdroju",
                "name": "Szko\u0142a Muzyczna I Stopnia",
                "addr:country": "PL",
                "addr:postcode": "28-100",
                "addr:city": "Busko-Zdr\u00f3j",
                "addr:street": "al. Adama Mickiewicza",
                "addr:housenumber": "22",
                "addr:teryt:simc": 12735,
                "addr:teryt:sym_ul": 946651,
                "contact:phone": "+48 882723419",
                "contact:email": "szkola@muzyczna.busko.pl",
                "contact:website": "http:\/\/www.muzyczna.busko.pl",
                "ref:regon": "260612291",
                "ref:vatin": "PL6551971062",
                "operator": "Gmina Busko-Zdr\u00f3j",
                "operator:type": "government",
                "amenity": "music_school"
            }
        },
        {
            "id": 3187,
            "type": "Feature",
            "geometry": {
                "type": "Point",
                "coordinates": [
                    20.72034,
                    50.46465
                ]
            },
            "properties": {
                "ref:rspo": 3187,
                "official_name": "Powiatowy O\u015brodek Doradztwa I Doskonalenia Nauczycieli w Busku - Zdroju",
                "name": "Powiatowy O\u015brodek Doradztwa I Doskonalenia Nauczycieli w Busku - Zdroju",
                "addr:country": "PL",
                "addr:postcode": "28-100",
                "addr:city": "Busko-Zdr\u00f3j",
                "addr:street": "al. Adama Mickiewicza",
                "addr:housenumber": "21",
                "addr:teryt:simc": 12735,
                "addr:teryt:sym_ul": 946651,
                "contact:phone": "+48 413781856",
                "contact:email": "podidn@busko.internetdsl.pl",
                "contact:website": "http:\/\/www.podidnbusko.pl",
                "ref:regon": "292675160",
                "ref:vatin": "PL6551816396",
                "operator": "Powiat Buski",
                "operator:type": "government",
                "amenity": "training"
            }
        },
        {
            "id": 35155,
            "type": "Feature",
            "geometry": {
                "type": "Point",
                "coordinates": [
                    20.71837,
                    50.4647
                ]
            },
            "properties": {
                "ref:rspo": 35155,
                "official_name": "Niepubliczne Przedszkole Artystyczno-J\u0119zykowe \u201eS\u0142oneczko\u201d w Busku-Zdroju",
                "name": "Niepubliczne Przedszkole Artystyczno-J\u0119zykowe \u201eS\u0142oneczko\u201d w Busku-Zdroju",
                "addr:country": "PL",
                "addr:postcode": "28-100",
                "addr:city": "Busko-Zdr\u00f3j",
                "addr:street": "ul. Miko\u0142aja Kopernika",
                "addr:housenumber": "17",
                "addr:teryt:simc": 9282,
                "addr:teryt:sym_ul": 946651,
                "contact:phone": "+48 600935468",
                "contact:email": "sloneczkobiuro@gmail.com",
                "contact:website": "http:\/\/www.sloneczko.busko.pl",
                "ref:regon": "260642671",
                "ref:vatin": "PL6551672945",
                "operator": "Anna Korczy\u0144ska-Wieloch",
                "operator:type": "private",
                "amenity": "kindergarten"
            }
        },
        {
            "id": 3182,
            "type": "Feature",
            "geometry": {
                "type": "Point",
                "coordinates": [
                    20.71372,
                    50.46596
                ]
            },
            "properties": {
                "ref:rspo": 3182,
                "official_name": "Powiatowy Mi\u0119dzyszkolny O\u015brodek Sportowy im. J\u00f3zefa Grudnia w Busku-Zdroju",
                "name": "Powiatowy Mi\u0119dzyszkolny O\u015brodek Sportowy",
                "addr:country": "PL",
                "addr:postcode": "28-100",
                "addr:city": "Busko-Zdr\u00f3j",
                "addr:street": "ul. Janusza Kusoci\u0144skiego",
                "addr:housenumber": "3",
                "addr:teryt:simc": 10493,
                "addr:teryt:sym_ul": 946651,
                "contact:phone": "+48 413781040",
                "contact:email": "biuro@pmos.busko.pl",
                "ref:regon": "003670505",
                "ref:vatin": "PL6551093963",
                "operator": "Powiat Buski",
                "operator:type": "government",
                "leisure": "sports_centre"
            }
        },
        {
            "id": 5962,
            "type": "Feature",
            "geometry": {
                "type": "Point",
                "coordinates": [
                    20.71372,
                    50.46593
                ]
            },
            "properties": {
                "ref:rspo": 5962,
                "official_name": "Zesp\u00f3\u0142 Szk\u00f3\u0142 Technicznych I Og\u00f3lnokszta\u0142c\u0105cych im. Kazimierza Wielkiego w Busku - Zdroju",
                "name": "Zesp\u00f3\u0142 Szk\u00f3\u0142 Technicznych I Og\u00f3lnokszta\u0142c\u0105cych",
                "addr:country": "PL",
                "addr:postcode": "28-100",
                "addr:city": "Busko-Zdr\u00f3j",
                "addr:street": "ul. Janusza Kusoci\u0144skiego",
                "addr:housenumber": "3B",
                "addr:teryt:simc": 10493,
                "addr:teryt:sym_ul": 946651,
                "contact:phone": "+48 413782472",
                "contact:email": "zstio@budowlanka.edu.pl",
                "contact:website": "http:\/\/www.budowlanka.edu.pl",
                "ref:regon": "292441545",
                "ref:vatin": "PL6551366177",
                "operator": "Powiat Buski",
                "operator:type": "government",
                "landuse": "education",
                "fixme": "amenity=school, amenity=college albo landuse=education w zale\u017cno\u015bci od tego, jakie plac\u00f3wki wchodz\u0105 w sk\u0142ad zespo\u0142u. Sprawd\u017a, kiedy stosowa\u0107 amenity=* a kiedy landuse=education.",
                "note": "Children RSPO: 6919;6931;6937;118798;275583"
            }
        },
        {
            "id": 6919,
            "type": "Feature",
            "geometry": {
                "type": "Point",
                "coordinates": [
                    20.71372,
                    50.465900000000005
                ]
            },
            "properties": {
                "isced:level": "3",
                "ref:rspo": 6919,
                "official_name": "Technikum Nr 3 w Busku - Zdroju",
                "name": "Technikum Nr 3 w Busku - Zdroju",
                "addr:country": "PL",
                "addr:postcode": "28-100",
                "addr:city": "Busko-Zdr\u00f3j",
                "addr:street": "ul. Janusza Kusoci\u0144skiego",
                "addr:housenumber": "3B",
                "addr:teryt:simc": 10493,
                "addr:teryt:sym_ul": 946651,
                "contact:phone": "+48 413782472",
                "contact:email": "zstio@budowlanka.edu.pl",
                "contact:website": "http:\/\/www.budowlanka.edu.pl",
                "ref:regon": "292437986",
                "operator": "Powiat Buski",
                "operator:type": "government",
                "amenity": "school",
                "note": "Parent RSPO: 5962"
            }
        },
        {
            "id": 6931,
            "type": "Feature",
            "geometry": {
                "type": "Point",
                "coordinates": [
                    20.71372,
                    50.46587
                ]
            },
            "properties": {
                "isced:level": "3",
                "ref:rspo": 6931,
                "official_name": "Bran\u017cowa Szko\u0142a I Stopnia Nr 3 w Busku - Zdroju",
                "name": "Bran\u017cowa Szko\u0142a I Stopnia Nr 3 w Busku - Zdroju",
                "addr:country": "PL",
                "addr:postcode": "28-100",
                "addr:city": "Busko-Zdr\u00f3j",
                "addr:street": "ul. Janusza Kusoci\u0144skiego",
                "addr:housenumber": "3B",
                "addr:teryt:simc": 10493,
                "addr:teryt:sym_ul": 946651,
                "contact:phone": "+48 413782472",
                "contact:email": "zstio@budowlanka.edu.pl",
                "contact:website": "http:\/\/www.budowlanka.edu.pl",
                "ref:regon": "292438069",
                "operator": "Powiat Buski",
                "operator:type": "government",
                "amenity": "school",
                "note": "Parent RSPO: 5962"
            }
        },
        {
            "id": 6937,
            "type": "Feature",
            "geometry": {
                "type": "Point",
                "coordinates": [
                    20.71372,
                    50.46584
                ]
            },
            "properties": {
                "isced:level": "3",
                "ref:rspo": 6937,
                "official_name": "Ii Liceum Og\u00f3lnokszta\u0142c\u0105ce w Busku - Zdroju",
                "name": "Ii Liceum Og\u00f3lnokszta\u0142c\u0105ce w Busku - Zdroju",
                "addr:country": "PL",
                "addr:postcode": "28-100",
                "addr:city": "Busko-Zdr\u00f3j",
                "addr:street": "ul. Janusza Kusoci\u0144skiego",
                "addr:housenumber": "3B",
                "addr:teryt:simc": 10493,
                "addr:teryt:sym_ul": 946651,
                "contact:phone": "+48 413782472",
                "contact:email": "zstio@budowlanka.edu.pl",
                "contact:website": "http:\/\/www.budowlanka.edu.pl",
                "ref:regon": "292438046",
                "operator": "Powiat Buski",
                "operator:type": "government",
                "amenity": "school",
                "note": "Parent RSPO: 5962"
            }
        },
        {
            "id": 118798,
            "type": "Feature",
            "geometry": {
                "type": "Point",
                "coordinates": [
                    20.71372,
                    50.465810000000005
                ]
            },
            "properties": {
                "isced:level": "3",
                "ref:rspo": 118798,
                "official_name": "Liceum Og\u00f3lnokszta\u0142c\u0105ce dla Doros\u0142ych w Busku - Zdroju",
                "name": "Liceum Og\u00f3lnokszta\u0142c\u0105ce dla Doros\u0142ych w Busku - Zdroju",
                "addr:country": "PL",
                "addr:postcode": "28-100",
                "addr:city": "Busko-Zdr\u00f3j",
                "addr:street": "ul. Janusza Kusoci\u0144skiego",
                "addr:housenumber": "3B",
                "addr:teryt:simc": 10493,
                "addr:teryt:sym_ul": 946651,
                "contact:phone": "+48 413782472",
                "contact:email": "zstio@budowlanka.edu.pl",
                "contact:website": "http:\/\/www.budowlanka.edu.pl",
                "ref:regon": "260713916",
                "operator": "Powiat Buski",
                "operator:type": "government",
                "amenity": "school",
                "note": "Parent RSPO: 5962"
            }
        },
        {
            "id": 275583,
            "type": "Feature",
            "geometry": {
                "type": "Point",
                "coordinates": [
                    20.71372,
                    50.46578
                ]
            },
            "properties": {
                "isced:level": "3",
                "ref:rspo": 275583,
                "official_name": "Bran\u017cowa Szko\u0142a II Stopnia Nr 1 w Busku-Zdroju",
                "name": "Bran\u017cowa Szko\u0142a II Stopnia Nr 1 w Busku-Zdroju",
                "addr:country": "PL",
                "addr:postcode": "28-100",
                "addr:city": "Busko-Zdr\u00f3j",
                "addr:street": "ul. Janusza Kusoci\u0144skiego",
                "addr:housenumber": "3B",
                "addr:teryt:simc": 10493,
                "addr:teryt:sym_ul": 946651,
                "contact:phone": "+48 413782472",
                "contact:email": "zstio@budowlanka.edu.pl",
                "contact:website": "http:\/\/www.budowlanka.edu.pl",
                "ref:regon": "386937615",
                "operator": "Powiat Buski",
                "operator:type": "government",
                "amenity": "school",
                "note": "Parent RSPO: 5962"
            }
        },
        {
            "id": 35095,
            "type": "Feature",
            "geometry": {
                "type": "Point",
                "coordinates": [
                    20.71745,
                    50.467
                ]
            },
            "properties": {
                "ref:rspo": 35095,
                "official_name": "Niepubliczne Przedszkole J\u0119zykowa Akademia Przedszkolaka w Busku-Zdroju",
                "name": "Niepubliczne Przedszkole J\u0119zykowa Akademia Przedszkolaka w Busku-Zdroju",
                "addr:country": "PL",
                "addr:postcode": "28-100",
                "addr:city": "Busko-Zdr\u00f3j",
                "addr:street": "os. Tadeusza Ko\u015bciuszki",
                "addr:housenumber": "13",
                "addr:teryt:simc": 9578,
                "addr:teryt:sym_ul": 946651,
                "contact:phone": "+48 664002230",
                "contact:email": "kasia.stachowicz@wp.pl",
                "contact:website": "http:\/\/www.jap.edu.pl",
                "ref:regon": "260640198",
                "ref:vatin": "PL6572381905",
                "operator": "Katarzyna Stachowicz-Pastuszka",
                "operator:type": "private",
                "amenity": "kindergarten"
            }
        },
        {
            "id": 30944,
            "type": "Feature",
            "geometry": {
                "type": "Point",
                "coordinates": [
                    20.72838,
                    50.46702
                ]
            },
            "properties": {
                "ref:rspo": 30944,
                "official_name": "Przedszkole Niepubliczne \u201eSmerfu\u015b\u201d w Busku-Zdroju",
                "name": "Przedszkole Niepubliczne \u201eSmerfu\u015b\u201d w Busku-Zdroju",
                "addr:country": "PL",
                "addr:postcode": "28-100",
                "addr:city": "Busko-Zdr\u00f3j",
                "addr:street": "os. gen. W\u0142adys\u0142awa Sikorskiego",
                "addr:housenumber": "9",
                "addr:teryt:simc": 19905,
                "addr:teryt:sym_ul": 946651,
                "contact:phone": "+48 735444450",
                "contact:email": "biuro@przedszkolesmerfus.pl",
                "contact:website": "http:\/\/www.przedszkolesmerfus.pl",
                "ref:regon": "260642790",
                "ref:vatin": "PL6551196930",
                "operator": "Anna Mazur",
                "operator:type": "private",
                "amenity": "kindergarten"
            }
        },
        {
            "id": 30948,
            "type": "Feature",
            "geometry": {
                "type": "Point",
                "coordinates": [
                    20.72838,
                    50.466989999999996
                ]
            },
            "properties": {
                "isced:level": "1;2",
                "ref:rspo": 30948,
                "official_name": "Pierwsza Niepubliczna Szko\u0142a Podstawowa w Busku-Zdroju",
                "name": "Pierwsza Niepubliczna Szko\u0142a Podstawowa w Busku-Zdroju",
                "addr:country": "PL",
                "addr:postcode": "28-100",
                "addr:city": "Busko-Zdr\u00f3j",
                "addr:street": "os. gen. W\u0142adys\u0142awa Sikorskiego",
                "addr:housenumber": "9",
                "addr:teryt:simc": 19905,
                "addr:teryt:sym_ul": 946651,
                "contact:phone": "+48 735444450",
                "contact:email": "biuro@przedszkolesmerfus.pl",
                "contact:website": "http:\/\/www.pierwszaniepubliczna.pl",
                "ref:regon": "260642702",
                "ref:vatin": "PL6551196930",
                "operator": "Anna Mazur",
                "operator:type": "private",
                "amenity": "school"
            }
        },
        {
            "id": 2883,
            "type": "Feature",
            "geometry": {
                "type": "Point",
                "coordinates": [
                    20.7206,
                    50.4673
                ]
            },
            "properties": {
                "isced:level": "3",
                "ref:rspo": 2883,
                "official_name": "I Liceum Og\u00f3lnokszta\u0142c\u0105ce im. Tadeusza Ko\u015bciuszki w Busku-Zdroju",
                "name": "I Liceum Og\u00f3lnokszta\u0142c\u0105ce",
                "addr:country": "PL",
                "addr:postcode": "28-100",
                "addr:city": "Busko-Zdr\u00f3j",
                "addr:street": "al. Adama Mickiewicza",
                "addr:housenumber": "13",
                "addr:teryt:simc": 12735,
                "addr:teryt:sym_ul": 946651,
                "contact:phone": "+48 413783653",
                "contact:email": "lo1busko@lo1busko.civ.pl",
                "contact:website": "http:\/\/lo1busko.edupage.org",
                "ref:regon": "292858050",
                "ref:vatin": "PL6551295448",
                "operator": "Powiat Buski",
                "operator:type": "government",
                "amenity": "school"
            }
        },
        {
            "id": 13993,
            "type": "Feature",
            "geometry": {
                "type": "Point",
                "coordinates": [
                    20.72143,
                    50.46731
                ]
            },
            "properties": {
                "ref:rspo": 13993,
                "official_name": "Pedagogiczna Biblioteka Wojew\u00f3dzka w Kielcach Filia w Busku Zdroju",
                "name": "Pedagogiczna Biblioteka Wojew\u00f3dzka w Kielcach Filia w Busku Zdroju",
                "addr:country": "PL",
                "addr:postcode": "28-100",
                "addr:city": "Busko-Zdr\u00f3j",
                "addr:street": "ul. Armii Krajowej",
                "addr:housenumber": "19",
                "addr:teryt:simc": 432,
                "addr:teryt:sym_ul": 946651,
                "contact:phone": "+48 413783927",
                "contact:email": "busko@pbw.kielce.pl",
                "contact:website": "http:\/\/www.pbw.kielce.pl",
                "ref:regon": "291170080",
                "operator": "Wojew\u00f3dztwo \u015awi\u0119tokrzyskie",
                "operator:type": "government",
                "amenity": "library",
                "note": "Parent RSPO: 6753"
            }
        },
        {
            "id": 10468,
            "type": "Feature",
            "geometry": {
                "type": "Point",
                "coordinates": [
                    20.71943,
                    50.46777
                ]
            },
            "properties": {
                "ref:rspo": 10468,
                "official_name": "Zesp\u00f3\u0142 Szk\u00f3\u0142 Ponadpodstawowych im. Miko\u0142aja Kopernika w Busku-Zdroju",
                "name": "Zesp\u00f3\u0142 Szk\u00f3\u0142 Ponadpodstawowych",
                "addr:country": "PL",
                "addr:postcode": "28-100",
                "addr:city": "Busko-Zdr\u00f3j",
                "addr:street": "al. Adama Mickiewicza",
                "addr:housenumber": "6",
                "addr:teryt:simc": 12735,
                "addr:teryt:sym_ul": 946651,
                "contact:phone": "+48 413787921",
                "contact:email": "sekretariat@zsp1busko.pl",
                "contact:website": "http:\/\/www.zsp1busko.pl",
                "ref:regon": "292439809",
                "ref:vatin": "PL6551336928",
                "operator": "Powiat Buski",
                "operator:type": "government",
                "landuse": "education",
                "fixme": "amenity=school, amenity=college albo landuse=education w zale\u017cno\u015bci od tego, jakie plac\u00f3wki wchodz\u0105 w sk\u0142ad zespo\u0142u. Sprawd\u017a, kiedy stosowa\u0107 amenity=* a kiedy landuse=education.",
                "note": "Children RSPO: 13495;13543;13558;13589"
            }
        },
        {
            "id": 13495,
            "type": "Feature",
            "geometry": {
                "type": "Point",
                "coordinates": [
                    20.71943,
                    50.46774
                ]
            },
            "properties": {
                "isced:level": "3",
                "ref:rspo": 13495,
                "official_name": "Technikum Nr 1 im. Miko\u0142aja Kopernika w Busku-Zdroju",
                "name": "Technikum Nr 1",
                "addr:country": "PL",
                "addr:postcode": "28-100",
                "addr:city": "Busko-Zdr\u00f3j",
                "addr:street": "al. Adama Mickiewicza",
                "addr:housenumber": "6",
                "addr:teryt:simc": 12735,
                "addr:teryt:sym_ul": 946651,
                "contact:phone": "+48 413787921",
                "contact:email": "sekretariat@zsp1busko.pl",
                "contact:website": "http:\/\/www.zsp1busko.pl",
                "ref:regon": "292439844",
                "operator": "Powiat Buski",
                "operator:type": "government",
                "amenity": "school",
                "note": "Parent RSPO: 10468"
            }
        },
        {
            "id": 13543,
            "type": "Feature",
            "geometry": {
                "type": "Point",
                "coordinates": [
                    20.71943,
                    50.467710000000004
                ]
            },
            "properties": {
                "isced:level": "3",
                "ref:rspo": 13543,
                "official_name": "Iii Liceum Og\u00f3lnokszta\u0142c\u0105ce w Busku-Zdroju",
                "name": "Iii Liceum Og\u00f3lnokszta\u0142c\u0105ce w Busku-Zdroju",
                "addr:country": "PL",
                "addr:postcode": "28-100",
                "addr:city": "Busko-Zdr\u00f3j",
                "addr:street": "al. Adama Mickiewicza",
                "addr:housenumber": "6",
                "addr:teryt:simc": 12735,
                "addr:teryt:sym_ul": 946651,
                "contact:phone": "+48 413787921",
                "contact:email": "sekretariat@zsp1busko.pl",
                "contact:website": "http:\/\/www.zsp1busko.pl",
                "ref:regon": "260010563",
                "operator": "Powiat Buski",
                "operator:type": "government",
                "amenity": "school",
                "note": "Parent RSPO: 10468"
            }
        },
        {
            "id": 13558,
            "type": "Feature",
            "geometry": {
                "type": "Point",
                "coordinates": [
                    20.71943,
                    50.46768
                ]
            },
            "properties": {
                "isced:level": "3",
                "ref:rspo": 13558,
                "official_name": "Bran\u017cowa Szko\u0142a I Stopnia Nr 1 w Busku-Zdroju",
                "name": "Bran\u017cowa Szko\u0142a I Stopnia Nr 1 w Busku-Zdroju",
                "addr:country": "PL",
                "addr:postcode": "28-100",
                "addr:city": "Busko-Zdr\u00f3j",
                "addr:street": "al. Adama Mickiewicza",
                "addr:housenumber": "6",
                "addr:teryt:simc": 12735,
                "addr:teryt:sym_ul": 946651,
                "contact:phone": "+48 413787921",
                "contact:email": "sekretariat@zsp1busko.pl",
                "contact:website": "http:\/\/www.zsp1busko.pl",
                "ref:regon": "292439821",
                "operator": "Powiat Buski",
                "operator:type": "government",
                "amenity": "school",
                "note": "Parent RSPO: 10468"
            }
        },
        {
            "id": 13589,
            "type": "Feature",
            "geometry": {
                "type": "Point",
                "coordinates": [
                    20.71943,
                    50.46765
                ]
            },
            "properties": {
                "ref:rspo": 13589,
                "official_name": "Centrum Kszta\u0142cenia Zawodowego w Busku-Zdroju",
                "name": "Centrum Kszta\u0142cenia Zawodowego w Busku-Zdroju",
                "addr:country": "PL",
                "addr:postcode": "28-100",
                "addr:city": "Busko-Zdr\u00f3j",
                "addr:street": "al. Adama Mickiewicza",
                "addr:housenumber": "6",
                "addr:teryt:simc": 12735,
                "addr:teryt:sym_ul": 946651,
                "contact:phone": "+48 413787921",
                "contact:email": "sekretariat@zsp1busko.pl",
                "contact:website": "http:\/\/www.zsp1busko.pl",
                "ref:regon": "260010540",
                "operator": "Powiat Buski",
                "operator:type": "government",
                "fixme": "w zale\u017cno\u015bci od przedmiotu dzia\u0142alno\u015bci (np. amenity=training + training=*, amenity=dancing_school, amenity=language_school, amenity=music_school) albo amenity=school, amenity=college, albo landuse=education w zale\u017cno\u015bci od tego, jakie plac\u00f3wki wchodz\u0105 w sk\u0142ad zespo\u0142u. Sprawd\u017a, kiedy stosowa\u0107 amenity=* a kiedy landuse=education.",
                "note": "Parent RSPO: 10468"
            }
        },
        {
            "id": 8470,
            "type": "Feature",
            "geometry": {
                "type": "Point",
                "coordinates": [
                    20.72991,
                    50.46783
                ]
            },
            "properties": {
                "ref:rspo": 8470,
                "official_name": "Publiczne Przedszkole Nr 3 w Busku-Zdroju",
                "name": "Publiczne Przedszkole Nr 3 w Busku-Zdroju",
                "addr:country": "PL",
                "addr:postcode": "28-100",
                "addr:city": "Busko-Zdr\u00f3j",
                "addr:street": "os. gen. W\u0142adys\u0142awa Sikorskiego",
                "addr:housenumber": "12",
                "addr:teryt:simc": 19905,
                "addr:teryt:sym_ul": 946651,
                "contact:phone": "+48 413786923",
                "contact:email": "pp3@oswiata.busko.pl",
                "contact:website": "http:\/\/www.pp3.busko.pl",
                "ref:regon": "290015287",
                "ref:vatin": "PL6551939555",
                "operator": "Gmina Busko-Zdr\u00f3j",
                "operator:type": "government",
                "amenity": "kindergarten"
            }
        },
        {
            "id": 7933,
            "type": "Feature",
            "geometry": {
                "type": "Point",
                "coordinates": [
                    20.71896,
                    50.46879
                ]
            },
            "properties": {
                "isced:level": "1;2",
                "ref:rspo": 7933,
                "official_name": "Publiczna Szko\u0142a Podstawowa Nr 1 im. Stanis\u0142awa Staszica w Busku-Zdroju",
                "name": "Publiczna Szko\u0142a Podstawowa Nr 1",
                "addr:country": "PL",
                "addr:postcode": "28-100",
                "addr:city": "Busko-Zdr\u00f3j",
                "addr:street": "ul. Tadeusza Ko\u015bciuszki",
                "addr:housenumber": "1",
                "addr:teryt:simc": 9582,
                "addr:teryt:sym_ul": 946651,
                "contact:phone": "+48 413784134",
                "contact:email": "sp1@oswiata.busko.pl",
                "contact:website": "http:\/\/psp1busko.szkolnastrona.pl",
                "ref:regon": "000733211",
                "ref:vatin": "PL6551940512",
                "operator": "Gmina Busko-Zdr\u00f3j",
                "operator:type": "government",
                "amenity": "school"
            }
        },
        {
            "id": 13006,
            "type": "Feature",
            "geometry": {
                "type": "Point",
                "coordinates": [
                    20.71833,
                    50.46916
                ]
            },
            "properties": {
                "ref:rspo": 13006,
                "official_name": "Publiczne Przedszkole Nr 2 w Busku-Zdroju",
                "name": "Publiczne Przedszkole Nr 2 w Busku-Zdroju",
                "addr:country": "PL",
                "addr:postcode": "28-100",
                "addr:city": "Busko-Zdr\u00f3j",
                "addr:street": "ul. Tadeusza Ko\u015bciuszki",
                "addr:housenumber": "14",
                "addr:teryt:simc": 9582,
                "addr:teryt:sym_ul": 946651,
                "contact:phone": "+48 413782857",
                "contact:email": "pp2@oswiata.busko.pl",
                "contact:website": "http:\/\/www.pp2.busko.pl",
                "ref:regon": "290015241",
                "ref:vatin": "PL6551939561",
                "operator": "Gmina Busko-Zdr\u00f3j",
                "operator:type": "government",
                "amenity": "kindergarten"
            }
        },
        {
            "id": 131134,
            "type": "Feature",
            "geometry": {
                "type": "Point",
                "coordinates": [
                    20.72362,
                    50.47047
                ]
            },
            "properties": {
                "ref:rspo": 131134,
                "official_name": "Centrum Kszta\u0142cenia Zawodowego I Ustawicznego Sigma w Busku - Zdroju",
                "name": "Centrum Kszta\u0142cenia Zawodowego I Ustawicznego Sigma w Busku - Zdroju",
                "addr:country": "PL",
                "addr:postcode": "28-100",
                "addr:city": "Busko-Zdr\u00f3j",
                "addr:street": "ul. Partyzant\u00f3w",
                "addr:housenumber": "21",
                "addr:teryt:simc": 15733,
                "addr:teryt:sym_ul": 946651,
                "contact:phone": "+48 883003204",
                "contact:email": "busko@sigma.org.pl",
                "contact:website": "http:\/\/www.sigma.org.pl",
                "ref:regon": "364966491",
                "operator": "Centrum Edukacji Sigma Sp\u00f3\u0142ka Z Ograniczon\u0105 Odpowiedzialno\u015bci\u0105",
                "operator:type": "private",
                "amenity": "school",
                "fixme": "amenity=school lub amenity=college",
                "note": "Children RSPO: 123726;123727"
            }
        },
        {
            "id": 277289,
            "type": "Feature",
            "geometry": {
                "type": "Point",
                "coordinates": [
                    20.72362,
                    50.470439999999996
                ]
            },
            "properties": {
                "ref:rspo": 277289,
                "official_name": "O\u015brodek Szkoleniowy Sigma w Busku-Zdroju",
                "name": "O\u015brodek Szkoleniowy Sigma w Busku-Zdroju",
                "addr:country": "PL",
                "addr:postcode": "28-100",
                "addr:city": "Busko-Zdr\u00f3j",
                "addr:street": "ul. Partyzant\u00f3w",
                "addr:housenumber": "21",
                "addr:teryt:simc": 15733,
                "addr:teryt:sym_ul": 946651,
                "contact:phone": "+48 146564704",
                "contact:email": "biuro@sigma.org.pl",
                "contact:website": "http:\/\/www.sigma.org.pl",
                "ref:regon": "388533885",
                "operator": "Centrum Edukacji Sigma Sp\u00f3\u0142ka Z Ograniczon\u0105 Odpowiedzialno\u015bci\u0105",
                "operator:type": "private",
                "fixme": "w zale\u017cno\u015bci od przedmiotu dzia\u0142alno\u015bci (np. amenity=training + training=*, amenity=dancing_school, amenity=language_school, amenity=music_school)"
            }
        },
        {
            "id": 123726,
            "type": "Feature",
            "geometry": {
                "type": "Point",
                "coordinates": [
                    20.72362,
                    50.47041
                ]
            },
            "properties": {
                "isced:level": "3",
                "ref:rspo": 123726,
                "official_name": "Niepubliczne Liceum Og\u00f3lnokszta\u0142c\u0105ce dla Doros\u0142ych Sigma w Busku-Zdroju",
                "name": "Niepubliczne Liceum Og\u00f3lnokszta\u0142c\u0105ce dla Doros\u0142ych Sigma w Busku-Zdroju",
                "addr:country": "PL",
                "addr:postcode": "28-100",
                "addr:city": "Busko-Zdr\u00f3j",
                "addr:street": "ul. Partyzant\u00f3w",
                "addr:housenumber": "21",
                "addr:teryt:simc": 15733,
                "addr:teryt:sym_ul": 946651,
                "contact:phone": "+48 664588240",
                "contact:email": "busko@sigma.org.pl",
                "contact:website": "http:\/\/www.sigma.org.pl",
                "ref:regon": "260784974",
                "operator": "Centrum Edukacji Sigma Sp\u00f3\u0142ka Z Ograniczon\u0105 Odpowiedzialno\u015bci\u0105",
                "operator:type": "private",
                "amenity": "school",
                "note": "Parent RSPO: 131134"
            }
        },
        {
            "id": 123727,
            "type": "Feature",
            "geometry": {
                "type": "Point",
                "coordinates": [
                    20.72362,
                    50.47038
                ]
            },
            "properties": {
                "isced:level": "4",
                "ref:rspo": 123727,
                "official_name": "Niepubliczna Szko\u0142a Policealna Sigma w Busku-Zdroju",
                "name": "Niepubliczna Szko\u0142a Policealna Sigma w Busku-Zdroju",
                "addr:country": "PL",
                "addr:postcode": "28-100",
                "addr:city": "Busko-Zdr\u00f3j",
                "addr:street": "ul. Partyzant\u00f3w",
                "addr:housenumber": "21",
                "addr:teryt:simc": 15733,
                "addr:teryt:sym_ul": 946651,
                "contact:phone": "+48 664588240",
                "contact:email": "busko@sigma.org.pl",
                "contact:website": "http:\/\/www.sigma.org.pl",
                "ref:regon": "260784980",
                "operator": "Centrum Edukacji Sigma Sp\u00f3\u0142ka Z Ograniczon\u0105 Odpowiedzialno\u015bci\u0105",
                "operator:type": "private",
                "amenity": "college",
                "note": "Parent RSPO: 131134"
            }
        },
        {
            "id": 12967,
            "type": "Feature",
            "geometry": {
                "type": "Point",
                "coordinates": [
                    20.71041,
                    50.47055
                ]
            },
            "properties": {
                "isced:level": "1;2",
                "ref:rspo": 12967,
                "official_name": "Publiczna Szko\u0142a Podstawowa Nr 2 im. Janusza Korczaka w Busku-Zdroju",
                "name": "Publiczna Szko\u0142a Podstawowa Nr 2",
                "addr:country": "PL",
                "addr:postcode": "28-100",
                "addr:city": "Busko-Zdr\u00f3j",
                "addr:street": "ul. Janusza Korczaka",
                "addr:housenumber": "13",
                "addr:teryt:simc": 9329,
                "addr:teryt:sym_ul": 946651,
                "contact:phone": "+48 413783337",
                "contact:email": "sp2@oswiata.busko.pl",
                "contact:website": "http:\/\/www.sp2busko.pl",
                "ref:regon": "000733228",
                "ref:vatin": "PL6551937941",
                "operator": "Gmina Busko-Zdr\u00f3j",
                "operator:type": "government",
                "amenity": "school"
            }
        },
        {
            "id": 3185,
            "type": "Feature",
            "geometry": {
                "type": "Point",
                "coordinates": [
                    20.69433,
                    50.47095
                ]
            },
            "properties": {
                "ref:rspo": 3185,
                "official_name": "Poradnia Psychologiczno-Pedagogiczna w Busku-Zdroju",
                "name": "Poradnia Psychologiczno-Pedagogiczna w Busku-Zdroju",
                "addr:country": "PL",
                "addr:postcode": "28-100",
                "addr:city": "Busko-Zdr\u00f3j",
                "addr:street": "ul. Bohater\u00f3w Warszawy",
                "addr:housenumber": "120",
                "addr:teryt:simc": 1679,
                "addr:teryt:sym_ul": 946651,
                "contact:phone": "+48 412345670",
                "contact:email": "sekretariat@ppp.busko.pl",
                "contact:website": "http:\/\/ppp.busko.pl",
                "ref:regon": "292400820",
                "ref:vatin": "PL6551794476",
                "operator": "Powiat Buski",
                "operator:type": "government",
                "healthcare": "counselling",
                "counselling_type": "education",
                "fixme": "w zale\u017cno\u015bci od przedmiotu dzia\u0142alno\u015bci (np. healthcare=counselling + counselling_type=education albo healthcare=psychotherapist)"
            }
        },
        {
            "id": 5779,
            "type": "Feature",
            "geometry": {
                "type": "Point",
                "coordinates": [
                    20.755626,
                    50.472868
                ]
            },
            "properties": {
                "ref:rspo": 5779,
                "official_name": "Specjalny O\u015brodek Szkolno-Wychowawczy w Broninie",
                "name": "Specjalny O\u015brodek Szkolno-Wychowawczy w Broninie",
                "addr:country": "PL",
                "addr:postcode": "28-100",
                "addr:place": "Bronina",
                "addr:housenumber": "59",
                "addr:teryt:sym_ul": 231490,
                "contact:phone": "+48 413786858",
                "contact:email": "sosw@sosw-bronina.edu.pl",
                "contact:website": "http:\/\/www.sosw-bronina.edu.pl",
                "ref:regon": "292430903",
                "ref:vatin": "PL6551297789",
                "operator": "Powiat Buski",
                "operator:type": "government",
                "amenity": "school",
                "note": "Children RSPO: 89262;89311;89361"
            }
        },
        {
            "id": 89262,
            "type": "Feature",
            "geometry": {
                "type": "Point",
                "coordinates": [
                    20.755626,
                    50.472837999999996
                ]
            },
            "properties": {
                "isced:level": "1;2",
                "ref:rspo": 89262,
                "official_name": "Szko\u0142a Podstawowa Specjalna w Broninie",
                "name": "Szko\u0142a Podstawowa Specjalna w Broninie",
                "addr:country": "PL",
                "addr:postcode": "28-100",
                "addr:place": "Bronina",
                "addr:housenumber": "59",
                "addr:teryt:sym_ul": 231490,
                "contact:phone": "+48 413786858",
                "contact:email": "sosw@sosw-bronina.edu.pl",
                "contact:website": "http:\/\/www.sosw-bronina.edu.pl",
                "ref:regon": "292431340",
                "operator": "Powiat Buski",
                "operator:type": "government",
                "amenity": "school",
                "note": "Parent RSPO: 5779"
            }
        },
        {
            "id": 89311,
            "type": "Feature",
            "geometry": {
                "type": "Point",
                "coordinates": [
                    20.755626,
                    50.472808
                ]
            },
            "properties": {
                "ref:rspo": 89311,
                "official_name": "Szko\u0142a Specjalna Przysposabiaj\u0105ca Do Pracy w Broninie",
                "name": "Szko\u0142a Specjalna Przysposabiaj\u0105ca Do Pracy w Broninie",
                "addr:country": "PL",
                "addr:postcode": "28-100",
                "addr:place": "Bronina",
                "addr:housenumber": "59",
                "addr:teryt:sym_ul": 231490,
                "contact:phone": "+48 413786858",
                "contact:email": "sosw@sosw-bronina.edu.pl",
                "contact:website": "http:\/\/www.sosw-bronina.edu.pl",
                "ref:regon": "292894235",
                "operator": "Powiat Buski",
                "operator:type": "government",
                "amenity": "school",
                "note": "Parent RSPO: 5779"
            }
        },
        {
            "id": 89361,
            "type": "Feature",
            "geometry": {
                "type": "Point",
                "coordinates": [
                    20.755626,
                    50.472778
                ]
            },
            "properties": {
                "isced:level": "3",
                "ref:rspo": 89361,
                "official_name": "Bran\u017cowa Szko\u0142a I Stopnia Specjalna w Broninie",
                "name": "Bran\u017cowa Szko\u0142a I Stopnia Specjalna w Broninie",
                "addr:country": "PL",
                "addr:postcode": "28-100",
                "addr:place": "Bronina",
                "addr:housenumber": "59",
                "addr:teryt:sym_ul": 231490,
                "contact:phone": "+48 413786858",
                "contact:email": "sosw@sosw-bronina.edu.pl",
                "contact:website": "http:\/\/www.sosw-bronina.edu.pl",
                "ref:regon": "292430955",
                "operator": "Powiat Buski",
                "operator:type": "government",
                "amenity": "school",
                "note": "Parent RSPO: 5779"
            }
        },
        {
            "id": 125992,
            "type": "Feature",
            "geometry": {
                "type": "Point",
                "coordinates": [
                    20.71859,
                    50.47476
                ]
            },
            "properties": {
                "ref:rspo": 125992,
                "official_name": "Centrum Kszta\u0142cenia Zawodowego w Busku - Zdroju",
                "name": "Centrum Kszta\u0142cenia Zawodowego w Busku - Zdroju",
                "addr:country": "PL",
                "addr:postcode": "28-100",
                "addr:city": "Busko-Zdr\u00f3j",
                "addr:street": "ul. Wojska Polskiego",
                "addr:housenumber": "31",
                "addr:teryt:simc": 24628,
                "addr:teryt:sym_ul": 946651,
                "contact:phone": "+48 413784339",
                "contact:email": "busko-szkola@zdz.kielce.pl",
                "ref:regon": "360134954",
                "operator": "Zak\u0142ad Doskonalenia Zawodowego W Kielcach",
                "operator:type": "ngo",
                "amenity": "school",
                "fixme": "amenity=school lub amenity=college",
                "note": "Children RSPO: 11889;12029;12131;278135;278156"
            }
        },
        {
            "id": 11889,
            "type": "Feature",
            "geometry": {
                "type": "Point",
                "coordinates": [
                    20.71859,
                    50.47473
                ]
            },
            "properties": {
                "isced:level": "3",
                "ref:rspo": 11889,
                "official_name": "Niepubliczne Technikum Zawodowe w Busku - Zdroju Zdz w Kielcach",
                "name": "Niepubliczne Technikum Zawodowe w Busku - Zdroju Zdz w Kielcach",
                "addr:country": "PL",
                "addr:postcode": "28-100",
                "addr:city": "Busko-Zdr\u00f3j",
                "addr:street": "ul. Wojska Polskiego",
                "addr:housenumber": "31",
                "addr:teryt:simc": 24628,
                "addr:teryt:sym_ul": 946651,
                "contact:phone": "+48 413784339",
                "contact:email": "busko-szkola@zdz.kielce.pl",
                "contact:website": "https:\/\/szkolybusko.zdz.kielce.pl\/",
                "ref:regon": "260633620",
                "ref:vatin": "PL6570008869",
                "operator": "Zak\u0142ad Doskonalenia Zawodowego W Kielcach",
                "operator:type": "ngo",
                "amenity": "school",
                "note": "Parent RSPO: 125992"
            }
        },
        {
            "id": 12029,
            "type": "Feature",
            "geometry": {
                "type": "Point",
                "coordinates": [
                    20.71859,
                    50.474700000000006
                ]
            },
            "properties": {
                "isced:level": "3",
                "ref:rspo": 12029,
                "official_name": "Niepubliczne Liceum Og\u00f3lnokszta\u0142c\u0105ce dla Doros\u0142ych w Busku - Zdroju Zdz Kielce",
                "name": "Niepubliczne Liceum Og\u00f3lnokszta\u0142c\u0105ce dla Doros\u0142ych w Busku - Zdroju Zdz Kielce",
                "addr:country": "PL",
                "addr:postcode": "28-100",
                "addr:city": "Busko-Zdr\u00f3j",
                "addr:street": "ul. Wojska Polskiego",
                "addr:housenumber": "31",
                "addr:teryt:simc": 24628,
                "addr:teryt:sym_ul": 946651,
                "contact:phone": "+48 413784339",
                "contact:email": "busko-szkola@zdz.kielce.pl",
                "contact:website": "https:\/\/szkolybusko.zdz.kielce.pl",
                "ref:regon": "260633643",
                "ref:vatin": "PL6570008869",
                "operator": "Zak\u0142ad Doskonalenia Zawodowego W Kielcach",
                "operator:type": "ngo",
                "amenity": "school",
                "note": "Parent RSPO: 125992"
            }
        },
        {
            "id": 12131,
            "type": "Feature",
            "geometry": {
                "type": "Point",
                "coordinates": [
                    20.71859,
                    50.47467
                ]
            },
            "properties": {
                "isced:level": "4",
                "ref:rspo": 12131,
                "official_name": "Niepubliczna Szko\u0142a Policealna w Busku - Zdroju Zdz Kielce",
                "name": "Niepubliczna Szko\u0142a Policealna w Busku - Zdroju Zdz Kielce",
                "addr:country": "PL",
                "addr:postcode": "28-100",
                "addr:city": "Busko-Zdr\u00f3j",
                "addr:street": "ul. Wojska Polskiego",
                "addr:housenumber": "31",
                "addr:teryt:simc": 24628,
                "addr:teryt:sym_ul": 946651,
                "contact:phone": "+48 413784339",
                "contact:email": "busko-szkola@zdz.kielce.pl",
                "contact:website": "https:\/\/szkolybusko.zdz.kielce.pl\/",
                "ref:regon": "260633689",
                "ref:vatin": "PL6570008869",
                "operator": "Zak\u0142ad Doskonalenia Zawodowego W Kielcach",
                "operator:type": "ngo",
                "amenity": "college",
                "note": "Parent RSPO: 125992"
            }
        },
        {
            "id": 278135,
            "type": "Feature",
            "geometry": {
                "type": "Point",
                "coordinates": [
                    20.71859,
                    50.47464
                ]
            },
            "properties": {
                "isced:level": "3",
                "ref:rspo": 278135,
                "official_name": "Niepubliczna Bran\u017cowa Szko\u0142a I Stopnia w Busku-Zdroju",
                "name": "Niepubliczna Bran\u017cowa Szko\u0142a I Stopnia w Busku-Zdroju",
                "addr:country": "PL",
                "addr:postcode": "28-100",
                "addr:city": "Busko-Zdr\u00f3j",
                "addr:street": "ul. Wojska Polskiego",
                "addr:housenumber": "31",
                "addr:teryt:simc": 24628,
                "addr:teryt:sym_ul": 946651,
                "contact:phone": "+48 413784339",
                "contact:email": "busko-szkola@zdz.kielce.pl",
                "contact:website": "http:\/\/www.szkolybusko.zdz.kielce.pl",
                "ref:regon": "389847982",
                "operator": "Zak\u0142ad Doskonalenia Zawodowego W Kielcach",
                "operator:type": "ngo",
                "amenity": "school",
                "note": "Parent RSPO: 125992"
            }
        },
        {
            "id": 278156,
            "type": "Feature",
            "geometry": {
                "type": "Point",
                "coordinates": [
                    20.71859,
                    50.474610000000006
                ]
            },
            "properties": {
                "isced:level": "3",
                "ref:rspo": 278156,
                "official_name": "Niepubliczna Bran\u017cowa Szko\u0142a II Stopnia w Busku-Zdroju",
                "name": "Niepubliczna Bran\u017cowa Szko\u0142a II Stopnia w Busku-Zdroju",
                "addr:country": "PL",
                "addr:postcode": "28-100",
                "addr:city": "Busko-Zdr\u00f3j",
                "addr:street": "ul. Wojska Polskiego",
                "addr:housenumber": "31",
                "addr:teryt:simc": 24628,
                "addr:teryt:sym_ul": 946651,
                "contact:phone": "+48 413784339",
                "contact:email": "busko-szkola@zdz.kielce.pl",
                "contact:website": "http:\/\/www.szkolybusko.zdz.kielce.pl",
                "ref:regon": "389848160",
                "operator": "Zak\u0142ad Doskonalenia Zawodowego W Kielcach",
                "operator:type": "ngo",
                "amenity": "school",
                "note": "Parent RSPO: 125992"
            }
        },
        {
            "id": 35114,
            "type": "Feature",
            "geometry": {
                "type": "Point",
                "coordinates": [
                    20.7166419,
                    50.4843737
                ]
            },
            "properties": {
                "ref:rspo": 35114,
                "official_name": "Niepubliczne Przedszkole Bajkowe Wzg\u00f3rze w Miku\u0142owicach",
                "name": "Niepubliczne Przedszkole Bajkowe Wzg\u00f3rze w Miku\u0142owicach",
                "addr:country": "PL",
                "addr:postcode": "28-100",
                "addr:place": "Miku\u0142owice",
                "addr:housenumber": "123",
                "addr:teryt:sym_ul": 232236,
                "contact:phone": "+48 412771922",
                "contact:email": "bajkowewzgorze@o2.pl",
                "contact:website": "http:\/\/www.bajkowewzgorze.pl",
                "ref:regon": "260643021",
                "ref:vatin": "PL6551035575",
                "operator": "Renata Janicka",
                "operator:type": "private",
                "amenity": "kindergarten"
            }
        },
        {
            "id": 8175,
            "type": "Feature",
            "geometry": {
                "type": "Point",
                "coordinates": [
                    20.671622719321,
                    50.486408630125
                ]
            },
            "properties": {
                "ref:rspo": 8175,
                "official_name": "Zesp\u00f3\u0142 Szk\u00f3\u0142 Techniczno-Informatycznych w Busku-Zdroju",
                "name": "Zesp\u00f3\u0142 Szk\u00f3\u0142 Techniczno-Informatycznych w Busku-Zdroju",
                "addr:country": "PL",
                "addr:postcode": "28-100",
                "addr:city": "Busko-Zdr\u00f3j",
                "addr:street": "al. Adama Mickiewicza",
                "addr:housenumber": "23",
                "addr:teryt:simc": 12735,
                "addr:teryt:sym_ul": 946651,
                "contact:phone": "+48 413784386",
                "contact:email": "zsti@zsti.pl",
                "contact:website": "http:\/\/www.zsti.pl",
                "ref:regon": "000198580",
                "ref:vatin": "PL6551295520",
                "operator": "Powiat Buski",
                "operator:type": "government",
                "landuse": "education",
                "fixme": "amenity=school, amenity=college albo landuse=education w zale\u017cno\u015bci od tego, jakie plac\u00f3wki wchodz\u0105 w sk\u0142ad zespo\u0142u. Sprawd\u017a, kiedy stosowa\u0107 amenity=* a kiedy landuse=education.",
                "note": "Children RSPO: 13369;13446;13470"
            }
        },
        {
            "id": 13369,
            "type": "Feature",
            "geometry": {
                "type": "Point",
                "coordinates": [
                    20.671622719321,
                    50.486378630124996
                ]
            },
            "properties": {
                "isced:level": "3",
                "ref:rspo": 13369,
                "official_name": "Technikum Nr 2 w Busku-Zdroju",
                "name": "Technikum Nr 2 w Busku-Zdroju",
                "addr:country": "PL",
                "addr:postcode": "28-100",
                "addr:city": "Busko-Zdr\u00f3j",
                "addr:street": "al. Adama Mickiewicza",
                "addr:housenumber": "23",
                "addr:teryt:simc": 12735,
                "addr:teryt:sym_ul": 946651,
                "contact:phone": "+48 413784386",
                "contact:email": "zsti@zsti.pl",
                "contact:website": "http:\/\/www.zsti.pl",
                "ref:regon": "292441930",
                "operator": "Powiat Buski",
                "operator:type": "government",
                "amenity": "school",
                "note": "Parent RSPO: 8175"
            }
        },
        {
            "id": 13446,
            "type": "Feature",
            "geometry": {
                "type": "Point",
                "coordinates": [
                    20.671622719321,
                    50.486348630125
                ]
            },
            "properties": {
                "isced:level": "3",
                "ref:rspo": 13446,
                "official_name": "Iv Liceum Og\u00f3lnokszta\u0142c\u0105ce w Busku-Zdroju",
                "name": "Iv Liceum Og\u00f3lnokszta\u0142c\u0105ce w Busku-Zdroju",
                "addr:country": "PL",
                "addr:postcode": "28-100",
                "addr:city": "Busko-Zdr\u00f3j",
                "addr:street": "al. Adama Mickiewicza",
                "addr:housenumber": "23",
                "addr:teryt:simc": 12735,
                "addr:teryt:sym_ul": 946651,
                "contact:phone": "+48 413784386",
                "contact:email": "zsti@zsti.pl",
                "contact:website": "http:\/\/www.zsti.pl",
                "ref:regon": "260040883",
                "operator": "Powiat Buski",
                "operator:type": "government",
                "amenity": "school",
                "note": "Parent RSPO: 8175"
            }
        },
        {
            "id": 13470,
            "type": "Feature",
            "geometry": {
                "type": "Point",
                "coordinates": [
                    20.671622719321,
                    50.486318630125
                ]
            },
            "properties": {
                "isced:level": "3",
                "ref:rspo": 13470,
                "official_name": "Bran\u017cowa Szko\u0142a I Stopnia Nr 2 w Busku-Zdroju",
                "name": "Bran\u017cowa Szko\u0142a I Stopnia Nr 2 w Busku-Zdroju",
                "addr:country": "PL",
                "addr:postcode": "28-100",
                "addr:city": "Busko-Zdr\u00f3j",
                "addr:street": "al. Adama Mickiewicza",
                "addr:housenumber": "23",
                "addr:teryt:simc": 12735,
                "addr:teryt:sym_ul": 946651,
                "contact:phone": "+48 413784386",
                "contact:email": "zsti@zsti.pl",
                "contact:website": "http:\/\/www.zsti.pl",
                "ref:regon": "292441918",
                "operator": "Powiat Buski",
                "operator:type": "government",
                "amenity": "school",
                "note": "Parent RSPO: 8175"
            }
        },
        {
            "id": 132747,
            "type": "Feature",
            "geometry": {
                "type": "Point",
                "coordinates": [
                    20.8515759,
                    50.494783
                ]
            },
            "properties": {
                "ref:rspo": 132747,
                "official_name": "Zesp\u00f3\u0142 Plac\u00f3wek O\u015bwiatowych w Ko\u0142aczkowicach",
                "name": "Zesp\u00f3\u0142 Plac\u00f3wek O\u015bwiatowych w Ko\u0142aczkowicach",
                "addr:country": "PL",
                "addr:postcode": "28-100",
                "addr:place": "Ko\u0142aczkowice",
                "addr:housenumber": "122",
                "addr:teryt:sym_ul": 231930,
                "contact:phone": "+48 413762424",
                "contact:email": "kolaczkowice@oswiata.busko.pl",
                "contact:website": "http:\/\/kolaczkowice.edupage.org",
                "ref:regon": "366177404",
                "operator": "Gmina Busko-Zdr\u00f3j",
                "operator:type": "government",
                "landuse": "education",
                "fixme": "amenity=school, amenity=college albo landuse=education w zale\u017cno\u015bci od tego, jakie plac\u00f3wki wchodz\u0105 w sk\u0142ad zespo\u0142u. Sprawd\u017a, kiedy stosowa\u0107 amenity=* a kiedy landuse=education.",
                "note": "Children RSPO: 6448;131934"
            }
        },
        {
            "id": 6448,
            "type": "Feature",
            "geometry": {
                "type": "Point",
                "coordinates": [
                    20.8515759,
                    50.494752999999996
                ]
            },
            "properties": {
                "isced:level": "1;2",
                "ref:rspo": 6448,
                "official_name": "Publiczna Szko\u0142a Podstawowa im. Batalion\u00f3w Ch\u0142opskich w Ko\u0142aczkowicach",
                "name": "Publiczna Szko\u0142a Podstawowa",
                "addr:country": "PL",
                "addr:postcode": "28-100",
                "addr:place": "Ko\u0142aczkowice",
                "addr:housenumber": "122",
                "addr:teryt:sym_ul": 231930,
                "contact:phone": "+48 413762424",
                "contact:email": "kolaczkowice@oswiata.busko.pl",
                "contact:website": "http:\/\/kolaczkowice.edupage.org",
                "ref:regon": "000733257",
                "ref:vatin": "PL6551938001",
                "operator": "Gmina Busko-Zdr\u00f3j",
                "operator:type": "government",
                "amenity": "school",
                "note": "Parent RSPO: 132747"
            }
        },
        {
            "id": 131934,
            "type": "Feature",
            "geometry": {
                "type": "Point",
                "coordinates": [
                    20.8515759,
                    50.494723
                ]
            },
            "properties": {
                "ref:rspo": 131934,
                "official_name": "Publiczne Przedszkole w Ko\u0142aczkowicach",
                "name": "Publiczne Przedszkole w Ko\u0142aczkowicach",
                "addr:country": "PL",
                "addr:postcode": "28-100",
                "addr:place": "Ko\u0142aczkowice",
                "addr:housenumber": "122",
                "addr:teryt:sym_ul": 231930,
                "contact:phone": "+48 413762424",
                "contact:email": "kolaczkowice@oswiata.busko.pl",
                "contact:website": "http:\/\/kolaczkowice.edupage.org",
                "ref:regon": "365385796",
                "operator": "Gmina Busko-Zdr\u00f3j",
                "operator:type": "government",
                "amenity": "kindergarten",
                "note": "Parent RSPO: 132747"
            }
        },
        {
            "id": 128130,
            "type": "Feature",
            "geometry": {
                "type": "Point",
                "coordinates": [
                    20.7664559,
                    50.531541
                ]
            },
            "properties": {
                "isced:level": "1;2",
                "ref:rspo": 128130,
                "official_name": "Spo\u0142eczna Szko\u0142a Podstawowa w S\u0142abkowicach",
                "name": "Spo\u0142eczna Szko\u0142a Podstawowa w S\u0142abkowicach",
                "addr:country": "PL",
                "addr:postcode": "28-100",
                "addr:place": "S\u0142abkowice",
                "addr:housenumber": "61",
                "addr:teryt:sym_ul": 232839,
                "contact:phone": "+48 697755543",
                "contact:email": "spoleczna_sp_slabkowice@interia.pl",
                "ref:regon": "362116819",
                "operator": "Stowarzyszenie Dla Szko\u0142y",
                "operator:type": "ngo",
                "amenity": "school"
            }
        }
    ]
}