{
    "type": "FeatureCollection",
    "features": [
        {
            "id": 60790,
            "type": "Feature",
            "geometry": {
                "type": "Point",
                "coordinates": [
                    21.0007269,
                    50.3241299
                ]
            },
            "properties": {
                "isced:level": "1;2",
                "ref:rspo": 60790,
                "official_name": "Szko\u0142a Podstawowa im. Fundacji Zofii I W\u0142adys\u0142awa Pokus\u00f3w Wspierania Edukacji M\u0142odzie\u017cy Wiejskiej w Oblekoniu",
                "name": "Szko\u0142a Podstawowa",
                "addr:country": "PL",
                "addr:postcode": "28-133",
                "addr:place": "Obleko\u0144",
                "addr:housenumber": "73",
                "addr:teryt:simc": 258589,
                "contact:phone": "+48 665337513",
                "contact:email": "spoblekon@gmail.com",
                "ref:regon": "001218020",
                "ref:vatin": "PL6551774870",
                "operator": "Gmina Pacan\u00f3w",
                "operator:type": "government",
                "amenity": "school"
            }
        },
        {
            "id": 60577,
            "type": "Feature",
            "geometry": {
                "type": "Point",
                "coordinates": [
                    21.0578949,
                    50.328658
                ]
            },
            "properties": {
                "isced:level": "1;2",
                "ref:rspo": 60577,
                "official_name": "Szko\u0142a Podstawowa im. Jana Brzechwy w Ratajach S\u0142upskich",
                "name": "Szko\u0142a Podstawowa",
                "addr:country": "PL",
                "addr:postcode": "28-133",
                "addr:place": "Rataje S\u0142upskie",
                "addr:housenumber": "39a",
                "addr:teryt:simc": 258891,
                "contact:phone": "+48 413765204",
                "contact:email": "sprataje@gazeta.pl",
                "contact:website": "http:\/\/www.sprataje.tbu.pl",
                "ref:regon": "291145891",
                "ref:vatin": "PL6551774887",
                "operator": "Gmina Pacan\u00f3w",
                "operator:type": "government",
                "amenity": "school"
            }
        },
        {
            "id": 272864,
            "type": "Feature",
            "geometry": {
                "type": "Point",
                "coordinates": [
                    21.05402,
                    50.33265
                ]
            },
            "properties": {
                "ref:rspo": 272864,
                "official_name": "Niepubliczna Poradnia Psychologiczno - Pedagogiczna Modus Vivendi w Ratajach S\u0142upskich",
                "name": "Niepubliczna Poradnia Psychologiczno - Pedagogiczna Modus Vivendi w Ratajach S\u0142upskich",
                "addr:country": "PL",
                "addr:postcode": "28-133",
                "addr:place": "Rataje S\u0142upskie",
                "addr:housenumber": "160A",
                "addr:teryt:simc": 258891,
                "contact:phone": "+48 604708025",
                "contact:email": "info@centrumpomocyrodzinie.pl",
                "contact:website": "http:\/\/www.centrumpomocyrodzinie.pl",
                "ref:regon": "384317570",
                "operator": "Barbara \u0141\u0119\u017cak",
                "operator:type": "private",
                "healthcare": "counselling",
                "counselling_type": "education",
                "fixme": "w zale\u017cno\u015bci od przedmiotu dzia\u0142alno\u015bci (np. healthcare=counselling + counselling_type=education albo healthcare=psychotherapist)"
            }
        },
        {
            "id": 265134,
            "type": "Feature",
            "geometry": {
                "type": "Point",
                "coordinates": [
                    21.0679754,
                    50.334825
                ]
            },
            "properties": {
                "ref:rspo": 265134,
                "official_name": "Niepubliczny Punkt Przedszkolny w Ratajach S\u0142upskich",
                "name": "Niepubliczny Punkt Przedszkolny w Ratajach S\u0142upskich",
                "addr:country": "PL",
                "addr:postcode": "28-133",
                "addr:place": "Rataje S\u0142upskie",
                "addr:housenumber": "131",
                "addr:teryt:simc": 258891,
                "contact:phone": "+48 694069560",
                "contact:email": "asiasz21@onet.eu",
                "ref:regon": "368636900",
                "operator": "Caritas Diecezji Kieleckiej",
                "operator:type": "religious",
                "amenity": "kindergarten"
            }
        },
        {
            "id": 60662,
            "type": "Feature",
            "geometry": {
                "type": "Point",
                "coordinates": [
                    20.9780069,
                    50.3906609
                ]
            },
            "properties": {
                "ref:rspo": 60662,
                "official_name": "Zesp\u00f3\u0142 Publicznych Plac\u00f3wek O\u015bwiatowych w W\u00f3jczy",
                "name": "Zesp\u00f3\u0142 Publicznych Plac\u00f3wek O\u015bwiatowych w W\u00f3jczy",
                "addr:country": "PL",
                "addr:postcode": "28-133",
                "addr:place": "W\u00f3jcza",
                "addr:housenumber": "20",
                "addr:teryt:simc": 259123,
                "contact:phone": "+48 413765236",
                "contact:email": "spwojcza@wp.pl",
                "ref:regon": "292892704",
                "ref:vatin": "PL6551774864",
                "operator": "Gmina Pacan\u00f3w",
                "operator:type": "government",
                "landuse": "education",
                "fixme": "amenity=school, amenity=college albo landuse=education w zale\u017cno\u015bci od tego, jakie plac\u00f3wki wchodz\u0105 w sk\u0142ad zespo\u0142u. Sprawd\u017a, kiedy stosowa\u0107 amenity=* a kiedy landuse=education.",
                "note": "Children RSPO: 77451;83946"
            }
        },
        {
            "id": 77451,
            "type": "Feature",
            "geometry": {
                "type": "Point",
                "coordinates": [
                    20.9780069,
                    50.3906309
                ]
            },
            "properties": {
                "isced:level": "1;2",
                "ref:rspo": 77451,
                "official_name": "Szko\u0142a Podstawowa w Zespole Publicznych Plac\u00f3wek O\u015bwiatowych w W\u00f3jczy",
                "name": "Szko\u0142a Podstawowa w Zespole Publicznych Plac\u00f3wek O\u015bwiatowych w W\u00f3jczy",
                "addr:country": "PL",
                "addr:postcode": "28-133",
                "addr:place": "W\u00f3jcza",
                "addr:housenumber": "20",
                "addr:teryt:simc": 259123,
                "contact:phone": "+48 413765236",
                "contact:email": "spwojcza@wp.pl",
                "contact:website": "http:\/\/www.zppowojcza.eu",
                "ref:regon": "001218037",
                "ref:vatin": "PL6551774864",
                "operator": "Gmina Pacan\u00f3w",
                "operator:type": "government",
                "amenity": "school",
                "note": "Parent RSPO: 60662"
            }
        },
        {
            "id": 83946,
            "type": "Feature",
            "geometry": {
                "type": "Point",
                "coordinates": [
                    20.9780069,
                    50.3906009
                ]
            },
            "properties": {
                "ref:rspo": 83946,
                "official_name": "Samorz\u0105dowe Przedszkole w Zespole Publicznych Plac\u00f3wek O\u015bwiatowych w W\u00f3jczy",
                "name": "Samorz\u0105dowe Przedszkole w Zespole Publicznych Plac\u00f3wek O\u015bwiatowych w W\u00f3jczy",
                "addr:country": "PL",
                "addr:postcode": "28-133",
                "addr:place": "W\u00f3jcza",
                "addr:housenumber": "20",
                "addr:teryt:simc": 259123,
                "contact:phone": "+48 413765236",
                "contact:email": "spwojcza@wp.pl",
                "ref:regon": "290013331",
                "operator": "Gmina Pacan\u00f3w",
                "operator:type": "government",
                "amenity": "kindergarten",
                "note": "Parent RSPO: 60662"
            }
        },
        {
            "id": 59959,
            "type": "Feature",
            "geometry": {
                "type": "Point",
                "coordinates": [
                    21.04771,
                    50.3975
                ]
            },
            "properties": {
                "isced:level": "1;2",
                "ref:rspo": 59959,
                "official_name": "Szko\u0142a Podstawowa im. Kornela Makuszy\u0144skiego w Pacanowie",
                "name": "Szko\u0142a Podstawowa",
                "addr:country": "PL",
                "addr:postcode": "28-133",
                "addr:city": "Pacan\u00f3w",
                "addr:street": "Karska",
                "addr:housenumber": "3",
                "addr:teryt:simc": 258715,
                "addr:teryt:sym_ul": 8116,
                "contact:phone": "+48 413765101",
                "contact:email": "dyrektor@sppacanow.pl",
                "contact:website": "http:\/\/www.sppacanow.pl",
                "ref:regon": "000592578",
                "ref:vatin": "PL6551774893",
                "operator": "Gmina Pacan\u00f3w",
                "operator:type": "government",
                "amenity": "school"
            }
        },
        {
            "id": 60835,
            "type": "Feature",
            "geometry": {
                "type": "Point",
                "coordinates": [
                    21.04734,
                    50.39816
                ]
            },
            "properties": {
                "ref:rspo": 60835,
                "official_name": "Samorz\u0105dowe Przedszkole w Pacanowie",
                "name": "Samorz\u0105dowe Przedszkole w Pacanowie",
                "addr:country": "PL",
                "addr:postcode": "28-133",
                "addr:city": "Pacan\u00f3w",
                "addr:street": "Radziwi\u0142\u0142\u00f3wka",
                "addr:housenumber": "2",
                "addr:teryt:simc": 258715,
                "addr:teryt:sym_ul": 29607,
                "contact:phone": "+48 413765447",
                "contact:email": "przedszkolepacanow@onet.eu",
                "ref:regon": "290013325",
                "ref:vatin": "PL6551877245",
                "operator": "Gmina Pacan\u00f3w",
                "operator:type": "government",
                "amenity": "kindergarten"
            }
        }
    ]
}