{
    "type": "FeatureCollection",
    "features": [
        {
            "id": 92691,
            "type": "Feature",
            "geometry": {
                "type": "Point",
                "coordinates": [
                    20.8957339,
                    50.347249
                ]
            },
            "properties": {
                "isced:level": "1;2",
                "ref:rspo": 92691,
                "official_name": "Szko\u0142a Filialna w We\u0142ninie",
                "name": "Szko\u0142a Filialna w We\u0142ninie",
                "addr:postcode": "28-131",
                "addr:place": "We\u0142nin",
                "addr:housenumber": "77",
                "addr:city:simc": 271176,
                "phone": "+48 413776475",
                "email": "spsolec@interia.eu",
                "website": "http:\/\/szkolasolec.szklnastrona.pl",
                "ref:regon": "586365000",
                "operator": "Gmina Solec-Zdr\u00f3j",
                "operator:type": "government",
                "amenity": "school",
                "note": "Parent RSPO: 24336"
            }
        },
        {
            "id": 4059,
            "type": "Feature",
            "geometry": {
                "type": "Point",
                "coordinates": [
                    20.88923,
                    50.37056
                ]
            },
            "properties": {
                "ref:rspo": 4059,
                "official_name": "Zesp\u00f3\u0142 Szk\u00f3\u0142 w Solcu-Zdroju",
                "name": "Zesp\u00f3\u0142 Szk\u00f3\u0142 w Solcu-Zdroju",
                "addr:postcode": "28-131",
                "addr:city": "Solec-Zdr\u00f3j",
                "addr:street": "1 Maja",
                "addr:housenumber": "18",
                "addr:city:simc": 271035,
                "addr:street:sym_ul": 11926,
                "phone": "+48 413776021",
                "email": "spsolec@interia.eu",
                "website": "http:\/\/szkolasolec.szkolnastrona.pl",
                "ref:regon": "260625187",
                "ref:vatin": "PL6551970967",
                "operator": "Gmina Solec-Zdr\u00f3j",
                "operator:type": "government",
                "landuse": "education",
                "fixme": "amenity=school, amenity=college albo landuse=education w zale\u017cno\u015bci od tego, jakie plac\u00f3wki wchodz\u0105 w sk\u0142ad zespo\u0142u. Sprawd\u017a, kiedy stosowa\u0107 amenity=* a kiedy landuse=education.",
                "note": "Children RSPO: 24280;24336"
            }
        },
        {
            "id": 24280,
            "type": "Feature",
            "geometry": {
                "type": "Point",
                "coordinates": [
                    20.88923,
                    50.370529999999995
                ]
            },
            "properties": {
                "ref:rspo": 24280,
                "official_name": "Samorz\u0105dowe Przedszkole w Solcu-Zdroju",
                "name": "Samorz\u0105dowe Przedszkole w Solcu-Zdroju",
                "addr:postcode": "28-131",
                "addr:city": "Solec-Zdr\u00f3j",
                "addr:street": "1 Maja",
                "addr:housenumber": "18",
                "addr:city:simc": 271035,
                "addr:street:sym_ul": 11926,
                "phone": "+48 413776047",
                "email": "spsolec@interia.eu",
                "website": "http:\/\/szkolasolec.szkolnastrona.pl",
                "ref:regon": "290013041",
                "operator": "Gmina Solec-Zdr\u00f3j",
                "operator:type": "government",
                "amenity": "kindergarten",
                "note": "Parent RSPO: 4059"
            }
        },
        {
            "id": 24336,
            "type": "Feature",
            "geometry": {
                "type": "Point",
                "coordinates": [
                    20.88923,
                    50.3705
                ]
            },
            "properties": {
                "isced:level": "1;2",
                "ref:rspo": 24336,
                "official_name": "Szko\u0142a Podstawowa w Solcu-Zdroju",
                "name": "Szko\u0142a Podstawowa w Solcu-Zdroju",
                "addr:postcode": "28-131",
                "addr:city": "Solec-Zdr\u00f3j",
                "addr:street": "1 Maja",
                "addr:housenumber": "18",
                "addr:city:simc": 271035,
                "addr:street:sym_ul": 11926,
                "phone": "+48 413776021",
                "email": "spsolec@interia.eu",
                "website": "http:\/\/szkolasolec.szkolnastrona.pl",
                "ref:regon": "000586365",
                "operator": "Gmina Solec-Zdr\u00f3j",
                "operator:type": "government",
                "amenity": "school",
                "note": "Children RSPO: 92691Parent RSPO: 4059"
            }
        },
        {
            "id": 92309,
            "type": "Feature",
            "geometry": {
                "type": "Point",
                "coordinates": [
                    20.868745,
                    50.4100709
                ]
            },
            "properties": {
                "isced:level": "1;2",
                "ref:rspo": 92309,
                "official_name": "Szko\u0142a Filialna w Kikowie",
                "name": "Szko\u0142a Filialna w Kikowie",
                "addr:postcode": "28-131",
                "addr:place": "Kik\u00f3w",
                "addr:housenumber": "65",
                "addr:city:simc": 270797,
                "phone": "+48 413777411",
                "email": "spzborow@wp.pl",
                "website": "http:\/\/spzborow.szkolnastrona.pl",
                "ref:regon": "121705500",
                "operator": "Gmina Solec-Zdr\u00f3j",
                "operator:type": "government",
                "amenity": "school",
                "note": "Parent RSPO: 24385"
            }
        },
        {
            "id": 11284,
            "type": "Feature",
            "geometry": {
                "type": "Point",
                "coordinates": [
                    20.71137,
                    50.51321
                ]
            },
            "properties": {
                "ref:rspo": 11284,
                "official_name": "Zesp\u00f3\u0142 Publicznych Plac\u00f3wek O\u015bwiatowych w Zborowie",
                "name": "Zesp\u00f3\u0142 Publicznych Plac\u00f3wek O\u015bwiatowych w Zborowie",
                "addr:postcode": "28-131",
                "addr:city": "Zbor\u00f3w",
                "addr:street": "Zwierzyniec",
                "addr:housenumber": "3",
                "addr:city:simc": 271414,
                "addr:street:sym_ul": 26303,
                "phone": "+48 413777007",
                "email": "spzborow@wp.pl",
                "website": "http:\/\/www.spzborow.szkolnastrona.pl",
                "ref:regon": "260018079",
                "ref:vatin": "PL6551937929",
                "operator": "Gmina Solec-Zdr\u00f3j",
                "operator:type": "government",
                "landuse": "education",
                "fixme": "amenity=school, amenity=college albo landuse=education w zale\u017cno\u015bci od tego, jakie plac\u00f3wki wchodz\u0105 w sk\u0142ad zespo\u0142u. Sprawd\u017a, kiedy stosowa\u0107 amenity=* a kiedy landuse=education.",
                "note": "Children RSPO: 24385;89263"
            }
        },
        {
            "id": 24385,
            "type": "Feature",
            "geometry": {
                "type": "Point",
                "coordinates": [
                    20.71137,
                    50.51318
                ]
            },
            "properties": {
                "isced:level": "1;2",
                "ref:rspo": 24385,
                "official_name": "Szko\u0142a Podstawowa w Zborowie",
                "name": "Szko\u0142a Podstawowa w Zborowie",
                "addr:postcode": "28-131",
                "addr:city": "Zbor\u00f3w",
                "addr:street": "Zwierzyniec",
                "addr:housenumber": "3",
                "addr:city:simc": 271414,
                "addr:street:sym_ul": 26303,
                "phone": "+48 413777002",
                "email": "spzborow@wp.pl",
                "website": "http:\/\/spzborow.szkolnastrona.pl",
                "ref:regon": "001217055",
                "operator": "Gmina Solec-Zdr\u00f3j",
                "operator:type": "government",
                "amenity": "school",
                "note": "Children RSPO: 92309Parent RSPO: 11284"
            }
        },
        {
            "id": 89263,
            "type": "Feature",
            "geometry": {
                "type": "Point",
                "coordinates": [
                    20.71137,
                    50.51315
                ]
            },
            "properties": {
                "ref:rspo": 89263,
                "official_name": "Punkt Przedszkolny w Zborowie",
                "name": "Punkt Przedszkolny w Zborowie",
                "addr:postcode": "28-131",
                "addr:city": "Zbor\u00f3w",
                "addr:street": "Zwierzyniec",
                "addr:housenumber": "3",
                "addr:city:simc": 271414,
                "addr:street:sym_ul": 26303,
                "phone": "+48 413777002",
                "email": "spzborow@wp.pl",
                "website": "http:\/\/spzborow.szkolnastrona.pl",
                "ref:regon": "260650558",
                "operator": "Gmina Solec-Zdr\u00f3j",
                "operator:type": "government",
                "amenity": "kindergarten",
                "note": "Parent RSPO: 11284"
            }
        }
    ]
}