{"type":"FeatureCollection","features":[{"id":49693,"type":"Feature","geometry":{"type":"Point","coordinates":[20.0957349,50.4009219]},"properties":{"isced:level":"1;2","ref:rspo":49693,"official_name":"Szko\u0142a Podstawowa im. Marii Sk\u0142odowskiej Curie w Antolce","name":"Szko\u0142a Podstawowa","addr:country":"PL","addr:postcode":"32-210","addr:place":"Antolka","addr:housenumber":"13","addr:teryt:sym_ul":246304,"contact:phone":"+48 413838510","contact:email":"spantolka@poczta.onet.pl","contact:website":"http:\/\/www.spantolka.aksent.eu","ref:regon":"001215665","ref:vatin":"PL6591423639","operator":"Gmina Ksi\u0105\u017c Wielki","operator:type":"government","amenity":"school"}},{"id":128957,"type":"Feature","geometry":{"type":"Point","coordinates":[20.0957349,50.4008919]},"properties":{"ref:rspo":128957,"official_name":"Punkt Przedszkolny w Antolce","name":"Punkt Przedszkolny w Antolce","addr:country":"PL","addr:postcode":"32-210","addr:place":"Antolka","addr:housenumber":"13","addr:teryt:sym_ul":246304,"contact:phone":"+48 413838510","contact:email":"spantolka@poczta.onet.pl","contact:website":"http:\/\/www.spantolka.aksnet.eu","ref:regon":"362431930","operator":"Gmina Ksi\u0105\u017c Wielki","operator:type":"government","amenity":"kindergarten"}},{"id":49694,"type":"Feature","geometry":{"type":"Point","coordinates":[20.2133359,50.4395079]},"properties":{"isced:level":"1;2","ref:rspo":49694,"official_name":"Szko\u0142a Podstawowa im. Jana Paw\u0142a II w Ksi\u0105\u017cu Ma\u0142ym","name":"Szko\u0142a Podstawowa","addr:country":"PL","addr:postcode":"32-210","addr:place":"Ksi\u0105\u017c Ma\u0142y","addr:housenumber":"59","addr:teryt:sym_ul":246563,"contact:phone":"+48 413838189","contact:email":"sp.ksiazmaly@interia.pl","contact:website":"https:\/\/spksiazmaly.togi.me","ref:regon":"001215671","ref:vatin":"PL6591423668","operator":"Gmina Ksi\u0105\u017c Wielki","operator:type":"government","amenity":"school"}},{"id":86251,"type":"Feature","geometry":{"type":"Point","coordinates":[20.2133359,50.4394779]},"properties":{"ref:rspo":86251,"official_name":"Punkt Przedszkolny w Ksi\u0105\u017cu Ma\u0142ym","name":"Punkt Przedszkolny w Ksi\u0105\u017cu Ma\u0142ym","addr:country":"PL","addr:postcode":"32-210","addr:place":"Ksi\u0105\u017c Ma\u0142y","addr:housenumber":"59","addr:teryt:sym_ul":246563,"contact:phone":"+48 413838189","contact:email":"sp.ksiazmaly@interia.pl","contact:website":"http:\/\/www.spksiazmaly.aksnet.eu","ref:regon":"122710900","operator":"Gmina Ksi\u0105\u017c Wielki","operator:type":"government","amenity":"kindergarten"}},{"id":130424,"type":"Feature","geometry":{"type":"Point","coordinates":[20.14921,50.44037]},"properties":{"ref:rspo":130424,"official_name":"Zesp\u00f3\u0142 Niepublicznych Szk\u00f3\u0142 I Plac\u00f3wek O\u015bwiatowych w Ksi\u0105\u017cu Wielkim","name":"Zesp\u00f3\u0142 Niepublicznych Szk\u00f3\u0142 I Plac\u00f3wek O\u015bwiatowych w Ksi\u0105\u017cu Wielkim","addr:country":"PL","addr:postcode":"32-210","addr:city":"Ksi\u0105\u017c Wielki","addr:street":"ul. Wincentego Witosa","addr:housenumber":"10","addr:teryt:simc":24459,"addr:teryt:sym_ul":246617,"contact:phone":"+48 413838010","contact:email":"szkolyksiaz@poczta.onet.pl","ref:regon":"364043562","operator":"Stowarzyszenie \"Mir\u00f3w\"","operator:type":"ngo","landuse":"education","fixme":"amenity=school, amenity=college albo landuse=education w zale\u017cno\u015bci od tego, jakie plac\u00f3wki wchodz\u0105 w sk\u0142ad zespo\u0142u. Sprawd\u017a, kiedy stosowa\u0107 amenity=* a kiedy landuse=education.","note":"Children RSPO: 128712;128716;130377"}},{"id":128712,"type":"Feature","geometry":{"type":"Point","coordinates":[20.14921,50.44034]},"properties":{"isced:level":"3","ref:rspo":128712,"official_name":"Niepubliczne Liceum Og\u00f3lnokszta\u0142c\u0105ce w Ksi\u0105\u017cu Wielkim","name":"Niepubliczne Liceum Og\u00f3lnokszta\u0142c\u0105ce w Ksi\u0105\u017cu Wielkim","addr:country":"PL","addr:postcode":"32-210","addr:city":"Ksi\u0105\u017c Wielki","addr:street":"ul. Wincentego Witosa","addr:housenumber":"10","addr:teryt:simc":24459,"addr:teryt:sym_ul":246617,"contact:phone":"+48 413838010","contact:email":"szkolyksiaz@poczta.onet.pl","contact:website":"http:\/\/szkolyksiaz.iap.pl","ref:regon":"362364888","operator":"Stowarzyszenie \"Mir\u00f3w\"","operator:type":"ngo","amenity":"school","note":"Parent RSPO: 130424"}},{"id":128716,"type":"Feature","geometry":{"type":"Point","coordinates":[20.14921,50.440310000000004]},"properties":{"isced:level":"3","ref:rspo":128716,"official_name":"Niepubliczne Technikum w Ksi\u0105\u017cu Wielkim","name":"Niepubliczne Technikum w Ksi\u0105\u017cu Wielkim","addr:country":"PL","addr:postcode":"32-210","addr:city":"Ksi\u0105\u017c Wielki","addr:street":"ul. Wincentego Witosa","addr:housenumber":"10","addr:teryt:simc":24459,"addr:teryt:sym_ul":246617,"contact:phone":"+48 413838010","ref:regon":"362364894","operator":"Stowarzyszenie \"Mir\u00f3w\"","operator:type":"ngo","amenity":"school","note":"Parent RSPO: 130424"}},{"id":130377,"type":"Feature","geometry":{"type":"Point","coordinates":[20.14921,50.44028]},"properties":{"ref:rspo":130377,"official_name":"Szkolne Schronisko M\u0142odzie\u017cowe w Ksi\u0105\u017cu Wielkim","name":"Szkolne Schronisko M\u0142odzie\u017cowe w Ksi\u0105\u017cu Wielkim","addr:country":"PL","addr:postcode":"32-210","addr:city":"Ksi\u0105\u017c Wielki","addr:street":"ul. Wincentego Witosa","addr:housenumber":"10","addr:teryt:simc":24459,"addr:teryt:sym_ul":246617,"contact:phone":"+48 413838010","ref:regon":"363925538","operator":"Stowarzyszenie \"Mir\u00f3w\"","operator:type":"ngo","tourism":"hostel","note":"Parent RSPO: 130424"}},{"id":49695,"type":"Feature","geometry":{"type":"Point","coordinates":[20.140520095825,50.444240570068]},"properties":{"ref:rspo":49695,"official_name":"Zesp\u00f3\u0142 Szkolno-Przedszkolny w Ksi\u0105\u017cu Wielkim","name":"Zesp\u00f3\u0142 Szkolno-Przedszkolny w Ksi\u0105\u017cu Wielkim","addr:country":"PL","addr:postcode":"32-210","addr:city":"Ksi\u0105\u017c Wielki","addr:street":"ul. Miko\u0142aja Reja","addr:housenumber":"4","addr:teryt:simc":18565,"addr:teryt:sym_ul":246617,"contact:phone":"+48 413838011","contact:email":"spksiaz@op.pl","contact:website":"http:\/\/www.ksiazwielki.edupage.org","ref:regon":"121847406","ref:vatin":"PL6591539081","operator":"Gmina Ksi\u0105\u017c Wielki","operator:type":"government","landuse":"education","fixme":"amenity=school, amenity=college albo landuse=education w zale\u017cno\u015bci od tego, jakie plac\u00f3wki wchodz\u0105 w sk\u0142ad zespo\u0142u. Sprawd\u017a, kiedy stosowa\u0107 amenity=* a kiedy landuse=education.","note":"Children RSPO: 86249;86250"}},{"id":86249,"type":"Feature","geometry":{"type":"Point","coordinates":[20.140520095825,50.444210570067995]},"properties":{"isced:level":"1;2","ref:rspo":86249,"official_name":"Szko\u0142a Podstawowa w Ksi\u0105\u017cu Wielkim","name":"Szko\u0142a Podstawowa w Ksi\u0105\u017cu Wielkim","addr:country":"PL","addr:postcode":"32-210","addr:city":"Ksi\u0105\u017c Wielki","addr:street":"ul. Miko\u0142aja Reja","addr:housenumber":"4","addr:teryt:simc":18565,"addr:teryt:sym_ul":246617,"contact:phone":"+48 413838011","contact:email":"spksiaz@op.pl","contact:website":"http:\/\/www.ksiazwielki.edupage.org","ref:regon":"000580658","ref:vatin":"PL6591423645","operator":"Gmina Ksi\u0105\u017c Wielki","operator:type":"government","amenity":"school","note":"Parent RSPO: 49695"}},{"id":86250,"type":"Feature","geometry":{"type":"Point","coordinates":[20.140520095825,50.444180570068]},"properties":{"ref:rspo":86250,"official_name":"Samorz\u0105dowe Przedszkole w Ksi\u0105\u017cu Wielkim","name":"Samorz\u0105dowe Przedszkole w Ksi\u0105\u017cu Wielkim","addr:country":"PL","addr:postcode":"32-210","addr:city":"Ksi\u0105\u017c Wielki","addr:street":"ul. Miko\u0142aja Reja","addr:housenumber":"4","addr:teryt:simc":18565,"addr:teryt:sym_ul":246617,"contact:phone":"+48 413838011","contact:email":"spksiaz@op.pl","contact:website":"http:\/\/www.ksiazwielki.edupage.org","ref:regon":"290013740","ref:vatin":"PL6591425259","operator":"Gmina Ksi\u0105\u017c Wielki","operator:type":"government","amenity":"kindergarten","note":"Parent RSPO: 49695"}}]}