{
    "type": "FeatureCollection",
    "features": [
        {
            "id": 86449,
            "type": "Feature",
            "geometry": {
                "type": "Point",
                "coordinates": [
                    19.919095,
                    50.282883
                ]
            },
            "properties": {
                "isced:level": "1;2",
                "ref:rspo": 86449,
                "official_name": "Szko\u0142a Podstawowa w Wysocicach",
                "name": "Szko\u0142a Podstawowa w Wysocicach",
                "addr:country": "PL",
                "addr:postcode": "32-075",
                "addr:place": "Wysocice",
                "addr:housenumber": "46",
                "addr:teryt:simc": 319629,
                "contact:phone": "+48 123899427",
                "contact:email": "spwysocice@interia.pl",
                "contact:website": "http:\/\/www.spwysocice.pl",
                "ref:regon": "000699537",
                "ref:vatin": "PL6591419483",
                "operator": "Gmina Go\u0142cza",
                "operator:type": "government",
                "amenity": "school"
            }
        },
        {
            "id": 86451,
            "type": "Feature",
            "geometry": {
                "type": "Point",
                "coordinates": [
                    19.8695376,
                    50.375739
                ]
            },
            "properties": {
                "isced:level": "1;2",
                "ref:rspo": 86451,
                "official_name": "Szko\u0142a Podstawowa w Szreniawie",
                "name": "Szko\u0142a Podstawowa w Szreniawie",
                "addr:country": "PL",
                "addr:postcode": "32-075",
                "addr:place": "Szreniawa",
                "addr:housenumber": "9",
                "addr:teryt:simc": 319492,
                "contact:phone": "+48 123886078",
                "contact:email": "szkola.szreniawa@wp.pl",
                "contact:website": "http:\/\/spszreniawa.edupage.org",
                "ref:regon": "000699508",
                "ref:vatin": "PL6821229037",
                "operator": "Gmina Go\u0142cza",
                "operator:type": "government",
                "amenity": "school"
            }
        },
        {
            "id": 86275,
            "type": "Feature",
            "geometry": {
                "type": "Point",
                "coordinates": [
                    19.9604596,
                    50.3886878
                ]
            },
            "properties": {
                "isced:level": "1;2",
                "ref:rspo": 86275,
                "official_name": "Szko\u0142a Podstawowa im. Jana Paw\u0142a II w Go\u0142czy",
                "name": "Szko\u0142a Podstawowa",
                "addr:country": "PL",
                "addr:postcode": "32-075",
                "addr:place": "Go\u0142cza",
                "addr:housenumber": "107",
                "addr:teryt:simc": 319279,
                "contact:phone": "+48 123886071",
                "contact:email": "szkolagol@gmail.com",
                "contact:website": "http:\/\/spgolcza.pl",
                "ref:regon": "000699490",
                "ref:vatin": "PL6821227185",
                "operator": "Gmina Go\u0142cza",
                "operator:type": "government",
                "amenity": "school"
            }
        }
    ]
}