{
    "type": "FeatureCollection",
    "features": [
        {
            "id": 7512,
            "type": "Feature",
            "geometry": {
                "type": "Point",
                "coordinates": [
                    20.01265,
                    50.35452
                ]
            },
            "properties": {
                "ref:rspo": 7512,
                "official_name": "Przedszkole Samorz\u0105dowe w Miechowie- Charsznicy",
                "name": "Przedszkole Samorz\u0105dowe w Miechowie- Charsznicy",
                "addr:postcode": "32-250",
                "addr:city": "Miech\u00f3w-Charsznica",
                "addr:street": "Kolejowa",
                "addr:housenumber": "5",
                "addr:teryt:simc": 233595,
                "addr:teryt:sym_ul": 8828,
                "phone": "+48 413836047",
                "email": "pscharsznica@interia.pl",
                "ref:regon": "357126411",
                "ref:vatin": "PL6591378264",
                "operator": "Gmina Charsznica",
                "operator:type": "government",
                "amenity": "kindergarten"
            }
        },
        {
            "id": 71380,
            "type": "Feature",
            "geometry": {
                "type": "Point",
                "coordinates": [
                    19.95432,
                    50.39553
                ]
            },
            "properties": {
                "isced:level": "1;2",
                "ref:rspo": 71380,
                "official_name": "Szko\u0142a Podstawowa im.antoniego Malaty\u0144skiego w Miechowie -Charsznicy",
                "name": "Szko\u0142a Podstawowa im.antoniego Malaty\u0144skiego w Miechowie -Charsznicy",
                "addr:postcode": "32-250",
                "addr:city": "Miech\u00f3w-Charsznica",
                "addr:street": "Szkolna",
                "addr:housenumber": "14",
                "addr:teryt:simc": 233595,
                "addr:teryt:sym_ul": 21970,
                "phone": "+48 413836016",
                "email": "szkolacharsznica@wp.pl",
                "website": "http:\/\/spcharsznica.szkolnastrona.pl",
                "ref:regon": "000580641",
                "ref:vatin": "PL6591525021",
                "operator": "Gmina Charsznica",
                "operator:type": "government",
                "amenity": "school"
            }
        },
        {
            "id": 128527,
            "type": "Feature",
            "geometry": {
                "type": "Point",
                "coordinates": [
                    19.9107835,
                    50.4113585
                ]
            },
            "properties": {
                "isced:level": "1;2",
                "ref:rspo": 128527,
                "official_name": "Szko\u0142a Podstawowa im.miko\u0142aja Kopernika w Swojczanach",
                "name": "Szko\u0142a Podstawowa im.miko\u0142aja Kopernika w Swojczanach",
                "addr:postcode": "32-250",
                "addr:place": "Swojczany",
                "addr:housenumber": "200",
                "addr:teryt:simc": 233690,
                "phone": "+48 413837516",
                "email": "spswojczany@wp.pl",
                "website": "http:\/\/spswojczany.szkolnastrona.pl",
                "ref:regon": "362307057",
                "operator": "Dorota Misiek",
                "operator:type": "private",
                "amenity": "school"
            }
        },
        {
            "id": 53917,
            "type": "Feature",
            "geometry": {
                "type": "Point",
                "coordinates": [
                    19.8891551,
                    50.422008
                ]
            },
            "properties": {
                "isced:level": "1;2",
                "ref:rspo": 53917,
                "official_name": "Szko\u0142a Podstawowa w Tczycy",
                "name": "Szko\u0142a Podstawowa w Tczycy",
                "addr:postcode": "32-250",
                "addr:place": "Tczyca",
                "addr:housenumber": "177",
                "addr:teryt:simc": 233796,
                "phone": "+48 413827211",
                "email": "tczycagim@op.pl",
                "website": "http:\/\/sptczyca.pl\/",
                "ref:regon": "001215837",
                "ref:vatin": "PL6591531582",
                "operator": "Gmina Charsznica",
                "operator:type": "government",
                "amenity": "school"
            }
        },
        {
            "id": 120351,
            "type": "Feature",
            "geometry": {
                "type": "Point",
                "coordinates": [
                    19.8891551,
                    50.421977999999996
                ]
            },
            "properties": {
                "ref:rspo": 120351,
                "official_name": "Punkt Przedszkolny Przy Szkole Podstawowej w Tczycy",
                "name": "Punkt Przedszkolny Przy Szkole Podstawowej w Tczycy",
                "addr:postcode": "32-250",
                "addr:place": "Tczyca",
                "addr:housenumber": "177",
                "addr:teryt:simc": 233796,
                "phone": "+48 413827211",
                "email": "tczycagim@op.pl",
                "ref:regon": "122955368",
                "operator": "Gmina Charsznica",
                "operator:type": "government",
                "amenity": "kindergarten"
            }
        },
        {
            "id": 128518,
            "type": "Feature",
            "geometry": {
                "type": "Point",
                "coordinates": [
                    19.9340829,
                    50.437117
                ]
            },
            "properties": {
                "isced:level": "1;2",
                "ref:rspo": 128518,
                "official_name": "Szko\u0142a Podstawowa w Pogwizdowie",
                "name": "Szko\u0142a Podstawowa w Pogwizdowie",
                "addr:postcode": "32-250",
                "addr:place": "Pogwizd\u00f3w",
                "addr:housenumber": "58",
                "addr:teryt:simc": 233684,
                "phone": "+48 413837124",
                "email": "pogwizdowsp@wp.pl",
                "ref:regon": "362307005",
                "operator": "Marta Ciepielak",
                "operator:type": "private",
                "amenity": "school"
            }
        },
        {
            "id": 128522,
            "type": "Feature",
            "geometry": {
                "type": "Point",
                "coordinates": [
                    19.9699172,
                    50.4373973
                ]
            },
            "properties": {
                "ref:rspo": 128522,
                "official_name": "Punkt Przedszkolyn Przy Szkole Podstawowej w Pogwizdowie",
                "name": "Punkt Przedszkolyn Przy Szkole Podstawowej w Pogwizdowie",
                "addr:postcode": "32-250",
                "addr:place": "Uniej\u00f3w-R\u0119dziny",
                "addr:housenumber": "50",
                "addr:teryt:simc": 233945,
                "phone": "+48 413837124",
                "email": "pogwizdowsp@wp.pl",
                "ref:regon": "362307063",
                "operator": "Marta Ciepielak",
                "operator:type": "private",
                "amenity": "kindergarten"
            }
        }
    ]
}