{
    "type": "FeatureCollection",
    "features": [
        {
            "id": 85334,
            "type": "Feature",
            "geometry": {
                "type": "Point",
                "coordinates": [
                    20.107884,
                    50.3224249
                ]
            },
            "properties": {
                "isced:level": "1;2",
                "ref:rspo": 85334,
                "official_name": "Szko\u0142a Podstawowa im. im. Gen. Stanis\u0142awa Maczka",
                "name": "Szko\u0142a Podstawowa",
                "addr:country": "PL",
                "addr:postcode": "32-200",
                "addr:place": "Poja\u0142owice",
                "addr:housenumber": "18",
                "addr:teryt:sym_ul": 251593,
                "contact:phone": "+48 413835005",
                "contact:email": "sppojalowice@poczta.onet.pl",
                "ref:regon": "000732418",
                "ref:vatin": "PL6591433626",
                "operator": "Gmina Miech\u00f3w",
                "operator:type": "government",
                "amenity": "school"
            }
        },
        {
            "id": 132470,
            "type": "Feature",
            "geometry": {
                "type": "Point",
                "coordinates": [
                    20.02963,
                    50.35137
                ]
            },
            "properties": {
                "ref:rspo": 132470,
                "official_name": "Niepubliczne Przedszkole J\u0119zykowe Biedroneczki",
                "name": "Niepubliczne Przedszkole J\u0119zykowe Biedroneczki",
                "addr:country": "PL",
                "addr:postcode": "32-200",
                "addr:city": "Miech\u00f3w",
                "addr:street": "os. Osiedle Stefana \u017beromskiego",
                "addr:housenumber": "1",
                "addr:teryt:simc": 48816,
                "addr:teryt:sym_ul": 947225,
                "contact:email": "p.biedroneczki@gmail.com",
                "contact:website": "http:\/\/przedszkolebiedroneczki.eu",
                "ref:regon": "365645197",
                "ref:vatin": "PL6591365793",
                "operator": "Filip Markiewicz",
                "operator:type": "private",
                "amenity": "kindergarten"
            }
        },
        {
            "id": 75589,
            "type": "Feature",
            "geometry": {
                "type": "Point",
                "coordinates": [
                    20.01892,
                    50.35288
                ]
            },
            "properties": {
                "ref:rspo": 75589,
                "official_name": "Pa\u0144stwowa Szko\u0142a Muzyczna I St. im. Micha\u0142a Kleofasa Ogi\u0144skiego w Miechowie",
                "name": "Pa\u0144stwowa Szko\u0142a Muzyczna I St.",
                "addr:country": "PL",
                "addr:postcode": "32-200",
                "addr:city": "Miech\u00f3w",
                "addr:street": "os. Osiedle gen. W\u0142adys\u0142awa Sikorskiego",
                "addr:housenumber": "15B",
                "addr:teryt:simc": 48815,
                "addr:teryt:sym_ul": 947225,
                "contact:phone": "+48 413831630",
                "contact:email": "sekretariat@psm.miechow.pl",
                "contact:website": "http:\/\/psm.miechow.pl",
                "ref:regon": "000277285",
                "operator": "Ministerstwo Kultury I Dziedzictwa Narodowego",
                "operator:type": "public",
                "amenity": "music_school"
            }
        },
        {
            "id": 85335,
            "type": "Feature",
            "geometry": {
                "type": "Point",
                "coordinates": [
                    20.0193,
                    50.3533
                ]
            },
            "properties": {
                "isced:level": "1;2",
                "ref:rspo": 85335,
                "official_name": "Szko\u0142a Podstawowa Nr 2 im. M. Konopnickiej w Miechowie",
                "name": "Szko\u0142a Podstawowa Nr 2",
                "addr:country": "PL",
                "addr:postcode": "32-200",
                "addr:city": "Miech\u00f3w",
                "addr:street": "os. gen. W\u0142adys\u0142awa Sikorskiego",
                "addr:housenumber": "15",
                "addr:door": "a",
                "addr:teryt:simc": 19905,
                "addr:teryt:sym_ul": 947225,
                "contact:phone": "+48 413830597",
                "contact:email": "sp2miechow@op.pl",
                "contact:website": "http:\/\/sp2miechow.szkolnastrona.pl",
                "ref:regon": "000732795",
                "ref:vatin": "PL6591433595",
                "operator": "Gmina Miech\u00f3w",
                "operator:type": "government",
                "amenity": "school"
            }
        },
        {
            "id": 269125,
            "type": "Feature",
            "geometry": {
                "type": "Point",
                "coordinates": [
                    20.01822,
                    50.35365
                ]
            },
            "properties": {
                "ref:rspo": 269125,
                "official_name": "Niepubliczne Przedszkole Z Oddzia\u0142ami Integracyjnymi \"Kubusiowy Ogr\u00f3d\"",
                "name": "Niepubliczne Przedszkole Z Oddzia\u0142ami Integracyjnymi \"Kubusiowy Ogr\u00f3d\"",
                "addr:country": "PL",
                "addr:postcode": "32-200",
                "addr:city": "Miech\u00f3w",
                "addr:street": "os. Osiedle gen. W\u0142adys\u0142awa Sikorskiego",
                "addr:housenumber": "13",
                "addr:teryt:simc": 48815,
                "addr:teryt:sym_ul": 947225,
                "ref:regon": "381373243",
                "operator": "Asmir Sp\u00f3\u0142ka Z Ograniczon\u0105 Odpowiedzialno\u015bci\u0105",
                "operator:type": "private",
                "amenity": "kindergarten"
            }
        },
        {
            "id": 85336,
            "type": "Feature",
            "geometry": {
                "type": "Point",
                "coordinates": [
                    20.03097,
                    50.35411
                ]
            },
            "properties": {
                "ref:rspo": 85336,
                "official_name": "Przedszkole Samorz\u0105dowe Nr 1 w Miechowie",
                "name": "Przedszkole Samorz\u0105dowe Nr 1 w Miechowie",
                "addr:country": "PL",
                "addr:postcode": "32-200",
                "addr:city": "Miech\u00f3w",
                "addr:street": "ul. Powsta\u0144c\u00f3w 1863 r.",
                "addr:housenumber": "13",
                "addr:teryt:simc": 17356,
                "addr:teryt:sym_ul": 947225,
                "contact:phone": "+48 413831205",
                "contact:email": "przedszkolenr1miechow@op.pl",
                "ref:regon": "356682618",
                "ref:vatin": "PL6591433371",
                "operator": "Gmina Miech\u00f3w",
                "operator:type": "government",
                "amenity": "kindergarten"
            }
        },
        {
            "id": 85337,
            "type": "Feature",
            "geometry": {
                "type": "Point",
                "coordinates": [
                    20.03377,
                    50.35475
                ]
            },
            "properties": {
                "ref:rspo": 85337,
                "official_name": "Przedszkole Samorz\u0105dowe Nr 2 w Miechowie",
                "name": "Przedszkole Samorz\u0105dowe Nr 2 w Miechowie",
                "addr:country": "PL",
                "addr:postcode": "32-200",
                "addr:city": "Miech\u00f3w",
                "addr:street": "ul. Jagiello\u0144ska",
                "addr:housenumber": "34",
                "addr:teryt:simc": 7029,
                "addr:teryt:sym_ul": 947225,
                "contact:phone": "+48 413831041",
                "contact:email": "przedszkole2miechow@wp.pl",
                "ref:regon": "356682676",
                "ref:vatin": "PL6591433069",
                "operator": "Gmina Miech\u00f3w",
                "operator:type": "government",
                "amenity": "kindergarten"
            }
        },
        {
            "id": 126911,
            "type": "Feature",
            "geometry": {
                "type": "Point",
                "coordinates": [
                    20.02638,
                    50.3549
                ]
            },
            "properties": {
                "ref:rspo": 126911,
                "official_name": "Niepubliczne Przedszkole \"Minilandia\" w Miechowie",
                "name": "Niepubliczne Przedszkole \"Minilandia\" w Miechowie",
                "addr:country": "PL",
                "addr:postcode": "32-200",
                "addr:city": "Miech\u00f3w",
                "addr:street": "ul. Juliusza S\u0142owackiego",
                "addr:housenumber": "15",
                "addr:teryt:simc": 20291,
                "addr:teryt:sym_ul": 947225,
                "contact:phone": "+48 511939589",
                "ref:regon": "360926810",
                "operator": "Monika Nowak",
                "operator:type": "private",
                "amenity": "kindergarten"
            }
        },
        {
            "id": 278542,
            "type": "Feature",
            "geometry": {
                "type": "Point",
                "coordinates": [
                    20.03271,
                    50.35552
                ]
            },
            "properties": {
                "ref:rspo": 278542,
                "official_name": "Niepubliczne Przedszkole Smerfusie",
                "name": "Niepubliczne Przedszkole Smerfusie",
                "addr:country": "PL",
                "addr:postcode": "32-200",
                "addr:city": "Miech\u00f3w",
                "addr:street": "ul. Jagiello\u0144ska",
                "addr:housenumber": "17",
                "addr:door": "A",
                "addr:teryt:simc": 7029,
                "addr:teryt:sym_ul": 947225,
                "contact:email": "przedszkole@smerfusie.com.pl",
                "contact:website": "http:\/\/www.smerfusie.com.pl",
                "ref:regon": "389964073",
                "operator": "Roksana Janus-Celesta",
                "operator:type": "private",
                "amenity": "kindergarten"
            }
        },
        {
            "id": 19430,
            "type": "Feature",
            "geometry": {
                "type": "Point",
                "coordinates": [
                    20.02171,
                    50.35644
                ]
            },
            "properties": {
                "ref:rspo": 19430,
                "official_name": "Bursa Szkolna w Miechowie",
                "name": "Bursa Szkolna w Miechowie",
                "addr:country": "PL",
                "addr:postcode": "32-200",
                "addr:city": "Miech\u00f3w",
                "addr:street": "ul. Henryka Sienkiewicza",
                "addr:housenumber": "27a",
                "addr:teryt:simc": 19834,
                "addr:teryt:sym_ul": 947225,
                "contact:phone": "+48 413831100",
                "contact:email": "bursa_miechow@o2.pl",
                "contact:website": "http:\/\/bursa.miechow.net",
                "ref:regon": "357189950",
                "ref:vatin": "PL6591174283",
                "operator": "Powiat Miechowski",
                "operator:type": "government",
                "building": "dormitory"
            }
        },
        {
            "id": 20849,
            "type": "Feature",
            "geometry": {
                "type": "Point",
                "coordinates": [
                    20.02171,
                    50.35641
                ]
            },
            "properties": {
                "ref:rspo": 20849,
                "official_name": "Szkolne Schronisko M\u0142odzie\u017cowe w Bursie Szkolnej w Miechowie",
                "name": "Szkolne Schronisko M\u0142odzie\u017cowe w Bursie Szkolnej w Miechowie",
                "addr:country": "PL",
                "addr:postcode": "32-200",
                "addr:city": "Miech\u00f3w",
                "addr:street": "ul. Henryka Sienkiewicza",
                "addr:housenumber": "27a",
                "addr:teryt:simc": 19834,
                "addr:teryt:sym_ul": 947225,
                "contact:phone": "+48 413830520",
                "contact:email": "bursa_miechow@o2.pl",
                "ref:regon": "121186867",
                "operator": "Powiat Miechowski",
                "operator:type": "government",
                "tourism": "hostel"
            }
        },
        {
            "id": 85342,
            "type": "Feature",
            "geometry": {
                "type": "Point",
                "coordinates": [
                    20.02637,
                    50.35647
                ]
            },
            "properties": {
                "ref:rspo": 85342,
                "official_name": "Niepubliczne Przedszkole \"Weso\u0142y Maluch",
                "name": "Niepubliczne Przedszkole \"Weso\u0142y Maluch",
                "addr:country": "PL",
                "addr:postcode": "32-200",
                "addr:city": "Miech\u00f3w",
                "addr:street": "pl. Ko\u015bciuszki",
                "addr:housenumber": "5",
                "addr:teryt:simc": 9569,
                "addr:teryt:sym_ul": 947225,
                "contact:phone": "+48 505130455",
                "ref:regon": "122711198",
                "ref:vatin": "PL6591432012",
                "operator": "Katarzyna Ziemnicka-Krzysztofek",
                "operator:type": "private",
                "amenity": "kindergarten"
            }
        },
        {
            "id": 20972,
            "type": "Feature",
            "geometry": {
                "type": "Point",
                "coordinates": [
                    20.03201,
                    50.35665
                ]
            },
            "properties": {
                "ref:rspo": 20972,
                "official_name": "Zesp\u00f3\u0142 Szk\u00f3\u0142 Nr 1 w Miechowie",
                "name": "Zesp\u00f3\u0142 Szk\u00f3\u0142 Nr 1 w Miechowie",
                "addr:country": "PL",
                "addr:postcode": "32-200",
                "addr:city": "Miech\u00f3w",
                "addr:street": "ul. Rac\u0142awicka",
                "addr:housenumber": "23",
                "addr:teryt:simc": 18273,
                "addr:teryt:sym_ul": 947225,
                "contact:phone": "+48 413831089",
                "contact:email": "ekonomik.miechow@gmail.com",
                "contact:website": "http:\/\/www.ekonomik.miechow.edu.pl",
                "ref:regon": "000182461",
                "ref:vatin": "PL6591175466",
                "operator": "Powiat Miechowski",
                "operator:type": "government",
                "landuse": "education",
                "fixme": "amenity=school, amenity=college albo landuse=education w zale\u017cno\u015bci od tego, jakie plac\u00f3wki wchodz\u0105 w sk\u0142ad zespo\u0142u. Sprawd\u017a, kiedy stosowa\u0107 amenity=* a kiedy landuse=education.",
                "note": "Children RSPO: 23453;27332;27356;104781;133090"
            }
        },
        {
            "id": 23453,
            "type": "Feature",
            "geometry": {
                "type": "Point",
                "coordinates": [
                    20.03201,
                    50.35662
                ]
            },
            "properties": {
                "isced:level": "3",
                "ref:rspo": 23453,
                "official_name": "Technikum",
                "name": "Technikum",
                "addr:country": "PL",
                "addr:postcode": "32-200",
                "addr:city": "Miech\u00f3w",
                "addr:street": "ul. Rac\u0142awicka",
                "addr:housenumber": "23",
                "addr:teryt:simc": 18273,
                "addr:teryt:sym_ul": 947225,
                "contact:phone": "+48 413831089",
                "contact:email": "ekonomik.miechow@gmail.com",
                "contact:website": "http:\/\/www.ekonomik.miechow.edu.pl",
                "ref:regon": "120150577",
                "operator": "Powiat Miechowski",
                "operator:type": "government",
                "amenity": "school",
                "note": "Parent RSPO: 20972"
            }
        },
        {
            "id": 27332,
            "type": "Feature",
            "geometry": {
                "type": "Point",
                "coordinates": [
                    20.03201,
                    50.356590000000004
                ]
            },
            "properties": {
                "isced:level": "4",
                "ref:rspo": 27332,
                "official_name": "Szko\u0142a Policealna",
                "name": "Szko\u0142a Policealna",
                "addr:country": "PL",
                "addr:postcode": "32-200",
                "addr:city": "Miech\u00f3w",
                "addr:street": "ul. Rac\u0142awicka",
                "addr:housenumber": "23",
                "addr:teryt:simc": 18273,
                "addr:teryt:sym_ul": 947225,
                "contact:phone": "+48 413831089",
                "contact:email": "ekonomik.miechow@gmail.com",
                "contact:website": "http:\/\/www.ekonomik.miechow.edu.pl",
                "ref:regon": "122680440",
                "operator": "Powiat Miechowski",
                "operator:type": "government",
                "amenity": "college",
                "note": "Parent RSPO: 20972"
            }
        },
        {
            "id": 27356,
            "type": "Feature",
            "geometry": {
                "type": "Point",
                "coordinates": [
                    20.03201,
                    50.35656
                ]
            },
            "properties": {
                "isced:level": "3",
                "ref:rspo": 27356,
                "official_name": "Bran\u017cowa Szko\u0142a I Stopnia",
                "name": "Bran\u017cowa Szko\u0142a I Stopnia",
                "addr:country": "PL",
                "addr:postcode": "32-200",
                "addr:city": "Miech\u00f3w",
                "addr:street": "ul. Rac\u0142awicka",
                "addr:housenumber": "23",
                "addr:teryt:simc": 18273,
                "addr:teryt:sym_ul": 947225,
                "contact:phone": "+48 413831089",
                "contact:email": "ekonomik.miechow@gmail.com",
                "contact:website": "http:\/\/www.ekonomik.miechow.edu.pl",
                "ref:regon": "357231697",
                "operator": "Powiat Miechowski",
                "operator:type": "government",
                "amenity": "school",
                "note": "Parent RSPO: 20972"
            }
        },
        {
            "id": 104781,
            "type": "Feature",
            "geometry": {
                "type": "Point",
                "coordinates": [
                    20.03201,
                    50.35653
                ]
            },
            "properties": {
                "isced:level": "3",
                "ref:rspo": 104781,
                "official_name": "Liceum Og\u00f3lnokszta\u0142c\u0105ce dla Doros\u0142ych",
                "name": "Liceum Og\u00f3lnokszta\u0142c\u0105ce dla Doros\u0142ych",
                "addr:country": "PL",
                "addr:postcode": "32-200",
                "addr:city": "Miech\u00f3w",
                "addr:street": "ul. Rac\u0142awicka",
                "addr:housenumber": "23",
                "addr:teryt:simc": 18273,
                "addr:teryt:sym_ul": 947225,
                "contact:phone": "+48 413831089",
                "contact:email": "ekonomik.miechow@gmail.com",
                "contact:website": "http:\/\/www.ekonomik.miechow.edu.pl",
                "ref:regon": "122742460",
                "operator": "Powiat Miechowski",
                "operator:type": "government",
                "amenity": "school",
                "note": "Parent RSPO: 20972"
            }
        },
        {
            "id": 133090,
            "type": "Feature",
            "geometry": {
                "type": "Point",
                "coordinates": [
                    20.03201,
                    50.356500000000004
                ]
            },
            "properties": {
                "ref:rspo": 133090,
                "official_name": "Publiczne Centrum Kszta\u0142cenia Zawodowego w Zespole Szk\u00f3\u0142 Nr 1 w Miechowie",
                "name": "Publiczne Centrum Kszta\u0142cenia Zawodowego w Zespole Szk\u00f3\u0142 Nr 1 w Miechowie",
                "addr:country": "PL",
                "addr:postcode": "32-200",
                "addr:city": "Miech\u00f3w",
                "addr:street": "ul. Rac\u0142awicka",
                "addr:housenumber": "23",
                "addr:teryt:simc": 18273,
                "addr:teryt:sym_ul": 947225,
                "contact:phone": "+48 413831089",
                "contact:email": "ekonomik@miechow.iap.pl",
                "ref:regon": "366617843",
                "operator": "Powiat Miechowski",
                "operator:type": "government",
                "fixme": "w zale\u017cno\u015bci od przedmiotu dzia\u0142alno\u015bci (np. amenity=training + training=*, amenity=dancing_school, amenity=language_school, amenity=music_school) albo amenity=school, amenity=college, albo landuse=education w zale\u017cno\u015bci od tego, jakie plac\u00f3wki wchodz\u0105 w sk\u0142ad zespo\u0142u. Sprawd\u017a, kiedy stosowa\u0107 amenity=* a kiedy landuse=education.",
                "note": "Parent RSPO: 20972"
            }
        },
        {
            "id": 19384,
            "type": "Feature",
            "geometry": {
                "type": "Point",
                "coordinates": [
                    20.0328899,
                    50.35709
                ]
            },
            "properties": {
                "isced:level": "3",
                "ref:rspo": 19384,
                "official_name": "Liceum Og\u00f3lnokszta\u0142c\u0105ce im. Tadeusza Ko\u015bciuszki w Miechowie",
                "name": "Liceum Og\u00f3lnokszta\u0142c\u0105ce",
                "addr:country": "PL",
                "addr:postcode": "32-200",
                "addr:city": "Miech\u00f3w",
                "addr:street": "ul. Marii Konopnickiej",
                "addr:housenumber": "2",
                "addr:teryt:simc": 9186,
                "addr:teryt:sym_ul": 947225,
                "contact:phone": "+48 413831035",
                "contact:email": "lo@miechow.pl",
                "ref:regon": "000732453",
                "ref:vatin": "PL6591175503",
                "operator": "Powiat Miechowski",
                "operator:type": "government",
                "amenity": "school"
            }
        },
        {
            "id": 20838,
            "type": "Feature",
            "geometry": {
                "type": "Point",
                "coordinates": [
                    20.02148,
                    50.35712
                ]
            },
            "properties": {
                "ref:rspo": 20838,
                "official_name": "Poradnia Psychologiczno-Pedagogiczna w Miechowie",
                "name": "Poradnia Psychologiczno-Pedagogiczna w Miechowie",
                "addr:country": "PL",
                "addr:postcode": "32-200",
                "addr:city": "Miech\u00f3w",
                "addr:street": "ul. Henryka Sienkiewicza",
                "addr:housenumber": "20",
                "addr:teryt:simc": 19834,
                "addr:teryt:sym_ul": 947225,
                "contact:phone": "+48 413830520",
                "contact:email": "poradnia@miechow.com",
                "contact:website": "http:\/\/ppp.miechow.pl",
                "ref:regon": "001014412",
                "ref:vatin": "PL6591434100",
                "operator": "Powiat Miechowski",
                "operator:type": "government",
                "healthcare": "counselling",
                "counselling_type": "education",
                "fixme": "w zale\u017cno\u015bci od przedmiotu dzia\u0142alno\u015bci (np. healthcare=counselling + counselling_type=education albo healthcare=psychotherapist)"
            }
        },
        {
            "id": 29253,
            "type": "Feature",
            "geometry": {
                "type": "Point",
                "coordinates": [
                    20.0187,
                    50.35737
                ]
            },
            "properties": {
                "ref:rspo": 29253,
                "official_name": "O\u015brodek Rehabilitacyjno-Edukacyjno-Wychowawczy",
                "name": "O\u015brodek Rehabilitacyjno-Edukacyjno-Wychowawczy",
                "addr:country": "PL",
                "addr:postcode": "32-200",
                "addr:city": "Miech\u00f3w",
                "addr:street": "ul. Henryka Sienkiewicza",
                "addr:housenumber": "24",
                "addr:teryt:simc": 19834,
                "addr:teryt:sym_ul": 947225,
                "contact:phone": "+48 413830923",
                "contact:email": "osrodekmiechow@interia.pl",
                "contact:website": "http:\/\/www.psonimiechow.pl",
                "ref:regon": "122682901",
                "ref:vatin": "PL6591329998",
                "operator": "Polskie Stowarzyszenie Na Rzecz Os\u00f3b Z Niepe\u0142nosprawno\u015bci\u0105 Intelektualn\u0105  Ko\u0142o W Miechowie",
                "operator:type": "ngo",
                "amenity": "school"
            }
        },
        {
            "id": 85330,
            "type": "Feature",
            "geometry": {
                "type": "Point",
                "coordinates": [
                    20.0808739,
                    50.358391
                ]
            },
            "properties": {
                "isced:level": "1;2",
                "ref:rspo": 85330,
                "official_name": "Szko\u0142a Podstawowa im. Samodzielnej Brygady Strzelc\u00f3w Karpackich -Obro\u0144c\u00f3w Tobruku",
                "name": "Szko\u0142a Podstawowa",
                "addr:country": "PL",
                "addr:postcode": "32-200",
                "addr:place": "Bukowska Wola",
                "addr:housenumber": "79",
                "addr:teryt:sym_ul": 251110,
                "contact:phone": "+48 413831655",
                "contact:email": "bukowska79@gmail.com",
                "contact:website": "http:\/\/www.spbukowskawola.eu",
                "ref:regon": "000732803",
                "ref:vatin": "PL6591424426",
                "operator": "Gmina Miech\u00f3w",
                "operator:type": "government",
                "amenity": "school"
            }
        },
        {
            "id": 85333,
            "type": "Feature",
            "geometry": {
                "type": "Point",
                "coordinates": [
                    20.03433,
                    50.35892
                ]
            },
            "properties": {
                "isced:level": "1;2",
                "ref:rspo": 85333,
                "official_name": "Szko\u0142a Podstawowa Nr 1 im. Henryka Sienkiewicza w Miechowie",
                "name": "Szko\u0142a Podstawowa Nr 1",
                "addr:country": "PL",
                "addr:postcode": "32-200",
                "addr:city": "Miech\u00f3w",
                "addr:street": "ul. Marii Konopnickiej",
                "addr:housenumber": "13",
                "addr:teryt:simc": 9186,
                "addr:teryt:sym_ul": 947225,
                "contact:phone": "+48 413831259",
                "contact:email": "jedynkaspm@wp.pl",
                "contact:website": "http:\/\/www.jedynkamiechow.pl",
                "ref:regon": "000732789",
                "ref:vatin": "PL6591433589",
                "operator": "Gmina Miech\u00f3w",
                "operator:type": "government",
                "amenity": "school"
            }
        },
        {
            "id": 85338,
            "type": "Feature",
            "geometry": {
                "type": "Point",
                "coordinates": [
                    20.03433,
                    50.358889999999995
                ]
            },
            "properties": {
                "ref:rspo": 85338,
                "official_name": "Przedszkole Samorz\u0105dowe Nr 3 w Miechowie",
                "name": "Przedszkole Samorz\u0105dowe Nr 3 w Miechowie",
                "addr:country": "PL",
                "addr:postcode": "32-200",
                "addr:city": "Miech\u00f3w",
                "addr:street": "ul. Marii Konopnickiej",
                "addr:housenumber": "13",
                "addr:door": "a",
                "addr:teryt:simc": 9186,
                "addr:teryt:sym_ul": 947225,
                "contact:phone": "+48 413831301",
                "contact:email": "przed.sam.nr.3.miechow4@wp.pl",
                "ref:regon": "356682647",
                "ref:vatin": "PL6591433365",
                "operator": "Gmina Miech\u00f3w",
                "operator:type": "government",
                "amenity": "kindergarten"
            }
        },
        {
            "id": 20990,
            "type": "Feature",
            "geometry": {
                "type": "Point",
                "coordinates": [
                    20.04614,
                    50.36099
                ]
            },
            "properties": {
                "ref:rspo": 20990,
                "official_name": "Zesp\u00f3\u0142 Szk\u00f3\u0142 Nr 2 im. Jana Paw\u0142a II w Miechowie",
                "name": "Zesp\u00f3\u0142 Szk\u00f3\u0142 Nr 2",
                "addr:country": "PL",
                "addr:postcode": "32-200",
                "addr:city": "Miech\u00f3w",
                "addr:street": "ul. Boles\u0142awa Prusa",
                "addr:housenumber": "2",
                "addr:teryt:simc": 17577,
                "addr:teryt:sym_ul": 947225,
                "contact:phone": "+48 413831174",
                "contact:email": "zs2miechow@o2.pl",
                "contact:website": "http:\/\/www.zs2.miechow.pl\/zs2miechow\/index.php",
                "ref:regon": "000185904",
                "ref:vatin": "PL6591251724",
                "operator": "Powiat Miechowski",
                "operator:type": "government",
                "landuse": "education",
                "fixme": "amenity=school, amenity=college albo landuse=education w zale\u017cno\u015bci od tego, jakie plac\u00f3wki wchodz\u0105 w sk\u0142ad zespo\u0142u. Sprawd\u017a, kiedy stosowa\u0107 amenity=* a kiedy landuse=education.",
                "note": "Children RSPO: 23322;23371;23433;131814;275686"
            }
        },
        {
            "id": 23322,
            "type": "Feature",
            "geometry": {
                "type": "Point",
                "coordinates": [
                    20.04614,
                    50.36096
                ]
            },
            "properties": {
                "isced:level": "4",
                "ref:rspo": 23322,
                "official_name": "Szko\u0142a Policealna",
                "name": "Szko\u0142a Policealna",
                "addr:country": "PL",
                "addr:postcode": "32-200",
                "addr:city": "Miech\u00f3w",
                "addr:street": "ul. Boles\u0142awa Prusa",
                "addr:housenumber": "2",
                "addr:teryt:simc": 17577,
                "addr:teryt:sym_ul": 947225,
                "contact:phone": "+48 413831174",
                "ref:regon": "356568124",
                "operator": "Powiat Miechowski",
                "operator:type": "government",
                "amenity": "college",
                "note": "Parent RSPO: 20990"
            }
        },
        {
            "id": 23371,
            "type": "Feature",
            "geometry": {
                "type": "Point",
                "coordinates": [
                    20.04614,
                    50.36093
                ]
            },
            "properties": {
                "isced:level": "3",
                "ref:rspo": 23371,
                "official_name": "Bran\u017cowa Szko\u0142a I Stopnia",
                "name": "Bran\u017cowa Szko\u0142a I Stopnia",
                "addr:country": "PL",
                "addr:postcode": "32-200",
                "addr:city": "Miech\u00f3w",
                "addr:street": "ul. Boles\u0142awa Prusa",
                "addr:housenumber": "2",
                "addr:teryt:simc": 17577,
                "addr:teryt:sym_ul": 947225,
                "contact:phone": "+48 413831174",
                "contact:email": "zs2miechow@o2.pl",
                "ref:regon": "356568176",
                "operator": "Powiat Miechowski",
                "operator:type": "government",
                "amenity": "school",
                "note": "Parent RSPO: 20990"
            }
        },
        {
            "id": 23433,
            "type": "Feature",
            "geometry": {
                "type": "Point",
                "coordinates": [
                    20.04614,
                    50.3609
                ]
            },
            "properties": {
                "isced:level": "3",
                "ref:rspo": 23433,
                "official_name": "Technikum",
                "name": "Technikum",
                "addr:country": "PL",
                "addr:postcode": "32-200",
                "addr:city": "Miech\u00f3w",
                "addr:street": "ul. Boles\u0142awa Prusa",
                "addr:housenumber": "2",
                "addr:teryt:simc": 17577,
                "addr:teryt:sym_ul": 947225,
                "contact:phone": "+48 413831174",
                "ref:regon": "356568160",
                "operator": "Powiat Miechowski",
                "operator:type": "government",
                "amenity": "school",
                "note": "Parent RSPO: 20990"
            }
        },
        {
            "id": 131814,
            "type": "Feature",
            "geometry": {
                "type": "Point",
                "coordinates": [
                    20.04614,
                    50.36087
                ]
            },
            "properties": {
                "ref:rspo": 131814,
                "official_name": "Publiczne Centrum Kszta\u0142cenia Zawodowego w Zespole Szk\u00f3\u0142 Nr 2 im. Jana Paw\u0142a II w Miechowie",
                "name": "Publiczne Centrum Kszta\u0142cenia Zawodowego w Zespole Szk\u00f3\u0142 Nr 2",
                "addr:country": "PL",
                "addr:postcode": "32-200",
                "addr:city": "Miech\u00f3w",
                "addr:street": "ul. Boles\u0142awa Prusa",
                "addr:housenumber": "2",
                "addr:door": "-",
                "addr:teryt:simc": 17577,
                "addr:teryt:sym_ul": 947225,
                "contact:phone": "+48 413831174",
                "contact:email": "zs2miechow@o2.pl",
                "ref:regon": "365351283",
                "operator": "Powiat Miechowski",
                "operator:type": "government",
                "fixme": "w zale\u017cno\u015bci od przedmiotu dzia\u0142alno\u015bci (np. amenity=training + training=*, amenity=dancing_school, amenity=language_school, amenity=music_school) albo amenity=school, amenity=college, albo landuse=education w zale\u017cno\u015bci od tego, jakie plac\u00f3wki wchodz\u0105 w sk\u0142ad zespo\u0142u. Sprawd\u017a, kiedy stosowa\u0107 amenity=* a kiedy landuse=education.",
                "note": "Parent RSPO: 20990"
            }
        },
        {
            "id": 275686,
            "type": "Feature",
            "geometry": {
                "type": "Point",
                "coordinates": [
                    20.04614,
                    50.36084
                ]
            },
            "properties": {
                "isced:level": "3",
                "ref:rspo": 275686,
                "official_name": "Bran\u017cowa Szko\u0142a II Stopnia w Miechowie",
                "name": "Bran\u017cowa Szko\u0142a II Stopnia w Miechowie",
                "addr:country": "PL",
                "addr:postcode": "32-200",
                "addr:city": "Miech\u00f3w",
                "addr:street": "ul. Boles\u0142awa Prusa",
                "addr:housenumber": "2",
                "addr:teryt:simc": 17577,
                "addr:teryt:sym_ul": 947225,
                "contact:phone": "+48 413831174",
                "contact:email": "zs2miechow@o2.pl",
                "contact:website": "http:\/\/www.zs2.miechow.pl",
                "ref:regon": "386933362",
                "operator": "Powiat Miechowski",
                "operator:type": "government",
                "amenity": "school",
                "note": "Parent RSPO: 20990"
            }
        },
        {
            "id": 56509,
            "type": "Feature",
            "geometry": {
                "type": "Point",
                "coordinates": [
                    20.045040130615,
                    50.367259979248
                ]
            },
            "properties": {
                "isced:level": "3",
                "ref:rspo": 56509,
                "official_name": "Niepubliczne Liceum Og\u00f3lnokszta\u0142cace dla Doros\u0142ych w Miechowie Zak\u0142adu Doskonalenia Zawodowego w Kielcach",
                "name": "Niepubliczne Liceum Og\u00f3lnokszta\u0142cace dla Doros\u0142ych w Miechowie Zak\u0142adu Doskonalenia Zawodowego w Kielcach",
                "addr:country": "PL",
                "addr:postcode": "32-200",
                "addr:city": "Miech\u00f3w",
                "addr:street": "ul. ks. Skorupki",
                "addr:housenumber": "3",
                "addr:teryt:simc": 20098,
                "addr:teryt:sym_ul": 947225,
                "contact:phone": "+48 413831900",
                "contact:email": "miechow@zdz.kielce.pl",
                "contact:website": "http:\/\/www.szkolymiechow.zdz.kielce.pl",
                "ref:regon": "122705795",
                "operator": "Zak\u0142ad Doskonalenia Zawodowego W Kielcach",
                "operator:type": "ngo",
                "amenity": "school"
            }
        },
        {
            "id": 68023,
            "type": "Feature",
            "geometry": {
                "type": "Point",
                "coordinates": [
                    20.045040130615,
                    50.367229979247995
                ]
            },
            "properties": {
                "isced:level": "3",
                "ref:rspo": 68023,
                "official_name": "Niepubliczne Liceum Og\u00f3lnokszta\u0142c\u0105ce w Miechowie Zak\u0142adu Doskonalenia Zawodowego w Kielcach",
                "name": "Niepubliczne Liceum Og\u00f3lnokszta\u0142c\u0105ce w Miechowie Zak\u0142adu Doskonalenia Zawodowego w Kielcach",
                "addr:country": "PL",
                "addr:postcode": "32-200",
                "addr:city": "Miech\u00f3w",
                "addr:street": "ul. ks. Skorupki",
                "addr:housenumber": "3",
                "addr:teryt:simc": 20098,
                "addr:teryt:sym_ul": 947225,
                "contact:phone": "+48 413834635",
                "contact:email": "miechow@zdz.kielce.pl",
                "ref:regon": "122696406",
                "operator": "Zak\u0142ad Doskonalenia Zawodowego W Kielcach",
                "operator:type": "ngo",
                "amenity": "school"
            }
        },
        {
            "id": 74592,
            "type": "Feature",
            "geometry": {
                "type": "Point",
                "coordinates": [
                    20.045040130615,
                    50.367199979248
                ]
            },
            "properties": {
                "ref:rspo": 74592,
                "official_name": "Centrum Kszta\u0142cenia Zawodowego w Miechowie",
                "name": "Centrum Kszta\u0142cenia Zawodowego w Miechowie",
                "addr:country": "PL",
                "addr:postcode": "32-200",
                "addr:city": "Miech\u00f3w",
                "addr:street": "ul. ks. Skorupki",
                "addr:housenumber": "3",
                "addr:teryt:simc": 20098,
                "addr:teryt:sym_ul": 947225,
                "contact:phone": "+48 413831900",
                "ref:regon": "122702934",
                "operator": "Zak\u0142ad Doskonalenia Zawodowego W Kielcach",
                "operator:type": "ngo",
                "fixme": "w zale\u017cno\u015bci od przedmiotu dzia\u0142alno\u015bci (np. amenity=training + training=*, amenity=dancing_school, amenity=language_school, amenity=music_school) albo amenity=school, amenity=college, albo landuse=education w zale\u017cno\u015bci od tego, jakie plac\u00f3wki wchodz\u0105 w sk\u0142ad zespo\u0142u. Sprawd\u017a, kiedy stosowa\u0107 amenity=* a kiedy landuse=education."
            }
        },
        {
            "id": 130788,
            "type": "Feature",
            "geometry": {
                "type": "Point",
                "coordinates": [
                    20.045040130615,
                    50.367169979248
                ]
            },
            "properties": {
                "isced:level": "3",
                "ref:rspo": 130788,
                "official_name": "Niepubliczne Technikum w Miechowie Zak\u0142adu Doskonalenia Zawodowego w Kielcach",
                "name": "Niepubliczne Technikum w Miechowie Zak\u0142adu Doskonalenia Zawodowego w Kielcach",
                "addr:country": "PL",
                "addr:postcode": "32-200",
                "addr:city": "Miech\u00f3w",
                "addr:street": "ul. ks. Skorupki",
                "addr:housenumber": "3",
                "addr:teryt:simc": 20098,
                "addr:teryt:sym_ul": 947225,
                "contact:phone": "+48 413834635",
                "contact:email": "miechow@zdz.kielce.pl",
                "contact:website": "http:\/\/www.szkolymiechow.zdz.kielce.pl",
                "ref:regon": "364512212",
                "operator": "Zak\u0142ad Doskonalenia Zawodowego W Kielcach",
                "operator:type": "ngo",
                "amenity": "school"
            }
        },
        {
            "id": 133764,
            "type": "Feature",
            "geometry": {
                "type": "Point",
                "coordinates": [
                    20.045040130615,
                    50.367139979247995
                ]
            },
            "properties": {
                "ref:rspo": 133764,
                "official_name": "Niepubliczna Plac\u00f3wka Kszta\u0142cenia Ustawicznego Horyzont",
                "name": "Niepubliczna Plac\u00f3wka Kszta\u0142cenia Ustawicznego Horyzont",
                "addr:country": "PL",
                "addr:postcode": "32-200",
                "addr:city": "Miech\u00f3w",
                "addr:street": "ul. ks. Skorupki",
                "addr:housenumber": "4",
                "addr:door": "41",
                "addr:teryt:simc": 20098,
                "addr:teryt:sym_ul": 947225,
                "contact:phone": "+48 691516888",
                "ref:regon": "367600081",
                "operator": "El\u017cbieta Kasperczyk",
                "operator:type": "private",
                "fixme": "w zale\u017cno\u015bci od przedmiotu dzia\u0142alno\u015bci (np. amenity=training + training=*, amenity=dancing_school, amenity=language_school, amenity=music_school)"
            }
        },
        {
            "id": 262314,
            "type": "Feature",
            "geometry": {
                "type": "Point",
                "coordinates": [
                    20.045040130615,
                    50.367109979248
                ]
            },
            "properties": {
                "isced:level": "4",
                "ref:rspo": 262314,
                "official_name": "Niepubliczna Szko\u0142a Policealna w Miechowie Zak\u0142adu Doskonalenia Zawodowego w Kielcach",
                "name": "Niepubliczna Szko\u0142a Policealna w Miechowie Zak\u0142adu Doskonalenia Zawodowego w Kielcach",
                "addr:country": "PL",
                "addr:postcode": "32-200",
                "addr:city": "Miech\u00f3w",
                "addr:street": "ul. ks. Skorupki",
                "addr:housenumber": "3",
                "addr:teryt:simc": 20098,
                "addr:teryt:sym_ul": 947225,
                "contact:phone": "+48 413834635",
                "contact:email": "miechow@zdz.kielce.pl",
                "contact:website": "https:\/\/szkolymiechow.zdz.kielce.pl\/",
                "ref:regon": "367995240",
                "operator": "Zak\u0142ad Doskonalenia Zawodowego W Kielcach",
                "operator:type": "ngo",
                "amenity": "college"
            }
        },
        {
            "id": 272139,
            "type": "Feature",
            "geometry": {
                "type": "Point",
                "coordinates": [
                    20.045040130615,
                    50.367079979248
                ]
            },
            "properties": {
                "isced:level": "3",
                "ref:rspo": 272139,
                "official_name": "Niepubliczna Bran\u017cowa Szko\u0142a I Stopnia w Miechowie",
                "name": "Niepubliczna Bran\u017cowa Szko\u0142a I Stopnia w Miechowie",
                "addr:country": "PL",
                "addr:postcode": "32-200",
                "addr:city": "Miech\u00f3w",
                "addr:street": "ul. ks. Skorupki",
                "addr:housenumber": "3",
                "addr:teryt:simc": 20098,
                "addr:teryt:sym_ul": 947225,
                "contact:phone": "+48 413831900",
                "contact:email": "miechow@zdz.kielce.pl",
                "contact:website": "http:\/\/www.szkolymiechow.zdz.kielce.pl",
                "ref:regon": "383958864",
                "operator": "Zak\u0142ad Doskonalenia Zawodowego W Kielcach",
                "operator:type": "ngo",
                "amenity": "school"
            }
        },
        {
            "id": 24930,
            "type": "Feature",
            "geometry": {
                "type": "Point",
                "coordinates": [
                    20.045040130615,
                    50.367049979247994
                ]
            },
            "properties": {
                "ref:rspo": 24930,
                "official_name": "Pedagogiczna Biblioteka Wojew\u00f3dzka im. Hugona Ko\u0142\u0142\u0105taja w Krakowie Filia w Miechowie",
                "name": "Pedagogiczna Biblioteka Wojew\u00f3dzka",
                "addr:country": "PL",
                "addr:postcode": "32-200",
                "addr:city": "Miech\u00f3w",
                "addr:street": "ul. ks. Skorupki",
                "addr:housenumber": "4",
                "addr:teryt:simc": 20098,
                "addr:teryt:sym_ul": 947225,
                "contact:phone": "+48 413831232",
                "contact:email": "filia.miechow@pbw.edu.pl",
                "ref:regon": "197729000",
                "operator": "Wojew\u00f3dztwo Ma\u0142opolskie",
                "operator:type": "government",
                "amenity": "library",
                "note": "Parent RSPO: 19644"
            }
        },
        {
            "id": 20464,
            "type": "Feature",
            "geometry": {
                "type": "Point",
                "coordinates": [
                    20.0134209,
                    50.3790009
                ]
            },
            "properties": {
                "ref:rspo": 20464,
                "official_name": "Specjalny O\u015brodek Szkolno-Wychowawczy im. Jaksy Herbu Gryf w Zagorzycach",
                "name": "Specjalny O\u015brodek Szkolno-Wychowawczy",
                "addr:country": "PL",
                "addr:postcode": "32-200",
                "addr:place": "Zagorzyce",
                "addr:housenumber": "9",
                "addr:teryt:sym_ul": 251995,
                "contact:phone": "+48 413831217",
                "contact:email": "sekretariat@szkolazagorzyce.pl",
                "contact:website": "https:\/\/szkolazagorzyce.pl",
                "ref:regon": "000195707",
                "ref:vatin": "PL6591176193",
                "operator": "Powiat Miechowski",
                "operator:type": "government",
                "amenity": "school",
                "note": "Children RSPO: 51425;55106;55110;124035"
            }
        },
        {
            "id": 51425,
            "type": "Feature",
            "geometry": {
                "type": "Point",
                "coordinates": [
                    20.0134209,
                    50.3789709
                ]
            },
            "properties": {
                "ref:rspo": 51425,
                "official_name": "Szko\u0142a Specjalna Przysposabiajaca Do Pracy",
                "name": "Szko\u0142a Specjalna Przysposabiajaca Do Pracy",
                "addr:country": "PL",
                "addr:postcode": "32-200",
                "addr:place": "Zagorzyce",
                "addr:housenumber": "9",
                "addr:teryt:sym_ul": 251995,
                "contact:phone": "+48 413831217",
                "contact:email": "sekretariat@szkolazagorzyce.pl",
                "contact:website": "https:\/\/szkolazagorzyce.pl",
                "ref:regon": "120238473",
                "operator": "Powiat Miechowski",
                "operator:type": "government",
                "amenity": "school",
                "note": "Parent RSPO: 20464"
            }
        },
        {
            "id": 55106,
            "type": "Feature",
            "geometry": {
                "type": "Point",
                "coordinates": [
                    20.0134209,
                    50.3789409
                ]
            },
            "properties": {
                "isced:level": "1;2",
                "ref:rspo": 55106,
                "official_name": "Szko\u0142a Podstawowa Specjalna",
                "name": "Szko\u0142a Podstawowa Specjalna",
                "addr:country": "PL",
                "addr:postcode": "32-200",
                "addr:place": "Zagorzyce",
                "addr:housenumber": "9",
                "addr:teryt:sym_ul": 251995,
                "contact:phone": "+48 413831217",
                "contact:email": "sekretariat@szkolazagorzyce.pl",
                "contact:website": "https:\/\/szkolazagorzyce.pl\/",
                "ref:regon": "001014323",
                "operator": "Powiat Miechowski",
                "operator:type": "government",
                "amenity": "school",
                "note": "Parent RSPO: 20464"
            }
        },
        {
            "id": 55110,
            "type": "Feature",
            "geometry": {
                "type": "Point",
                "coordinates": [
                    20.0134209,
                    50.3789109
                ]
            },
            "properties": {
                "isced:level": "3",
                "ref:rspo": 55110,
                "official_name": "Bran\u017cowa Szko\u0142a I Stopnia Specjalna",
                "name": "Bran\u017cowa Szko\u0142a I Stopnia Specjalna",
                "addr:country": "PL",
                "addr:postcode": "32-200",
                "addr:place": "Zagorzyce",
                "addr:housenumber": "9",
                "addr:teryt:sym_ul": 251995,
                "contact:phone": "+48 413831217",
                "contact:email": "sekretariat@szkolazagorzyce.pl",
                "contact:website": "https:\/\/szkolazagorzyce.pl\/",
                "ref:regon": "356831981",
                "operator": "Powiat Miechowski",
                "operator:type": "government",
                "amenity": "school",
                "note": "Parent RSPO: 20464"
            }
        },
        {
            "id": 124035,
            "type": "Feature",
            "geometry": {
                "type": "Point",
                "coordinates": [
                    20.0134209,
                    50.3788809
                ]
            },
            "properties": {
                "ref:rspo": 124035,
                "official_name": "Przedszkole Specjalne w Specjalnym O\u015brodku Szkolno-Wychowawczym w Zagorzycach",
                "name": "Przedszkole Specjalne w Specjalnym O\u015brodku Szkolno-Wychowawczym w Zagorzycach",
                "addr:country": "PL",
                "addr:postcode": "32-200",
                "addr:place": "Zagorzyce",
                "addr:housenumber": "9",
                "addr:teryt:sym_ul": 251995,
                "contact:phone": "+48 413831217",
                "contact:email": "sekretariat@szkolazagorzyce.pl",
                "contact:website": "https:\/\/szkolazagorzyce.pl",
                "ref:regon": "123185091",
                "operator": "Powiat Miechowski",
                "operator:type": "government",
                "amenity": "kindergarten",
                "note": "Parent RSPO: 20464"
            }
        },
        {
            "id": 85332,
            "type": "Feature",
            "geometry": {
                "type": "Point",
                "coordinates": [
                    20.069612503052,
                    50.390590667725
                ]
            },
            "properties": {
                "isced:level": "1;2",
                "ref:rspo": 85332,
                "official_name": "Szko\u0142a Podstawowa im. Adama Mickiewicza w Jaksicach",
                "name": "Szko\u0142a Podstawowa",
                "addr:country": "PL",
                "addr:postcode": "32-200",
                "addr:place": "Jaksice",
                "addr:housenumber": "110",
                "addr:teryt:sym_ul": 251274,
                "contact:phone": "+48 413831317",
                "contact:email": "hpiskorz@op.pl",
                "contact:website": "http:\/\/www.szkolajaksice.szkolnastrona.pl",
                "ref:regon": "000732826",
                "ref:vatin": "PL6591433566",
                "operator": "Gmina Miech\u00f3w",
                "operator:type": "government",
                "amenity": "school"
            }
        },
        {
            "id": 85331,
            "type": "Feature",
            "geometry": {
                "type": "Point",
                "coordinates": [
                    20.0170511,
                    50.3956839
                ]
            },
            "properties": {
                "isced:level": "1;2",
                "ref:rspo": 85331,
                "official_name": "Szko\u0142a Podstawowa w Pstroszycach",
                "name": "Szko\u0142a Podstawowa w Pstroszycach",
                "addr:country": "PL",
                "addr:postcode": "32-200",
                "addr:place": "Pstroszyce Pierwsze",
                "addr:housenumber": "66",
                "addr:teryt:sym_ul": 251759,
                "contact:phone": "+48 413831554",
                "contact:email": "sppstroszyce@interia.eu",
                "ref:regon": "000732401",
                "ref:vatin": "PL6591433649",
                "operator": "Gmina Miech\u00f3w",
                "operator:type": "government",
                "amenity": "school"
            }
        }
    ]
}