{
    "type": "FeatureCollection",
    "features": [
        {
            "id": 106701,
            "type": "Feature",
            "geometry": {
                "type": "Point",
                "coordinates": [
                    21.26482,
                    53.12489
                ]
            },
            "properties": {
                "isced:level": "1;2",
                "ref:rspo": 106701,
                "official_name": "Szko\u0142a Podstawowa w Jastrz\u0105bce",
                "name": "Szko\u0142a Podstawowa w Jastrz\u0105bce",
                "addr:postcode": "06-320",
                "addr:place": "Jastrz\u0105bka",
                "addr:housenumber": "33",
                "addr:city:simc": 506107,
                "phone": "+48 295920489",
                "email": "spjastrzabka@o2.pl",
                "ref:regon": "146488422",
                "operator": "Kurpiowskie Stowarzyszenie Przyjaci\u00f3\u0142 Ma\u0142ych Szk\u00f3\u0142 \"Kwartet\"",
                "operator:type": "ngo",
                "amenity": "school"
            }
        },
        {
            "id": 60887,
            "type": "Feature",
            "geometry": {
                "type": "Point",
                "coordinates": [
                    21.35088,
                    53.17502
                ]
            },
            "properties": {
                "isced:level": "1;2",
                "ref:rspo": 60887,
                "official_name": "Szko\u0142a Podstawowa Sigie im. Karola Adamieckiego w Czarnotrzewiu",
                "name": "Szko\u0142a Podstawowa Sigie",
                "addr:postcode": "06-320",
                "addr:place": "Czarnotrzew",
                "addr:housenumber": "16",
                "addr:city:simc": 506030,
                "phone": "+48 297616753",
                "email": "spczarnotrzew@interia.pl",
                "ref:regon": "146413312",
                "ref:vatin": "PL7582066991",
                "operator": "Stowarzyszenie Inicjatyw Gospodarczych I Edukacyjnych Im. Karola Adamieckiego Oddzia\u0142 W Ostro\u0142\u0119ce",
                "operator:type": "ngo",
                "amenity": "school"
            }
        },
        {
            "id": 77600,
            "type": "Feature",
            "geometry": {
                "type": "Point",
                "coordinates": [
                    21.2902,
                    53.17609
                ]
            },
            "properties": {
                "ref:rspo": 77600,
                "official_name": "Zesp\u00f3\u0142 Szk\u00f3\u0142 Powiatowych w Baranowie",
                "name": "Zesp\u00f3\u0142 Szk\u00f3\u0142 Powiatowych w Baranowie",
                "addr:postcode": "06-320",
                "addr:city": "Baranowo",
                "addr:street": "Niepodleg\u0142o\u015bci",
                "addr:housenumber": "27",
                "addr:city:simc": 505958,
                "addr:street:sym_ul": 14203,
                "phone": "+48 297613913",
                "email": "zesp_szkol@poczta.onet.pl",
                "website": "http:\/\/zspbaranowo.pl",
                "ref:regon": "551300528",
                "ref:vatin": "PL7582100044",
                "operator": "Powiat Ostro\u0142\u0119cki",
                "operator:type": "government",
                "landuse": "education",
                "fixme": "amenity=school, amenity=college albo landuse=education w zale\u017cno\u015bci od tego, jakie plac\u00f3wki wchodz\u0105 w sk\u0142ad zespo\u0142u. Sprawd\u017a, kiedy stosowa\u0107 amenity=* a kiedy landuse=education.",
                "note": "Children RSPO: 92930;93004;93023;93130;93155"
            }
        },
        {
            "id": 107594,
            "type": "Feature",
            "geometry": {
                "type": "Point",
                "coordinates": [
                    21.2902,
                    53.17606
                ]
            },
            "properties": {
                "isced:level": "1;2",
                "ref:rspo": 107594,
                "official_name": "Szko\u0142a Podstawowa Im . Jana Paw\u0142a II w Baranowie",
                "name": "Szko\u0142a Podstawowa Im . Jana Paw\u0142a II w Baranowie",
                "addr:postcode": "06-320",
                "addr:city": "Baranowo",
                "addr:street": "Niepodleg\u0142o\u015bci",
                "addr:housenumber": "27",
                "addr:city:simc": 505958,
                "addr:street:sym_ul": 14203,
                "phone": "+48 297613945",
                "email": "spbaranowo@gmail.com",
                "website": "http:\/\/spbaranowo.szkolnastrona.pl\/",
                "ref:regon": "000265738",
                "ref:vatin": "PL7582098732",
                "operator": "Gmina Baranowo",
                "operator:type": "government",
                "amenity": "school"
            }
        },
        {
            "id": 92930,
            "type": "Feature",
            "geometry": {
                "type": "Point",
                "coordinates": [
                    21.2902,
                    53.176030000000004
                ]
            },
            "properties": {
                "isced:level": "3",
                "ref:rspo": 92930,
                "official_name": "Liceum Og\u00f3lnokszta\u0142c\u0105ce w Baranowie",
                "name": "Liceum Og\u00f3lnokszta\u0142c\u0105ce w Baranowie",
                "addr:postcode": "06-320",
                "addr:city": "Baranowo",
                "addr:street": "Niepodleg\u0142o\u015bci",
                "addr:housenumber": "27",
                "addr:city:simc": 505958,
                "addr:street:sym_ul": 14203,
                "phone": "+48 297613913",
                "email": "zesp_szkol@poczta.onet.pl",
                "ref:regon": "146460168",
                "operator": "Powiat Ostro\u0142\u0119cki",
                "operator:type": "government",
                "amenity": "school",
                "note": "Parent RSPO: 77600"
            }
        },
        {
            "id": 93004,
            "type": "Feature",
            "geometry": {
                "type": "Point",
                "coordinates": [
                    21.2902,
                    53.176
                ]
            },
            "properties": {
                "isced:level": "3",
                "ref:rspo": 93004,
                "official_name": "Technikum w Baranowie",
                "name": "Technikum w Baranowie",
                "addr:postcode": "06-320",
                "addr:city": "Baranowo",
                "addr:street": "Niepodleg\u0142o\u015bci",
                "addr:housenumber": "27",
                "addr:city:simc": 505958,
                "addr:street:sym_ul": 14203,
                "phone": "+48 297613913",
                "email": "zesp_szkol@poczta.onet.pl",
                "ref:regon": "551298398",
                "operator": "Powiat Ostro\u0142\u0119cki",
                "operator:type": "government",
                "amenity": "school",
                "note": "Parent RSPO: 77600"
            }
        },
        {
            "id": 93023,
            "type": "Feature",
            "geometry": {
                "type": "Point",
                "coordinates": [
                    21.2902,
                    53.17597
                ]
            },
            "properties": {
                "isced:level": "3",
                "ref:rspo": 93023,
                "official_name": "Bran\u017cowa Szko\u0142a I Stopnia w Baranowie",
                "name": "Bran\u017cowa Szko\u0142a I Stopnia w Baranowie",
                "addr:postcode": "06-320",
                "addr:city": "Baranowo",
                "addr:street": "Niepodleg\u0142o\u015bci",
                "addr:housenumber": "27",
                "addr:city:simc": 505958,
                "addr:street:sym_ul": 14203,
                "phone": "+48 297613913",
                "email": "zesp_szkol@poczta.onet.pl",
                "ref:regon": "550757131",
                "operator": "Powiat Ostro\u0142\u0119cki",
                "operator:type": "government",
                "amenity": "school",
                "note": "Parent RSPO: 77600"
            }
        },
        {
            "id": 93130,
            "type": "Feature",
            "geometry": {
                "type": "Point",
                "coordinates": [
                    21.2902,
                    53.175940000000004
                ]
            },
            "properties": {
                "isced:level": "4",
                "ref:rspo": 93130,
                "official_name": "Szko\u0142a Policealna w Baranowie",
                "name": "Szko\u0142a Policealna w Baranowie",
                "addr:postcode": "06-320",
                "addr:city": "Baranowo",
                "addr:street": "Niepodleg\u0142o\u015bci",
                "addr:housenumber": "27",
                "addr:city:simc": 505958,
                "addr:street:sym_ul": 14203,
                "phone": "+48 297613913",
                "email": "zesp_szkol@poczta.onet.pl",
                "ref:regon": "551333999",
                "operator": "Powiat Ostro\u0142\u0119cki",
                "operator:type": "government",
                "amenity": "college",
                "note": "Parent RSPO: 77600"
            }
        },
        {
            "id": 93155,
            "type": "Feature",
            "geometry": {
                "type": "Point",
                "coordinates": [
                    21.2902,
                    53.17591
                ]
            },
            "properties": {
                "isced:level": "3",
                "ref:rspo": 93155,
                "official_name": "Liceum Og\u00f3lnokszta\u0142c\u0105ce dla Doros\u0142ych w Baranowie",
                "name": "Liceum Og\u00f3lnokszta\u0142c\u0105ce dla Doros\u0142ych w Baranowie",
                "addr:postcode": "06-320",
                "addr:city": "Baranowo",
                "addr:street": "Niepodleg\u0142o\u015bci",
                "addr:housenumber": "27",
                "addr:city:simc": 505958,
                "addr:street:sym_ul": 14203,
                "phone": "+48 297613913",
                "email": "zesp_szkol@poczta.onet.pl",
                "ref:regon": "142753360",
                "operator": "Powiat Ostro\u0142\u0119cki",
                "operator:type": "government",
                "amenity": "school",
                "note": "Parent RSPO: 77600"
            }
        },
        {
            "id": 59669,
            "type": "Feature",
            "geometry": {
                "type": "Point",
                "coordinates": [
                    21.29339,
                    53.17611
                ]
            },
            "properties": {
                "ref:rspo": 59669,
                "official_name": "Gminne Przedszkole w Baranowie",
                "name": "Gminne Przedszkole w Baranowie",
                "addr:postcode": "06-320",
                "addr:city": "Baranowo",
                "addr:street": "Niepodleg\u0142o\u015bci",
                "addr:housenumber": "16",
                "addr:city:simc": 505958,
                "addr:street:sym_ul": 14203,
                "phone": "+48 297613768",
                "email": "przedszkolebaranowo@wp.pl",
                "website": "http:\/\/www.przedszkolebaranowo.pl",
                "ref:regon": "000912942",
                "ref:vatin": "PL7581947011",
                "operator": "Gmina Baranowo",
                "operator:type": "government",
                "amenity": "kindergarten"
            }
        },
        {
            "id": 106699,
            "type": "Feature",
            "geometry": {
                "type": "Point",
                "coordinates": [
                    21.24787,
                    53.21088
                ]
            },
            "properties": {
                "isced:level": "1;2",
                "ref:rspo": 106699,
                "official_name": "Szko\u0142a Podstawowa w Bakule-Ziomku",
                "name": "Szko\u0142a Podstawowa w Bakule-Ziomku",
                "addr:postcode": "06-320",
                "addr:place": "Ziomek",
                "addr:housenumber": "1",
                "addr:city:simc": 506449,
                "phone": "+48 297616427",
                "email": "spbakula-ziomek1@o2.pl",
                "ref:regon": "146488362",
                "operator": "Kurpiowskie Stowarzyszenie Przyjaci\u00f3\u0142 Ma\u0142ych Szk\u00f3\u0142 \"Kwartet\"",
                "operator:type": "ngo",
                "amenity": "school"
            }
        },
        {
            "id": 106702,
            "type": "Feature",
            "geometry": {
                "type": "Point",
                "coordinates": [
                    21.20933,
                    53.25181
                ]
            },
            "properties": {
                "isced:level": "1;2",
                "ref:rspo": 106702,
                "official_name": "Szko\u0142a Podstawowa w Woli B\u0142\u0119dowskiej",
                "name": "Szko\u0142a Podstawowa w Woli B\u0142\u0119dowskiej",
                "addr:postcode": "06-320",
                "addr:place": "Wola B\u0142\u0119dowska",
                "addr:housenumber": "13",
                "addr:city:simc": 506426,
                "phone": "+48 297512424",
                "email": "sp.wolabledowska@o2.pl",
                "ref:regon": "146488445",
                "operator": "Kurpiowskie Stowarzyszenie Przyjaci\u00f3\u0142 Ma\u0142ych Szk\u00f3\u0142 \"Kwartet\"",
                "operator:type": "ngo",
                "amenity": "school"
            }
        },
        {
            "id": 107596,
            "type": "Feature",
            "geometry": {
                "type": "Point",
                "coordinates": [
                    21.23883,
                    53.26748
                ]
            },
            "properties": {
                "isced:level": "1;2",
                "ref:rspo": 107596,
                "official_name": "Szko\u0142a Podstawowa im. Aleksandra Kopcia w Zawadach",
                "name": "Szko\u0142a Podstawowa",
                "addr:postcode": "06-320",
                "addr:place": "Zawady",
                "addr:housenumber": "51",
                "addr:city:simc": 506432,
                "phone": "+48 297512422",
                "email": "spzawady@interia.pl",
                "website": "https:\/\/spzawady.edupage.org",
                "ref:regon": "001106580",
                "ref:vatin": "PL7582098749",
                "operator": "Gmina Baranowo",
                "operator:type": "government",
                "amenity": "school"
            }
        },
        {
            "id": 271147,
            "type": "Feature",
            "geometry": {
                "type": "Point",
                "coordinates": [
                    21.23883,
                    53.26745
                ]
            },
            "properties": {
                "ref:rspo": 271147,
                "official_name": "Punkt Przedszkolny \"Le\u015bny Ludek\" w Zawadach",
                "name": "Punkt Przedszkolny \"Le\u015bny Ludek\" w Zawadach",
                "addr:postcode": "06-320",
                "addr:place": "Zawady",
                "addr:housenumber": "51",
                "addr:city:simc": 506432,
                "phone": "+48 517479418",
                "email": "kurpsierazem@wp.pl",
                "website": "http:\/\/www.przedszkolabezgranic.eu",
                "ref:regon": "385247067",
                "ref:vatin": "PL7582198563",
                "operator": "Zwi\u0105zek Stowarzysze\u0144 \"Kurpsie Razem\"",
                "operator:type": "ngo",
                "amenity": "kindergarten"
            }
        }
    ]
}