{
    "type": "FeatureCollection",
    "features": [
        {
            "id": 60838,
            "type": "Feature",
            "geometry": {
                "type": "Point",
                "coordinates": [
                    21.52564,
                    53.06702
                ]
            },
            "properties": {
                "ref:rspo": 60838,
                "official_name": "Przedszkole Samorz\u0105dowe w Olszewie-Borkach",
                "name": "Przedszkole Samorz\u0105dowe w Olszewie-Borkach",
                "addr:postcode": "07-415",
                "addr:city": "Olszewo-Borki",
                "addr:street": "3 Maja",
                "addr:housenumber": "3",
                "addr:teryt:simc": 515968,
                "addr:teryt:sym_ul": 11937,
                "phone": "+48 297613147",
                "email": "przedszkole@olszewo-borki.pl",
                "ref:regon": "000912758",
                "ref:vatin": "PL7582092095",
                "operator": "Gmina Olszewo-Borki",
                "operator:type": "government",
                "amenity": "kindergarten"
            }
        },
        {
            "id": 81228,
            "type": "Feature",
            "geometry": {
                "type": "Point",
                "coordinates": [
                    21.5272,
                    53.06749
                ]
            },
            "properties": {
                "isced:level": "1;2",
                "ref:rspo": 81228,
                "official_name": "Szko\u0142a Podstawowa im. W\u0142adys\u0142awa Broniewskiego w Olszewie-Borkach",
                "name": "Szko\u0142a Podstawowa",
                "addr:postcode": "07-415",
                "addr:city": "Olszewo-Borki",
                "addr:street": "W\u0142adys\u0142awa Broniewskiego",
                "addr:housenumber": "17",
                "addr:teryt:simc": 515968,
                "addr:teryt:sym_ul": 2125,
                "phone": "+48 297613177",
                "email": "sp_olborki@poczta.onet.pl",
                "ref:regon": "000593750",
                "ref:vatin": "PL7581944484",
                "operator": "Gmina Olszewo-Borki",
                "operator:type": "government",
                "amenity": "school"
            }
        },
        {
            "id": 129847,
            "type": "Feature",
            "geometry": {
                "type": "Point",
                "coordinates": [
                    21.52601,
                    53.06761
                ]
            },
            "properties": {
                "ref:rspo": 129847,
                "official_name": "Niepubliczne Przedszkole Radosny Zak\u0105tek w Olszewie-Borkach",
                "name": "Niepubliczne Przedszkole Radosny Zak\u0105tek w Olszewie-Borkach",
                "addr:postcode": "07-415",
                "addr:city": "Olszewo-Borki",
                "addr:street": "W\u0142adys\u0142awa Broniewskiego",
                "addr:housenumber": "21",
                "addr:teryt:simc": 515968,
                "addr:teryt:sym_ul": 2125,
                "phone": "+48 606107536",
                "email": "krzychgolas@interia.pl",
                "ref:regon": "363009379",
                "operator": "Akademia Najm\u0142odszych Krzysztof Go\u0142a\u015b",
                "operator:type": "consortium",
                "amenity": "kindergarten"
            }
        },
        {
            "id": 115366,
            "type": "Feature",
            "geometry": {
                "type": "Point",
                "coordinates": [
                    21.3432,
                    53.08377
                ]
            },
            "properties": {
                "isced:level": "1;2",
                "ref:rspo": 115366,
                "official_name": "Terapeutyczna Szko\u0142a Podstawowa w Zabielu Wielkim",
                "name": "Terapeutyczna Szko\u0142a Podstawowa w Zabielu Wielkim",
                "addr:postcode": "07-415",
                "addr:place": "Zabiele Wielkie",
                "addr:housenumber": "45",
                "addr:teryt:simc": 516117,
                "phone": "+48 502664737",
                "email": "napierek@wp.pl",
                "website": "http:\/\/www.zabieleautyzm.pl",
                "ref:regon": "146755998",
                "ref:vatin": "PL7581074669",
                "operator": "Bo\u017cena Napi\u00f3rkowska",
                "operator:type": "private",
                "amenity": "school"
            }
        },
        {
            "id": 115370,
            "type": "Feature",
            "geometry": {
                "type": "Point",
                "coordinates": [
                    21.3432,
                    53.08374
                ]
            },
            "properties": {
                "ref:rspo": 115370,
                "official_name": "Niepubliczna Poradnia Psychologiczno - Pedagogiczna w Zabielu Wielkim",
                "name": "Niepubliczna Poradnia Psychologiczno - Pedagogiczna w Zabielu Wielkim",
                "addr:postcode": "07-415",
                "addr:place": "Zabiele Wielkie",
                "addr:housenumber": "45",
                "addr:teryt:simc": 516117,
                "phone": "+48 502664737",
                "email": "napierek@wp.pl",
                "website": "http:\/\/www.zabieleautyzm.pl",
                "ref:regon": "146756058",
                "ref:vatin": "PL7581074669",
                "operator": "Bo\u017cena Napi\u00f3rkowska",
                "operator:type": "private",
                "healthcare": "counselling",
                "counselling_type": "education",
                "fixme": "w zale\u017cno\u015bci od przedmiotu dzia\u0142alno\u015bci (np. healthcare=counselling + counselling_type=education albo healthcare=psychotherapist)"
            }
        },
        {
            "id": 118402,
            "type": "Feature",
            "geometry": {
                "type": "Point",
                "coordinates": [
                    21.3432,
                    53.08371
                ]
            },
            "properties": {
                "ref:rspo": 118402,
                "official_name": "Publiczny Terapeutyczny Punkt Przedszkolny",
                "name": "Publiczny Terapeutyczny Punkt Przedszkolny",
                "addr:postcode": "07-416",
                "addr:place": "Zabiele Wielkie",
                "addr:housenumber": "45",
                "addr:teryt:simc": 516117,
                "phone": "+48 502664737",
                "email": "napierek@wp.pl",
                "website": "http:\/\/www.zabieleautyzm.pl",
                "ref:regon": "146799524",
                "operator": "Bo\u017cena Napi\u00f3rkowska",
                "operator:type": "private",
                "amenity": "kindergarten"
            }
        },
        {
            "id": 60841,
            "type": "Feature",
            "geometry": {
                "type": "Point",
                "coordinates": [
                    21.4088299,
                    53.08826
                ]
            },
            "properties": {
                "ref:rspo": 60841,
                "official_name": "Szko\u0142a Podstawowa Z Przedszkolem w Nowej Wsi",
                "name": "Szko\u0142a Podstawowa Z Przedszkolem w Nowej Wsi",
                "addr:postcode": "07-416",
                "addr:city": "Nowa Wie\u015b",
                "addr:street": "Szkolna",
                "addr:housenumber": "1A",
                "addr:teryt:simc": 515939,
                "addr:teryt:sym_ul": 21970,
                "phone": "+48 297604466",
                "email": "sp.nowawies@olszewo-borki.pl",
                "ref:regon": "551335917",
                "ref:vatin": "PL7582219549",
                "operator": "Gmina Olszewo-Borki",
                "operator:type": "government",
                "landuse": "education",
                "fixme": "amenity=school, amenity=college albo landuse=education w zale\u017cno\u015bci od tego, jakie plac\u00f3wki wchodz\u0105 w sk\u0142ad zespo\u0142u. Sprawd\u017a, kiedy stosowa\u0107 amenity=* a kiedy landuse=education.",
                "note": "Children RSPO: 89279;89281"
            }
        },
        {
            "id": 89279,
            "type": "Feature",
            "geometry": {
                "type": "Point",
                "coordinates": [
                    21.4088299,
                    53.088229999999996
                ]
            },
            "properties": {
                "ref:rspo": 89279,
                "official_name": "Przedszkole Samorz\u0105dowe w Nowej Wsi",
                "name": "Przedszkole Samorz\u0105dowe w Nowej Wsi",
                "addr:postcode": "07-416",
                "addr:city": "Nowa Wie\u015b",
                "addr:street": "Szkolna",
                "addr:housenumber": "1A",
                "addr:teryt:simc": 515939,
                "addr:teryt:sym_ul": 21970,
                "phone": "+48 297604466",
                "email": "sp.nowawies@olszewo-borki.pl",
                "ref:regon": "551296815",
                "ref:vatin": "PL7582092103",
                "operator": "Gmina Olszewo-Borki",
                "operator:type": "government",
                "amenity": "kindergarten",
                "note": "Parent RSPO: 60841"
            }
        },
        {
            "id": 89281,
            "type": "Feature",
            "geometry": {
                "type": "Point",
                "coordinates": [
                    21.4088299,
                    53.0882
                ]
            },
            "properties": {
                "isced:level": "1;2",
                "ref:rspo": 89281,
                "official_name": "Szko\u0142a Podstawowa w Nowej Wsi",
                "name": "Szko\u0142a Podstawowa w Nowej Wsi",
                "addr:postcode": "07-416",
                "addr:city": "Nowa Wie\u015b",
                "addr:street": "Szkolna",
                "addr:housenumber": "1A",
                "addr:teryt:simc": 515939,
                "addr:teryt:sym_ul": 21970,
                "phone": "+48 297604466",
                "email": "sp.nowawies@olszewo-borki.pl",
                "website": "http:\/\/www.spnowawies.edupage.org",
                "ref:regon": "001106137",
                "ref:vatin": "PL7581944455",
                "operator": "Gmina Olszewo-Borki",
                "operator:type": "government",
                "amenity": "school",
                "note": "Parent RSPO: 60841"
            }
        },
        {
            "id": 68292,
            "type": "Feature",
            "geometry": {
                "type": "Point",
                "coordinates": [
                    21.31861,
                    53.09064
                ]
            },
            "properties": {
                "isced:level": "1;2",
                "ref:rspo": 68292,
                "official_name": "Szko\u0142a Podstawowa Stowarzyszenia Inicjatyw Gospodarczych I Edukacyjnych im. Karola Adamieckiego w R\u017ca\u0144cu",
                "name": "Szko\u0142a Podstawowa Stowarzyszenia Inicjatyw Gospodarczych I Edukacyjnych",
                "addr:postcode": "07-416",
                "addr:place": "R\u017caniec",
                "addr:housenumber": "14A",
                "addr:teryt:simc": 516005,
                "phone": "+48 297604840",
                "email": "sprzaniec@interia.pl",
                "ref:regon": "146413358",
                "ref:vatin": "PL7582066991",
                "operator": "Stowarzyszenie Inicjatyw Gospodarczych I Edukacyjnych Im. Karola Adamieckiego Oddzia\u0142 W Ostro\u0142\u0119ce",
                "operator:type": "ngo",
                "amenity": "school"
            }
        },
        {
            "id": 69173,
            "type": "Feature",
            "geometry": {
                "type": "Point",
                "coordinates": [
                    21.52291,
                    53.11705
                ]
            },
            "properties": {
                "isced:level": "1;2",
                "ref:rspo": 69173,
                "official_name": "Szko\u0142a Podstawowa im. Janusza Korczaka w Antoniach",
                "name": "Szko\u0142a Podstawowa",
                "addr:postcode": "07-410",
                "addr:city": "Antonie",
                "addr:street": "Szkolna",
                "addr:housenumber": "6",
                "addr:teryt:simc": 515738,
                "addr:teryt:sym_ul": 21970,
                "phone": "+48 297648814",
                "email": "spantonie@interia.pl",
                "website": "http:\/\/sp-antonie.pl",
                "ref:regon": "001244738",
                "ref:vatin": "PL7581944449",
                "operator": "Gmina Olszewo-Borki",
                "operator:type": "government",
                "amenity": "school"
            }
        },
        {
            "id": 69171,
            "type": "Feature",
            "geometry": {
                "type": "Point",
                "coordinates": [
                    21.33478,
                    53.11745
                ]
            },
            "properties": {
                "isced:level": "1;2",
                "ref:rspo": 69171,
                "official_name": "Szko\u0142a Podstawowa w Grab\u00f3wku",
                "name": "Szko\u0142a Podstawowa w Grab\u00f3wku",
                "addr:postcode": "07-416",
                "addr:place": "Grab\u00f3wek",
                "addr:housenumber": "20",
                "addr:teryt:simc": 515856,
                "phone": "+48 297681622",
                "email": "spgrabowek@op.pl",
                "ref:regon": "001244750",
                "ref:vatin": "PL7581944432",
                "operator": "Gmina Olszewo-Borki",
                "operator:type": "government",
                "amenity": "school"
            }
        },
        {
            "id": 69176,
            "type": "Feature",
            "geometry": {
                "type": "Point",
                "coordinates": [
                    21.41413,
                    53.11969
                ]
            },
            "properties": {
                "isced:level": "1;2",
                "ref:rspo": 69176,
                "official_name": "Szko\u0142a Podstawowa w Przystani",
                "name": "Szko\u0142a Podstawowa w Przystani",
                "addr:postcode": "07-416",
                "addr:place": "Przysta\u0144",
                "addr:housenumber": "33",
                "addr:teryt:simc": 515974,
                "phone": "+48 297604715",
                "email": "spprzystan@interia.pl",
                "ref:regon": "001106143",
                "ref:vatin": "PL7581946891",
                "operator": "Gmina Olszewo-Borki",
                "operator:type": "government",
                "amenity": "school"
            }
        }
    ]
}