{
    "type": "FeatureCollection",
    "features": [
        {
            "id": 38804,
            "type": "Feature",
            "geometry": {
                "type": "Point",
                "coordinates": [
                    21.50934,
                    52.84457
                ]
            },
            "properties": {
                "isced:level": "1;2",
                "ref:rspo": 38804,
                "official_name": "Szko\u0142a Podstawowa im. \u015aw. Stanis\u0142awa Kostki w Kuninie",
                "name": "Szko\u0142a Podstawowa",
                "addr:country": "PL",
                "addr:postcode": "07-440",
                "addr:place": "Kunin",
                "addr:housenumber": "22a",
                "addr:teryt:sym_ul": 510221,
                "contact:phone": "+48 297614306",
                "contact:email": "dyrektor.spkunin@gmail.com",
                "contact:website": "http:\/\/kunin.szkolnastrona.pl",
                "ref:regon": "001105988",
                "ref:vatin": "PL7581958078",
                "operator": "Gmina Goworowo",
                "operator:type": "government",
                "amenity": "school"
            }
        },
        {
            "id": 39641,
            "type": "Feature",
            "geometry": {
                "type": "Point",
                "coordinates": [
                    21.56251,
                    52.85752
                ]
            },
            "properties": {
                "isced:level": "1;2",
                "ref:rspo": 39641,
                "official_name": "Szko\u0142a Podstawowa im. Janusza Korczaka w Pasiekach",
                "name": "Szko\u0142a Podstawowa",
                "addr:country": "PL",
                "addr:postcode": "07-440",
                "addr:city": "Pasieki",
                "addr:street": "Szkolna",
                "addr:housenumber": "2",
                "addr:teryt:simc": 21970,
                "addr:teryt:sym_ul": 510296,
                "contact:phone": "+48 297614227",
                "contact:email": "sp.pasieki@o2.pl",
                "contact:website": "http:\/\/sppasieki.superszkolna.pl",
                "ref:regon": "001106002",
                "ref:vatin": "PL7581958049",
                "operator": "Gmina Goworowo",
                "operator:type": "government",
                "amenity": "school"
            }
        },
        {
            "id": 131412,
            "type": "Feature",
            "geometry": {
                "type": "Point",
                "coordinates": [
                    21.52169,
                    52.89675
                ]
            },
            "properties": {
                "isced:level": "1;2",
                "ref:rspo": 131412,
                "official_name": "Szko\u0142a Podstawowa im. Miko\u0142aja Kopernika w Goworowie, Filia w Szczawinie",
                "name": "Szko\u0142a Podstawowa",
                "addr:country": "PL",
                "addr:postcode": "07-440",
                "addr:place": "Szczawin",
                "addr:housenumber": "49 a",
                "addr:teryt:sym_ul": 510400,
                "contact:phone": "+48 297614013",
                "contact:email": "szczawinfilia@spgoworowo.edu.pl",
                "contact:website": "http:\/\/spgoworowo.edu.pl",
                "ref:regon": "640834000",
                "operator": "Gmina Goworowo",
                "operator:type": "government",
                "amenity": "school",
                "note": "Parent RSPO: 50312"
            }
        },
        {
            "id": 278770,
            "type": "Feature",
            "geometry": {
                "type": "Point",
                "coordinates": [
                    21.5578934,
                    52.8998015
                ]
            },
            "properties": {
                "ref:rspo": 278770,
                "official_name": "Punkt Przedszkolny I \u017b\u0142obek \"Weso\u0142a Chatka\" Aneta Winczewska",
                "name": "Punkt Przedszkolny I \u017b\u0142obek \"Weso\u0142a Chatka\" Aneta Winczewska",
                "addr:country": "PL",
                "addr:postcode": "07-440",
                "addr:city": "Goworowo",
                "addr:street": "Henryka Sienkiewicza",
                "addr:housenumber": "1 a",
                "addr:teryt:simc": 19834,
                "addr:teryt:sym_ul": 510072,
                "contact:email": "wesolachatkagoworowo@gmail.com",
                "ref:regon": "520138724",
                "ref:vatin": "PL7582318530",
                "operator": "Aneta Winczewska",
                "operator:type": "private",
                "amenity": "kindergarten"
            }
        },
        {
            "id": 274232,
            "type": "Feature",
            "geometry": {
                "type": "Point",
                "coordinates": [
                    21.55935,
                    52.90432
                ]
            },
            "properties": {
                "ref:rspo": 274232,
                "official_name": "O\u015brodek Szkoleniowy Centrum Us\u0142ugowe Qrak Bhp Magdalena Wauters",
                "name": "O\u015brodek Szkoleniowy Centrum Us\u0142ugowe Qrak Bhp Magdalena Wauters",
                "addr:country": "PL",
                "addr:postcode": "07-440",
                "addr:city": "Goworowo",
                "addr:street": "Szkolna",
                "addr:housenumber": "16a",
                "addr:teryt:simc": 21970,
                "addr:teryt:sym_ul": 510072,
                "contact:email": "qrakbhp@gmail.com",
                "contact:website": "http:\/\/www.qrakbhp.pl",
                "ref:regon": "385547125",
                "ref:vatin": "PL6511605629",
                "operator": "Magdalena Wauters",
                "operator:type": "private",
                "fixme": "w zale\u017cno\u015bci od przedmiotu dzia\u0142alno\u015bci (np. amenity=training + training=*, amenity=dancing_school, amenity=language_school, amenity=music_school)"
            }
        },
        {
            "id": 274235,
            "type": "Feature",
            "geometry": {
                "type": "Point",
                "coordinates": [
                    21.55935,
                    52.904289999999996
                ]
            },
            "properties": {
                "ref:rspo": 274235,
                "official_name": "O\u015brodek Szkoleniowy Csu Lean Go Up Danny Wauters",
                "name": "O\u015brodek Szkoleniowy Csu Lean Go Up Danny Wauters",
                "addr:country": "PL",
                "addr:postcode": "07-440",
                "addr:city": "Goworowo",
                "addr:street": "Szkolna",
                "addr:housenumber": "16a",
                "addr:teryt:simc": 21970,
                "addr:teryt:sym_ul": 510072,
                "contact:email": "biuro@leangoup.pl",
                "ref:regon": "385547088",
                "ref:vatin": "PL6342734257",
                "operator": "Danny Wauters",
                "operator:type": "private",
                "fixme": "w zale\u017cno\u015bci od przedmiotu dzia\u0142alno\u015bci (np. amenity=training + training=*, amenity=dancing_school, amenity=language_school, amenity=music_school)"
            }
        },
        {
            "id": 22677,
            "type": "Feature",
            "geometry": {
                "type": "Point",
                "coordinates": [
                    21.56307,
                    52.9043599
                ]
            },
            "properties": {
                "ref:rspo": 22677,
                "official_name": "Zesp\u00f3\u0142 Szk\u00f3\u0142 Powiatowych w Goworowie",
                "name": "Zesp\u00f3\u0142 Szk\u00f3\u0142 Powiatowych w Goworowie",
                "addr:country": "PL",
                "addr:postcode": "07-440",
                "addr:city": "Goworowo",
                "addr:street": "Ostro\u0142\u0119cka",
                "addr:housenumber": "27",
                "addr:teryt:simc": 15382,
                "addr:teryt:sym_ul": 510072,
                "contact:phone": "+48 297614011",
                "contact:email": "zsp_goworowo@oswiata.org.pl",
                "contact:website": "http:\/\/www.zspgoworowo.pl",
                "ref:regon": "000781262",
                "ref:vatin": "PL7581811369",
                "operator": "Powiat Ostro\u0142\u0119cki",
                "operator:type": "government",
                "landuse": "education",
                "fixme": "amenity=school, amenity=college albo landuse=education w zale\u017cno\u015bci od tego, jakie plac\u00f3wki wchodz\u0105 w sk\u0142ad zespo\u0142u. Sprawd\u017a, kiedy stosowa\u0107 amenity=* a kiedy landuse=education.",
                "note": "Children RSPO: 78013;78208;79335;83155;83157"
            }
        },
        {
            "id": 78013,
            "type": "Feature",
            "geometry": {
                "type": "Point",
                "coordinates": [
                    21.56307,
                    52.9043299
                ]
            },
            "properties": {
                "isced:level": "3",
                "ref:rspo": 78013,
                "official_name": "Liceum Og\u00f3lnokszta\u0142c\u0105ce dla Doros\u0142ych w Goworowie",
                "name": "Liceum Og\u00f3lnokszta\u0142c\u0105ce dla Doros\u0142ych w Goworowie",
                "addr:country": "PL",
                "addr:postcode": "07-440",
                "addr:city": "Goworowo",
                "addr:street": "Ostro\u0142\u0119cka",
                "addr:housenumber": "27",
                "addr:teryt:simc": 15382,
                "addr:teryt:sym_ul": 510072,
                "contact:phone": "+48 297614011",
                "contact:email": "zsp_goworowo@oswiata.org.pl",
                "ref:regon": "146407263",
                "operator": "Powiat Ostro\u0142\u0119cki",
                "operator:type": "government",
                "amenity": "school",
                "note": "Parent RSPO: 22677"
            }
        },
        {
            "id": 78208,
            "type": "Feature",
            "geometry": {
                "type": "Point",
                "coordinates": [
                    21.56307,
                    52.904299900000005
                ]
            },
            "properties": {
                "isced:level": "4",
                "ref:rspo": 78208,
                "official_name": "Szko\u0142a Policealna w Goworowie",
                "name": "Szko\u0142a Policealna w Goworowie",
                "addr:country": "PL",
                "addr:postcode": "07-440",
                "addr:city": "Goworowo",
                "addr:street": "Ostro\u0142\u0119cka",
                "addr:housenumber": "27",
                "addr:teryt:simc": 15382,
                "addr:teryt:sym_ul": 510072,
                "contact:phone": "+48 297614011",
                "contact:email": "zsp_goworowo@oswiata.org.pl",
                "ref:regon": "146412264",
                "operator": "Powiat Ostro\u0142\u0119cki",
                "operator:type": "government",
                "amenity": "college",
                "note": "Parent RSPO: 22677"
            }
        },
        {
            "id": 79335,
            "type": "Feature",
            "geometry": {
                "type": "Point",
                "coordinates": [
                    21.56307,
                    52.9042699
                ]
            },
            "properties": {
                "isced:level": "3",
                "ref:rspo": 79335,
                "official_name": "Bran\u017cowa Szko\u0142a I Stopnia w Goworowie",
                "name": "Bran\u017cowa Szko\u0142a I Stopnia w Goworowie",
                "addr:country": "PL",
                "addr:postcode": "07-440",
                "addr:city": "Goworowo",
                "addr:street": "Ostro\u0142\u0119cka",
                "addr:housenumber": "27",
                "addr:teryt:simc": 15382,
                "addr:teryt:sym_ul": 510072,
                "contact:phone": "+48 297614011",
                "contact:email": "zsp_goworowo@oswiata.org.pl",
                "ref:regon": "551255928",
                "operator": "Powiat Ostro\u0142\u0119cki",
                "operator:type": "government",
                "amenity": "school",
                "note": "Parent RSPO: 22677"
            }
        },
        {
            "id": 83155,
            "type": "Feature",
            "geometry": {
                "type": "Point",
                "coordinates": [
                    21.56307,
                    52.9042399
                ]
            },
            "properties": {
                "isced:level": "3",
                "ref:rspo": 83155,
                "official_name": "Liceum Og\u00f3lnokszta\u0142c\u0105ce w Goworowie",
                "name": "Liceum Og\u00f3lnokszta\u0142c\u0105ce w Goworowie",
                "addr:country": "PL",
                "addr:postcode": "07-440",
                "addr:city": "Goworowo",
                "addr:street": "Ostro\u0142\u0119cka",
                "addr:housenumber": "27",
                "addr:teryt:simc": 15382,
                "addr:teryt:sym_ul": 510072,
                "contact:phone": "+48 297614011",
                "contact:email": "zsp_goworowo@oswiata.org.pl",
                "ref:regon": "551259079",
                "operator": "Powiat Ostro\u0142\u0119cki",
                "operator:type": "government",
                "amenity": "school",
                "note": "Parent RSPO: 22677"
            }
        },
        {
            "id": 83157,
            "type": "Feature",
            "geometry": {
                "type": "Point",
                "coordinates": [
                    21.56307,
                    52.904209900000005
                ]
            },
            "properties": {
                "isced:level": "3",
                "ref:rspo": 83157,
                "official_name": "Technikum w Goworowie",
                "name": "Technikum w Goworowie",
                "addr:country": "PL",
                "addr:postcode": "07-440",
                "addr:city": "Goworowo",
                "addr:street": "Ostro\u0142\u0119cka",
                "addr:housenumber": "27",
                "addr:teryt:simc": 15382,
                "addr:teryt:sym_ul": 510072,
                "contact:phone": "+48 297614011",
                "contact:email": "zsp_goworowo@oswiata.org.pl",
                "ref:regon": "551298429",
                "operator": "Powiat Ostro\u0142\u0119cki",
                "operator:type": "government",
                "amenity": "school",
                "note": "Parent RSPO: 22677"
            }
        },
        {
            "id": 50312,
            "type": "Feature",
            "geometry": {
                "type": "Point",
                "coordinates": [
                    21.56521,
                    52.90442
                ]
            },
            "properties": {
                "isced:level": "1;2",
                "ref:rspo": 50312,
                "official_name": "Szko\u0142a Podstawowa im. Miko\u0142aja Kopernika w Goworowie",
                "name": "Szko\u0142a Podstawowa",
                "addr:country": "PL",
                "addr:postcode": "07-440",
                "addr:place": "Gowor\u00f3wek",
                "addr:housenumber": "43a",
                "addr:teryt:sym_ul": 510089,
                "contact:phone": "+48 297614061",
                "contact:email": "szkola@spgoworowo.edu.pl",
                "contact:website": "http:\/\/spgoworowo.edu.pl",
                "ref:regon": "000640834",
                "ref:vatin": "PL7582032147",
                "operator": "Gmina Goworowo",
                "operator:type": "government",
                "amenity": "school",
                "note": "Children RSPO: 131412"
            }
        },
        {
            "id": 48400,
            "type": "Feature",
            "geometry": {
                "type": "Point",
                "coordinates": [
                    21.56158,
                    52.9045599
                ]
            },
            "properties": {
                "ref:rspo": 48400,
                "official_name": "Przedszkole Samorz\u0105dowe w Goworowie",
                "name": "Przedszkole Samorz\u0105dowe w Goworowie",
                "addr:country": "PL",
                "addr:postcode": "07-440",
                "addr:city": "Goworowo",
                "addr:street": "Szkolna",
                "addr:housenumber": "11",
                "addr:teryt:simc": 21970,
                "addr:teryt:sym_ul": 510072,
                "contact:phone": "+48 297615051",
                "contact:email": "przedszkole.goworowo@op.pl",
                "contact:website": "http:\/\/psgoworowo.przedszkolowo.pl",
                "ref:regon": "000912876",
                "ref:vatin": "PL7581546795",
                "operator": "Gmina Goworowo",
                "operator:type": "government",
                "amenity": "kindergarten"
            }
        }
    ]
}