{
    "type": "FeatureCollection",
    "features": [
        {
            "id": 55848,
            "type": "Feature",
            "geometry": {
                "type": "Point",
                "coordinates": [
                    21.28696,
                    53.30374
                ]
            },
            "properties": {
                "ref:rspo": 55848,
                "official_name": "Punkt Przedszkolny \"Mali Odkrywcy\" w Olszynach",
                "name": "Punkt Przedszkolny \"Mali Odkrywcy\" w Olszynach",
                "addr:postcode": "07-430",
                "addr:place": "Olszyny",
                "addr:housenumber": "34A",
                "addr:city:simc": 514963,
                "phone": "+48 517479418",
                "ref:regon": "146379874",
                "operator": "Zwi\u0105zek Stowarzysze\u0144 \"Kurpsie Razem\"",
                "operator:type": "ngo",
                "amenity": "kindergarten"
            }
        },
        {
            "id": 74078,
            "type": "Feature",
            "geometry": {
                "type": "Point",
                "coordinates": [
                    21.28696,
                    53.303709999999995
                ]
            },
            "properties": {
                "isced:level": "1;2",
                "ref:rspo": 74078,
                "official_name": "Publiczna Szko\u0142a Podstawowa w Olszynach",
                "name": "Publiczna Szko\u0142a Podstawowa w Olszynach",
                "addr:postcode": "07-430",
                "addr:place": "Olszyny",
                "addr:housenumber": "34A",
                "addr:city:simc": 514963,
                "email": "pspolszyny1@wp.pl",
                "ref:regon": "000697165",
                "ref:vatin": "PL7581992336",
                "operator": "Gmina Myszyniec",
                "operator:type": "government",
                "amenity": "school"
            }
        },
        {
            "id": 74083,
            "type": "Feature",
            "geometry": {
                "type": "Point",
                "coordinates": [
                    21.3816,
                    53.31915
                ]
            },
            "properties": {
                "isced:level": "1;2",
                "ref:rspo": 74083,
                "official_name": "Publiczna Szko\u0142a Podstawowa w Zalesiu",
                "name": "Publiczna Szko\u0142a Podstawowa w Zalesiu",
                "addr:postcode": "07-430",
                "addr:place": "Zalesie",
                "addr:housenumber": "36A",
                "addr:city:simc": 515052,
                "phone": "+48 297721040",
                "email": "psp.zalesie@wp.pl",
                "ref:regon": "000912787",
                "ref:vatin": "PL7581992299",
                "operator": "Gmina Myszyniec",
                "operator:type": "government",
                "amenity": "school"
            }
        },
        {
            "id": 74080,
            "type": "Feature",
            "geometry": {
                "type": "Point",
                "coordinates": [
                    21.3760046,
                    53.3467094
                ]
            },
            "properties": {
                "isced:level": "1;2",
                "ref:rspo": 74080,
                "official_name": "Publiczna Szko\u0142a Podstawowa w Wydmusach",
                "name": "Publiczna Szko\u0142a Podstawowa w Wydmusach",
                "addr:postcode": "07-430",
                "addr:place": "Wydmusy",
                "addr:housenumber": "117K",
                "addr:city:simc": 515030,
                "phone": "+48 297721091",
                "email": "szkola_wydmusy@o2.pl",
                "ref:regon": "000697099",
                "ref:vatin": "PL7581992388",
                "operator": "Gmina Myszyniec",
                "operator:type": "government",
                "amenity": "school"
            }
        },
        {
            "id": 269893,
            "type": "Feature",
            "geometry": {
                "type": "Point",
                "coordinates": [
                    21.37734,
                    53.34712
                ]
            },
            "properties": {
                "ref:rspo": 269893,
                "official_name": "Niepubliczne Przedszkole \"Radosny Zak\u0105tek\" w Wydmusach",
                "name": "Niepubliczne Przedszkole \"Radosny Zak\u0105tek\" w Wydmusach",
                "addr:postcode": "07-430",
                "addr:place": "Wydmusy",
                "addr:housenumber": "118f",
                "addr:city:simc": 515030,
                "email": "krzychgolas@interia.pl",
                "ref:regon": "381834425",
                "operator": "Akademia Najm\u0142odszych Krzysztof Go\u0142a\u015b",
                "operator:type": "consortium",
                "amenity": "kindergarten"
            }
        },
        {
            "id": 274183,
            "type": "Feature",
            "geometry": {
                "type": "Point",
                "coordinates": [
                    21.42565,
                    53.35648
                ]
            },
            "properties": {
                "ref:rspo": 274183,
                "official_name": "Niepubliczne Przedszkole \"Radosny Zak\u0105tek\" w Wykrocie",
                "name": "Niepubliczne Przedszkole \"Radosny Zak\u0105tek\" w Wykrocie",
                "addr:postcode": "07-430",
                "addr:place": "Wykrot",
                "addr:housenumber": "19A",
                "addr:city:simc": 515046,
                "phone": "+48 606107536",
                "ref:regon": "385391500",
                "ref:vatin": "PL7581101998",
                "operator": "Akademia Najm\u0142odszych Krzysztof Go\u0142a\u015b",
                "operator:type": "consortium",
                "amenity": "kindergarten"
            }
        },
        {
            "id": 55853,
            "type": "Feature",
            "geometry": {
                "type": "Point",
                "coordinates": [
                    21.42731,
                    53.35681
                ]
            },
            "properties": {
                "ref:rspo": 55853,
                "official_name": "Punkt Przedszkolny \"Planeta U\u015bmiechu\" w Wykrocie",
                "name": "Punkt Przedszkolny \"Planeta U\u015bmiechu\" w Wykrocie",
                "addr:postcode": "07-430",
                "addr:place": "Wykrot",
                "addr:housenumber": "21a",
                "addr:city:simc": 515046,
                "phone": "+48 517479418",
                "ref:regon": "146380239",
                "operator": "Zwi\u0105zek Stowarzysze\u0144 \"Kurpsie Razem\"",
                "operator:type": "ngo",
                "amenity": "kindergarten"
            }
        },
        {
            "id": 119714,
            "type": "Feature",
            "geometry": {
                "type": "Point",
                "coordinates": [
                    21.30435,
                    53.35686
                ]
            },
            "properties": {
                "isced:level": "1;2",
                "ref:rspo": 119714,
                "official_name": "Szko\u0142a Podstawowa w Bia\u0142usnym Lasku",
                "name": "Szko\u0142a Podstawowa w Bia\u0142usnym Lasku",
                "addr:postcode": "07-430",
                "addr:place": "Bia\u0142usny Lasek",
                "addr:housenumber": "19",
                "addr:city:simc": 514839,
                "phone": "+48 606107536",
                "email": "szkolabialusny8@gmail.com",
                "ref:regon": "146858126",
                "ref:vatin": "PL7581101998",
                "operator": "Akademia Najm\u0142odszych Krzysztof Go\u0142a\u015b",
                "operator:type": "consortium",
                "amenity": "school"
            }
        },
        {
            "id": 125226,
            "type": "Feature",
            "geometry": {
                "type": "Point",
                "coordinates": [
                    21.30435,
                    53.356829999999995
                ]
            },
            "properties": {
                "ref:rspo": 125226,
                "official_name": "Niepubliczne Przedszkole \"Radosny Zak\u0105tek 2\" w Bia\u0142usnym Lasku",
                "name": "Niepubliczne Przedszkole \"Radosny Zak\u0105tek 2\" w Bia\u0142usnym Lasku",
                "addr:postcode": "07-430",
                "addr:place": "Bia\u0142usny Lasek",
                "addr:housenumber": "19",
                "addr:city:simc": 514839,
                "phone": "+48 606107536",
                "email": "szkolabialusny8@gmail.com",
                "ref:regon": "147433021",
                "ref:vatin": "PL7581101998",
                "operator": "Akademia Najm\u0142odszych Krzysztof Go\u0142a\u015b",
                "operator:type": "consortium",
                "amenity": "kindergarten"
            }
        },
        {
            "id": 104135,
            "type": "Feature",
            "geometry": {
                "type": "Point",
                "coordinates": [
                    21.42821,
                    53.35693
                ]
            },
            "properties": {
                "isced:level": "1;2",
                "ref:rspo": 104135,
                "official_name": "Publiczna Szko\u0142a Podstawowa im. Brata Zenona \u017bebrowskiego w Wykrocie",
                "name": "Publiczna Szko\u0142a Podstawowa",
                "addr:postcode": "07-430",
                "addr:place": "Wykrot",
                "addr:housenumber": "21c",
                "addr:city:simc": 515046,
                "phone": "+48 297721037",
                "email": "zs_wykrot@o2.pl",
                "ref:regon": "000697001",
                "operator": "Gmina Myszyniec",
                "operator:type": "government",
                "amenity": "school"
            }
        },
        {
            "id": 129569,
            "type": "Feature",
            "geometry": {
                "type": "Point",
                "coordinates": [
                    21.34934,
                    53.37784
                ]
            },
            "properties": {
                "ref:rspo": 129569,
                "official_name": "Niepubliczne Przedszkole \"Bajkowa Kraina'",
                "name": "Niepubliczne Przedszkole \"Bajkowa Kraina'",
                "addr:postcode": "07-430",
                "addr:city": "Myszyniec",
                "addr:street": "Wincentego Witosa",
                "addr:housenumber": "64",
                "addr:city:simc": 514928,
                "addr:street:sym_ul": 24459,
                "email": "pysznadorota@wp.pl",
                "ref:regon": "362678859",
                "operator": "Dorota Przetak",
                "operator:type": "private",
                "amenity": "kindergarten"
            }
        },
        {
            "id": 54152,
            "type": "Feature",
            "geometry": {
                "type": "Point",
                "coordinates": [
                    21.34346,
                    53.3864
                ]
            },
            "properties": {
                "ref:rspo": 54152,
                "official_name": "Zesp\u00f3\u0142 Szk\u00f3\u0142 Powiatowych im. Ksi\u0119dza Adama Bargielskiego w Myszy\u0144cu",
                "name": "Zesp\u00f3\u0142 Szk\u00f3\u0142 Powiatowych",
                "addr:postcode": "07-430",
                "addr:city": "Myszyniec",
                "addr:street": "Dzieci Polskich",
                "addr:housenumber": "5",
                "addr:city:simc": 514928,
                "addr:street:sym_ul": 4604,
                "phone": "+48 297721429",
                "email": "zspmysz@wp.pl",
                "website": "http:\/\/www.zspm.hg.pl",
                "ref:regon": "550729672",
                "ref:vatin": "PL7581902304",
                "operator": "Powiat Ostro\u0142\u0119cki",
                "operator:type": "government",
                "landuse": "education",
                "fixme": "amenity=school, amenity=college albo landuse=education w zale\u017cno\u015bci od tego, jakie plac\u00f3wki wchodz\u0105 w sk\u0142ad zespo\u0142u. Sprawd\u017a, kiedy stosowa\u0107 amenity=* a kiedy landuse=education.",
                "note": "Children RSPO: 88299;88410;88424;88446;88724"
            }
        },
        {
            "id": 55343,
            "type": "Feature",
            "geometry": {
                "type": "Point",
                "coordinates": [
                    21.34346,
                    53.38637
                ]
            },
            "properties": {
                "ref:rspo": 55343,
                "official_name": "Poradnia Psychologiczno - Pedagogiczna w Myszy\u0144cu",
                "name": "Poradnia Psychologiczno - Pedagogiczna w Myszy\u0144cu",
                "addr:postcode": "07-430",
                "addr:city": "Myszyniec",
                "addr:street": "Dzieci Polskich",
                "addr:housenumber": "5",
                "addr:city:simc": 514928,
                "addr:street:sym_ul": 4604,
                "phone": "+48 297721132",
                "email": "pppmysz@o2.pl",
                "website": "http:\/\/www.ppp.myszyniec.pl",
                "ref:regon": "001222100",
                "ref:vatin": "PL7582016332",
                "operator": "Powiat Ostro\u0142\u0119cki",
                "operator:type": "government",
                "healthcare": "counselling",
                "counselling_type": "education",
                "fixme": "w zale\u017cno\u015bci od przedmiotu dzia\u0142alno\u015bci (np. healthcare=counselling + counselling_type=education albo healthcare=psychotherapist)"
            }
        },
        {
            "id": 88299,
            "type": "Feature",
            "geometry": {
                "type": "Point",
                "coordinates": [
                    21.34346,
                    53.386340000000004
                ]
            },
            "properties": {
                "isced:level": "3",
                "ref:rspo": 88299,
                "official_name": "Liceum Og\u00f3lnokszta\u0142c\u0105ce w Myszy\u0144cu",
                "name": "Liceum Og\u00f3lnokszta\u0142c\u0105ce w Myszy\u0144cu",
                "addr:postcode": "07-430",
                "addr:city": "Myszyniec",
                "addr:street": "Dzieci Polskich",
                "addr:housenumber": "5",
                "addr:city:simc": 514928,
                "addr:street:sym_ul": 4604,
                "phone": "+48 297721429",
                "email": "zspmysz@wp.pl",
                "website": "http:\/\/zspm.hg.pl",
                "ref:regon": "550063150",
                "operator": "Powiat Ostro\u0142\u0119cki",
                "operator:type": "government",
                "amenity": "school",
                "note": "Parent RSPO: 54152"
            }
        },
        {
            "id": 88410,
            "type": "Feature",
            "geometry": {
                "type": "Point",
                "coordinates": [
                    21.34346,
                    53.38631
                ]
            },
            "properties": {
                "isced:level": "3",
                "ref:rspo": 88410,
                "official_name": "Bran\u017cowa Szko\u0142a I Stopnia w Myszy\u0144cu",
                "name": "Bran\u017cowa Szko\u0142a I Stopnia w Myszy\u0144cu",
                "addr:postcode": "07-430",
                "addr:city": "Myszyniec",
                "addr:street": "Dzieci Polskich",
                "addr:housenumber": "5",
                "addr:city:simc": 514928,
                "addr:street:sym_ul": 4604,
                "phone": "+48 297721429",
                "email": "zspmysz@wp.pl",
                "website": "http:\/\/zspm.hg.pl",
                "ref:regon": "001320474",
                "operator": "Powiat Ostro\u0142\u0119cki",
                "operator:type": "government",
                "amenity": "school",
                "note": "Parent RSPO: 54152"
            }
        },
        {
            "id": 88424,
            "type": "Feature",
            "geometry": {
                "type": "Point",
                "coordinates": [
                    21.34346,
                    53.38628
                ]
            },
            "properties": {
                "isced:level": "3",
                "ref:rspo": 88424,
                "official_name": "Technikum w Myszy\u0144cu",
                "name": "Technikum w Myszy\u0144cu",
                "addr:postcode": "07-430",
                "addr:city": "Myszyniec",
                "addr:street": "Dzieci Polskich",
                "addr:housenumber": "5",
                "addr:city:simc": 514928,
                "addr:street:sym_ul": 4604,
                "phone": "+48 297721429",
                "email": "zspmysz@wp.pl",
                "website": "http:\/\/zspm.hg,pl",
                "ref:regon": "140561106",
                "operator": "Powiat Ostro\u0142\u0119cki",
                "operator:type": "government",
                "amenity": "school",
                "note": "Parent RSPO: 54152"
            }
        },
        {
            "id": 88446,
            "type": "Feature",
            "geometry": {
                "type": "Point",
                "coordinates": [
                    21.34346,
                    53.386250000000004
                ]
            },
            "properties": {
                "isced:level": "3",
                "ref:rspo": 88446,
                "official_name": "Liceum Og\u00f3lnokszta\u0142c\u0105ce dla Doros\u0142ych w Myszy\u0144cu",
                "name": "Liceum Og\u00f3lnokszta\u0142c\u0105ce dla Doros\u0142ych w Myszy\u0144cu",
                "addr:postcode": "07-430",
                "addr:city": "Myszyniec",
                "addr:street": "Dzieci Polskich",
                "addr:housenumber": "5",
                "addr:city:simc": 514928,
                "addr:street:sym_ul": 4604,
                "phone": "+48 297721429",
                "email": "zspmysz@wp.pl",
                "ref:regon": "146412554",
                "operator": "Powiat Ostro\u0142\u0119cki",
                "operator:type": "government",
                "amenity": "school",
                "note": "Parent RSPO: 54152"
            }
        },
        {
            "id": 88724,
            "type": "Feature",
            "geometry": {
                "type": "Point",
                "coordinates": [
                    21.34346,
                    53.38622
                ]
            },
            "properties": {
                "isced:level": "4",
                "ref:rspo": 88724,
                "official_name": "Szko\u0142a Policealna w Myszy\u0144cu",
                "name": "Szko\u0142a Policealna w Myszy\u0144cu",
                "addr:postcode": "07-430",
                "addr:city": "Myszyniec",
                "addr:street": "Dzieci Polskich",
                "addr:housenumber": "5",
                "addr:city:simc": 514928,
                "addr:street:sym_ul": 4604,
                "phone": "+48 297721429",
                "email": "zspmysz@wp.pl",
                "ref:regon": "551335490",
                "operator": "Powiat Ostro\u0142\u0119cki",
                "operator:type": "government",
                "amenity": "college",
                "note": "Parent RSPO: 54152"
            }
        },
        {
            "id": 74084,
            "type": "Feature",
            "geometry": {
                "type": "Point",
                "coordinates": [
                    21.34194,
                    53.38723
                ]
            },
            "properties": {
                "ref:rspo": 74084,
                "official_name": "Samorz\u0105dowe Przedszkole w Myszy\u0144cu",
                "name": "Samorz\u0105dowe Przedszkole w Myszy\u0144cu",
                "addr:postcode": "07-430",
                "addr:city": "Myszyniec",
                "addr:street": "Dzieci Polskich",
                "addr:housenumber": "1",
                "addr:city:simc": 514928,
                "addr:street:sym_ul": 4604,
                "phone": "+48 297721680",
                "email": "spmyszyniec@o2.pl",
                "ref:regon": "000912770",
                "ref:vatin": "PL7581992365",
                "operator": "Gmina Myszyniec",
                "operator:type": "government",
                "amenity": "kindergarten"
            }
        },
        {
            "id": 104125,
            "type": "Feature",
            "geometry": {
                "type": "Point",
                "coordinates": [
                    21.34194,
                    53.3872
                ]
            },
            "properties": {
                "isced:level": "1;2",
                "ref:rspo": 104125,
                "official_name": "Publiczna Szko\u0142a Podstawowa im. Kazimierza Stefanowicza w Myszy\u0144cu",
                "name": "Publiczna Szko\u0142a Podstawowa",
                "addr:postcode": "07-430",
                "addr:city": "Myszyniec",
                "addr:street": "Dzieci Polskich",
                "addr:housenumber": "1",
                "addr:city:simc": 514928,
                "addr:street:sym_ul": 4604,
                "phone": "+48 297721013",
                "email": "maptacy@wp.pl",
                "ref:regon": "000640981",
                "operator": "Gmina Myszyniec",
                "operator:type": "government",
                "amenity": "school"
            }
        },
        {
            "id": 122690,
            "type": "Feature",
            "geometry": {
                "type": "Point",
                "coordinates": [
                    21.34374,
                    53.38846
                ]
            },
            "properties": {
                "ref:rspo": 122690,
                "official_name": "Niepubliczne Przedszkole \"Radosny Zak\u0105tek\" w Myszy\u0144cu",
                "name": "Niepubliczne Przedszkole \"Radosny Zak\u0105tek\" w Myszy\u0144cu",
                "addr:postcode": "07-430",
                "addr:city": "Myszyniec",
                "addr:street": "Sportowa",
                "addr:housenumber": "37",
                "addr:city:simc": 514928,
                "addr:street:sym_ul": 20683,
                "phone": "+48 606107536",
                "ref:regon": "147176883",
                "ref:vatin": "PL7581101998",
                "operator": "Akademia Najm\u0142odszych Krzysztof Go\u0142a\u015b",
                "operator:type": "consortium",
                "amenity": "kindergarten"
            }
        },
        {
            "id": 109090,
            "type": "Feature",
            "geometry": {
                "type": "Point",
                "coordinates": [
                    21.38905,
                    53.40947
                ]
            },
            "properties": {
                "isced:level": "1;2",
                "ref:rspo": 109090,
                "official_name": "Publiczna Szko\u0142a Podstawowa w Wolkowych",
                "name": "Publiczna Szko\u0142a Podstawowa w Wolkowych",
                "addr:postcode": "07-430",
                "addr:place": "Wolkowe",
                "addr:housenumber": "1",
                "addr:city:simc": 515023,
                "phone": "+48 297721039",
                "email": "gimwolkowe@wp.pl",
                "ref:regon": "000697107",
                "operator": "Gmina Myszyniec",
                "operator:type": "government",
                "amenity": "school"
            }
        },
        {
            "id": 266426,
            "type": "Feature",
            "geometry": {
                "type": "Point",
                "coordinates": [
                    21.38905,
                    53.40944
                ]
            },
            "properties": {
                "ref:rspo": 266426,
                "official_name": "Punkt Przedszkolny \"Pod Gwiazdkami\" w Wolkowych",
                "name": "Punkt Przedszkolny \"Pod Gwiazdkami\" w Wolkowych",
                "addr:postcode": "07-430",
                "addr:place": "Wolkowe",
                "addr:housenumber": "1",
                "addr:city:simc": 515023,
                "email": "kurpsierazem@wp.pl",
                "ref:regon": "369492508",
                "operator": "Zwi\u0105zek Stowarzysze\u0144 \"Kurpsie Razem\"",
                "operator:type": "ngo",
                "amenity": "kindergarten"
            }
        },
        {
            "id": 56191,
            "type": "Feature",
            "geometry": {
                "type": "Point",
                "coordinates": [
                    21.24201,
                    53.41089
                ]
            },
            "properties": {
                "isced:level": "1;2",
                "ref:rspo": 56191,
                "official_name": "Publiczna Szko\u0142a Podstawowa Sigie Im Karola Adamieckiego w Pe\u0142tach",
                "name": "Publiczna Szko\u0142a Podstawowa Sigie Im Karola Adamieckiego w Pe\u0142tach",
                "addr:postcode": "07-430",
                "addr:place": "Pe\u0142ty",
                "addr:housenumber": "37",
                "addr:city:simc": 514992,
                "email": "sppelty@interia.pl",
                "ref:regon": "146413275",
                "operator": "Stowarzyszenie Inicjatyw Gospodarczych I Edukacyjnych Im. Karola Adamieckiego Oddzia\u0142 W Ostro\u0142\u0119ce",
                "operator:type": "ngo",
                "amenity": "school"
            }
        },
        {
            "id": 74076,
            "type": "Feature",
            "geometry": {
                "type": "Point",
                "coordinates": [
                    21.46224,
                    53.4306
                ]
            },
            "properties": {
                "isced:level": "1;2",
                "ref:rspo": 74076,
                "official_name": "Publiczna Szko\u0142a Podstawowa im. Armii Krajowej w Krysiakach",
                "name": "Publiczna Szko\u0142a Podstawowa",
                "addr:postcode": "07-430",
                "addr:place": "Krysiaki",
                "addr:housenumber": "29",
                "addr:city:simc": 514911,
                "phone": "+48 295940567",
                "email": "pspkrysiaki@wp.pl",
                "ref:regon": "000697113",
                "ref:vatin": "PL7581992313",
                "operator": "Gmina Myszyniec",
                "operator:type": "government",
                "amenity": "school"
            }
        },
        {
            "id": 276808,
            "type": "Feature",
            "geometry": {
                "type": "Point",
                "coordinates": [
                    21.46224,
                    53.430569999999996
                ]
            },
            "properties": {
                "ref:rspo": 276808,
                "official_name": "Punkt Przedszkolny \"Pszcz\u00f3\u0142ka Maja\"",
                "name": "Punkt Przedszkolny \"Pszcz\u00f3\u0142ka Maja\"",
                "addr:postcode": "07-430",
                "addr:place": "Krysiaki",
                "addr:housenumber": "29",
                "addr:city:simc": 514911,
                "email": "kurpsierazem@wp.pl",
                "ref:regon": "387618800",
                "operator": "Zwi\u0105zek Stowarzysze\u0144 \"Kurpsie Razem\"",
                "operator:type": "ngo",
                "amenity": "kindergarten"
            }
        }
    ]
}