{
    "type": "FeatureCollection",
    "features": [
        {
            "id": 72348,
            "type": "Feature",
            "geometry": {
                "type": "Point",
                "coordinates": [
                    21.55836,
                    53.12367
                ]
            },
            "properties": {
                "isced:level": "1;2",
                "ref:rspo": 72348,
                "official_name": "Szko\u0142a Podstawowa w Bia\u0142obieli",
                "name": "Szko\u0142a Podstawowa w Bia\u0142obieli",
                "addr:country": "PL",
                "addr:postcode": "07-402",
                "addr:city": "Bia\u0142obiel",
                "addr:street": "ul. Szkolna",
                "addr:housenumber": "1",
                "addr:teryt:simc": 21970,
                "addr:teryt:sym_ul": 512898,
                "contact:phone": "+48 297606958",
                "contact:email": "spbialobiel@vp.pl",
                "ref:regon": "001244655",
                "ref:vatin": "PL7581950042",
                "operator": "Gmina Lelis",
                "operator:type": "government",
                "amenity": "school"
            }
        },
        {
            "id": 91900,
            "type": "Feature",
            "geometry": {
                "type": "Point",
                "coordinates": [
                    21.5949,
                    53.12739
                ]
            },
            "properties": {
                "isced:level": "1;2",
                "ref:rspo": 91900,
                "official_name": "Szko\u0142a Podstawowa w \u0141\u0119gu Przedmiejskim",
                "name": "Szko\u0142a Podstawowa w \u0141\u0119gu Przedmiejskim",
                "addr:country": "PL",
                "addr:postcode": "07-402",
                "addr:place": "\u0141\u0119g Przedmiejski",
                "addr:housenumber": "80",
                "addr:teryt:sym_ul": 513053,
                "contact:phone": "+48 297602213",
                "contact:email": "przedmiescie@wp.pl",
                "ref:regon": "001105706",
                "ref:vatin": "PL7582351355",
                "operator": "Gmina Lelis",
                "operator:type": "government",
                "amenity": "school"
            }
        },
        {
            "id": 72355,
            "type": "Feature",
            "geometry": {
                "type": "Point",
                "coordinates": [
                    21.45612,
                    53.13889
                ]
            },
            "properties": {
                "isced:level": "1;2",
                "ref:rspo": 72355,
                "official_name": "Szko\u0142a Podstawowa w Olszewce",
                "name": "Szko\u0142a Podstawowa w Olszewce",
                "addr:country": "PL",
                "addr:postcode": "07-402",
                "addr:place": "Olszewka",
                "addr:housenumber": "24A",
                "addr:teryt:sym_ul": 513248,
                "contact:phone": "+48 297605247",
                "contact:email": "spolszewka@vp.pl",
                "ref:regon": "001105741",
                "ref:vatin": "PL7581950065",
                "operator": "Gmina Lelis",
                "operator:type": "government",
                "amenity": "school"
            }
        },
        {
            "id": 72351,
            "type": "Feature",
            "geometry": {
                "type": "Point",
                "coordinates": [
                    21.66677,
                    53.14949
                ]
            },
            "properties": {
                "isced:level": "1;2",
                "ref:rspo": 72351,
                "official_name": "Szko\u0142a Podstawowa im. \u015aw. Jana Paw\u0142a II w \u0141\u0119gu Staro\u015bci\u0144skim",
                "name": "Szko\u0142a Podstawowa",
                "addr:country": "PL",
                "addr:postcode": "07-402",
                "addr:place": "\u0141\u0119g Staro\u015bci\u0144ski",
                "addr:housenumber": "23",
                "addr:teryt:sym_ul": 513113,
                "contact:phone": "+48 297604303",
                "contact:email": "sp.legst@interia.pl",
                "ref:regon": "001105712",
                "ref:vatin": "PL7581950119",
                "operator": "Gmina Lelis",
                "operator:type": "government",
                "amenity": "school"
            }
        },
        {
            "id": 91898,
            "type": "Feature",
            "geometry": {
                "type": "Point",
                "coordinates": [
                    21.44013,
                    53.15491
                ]
            },
            "properties": {
                "isced:level": "1;2",
                "ref:rspo": 91898,
                "official_name": "Szko\u0142a Podstawowa w Obierwi",
                "name": "Szko\u0142a Podstawowa w Obierwi",
                "addr:country": "PL",
                "addr:postcode": "07-402",
                "addr:place": "Obierwia",
                "addr:housenumber": "120A",
                "addr:teryt:sym_ul": 513202,
                "contact:phone": "+48 297612291",
                "contact:email": "zsobierwia@wp.pl",
                "contact:website": "http:\/\/spobierwia.edupage.org",
                "ref:regon": "001105735",
                "ref:vatin": "PL7581950013",
                "operator": "Gmina Lelis",
                "operator:type": "government",
                "amenity": "school"
            }
        },
        {
            "id": 72352,
            "type": "Feature",
            "geometry": {
                "type": "Point",
                "coordinates": [
                    21.6072099,
                    53.17894
                ]
            },
            "properties": {
                "isced:level": "1;2",
                "ref:rspo": 72352,
                "official_name": "Szko\u0142a Podstawowa w Nasiadkach",
                "name": "Szko\u0142a Podstawowa w Nasiadkach",
                "addr:country": "PL",
                "addr:postcode": "07-402",
                "addr:place": "Nasiadki",
                "addr:housenumber": "37",
                "addr:teryt:sym_ul": 513194,
                "contact:phone": "+48 297611028",
                "contact:email": "spn@spnasiadki.edu.pl",
                "contact:website": "http:\/\/spnasiadki.edu.pl",
                "ref:regon": "001105729",
                "ref:vatin": "PL7581950071",
                "operator": "Gmina Lelis",
                "operator:type": "government",
                "amenity": "school"
            }
        },
        {
            "id": 91896,
            "type": "Feature",
            "geometry": {
                "type": "Point",
                "coordinates": [
                    21.55679,
                    53.18019
                ]
            },
            "properties": {
                "isced:level": "1;2",
                "ref:rspo": 91896,
                "official_name": "Szko\u0142a Podstawowa w Lelisie",
                "name": "Szko\u0142a Podstawowa w Lelisie",
                "addr:country": "PL",
                "addr:postcode": "07-402",
                "addr:city": "Lelis",
                "addr:street": "ul. Szkolna",
                "addr:housenumber": "51",
                "addr:teryt:simc": 21970,
                "addr:teryt:sym_ul": 513018,
                "contact:phone": "+48 297611027",
                "contact:email": "zs@zsl.edu.pl",
                "ref:regon": "000640857",
                "ref:vatin": "PL7581950088",
                "operator": "Gmina Lelis",
                "operator:type": "government",
                "amenity": "school",
                "note": "Parent RSPO: 72350"
            }
        },
        {
            "id": 72350,
            "type": "Feature",
            "geometry": {
                "type": "Point",
                "coordinates": [
                    21.55672,
                    53.18051
                ]
            },
            "properties": {
                "ref:rspo": 72350,
                "official_name": "Zesp\u00f3\u0142 Szk\u00f3\u0142 im. Kardyna\u0142a Stefana Wyszy\u0144skiego w Lelisie",
                "name": "Zesp\u00f3\u0142 Szk\u00f3\u0142",
                "addr:country": "PL",
                "addr:postcode": "07-402",
                "addr:city": "Lelis",
                "addr:street": "ul. Szkolna",
                "addr:housenumber": "51a",
                "addr:teryt:simc": 21970,
                "addr:teryt:sym_ul": 513018,
                "contact:phone": "+48 297611027",
                "contact:email": "zs@zsl.edu.pl",
                "ref:regon": "550084695",
                "ref:vatin": "PL7582033230",
                "operator": "Gmina Lelis",
                "operator:type": "government",
                "landuse": "education",
                "fixme": "amenity=school, amenity=college albo landuse=education w zale\u017cno\u015bci od tego, jakie plac\u00f3wki wchodz\u0105 w sk\u0142ad zespo\u0142u. Sprawd\u017a, kiedy stosowa\u0107 amenity=* a kiedy landuse=education.",
                "note": "Children RSPO: 91896"
            }
        },
        {
            "id": 72349,
            "type": "Feature",
            "geometry": {
                "type": "Point",
                "coordinates": [
                    21.66074,
                    53.20113
                ]
            },
            "properties": {
                "isced:level": "1;2",
                "ref:rspo": 72349,
                "official_name": "Szko\u0142a Podstawowa w D\u0105br\u00f3wce",
                "name": "Szko\u0142a Podstawowa w D\u0105br\u00f3wce",
                "addr:country": "PL",
                "addr:postcode": "07-402",
                "addr:place": "D\u0105br\u00f3wka",
                "addr:housenumber": "55",
                "addr:teryt:sym_ul": 512912,
                "contact:phone": "+48 297617123",
                "contact:email": "spdabrowka-55@o2.pl",
                "contact:website": "http:\/\/www.sp-dabrowka.edupage.org",
                "ref:regon": "001105698",
                "ref:vatin": "PL7581950102",
                "operator": "Gmina Lelis",
                "operator:type": "government",
                "amenity": "school"
            }
        }
    ]
}