{
    "type": "FeatureCollection",
    "features": [
        {
            "id": 128728,
            "type": "Feature",
            "geometry": {
                "type": "Point",
                "coordinates": [
                    21.53856,
                    53.28625
                ]
            },
            "properties": {
                "isced:level": "1;2",
                "ref:rspo": 128728,
                "official_name": "Szko\u0142a Podstawowa w Szafrankach",
                "name": "Szko\u0142a Podstawowa w Szafrankach",
                "addr:country": "PL",
                "addr:postcode": "07-436",
                "addr:place": "Szafranki",
                "addr:housenumber": "33",
                "addr:teryt:simc": 513834,
                "contact:phone": "+48 297726450",
                "contact:email": "spszafranki33@wp.pl",
                "ref:regon": "362390207",
                "operator": "Stowarzyszenie O\u015bwiatowe W Szafrankach \"Wsp\u00f3lnie Dla Edukacji\"",
                "operator:type": "ngo",
                "amenity": "school"
            }
        },
        {
            "id": 79862,
            "type": "Feature",
            "geometry": {
                "type": "Point",
                "coordinates": [
                    21.5289,
                    53.32345
                ]
            },
            "properties": {
                "isced:level": "1;2",
                "ref:rspo": 79862,
                "official_name": "Szko\u0142a Podstawowa w Lipnikach",
                "name": "Szko\u0142a Podstawowa w Lipnikach",
                "addr:country": "PL",
                "addr:postcode": "07-436",
                "addr:city": "Lipniki",
                "addr:street": "Ksi\u0119dza Kanonika Eugeniusza Sierbi\u0144skiego",
                "addr:housenumber": "30",
                "addr:teryt:simc": 513538,
                "addr:teryt:sym_ul": 32742,
                "contact:phone": "+48 297726307",
                "contact:email": "zslipniki@poczta.onet.pl",
                "ref:regon": "001105468",
                "operator": "Gmina \u0141yse",
                "operator:type": "government",
                "amenity": "school"
            }
        },
        {
            "id": 55284,
            "type": "Feature",
            "geometry": {
                "type": "Point",
                "coordinates": [
                    21.56782,
                    53.34905
                ]
            },
            "properties": {
                "ref:rspo": 55284,
                "official_name": "Przedszkole Niepubliczne \"Chatka Puchatka\" Ewa Prusinowska",
                "name": "Przedszkole Niepubliczne \"Chatka Puchatka\" Ewa Prusinowska",
                "addr:country": "PL",
                "addr:postcode": "07-437",
                "addr:place": "\u0141yse",
                "addr:housenumber": "25B",
                "addr:teryt:simc": 513662,
                "contact:phone": "+48 297725094",
                "contact:email": "ewachatkapuchatka@wp.pl",
                "ref:regon": "146379897",
                "ref:vatin": "PL7581825503",
                "operator": "Ewa Prusinowska",
                "operator:type": "private",
                "amenity": "kindergarten"
            }
        },
        {
            "id": 47691,
            "type": "Feature",
            "geometry": {
                "type": "Point",
                "coordinates": [
                    21.55186,
                    53.36583
                ]
            },
            "properties": {
                "ref:rspo": 47691,
                "official_name": "Samorz\u0105dowe Przedszkole w \u0141ysych",
                "name": "Samorz\u0105dowe Przedszkole w \u0141ysych",
                "addr:country": "PL",
                "addr:postcode": "07-437",
                "addr:city": "\u0141yse",
                "addr:street": "Szkolna",
                "addr:housenumber": "1",
                "addr:teryt:simc": 513662,
                "addr:teryt:sym_ul": 21970,
                "contact:phone": "+48 297725029",
                "contact:email": "pslyse@onet.eu",
                "ref:regon": "000912801",
                "ref:vatin": "PL7581967479",
                "operator": "Gmina \u0141yse",
                "operator:type": "government",
                "amenity": "kindergarten"
            }
        },
        {
            "id": 79863,
            "type": "Feature",
            "geometry": {
                "type": "Point",
                "coordinates": [
                    21.55186,
                    53.3658
                ]
            },
            "properties": {
                "isced:level": "1;2",
                "ref:rspo": 79863,
                "official_name": "Szko\u0142a Podstawowa im. Henryka Sienkiewicza w \u0141ysych",
                "name": "Szko\u0142a Podstawowa",
                "addr:country": "PL",
                "addr:postcode": "07-437",
                "addr:city": "\u0141yse",
                "addr:street": "Szkolna",
                "addr:housenumber": "1",
                "addr:teryt:simc": 513662,
                "addr:teryt:sym_ul": 21970,
                "contact:phone": "+48 297725001",
                "contact:email": "szkolapodstawowalyse@gmail.com",
                "contact:website": "http:\/\/www.splyse.pl",
                "ref:regon": "000564719",
                "ref:vatin": "PL7582357702",
                "operator": "Gmina \u0141yse",
                "operator:type": "government",
                "amenity": "school"
            }
        },
        {
            "id": 48031,
            "type": "Feature",
            "geometry": {
                "type": "Point",
                "coordinates": [
                    21.56784,
                    53.36656
                ]
            },
            "properties": {
                "ref:rspo": 48031,
                "official_name": "Zesp\u00f3\u0142 Szk\u00f3\u0142 Powiatowych w \u0141ysych",
                "name": "Zesp\u00f3\u0142 Szk\u00f3\u0142 Powiatowych w \u0141ysych",
                "addr:country": "PL",
                "addr:postcode": "07-437",
                "addr:city": "\u0141yse",
                "addr:street": "Stanis\u0142awa Krupki",
                "addr:housenumber": "20",
                "addr:teryt:simc": 513662,
                "addr:teryt:sym_ul": 10033,
                "contact:phone": "+48 297725089",
                "contact:email": "zsplyse@interia.pl",
                "ref:regon": "000932130",
                "ref:vatin": "PL7581769265",
                "operator": "Powiat Ostro\u0142\u0119cki",
                "operator:type": "government",
                "landuse": "education",
                "fixme": "amenity=school, amenity=college albo landuse=education w zale\u017cno\u015bci od tego, jakie plac\u00f3wki wchodz\u0105 w sk\u0142ad zespo\u0142u. Sprawd\u017a, kiedy stosowa\u0107 amenity=* a kiedy landuse=education.",
                "note": "Children RSPO: 84383;84384;84386;84388;128054"
            }
        },
        {
            "id": 84383,
            "type": "Feature",
            "geometry": {
                "type": "Point",
                "coordinates": [
                    21.56784,
                    53.36653
                ]
            },
            "properties": {
                "isced:level": "3",
                "ref:rspo": 84383,
                "official_name": "Liceum Og\u00f3lnokszta\u0142c\u0105ce dla Doros\u0142ych w \u0141ysych",
                "name": "Liceum Og\u00f3lnokszta\u0142c\u0105ce dla Doros\u0142ych w \u0141ysych",
                "addr:country": "PL",
                "addr:postcode": "07-437",
                "addr:city": "\u0141yse",
                "addr:street": "Stanis\u0142awa Krupki",
                "addr:housenumber": "20",
                "addr:teryt:simc": 513662,
                "addr:teryt:sym_ul": 10033,
                "contact:phone": "+48 297725089",
                "contact:email": "zsplyse@interia.pl",
                "contact:website": "http:\/\/www.zsplyse.isq.pl",
                "ref:regon": "146413045",
                "operator": "Powiat Ostro\u0142\u0119cki",
                "operator:type": "government",
                "amenity": "school",
                "note": "Parent RSPO: 48031"
            }
        },
        {
            "id": 84384,
            "type": "Feature",
            "geometry": {
                "type": "Point",
                "coordinates": [
                    21.56784,
                    53.3665
                ]
            },
            "properties": {
                "isced:level": "3",
                "ref:rspo": 84384,
                "official_name": "Liceum Og\u00f3lnokszta\u0142c\u0105ce w \u0141ysych",
                "name": "Liceum Og\u00f3lnokszta\u0142c\u0105ce w \u0141ysych",
                "addr:country": "PL",
                "addr:postcode": "07-437",
                "addr:city": "\u0141yse",
                "addr:street": "Stanis\u0142awa Krupki",
                "addr:housenumber": "20",
                "addr:teryt:simc": 513662,
                "addr:teryt:sym_ul": 10033,
                "contact:phone": "+48 297725089",
                "contact:email": "zsplyse@interia.pl",
                "contact:website": "http:\/\/www.zsplyse.isq.pl",
                "ref:regon": "551302711",
                "operator": "Powiat Ostro\u0142\u0119cki",
                "operator:type": "government",
                "amenity": "school",
                "note": "Parent RSPO: 48031"
            }
        },
        {
            "id": 84386,
            "type": "Feature",
            "geometry": {
                "type": "Point",
                "coordinates": [
                    21.56784,
                    53.36647
                ]
            },
            "properties": {
                "isced:level": "3",
                "ref:rspo": 84386,
                "official_name": "Technikum w \u0141ysych",
                "name": "Technikum w \u0141ysych",
                "addr:country": "PL",
                "addr:postcode": "07-437",
                "addr:city": "\u0141yse",
                "addr:street": "Stanis\u0142awa Krupki",
                "addr:housenumber": "20",
                "addr:teryt:simc": 513662,
                "addr:teryt:sym_ul": 10033,
                "contact:phone": "+48 297725089",
                "contact:email": "zsplyse@interia.pl",
                "contact:website": "http:\/\/www.zsplyse.isq.pl",
                "ref:regon": "551255064",
                "operator": "Powiat Ostro\u0142\u0119cki",
                "operator:type": "government",
                "amenity": "school",
                "note": "Parent RSPO: 48031"
            }
        },
        {
            "id": 84388,
            "type": "Feature",
            "geometry": {
                "type": "Point",
                "coordinates": [
                    21.56784,
                    53.36644
                ]
            },
            "properties": {
                "isced:level": "3",
                "ref:rspo": 84388,
                "official_name": "Bran\u017cowa Szko\u0142a I Stopnia w \u0141ysych",
                "name": "Bran\u017cowa Szko\u0142a I Stopnia w \u0141ysych",
                "addr:country": "PL",
                "addr:postcode": "07-437",
                "addr:city": "\u0141yse",
                "addr:street": "Stanis\u0142awa Krupki",
                "addr:housenumber": "20",
                "addr:teryt:simc": 513662,
                "addr:teryt:sym_ul": 10033,
                "contact:phone": "+48 297725089",
                "contact:email": "zsplyse@interia.pl",
                "contact:website": "http:\/\/www.zsplyse.isq.pl",
                "ref:regon": "551254969",
                "operator": "Powiat Ostro\u0142\u0119cki",
                "operator:type": "government",
                "amenity": "school",
                "note": "Parent RSPO: 48031"
            }
        },
        {
            "id": 128054,
            "type": "Feature",
            "geometry": {
                "type": "Point",
                "coordinates": [
                    21.56784,
                    53.36641
                ]
            },
            "properties": {
                "isced:level": "4",
                "ref:rspo": 128054,
                "official_name": "Szko\u0142a Policealna w \u0141ysych",
                "name": "Szko\u0142a Policealna w \u0141ysych",
                "addr:country": "PL",
                "addr:postcode": "07-437",
                "addr:city": "\u0141yse",
                "addr:street": "Stanis\u0142awa Krupki",
                "addr:housenumber": "20",
                "addr:teryt:simc": 513662,
                "addr:teryt:sym_ul": 10033,
                "contact:phone": "+48 297725089",
                "contact:email": "zsplyse@interia.pl",
                "contact:website": "http:\/\/www.zsplyse.isq.pl",
                "ref:regon": "362065499",
                "operator": "Powiat Ostro\u0142\u0119cki",
                "operator:type": "government",
                "amenity": "college",
                "note": "Parent RSPO: 48031"
            }
        },
        {
            "id": 132853,
            "type": "Feature",
            "geometry": {
                "type": "Point",
                "coordinates": [
                    21.56477,
                    53.37089
                ]
            },
            "properties": {
                "ref:rspo": 132853,
                "official_name": "Niepubliczne Przedszkole Radosny Zak\u0105tek",
                "name": "Niepubliczne Przedszkole Radosny Zak\u0105tek",
                "addr:country": "PL",
                "addr:postcode": "07-437",
                "addr:city": "\u0141yse",
                "addr:street": "Poleg\u0142ych",
                "addr:housenumber": "47 A",
                "addr:teryt:simc": 513662,
                "addr:teryt:sym_ul": 16983,
                "contact:phone": "+48 606107536",
                "contact:email": "krzychgolas@interia.pl",
                "ref:regon": "366299171",
                "operator": "Akademia Najm\u0142odszych Krzysztof Go\u0142a\u015b",
                "operator:type": "consortium",
                "amenity": "kindergarten"
            }
        },
        {
            "id": 128731,
            "type": "Feature",
            "geometry": {
                "type": "Point",
                "coordinates": [
                    21.48469,
                    53.37663
                ]
            },
            "properties": {
                "isced:level": "1;2",
                "ref:rspo": 128731,
                "official_name": "Szko\u0142a Podstawowa im. Stacha Konwy w D\u0119bach",
                "name": "Szko\u0142a Podstawowa",
                "addr:country": "PL",
                "addr:postcode": "07-437",
                "addr:place": "D\u0119by",
                "addr:housenumber": "9",
                "addr:teryt:simc": 513478,
                "contact:phone": "+48 297725019",
                "contact:email": "wwdeby@gmail.com",
                "contact:website": "http:\/\/spdeby.pl",
                "ref:regon": "362390578",
                "operator": "Stowarzyszenie Rozwoju Wsi Serafin",
                "operator:type": "ngo",
                "amenity": "school"
            }
        },
        {
            "id": 62578,
            "type": "Feature",
            "geometry": {
                "type": "Point",
                "coordinates": [
                    21.62817,
                    53.38917
                ]
            },
            "properties": {
                "isced:level": "1;2",
                "ref:rspo": 62578,
                "official_name": "Szko\u0142a Podstawowa im. Karola Adamieckiego w Pupkowi\u017anie",
                "name": "Szko\u0142a Podstawowa",
                "addr:country": "PL",
                "addr:postcode": "07-437",
                "addr:place": "Pupkowizna",
                "addr:housenumber": "38",
                "addr:teryt:simc": 513797,
                "contact:phone": "+48 297725035",
                "contact:email": "sppupkowizna@interia.pl",
                "ref:regon": "146413335",
                "ref:vatin": "PL7582066991",
                "operator": "Stowarzyszenie Inicjatyw Gospodarczych I Edukacyjnych Im. Karola Adamieckiego Oddzia\u0142 W Ostro\u0142\u0119ce",
                "operator:type": "ngo",
                "amenity": "school"
            }
        },
        {
            "id": 128729,
            "type": "Feature",
            "geometry": {
                "type": "Point",
                "coordinates": [
                    21.55421,
                    53.40285
                ]
            },
            "properties": {
                "isced:level": "1;2",
                "ref:rspo": 128729,
                "official_name": "Szko\u0142a Podstawowa w Wejdzie",
                "name": "Szko\u0142a Podstawowa w Wejdzie",
                "addr:country": "PL",
                "addr:postcode": "07-438",
                "addr:place": "Wejdo",
                "addr:housenumber": "58",
                "addr:teryt:simc": 513952,
                "contact:phone": "+48 297725257",
                "contact:email": "spwejdo@interia.pl",
                "ref:regon": "362390609",
                "operator": "Stowarzyszenie Edukacyjne W Wejdzie \"Wsp\u00f3lne Dobro\"",
                "operator:type": "ngo",
                "amenity": "school"
            }
        },
        {
            "id": 80342,
            "type": "Feature",
            "geometry": {
                "type": "Point",
                "coordinates": [
                    21.56433,
                    53.4259
                ]
            },
            "properties": {
                "isced:level": "1;2",
                "ref:rspo": 80342,
                "official_name": "Szko\u0142a Podstawowa w Zalasiu",
                "name": "Szko\u0142a Podstawowa w Zalasiu",
                "addr:country": "PL",
                "addr:postcode": "07-438",
                "addr:place": "Zalas",
                "addr:housenumber": "1",
                "addr:teryt:simc": 514118,
                "contact:phone": "+48 297725228",
                "contact:email": "zs.sekretariat@wp.pl",
                "ref:regon": "001105474",
                "operator": "Gmina \u0141yse",
                "operator:type": "government",
                "amenity": "school"
            }
        },
        {
            "id": 128732,
            "type": "Feature",
            "geometry": {
                "type": "Point",
                "coordinates": [
                    21.47995,
                    53.45811
                ]
            },
            "properties": {
                "isced:level": "1;2",
                "ref:rspo": 128732,
                "official_name": "Szko\u0142a Podstawowa Sigie im. Karola Adamieckiego w Warmiaku",
                "name": "Szko\u0142a Podstawowa Sigie",
                "addr:country": "PL",
                "addr:postcode": "07-438",
                "addr:place": "Warmiak",
                "addr:housenumber": "16",
                "addr:teryt:simc": 513946,
                "contact:phone": "+48 297725255",
                "contact:email": "spwarmiak@interia.pl",
                "ref:regon": "362390437",
                "operator": "Stowarzyszenie Inicjatyw Gospodarczych I Edukacyjnych Im. Karola Adamieckiego Oddzia\u0142 W Ostro\u0142\u0119ce",
                "operator:type": "ngo",
                "amenity": "school"
            }
        },
        {
            "id": 128730,
            "type": "Feature",
            "geometry": {
                "type": "Point",
                "coordinates": [
                    21.56737,
                    53.4705
                ]
            },
            "properties": {
                "isced:level": "1;2",
                "ref:rspo": 128730,
                "official_name": "Szko\u0142a Podstawowa im. Stanis\u0142awa Krupki w \u0141\u0105czkach",
                "name": "Szko\u0142a Podstawowa",
                "addr:country": "PL",
                "addr:postcode": "07-438",
                "addr:place": "\u0141\u0105czki",
                "addr:housenumber": "103",
                "addr:teryt:simc": 513656,
                "contact:phone": "+48 297725834",
                "contact:email": "spwlaczkach@gmail.com",
                "ref:regon": "362390816",
                "operator": "Stowarzyszenie Rozwoju Wsi Serafin",
                "operator:type": "ngo",
                "amenity": "school"
            }
        }
    ]
}