{
    "type": "FeatureCollection",
    "features": [
        {
            "id": 81389,
            "type": "Feature",
            "geometry": {
                "type": "Point",
                "coordinates": [
                    21.58783,
                    52.99542
                ]
            },
            "properties": {
                "isced:level": "1;2",
                "ref:rspo": 81389,
                "official_name": "Szko\u0142a Podstawowa im. Or\u0142a Bia\u0142ego",
                "name": "Szko\u0142a Podstawowa",
                "addr:country": "PL",
                "addr:postcode": "07-411",
                "addr:place": "Borawe",
                "addr:housenumber": "107",
                "addr:teryt:sym_ul": 519340,
                "contact:phone": "+48 297647277",
                "contact:email": "sp.borawe@wp.pl",
                "ref:regon": "001106723",
                "ref:vatin": "PL7581967396",
                "operator": "Gmina Rzeku\u0144",
                "operator:type": "government",
                "amenity": "school"
            }
        },
        {
            "id": 126057,
            "type": "Feature",
            "geometry": {
                "type": "Point",
                "coordinates": [
                    21.58783,
                    52.99539
                ]
            },
            "properties": {
                "ref:rspo": 126057,
                "official_name": "Punkt Przedszkolny Przy Szkole Podstawowej im. Or\u0142a Bia\u0142ego w Borawem",
                "name": "Punkt Przedszkolny Przy Szkole Podstawowej",
                "addr:country": "PL",
                "addr:postcode": "07-411",
                "addr:place": "Borawe",
                "addr:housenumber": "107",
                "addr:teryt:sym_ul": 519340,
                "contact:phone": "+48 297647277",
                "ref:regon": "360150083",
                "operator": "Gmina Rzeku\u0144",
                "operator:type": "government",
                "amenity": "kindergarten"
            }
        },
        {
            "id": 90362,
            "type": "Feature",
            "geometry": {
                "type": "Point",
                "coordinates": [
                    21.54566,
                    53.0531999
                ]
            },
            "properties": {
                "isced:level": "1;2",
                "ref:rspo": 90362,
                "official_name": "Szko\u0142a Podstawowa im. Mieczys\u0142awa Czychowskiego",
                "name": "Szko\u0142a Podstawowa",
                "addr:country": "PL",
                "addr:postcode": "07-410",
                "addr:place": "Dzbenin",
                "addr:housenumber": "6A",
                "addr:teryt:sym_ul": 519400,
                "contact:phone": "+48 297646808",
                "contact:email": "dzbenin@interia.pl",
                "contact:website": "http:\/\/spdzbenin.edupage.org",
                "ref:regon": "001244299",
                "ref:vatin": "PL7581949754",
                "operator": "Gmina Rzeku\u0144",
                "operator:type": "government",
                "amenity": "school"
            }
        },
        {
            "id": 126062,
            "type": "Feature",
            "geometry": {
                "type": "Point",
                "coordinates": [
                    21.54566,
                    53.0531699
                ]
            },
            "properties": {
                "ref:rspo": 126062,
                "official_name": "Punkt Przedszkolny Przy Szkole Podstawowej im. Mieczys\u0142awa Czychowskiego w Dzbeninie",
                "name": "Punkt Przedszkolny Przy Szkole Podstawowej",
                "addr:country": "PL",
                "addr:postcode": "07-410",
                "addr:place": "Dzbenin",
                "addr:housenumber": "6A",
                "addr:teryt:sym_ul": 519400,
                "contact:phone": "+48 297646808",
                "ref:regon": "360150746",
                "operator": "Gmina Rzeku\u0144",
                "operator:type": "government",
                "amenity": "kindergarten"
            }
        },
        {
            "id": 107679,
            "type": "Feature",
            "geometry": {
                "type": "Point",
                "coordinates": [
                    21.69315,
                    53.0957099
                ]
            },
            "properties": {
                "isced:level": "1;2",
                "ref:rspo": 107679,
                "official_name": "Szko\u0142a Podstawowa",
                "name": "Szko\u0142a Podstawowa",
                "addr:country": "PL",
                "addr:postcode": "07-411",
                "addr:place": "O\u0142daki",
                "addr:housenumber": "8A",
                "addr:teryt:sym_ul": 519535,
                "contact:phone": "+48 297647523",
                "contact:email": "sekretariat@spoldaki.rzekun.pl",
                "contact:website": "http:\/\/www.spoldaki.rzekun.pl",
                "ref:regon": "001106700",
                "ref:vatin": "PL7582348910",
                "operator": "Gmina Rzeku\u0144",
                "operator:type": "government",
                "amenity": "school"
            }
        },
        {
            "id": 126064,
            "type": "Feature",
            "geometry": {
                "type": "Point",
                "coordinates": [
                    21.69315,
                    53.0956799
                ]
            },
            "properties": {
                "ref:rspo": 126064,
                "official_name": "Punkt Przedszkolny Przy Szkole Podstawowej w O\u0142dakach",
                "name": "Punkt Przedszkolny Przy Szkole Podstawowej w O\u0142dakach",
                "addr:country": "PL",
                "addr:postcode": "07-411",
                "addr:place": "O\u0142daki",
                "addr:housenumber": "8A",
                "addr:teryt:sym_ul": 519535,
                "contact:phone": "+48 297647523",
                "ref:regon": "360152142",
                "operator": "Gmina Rzeku\u0144",
                "operator:type": "government",
                "amenity": "kindergarten"
            }
        },
        {
            "id": 105092,
            "type": "Feature",
            "geometry": {
                "type": "Point",
                "coordinates": [
                    21.6671,
                    53.11615
                ]
            },
            "properties": {
                "ref:rspo": 105092,
                "official_name": "Zak\u0142ad Poprawczy I Schronisko dla Nieletnich w Laskowcu",
                "name": "Zak\u0142ad Poprawczy I Schronisko dla Nieletnich w Laskowcu",
                "addr:country": "PL",
                "addr:postcode": "07-401",
                "addr:city": "Laskowiec",
                "addr:street": "Mazurska",
                "addr:housenumber": "28",
                "addr:teryt:simc": 12555,
                "addr:teryt:sym_ul": 519446,
                "contact:phone": "+48 297647605",
                "contact:email": "sekretariat@laskowiec.zpisdn.gov.pl",
                "contact:website": "http:\/\/www.laskowiec.zpisdn.gov.pl",
                "ref:regon": "000669080",
                "operator": "Ministerstwo Sprawiedliwo\u015bci",
                "operator:type": "public",
                "note": "Children RSPO: 124721;124724"
            }
        },
        {
            "id": 124721,
            "type": "Feature",
            "geometry": {
                "type": "Point",
                "coordinates": [
                    21.6671,
                    53.116119999999995
                ]
            },
            "properties": {
                "isced:level": "1;2",
                "ref:rspo": 124721,
                "official_name": "Szko\u0142a Podstawowa Nr 2 w Laskowcu",
                "name": "Szko\u0142a Podstawowa Nr 2 w Laskowcu",
                "addr:country": "PL",
                "addr:postcode": "07-401",
                "addr:city": "Laskowiec",
                "addr:street": "Mazurska",
                "addr:housenumber": "28",
                "addr:teryt:simc": 12555,
                "addr:teryt:sym_ul": 519446,
                "contact:phone": "+48 297647605",
                "contact:email": "sekretariat@laskowiec.zpisdn.gov.pl",
                "contact:website": "http:\/\/www.laskowiec.zpisdn.gov.pl",
                "ref:regon": "147404433",
                "operator": "Ministerstwo Sprawiedliwo\u015bci",
                "operator:type": "public",
                "amenity": "school",
                "note": "Parent RSPO: 105092"
            }
        },
        {
            "id": 124724,
            "type": "Feature",
            "geometry": {
                "type": "Point",
                "coordinates": [
                    21.6671,
                    53.11609
                ]
            },
            "properties": {
                "isced:level": "3",
                "ref:rspo": 124724,
                "official_name": "Bran\u017cowa Szko\u0142a I Stopnia w Zak\u0142adzie Poprawczym I Schronisku dla Nieletnich w Laskowcu",
                "name": "Bran\u017cowa Szko\u0142a I Stopnia w Zak\u0142adzie Poprawczym I Schronisku dla Nieletnich w Laskowcu",
                "addr:country": "PL",
                "addr:postcode": "07-401",
                "addr:city": "Laskowiec",
                "addr:street": "Mazurska",
                "addr:housenumber": "28",
                "addr:teryt:simc": 12555,
                "addr:teryt:sym_ul": 519446,
                "contact:phone": "+48 297647606",
                "contact:email": "sekretariat@laskowiec.zpisdn.gov.pl",
                "contact:website": "http:\/\/www.laskowiec.zpisdn.gov.pl",
                "ref:regon": "147404462",
                "operator": "Ministerstwo Sprawiedliwo\u015bci",
                "operator:type": "public",
                "amenity": "school",
                "note": "Parent RSPO: 105092"
            }
        },
        {
            "id": 83682,
            "type": "Feature",
            "geometry": {
                "type": "Point",
                "coordinates": [
                    21.66506,
                    53.1164599
                ]
            },
            "properties": {
                "ref:rspo": 83682,
                "official_name": "Przedszkole Samorz\u0105dowe",
                "name": "Przedszkole Samorz\u0105dowe",
                "addr:country": "PL",
                "addr:postcode": "07-411",
                "addr:city": "Rzeku\u0144",
                "addr:street": "Nowa",
                "addr:housenumber": "7",
                "addr:teryt:simc": 14330,
                "addr:teryt:sym_ul": 519558,
                "contact:phone": "+48 297617379",
                "contact:email": "przedszkolerzekun@o2.pl",
                "ref:regon": "000912706",
                "ref:vatin": "PL7581958115",
                "operator": "Gmina Rzeku\u0144",
                "operator:type": "government",
                "amenity": "kindergarten"
            }
        },
        {
            "id": 90363,
            "type": "Feature",
            "geometry": {
                "type": "Point",
                "coordinates": [
                    21.66506,
                    53.1164299
                ]
            },
            "properties": {
                "isced:level": "1;2",
                "ref:rspo": 90363,
                "official_name": "Szko\u0142a Podstawowa im. Gen. J. Bema",
                "name": "Szko\u0142a Podstawowa",
                "addr:country": "PL",
                "addr:postcode": "07-411",
                "addr:city": "Rzeku\u0144",
                "addr:street": "Nowa",
                "addr:housenumber": "7",
                "addr:teryt:simc": 14330,
                "addr:teryt:sym_ul": 519558,
                "contact:phone": "+48 297610134",
                "contact:email": "sekretariat@sp.rzekun.pl",
                "contact:website": "http:\/\/sprzekun.ddv.pl",
                "ref:regon": "000640900",
                "ref:vatin": "PL7581946885",
                "operator": "Gmina Rzeku\u0144",
                "operator:type": "government",
                "amenity": "school"
            }
        },
        {
            "id": 81390,
            "type": "Feature",
            "geometry": {
                "type": "Point",
                "coordinates": [
                    21.66458,
                    53.12082
                ]
            },
            "properties": {
                "isced:level": "1;2",
                "ref:rspo": 81390,
                "official_name": "Szko\u0142a Podstawowa Nr 1 im. Ksi\u0119dza Antoniego P\u0119ksy",
                "name": "Szko\u0142a Podstawowa Nr 1",
                "addr:country": "PL",
                "addr:postcode": "07-401",
                "addr:city": "Laskowiec",
                "addr:street": "D\u0142uga",
                "addr:housenumber": "90",
                "addr:teryt:simc": 3839,
                "addr:teryt:sym_ul": 519446,
                "contact:phone": "+48 297647351",
                "contact:email": "splaskowiec@poczta.onet.pl",
                "contact:website": "http:\/\/www.splaskowiec.rzekun.pl",
                "ref:regon": "001248771",
                "ref:vatin": "PL7581957771",
                "operator": "Gmina Rzeku\u0144",
                "operator:type": "government",
                "amenity": "school"
            }
        },
        {
            "id": 126063,
            "type": "Feature",
            "geometry": {
                "type": "Point",
                "coordinates": [
                    21.66458,
                    53.12079
                ]
            },
            "properties": {
                "ref:rspo": 126063,
                "official_name": "Punkt Przedszkolny Przy Szkole Podstawowej Nr 1 im. Ks. Antoniego P\u0119ksy w Laskowcu",
                "name": "Punkt Przedszkolny Przy Szkole Podstawowej Nr 1",
                "addr:country": "PL",
                "addr:postcode": "07-401",
                "addr:city": "Laskowiec",
                "addr:street": "D\u0142uga",
                "addr:housenumber": "90",
                "addr:teryt:simc": 3839,
                "addr:teryt:sym_ul": 519446,
                "contact:phone": "+48 297647351",
                "ref:regon": "360151958",
                "operator": "Gmina Rzeku\u0144",
                "operator:type": "government",
                "amenity": "kindergarten"
            }
        },
        {
            "id": 90306,
            "type": "Feature",
            "geometry": {
                "type": "Point",
                "coordinates": [
                    21.500663757324,
                    53.161602020264
                ]
            },
            "properties": {
                "isced:level": "1;2",
                "ref:rspo": 90306,
                "official_name": "Szko\u0142a Podstawowa im. Armii Krajowej",
                "name": "Szko\u0142a Podstawowa",
                "addr:country": "PL",
                "addr:postcode": "07-411",
                "addr:place": "Drw\u0119cz",
                "addr:housenumber": "44",
                "addr:teryt:sym_ul": 519392,
                "contact:phone": "+48 297617322",
                "contact:email": "sp.drwecz6@wp.pl",
                "ref:regon": "001106717",
                "ref:vatin": "PL7581949984",
                "operator": "Gmina Rzeku\u0144",
                "operator:type": "government",
                "amenity": "school"
            }
        },
        {
            "id": 126061,
            "type": "Feature",
            "geometry": {
                "type": "Point",
                "coordinates": [
                    21.500663757324,
                    53.161572020263996
                ]
            },
            "properties": {
                "ref:rspo": 126061,
                "official_name": "Punkt Przedszkolny Przy Szkole Podstawowej im. Armii Krajowej w Drw\u0119czy",
                "name": "Punkt Przedszkolny Przy Szkole Podstawowej",
                "addr:country": "PL",
                "addr:postcode": "07-411",
                "addr:place": "Drw\u0119cz",
                "addr:housenumber": "44",
                "addr:teryt:sym_ul": 519392,
                "contact:phone": "+48 297617322",
                "ref:regon": "360142050",
                "operator": "Gmina Rzeku\u0144",
                "operator:type": "government",
                "amenity": "kindergarten"
            }
        }
    ]
}