{
    "type": "FeatureCollection",
    "features": [
        {
            "id": 86553,
            "type": "Feature",
            "geometry": {
                "type": "Point",
                "coordinates": [
                    21.76067,
                    52.94688
                ]
            },
            "properties": {
                "ref:rspo": 86553,
                "official_name": "Przedszkole Samorz\u0105dowe w Czerwinie",
                "name": "Przedszkole Samorz\u0105dowe w Czerwinie",
                "addr:country": "PL",
                "addr:postcode": "07-407",
                "addr:city": "Czerwin",
                "addr:street": "Parkowa",
                "addr:housenumber": "3",
                "addr:teryt:simc": 15710,
                "addr:teryt:sym_ul": 508158,
                "contact:email": "przedszkole.czerwin@wp.pl",
                "ref:regon": "000912913",
                "ref:vatin": "PL7582045428",
                "operator": "Gmina Czerwin",
                "operator:type": "government",
                "amenity": "kindergarten"
            }
        },
        {
            "id": 22441,
            "type": "Feature",
            "geometry": {
                "type": "Point",
                "coordinates": [
                    21.74908,
                    52.94872
                ]
            },
            "properties": {
                "ref:rspo": 22441,
                "official_name": "Zesp\u00f3\u0142 Szk\u00f3\u0142 Powiatowych im. Papie\u017ca Jana Paw\u0142a Ii",
                "name": "Zesp\u00f3\u0142 Szk\u00f3\u0142 Powiatowych",
                "addr:country": "PL",
                "addr:postcode": "07-407",
                "addr:city": "Czerwin",
                "addr:street": "Piastowska",
                "addr:housenumber": "23A",
                "addr:teryt:simc": 16046,
                "addr:teryt:sym_ul": 508158,
                "contact:phone": "+48 297614515",
                "contact:email": "zsp_czerwin@wp.pl",
                "contact:website": "http:\/\/www.zspczerwin.edu.pl",
                "ref:regon": "000781279",
                "ref:vatin": "PL7591024213",
                "operator": "Powiat Ostro\u0142\u0119cki",
                "operator:type": "government",
                "landuse": "education",
                "fixme": "amenity=school, amenity=college albo landuse=education w zale\u017cno\u015bci od tego, jakie plac\u00f3wki wchodz\u0105 w sk\u0142ad zespo\u0142u. Sprawd\u017a, kiedy stosowa\u0107 amenity=* a kiedy landuse=education.",
                "note": "Children RSPO: 73106;73798;74303;74326;77967"
            }
        },
        {
            "id": 87765,
            "type": "Feature",
            "geometry": {
                "type": "Point",
                "coordinates": [
                    21.74908,
                    52.94869
                ]
            },
            "properties": {
                "isced:level": "1;2",
                "ref:rspo": 87765,
                "official_name": "Szko\u0142a Podstawowa im. Kardyna\u0142a Stefana Wyszy\u0144skiego w Czerwinie",
                "name": "Szko\u0142a Podstawowa",
                "addr:country": "PL",
                "addr:postcode": "07-407",
                "addr:city": "Czerwin",
                "addr:street": "Piastowska",
                "addr:housenumber": "23A",
                "addr:teryt:simc": 16046,
                "addr:teryt:sym_ul": 508158,
                "contact:phone": "+48 297614501",
                "contact:email": "sekretariat@czerwin.edu.pl",
                "ref:regon": "000639430",
                "ref:vatin": "PL7582046095",
                "operator": "Gmina Czerwin",
                "operator:type": "government",
                "amenity": "school"
            }
        },
        {
            "id": 125742,
            "type": "Feature",
            "geometry": {
                "type": "Point",
                "coordinates": [
                    21.74908,
                    52.948660000000004
                ]
            },
            "properties": {
                "ref:rspo": 125742,
                "official_name": "Poradnia Psychologiczno - Pedagogiczna w Czerwinie",
                "name": "Poradnia Psychologiczno - Pedagogiczna w Czerwinie",
                "addr:country": "PL",
                "addr:postcode": "07-407",
                "addr:city": "Czerwin",
                "addr:street": "Piastowska",
                "addr:housenumber": "23A",
                "addr:teryt:simc": 16046,
                "addr:teryt:sym_ul": 508158,
                "contact:phone": "+48 297619042",
                "contact:email": "biuro@poradniawczerwinie.edu.pl",
                "contact:website": "http:\/\/www.poradniwczerwinie.edu.pl",
                "ref:regon": "147474959",
                "operator": "Powiat Ostro\u0142\u0119cki",
                "operator:type": "government",
                "healthcare": "counselling",
                "counselling_type": "education",
                "fixme": "w zale\u017cno\u015bci od przedmiotu dzia\u0142alno\u015bci (np. healthcare=counselling + counselling_type=education albo healthcare=psychotherapist)"
            }
        },
        {
            "id": 73106,
            "type": "Feature",
            "geometry": {
                "type": "Point",
                "coordinates": [
                    21.74908,
                    52.94863
                ]
            },
            "properties": {
                "isced:level": "3",
                "ref:rspo": 73106,
                "official_name": "Liceum Og\u00f3lnokszta\u0142c\u0105ce w Czerwinie",
                "name": "Liceum Og\u00f3lnokszta\u0142c\u0105ce w Czerwinie",
                "addr:country": "PL",
                "addr:postcode": "07-407",
                "addr:city": "Czerwin",
                "addr:street": "Piastowska",
                "addr:housenumber": "23A",
                "addr:teryt:simc": 16046,
                "addr:teryt:sym_ul": 508158,
                "contact:phone": "+48 297614515",
                "contact:email": "zsp_czerwin@wp.pl",
                "ref:regon": "146403242",
                "operator": "Powiat Ostro\u0142\u0119cki",
                "operator:type": "government",
                "amenity": "school",
                "note": "Parent RSPO: 22441"
            }
        },
        {
            "id": 73798,
            "type": "Feature",
            "geometry": {
                "type": "Point",
                "coordinates": [
                    21.74908,
                    52.9486
                ]
            },
            "properties": {
                "isced:level": "3",
                "ref:rspo": 73798,
                "official_name": "Technikum w Czerwinie",
                "name": "Technikum w Czerwinie",
                "addr:country": "PL",
                "addr:postcode": "07-407",
                "addr:city": "Czerwin",
                "addr:street": "Piastowska",
                "addr:housenumber": "23A",
                "addr:teryt:simc": 16046,
                "addr:teryt:sym_ul": 508158,
                "contact:phone": "+48 297614515",
                "contact:email": "zsp_czerwin@wp.pl",
                "contact:website": "http:\/\/www.zspczerwin.edu.pl",
                "ref:regon": "140214209",
                "operator": "Powiat Ostro\u0142\u0119cki",
                "operator:type": "government",
                "amenity": "school",
                "note": "Parent RSPO: 22441"
            }
        },
        {
            "id": 74303,
            "type": "Feature",
            "geometry": {
                "type": "Point",
                "coordinates": [
                    21.74908,
                    52.948570000000004
                ]
            },
            "properties": {
                "isced:level": "3",
                "ref:rspo": 74303,
                "official_name": "Branzowa Szko\u0142a I Stopnia",
                "name": "Branzowa Szko\u0142a I Stopnia",
                "addr:country": "PL",
                "addr:postcode": "07-407",
                "addr:city": "Czerwin",
                "addr:street": "Piastowska",
                "addr:housenumber": "23A",
                "addr:teryt:simc": 16046,
                "addr:teryt:sym_ul": 508158,
                "contact:phone": "+48 297614515",
                "contact:email": "zsp_czerwin@wp.pl",
                "ref:regon": "551255897",
                "operator": "Powiat Ostro\u0142\u0119cki",
                "operator:type": "government",
                "amenity": "school",
                "note": "Parent RSPO: 22441"
            }
        },
        {
            "id": 74326,
            "type": "Feature",
            "geometry": {
                "type": "Point",
                "coordinates": [
                    21.74908,
                    52.94854
                ]
            },
            "properties": {
                "isced:level": "3",
                "ref:rspo": 74326,
                "official_name": "Liceum Og\u00f3lnokszta\u0142c\u0105ce dla Doros\u0142ych w Czerwinie",
                "name": "Liceum Og\u00f3lnokszta\u0142c\u0105ce dla Doros\u0142ych w Czerwinie",
                "addr:country": "PL",
                "addr:postcode": "07-407",
                "addr:city": "Czerwin",
                "addr:street": "Piastowska",
                "addr:housenumber": "23A",
                "addr:teryt:simc": 16046,
                "addr:teryt:sym_ul": 508158,
                "contact:phone": "+48 297614515",
                "contact:email": "zsp_czerwin@wp.pl",
                "contact:website": "http:\/\/www.zspczerwin.edu.pl",
                "ref:regon": "146404543",
                "operator": "Powiat Ostro\u0142\u0119cki",
                "operator:type": "government",
                "amenity": "school",
                "note": "Parent RSPO: 22441"
            }
        },
        {
            "id": 77967,
            "type": "Feature",
            "geometry": {
                "type": "Point",
                "coordinates": [
                    21.74908,
                    52.94851
                ]
            },
            "properties": {
                "isced:level": "4",
                "ref:rspo": 77967,
                "official_name": "Szko\u0142a Policealna w Czerwinie",
                "name": "Szko\u0142a Policealna w Czerwinie",
                "addr:country": "PL",
                "addr:postcode": "07-407",
                "addr:city": "Czerwin",
                "addr:street": "Piastowska",
                "addr:housenumber": "23A",
                "addr:teryt:simc": 16046,
                "addr:teryt:sym_ul": 508158,
                "contact:phone": "+48 297614515",
                "contact:email": "zsp_czerwin@wp.pl",
                "contact:website": "http:\/\/www.zspczerwin.edu.pl",
                "ref:regon": "551334065",
                "operator": "Powiat Ostro\u0142\u0119cki",
                "operator:type": "government",
                "amenity": "college",
                "note": "Parent RSPO: 22441"
            }
        },
        {
            "id": 87643,
            "type": "Feature",
            "geometry": {
                "type": "Point",
                "coordinates": [
                    21.86541,
                    52.9926
                ]
            },
            "properties": {
                "isced:level": "1;2",
                "ref:rspo": 87643,
                "official_name": "Szko\u0142a Podstawowa w Piskach",
                "name": "Szko\u0142a Podstawowa w Piskach",
                "addr:country": "PL",
                "addr:postcode": "07-407",
                "addr:city": "Piski",
                "addr:street": "Juliusza S\u0142owackiego",
                "addr:housenumber": "22",
                "addr:teryt:simc": 20291,
                "addr:teryt:sym_ul": 508359,
                "contact:email": "szkolapodst123@wp.pl",
                "ref:regon": "000696958",
                "ref:vatin": "PL7582044593",
                "operator": "Gmina Czerwin",
                "operator:type": "government",
                "amenity": "school"
            }
        }
    ]
}