{"type":"FeatureCollection","features":[{"id":85998,"type":"Feature","geometry":{"type":"Point","coordinates":[21.6470999,53.27442]},"properties":{"isced:level":"1;2","ref:rspo":85998,"official_name":"Publiczna Szko\u0142a Podstawowa im. Jana Paw\u0142a II w Czarni","name":"Publiczna Szko\u0142a Podstawowa","addr:country":"PL","addr:postcode":"07-431","addr:place":"Czarnia","addr:housenumber":"42","addr:teryt:sym_ul":508000,"contact:phone":"+48 297727014","contact:email":"spczarnia@wp.pl","ref:regon":"000697120","ref:vatin":"PL7582325547","operator":"Gmina Czarnia","operator:type":"government","amenity":"school"}},{"id":56427,"type":"Feature","geometry":{"type":"Point","coordinates":[21.14294,53.32999]},"properties":{"ref:rspo":56427,"official_name":"Zielony Gaik w Surowem","name":"Zielony Gaik w Surowem","addr:country":"PL","addr:postcode":"07-431","addr:place":"Surowe","addr:housenumber":"194","addr:teryt:sym_ul":508081,"contact:phone":"+48 297727595","ref:regon":"146380222","operator":"Zwi\u0105zek Stowarzysze\u0144 \"Kurpsie Razem\"","operator:type":"ngo","amenity":"kindergarten"}},{"id":86198,"type":"Feature","geometry":{"type":"Point","coordinates":[21.14294,53.32996]},"properties":{"isced:level":"1;2","ref:rspo":86198,"official_name":"Publiczna Szko\u0142a Podstawowa im. Brata Zenona \u017bebrowskiego w Surowem","name":"Publiczna Szko\u0142a Podstawowa","addr:country":"PL","addr:postcode":"07-431","addr:place":"Surowe","addr:housenumber":"194","addr:teryt:sym_ul":508081,"contact:phone":"+48 297727595","contact:email":"spsurowe@wp.pl","ref:regon":"001106516","ref:vatin":"PL7582325553","operator":"Gmina Czarnia","operator:type":"government","amenity":"school"}},{"id":40123,"type":"Feature","geometry":{"type":"Point","coordinates":[21.19829,53.35587]},"properties":{"ref:rspo":40123,"official_name":"Specjalny O\u015brodek Szkolno-Wychowawczy im. Brata Zenona \u017bebrowskiego w Czarnii","name":"Specjalny O\u015brodek Szkolno-Wychowawczy","addr:country":"PL","addr:postcode":"07-431","addr:place":"Czarnia","addr:housenumber":"36","addr:teryt:sym_ul":508000,"contact:phone":"+48 297727061","contact:email":"sekretariat@soswczarnia.pl","contact:website":"http:\/\/www.soswczarnia.pl","ref:regon":"001074012","ref:vatin":"PL7581902296","operator":"Wojew\u00f3dztwo Mazowieckie","operator:type":"government","amenity":"school","note":"Children RSPO: 73118;83875"}},{"id":73118,"type":"Feature","geometry":{"type":"Point","coordinates":[21.19829,53.35584]},"properties":{"isced:level":"1;2","ref:rspo":73118,"official_name":"Specjalny O\u015brodek Szkolno-Wychowawczy im. Brata Zenona \u017bebrowskiego w Czarni - Szko\u0142a Podstawowa","name":"Specjalny O\u015brodek Szkolno-Wychowawczy","addr:country":"PL","addr:postcode":"07-431","addr:place":"Czarnia","addr:housenumber":"36","addr:teryt:sym_ul":508000,"contact:phone":"+48 297727061","contact:email":"sekretariat@soswczarnia.pl","contact:website":"http:\/\/www.soswczarnia.pl","ref:regon":"001075046","ref:vatin":"PL7581902296","operator":"Wojew\u00f3dztwo Mazowieckie","operator:type":"government","amenity":"school","note":"Parent RSPO: 40123"}},{"id":83875,"type":"Feature","geometry":{"type":"Point","coordinates":[21.19829,53.355810000000005]},"properties":{"ref:rspo":83875,"official_name":"Specjalny O\u015brodek Szkolno-Wychowawczy im. Brata Zenona \u017bebrowskiego w Czarni - Szko\u0142a Przysposabiaj\u0105ca Do Pracy","name":"Specjalny O\u015brodek Szkolno-Wychowawczy","addr:country":"PL","addr:postcode":"07-431","addr:place":"Czarnia","addr:housenumber":"36","addr:teryt:sym_ul":508000,"contact:phone":"+48 297727061","contact:email":"sekretariat@soswczarnia.pl","contact:website":"http:\/\/www.soswczarnia.pl","ref:regon":"550758343","ref:vatin":"PL7581902296","operator":"Wojew\u00f3dztwo Mazowieckie","operator:type":"government","amenity":"school","note":"Parent RSPO: 40123"}}]}