{
    "type": "FeatureCollection",
    "features": [
        {
            "id": 12036,
            "type": "Feature",
            "geometry": {
                "type": "Point",
                "coordinates": [
                    18.03669,
                    52.81663
                ]
            },
            "properties": {
                "ref:rspo": 12036,
                "official_name": "Zesp\u00f3\u0142 Szk\u00f3\u0142 Niepublicznych w Piechcinie",
                "name": "Zesp\u00f3\u0142 Szk\u00f3\u0142 Niepublicznych w Piechcinie",
                "addr:country": "PL",
                "addr:postcode": "88-192",
                "addr:city": "Piechcin",
                "addr:street": "ul. Rad\u0142owska",
                "addr:housenumber": "10",
                "addr:teryt:simc": 18304,
                "addr:teryt:sym_ul": 79409,
                "contact:phone": "+48 523837086",
                "contact:email": "sekretariat@zsnpiechcin.pl",
                "contact:website": "http:\/\/www.zsnpiechcin.pl",
                "ref:regon": "341325229",
                "operator": "Pa\u0142uckie Stowarzyszenie \"Przysz\u0142o\u015b\u0107\"",
                "operator:type": "ngo",
                "landuse": "education",
                "fixme": "amenity=school, amenity=college albo landuse=education w zale\u017cno\u015bci od tego, jakie plac\u00f3wki wchodz\u0105 w sk\u0142ad zespo\u0142u. Sprawd\u017a, kiedy stosowa\u0107 amenity=* a kiedy landuse=education.",
                "note": "Children RSPO: 16727;16728;16802;113518;120878"
            }
        },
        {
            "id": 16727,
            "type": "Feature",
            "geometry": {
                "type": "Point",
                "coordinates": [
                    18.03669,
                    52.8166
                ]
            },
            "properties": {
                "isced:level": "3",
                "ref:rspo": 16727,
                "official_name": "Technikum Zawodowe w Piechcinie",
                "name": "Technikum Zawodowe w Piechcinie",
                "addr:country": "PL",
                "addr:postcode": "88-192",
                "addr:city": "Piechcin",
                "addr:street": "ul. Rad\u0142owska",
                "addr:housenumber": "10",
                "addr:teryt:simc": 18304,
                "addr:teryt:sym_ul": 79409,
                "contact:phone": "+48 523837086",
                "contact:email": "sekretariat@zsnpiechcin.pl",
                "contact:website": "http:\/\/www.zsnpiechcin.pl",
                "ref:regon": "341330779",
                "operator": "Pa\u0142uckie Stowarzyszenie \"Przysz\u0142o\u015b\u0107\"",
                "operator:type": "ngo",
                "amenity": "school",
                "note": "Parent RSPO: 12036"
            }
        },
        {
            "id": 16728,
            "type": "Feature",
            "geometry": {
                "type": "Point",
                "coordinates": [
                    18.03669,
                    52.816570000000006
                ]
            },
            "properties": {
                "isced:level": "3",
                "ref:rspo": 16728,
                "official_name": "Bran\u017cowa Szko\u0142a I Stopnia w Piechcinie",
                "name": "Bran\u017cowa Szko\u0142a I Stopnia w Piechcinie",
                "addr:country": "PL",
                "addr:postcode": "88-192",
                "addr:city": "Piechcin",
                "addr:street": "ul. Rad\u0142owska",
                "addr:housenumber": "10",
                "addr:teryt:simc": 18304,
                "addr:teryt:sym_ul": 79409,
                "contact:phone": "+48 523837086",
                "contact:email": "sekretariat@zsnpiechcin.pl",
                "contact:website": "http:\/\/www.zsnpiechcin.pl",
                "ref:regon": "341330791",
                "operator": "Pa\u0142uckie Stowarzyszenie \"Przysz\u0142o\u015b\u0107\"",
                "operator:type": "ngo",
                "amenity": "school",
                "note": "Parent RSPO: 12036"
            }
        },
        {
            "id": 16802,
            "type": "Feature",
            "geometry": {
                "type": "Point",
                "coordinates": [
                    18.03669,
                    52.81654
                ]
            },
            "properties": {
                "isced:level": "4",
                "ref:rspo": 16802,
                "official_name": "Szko\u0142a Policealna w Piechcinie",
                "name": "Szko\u0142a Policealna w Piechcinie",
                "addr:country": "PL",
                "addr:postcode": "88-192",
                "addr:city": "Piechcin",
                "addr:street": "ul. Rad\u0142owska",
                "addr:housenumber": "10",
                "addr:teryt:simc": 18304,
                "addr:teryt:sym_ul": 79409,
                "contact:phone": "+48 523837086",
                "contact:email": "sekretariat@zsnpiechcin.pl",
                "contact:website": "http:\/\/www.zsnpiechcin.pl",
                "ref:regon": "341330822",
                "operator": "Pa\u0142uckie Stowarzyszenie \"Przysz\u0142o\u015b\u0107\"",
                "operator:type": "ngo",
                "amenity": "college",
                "note": "Parent RSPO: 12036"
            }
        },
        {
            "id": 113518,
            "type": "Feature",
            "geometry": {
                "type": "Point",
                "coordinates": [
                    18.03669,
                    52.81651
                ]
            },
            "properties": {
                "isced:level": "3",
                "ref:rspo": 113518,
                "official_name": "Liceum Og\u00f3lnokszta\u0142c\u0105ce dla M\u0142odzie\u017cy w Piechcinie",
                "name": "Liceum Og\u00f3lnokszta\u0142c\u0105ce dla M\u0142odzie\u017cy w Piechcinie",
                "addr:country": "PL",
                "addr:postcode": "88-192",
                "addr:city": "Piechcin",
                "addr:street": "ul. Rad\u0142owska",
                "addr:housenumber": "10",
                "addr:teryt:simc": 18304,
                "addr:teryt:sym_ul": 79409,
                "contact:phone": "+48 523837086",
                "contact:email": "sekretariat@zsnpiechcin.pl",
                "contact:website": "http:\/\/www.zsnpiechcin.pl",
                "ref:regon": "341415062",
                "operator": "Pa\u0142uckie Stowarzyszenie \"Przysz\u0142o\u015b\u0107\"",
                "operator:type": "ngo",
                "amenity": "school",
                "note": "Parent RSPO: 12036"
            }
        },
        {
            "id": 120878,
            "type": "Feature",
            "geometry": {
                "type": "Point",
                "coordinates": [
                    18.03669,
                    52.816480000000006
                ]
            },
            "properties": {
                "isced:level": "3",
                "ref:rspo": 120878,
                "official_name": "Liceum Og\u00f3lnokszta\u0142c\u0105ce dla Doros\u0142ych w Piechcinie",
                "name": "Liceum Og\u00f3lnokszta\u0142c\u0105ce dla Doros\u0142ych w Piechcinie",
                "addr:country": "PL",
                "addr:postcode": "88-192",
                "addr:city": "Piechcin",
                "addr:street": "ul. Rad\u0142owska",
                "addr:housenumber": "10",
                "addr:teryt:simc": 18304,
                "addr:teryt:sym_ul": 79409,
                "contact:phone": "+48 523837086",
                "contact:email": "sekretariat@zsnpiechcin.pl",
                "contact:website": "http:\/\/www.zsnpiechcin.pl",
                "ref:regon": "341508384",
                "operator": "Pa\u0142uckie Stowarzyszenie \"Przysz\u0142o\u015b\u0107\"",
                "operator:type": "ngo",
                "amenity": "school",
                "note": "Parent RSPO: 12036"
            }
        },
        {
            "id": 25053,
            "type": "Feature",
            "geometry": {
                "type": "Point",
                "coordinates": [
                    18.04259,
                    52.82433
                ]
            },
            "properties": {
                "ref:rspo": 25053,
                "official_name": "Przedszkole w Piechcinie",
                "name": "Przedszkole w Piechcinie",
                "addr:country": "PL",
                "addr:postcode": "88-192",
                "addr:city": "Piechcin",
                "addr:street": "ul. 11 Listopada",
                "addr:housenumber": "7",
                "addr:teryt:simc": 11205,
                "addr:teryt:sym_ul": 79409,
                "contact:phone": "+48 523837278",
                "contact:email": "przedszkole.piechcin@poczta.internetdsl.pl",
                "ref:regon": "093116233",
                "ref:vatin": "PL5621660540",
                "operator": "Gmina Barcin",
                "operator:type": "government",
                "amenity": "kindergarten"
            }
        },
        {
            "id": 109336,
            "type": "Feature",
            "geometry": {
                "type": "Point",
                "coordinates": [
                    18.04259,
                    52.8243
                ]
            },
            "properties": {
                "isced:level": "1;2",
                "ref:rspo": 109336,
                "official_name": "Szko\u0142a Podstawowa im. Janusza Korczaka",
                "name": "Szko\u0142a Podstawowa",
                "addr:country": "PL",
                "addr:postcode": "88-192",
                "addr:city": "Piechcin",
                "addr:street": "ul. 11 Listopada",
                "addr:housenumber": "5",
                "addr:teryt:simc": 11205,
                "addr:teryt:sym_ul": 79409,
                "contact:phone": "+48 523837229",
                "contact:email": "sekretariat_zps1@vp.pl",
                "contact:website": "http:\/\/www.zps1piechcin.pl",
                "ref:regon": "001144273",
                "ref:vatin": "PL5621658000",
                "operator": "Gmina Barcin",
                "operator:type": "government",
                "amenity": "school"
            }
        },
        {
            "id": 133312,
            "type": "Feature",
            "geometry": {
                "type": "Point",
                "coordinates": [
                    17.9444,
                    52.85392
                ]
            },
            "properties": {
                "ref:rspo": 133312,
                "official_name": "Zesp\u00f3\u0142 Szk\u00f3\u0142 w Barcinie",
                "name": "Zesp\u00f3\u0142 Szk\u00f3\u0142 w Barcinie",
                "addr:country": "PL",
                "addr:postcode": "88-190",
                "addr:city": "Barcin",
                "addr:street": "ul. Artylerzyst\u00f3w",
                "addr:housenumber": "13",
                "addr:teryt:simc": 458,
                "addr:teryt:sym_ul": 928825,
                "contact:phone": "+48 523832586",
                "contact:email": "sek.lo@zsbarcin.pl",
                "ref:regon": "367001736",
                "ref:vatin": "PL5621808020",
                "operator": "Gmina Barcin",
                "operator:type": "government",
                "landuse": "education",
                "fixme": "amenity=school, amenity=college albo landuse=education w zale\u017cno\u015bci od tego, jakie plac\u00f3wki wchodz\u0105 w sk\u0142ad zespo\u0142u. Sprawd\u017a, kiedy stosowa\u0107 amenity=* a kiedy landuse=education.",
                "note": "Children RSPO: 25048;127896"
            }
        },
        {
            "id": 25048,
            "type": "Feature",
            "geometry": {
                "type": "Point",
                "coordinates": [
                    17.9444,
                    52.85389
                ]
            },
            "properties": {
                "isced:level": "1;2",
                "ref:rspo": 25048,
                "official_name": "Szko\u0142a Podstawowa Nr 2 im.jana Brzechwy w Barcine",
                "name": "Szko\u0142a Podstawowa Nr 2 im.jana Brzechwy w Barcine",
                "addr:country": "PL",
                "addr:postcode": "88-190",
                "addr:city": "Barcin",
                "addr:street": "ul. Artylerzyst\u00f3w",
                "addr:housenumber": "13",
                "addr:teryt:simc": 458,
                "addr:teryt:sym_ul": 928825,
                "contact:phone": "+48 523832392",
                "contact:email": "marzenawolska@op.pl",
                "contact:website": "http:\/\/www.zsbarcin.pl",
                "ref:regon": "001248110",
                "ref:vatin": "PL5621658023",
                "operator": "Gmina Barcin",
                "operator:type": "government",
                "amenity": "school",
                "note": "Parent RSPO: 133312"
            }
        },
        {
            "id": 25052,
            "type": "Feature",
            "geometry": {
                "type": "Point",
                "coordinates": [
                    17.94073,
                    52.85466
                ]
            },
            "properties": {
                "ref:rspo": 25052,
                "official_name": "Przedszkole Nr 2 w Barcinie",
                "name": "Przedszkole Nr 2 w Barcinie",
                "addr:country": "PL",
                "addr:postcode": "88-190",
                "addr:city": "Barcin",
                "addr:street": "ul. Artylerzyst\u00f3w",
                "addr:housenumber": "3",
                "addr:teryt:simc": 458,
                "addr:teryt:sym_ul": 928825,
                "contact:phone": "+48 523832554",
                "contact:email": "przedszkole.nr2@op.pl",
                "ref:regon": "093116256",
                "ref:vatin": "PL5621660563",
                "operator": "Gmina Barcin",
                "operator:type": "government",
                "amenity": "kindergarten"
            }
        },
        {
            "id": 25054,
            "type": "Feature",
            "geometry": {
                "type": "Point",
                "coordinates": [
                    17.9411099,
                    52.85494
                ]
            },
            "properties": {
                "ref:rspo": 25054,
                "official_name": "Przedszkole Nr 3",
                "name": "Przedszkole Nr 3",
                "addr:country": "PL",
                "addr:postcode": "88-190",
                "addr:city": "Barcin",
                "addr:street": "ul. Artylerzyst\u00f3w",
                "addr:housenumber": "1",
                "addr:teryt:simc": 458,
                "addr:teryt:sym_ul": 928825,
                "contact:phone": "+48 523832093",
                "contact:email": "kontakt@p3barcin.pl",
                "ref:regon": "093116291",
                "ref:vatin": "PL5621660557",
                "operator": "Gmina Barcin",
                "operator:type": "government",
                "amenity": "kindergarten"
            }
        },
        {
            "id": 119996,
            "type": "Feature",
            "geometry": {
                "type": "Point",
                "coordinates": [
                    17.94344,
                    52.85622
                ]
            },
            "properties": {
                "ref:rspo": 119996,
                "official_name": "Przedszkole Kraina Zabawy",
                "name": "Przedszkole Kraina Zabawy",
                "addr:country": "PL",
                "addr:postcode": "88-190",
                "addr:city": "Barcin",
                "addr:street": "ul. Wojska Polskiego",
                "addr:housenumber": "5",
                "addr:teryt:simc": 24628,
                "addr:teryt:sym_ul": 928825,
                "contact:phone": "+48 500239139",
                "contact:email": "marcinczerwinski0@op.pl",
                "ref:regon": "341480651",
                "operator": "Jolanta Czerwi\u0144ska",
                "operator:type": "private",
                "amenity": "kindergarten"
            }
        },
        {
            "id": 277162,
            "type": "Feature",
            "geometry": {
                "type": "Point",
                "coordinates": [
                    17.93974,
                    52.85734
                ]
            },
            "properties": {
                "ref:rspo": 277162,
                "official_name": "Niepubliczna Plac\u00f3wka Kszta\u0142cenia Ustawicznego Strefa Ci\u015bnie\u0144",
                "name": "Niepubliczna Plac\u00f3wka Kszta\u0142cenia Ustawicznego Strefa Ci\u015bnie\u0144",
                "addr:country": "PL",
                "addr:postcode": "88-190",
                "addr:city": "Barcin",
                "addr:street": "ul. Polna",
                "addr:housenumber": "1",
                "addr:teryt:simc": 17011,
                "addr:teryt:sym_ul": 928825,
                "contact:phone": "+48 669260669",
                "contact:email": "t.safijan@wp.pl",
                "ref:regon": "388215352",
                "operator": "Tomasz Safijan",
                "operator:type": "private",
                "fixme": "w zale\u017cno\u015bci od przedmiotu dzia\u0142alno\u015bci (np. amenity=training + training=*, amenity=dancing_school, amenity=language_school, amenity=music_school)"
            }
        },
        {
            "id": 127896,
            "type": "Feature",
            "geometry": {
                "type": "Point",
                "coordinates": [
                    17.93974,
                    52.85731
                ]
            },
            "properties": {
                "isced:level": "3",
                "ref:rspo": 127896,
                "official_name": "Liceum Og\u00f3lnokszta\u0142cace w Barcinie",
                "name": "Liceum Og\u00f3lnokszta\u0142cace w Barcinie",
                "addr:country": "PL",
                "addr:postcode": "88-190",
                "addr:city": "Barcin",
                "addr:street": "ul. Polna",
                "addr:housenumber": "1",
                "addr:teryt:simc": 17011,
                "addr:teryt:sym_ul": 928825,
                "contact:phone": "+48 523832392",
                "contact:email": "sek.lo@zsbarcin.pl",
                "contact:website": "http:\/\/zsbarcin.pl",
                "ref:regon": "361955446",
                "ref:vatin": "PL5621806015",
                "operator": "Gmina Barcin",
                "operator:type": "government",
                "amenity": "school",
                "note": "Parent RSPO: 133312"
            }
        },
        {
            "id": 25051,
            "type": "Feature",
            "geometry": {
                "type": "Point",
                "coordinates": [
                    17.9468,
                    52.86301
                ]
            },
            "properties": {
                "ref:rspo": 25051,
                "official_name": "Przedszkole Nr 1 w Barcinie",
                "name": "Przedszkole Nr 1 w Barcinie",
                "addr:country": "PL",
                "addr:postcode": "88-190",
                "addr:city": "Barcin",
                "addr:street": "ul. 4 Stycznia",
                "addr:housenumber": "9",
                "addr:teryt:simc": 21468,
                "addr:teryt:sym_ul": 928825,
                "contact:phone": "+48 523832015",
                "contact:email": "p1barcin@idsl.pl",
                "ref:regon": "093116279",
                "ref:vatin": "PL5621673123",
                "operator": "Gmina Barcin",
                "operator:type": "government",
                "amenity": "kindergarten"
            }
        },
        {
            "id": 25047,
            "type": "Feature",
            "geometry": {
                "type": "Point",
                "coordinates": [
                    17.94409,
                    52.86383
                ]
            },
            "properties": {
                "isced:level": "1;2",
                "ref:rspo": 25047,
                "official_name": "Szko\u0142a Podstawowa Nr 1 Im Dr. Stanis\u0142awa Krzysia w Barcinie",
                "name": "Szko\u0142a Podstawowa Nr 1 Im Dr. Stanis\u0142awa Krzysia w Barcinie",
                "addr:country": "PL",
                "addr:postcode": "88-190",
                "addr:city": "Barcin",
                "addr:street": "ul. Plac 1 Maja",
                "addr:housenumber": "8",
                "addr:teryt:simc": 32392,
                "addr:teryt:sym_ul": 928825,
                "contact:phone": "+48 523832269",
                "contact:email": "sp1barcin@gmail.com",
                "contact:website": "http:\/\/www.sp1barcin.edupage.org",
                "ref:regon": "001144267",
                "ref:vatin": "PL5621659471",
                "operator": "Gmina Barcin",
                "operator:type": "government",
                "amenity": "school"
            }
        },
        {
            "id": 44633,
            "type": "Feature",
            "geometry": {
                "type": "Point",
                "coordinates": [
                    18.00253,
                    52.889266
                ]
            },
            "properties": {
                "isced:level": "1;2",
                "ref:rspo": 44633,
                "official_name": "Szko\u0142a Podstawowa w Mamliczu",
                "name": "Szko\u0142a Podstawowa w Mamliczu",
                "addr:country": "PL",
                "addr:postcode": "88-190",
                "addr:place": "Mamlicz",
                "addr:housenumber": "72",
                "addr:teryt:sym_ul": 79384,
                "contact:phone": "+48 523836190",
                "contact:email": "spmamlicz@interia.pl",
                "contact:website": "http:\/\/mamliczsp.pl",
                "ref:regon": "001144280",
                "ref:vatin": "PL5621658046",
                "operator": "Gmina Barcin",
                "operator:type": "government",
                "amenity": "school"
            }
        }
    ]
}