{"type":"FeatureCollection","features":[{"id":87537,"type":"Feature","geometry":{"type":"Point","coordinates":[17.681254,52.8164049]},"properties":{"isced:level":"1;2","ref:rspo":87537,"official_name":"Niepubliczna Szko\u0142a Podstawowa","name":"Niepubliczna Szko\u0142a Podstawowa","addr:country":"PL","addr:postcode":"88-400","addr:place":"Bo\u017cejewice","addr:housenumber":"22","addr:teryt:sym_ul":100523,"contact:phone":"+48 523020197","contact:email":"sp_bozejewice@wp.pl","ref:regon":"341353361","ref:vatin":"PL5621766155","operator":"Stowarzyszenie Mi\u0142o\u015bnik\u00f3w Bo\u017cejewic","operator:type":"ngo","amenity":"school"}},{"id":111692,"type":"Feature","geometry":{"type":"Point","coordinates":[17.6415039,52.8289599]},"properties":{"isced:level":"1;2","ref:rspo":111692,"official_name":"Filialna Szko\u0142a Podstawowa w Cerekwicy O Klasach 1-3 I Oddzia\u0142em \u201e0\u201d,","name":"Filialna Szko\u0142a Podstawowa w Cerekwicy O Klasach 1-3 I Oddzia\u0142em \u201e0\u201d,","addr:country":"PL","addr:postcode":"88-400","addr:place":"Cerekwica","addr:housenumber":"20","addr:teryt:sym_ul":100575,"contact:phone":"+48 523024715","contact:email":"sekr.sp.slebowo@wp.pl","ref:regon":"115974800","operator":"Gmina \u017bnin","operator:type":"government","amenity":"school","note":"Parent RSPO: 84230"}},{"id":6541,"type":"Feature","geometry":{"type":"Point","coordinates":[17.72147,52.84603]},"properties":{"isced:level":"3","ref:rspo":6541,"official_name":"I Liceum Og\u00f3lnokszta\u0142c\u0105ce im. Braci \u015aniadeckich w \u017bninie","name":"I Liceum Og\u00f3lnokszta\u0142c\u0105ce","addr:country":"PL","addr:postcode":"88-400","addr:city":"\u017bnin","addr:street":"ul. Sienkiewicza","addr:housenumber":"1","addr:teryt:simc":19830,"addr:teryt:sym_ul":929865,"contact:phone":"+48 523020105","contact:email":"lo@znin.pl","contact:website":"http:\/\/www.1loznin.pl\/","ref:regon":"000228370","ref:vatin":"PL5621091562","operator":"Powiat \u017bni\u0144ski","operator:type":"government","amenity":"school"}},{"id":30167,"type":"Feature","geometry":{"type":"Point","coordinates":[17.72147,52.846]},"properties":{"ref:rspo":30167,"official_name":"Centrum Kszta\u0142cenia Ustawicznego w \u017bninie","name":"Centrum Kszta\u0142cenia Ustawicznego w \u017bninie","addr:country":"PL","addr:postcode":"88-400","addr:city":"\u017bnin","addr:street":"ul. Sienkiewicza","addr:housenumber":"1a","addr:teryt:simc":19830,"addr:teryt:sym_ul":929865,"contact:phone":"+48 523032002","contact:email":"cku@znin.pl","contact:website":"http:\/\/www.cku.znin.pl","ref:regon":"092963669","ref:vatin":"PL5621632644","operator":"Powiat \u017bni\u0144ski","operator:type":"government","amenity":"school","fixme":"amenity=school lub amenity=college","note":"Children RSPO: 32027;32029"}},{"id":32027,"type":"Feature","geometry":{"type":"Point","coordinates":[17.72147,52.84597]},"properties":{"isced:level":"4","ref:rspo":32027,"official_name":"Szko\u0142a Policealna w \u017bninie","name":"Szko\u0142a Policealna w \u017bninie","addr:country":"PL","addr:postcode":"88-400","addr:city":"\u017bnin","addr:street":"ul. Sienkiewicza","addr:housenumber":"1a","addr:teryt:simc":19830,"addr:teryt:sym_ul":929865,"contact:phone":"+48 523032002","contact:email":"cku@znin.pl","contact:website":"http:\/\/www.cku.znin.pl","ref:regon":"093202211","ref:vatin":"PL5621632644","operator":"Powiat \u017bni\u0144ski","operator:type":"government","amenity":"college","note":"Parent RSPO: 30167"}},{"id":32029,"type":"Feature","geometry":{"type":"Point","coordinates":[17.72147,52.84594]},"properties":{"isced:level":"3","ref:rspo":32029,"official_name":"Liceum Og\u00f3lnokszta\u0142c\u0105ce dla Doros\u0142ych w \u017bninie","name":"Liceum Og\u00f3lnokszta\u0142c\u0105ce dla Doros\u0142ych w \u017bninie","addr:country":"PL","addr:postcode":"88-400","addr:city":"\u017bnin","addr:street":"ul. Sienkiewicza","addr:housenumber":"1a","addr:teryt:simc":19830,"addr:teryt:sym_ul":929865,"contact:phone":"+48 523032002","contact:email":"cku@znin.pl","contact:website":"http:\/\/www.cku.znin.pl","ref:regon":"341247883","ref:vatin":"PL5621632644","operator":"Powiat \u017bni\u0144ski","operator:type":"government","amenity":"school","note":"Parent RSPO: 30167"}},{"id":85723,"type":"Feature","geometry":{"type":"Point","coordinates":[17.727,52.84608]},"properties":{"isced:level":"1;2","ref:rspo":85723,"official_name":"Szko\u0142a Podstawowa Nr 1 Im Powsta\u0144c\u00f3w Wielkopolskich w \u017bninie","name":"Szko\u0142a Podstawowa Nr 1 Im Powsta\u0144c\u00f3w Wielkopolskich w \u017bninie","addr:country":"PL","addr:postcode":"88-400","addr:city":"\u017bnin","addr:street":"ul. Szkolna","addr:housenumber":"4","addr:teryt:simc":21970,"addr:teryt:sym_ul":929865,"contact:phone":"+48 523020483","contact:email":"zpsznin@poczta.onet.pl","contact:website":"http:\/\/sp1.gminaznin.pl","ref:regon":"001156320","ref:vatin":"PL5621598350","operator":"Gmina \u017bnin","operator:type":"government","amenity":"school"}},{"id":133480,"type":"Feature","geometry":{"type":"Point","coordinates":[17.7097,52.84613]},"properties":{"isced:level":"1;2","ref:rspo":133480,"official_name":"Szko\u0142a Podstawowa Nr 5 w \u017bninie","name":"Szko\u0142a Podstawowa Nr 5 w \u017bninie","addr:country":"PL","addr:postcode":"88-400","addr:city":"\u017bnin","addr:street":"ul. 1 Stycznia","addr:housenumber":"17","addr:teryt:simc":21437,"addr:teryt:sym_ul":929865,"contact:phone":"+48 523031113","contact:email":"sekretariat@sp5.gminaznin.pl","contact:website":"https:\/\/sp5.gminaznin.pl\/","ref:regon":"367345938","operator":"Gmina \u017bnin","operator:type":"government","amenity":"school"}},{"id":87761,"type":"Feature","geometry":{"type":"Point","coordinates":[17.72815,52.84668]},"properties":{"ref:rspo":87761,"official_name":"Przedszkole Zgromadzenia Si\u00f3str S\u0142u\u017cebniczek Niepokalanego Pocz\u0119cia Nmp im. Edmunda Bojanowskiego w \u017bninie","name":"Przedszkole Zgromadzenia Si\u00f3str S\u0142u\u017cebniczek Niepokalanego Pocz\u0119cia Nmp","addr:country":"PL","addr:postcode":"88-400","addr:city":"\u017bnin","addr:street":"ul. 700-lecia","addr:housenumber":"22","addr:teryt:simc":72,"addr:teryt:sym_ul":929865,"contact:phone":"+48 725146139","contact:email":"przedszkole.siostr.znin@vp.pl","ref:regon":"341354805","ref:vatin":"PL5621364735","operator":"Zg.ss.s\u0142u\u017cebniczek Niepokalanego Pocz\u0119cia Nmp.,Prowincja Warszawska","operator:type":"religious","amenity":"kindergarten"}},{"id":89609,"type":"Feature","geometry":{"type":"Point","coordinates":[17.71793,52.84746]},"properties":{"ref:rspo":89609,"official_name":"Przedszkole Niepubliczne \"U Boba\"","name":"Przedszkole Niepubliczne \"U Boba\"","addr:country":"PL","addr:postcode":"88-400","addr:city":"\u017bnin","addr:street":"ul. Szpitalna","addr:housenumber":"20","addr:teryt:simc":22073,"addr:teryt:sym_ul":929865,"contact:phone":"+48 692851071","contact:email":"uboba@wp.pl","contact:website":"http:\/\/www.uboba.pl","ref:regon":"341354633","operator":"Bogusz Tucholski","operator:type":"private","amenity":"kindergarten"}},{"id":6589,"type":"Feature","geometry":{"type":"Point","coordinates":[17.72407,52.84841]},"properties":{"ref:rspo":6589,"official_name":"Zesp\u00f3\u0142 Szk\u00f3\u0142 Ekonomiczno-Handlowych im. Komisji Edukacji Narodowej w \u017bninie","name":"Zesp\u00f3\u0142 Szk\u00f3\u0142 Ekonomiczno-Handlowych","addr:country":"PL","addr:postcode":"88-400","addr:city":"\u017bnin","addr:street":"ul. \u015aniadeckich","addr:housenumber":"18","addr:teryt:simc":22382,"addr:teryt:sym_ul":929865,"contact:phone":"+48 523020862","contact:email":"zseh@znin.pl","contact:website":"http:\/\/www.zseh.znin.pl","ref:regon":"000190970","ref:vatin":"PL5621017933","operator":"Powiat \u017bni\u0144ski","operator:type":"government","landuse":"education","fixme":"amenity=school, amenity=college albo landuse=education w zale\u017cno\u015bci od tego, jakie plac\u00f3wki wchodz\u0105 w sk\u0142ad zespo\u0142u. Sprawd\u017a, kiedy stosowa\u0107 amenity=* a kiedy landuse=education.","note":"Children RSPO: 25242"}},{"id":25242,"type":"Feature","geometry":{"type":"Point","coordinates":[17.72407,52.84838]},"properties":{"isced:level":"3","ref:rspo":25242,"official_name":"Technikum Nr 2 im. Komisji Edukacji Narodowej w \u017bninie","name":"Technikum Nr 2","addr:country":"PL","addr:postcode":"88-400","addr:city":"\u017bnin","addr:street":"ul. \u015aniadeckich","addr:housenumber":"18","addr:teryt:simc":22382,"addr:teryt:sym_ul":929865,"contact:phone":"+48 523020862","contact:email":"zseh@znin.pl","contact:website":"http:\/\/www.zseh.znin.pl","ref:regon":"093068280","operator":"Powiat \u017bni\u0144ski","operator:type":"government","amenity":"school","note":"Parent RSPO: 6589"}},{"id":84230,"type":"Feature","geometry":{"type":"Point","coordinates":[17.603251,52.851208]},"properties":{"isced:level":"1;2","ref:rspo":84230,"official_name":"Szko\u0142a Podstawowa im. Anny I Alfreda Krzyckich w S\u0142\u0119bowie","name":"Szko\u0142a Podstawowa","addr:country":"PL","addr:postcode":"88-400","addr:place":"S\u0142\u0119bowo","addr:housenumber":"1","addr:teryt:sym_ul":100842,"contact:phone":"+48 523024715","contact:email":"sekr.sp.slebowo@wp.pl","ref:regon":"001159748","ref:vatin":"PL5621598284","operator":"Gmina \u017bnin","operator:type":"government","amenity":"school","note":"Children RSPO: 111692"}},{"id":6476,"type":"Feature","geometry":{"type":"Point","coordinates":[17.71507,52.85158]},"properties":{"ref:rspo":6476,"official_name":"Zesp\u00f3\u0142 Szk\u00f3\u0142 Technicznych w \u017bninie","name":"Zesp\u00f3\u0142 Szk\u00f3\u0142 Technicznych w \u017bninie","addr:country":"PL","addr:postcode":"88-400","addr:city":"\u017bnin","addr:street":"ul. Browarowa","addr:housenumber":"14","addr:teryt:simc":2153,"addr:teryt:sym_ul":929865,"contact:phone":"+48 523020116","contact:email":"zst@znin.pl","contact:website":"http:\/\/www.browarowa.pl","ref:regon":"000237914","ref:vatin":"PL5621040234","operator":"Powiat \u017bni\u0144ski","operator:type":"government","landuse":"education","fixme":"amenity=school, amenity=college albo landuse=education w zale\u017cno\u015bci od tego, jakie plac\u00f3wki wchodz\u0105 w sk\u0142ad zespo\u0142u. Sprawd\u017a, kiedy stosowa\u0107 amenity=* a kiedy landuse=education.","note":"Children RSPO: 26677;26682;126604"}},{"id":35226,"type":"Feature","geometry":{"type":"Point","coordinates":[17.71507,52.851549999999996]},"properties":{"ref:rspo":35226,"official_name":"Poradnia Psychologiczno-Pedagogiczna w \u017bninie","name":"Poradnia Psychologiczno-Pedagogiczna w \u017bninie","addr:country":"PL","addr:postcode":"88-400","addr:city":"\u017bnin","addr:street":"ul. Browarowa","addr:housenumber":"14","addr:teryt:simc":2153,"addr:teryt:sym_ul":929865,"contact:phone":"+48 523020438","contact:email":"poradnia@znin.pl","contact:website":"http:\/\/www.poradniaznin.paluki.pl","ref:regon":"092510086","ref:vatin":"PL5621568343","operator":"Powiat \u017bni\u0144ski","operator:type":"government","healthcare":"councelling","counselling_type":"education","fixme":"w zale\u017cno\u015bci od przedmiotu dzia\u0142alno\u015bci (np. healthcare=councelling + counselling_type=education albo healthcare=psychotherapist)"}},{"id":26677,"type":"Feature","geometry":{"type":"Point","coordinates":[17.71507,52.85152]},"properties":{"isced:level":"3","ref:rspo":26677,"official_name":"Technikum Nr 1 w \u017bninie","name":"Technikum Nr 1 w \u017bninie","addr:country":"PL","addr:postcode":"88-400","addr:city":"\u017bnin","addr:street":"ul. Browarowa","addr:housenumber":"14","addr:teryt:simc":2153,"addr:teryt:sym_ul":929865,"contact:phone":"+48 523020116","contact:email":"zst@znin.pl","contact:website":"http:\/\/browarowa.pl","ref:regon":"092957692","ref:vatin":"PL5621040234","operator":"Powiat \u017bni\u0144ski","operator:type":"government","amenity":"school","note":"Parent RSPO: 6476"}},{"id":26682,"type":"Feature","geometry":{"type":"Point","coordinates":[17.71507,52.85149]},"properties":{"isced:level":"3","ref:rspo":26682,"official_name":"Bran\u017cowa Szko\u0142a I Stopnia w \u017bninie","name":"Bran\u017cowa Szko\u0142a I Stopnia w \u017bninie","addr:country":"PL","addr:postcode":"88-400","addr:city":"\u017bnin","addr:street":"ul. Browarowa","addr:housenumber":"14","addr:teryt:simc":2153,"addr:teryt:sym_ul":929865,"contact:phone":"+48 523020116","contact:email":"zst@znin.pl","contact:website":"http:\/\/browarowa.pl","ref:regon":"092957717","ref:vatin":"PL5621040234","operator":"Powiat \u017bni\u0144ski","operator:type":"government","amenity":"school","note":"Parent RSPO: 6476"}},{"id":126604,"type":"Feature","geometry":{"type":"Point","coordinates":[17.71507,52.851459999999996]},"properties":{"ref:rspo":126604,"official_name":"Centrum Kszta\u0142cenia Zawodowego w \u017bninie","name":"Centrum Kszta\u0142cenia Zawodowego w \u017bninie","addr:country":"PL","addr:postcode":"88-400","addr:city":"\u017bnin","addr:street":"ul. Browarowa","addr:housenumber":"14","addr:teryt:simc":2153,"addr:teryt:sym_ul":929865,"contact:phone":"+48 523020116","contact:email":"zst@znin.pl","ref:regon":"093202228","ref:vatin":"PL5621040234","operator":"Powiat \u017bni\u0144ski","operator:type":"government","fixme":"w zale\u017cno\u015bci od przedmiotu dzia\u0142alno\u015bci (np. amenity=training + training=*, amenity=dancing_school, amenity=language_school, amenity=music_school) albo amenity=school, amenity=college, albo landuse=education w zale\u017cno\u015bci od tego, jakie plac\u00f3wki wchodz\u0105 w sk\u0142ad zespo\u0142u. Sprawd\u017a, kiedy stosowa\u0107 amenity=* a kiedy landuse=education.","note":"Parent RSPO: 6476"}},{"id":83671,"type":"Feature","geometry":{"type":"Point","coordinates":[17.71509,52.8524]},"properties":{"ref:rspo":83671,"official_name":"Przedszkole Miejskie Nr 1 im. Marii Konopnickiej w \u017bninie","name":"Przedszkole Miejskie Nr 1","addr:country":"PL","addr:postcode":"88-400","addr:city":"\u017bnin","addr:street":"ul. Browarowa","addr:housenumber":"16","addr:teryt:simc":2153,"addr:teryt:sym_ul":929865,"contact:phone":"+48 523020090","contact:email":"sekretariat@pm1.gminaznin.pl","contact:website":"http:\/\/pm1.gminaznin.pl","ref:regon":"000258709","ref:vatin":"PL5621598315","operator":"Gmina \u017bnin","operator:type":"government","amenity":"kindergarten"}},{"id":84130,"type":"Feature","geometry":{"type":"Point","coordinates":[17.71338,52.85288]},"properties":{"isced:level":"1;2","ref:rspo":84130,"official_name":"Szko\u0142a Podstawowa Nr 2 im. Jana \u015aniadeckiego w \u017bninie","name":"Szko\u0142a Podstawowa Nr 2","addr:country":"PL","addr:postcode":"88-400","addr:city":"\u017bnin","addr:street":"ul. Wandy Pieni\u0119\u017cnej","addr:housenumber":"19","addr:teryt:simc":16130,"addr:teryt:sym_ul":929865,"contact:phone":"+48 523020452","contact:email":"sp2znin@pnet.ws","contact:website":"http:\/\/sp2.gminaznin.pl","ref:regon":"000556507","ref:vatin":"PL5621598203","operator":"Gmina \u017bnin","operator:type":"government","amenity":"school"}},{"id":83927,"type":"Feature","geometry":{"type":"Point","coordinates":[17.7516,52.85322]},"properties":{"ref:rspo":83927,"official_name":"Przedszkole Miejskie Nr 2 im. Jana Brzechwy w \u017bninie","name":"Przedszkole Miejskie Nr 2","addr:country":"PL","addr:postcode":"88-400","addr:city":"\u017bnin","addr:street":"ul. Klemensa Janickiego","addr:housenumber":"10","addr:teryt:simc":7157,"addr:teryt:sym_ul":929865,"contact:phone":"+48 523020676","ref:regon":"000234590","ref:vatin":"PL5621598321","operator":"Gmina \u017bnin","operator:type":"government","amenity":"kindergarten"}},{"id":87672,"type":"Feature","geometry":{"type":"Point","coordinates":[17.7516,52.85319]},"properties":{"isced:level":"1;2","ref:rspo":87672,"official_name":"\u201eTr\u00f3jka\u201d Spo\u0142eczna Szko\u0142a Podstawowa im. Armii Krajowej w \u017bninie","name":"\u201eTr\u00f3jka\u201d Spo\u0142eczna Szko\u0142a Podstawowa","addr:country":"PL","addr:postcode":"88-400","addr:city":"\u017bnin","addr:street":"ul. Klemensa Janickiego","addr:housenumber":"33","addr:teryt:simc":7157,"addr:teryt:sym_ul":929865,"contact:phone":"+48 523020097","contact:email":"trojkaznin@op.pl","contact:website":"http:\/\/www.trojka.edu.pl","ref:regon":"341353438","ref:vatin":"PL5621765256","operator":"\"My\" Ruch Spo\u0142eczny","operator:type":"ngo","amenity":"school"}},{"id":7379,"type":"Feature","geometry":{"type":"Point","coordinates":[17.71865,52.85371]},"properties":{"ref:rspo":7379,"official_name":"Zesp\u00f3\u0142 Szk\u00f3\u0142 Specjalnych w \u017bninie","name":"Zesp\u00f3\u0142 Szk\u00f3\u0142 Specjalnych w \u017bninie","addr:country":"PL","addr:postcode":"88-400","addr:city":"\u017bnin","addr:street":"ul. Mickiewicza","addr:housenumber":"32","addr:teryt:simc":12734,"addr:teryt:sym_ul":929865,"contact:phone":"+48 523020530","contact:email":"zssznin@szkola.wp.pl","contact:website":"http:\/\/www.szkola.znin.pl","ref:regon":"091274940","ref:vatin":"PL5621027222","operator":"Powiat \u017bni\u0144ski","operator:type":"government","landuse":"education","fixme":"amenity=school, amenity=college albo landuse=education w zale\u017cno\u015bci od tego, jakie plac\u00f3wki wchodz\u0105 w sk\u0142ad zespo\u0142u. Sprawd\u017a, kiedy stosowa\u0107 amenity=* a kiedy landuse=education.","note":"Children RSPO: 27719;27721;27722"}},{"id":27719,"type":"Feature","geometry":{"type":"Point","coordinates":[17.71865,52.85368]},"properties":{"isced:level":"1;2","ref:rspo":27719,"official_name":"Szko\u0142a Podstawowa Specjalna w \u017bninie","name":"Szko\u0142a Podstawowa Specjalna w \u017bninie","addr:country":"PL","addr:postcode":"88-400","addr:city":"\u017bnin","addr:street":"ul. Mickiewicza","addr:housenumber":"32","addr:teryt:simc":12734,"addr:teryt:sym_ul":929865,"contact:phone":"+48 523020530","contact:email":"zssznin@szkola.wp.pl","contact:website":"http:\/\/www.szkola.znin.pl","ref:regon":"092541247","ref:vatin":"PL5621027222","operator":"Powiat \u017bni\u0144ski","operator:type":"government","amenity":"school","note":"Parent RSPO: 7379"}},{"id":27721,"type":"Feature","geometry":{"type":"Point","coordinates":[17.71865,52.85365]},"properties":{"ref:rspo":27721,"official_name":"Szko\u0142a Specjalna Przysposabiaj\u0105ca Do Pracy","name":"Szko\u0142a Specjalna Przysposabiaj\u0105ca Do Pracy","addr:country":"PL","addr:postcode":"88-400","addr:city":"\u017bnin","addr:street":"ul. Mickiewicza","addr:housenumber":"32","addr:teryt:simc":12734,"addr:teryt:sym_ul":929865,"contact:phone":"+48 523020530","contact:email":"zssznin@szkola.wp.pl","contact:website":"http:\/\/www.szkola.znin.pl","ref:regon":"340042529","ref:vatin":"PL5621027222","operator":"Powiat \u017bni\u0144ski","operator:type":"government","amenity":"school","note":"Parent RSPO: 7379"}},{"id":27722,"type":"Feature","geometry":{"type":"Point","coordinates":[17.71865,52.85362]},"properties":{"isced:level":"3","ref:rspo":27722,"official_name":"Bran\u017cowa Szko\u0142a I Stopnia Specjalna w \u017bninie","name":"Bran\u017cowa Szko\u0142a I Stopnia Specjalna w \u017bninie","addr:country":"PL","addr:postcode":"88-400","addr:city":"\u017bnin","addr:street":"ul. Mickiewicza","addr:housenumber":"32","addr:teryt:simc":12734,"addr:teryt:sym_ul":929865,"contact:phone":"+48 523020530","contact:email":"zssznin@szkola.wp.pl","contact:website":"http:\/\/www.szkola.znin.pl","ref:regon":"092541224","ref:vatin":"PL5621027222","operator":"Powiat \u017bni\u0144ski","operator:type":"government","amenity":"school","note":"Parent RSPO: 7379"}},{"id":84131,"type":"Feature","geometry":{"type":"Point","coordinates":[17.7586967,52.8766321]},"properties":{"isced:level":"1;2","ref:rspo":84131,"official_name":"Szko\u0142a Podstawowa Im Klemensa Janickiego w Januszkowie","name":"Szko\u0142a Podstawowa Im Klemensa Janickiego w Januszkowie","addr:country":"PL","addr:postcode":"88-400","addr:place":"Januszkowo","addr:housenumber":"20","addr:teryt:sym_ul":100641,"contact:phone":"+48 523021064","contact:email":"klemenspjanuszkowo@wp.pl","ref:regon":"001159777","ref:vatin":"PL5621598290","operator":"Gmina \u017bnin","operator:type":"government","amenity":"school"}},{"id":84389,"type":"Feature","geometry":{"type":"Point","coordinates":[17.587366,52.882163]},"properties":{"isced:level":"1;2","ref:rspo":84389,"official_name":"Niepubliczna Szko\u0142a Podstawowa w Gorzycach","name":"Niepubliczna Szko\u0142a Podstawowa w Gorzycach","addr:country":"PL","addr:postcode":"88-400","addr:place":"Gorzyce","addr:housenumber":"60","addr:teryt:sym_ul":100612,"contact:phone":"+48 523024714","ref:regon":"341351971","ref:vatin":"PL5621766706","operator":"Stowarzyszenie Edukacyjne \"Nasza Szko\u0142a\" W Gorzycach","operator:type":"ngo","amenity":"school"}},{"id":84824,"type":"Feature","geometry":{"type":"Point","coordinates":[17.587366,52.882132999999996]},"properties":{"ref:rspo":84824,"official_name":"Zesp\u00f3\u0142 Wychowania Przedszkolnego","name":"Zesp\u00f3\u0142 Wychowania Przedszkolnego","addr:country":"PL","addr:postcode":"88-400","addr:place":"Gorzyce","addr:housenumber":"60","addr:teryt:sym_ul":100612,"contact:phone":"+48 523024714","contact:email":"niepublicznaspwgorzycach@op.pl","ref:regon":"341351994","ref:vatin":"PL5621778543","operator":"Stowarzyszenie Edukacyjne \"Nasza Szko\u0142a\" W Gorzycach","operator:type":"ngo","amenity":"kindergarten"}},{"id":84855,"type":"Feature","geometry":{"type":"Point","coordinates":[17.6499749,52.901173]},"properties":{"isced:level":"1;2","ref:rspo":84855,"official_name":"Niepubliczna Szko\u0142a Podstawowa w Brzyskorzystwi","name":"Niepubliczna Szko\u0142a Podstawowa w Brzyskorzystwi","addr:country":"PL","addr:postcode":"88-400","addr:place":"Brzyskorzystew","addr:housenumber":"61","addr:teryt:sym_ul":100552,"contact:phone":"+48 523024851","contact:email":"szkolabrzyskorzystew@vp.pl","contact:website":"http:\/\/nspbrzyskorzystew.edupage.org","ref:regon":"341351362","operator":"Stowarzyszenie \"Przyjaci\u00f3\u0142 Szko\u0142y Podstawowej W Brzyskorzystwi\"","operator:type":"ngo","amenity":"school"}}]}