{"type":"FeatureCollection","features":[{"id":75422,"type":"Feature","geometry":{"type":"Point","coordinates":[17.887151,52.9120769]},"properties":{"ref:rspo":75422,"official_name":"Zesp\u00f3\u0142 Szk\u00f3\u0142 w Lubostroniu","name":"Zesp\u00f3\u0142 Szk\u00f3\u0142 w Lubostroniu","addr:country":"PL","addr:postcode":"89-210","addr:place":"Lubostro\u0144","addr:housenumber":"13A","addr:teryt:sym_ul":91037,"contact:phone":"+48 523844636","contact:email":"zslubostron@op.pl","contact:website":"http:\/\/zslubostron.edupage.org\/","ref:regon":"092457498","ref:vatin":"PL5621624449","operator":"Gmina \u0141abiszyn","operator:type":"government","landuse":"education","fixme":"amenity=school, amenity=college albo landuse=education w zale\u017cno\u015bci od tego, jakie plac\u00f3wki wchodz\u0105 w sk\u0142ad zespo\u0142u. Sprawd\u017a, kiedy stosowa\u0107 amenity=* a kiedy landuse=education.","note":"Children RSPO: 91258;91259"}},{"id":91258,"type":"Feature","geometry":{"type":"Point","coordinates":[17.887151,52.9120469]},"properties":{"isced:level":"1;2","ref:rspo":91258,"official_name":"Zesp\u00f3\u0142 Szk\u00f3\u0142 Szko\u0142a Podstawowa w Lubostroniu","name":"Zesp\u00f3\u0142 Szk\u00f3\u0142 Szko\u0142a Podstawowa w Lubostroniu","addr:country":"PL","addr:postcode":"89-210","addr:place":"Lubostro\u0144","addr:housenumber":"13A","addr:teryt:sym_ul":91037,"contact:phone":"+48 523844636","contact:email":"zslubostron@op.pl","contact:website":"http:\/\/zslubostron.edupage.org\/","ref:regon":"001155578","ref:vatin":"PL5621598396","operator":"Gmina \u0141abiszyn","operator:type":"government","amenity":"school","note":"Children RSPO: 265092Parent RSPO: 75422"}},{"id":91259,"type":"Feature","geometry":{"type":"Point","coordinates":[17.887151,52.912016900000005]},"properties":{"ref:rspo":91259,"official_name":"Zesp\u00f3\u0142 Szk\u00f3\u0142 Przedszkole w Lubostroniu","name":"Zesp\u00f3\u0142 Szk\u00f3\u0142 Przedszkole w Lubostroniu","addr:country":"PL","addr:postcode":"89-210","addr:place":"Lubostro\u0144","addr:housenumber":"13A","addr:teryt:sym_ul":91037,"contact:phone":"+48 523844636","contact:email":"zslubostron@op.pl","contact:website":"http:\/\/zslubostron.edupage.org\/","ref:regon":"092470091","operator":"Gmina \u0141abiszyn","operator:type":"government","amenity":"kindergarten","note":"Parent RSPO: 75422"}},{"id":265092,"type":"Feature","geometry":{"type":"Point","coordinates":[17.960583,52.9309839]},"properties":{"isced:level":"1;2","ref:rspo":265092,"official_name":"Szko\u0142a Podstawowa w Lubostroniu Szko\u0142a Filialna w Ojrzanowie","name":"Szko\u0142a Podstawowa w Lubostroniu Szko\u0142a Filialna w Ojrzanowie","addr:country":"PL","addr:postcode":"89-210","addr:place":"Ojrzanowo","addr:housenumber":"40","addr:teryt:sym_ul":91149,"contact:phone":"+48 523844011","contact:email":"szkola.ojrzanowo@onet.eu","contact:website":"http:\/\/spojrzanowo.110mb.com","ref:regon":"115557800","operator":"Gmina \u0141abiszyn","operator:type":"government","amenity":"school","note":"Parent RSPO: 91258"}},{"id":91256,"type":"Feature","geometry":{"type":"Point","coordinates":[17.91394,52.94994]},"properties":{"ref:rspo":91256,"official_name":"Zesp\u00f3\u0142 Szk\u00f3\u0142 Przedszkole Miejskie im. Juliana Tuwima w \u0141abiszynie","name":"Zesp\u00f3\u0142 Szk\u00f3\u0142 Przedszkole Miejskie","addr:country":"PL","addr:postcode":"89-210","addr:city":"\u0141abiszyn","addr:street":"ul. Pozna\u0144ska","addr:housenumber":"9","addr:teryt:simc":17394,"addr:teryt:sym_ul":929405,"contact:phone":"+48 523844035","contact:email":"zslabiszyn@wp.pl","contact:website":"http:\/\/www.zslabiszyn.edupage.org","ref:regon":"000264319","ref:vatin":"PL5621017809","operator":"Gmina \u0141abiszyn","operator:type":"government","amenity":"kindergarten","note":"Parent RSPO: 75421"}},{"id":5990,"type":"Feature","geometry":{"type":"Point","coordinates":[17.91511,52.95027]},"properties":{"ref:rspo":5990,"official_name":"Zesp\u00f3\u0142 Szk\u00f3\u0142 Bran\u017cowych I Og\u00f3lnokszta\u0142c\u0105cych w \u0141abiszynie","name":"Zesp\u00f3\u0142 Szk\u00f3\u0142 Bran\u017cowych I Og\u00f3lnokszta\u0142c\u0105cych w \u0141abiszynie","addr:country":"PL","addr:postcode":"89-210","addr:city":"\u0141abiszyn","addr:street":"ul. Pozna\u0144ska","addr:housenumber":"10","addr:teryt:simc":17394,"addr:teryt:sym_ul":929405,"contact:phone":"+48 523844082","contact:email":"zsbio.labiszyn@znin.pl","contact:website":"http:\/\/zsbiolabiszyn.znin.pl","ref:regon":"093067954","ref:vatin":"PL5621287928","operator":"Powiat \u017bni\u0144ski","operator:type":"government","landuse":"education","fixme":"amenity=school, amenity=college albo landuse=education w zale\u017cno\u015bci od tego, jakie plac\u00f3wki wchodz\u0105 w sk\u0142ad zespo\u0142u. Sprawd\u017a, kiedy stosowa\u0107 amenity=* a kiedy landuse=education.","note":"Children RSPO: 39726;129830"}},{"id":39726,"type":"Feature","geometry":{"type":"Point","coordinates":[17.91511,52.95024]},"properties":{"isced:level":"3","ref:rspo":39726,"official_name":"Bran\u017cowa Szko\u0142a I Stopnia w \u0141abiszynie","name":"Bran\u017cowa Szko\u0142a I Stopnia w \u0141abiszynie","addr:country":"PL","addr:postcode":"89-210","addr:city":"\u0141abiszyn","addr:street":"ul. Pozna\u0144ska","addr:housenumber":"10","addr:teryt:simc":17394,"addr:teryt:sym_ul":929405,"contact:phone":"+48 523844082","contact:email":"zsbio.labiszyn@znin.pl","contact:website":"http:\/\/zsbiolabiszyn.znin.pl","ref:regon":"090015968","ref:vatin":"PL5621287928","operator":"Powiat \u017bni\u0144ski","operator:type":"government","amenity":"school","note":"Parent RSPO: 5990"}},{"id":129830,"type":"Feature","geometry":{"type":"Point","coordinates":[17.91511,52.950210000000006]},"properties":{"isced:level":"3","ref:rspo":129830,"official_name":"Liceum Og\u00f3lnokszta\u0142c\u0105ce dla Doros\u0142ych w \u0141abiszynie","name":"Liceum Og\u00f3lnokszta\u0142c\u0105ce dla Doros\u0142ych w \u0141abiszynie","addr:country":"PL","addr:postcode":"89-210","addr:city":"\u0141abiszyn","addr:street":"ul. Pozna\u0144ska","addr:housenumber":"10","addr:teryt:simc":17394,"addr:teryt:sym_ul":929405,"contact:phone":"+48 523844082","contact:email":"zsbio.labiszyn@znin.pl","contact:website":"http:\/\/zsbiolabiszyn.znin.pl","ref:regon":"340499884","ref:vatin":"PL5621287928","operator":"Powiat \u017bni\u0144ski","operator:type":"government","amenity":"school","note":"Parent RSPO: 5990"}},{"id":75421,"type":"Feature","geometry":{"type":"Point","coordinates":[17.91584,52.95361]},"properties":{"ref:rspo":75421,"official_name":"Zesp\u00f3\u0142 Szk\u00f3\u0142 w \u0141abiszynie","name":"Zesp\u00f3\u0142 Szk\u00f3\u0142 w \u0141abiszynie","addr:country":"PL","addr:postcode":"89-210","addr:city":"\u0141abiszyn","addr:street":"ul. Nadnotecka","addr:housenumber":"2","addr:teryt:simc":13892,"addr:teryt:sym_ul":929405,"contact:phone":"+48 523844105","contact:email":"zslabiszyn@wp.pl","contact:website":"http:\/\/www.zslabiszyn.edupage.org","ref:regon":"093136721","ref:vatin":"PL5621665684","operator":"Gmina \u0141abiszyn","operator:type":"government","landuse":"education","fixme":"amenity=school, amenity=college albo landuse=education w zale\u017cno\u015bci od tego, jakie plac\u00f3wki wchodz\u0105 w sk\u0142ad zespo\u0142u. Sprawd\u017a, kiedy stosowa\u0107 amenity=* a kiedy landuse=education.","note":"Children RSPO: 91255;91256"}},{"id":91255,"type":"Feature","geometry":{"type":"Point","coordinates":[17.91584,52.953579999999995]},"properties":{"isced:level":"1;2","ref:rspo":91255,"official_name":"Zesp\u00f3\u0142 Szk\u00f3\u0142 Szko\u0142a Podstawowa w \u0141abiszynie","name":"Zesp\u00f3\u0142 Szk\u00f3\u0142 Szko\u0142a Podstawowa w \u0141abiszynie","addr:country":"PL","addr:postcode":"89-210","addr:city":"\u0141abiszyn","addr:street":"ul. Nadnotecka","addr:housenumber":"2","addr:teryt:simc":13892,"addr:teryt:sym_ul":929405,"contact:phone":"+48 523844105","contact:email":"zslabiszyn@wp.pl","contact:website":"http:\/\/www.zslabiszy.edupage.org","ref:regon":"000264408","ref:vatin":"PL5621598367","operator":"Gmina \u0141abiszyn","operator:type":"government","amenity":"school","note":"Parent RSPO: 75421"}},{"id":75793,"type":"Feature","geometry":{"type":"Point","coordinates":[17.9519989,52.9826599]},"properties":{"isced:level":"1;2","ref:rspo":75793,"official_name":"Niepubliczna Szko\u0142a Podstawowa w Nowym D\u0105biu \"Stowarzyszenia Ma\u0142a Szko\u0142a w Nowym D\u0105biu\"","name":"Niepubliczna Szko\u0142a Podstawowa w Nowym D\u0105biu \"Stowarzyszenia Ma\u0142a Szko\u0142a w Nowym D\u0105biu\"","addr:country":"PL","addr:postcode":"89-210","addr:place":"Nowe D\u0105bie","addr:housenumber":"56","addr:teryt:sym_ul":91072,"contact:phone":"+48 523844442","contact:email":"szkolanowedabie56@wp.pl","contact:website":"http:\/\/www.republika.pl\/nowe_dabie","ref:regon":"341348466","ref:vatin":"PL5621662970","operator":"Stowarzyszenie Ma\u0142a Szko\u0142a W Nowym D\u0105biu","operator:type":"cooperative","amenity":"school"}},{"id":274035,"type":"Feature","geometry":{"type":"Point","coordinates":[17.9519989,52.9826299]},"properties":{"ref:rspo":274035,"official_name":"Niepubliczny Zesp\u00f3\u0142 Szkolno-Przedszkolny w Nowym D\u0105biu","name":"Niepubliczny Zesp\u00f3\u0142 Szkolno-Przedszkolny w Nowym D\u0105biu","addr:country":"PL","addr:postcode":"89-210","addr:place":"Nowe D\u0105bie","addr:housenumber":"56","addr:teryt:sym_ul":91072,"contact:phone":"+48 523844442","contact:email":"szkolanowedabie56@wp.pl","ref:regon":"385051163","operator":"Stowarzyszenie Ma\u0142a Szko\u0142a W Nowym D\u0105biu","operator:type":"cooperative","landuse":"education","fixme":"amenity=school, amenity=college albo landuse=education w zale\u017cno\u015bci od tego, jakie plac\u00f3wki wchodz\u0105 w sk\u0142ad zespo\u0142u. Sprawd\u017a, kiedy stosowa\u0107 amenity=* a kiedy landuse=education.","note":"Children RSPO: 274036"}},{"id":274036,"type":"Feature","geometry":{"type":"Point","coordinates":[17.9519989,52.982599900000004]},"properties":{"ref:rspo":274036,"official_name":"Niepubliczne Przedszkole w Nowym D\u0105biu","name":"Niepubliczne Przedszkole w Nowym D\u0105biu","addr:country":"PL","addr:postcode":"89-210","addr:place":"Nowe D\u0105bie","addr:housenumber":"56","addr:teryt:sym_ul":91072,"contact:phone":"+48 523844442","contact:email":"szkolanowedabie56@wp.pl","ref:regon":"385051134","operator":"Stowarzyszenie Ma\u0142a Szko\u0142a W Nowym D\u0105biu","operator:type":"cooperative","amenity":"kindergarten","note":"Parent RSPO: 274035"}}]}