{
    "type": "FeatureCollection",
    "features": [
        {
            "id": 57079,
            "type": "Feature",
            "geometry": {
                "type": "Point",
                "coordinates": [
                    17.7263929,
                    52.657432
                ]
            },
            "properties": {
                "isced:level": "1;2",
                "ref:rspo": 57079,
                "official_name": "Szko\u0142a Podstawowa z Oddzia\u0142ami Integracyjnymi Im Jana Paw\u0142a II w Go\u015bcieszynie",
                "name": "Szko\u0142a Podstawowa z Oddzia\u0142ami Integracyjnymi Im Jana Paw\u0142a II w Go\u015bcieszynie",
                "addr:postcode": "88-420",
                "addr:place": "Go\u015bcieszyn",
                "addr:housenumber": "20",
                "addr:city:simc": 94219,
                "phone": "+48 523024907",
                "email": "zps.goscieszyn@wp.pl",
                "website": "http:\/\/www.sp-goscieszyn.pl",
                "ref:regon": "001158341",
                "ref:vatin": "PL5621631030",
                "operator": "Gmina Rogowo",
                "operator:type": "government",
                "amenity": "school"
            }
        },
        {
            "id": 40139,
            "type": "Feature",
            "geometry": {
                "type": "Point",
                "coordinates": [
                    17.6815795,
                    52.670641
                ]
            },
            "properties": {
                "isced:level": "1;2",
                "ref:rspo": 40139,
                "official_name": "Szko\u0142a Podstawowa Stowarzyszenia Przyjaci\u00f3\u0142 Szk\u00f3\u0142 Katolickich im.\u015bwi\u0119tego Wojciecha",
                "name": "Szko\u0142a Podstawowa Stowarzyszenia Przyjaci\u00f3\u0142 Szk\u00f3\u0142 Katolickich im.\u015bwi\u0119tego Wojciecha",
                "addr:postcode": "88-420",
                "addr:place": "Mi\u0119cierzyn",
                "addr:housenumber": "49",
                "addr:city:simc": 94290,
                "email": "szkola@miecierzyn.spsk.pl",
                "ref:regon": "341341790",
                "ref:vatin": "PL5621753709",
                "operator": "Stowarzyszenie Przyjaci\u00f3\u0142 Szk\u00f3\u0142 Katolickich",
                "operator:type": "ngo",
                "amenity": "school"
            }
        },
        {
            "id": 275099,
            "type": "Feature",
            "geometry": {
                "type": "Point",
                "coordinates": [
                    17.6835999,
                    52.68901
                ]
            },
            "properties": {
                "ref:rspo": 275099,
                "official_name": "Przedszkole Stowarzyszenia Przyjaci\u00f3\u0142 Szk\u00f3\u0142 Katolickich w Lubczu",
                "name": "Przedszkole Stowarzyszenia Przyjaci\u00f3\u0142 Szk\u00f3\u0142 Katolickich w Lubczu",
                "addr:postcode": "88-420",
                "addr:place": "Lubcz",
                "addr:housenumber": "8a",
                "addr:city:simc": 94283,
                "email": "przedszkole@lubcz.spsk.pl",
                "ref:regon": "386569413",
                "operator": "Stowarzyszenie Przyjaci\u00f3\u0142 Szk\u00f3\u0142 Katolickich",
                "operator:type": "ngo",
                "amenity": "kindergarten"
            }
        },
        {
            "id": 41797,
            "type": "Feature",
            "geometry": {
                "type": "Point",
                "coordinates": [
                    17.65307,
                    52.72248
                ]
            },
            "properties": {
                "ref:rspo": 41797,
                "official_name": "Gminne Przedszkole w Rogowie",
                "name": "Gminne Przedszkole w Rogowie",
                "addr:postcode": "88-420",
                "addr:city": "Rogowo",
                "addr:street": "Tadeusza Ko\u015bciuszki",
                "addr:housenumber": "2",
                "addr:city:simc": 94320,
                "addr:street:sym_ul": 9572,
                "phone": "+48 523024082",
                "email": "przedszkolerogowo@interia.pl",
                "ref:regon": "000269653",
                "ref:vatin": "PL5621631024",
                "operator": "Gmina Rogowo",
                "operator:type": "government",
                "amenity": "kindergarten"
            }
        },
        {
            "id": 44560,
            "type": "Feature",
            "geometry": {
                "type": "Point",
                "coordinates": [
                    17.65152,
                    52.72797
                ]
            },
            "properties": {
                "isced:level": "1;2",
                "ref:rspo": 44560,
                "official_name": "Szko\u0142a Podstawowa im. Miko\u0142aja Kopernika w Rogowie",
                "name": "Szko\u0142a Podstawowa",
                "addr:postcode": "88-420",
                "addr:city": "Rogowo",
                "addr:street": "Szkolna",
                "addr:housenumber": "7",
                "addr:city:simc": 94320,
                "addr:street:sym_ul": 21970,
                "phone": "+48 523024065",
                "email": "rogowo_szkola@poczta.onet.pl",
                "ref:regon": "000556499",
                "ref:vatin": "PL5621631018",
                "operator": "Gmina Rogowo",
                "operator:type": "government",
                "amenity": "school"
            }
        }
    ]
}