{
    "type": "FeatureCollection",
    "features": [
        {
            "id": 59798,
            "type": "Feature",
            "geometry": {
                "type": "Point",
                "coordinates": [
                    17.863696,
                    52.7672369
                ]
            },
            "properties": {
                "isced:level": "1;2",
                "ref:rspo": 59798,
                "official_name": "Szko\u0142a Podstawowa im. Admira\u0142a Floty J\u00f3zefa Unruga w Laskach Wielkich",
                "name": "Szko\u0142a Podstawowa",
                "addr:postcode": "88-410",
                "addr:place": "Laski Wielkie",
                "addr:housenumber": "25",
                "addr:city:simc": 85249,
                "phone": "+48 523025825",
                "email": "splaskiwielkie@poczta.fm",
                "website": "http:\/\/www.splaskiwielkie.pl",
                "ref:regon": "001201195",
                "ref:vatin": "PL5621593708",
                "operator": "Gmina G\u0105sawa",
                "operator:type": "government",
                "amenity": "school"
            }
        },
        {
            "id": 90440,
            "type": "Feature",
            "geometry": {
                "type": "Point",
                "coordinates": [
                    17.75233,
                    52.76796
                ]
            },
            "properties": {
                "isced:level": "1;2",
                "ref:rspo": 90440,
                "official_name": "Szko\u0142a Podstawowa im. Wandy Dobaczewskiej w G\u0105sawie",
                "name": "Szko\u0142a Podstawowa",
                "addr:postcode": "88-410",
                "addr:city": "G\u0105sawa",
                "addr:street": "Leszka Bia\u0142ego",
                "addr:housenumber": "6",
                "addr:city:simc": 85189,
                "addr:street:sym_ul": 10883,
                "phone": "+48 523025003",
                "email": "spgasawa@gasawa.pl",
                "website": "http:\/\/zpsgasawa.org",
                "ref:regon": "000556750",
                "ref:vatin": "PL5621593714",
                "operator": "Gmina G\u0105sawa",
                "operator:type": "government",
                "amenity": "school"
            }
        },
        {
            "id": 72576,
            "type": "Feature",
            "geometry": {
                "type": "Point",
                "coordinates": [
                    17.75662,
                    52.77042
                ]
            },
            "properties": {
                "ref:rspo": 72576,
                "official_name": "Przedszkole Samorz\u0105dowe w G\u0105sawie",
                "name": "Przedszkole Samorz\u0105dowe w G\u0105sawie",
                "addr:postcode": "88-410",
                "addr:city": "G\u0105sawa",
                "addr:street": "\u017bni\u0144ska",
                "addr:housenumber": "17",
                "addr:city:simc": 85189,
                "addr:street:sym_ul": 26490,
                "phone": "+48 523025009",
                "email": "przedszkole@gasawa.pl",
                "website": "http:\/\/www.przedszkole.gasawa.pl",
                "ref:regon": "000265974",
                "ref:vatin": "PL5621549067",
                "operator": "Gmina G\u0105sawa",
                "operator:type": "government",
                "amenity": "kindergarten"
            }
        },
        {
            "id": 114656,
            "type": "Feature",
            "geometry": {
                "type": "Point",
                "coordinates": [
                    17.75735,
                    52.7721
                ]
            },
            "properties": {
                "ref:rspo": 114656,
                "official_name": "Zesp\u00f3\u0142 Szk\u00f3\u0142 Niepublicznych w G\u0105sawie",
                "name": "Zesp\u00f3\u0142 Szk\u00f3\u0142 Niepublicznych w G\u0105sawie",
                "addr:postcode": "88-410",
                "addr:city": "G\u0105sawa",
                "addr:street": "\u017bni\u0144ska",
                "addr:housenumber": "6",
                "addr:city:simc": 85189,
                "addr:street:sym_ul": 26490,
                "phone": "+48 523025090",
                "email": "sekretariat@zsngasawa.pl",
                "website": "http:\/\/www.zsngasawa.pl",
                "ref:regon": "341429696",
                "operator": "G\u0105sawskie Stowarzyszenie Wspierania Inicjatyw Spo\u0142eczno - Wychowawczych Im. Jadwigi Dziubi\u0144skiej",
                "operator:type": "ngo",
                "landuse": "education",
                "fixme": "amenity=school, amenity=college albo landuse=education w zale\u017cno\u015bci od tego, jakie plac\u00f3wki wchodz\u0105 w sk\u0142ad zespo\u0142u. Sprawd\u017a, kiedy stosowa\u0107 amenity=* a kiedy landuse=education.",
                "note": "Children RSPO: 114722;114732;114817"
            }
        },
        {
            "id": 124877,
            "type": "Feature",
            "geometry": {
                "type": "Point",
                "coordinates": [
                    17.75735,
                    52.77207
                ]
            },
            "properties": {
                "ref:rspo": 124877,
                "official_name": "Niepubliczny Internat w G\u0105sawie",
                "name": "Niepubliczny Internat w G\u0105sawie",
                "addr:postcode": "88-410",
                "addr:city": "G\u0105sawa",
                "addr:street": "\u017bni\u0144ska",
                "addr:housenumber": "6",
                "addr:city:simc": 85189,
                "addr:street:sym_ul": 26490,
                "phone": "+48 523025090",
                "ref:regon": "341621005",
                "operator": "G\u0105sawskie Stowarzyszenie Wspierania Inicjatyw Spo\u0142eczno - Wychowawczych Im. Jadwigi Dziubi\u0144skiej",
                "operator:type": "ngo",
                "building": "dormitory"
            }
        },
        {
            "id": 114722,
            "type": "Feature",
            "geometry": {
                "type": "Point",
                "coordinates": [
                    17.75735,
                    52.772040000000004
                ]
            },
            "properties": {
                "isced:level": "3",
                "ref:rspo": 114722,
                "official_name": "Niepubliczne Liceum Og\u00f3lnokszta\u0142c\u0105ce w G\u0105sawie",
                "name": "Niepubliczne Liceum Og\u00f3lnokszta\u0142c\u0105ce w G\u0105sawie",
                "addr:postcode": "88-410",
                "addr:city": "G\u0105sawa",
                "addr:street": "\u017bni\u0144ska",
                "addr:housenumber": "6",
                "addr:city:simc": 85189,
                "addr:street:sym_ul": 26490,
                "phone": "+48 523025090",
                "email": "sekretariat@zsngasawa.pl",
                "website": "http:\/\/www.zsngasawa.pl",
                "ref:regon": "341430765",
                "operator": "G\u0105sawskie Stowarzyszenie Wspierania Inicjatyw Spo\u0142eczno - Wychowawczych Im. Jadwigi Dziubi\u0144skiej",
                "operator:type": "ngo",
                "amenity": "school",
                "note": "Parent RSPO: 114656"
            }
        },
        {
            "id": 114732,
            "type": "Feature",
            "geometry": {
                "type": "Point",
                "coordinates": [
                    17.75735,
                    52.77201
                ]
            },
            "properties": {
                "isced:level": "3",
                "ref:rspo": 114732,
                "official_name": "Niepubliczna Bran\u017cowa Szko\u0142a I Stopnia w G\u0105sawie",
                "name": "Niepubliczna Bran\u017cowa Szko\u0142a I Stopnia w G\u0105sawie",
                "addr:postcode": "88-410",
                "addr:city": "G\u0105sawa",
                "addr:street": "\u017bni\u0144ska",
                "addr:housenumber": "6",
                "addr:city:simc": 85189,
                "addr:street:sym_ul": 26490,
                "phone": "+48 523025090",
                "email": "sekretariat@zsngasawa.pl",
                "website": "http:\/\/www.zsngasawa.pl",
                "ref:regon": "341430950",
                "operator": "G\u0105sawskie Stowarzyszenie Wspierania Inicjatyw Spo\u0142eczno - Wychowawczych Im. Jadwigi Dziubi\u0144skiej",
                "operator:type": "ngo",
                "amenity": "school",
                "note": "Parent RSPO: 114656"
            }
        },
        {
            "id": 114817,
            "type": "Feature",
            "geometry": {
                "type": "Point",
                "coordinates": [
                    17.75735,
                    52.77198
                ]
            },
            "properties": {
                "isced:level": "3",
                "ref:rspo": 114817,
                "official_name": "Niepubliczne Technikum Zawodowe w G\u0105sawie",
                "name": "Niepubliczne Technikum Zawodowe w G\u0105sawie",
                "addr:postcode": "88-410",
                "addr:city": "G\u0105sawa",
                "addr:street": "\u017bni\u0144ska",
                "addr:housenumber": "6",
                "addr:city:simc": 85189,
                "addr:street:sym_ul": 26490,
                "phone": "+48 523025090",
                "email": "sekretariat@zsngasawa.pl",
                "website": "http:\/\/www.zsngasawa.pl",
                "ref:regon": "341435515",
                "operator": "G\u0105sawskie Stowarzyszenie Wspierania Inicjatyw Spo\u0142eczno - Wychowawczych Im. Jadwigi Dziubi\u0144skiej",
                "operator:type": "ngo",
                "amenity": "school",
                "note": "Parent RSPO: 114656"
            }
        }
    ]
}