{
    "type": "FeatureCollection",
    "features": [
        {
            "id": 61019,
            "type": "Feature",
            "geometry": {
                "type": "Point",
                "coordinates": [
                    18.070018,
                    53.5435639
                ]
            },
            "properties": {
                "isced:level": "1;2",
                "ref:rspo": 61019,
                "official_name": "Szko\u0142a Podstawowa w Iwcu",
                "name": "Szko\u0142a Podstawowa w Iwcu",
                "addr:country": "PL",
                "addr:postcode": "89-512",
                "addr:place": "Iwiec",
                "addr:housenumber": "18",
                "addr:teryt:sym_ul": 80795,
                "contact:phone": "+48 525590454",
                "contact:email": "spiwiec@cekcyn.pl",
                "contact:website": "http:\/\/www.spiwiec.edupage.org",
                "ref:regon": "001199222",
                "ref:vatin": "PL5611427374",
                "operator": "Gmina Cekcyn",
                "operator:type": "government",
                "amenity": "school"
            }
        },
        {
            "id": 61022,
            "type": "Feature",
            "geometry": {
                "type": "Point",
                "coordinates": [
                    18.01809,
                    53.57041
                ]
            },
            "properties": {
                "ref:rspo": 61022,
                "official_name": "Przedszkole Le\u015bny Zak\u0105tek w Cekcynie",
                "name": "Przedszkole Le\u015bny Zak\u0105tek w Cekcynie",
                "addr:country": "PL",
                "addr:postcode": "89-511",
                "addr:city": "Cekcyn",
                "addr:street": "Szkolna",
                "addr:housenumber": "41",
                "addr:door": "B",
                "addr:teryt:simc": 21970,
                "addr:teryt:sym_ul": 80743,
                "contact:phone": "+48 525610579",
                "contact:email": "przedszkole@cekcyn.pl",
                "contact:website": "https:\/\/przedszkolecekcyn.edupage.org\/",
                "ref:regon": "090128572",
                "ref:vatin": "PL5611421319",
                "operator": "Gmina Cekcyn",
                "operator:type": "government",
                "amenity": "kindergarten"
            }
        },
        {
            "id": 61806,
            "type": "Feature",
            "geometry": {
                "type": "Point",
                "coordinates": [
                    18.01313,
                    53.57235
                ]
            },
            "properties": {
                "isced:level": "1;2",
                "ref:rspo": 61806,
                "official_name": "Szko\u0142a Podstawowa w Cekcynie",
                "name": "Szko\u0142a Podstawowa w Cekcynie",
                "addr:country": "PL",
                "addr:postcode": "89-511",
                "addr:city": "Cekcyn",
                "addr:street": "Szkolna",
                "addr:housenumber": "8",
                "addr:teryt:simc": 21970,
                "addr:teryt:sym_ul": 80743,
                "contact:phone": "+48 533321509",
                "contact:email": "spcekcyn@cekcyn.pl",
                "contact:website": "http:\/\/www.cekcyn.edupage.org",
                "ref:regon": "000266229",
                "ref:vatin": "PL5611421331",
                "operator": "Gmina Cekcyn",
                "operator:type": "government",
                "amenity": "school"
            }
        },
        {
            "id": 61021,
            "type": "Feature",
            "geometry": {
                "type": "Point",
                "coordinates": [
                    18.1301959,
                    53.584097
                ]
            },
            "properties": {
                "isced:level": "1;2",
                "ref:rspo": 61021,
                "official_name": "Szko\u0142a Podstawowa w Zielonce",
                "name": "Szko\u0142a Podstawowa w Zielonce",
                "addr:country": "PL",
                "addr:postcode": "89-505",
                "addr:place": "Zielonka",
                "addr:housenumber": "27",
                "addr:teryt:sym_ul": 81323,
                "contact:phone": "+48 523361034",
                "contact:email": "spzielonka@cekcyn.pl",
                "ref:regon": "092469225",
                "ref:vatin": "PL5611431795",
                "operator": "Gmina Cekcyn",
                "operator:type": "government",
                "amenity": "school"
            }
        }
    ]
}