{
    "type": "FeatureCollection",
    "features": [
        {
            "id": 125487,
            "type": "Feature",
            "geometry": {
                "type": "Point",
                "coordinates": [
                    17.6435898,
                    53.5400386
                ]
            },
            "properties": {
                "ref:rspo": 125487,
                "official_name": "Punkt Przedszkolny w Dro\u017cdzienicy",
                "name": "Punkt Przedszkolny w Dro\u017cdzienicy",
                "addr:postcode": "89-506",
                "addr:place": "Dro\u017cdzienica",
                "addr:housenumber": "28",
                "addr:city:simc": 88526,
                "phone": "+48 523344092",
                "email": "kamila-zimorska@o2.pl",
                "ref:regon": "341630754",
                "operator": "Pom\u00f3\u017cmy Gminie K\u0119sowo",
                "operator:type": "ngo",
                "amenity": "kindergarten"
            }
        },
        {
            "id": 107411,
            "type": "Feature",
            "geometry": {
                "type": "Point",
                "coordinates": [
                    17.72366,
                    53.56514
                ]
            },
            "properties": {
                "isced:level": "1;2",
                "ref:rspo": 107411,
                "official_name": "Szko\u0142a Podstawowa im. Ks. Kan. J\u00f3zefa Swobodzi\u0144skiego w K\u0119sowie",
                "name": "Szko\u0142a Podstawowa",
                "addr:postcode": "89-506",
                "addr:city": "K\u0119sowo",
                "addr:street": "Szkolna",
                "addr:housenumber": "11",
                "addr:city:simc": 88578,
                "addr:street:sym_ul": 21970,
                "phone": "+48 523344012",
                "email": "zskesowo@op.pl",
                "website": "http:\/\/www.spkesowo.kopi.edu.pl",
                "ref:regon": "000556482",
                "operator": "Gmina K\u0119sowo",
                "operator:type": "government",
                "amenity": "school"
            }
        },
        {
            "id": 125486,
            "type": "Feature",
            "geometry": {
                "type": "Point",
                "coordinates": [
                    17.72366,
                    53.56511
                ]
            },
            "properties": {
                "ref:rspo": 125486,
                "official_name": "Punkt Przedszkolny w K\u0119sowie",
                "name": "Punkt Przedszkolny w K\u0119sowie",
                "addr:postcode": "89-506",
                "addr:city": "K\u0119sowo",
                "addr:street": "Szkolna",
                "addr:housenumber": "11",
                "addr:city:simc": 88578,
                "addr:street:sym_ul": 21970,
                "phone": "+48 523344092",
                "email": "kamila-zimorska@o2.pl",
                "ref:regon": "341630748",
                "operator": "Pom\u00f3\u017cmy Gminie K\u0119sowo",
                "operator:type": "ngo",
                "amenity": "kindergarten"
            }
        },
        {
            "id": 276249,
            "type": "Feature",
            "geometry": {
                "type": "Point",
                "coordinates": [
                    17.72366,
                    53.56508
                ]
            },
            "properties": {
                "ref:rspo": 276249,
                "official_name": "Punkt Przedszkolny nr 2 w K\u0119sowie",
                "name": "Punkt Przedszkolny nr 2 w K\u0119sowie",
                "addr:postcode": "89-506",
                "addr:city": "K\u0119sowo",
                "addr:street": "Szkolna",
                "addr:housenumber": "11",
                "addr:city:simc": 88578,
                "addr:street:sym_ul": 21970,
                "phone": "+48 523344092",
                "email": "kamila-zimorska@o2.pl",
                "ref:regon": "387069227",
                "operator": "Pom\u00f3\u017cmy Gminie K\u0119sowo",
                "operator:type": "ngo",
                "amenity": "kindergarten"
            }
        },
        {
            "id": 109502,
            "type": "Feature",
            "geometry": {
                "type": "Point",
                "coordinates": [
                    17.76582,
                    53.6133499
                ]
            },
            "properties": {
                "isced:level": "1;2",
                "ref:rspo": 109502,
                "official_name": "Szko\u0142a Podstawowa im. Stefana Kardyna\u0142a Wyszy\u0144skiego w \u017balnie",
                "name": "Szko\u0142a Podstawowa",
                "addr:postcode": "89-506",
                "addr:city": "\u017balno",
                "addr:street": "Szkolna",
                "addr:housenumber": "1",
                "addr:city:simc": 88696,
                "addr:street:sym_ul": 21970,
                "phone": "+48 523341620",
                "email": "zszalno@op.pl",
                "ref:regon": "092972409",
                "operator": "Gmina K\u0119sowo",
                "operator:type": "government",
                "amenity": "school"
            }
        },
        {
            "id": 125488,
            "type": "Feature",
            "geometry": {
                "type": "Point",
                "coordinates": [
                    17.76582,
                    53.6133199
                ]
            },
            "properties": {
                "ref:rspo": 125488,
                "official_name": "Punkt Przedszkolny nr 1 w \u017balnie",
                "name": "Punkt Przedszkolny nr 1 w \u017balnie",
                "addr:postcode": "89-506",
                "addr:city": "\u017balno",
                "addr:street": "Szkolna",
                "addr:housenumber": "1",
                "addr:city:simc": 88696,
                "addr:street:sym_ul": 21970,
                "phone": "+48 523341620",
                "email": "zszalno@op.pl",
                "ref:regon": "341630760",
                "operator": "Pom\u00f3\u017cmy Gminie K\u0119sowo",
                "operator:type": "ngo",
                "amenity": "kindergarten"
            }
        },
        {
            "id": 276248,
            "type": "Feature",
            "geometry": {
                "type": "Point",
                "coordinates": [
                    17.76582,
                    53.613289900000005
                ]
            },
            "properties": {
                "ref:rspo": 276248,
                "official_name": "Punkt Przedszkolny nr 2 w \u017balnie",
                "name": "Punkt Przedszkolny nr 2 w \u017balnie",
                "addr:postcode": "89-506",
                "addr:city": "\u017balno",
                "addr:street": "Szkolna",
                "addr:housenumber": "1",
                "addr:city:simc": 88696,
                "addr:street:sym_ul": 21970,
                "phone": "+48 523344092",
                "email": "kamila-zimorska@o2.pl",
                "ref:regon": "387069204",
                "operator": "Pom\u00f3\u017cmy Gminie K\u0119sowo",
                "operator:type": "ngo",
                "amenity": "kindergarten"
            }
        },
        {
            "id": 276317,
            "type": "Feature",
            "geometry": {
                "type": "Point",
                "coordinates": [
                    17.73007,
                    53.62549
                ]
            },
            "properties": {
                "ref:rspo": 276317,
                "official_name": "Punkt Przedszkolny w Piastoszynie",
                "name": "Punkt Przedszkolny w Piastoszynie",
                "addr:postcode": "89-506",
                "addr:city": "Piastoszyn",
                "addr:street": "G\u0142\u00f3wna",
                "addr:housenumber": "36",
                "addr:city:simc": 88638,
                "addr:street:sym_ul": 5635,
                "phone": "+48 523344092",
                "email": "kamila-zimorska@o2.pl",
                "ref:regon": "387095325",
                "operator": "Pom\u00f3\u017cmy Gminie K\u0119sowo",
                "operator:type": "ngo",
                "amenity": "kindergarten"
            }
        }
    ]
}