{
    "type": "FeatureCollection",
    "features": [
        {
            "id": 11022,
            "type": "Feature",
            "geometry": {
                "type": "Point",
                "coordinates": [
                    17.83023,
                    53.447
                ]
            },
            "properties": {
                "isced:level": "1;2",
                "ref:rspo": 11022,
                "official_name": "Szko\u0142a Podstawowa im. Ks. J\u00f3zefa Bruskiego w Pruszczu",
                "name": "Szko\u0142a Podstawowa",
                "addr:postcode": "89-520",
                "addr:city": "Pruszcz",
                "addr:street": "Dworcowa",
                "addr:housenumber": "33",
                "addr:teryt:simc": 85746,
                "addr:teryt:sym_ul": 4434,
                "phone": "+48 523346607",
                "email": "sp_pruszcz@las.pl",
                "ref:regon": "001201210",
                "ref:vatin": "PL5611403735",
                "operator": "Gmina Gostycyn",
                "operator:type": "government",
                "amenity": "school"
            }
        },
        {
            "id": 103633,
            "type": "Feature",
            "geometry": {
                "type": "Point",
                "coordinates": [
                    17.749002,
                    53.480571
                ]
            },
            "properties": {
                "isced:level": "1;2",
                "ref:rspo": 103633,
                "official_name": "Szko\u0142a Podstawowa im. Jana Paw\u0142a II w Gostycynie, Szko\u0142a Filialna w Wielkiej Kloni",
                "name": "Szko\u0142a Podstawowa",
                "addr:postcode": "89-520",
                "addr:place": "Wielka Klonia",
                "addr:housenumber": "15",
                "addr:teryt:simc": 85806,
                "phone": "+48 523346308",
                "ref:regon": "267430000",
                "operator": "Gmina Gostycyn",
                "operator:type": "government",
                "amenity": "school",
                "note": "Parent RSPO: 12625"
            }
        },
        {
            "id": 11023,
            "type": "Feature",
            "geometry": {
                "type": "Point",
                "coordinates": [
                    17.80506,
                    53.48952
                ]
            },
            "properties": {
                "ref:rspo": 11023,
                "official_name": "Przedszkole \"Niezapominajka\" w Gostycynie",
                "name": "Przedszkole \"Niezapominajka\" w Gostycynie",
                "addr:postcode": "89-520",
                "addr:city": "Gostycyn",
                "addr:street": "S\u0119pole\u0144ska",
                "addr:housenumber": "12C",
                "addr:teryt:simc": 85686,
                "addr:teryt:sym_ul": 19735,
                "phone": "+48 523346037",
                "email": "przedszkolegostycyn@o2.pl",
                "ref:regon": "091287456",
                "ref:vatin": "PL5611403706",
                "operator": "Gmina Gostycyn",
                "operator:type": "government",
                "amenity": "kindergarten"
            }
        },
        {
            "id": 12625,
            "type": "Feature",
            "geometry": {
                "type": "Point",
                "coordinates": [
                    17.80506,
                    53.489489999999996
                ]
            },
            "properties": {
                "isced:level": "1;2",
                "ref:rspo": 12625,
                "official_name": "Szko\u0142a Podstawowa im. Jana Paw\u0142a II w Gostycynie",
                "name": "Szko\u0142a Podstawowa",
                "addr:postcode": "89-520",
                "addr:city": "Gostycyn",
                "addr:street": "S\u0119pole\u0144ska",
                "addr:housenumber": "12-12a",
                "addr:teryt:simc": 85686,
                "addr:teryt:sym_ul": 19735,
                "phone": "+48 523346308",
                "email": "gostycyngim@op.pl",
                "website": "http:\/\/gostgim.az.pl",
                "ref:regon": "000267430",
                "ref:vatin": "PL5611403758",
                "operator": "Gmina Gostycyn",
                "operator:type": "government",
                "amenity": "school",
                "note": "Children RSPO: 103633"
            }
        }
    ]
}