{"type":"FeatureCollection","features":[{"id":103516,"type":"Feature","geometry":{"type":"Point","coordinates":[21.93254,49.4993]},"properties":{"isced:level":"1;2","ref:rspo":103516,"official_name":"Szko\u0142a Podstawowa w Sieniawie Szko\u0142a Filialna w Pu\u0142awach","name":"Szko\u0142a Podstawowa w Sieniawie Szko\u0142a Filialna w Pu\u0142awach","addr:country":"PL","addr:postcode":"38-480","addr:place":"Pu\u0142awy","addr:housenumber":"25","addr:teryt:sym_ul":359008,"contact:phone":"+48 134359038","contact:email":"zspsieniawa@rymanow.pl","contact:website":"http:\/\/spsieniawa.edupage.org","ref:regon":"370474926","operator":"Gmina Ryman\u00f3w","operator:type":"government","amenity":"school","note":"Parent RSPO: 89505"}},{"id":88174,"type":"Feature","geometry":{"type":"Point","coordinates":[21.81727,49.5077799]},"properties":{"isced:level":"1;2","ref:rspo":88174,"official_name":"Szko\u0142a Podstawowa im. Polskich Noblist\u00f3w w Kr\u00f3liku Polskim","name":"Szko\u0142a Podstawowa","addr:country":"PL","addr:postcode":"38-481","addr:city":"Kr\u00f3lik Polski","addr:street":"ul. Bieszczadzka","addr:housenumber":"137","addr:teryt:simc":1326,"addr:teryt:sym_ul":358888,"contact:phone":"+48 134357408","contact:email":"zspkrolikpolski@rymanow.pl","contact:website":"http:\/\/www.zspkp.pl","ref:regon":"001198286","ref:vatin":"PL6842350005","operator":"Gmina Ryman\u00f3w","operator:type":"government","amenity":"school"}},{"id":25772,"type":"Feature","geometry":{"type":"Point","coordinates":[21.84454,49.54202]},"properties":{"ref:rspo":25772,"official_name":"Dom Wczas\u00f3w Dzieci\u0119cych w Rymanowie-Zdroju","name":"Dom Wczas\u00f3w Dzieci\u0119cych w Rymanowie-Zdroju","addr:country":"PL","addr:postcode":"38-481","addr:city":"Ryman\u00f3w-Zdr\u00f3j","addr:street":"ul. Anny i Jana Potockich","addr:housenumber":"3","addr:teryt:simc":17280,"addr:teryt:sym_ul":358990,"contact:phone":"+48 134357404","contact:email":"dwdz@vp.pl","contact:website":"http:\/\/www.dwdz-rymanowzdroj.vot.pl","ref:regon":"000243228","ref:vatin":"PL6841627344","operator":"Powiat Kro\u015bnie\u0144ski","operator:type":"government","leisure":"resort"}},{"id":92043,"type":"Feature","geometry":{"type":"Point","coordinates":[21.85361,49.54255]},"properties":{"ref:rspo":92043,"official_name":"Zesp\u00f3\u0142 Szk\u00f3\u0142 Specjalnych w Rymanowie Zdroju","name":"Zesp\u00f3\u0142 Szk\u00f3\u0142 Specjalnych w Rymanowie Zdroju","addr:country":"PL","addr:postcode":"38-481","addr:city":"Ryman\u00f3w-Zdr\u00f3j","addr:street":"ul. Le\u015bna","addr:housenumber":"4","addr:teryt:simc":10898,"addr:teryt:sym_ul":358990,"contact:phone":"+48 134357493","contact:email":"zpsbiuro@poczta.onet.pl","ref:regon":"370997363","ref:vatin":"PL6841848571","operator":"Wojew\u00f3dztwo Podkarpackie","operator:type":"government","landuse":"education","fixme":"amenity=school, amenity=college albo landuse=education w zale\u017cno\u015bci od tego, jakie plac\u00f3wki wchodz\u0105 w sk\u0142ad zespo\u0142u. Sprawd\u017a, kiedy stosowa\u0107 amenity=* a kiedy landuse=education.","note":"Children RSPO: 122786;123974"}},{"id":122786,"type":"Feature","geometry":{"type":"Point","coordinates":[21.85361,49.542519999999996]},"properties":{"isced:level":"1;2","ref:rspo":122786,"official_name":"Szko\u0142a Podstawowa Specjalna","name":"Szko\u0142a Podstawowa Specjalna","addr:country":"PL","addr:postcode":"38-481","addr:city":"Ryman\u00f3w-Zdr\u00f3j","addr:street":"ul. Le\u015bna","addr:housenumber":"4","addr:teryt:simc":10898,"addr:teryt:sym_ul":358990,"contact:phone":"+48 134357493","contact:email":"zpsbiuro@poczta.onet.pl","ref:regon":"371154879","ref:vatin":"PL6841848571","operator":"Wojew\u00f3dztwo Podkarpackie","operator:type":"government","amenity":"school","note":"Parent RSPO: 92043"}},{"id":123974,"type":"Feature","geometry":{"type":"Point","coordinates":[21.85361,49.54249]},"properties":{"isced:level":"3","ref:rspo":123974,"official_name":"Liceum Og\u00f3lnokszta\u0142c\u0105ce Specjalne Przy Uzdrowisku Ryman\u00f3w S.a.","name":"Liceum Og\u00f3lnokszta\u0142c\u0105ce Specjalne Przy Uzdrowisku Ryman\u00f3w S.a.","addr:country":"PL","addr:postcode":"38-481","addr:city":"Ryman\u00f3w-Zdr\u00f3j","addr:street":"ul. Le\u015bna","addr:housenumber":"4","addr:teryt:simc":10898,"addr:teryt:sym_ul":358990,"contact:phone":"+48 134357493","contact:email":"zpsbiuro@poczta.onet.pl","ref:regon":"181140195","operator":"Wojew\u00f3dztwo Podkarpackie","operator:type":"government","amenity":"school","note":"Parent RSPO: 92043"}},{"id":14866,"type":"Feature","geometry":{"type":"Point","coordinates":[21.91268,49.54761]},"properties":{"isced:level":"1;2","ref:rspo":14866,"official_name":"Szko\u0142a Podstawowa Fundacji \"Elementarz\" w G\u0142\u0119bokiem","name":"Szko\u0142a Podstawowa Fundacji \"Elementarz\" w G\u0142\u0119bokiem","addr:country":"PL","addr:postcode":"38-480","addr:place":"G\u0142\u0119bokie","addr:housenumber":"68","addr:teryt:sym_ul":358836,"contact:phone":"+48 134359151","contact:email":"spglebokie68@wp.pl","contact:website":"http:\/\/spglebokie.vdl.pl","ref:regon":"180888069","ref:vatin":"PL6842636210","operator":"Fundacja Ekologiczna - Wychowanie I Sztuka \"Elementarz\"","operator:type":"ngo","amenity":"school"}},{"id":3405,"type":"Feature","geometry":{"type":"Point","coordinates":[21.851940155029,49.550979614258]},"properties":{"ref:rspo":3405,"official_name":"Przedszkole Si\u00f3str Mi\u0142osierdzia im. Matki Bo\u017cej Od Cudownego Medalika w Rymanowie Zdroju","name":"Przedszkole Si\u00f3str Mi\u0142osierdzia","addr:country":"PL","addr:postcode":"38-481","addr:city":"Ryman\u00f3w-Zdr\u00f3j","addr:street":"ul. PCK","addr:housenumber":"1","addr:teryt:simc":15905,"addr:teryt:sym_ul":358990,"contact:phone":"+48 134357417","contact:email":"przedszkolesm_rymzdroj@poczta.fm","contact:website":"http:\/\/www.przedszkolesm-rymzdroj.pl","ref:regon":"180876592","ref:vatin":"PL6842635015","operator":"Zg.ss. Mi\u0142osierdzia \u015awi\u0119tego Wincentego A Paulo, Dom Zakonny","operator:type":"religious","amenity":"kindergarten"}},{"id":89505,"type":"Feature","geometry":{"type":"Point","coordinates":[21.92711,49.56259]},"properties":{"isced:level":"1;2","ref:rspo":89505,"official_name":"Szko\u0142a Podstawowa w Sieniawie","name":"Szko\u0142a Podstawowa w Sieniawie","addr:country":"PL","addr:postcode":"38-480","addr:city":"Sieniawa","addr:street":"ul. Kwiatowa","addr:housenumber":"15","addr:teryt:simc":10562,"addr:teryt:sym_ul":359020,"contact:phone":"+48 134359038","contact:email":"zspsieniawa@rymanow.pl","contact:website":"http:\/\/spsieniawa.edupage.org","ref:regon":"370474926","ref:vatin":"PL6842349976","operator":"Gmina Ryman\u00f3w","operator:type":"government","amenity":"school","note":"Children RSPO: 103516"}},{"id":48447,"type":"Feature","geometry":{"type":"Point","coordinates":[21.85936,49.56289]},"properties":{"ref:rspo":48447,"official_name":"Zesp\u00f3\u0142 Szk\u00f3\u0142 Publicznych w Posadzie G\u00f3rnej","name":"Zesp\u00f3\u0142 Szk\u00f3\u0142 Publicznych w Posadzie G\u00f3rnej","addr:country":"PL","addr:postcode":"38-481","addr:city":"Posada G\u00f3rna","addr:street":"ul. 3 Maja","addr:housenumber":"164","addr:teryt:simc":11937,"addr:teryt:sym_ul":358948,"contact:phone":"+48 134356414","contact:email":"spposada@poczta.onet.pl","contact:website":"http:\/\/www.zspposada.pl","ref:regon":"371165280","ref:vatin":"PL6842220047","operator":"Gmina Ryman\u00f3w","operator:type":"government","landuse":"education","fixme":"amenity=school, amenity=college albo landuse=education w zale\u017cno\u015bci od tego, jakie plac\u00f3wki wchodz\u0105 w sk\u0142ad zespo\u0142u. Sprawd\u017a, kiedy stosowa\u0107 amenity=* a kiedy landuse=education.","note":"Children RSPO: 66235;83171"}},{"id":66235,"type":"Feature","geometry":{"type":"Point","coordinates":[21.85936,49.56286]},"properties":{"ref:rspo":66235,"official_name":"Zesp\u00f3\u0142 Szk\u00f3\u0142 Publicznych Szkolne Szchronisko M\u0142odzie\u017cowe w Posadzie G\u00f3rnej","name":"Zesp\u00f3\u0142 Szk\u00f3\u0142 Publicznych Szkolne Szchronisko M\u0142odzie\u017cowe w Posadzie G\u00f3rnej","addr:country":"PL","addr:postcode":"38-481","addr:city":"Posada G\u00f3rna","addr:street":"ul. 3 Maja","addr:housenumber":"164","addr:teryt:simc":11937,"addr:teryt:sym_ul":358948,"contact:phone":"+48 134356414","contact:email":"spposada@poczta.onet.pl","contact:website":"http:\/\/www.zspposada.pl","ref:regon":"371156810","operator":"Gmina Ryman\u00f3w","operator:type":"government","tourism":"hostel","note":"Parent RSPO: 48447"}},{"id":83171,"type":"Feature","geometry":{"type":"Point","coordinates":[21.85936,49.562830000000005]},"properties":{"isced:level":"1;2","ref:rspo":83171,"official_name":"Zesp\u00f3\u0142 Szk\u00f3\u0142 Publicznych Szko\u0142a Podstawowa im. Anny Z Dzia\u0142y\u0144skich Potockiej w Posadzie G\u00f3rnej","name":"Zesp\u00f3\u0142 Szk\u00f3\u0142 Publicznych Szko\u0142a Podstawowa","addr:country":"PL","addr:postcode":"38-481","addr:city":"Posada G\u00f3rna","addr:street":"ul. 3 Maja","addr:housenumber":"164","addr:teryt:simc":11937,"addr:teryt:sym_ul":358948,"contact:phone":"+48 134356414","contact:email":"spposada@poczta.onet.pl","contact:website":"http:\/\/www.zspposada.pl","ref:regon":"001198240","operator":"Gmina Ryman\u00f3w","operator:type":"government","amenity":"school","note":"Parent RSPO: 48447"}},{"id":87596,"type":"Feature","geometry":{"type":"Point","coordinates":[21.867,49.57239]},"properties":{"ref:rspo":87596,"official_name":"Przedszkole \u015aw. J\u00f3zefa w Rymanowie","name":"Przedszkole \u015aw. J\u00f3zefa w Rymanowie","addr:country":"PL","addr:postcode":"38-480","addr:city":"Ryman\u00f3w","addr:street":"ul. Grunwaldzka","addr:housenumber":"10","addr:teryt:simc":6260,"addr:teryt:sym_ul":953421,"contact:phone":"+48 134355059","contact:email":"przedszkole.rymanow@onet.eu","contact:website":"http:\/\/www.przedszkole-rymanow.pl","ref:regon":"180913583","ref:vatin":"PL6841078908","operator":"Zg. Ss. S\u0142u\u017cebniczek Nmp Niepokalanie Pocz\u0119tej, Prowincja Przemyska","operator:type":"religious","amenity":"kindergarten"}},{"id":34461,"type":"Feature","geometry":{"type":"Point","coordinates":[21.87257,49.57298]},"properties":{"ref:rspo":34461,"official_name":"O\u015brodek Rahabilitacyjno-Edukacyjno-Wychowawczy Polskiego Stowarzyszenia Na Rzecz Os\u00f3b Z Niepe\u0142nosprawno\u015bci\u0105 Intelektualn\u0105 Ko\u0142o w Rymanowie","name":"O\u015brodek Rahabilitacyjno-Edukacyjno-Wychowawczy Polskiego Stowarzyszenia Na Rzecz Os\u00f3b Z Niepe\u0142nosprawno\u015bci\u0105 Intelektualn\u0105 Ko\u0142o w Rymanowie","addr:country":"PL","addr:postcode":"38-480","addr:city":"Ryman\u00f3w","addr:street":"ul. Dworska","addr:housenumber":"40","addr:teryt:simc":4446,"addr:teryt:sym_ul":953421,"contact:phone":"+48 134356620","contact:email":"orew.rymanow@psoni.org.pl","contact:website":"http:\/\/www.psoni-rymanow.org\/","ref:regon":"180900913","ref:vatin":"PL6842158182","operator":"Polskie Stowarzyszenie Na Rzecz Os\u00f3b Z Niepe\u0142nosprawno\u015bci\u0105 Intelektualn\u0105 Ko\u0142o W Rymanowie","operator:type":"ngo","amenity":"school"}},{"id":87327,"type":"Feature","geometry":{"type":"Point","coordinates":[21.86377,49.57651]},"properties":{"ref:rspo":87327,"official_name":"Zesp\u00f3\u0142 Szk\u00f3\u0142 Publicznych w Rymanowie","name":"Zesp\u00f3\u0142 Szk\u00f3\u0142 Publicznych w Rymanowie","addr:country":"PL","addr:postcode":"38-480","addr:city":"Ryman\u00f3w","addr:street":"ul. Szkolna","addr:housenumber":"2","addr:teryt:simc":21970,"addr:teryt:sym_ul":953421,"contact:phone":"+48 134355020","contact:email":"lorymanow@interia.pl","contact:website":"http:\/\/www.lorymanow.pl","ref:regon":"371165311","ref:vatin":"PL6842374359","operator":"Gmina Ryman\u00f3w","operator:type":"government","landuse":"education","fixme":"amenity=school, amenity=college albo landuse=education w zale\u017cno\u015bci od tego, jakie plac\u00f3wki wchodz\u0105 w sk\u0142ad zespo\u0142u. Sprawd\u017a, kiedy stosowa\u0107 amenity=* a kiedy landuse=education.","note":"Children RSPO: 113573;113716;119869"}},{"id":113573,"type":"Feature","geometry":{"type":"Point","coordinates":[21.86377,49.57648]},"properties":{"isced:level":"1;2","ref:rspo":113573,"official_name":"Zesp\u00f3\u0142 Szk\u00f3\u0142 Publicznych Szko\u0142a Podstawowa im. Stanis\u0142awa Wyspia\u0144skiego w Rymanowie","name":"Zesp\u00f3\u0142 Szk\u00f3\u0142 Publicznych Szko\u0142a Podstawowa","addr:country":"PL","addr:postcode":"38-480","addr:city":"Ryman\u00f3w","addr:street":"ul. Szkolna","addr:housenumber":"2","addr:teryt:simc":21970,"addr:teryt:sym_ul":953421,"contact:phone":"+48 134355020","contact:email":"lorymanow@interia.pl","contact:website":"http:\/\/www.lorymanow.pl","ref:regon":"001200244","operator":"Gmina Ryman\u00f3w","operator:type":"government","amenity":"school","note":"Parent RSPO: 87327"}},{"id":113716,"type":"Feature","geometry":{"type":"Point","coordinates":[21.86377,49.57645]},"properties":{"isced:level":"3","ref:rspo":113716,"official_name":"Zesp\u00f3\u0142 Szk\u00f3\u0142 Publicznych Liceum Og\u00f3lnokszta\u0142c\u0105ce im. Stanis\u0142awa Wyspia\u0144skiego w Rymanowie","name":"Zesp\u00f3\u0142 Szk\u00f3\u0142 Publicznych Liceum Og\u00f3lnokszta\u0142c\u0105ce","addr:country":"PL","addr:postcode":"38-480","addr:city":"Ryman\u00f3w","addr:street":"ul. Szkolna","addr:housenumber":"2","addr:teryt:simc":21970,"addr:teryt:sym_ul":953421,"contact:phone":"+48 134355020","contact:email":"lorymanow@interia.pl","contact:website":"http:\/\/www.lorymanow.pl","ref:regon":"180101750","operator":"Gmina Ryman\u00f3w","operator:type":"government","amenity":"school","note":"Parent RSPO: 87327"}},{"id":119869,"type":"Feature","geometry":{"type":"Point","coordinates":[21.86377,49.57642]},"properties":{"ref:rspo":119869,"official_name":"Zesp\u00f3\u0142 Szk\u00f3\u0142 Publicznych Szko\u0142a Muzyczna I Stopnia w Rymanowie","name":"Zesp\u00f3\u0142 Szk\u00f3\u0142 Publicznych Szko\u0142a Muzyczna I Stopnia w Rymanowie","addr:country":"PL","addr:postcode":"38-480","addr:city":"Ryman\u00f3w","addr:street":"ul. Szkolna","addr:housenumber":"2","addr:teryt:simc":21970,"addr:teryt:sym_ul":953421,"contact:phone":"+48 134355020","contact:email":"sm1rymanow@gmail.com","contact:website":"http:\/\/www.lorymanow.pl","ref:regon":"181020812","operator":"Gmina Ryman\u00f3w","operator:type":"government","amenity":"music_school","note":"Parent RSPO: 87327"}},{"id":120257,"type":"Feature","geometry":{"type":"Point","coordinates":[21.86835,49.57702]},"properties":{"ref:rspo":120257,"official_name":"Niepubliczne Przedszkole J\u0119zykowe \"Tuptusiowo\"","name":"Niepubliczne Przedszkole J\u0119zykowe \"Tuptusiowo\"","addr:country":"PL","addr:postcode":"38-480","addr:city":"Ryman\u00f3w","addr:street":"ul. Piekarska","addr:housenumber":"3","addr:teryt:simc":16111,"addr:teryt:sym_ul":953421,"contact:phone":"+48 795961781","contact:email":"p.tuptusiowo@wp.pl","contact:website":"http:\/\/www.montessori-rymanow.pl","ref:regon":"181026074","ref:vatin":"PL9151633185","operator":"Alicja Godzik","operator:type":"private","amenity":"kindergarten"}},{"id":264094,"type":"Feature","geometry":{"type":"Point","coordinates":[21.86835,49.576989999999995]},"properties":{"isced:level":"1;2","ref:rspo":264094,"official_name":"Niepubliczna Szko\u0142a Podstawowa Montessori w Rymanowie","name":"Niepubliczna Szko\u0142a Podstawowa Montessori w Rymanowie","addr:country":"PL","addr:postcode":"38-480","addr:city":"Ryman\u00f3w","addr:street":"ul. Piekarska","addr:housenumber":"3","addr:teryt:simc":16111,"addr:teryt:sym_ul":953421,"contact:phone":"+48 795961781","contact:email":"p.tuptusiowo@wp.pl","contact:website":"http:\/\/www.montessori-rymanow.pl","ref:regon":"368262717","operator":"Alicja Godzik","operator:type":"private","amenity":"school"}},{"id":88457,"type":"Feature","geometry":{"type":"Point","coordinates":[21.82426,49.5810699]},"properties":{"isced:level":"1;2","ref:rspo":88457,"official_name":"Szko\u0142a Podstawowa im. Jana Paw\u0142a II w Klimk\u00f3wce","name":"Szko\u0142a Podstawowa","addr:country":"PL","addr:postcode":"38-480","addr:city":"Klimk\u00f3wka","addr:street":"ul. Zdrojowa","addr:housenumber":"49","addr:teryt:simc":25944,"addr:teryt:sym_ul":358865,"contact:phone":"+48 134355393","contact:email":"zspklimkowka@rymanow.pl","contact:website":"http:\/\/www.spklimkowka.edupage.org","ref:regon":"001198211","ref:vatin":"PL6842349982","operator":"Gmina Ryman\u00f3w","operator:type":"government","amenity":"school"}},{"id":103521,"type":"Feature","geometry":{"type":"Point","coordinates":[21.82426,49.5810399]},"properties":{"ref:rspo":103521,"official_name":"Punkt Przedszkolny \"Kolorowe Przedszkole\" Przy Szkole Podstawowej w Klimk\u00f3wce","name":"Punkt Przedszkolny \"Kolorowe Przedszkole\" Przy Szkole Podstawowej w Klimk\u00f3wce","addr:country":"PL","addr:postcode":"38-480","addr:city":"Klimk\u00f3wka","addr:street":"ul. Zdrojowa","addr:housenumber":"49","addr:teryt:simc":25944,"addr:teryt:sym_ul":358865,"contact:phone":"+48 134355393","contact:email":"klimkowka@poczta.onet.pl","contact:website":"http:\/\/www.spklimkowka.edupage.org","ref:regon":"180921217","operator":"Gmina Ryman\u00f3w","operator:type":"government","amenity":"kindergarten"}},{"id":43927,"type":"Feature","geometry":{"type":"Point","coordinates":[21.90337,49.60793]},"properties":{"ref:rspo":43927,"official_name":"Zesp\u00f3\u0142 Szk\u00f3\u0142 Publicznych w Milczy","name":"Zesp\u00f3\u0142 Szk\u00f3\u0142 Publicznych w Milczy","addr:country":"PL","addr:postcode":"38-483","addr:city":"Milcza","addr:street":"ul. Szkolna","addr:housenumber":"16","addr:teryt:simc":21970,"addr:teryt:sym_ul":358925,"contact:phone":"+48 134358117","contact:email":"zspmilcza@op.pl","contact:website":"http:\/\/www.zspmilcza.edupage.org","ref:regon":"371165268","ref:vatin":"PL6842349999","operator":"Gmina Ryman\u00f3w","operator:type":"government","landuse":"education","fixme":"amenity=school, amenity=college albo landuse=education w zale\u017cno\u015bci od tego, jakie plac\u00f3wki wchodz\u0105 w sk\u0142ad zespo\u0142u. Sprawd\u017a, kiedy stosowa\u0107 amenity=* a kiedy landuse=education.","note":"Children RSPO: 61437;131568"}},{"id":61437,"type":"Feature","geometry":{"type":"Point","coordinates":[21.90337,49.6079]},"properties":{"isced:level":"1;2","ref:rspo":61437,"official_name":"Zesp\u00f3\u0142 Szk\u00f3\u0142 Publicznych Szko\u0142a Podstawowa im. Ks. Tadeusza Jakubi\u0144skiego w Milczy","name":"Zesp\u00f3\u0142 Szk\u00f3\u0142 Publicznych Szko\u0142a Podstawowa","addr:country":"PL","addr:postcode":"38-483","addr:city":"Milcza","addr:street":"ul. Szkolna","addr:housenumber":"16","addr:teryt:simc":21970,"addr:teryt:sym_ul":358925,"contact:phone":"+48 134358117","contact:email":"zspmilcza@op.pl","contact:website":"http:\/\/www.zspmilcza.edupage.org","ref:regon":"001198234","operator":"Gmina Ryman\u00f3w","operator:type":"government","amenity":"school","note":"Parent RSPO: 43927"}},{"id":131568,"type":"Feature","geometry":{"type":"Point","coordinates":[21.90337,49.607870000000005]},"properties":{"ref:rspo":131568,"official_name":"Przedszkole \"Weso\u0142e Maluchy\" w Milczy","name":"Przedszkole \"Weso\u0142e Maluchy\" w Milczy","addr:country":"PL","addr:postcode":"38-483","addr:city":"Milcza","addr:street":"ul. Szkolna","addr:housenumber":"16","addr:teryt:simc":21970,"addr:teryt:sym_ul":358925,"contact:phone":"+48 134358117","contact:email":"zspmilcza@op.pl","contact:website":"http:\/\/www.zspmilcza.edupage.org","ref:regon":"365226342","operator":"Gmina Ryman\u00f3w","operator:type":"government","amenity":"kindergarten","note":"Parent RSPO: 43927"}},{"id":89686,"type":"Feature","geometry":{"type":"Point","coordinates":[21.86889,49.61548]},"properties":{"isced:level":"1;2","ref:rspo":89686,"official_name":"Szko\u0142a Podstawowa im. Ks. Kardyna\u0142a Stefana Wyszy\u0144skiego we Wr\u00f3bliku Szlacheckim","name":"Szko\u0142a Podstawowa","addr:country":"PL","addr:postcode":"38-483","addr:city":"Wr\u00f3blik Szlachecki","addr:street":"ul. Szkolna","addr:housenumber":"5","addr:teryt:simc":21970,"addr:teryt:sym_ul":359072,"contact:phone":"+48 134358127","contact:email":"zspwroblik@o2.pl","contact:website":"http:\/\/www.spwroblik.pl","ref:regon":"001198263","ref:vatin":"PL6842349953","operator":"Gmina Ryman\u00f3w","operator:type":"government","amenity":"school"}},{"id":103520,"type":"Feature","geometry":{"type":"Point","coordinates":[21.86889,49.615449999999996]},"properties":{"ref:rspo":103520,"official_name":"Punkt Przedszkolny Przy Szkole Podstawowej we Wr\u00f3bliku Szlacheckim","name":"Punkt Przedszkolny Przy Szkole Podstawowej we Wr\u00f3bliku Szlacheckim","addr:country":"PL","addr:postcode":"38-483","addr:city":"Wr\u00f3blik Szlachecki","addr:street":"ul. Szkolna","addr:housenumber":"5","addr:teryt:simc":21970,"addr:teryt:sym_ul":359072,"contact:phone":"+48 134358127","contact:email":"zspwroblik@o2.pl","contact:website":"http:\/\/www.zspwroblik.pl","ref:regon":"180921186","operator":"Gmina Ryman\u00f3w","operator:type":"government","amenity":"kindergarten"}},{"id":14887,"type":"Feature","geometry":{"type":"Point","coordinates":[21.9177399,49.63161]},"properties":{"isced:level":"1;2","ref:rspo":14887,"official_name":"Szko\u0142a Podstawowa w Bziance","name":"Szko\u0142a Podstawowa w Bziance","addr:country":"PL","addr:postcode":"38-483","addr:place":"Bzianka","addr:housenumber":"191","addr:teryt:sym_ul":358760,"contact:phone":"+48 134358102","contact:email":"zsp_bzianka@wp.pl","contact:website":"http:\/\/spbzianka.idl.pl","ref:regon":"180888075","ref:vatin":"PL6842636345","operator":"Stowarzyszenie Na Rzecz Rozwoju Wsi Bzianka Nad Wis\u0142okiem","operator:type":"ngo","amenity":"school"}}]}