{"type":"FeatureCollection","features":[{"id":49773,"type":"Feature","geometry":{"type":"Point","coordinates":[21.752811431885,49.591281890869]},"properties":{"isced:level":"1;2","ref:rspo":49773,"official_name":"Szko\u0142a Podstawowa im. W\u0142adys\u0142awa Broniewskiego w Piotr\u00f3wce","name":"Szko\u0142a Podstawowa","addr:country":"PL","addr:postcode":"38-459","addr:place":"Piotr\u00f3wka","addr:housenumber":"38","addr:teryt:sym_ul":353632,"contact:phone":"+48 134352023","contact:email":"sppiotrowka@jedlicze.pl","contact:website":"http:\/\/www.sppiotrowka.jedlicze.pl","ref:regon":"001200190","ref:vatin":"PL6841669822","operator":"Gmina Jedlicze","operator:type":"government","amenity":"school","note":"Children RSPO: 121344"}},{"id":121344,"type":"Feature","geometry":{"type":"Point","coordinates":[21.61269,49.67988]},"properties":{"isced:level":"1;2","ref:rspo":121344,"official_name":"Szko\u0142a Filialna w Podniebylu","name":"Szko\u0142a Filialna w Podniebylu","addr:country":"PL","addr:postcode":"38-459","addr:place":"Podniebyle","addr:housenumber":"35","addr:teryt:sym_ul":353684,"contact:phone":"+48 134352023","contact:email":"sppiotrowka@jedlicze.pl","contact:website":"http:\/\/www.sppiotrowka.jedlicze.pl","ref:regon":"120019000","operator":"Gmina Jedlicze","operator:type":"government","amenity":"school","note":"Parent RSPO: 49773"}},{"id":49765,"type":"Feature","geometry":{"type":"Point","coordinates":[21.63595,49.69231]},"properties":{"isced:level":"1;2","ref:rspo":49765,"official_name":"Szko\u0142a Podstawowa w D\u0142ugiem","name":"Szko\u0142a Podstawowa w D\u0142ugiem","addr:country":"PL","addr:postcode":"38-460","addr:place":"D\u0142ugie","addr:housenumber":"10","addr:teryt:sym_ul":353402,"contact:phone":"+48 134352589","contact:email":"spdlugie@jedlicze.pl","contact:website":"http:\/\/www.spdlugie.pl","ref:regon":"001252525","ref:vatin":"PL6841669710","operator":"Gmina Jedlicze","operator:type":"government","amenity":"school"}},{"id":49761,"type":"Feature","geometry":{"type":"Point","coordinates":[21.6644557,49.6931593]},"properties":{"ref:rspo":49761,"official_name":"Zesp\u00f3\u0142 Szkolno - Przedszkolny w \u017barnowcu","name":"Zesp\u00f3\u0142 Szkolno - Przedszkolny w \u017barnowcu","addr:country":"PL","addr:postcode":"38-460","addr:place":"\u017barnowiec","addr:housenumber":"137","addr:teryt:sym_ul":353856,"contact:phone":"+48 134352043","contact:email":"spzarnowiec@jedlicze.pl","contact:website":"http:\/\/www.zspzarnowiec.pl","ref:regon":"180758912","ref:vatin":"PL6842628647","operator":"Gmina Jedlicze","operator:type":"government","landuse":"education","fixme":"amenity=school, amenity=college albo landuse=education w zale\u017cno\u015bci od tego, jakie plac\u00f3wki wchodz\u0105 w sk\u0142ad zespo\u0142u. Sprawd\u017a, kiedy stosowa\u0107 amenity=* a kiedy landuse=education.","note":"Children RSPO: 69835;69837"}},{"id":69835,"type":"Feature","geometry":{"type":"Point","coordinates":[21.6644557,49.693129299999995]},"properties":{"isced:level":"1;2","ref:rspo":69835,"official_name":"Szko\u0142a Podstawowa im. Marii Konopnickiej w \u017barnowcu","name":"Szko\u0142a Podstawowa","addr:country":"PL","addr:postcode":"38-460","addr:place":"\u017barnowiec","addr:housenumber":"137","addr:teryt:sym_ul":353856,"contact:phone":"+48 134352043","contact:email":"spzarnowiec@jedlicze.pl","contact:website":"http:\/\/www.zspzarnowiec.pl","ref:regon":"001200184","ref:vatin":"PL6842628647","operator":"Gmina Jedlicze","operator:type":"government","amenity":"school","note":"Parent RSPO: 49761"}},{"id":69837,"type":"Feature","geometry":{"type":"Point","coordinates":[21.6644557,49.6930993]},"properties":{"ref:rspo":69837,"official_name":"Samorz\u0105dowe Przedszkole w \u017barnowcu","name":"Samorz\u0105dowe Przedszkole w \u017barnowcu","addr:country":"PL","addr:postcode":"38-460","addr:place":"\u017barnowiec","addr:housenumber":"137","addr:teryt:sym_ul":353856,"contact:phone":"+48 134352043","contact:email":"spzarnowiec@jedlicze.pl","contact:website":"http:\/\/www.zspzarnowiec.pl","ref:regon":"180758906","ref:vatin":"PL6842628647","operator":"Gmina Jedlicze","operator:type":"government","amenity":"kindergarten","note":"Parent RSPO: 49761"}},{"id":49766,"type":"Feature","geometry":{"type":"Point","coordinates":[21.67956,49.69851]},"properties":{"isced:level":"1;2","ref:rspo":49766,"official_name":"Szko\u0142a Podstawowa w Dobieszynie","name":"Szko\u0142a Podstawowa w Dobieszynie","addr:country":"PL","addr:postcode":"38-460","addr:place":"Dobieszyn","addr:housenumber":"brak","addr:teryt:sym_ul":353454,"contact:phone":"+48 134352734","contact:email":"spdobieszyn@jedlicze.pl","contact:website":"http:\/\/www.spdobieszyn.edupage.org","ref:regon":"001200913","ref:vatin":"PL6841728016","operator":"Gmina Jedlicze","operator:type":"government","amenity":"school"}},{"id":49768,"type":"Feature","geometry":{"type":"Point","coordinates":[21.65339,49.7110399]},"properties":{"ref:rspo":49768,"official_name":"Samorz\u0105dowe Przedszkole w Jedliczu","name":"Samorz\u0105dowe Przedszkole w Jedliczu","addr:country":"PL","addr:postcode":"38-460","addr:city":"Jedlicze","addr:street":"ul. Tadeusza Rejtana","addr:housenumber":"38a","addr:teryt:simc":18575,"addr:teryt:sym_ul":953237,"contact:phone":"+48 134222025","contact:email":"pjedlicze@jedlicze.pl","contact:website":"http:\/\/www.przedszkole.jedlicze.pl","ref:regon":"000903140","ref:vatin":"PL6841759198","operator":"Gmina Jedlicze","operator:type":"government","amenity":"kindergarten"}},{"id":21068,"type":"Feature","geometry":{"type":"Point","coordinates":[21.64206,49.7121799]},"properties":{"isced:level":"3","ref:rspo":21068,"official_name":"Liceum Og\u00f3lnokszta\u0142c\u0105ce im. Marii Konopnickiej","name":"Liceum Og\u00f3lnokszta\u0142c\u0105ce","addr:country":"PL","addr:postcode":"38-460","addr:city":"Jedlicze","addr:street":"ul. W\u0142adys\u0142awa Dubisa","addr:housenumber":"7","addr:teryt:simc":27215,"addr:teryt:sym_ul":953237,"contact:phone":"+48 134352014","contact:email":"lojedlicze@krosno.home.pl","contact:website":"http:\/\/www.lojedlicze.pl","ref:regon":"000229263","ref:vatin":"PL6841583109","operator":"Powiat Kro\u015bnie\u0144ski","operator:type":"government","amenity":"school"}},{"id":69838,"type":"Feature","geometry":{"type":"Point","coordinates":[21.64176,49.71331]},"properties":{"isced:level":"1;2","ref:rspo":69838,"official_name":"Szko\u0142a Podstawowa im. Wincentego Manierskiego w Jedliczu","name":"Szko\u0142a Podstawowa","addr:country":"PL","addr:postcode":"38-460","addr:city":"Jedlicze","addr:street":"ul. Dr F. i Z. Tokarskich","addr:housenumber":"5","addr:teryt:simc":49612,"addr:teryt:sym_ul":953237,"contact:phone":"+48 134381120","contact:email":"spjedlicze@jedlicze.pl","contact:website":"http:\/\/www.spjedlicze.cba.pl","ref:regon":"001200333","ref:vatin":"PL6842337944","operator":"Gmina Jedlicze","operator:type":"government","amenity":"school"}},{"id":276276,"type":"Feature","geometry":{"type":"Point","coordinates":[21.63809,49.71366]},"properties":{"ref:rspo":276276,"official_name":"Przedszkole Niepubliczne im. \u015aw. Jana Paw\u0142a II i Matki Anny Kaworek w Jedliczu","name":"Przedszkole Niepubliczne","addr:country":"PL","addr:postcode":"38-460","addr:city":"Jedlicze","addr:street":"ul. W\u0142adys\u0142awa Dubisa","addr:housenumber":"3","addr:teryt:simc":27215,"addr:teryt:sym_ul":953237,"contact:phone":"+48 531228444","contact:email":"kontakt@przedszkole-jedlicze.pl","contact:website":"http:\/\/www.przedszkole-jedlicze.pl","ref:regon":"387066329","operator":"Patrycja S\u0142owik","operator:type":"private","amenity":"kindergarten"}},{"id":21093,"type":"Feature","geometry":{"type":"Point","coordinates":[21.63697,49.71488]},"properties":{"ref:rspo":21093,"official_name":"Zesp\u00f3\u0142 Szk\u00f3\u0142 im. Armii Krajowej w Jedliczu","name":"Zesp\u00f3\u0142 Szk\u00f3\u0142","addr:country":"PL","addr:postcode":"38-460","addr:city":"Jedlicze","addr:street":"ul. 1000 lecia","addr:housenumber":"15","addr:teryt:simc":49613,"addr:teryt:sym_ul":953237,"contact:phone":"+48 134352020","contact:email":"zs.jedlicze@idsl.pl","contact:website":"http:\/\/www.zsjedlicze.pl","ref:regon":"370007403","ref:vatin":"PL6841493079","operator":"Powiat Kro\u015bnie\u0144ski","operator:type":"government","landuse":"education","fixme":"amenity=school, amenity=college albo landuse=education w zale\u017cno\u015bci od tego, jakie plac\u00f3wki wchodz\u0105 w sk\u0142ad zespo\u0142u. Sprawd\u017a, kiedy stosowa\u0107 amenity=* a kiedy landuse=education.","note":"Children RSPO: 34958;42070;74000"}},{"id":34958,"type":"Feature","geometry":{"type":"Point","coordinates":[21.63697,49.71485]},"properties":{"isced:level":"3","ref:rspo":34958,"official_name":"Technikum w Jedliczu","name":"Technikum w Jedliczu","addr:country":"PL","addr:postcode":"38-460","addr:city":"Jedlicze","addr:street":"ul. 1000 lecia","addr:housenumber":"15","addr:teryt:simc":49613,"addr:teryt:sym_ul":953237,"contact:phone":"+48 134352020","contact:email":"zs.jedlicze@idsl.pl","contact:website":"http:\/\/www.zsjedlicze.pl","ref:regon":"371015758","ref:vatin":"PL6841493079","operator":"Powiat Kro\u015bnie\u0144ski","operator:type":"government","amenity":"school","note":"Parent RSPO: 21093"}},{"id":42070,"type":"Feature","geometry":{"type":"Point","coordinates":[21.63697,49.71482]},"properties":{"isced:level":"3","ref:rspo":42070,"official_name":"Bran\u017cowa Szko\u0142a I Stopnia w Jedliczu","name":"Bran\u017cowa Szko\u0142a I Stopnia w Jedliczu","addr:country":"PL","addr:postcode":"38-460","addr:city":"Jedlicze","addr:street":"ul. 1000 lecia","addr:housenumber":"15","addr:teryt:simc":49613,"addr:teryt:sym_ul":953237,"contact:phone":"+48 134352020","contact:email":"zs.jedlicze@idsl.pl","contact:website":"http:\/\/www.zsjedlicze","ref:regon":"371015741","ref:vatin":"PL6841493079","operator":"Powiat Kro\u015bnie\u0144ski","operator:type":"government","amenity":"school","note":"Parent RSPO: 21093"}},{"id":90660,"type":"Feature","geometry":{"type":"Point","coordinates":[21.68395,49.72023]},"properties":{"isced:level":"1;2","ref:rspo":90660,"official_name":"Szko\u0142a Podstawowa im. Edmunda \u0141ozi\u0144skiego w Potoku","name":"Szko\u0142a Podstawowa","addr:country":"PL","addr:postcode":"38-404","addr:place":"Potok","addr:housenumber":"73","addr:teryt:sym_ul":353780,"contact:phone":"+48 134365695","contact:email":"zspotok@jedlicze.pl","contact:website":"http:\/\/www.szkolapotok.com","ref:regon":"370474145","ref:vatin":"PL6842190406","operator":"Gmina Jedlicze","operator:type":"government","amenity":"school"}},{"id":49767,"type":"Feature","geometry":{"type":"Point","coordinates":[21.66368,49.73755]},"properties":{"ref:rspo":49767,"official_name":"Punkt Przedszkolny \"Kraina Szcz\u0119\u015bcia\" w Jaszczwi","name":"Punkt Przedszkolny \"Kraina Szcz\u0119\u015bcia\" w Jaszczwi","addr:country":"PL","addr:postcode":"38-460","addr:place":"Jaszczew","addr:housenumber":"286","addr:teryt:sym_ul":353508,"contact:phone":"+48 506434540","contact:email":"dianabobusia@o2.pl","contact:website":"http:\/\/www.kraina-szczescia.pl","ref:regon":"180900623","ref:vatin":"PL6842282404","operator":"Diana Bobusia","operator:type":"private","amenity":"kindergarten"}},{"id":49762,"type":"Feature","geometry":{"type":"Point","coordinates":[21.65452,49.73858]},"properties":{"ref:rspo":49762,"official_name":"Zesp\u00f3\u0142 Szkolno - Przedszkolny w Jaszczwi","name":"Zesp\u00f3\u0142 Szkolno - Przedszkolny w Jaszczwi","addr:country":"PL","addr:postcode":"38-460","addr:place":"Jaszczew","addr:housenumber":"333","addr:teryt:sym_ul":353508,"contact:phone":"+48 134312212","contact:email":"zsjaszczew@jedlicze.pl","contact:website":"http:\/\/www.zsjaszczew.pl","ref:regon":"371144800","ref:vatin":"PL6842182341","operator":"Gmina Jedlicze","operator:type":"government","landuse":"education","fixme":"amenity=school, amenity=college albo landuse=education w zale\u017cno\u015bci od tego, jakie plac\u00f3wki wchodz\u0105 w sk\u0142ad zespo\u0142u. Sprawd\u017a, kiedy stosowa\u0107 amenity=* a kiedy landuse=education.","note":"Children RSPO: 69830;123672"}},{"id":69830,"type":"Feature","geometry":{"type":"Point","coordinates":[21.65452,49.73855]},"properties":{"isced:level":"1;2","ref:rspo":69830,"official_name":"Szko\u0142a Podstawowa im. Armii Krajowej w Jaszczwi","name":"Szko\u0142a Podstawowa","addr:country":"PL","addr:postcode":"38-460","addr:place":"Jaszczew","addr:housenumber":"333","addr:teryt:sym_ul":353508,"contact:phone":"+48 134312212","contact:email":"zsjaszczew@jedlicze.pl","contact:website":"http:\/\/www.zsjaszczew.pl","ref:regon":"001200942","ref:vatin":"PL6842182341","operator":"Gmina Jedlicze","operator:type":"government","amenity":"school","note":"Parent RSPO: 49762"}},{"id":123672,"type":"Feature","geometry":{"type":"Point","coordinates":[21.6669308,49.7413676]},"properties":{"ref:rspo":123672,"official_name":"Samorz\u0105dowe Przedszkole w Jaszczwi","name":"Samorz\u0105dowe Przedszkole w Jaszczwi","addr:country":"PL","addr:postcode":"38-460","addr:place":"Jaszczew","addr:housenumber":"301","addr:teryt:sym_ul":353508,"contact:phone":"+48 134312242","contact:email":"zsjaszczew@jedlicze.pl","contact:website":"http:\/\/www.zsjaszczew.pl","ref:regon":"181133396","operator":"Gmina Jedlicze","operator:type":"government","amenity":"kindergarten","note":"Parent RSPO: 49762"}},{"id":69842,"type":"Feature","geometry":{"type":"Point","coordinates":[21.63322,49.74951]},"properties":{"isced:level":"1;2","ref:rspo":69842,"official_name":"Szko\u0142a Podstawowa w Moder\u00f3wce","name":"Szko\u0142a Podstawowa w Moder\u00f3wce","addr:country":"PL","addr:postcode":"38-460","addr:place":"Moder\u00f3wka","addr:housenumber":"117","addr:teryt:sym_ul":353572,"contact:phone":"+48 134312207","contact:email":"zsmoderowka@jedlicze.pl","contact:website":"http:\/\/spmoderowka.jedlicze.pl","ref:regon":"001200936","ref:vatin":"PL6842337921","operator":"Gmina Jedlicze","operator:type":"government","amenity":"school"}}]}