{
    "type": "FeatureCollection",
    "features": [
        {
            "id": 53805,
            "type": "Feature",
            "geometry": {
                "type": "Point",
                "coordinates": [
                    21.85654,
                    49.68283
                ]
            },
            "properties": {
                "isced:level": "1;2",
                "ref:rspo": 53805,
                "official_name": "Szko\u0142a Podstawowa im. M.konopnickiej w Iskrzyni",
                "name": "Szko\u0142a Podstawowa",
                "addr:country": "PL",
                "addr:postcode": "38-422",
                "addr:city": "Iskrzynia",
                "addr:street": "ul. Szkolna",
                "addr:housenumber": "4",
                "addr:teryt:simc": 21970,
                "addr:teryt:sym_ul": 354608,
                "contact:phone": "+48 134315513",
                "contact:email": "sp@spiskrzynia.pl",
                "contact:website": "http:\/\/www.spiskrzynia.pl",
                "ref:regon": "001214772",
                "ref:vatin": "PL6842216560",
                "operator": "Gmina Korczyna",
                "operator:type": "government",
                "amenity": "school"
            }
        },
        {
            "id": 53059,
            "type": "Feature",
            "geometry": {
                "type": "Point",
                "coordinates": [
                    21.87374,
                    49.70873
                ]
            },
            "properties": {
                "isced:level": "1;2",
                "ref:rspo": 53059,
                "official_name": "Szko\u0142a Podstawowa im. S. Pigonia w Komborni",
                "name": "Szko\u0142a Podstawowa",
                "addr:country": "PL",
                "addr:postcode": "38-420",
                "addr:place": "Kombornia",
                "addr:housenumber": "60",
                "addr:teryt:sym_ul": 354672,
                "contact:phone": "+48 134354809",
                "contact:email": "spkombornia@onet.pl",
                "ref:regon": "001214766",
                "ref:vatin": "PL6842216962",
                "operator": "Gmina Korczyna",
                "operator:type": "government",
                "amenity": "school"
            }
        },
        {
            "id": 44700,
            "type": "Feature",
            "geometry": {
                "type": "Point",
                "coordinates": [
                    21.87446,
                    49.70903
                ]
            },
            "properties": {
                "ref:rspo": 44700,
                "official_name": "Niepubliczne Przedszkole Zgromadzenia Si\u00f3str S\u0142u\u017cebniczek Nmp",
                "name": "Niepubliczne Przedszkole Zgromadzenia Si\u00f3str S\u0142u\u017cebniczek Nmp",
                "addr:country": "PL",
                "addr:postcode": "38-420",
                "addr:place": "Kombornia",
                "addr:housenumber": "56",
                "addr:teryt:sym_ul": 354672,
                "contact:phone": "+48 134354936",
                "contact:email": "przedszkolekombornia@gmail.com",
                "ref:regon": "180907714",
                "ref:vatin": "PL6842225659",
                "operator": "Zg. Ss. S\u0142u\u017cebniczek Nmp Niepokalanie Pocz\u0119tej, Prowincja Przemyska",
                "operator:type": "religious",
                "amenity": "kindergarten"
            }
        },
        {
            "id": 42775,
            "type": "Feature",
            "geometry": {
                "type": "Point",
                "coordinates": [
                    21.80749,
                    49.71237
                ]
            },
            "properties": {
                "ref:rspo": 42775,
                "official_name": "Przedszkole Samorz\u0105dowe w Korczynie",
                "name": "Przedszkole Samorz\u0105dowe w Korczynie",
                "addr:country": "PL",
                "addr:postcode": "38-420",
                "addr:city": "Korczyna",
                "addr:street": "ul. Parkowa",
                "addr:housenumber": "6",
                "addr:teryt:simc": 15710,
                "addr:teryt:sym_ul": 354784,
                "contact:phone": "+48 134354029",
                "contact:email": "przedszkole.korczyna@interia.pl",
                "ref:regon": "000902932",
                "ref:vatin": "PL6842314015",
                "operator": "Gmina Korczyna",
                "operator:type": "government",
                "amenity": "kindergarten"
            }
        },
        {
            "id": 71959,
            "type": "Feature",
            "geometry": {
                "type": "Point",
                "coordinates": [
                    21.80276,
                    49.71243
                ]
            },
            "properties": {
                "isced:level": "1;2",
                "ref:rspo": 71959,
                "official_name": "Szko\u0142a Podstawowa im. A.fredry w Korczynie",
                "name": "Szko\u0142a Podstawowa",
                "addr:country": "PL",
                "addr:postcode": "38-420",
                "addr:city": "Korczyna",
                "addr:street": "ul. Aleksandra Fredry",
                "addr:housenumber": "2",
                "addr:teryt:simc": 5172,
                "addr:teryt:sym_ul": 354784,
                "contact:phone": "+48 134354025",
                "contact:email": "sekretariat@zs.korczyna.net",
                "contact:website": "http:\/\/www.zs.korczyna.net",
                "ref:regon": "000629755",
                "ref:vatin": "PL6842216703",
                "operator": "Gmina Korczyna",
                "operator:type": "government",
                "amenity": "school"
            }
        },
        {
            "id": 44699,
            "type": "Feature",
            "geometry": {
                "type": "Point",
                "coordinates": [
                    21.81387,
                    49.71328
                ]
            },
            "properties": {
                "ref:rspo": 44699,
                "official_name": "Przedszkole Si\u00f3str S\u0142u\u017cebniczek w Korczynie",
                "name": "Przedszkole Si\u00f3str S\u0142u\u017cebniczek w Korczynie",
                "addr:country": "PL",
                "addr:postcode": "38-420",
                "addr:city": "Korczyna",
                "addr:street": "ul. Ogrodowa",
                "addr:housenumber": "1",
                "addr:teryt:simc": 14834,
                "addr:teryt:sym_ul": 354784,
                "contact:phone": "+48 134354271",
                "contact:email": "przedszkole.s.korczyna@gmail.com",
                "ref:regon": "180907690",
                "ref:vatin": "PL6842114210",
                "operator": "Zg. Ss. S\u0142u\u017cebniczek Nmp Niepokalanie Pocz\u0119tej, Prowincja Przemyska",
                "operator:type": "religious",
                "amenity": "kindergarten"
            }
        },
        {
            "id": 53953,
            "type": "Feature",
            "geometry": {
                "type": "Point",
                "coordinates": [
                    21.78295,
                    49.77272
                ]
            },
            "properties": {
                "isced:level": "1;2",
                "ref:rspo": 53953,
                "official_name": "Szko\u0142a Podstawowa im. I.\u0142ukasiewicza w W\u0119gl\u00f3wce",
                "name": "Szko\u0142a Podstawowa",
                "addr:country": "PL",
                "addr:postcode": "38-420",
                "addr:place": "W\u0119gl\u00f3wka",
                "addr:housenumber": "81",
                "addr:teryt:sym_ul": 355186,
                "contact:phone": "+48 134354404",
                "contact:email": "spweglowka@wp.pl",
                "contact:website": "http:\/\/spweglowka.edu.pl",
                "ref:regon": "001214743",
                "ref:vatin": "PL6842216821",
                "operator": "Gmina Korczyna",
                "operator:type": "government",
                "amenity": "school"
            }
        },
        {
            "id": 42778,
            "type": "Feature",
            "geometry": {
                "type": "Point",
                "coordinates": [
                    21.85778,
                    49.77469
                ]
            },
            "properties": {
                "isced:level": "1;2",
                "ref:rspo": 42778,
                "official_name": "Szko\u0142a Podstawowa w Krasnej",
                "name": "Szko\u0142a Podstawowa w Krasnej",
                "addr:country": "PL",
                "addr:postcode": "38-420",
                "addr:city": "Krasna",
                "addr:street": "ul. Kro\u015bnie\u0144ska",
                "addr:housenumber": "71",
                "addr:teryt:simc": 9965,
                "addr:teryt:sym_ul": 355051,
                "contact:phone": "+48 134354405",
                "contact:email": "szkola_krasna@op.pl",
                "ref:regon": "001214737",
                "ref:vatin": "PL6842216933",
                "operator": "Gmina Korczyna",
                "operator:type": "government",
                "amenity": "school"
            }
        }
    ]
}