{
    "type": "FeatureCollection",
    "features": [
        {
            "id": 20866,
            "type": "Feature",
            "geometry": {
                "type": "Point",
                "coordinates": [
                    21.69396,
                    49.46099
                ]
            },
            "properties": {
                "isced:level": "1;2",
                "ref:rspo": 20866,
                "official_name": "Szko\u0142a Podstawowa w Tylawie",
                "name": "Szko\u0142a Podstawowa w Tylawie",
                "addr:postcode": "38-454",
                "addr:place": "Tylawa",
                "addr:housenumber": "26",
                "addr:city:simc": 350510,
                "phone": "+48 134330709",
                "email": "tylawa@wp.pl",
                "website": "http:\/\/www.sptylawa.pl",
                "ref:regon": "001200356",
                "ref:vatin": "PL6842053827",
                "operator": "Gmina Dukla",
                "operator:type": "government",
                "amenity": "school"
            }
        },
        {
            "id": 20828,
            "type": "Feature",
            "geometry": {
                "type": "Point",
                "coordinates": [
                    21.72998,
                    49.54636
                ]
            },
            "properties": {
                "isced:level": "1;2",
                "ref:rspo": 20828,
                "official_name": "Szko\u0142a Podstawowa w Jasionce",
                "name": "Szko\u0142a Podstawowa w Jasionce",
                "addr:postcode": "38-450",
                "addr:place": "Jasionka",
                "addr:housenumber": "74",
                "addr:city:simc": 349330,
                "phone": "+48 134330095",
                "email": "szkolajasionka@o2.pl",
                "website": "http:\/\/edujasionka.dukla.pl",
                "ref:regon": "001200327",
                "ref:vatin": "PL6842053856",
                "operator": "Gmina Dukla",
                "operator:type": "government",
                "amenity": "school"
            }
        },
        {
            "id": 20857,
            "type": "Feature",
            "geometry": {
                "type": "Point",
                "coordinates": [
                    21.67955,
                    49.55215
                ]
            },
            "properties": {
                "isced:level": "3",
                "ref:rspo": 20857,
                "official_name": "Liceum Og\u00f3lnokszta\u0142c\u0105ce im. \u015aw. Jana z Dukli w Dukli",
                "name": "Liceum Og\u00f3lnokszta\u0142c\u0105ce",
                "addr:postcode": "38-450",
                "addr:city": "Dukla",
                "addr:street": "Armii Krajowej",
                "addr:housenumber": "1",
                "addr:city:simc": 952924,
                "addr:street:sym_ul": 432,
                "phone": "+48 134330008",
                "email": "liceum@dukla.pl",
                "website": "http:\/\/www.liceum.dukla.pl",
                "ref:regon": "000261947",
                "ref:vatin": "PL6842602903",
                "operator": "Gmina Dukla",
                "operator:type": "government",
                "amenity": "school"
            }
        },
        {
            "id": 24270,
            "type": "Feature",
            "geometry": {
                "type": "Point",
                "coordinates": [
                    21.68222,
                    49.5524
                ]
            },
            "properties": {
                "ref:rspo": 24270,
                "official_name": "Przedszkole Gminne w Dukli",
                "name": "Przedszkole Gminne w Dukli",
                "addr:postcode": "38-450",
                "addr:city": "Dukla",
                "addr:street": "Trakt W\u0119gierski",
                "addr:housenumber": "38A",
                "addr:city:simc": 952924,
                "addr:street:sym_ul": 22934,
                "phone": "+48 134331772",
                "email": "przedszkole@dukla.pl",
                "website": "http:\/\/przedszkole.dukla.eu",
                "ref:regon": "000903110",
                "ref:vatin": "PL6842646993",
                "operator": "Gmina Dukla",
                "operator:type": "government",
                "amenity": "kindergarten"
            }
        },
        {
            "id": 24262,
            "type": "Feature",
            "geometry": {
                "type": "Point",
                "coordinates": [
                    21.68429,
                    49.55281
                ]
            },
            "properties": {
                "isced:level": "1;2",
                "ref:rspo": 24262,
                "official_name": "Szko\u0142a Podstawowa im. Bohater\u00f3w Walk O Prze\u0142\u0119cz Dukielsk\u0105 w Latach 1944-1945 w Dukli",
                "name": "Szko\u0142a Podstawowa",
                "addr:postcode": "38-450",
                "addr:city": "Dukla",
                "addr:street": "Tadeusza Ko\u015bciuszki",
                "addr:housenumber": "13",
                "addr:city:simc": 952924,
                "addr:street:sym_ul": 9572,
                "phone": "+48 134331570",
                "email": "dyrektor@szkola.dukla.pl",
                "website": "http:\/\/sp.dukla.pl",
                "ref:regon": "001200273",
                "ref:vatin": "PL6842053804",
                "operator": "Gmina Dukla",
                "operator:type": "government",
                "amenity": "school"
            }
        },
        {
            "id": 74000,
            "type": "Feature",
            "geometry": {
                "type": "Point",
                "coordinates": [
                    21.68501,
                    49.55516
                ]
            },
            "properties": {
                "ref:rspo": 74000,
                "official_name": "Szkolne Schronisko M\u0142odzie\u017cowe w Dukli Przy Zespole Szk\u00f3\u0142 im. Armii Krajowej w Jedliczu",
                "name": "Szkolne Schronisko M\u0142odzie\u017cowe w Dukli Przy Zespole Szk\u00f3\u0142",
                "addr:postcode": "38-450",
                "addr:city": "Dukla",
                "addr:street": "Rynek",
                "addr:housenumber": "9",
                "addr:city:simc": 952924,
                "addr:street:sym_ul": 19253,
                "phone": "+48 134330886",
                "email": "ptsm@schronisko-dukla.pl",
                "website": "http:\/\/schronisko-dukla.pl",
                "ref:regon": "370389280",
                "operator": "Powiat Kro\u015bnie\u0144ski",
                "operator:type": "government",
                "tourism": "hostel",
                "note": "Parent RSPO: 21093"
            }
        },
        {
            "id": 20462,
            "type": "Feature",
            "geometry": {
                "type": "Point",
                "coordinates": [
                    21.6232599,
                    49.55926
                ]
            },
            "properties": {
                "isced:level": "1;2",
                "ref:rspo": 20462,
                "official_name": "Szko\u0142a Podstawowa im. Bohater\u00f3w Operacji Karpacko-Dukielskiej w Iwli",
                "name": "Szko\u0142a Podstawowa",
                "addr:postcode": "38-450",
                "addr:place": "Iwla",
                "addr:housenumber": "22",
                "addr:city:simc": 349122,
                "phone": "+48 134330003",
                "email": "szkolaiwla@poczta.fm",
                "website": "http:\/\/spiwla.dukla.pl",
                "ref:regon": "001197708",
                "ref:vatin": "PL6842626660",
                "operator": "Gmina Dukla",
                "operator:type": "government",
                "amenity": "school"
            }
        },
        {
            "id": 20534,
            "type": "Feature",
            "geometry": {
                "type": "Point",
                "coordinates": [
                    21.61323,
                    49.56427
                ]
            },
            "properties": {
                "isced:level": "1;2",
                "ref:rspo": 20534,
                "official_name": "Szko\u0142a Podstawowa im. Jana Paw\u0142a II w G\u0142ojscach",
                "name": "Szko\u0142a Podstawowa",
                "addr:postcode": "38-450",
                "addr:city": "G\u0142ojsce",
                "addr:street": "Szkolna",
                "addr:housenumber": "7",
                "addr:city:simc": 349062,
                "addr:street:sym_ul": 21970,
                "phone": "+48 134330005",
                "email": "spglojsce@wp.pl",
                "website": "http:\/\/spglojsce.pl",
                "ref:regon": "001200280",
                "ref:vatin": "PL6842627174",
                "operator": "Gmina Dukla",
                "operator:type": "government",
                "amenity": "school"
            }
        },
        {
            "id": 24232,
            "type": "Feature",
            "geometry": {
                "type": "Point",
                "coordinates": [
                    21.71989,
                    49.59367
                ]
            },
            "properties": {
                "isced:level": "1;2",
                "ref:rspo": 24232,
                "official_name": "Szko\u0142a Podstawowa im. Marii I Micha\u0142a Krukierk\u00f3w w R\u00f3wnem",
                "name": "Szko\u0142a Podstawowa",
                "addr:postcode": "38-451",
                "addr:city": "R\u00f3wne",
                "addr:street": "D\u0142uga",
                "addr:housenumber": "41",
                "addr:city:simc": 349961,
                "addr:street:sym_ul": 3839,
                "phone": "+48 134333008",
                "email": "szkolarowne@gmail.com",
                "website": "http:\/\/sprowne.dukla.pl",
                "ref:regon": "001200310",
                "ref:vatin": "PL6842053709",
                "operator": "Gmina Dukla",
                "operator:type": "government",
                "amenity": "school"
            }
        },
        {
            "id": 20461,
            "type": "Feature",
            "geometry": {
                "type": "Point",
                "coordinates": [
                    21.7042,
                    49.60119
                ]
            },
            "properties": {
                "isced:level": "1;2",
                "ref:rspo": 20461,
                "official_name": "Szko\u0142a Podstawowa w Wietrznie",
                "name": "Szko\u0142a Podstawowa w Wietrznie",
                "addr:postcode": "38-451",
                "addr:place": "Wietrzno",
                "addr:housenumber": "22a",
                "addr:city:simc": 350562,
                "phone": "+48 134333004",
                "email": "sp.wietrzno@interia.pl",
                "website": "http:\/\/spwietrzno.dukla.pl\/",
                "ref:regon": "001200296",
                "ref:vatin": "PL6842622567",
                "operator": "Gmina Dukla",
                "operator:type": "government",
                "amenity": "school"
            }
        },
        {
            "id": 20631,
            "type": "Feature",
            "geometry": {
                "type": "Point",
                "coordinates": [
                    21.66899,
                    49.60514
                ]
            },
            "properties": {
                "isced:level": "1;2",
                "ref:rspo": 20631,
                "official_name": "Szko\u0142a Podstawowa im. Jana Paw\u0142a II w \u0141\u0119kach Dukielskich",
                "name": "Szko\u0142a Podstawowa",
                "addr:postcode": "38-456",
                "addr:place": "\u0141\u0119ki Dukielskie",
                "addr:housenumber": "74",
                "addr:city:simc": 349642,
                "phone": "+48 134317504",
                "email": "szkolaleki@wp.pl",
                "website": "http:\/\/spleki.szkolna.net",
                "ref:regon": "001200340",
                "ref:vatin": "PL6842053833",
                "operator": "Gmina Dukla",
                "operator:type": "government",
                "amenity": "school"
            }
        },
        {
            "id": 132956,
            "type": "Feature",
            "geometry": {
                "type": "Point",
                "coordinates": [
                    21.6640032,
                    49.6123946
                ]
            },
            "properties": {
                "ref:rspo": 132956,
                "official_name": "Przedszkole Niepubliczne \"Wiatraczek\"",
                "name": "Przedszkole Niepubliczne \"Wiatraczek\"",
                "addr:postcode": "38-456",
                "addr:place": "\u0141\u0119ki Dukielskie",
                "addr:housenumber": "415",
                "addr:city:simc": 349642,
                "email": "magda.aszlar@interia.pl",
                "ref:regon": "366400316",
                "operator": "Andrzej Aszlar",
                "operator:type": "private",
                "amenity": "kindergarten"
            }
        }
    ]
}