{"type":"FeatureCollection","features":[{"id":18085,"type":"Feature","geometry":{"type":"Point","coordinates":[21.752811431885,49.591281890869]},"properties":{"isced:level":"1;2","ref:rspo":18085,"official_name":"Szko\u0142a Podstawowa w Zalesiu im. J\u00f3zefa Pi\u0142sudskiego","name":"Szko\u0142a Podstawowa w Zalesiu","addr:country":"PL","addr:postcode":"38-423","addr:place":"Zalesie","addr:housenumber":"38","addr:teryt:sym_ul":356808,"contact:phone":"+48 134315875","contact:email":"sp_zalesie@poczta.onet.pl","contact:website":"http:\/\/www.spzalesie.pl","ref:regon":"001214619","ref:vatin":"PL6842302199","operator":"Gmina Miejsce Piastowe","operator:type":"government","amenity":"school"}},{"id":18231,"type":"Feature","geometry":{"type":"Point","coordinates":[21.752811431885,49.591251890868996]},"properties":{"ref:rspo":18231,"official_name":"Punkt Przedszkolny Przy Szkole Podstawowej w Zalesiu","name":"Punkt Przedszkolny Przy Szkole Podstawowej w Zalesiu","addr:country":"PL","addr:postcode":"38-423","addr:place":"Zalesie","addr:housenumber":"38","addr:teryt:sym_ul":356808,"contact:phone":"+48 134315875","contact:email":"sp_zalesie@poczta.onet.pl","ref:regon":"180891054","operator":"Gmina Miejsce Piastowe","operator:type":"government","amenity":"kindergarten"}},{"id":16956,"type":"Feature","geometry":{"type":"Point","coordinates":[21.76,49.61266]},"properties":{"isced:level":"1;2","ref:rspo":16956,"official_name":"Szko\u0142a Podstawowa w Rogach","name":"Szko\u0142a Podstawowa w Rogach","addr:country":"PL","addr:postcode":"38-430","addr:city":"Rogi","addr:street":"ul. Szkolna","addr:housenumber":"2","addr:teryt:simc":21970,"addr:teryt:sym_ul":356671,"contact:phone":"+48 134353069","contact:email":"dyrektor@sprogi.szkolna.net","contact:website":"http:\/\/sprogi.szkolna.net","ref:regon":"001214648","ref:vatin":"PL6842302176","operator":"Gmina Miejsce Piastowe","operator:type":"government","amenity":"school"}},{"id":272400,"type":"Feature","geometry":{"type":"Point","coordinates":[21.76603,49.62304]},"properties":{"ref:rspo":272400,"official_name":"Niepubliczne Przedszkole Integracyjne \"Weso\u0142e Misie\"","name":"Niepubliczne Przedszkole Integracyjne \"Weso\u0142e Misie\"","addr:country":"PL","addr:postcode":"38-430","addr:city":"Rogi","addr:street":"ul. Trakt Papieski","addr:housenumber":"136a","addr:teryt:simc":44667,"addr:teryt:sym_ul":356671,"contact:email":"sylwiapenar@op.pl","contact:website":"http:\/\/wesolemisie-rogi.cba.pl","ref:regon":"384161777","operator":"Sylwia Penar","operator:type":"private","amenity":"kindergarten"}},{"id":18251,"type":"Feature","geometry":{"type":"Point","coordinates":[21.8439,49.62901]},"properties":{"ref:rspo":18251,"official_name":"Punkt Przedszkolny Przy Szkole Filialnej Szko\u0142y Podstawowej w Targowiskach im. \u015aw. Jana Kantego Z Siedzib\u0105 w Widaczu","name":"Punkt Przedszkolny Przy Szkole Filialnej Szko\u0142y Podstawowej w Targowiskach","addr:country":"PL","addr:postcode":"38-423","addr:place":"Widacz","addr:housenumber":"120","addr:teryt:sym_ul":356790,"contact:phone":"+48 134353627","contact:email":"spwidacz@poczta.onet.pl","ref:regon":"180891060","operator":"Gmina Miejsce Piastowe","operator:type":"government","amenity":"kindergarten"}},{"id":91435,"type":"Feature","geometry":{"type":"Point","coordinates":[21.8439,49.62898]},"properties":{"isced:level":"1;2","ref:rspo":91435,"official_name":"Szko\u0142a Filialna Szko\u0142y Podstawowej w Targowiskach im. \u015aw. Jana Kantego Z Siedzib\u0105 w Widaczu","name":"Szko\u0142a Filialna Szko\u0142y Podstawowej w Targowiskach","addr:country":"PL","addr:postcode":"38-430","addr:place":"Widacz","addr:housenumber":"120","addr:teryt:sym_ul":356790,"contact:phone":"+48 134353727","contact:email":"sptargowiska@wp.pl","ref:regon":"121463100","operator":"Gmina Miejsce Piastowe","operator:type":"government","amenity":"school","note":"Parent RSPO: 18147"}},{"id":18105,"type":"Feature","geometry":{"type":"Point","coordinates":[21.7370899,49.62923]},"properties":{"isced:level":"1;2","ref:rspo":18105,"official_name":"Szko\u0142a Podstawowa we Wrocance im. Stanis\u0142awy Grelli","name":"Szko\u0142a Podstawowa we Wrocance","addr:country":"PL","addr:postcode":"38-455","addr:city":"Wrocanka","addr:street":"ul. D\u0142uga","addr:housenumber":"19","addr:teryt:simc":3839,"addr:teryt:sym_ul":356814,"contact:phone":"+48 134311522","contact:email":"dyrektor@spwrocanka.szkolna.net","contact:website":"http:\/\/www.spwrocanka.szkolna.net","ref:regon":"001214625","ref:vatin":"PL6842302147","operator":"Gmina Miejsce Piastowe","operator:type":"government","amenity":"school"}},{"id":18189,"type":"Feature","geometry":{"type":"Point","coordinates":[21.7370899,49.6292]},"properties":{"ref:rspo":18189,"official_name":"Punkt Przedszkolny Przy Szkole Podstawowej we Wrocance im. Stanis\u0142awy Grelli","name":"Punkt Przedszkolny Przy Szkole Podstawowej we Wrocance","addr:country":"PL","addr:postcode":"38-455","addr:city":"Wrocanka","addr:street":"ul. D\u0142uga","addr:housenumber":"19","addr:teryt:simc":3839,"addr:teryt:sym_ul":356814,"contact:phone":"+48 134311522","contact:email":"dyrektor@spwrocanka.szkolna.net","contact:website":"http:\/\/www.spwrocanka.szkolna.net","ref:regon":"180891025","operator":"Gmina Miejsce Piastowe","operator:type":"government","amenity":"kindergarten"}},{"id":13722,"type":"Feature","geometry":{"type":"Point","coordinates":[21.79047,49.63071]},"properties":{"ref:rspo":13722,"official_name":"Michalicki Zesp\u00f3\u0142 Szk\u00f3\u0142 Ponadpodstawowych im. Ks. Br. Markiewicza w Miejscu Piastowym","name":"Michalicki Zesp\u00f3\u0142 Szk\u00f3\u0142 Ponadpodstawowych","addr:country":"PL","addr:postcode":"38-430","addr:city":"Miejsce Piastowe","addr:street":"ul. Ksi\u0119dza Bronis\u0142awa Markiewicza","addr:housenumber":"25b","addr:teryt:simc":43426,"addr:teryt:sym_ul":356530,"contact:phone":"+48 134353070","contact:email":"sekretariat@mzsp.pl","contact:website":"http:\/\/mzsp.pl","ref:regon":"180889353","ref:vatin":"PL6842240015","operator":"Zgromadzenie \u015awi\u0119tego Micha\u0142a Archanio\u0142a Z Siedzib\u0105 W Markach","operator:type":"religious","landuse":"education","fixme":"amenity=school, amenity=college albo landuse=education w zale\u017cno\u015bci od tego, jakie plac\u00f3wki wchodz\u0105 w sk\u0142ad zespo\u0142u. Sprawd\u017a, kiedy stosowa\u0107 amenity=* a kiedy landuse=education.","note":"Children RSPO: 57600;57603;57605;89582;91315;91316;91317"}},{"id":57600,"type":"Feature","geometry":{"type":"Point","coordinates":[21.79047,49.63068]},"properties":{"isced:level":"3","ref:rspo":57600,"official_name":"Bran\u017cowa Szko\u0142a I Stopnia w Miejscu Piastowym","name":"Bran\u017cowa Szko\u0142a I Stopnia w Miejscu Piastowym","addr:country":"PL","addr:postcode":"38-430","addr:city":"Miejsce Piastowe","addr:street":"ul. Ksi\u0119dza Bronis\u0142awa Markiewicza","addr:housenumber":"25b","addr:teryt:simc":43426,"addr:teryt:sym_ul":356530,"contact:phone":"+48 134353070","contact:email":"sekretariat@mzsp.pl","contact:website":"http:\/\/mzsp.pl","ref:regon":"180911259","operator":"Zgromadzenie \u015awi\u0119tego Micha\u0142a Archanio\u0142a Z Siedzib\u0105 W Markach","operator:type":"religious","amenity":"school","note":"Parent RSPO: 13722"}},{"id":57603,"type":"Feature","geometry":{"type":"Point","coordinates":[21.79047,49.63065]},"properties":{"isced:level":"3","ref:rspo":57603,"official_name":"Technikum Poligraficzne","name":"Technikum Poligraficzne","addr:country":"PL","addr:postcode":"38-430","addr:city":"Miejsce Piastowe","addr:street":"ul. Ksi\u0119dza Bronis\u0142awa Markiewicza","addr:housenumber":"25b","addr:teryt:simc":43426,"addr:teryt:sym_ul":356530,"contact:phone":"+48 134353070","contact:email":"sekretariat@mzsp.pl","contact:website":"http:\/\/mzsp.pl","ref:regon":"180911265","operator":"Zgromadzenie \u015awi\u0119tego Micha\u0142a Archanio\u0142a Z Siedzib\u0105 W Markach","operator:type":"religious","amenity":"school","note":"Parent RSPO: 13722"}},{"id":57605,"type":"Feature","geometry":{"type":"Point","coordinates":[21.79047,49.63062]},"properties":{"isced:level":"3","ref:rspo":57605,"official_name":"Liceum Og\u00f3lnokszta\u0142c\u0105ce w Miejscu Piastowym","name":"Liceum Og\u00f3lnokszta\u0142c\u0105ce w Miejscu Piastowym","addr:country":"PL","addr:postcode":"38-430","addr:city":"Miejsce Piastowe","addr:street":"ul. Ksi\u0119dza Bronis\u0142awa Markiewicza","addr:housenumber":"25b","addr:teryt:simc":43426,"addr:teryt:sym_ul":356530,"contact:phone":"+48 134353070","contact:email":"sekretariat@mzsp.pl","contact:website":"http:\/\/mzsp.pl","ref:regon":"180911176","operator":"Zgromadzenie \u015awi\u0119tego Micha\u0142a Archanio\u0142a Z Siedzib\u0105 W Markach","operator:type":"religious","amenity":"school","note":"Parent RSPO: 13722"}},{"id":89582,"type":"Feature","geometry":{"type":"Point","coordinates":[21.79047,49.63059]},"properties":{"isced:level":"3","ref:rspo":89582,"official_name":"Technikum Informatyczne","name":"Technikum Informatyczne","addr:country":"PL","addr:postcode":"38-430","addr:city":"Miejsce Piastowe","addr:street":"ul. Ksi\u0119dza Bronis\u0142awa Markiewicza","addr:housenumber":"25b","addr:teryt:simc":43426,"addr:teryt:sym_ul":356530,"contact:phone":"+48 134353070","contact:email":"sekretariat@mzsp.pl","contact:website":"http:\/\/mzsp.pl","ref:regon":"180913637","operator":"Zgromadzenie \u015awi\u0119tego Micha\u0142a Archanio\u0142a Z Siedzib\u0105 W Markach","operator:type":"religious","amenity":"school","note":"Parent RSPO: 13722"}},{"id":91315,"type":"Feature","geometry":{"type":"Point","coordinates":[21.79047,49.63056]},"properties":{"isced:level":"3","ref:rspo":91315,"official_name":"Technikum Organizacji Reklamy","name":"Technikum Organizacji Reklamy","addr:country":"PL","addr:postcode":"38-430","addr:city":"Miejsce Piastowe","addr:street":"ul. Ksi\u0119dza Bronis\u0142awa Markiewicza","addr:housenumber":"25B","addr:teryt:simc":43426,"addr:teryt:sym_ul":356530,"contact:phone":"+48 134353070","contact:email":"sekretariat@mzsp.pl","contact:website":"http:\/\/mzsp.pl","ref:regon":"180916096","operator":"Zgromadzenie \u015awi\u0119tego Micha\u0142a Archanio\u0142a Z Siedzib\u0105 W Markach","operator:type":"religious","amenity":"school","note":"Parent RSPO: 13722"}},{"id":91316,"type":"Feature","geometry":{"type":"Point","coordinates":[21.79047,49.63053]},"properties":{"isced:level":"3","ref:rspo":91316,"official_name":"Technikum Cyfrowych Proces\u00f3w Graficznych","name":"Technikum Cyfrowych Proces\u00f3w Graficznych","addr:country":"PL","addr:postcode":"38-430","addr:city":"Miejsce Piastowe","addr:street":"ul. Ksi\u0119dza Bronis\u0142awa Markiewicza","addr:housenumber":"25b","addr:teryt:simc":43426,"addr:teryt:sym_ul":356530,"contact:phone":"+48 134353070","contact:email":"sekretariat@mzsp.pl","contact:website":"http:\/\/mzsp.pl","ref:regon":"180916280","operator":"Zgromadzenie \u015awi\u0119tego Micha\u0142a Archanio\u0142a Z Siedzib\u0105 W Markach","operator:type":"religious","amenity":"school","note":"Parent RSPO: 13722"}},{"id":91317,"type":"Feature","geometry":{"type":"Point","coordinates":[21.79047,49.6305]},"properties":{"isced:level":"3","ref:rspo":91317,"official_name":"Technikum w Miejscu Piastowym","name":"Technikum w Miejscu Piastowym","addr:country":"PL","addr:postcode":"38-430","addr:city":"Miejsce Piastowe","addr:street":"ul. Ksi\u0119dza Bronis\u0142awa Markiewicza","addr:housenumber":"25b","addr:teryt:simc":43426,"addr:teryt:sym_ul":356530,"contact:phone":"+48 134353070","contact:email":"sekretariat@mzsp.pl","contact:website":"http:\/\/mzsp.pl","ref:regon":"180916268","operator":"Zgromadzenie \u015awi\u0119tego Micha\u0142a Archanio\u0142a Z Siedzib\u0105 W Markach","operator:type":"religious","amenity":"school","note":"Parent RSPO: 13722"}},{"id":25714,"type":"Feature","geometry":{"type":"Point","coordinates":[21.7811,49.63441]},"properties":{"ref:rspo":25714,"official_name":"Poradnia Psychologiczno-Pedagogiczna w Miejscu Piastowym","name":"Poradnia Psychologiczno-Pedagogiczna w Miejscu Piastowym","addr:country":"PL","addr:postcode":"38-430","addr:city":"Miejsce Piastowe","addr:street":"ul. Dworska","addr:housenumber":"14a","addr:teryt:simc":4446,"addr:teryt:sym_ul":356530,"contact:phone":"+48 134353996","contact:email":"ppp_mpiastowe@op.pl","contact:website":"http:\/\/www.poradnia.vot.pl","ref:regon":"370474300","ref:vatin":"PL6842200955","operator":"Powiat Kro\u015bnie\u0144ski","operator:type":"government","healthcare":"councelling","counselling_type":"education","fixme":"w zale\u017cno\u015bci od przedmiotu dzia\u0142alno\u015bci (np. healthcare=councelling + counselling_type=education albo healthcare=psychotherapist)"}},{"id":18147,"type":"Feature","geometry":{"type":"Point","coordinates":[21.81514,49.63456]},"properties":{"isced:level":"1;2","ref:rspo":18147,"official_name":"Szko\u0142a Podstawowa w Targowiskach im. \u015awi\u0119tego Jana Kantego","name":"Szko\u0142a Podstawowa w Targowiskach","addr:country":"PL","addr:postcode":"38-423","addr:city":"Targowiska","addr:street":"ul. ks. Macieja Suchodolskiego","addr:housenumber":"38","addr:teryt:simc":38206,"addr:teryt:sym_ul":356725,"contact:phone":"+48 134353727","contact:email":"sptargowiska@wp.pl","contact:website":"http:\/\/www.sptargowiska.pl","ref:regon":"001214631","ref:vatin":"PL6842302153","operator":"Gmina Miejsce Piastowe","operator:type":"government","amenity":"school","note":"Children RSPO: 91435"}},{"id":15361,"type":"Feature","geometry":{"type":"Point","coordinates":[21.81218,49.64563]},"properties":{"isced:level":"1;2","ref:rspo":15361,"official_name":"Szko\u0142a Podstawowa w \u0141\u0119\u017canach im. Tadeusza Ko\u015bciuszki","name":"Szko\u0142a Podstawowa w \u0141\u0119\u017canach","addr:country":"PL","addr:postcode":"38-430","addr:city":"\u0141\u0119\u017cany","addr:street":"ul. Tadeusza Ko\u015bciuszki","addr:housenumber":"2","addr:teryt:simc":9582,"addr:teryt:sym_ul":356493,"contact:phone":"+48 134353629","contact:email":"splezany@op.pl","contact:website":"http:\/\/www.sp.lezany.pl","ref:regon":"001214654","ref:vatin":"PL6841050301","operator":"Gmina Miejsce Piastowe","operator:type":"government","amenity":"school"}},{"id":16282,"type":"Feature","geometry":{"type":"Point","coordinates":[21.75289,49.66268]},"properties":{"isced:level":"1;2","ref:rspo":16282,"official_name":"Szko\u0142a Podstawowa w G\u0142owience im. Benedykta Wierdaka","name":"Szko\u0142a Podstawowa w G\u0142owience","addr:country":"PL","addr:postcode":"38-455","addr:city":"G\u0142owienka","addr:street":"ul. Szkolna","addr:housenumber":"8","addr:teryt:simc":21970,"addr:teryt:sym_ul":356381,"contact:phone":"+48 134219710","contact:email":"szp_glowienka@interia.pl","contact:website":"http:\/\/www.spglowienka.pl","ref:regon":"001214660","ref:vatin":"PL6841079635","operator":"Gmina Miejsce Piastowe","operator:type":"government","amenity":"school"}},{"id":23525,"type":"Feature","geometry":{"type":"Point","coordinates":[21.75304,49.66462]},"properties":{"isced:level":"1;2","ref:rspo":23525,"official_name":"Szko\u0142a Podstawowa im. Tytusa Trzecieskiego w Miejscu Piastowym","name":"Szko\u0142a Podstawowa","addr:country":"PL","addr:postcode":"38-430","addr:city":"Miejsce Piastowe","addr:street":"ul. Szkolna","addr:housenumber":"24","addr:teryt:simc":21970,"addr:teryt:sym_ul":356530,"contact:phone":"+48 134353091","contact:email":"zspmiejscep@gmail.com","ref:regon":"001246401","operator":"Gmina Miejsce Piastowe","operator:type":"government","amenity":"school"}}]}