{
    "type": "FeatureCollection",
    "features": [
        {
            "id": 20988,
            "type": "Feature",
            "geometry": {
                "type": "Point",
                "coordinates": [
                    21.6222111,
                    49.5919476
                ]
            },
            "properties": {
                "isced:level": "1;2",
                "ref:rspo": 20988,
                "official_name": "Szko\u0142a Podstawowa im. \u015aw. Jana Z Dukli w Draganowej",
                "name": "Szko\u0142a Podstawowa",
                "addr:postcode": "38-462",
                "addr:place": "Draganowa",
                "addr:housenumber": "47",
                "addr:teryt:simc": 346980,
                "phone": "+48 134317211",
                "email": "draganowa@wp.pl",
                "ref:regon": "001197536",
                "ref:vatin": "PL6842149562",
                "operator": "Gmina Chork\u00f3wka",
                "operator:type": "government",
                "amenity": "school"
            }
        },
        {
            "id": 21483,
            "type": "Feature",
            "geometry": {
                "type": "Point",
                "coordinates": [
                    21.64554,
                    49.60746
                ]
            },
            "properties": {
                "isced:level": "1;2",
                "ref:rspo": 21483,
                "official_name": "Szko\u0142a Podstawowa im. Ks. Stanis\u0142awa Ko\u0142odzieja w Kobylanach",
                "name": "Szko\u0142a Podstawowa",
                "addr:postcode": "38-462",
                "addr:place": "Kobylany",
                "addr:housenumber": "187",
                "addr:teryt:simc": 347070,
                "phone": "+48 134314786",
                "email": "spkobylany@gmail.com",
                "website": "http:\/\/www.spkobylany.szkolnastrona.pl",
                "ref:regon": "001197683",
                "ref:vatin": "PL6842149616",
                "operator": "Gmina Chork\u00f3wka",
                "operator:type": "government",
                "amenity": "school"
            }
        },
        {
            "id": 21103,
            "type": "Feature",
            "geometry": {
                "type": "Point",
                "coordinates": [
                    21.62661,
                    49.60856
                ]
            },
            "properties": {
                "isced:level": "1;2",
                "ref:rspo": 21103,
                "official_name": "Niepubliczna Szko\u0142a Podstawowa w Sulistrowej",
                "name": "Niepubliczna Szko\u0142a Podstawowa w Sulistrowej",
                "addr:postcode": "38-462",
                "addr:place": "Sulistrowa",
                "addr:housenumber": "25",
                "addr:teryt:simc": 347442,
                "phone": "+48 134317061",
                "email": "nspsulistrowa@interia.pl",
                "ref:regon": "180892792",
                "ref:vatin": "PL6842271180",
                "operator": "Stowarzyszenie Rozwoju Wsi Sulistrowa",
                "operator:type": "ngo",
                "amenity": "school"
            }
        },
        {
            "id": 272697,
            "type": "Feature",
            "geometry": {
                "type": "Point",
                "coordinates": [
                    21.70308,
                    49.63223
                ]
            },
            "properties": {
                "ref:rspo": 272697,
                "official_name": "Niepubliczne Przedszkole Artystyczne \"Zdolne Smyki\"",
                "name": "Niepubliczne Przedszkole Artystyczne \"Zdolne Smyki\"",
                "addr:postcode": "38-458",
                "addr:city": "B\u00f3brka",
                "addr:street": "Podkarpacka",
                "addr:housenumber": "106",
                "addr:teryt:simc": 346840,
                "addr:teryt:sym_ul": 16764,
                "phone": "+48 734109927",
                "email": "przedszkoleartystyczne1@wp.pl",
                "ref:regon": "384276871",
                "operator": "Magdalena Zajdel",
                "operator:type": "private",
                "amenity": "kindergarten"
            }
        },
        {
            "id": 19500,
            "type": "Feature",
            "geometry": {
                "type": "Point",
                "coordinates": [
                    21.60974,
                    49.64234
                ]
            },
            "properties": {
                "isced:level": "1;2",
                "ref:rspo": 19500,
                "official_name": "Szko\u0142a Podstawowa w Falisz\u00f3wce",
                "name": "Szko\u0142a Podstawowa w Falisz\u00f3wce",
                "addr:postcode": "38-459",
                "addr:place": "Falisz\u00f3wka",
                "addr:housenumber": "174",
                "addr:teryt:simc": 347040,
                "phone": "+48 134314325",
                "email": "spfaliszowka1@op.pl",
                "website": "http:\/\/www.spfaliszowka.szkolna.net",
                "ref:regon": "001197677",
                "ref:vatin": "PL6842149579",
                "operator": "Gmina Chork\u00f3wka",
                "operator:type": "government",
                "amenity": "school"
            }
        },
        {
            "id": 21178,
            "type": "Feature",
            "geometry": {
                "type": "Point",
                "coordinates": [
                    21.63732,
                    49.64275
                ]
            },
            "properties": {
                "isced:level": "1;2",
                "ref:rspo": 21178,
                "official_name": "Szko\u0142a Podstawowa w Le\u015bni\u00f3wce",
                "name": "Szko\u0142a Podstawowa w Le\u015bni\u00f3wce",
                "addr:postcode": "38-458",
                "addr:place": "Le\u015bni\u00f3wka",
                "addr:housenumber": "85",
                "addr:teryt:simc": 347330,
                "phone": "+48 134313098",
                "email": "splesniowka@interia.pl",
                "website": "http:\/\/www.splesniowka.szkolnastrona.pl",
                "ref:regon": "001252560",
                "ref:vatin": "PL6842148930",
                "operator": "Gmina Chork\u00f3wka",
                "operator:type": "government",
                "amenity": "school"
            }
        },
        {
            "id": 119101,
            "type": "Feature",
            "geometry": {
                "type": "Point",
                "coordinates": [
                    21.6674414,
                    49.6448702
                ]
            },
            "properties": {
                "ref:rspo": 119101,
                "official_name": "Niepubliczne Przedszkole \"Misiowo\"",
                "name": "Niepubliczne Przedszkole \"Misiowo\"",
                "addr:postcode": "38-458",
                "addr:place": "Chork\u00f3wka",
                "addr:housenumber": "160",
                "addr:teryt:simc": 346916,
                "phone": "+48 690001052",
                "email": "misiowo@onet.com.pl",
                "website": "http:\/\/www.przedszkolemisiowo.republika.pl",
                "ref:regon": "181014473",
                "operator": "Wielobran\u017cowa Sp\u00f3\u0142dzielnia Socjalna \"Maks\"",
                "operator:type": "cooperative",
                "amenity": "kindergarten"
            }
        },
        {
            "id": 19970,
            "type": "Feature",
            "geometry": {
                "type": "Point",
                "coordinates": [
                    21.6747398,
                    49.6528856
                ]
            },
            "properties": {
                "ref:rspo": 19970,
                "official_name": "Zesp\u00f3\u0142 Szk\u00f3\u0142 w Chork\u00f3wce",
                "name": "Zesp\u00f3\u0142 Szk\u00f3\u0142 w Chork\u00f3wce",
                "addr:postcode": "38-458",
                "addr:place": "Chork\u00f3wka",
                "addr:housenumber": "199",
                "addr:teryt:simc": 346916,
                "phone": "+48 134313013",
                "email": "chorkowianie@o2.pl",
                "website": "http:\/\/www.spchorkowka.superszkolna.pl",
                "ref:regon": "180164348",
                "ref:vatin": "PL6842477527",
                "operator": "Gmina Chork\u00f3wka",
                "operator:type": "government",
                "landuse": "education",
                "fixme": "amenity=school, amenity=college albo landuse=education w zale\u017cno\u015bci od tego, jakie plac\u00f3wki wchodz\u0105 w sk\u0142ad zespo\u0142u. Sprawd\u017a, kiedy stosowa\u0107 amenity=* a kiedy landuse=education.",
                "note": "Children RSPO: 28486;28488"
            }
        },
        {
            "id": 28486,
            "type": "Feature",
            "geometry": {
                "type": "Point",
                "coordinates": [
                    21.6747398,
                    49.652855599999995
                ]
            },
            "properties": {
                "isced:level": "1;2",
                "ref:rspo": 28486,
                "official_name": "Szko\u0142a Podstawowa im. Ignacego \u0141ukasiewicza w Chork\u00f3wce",
                "name": "Szko\u0142a Podstawowa",
                "addr:postcode": "38-458",
                "addr:place": "Chork\u00f3wka",
                "addr:housenumber": "199",
                "addr:teryt:simc": 346916,
                "phone": "+48 134313013",
                "email": "chorkowianie@o2.pl",
                "website": "http:\/\/www.spchorkowka.superszkolna.pl",
                "ref:regon": "001197660",
                "ref:vatin": "PL6842149556",
                "operator": "Gmina Chork\u00f3wka",
                "operator:type": "government",
                "amenity": "school",
                "note": "Parent RSPO: 19970"
            }
        },
        {
            "id": 28488,
            "type": "Feature",
            "geometry": {
                "type": "Point",
                "coordinates": [
                    21.6747398,
                    49.6528256
                ]
            },
            "properties": {
                "ref:rspo": 28488,
                "official_name": "Samorz\u0105dowe Przedszkole im. \"Ba\u015bniowa Kraina\" w Chork\u00f3wce",
                "name": "Samorz\u0105dowe Przedszkole",
                "addr:postcode": "38-458",
                "addr:place": "Chork\u00f3wka",
                "addr:housenumber": "199",
                "addr:teryt:simc": 346916,
                "phone": "+48 134313013",
                "email": "chorkowianie@o2.pl",
                "ref:regon": "000903050",
                "ref:vatin": "PL6842149504",
                "operator": "Gmina Chork\u00f3wka",
                "operator:type": "government",
                "amenity": "kindergarten",
                "note": "Parent RSPO: 19970"
            }
        },
        {
            "id": 19501,
            "type": "Feature",
            "geometry": {
                "type": "Point",
                "coordinates": [
                    21.72007,
                    49.65518
                ]
            },
            "properties": {
                "isced:level": "1;2",
                "ref:rspo": 19501,
                "official_name": "Szko\u0142a Podstawowa w Szczepa\u0144cowej",
                "name": "Szko\u0142a Podstawowa w Szczepa\u0144cowej",
                "addr:postcode": "38-457",
                "addr:city": "Szczepa\u0144cowa",
                "addr:street": "Szkolna",
                "addr:housenumber": "3",
                "addr:teryt:simc": 347488,
                "addr:teryt:sym_ul": 21970,
                "phone": "+48 134311412",
                "email": "spszczepancowa@op.pl",
                "website": "http:\/\/www.spszczepancowa.szkolna.net",
                "ref:regon": "001197507",
                "ref:vatin": "PL6842148976",
                "operator": "Gmina Chork\u00f3wka",
                "operator:type": "government",
                "amenity": "school"
            }
        },
        {
            "id": 19947,
            "type": "Feature",
            "geometry": {
                "type": "Point",
                "coordinates": [
                    21.6546074,
                    49.6624399
                ]
            },
            "properties": {
                "isced:level": "1;2",
                "ref:rspo": 19947,
                "official_name": "Szko\u0142a Podstawowa im. Karola Klobassy-Zrenckiego w \u017beglcach",
                "name": "Szko\u0142a Podstawowa",
                "addr:postcode": "38-458",
                "addr:place": "\u017beglce",
                "addr:housenumber": "242",
                "addr:teryt:simc": 347726,
                "phone": "+48 134313029",
                "email": "spzeglce@szkolna.net",
                "website": "http:\/\/www.spzeglce.szkolna.net",
                "ref:regon": "001197520",
                "ref:vatin": "PL6842149450",
                "operator": "Gmina Chork\u00f3wka",
                "operator:type": "government",
                "amenity": "school"
            }
        },
        {
            "id": 267912,
            "type": "Feature",
            "geometry": {
                "type": "Point",
                "coordinates": [
                    21.69126,
                    49.66513
                ]
            },
            "properties": {
                "ref:rspo": 267912,
                "official_name": "Zesp\u00f3\u0142 Szk\u00f3\u0142 w Zr\u0119cinie",
                "name": "Zesp\u00f3\u0142 Szk\u00f3\u0142 w Zr\u0119cinie",
                "addr:postcode": "38-457",
                "addr:city": "Zr\u0119cin",
                "addr:street": "\u0141ukasiewicza",
                "addr:housenumber": "31",
                "addr:teryt:simc": 347643,
                "addr:teryt:sym_ul": 11748,
                "phone": "+48 134318013",
                "email": "zszrecin@onet.pl",
                "website": "http:\/\/www.edupage.org",
                "ref:regon": "380746245",
                "ref:vatin": "PL6842650055",
                "operator": "Gmina Chork\u00f3wka",
                "operator:type": "government",
                "landuse": "education",
                "fixme": "amenity=school, amenity=college albo landuse=education w zale\u017cno\u015bci od tego, jakie plac\u00f3wki wchodz\u0105 w sk\u0142ad zespo\u0142u. Sprawd\u017a, kiedy stosowa\u0107 amenity=* a kiedy landuse=education.",
                "note": "Children RSPO: 21144;21219"
            }
        },
        {
            "id": 21144,
            "type": "Feature",
            "geometry": {
                "type": "Point",
                "coordinates": [
                    21.69126,
                    49.665099999999995
                ]
            },
            "properties": {
                "ref:rspo": 21144,
                "official_name": "Samorz\u0105dowe Przedszkole w Zr\u0119cinie",
                "name": "Samorz\u0105dowe Przedszkole w Zr\u0119cinie",
                "addr:postcode": "38-457",
                "addr:city": "Zr\u0119cin",
                "addr:street": "\u0141ukasiewicza",
                "addr:housenumber": "31",
                "addr:teryt:simc": 347643,
                "addr:teryt:sym_ul": 11748,
                "phone": "+48 134318013",
                "email": "zszrecin@onet.pl",
                "ref:regon": "370425307",
                "ref:vatin": "PL6842149527",
                "operator": "Gmina Chork\u00f3wka",
                "operator:type": "government",
                "amenity": "kindergarten",
                "note": "Parent RSPO: 267912"
            }
        },
        {
            "id": 21219,
            "type": "Feature",
            "geometry": {
                "type": "Point",
                "coordinates": [
                    21.69126,
                    49.66507
                ]
            },
            "properties": {
                "isced:level": "1;2",
                "ref:rspo": 21219,
                "official_name": "Szko\u0142a Podstawowa im. \u015aw. Jana Kantego I \u015aw. Jana Paw\u0142a II w Zr\u0119cinie",
                "name": "Szko\u0142a Podstawowa",
                "addr:postcode": "38-457",
                "addr:city": "Zr\u0119cin",
                "addr:street": "\u0141ukasiewicza",
                "addr:housenumber": "31",
                "addr:teryt:simc": 347643,
                "addr:teryt:sym_ul": 11748,
                "phone": "+48 134318013",
                "email": "zszrecin@onet.pl",
                "website": "http:\/\/www.spzrecin.edupage.org",
                "ref:regon": "001197648",
                "ref:vatin": "PL6842149415",
                "operator": "Gmina Chork\u00f3wka",
                "operator:type": "government",
                "amenity": "school",
                "note": "Parent RSPO: 267912"
            }
        },
        {
            "id": 22585,
            "type": "Feature",
            "geometry": {
                "type": "Point",
                "coordinates": [
                    21.61037,
                    49.6653499
                ]
            },
            "properties": {
                "isced:level": "1;2",
                "ref:rspo": 22585,
                "official_name": "Szko\u0142a Podstawowa im. Jana Paw\u0142a II w Kopytowej",
                "name": "Szko\u0142a Podstawowa",
                "addr:postcode": "38-459",
                "addr:place": "Kopytowa",
                "addr:housenumber": "59",
                "addr:teryt:simc": 347235,
                "phone": "+48 134314132",
                "email": "kopytowa@wp.pl",
                "website": "http:\/\/spkopytowa.edupage.org",
                "ref:regon": "001197690",
                "ref:vatin": "PL6842149591",
                "operator": "Gmina Chork\u00f3wka",
                "operator:type": "government",
                "amenity": "school"
            }
        },
        {
            "id": 22724,
            "type": "Feature",
            "geometry": {
                "type": "Point",
                "coordinates": [
                    21.6944899,
                    49.6756
                ]
            },
            "properties": {
                "ref:rspo": 22724,
                "official_name": "Samorz\u0105dowe Przedszkole w \u015awierzowej Polskiej",
                "name": "Samorz\u0105dowe Przedszkole w \u015awierzowej Polskiej",
                "addr:postcode": "38-457",
                "addr:city": "\u015awierzowa Polska",
                "addr:street": "Szkolna",
                "addr:housenumber": "50",
                "addr:teryt:simc": 347577,
                "addr:teryt:sym_ul": 21970,
                "phone": "+48 134220573",
                "email": "sekretariat@zsswierzowa.pl",
                "website": "http:\/\/www.zsswierzowa.pl",
                "ref:regon": "370425299",
                "ref:vatin": "PL6842149510",
                "operator": "Gmina Chork\u00f3wka",
                "operator:type": "government",
                "amenity": "kindergarten",
                "note": "Parent RSPO: 19977"
            }
        },
        {
            "id": 19977,
            "type": "Feature",
            "geometry": {
                "type": "Point",
                "coordinates": [
                    21.70064,
                    49.67852
                ]
            },
            "properties": {
                "ref:rspo": 19977,
                "official_name": "Zesp\u00f3\u0142 Szk\u00f3\u0142 w \u015awierzowej Polskiej",
                "name": "Zesp\u00f3\u0142 Szk\u00f3\u0142 w \u015awierzowej Polskiej",
                "addr:postcode": "38-457",
                "addr:city": "\u015awierzowa Polska",
                "addr:street": "Szkolna",
                "addr:housenumber": "31",
                "addr:teryt:simc": 347577,
                "addr:teryt:sym_ul": 21970,
                "phone": "+48 134220573",
                "email": "sekretariat@zsswierzowa.pl",
                "website": "http:\/\/www.zsswierzowa.pl",
                "ref:regon": "180054737",
                "ref:vatin": "PL6842405232",
                "operator": "Gmina Chork\u00f3wka",
                "operator:type": "government",
                "landuse": "education",
                "fixme": "amenity=school, amenity=college albo landuse=education w zale\u017cno\u015bci od tego, jakie plac\u00f3wki wchodz\u0105 w sk\u0142ad zespo\u0142u. Sprawd\u017a, kiedy stosowa\u0107 amenity=* a kiedy landuse=education.",
                "note": "Children RSPO: 22723;22724"
            }
        },
        {
            "id": 22723,
            "type": "Feature",
            "geometry": {
                "type": "Point",
                "coordinates": [
                    21.70064,
                    49.67849
                ]
            },
            "properties": {
                "isced:level": "1;2",
                "ref:rspo": 22723,
                "official_name": "Szko\u0142a Podstawowa im. Ignacego \u0141ukasiewicza w \u015awierzowej Polskiej",
                "name": "Szko\u0142a Podstawowa",
                "addr:postcode": "38-457",
                "addr:city": "\u015awierzowa Polska",
                "addr:street": "Szkolna",
                "addr:housenumber": "31",
                "addr:teryt:simc": 347577,
                "addr:teryt:sym_ul": 21970,
                "phone": "+48 134220573",
                "email": "sekretariat@zsswierzowa.pl",
                "website": "http:\/\/www.zsswierzowa.pl",
                "ref:regon": "001197513",
                "ref:vatin": "PL6842149119",
                "operator": "Gmina Chork\u00f3wka",
                "operator:type": "government",
                "amenity": "school",
                "note": "Parent RSPO: 19977"
            }
        },
        {
            "id": 20895,
            "type": "Feature",
            "geometry": {
                "type": "Point",
                "coordinates": [
                    21.64422,
                    49.7126499
                ]
            },
            "properties": {
                "ref:rspo": 20895,
                "official_name": "Zesp\u00f3\u0142 Szk\u00f3\u0142 I Plac\u00f3wek w B\u00f3brce",
                "name": "Zesp\u00f3\u0142 Szk\u00f3\u0142 I Plac\u00f3wek w B\u00f3brce",
                "addr:postcode": "38-458",
                "addr:city": "B\u00f3brka",
                "addr:street": "Ignacego \u0141ukasiewicza",
                "addr:housenumber": "18",
                "addr:teryt:simc": 346840,
                "addr:teryt:sym_ul": 11749,
                "phone": "+48 134313097",
                "email": "zsipbobrka@onet.pl",
                "ref:regon": "180354445",
                "ref:vatin": "PL6842541455",
                "operator": "Gmina Chork\u00f3wka",
                "operator:type": "government",
                "landuse": "education",
                "fixme": "amenity=school, amenity=college albo landuse=education w zale\u017cno\u015bci od tego, jakie plac\u00f3wki wchodz\u0105 w sk\u0142ad zespo\u0142u. Sprawd\u017a, kiedy stosowa\u0107 amenity=* a kiedy landuse=education.",
                "note": "Children RSPO: 28261;28262"
            }
        },
        {
            "id": 28261,
            "type": "Feature",
            "geometry": {
                "type": "Point",
                "coordinates": [
                    21.64422,
                    49.7126199
                ]
            },
            "properties": {
                "isced:level": "1;2",
                "ref:rspo": 28261,
                "official_name": "Szko\u0142a Podstawowa im. Ignacego \u0141ukasiewicza w B\u00f3brce",
                "name": "Szko\u0142a Podstawowa",
                "addr:postcode": "38-458",
                "addr:city": "B\u00f3brka",
                "addr:street": "Ignacego \u0141ukasiewicza",
                "addr:housenumber": "18",
                "addr:teryt:simc": 346840,
                "addr:teryt:sym_ul": 11749,
                "phone": "+48 134313097",
                "email": "zsipbobrka@onet.pl",
                "website": "http:\/\/www.zsipbobrka.szkolnastrona.pl",
                "ref:regon": "001197654",
                "ref:vatin": "PL6842149533",
                "operator": "Gmina Chork\u00f3wka",
                "operator:type": "government",
                "amenity": "school",
                "note": "Parent RSPO: 20895"
            }
        },
        {
            "id": 28262,
            "type": "Feature",
            "geometry": {
                "type": "Point",
                "coordinates": [
                    21.64422,
                    49.712589900000005
                ]
            },
            "properties": {
                "ref:rspo": 28262,
                "official_name": "Szkolne Schronisko M\u0142odzie\u017cowe w B\u00f3brce",
                "name": "Szkolne Schronisko M\u0142odzie\u017cowe w B\u00f3brce",
                "addr:postcode": "38-458",
                "addr:city": "B\u00f3brka",
                "addr:street": "Ignacego \u0141ukasiewicza",
                "addr:housenumber": "18",
                "addr:teryt:simc": 346840,
                "addr:teryt:sym_ul": 11749,
                "phone": "+48 134313097",
                "email": "zsipbobrka@onet.pl",
                "ref:regon": "180354422",
                "ref:vatin": "PL6842174560",
                "operator": "Gmina Chork\u00f3wka",
                "operator:type": "government",
                "tourism": "hostel",
                "note": "Parent RSPO: 20895"
            }
        }
    ]
}