{
    "type": "FeatureCollection",
    "features": [
        {
            "id": 129988,
            "type": "Feature",
            "geometry": {
                "type": "Point",
                "coordinates": [
                    19.90157,
                    53.44541
                ]
            },
            "properties": {
                "isced:level": "1;2",
                "ref:rspo": 129988,
                "official_name": "Szko\u0142a Podstawowa w Rumienicy",
                "name": "Szko\u0142a Podstawowa w Rumienicy",
                "addr:country": "PL",
                "addr:postcode": "14-260",
                "addr:place": "Rumienica",
                "addr:housenumber": "29",
                "addr:teryt:simc": 480431,
                "contact:email": "szkola.rumienica@wp.pl",
                "contact:website": "http:\/\/sprumienica.edupage.org",
                "ref:regon": "363232172",
                "ref:vatin": "PL7441692752",
                "operator": "Fundacja Rozwoju Warmii I Mazur",
                "operator:type": "ngo",
                "amenity": "school"
            }
        },
        {
            "id": 20640,
            "type": "Feature",
            "geometry": {
                "type": "Point",
                "coordinates": [
                    19.76527,
                    53.47311
                ]
            },
            "properties": {
                "isced:level": "1;2",
                "ref:rspo": 20640,
                "official_name": "Szko\u0142a Podstawowa w Tuszewie",
                "name": "Szko\u0142a Podstawowa w Tuszewie",
                "addr:country": "PL",
                "addr:postcode": "14-260",
                "addr:place": "Tuszewo",
                "addr:housenumber": "24",
                "addr:teryt:simc": 480508,
                "contact:phone": "+48 896452847",
                "contact:email": "sp.tuszewo@gmail.com",
                "contact:website": "http:\/\/sptuszewo.szkolnastrona.pl",
                "ref:regon": "001206471",
                "ref:vatin": "PL7441747884",
                "operator": "Gmina Lubawa",
                "operator:type": "government",
                "amenity": "school"
            }
        },
        {
            "id": 48346,
            "type": "Feature",
            "geometry": {
                "type": "Point",
                "coordinates": [
                    19.8137599,
                    53.47603
                ]
            },
            "properties": {
                "isced:level": "1;2",
                "ref:rspo": 48346,
                "official_name": "Szko\u0142a Podstawowa im.teofila Ruczy\u0144skiego w Pr\u0105tnicy",
                "name": "Szko\u0142a Podstawowa im.teofila Ruczy\u0144skiego w Pr\u0105tnicy",
                "addr:country": "PL",
                "addr:postcode": "14-260",
                "addr:place": "Pr\u0105tnica",
                "addr:housenumber": "9",
                "addr:teryt:simc": 480388,
                "contact:phone": "+48 896450440",
                "contact:email": "szkolapratnica@gmail.com",
                "contact:website": "http:\/\/www.zspratnica.pl",
                "ref:regon": "519497533",
                "ref:vatin": "PL7441747878",
                "operator": "Gmina Lubawa",
                "operator:type": "government",
                "amenity": "school"
            }
        },
        {
            "id": 262614,
            "type": "Feature",
            "geometry": {
                "type": "Point",
                "coordinates": [
                    19.767191,
                    53.4960089
                ]
            },
            "properties": {
                "ref:rspo": 262614,
                "official_name": "Akademicki Zesp\u00f3\u0142 Plac\u00f3wek O\u015bwiatowych",
                "name": "Akademicki Zesp\u00f3\u0142 Plac\u00f3wek O\u015bwiatowych",
                "addr:country": "PL",
                "addr:postcode": "14-260",
                "addr:place": "Fijewo",
                "addr:housenumber": "85",
                "addr:door": "-",
                "addr:teryt:simc": 480218,
                "contact:phone": "+48 575141005",
                "contact:email": "akademickizespol@gmail.com",
                "contact:website": "http:\/\/www.szkolalubawa.pl",
                "ref:regon": "368041867",
                "operator": "Fundacja Rozwoju Warmii I Mazur",
                "operator:type": "ngo",
                "landuse": "education",
                "fixme": "amenity=school, amenity=college albo landuse=education w zale\u017cno\u015bci od tego, jakie plac\u00f3wki wchodz\u0105 w sk\u0142ad zespo\u0142u. Sprawd\u017a, kiedy stosowa\u0107 amenity=* a kiedy landuse=education.",
                "note": "Children RSPO: 262636;262646;264056;276103"
            }
        },
        {
            "id": 262636,
            "type": "Feature",
            "geometry": {
                "type": "Point",
                "coordinates": [
                    19.767191,
                    53.4959789
                ]
            },
            "properties": {
                "isced:level": "1;2",
                "ref:rspo": 262636,
                "official_name": "Akademicki Zesp\u00f3\u0142 Plac\u00f3wek O\u015bwiatowych Szko\u0142a Podstawowa w Fijewie",
                "name": "Akademicki Zesp\u00f3\u0142 Plac\u00f3wek O\u015bwiatowych Szko\u0142a Podstawowa w Fijewie",
                "addr:country": "PL",
                "addr:postcode": "14-260",
                "addr:place": "Fijewo",
                "addr:housenumber": "85",
                "addr:door": "-",
                "addr:teryt:simc": 480218,
                "contact:phone": "+48 575141005",
                "contact:email": "akademickizespol@gmail.com",
                "contact:website": "http:\/\/www.szkolalubawa.pl",
                "ref:regon": "368043458",
                "operator": "Fundacja Rozwoju Warmii I Mazur",
                "operator:type": "ngo",
                "amenity": "school",
                "note": "Parent RSPO: 262614"
            }
        },
        {
            "id": 262646,
            "type": "Feature",
            "geometry": {
                "type": "Point",
                "coordinates": [
                    19.767191,
                    53.4959489
                ]
            },
            "properties": {
                "ref:rspo": 262646,
                "official_name": "Przedszkole J\u0119zykowe \"Akademia Ma\u0142ych Zuch\u00f3w\" w Fijewie",
                "name": "Przedszkole J\u0119zykowe \"Akademia Ma\u0142ych Zuch\u00f3w\" w Fijewie",
                "addr:country": "PL",
                "addr:postcode": "14-260",
                "addr:place": "Fijewo",
                "addr:housenumber": "85",
                "addr:teryt:simc": 480218,
                "contact:phone": "+48 575141005",
                "contact:email": "akademickizespol@gmial.com",
                "contact:website": "http:\/\/www.szkolalubawa.pl",
                "ref:regon": "368044044",
                "operator": "Fundacja Rozwoju Warmii I Mazur",
                "operator:type": "ngo",
                "amenity": "kindergarten",
                "note": "Parent RSPO: 262614"
            }
        },
        {
            "id": 264056,
            "type": "Feature",
            "geometry": {
                "type": "Point",
                "coordinates": [
                    19.767191,
                    53.4959189
                ]
            },
            "properties": {
                "isced:level": "3",
                "ref:rspo": 264056,
                "official_name": "Akademicki Zesp\u00f3\u0142 Plac\u00f3wek O\u015bwiatowych - Liceum Og\u00f3lnokszta\u0142c\u0105ce w Fijewie",
                "name": "Akademicki Zesp\u00f3\u0142 Plac\u00f3wek O\u015bwiatowych - Liceum Og\u00f3lnokszta\u0142c\u0105ce w Fijewie",
                "addr:country": "PL",
                "addr:postcode": "14-260",
                "addr:place": "Fijewo",
                "addr:housenumber": "85",
                "addr:teryt:simc": 480218,
                "contact:email": "akademickizespol@gmail.com",
                "contact:website": "http:\/\/www.szkolalubawa.pl",
                "ref:regon": "368256088",
                "operator": "Fundacja Rozwoju Warmii I Mazur",
                "operator:type": "ngo",
                "amenity": "school",
                "note": "Parent RSPO: 262614"
            }
        },
        {
            "id": 276103,
            "type": "Feature",
            "geometry": {
                "type": "Point",
                "coordinates": [
                    19.767191,
                    53.4958889
                ]
            },
            "properties": {
                "isced:level": "3",
                "ref:rspo": 276103,
                "official_name": "Akademicki Zesp\u00f3\u0142 Plac\u00f3wek O\u015bwiatowych Bran\u017cowa Szko\u0142a I Stopnia w Fijewie",
                "name": "Akademicki Zesp\u00f3\u0142 Plac\u00f3wek O\u015bwiatowych Bran\u017cowa Szko\u0142a I Stopnia w Fijewie",
                "addr:country": "PL",
                "addr:postcode": "14-260",
                "addr:place": "Fijewo",
                "addr:housenumber": "85",
                "addr:teryt:simc": 480218,
                "contact:phone": "+48 575141005",
                "contact:email": "akademickizespol@gmail.com",
                "contact:website": "http:\/\/www.szkolalubawa.pl",
                "ref:regon": "386989546",
                "ref:vatin": "PL7441692752",
                "operator": "Fundacja Rozwoju Warmii I Mazur",
                "operator:type": "ngo",
                "amenity": "school",
                "note": "Parent RSPO: 262614"
            }
        },
        {
            "id": 48349,
            "type": "Feature",
            "geometry": {
                "type": "Point",
                "coordinates": [
                    19.66996,
                    53.49814
                ]
            },
            "properties": {
                "isced:level": "1;2",
                "ref:rspo": 48349,
                "official_name": "Szko\u0142a Podstawowa im. Kardyna\u0142a Stefana Wyszy\u0144skiego w Samp\u0142awie",
                "name": "Szko\u0142a Podstawowa",
                "addr:country": "PL",
                "addr:postcode": "14-260",
                "addr:place": "Samp\u0142awa",
                "addr:housenumber": "4",
                "addr:teryt:simc": 480448,
                "contact:phone": "+48 896459281",
                "contact:email": "zssamplawa@pc-plus.com.pl",
                "contact:website": "http:\/\/www.spsamplawa.edupage.org",
                "ref:regon": "001206465",
                "ref:vatin": "PL7441747890",
                "operator": "Gmina Lubawa",
                "operator:type": "government",
                "amenity": "school"
            }
        },
        {
            "id": 20829,
            "type": "Feature",
            "geometry": {
                "type": "Point",
                "coordinates": [
                    19.81196,
                    53.51808
                ]
            },
            "properties": {
                "isced:level": "1;2",
                "ref:rspo": 20829,
                "official_name": "Szko\u0142a Podstawowa im. Or\u0142a Bia\u0142ego w Z\u0142otowie",
                "name": "Szko\u0142a Podstawowa",
                "addr:country": "PL",
                "addr:postcode": "14-260",
                "addr:place": "Z\u0142otowo",
                "addr:housenumber": "66",
                "addr:teryt:simc": 480566,
                "contact:phone": "+48 896458322",
                "contact:email": "szkola_zlotowo@poczta.onet.pl",
                "contact:website": "http:\/\/spzlotowo.edupage.org",
                "ref:regon": "001206488",
                "ref:vatin": "PL7441747915",
                "operator": "Gmina Lubawa",
                "operator:type": "government",
                "amenity": "school"
            }
        },
        {
            "id": 131994,
            "type": "Feature",
            "geometry": {
                "type": "Point",
                "coordinates": [
                    19.74686,
                    53.53414
                ]
            },
            "properties": {
                "isced:level": "1;2",
                "ref:rspo": 131994,
                "official_name": "Szko\u0142a Podstawowa w Byszwa\u0142dzie",
                "name": "Szko\u0142a Podstawowa w Byszwa\u0142dzie",
                "addr:country": "PL",
                "addr:postcode": "14-260",
                "addr:place": "Byszwa\u0142d",
                "addr:housenumber": "7",
                "addr:teryt:simc": 480187,
                "contact:phone": "+48 896452457",
                "contact:email": "spbyszwald@gmail.com",
                "contact:website": "http:\/\/spbyszwald.edupage.org",
                "ref:regon": "365403235",
                "ref:vatin": "PL7441692752",
                "operator": "Fundacja Rozwoju Warmii I Mazur",
                "operator:type": "ngo",
                "amenity": "school"
            }
        },
        {
            "id": 48344,
            "type": "Feature",
            "geometry": {
                "type": "Point",
                "coordinates": [
                    19.72249,
                    53.55424
                ]
            },
            "properties": {
                "isced:level": "1;2",
                "ref:rspo": 48344,
                "official_name": "Szko\u0142a Podstawowa im.kard.stanis\u0142awa Dziwisza w Kazanicach",
                "name": "Szko\u0142a Podstawowa im.kard.stanis\u0142awa Dziwisza w Kazanicach",
                "addr:country": "PL",
                "addr:postcode": "14-260",
                "addr:place": "Kazanice",
                "addr:housenumber": "83A",
                "addr:teryt:simc": 480260,
                "contact:phone": "+48 896451199",
                "contact:email": "zskazanice@interia.pl",
                "contact:website": "http:\/\/www.kazanice.schoolpage.pl",
                "ref:regon": "519457924",
                "ref:vatin": "PL7441747921",
                "operator": "Gmina Lubawa",
                "operator:type": "government",
                "amenity": "school"
            }
        },
        {
            "id": 48342,
            "type": "Feature",
            "geometry": {
                "type": "Point",
                "coordinates": [
                    19.83830342257,
                    53.559118944881
                ]
            },
            "properties": {
                "isced:level": "1;2",
                "ref:rspo": 48342,
                "official_name": "Szko\u0142a Podstawowa im. Ksi\u0119dza Biskupa Bernarda Czapli\u0144skiego w Grabowie-Wa\u0142dykach",
                "name": "Szko\u0142a Podstawowa",
                "addr:country": "PL",
                "addr:postcode": "14-229",
                "addr:place": "Grabowo",
                "addr:housenumber": "117",
                "addr:teryt:simc": 480247,
                "contact:phone": "+48 896451198",
                "contact:email": "dyrektor@grabowo-waldyki.pl",
                "contact:website": "http:\/\/www.grabowo-waldyki.pl",
                "ref:regon": "519497496",
                "ref:vatin": "PL7441747938",
                "operator": "Gmina Lubawa",
                "operator:type": "government",
                "amenity": "school"
            }
        },
        {
            "id": 20559,
            "type": "Feature",
            "geometry": {
                "type": "Point",
                "coordinates": [
                    19.76926,
                    53.56885
                ]
            },
            "properties": {
                "isced:level": "1;2",
                "ref:rspo": 20559,
                "official_name": "Szko\u0142a Podstawowa im.jana Paw\u0142a II w Ro\u017centalu",
                "name": "Szko\u0142a Podstawowa im.jana Paw\u0142a II w Ro\u017centalu",
                "addr:country": "PL",
                "addr:postcode": "14-229",
                "addr:place": "Ro\u017cental",
                "addr:housenumber": "140A",
                "addr:teryt:simc": 480425,
                "contact:phone": "+48 896451115",
                "contact:email": "sprozental.marek@wp.pl",
                "contact:website": "http:\/\/www.rozental.pl",
                "ref:regon": "001206442",
                "ref:vatin": "PL7441747944",
                "operator": "Gmina Lubawa",
                "operator:type": "government",
                "amenity": "school"
            }
        }
    ]
}