{
    "type": "FeatureCollection",
    "features": [
        {
            "id": 113558,
            "type": "Feature",
            "geometry": {
                "type": "Point",
                "coordinates": [
                    19.60671,
                    53.53994
                ]
            },
            "properties": {
                "ref:rspo": 113558,
                "official_name": "Firma Szkoleniowo-Us\u0142ugowa Spawalnictwo-Instalatorstwo Mieczys\u0142aw Czajkowski",
                "name": "Firma Szkoleniowo-Us\u0142ugowa Spawalnictwo-Instalatorstwo Mieczys\u0142aw Czajkowski",
                "addr:postcode": "14-200",
                "addr:place": "Smolniki",
                "addr:housenumber": "13",
                "addr:teryt:simc": 475536,
                "phone": "+48 896413060",
                "email": "kursykoparka@op.pl",
                "website": "http:\/\/www.kursyszkolenia.eu",
                "ref:regon": "281487300",
                "operator": "Mieczys\u0142aw Czajkowski",
                "operator:type": "private",
                "fixme": "w zale\u017cno\u015bci od przedmiotu dzia\u0142alno\u015bci (np. amenity=training + training=*, amenity=dancing_school, amenity=language_school, amenity=music_school)"
            }
        },
        {
            "id": 132584,
            "type": "Feature",
            "geometry": {
                "type": "Point",
                "coordinates": [
                    19.51019,
                    53.58382
                ]
            },
            "properties": {
                "ref:rspo": 132584,
                "official_name": "Zesp\u00f3\u0142 Szkolno-Przedszkolny w Wikielcu",
                "name": "Zesp\u00f3\u0142 Szkolno-Przedszkolny w Wikielcu",
                "addr:postcode": "14-200",
                "addr:place": "Wikielec",
                "addr:housenumber": "15E",
                "addr:teryt:simc": 475737,
                "phone": "+48 896401064",
                "email": "zspwikielec@wp.pl",
                "website": "http:\/\/sspwikielec.edupage.org",
                "ref:regon": "365845631",
                "ref:vatin": "PL7441814540",
                "operator": "Gmina I\u0142awa",
                "operator:type": "government",
                "landuse": "education",
                "fixme": "amenity=school, amenity=college albo landuse=education w zale\u017cno\u015bci od tego, jakie plac\u00f3wki wchodz\u0105 w sk\u0142ad zespo\u0142u. Sprawd\u017a, kiedy stosowa\u0107 amenity=* a kiedy landuse=education.",
                "note": "Children RSPO: 59087;130981"
            }
        },
        {
            "id": 59087,
            "type": "Feature",
            "geometry": {
                "type": "Point",
                "coordinates": [
                    19.51019,
                    53.58379
                ]
            },
            "properties": {
                "isced:level": "1;2",
                "ref:rspo": 59087,
                "official_name": "Szko\u0142a Podstawowa im. Jana Paw\u0142a II w Wikielcu",
                "name": "Szko\u0142a Podstawowa",
                "addr:postcode": "14-200",
                "addr:place": "Wikielec",
                "addr:housenumber": "15E",
                "addr:teryt:simc": 475737,
                "phone": "+48 896401064",
                "email": "zspwikielec@wp.pl",
                "website": "http:\/\/www.sspwikielec.edupage.org",
                "ref:regon": "280233796",
                "operator": "Gmina I\u0142awa",
                "operator:type": "government",
                "amenity": "school",
                "note": "Parent RSPO: 132584"
            }
        },
        {
            "id": 130981,
            "type": "Feature",
            "geometry": {
                "type": "Point",
                "coordinates": [
                    19.51019,
                    53.583760000000005
                ]
            },
            "properties": {
                "ref:rspo": 130981,
                "official_name": "Przedszkole w Wikielcu",
                "name": "Przedszkole w Wikielcu",
                "addr:postcode": "14-200",
                "addr:place": "Wikielec",
                "addr:housenumber": "15e",
                "addr:teryt:simc": 475737,
                "phone": "+48 896401064",
                "email": "sspwikielec@neostrada.pl",
                "ref:regon": "364826130",
                "operator": "Gmina I\u0142awa",
                "operator:type": "government",
                "amenity": "kindergarten",
                "note": "Parent RSPO: 132584"
            }
        },
        {
            "id": 57680,
            "type": "Feature",
            "geometry": {
                "type": "Point",
                "coordinates": [
                    19.43556,
                    53.59812
                ]
            },
            "properties": {
                "isced:level": "1;2",
                "ref:rspo": 57680,
                "official_name": "Szko\u0142a Podstawowa w Lasecznie",
                "name": "Szko\u0142a Podstawowa w Lasecznie",
                "addr:postcode": "14-200",
                "addr:place": "Laseczno",
                "addr:housenumber": "43",
                "addr:teryt:simc": 475306,
                "phone": "+48 896403323",
                "email": "ssplaseczno1@interia.pl",
                "website": "http:\/\/www.ssplaseczno.pl",
                "ref:regon": "001206229",
                "ref:vatin": "PL7441809616",
                "operator": "Gmina I\u0142awa",
                "operator:type": "government",
                "amenity": "school"
            }
        },
        {
            "id": 34798,
            "type": "Feature",
            "geometry": {
                "type": "Point",
                "coordinates": [
                    19.69947,
                    53.59819
                ]
            },
            "properties": {
                "isced:level": "1;2",
                "ref:rspo": 34798,
                "official_name": "Szko\u0142a Podstawowa w Gromotach",
                "name": "Szko\u0142a Podstawowa w Gromotach",
                "addr:postcode": "14-204",
                "addr:place": "Gromoty",
                "addr:housenumber": "20",
                "addr:teryt:simc": 475186,
                "phone": "+48 896402236",
                "email": "szkolapodstawowa-gromoty@wp.pl",
                "website": "https:\/\/sspgromoty.edupage.org\/",
                "ref:regon": "001269543",
                "ref:vatin": "PL7441809639",
                "operator": "Gmina I\u0142awa",
                "operator:type": "government",
                "amenity": "school"
            }
        },
        {
            "id": 53271,
            "type": "Feature",
            "geometry": {
                "type": "Point",
                "coordinates": [
                    19.4022,
                    53.62353
                ]
            },
            "properties": {
                "isced:level": "1;2",
                "ref:rspo": 53271,
                "official_name": "Szko\u0142a Podstawowa im. Mjr Henryka Dobrza\u0144skiego ,,Hubala\" w Ga\u0142dowie",
                "name": "Szko\u0142a Podstawowa",
                "addr:postcode": "14-200",
                "addr:place": "Ga\u0142dowo",
                "addr:housenumber": "24",
                "addr:teryt:simc": 475134,
                "phone": "+48 896403359",
                "email": "sekretariat@sspgaldowo.pl",
                "website": "http:\/\/www.sspgaldowo.pl",
                "ref:regon": "001206198",
                "ref:vatin": "PL7441809668",
                "operator": "Gmina I\u0142awa",
                "operator:type": "government",
                "amenity": "school"
            }
        },
        {
            "id": 59084,
            "type": "Feature",
            "geometry": {
                "type": "Point",
                "coordinates": [
                    19.66434,
                    53.62977
                ]
            },
            "properties": {
                "isced:level": "1;2",
                "ref:rspo": 59084,
                "official_name": "Szko\u0142a Podstawowa im. Micha\u0142a Lengowskiego w Rudzienicach",
                "name": "Szko\u0142a Podstawowa",
                "addr:postcode": "14-204",
                "addr:city": "Rudzienice",
                "addr:street": "Szkolna",
                "addr:housenumber": "2",
                "addr:teryt:simc": 475447,
                "addr:teryt:sym_ul": 21970,
                "phone": "+48 896402226",
                "email": "ssprudz@poczta.onet.pl",
                "website": "http:\/\/www.ssprudzienice.edupage.org",
                "ref:regon": "001206235",
                "ref:vatin": "PL7441809645",
                "operator": "Gmina I\u0142awa",
                "operator:type": "government",
                "amenity": "school"
            }
        },
        {
            "id": 57881,
            "type": "Feature",
            "geometry": {
                "type": "Point",
                "coordinates": [
                    19.4624,
                    53.64047
                ]
            },
            "properties": {
                "isced:level": "1;2",
                "ref:rspo": 57881,
                "official_name": "Szko\u0142a Podstawowa im. Tw\u00f3rc\u00f3w Literatury Dzieci\u0119cej w Z\u0105browie",
                "name": "Szko\u0142a Podstawowa",
                "addr:postcode": "14-241",
                "addr:city": "Z\u0105browo",
                "addr:street": "Szkolna",
                "addr:housenumber": "19",
                "addr:teryt:simc": 475789,
                "addr:teryt:sym_ul": 21970,
                "phone": "+48 896481122",
                "email": "sekretariat@szkolazabrowo.pl",
                "website": "http:\/\/www.szkolazabrowo.pl",
                "ref:regon": "001206258",
                "ref:vatin": "PL7441809622",
                "operator": "Gmina I\u0142awa",
                "operator:type": "government",
                "amenity": "school"
            }
        },
        {
            "id": 34815,
            "type": "Feature",
            "geometry": {
                "type": "Point",
                "coordinates": [
                    19.74482,
                    53.64307
                ]
            },
            "properties": {
                "isced:level": "1;2",
                "ref:rspo": 34815,
                "official_name": "Szko\u0142a Podstawowa we Franciszkowie",
                "name": "Szko\u0142a Podstawowa we Franciszkowie",
                "addr:postcode": "14-200",
                "addr:place": "Franciszkowo",
                "addr:housenumber": "18",
                "addr:teryt:simc": 475080,
                "phone": "+48 896409998",
                "email": "spfran@wp.pl",
                "website": "http:\/\/www.gimfran.edupage.org",
                "ref:regon": "001206175",
                "ref:vatin": "PL7441809674",
                "operator": "Gmina I\u0142awa",
                "operator:type": "government",
                "amenity": "school"
            }
        },
        {
            "id": 6090,
            "type": "Feature",
            "geometry": {
                "type": "Point",
                "coordinates": [
                    19.69219,
                    53.65308
                ]
            },
            "properties": {
                "ref:rspo": 6090,
                "official_name": "Przedszkole we Frednowach",
                "name": "Przedszkole we Frednowach",
                "addr:postcode": "14-200",
                "addr:place": "Frednowy",
                "addr:housenumber": "52",
                "addr:teryt:simc": 475128,
                "phone": "+48 896407724",
                "email": "spfrednowy@poczta.onet.pl",
                "ref:regon": "281423613",
                "operator": "Stowarzyszenie Przyjaci\u00f3\u0142 Frednowa",
                "operator:type": "ngo",
                "amenity": "kindergarten"
            }
        },
        {
            "id": 6095,
            "type": "Feature",
            "geometry": {
                "type": "Point",
                "coordinates": [
                    19.69219,
                    53.65305
                ]
            },
            "properties": {
                "isced:level": "1;2",
                "ref:rspo": 6095,
                "official_name": "Szko\u0142a Podstawowa we Frednowach",
                "name": "Szko\u0142a Podstawowa we Frednowach",
                "addr:postcode": "14-200",
                "addr:place": "Frednowy",
                "addr:housenumber": "52",
                "addr:teryt:simc": 475128,
                "phone": "+48 896407724",
                "email": "spfrednowy@poczta.onet.pl",
                "ref:regon": "281423620",
                "operator": "Stowarzyszenie Przyjaci\u00f3\u0142 Frednowa",
                "operator:type": "ngo",
                "amenity": "school"
            }
        }
    ]
}