{
    "type": "FeatureCollection",
    "features": [
        {
            "id": 79297,
            "type": "Feature",
            "geometry": {
                "type": "Point",
                "coordinates": [
                    19.401217,
                    53.6582219
                ]
            },
            "properties": {
                "isced:level": "1;2",
                "ref:rspo": 79297,
                "official_name": "Szko\u0142a Podstawowa im.ziemi Suskiej w Babi\u0119tach Wielkich",
                "name": "Szko\u0142a Podstawowa im.ziemi Suskiej w Babi\u0119tach Wielkich",
                "addr:postcode": "14-240",
                "addr:place": "Babi\u0119ty Wielkie",
                "addr:housenumber": "31",
                "addr:teryt:simc": 157954,
                "phone": "+48 552788390",
                "email": "spwbabietach@wp.pl",
                "website": "http:\/\/spwbabietach.pl",
                "ref:regon": "170289359",
                "ref:vatin": "PL7441609159",
                "operator": "Gmina Susz",
                "operator:type": "government",
                "amenity": "school"
            }
        },
        {
            "id": 6115,
            "type": "Feature",
            "geometry": {
                "type": "Point",
                "coordinates": [
                    19.499496,
                    53.6810059
                ]
            },
            "properties": {
                "isced:level": "1;2",
                "ref:rspo": 6115,
                "official_name": "Szko\u0142a Podstawowa w Piotrkowie",
                "name": "Szko\u0142a Podstawowa w Piotrkowie",
                "addr:postcode": "14-240",
                "addr:place": "Piotrkowo",
                "addr:housenumber": "45",
                "addr:teryt:simc": 158310,
                "phone": "+48 552786416",
                "email": "szkolapiotrkowo@wp.pl",
                "website": "http:\/\/szkolapiotrkowo.edupage.org",
                "ref:regon": "281423659",
                "ref:vatin": "PL7441609113",
                "operator": "Stowarzyszenie Przyjaci\u00f3\u0142 Szko\u0142y W Piotrkowie",
                "operator:type": "ngo",
                "amenity": "school"
            }
        },
        {
            "id": 105364,
            "type": "Feature",
            "geometry": {
                "type": "Point",
                "coordinates": [
                    19.252941,
                    53.690164
                ]
            },
            "properties": {
                "isced:level": "1;2",
                "ref:rspo": 105364,
                "official_name": "Szko\u0142a Podstawowa w Jawtach Wielkich",
                "name": "Szko\u0142a Podstawowa w Jawtach Wielkich",
                "addr:postcode": "14-240",
                "addr:place": "Jawty Wielkie",
                "addr:housenumber": "6",
                "addr:teryt:simc": 158184,
                "phone": "+48 552786339",
                "email": "jawty.szkola@op.pl",
                "website": "http:\/\/www.spjawtywielkie.pl",
                "ref:regon": "001191551",
                "ref:vatin": "PL7441609171",
                "operator": "Gmina Susz",
                "operator:type": "government",
                "amenity": "school"
            }
        },
        {
            "id": 105363,
            "type": "Feature",
            "geometry": {
                "type": "Point",
                "coordinates": [
                    19.33569,
                    53.71514
                ]
            },
            "properties": {
                "isced:level": "1;2",
                "ref:rspo": 105363,
                "official_name": "Szko\u0142a Podstawowa im. Gen. J\u00f3zefa Bema w Suszu",
                "name": "Szko\u0142a Podstawowa",
                "addr:postcode": "14-240",
                "addr:city": "Susz",
                "addr:street": "Piastowska",
                "addr:housenumber": "5",
                "addr:teryt:simc": 932979,
                "addr:teryt:sym_ul": 16046,
                "phone": "+48 552786045",
                "email": "sekretariat@spsusz.pl",
                "website": "http:\/\/www.spsusz.pl",
                "ref:regon": "170291445",
                "ref:vatin": "PL7441609142",
                "operator": "Gmina Susz",
                "operator:type": "government",
                "amenity": "school"
            }
        },
        {
            "id": 105360,
            "type": "Feature",
            "geometry": {
                "type": "Point",
                "coordinates": [
                    19.33652,
                    53.7165
                ]
            },
            "properties": {
                "ref:rspo": 105360,
                "official_name": "Przedszkole w Suszu",
                "name": "Przedszkole w Suszu",
                "addr:postcode": "14-240",
                "addr:city": "Susz",
                "addr:street": "Piastowska",
                "addr:housenumber": "1a",
                "addr:teryt:simc": 932979,
                "addr:teryt:sym_ul": 16046,
                "phone": "+48 552786346",
                "email": "przedszkole.susz@op.pl",
                "ref:regon": "000985540",
                "ref:vatin": "PL7441610406",
                "operator": "Gmina Susz",
                "operator:type": "government",
                "amenity": "kindergarten"
            }
        },
        {
            "id": 10260,
            "type": "Feature",
            "geometry": {
                "type": "Point",
                "coordinates": [
                    19.33716,
                    53.72077
                ]
            },
            "properties": {
                "ref:rspo": 10260,
                "official_name": "Zesp\u00f3\u0142 Szk\u00f3\u0142 im. Ireny Kosmowskiej w Suszu",
                "name": "Zesp\u00f3\u0142 Szk\u00f3\u0142",
                "addr:postcode": "14-240",
                "addr:city": "Susz",
                "addr:street": "Wiejska",
                "addr:housenumber": "1",
                "addr:teryt:simc": 932979,
                "addr:teryt:sym_ul": 24048,
                "phone": "+48 552786198",
                "email": "zssusz@wp.pl",
                "website": "http:\/\/www.zssusz.home.pl",
                "ref:regon": "519455180",
                "ref:vatin": "PL7441571178",
                "operator": "Powiat I\u0142awski",
                "operator:type": "government",
                "landuse": "education",
                "fixme": "amenity=school, amenity=college albo landuse=education w zale\u017cno\u015bci od tego, jakie plac\u00f3wki wchodz\u0105 w sk\u0142ad zespo\u0142u. Sprawd\u017a, kiedy stosowa\u0107 amenity=* a kiedy landuse=education.",
                "note": "Children RSPO: 26072;26073;26074;26075;26076"
            }
        },
        {
            "id": 26072,
            "type": "Feature",
            "geometry": {
                "type": "Point",
                "coordinates": [
                    19.33716,
                    53.72074
                ]
            },
            "properties": {
                "isced:level": "3",
                "ref:rspo": 26072,
                "official_name": "Bran\u017cowa Szko\u0142a I Stopnia",
                "name": "Bran\u017cowa Szko\u0142a I Stopnia",
                "addr:postcode": "14-240",
                "addr:city": "Susz",
                "addr:street": "Wiejska",
                "addr:housenumber": "1",
                "addr:teryt:simc": 932979,
                "addr:teryt:sym_ul": 24048,
                "phone": "+48 552786198",
                "email": "zssusz@wp.pl",
                "website": "http:\/\/www.zssusz.home.pl",
                "ref:regon": "519455227",
                "operator": "Powiat I\u0142awski",
                "operator:type": "government",
                "amenity": "school",
                "note": "Parent RSPO: 10260"
            }
        },
        {
            "id": 26073,
            "type": "Feature",
            "geometry": {
                "type": "Point",
                "coordinates": [
                    19.33716,
                    53.720710000000004
                ]
            },
            "properties": {
                "isced:level": "3",
                "ref:rspo": 26073,
                "official_name": "Liceum Og\u00f3lnokszta\u0142c\u0105ce",
                "name": "Liceum Og\u00f3lnokszta\u0142c\u0105ce",
                "addr:postcode": "14-240",
                "addr:city": "Susz",
                "addr:street": "Wiejska",
                "addr:housenumber": "1",
                "addr:teryt:simc": 932979,
                "addr:teryt:sym_ul": 24048,
                "phone": "+48 552786198",
                "email": "zssusz@wp.pl",
                "website": "http:\/\/www.zssusz.home.pl",
                "ref:regon": "519455256",
                "operator": "Powiat I\u0142awski",
                "operator:type": "government",
                "amenity": "school",
                "note": "Parent RSPO: 10260"
            }
        },
        {
            "id": 26074,
            "type": "Feature",
            "geometry": {
                "type": "Point",
                "coordinates": [
                    19.33716,
                    53.72068
                ]
            },
            "properties": {
                "isced:level": "3",
                "ref:rspo": 26074,
                "official_name": "Technikum",
                "name": "Technikum",
                "addr:postcode": "14-240",
                "addr:city": "Susz",
                "addr:street": "Wiejska",
                "addr:housenumber": "1",
                "addr:teryt:simc": 932979,
                "addr:teryt:sym_ul": 24048,
                "phone": "+48 552786198",
                "email": "zssusz@wp.pl",
                "website": "http:\/\/www.zssusz.home.pl",
                "ref:regon": "519455196",
                "operator": "Powiat I\u0142awski",
                "operator:type": "government",
                "amenity": "school",
                "note": "Parent RSPO: 10260"
            }
        },
        {
            "id": 26075,
            "type": "Feature",
            "geometry": {
                "type": "Point",
                "coordinates": [
                    19.33716,
                    53.72065
                ]
            },
            "properties": {
                "isced:level": "4",
                "ref:rspo": 26075,
                "official_name": "Szko\u0142a Policealna",
                "name": "Szko\u0142a Policealna",
                "addr:postcode": "14-240",
                "addr:city": "Susz",
                "addr:street": "Wiejska",
                "addr:housenumber": "1",
                "addr:teryt:simc": 932979,
                "addr:teryt:sym_ul": 24048,
                "phone": "+48 552786198",
                "email": "zssusz@wp.pl",
                "website": "http:\/\/www.zssusz.home.pl",
                "ref:regon": "280344082",
                "operator": "Powiat I\u0142awski",
                "operator:type": "government",
                "amenity": "college",
                "note": "Parent RSPO: 10260"
            }
        },
        {
            "id": 26076,
            "type": "Feature",
            "geometry": {
                "type": "Point",
                "coordinates": [
                    19.33716,
                    53.720620000000004
                ]
            },
            "properties": {
                "isced:level": "3",
                "ref:rspo": 26076,
                "official_name": "Liceum Og\u00f3lnokszta\u0142c\u0105ce dla Doros\u0142ych",
                "name": "Liceum Og\u00f3lnokszta\u0142c\u0105ce dla Doros\u0142ych",
                "addr:postcode": "14-240",
                "addr:city": "Susz",
                "addr:street": "Wiejska",
                "addr:housenumber": "1",
                "addr:teryt:simc": 932979,
                "addr:teryt:sym_ul": 24048,
                "phone": "+48 552786198",
                "email": "zssusz@wp.pl",
                "website": "http:\/\/www.zssusz.home.pl",
                "ref:regon": "281434700",
                "operator": "Powiat I\u0142awski",
                "operator:type": "government",
                "amenity": "school",
                "note": "Parent RSPO: 10260"
            }
        },
        {
            "id": 118556,
            "type": "Feature",
            "geometry": {
                "type": "Point",
                "coordinates": [
                    19.3716237,
                    53.7642445
                ]
            },
            "properties": {
                "isced:level": "1;2",
                "ref:rspo": 118556,
                "official_name": "Szko\u0142a Podstawowa w Kamie\u0144cu",
                "name": "Szko\u0142a Podstawowa w Kamie\u0144cu",
                "addr:postcode": "14-240",
                "addr:place": "Kamieniec",
                "addr:housenumber": "20",
                "addr:teryt:simc": 158209,
                "phone": "+48 552786269",
                "email": "spkamieniec1@wp.pl",
                "ref:regon": "281520629",
                "ref:vatin": "PL7441692752",
                "operator": "Fundacja Rozwoju Warmii I Mazur",
                "operator:type": "ngo",
                "amenity": "school"
            }
        },
        {
            "id": 118555,
            "type": "Feature",
            "geometry": {
                "type": "Point",
                "coordinates": [
                    19.3274439,
                    53.785483
                ]
            },
            "properties": {
                "isced:level": "1;2",
                "ref:rspo": 118555,
                "official_name": "Szko\u0142a Podstawowa w Lubnowych",
                "name": "Szko\u0142a Podstawowa w Lubnowych",
                "addr:postcode": "14-240",
                "addr:place": "Lubnowy Ma\u0142e",
                "addr:housenumber": "28",
                "addr:teryt:simc": 158221,
                "phone": "+48 552786126",
                "email": "splubnowy@vp.pl",
                "website": "http:\/\/www.splubnowy.edupage.org",
                "ref:regon": "281520635",
                "operator": "Stowarzyszenie \"Taka Szko\u0142a\"",
                "operator:type": "ngo",
                "amenity": "school"
            }
        }
    ]
}