{
    "type": "FeatureCollection",
    "features": [
        {
            "id": 8465,
            "type": "Feature",
            "geometry": {
                "type": "Point",
                "coordinates": [
                    19.74591,
                    53.50006
                ]
            },
            "properties": {
                "isced:level": "3",
                "ref:rspo": 8465,
                "official_name": "Liceum Og\u00f3lnokszta\u0142c\u0105ce dla Doros\u0142ych",
                "name": "Liceum Og\u00f3lnokszta\u0142c\u0105ce dla Doros\u0142ych",
                "addr:country": "PL",
                "addr:postcode": "14-260",
                "addr:city": "Lubawa",
                "addr:street": "Rzepnikowskiego",
                "addr:housenumber": "33",
                "addr:door": "28",
                "addr:teryt:simc": 964749,
                "addr:teryt:sym_ul": 19349,
                "contact:phone": "+48 896452378",
                "contact:email": "centrumedukacjiwkl@gmail.com",
                "ref:regon": "281424788",
                "operator": "\u0141ukasz Karczewski",
                "operator:type": "private",
                "amenity": "school"
            }
        },
        {
            "id": 72362,
            "type": "Feature",
            "geometry": {
                "type": "Point",
                "coordinates": [
                    19.74591,
                    53.500029999999995
                ]
            },
            "properties": {
                "isced:level": "4",
                "ref:rspo": 72362,
                "official_name": "Szko\u0142a Policealna w Lubawie",
                "name": "Szko\u0142a Policealna w Lubawie",
                "addr:country": "PL",
                "addr:postcode": "14-260",
                "addr:city": "Lubawa",
                "addr:street": "Rzepnikowskiego",
                "addr:housenumber": "33",
                "addr:door": "28",
                "addr:teryt:simc": 964749,
                "addr:teryt:sym_ul": 19349,
                "contact:phone": "+48 896452378",
                "contact:email": "centrumedukacjiwkl@gmail.com",
                "ref:regon": "281445017",
                "operator": "\u0141ukasz Karczewski",
                "operator:type": "private",
                "amenity": "college"
            }
        },
        {
            "id": 56316,
            "type": "Feature",
            "geometry": {
                "type": "Point",
                "coordinates": [
                    19.7496,
                    53.50053
                ]
            },
            "properties": {
                "ref:rspo": 56316,
                "official_name": "Przedszkole Miejskie w Lubawie",
                "name": "Przedszkole Miejskie w Lubawie",
                "addr:country": "PL",
                "addr:postcode": "14-260",
                "addr:city": "Lubawa",
                "addr:street": "Rzepnikowskiego",
                "addr:housenumber": "9",
                "addr:teryt:simc": 964749,
                "addr:teryt:sym_ul": 19349,
                "contact:phone": "+48 896454652",
                "contact:email": "przedszkole@lubawa.pl",
                "contact:website": "http:\/\/www.przedszkole.lubawa.pl",
                "ref:regon": "280574310",
                "ref:vatin": "PL7441795883",
                "operator": "Gmina Miejska Lubawa",
                "operator:type": "government",
                "amenity": "kindergarten"
            }
        },
        {
            "id": 56314,
            "type": "Feature",
            "geometry": {
                "type": "Point",
                "coordinates": [
                    19.74843,
                    53.50103
                ]
            },
            "properties": {
                "ref:rspo": 56314,
                "official_name": "Przedszkole Niepubliczne \"Smerfolandia\" Grzegorz Kowalkowski",
                "name": "Przedszkole Niepubliczne \"Smerfolandia\" Grzegorz Kowalkowski",
                "addr:country": "PL",
                "addr:postcode": "14-260",
                "addr:city": "Lubawa",
                "addr:street": "Rzepnikowskiego",
                "addr:housenumber": "26",
                "addr:teryt:simc": 964749,
                "addr:teryt:sym_ul": 19349,
                "contact:phone": "+48 698613940",
                "contact:email": "smerfolandia.kontakt@wp.pl",
                "contact:website": "http:\/\/www.smerfolandia.net",
                "ref:regon": "281442355",
                "ref:vatin": "PL7441302917",
                "operator": "Grzegorz Kowalkowski",
                "operator:type": "private",
                "amenity": "kindergarten"
            }
        },
        {
            "id": 128847,
            "type": "Feature",
            "geometry": {
                "type": "Point",
                "coordinates": [
                    19.74843,
                    53.501
                ]
            },
            "properties": {
                "ref:rspo": 128847,
                "official_name": "Przedszkole Niepubliczne \"Bajkolandia\"",
                "name": "Przedszkole Niepubliczne \"Bajkolandia\"",
                "addr:country": "PL",
                "addr:postcode": "14-260",
                "addr:city": "Lubawa",
                "addr:street": "Rzepnikowskiego",
                "addr:housenumber": "26",
                "addr:teryt:simc": 964749,
                "addr:teryt:sym_ul": 19349,
                "contact:phone": "+48 698613940",
                "contact:email": "bajkolandia.lubawa@wp.pl",
                "contact:website": "http:\/\/www.smerfolandia.net",
                "ref:regon": "362402413",
                "operator": "Ewelina Kowalkowska",
                "operator:type": "private",
                "amenity": "kindergarten"
            }
        },
        {
            "id": 56317,
            "type": "Feature",
            "geometry": {
                "type": "Point",
                "coordinates": [
                    19.75237,
                    53.50128
                ]
            },
            "properties": {
                "isced:level": "1;2",
                "ref:rspo": 56317,
                "official_name": "Szko\u0142a Podstawowa im. Miko\u0142aja Kopernika w Lubawie",
                "name": "Szko\u0142a Podstawowa",
                "addr:country": "PL",
                "addr:postcode": "14-260",
                "addr:city": "Lubawa",
                "addr:street": "Rzepnikowskiego",
                "addr:housenumber": "7",
                "addr:teryt:simc": 964749,
                "addr:teryt:sym_ul": 19349,
                "contact:phone": "+48 896452326",
                "contact:email": "sp@lubawa.pl",
                "contact:website": "http:\/\/www.sp.lubawa.pl",
                "ref:regon": "000674773",
                "ref:vatin": "PL7441022075",
                "operator": "Gmina Miejska Lubawa",
                "operator:type": "government",
                "amenity": "school"
            }
        },
        {
            "id": 16851,
            "type": "Feature",
            "geometry": {
                "type": "Point",
                "coordinates": [
                    19.7436,
                    53.50143
                ]
            },
            "properties": {
                "ref:rspo": 16851,
                "official_name": "Zesp\u00f3\u0142 Szk\u00f3\u0142 w Lubawie",
                "name": "Zesp\u00f3\u0142 Szk\u00f3\u0142 w Lubawie",
                "addr:country": "PL",
                "addr:postcode": "14-260",
                "addr:city": "Lubawa",
                "addr:street": "Gda\u0144ska",
                "addr:housenumber": "25",
                "addr:teryt:simc": 964749,
                "addr:teryt:sym_ul": 5431,
                "contact:phone": "+48 896452631",
                "contact:email": "zs-sekretariat@zs.lubawa.pl",
                "contact:website": "http:\/\/www.zs.lubawa.pl",
                "ref:regon": "000234465",
                "ref:vatin": "PL7440005028",
                "operator": "Powiat I\u0142awski",
                "operator:type": "government",
                "landuse": "education",
                "fixme": "amenity=school, amenity=college albo landuse=education w zale\u017cno\u015bci od tego, jakie plac\u00f3wki wchodz\u0105 w sk\u0142ad zespo\u0142u. Sprawd\u017a, kiedy stosowa\u0107 amenity=* a kiedy landuse=education.",
                "note": "Children RSPO: 69473;69476;69483;69488;129295"
            }
        },
        {
            "id": 69473,
            "type": "Feature",
            "geometry": {
                "type": "Point",
                "coordinates": [
                    19.7436,
                    53.5014
                ]
            },
            "properties": {
                "isced:level": "3",
                "ref:rspo": 69473,
                "official_name": "Bran\u017cowa Szko\u0142a I Stopnia",
                "name": "Bran\u017cowa Szko\u0142a I Stopnia",
                "addr:country": "PL",
                "addr:postcode": "14-260",
                "addr:city": "Lubawa",
                "addr:street": "Gda\u0144ska",
                "addr:housenumber": "25",
                "addr:teryt:simc": 964749,
                "addr:teryt:sym_ul": 5431,
                "contact:phone": "+48 896452631",
                "contact:email": "zs-sekretariat@zs.lubawa.pl",
                "ref:regon": "519458757",
                "operator": "Powiat I\u0142awski",
                "operator:type": "government",
                "amenity": "school",
                "note": "Parent RSPO: 16851"
            }
        },
        {
            "id": 69476,
            "type": "Feature",
            "geometry": {
                "type": "Point",
                "coordinates": [
                    19.7436,
                    53.50137
                ]
            },
            "properties": {
                "isced:level": "3",
                "ref:rspo": 69476,
                "official_name": "Liceum Og\u00f3lnokszta\u0142c\u0105ce dla Doros\u0142ych",
                "name": "Liceum Og\u00f3lnokszta\u0142c\u0105ce dla Doros\u0142ych",
                "addr:country": "PL",
                "addr:postcode": "14-260",
                "addr:city": "Lubawa",
                "addr:street": "Gda\u0144ska",
                "addr:housenumber": "25",
                "addr:teryt:simc": 964749,
                "addr:teryt:sym_ul": 5431,
                "contact:phone": "+48 896452631",
                "contact:email": "zs-sekretariat@zs.lubawa.pl",
                "ref:regon": "281441404",
                "operator": "Powiat I\u0142awski",
                "operator:type": "government",
                "amenity": "school",
                "note": "Parent RSPO: 16851"
            }
        },
        {
            "id": 69483,
            "type": "Feature",
            "geometry": {
                "type": "Point",
                "coordinates": [
                    19.7436,
                    53.50134
                ]
            },
            "properties": {
                "isced:level": "3",
                "ref:rspo": 69483,
                "official_name": "Liceum Og\u00f3lnokszta\u0142c\u0105ce im. W\u0142adys\u0142awa Broniewskiego",
                "name": "Liceum Og\u00f3lnokszta\u0142c\u0105ce",
                "addr:country": "PL",
                "addr:postcode": "14-260",
                "addr:city": "Lubawa",
                "addr:street": "Gda\u0144ska",
                "addr:housenumber": "25",
                "addr:teryt:simc": 964749,
                "addr:teryt:sym_ul": 5431,
                "contact:phone": "+48 896452631",
                "contact:email": "zs-sekretariat@zs.lubawa.pl",
                "ref:regon": "519458734",
                "operator": "Powiat I\u0142awski",
                "operator:type": "government",
                "amenity": "school",
                "note": "Parent RSPO: 16851"
            }
        },
        {
            "id": 69488,
            "type": "Feature",
            "geometry": {
                "type": "Point",
                "coordinates": [
                    19.7436,
                    53.50131
                ]
            },
            "properties": {
                "isced:level": "3",
                "ref:rspo": 69488,
                "official_name": "Technikum",
                "name": "Technikum",
                "addr:country": "PL",
                "addr:postcode": "14-260",
                "addr:city": "Lubawa",
                "addr:street": "Gda\u0144ska",
                "addr:housenumber": "25",
                "addr:teryt:simc": 964749,
                "addr:teryt:sym_ul": 5431,
                "contact:phone": "+48 896452631",
                "contact:email": "zs-sekretariat@zs.lubawa.pl",
                "ref:regon": "519458740",
                "operator": "Powiat I\u0142awski",
                "operator:type": "government",
                "amenity": "school",
                "note": "Parent RSPO: 16851"
            }
        },
        {
            "id": 129295,
            "type": "Feature",
            "geometry": {
                "type": "Point",
                "coordinates": [
                    19.7436,
                    53.50128
                ]
            },
            "properties": {
                "isced:level": "4",
                "ref:rspo": 129295,
                "official_name": "Szko\u0142a Policealna w Lubawie",
                "name": "Szko\u0142a Policealna w Lubawie",
                "addr:country": "PL",
                "addr:postcode": "14-260",
                "addr:city": "Lubawa",
                "addr:street": "Gda\u0144ska",
                "addr:housenumber": "25",
                "addr:teryt:simc": 964749,
                "addr:teryt:sym_ul": 5431,
                "contact:phone": "+48 896452631",
                "contact:email": "zs-sekretariat@zs.lubawa.pl",
                "contact:website": "http:\/\/www.zs.lubawa.pl",
                "ref:regon": "362550013",
                "operator": "Powiat I\u0142awski",
                "operator:type": "government",
                "amenity": "college",
                "note": "Parent RSPO: 16851"
            }
        },
        {
            "id": 72373,
            "type": "Feature",
            "geometry": {
                "type": "Point",
                "coordinates": [
                    19.7501567,
                    53.5046645
                ]
            },
            "properties": {
                "ref:rspo": 72373,
                "official_name": "O\u015brodek O\u015bwiatowo-Informacyjny Przy Cechu Rzemie\u015blnik\u00f3w I Przedsi\u0119biorc\u00f3w w Lubawie",
                "name": "O\u015brodek O\u015bwiatowo-Informacyjny Przy Cechu Rzemie\u015blnik\u00f3w I Przedsi\u0119biorc\u00f3w w Lubawie",
                "addr:country": "PL",
                "addr:postcode": "14-260",
                "addr:city": "Lubawa",
                "addr:street": "Plac Zamkowy",
                "addr:housenumber": "1a",
                "addr:teryt:simc": 964749,
                "addr:teryt:sym_ul": 38633,
                "contact:phone": "+48 698743776",
                "contact:email": "cech@cech.lubawa.pl",
                "contact:website": "http:\/\/www.cech.lubawa.pl",
                "ref:regon": "281442579",
                "operator": "Cech Rzemie\u015blnik\u00f3w I Przedsi\u0119biorc\u00f3w W Lubawie",
                "operator:type": "cooperative",
                "fixme": "w zale\u017cno\u015bci od przedmiotu dzia\u0142alno\u015bci (np. amenity=training + training=*, amenity=dancing_school, amenity=language_school, amenity=music_school)"
            }
        }
    ]
}