{
    "type": "FeatureCollection",
    "features": [
        {
            "id": 121223,
            "type": "Feature",
            "geometry": {
                "type": "Point",
                "coordinates": [
                    19.55883,
                    53.58295
                ]
            },
            "properties": {
                "ref:rspo": 121223,
                "official_name": "Angloj\u0119zyczne Niepubliczne Przedszkole \"Gugu\u015b\"",
                "name": "Angloj\u0119zyczne Niepubliczne Przedszkole \"Gugu\u015b\"",
                "addr:country": "PL",
                "addr:postcode": "14-200",
                "addr:city": "I\u0142awa",
                "addr:street": "Genera\u0142a Stanis\u0142awa Maczka",
                "addr:housenumber": "16",
                "addr:teryt:simc": 964650,
                "addr:teryt:sym_ul": 11862,
                "contact:phone": "+48 732772776",
                "contact:email": "przedszkole@gugus.com.pl",
                "contact:website": "http:\/\/www.gugus.com.pl",
                "ref:regon": "281553110",
                "operator": "Krzysztof Miszewski",
                "operator:type": "private",
                "amenity": "kindergarten"
            }
        },
        {
            "id": 27863,
            "type": "Feature",
            "geometry": {
                "type": "Point",
                "coordinates": [
                    19.5588,
                    53.58458
                ]
            },
            "properties": {
                "isced:level": "1;2",
                "ref:rspo": 27863,
                "official_name": "Szko\u0142a Podstawowa Nr 4 im. Polskich Podr\u00f3\u017cnik\u00f3w w I\u0142awie",
                "name": "Szko\u0142a Podstawowa Nr 4",
                "addr:country": "PL",
                "addr:postcode": "14-200",
                "addr:city": "I\u0142awa",
                "addr:street": "Marii Sk\u0142odowskiej-Curie",
                "addr:housenumber": "31",
                "addr:teryt:simc": 964650,
                "addr:teryt:sym_ul": 20068,
                "contact:phone": "+48 896494198",
                "contact:email": "sekretariat@sp4.ilawa.pl",
                "contact:website": "http:\/\/sp4.ilawa.pl",
                "ref:regon": "000716572",
                "operator": "Gmina Miejska I\u0142awa",
                "operator:type": "government",
                "amenity": "school"
            }
        },
        {
            "id": 27866,
            "type": "Feature",
            "geometry": {
                "type": "Point",
                "coordinates": [
                    19.55594,
                    53.58512
                ]
            },
            "properties": {
                "ref:rspo": 27866,
                "official_name": "Przedszkole Miejskie Nr 6",
                "name": "Przedszkole Miejskie Nr 6",
                "addr:country": "PL",
                "addr:postcode": "14-200",
                "addr:city": "I\u0142awa",
                "addr:street": "Wiejska",
                "addr:housenumber": "3",
                "addr:teryt:simc": 964650,
                "addr:teryt:sym_ul": 24048,
                "contact:phone": "+48 896495073",
                "contact:email": "przedszkole6@mzosip.ilawa.pl",
                "contact:website": "http:\/\/przedszkolenr6.ilawa.pl",
                "ref:regon": "511405282",
                "operator": "Gmina Miejska I\u0142awa",
                "operator:type": "government",
                "amenity": "kindergarten"
            }
        },
        {
            "id": 72382,
            "type": "Feature",
            "geometry": {
                "type": "Point",
                "coordinates": [
                    19.55642,
                    53.58538
                ]
            },
            "properties": {
                "ref:rspo": 72382,
                "official_name": "Centrum Doskonalenia \"Eureka\" Iwona P\u0142oska w I\u0142awie",
                "name": "Centrum Doskonalenia \"Eureka\" Iwona P\u0142oska w I\u0142awie",
                "addr:country": "PL",
                "addr:postcode": "14-202",
                "addr:city": "I\u0142awa",
                "addr:street": "Wiejska",
                "addr:housenumber": "5",
                "addr:teryt:simc": 964650,
                "addr:teryt:sym_ul": 24048,
                "contact:phone": "+48 896448052",
                "contact:email": "centrum-eureka@wp.pl",
                "ref:regon": "281442591",
                "ref:vatin": "PL7441226027",
                "operator": "Iwona P\u0142oska",
                "operator:type": "private",
                "fixme": "w zale\u017cno\u015bci od przedmiotu dzia\u0142alno\u015bci (np. amenity=training + training=*, amenity=dancing_school, amenity=language_school, amenity=music_school)"
            }
        },
        {
            "id": 27864,
            "type": "Feature",
            "geometry": {
                "type": "Point",
                "coordinates": [
                    19.56149,
                    53.58544
                ]
            },
            "properties": {
                "ref:rspo": 27864,
                "official_name": "Przedszkole Miejskie Nr 2 Integracyjne",
                "name": "Przedszkole Miejskie Nr 2 Integracyjne",
                "addr:country": "PL",
                "addr:postcode": "14-200",
                "addr:city": "I\u0142awa",
                "addr:street": "Jana Kasprowicza",
                "addr:housenumber": "3",
                "addr:teryt:simc": 964650,
                "addr:teryt:sym_ul": 8153,
                "contact:phone": "+48 896443493",
                "contact:email": "przedszkole2@mzosip.ilawa.pl",
                "contact:website": "http:\/\/przedszkolenr2.ilawa.pl",
                "ref:regon": "511405218",
                "operator": "Gmina Miejska I\u0142awa",
                "operator:type": "government",
                "amenity": "kindergarten"
            }
        },
        {
            "id": 129223,
            "type": "Feature",
            "geometry": {
                "type": "Point",
                "coordinates": [
                    19.56195,
                    53.58576
                ]
            },
            "properties": {
                "ref:rspo": 129223,
                "official_name": "Dom Malucha \"Promyk\" Niepubliczne Przedszkole im. \u015aw. Filomeny",
                "name": "Dom Malucha \"Promyk\" Niepubliczne Przedszkole",
                "addr:country": "PL",
                "addr:postcode": "14-202",
                "addr:city": "I\u0142awa",
                "addr:street": "Jana Kasprowicza",
                "addr:housenumber": "1A",
                "addr:teryt:simc": 964650,
                "addr:teryt:sym_ul": 8153,
                "contact:phone": "+48 505925191",
                "contact:email": "jolanta.rzymowska@wp.pl",
                "ref:regon": "362516677",
                "operator": "Jolanta Rzymowska",
                "operator:type": "private",
                "amenity": "kindergarten"
            }
        },
        {
            "id": 72370,
            "type": "Feature",
            "geometry": {
                "type": "Point",
                "coordinates": [
                    19.55106,
                    53.5871
                ]
            },
            "properties": {
                "ref:rspo": 72370,
                "official_name": "Centrum Edukacji Zawodowej w I\u0142awie",
                "name": "Centrum Edukacji Zawodowej w I\u0142awie",
                "addr:country": "PL",
                "addr:postcode": "14-202",
                "addr:city": "I\u0142awa",
                "addr:street": "Wiejska",
                "addr:housenumber": "11",
                "addr:teryt:simc": 964650,
                "addr:teryt:sym_ul": 24048,
                "contact:phone": "+48 896492018",
                "contact:email": "poczta@cez.net.pl",
                "contact:website": "http:\/\/www.cez.net.pl",
                "ref:regon": "281442616",
                "operator": "Anna Bitowt",
                "operator:type": "private",
                "fixme": "w zale\u017cno\u015bci od przedmiotu dzia\u0142alno\u015bci (np. amenity=training + training=*, amenity=dancing_school, amenity=language_school, amenity=music_school)"
            }
        },
        {
            "id": 72390,
            "type": "Feature",
            "geometry": {
                "type": "Point",
                "coordinates": [
                    19.55106,
                    53.58707
                ]
            },
            "properties": {
                "isced:level": "3",
                "ref:rspo": 72390,
                "official_name": "Zaoczne Liceum Og\u00f3lnokszta\u0142c\u0105ce dla Doros\u0142ych w I\u0142awie",
                "name": "Zaoczne Liceum Og\u00f3lnokszta\u0142c\u0105ce dla Doros\u0142ych w I\u0142awie",
                "addr:country": "PL",
                "addr:postcode": "14-202",
                "addr:city": "I\u0142awa",
                "addr:street": "Wiejska",
                "addr:housenumber": "11",
                "addr:teryt:simc": 964650,
                "addr:teryt:sym_ul": 24048,
                "contact:phone": "+48 603773208",
                "contact:email": "poczta@cez.net.pl",
                "contact:website": "http:\/\/www.cez.net.pl",
                "ref:regon": "281442639",
                "operator": "Anna Bitowt",
                "operator:type": "private",
                "amenity": "school"
            }
        },
        {
            "id": 262283,
            "type": "Feature",
            "geometry": {
                "type": "Point",
                "coordinates": [
                    19.55106,
                    53.58704
                ]
            },
            "properties": {
                "isced:level": "1;2",
                "ref:rspo": 262283,
                "official_name": "Szko\u0142a Podstawowa Nr 5 Z Oddzia\u0142ami Integracyjnymi im. Polskich Noblist\u00f3w w I\u0142awie",
                "name": "Szko\u0142a Podstawowa Nr 5 Z Oddzia\u0142ami Integracyjnymi",
                "addr:country": "PL",
                "addr:postcode": "14-202",
                "addr:city": "I\u0142awa",
                "addr:street": "Wiejska",
                "addr:housenumber": "11",
                "addr:teryt:simc": 964650,
                "addr:teryt:sym_ul": 24048,
                "contact:phone": "+48 896495661",
                "contact:email": "sp5ilawa@gmail.com",
                "contact:website": "http:\/\/sp5.ilawa.pl",
                "ref:regon": "367993590",
                "operator": "Gmina Miejska I\u0142awa",
                "operator:type": "government",
                "amenity": "school"
            }
        },
        {
            "id": 27861,
            "type": "Feature",
            "geometry": {
                "type": "Point",
                "coordinates": [
                    19.56497,
                    53.58724
                ]
            },
            "properties": {
                "isced:level": "1;2",
                "ref:rspo": 27861,
                "official_name": "Szko\u0142a Podstawowa Nr 2 Z Oddzia\u0142ami Integracyjnymi im. Marii Konopnickiej w I\u0142awie",
                "name": "Szko\u0142a Podstawowa Nr 2 Z Oddzia\u0142ami Integracyjnymi",
                "addr:country": "PL",
                "addr:postcode": "14-200",
                "addr:city": "I\u0142awa",
                "addr:street": "Genera\u0142a W\u0142adys\u0142awa Andersa",
                "addr:housenumber": "7",
                "addr:teryt:simc": 964650,
                "addr:teryt:sym_ul": 285,
                "contact:phone": "+48 896492432",
                "contact:email": "sekretariat@szkoladwojka.ilawa.pl",
                "contact:website": "http:\/\/szkoladwojka.ilawa.pl",
                "ref:regon": "000716550",
                "operator": "Gmina Miejska I\u0142awa",
                "operator:type": "government",
                "amenity": "school"
            }
        },
        {
            "id": 275443,
            "type": "Feature",
            "geometry": {
                "type": "Point",
                "coordinates": [
                    19.5735,
                    53.58741
                ]
            },
            "properties": {
                "ref:rspo": 275443,
                "official_name": "Przedszkole Mozart",
                "name": "Przedszkole Mozart",
                "addr:country": "PL",
                "addr:postcode": "14-200",
                "addr:city": "I\u0142awa",
                "addr:street": "Kardyna\u0142a Stefana Wyszy\u0144skiego",
                "addr:housenumber": "39",
                "addr:teryt:simc": 964650,
                "addr:teryt:sym_ul": 35421,
                "contact:email": "biuro@przedszkolemozart.pl",
                "ref:regon": "386917021",
                "operator": "Mozart Sp\u00f3\u0142ka Z Ograniczon\u0105 Odpowiedzialno\u015bci\u0105",
                "operator:type": "private",
                "amenity": "kindergarten"
            }
        },
        {
            "id": 3894,
            "type": "Feature",
            "geometry": {
                "type": "Point",
                "coordinates": [
                    19.56159,
                    53.58813
                ]
            },
            "properties": {
                "ref:rspo": 3894,
                "official_name": "Centrum Kszta\u0142cenia Ustawicznego Nr 1 w I\u0142awie",
                "name": "Centrum Kszta\u0142cenia Ustawicznego Nr 1 w I\u0142awie",
                "addr:country": "PL",
                "addr:postcode": "14-200",
                "addr:city": "I\u0142awa",
                "addr:street": "1 Maja",
                "addr:housenumber": "14",
                "addr:teryt:simc": 964650,
                "addr:teryt:sym_ul": 11926,
                "contact:phone": "+48 896445356",
                "contact:email": "cku_ilawa@sw.gov.pl",
                "ref:regon": "280031294",
                "operator": "Ministerstwo Sprawiedliwo\u015bci",
                "operator:type": "public",
                "amenity": "school",
                "fixme": "amenity=school lub amenity=college",
                "note": "Children RSPO: 9112;20167"
            }
        },
        {
            "id": 9112,
            "type": "Feature",
            "geometry": {
                "type": "Point",
                "coordinates": [
                    19.56159,
                    53.5881
                ]
            },
            "properties": {
                "isced:level": "3",
                "ref:rspo": 9112,
                "official_name": "Liceum Og\u00f3lnokszta\u0142c\u0105ce dla Doros\u0142ych",
                "name": "Liceum Og\u00f3lnokszta\u0142c\u0105ce dla Doros\u0142ych",
                "addr:country": "PL",
                "addr:postcode": "14-200",
                "addr:city": "I\u0142awa",
                "addr:street": "1 Maja",
                "addr:housenumber": "14",
                "addr:teryt:simc": 964650,
                "addr:teryt:sym_ul": 11926,
                "contact:phone": "+48 896445356",
                "contact:email": "cku_ilawa@sw.gov.pl",
                "ref:regon": "281424950",
                "operator": "Ministerstwo Sprawiedliwo\u015bci",
                "operator:type": "public",
                "amenity": "school",
                "note": "Parent RSPO: 3894"
            }
        },
        {
            "id": 20167,
            "type": "Feature",
            "geometry": {
                "type": "Point",
                "coordinates": [
                    19.56159,
                    53.58807
                ]
            },
            "properties": {
                "isced:level": "1;2",
                "ref:rspo": 20167,
                "official_name": "Szko\u0142a Podstawowa dla Doros\u0142ych",
                "name": "Szko\u0142a Podstawowa dla Doros\u0142ych",
                "addr:country": "PL",
                "addr:postcode": "14-200",
                "addr:city": "I\u0142awa",
                "addr:street": "1 Maja",
                "addr:housenumber": "14",
                "addr:teryt:simc": 964650,
                "addr:teryt:sym_ul": 11926,
                "contact:phone": "+48 896445356",
                "contact:email": "cku_ilawa@sw.gov.pl",
                "ref:regon": "000716589",
                "operator": "Ministerstwo Sprawiedliwo\u015bci",
                "operator:type": "public",
                "amenity": "school",
                "note": "Parent RSPO: 3894"
            }
        },
        {
            "id": 53567,
            "type": "Feature",
            "geometry": {
                "type": "Point",
                "coordinates": [
                    19.56453,
                    53.58829
                ]
            },
            "properties": {
                "ref:rspo": 53567,
                "official_name": "Przedszkole Miejskie Nr 5",
                "name": "Przedszkole Miejskie Nr 5",
                "addr:country": "PL",
                "addr:postcode": "14-200",
                "addr:city": "I\u0142awa",
                "addr:street": "Genera\u0142a W\u0142adys\u0142awa Andersa",
                "addr:housenumber": "8A",
                "addr:teryt:simc": 964650,
                "addr:teryt:sym_ul": 285,
                "contact:phone": "+48 896494162",
                "contact:email": "przedszkole5.ilawa@wp.pl",
                "ref:regon": "511405276",
                "operator": "Gmina Miejska I\u0142awa",
                "operator:type": "government",
                "amenity": "kindergarten"
            }
        },
        {
            "id": 4245,
            "type": "Feature",
            "geometry": {
                "type": "Point",
                "coordinates": [
                    19.56392,
                    53.5900899
                ]
            },
            "properties": {
                "ref:rspo": 4245,
                "official_name": "Powiatowe Centrum Rozwoju Edukacji w I\u0142awie",
                "name": "Powiatowe Centrum Rozwoju Edukacji w I\u0142awie",
                "addr:country": "PL",
                "addr:postcode": "14-200",
                "addr:city": "I\u0142awa",
                "addr:street": "Miko\u0142aja Kopernika",
                "addr:housenumber": "8a",
                "addr:teryt:simc": 964650,
                "addr:teryt:sym_ul": 9282,
                "contact:phone": "+48 896492435",
                "contact:email": "sekretariat@pcre.ilawa.pl",
                "contact:website": "http:\/\/www.pcre.ilawa.pl",
                "ref:regon": "281423352",
                "ref:vatin": "PL7441809094",
                "operator": "Powiat I\u0142awski",
                "operator:type": "government",
                "landuse": "education",
                "fixme": "amenity=school, amenity=college albo landuse=education w zale\u017cno\u015bci od tego, jakie plac\u00f3wki wchodz\u0105 w sk\u0142ad zespo\u0142u. Sprawd\u017a, kiedy stosowa\u0107 amenity=* a kiedy landuse=education.",
                "note": "Children RSPO: 9719;10328"
            }
        },
        {
            "id": 16850,
            "type": "Feature",
            "geometry": {
                "type": "Point",
                "coordinates": [
                    19.56392,
                    53.5900599
                ]
            },
            "properties": {
                "ref:rspo": 16850,
                "official_name": "Zesp\u00f3\u0142 Szk\u00f3\u0142 im. Bohater\u00f3w Wrze\u015bnia 1939 Roku w I\u0142awie",
                "name": "Zesp\u00f3\u0142 Szk\u00f3\u0142",
                "addr:country": "PL",
                "addr:postcode": "14-200",
                "addr:city": "I\u0142awa",
                "addr:street": "Miko\u0142aja Kopernika",
                "addr:housenumber": "8a",
                "addr:teryt:simc": 964650,
                "addr:teryt:sym_ul": 9282,
                "contact:phone": "+48 896491312",
                "contact:email": "zsilawa@powiat-ilawski.pl",
                "contact:website": "http:\/\/www.zsilawa.pl",
                "ref:regon": "519455948",
                "ref:vatin": "PL7440005005",
                "operator": "Powiat I\u0142awski",
                "operator:type": "government",
                "landuse": "education",
                "fixme": "amenity=school, amenity=college albo landuse=education w zale\u017cno\u015bci od tego, jakie plac\u00f3wki wchodz\u0105 w sk\u0142ad zespo\u0142u. Sprawd\u017a, kiedy stosowa\u0107 amenity=* a kiedy landuse=education.",
                "note": "Children RSPO: 17091;69541;69542;69544;121932;129256"
            }
        },
        {
            "id": 9719,
            "type": "Feature",
            "geometry": {
                "type": "Point",
                "coordinates": [
                    19.56392,
                    53.590029900000005
                ]
            },
            "properties": {
                "ref:rspo": 9719,
                "official_name": "Powiatowe Centrum Rozwoju Edukacji w I\u0142awie, Powiatowa Biblioteka Pedagogiczna w I\u0142awie",
                "name": "Powiatowe Centrum Rozwoju Edukacji w I\u0142awie, Powiatowa Biblioteka Pedagogiczna w I\u0142awie",
                "addr:country": "PL",
                "addr:postcode": "14-200",
                "addr:city": "I\u0142awa",
                "addr:street": "Miko\u0142aja Kopernika",
                "addr:housenumber": "8a",
                "addr:teryt:simc": 964650,
                "addr:teryt:sym_ul": 9282,
                "contact:phone": "+48 896492435",
                "contact:email": "sekretariat@pcre.ilawa.pl",
                "contact:website": "http:\/\/www.pcre.ilawa.pl",
                "ref:regon": "281425090",
                "operator": "Powiat I\u0142awski",
                "operator:type": "government",
                "amenity": "library",
                "note": "Parent RSPO: 4245"
            }
        },
        {
            "id": 10328,
            "type": "Feature",
            "geometry": {
                "type": "Point",
                "coordinates": [
                    19.56392,
                    53.5899999
                ]
            },
            "properties": {
                "ref:rspo": 10328,
                "official_name": "Powiatowe Centrum Rozwoju Edukacji w I\u0142awie, Poradnia Psychologiczno-Pedagogiczna w I\u0142awie",
                "name": "Powiatowe Centrum Rozwoju Edukacji w I\u0142awie, Poradnia Psychologiczno-Pedagogiczna w I\u0142awie",
                "addr:country": "PL",
                "addr:postcode": "14-200",
                "addr:city": "I\u0142awa",
                "addr:street": "Miko\u0142aja Kopernika",
                "addr:housenumber": "8a",
                "addr:teryt:simc": 964650,
                "addr:teryt:sym_ul": 9282,
                "contact:phone": "+48 896492435",
                "contact:email": "sekretariat@pcre.ilawa.pl",
                "contact:website": "http:\/\/www.pcre.ilawa.pl",
                "ref:regon": "510939739",
                "operator": "Powiat I\u0142awski",
                "operator:type": "government",
                "healthcare": "counselling",
                "counselling_type": "education",
                "fixme": "w zale\u017cno\u015bci od przedmiotu dzia\u0142alno\u015bci (np. healthcare=counselling + counselling_type=education albo healthcare=psychotherapist)",
                "note": "Parent RSPO: 4245"
            }
        },
        {
            "id": 69541,
            "type": "Feature",
            "geometry": {
                "type": "Point",
                "coordinates": [
                    19.56392,
                    53.5899699
                ]
            },
            "properties": {
                "isced:level": "3",
                "ref:rspo": 69541,
                "official_name": "Technikum Nr 1",
                "name": "Technikum Nr 1",
                "addr:country": "PL",
                "addr:postcode": "14-200",
                "addr:city": "I\u0142awa",
                "addr:street": "Miko\u0142aja Kopernika",
                "addr:housenumber": "8a",
                "addr:teryt:simc": 964650,
                "addr:teryt:sym_ul": 9282,
                "contact:phone": "+48 896491312",
                "contact:email": "zsilawa@powiat-ilawski.pl",
                "contact:website": "http:\/\/www.zsilawa.pl",
                "ref:regon": "519497480",
                "operator": "Powiat I\u0142awski",
                "operator:type": "government",
                "amenity": "school",
                "note": "Parent RSPO: 16850"
            }
        },
        {
            "id": 69542,
            "type": "Feature",
            "geometry": {
                "type": "Point",
                "coordinates": [
                    19.56392,
                    53.589939900000005
                ]
            },
            "properties": {
                "isced:level": "3",
                "ref:rspo": 69542,
                "official_name": "Ii Liceum Og\u00f3lnokszta\u0142c\u0105ce",
                "name": "Ii Liceum Og\u00f3lnokszta\u0142c\u0105ce",
                "addr:country": "PL",
                "addr:postcode": "14-200",
                "addr:city": "I\u0142awa",
                "addr:street": "Miko\u0142aja Kopernika",
                "addr:housenumber": "8a",
                "addr:teryt:simc": 964650,
                "addr:teryt:sym_ul": 9282,
                "contact:phone": "+48 896491312",
                "contact:email": "zsilawa@powiat-ilawski.pl",
                "contact:website": "http:\/\/www.zsilawa.pl",
                "ref:regon": "519497473",
                "operator": "Powiat I\u0142awski",
                "operator:type": "government",
                "amenity": "school",
                "note": "Parent RSPO: 16850"
            }
        },
        {
            "id": 69544,
            "type": "Feature",
            "geometry": {
                "type": "Point",
                "coordinates": [
                    19.56392,
                    53.5899099
                ]
            },
            "properties": {
                "isced:level": "3",
                "ref:rspo": 69544,
                "official_name": "Bran\u017cowa Szko\u0142a I Stopnia Nr 1",
                "name": "Bran\u017cowa Szko\u0142a I Stopnia Nr 1",
                "addr:country": "PL",
                "addr:postcode": "14-200",
                "addr:city": "I\u0142awa",
                "addr:street": "Miko\u0142aja Kopernika",
                "addr:housenumber": "8a",
                "addr:teryt:simc": 964650,
                "addr:teryt:sym_ul": 9282,
                "contact:phone": "+48 896491312",
                "contact:email": "zsilawa@powiat-ilawski.pl",
                "contact:website": "http:\/\/www.zsilawa.pl",
                "ref:regon": "519497467",
                "operator": "Powiat I\u0142awski",
                "operator:type": "government",
                "amenity": "school",
                "note": "Parent RSPO: 16850"
            }
        },
        {
            "id": 121932,
            "type": "Feature",
            "geometry": {
                "type": "Point",
                "coordinates": [
                    19.56392,
                    53.5898799
                ]
            },
            "properties": {
                "isced:level": "4",
                "ref:rspo": 121932,
                "official_name": "Szko\u0142a Policealna Nr 2 w I\u0142awie",
                "name": "Szko\u0142a Policealna Nr 2 w I\u0142awie",
                "addr:country": "PL",
                "addr:postcode": "14-200",
                "addr:city": "I\u0142awa",
                "addr:street": "Miko\u0142aja Kopernika",
                "addr:housenumber": "8a",
                "addr:teryt:simc": 964650,
                "addr:teryt:sym_ul": 9282,
                "contact:phone": "+48 896491312",
                "contact:email": "zsilawa@powiat-ilawski.pl",
                "contact:website": "http:\/\/www.zsilawa.pl",
                "ref:regon": "281566100",
                "operator": "Powiat I\u0142awski",
                "operator:type": "government",
                "amenity": "college",
                "note": "Parent RSPO: 16850"
            }
        },
        {
            "id": 129256,
            "type": "Feature",
            "geometry": {
                "type": "Point",
                "coordinates": [
                    19.56392,
                    53.589849900000004
                ]
            },
            "properties": {
                "ref:rspo": 129256,
                "official_name": "Powiatowy M\u0142odzie\u017cowy Dom Kultury w I\u0142awie",
                "name": "Powiatowy M\u0142odzie\u017cowy Dom Kultury w I\u0142awie",
                "addr:country": "PL",
                "addr:postcode": "14-200",
                "addr:city": "I\u0142awa",
                "addr:street": "Miko\u0142aja Kopernika",
                "addr:housenumber": "8a",
                "addr:teryt:simc": 964650,
                "addr:teryt:sym_ul": 9282,
                "contact:phone": "+48 896491312",
                "contact:email": "zsilawa@powiat-ilawski.pl",
                "contact:website": "http:\/\/www.zsilawa.pl",
                "ref:regon": "362530051",
                "operator": "Powiat I\u0142awski",
                "operator:type": "government",
                "amenity": "community_centre",
                "community_centre:for": "juvenile",
                "note": "Parent RSPO: 16850"
            }
        },
        {
            "id": 17091,
            "type": "Feature",
            "geometry": {
                "type": "Point",
                "coordinates": [
                    19.5629,
                    53.59028
                ]
            },
            "properties": {
                "ref:rspo": 17091,
                "official_name": "Centrum Kszta\u0142cenia Zawodowego Nr 1 w I\u0142awie",
                "name": "Centrum Kszta\u0142cenia Zawodowego Nr 1 w I\u0142awie",
                "addr:country": "PL",
                "addr:postcode": "14-200",
                "addr:city": "I\u0142awa",
                "addr:street": "1 Maja",
                "addr:housenumber": "8a",
                "addr:teryt:simc": 964650,
                "addr:teryt:sym_ul": 11926,
                "contact:phone": "+48 896495085",
                "contact:email": "ckz@powiat-ilawski.pl",
                "contact:website": "http:\/\/www.pckp.net",
                "ref:regon": "519583379",
                "ref:vatin": "PL7441658100",
                "operator": "Powiat I\u0142awski",
                "operator:type": "government",
                "fixme": "w zale\u017cno\u015bci od przedmiotu dzia\u0142alno\u015bci (np. amenity=training + training=*, amenity=dancing_school, amenity=language_school, amenity=music_school) albo amenity=school, amenity=college, albo landuse=education w zale\u017cno\u015bci od tego, jakie plac\u00f3wki wchodz\u0105 w sk\u0142ad zespo\u0142u. Sprawd\u017a, kiedy stosowa\u0107 amenity=* a kiedy landuse=education.",
                "note": "Parent RSPO: 16850"
            }
        },
        {
            "id": 70173,
            "type": "Feature",
            "geometry": {
                "type": "Point",
                "coordinates": [
                    19.5654499,
                    53.59029
                ]
            },
            "properties": {
                "ref:rspo": 70173,
                "official_name": "Centrum Szkoleniowo-Doradcze w I\u0142awie",
                "name": "Centrum Szkoleniowo-Doradcze w I\u0142awie",
                "addr:country": "PL",
                "addr:postcode": "14-200",
                "addr:city": "I\u0142awa",
                "addr:street": "Jana III Sobieskiego",
                "addr:housenumber": "37a",
                "addr:teryt:simc": 964650,
                "addr:teryt:sym_ul": 20431,
                "contact:phone": "+48 896485751",
                "contact:email": "biuro@iig-ilawa.pl",
                "ref:regon": "281441700",
                "operator": "I\u0142awska Izba Gospodarcza",
                "operator:type": "cooperative",
                "fixme": "w zale\u017cno\u015bci od przedmiotu dzia\u0142alno\u015bci (np. amenity=training + training=*, amenity=dancing_school, amenity=language_school, amenity=music_school)"
            }
        },
        {
            "id": 68872,
            "type": "Feature",
            "geometry": {
                "type": "Point",
                "coordinates": [
                    19.54739,
                    53.59222
                ]
            },
            "properties": {
                "ref:rspo": 68872,
                "official_name": "\"Bajkowe Przedszkole w Magicznym Domu\" Niepubliczne Przedszkole",
                "name": "\"Bajkowe Przedszkole w Magicznym Domu\" Niepubliczne Przedszkole",
                "addr:country": "PL",
                "addr:postcode": "14-200",
                "addr:city": "I\u0142awa",
                "addr:street": "Elbl\u0105ska",
                "addr:housenumber": "45",
                "addr:teryt:simc": 964650,
                "addr:teryt:sym_ul": 4758,
                "contact:phone": "+48 781888128",
                "contact:email": "biankopo.biuro@gmail.com",
                "ref:regon": "281441189",
                "ref:vatin": "PL8771181736",
                "operator": "Marian Pokojski",
                "operator:type": "private",
                "amenity": "kindergarten"
            }
        },
        {
            "id": 72364,
            "type": "Feature",
            "geometry": {
                "type": "Point",
                "coordinates": [
                    19.56852,
                    53.59286
                ]
            },
            "properties": {
                "isced:level": "4",
                "ref:rspo": 72364,
                "official_name": "Szko\u0142a Policealna w I\u0142awie",
                "name": "Szko\u0142a Policealna w I\u0142awie",
                "addr:country": "PL",
                "addr:postcode": "14-200",
                "addr:city": "I\u0142awa",
                "addr:street": "Grunwaldzka",
                "addr:housenumber": "13",
                "addr:teryt:simc": 964650,
                "addr:teryt:sym_ul": 6260,
                "contact:phone": "+48 896488910",
                "contact:email": "ilawa@wmzdz.pl",
                "contact:website": "http:\/\/www.szkolailawa.pl",
                "ref:regon": "281445030",
                "ref:vatin": "PL7390100344",
                "operator": "Warmi\u0144sko - Mazurski Zak\u0142ad Doskonalenia Zawodowego W Olsztynie",
                "operator:type": "ngo",
                "amenity": "college"
            }
        },
        {
            "id": 72368,
            "type": "Feature",
            "geometry": {
                "type": "Point",
                "coordinates": [
                    19.56852,
                    53.59283
                ]
            },
            "properties": {
                "isced:level": "3",
                "ref:rspo": 72368,
                "official_name": "Liceum Og\u00f3lnokszta\u0142c\u0105ce dla Doros\u0142ych w I\u0142awie",
                "name": "Liceum Og\u00f3lnokszta\u0142c\u0105ce dla Doros\u0142ych w I\u0142awie",
                "addr:country": "PL",
                "addr:postcode": "14-200",
                "addr:city": "I\u0142awa",
                "addr:street": "Grunwaldzka",
                "addr:housenumber": "13",
                "addr:teryt:simc": 964650,
                "addr:teryt:sym_ul": 6260,
                "contact:phone": "+48 896488910",
                "contact:email": "ilawa@wmzdz.pl",
                "contact:website": "http:\/\/www.szkolailawa.pl",
                "ref:regon": "281442600",
                "ref:vatin": "PL7390100344",
                "operator": "Warmi\u0144sko - Mazurski Zak\u0142ad Doskonalenia Zawodowego W Olsztynie",
                "operator:type": "ngo",
                "amenity": "school"
            }
        },
        {
            "id": 72369,
            "type": "Feature",
            "geometry": {
                "type": "Point",
                "coordinates": [
                    19.56852,
                    53.592800000000004
                ]
            },
            "properties": {
                "ref:rspo": 72369,
                "official_name": "Warmi\u0144sko-Mazurski Zak\u0142ad Doskonalenia Zawodowego w Olsztynie Centrum Edukacji w I\u0142awie",
                "name": "Warmi\u0144sko-Mazurski Zak\u0142ad Doskonalenia Zawodowego w Olsztynie Centrum Edukacji w I\u0142awie",
                "addr:country": "PL",
                "addr:postcode": "14-200",
                "addr:city": "I\u0142awa",
                "addr:street": "Grunwaldzka",
                "addr:housenumber": "13",
                "addr:teryt:simc": 964650,
                "addr:teryt:sym_ul": 6260,
                "contact:phone": "+48 896484181",
                "contact:email": "ilawa@wmzdz.pl",
                "contact:website": "http:\/\/www.szkolailawa.pl",
                "ref:regon": "281454803",
                "operator": "Warmi\u0144sko - Mazurski Zak\u0142ad Doskonalenia Zawodowego W Olsztynie",
                "operator:type": "ngo",
                "fixme": "w zale\u017cno\u015bci od przedmiotu dzia\u0142alno\u015bci (np. amenity=training + training=*, amenity=dancing_school, amenity=language_school, amenity=music_school)"
            }
        },
        {
            "id": 267739,
            "type": "Feature",
            "geometry": {
                "type": "Point",
                "coordinates": [
                    19.56852,
                    53.59277
                ]
            },
            "properties": {
                "isced:level": "1;2",
                "ref:rspo": 267739,
                "official_name": "Szko\u0142a Podstawowa dla Doros\u0142ych w I\u0142awie",
                "name": "Szko\u0142a Podstawowa dla Doros\u0142ych w I\u0142awie",
                "addr:country": "PL",
                "addr:postcode": "14-200",
                "addr:city": "I\u0142awa",
                "addr:street": "Grunwaldzka",
                "addr:housenumber": "13",
                "addr:teryt:simc": 964650,
                "addr:teryt:sym_ul": 6260,
                "contact:phone": "+48 896488910",
                "contact:email": "ilawa@wmzdz.pl",
                "ref:regon": "380576062",
                "ref:vatin": "PL7390100344",
                "operator": "Warmi\u0144sko - Mazurski Zak\u0142ad Doskonalenia Zawodowego W Olsztynie",
                "operator:type": "ngo",
                "amenity": "school"
            }
        },
        {
            "id": 277947,
            "type": "Feature",
            "geometry": {
                "type": "Point",
                "coordinates": [
                    19.56852,
                    53.59274
                ]
            },
            "properties": {
                "isced:level": "3",
                "ref:rspo": 277947,
                "official_name": "Bran\u017cowa Szko\u0142a II Stopnia w I\u0142awie",
                "name": "Bran\u017cowa Szko\u0142a II Stopnia w I\u0142awie",
                "addr:country": "PL",
                "addr:postcode": "14-200",
                "addr:city": "I\u0142awa",
                "addr:street": "Grunwaldzka",
                "addr:housenumber": "13",
                "addr:teryt:simc": 964650,
                "addr:teryt:sym_ul": 6260,
                "contact:phone": "+48 896484181",
                "contact:email": "ilawa@wmzdz.pl",
                "contact:website": "http:\/\/www.szkolailawa.pl",
                "ref:regon": "389693013",
                "ref:vatin": "PL7390100344",
                "operator": "Warmi\u0144sko - Mazurski Zak\u0142ad Doskonalenia Zawodowego W Olsztynie",
                "operator:type": "ngo",
                "amenity": "school"
            }
        },
        {
            "id": 27865,
            "type": "Feature",
            "geometry": {
                "type": "Point",
                "coordinates": [
                    19.57267,
                    53.59437
                ]
            },
            "properties": {
                "ref:rspo": 27865,
                "official_name": "Przedszkole Miejskie Nr 3",
                "name": "Przedszkole Miejskie Nr 3",
                "addr:country": "PL",
                "addr:postcode": "14-200",
                "addr:city": "I\u0142awa",
                "addr:street": "Tadeusza Ko\u015bciuszki",
                "addr:housenumber": "22A",
                "addr:teryt:simc": 964650,
                "addr:teryt:sym_ul": 9582,
                "contact:phone": "+48 896482436",
                "contact:email": "przedszkole3ilawa@wp.pl",
                "contact:website": "http:\/\/pm3ilawa.edupage.org",
                "ref:regon": "511405247",
                "operator": "Gmina Miejska I\u0142awa",
                "operator:type": "government",
                "amenity": "kindergarten"
            }
        },
        {
            "id": 75613,
            "type": "Feature",
            "geometry": {
                "type": "Point",
                "coordinates": [
                    19.57125,
                    53.59511
                ]
            },
            "properties": {
                "ref:rspo": 75613,
                "official_name": "Pa\u0144stwowa Szko\u0142a Muzyczna I St. im. Tadeusza Bairda w I\u0142awie",
                "name": "Pa\u0144stwowa Szko\u0142a Muzyczna I St.",
                "addr:country": "PL",
                "addr:postcode": "14-200",
                "addr:city": "I\u0142awa",
                "addr:street": "Tadeusza Ko\u015bciuszki",
                "addr:housenumber": "18",
                "addr:teryt:simc": 964650,
                "addr:teryt:sym_ul": 9582,
                "contact:phone": "+48 896484029",
                "contact:email": "psmilawa@poczta.onet.pl",
                "contact:website": "http:\/\/baird.edu.pl",
                "ref:regon": "000887888",
                "operator": "Ministerstwo Kultury I Dziedzictwa Narodowego",
                "operator:type": "public",
                "amenity": "music_school"
            }
        },
        {
            "id": 277703,
            "type": "Feature",
            "geometry": {
                "type": "Point",
                "coordinates": [
                    19.57125,
                    53.595079999999996
                ]
            },
            "properties": {
                "isced:level": "3",
                "ref:rspo": 277703,
                "official_name": "I Liceum Og\u00f3lnokszta\u0142c\u0105ce Cn-B im. Polskich Spadochroniarzy w I\u0142awie",
                "name": "I Liceum Og\u00f3lnokszta\u0142c\u0105ce Cn-B",
                "addr:country": "PL",
                "addr:postcode": "14-200",
                "addr:city": "I\u0142awa",
                "addr:street": "Tadeusza Ko\u015bciuszki",
                "addr:housenumber": "18",
                "addr:teryt:simc": 964650,
                "addr:teryt:sym_ul": 9582,
                "contact:phone": "+48 797415453",
                "contact:email": "ilawa@cnb-feniks.edu.pl",
                "contact:website": "http:\/\/www.szkolyfeniks.pl",
                "ref:regon": "389360429",
                "operator": "Jaros\u0142aw Chrobot",
                "operator:type": "private",
                "amenity": "school"
            }
        },
        {
            "id": 129489,
            "type": "Feature",
            "geometry": {
                "type": "Point",
                "coordinates": [
                    19.5716,
                    53.59533
                ]
            },
            "properties": {
                "ref:rspo": 129489,
                "official_name": "Terapeutyczny Punkt Przedszkolny \"Concilio\"",
                "name": "Terapeutyczny Punkt Przedszkolny \"Concilio\"",
                "addr:country": "PL",
                "addr:postcode": "14-200",
                "addr:city": "I\u0142awa",
                "addr:street": "Tadeusza Ko\u015bciuszki",
                "addr:housenumber": "31",
                "addr:door": "27",
                "addr:teryt:simc": 964650,
                "addr:teryt:sym_ul": 9582,
                "contact:phone": "+48 508194439",
                "contact:email": "mg@concilio.edu.pl",
                "contact:website": "http:\/\/www.concilio.edu.pl",
                "ref:regon": "362635815",
                "ref:vatin": "PL7441614462",
                "operator": "Marta G\u00f3rna",
                "operator:type": "private",
                "amenity": "kindergarten"
            }
        },
        {
            "id": 131143,
            "type": "Feature",
            "geometry": {
                "type": "Point",
                "coordinates": [
                    19.56654,
                    53.59606
                ]
            },
            "properties": {
                "isced:level": "3",
                "ref:rspo": 131143,
                "official_name": "Liceum Og\u00f3lnokszta\u0142c\u0105ce dla Doros\u0142ych \"Alfa\" w I\u0142awie",
                "name": "Liceum Og\u00f3lnokszta\u0142c\u0105ce dla Doros\u0142ych \"Alfa\" w I\u0142awie",
                "addr:country": "PL",
                "addr:postcode": "14-200",
                "addr:city": "I\u0142awa",
                "addr:street": "Tadeusza Ko\u015bciuszki",
                "addr:housenumber": "2a",
                "addr:teryt:simc": 964650,
                "addr:teryt:sym_ul": 9582,
                "contact:phone": "+48 665704948",
                "contact:email": "alfailawa@wp.pl",
                "ref:regon": "364973752",
                "operator": "Barbara Antkowiak",
                "operator:type": "private",
                "amenity": "school"
            }
        },
        {
            "id": 262282,
            "type": "Feature",
            "geometry": {
                "type": "Point",
                "coordinates": [
                    19.56654,
                    53.59603
                ]
            },
            "properties": {
                "isced:level": "1;2",
                "ref:rspo": 262282,
                "official_name": "Szko\u0142a Podstawowa Nr 1 im. Miko\u0142aja Kopernika w I\u0142awie",
                "name": "Szko\u0142a Podstawowa Nr 1",
                "addr:country": "PL",
                "addr:postcode": "14-200",
                "addr:city": "I\u0142awa",
                "addr:street": "Tadeusza Ko\u015bciuszki",
                "addr:housenumber": "2A",
                "addr:teryt:simc": 964650,
                "addr:teryt:sym_ul": 9582,
                "contact:phone": "+48 896485018",
                "contact:email": "sp1@sp1.ilawa.pl",
                "contact:website": "http:\/\/www.sp1.ilawa.pl",
                "ref:regon": "367993554",
                "operator": "Gmina Miejska I\u0142awa",
                "operator:type": "government",
                "amenity": "school"
            }
        },
        {
            "id": 17017,
            "type": "Feature",
            "geometry": {
                "type": "Point",
                "coordinates": [
                    19.57034,
                    53.59607
                ]
            },
            "properties": {
                "ref:rspo": 17017,
                "official_name": "Zesp\u00f3\u0142 Plac\u00f3wek Szkolno-Wychowawczych w I\u0142awie",
                "name": "Zesp\u00f3\u0142 Plac\u00f3wek Szkolno-Wychowawczych w I\u0142awie",
                "addr:country": "PL",
                "addr:postcode": "14-200",
                "addr:city": "I\u0142awa",
                "addr:street": "Tadeusza Ko\u015bciuszki",
                "addr:housenumber": "23a",
                "addr:teryt:simc": 964650,
                "addr:teryt:sym_ul": 9582,
                "contact:phone": "+48 896482553",
                "contact:email": "sekretariat@zpsw.ilawa.pl",
                "contact:website": "http:\/\/www.zpswilawa.witrynaszkolna.pl",
                "ref:regon": "280055395",
                "ref:vatin": "PL7441473205",
                "operator": "Powiat I\u0142awski",
                "operator:type": "government",
                "landuse": "education",
                "fixme": "amenity=school, amenity=college albo landuse=education w zale\u017cno\u015bci od tego, jakie plac\u00f3wki wchodz\u0105 w sk\u0142ad zespo\u0142u. Sprawd\u017a, kiedy stosowa\u0107 amenity=* a kiedy landuse=education.",
                "note": "Children RSPO: 69554;82397"
            }
        },
        {
            "id": 82397,
            "type": "Feature",
            "geometry": {
                "type": "Point",
                "coordinates": [
                    19.57034,
                    53.596039999999995
                ]
            },
            "properties": {
                "ref:rspo": 82397,
                "official_name": "Specjalny O\u015brodek Szkolno-Wychowawczy im. Janusza Korczaka w I\u0142awie",
                "name": "Specjalny O\u015brodek Szkolno-Wychowawczy",
                "addr:country": "PL",
                "addr:postcode": "14-200",
                "addr:city": "I\u0142awa",
                "addr:street": "Tadeusza Ko\u015bciuszki",
                "addr:housenumber": "23a",
                "addr:teryt:simc": 964650,
                "addr:teryt:sym_ul": 9582,
                "contact:phone": "+48 896482553",
                "contact:email": "sekretariat@zpsw.ilawa.pl",
                "contact:website": "http:\/\/www.zpswilawa.witrynaszkolna.pl",
                "ref:regon": "510934311",
                "operator": "Powiat I\u0142awski",
                "operator:type": "government",
                "amenity": "school",
                "note": "Children RSPO: 69547;69548;69553Parent RSPO: 17017"
            }
        },
        {
            "id": 69547,
            "type": "Feature",
            "geometry": {
                "type": "Point",
                "coordinates": [
                    19.57034,
                    53.59601
                ]
            },
            "properties": {
                "isced:level": "1;2",
                "ref:rspo": 69547,
                "official_name": "Szko\u0142a Podstawowa w Specjalnym O\u015brodku Szkolno-Wychowawczym im. Janusza Korczaka w I\u0142awie",
                "name": "Szko\u0142a Podstawowa w Specjalnym O\u015brodku Szkolno-Wychowawczym",
                "addr:country": "PL",
                "addr:postcode": "14-200",
                "addr:city": "I\u0142awa",
                "addr:street": "Tadeusza Ko\u015bciuszki",
                "addr:housenumber": "23a",
                "addr:teryt:simc": 964650,
                "addr:teryt:sym_ul": 9582,
                "contact:phone": "+48 896482553",
                "contact:email": "sekretariat@zpsw.ilawa.pl",
                "contact:website": "http:\/\/www.zpswilawa.witrynaszkolna.pl",
                "ref:regon": "519557123",
                "operator": "Powiat I\u0142awski",
                "operator:type": "government",
                "amenity": "school",
                "note": "Parent RSPO: 82397"
            }
        },
        {
            "id": 69548,
            "type": "Feature",
            "geometry": {
                "type": "Point",
                "coordinates": [
                    19.57034,
                    53.59598
                ]
            },
            "properties": {
                "isced:level": "3",
                "ref:rspo": 69548,
                "official_name": "Bran\u017cowa Szko\u0142a I Stopnia w Specjalnym O\u015brodku Szkolno-Wychowawczym im. Janusza Korczaka w I\u0142awie",
                "name": "Bran\u017cowa Szko\u0142a I Stopnia w Specjalnym O\u015brodku Szkolno-Wychowawczym",
                "addr:country": "PL",
                "addr:postcode": "14-200",
                "addr:city": "I\u0142awa",
                "addr:street": "Tadeusza Ko\u015bciuszki",
                "addr:housenumber": "23a",
                "addr:teryt:simc": 964650,
                "addr:teryt:sym_ul": 9582,
                "contact:phone": "+48 896482553",
                "contact:email": "sekretariat@zpsw.ilawa.pl",
                "contact:website": "http:\/\/www.zpswilawa.witrynaszkolna.pl",
                "ref:regon": "519557130",
                "operator": "Powiat I\u0142awski",
                "operator:type": "government",
                "amenity": "school",
                "note": "Parent RSPO: 82397"
            }
        },
        {
            "id": 69553,
            "type": "Feature",
            "geometry": {
                "type": "Point",
                "coordinates": [
                    19.57034,
                    53.595949999999995
                ]
            },
            "properties": {
                "ref:rspo": 69553,
                "official_name": "Szko\u0142a Specjalna Przysposabiaj\u0105ca Do Pracy w Specjalnym O\u015brodku Szkolno-Wychowawczym im. Janusza Korczaka w I\u0142awie",
                "name": "Szko\u0142a Specjalna Przysposabiaj\u0105ca Do Pracy w Specjalnym O\u015brodku Szkolno-Wychowawczym",
                "addr:country": "PL",
                "addr:postcode": "14-200",
                "addr:city": "I\u0142awa",
                "addr:street": "Tadeusza Ko\u015bciuszki",
                "addr:housenumber": "23a",
                "addr:teryt:simc": 964650,
                "addr:teryt:sym_ul": 9582,
                "contact:phone": "+48 896482553",
                "contact:email": "sekretariat@zpsw.ilawa.pl",
                "contact:website": "http:\/\/www.zpswilawa.witrynaszkolna.pl",
                "ref:regon": "280080571",
                "operator": "Powiat I\u0142awski",
                "operator:type": "government",
                "amenity": "school",
                "note": "Parent RSPO: 82397"
            }
        },
        {
            "id": 17016,
            "type": "Feature",
            "geometry": {
                "type": "Point",
                "coordinates": [
                    19.55771,
                    53.59651
                ]
            },
            "properties": {
                "ref:rspo": 17016,
                "official_name": "Zesp\u00f3\u0142 Szk\u00f3\u0142 im. Konstytucji 3 Maja w I\u0142awie",
                "name": "Zesp\u00f3\u0142 Szk\u00f3\u0142",
                "addr:country": "PL",
                "addr:postcode": "14-200",
                "addr:city": "I\u0142awa",
                "addr:street": "Ludwika Mieros\u0142awskiego",
                "addr:housenumber": "10",
                "addr:teryt:simc": 964650,
                "addr:teryt:sym_ul": 12810,
                "contact:phone": "+48 896448360",
                "contact:email": "zsilawa@poczta.onet.pl",
                "contact:website": "http:\/\/www.zs-ilawa.pl",
                "ref:regon": "000191589",
                "ref:vatin": "PL7440005057",
                "operator": "Powiat I\u0142awski",
                "operator:type": "government",
                "landuse": "education",
                "fixme": "amenity=school, amenity=college albo landuse=education w zale\u017cno\u015bci od tego, jakie plac\u00f3wki wchodz\u0105 w sk\u0142ad zespo\u0142u. Sprawd\u017a, kiedy stosowa\u0107 amenity=* a kiedy landuse=education.",
                "note": "Children RSPO: 69556;69563;69565;69568;69570"
            }
        },
        {
            "id": 113559,
            "type": "Feature",
            "geometry": {
                "type": "Point",
                "coordinates": [
                    19.55771,
                    53.59648
                ]
            },
            "properties": {
                "ref:rspo": 113559,
                "official_name": "Firma Szkoleniowa \"Zawdor\"",
                "name": "Firma Szkoleniowa \"Zawdor\"",
                "addr:country": "PL",
                "addr:postcode": "14-200",
                "addr:city": "I\u0142awa",
                "addr:street": "Ludwika Mieros\u0142awskiego",
                "addr:housenumber": "10",
                "addr:teryt:simc": 964650,
                "addr:teryt:sym_ul": 12810,
                "contact:email": "zawdor.szkolenia@wp.pl",
                "ref:regon": "281487317",
                "operator": "Zofia Fota",
                "operator:type": "private",
                "fixme": "w zale\u017cno\u015bci od przedmiotu dzia\u0142alno\u015bci (np. amenity=training + training=*, amenity=dancing_school, amenity=language_school, amenity=music_school)"
            }
        },
        {
            "id": 69556,
            "type": "Feature",
            "geometry": {
                "type": "Point",
                "coordinates": [
                    19.55771,
                    53.596450000000004
                ]
            },
            "properties": {
                "ref:rspo": 69556,
                "official_name": "Centrum Kszta\u0142cenia Zawodowego Nr 2 w I\u0142awie",
                "name": "Centrum Kszta\u0142cenia Zawodowego Nr 2 w I\u0142awie",
                "addr:country": "PL",
                "addr:postcode": "14-200",
                "addr:city": "I\u0142awa",
                "addr:street": "Ludwika Mieros\u0142awskiego",
                "addr:housenumber": "10",
                "addr:teryt:simc": 964650,
                "addr:teryt:sym_ul": 12810,
                "contact:phone": "+48 896488708",
                "contact:email": "odidz.ilawa@wp.pl",
                "ref:regon": "519456310",
                "operator": "Powiat I\u0142awski",
                "operator:type": "government",
                "fixme": "w zale\u017cno\u015bci od przedmiotu dzia\u0142alno\u015bci (np. amenity=training + training=*, amenity=dancing_school, amenity=language_school, amenity=music_school) albo amenity=school, amenity=college, albo landuse=education w zale\u017cno\u015bci od tego, jakie plac\u00f3wki wchodz\u0105 w sk\u0142ad zespo\u0142u. Sprawd\u017a, kiedy stosowa\u0107 amenity=* a kiedy landuse=education.",
                "note": "Parent RSPO: 17016"
            }
        },
        {
            "id": 69563,
            "type": "Feature",
            "geometry": {
                "type": "Point",
                "coordinates": [
                    19.55771,
                    53.59642
                ]
            },
            "properties": {
                "isced:level": "3",
                "ref:rspo": 69563,
                "official_name": "Liceum Og\u00f3lnokszta\u0142c\u0105ce dla Doros\u0142ych",
                "name": "Liceum Og\u00f3lnokszta\u0142c\u0105ce dla Doros\u0142ych",
                "addr:country": "PL",
                "addr:postcode": "14-200",
                "addr:city": "I\u0142awa",
                "addr:street": "Ludwika Mieros\u0142awskiego",
                "addr:housenumber": "10",
                "addr:teryt:simc": 964650,
                "addr:teryt:sym_ul": 12810,
                "contact:phone": "+48 896482061",
                "contact:email": "zsilawa@poczta.onet.pl",
                "contact:website": "http:\/\/www.zs-ilawa.pl",
                "ref:regon": "519456221",
                "operator": "Powiat I\u0142awski",
                "operator:type": "government",
                "amenity": "school",
                "note": "Parent RSPO: 17016"
            }
        },
        {
            "id": 69565,
            "type": "Feature",
            "geometry": {
                "type": "Point",
                "coordinates": [
                    19.55771,
                    53.59639
                ]
            },
            "properties": {
                "isced:level": "3",
                "ref:rspo": 69565,
                "official_name": "Bran\u017cowa Szko\u0142a I Stopnia Nr 2",
                "name": "Bran\u017cowa Szko\u0142a I Stopnia Nr 2",
                "addr:country": "PL",
                "addr:postcode": "14-200",
                "addr:city": "I\u0142awa",
                "addr:street": "Ludwika Mieros\u0142awskiego",
                "addr:housenumber": "10",
                "addr:teryt:simc": 964650,
                "addr:teryt:sym_ul": 12810,
                "contact:phone": "+48 896448360",
                "contact:email": "zsilawa@poczta.onet.pl",
                "ref:regon": "519496551",
                "operator": "Powiat I\u0142awski",
                "operator:type": "government",
                "amenity": "school",
                "note": "Parent RSPO: 17016"
            }
        },
        {
            "id": 69568,
            "type": "Feature",
            "geometry": {
                "type": "Point",
                "coordinates": [
                    19.55771,
                    53.596360000000004
                ]
            },
            "properties": {
                "isced:level": "3",
                "ref:rspo": 69568,
                "official_name": "Iii Liceum Og\u00f3lnokszta\u0142c\u0105ce",
                "name": "Iii Liceum Og\u00f3lnokszta\u0142c\u0105ce",
                "addr:country": "PL",
                "addr:postcode": "14-200",
                "addr:city": "I\u0142awa",
                "addr:street": "Ludwika Mieros\u0142awskiego",
                "addr:housenumber": "10",
                "addr:teryt:simc": 964650,
                "addr:teryt:sym_ul": 12810,
                "contact:phone": "+48 896448360",
                "contact:email": "zsilawa@poczta.onet.pl",
                "contact:website": "http:\/\/www.zs-ilawa.pl",
                "ref:regon": "519496568",
                "operator": "Powiat I\u0142awski",
                "operator:type": "government",
                "amenity": "school",
                "note": "Parent RSPO: 17016"
            }
        },
        {
            "id": 69570,
            "type": "Feature",
            "geometry": {
                "type": "Point",
                "coordinates": [
                    19.55771,
                    53.59633
                ]
            },
            "properties": {
                "isced:level": "3",
                "ref:rspo": 69570,
                "official_name": "Technikum Nr 2",
                "name": "Technikum Nr 2",
                "addr:country": "PL",
                "addr:postcode": "14-200",
                "addr:city": "I\u0142awa",
                "addr:street": "Ludwika Mieros\u0142awskiego",
                "addr:housenumber": "10",
                "addr:teryt:simc": 964650,
                "addr:teryt:sym_ul": 12810,
                "contact:phone": "+48 896448360",
                "contact:email": "zsilawa@poczta.onet.pl",
                "contact:website": "http:\/\/www.zs-ilawa.pl",
                "ref:regon": "519496545",
                "operator": "Powiat I\u0142awski",
                "operator:type": "government",
                "amenity": "school",
                "note": "Parent RSPO: 17016"
            }
        },
        {
            "id": 27862,
            "type": "Feature",
            "geometry": {
                "type": "Point",
                "coordinates": [
                    19.56191,
                    53.5966499
                ]
            },
            "properties": {
                "isced:level": "1;2",
                "ref:rspo": 27862,
                "official_name": "Szko\u0142a Podstawowa Nr 3 Z Oddzia\u0142ami Integracyjnymi im. Polskich Olimpijczyk\u00f3w w I\u0142awie",
                "name": "Szko\u0142a Podstawowa Nr 3 Z Oddzia\u0142ami Integracyjnymi",
                "addr:country": "PL",
                "addr:postcode": "14-200",
                "addr:city": "I\u0142awa",
                "addr:street": "Niepodleg\u0142o\u015bci",
                "addr:housenumber": "11A",
                "addr:teryt:simc": 964650,
                "addr:teryt:sym_ul": 14203,
                "contact:phone": "+48 896485071",
                "contact:email": "sekretariatssp3@wp.pl",
                "contact:website": "http:\/\/sp3.ilawa.pl",
                "ref:regon": "000716566",
                "operator": "Gmina Miejska I\u0142awa",
                "operator:type": "government",
                "amenity": "school"
            }
        },
        {
            "id": 69554,
            "type": "Feature",
            "geometry": {
                "type": "Point",
                "coordinates": [
                    19.5570099,
                    53.59708
                ]
            },
            "properties": {
                "ref:rspo": 69554,
                "official_name": "Szkolne Schronisko M\u0142odzie\u017cowe w I\u0142awie",
                "name": "Szkolne Schronisko M\u0142odzie\u017cowe w I\u0142awie",
                "addr:country": "PL",
                "addr:postcode": "14-200",
                "addr:city": "I\u0142awa",
                "addr:street": "Ludwika Mieros\u0142awskiego",
                "addr:housenumber": "10a",
                "addr:teryt:simc": 964650,
                "addr:teryt:sym_ul": 12810,
                "contact:phone": "+48 896486464",
                "contact:email": "sekretariat@zpsw.ilawa.pl",
                "ref:regon": "510934357",
                "ref:vatin": "PL7441593458",
                "operator": "Powiat I\u0142awski",
                "operator:type": "government",
                "tourism": "hostel",
                "note": "Parent RSPO: 17017"
            }
        },
        {
            "id": 273802,
            "type": "Feature",
            "geometry": {
                "type": "Point",
                "coordinates": [
                    19.58022,
                    53.59747
                ]
            },
            "properties": {
                "ref:rspo": 273802,
                "official_name": "Niepubliczne Przedszkole \"Zielona \u017byrafa\"",
                "name": "Niepubliczne Przedszkole \"Zielona \u017byrafa\"",
                "addr:country": "PL",
                "addr:postcode": "14-200",
                "addr:city": "I\u0142awa",
                "addr:street": "Zielona",
                "addr:housenumber": "81",
                "addr:teryt:simc": 964650,
                "addr:teryt:sym_ul": 26081,
                "contact:email": "zielona.zyrafa@o2.pl",
                "ref:regon": "384660440",
                "operator": "Fundacja 2U",
                "operator:type": "ngo",
                "amenity": "kindergarten"
            }
        },
        {
            "id": 26077,
            "type": "Feature",
            "geometry": {
                "type": "Point",
                "coordinates": [
                    19.55282,
                    53.59775
                ]
            },
            "properties": {
                "ref:rspo": 26077,
                "official_name": "Zesp\u00f3\u0142 Szk\u00f3\u0142 Og\u00f3lnokszta\u0142c\u0105cych im. Stefana \u017beromskiego w I\u0142awie",
                "name": "Zesp\u00f3\u0142 Szk\u00f3\u0142 Og\u00f3lnokszta\u0142c\u0105cych",
                "addr:country": "PL",
                "addr:postcode": "14-200",
                "addr:city": "I\u0142awa",
                "addr:street": "Henryka Sienkiewicza",
                "addr:housenumber": "1",
                "addr:teryt:simc": 964650,
                "addr:teryt:sym_ul": 19834,
                "contact:phone": "+48 896485696",
                "contact:email": "liceumilawa@poczta.onet.pl",
                "contact:website": "http:\/\/www.zsog.ilawa.pl",
                "ref:regon": "511405187",
                "ref:vatin": "PL7441026860",
                "operator": "Powiat I\u0142awski",
                "operator:type": "government",
                "landuse": "education",
                "fixme": "amenity=school, amenity=college albo landuse=education w zale\u017cno\u015bci od tego, jakie plac\u00f3wki wchodz\u0105 w sk\u0142ad zespo\u0142u. Sprawd\u017a, kiedy stosowa\u0107 amenity=* a kiedy landuse=education.",
                "note": "Children RSPO: 69493;69508;69511"
            }
        },
        {
            "id": 72389,
            "type": "Feature",
            "geometry": {
                "type": "Point",
                "coordinates": [
                    19.55282,
                    53.597719999999995
                ]
            },
            "properties": {
                "isced:level": "4",
                "ref:rspo": 72389,
                "official_name": "Szko\u0142a Policealna Medyczna w I\u0142awie",
                "name": "Szko\u0142a Policealna Medyczna w I\u0142awie",
                "addr:country": "PL",
                "addr:postcode": "14-200",
                "addr:city": "I\u0142awa",
                "addr:street": "Henryka Sienkiewicza",
                "addr:housenumber": "1",
                "addr:teryt:simc": 964650,
                "addr:teryt:sym_ul": 19834,
                "contact:phone": "+48 896485696",
                "contact:email": "studiumstopka@wp.pl",
                "contact:website": "http:\/\/www.szkoly.stopkapress.com.pl",
                "ref:regon": "281444160",
                "operator": "Spo\u0142eczne Stowarzyszenie Prasoznawcze \"Stopka\" Im. Stanis\u0142awa Zag\u00f3rskiego W \u0141om\u017cy",
                "operator:type": "ngo",
                "amenity": "college"
            }
        },
        {
            "id": 69493,
            "type": "Feature",
            "geometry": {
                "type": "Point",
                "coordinates": [
                    19.55282,
                    53.59769
                ]
            },
            "properties": {
                "ref:rspo": 69493,
                "official_name": "Mi\u0119dzyszkolny O\u015brodek Sportowy w I\u0142awie",
                "name": "Mi\u0119dzyszkolny O\u015brodek Sportowy w I\u0142awie",
                "addr:country": "PL",
                "addr:postcode": "14-200",
                "addr:city": "I\u0142awa",
                "addr:street": "Henryka Sienkiewicza",
                "addr:housenumber": "1",
                "addr:teryt:simc": 964650,
                "addr:teryt:sym_ul": 19834,
                "contact:phone": "+48 896485696",
                "contact:email": "liceumilawa@poczta.onet.pl",
                "contact:website": "http:\/\/www.zsog.ilawa.pl",
                "ref:regon": "511346295",
                "operator": "Powiat I\u0142awski",
                "operator:type": "government",
                "leisure": "sports_centre",
                "note": "Parent RSPO: 26077"
            }
        },
        {
            "id": 69508,
            "type": "Feature",
            "geometry": {
                "type": "Point",
                "coordinates": [
                    19.55282,
                    53.59766
                ]
            },
            "properties": {
                "isced:level": "3",
                "ref:rspo": 69508,
                "official_name": "I Liceum Og\u00f3lnokszta\u0142c\u0105ce im. Stefana \u017beromskiego",
                "name": "I Liceum Og\u00f3lnokszta\u0142c\u0105ce",
                "addr:country": "PL",
                "addr:postcode": "14-200",
                "addr:city": "I\u0142awa",
                "addr:street": "Henryka Sienkiewicza",
                "addr:housenumber": "1",
                "addr:teryt:simc": 964650,
                "addr:teryt:sym_ul": 19834,
                "contact:phone": "+48 896485696",
                "contact:email": "liceumilawa@poczta.onet.pl",
                "contact:website": "http:\/\/www.zsog.ilawa.pl",
                "ref:regon": "519460079",
                "operator": "Powiat I\u0142awski",
                "operator:type": "government",
                "amenity": "school",
                "note": "Parent RSPO: 26077"
            }
        },
        {
            "id": 69511,
            "type": "Feature",
            "geometry": {
                "type": "Point",
                "coordinates": [
                    19.55282,
                    53.597629999999995
                ]
            },
            "properties": {
                "isced:level": "4",
                "ref:rspo": 69511,
                "official_name": "Szko\u0142a Policealna Nr 1",
                "name": "Szko\u0142a Policealna Nr 1",
                "addr:country": "PL",
                "addr:postcode": "14-200",
                "addr:city": "I\u0142awa",
                "addr:street": "Henryka Sienkiewicza",
                "addr:housenumber": "1",
                "addr:teryt:simc": 964650,
                "addr:teryt:sym_ul": 19834,
                "contact:phone": "+48 896485696",
                "contact:email": "liceumilawa@poczta.onet.pl",
                "ref:regon": "519631010",
                "operator": "Powiat I\u0142awski",
                "operator:type": "government",
                "amenity": "college",
                "note": "Parent RSPO: 26077"
            }
        },
        {
            "id": 128664,
            "type": "Feature",
            "geometry": {
                "type": "Point",
                "coordinates": [
                    19.55794,
                    53.5981
                ]
            },
            "properties": {
                "ref:rspo": 128664,
                "official_name": "Przedszkole Niepubliczne \"Majka\" Z Oddzia\u0142ami Integracyjnymi",
                "name": "Przedszkole Niepubliczne \"Majka\" Z Oddzia\u0142ami Integracyjnymi",
                "addr:country": "PL",
                "addr:postcode": "14-200",
                "addr:city": "I\u0142awa",
                "addr:street": "Ludwika Mieros\u0142awskiego",
                "addr:housenumber": "6",
                "addr:teryt:simc": 964650,
                "addr:teryt:sym_ul": 12810,
                "contact:phone": "+48 893070270",
                "contact:email": "m.przybyszewska@fundacjawm.pl",
                "ref:regon": "362346643",
                "ref:vatin": "PL7441692752",
                "operator": "Fundacja Rozwoju Warmii I Mazur",
                "operator:type": "ngo",
                "amenity": "kindergarten"
            }
        },
        {
            "id": 121484,
            "type": "Feature",
            "geometry": {
                "type": "Point",
                "coordinates": [
                    19.56362,
                    53.60034
                ]
            },
            "properties": {
                "ref:rspo": 121484,
                "official_name": "Przedszkole Niepubliczne \"Mali Odkrywcy\" Marzena Witkowska",
                "name": "Przedszkole Niepubliczne \"Mali Odkrywcy\" Marzena Witkowska",
                "addr:country": "PL",
                "addr:postcode": "14-200",
                "addr:city": "I\u0142awa",
                "addr:street": "Norberta Barlickiego",
                "addr:housenumber": "6",
                "addr:teryt:simc": 964650,
                "addr:teryt:sym_ul": 763,
                "contact:phone": "+48 698558876",
                "contact:email": "herubinek2609@o2.pl",
                "ref:regon": "281559360",
                "operator": "Marzena Witkowska",
                "operator:type": "private",
                "amenity": "kindergarten"
            }
        },
        {
            "id": 49242,
            "type": "Feature",
            "geometry": {
                "type": "Point",
                "coordinates": [
                    19.56377,
                    53.60335
                ]
            },
            "properties": {
                "ref:rspo": 49242,
                "official_name": "Przedszkole Miejskie Nr 4 im. Chatka Przyjaci\u00f3\u0142 Kubusia Puchatka",
                "name": "Przedszkole Miejskie Nr 4",
                "addr:country": "PL",
                "addr:postcode": "14-200",
                "addr:city": "I\u0142awa",
                "addr:street": "Jaros\u0142awa D\u0105browskiego",
                "addr:housenumber": "17B",
                "addr:teryt:simc": 964650,
                "addr:teryt:sym_ul": 3687,
                "contact:phone": "+48 896483601",
                "contact:email": "przedszkole-ilawa@wp.pl",
                "contact:website": "http:\/\/przedszkole-ilawa.edu.pl",
                "ref:regon": "511405260",
                "operator": "Gmina Miejska I\u0142awa",
                "operator:type": "government",
                "amenity": "kindergarten"
            }
        },
        {
            "id": 27869,
            "type": "Feature",
            "geometry": {
                "type": "Point",
                "coordinates": [
                    19.56295,
                    53.60626
                ]
            },
            "properties": {
                "ref:rspo": 27869,
                "official_name": "Niepubliczne Przedszkole \"Pluszak\"",
                "name": "Niepubliczne Przedszkole \"Pluszak\"",
                "addr:country": "PL",
                "addr:postcode": "14-200",
                "addr:city": "I\u0142awa",
                "addr:street": "Genera\u0142a W\u0142adys\u0142awa Sikorskiego",
                "addr:housenumber": "1",
                "addr:teryt:simc": 964650,
                "addr:teryt:sym_ul": 19907,
                "contact:phone": "+48 661087379",
                "contact:email": "przedszkole@pluszak.ilawa.pl",
                "contact:website": "http:\/\/pluszak.ilawa.pl",
                "ref:regon": "281435473",
                "ref:vatin": "PL8771393970",
                "operator": "\"Humdrew Sp\u00f3\u0142ka Z Ograniczon\u0105 Odpowiedzialno\u015bci\u0105\"",
                "operator:type": "private",
                "amenity": "kindergarten"
            }
        }
    ]
}