{
    "type": "FeatureCollection",
    "features": [
        {
            "id": 29159,
            "type": "Feature",
            "geometry": {
                "type": "Point",
                "coordinates": [
                    19.2723033,
                    53.553897
                ]
            },
            "properties": {
                "isced:level": "1;2",
                "ref:rspo": 29159,
                "official_name": "Szko\u0142a Podstawowa w Goryniu",
                "name": "Szko\u0142a Podstawowa w Goryniu",
                "addr:postcode": "14-220",
                "addr:place": "Gory\u0144",
                "addr:housenumber": "88",
                "addr:teryt:simc": 150751,
                "phone": "+48 552756204",
                "email": "szkola.goryn@wp.pl",
                "ref:regon": "001190712",
                "ref:vatin": "PL7441605210",
                "operator": "Gmina Kisielice",
                "operator:type": "government",
                "amenity": "school"
            }
        },
        {
            "id": 55176,
            "type": "Feature",
            "geometry": {
                "type": "Point",
                "coordinates": [
                    19.25846,
                    53.60687
                ]
            },
            "properties": {
                "ref:rspo": 55176,
                "official_name": "Przedszkole w Kisielicach",
                "name": "Przedszkole w Kisielicach",
                "addr:postcode": "14-220",
                "addr:city": "Kisielice",
                "addr:street": "Jagiello\u0144ska",
                "addr:housenumber": "10",
                "addr:teryt:simc": 932749,
                "addr:teryt:sym_ul": 7029,
                "phone": "+48 552756038",
                "email": "zskisielice@kisielice.pl",
                "ref:regon": "519455055",
                "ref:vatin": "PL7441605204",
                "operator": "Gmina Kisielice",
                "operator:type": "government",
                "amenity": "kindergarten",
                "note": "Parent RSPO: 29166"
            }
        },
        {
            "id": 29166,
            "type": "Feature",
            "geometry": {
                "type": "Point",
                "coordinates": [
                    19.26018,
                    53.60827
                ]
            },
            "properties": {
                "ref:rspo": 29166,
                "official_name": "Zesp\u00f3\u0142 Szk\u00f3\u0142 w Kisielicach",
                "name": "Zesp\u00f3\u0142 Szk\u00f3\u0142 w Kisielicach",
                "addr:postcode": "14-220",
                "addr:city": "Kisielice",
                "addr:street": "Aleja Wojska Polskiego",
                "addr:housenumber": "2",
                "addr:teryt:simc": 932749,
                "addr:teryt:sym_ul": 33764,
                "phone": "+48 552756038",
                "email": "sekretariat@zs.kisielice.pl",
                "ref:regon": "510928859",
                "ref:vatin": "PL7441605204",
                "operator": "Gmina Kisielice",
                "operator:type": "government",
                "landuse": "education",
                "fixme": "amenity=school, amenity=college albo landuse=education w zale\u017cno\u015bci od tego, jakie plac\u00f3wki wchodz\u0105 w sk\u0142ad zespo\u0142u. Sprawd\u017a, kiedy stosowa\u0107 amenity=* a kiedy landuse=education.",
                "note": "Children RSPO: 55167;55176"
            }
        },
        {
            "id": 55167,
            "type": "Feature",
            "geometry": {
                "type": "Point",
                "coordinates": [
                    19.26018,
                    53.608239999999995
                ]
            },
            "properties": {
                "isced:level": "1;2",
                "ref:rspo": 55167,
                "official_name": "Szko\u0142a Podstawowa im. Henryka Sienkiewicza",
                "name": "Szko\u0142a Podstawowa",
                "addr:postcode": "14-220",
                "addr:city": "Kisielice",
                "addr:street": "Aleja Wojska Polskiego",
                "addr:housenumber": "2",
                "addr:teryt:simc": 932749,
                "addr:teryt:sym_ul": 33764,
                "phone": "+48 552756038",
                "email": "sekretariat@zs.kisielice.pl",
                "ref:regon": "519455026",
                "ref:vatin": "PL7441605204",
                "operator": "Gmina Kisielice",
                "operator:type": "government",
                "amenity": "school",
                "note": "Parent RSPO: 29166"
            }
        },
        {
            "id": 10051,
            "type": "Feature",
            "geometry": {
                "type": "Point",
                "coordinates": [
                    19.257,
                    53.60936
                ]
            },
            "properties": {
                "ref:rspo": 10051,
                "official_name": "Zesp\u00f3\u0142 Szk\u00f3\u0142 Rolniczych im. Heleny I Stanis\u0142awa Sierakowskich w Kisielicach",
                "name": "Zesp\u00f3\u0142 Szk\u00f3\u0142 Rolniczych",
                "addr:postcode": "14-220",
                "addr:city": "Kisielice",
                "addr:street": "Ignacego Daszy\u0144skiego",
                "addr:housenumber": "12",
                "addr:teryt:simc": 932749,
                "addr:teryt:sym_ul": 3635,
                "phone": "+48 552756030",
                "email": "kisielicerol@pro.onet.pl",
                "ref:regon": "000095348",
                "ref:vatin": "PL5811488481",
                "operator": "Powiat I\u0142awski",
                "operator:type": "government",
                "landuse": "education",
                "fixme": "amenity=school, amenity=college albo landuse=education w zale\u017cno\u015bci od tego, jakie plac\u00f3wki wchodz\u0105 w sk\u0142ad zespo\u0142u. Sprawd\u017a, kiedy stosowa\u0107 amenity=* a kiedy landuse=education.",
                "note": "Children RSPO: 69522;69523;69524;69526;82395"
            }
        },
        {
            "id": 69522,
            "type": "Feature",
            "geometry": {
                "type": "Point",
                "coordinates": [
                    19.257,
                    53.60933
                ]
            },
            "properties": {
                "isced:level": "3",
                "ref:rspo": 69522,
                "official_name": "Bran\u017cowa Szko\u0142a I Stopnia",
                "name": "Bran\u017cowa Szko\u0142a I Stopnia",
                "addr:postcode": "14-220",
                "addr:city": "Kisielice",
                "addr:street": "Ignacego Daszy\u0144skiego",
                "addr:housenumber": "12",
                "addr:teryt:simc": 932749,
                "addr:teryt:sym_ul": 3635,
                "phone": "+48 552756030",
                "email": "kisielicerol@pro.onet.pl",
                "website": "http:\/\/www.zsr-kisielice.pl",
                "ref:regon": "519504807",
                "operator": "Powiat I\u0142awski",
                "operator:type": "government",
                "amenity": "school",
                "note": "Parent RSPO: 10051"
            }
        },
        {
            "id": 69523,
            "type": "Feature",
            "geometry": {
                "type": "Point",
                "coordinates": [
                    19.257,
                    53.609300000000005
                ]
            },
            "properties": {
                "isced:level": "3",
                "ref:rspo": 69523,
                "official_name": "Liceum Og\u00f3lnokszta\u0142c\u0105ce",
                "name": "Liceum Og\u00f3lnokszta\u0142c\u0105ce",
                "addr:postcode": "14-220",
                "addr:city": "Kisielice",
                "addr:street": "Ignacego Daszy\u0144skiego",
                "addr:housenumber": "12",
                "addr:teryt:simc": 932749,
                "addr:teryt:sym_ul": 3635,
                "phone": "+48 552756030",
                "email": "kisielicerol@pro.onet.pl",
                "website": "http:\/\/www.zsr-kisielice.pl",
                "ref:regon": "281136888",
                "operator": "Powiat I\u0142awski",
                "operator:type": "government",
                "amenity": "school",
                "note": "Parent RSPO: 10051"
            }
        },
        {
            "id": 69524,
            "type": "Feature",
            "geometry": {
                "type": "Point",
                "coordinates": [
                    19.257,
                    53.60927
                ]
            },
            "properties": {
                "isced:level": "3",
                "ref:rspo": 69524,
                "official_name": "Technikum",
                "name": "Technikum",
                "addr:postcode": "14-220",
                "addr:city": "Kisielice",
                "addr:street": "Ignacego Daszy\u0144skiego",
                "addr:housenumber": "12",
                "addr:teryt:simc": 932749,
                "addr:teryt:sym_ul": 3635,
                "phone": "+48 552756030",
                "email": "kisielicerol@pro.onet.pl",
                "website": "http:\/\/www.zsr-kisielice.pl",
                "ref:regon": "519504799",
                "operator": "Powiat I\u0142awski",
                "operator:type": "government",
                "amenity": "school",
                "note": "Parent RSPO: 10051"
            }
        },
        {
            "id": 69526,
            "type": "Feature",
            "geometry": {
                "type": "Point",
                "coordinates": [
                    19.257,
                    53.60924
                ]
            },
            "properties": {
                "isced:level": "4",
                "ref:rspo": 69526,
                "official_name": "Szko\u0142a Policealna",
                "name": "Szko\u0142a Policealna",
                "addr:postcode": "14-220",
                "addr:city": "Kisielice",
                "addr:street": "Ignacego Daszy\u0144skiego",
                "addr:housenumber": "12",
                "addr:teryt:simc": 932749,
                "addr:teryt:sym_ul": 3635,
                "phone": "+48 552756030",
                "email": "kisielicerol@pro.onet.pl",
                "website": "http:\/\/www.zsr-kisielice.pl",
                "ref:regon": "280145460",
                "operator": "Powiat I\u0142awski",
                "operator:type": "government",
                "amenity": "college",
                "note": "Parent RSPO: 10051"
            }
        },
        {
            "id": 82395,
            "type": "Feature",
            "geometry": {
                "type": "Point",
                "coordinates": [
                    19.257,
                    53.609210000000004
                ]
            },
            "properties": {
                "ref:rspo": 82395,
                "official_name": "Specjalny O\u015brodek Szkolno-Wychowawczy w Kisielicach",
                "name": "Specjalny O\u015brodek Szkolno-Wychowawczy w Kisielicach",
                "addr:postcode": "14-220",
                "addr:city": "Kisielice",
                "addr:street": "Ignacego Daszy\u0144skiego",
                "addr:housenumber": "12",
                "addr:teryt:simc": 932749,
                "addr:teryt:sym_ul": 3635,
                "phone": "+48 552756030",
                "email": "kisielicerol@pro.onet.pl",
                "website": "http:\/\/www.zsr-kisielice.pl",
                "ref:regon": "281445402",
                "operator": "Powiat I\u0142awski",
                "operator:type": "government",
                "amenity": "school",
                "note": "Children RSPO: 69527;69528;69530;69533Parent RSPO: 10051"
            }
        },
        {
            "id": 69527,
            "type": "Feature",
            "geometry": {
                "type": "Point",
                "coordinates": [
                    19.257,
                    53.60918
                ]
            },
            "properties": {
                "ref:rspo": 69527,
                "official_name": "Przedszkole Specjalne w Specjalnym O\u015brodku Szkolno-Wychowawczym w Kisielicach",
                "name": "Przedszkole Specjalne w Specjalnym O\u015brodku Szkolno-Wychowawczym w Kisielicach",
                "addr:postcode": "14-220",
                "addr:city": "Kisielice",
                "addr:street": "Ignacego Daszy\u0144skiego",
                "addr:housenumber": "12",
                "addr:teryt:simc": 932749,
                "addr:teryt:sym_ul": 3635,
                "phone": "+48 552756030",
                "email": "kisielicerol@pro.onet.pl",
                "ref:regon": "281136782",
                "operator": "Powiat I\u0142awski",
                "operator:type": "government",
                "amenity": "kindergarten",
                "note": "Parent RSPO: 82395"
            }
        },
        {
            "id": 69528,
            "type": "Feature",
            "geometry": {
                "type": "Point",
                "coordinates": [
                    19.257,
                    53.60915
                ]
            },
            "properties": {
                "isced:level": "1;2",
                "ref:rspo": 69528,
                "official_name": "Szko\u0142a Podstawowa Specjalna w Specjalnym O\u015brodku Szkolno-Wychowawczym w Kisielicach",
                "name": "Szko\u0142a Podstawowa Specjalna w Specjalnym O\u015brodku Szkolno-Wychowawczym w Kisielicach",
                "addr:postcode": "14-220",
                "addr:city": "Kisielice",
                "addr:street": "Ignacego Daszy\u0144skiego",
                "addr:housenumber": "12",
                "addr:teryt:simc": 932749,
                "addr:teryt:sym_ul": 3635,
                "phone": "+48 552756030",
                "email": "kisielicerol@pro.onet.pl",
                "ref:regon": "281441545",
                "operator": "Powiat I\u0142awski",
                "operator:type": "government",
                "amenity": "school",
                "note": "Parent RSPO: 82395"
            }
        },
        {
            "id": 69530,
            "type": "Feature",
            "geometry": {
                "type": "Point",
                "coordinates": [
                    19.257,
                    53.609120000000004
                ]
            },
            "properties": {
                "isced:level": "3",
                "ref:rspo": 69530,
                "official_name": "Bran\u017cowa Szko\u0142a I Stopnia w Specjalnym O\u015brodku Szkolno-Wychowawczym w Kisielicach",
                "name": "Bran\u017cowa Szko\u0142a I Stopnia w Specjalnym O\u015brodku Szkolno-Wychowawczym w Kisielicach",
                "addr:postcode": "14-220",
                "addr:city": "Kisielice",
                "addr:street": "Ignacego Daszy\u0144skiego",
                "addr:housenumber": "12",
                "addr:teryt:simc": 932749,
                "addr:teryt:sym_ul": 3635,
                "phone": "+48 552756030",
                "email": "kisielicerol@pro.onet.pl",
                "ref:regon": "281441479",
                "operator": "Powiat I\u0142awski",
                "operator:type": "government",
                "amenity": "school",
                "note": "Parent RSPO: 82395"
            }
        },
        {
            "id": 69533,
            "type": "Feature",
            "geometry": {
                "type": "Point",
                "coordinates": [
                    19.257,
                    53.60909
                ]
            },
            "properties": {
                "ref:rspo": 69533,
                "official_name": "Szko\u0142a Specjalna Przysposabiaj\u0105ca Do Pracy w Specjalnym O\u015brodku Szkolno-Wychowawczym w Kisielicach",
                "name": "Szko\u0142a Specjalna Przysposabiaj\u0105ca Do Pracy w Specjalnym O\u015brodku Szkolno-Wychowawczym w Kisielicach",
                "addr:postcode": "14-220",
                "addr:city": "Kisielice",
                "addr:street": "Ignacego Daszy\u0144skiego",
                "addr:housenumber": "12",
                "addr:teryt:simc": 932749,
                "addr:teryt:sym_ul": 3635,
                "phone": "+48 552756030",
                "email": "kisielicerol@pro.onet.pl",
                "ref:regon": "281441580",
                "operator": "Powiat I\u0142awski",
                "operator:type": "government",
                "amenity": "school",
                "note": "Parent RSPO: 82395"
            }
        },
        {
            "id": 29162,
            "type": "Feature",
            "geometry": {
                "type": "Point",
                "coordinates": [
                    19.295046,
                    53.6366129
                ]
            },
            "properties": {
                "isced:level": "1;2",
                "ref:rspo": 29162,
                "official_name": "Szko\u0142a Podstawowa w \u0141\u0119gowie",
                "name": "Szko\u0142a Podstawowa w \u0141\u0119gowie",
                "addr:postcode": "14-220",
                "addr:place": "\u0141\u0119gowo",
                "addr:housenumber": "75",
                "addr:teryt:simc": 150863,
                "phone": "+48 552756115",
                "email": "splegowo75@wp.pl",
                "website": "http:\/\/www.legowo.pl",
                "ref:regon": "001190729",
                "ref:vatin": "PL7441605196",
                "operator": "Gmina Kisielice",
                "operator:type": "government",
                "amenity": "school"
            }
        }
    ]
}