{
    "type": "FeatureCollection",
    "features": [
        {
            "id": 85607,
            "type": "Feature",
            "geometry": {
                "type": "Point",
                "coordinates": [
                    14.37776,
                    53.48392
                ]
            },
            "properties": {
                "isced:level": "1;2",
                "ref:rspo": 85607,
                "official_name": "Szko\u0142a Podstawowa im. Jerzego Noskiewicza Z Oddzia\u0142ami Dwuj\u0119zycznymi I Przedszkolnymi w Tanowie",
                "name": "Szko\u0142a Podstawowa",
                "addr:country": "PL",
                "addr:postcode": "72-004",
                "addr:city": "Tanowo",
                "addr:street": "ul. Szczeci\u0144ska",
                "addr:housenumber": "31",
                "addr:teryt:simc": 21805,
                "addr:teryt:sym_ul": 781138,
                "contact:phone": "+48 913126624",
                "contact:email": "sekretariat@sptanowo.pl",
                "contact:website": "http:\/\/www.sptanowo.pl",
                "ref:regon": "320832158",
                "operator": "Gmina Police",
                "operator:type": "government",
                "amenity": "school",
                "note": "Children RSPO: 112276"
            }
        },
        {
            "id": 112276,
            "type": "Feature",
            "geometry": {
                "type": "Point",
                "coordinates": [
                    14.48007,
                    53.49627
                ]
            },
            "properties": {
                "isced:level": "1;2",
                "ref:rspo": 112276,
                "official_name": "Szko\u0142a Podstawowa im. Jerzego Noskiewicza Z Oddzia\u0142ami Dwuj\u0119zycznymi I Przedszkolnymi w Tanowie Szko\u0142a Filialna w Pilchowie",
                "name": "Szko\u0142a Podstawowa",
                "addr:country": "PL",
                "addr:postcode": "72-004",
                "addr:city": "Pilchowo",
                "addr:street": "ul. Szczeci\u0144ska",
                "addr:housenumber": "1A",
                "addr:teryt:simc": 21805,
                "addr:teryt:sym_ul": 781109,
                "contact:phone": "+48 914526414",
                "contact:email": "pilchowo@sptanowo.pl",
                "contact:website": "http:\/\/www.sppilchowo.pl",
                "ref:regon": "320832158",
                "ref:vatin": "PL8513117912",
                "operator": "Gmina Police",
                "operator:type": "government",
                "amenity": "school",
                "note": "Parent RSPO: 85607"
            }
        },
        {
            "id": 126199,
            "type": "Feature",
            "geometry": {
                "type": "Point",
                "coordinates": [
                    14.56048,
                    53.51473
                ]
            },
            "properties": {
                "isced:level": "1;2",
                "ref:rspo": 126199,
                "official_name": "\u00c9lan Vital",
                "name": "\u00c9lan Vital",
                "addr:country": "PL",
                "addr:postcode": "72-010",
                "addr:city": "Prz\u0119socin",
                "addr:street": "ul. Szkolna",
                "addr:housenumber": "1",
                "addr:teryt:simc": 21970,
                "addr:teryt:sym_ul": 781115,
                "contact:phone": "+48 696269532",
                "contact:email": "k.szulecka@urwisek-police.pl",
                "contact:website": "http:\/\/www.urwisek-police.pl",
                "ref:regon": "360171151",
                "operator": "Katarzyna Szulecka",
                "operator:type": "private",
                "amenity": "school"
            }
        },
        {
            "id": 126268,
            "type": "Feature",
            "geometry": {
                "type": "Point",
                "coordinates": [
                    14.56048,
                    53.5147
                ]
            },
            "properties": {
                "ref:rspo": 126268,
                "official_name": "Niepubliczny Punkt Przedszkolny \"Urwisek\" Ii",
                "name": "Niepubliczny Punkt Przedszkolny \"Urwisek\" Ii",
                "addr:country": "PL",
                "addr:postcode": "72-010",
                "addr:city": "Prz\u0119socin",
                "addr:street": "ul. Szkolna",
                "addr:housenumber": "1",
                "addr:teryt:simc": 21970,
                "addr:teryt:sym_ul": 781115,
                "contact:phone": "+48 696269532",
                "contact:email": "urwisek@home.pl",
                "ref:regon": "360185035",
                "operator": "Katarzyna Szulecka",
                "operator:type": "private",
                "amenity": "kindergarten"
            }
        },
        {
            "id": 5265,
            "type": "Feature",
            "geometry": {
                "type": "Point",
                "coordinates": [
                    14.47074,
                    53.53537
                ]
            },
            "properties": {
                "ref:rspo": 5265,
                "official_name": "M\u0142odzie\u017cowy O\u015brodek Wychowawczy",
                "name": "M\u0142odzie\u017cowy O\u015brodek Wychowawczy",
                "addr:country": "PL",
                "addr:postcode": "72-020",
                "addr:city": "Trzebie\u017c",
                "addr:street": "ul. Wkrza\u0144ska",
                "addr:housenumber": "10",
                "addr:teryt:simc": 24478,
                "addr:teryt:sym_ul": 781173,
                "contact:phone": "+48 913128351",
                "contact:email": "info@mowtrzebiez.pl",
                "contact:website": "http:\/\/www.mowtrzebiez.pl",
                "ref:regon": "000188423",
                "ref:vatin": "PL8512238855",
                "operator": "Powiat Policki",
                "operator:type": "government",
                "fixme": "amenity=social_facility + social_facility=group_home + social_facility:for=juvenile",
                "note": "Children RSPO: 129009;271120"
            }
        },
        {
            "id": 129009,
            "type": "Feature",
            "geometry": {
                "type": "Point",
                "coordinates": [
                    14.47074,
                    53.53534
                ]
            },
            "properties": {
                "isced:level": "1;2",
                "ref:rspo": 129009,
                "official_name": "Szko\u0142a Podstawowa Specjalna Nr 2 dla Uczni\u00f3w Niedostosowanych Spo\u0142ecznie",
                "name": "Szko\u0142a Podstawowa Specjalna Nr 2 dla Uczni\u00f3w Niedostosowanych Spo\u0142ecznie",
                "addr:country": "PL",
                "addr:postcode": "72-020",
                "addr:city": "Trzebie\u017c",
                "addr:street": "ul. Wkrza\u0144ska",
                "addr:housenumber": "10",
                "addr:teryt:simc": 24478,
                "addr:teryt:sym_ul": 781173,
                "contact:phone": "+48 913128351",
                "contact:email": "info@mowtrzebiez.pl",
                "contact:website": "http:\/\/www.mowtrzebiez.pl",
                "ref:regon": "362460570",
                "ref:vatin": "PL8512238855",
                "operator": "Powiat Policki",
                "operator:type": "government",
                "amenity": "school",
                "note": "Parent RSPO: 5265"
            }
        },
        {
            "id": 271120,
            "type": "Feature",
            "geometry": {
                "type": "Point",
                "coordinates": [
                    14.47074,
                    53.53531
                ]
            },
            "properties": {
                "isced:level": "3",
                "ref:rspo": 271120,
                "official_name": "Bran\u017cowa Szko\u0142a I Stopnia Specjalna w M\u0142odzie\u017cowym O\u015brodku Wychowaczym w Trzebie\u017cy",
                "name": "Bran\u017cowa Szko\u0142a I Stopnia Specjalna w M\u0142odzie\u017cowym O\u015brodku Wychowaczym w Trzebie\u017cy",
                "addr:country": "PL",
                "addr:postcode": "72-020",
                "addr:city": "Trzebie\u017c",
                "addr:street": "ul. Wkrza\u0144ska",
                "addr:housenumber": "10",
                "addr:teryt:simc": 24478,
                "addr:teryt:sym_ul": 781173,
                "contact:phone": "+48 913128351",
                "contact:email": "info@mowtrzebiez.pl",
                "contact:website": "http:\/\/www.mow.trzebiez.pl",
                "ref:regon": "383096598",
                "operator": "Powiat Policki",
                "operator:type": "government",
                "amenity": "school",
                "note": "Parent RSPO: 5265"
            }
        },
        {
            "id": 28703,
            "type": "Feature",
            "geometry": {
                "type": "Point",
                "coordinates": [
                    14.54991,
                    53.53696
                ]
            },
            "properties": {
                "ref:rspo": 28703,
                "official_name": "Tosca Pierwsza Prywatna Szko\u0142a Muzyczna I St. w Policach",
                "name": "Tosca Pierwsza Prywatna Szko\u0142a Muzyczna I St. w Policach",
                "addr:country": "PL",
                "addr:postcode": "72-010",
                "addr:city": "Police",
                "addr:street": "ul. Piaskowa",
                "addr:housenumber": "99",
                "addr:teryt:simc": 16033,
                "addr:teryt:sym_ul": 979449,
                "contact:phone": "+48 604612424",
                "contact:email": "tosca@police.pl",
                "contact:website": "http:\/\/www.tosca.police.pl",
                "ref:regon": "321284753",
                "operator": "El\u017cbieta Kuwik",
                "operator:type": "private",
                "amenity": "music_school"
            }
        },
        {
            "id": 80562,
            "type": "Feature",
            "geometry": {
                "type": "Point",
                "coordinates": [
                    14.54991,
                    53.53693
                ]
            },
            "properties": {
                "isced:level": "1;2",
                "ref:rspo": 80562,
                "official_name": "Szko\u0142a Podstawowa Nr 8 im. Jana Paw\u0142a II Z Oddzia\u0142ami Dwuj\u0119zycznymi I Sportowymi",
                "name": "Szko\u0142a Podstawowa Nr 8",
                "addr:country": "PL",
                "addr:postcode": "72-010",
                "addr:city": "Police",
                "addr:street": "ul. Piaskowa",
                "addr:housenumber": "99",
                "addr:teryt:simc": 16033,
                "addr:teryt:sym_ul": 979449,
                "contact:phone": "+48 914324880",
                "contact:email": "sp8@police.pl",
                "contact:website": "http:\/\/www.sp8police.eu",
                "ref:regon": "320825230",
                "ref:vatin": "PL8513117881",
                "operator": "Gmina Police",
                "operator:type": "government",
                "amenity": "school"
            }
        },
        {
            "id": 46849,
            "type": "Feature",
            "geometry": {
                "type": "Point",
                "coordinates": [
                    14.46693,
                    53.53785
                ]
            },
            "properties": {
                "ref:rspo": 46849,
                "official_name": "Przedszkole Publiczne w Tanowie",
                "name": "Przedszkole Publiczne w Tanowie",
                "addr:country": "PL",
                "addr:postcode": "72-004",
                "addr:city": "Tanowo",
                "addr:street": "ul. Szczeci\u0144ska",
                "addr:housenumber": "70",
                "addr:teryt:simc": 21805,
                "addr:teryt:sym_ul": 781138,
                "contact:phone": "+48 913126677",
                "contact:email": "pptanowo@police.pl",
                "contact:website": "http:\/\/www.pptanowo.police.pl",
                "ref:regon": "320830610",
                "ref:vatin": "PL8513117220",
                "operator": "Gmina Police",
                "operator:type": "government",
                "amenity": "kindergarten"
            }
        },
        {
            "id": 51849,
            "type": "Feature",
            "geometry": {
                "type": "Point",
                "coordinates": [
                    14.54907,
                    53.53843
                ]
            },
            "properties": {
                "ref:rspo": 51849,
                "official_name": "Przedszkole Publiczne Nr 10",
                "name": "Przedszkole Publiczne Nr 10",
                "addr:country": "PL",
                "addr:postcode": "72-010",
                "addr:city": "Police",
                "addr:street": "ul. Piaskowa",
                "addr:housenumber": "112",
                "addr:teryt:simc": 16033,
                "addr:teryt:sym_ul": 979449,
                "contact:phone": "+48 913179126",
                "contact:email": "pp10@police.pl",
                "ref:regon": "320823188",
                "ref:vatin": "PL8513115646",
                "operator": "Gmina Police",
                "operator:type": "government",
                "amenity": "kindergarten"
            }
        },
        {
            "id": 119354,
            "type": "Feature",
            "geometry": {
                "type": "Point",
                "coordinates": [
                    14.4632,
                    53.53869
                ]
            },
            "properties": {
                "ref:rspo": 119354,
                "official_name": "Specjalny O\u015brodek Szkolno-Wychowawczy im. Kawaler\u00f3w Orderu U\u015bmiechu w Tanowie",
                "name": "Specjalny O\u015brodek Szkolno-Wychowawczy",
                "addr:country": "PL",
                "addr:postcode": "72-004",
                "addr:city": "Tanowo",
                "addr:street": "ul. Le\u015bna",
                "addr:housenumber": "91",
                "addr:teryt:simc": 10898,
                "addr:teryt:sym_ul": 781138,
                "contact:phone": "+48 913126612",
                "contact:email": "sekretariat@soswtanowo.pl",
                "contact:website": "http:\/\/www.soswtanowo.pl",
                "ref:regon": "000188660",
                "ref:vatin": "PL8512495925",
                "operator": "Powiat Policki",
                "operator:type": "government",
                "amenity": "school",
                "note": "Children RSPO: 127032;127034"
            }
        },
        {
            "id": 127032,
            "type": "Feature",
            "geometry": {
                "type": "Point",
                "coordinates": [
                    14.4632,
                    53.53866
                ]
            },
            "properties": {
                "isced:level": "1;2",
                "ref:rspo": 127032,
                "official_name": "Szko\u0142a Podstawowa Specjalna Nr 2",
                "name": "Szko\u0142a Podstawowa Specjalna Nr 2",
                "addr:country": "PL",
                "addr:postcode": "72-004",
                "addr:city": "Tanowo",
                "addr:street": "ul. Le\u015bna",
                "addr:housenumber": "91",
                "addr:teryt:simc": 10898,
                "addr:teryt:sym_ul": 781138,
                "contact:phone": "+48 913126612",
                "contact:email": "sekretariat@soswtanowo.pl",
                "contact:website": "http:\/\/www.soswtanowo.pl",
                "ref:regon": "000737893",
                "ref:vatin": "PL8512495925",
                "operator": "Powiat Policki",
                "operator:type": "government",
                "amenity": "school",
                "note": "Parent RSPO: 119354"
            }
        },
        {
            "id": 127034,
            "type": "Feature",
            "geometry": {
                "type": "Point",
                "coordinates": [
                    14.4632,
                    53.538630000000005
                ]
            },
            "properties": {
                "ref:rspo": 127034,
                "official_name": "Szko\u0142a Specjalna Przysposabiaj\u0105ca Do Pracy",
                "name": "Szko\u0142a Specjalna Przysposabiaj\u0105ca Do Pracy",
                "addr:country": "PL",
                "addr:postcode": "72-004",
                "addr:city": "Tanowo",
                "addr:street": "ul. Le\u015bna",
                "addr:housenumber": "91",
                "addr:teryt:simc": 10898,
                "addr:teryt:sym_ul": 781138,
                "contact:phone": "+48 913126612",
                "contact:email": "sekretariat@soswtanowo.pl",
                "contact:website": "http:\/\/www.soswtanowo.pl",
                "ref:regon": "320248347",
                "ref:vatin": "PL8512495925",
                "operator": "Powiat Policki",
                "operator:type": "government",
                "amenity": "school",
                "note": "Parent RSPO: 119354"
            }
        },
        {
            "id": 80435,
            "type": "Feature",
            "geometry": {
                "type": "Point",
                "coordinates": [
                    14.57174,
                    53.53898
                ]
            },
            "properties": {
                "ref:rspo": 80435,
                "official_name": "Przedszkole Publicze w Trzebie\u017cy",
                "name": "Przedszkole Publicze w Trzebie\u017cy",
                "addr:country": "PL",
                "addr:postcode": "72-020",
                "addr:city": "Trzebie\u017c",
                "addr:street": "ul. Wkrza\u0144ska",
                "addr:housenumber": "9",
                "addr:teryt:simc": 24478,
                "addr:teryt:sym_ul": 781173,
                "contact:phone": "+48 913128271",
                "contact:email": "pptrzebiez@interia.pl",
                "contact:website": "http:\/\/www.pptrzebiez.szkolnastrona.pl",
                "ref:regon": "320831414",
                "ref:vatin": "PL8513118308",
                "operator": "Gmina Police",
                "operator:type": "government",
                "amenity": "kindergarten"
            }
        },
        {
            "id": 79321,
            "type": "Feature",
            "geometry": {
                "type": "Point",
                "coordinates": [
                    14.56085,
                    53.53936
                ]
            },
            "properties": {
                "ref:rspo": 79321,
                "official_name": "Przedszkole Publiczne Nr 9 \"T\u0119czowa Kraina\"",
                "name": "Przedszkole Publiczne Nr 9 \"T\u0119czowa Kraina\"",
                "addr:country": "PL",
                "addr:postcode": "72-010",
                "addr:city": "Police",
                "addr:street": "ul. Piaskowa",
                "addr:housenumber": "13",
                "addr:teryt:simc": 16033,
                "addr:teryt:sym_ul": 979449,
                "contact:phone": "+48 914240746",
                "contact:email": "pp9police@wp.pl",
                "contact:website": "http:\/\/www.pp9police.pl",
                "ref:regon": "320823194",
                "ref:vatin": "PL8513115623",
                "operator": "Gmina Police",
                "operator:type": "government",
                "amenity": "kindergarten"
            }
        },
        {
            "id": 42494,
            "type": "Feature",
            "geometry": {
                "type": "Point",
                "coordinates": [
                    14.54225,
                    53.53972
                ]
            },
            "properties": {
                "ref:rspo": 42494,
                "official_name": "Przedszkole Publiczne Nr 11",
                "name": "Przedszkole Publiczne Nr 11",
                "addr:country": "PL",
                "addr:postcode": "72-009",
                "addr:city": "Police",
                "addr:street": "ul. Przyja\u017ani",
                "addr:housenumber": "1",
                "addr:teryt:simc": 17926,
                "addr:teryt:sym_ul": 979449,
                "contact:phone": "+48 913177296",
                "contact:email": "pp11@police.pl",
                "contact:website": "http:\/\/www.pp11.police.pl",
                "ref:regon": "320832081",
                "ref:vatin": "PL8513118277",
                "operator": "Gmina Police",
                "operator:type": "government",
                "amenity": "kindergarten"
            }
        },
        {
            "id": 80559,
            "type": "Feature",
            "geometry": {
                "type": "Point",
                "coordinates": [
                    14.54962,
                    53.54019
                ]
            },
            "properties": {
                "ref:rspo": 80559,
                "official_name": "Bajkowe Przedszkole Publiczne Nr 8",
                "name": "Bajkowe Przedszkole Publiczne Nr 8",
                "addr:country": "PL",
                "addr:postcode": "72-009",
                "addr:city": "Police",
                "addr:street": "ul. kard. Stefana Wyszy\u0144skiego",
                "addr:housenumber": "31",
                "addr:teryt:simc": 25107,
                "addr:teryt:sym_ul": 979449,
                "contact:phone": "+48 913177354",
                "contact:email": "pp8@police.pl",
                "ref:regon": "320831578",
                "ref:vatin": "PL8513117214",
                "operator": "Gmina Police",
                "operator:type": "government",
                "amenity": "kindergarten"
            }
        },
        {
            "id": 85273,
            "type": "Feature",
            "geometry": {
                "type": "Point",
                "coordinates": [
                    14.55769,
                    53.5405299
                ]
            },
            "properties": {
                "ref:rspo": 85273,
                "official_name": "Przedszkole Publiczne Nr 5 im. Wandy Chotomskiej",
                "name": "Przedszkole Publiczne Nr 5",
                "addr:country": "PL",
                "addr:postcode": "72-010",
                "addr:city": "Police",
                "addr:street": "ul. Robotnicza",
                "addr:housenumber": "13",
                "addr:teryt:simc": 18695,
                "addr:teryt:sym_ul": 979449,
                "contact:phone": "+48 913176982",
                "contact:email": "pp5@police.pl",
                "ref:regon": "320831443",
                "operator": "Gmina Police",
                "operator:type": "government",
                "amenity": "kindergarten"
            }
        },
        {
            "id": 85237,
            "type": "Feature",
            "geometry": {
                "type": "Point",
                "coordinates": [
                    14.56027,
                    53.5422
                ]
            },
            "properties": {
                "ref:rspo": 85237,
                "official_name": "Ognisko Przedszkolne Towarzystwa Przyjaci\u00f3\u0142 Dzieci w Policach",
                "name": "Ognisko Przedszkolne Towarzystwa Przyjaci\u00f3\u0142 Dzieci w Policach",
                "addr:country": "PL",
                "addr:postcode": "72-010",
                "addr:city": "Police",
                "addr:street": "ul. Bankowa",
                "addr:housenumber": "22",
                "addr:teryt:simc": 692,
                "addr:teryt:sym_ul": 979449,
                "contact:phone": "+48 913118539",
                "contact:email": "zarzad@tpd.szczecin.pl",
                "contact:website": "http:\/\/www.tpd.szczecin.pl",
                "ref:regon": "321301612",
                "operator": "Towarzystwo Przyjaci\u00f3\u0142 Dzieci Zachodniopomorski Oddzia\u0142 Regionalny W Szczecinie",
                "operator:type": "ngo",
                "amenity": "kindergarten"
            }
        },
        {
            "id": 5153,
            "type": "Feature",
            "geometry": {
                "type": "Point",
                "coordinates": [
                    14.54011,
                    53.54235
                ]
            },
            "properties": {
                "ref:rspo": 5153,
                "official_name": "Specjalny O\u015brodek Szkolno-Wychowawczy Nr 1 dla Dzieci Niepe\u0142nosprawnych Ruchowo im. Marii Grzegorzew",
                "name": "Specjalny O\u015brodek Szkolno-Wychowawczy Nr 1 dla Dzieci Niepe\u0142nosprawnych Ruchowo",
                "addr:country": "PL",
                "addr:postcode": "72-010",
                "addr:city": "Police",
                "addr:street": "ul. Janusza Korczaka",
                "addr:housenumber": "45",
                "addr:teryt:simc": 9329,
                "addr:teryt:sym_ul": 979449,
                "contact:phone": "+48 915065220",
                "contact:email": "sekretariat@soswdnr.pl",
                "contact:website": "http:\/\/www.soswdnr.police.pl",
                "ref:regon": "000188950",
                "ref:vatin": "PL8511165901",
                "operator": "Powiat Policki",
                "operator:type": "government",
                "amenity": "school",
                "note": "Children RSPO: 6053;73035;73133;74060;74075"
            }
        },
        {
            "id": 6053,
            "type": "Feature",
            "geometry": {
                "type": "Point",
                "coordinates": [
                    14.54011,
                    53.54232
                ]
            },
            "properties": {
                "isced:level": "3",
                "ref:rspo": 6053,
                "official_name": "Liceum Og\u00f3lnokszta\u0142c\u0105ce Specjalne Nr Ii",
                "name": "Liceum Og\u00f3lnokszta\u0142c\u0105ce Specjalne Nr Ii",
                "addr:country": "PL",
                "addr:postcode": "72-010",
                "addr:city": "Police",
                "addr:street": "ul. Janusza Korczaka",
                "addr:housenumber": "45",
                "addr:teryt:simc": 9329,
                "addr:teryt:sym_ul": 979449,
                "contact:phone": "+48 915065220",
                "contact:email": "sekretariat@soswdnr.pl",
                "contact:website": "http:\/\/www.soswdnr.pl",
                "ref:regon": "321267039",
                "ref:vatin": "PL8511165901",
                "operator": "Powiat Policki",
                "operator:type": "government",
                "amenity": "school",
                "note": "Parent RSPO: 5153"
            }
        },
        {
            "id": 73035,
            "type": "Feature",
            "geometry": {
                "type": "Point",
                "coordinates": [
                    14.54011,
                    53.54229
                ]
            },
            "properties": {
                "isced:level": "1;2",
                "ref:rspo": 73035,
                "official_name": "Szko\u0142a Podstawowa Specjalna Nr 10",
                "name": "Szko\u0142a Podstawowa Specjalna Nr 10",
                "addr:country": "PL",
                "addr:postcode": "72-010",
                "addr:city": "Police",
                "addr:street": "ul. Janusza Korczaka",
                "addr:housenumber": "45",
                "addr:teryt:simc": 9329,
                "addr:teryt:sym_ul": 979449,
                "contact:phone": "+48 915065220",
                "contact:email": "sekretariat@soswdnr.pl",
                "contact:website": "http:\/\/www.soswdnr.pl",
                "ref:regon": "000737901",
                "ref:vatin": "PL8511165901",
                "operator": "Powiat Policki",
                "operator:type": "government",
                "amenity": "school",
                "note": "Parent RSPO: 5153"
            }
        },
        {
            "id": 73133,
            "type": "Feature",
            "geometry": {
                "type": "Point",
                "coordinates": [
                    14.54011,
                    53.54226
                ]
            },
            "properties": {
                "ref:rspo": 73133,
                "official_name": "Szko\u0142a Specjalna Przysposabiaj\u0105ca Do Pracy",
                "name": "Szko\u0142a Specjalna Przysposabiaj\u0105ca Do Pracy",
                "addr:country": "PL",
                "addr:postcode": "72-010",
                "addr:city": "Police",
                "addr:street": "ul. Janusza Korczaka",
                "addr:housenumber": "45",
                "addr:teryt:simc": 9329,
                "addr:teryt:sym_ul": 979449,
                "contact:phone": "+48 915065220",
                "contact:email": "sekretariat@soswdnr.pl",
                "contact:website": "http:\/\/www.soswdnr.pl",
                "ref:regon": "320403233",
                "ref:vatin": "PL8511165901",
                "operator": "Powiat Policki",
                "operator:type": "government",
                "amenity": "school",
                "note": "Parent RSPO: 5153"
            }
        },
        {
            "id": 74060,
            "type": "Feature",
            "geometry": {
                "type": "Point",
                "coordinates": [
                    14.54011,
                    53.542229999999996
                ]
            },
            "properties": {
                "isced:level": "4",
                "ref:rspo": 74060,
                "official_name": "Policealna Szko\u0142a Specjalna",
                "name": "Policealna Szko\u0142a Specjalna",
                "addr:country": "PL",
                "addr:postcode": "72-010",
                "addr:city": "Police",
                "addr:street": "ul. Janusza Korczaka",
                "addr:housenumber": "45",
                "addr:teryt:simc": 9329,
                "addr:teryt:sym_ul": 979449,
                "contact:phone": "+48 915065220",
                "contact:email": "sekretariat@soswdnr.pl",
                "contact:website": "http:\/\/www.soswdnr.pl",
                "ref:regon": "320082065",
                "ref:vatin": "PL8511165901",
                "operator": "Powiat Policki",
                "operator:type": "government",
                "amenity": "college",
                "note": "Parent RSPO: 5153"
            }
        },
        {
            "id": 74075,
            "type": "Feature",
            "geometry": {
                "type": "Point",
                "coordinates": [
                    14.54011,
                    53.5422
                ]
            },
            "properties": {
                "isced:level": "3",
                "ref:rspo": 74075,
                "official_name": "Bran\u017cowa Szko\u0142a I Stopnia Specjalna Nr 2",
                "name": "Bran\u017cowa Szko\u0142a I Stopnia Specjalna Nr 2",
                "addr:country": "PL",
                "addr:postcode": "72-010",
                "addr:city": "Police",
                "addr:street": "ul. Janusza Korczaka",
                "addr:housenumber": "45",
                "addr:teryt:simc": 9329,
                "addr:teryt:sym_ul": 979449,
                "contact:phone": "+48 915065220",
                "contact:email": "sekretariat@soswdnr.pl",
                "contact:website": "http:\/\/www.soswdnr.pl",
                "ref:regon": "812539012",
                "ref:vatin": "PL8511165901",
                "operator": "Powiat Policki",
                "operator:type": "government",
                "amenity": "school",
                "note": "Parent RSPO: 5153"
            }
        },
        {
            "id": 42847,
            "type": "Feature",
            "geometry": {
                "type": "Point",
                "coordinates": [
                    14.54717,
                    53.54414
                ]
            },
            "properties": {
                "ref:rspo": 42847,
                "official_name": "Poradnia Psychologiczno - Pedagogiczna w Policach",
                "name": "Poradnia Psychologiczno - Pedagogiczna w Policach",
                "addr:country": "PL",
                "addr:postcode": "72-009",
                "addr:city": "Police",
                "addr:street": "ul. Janusza Korczaka",
                "addr:housenumber": "5",
                "addr:teryt:simc": 9329,
                "addr:teryt:sym_ul": 979449,
                "contact:phone": "+48 913176729",
                "contact:email": "sekretariat@poradniapolice.pl",
                "contact:website": "http:\/\/www.poradniapolice.pl",
                "ref:regon": "810486257",
                "ref:vatin": "PL8511165893",
                "operator": "Powiat Policki",
                "operator:type": "government",
                "healthcare": "counselling",
                "counselling_type": "education",
                "fixme": "w zale\u017cno\u015bci od przedmiotu dzia\u0142alno\u015bci (np. healthcare=counselling + counselling_type=education albo healthcare=psychotherapist)"
            }
        },
        {
            "id": 80358,
            "type": "Feature",
            "geometry": {
                "type": "Point",
                "coordinates": [
                    14.54547,
                    53.54469
                ]
            },
            "properties": {
                "ref:rspo": 80358,
                "official_name": "O\u015brodek Szkoleniowy Fundacji O\u015brodek Doskonalenia Kadr w Policach",
                "name": "O\u015brodek Szkoleniowy Fundacji O\u015brodek Doskonalenia Kadr w Policach",
                "addr:country": "PL",
                "addr:postcode": "72-010",
                "addr:city": "Police",
                "addr:street": "ul. Kresowa",
                "addr:housenumber": "5",
                "addr:teryt:simc": 9911,
                "addr:teryt:sym_ul": 979449,
                "contact:phone": "+48 797878946",
                "contact:email": "osz@fodk.pl",
                "contact:website": "http:\/\/www.fodk.pl",
                "ref:regon": "321297709",
                "operator": "Fundacja \"O\u015brodek Doskonalenia Kadr\"",
                "operator:type": "ngo",
                "fixme": "w zale\u017cno\u015bci od przedmiotu dzia\u0142alno\u015bci (np. amenity=training + training=*, amenity=dancing_school, amenity=language_school, amenity=music_school)"
            }
        },
        {
            "id": 269921,
            "type": "Feature",
            "geometry": {
                "type": "Point",
                "coordinates": [
                    14.54547,
                    53.54466
                ]
            },
            "properties": {
                "ref:rspo": 269921,
                "official_name": "Centrum Kszta\u0142cenia Zawodowego I Ustawicznego w Policach",
                "name": "Centrum Kszta\u0142cenia Zawodowego I Ustawicznego w Policach",
                "addr:country": "PL",
                "addr:postcode": "72-010",
                "addr:city": "Police",
                "addr:street": "ul. Kresowa",
                "addr:housenumber": "5",
                "addr:teryt:simc": 9911,
                "addr:teryt:sym_ul": 979449,
                "contact:phone": "+48 570807002",
                "contact:email": "ckziu@policki.pl",
                "ref:regon": "381862806",
                "ref:vatin": "PL8513237415",
                "operator": "Powiat Policki",
                "operator:type": "government",
                "landuse": "education",
                "fixme": "amenity=school, amenity=college albo landuse=education w zale\u017cno\u015bci od tego, jakie plac\u00f3wki wchodz\u0105 w sk\u0142ad zespo\u0142u. Sprawd\u017a, kiedy stosowa\u0107 amenity=* a kiedy landuse=education.",
                "note": "Children RSPO: 267831;269935;269936"
            }
        },
        {
            "id": 269935,
            "type": "Feature",
            "geometry": {
                "type": "Point",
                "coordinates": [
                    14.54547,
                    53.544630000000005
                ]
            },
            "properties": {
                "ref:rspo": 269935,
                "official_name": "Centrum Kszta\u0142cenia Zawodowego w Policach",
                "name": "Centrum Kszta\u0142cenia Zawodowego w Policach",
                "addr:country": "PL",
                "addr:postcode": "72-010",
                "addr:city": "Police",
                "addr:street": "ul. Kresowa",
                "addr:housenumber": "5",
                "addr:teryt:simc": 9911,
                "addr:teryt:sym_ul": 979449,
                "contact:phone": "+48 570807002",
                "contact:email": "ckziu@policki.pl",
                "ref:regon": "381870800",
                "operator": "Powiat Policki",
                "operator:type": "government",
                "fixme": "w zale\u017cno\u015bci od przedmiotu dzia\u0142alno\u015bci (np. amenity=training + training=*, amenity=dancing_school, amenity=language_school, amenity=music_school) albo amenity=school, amenity=college, albo landuse=education w zale\u017cno\u015bci od tego, jakie plac\u00f3wki wchodz\u0105 w sk\u0142ad zespo\u0142u. Sprawd\u017a, kiedy stosowa\u0107 amenity=* a kiedy landuse=education.",
                "note": "Parent RSPO: 269921"
            }
        },
        {
            "id": 269936,
            "type": "Feature",
            "geometry": {
                "type": "Point",
                "coordinates": [
                    14.54547,
                    53.5446
                ]
            },
            "properties": {
                "isced:level": "4",
                "ref:rspo": 269936,
                "official_name": "Szko\u0142a Policealna Nr 3 w Policach",
                "name": "Szko\u0142a Policealna Nr 3 w Policach",
                "addr:country": "PL",
                "addr:postcode": "72-010",
                "addr:city": "Police",
                "addr:street": "ul. Kresowa",
                "addr:housenumber": "5",
                "addr:teryt:simc": 9911,
                "addr:teryt:sym_ul": 979449,
                "contact:phone": "+48 570807002",
                "contact:email": "ckziu@policki.pl",
                "contact:website": "http:\/\/www.ckziupolice.pl",
                "ref:regon": "381871107",
                "operator": "Powiat Policki",
                "operator:type": "government",
                "amenity": "college",
                "note": "Parent RSPO: 269921"
            }
        },
        {
            "id": 74049,
            "type": "Feature",
            "geometry": {
                "type": "Point",
                "coordinates": [
                    14.54509,
                    53.54502
                ]
            },
            "properties": {
                "ref:rspo": 74049,
                "official_name": "Zachodniopomorskie Centrum J\u0119zyk\u00f3w Obcych \"Rain Or Shine\"",
                "name": "Zachodniopomorskie Centrum J\u0119zyk\u00f3w Obcych \"Rain Or Shine\"",
                "addr:country": "PL",
                "addr:postcode": "72-010",
                "addr:city": "Police",
                "addr:street": "ul. Kresowa",
                "addr:housenumber": "8",
                "addr:teryt:simc": 9911,
                "addr:teryt:sym_ul": 979449,
                "contact:phone": "+48 913178817",
                "contact:email": "rainorshine@wp.pl",
                "ref:regon": "321295053",
                "operator": "Robert Janczar",
                "operator:type": "private",
                "amenity": "school",
                "fixme": "amenity=school lub amenity=college"
            }
        },
        {
            "id": 80556,
            "type": "Feature",
            "geometry": {
                "type": "Point",
                "coordinates": [
                    14.55919,
                    53.54553
                ]
            },
            "properties": {
                "isced:level": "1;2",
                "ref:rspo": 80556,
                "official_name": "Szko\u0142a Podstawowa Nr 3 im. Marii Sk\u0142odowskiej - Curie Z Oddzia\u0142ami Dwuj\u0119zycznymi",
                "name": "Szko\u0142a Podstawowa Nr 3",
                "addr:country": "PL",
                "addr:postcode": "72-010",
                "addr:city": "Police",
                "addr:street": "ul. Siedlecka",
                "addr:housenumber": "4",
                "addr:teryt:simc": 19769,
                "addr:teryt:sym_ul": 979449,
                "contact:phone": "+48 913176950",
                "contact:email": "sp3@police.pl",
                "contact:website": "http:\/\/www.sp3.police.pl",
                "ref:regon": "320825690",
                "ref:vatin": "PL8513116433",
                "operator": "Gmina Police",
                "operator:type": "government",
                "amenity": "school"
            }
        },
        {
            "id": 49373,
            "type": "Feature",
            "geometry": {
                "type": "Point",
                "coordinates": [
                    14.55291,
                    53.54663
                ]
            },
            "properties": {
                "ref:rspo": 49373,
                "official_name": "Us\u0142ugi Szkoleniowo-Handlowe Jb",
                "name": "Us\u0142ugi Szkoleniowo-Handlowe Jb",
                "addr:country": "PL",
                "addr:postcode": "72-010",
                "addr:city": "Police",
                "addr:street": "ul. Zygmunta Wr\u00f3blewskiego",
                "addr:housenumber": "13",
                "addr:door": "24",
                "addr:teryt:simc": 24840,
                "addr:teryt:sym_ul": 979449,
                "contact:phone": "+48 913175433",
                "contact:email": "ush@epoczta.pl",
                "contact:website": "http:\/\/www.szkolenia-jb.home.pl",
                "ref:regon": "321288739",
                "ref:vatin": "PL8511850809",
                "operator": "J\u00f3zefa Boczkowska",
                "operator:type": "private",
                "fixme": "w zale\u017cno\u015bci od przedmiotu dzia\u0142alno\u015bci (np. amenity=training + training=*, amenity=dancing_school, amenity=language_school, amenity=music_school)"
            }
        },
        {
            "id": 5658,
            "type": "Feature",
            "geometry": {
                "type": "Point",
                "coordinates": [
                    14.56304,
                    53.5468199
                ]
            },
            "properties": {
                "ref:rspo": 5658,
                "official_name": "Zesp\u00f3\u0142 Szk\u00f3\u0142 im. Ignacego \u0141ukasiewicza w Policach",
                "name": "Zesp\u00f3\u0142 Szk\u00f3\u0142",
                "addr:country": "PL",
                "addr:postcode": "72-010",
                "addr:city": "Police",
                "addr:street": "ul. Siedlecka",
                "addr:housenumber": "6",
                "addr:teryt:simc": 19769,
                "addr:teryt:sym_ul": 979449,
                "contact:phone": "+48 914241306",
                "contact:email": "sek@zspolice.pl",
                "contact:website": "http:\/\/www.zspolice.pl",
                "ref:regon": "000702392",
                "ref:vatin": "PL8511013717",
                "operator": "Powiat Policki",
                "operator:type": "government",
                "landuse": "education",
                "fixme": "amenity=school, amenity=college albo landuse=education w zale\u017cno\u015bci od tego, jakie plac\u00f3wki wchodz\u0105 w sk\u0142ad zespo\u0142u. Sprawd\u017a, kiedy stosowa\u0107 amenity=* a kiedy landuse=education.",
                "note": "Children RSPO: 42438;42439;42442;42444;262836"
            }
        },
        {
            "id": 42438,
            "type": "Feature",
            "geometry": {
                "type": "Point",
                "coordinates": [
                    14.56304,
                    53.5467899
                ]
            },
            "properties": {
                "isced:level": "3",
                "ref:rspo": 42438,
                "official_name": "Liceum Og\u00f3lnokszta\u0142c\u0105ce Szko\u0142a Mistrzostwa Sportowego Z Oddzia\u0142ami Dwuj\u0119zycznymi Nr I",
                "name": "Liceum Og\u00f3lnokszta\u0142c\u0105ce Szko\u0142a Mistrzostwa Sportowego Z Oddzia\u0142ami Dwuj\u0119zycznymi Nr I",
                "addr:country": "PL",
                "addr:postcode": "72-010",
                "addr:city": "Police",
                "addr:street": "ul. Siedlecka",
                "addr:housenumber": "6",
                "addr:teryt:simc": 19769,
                "addr:teryt:sym_ul": 979449,
                "contact:phone": "+48 914241306",
                "contact:email": "sek@zspolice.pl",
                "contact:website": "http:\/\/www.zspolice.pl",
                "ref:regon": "812042955",
                "ref:vatin": "PL8511013717",
                "operator": "Powiat Policki",
                "operator:type": "government",
                "amenity": "school",
                "note": "Parent RSPO: 5658"
            }
        },
        {
            "id": 42439,
            "type": "Feature",
            "geometry": {
                "type": "Point",
                "coordinates": [
                    14.56304,
                    53.546759900000005
                ]
            },
            "properties": {
                "isced:level": "3",
                "ref:rspo": 42439,
                "official_name": "Technikum",
                "name": "Technikum",
                "addr:country": "PL",
                "addr:postcode": "72-010",
                "addr:city": "Police",
                "addr:street": "ul. Siedlecka",
                "addr:housenumber": "6",
                "addr:teryt:simc": 19769,
                "addr:teryt:sym_ul": 979449,
                "contact:phone": "+48 914241306",
                "contact:email": "sek@zspolice.pl",
                "contact:website": "http:\/\/www.zspolice.pl",
                "ref:regon": "812042978",
                "ref:vatin": "PL8511013717",
                "operator": "Powiat Policki",
                "operator:type": "government",
                "amenity": "school",
                "note": "Parent RSPO: 5658"
            }
        },
        {
            "id": 42442,
            "type": "Feature",
            "geometry": {
                "type": "Point",
                "coordinates": [
                    14.56304,
                    53.5467299
                ]
            },
            "properties": {
                "isced:level": "3",
                "ref:rspo": 42442,
                "official_name": "Bran\u017cowa Szko\u0142a I Stopnia Nr 1",
                "name": "Bran\u017cowa Szko\u0142a I Stopnia Nr 1",
                "addr:country": "PL",
                "addr:postcode": "72-010",
                "addr:city": "Police",
                "addr:street": "ul. Siedlecka",
                "addr:housenumber": "6",
                "addr:teryt:simc": 19769,
                "addr:teryt:sym_ul": 979449,
                "contact:phone": "+48 914241306",
                "contact:email": "sek@zspolice.pl",
                "contact:website": "http:\/\/www.zspolice.pl",
                "ref:regon": "812042984",
                "ref:vatin": "PL8511013717",
                "operator": "Powiat Policki",
                "operator:type": "government",
                "amenity": "school",
                "note": "Parent RSPO: 5658"
            }
        },
        {
            "id": 42444,
            "type": "Feature",
            "geometry": {
                "type": "Point",
                "coordinates": [
                    14.56304,
                    53.5466999
                ]
            },
            "properties": {
                "isced:level": "4",
                "ref:rspo": 42444,
                "official_name": "Szko\u0142a Policealna",
                "name": "Szko\u0142a Policealna",
                "addr:country": "PL",
                "addr:postcode": "72-010",
                "addr:city": "Police",
                "addr:street": "ul. Siedlecka",
                "addr:housenumber": "6",
                "addr:teryt:simc": 19769,
                "addr:teryt:sym_ul": 979449,
                "contact:phone": "+48 914241306",
                "contact:email": "sek@zspolice.pl",
                "contact:website": "http:\/\/www.zspolice.pl",
                "ref:regon": "320088435",
                "ref:vatin": "PL8511013717",
                "operator": "Powiat Policki",
                "operator:type": "government",
                "amenity": "college",
                "note": "Parent RSPO: 5658"
            }
        },
        {
            "id": 262836,
            "type": "Feature",
            "geometry": {
                "type": "Point",
                "coordinates": [
                    14.56304,
                    53.546669900000005
                ]
            },
            "properties": {
                "isced:level": "1;2",
                "ref:rspo": 262836,
                "official_name": "Szko\u0142a Podstawowa Mistrzostwa Sportowego Z Oddzia\u0142ami Dwuj\u0119zycznymi Nr 9",
                "name": "Szko\u0142a Podstawowa Mistrzostwa Sportowego Z Oddzia\u0142ami Dwuj\u0119zycznymi Nr 9",
                "addr:country": "PL",
                "addr:postcode": "72-010",
                "addr:city": "Police",
                "addr:street": "ul. Siedlecka",
                "addr:housenumber": "6",
                "addr:teryt:simc": 19769,
                "addr:teryt:sym_ul": 979449,
                "contact:phone": "+48 914241306",
                "contact:email": "sek@zspolice.pl",
                "contact:website": "http:\/\/www.zspolice.pl",
                "ref:regon": "368063426",
                "ref:vatin": "PL8511013717",
                "operator": "Powiat Policki",
                "operator:type": "government",
                "amenity": "school",
                "note": "Parent RSPO: 5658"
            }
        },
        {
            "id": 267831,
            "type": "Feature",
            "geometry": {
                "type": "Point",
                "coordinates": [
                    14.56304,
                    53.5466399
                ]
            },
            "properties": {
                "isced:level": "3",
                "ref:rspo": 267831,
                "official_name": "Liceum Og\u00f3lnokszta\u0142c\u0105ce Nr 3 dla Doros\u0142ych w Policach",
                "name": "Liceum Og\u00f3lnokszta\u0142c\u0105ce Nr 3 dla Doros\u0142ych w Policach",
                "addr:country": "PL",
                "addr:postcode": "72-010",
                "addr:city": "Police",
                "addr:street": "ul. Siedlecka",
                "addr:housenumber": "6",
                "addr:teryt:simc": 19769,
                "addr:teryt:sym_ul": 979449,
                "contact:phone": "+48 570807002",
                "contact:email": "ckziu@policki.pl",
                "contact:website": "http:\/\/www.ckziupolice.pl",
                "ref:regon": "380704123",
                "operator": "Powiat Policki",
                "operator:type": "government",
                "amenity": "school",
                "note": "Parent RSPO: 269921"
            }
        },
        {
            "id": 133792,
            "type": "Feature",
            "geometry": {
                "type": "Point",
                "coordinates": [
                    14.574,
                    53.54683
                ]
            },
            "properties": {
                "isced:level": "1;2",
                "ref:rspo": 133792,
                "official_name": "Szko\u0142a Podstawowa Nr 5 im. Or\u0142a Bia\u0142ego Z Oddzia\u0142ami Dwuj\u0119zycznymi",
                "name": "Szko\u0142a Podstawowa Nr 5",
                "addr:country": "PL",
                "addr:postcode": "72-010",
                "addr:city": "Police",
                "addr:street": "ul. Wojska Polskiego",
                "addr:housenumber": "68",
                "addr:teryt:simc": 24628,
                "addr:teryt:sym_ul": 979449,
                "contact:phone": "+48 914648370",
                "contact:email": "sp5@police.pl",
                "contact:website": "http:\/\/sp5.police.pl\/",
                "ref:regon": "367672790",
                "operator": "Gmina Police",
                "operator:type": "government",
                "amenity": "school"
            }
        },
        {
            "id": 80434,
            "type": "Feature",
            "geometry": {
                "type": "Point",
                "coordinates": [
                    14.55885,
                    53.54733
                ]
            },
            "properties": {
                "ref:rspo": 80434,
                "official_name": "Le\u015bne Przedszkole Publiczne Nr 6",
                "name": "Le\u015bne Przedszkole Publiczne Nr 6",
                "addr:country": "PL",
                "addr:postcode": "72-010",
                "addr:city": "Police",
                "addr:street": "ul. Zygmunta Wr\u00f3blewskiego",
                "addr:housenumber": "3",
                "addr:teryt:simc": 24840,
                "addr:teryt:sym_ul": 979449,
                "contact:phone": "+48 914554592",
                "contact:email": "pp6@police.pl",
                "contact:website": "http:\/\/www.pp6police.edu.pl",
                "ref:regon": "320832247",
                "ref:vatin": "PL8513117071",
                "operator": "Gmina Police",
                "operator:type": "government",
                "amenity": "kindergarten"
            }
        },
        {
            "id": 85239,
            "type": "Feature",
            "geometry": {
                "type": "Point",
                "coordinates": [
                    14.57091,
                    53.54925
                ]
            },
            "properties": {
                "ref:rspo": 85239,
                "official_name": "Niepubliczny Punkt Przedszkolny \"Urwisek\"",
                "name": "Niepubliczny Punkt Przedszkolny \"Urwisek\"",
                "addr:country": "PL",
                "addr:postcode": "72-010",
                "addr:city": "Police",
                "addr:street": "ul. gen. W\u0142adys\u0142awa Sikorskiego",
                "addr:housenumber": "11",
                "addr:teryt:simc": 19907,
                "addr:teryt:sym_ul": 979449,
                "contact:phone": "+48 696269532",
                "contact:email": "urwisek@home.pl",
                "contact:website": "http:\/\/urwisek.home.pl",
                "ref:regon": "321300802",
                "operator": "Katarzyna Szulecka",
                "operator:type": "private",
                "amenity": "kindergarten"
            }
        },
        {
            "id": 38701,
            "type": "Feature",
            "geometry": {
                "type": "Point",
                "coordinates": [
                    14.57014,
                    53.54946
                ]
            },
            "properties": {
                "isced:level": "1;2",
                "ref:rspo": 38701,
                "official_name": "Szko\u0142a Podstawowa Nr 1 im. Tadeusza Ko\u015bciuszki Z Oddzia\u0142ami Dwuj\u0119zycznymi I Sportowymi",
                "name": "Szko\u0142a Podstawowa Nr 1",
                "addr:country": "PL",
                "addr:postcode": "72-010",
                "addr:city": "Police",
                "addr:street": "ul. gen. W\u0142adys\u0142awa Sikorskiego",
                "addr:housenumber": "8",
                "addr:teryt:simc": 19907,
                "addr:teryt:sym_ul": 979449,
                "contact:phone": "+48 914240909",
                "contact:email": "sp1@police.pl",
                "contact:website": "http:\/\/www.sp1.police.pl",
                "ref:regon": "320821137",
                "ref:vatin": "PL8513116769",
                "operator": "Gmina Police",
                "operator:type": "government",
                "amenity": "school"
            }
        },
        {
            "id": 50311,
            "type": "Feature",
            "geometry": {
                "type": "Point",
                "coordinates": [
                    14.5691,
                    53.55001
                ]
            },
            "properties": {
                "ref:rspo": 50311,
                "official_name": "O\u015brodek Szkolenia Stg Maciej Wyszkowski",
                "name": "O\u015brodek Szkolenia Stg Maciej Wyszkowski",
                "addr:country": "PL",
                "addr:postcode": "72-010",
                "addr:city": "Police",
                "addr:street": "ul. Szkolna",
                "addr:housenumber": "2",
                "addr:teryt:simc": 21970,
                "addr:teryt:sym_ul": 979449,
                "contact:phone": "+48 602779229",
                "contact:email": "volker@stg44.pl",
                "contact:website": "http:\/\/www.stg44.pl",
                "ref:regon": "321288946",
                "ref:vatin": "PL8522173620",
                "operator": "Maciej Wyszkowski",
                "operator:type": "private",
                "fixme": "w zale\u017cno\u015bci od przedmiotu dzia\u0142alno\u015bci (np. amenity=training + training=*, amenity=dancing_school, amenity=language_school, amenity=music_school)"
            }
        },
        {
            "id": 79318,
            "type": "Feature",
            "geometry": {
                "type": "Point",
                "coordinates": [
                    14.56783,
                    53.55026
                ]
            },
            "properties": {
                "ref:rspo": 79318,
                "official_name": "Przedszkole Publiczne Nr 1 \"Calineczka\"",
                "name": "Przedszkole Publiczne Nr 1 \"Calineczka\"",
                "addr:country": "PL",
                "addr:postcode": "72-010",
                "addr:city": "Police",
                "addr:street": "ul. Romualda Traugutta",
                "addr:housenumber": "13\/15",
                "addr:door": "13-15",
                "addr:teryt:simc": 22965,
                "addr:teryt:sym_ul": 979449,
                "contact:phone": "+48 913176631",
                "contact:email": "irmi-na31@wp.pl",
                "contact:website": "http:\/\/www.pp1calineczka.pl",
                "ref:regon": "320822154",
                "ref:vatin": "PL8513117898",
                "operator": "Gmina Police",
                "operator:type": "government",
                "amenity": "kindergarten"
            }
        },
        {
            "id": 87192,
            "type": "Feature",
            "geometry": {
                "type": "Point",
                "coordinates": [
                    14.53937,
                    53.59241
                ]
            },
            "properties": {
                "isced:level": "1;2",
                "ref:rspo": 87192,
                "official_name": "Szko\u0142a Podstawowa Nr 6 Z Oddzia\u0142ami Dwuj\u0119zycznymi I Przedszkolnymi",
                "name": "Szko\u0142a Podstawowa Nr 6 Z Oddzia\u0142ami Dwuj\u0119zycznymi I Przedszkolnymi",
                "addr:country": "PL",
                "addr:postcode": "72-015",
                "addr:city": "Police",
                "addr:street": "ul. Owocowa",
                "addr:housenumber": "5",
                "addr:teryt:simc": 15479,
                "addr:teryt:sym_ul": 979449,
                "contact:phone": "+48 914316480",
                "contact:email": "sp6@police.pl",
                "ref:regon": "320832218",
                "operator": "Gmina Police",
                "operator:type": "government",
                "amenity": "school"
            }
        },
        {
            "id": 87185,
            "type": "Feature",
            "geometry": {
                "type": "Point",
                "coordinates": [
                    14.507189750671,
                    53.656089782715
                ]
            },
            "properties": {
                "isced:level": "1;2",
                "ref:rspo": 87185,
                "official_name": "Szko\u0142a Podstawowa Z Oddzia\u0142ami Dwuj\u0119zycznymi I Przedszkolnymi w Trzebie\u017cy",
                "name": "Szko\u0142a Podstawowa Z Oddzia\u0142ami Dwuj\u0119zycznymi I Przedszkolnymi w Trzebie\u017cy",
                "addr:country": "PL",
                "addr:postcode": "72-020",
                "addr:city": "Trzebie\u017c",
                "addr:street": "ul. Wkrza\u0144ska",
                "addr:housenumber": "19a",
                "addr:teryt:simc": 24478,
                "addr:teryt:sym_ul": 781173,
                "contact:phone": "+48 914241210",
                "contact:email": "sptrzebiez@police.pl",
                "contact:website": "http:\/\/zstrzebiez.home.pl",
                "ref:regon": "320825394",
                "operator": "Gmina Police",
                "operator:type": "government",
                "amenity": "school"
            }
        }
    ]
}