{
    "type": "FeatureCollection",
    "features": [
        {
            "id": 11869,
            "type": "Feature",
            "geometry": {
                "type": "Point",
                "coordinates": [
                    14.43482,
                    53.33672
                ]
            },
            "properties": {
                "ref:rspo": 11869,
                "official_name": "Zesp\u00f3\u0142 Plac\u00f3wek O\u015bwiatowych",
                "name": "Zesp\u00f3\u0142 Plac\u00f3wek O\u015bwiatowych",
                "addr:country": "PL",
                "addr:postcode": "72-001",
                "addr:place": "Ko\u0142baskowo",
                "addr:housenumber": "57",
                "addr:teryt:simc": 777786,
                "contact:phone": "+48 913119505",
                "contact:email": "zpokolbaskowo@wp.pl",
                "ref:regon": "812522690",
                "ref:vatin": "PL8512868935",
                "operator": "Gmina Ko\u0142baskowo",
                "operator:type": "government",
                "landuse": "education",
                "fixme": "amenity=school, amenity=college albo landuse=education w zale\u017cno\u015bci od tego, jakie plac\u00f3wki wchodz\u0105 w sk\u0142ad zespo\u0142u. Sprawd\u017a, kiedy stosowa\u0107 amenity=* a kiedy landuse=education.",
                "note": "Children RSPO: 30228;47256"
            }
        },
        {
            "id": 30228,
            "type": "Feature",
            "geometry": {
                "type": "Point",
                "coordinates": [
                    14.43482,
                    53.33669
                ]
            },
            "properties": {
                "isced:level": "1;2",
                "ref:rspo": 30228,
                "official_name": "Szko\u0142a Podstawowa im. \u015aw. Huberta w Ko\u0142baskowie",
                "name": "Szko\u0142a Podstawowa",
                "addr:country": "PL",
                "addr:postcode": "72-001",
                "addr:place": "Ko\u0142baskowo",
                "addr:housenumber": "57",
                "addr:teryt:simc": 777786,
                "contact:phone": "+48 913119505",
                "contact:email": "zpokolbaskowo@wp.pl",
                "ref:regon": "810822531",
                "operator": "Gmina Ko\u0142baskowo",
                "operator:type": "government",
                "amenity": "school",
                "note": "Parent RSPO: 11869"
            }
        },
        {
            "id": 47256,
            "type": "Feature",
            "geometry": {
                "type": "Point",
                "coordinates": [
                    14.43482,
                    53.33666
                ]
            },
            "properties": {
                "ref:rspo": 47256,
                "official_name": "Przedszkole Gminne",
                "name": "Przedszkole Gminne",
                "addr:country": "PL",
                "addr:postcode": "72-001",
                "addr:place": "Ko\u0142baskowo",
                "addr:housenumber": "57",
                "addr:teryt:simc": 777786,
                "contact:phone": "+48 913119505",
                "ref:regon": "812522684",
                "operator": "Gmina Ko\u0142baskowo",
                "operator:type": "government",
                "amenity": "kindergarten",
                "note": "Parent RSPO: 11869"
            }
        },
        {
            "id": 277453,
            "type": "Feature",
            "geometry": {
                "type": "Point",
                "coordinates": [
                    14.50019,
                    53.35452
                ]
            },
            "properties": {
                "ref:rspo": 277453,
                "official_name": "Kids&Active Slawomir Biegu\u0144ski",
                "name": "Kids&Active Slawomir Biegu\u0144ski",
                "addr:country": "PL",
                "addr:postcode": "72-001",
                "addr:city": "Siad\u0142o Dolne",
                "addr:street": "Wichrowe Wzg\u00f3rza",
                "addr:housenumber": "31",
                "addr:door": "2",
                "addr:teryt:simc": 777881,
                "addr:teryt:sym_ul": 28926,
                "contact:phone": "+48 570448842",
                "contact:email": "slawek.kidsactive@gmail.com",
                "ref:regon": "388949396",
                "ref:vatin": "PL6731870196",
                "operator": "S\u0142awomir Biegu\u0144ski",
                "operator:type": "private",
                "fixme": "w zale\u017cno\u015bci od przedmiotu dzia\u0142alno\u015bci (np. amenity=training + training=*, amenity=dancing_school, amenity=language_school, amenity=music_school)"
            }
        },
        {
            "id": 274318,
            "type": "Feature",
            "geometry": {
                "type": "Point",
                "coordinates": [
                    14.47201,
                    53.37297
                ]
            },
            "properties": {
                "ref:rspo": 274318,
                "official_name": "Przedszkole Montessori Magnolia",
                "name": "Przedszkole Montessori Magnolia",
                "addr:country": "PL",
                "addr:postcode": "72-005",
                "addr:place": "Przec\u0142aw",
                "addr:housenumber": "3",
                "addr:teryt:simc": 777846,
                "contact:email": "montessori.magnolia@gmail.pl",
                "contact:website": "http:\/\/www.montessori-magnolia.pl",
                "ref:regon": "385558301",
                "operator": "Centrum Edukacji I Terapii Magnolia Sp\u00f3\u0142ka Z Ograniczon\u0105 Odpowiedzialno\u015bci\u0105",
                "operator:type": "consortium",
                "amenity": "kindergarten"
            }
        },
        {
            "id": 274571,
            "type": "Feature",
            "geometry": {
                "type": "Point",
                "coordinates": [
                    14.47201,
                    53.37294
                ]
            },
            "properties": {
                "isced:level": "3",
                "ref:rspo": 274571,
                "official_name": "Niepubliczne Liceum Og\u00f3lnokszta\u0142c\u0105ce Fundacji Kr\u00f3lowej \u015awi\u0119tej Jadwigi w Przec\u0142awiu",
                "name": "Niepubliczne Liceum Og\u00f3lnokszta\u0142c\u0105ce Fundacji Kr\u00f3lowej \u015awi\u0119tej Jadwigi w Przec\u0142awiu",
                "addr:country": "PL",
                "addr:postcode": "72-005",
                "addr:place": "Przec\u0142aw",
                "addr:housenumber": "3",
                "addr:teryt:simc": 777846,
                "contact:phone": "+48 334454533",
                "contact:email": "biuromms@szkolamontessori.com.pl",
                "ref:regon": "385974650",
                "operator": "Fundacja Kr\u00f3lowej \u015awi\u0119tej Jadwigi",
                "operator:type": "ngo",
                "amenity": "school"
            }
        },
        {
            "id": 275002,
            "type": "Feature",
            "geometry": {
                "type": "Point",
                "coordinates": [
                    14.47201,
                    53.372910000000005
                ]
            },
            "properties": {
                "isced:level": "1;2",
                "ref:rspo": 275002,
                "official_name": "Niepubliczna Szko\u0142a Podstawowa Fundacji Kr\u00f3lowej \u015awi\u0119tej Jadwigi w Przec\u0142awiu",
                "name": "Niepubliczna Szko\u0142a Podstawowa Fundacji Kr\u00f3lowej \u015awi\u0119tej Jadwigi w Przec\u0142awiu",
                "addr:country": "PL",
                "addr:postcode": "72-005",
                "addr:place": "Przec\u0142aw",
                "addr:housenumber": "3",
                "addr:teryt:simc": 777846,
                "contact:phone": "+48 334454533",
                "contact:email": "biuromms@szkolamontessori.com.pl",
                "ref:regon": "386489938",
                "operator": "Fundacja Kr\u00f3lowej \u015awi\u0119tej Jadwigi",
                "operator:type": "ngo",
                "amenity": "school"
            }
        },
        {
            "id": 47261,
            "type": "Feature",
            "geometry": {
                "type": "Point",
                "coordinates": [
                    14.51202,
                    53.3733
                ]
            },
            "properties": {
                "ref:rspo": 47261,
                "official_name": "I Zachodniopomorskie Niepubliczne Przedszkole Montessori \"Bona Ventura\"",
                "name": "I Zachodniopomorskie Niepubliczne Przedszkole Montessori \"Bona Ventura\"",
                "addr:country": "PL",
                "addr:postcode": "72-001",
                "addr:city": "Kur\u00f3w",
                "addr:street": "Na Klifie",
                "addr:housenumber": "7",
                "addr:teryt:simc": 777792,
                "addr:teryt:sym_ul": 39487,
                "contact:phone": "+48 914333000",
                "contact:email": "bonaventura@przedszkole-kurow.pl",
                "ref:regon": "321288260",
                "operator": "Horme Sp\u00f3\u0142ka Z Ograniczon\u0105 Odpowiedzialno\u015bci\u0105",
                "operator:type": "private",
                "amenity": "kindergarten"
            }
        },
        {
            "id": 9716,
            "type": "Feature",
            "geometry": {
                "type": "Point",
                "coordinates": [
                    14.47308,
                    53.37742
                ]
            },
            "properties": {
                "ref:rspo": 9716,
                "official_name": "Punkt Przedszkolny w Szkole Podstawowej",
                "name": "Punkt Przedszkolny w Szkole Podstawowej",
                "addr:country": "PL",
                "addr:postcode": "72-005",
                "addr:place": "Przec\u0142aw",
                "addr:housenumber": "27a",
                "addr:teryt:simc": 777846,
                "contact:phone": "+48 913117608",
                "contact:email": "szkolapodstawowa@szkolaprzeclaw.pl",
                "contact:website": "http:\/\/www.szkolaprzeclaw.pl",
                "ref:regon": "321269877",
                "operator": "Gmina Ko\u0142baskowo",
                "operator:type": "government",
                "amenity": "kindergarten"
            }
        },
        {
            "id": 44462,
            "type": "Feature",
            "geometry": {
                "type": "Point",
                "coordinates": [
                    14.47308,
                    53.37739
                ]
            },
            "properties": {
                "isced:level": "1;2",
                "ref:rspo": 44462,
                "official_name": "Szko\u0142a Podstawowa",
                "name": "Szko\u0142a Podstawowa",
                "addr:country": "PL",
                "addr:postcode": "72-005",
                "addr:place": "Przec\u0142aw",
                "addr:housenumber": "27a",
                "addr:teryt:simc": 777846,
                "contact:phone": "+48 913117608",
                "contact:email": "szkolapodstawowa@szkolaprzeclaw.pl",
                "contact:website": "http:\/\/www.szkolaprzeclaw.pl",
                "ref:regon": "810822577",
                "ref:vatin": "PL8513164679",
                "operator": "Gmina Ko\u0142baskowo",
                "operator:type": "government",
                "amenity": "school"
            }
        },
        {
            "id": 196207,
            "type": "Feature",
            "geometry": {
                "type": "Point",
                "coordinates": [
                    14.46982,
                    53.3774299
                ]
            },
            "properties": {
                "ref:rspo": 196207,
                "official_name": "Przedszkole Publiczne w Przec\u0142awiu",
                "name": "Przedszkole Publiczne w Przec\u0142awiu",
                "addr:country": "PL",
                "addr:postcode": "72-005",
                "addr:place": "Przec\u0142aw",
                "addr:housenumber": "120",
                "addr:teryt:simc": 777846,
                "contact:phone": "+48 915065800",
                "contact:email": "sekretariat@przedszkole-w-przeclawiu.edu.pl",
                "contact:website": "http:\/\/www.przedszkole-w-przeclawiu.edu.pl",
                "ref:regon": "367990811",
                "operator": "Gmina Ko\u0142baskowo",
                "operator:type": "government",
                "amenity": "kindergarten"
            }
        },
        {
            "id": 47985,
            "type": "Feature",
            "geometry": {
                "type": "Point",
                "coordinates": [
                    14.47046,
                    53.37952
                ]
            },
            "properties": {
                "ref:rspo": 47985,
                "official_name": "Niepubliczne Przedszkole \"Wyspa Malucha\"",
                "name": "Niepubliczne Przedszkole \"Wyspa Malucha\"",
                "addr:country": "PL",
                "addr:postcode": "72-005",
                "addr:place": "Przec\u0142aw",
                "addr:housenumber": "101",
                "addr:teryt:simc": 777846,
                "contact:phone": "+48 913117171",
                "contact:email": "info@wyspamalucha.edu.pl",
                "contact:website": "http:\/\/www.wyspamalucha.edu.pl",
                "ref:regon": "321288573",
                "operator": "Towarzystwo Wiedzy Powszechnej Oddzia\u0142 Regionalny W Szczecinie",
                "operator:type": "ngo",
                "amenity": "kindergarten"
            }
        },
        {
            "id": 279065,
            "type": "Feature",
            "geometry": {
                "type": "Point",
                "coordinates": [
                    14.47641,
                    53.38146
                ]
            },
            "properties": {
                "ref:rspo": 279065,
                "official_name": "Niepubliczne Przedszkole Ogr\u00f3d Montessori",
                "name": "Niepubliczne Przedszkole Ogr\u00f3d Montessori",
                "addr:country": "PL",
                "addr:postcode": "72-005",
                "addr:place": "Przec\u0142aw",
                "addr:housenumber": "85c",
                "addr:teryt:simc": 777846,
                "contact:email": "aleksandrataras@o2.pl",
                "ref:regon": "520537460",
                "operator": "Aleksandra Taras",
                "operator:type": "private",
                "amenity": "kindergarten"
            }
        },
        {
            "id": 12743,
            "type": "Feature",
            "geometry": {
                "type": "Point",
                "coordinates": [
                    14.44448,
                    53.38774
                ]
            },
            "properties": {
                "isced:level": "1;2",
                "ref:rspo": 12743,
                "official_name": "Szko\u0142a Podstawowa im.rotmistrza Witolda Pileckiego w B\u0119dargowie",
                "name": "Szko\u0142a Podstawowa im.rotmistrza Witolda Pileckiego w B\u0119dargowie",
                "addr:country": "PL",
                "addr:postcode": "72-005",
                "addr:place": "B\u0119dargowo",
                "addr:housenumber": "1",
                "addr:teryt:simc": 777740,
                "contact:phone": "+48 913117452",
                "contact:email": "spbedargowo@wp.pl",
                "ref:regon": "001223430",
                "ref:vatin": "PL8512897813",
                "operator": "Gmina Ko\u0142baskowo",
                "operator:type": "government",
                "amenity": "school"
            }
        },
        {
            "id": 11369,
            "type": "Feature",
            "geometry": {
                "type": "Point",
                "coordinates": [
                    14.44439,
                    53.38816
                ]
            },
            "properties": {
                "ref:rspo": 11369,
                "official_name": "Punkt Przedszkolny w Szkole Podstawowej",
                "name": "Punkt Przedszkolny w Szkole Podstawowej",
                "addr:country": "PL",
                "addr:postcode": "72-005",
                "addr:place": "B\u0119dargowo",
                "addr:housenumber": "1a",
                "addr:teryt:simc": 777740,
                "contact:phone": "+48 913117452",
                "ref:regon": "321271390",
                "operator": "Gmina Ko\u0142baskowo",
                "operator:type": "government",
                "amenity": "kindergarten"
            }
        },
        {
            "id": 275023,
            "type": "Feature",
            "geometry": {
                "type": "Point",
                "coordinates": [
                    14.45821,
                    53.41285
                ]
            },
            "properties": {
                "ref:rspo": 275023,
                "official_name": "Zesp\u00f3\u0142 Szkolno-Przedszkolny w Przylepie",
                "name": "Zesp\u00f3\u0142 Szkolno-Przedszkolny w Przylepie",
                "addr:country": "PL",
                "addr:postcode": "72-005",
                "addr:city": "Przylep",
                "addr:street": "Rodzinna",
                "addr:housenumber": "1",
                "addr:teryt:simc": 777852,
                "addr:teryt:sym_ul": 18725,
                "contact:phone": "+48 915065980",
                "contact:email": "dyrektor@przylep.edu.pl",
                "contact:website": "http:\/\/www.przylep.edu.pl",
                "ref:regon": "386508021",
                "operator": "Gmina Ko\u0142baskowo",
                "operator:type": "government",
                "landuse": "education",
                "fixme": "amenity=school, amenity=college albo landuse=education w zale\u017cno\u015bci od tego, jakie plac\u00f3wki wchodz\u0105 w sk\u0142ad zespo\u0142u. Sprawd\u017a, kiedy stosowa\u0107 amenity=* a kiedy landuse=education.",
                "note": "Children RSPO: 275019;275020"
            }
        },
        {
            "id": 275019,
            "type": "Feature",
            "geometry": {
                "type": "Point",
                "coordinates": [
                    14.45821,
                    53.412819999999996
                ]
            },
            "properties": {
                "isced:level": "1;2",
                "ref:rspo": 275019,
                "official_name": "Szko\u0142a Podstawowa w Przylepie",
                "name": "Szko\u0142a Podstawowa w Przylepie",
                "addr:country": "PL",
                "addr:postcode": "72-005",
                "addr:city": "Przylep",
                "addr:street": "Rodzinna",
                "addr:housenumber": "1",
                "addr:teryt:simc": 777852,
                "addr:teryt:sym_ul": 18725,
                "contact:phone": "+48 915065980",
                "contact:email": "dyrektor@przylep.edu.pl",
                "contact:website": "http:\/\/www.przylep.edu.pl",
                "ref:regon": "386505287",
                "operator": "Gmina Ko\u0142baskowo",
                "operator:type": "government",
                "amenity": "school",
                "note": "Parent RSPO: 275023"
            }
        },
        {
            "id": 275020,
            "type": "Feature",
            "geometry": {
                "type": "Point",
                "coordinates": [
                    14.45821,
                    53.41279
                ]
            },
            "properties": {
                "ref:rspo": 275020,
                "official_name": "Przedszkole Publiczne w Przylepie",
                "name": "Przedszkole Publiczne w Przylepie",
                "addr:country": "PL",
                "addr:postcode": "72-005",
                "addr:city": "Przylep",
                "addr:street": "Rodzinna",
                "addr:housenumber": "1",
                "addr:teryt:simc": 777852,
                "addr:teryt:sym_ul": 18725,
                "contact:phone": "+48 915065980",
                "contact:email": "dyrektor@przylep.edu.pl",
                "contact:website": "http:\/\/www.przylep.edu.pl",
                "ref:regon": "386505330",
                "operator": "Gmina Ko\u0142baskowo",
                "operator:type": "government",
                "amenity": "kindergarten",
                "note": "Parent RSPO: 275023"
            }
        }
    ]
}