{"type":"FeatureCollection","features":[{"id":16713,"type":"Feature","geometry":{"type":"Point","coordinates":[14.45664,53.4256]},"properties":{"ref:rspo":16713,"official_name":"Niepubliczny Punkt Przedszkolny Akademii Tw\u00f3rczej Edukacji \"Pszcz\u00f3\u0142ka\"","name":"Niepubliczny Punkt Przedszkolny Akademii Tw\u00f3rczej Edukacji \"Pszcz\u00f3\u0142ka\"","addr:country":"PL","addr:postcode":"72-006","addr:city":"Mierzyn","addr:street":"ul. \u015aliczna","addr:housenumber":"1","addr:teryt:simc":22326,"addr:teryt:sym_ul":774233,"contact:phone":"+48 513867408","contact:email":"pszczolka.szczecin@wp.pl","contact:website":"http:\/\/www.pszczolka.szczecin.pl","ref:regon":"321277109","operator":"Magdalena K\u0142oszewska","operator:type":"private","amenity":"kindergarten"}},{"id":276552,"type":"Feature","geometry":{"type":"Point","coordinates":[14.4636,53.42587]},"properties":{"ref:rspo":276552,"official_name":"Zesp\u00f3\u0142 Przedszkoli w Mierzynie","name":"Zesp\u00f3\u0142 Przedszkoli w Mierzynie","addr:country":"PL","addr:postcode":"72-006","addr:city":"Mierzyn","addr:street":"ul. Kolorowa","addr:housenumber":"25","addr:teryt:simc":8979,"addr:teryt:sym_ul":774233,"contact:phone":"+48 918853902","contact:email":"sekretariat@przedszkolemierzyn.pl","ref:regon":"387229197","ref:vatin":"PL8513251705","operator":"Gmina Dobra","operator:type":"government","landuse":"education","fixme":"amenity=school, amenity=college albo landuse=education w zale\u017cno\u015bci od tego, jakie plac\u00f3wki wchodz\u0105 w sk\u0142ad zespo\u0142u. Sprawd\u017a, kiedy stosowa\u0107 amenity=* a kiedy landuse=education.","note":"Children RSPO: 125231;275239"}},{"id":275239,"type":"Feature","geometry":{"type":"Point","coordinates":[14.4636,53.42584]},"properties":{"ref:rspo":275239,"official_name":"Przedszkole Publiczne Nr 1 w Mierzynie","name":"Przedszkole Publiczne Nr 1 w Mierzynie","addr:country":"PL","addr:postcode":"72-006","addr:city":"Mierzyn","addr:street":"ul. Kolorowa","addr:housenumber":"25","addr:teryt:simc":8979,"addr:teryt:sym_ul":774233,"contact:phone":"+48 918853902","contact:email":"sekretariat@przedszkolemierzyn.pl","ref:regon":"386724820","operator":"Gmina Dobra","operator:type":"government","amenity":"kindergarten","note":"Parent RSPO: 276552"}},{"id":60102,"type":"Feature","geometry":{"type":"Point","coordinates":[14.46345,53.42589]},"properties":{"isced:level":"1;2","ref:rspo":60102,"official_name":"Publiczna Szko\u0142a Podstawowa im. Przyjaci\u00f3\u0142 Dzieci w Mierzynie","name":"Publiczna Szko\u0142a Podstawowa","addr:country":"PL","addr:postcode":"72-006","addr:city":"Mierzyn","addr:street":"ul. Kolorowa","addr:housenumber":"27","addr:teryt:simc":8979,"addr:teryt:sym_ul":774233,"contact:phone":"+48 914831340","contact:email":"szkola@pspmierzyn.pl","contact:website":"http:\/\/www.pspmierzyn.pl","ref:regon":"001223601","ref:vatin":"PL8512755728","operator":"Gmina Dobra","operator:type":"government","amenity":"school"}},{"id":125231,"type":"Feature","geometry":{"type":"Point","coordinates":[14.46379,53.43012]},"properties":{"ref:rspo":125231,"official_name":"Przedszkole Publiczne Nr 2 w Mierzynie","name":"Przedszkole Publiczne Nr 2 w Mierzynie","addr:country":"PL","addr:postcode":"72-006","addr:city":"Mierzyn","addr:street":"ul. Welecka","addr:housenumber":"30","addr:teryt:simc":23846,"addr:teryt:sym_ul":774233,"contact:phone":"+48 571425646","contact:email":"sekretariat@przedszkolemierzyn.pl","ref:regon":"321575166","operator":"Gmina Dobra","operator:type":"government","amenity":"kindergarten","note":"Parent RSPO: 276552"}},{"id":74039,"type":"Feature","geometry":{"type":"Point","coordinates":[14.38863,53.43049]},"properties":{"ref:rspo":74039,"official_name":"O\u015brodek Szkoleniowy I Pracownia Projektowa Podest","name":"O\u015brodek Szkoleniowy I Pracownia Projektowa Podest","addr:country":"PL","addr:postcode":"72-002","addr:city":"Ko\u015bcino","addr:street":"ul. Czapli","addr:housenumber":"21","addr:teryt:simc":3244,"addr:teryt:sym_ul":774210,"contact:phone":"+48 918101024","contact:email":"podest@elwiko.pl","ref:regon":"321294579","operator":"Barbara Dropik","operator:type":"private","fixme":"w zale\u017cno\u015bci od przedmiotu dzia\u0142alno\u015bci (np. amenity=training + training=*, amenity=dancing_school, amenity=language_school, amenity=music_school)"}},{"id":52399,"type":"Feature","geometry":{"type":"Point","coordinates":[14.45928,53.43154]},"properties":{"ref:rspo":52399,"official_name":"Niepubliczne Przedszkole \"Mierzynkowo\"","name":"Niepubliczne Przedszkole \"Mierzynkowo\"","addr:country":"PL","addr:postcode":"72-006","addr:city":"Mierzyn","addr:street":"ul. Welecka","addr:housenumber":"21A","addr:teryt:simc":23846,"addr:teryt:sym_ul":774233,"contact:phone":"+48 669051188","contact:email":"mierzynkowo@mierzynkowo.pl","contact:website":"http:\/\/www.mierzynkowo.pl","ref:regon":"321289319","operator":"Stefan Woro\u017cbicki","operator:type":"private","amenity":"kindergarten"}},{"id":90417,"type":"Feature","geometry":{"type":"Point","coordinates":[14.40874,53.43509]},"properties":{"isced:level":"1;2","ref:rspo":90417,"official_name":"Publiczna Szko\u0142a Podstawowa w Do\u0142ujach","name":"Publiczna Szko\u0142a Podstawowa w Do\u0142ujach","addr:country":"PL","addr:postcode":"72-002","addr:city":"Do\u0142uje","addr:street":"ul. Daniela","addr:housenumber":"18","addr:teryt:simc":3585,"addr:teryt:sym_ul":774196,"contact:phone":"+48 913118820","contact:email":"dolujeszkola@wp.pl","contact:website":"http:\/\/www.pspsdoluje.edupage.org","ref:regon":"810174500","ref:vatin":"PL8512755697","operator":"Gmina Dobra","operator:type":"government","amenity":"school"}},{"id":125407,"type":"Feature","geometry":{"type":"Point","coordinates":[14.47017,53.43618]},"properties":{"ref:rspo":125407,"official_name":"Niepubliczne Przedszkole Montessori","name":"Niepubliczne Przedszkole Montessori","addr:country":"PL","addr:postcode":"72-006","addr:city":"Mierzyn","addr:street":"ul. Poranna","addr:housenumber":"2","addr:teryt:simc":17191,"addr:teryt:sym_ul":774233,"contact:phone":"+48 501303015","contact:email":"biuro@szczecinmontessori.pl","contact:website":"http:\/\/www.szczecinmontessori.pl","ref:regon":"321577432","operator":"Wioleta Wyder","operator:type":"private","amenity":"kindergarten"}},{"id":268553,"type":"Feature","geometry":{"type":"Point","coordinates":[14.46993,53.43633]},"properties":{"ref:rspo":268553,"official_name":"Sensoryczno-Integracyjny Punkt Przedszkolny Poranna Chmurka","name":"Sensoryczno-Integracyjny Punkt Przedszkolny Poranna Chmurka","addr:country":"PL","addr:postcode":"72-006","addr:city":"Mierzyn","addr:street":"ul. Poranna","addr:housenumber":"4","addr:teryt:simc":17191,"addr:teryt:sym_ul":774233,"contact:phone":"+48 601416301","contact:email":"arturlenski28@gmail.com","contact:website":"http:\/\/www.porannachmurka.pl","ref:regon":"381200933","ref:vatin":"PL9551180936","operator":"Artur Leszczy\u0144ski","operator:type":"private","amenity":"kindergarten"}},{"id":90421,"type":"Feature","geometry":{"type":"Point","coordinates":[14.40972,53.43793]},"properties":{"ref:rspo":90421,"official_name":"Punkt Przedszkolny w Publicznej Szkole Podstawowej w Do\u0142ujach","name":"Punkt Przedszkolny w Publicznej Szkole Podstawowej w Do\u0142ujach","addr:country":"PL","addr:postcode":"72-002","addr:city":"Do\u0142uje","addr:street":"ul. S\u0142oneczny Sad","addr:housenumber":"24","addr:teryt:simc":32977,"addr:teryt:sym_ul":774196,"contact:phone":"+48 913118339","contact:email":"dolujeszkola@wp.pl","contact:website":"http:\/\/www.pspsdoluje.edupage.org","ref:regon":"321304935","operator":"Gmina Dobra","operator:type":"government","amenity":"kindergarten"}},{"id":131725,"type":"Feature","geometry":{"type":"Point","coordinates":[14.45278,53.43902]},"properties":{"ref:rspo":131725,"official_name":"Niepubliczny Punkt Przedszkolny Akademia Wszechstronnego Rozwoju Rekin w Krawacie","name":"Niepubliczny Punkt Przedszkolny Akademia Wszechstronnego Rozwoju Rekin w Krawacie","addr:country":"PL","addr:postcode":"72-006","addr:city":"Mierzyn","addr:street":"ul. Marcepanowa","addr:housenumber":"2","addr:teryt:simc":12273,"addr:teryt:sym_ul":774233,"contact:phone":"+48 698663747","contact:email":"biuro@wodnehobby.pl","ref:regon":"365336697","operator":"Wioletta Szczepaniak","operator:type":"private","amenity":"kindergarten"}},{"id":264366,"type":"Feature","geometry":{"type":"Point","coordinates":[14.46007,53.44166]},"properties":{"ref:rspo":264366,"official_name":"Punkt Przedszkolny Akademia Malucha \"Jag\u00f3dka\"","name":"Punkt Przedszkolny Akademia Malucha \"Jag\u00f3dka\"","addr:country":"PL","addr:postcode":"72-006","addr:city":"Mierzyn","addr:street":"ul. \u0141ukasi\u0144skiego","addr:housenumber":"129","addr:teryt:simc":11752,"addr:teryt:sym_ul":774233,"contact:phone":"+48 535339055","ref:regon":"368322365","operator":"Ewa Bedorf","operator:type":"private","amenity":"kindergarten"}},{"id":269876,"type":"Feature","geometry":{"type":"Point","coordinates":[14.40426,53.4428]},"properties":{"ref:rspo":269876,"official_name":"Przedszkole S\u0142oneczny Sad","name":"Przedszkole S\u0142oneczny Sad","addr:country":"PL","addr:postcode":"72-002","addr:city":"Do\u0142uje","addr:street":"ul. S\u0142oneczny Sad","addr:housenumber":"49","addr:teryt:simc":32977,"addr:teryt:sym_ul":774196,"contact:phone":"+48 535200233","contact:email":"slonecznysaddoluje@gmail.com","contact:website":"http:\/\/www.sloneczny-sad.pl","ref:regon":"381817208","operator":"Joanna Al Zaben","operator:type":"private","amenity":"kindergarten"}},{"id":50141,"type":"Feature","geometry":{"type":"Point","coordinates":[14.46572,53.45427]},"properties":{"ref:rspo":50141,"official_name":"\"Aqua Academy\" (\"Aqua Academy\" Szczecin-Bezrzecze\")","name":"\"Aqua Academy\" (\"Aqua Academy\" Szczecin-Bezrzecze\")","addr:country":"PL","addr:postcode":"71-219","addr:city":"Bezrzecze","addr:street":"ul. Nowowiejska","addr:housenumber":"5b","addr:teryt:simc":14495,"addr:teryt:sym_ul":774144,"contact:phone":"+48 694402039","contact:email":"info@aqua-academy.pl","contact:website":"http:\/\/www.aqua-academy.pl","ref:regon":"321288923","ref:vatin":"PL8522387350","operator":"Miros\u0142awa O\u0142owska","operator:type":"private","fixme":"w zale\u017cno\u015bci od przedmiotu dzia\u0142alno\u015bci (np. amenity=training + training=*, amenity=dancing_school, amenity=language_school, amenity=music_school)"}},{"id":264338,"type":"Feature","geometry":{"type":"Point","coordinates":[14.45798,53.45625]},"properties":{"ref:rspo":264338,"official_name":"Akademia Malucha \"Jag\u00f3dka\" Niepubliczne Przedszkole","name":"Akademia Malucha \"Jag\u00f3dka\" Niepubliczne Przedszkole","addr:country":"PL","addr:postcode":"71-220","addr:city":"Bezrzecze","addr:street":"ul. Koralowa","addr:housenumber":"64X","addr:teryt:simc":9316,"addr:teryt:sym_ul":774144,"contact:phone":"+48 535339055","contact:email":"jagodka.szczecin@gmail.com","ref:regon":"368314822","ref:vatin":"PL8512885537","operator":"Ewa Bedorf","operator:type":"private","amenity":"kindergarten"}},{"id":60173,"type":"Feature","geometry":{"type":"Point","coordinates":[14.45829,53.4569199]},"properties":{"ref:rspo":60173,"official_name":"Punkt Przedszkolny w Publicznej Szkole Podstawowej w Bezrzeczu","name":"Punkt Przedszkolny w Publicznej Szkole Podstawowej w Bezrzeczu","addr:country":"PL","addr:postcode":"71-218","addr:city":"Bezrzecze","addr:street":"ul. Koralowa","addr:housenumber":"61B","addr:door":"17","addr:teryt:simc":9316,"addr:teryt:sym_ul":774144,"contact:phone":"+48 512991745","contact:email":"szkola@pspbezrzecze.pl","contact:website":"http:\/\/www.pspbezrzecze.pl\/page\/283","ref:regon":"321290802","operator":"Gmina Dobra","operator:type":"government","amenity":"kindergarten"}},{"id":60155,"type":"Feature","geometry":{"type":"Point","coordinates":[14.45583,53.45743]},"properties":{"isced:level":"1;2","ref:rspo":60155,"official_name":"Publiczna Szko\u0142a Podstawowa w Bezrzeczu","name":"Publiczna Szko\u0142a Podstawowa w Bezrzeczu","addr:country":"PL","addr:postcode":"71-218","addr:city":"Bezrzecze","addr:street":"ul. G\u00f3rna","addr:housenumber":"3","addr:teryt:simc":5948,"addr:teryt:sym_ul":774144,"contact:phone":"+48 914391731","contact:email":"szkola@pspbezrzecze.pl","contact:website":"http:\/\/www.pspbezrzecze.pl","ref:regon":"810174569","ref:vatin":"PL8512755711","operator":"Gmina Dobra","operator:type":"government","amenity":"school"}},{"id":119164,"type":"Feature","geometry":{"type":"Point","coordinates":[14.45171,53.46208]},"properties":{"ref:rspo":119164,"official_name":"Przedszkole Niepubliczne \"Kraina U\u015bmiechu\"","name":"Przedszkole Niepubliczne \"Kraina U\u015bmiechu\"","addr:country":"PL","addr:postcode":"71-218","addr:city":"Bezrzecze","addr:street":"ul. G\u00f3rna","addr:housenumber":"18","addr:door":"LU-1","addr:teryt:simc":5948,"addr:teryt:sym_ul":774144,"contact:phone":"+48 888666811","contact:email":"kraina.przedszkole.szczecin@gmail.com","ref:regon":"321419035","operator":"Anna Szadkowska-Melan","operator:type":"private","amenity":"kindergarten"}},{"id":276909,"type":"Feature","geometry":{"type":"Point","coordinates":[14.45132,53.46563]},"properties":{"ref:rspo":276909,"official_name":"Strefa Kreatywnego Rozwoju Ma\u0142ego Cz\u0142owieka \"Nasza Bajka\"","name":"Strefa Kreatywnego Rozwoju Ma\u0142ego Cz\u0142owieka \"Nasza Bajka\"","addr:country":"PL","addr:postcode":"71-220","addr:city":"Bezrzecze","addr:street":"ul. Aloesowa","addr:housenumber":"17","addr:teryt:simc":37469,"addr:teryt:sym_ul":774144,"contact:email":"przedszkole@naszabajka.pl","ref:regon":"387810791","operator":"Ma\u0142gorzata B\u0142aszkiewicz","operator:type":"private","amenity":"kindergarten"}},{"id":59816,"type":"Feature","geometry":{"type":"Point","coordinates":[14.43954,53.47137]},"properties":{"ref:rspo":59816,"official_name":"Niepubliczne Przedszkole Malinowa Edukacja","name":"Niepubliczne Przedszkole Malinowa Edukacja","addr:country":"PL","addr:postcode":"72-003","addr:city":"Wo\u0142czkowo","addr:street":"ul. Siewna","addr:housenumber":"16","addr:teryt:simc":19891,"addr:teryt:sym_ul":774300,"contact:phone":"+48 791222452","contact:email":"biuromalinowa@gmail.com","contact:website":"http:\/\/www.malinowaedukacja.pl","ref:regon":"321292959","operator":"Agnieszka Stoma","operator:type":"private","amenity":"kindergarten"}},{"id":60101,"type":"Feature","geometry":{"type":"Point","coordinates":[14.38952,53.4882]},"properties":{"isced:level":"1;2","ref:rspo":60101,"official_name":"Publiczna Szko\u0142a Podstawowa im. K.I. Ga\u0142czy\u0144skiego w Dobrej","name":"Publiczna Szko\u0142a Podstawowa","addr:country":"PL","addr:postcode":"72-003","addr:city":"Dobra","addr:street":"ul. Poziomkowa","addr:housenumber":"5","addr:teryt:simc":17390,"addr:teryt:sym_ul":774167,"contact:phone":"+48 913113392","contact:email":"sekretariat@pspdobra.eu","contact:website":"http:\/\/www.pspdobra.eu","ref:regon":"000266258","ref:vatin":"PL8512755705","operator":"Gmina Dobra","operator:type":"government","amenity":"school"}},{"id":59911,"type":"Feature","geometry":{"type":"Point","coordinates":[14.37793,53.49064]},"properties":{"ref:rspo":59911,"official_name":"Przedszkole Niepubliczne B\u0105belek","name":"Przedszkole Niepubliczne B\u0105belek","addr:country":"PL","addr:postcode":"72-003","addr:city":"Dobra","addr:street":"ul. Frezjowa","addr:housenumber":"1","addr:teryt:simc":5184,"addr:teryt:sym_ul":774167,"contact:phone":"+48 691504570","contact:email":"gosia@babelek.net","contact:website":"http:\/\/www.przedszkoledobraszczecinska.pl","ref:regon":"321290765","operator":"Ma\u0142gorzata Oleszkiewicz","operator:type":"private","amenity":"kindergarten"}},{"id":55518,"type":"Feature","geometry":{"type":"Point","coordinates":[14.33382,53.53207]},"properties":{"isced:level":"1;2","ref:rspo":55518,"official_name":"Publiczna Szko\u0142a Podstawowa w Rz\u0119dzinach","name":"Publiczna Szko\u0142a Podstawowa w Rz\u0119dzinach","addr:country":"PL","addr:postcode":"72-003","addr:place":"Rz\u0119dziny","addr:housenumber":"6","addr:teryt:sym_ul":774256,"contact:phone":"+48 913112439","contact:email":"sekretariat@psprzedziny.pl","contact:website":"http:\/\/www.psprzedziny.pl","ref:regon":"810174440","ref:vatin":"PL8512755734","operator":"Gmina Dobra","operator:type":"government","amenity":"school"}}]}