{
    "type": "FeatureCollection",
    "features": [
        {
            "id": 40201,
            "type": "Feature",
            "geometry": {
                "type": "Point",
                "coordinates": [
                    22.45038,
                    52.34272
                ]
            },
            "properties": {
                "isced:level": "1;2",
                "ref:rspo": 40201,
                "official_name": "Publiczna Szko\u0142a Podstawowa w Wyroz\u0119bach-Podawcach",
                "name": "Publiczna Szko\u0142a Podstawowa w Wyroz\u0119bach-Podawcach",
                "addr:country": "PL",
                "addr:postcode": "08-307",
                "addr:place": "Wyroz\u0119by-Podawce",
                "addr:housenumber": "1",
                "addr:teryt:simc": 685452,
                "contact:phone": "+48 257875328",
                "contact:email": "dyrektor@pspwyrozeby.pl",
                "ref:regon": "001125293",
                "ref:vatin": "PL8231394374",
                "operator": "Gmina Repki",
                "operator:type": "government",
                "amenity": "school"
            }
        },
        {
            "id": 28556,
            "type": "Feature",
            "geometry": {
                "type": "Point",
                "coordinates": [
                    22.38698,
                    52.38415
                ]
            },
            "properties": {
                "ref:rspo": 28556,
                "official_name": "Zesp\u00f3\u0142 Szk\u00f3\u0142 w Repkach",
                "name": "Zesp\u00f3\u0142 Szk\u00f3\u0142 w Repkach",
                "addr:country": "PL",
                "addr:postcode": "08-307",
                "addr:city": "Repki",
                "addr:street": "Osiedlowa",
                "addr:housenumber": "8",
                "addr:teryt:simc": 685096,
                "addr:teryt:sym_ul": 15300,
                "contact:phone": "+48 257875180",
                "contact:email": "sekretariat@repki.pl",
                "contact:website": "http:\/\/www.zsrepki.pl",
                "ref:regon": "712486371",
                "ref:vatin": "PL8231533166",
                "operator": "Gmina Repki",
                "operator:type": "government",
                "landuse": "education",
                "fixme": "amenity=school, amenity=college albo landuse=education w zale\u017cno\u015bci od tego, jakie plac\u00f3wki wchodz\u0105 w sk\u0142ad zespo\u0142u. Sprawd\u017a, kiedy stosowa\u0107 amenity=* a kiedy landuse=education.",
                "note": "Children RSPO: 40199;40205"
            }
        },
        {
            "id": 40199,
            "type": "Feature",
            "geometry": {
                "type": "Point",
                "coordinates": [
                    22.38698,
                    52.384119999999996
                ]
            },
            "properties": {
                "isced:level": "1;2",
                "ref:rspo": 40199,
                "official_name": "Publiczna Szko\u0142a Podstawowa w Repkach",
                "name": "Publiczna Szko\u0142a Podstawowa w Repkach",
                "addr:country": "PL",
                "addr:postcode": "08-307",
                "addr:city": "Repki",
                "addr:street": "Osiedlowa",
                "addr:housenumber": "8",
                "addr:teryt:simc": 685096,
                "addr:teryt:sym_ul": 15300,
                "contact:phone": "+48 257875180",
                "contact:email": "sekretariat@zsrepki.pl",
                "contact:website": "http:\/\/www.zsrepki.pl",
                "ref:regon": "000661196",
                "ref:vatin": "PL8231394428",
                "operator": "Gmina Repki",
                "operator:type": "government",
                "amenity": "school",
                "note": "Parent RSPO: 28556"
            }
        },
        {
            "id": 40205,
            "type": "Feature",
            "geometry": {
                "type": "Point",
                "coordinates": [
                    22.38698,
                    52.38409
                ]
            },
            "properties": {
                "ref:rspo": 40205,
                "official_name": "Publiczne Przedszkole w Repkach",
                "name": "Publiczne Przedszkole w Repkach",
                "addr:country": "PL",
                "addr:postcode": "08-307",
                "addr:city": "Repki",
                "addr:street": "Osiedlowa",
                "addr:housenumber": "8",
                "addr:teryt:simc": 685096,
                "addr:teryt:sym_ul": 15300,
                "contact:phone": "+48 257875180",
                "contact:email": "zespolszkolwrepkach@wp.pl",
                "ref:regon": "712368246",
                "ref:vatin": "PL8231394428",
                "operator": "Gmina Repki",
                "operator:type": "government",
                "amenity": "kindergarten",
                "note": "Parent RSPO: 28556"
            }
        },
        {
            "id": 28567,
            "type": "Feature",
            "geometry": {
                "type": "Point",
                "coordinates": [
                    22.51313,
                    52.40069
                ]
            },
            "properties": {
                "ref:rspo": 28567,
                "official_name": "Zesp\u00f3\u0142 Szk\u00f3\u0142 w Skrzeszewie",
                "name": "Zesp\u00f3\u0142 Szk\u00f3\u0142 w Skrzeszewie",
                "addr:country": "PL",
                "addr:postcode": "08-307",
                "addr:place": "Skrzeszew",
                "addr:housenumber": "98",
                "addr:teryt:simc": 685274,
                "contact:phone": "+48 257810227",
                "contact:email": "dyrektor@zsskrzeszew.pl",
                "contact:website": "http:\/\/www.zsskrzeszew.pl",
                "ref:regon": "712486388",
                "ref:vatin": "PL8231533143",
                "operator": "Gmina Repki",
                "operator:type": "government",
                "landuse": "education",
                "fixme": "amenity=school, amenity=college albo landuse=education w zale\u017cno\u015bci od tego, jakie plac\u00f3wki wchodz\u0105 w sk\u0142ad zespo\u0142u. Sprawd\u017a, kiedy stosowa\u0107 amenity=* a kiedy landuse=education.",
                "note": "Children RSPO: 40200;40204"
            }
        },
        {
            "id": 40200,
            "type": "Feature",
            "geometry": {
                "type": "Point",
                "coordinates": [
                    22.51313,
                    52.400659999999995
                ]
            },
            "properties": {
                "isced:level": "1;2",
                "ref:rspo": 40200,
                "official_name": "Publiczna Szko\u0142a Podstawowa Im 19 Pu\u0142ku U\u0142an\u00f3w Wo\u0142y\u0144skich w Skrzeszewie",
                "name": "Publiczna Szko\u0142a Podstawowa Im 19 Pu\u0142ku U\u0142an\u00f3w Wo\u0142y\u0144skich w Skrzeszewie",
                "addr:country": "PL",
                "addr:postcode": "08-307",
                "addr:place": "Skrzeszew",
                "addr:housenumber": "98",
                "addr:teryt:simc": 685274,
                "contact:phone": "+48 257810227",
                "contact:email": "dyrektor@zsskrzeszew.pl",
                "contact:website": "http:\/\/www.zsskrzeszew.pl",
                "ref:regon": "001125301",
                "ref:vatin": "PL8231394351",
                "operator": "Gmina Repki",
                "operator:type": "government",
                "amenity": "school",
                "note": "Parent RSPO: 28567"
            }
        },
        {
            "id": 40204,
            "type": "Feature",
            "geometry": {
                "type": "Point",
                "coordinates": [
                    22.51313,
                    52.40063
                ]
            },
            "properties": {
                "ref:rspo": 40204,
                "official_name": "Publiczne Przedszkole w Skrzeszewie",
                "name": "Publiczne Przedszkole w Skrzeszewie",
                "addr:country": "PL",
                "addr:postcode": "08-307",
                "addr:place": "Skrzeszew",
                "addr:housenumber": "98",
                "addr:teryt:simc": 685274,
                "contact:phone": "+48 257810227",
                "contact:email": "dyrektor@zsskrzeszew.pl",
                "contact:website": "http:\/\/www.zsskrzeszew.pl",
                "ref:regon": "712486394",
                "operator": "Gmina Repki",
                "operator:type": "government",
                "amenity": "kindergarten",
                "note": "Parent RSPO: 28567"
            }
        }
    ]
}