{
    "type": "FeatureCollection",
    "features": [
        {
            "id": 16315,
            "type": "Feature",
            "geometry": {
                "type": "Point",
                "coordinates": [
                    22.24205,
                    52.33623
                ]
            },
            "properties": {
                "ref:rspo": 16315,
                "official_name": "Zesp\u00f3\u0142 O\u015bwiatowy im. \u015aw. Kr\u00f3lowej Jadwigi w Bielanach Jaros\u0142awach",
                "name": "Zesp\u00f3\u0142 O\u015bwiatowy",
                "addr:postcode": "08-311",
                "addr:place": "Bielany-Jaros\u0142awy",
                "addr:housenumber": "65",
                "addr:teryt:simc": 668229,
                "phone": "+48 257878028",
                "email": "zobielany@o2.pl",
                "website": "http:\/\/www.zobielany.edu.pl",
                "ref:regon": "712543241",
                "ref:vatin": "PL8231541119",
                "operator": "Gmina Bielany",
                "operator:type": "government",
                "landuse": "education",
                "fixme": "amenity=school, amenity=college albo landuse=education w zale\u017cno\u015bci od tego, jakie plac\u00f3wki wchodz\u0105 w sk\u0142ad zespo\u0142u. Sprawd\u017a, kiedy stosowa\u0107 amenity=* a kiedy landuse=education.",
                "note": "Children RSPO: 18138;18151"
            }
        },
        {
            "id": 18138,
            "type": "Feature",
            "geometry": {
                "type": "Point",
                "coordinates": [
                    22.24205,
                    52.3362
                ]
            },
            "properties": {
                "isced:level": "1;2",
                "ref:rspo": 18138,
                "official_name": "Publiczna Szko\u0142a Podstawowa w Bielanach Jaros\u0142awach",
                "name": "Publiczna Szko\u0142a Podstawowa w Bielanach Jaros\u0142awach",
                "addr:postcode": "08-311",
                "addr:place": "Bielany-Jaros\u0142awy",
                "addr:housenumber": "65",
                "addr:teryt:simc": 668229,
                "phone": "+48 257878028",
                "email": "zobielany@o2.pl",
                "website": "http:\/\/zobielany.edu.pl",
                "ref:regon": "000717962",
                "ref:vatin": "PL8231394629",
                "operator": "Gmina Bielany",
                "operator:type": "government",
                "amenity": "school",
                "note": "Parent RSPO: 16315"
            }
        },
        {
            "id": 18151,
            "type": "Feature",
            "geometry": {
                "type": "Point",
                "coordinates": [
                    22.24205,
                    52.33617
                ]
            },
            "properties": {
                "ref:rspo": 18151,
                "official_name": "Publiczne Przedszkole w Bielanach",
                "name": "Publiczne Przedszkole w Bielanach",
                "addr:postcode": "08-311",
                "addr:place": "Bielany-Jaros\u0142awy",
                "addr:housenumber": "65",
                "addr:teryt:simc": 668229,
                "phone": "+48 257878028",
                "email": "zobielany@o2.pl",
                "website": "http:\/\/zobielany.edu.pl",
                "ref:regon": "710005628",
                "ref:vatin": "PL8231240990",
                "operator": "Gmina Bielany",
                "operator:type": "government",
                "amenity": "kindergarten",
                "note": "Parent RSPO: 16315"
            }
        },
        {
            "id": 16365,
            "type": "Feature",
            "geometry": {
                "type": "Point",
                "coordinates": [
                    22.17904,
                    52.33742
                ]
            },
            "properties": {
                "ref:rspo": 16365,
                "official_name": "Zesp\u00f3\u0142 O\u015bwiatowy im. Sybirak\u00f3w w Rozbitym Kamieniu",
                "name": "Zesp\u00f3\u0142 O\u015bwiatowy",
                "addr:postcode": "08-311",
                "addr:city": "Rozbity Kamie\u0144",
                "addr:street": "Wiktora Szajkowskiego",
                "addr:housenumber": "7",
                "addr:door": "-",
                "addr:teryt:simc": 668459,
                "addr:teryt:sym_ul": 21726,
                "phone": "+48 257878327",
                "email": "zo_rozbity@interia.pl",
                "website": "http:\/\/www.zorozbitykam.szkolnastrona.pl",
                "ref:regon": "712486550",
                "ref:vatin": "PL8231526930",
                "operator": "Gmina Bielany",
                "operator:type": "government",
                "landuse": "education",
                "fixme": "amenity=school, amenity=college albo landuse=education w zale\u017cno\u015bci od tego, jakie plac\u00f3wki wchodz\u0105 w sk\u0142ad zespo\u0142u. Sprawd\u017a, kiedy stosowa\u0107 amenity=* a kiedy landuse=education.",
                "note": "Children RSPO: 18211;18262"
            }
        },
        {
            "id": 18211,
            "type": "Feature",
            "geometry": {
                "type": "Point",
                "coordinates": [
                    22.17904,
                    52.33739
                ]
            },
            "properties": {
                "ref:rspo": 18211,
                "official_name": "Publiczne Przedszkole w Rozbitym Kamieniu",
                "name": "Publiczne Przedszkole w Rozbitym Kamieniu",
                "addr:postcode": "08-311",
                "addr:city": "Rozbity Kamie\u0144",
                "addr:street": "Wiktora Szajkowskiego",
                "addr:housenumber": "7",
                "addr:teryt:simc": 668459,
                "addr:teryt:sym_ul": 21726,
                "phone": "+48 257878327",
                "ref:regon": "710005605",
                "ref:vatin": "PL8231240978",
                "operator": "Gmina Bielany",
                "operator:type": "government",
                "amenity": "kindergarten",
                "note": "Parent RSPO: 16365"
            }
        },
        {
            "id": 18262,
            "type": "Feature",
            "geometry": {
                "type": "Point",
                "coordinates": [
                    22.17904,
                    52.337360000000004
                ]
            },
            "properties": {
                "isced:level": "1;2",
                "ref:rspo": 18262,
                "official_name": "Szko\u0142a Podstawowa w Rozbitym Kamieniu",
                "name": "Szko\u0142a Podstawowa w Rozbitym Kamieniu",
                "addr:postcode": "08-311",
                "addr:city": "Rozbity Kamie\u0144",
                "addr:street": "Wiktora Szajkowskiego",
                "addr:housenumber": "7",
                "addr:teryt:simc": 668459,
                "addr:teryt:sym_ul": 21726,
                "phone": "+48 257878327",
                "email": "sekretariatzork@gminabielany.pl",
                "ref:regon": "001117193",
                "ref:vatin": "PL8231237611",
                "operator": "Gmina Bielany",
                "operator:type": "government",
                "amenity": "school",
                "note": "Parent RSPO: 16365"
            }
        },
        {
            "id": 35093,
            "type": "Feature",
            "geometry": {
                "type": "Point",
                "coordinates": [
                    22.32297,
                    52.35021
                ]
            },
            "properties": {
                "isced:level": "1;2",
                "ref:rspo": 35093,
                "official_name": "Niepubliczna Szko\u0142a Podstawowa \"Nasza Szko\u0142a w Ko\u017cuchowie\"",
                "name": "Niepubliczna Szko\u0142a Podstawowa \"Nasza Szko\u0142a w Ko\u017cuchowie\"",
                "addr:postcode": "08-311",
                "addr:place": "Ko\u017cuch\u00f3w",
                "addr:housenumber": "56",
                "addr:teryt:simc": 668347,
                "email": "szkolawkozuchowie@gmail.com",
                "ref:regon": "146371677",
                "operator": "Stowarzyszenie Nasza Szko\u0142a W Ko\u017cuchowie",
                "operator:type": "ngo",
                "amenity": "school"
            }
        }
    ]
}