{
    "type": "FeatureCollection",
    "features": [
        {
            "id": 4804,
            "type": "Feature",
            "geometry": {
                "type": "Point",
                "coordinates": [
                    22.20511,
                    52.38294
                ]
            },
            "properties": {
                "isced:level": "1;2",
                "ref:rspo": 4804,
                "official_name": "Niepubliczna Szko\u0142a Podstawowa w Przyw\u00f3zkach",
                "name": "Niepubliczna Szko\u0142a Podstawowa w Przyw\u00f3zkach",
                "addr:postcode": "08-300",
                "addr:city": "Przyw\u00f3zki",
                "addr:street": "Szkolna",
                "addr:housenumber": "3",
                "addr:city:simc": 689059,
                "addr:street:sym_ul": 21970,
                "phone": "+48 257812391",
                "email": "przywszkola@op.pl",
                "ref:regon": "146263189",
                "ref:vatin": "PL8231656779",
                "operator": "Stowarzyszenie \"Wsp\u00f3lny Cel\"",
                "operator:type": "ngo",
                "amenity": "school"
            }
        },
        {
            "id": 4805,
            "type": "Feature",
            "geometry": {
                "type": "Point",
                "coordinates": [
                    22.20511,
                    52.382909999999995
                ]
            },
            "properties": {
                "ref:rspo": 4805,
                "official_name": "Niepubliczne Przedszkole w Przyw\u00f3zkach",
                "name": "Niepubliczne Przedszkole w Przyw\u00f3zkach",
                "addr:postcode": "08-300",
                "addr:place": "Przyw\u00f3zki",
                "addr:housenumber": "3",
                "addr:city:simc": 689059,
                "phone": "+48 257812391",
                "ref:regon": "146263166",
                "ref:vatin": "PL8231656779",
                "operator": "Stowarzyszenie \"Wsp\u00f3lny Cel\"",
                "operator:type": "ngo",
                "amenity": "kindergarten"
            }
        },
        {
            "id": 122544,
            "type": "Feature",
            "geometry": {
                "type": "Point",
                "coordinates": [
                    22.12556,
                    52.39819
                ]
            },
            "properties": {
                "ref:rspo": 122544,
                "official_name": "Zesp\u00f3\u0142 O\u015bwiatowy w Grochowie",
                "name": "Zesp\u00f3\u0142 O\u015bwiatowy w Grochowie",
                "addr:postcode": "08-300",
                "addr:city": "Groch\u00f3w Szlachecki",
                "addr:street": "W\u0142adys\u0142awa Rawicza",
                "addr:housenumber": "1",
                "addr:city:simc": 688781,
                "addr:street:sym_ul": 18497,
                "phone": "+48 257811527",
                "email": "szkolagrochow@poczta.onet.pl",
                "website": "http:\/\/www.zogrochow.szkolna.net",
                "ref:regon": "712485816",
                "ref:vatin": "PL8231563061",
                "operator": "Gmina Soko\u0142\u00f3w Podlaski",
                "operator:type": "government",
                "landuse": "education",
                "fixme": "amenity=school, amenity=college albo landuse=education w zale\u017cno\u015bci od tego, jakie plac\u00f3wki wchodz\u0105 w sk\u0142ad zespo\u0142u. Sprawd\u017a, kiedy stosowa\u0107 amenity=* a kiedy landuse=education.",
                "note": "Children RSPO: 70349;70352"
            }
        },
        {
            "id": 70349,
            "type": "Feature",
            "geometry": {
                "type": "Point",
                "coordinates": [
                    22.12556,
                    52.39816
                ]
            },
            "properties": {
                "isced:level": "1;2",
                "ref:rspo": 70349,
                "official_name": "Szko\u0142a Podstawowa w Grochowie",
                "name": "Szko\u0142a Podstawowa w Grochowie",
                "addr:postcode": "08-300",
                "addr:city": "Groch\u00f3w Szlachecki",
                "addr:street": "W\u0142adys\u0142awa Rawicza",
                "addr:housenumber": "1",
                "addr:city:simc": 688781,
                "addr:street:sym_ul": 18497,
                "phone": "+48 257811527",
                "email": "szkolagrochow@poczta.onet.pl",
                "website": "http:\/\/www.zogrochow.szkolna.net",
                "ref:regon": "001128216",
                "ref:vatin": "PL8231469793",
                "operator": "Gmina Soko\u0142\u00f3w Podlaski",
                "operator:type": "government",
                "amenity": "school",
                "note": "Parent RSPO: 122544"
            }
        },
        {
            "id": 70352,
            "type": "Feature",
            "geometry": {
                "type": "Point",
                "coordinates": [
                    22.12556,
                    52.39813
                ]
            },
            "properties": {
                "ref:rspo": 70352,
                "official_name": "Przedszkole w Grochowie",
                "name": "Przedszkole w Grochowie",
                "addr:postcode": "08-300",
                "addr:city": "Groch\u00f3w Szlachecki",
                "addr:street": "W\u0142adys\u0142awa Rawicza",
                "addr:housenumber": "1",
                "addr:city:simc": 688781,
                "addr:street:sym_ul": 18497,
                "phone": "+48 257811527",
                "email": "szkolagrochow@poczta.onet.pl",
                "website": "http:\/\/www.zogrochow.szkolna.net",
                "ref:regon": "712369524",
                "ref:vatin": "PL8231469793",
                "operator": "Gmina Soko\u0142\u00f3w Podlaski",
                "operator:type": "government",
                "amenity": "kindergarten",
                "note": "Parent RSPO: 122544"
            }
        },
        {
            "id": 123598,
            "type": "Feature",
            "geometry": {
                "type": "Point",
                "coordinates": [
                    22.18298,
                    52.49761
                ]
            },
            "properties": {
                "ref:rspo": 123598,
                "official_name": "Zesp\u00f3\u0142 O\u015bwiatowy w Skibniewie",
                "name": "Zesp\u00f3\u0142 O\u015bwiatowy w Skibniewie",
                "addr:postcode": "08-300",
                "addr:city": "Skibniew-Podawce",
                "addr:street": "Szkolna",
                "addr:housenumber": "8",
                "addr:city:simc": 689071,
                "addr:street:sym_ul": 21970,
                "phone": "+48 257876927",
                "email": "szkolaskibniew@op.pl",
                "website": "http:\/\/szkolaskibniew.sokolowpodl.pl",
                "ref:regon": "712485800",
                "ref:vatin": "PL8231526976",
                "operator": "Gmina Soko\u0142\u00f3w Podlaski",
                "operator:type": "government",
                "landuse": "education",
                "fixme": "amenity=school, amenity=college albo landuse=education w zale\u017cno\u015bci od tego, jakie plac\u00f3wki wchodz\u0105 w sk\u0142ad zespo\u0142u. Sprawd\u017a, kiedy stosowa\u0107 amenity=* a kiedy landuse=education.",
                "note": "Children RSPO: 70343;70348"
            }
        },
        {
            "id": 70343,
            "type": "Feature",
            "geometry": {
                "type": "Point",
                "coordinates": [
                    22.18298,
                    52.49758
                ]
            },
            "properties": {
                "isced:level": "1;2",
                "ref:rspo": 70343,
                "official_name": "Szko\u0142a Podstawowa w Skibniewie",
                "name": "Szko\u0142a Podstawowa w Skibniewie",
                "addr:postcode": "08-300",
                "addr:city": "Skibniew-Podawce",
                "addr:street": "Szkolna",
                "addr:housenumber": "8",
                "addr:city:simc": 689071,
                "addr:street:sym_ul": 21970,
                "phone": "+48 257876927",
                "email": "szkolaskibniew@op.pl",
                "website": "http:\/\/zoskibniew.edupage.org",
                "ref:regon": "001128044",
                "ref:vatin": "PL8231469830",
                "operator": "Gmina Soko\u0142\u00f3w Podlaski",
                "operator:type": "government",
                "amenity": "school",
                "note": "Parent RSPO: 123598"
            }
        },
        {
            "id": 70348,
            "type": "Feature",
            "geometry": {
                "type": "Point",
                "coordinates": [
                    22.18298,
                    52.497550000000004
                ]
            },
            "properties": {
                "ref:rspo": 70348,
                "official_name": "Przedszkole w Skibniewie",
                "name": "Przedszkole w Skibniewie",
                "addr:postcode": "08-300",
                "addr:city": "Skibniew-Podawce",
                "addr:street": "Szkolna",
                "addr:housenumber": "8",
                "addr:city:simc": 689071,
                "addr:street:sym_ul": 21970,
                "phone": "+48 257876927",
                "email": "szkolaskibniew@op.pl",
                "ref:regon": "712369412",
                "operator": "Gmina Soko\u0142\u00f3w Podlaski",
                "operator:type": "government",
                "amenity": "kindergarten",
                "note": "Parent RSPO: 123598"
            }
        },
        {
            "id": 123601,
            "type": "Feature",
            "geometry": {
                "type": "Point",
                "coordinates": [
                    22.210340499878,
                    52.583511352539
                ]
            },
            "properties": {
                "ref:rspo": 123601,
                "official_name": "Zesp\u00f3\u0142 O\u015bwiatowy w Nowej Wsi",
                "name": "Zesp\u00f3\u0142 O\u015bwiatowy w Nowej Wsi",
                "addr:postcode": "08-300",
                "addr:city": "Nowa Wie\u015b",
                "addr:street": "Szkolna",
                "addr:housenumber": "2",
                "addr:city:simc": 688999,
                "addr:street:sym_ul": 21970,
                "phone": "+48 257876414",
                "ref:regon": "140106610",
                "operator": "Gmina Soko\u0142\u00f3w Podlaski",
                "operator:type": "government",
                "landuse": "education",
                "fixme": "amenity=school, amenity=college albo landuse=education w zale\u017cno\u015bci od tego, jakie plac\u00f3wki wchodz\u0105 w sk\u0142ad zespo\u0142u. Sprawd\u017a, kiedy stosowa\u0107 amenity=* a kiedy landuse=education.",
                "note": "Children RSPO: 70560;70561"
            }
        },
        {
            "id": 70560,
            "type": "Feature",
            "geometry": {
                "type": "Point",
                "coordinates": [
                    22.210340499878,
                    52.583481352538996
                ]
            },
            "properties": {
                "isced:level": "1;2",
                "ref:rspo": 70560,
                "official_name": "Szko\u0142a Podstawowa w Nowej Wsi",
                "name": "Szko\u0142a Podstawowa w Nowej Wsi",
                "addr:postcode": "08-300",
                "addr:city": "Nowa Wie\u015b",
                "addr:street": "Szkolna",
                "addr:housenumber": "2",
                "addr:city:simc": 688999,
                "addr:street:sym_ul": 21970,
                "phone": "+48 257876414",
                "email": "szkolanowawies@wp.pl",
                "website": "http:\/\/zonowawies.szkolna.net",
                "ref:regon": "001128222",
                "operator": "Gmina Soko\u0142\u00f3w Podlaski",
                "operator:type": "government",
                "amenity": "school",
                "note": "Parent RSPO: 123601"
            }
        },
        {
            "id": 70561,
            "type": "Feature",
            "geometry": {
                "type": "Point",
                "coordinates": [
                    22.210340499878,
                    52.583451352539
                ]
            },
            "properties": {
                "ref:rspo": 70561,
                "official_name": "Przedszkole w Nowej Wsi",
                "name": "Przedszkole w Nowej Wsi",
                "addr:postcode": "08-300",
                "addr:city": "Nowa Wie\u015b",
                "addr:street": "Szkolna",
                "addr:housenumber": "2",
                "addr:city:simc": 688999,
                "addr:street:sym_ul": 21970,
                "phone": "+48 257876414",
                "email": "szkolanowawies@wp.pl",
                "ref:regon": "712369493",
                "operator": "Gmina Soko\u0142\u00f3w Podlaski",
                "operator:type": "government",
                "amenity": "kindergarten",
                "note": "Parent RSPO: 123601"
            }
        }
    ]
}