{
    "type": "FeatureCollection",
    "features": [
        {
            "id": 59058,
            "type": "Feature",
            "geometry": {
                "type": "Point",
                "coordinates": [
                    22.4387599,
                    52.43804
                ]
            },
            "properties": {
                "isced:level": "1;2",
                "ref:rspo": 59058,
                "official_name": "Niepubliczna Szko\u0142a Podstawowa w Czekanowie",
                "name": "Niepubliczna Szko\u0142a Podstawowa w Czekanowie",
                "addr:country": "PL",
                "addr:postcode": "08-304",
                "addr:place": "Czekan\u00f3w",
                "addr:housenumber": "20",
                "addr:teryt:sym_ul": 672478,
                "contact:phone": "+48 257871097",
                "contact:email": "szkola-czekanow@wp.pl",
                "ref:regon": "146436773",
                "ref:vatin": "PL8231654668",
                "operator": "Stowarzyszenie Na Rzecz Rozwoju Wsi Czekan\u00f3w",
                "operator:type": "ngo",
                "amenity": "school"
            }
        },
        {
            "id": 129874,
            "type": "Feature",
            "geometry": {
                "type": "Point",
                "coordinates": [
                    22.4387599,
                    52.43801
                ]
            },
            "properties": {
                "ref:rspo": 129874,
                "official_name": "Niepubliczne Przedszkole w Czekanowie",
                "name": "Niepubliczne Przedszkole w Czekanowie",
                "addr:country": "PL",
                "addr:postcode": "08-304",
                "addr:place": "Czekan\u00f3w",
                "addr:housenumber": "20",
                "addr:teryt:sym_ul": 672478,
                "contact:phone": "+48 257871097",
                "contact:email": "szkola-czekanow@wp.pl",
                "ref:regon": "363041874",
                "operator": "Stowarzyszenie Na Rzecz Rozwoju Wsi Czekan\u00f3w",
                "operator:type": "ngo",
                "amenity": "kindergarten"
            }
        },
        {
            "id": 91242,
            "type": "Feature",
            "geometry": {
                "type": "Point",
                "coordinates": [
                    22.37427,
                    52.4617
                ]
            },
            "properties": {
                "isced:level": "1;2",
                "ref:rspo": 91242,
                "official_name": "Publiczna Szko\u0142a Podstawowa w Buja\u0142ach Mikoszach",
                "name": "Publiczna Szko\u0142a Podstawowa w Buja\u0142ach Mikoszach",
                "addr:country": "PL",
                "addr:postcode": "08-304",
                "addr:place": "Buja\u0142y-Mikosze",
                "addr:housenumber": "9",
                "addr:teryt:sym_ul": 672461,
                "contact:phone": "+48 257871047",
                "contact:email": "sp_bujaly@wp.pl",
                "ref:regon": "146414033",
                "ref:vatin": "PL8231237516",
                "operator": "Marianna Kr\u00f3l",
                "operator:type": "private",
                "amenity": "school"
            }
        },
        {
            "id": 276494,
            "type": "Feature",
            "geometry": {
                "type": "Point",
                "coordinates": [
                    22.37427,
                    52.46167
                ]
            },
            "properties": {
                "ref:rspo": 276494,
                "official_name": "Niepubliczne Przedszkole \"Krasnal\"",
                "name": "Niepubliczne Przedszkole \"Krasnal\"",
                "addr:country": "PL",
                "addr:postcode": "08-304",
                "addr:place": "Buja\u0142y-Mikosze",
                "addr:housenumber": "9",
                "addr:teryt:sym_ul": 672461,
                "contact:email": "mariannakrol63@gmail.com",
                "ref:regon": "387158095",
                "operator": "Marianna Kr\u00f3l",
                "operator:type": "private",
                "amenity": "kindergarten"
            }
        },
        {
            "id": 56501,
            "type": "Feature",
            "geometry": {
                "type": "Point",
                "coordinates": [
                    22.44039,
                    52.47542
                ]
            },
            "properties": {
                "ref:rspo": 56501,
                "official_name": "Samorz\u0105dowe Przedszkole w Jab\u0142onnie Lackiej",
                "name": "Samorz\u0105dowe Przedszkole w Jab\u0142onnie Lackiej",
                "addr:country": "PL",
                "addr:postcode": "08-304",
                "addr:city": "Jab\u0142onna Lacka",
                "addr:street": "ul. Kubusia Puchatka",
                "addr:housenumber": "1",
                "addr:teryt:simc": 10316,
                "addr:teryt:sym_ul": 672685,
                "contact:phone": "+48 257871018",
                "contact:email": "dyrektor@przedszkolejablonnalacka.pl",
                "ref:regon": "712495737",
                "ref:vatin": "PL8231241222",
                "operator": "Gmina Jab\u0142onna Lacka",
                "operator:type": "government",
                "amenity": "kindergarten"
            }
        },
        {
            "id": 56496,
            "type": "Feature",
            "geometry": {
                "type": "Point",
                "coordinates": [
                    22.44324,
                    52.47688
                ]
            },
            "properties": {
                "isced:level": "1;2",
                "ref:rspo": 56496,
                "official_name": "Publiczna Szko\u0142a Podstawowa w Jab\u0142onnie Lackiej",
                "name": "Publiczna Szko\u0142a Podstawowa w Jab\u0142onnie Lackiej",
                "addr:country": "PL",
                "addr:postcode": "08-304",
                "addr:city": "Jab\u0142onna Lacka",
                "addr:street": "ul. Klonowa",
                "addr:housenumber": "6",
                "addr:teryt:simc": 8574,
                "addr:teryt:sym_ul": 672685,
                "contact:phone": "+48 257871028",
                "contact:email": "sekretariat@pspjablonnalacka.pl",
                "contact:website": "http:\/\/sp-jablonnalacka.edupage.org",
                "ref:regon": "000596582",
                "ref:vatin": "PL8231237522",
                "operator": "Gmina Jab\u0142onna Lacka",
                "operator:type": "government",
                "amenity": "school"
            }
        }
    ]
}