{"type":"FeatureCollection","features":[{"id":80674,"type":"Feature","geometry":{"type":"Point","coordinates":[22.32683,52.39519]},"properties":{"ref:rspo":80674,"official_name":"Miejskie Przedszkole Nr 3","name":"Miejskie Przedszkole Nr 3","addr:country":"PL","addr:postcode":"08-300","addr:city":"Soko\u0142\u00f3w Podlaski","addr:street":"ul. Ksi\u0119dza Bosco","addr:housenumber":"6","addr:teryt:simc":48406,"addr:teryt:sym_ul":975760,"contact:phone":"+48 257813166","contact:email":"przedszkole3@sokolowpodl.pl","contact:website":"http:\/\/www.przedszkole3.sokp.pl","ref:regon":"142716263","ref:vatin":"PL8231649779","operator":"Miasto Soko\u0142\u00f3w Podlaski","operator:type":"government","amenity":"kindergarten"}},{"id":105749,"type":"Feature","geometry":{"type":"Point","coordinates":[22.24496,52.39564]},"properties":{"ref:rspo":105749,"official_name":"Przedszkole Niepubliczne \"Chatka Puchatka\"","name":"Przedszkole Niepubliczne \"Chatka Puchatka\"","addr:country":"PL","addr:postcode":"08-300","addr:city":"Soko\u0142\u00f3w Podlaski","addr:street":"ul. Wojska Polskiego","addr:housenumber":"48","addr:teryt:simc":24628,"addr:teryt:sym_ul":975760,"contact:phone":"+48 606665745","contact:email":"chatka.puchatka@onet.pl","ref:regon":"146461943","operator":"Przedszkole Niepubliczne \"Chatka Puchatka\" Justyna \u015awiderska-Kami\u0144ska, Agnieszka \u015awiderska Sp\u00f3\u0142ka Cywilna","operator:type":"consortium","amenity":"kindergarten"}},{"id":118861,"type":"Feature","geometry":{"type":"Point","coordinates":[22.121610641479,52.39960861206]},"properties":{"ref:rspo":118861,"official_name":"Zesp\u00f3\u0142 Szk\u00f3\u0142 Salezja\u0144skich Lux Sapientiae w Soko\u0142owie Podlaskim","name":"Zesp\u00f3\u0142 Szk\u00f3\u0142 Salezja\u0144skich Lux Sapientiae w Soko\u0142owie Podlaskim","addr:country":"PL","addr:postcode":"08-300","addr:city":"Soko\u0142\u00f3w Podlaski","addr:street":"ul. Ksi\u0119dza Bosco","addr:housenumber":"1","addr:teryt:simc":48406,"addr:teryt:sym_ul":975760,"contact:phone":"+48 257817610","contact:email":"liceum@sdb.pl","contact:website":"http:\/\/www.sdb.pl","ref:regon":"146824423","operator":"Towarzystwo Salezja\u0144skie - Inspektoria (Prowincja) \u015aw.stanis\u0142awa Kostki","operator:type":"religious","landuse":"education","fixme":"amenity=school, amenity=college albo landuse=education w zale\u017cno\u015bci od tego, jakie plac\u00f3wki wchodz\u0105 w sk\u0142ad zespo\u0142u. Sprawd\u017a, kiedy stosowa\u0107 amenity=* a kiedy landuse=education.","note":"Children RSPO: 47677;132912"}},{"id":47677,"type":"Feature","geometry":{"type":"Point","coordinates":[22.121610641479,52.39957861206]},"properties":{"isced:level":"3","ref:rspo":47677,"official_name":"Salezja\u0144skie Liceum Og\u00f3lnokszta\u0142c\u0105ce im. Henryka Sienkiewicza","name":"Salezja\u0144skie Liceum Og\u00f3lnokszta\u0142c\u0105ce","addr:country":"PL","addr:postcode":"08-300","addr:city":"Soko\u0142\u00f3w Podlaski","addr:street":"ul. Ksi\u0119dza Bosco","addr:housenumber":"1","addr:teryt:simc":48406,"addr:teryt:sym_ul":975760,"contact:phone":"+48 257817610","contact:email":"liceum@sdb.pl","contact:website":"http:\/\/sdb.pl","ref:regon":"146404661","ref:vatin":"PL8231564528","operator":"Towarzystwo Salezja\u0144skie - Inspektoria (Prowincja) \u015aw.stanis\u0142awa Kostki","operator:type":"religious","amenity":"school","note":"Parent RSPO: 118861"}},{"id":132912,"type":"Feature","geometry":{"type":"Point","coordinates":[22.121610641479,52.39954861206]},"properties":{"isced:level":"1;2","ref:rspo":132912,"official_name":"Salezja\u0144ska Szko\u0142a Podstawowa","name":"Salezja\u0144ska Szko\u0142a Podstawowa","addr:country":"PL","addr:postcode":"08-300","addr:city":"Soko\u0142\u00f3w Podlaski","addr:street":"ul. Ksi\u0119dza Bosco","addr:housenumber":"1","addr:teryt:simc":48406,"addr:teryt:sym_ul":975760,"contact:phone":"+48 257817610","contact:email":"podstawowa@sdb.pl","contact:website":"http:\/\/sdb.pl","ref:regon":"366318721","operator":"Towarzystwo Salezja\u0144skie - Inspektoria (Prowincja) \u015aw.stanis\u0142awa Kostki","operator:type":"religious","amenity":"school","note":"Parent RSPO: 118861"}},{"id":80679,"type":"Feature","geometry":{"type":"Point","coordinates":[22.25113,52.40161]},"properties":{"isced:level":"1;2","ref:rspo":80679,"official_name":"Publiczna Szko\u0142a Podstawowa Nr 1 Z Oddzia\u0142ami Dwuj\u0119zycznymi im. Janusza Kusoci\u0144skiego w Soko\u0142owie Podlaskim","name":"Publiczna Szko\u0142a Podstawowa Nr 1 Z Oddzia\u0142ami Dwuj\u0119zycznymi","addr:country":"PL","addr:postcode":"08-300","addr:city":"Soko\u0142\u00f3w Podlaski","addr:street":"ul. Polna","addr:housenumber":"8","addr:teryt:simc":17011,"addr:teryt:sym_ul":975760,"contact:phone":"+48 257872120","contact:email":"sp1@sokp.pl","contact:website":"http:\/\/www.sp1.sokolowpodl.pl","ref:regon":"000717809","ref:vatin":"PL8231237396","operator":"Miasto Soko\u0142\u00f3w Podlaski","operator:type":"government","amenity":"school"}},{"id":262747,"type":"Feature","geometry":{"type":"Point","coordinates":[22.25796,52.40272]},"properties":{"isced:level":"1;2","ref:rspo":262747,"official_name":"Publiczna Szko\u0142a Podstawowa Nr 3 im. Miko\u0142aja Kopernika w Soko\u0142owie Podlaskim","name":"Publiczna Szko\u0142a Podstawowa Nr 3","addr:country":"PL","addr:postcode":"08-300","addr:city":"Soko\u0142\u00f3w Podlaski","addr:street":"ul. Repkowska","addr:housenumber":"3","addr:teryt:simc":18612,"addr:teryt:sym_ul":975760,"contact:phone":"+48 257873150","contact:email":"dyrektor@sp3sokolowpodl.pl","contact:website":"http:\/\/sp3sokolowpodl.pl","ref:regon":"368054315","operator":"Miasto Soko\u0142\u00f3w Podlaski","operator:type":"government","amenity":"school"}},{"id":267579,"type":"Feature","geometry":{"type":"Point","coordinates":[22.25796,52.40269]},"properties":{"ref:rspo":267579,"official_name":"Szko\u0142a Muzyczna I Stopnia im.micha\u0142a Kleofasa Ksi\u0119cia Ogi\u0144skiego w Soko\u0142owie Podlaskim","name":"Szko\u0142a Muzyczna I Stopnia im.micha\u0142a Kleofasa Ksi\u0119cia Ogi\u0144skiego w Soko\u0142owie Podlaskim","addr:country":"PL","addr:postcode":"08-300","addr:city":"Soko\u0142\u00f3w Podlaski","addr:street":"ul. Repkowska","addr:housenumber":"3","addr:teryt:simc":18612,"addr:teryt:sym_ul":975760,"contact:phone":"+48 257812320","contact:email":"sekretariat@sm.sokolowpodl.pl","ref:regon":"380359726","operator":"Miasto Soko\u0142\u00f3w Podlaski","operator:type":"government","amenity":"music_school"}},{"id":57143,"type":"Feature","geometry":{"type":"Point","coordinates":[22.23214,52.40382]},"properties":{"ref:rspo":57143,"official_name":"O\u015brodek Doradztwa I Us\u0142ug Bezpiecze\u0144stwa I Higieny Pracy\"Meja\"Janusz Ruci\u0144ski Izabela Leszczak","name":"O\u015brodek Doradztwa I Us\u0142ug Bezpiecze\u0144stwa I Higieny Pracy\"Meja\"Janusz Ruci\u0144ski Izabela Leszczak","addr:country":"PL","addr:postcode":"08-300","addr:city":"Soko\u0142\u00f3w Podlaski","addr:street":"ul. Dzia\u0142kowa","addr:housenumber":"3","addr:teryt:simc":4572,"addr:teryt:sym_ul":975760,"contact:phone":"+48 604412045","ref:regon":"146380794","ref:vatin":"PL8231506850","operator":"Januszizabela Ruci\u0144ski Leszczak","operator:type":"private","fixme":"w zale\u017cno\u015bci od przedmiotu dzia\u0142alno\u015bci (np. amenity=training + training=*, amenity=dancing_school, amenity=language_school, amenity=music_school)"}},{"id":275623,"type":"Feature","geometry":{"type":"Point","coordinates":[22.24278,52.40487]},"properties":{"ref:rspo":275623,"official_name":"Niepubliczne Przedszkole J\u0119zykowe Happy Kids Sp. Z O.o","name":"Niepubliczne Przedszkole J\u0119zykowe Happy Kids Sp. Z O.o","addr:country":"PL","addr:postcode":"08-300","addr:city":"Soko\u0142\u00f3w Podlaski","addr:street":"ul. Genera\u0142a W\u0142adys\u0142awa Andersa","addr:housenumber":"3","addr:teryt:simc":39357,"addr:teryt:sym_ul":975760,"contact:email":"happykidssokolowpodlaski@gmail.com","ref:regon":"386928734","ref:vatin":"PL8231667725","operator":"Niepubliczne Przedszkole J\u0119zykowe Happy Kids  Sp\u00f3\u0142ka Z Ograniczon\u0105 Odpowiedzialno\u015bci\u0105","operator:type":"private","amenity":"kindergarten"}},{"id":80673,"type":"Feature","geometry":{"type":"Point","coordinates":[22.25026,52.40508]},"properties":{"ref:rspo":80673,"official_name":"Miejskie Przedszkole Nr 2","name":"Miejskie Przedszkole Nr 2","addr:country":"PL","addr:postcode":"08-300","addr:city":"Soko\u0142\u00f3w Podlaski","addr:street":"ul. Ko\u015bciuszki","addr:housenumber":"31","addr:teryt:simc":9572,"addr:teryt:sym_ul":975760,"contact:phone":"+48 257812343","contact:email":"mp2sok@op.pl","contact:website":"http:\/\/www.przedszkole2.az.pl","ref:regon":"142716205","ref:vatin":"PL8231649816","operator":"Miasto Soko\u0142\u00f3w Podlaski","operator:type":"government","amenity":"kindergarten"}},{"id":80676,"type":"Feature","geometry":{"type":"Point","coordinates":[22.23481,52.40572]},"properties":{"ref:rspo":80676,"official_name":"Miejskie Przedszkole Nr 5 Im Kubusia Puchatka","name":"Miejskie Przedszkole Nr 5 Im Kubusia Puchatka","addr:country":"PL","addr:postcode":"08-300","addr:city":"Soko\u0142\u00f3w Podlaski","addr:street":"ul. 8 Sierpnia","addr:housenumber":"1d","addr:teryt:simc":19882,"addr:teryt:sym_ul":975760,"contact:phone":"+48 257812967","contact:email":"mp5@siedlce.home.pl","contact:website":"http:\/\/www.przedszkole5.sokp.pl","ref:regon":"142716240","ref:vatin":"PL8231649785","operator":"Miasto Soko\u0142\u00f3w Podlaski","operator:type":"government","amenity":"kindergarten"}},{"id":47210,"type":"Feature","geometry":{"type":"Point","coordinates":[22.24772,52.40582]},"properties":{"isced:level":"3","ref:rspo":47210,"official_name":"I Liceum Og\u00f3lnokszta\u0142c\u0105ce im. Marii Sk\u0142odowskiej-Curie","name":"I Liceum Og\u00f3lnokszta\u0142c\u0105ce","addr:country":"PL","addr:postcode":"08-300","addr:city":"Soko\u0142\u00f3w Podlaski","addr:street":"ul. Sadowa","addr:housenumber":"11","addr:teryt:simc":19404,"addr:teryt:sym_ul":975760,"contact:phone":"+48 257817640","contact:email":"sekretariat@liceum.sokolowpodl.pl","contact:website":"http:\/\/www.liceum.sokolowpodl.pl","ref:regon":"000256662","ref:vatin":"PL8231169677","operator":"Powiat Soko\u0142owski","operator:type":"government","amenity":"school"}},{"id":49213,"type":"Feature","geometry":{"type":"Point","coordinates":[22.23592,52.40618]},"properties":{"ref:rspo":49213,"official_name":"Zesp\u00f3\u0142 Szk\u00f3\u0142 Specjalnych im. Jana Paw\u0142a Ii","name":"Zesp\u00f3\u0142 Szk\u00f3\u0142 Specjalnych","addr:country":"PL","addr:postcode":"08-300","addr:city":"Soko\u0142\u00f3w Podlaski","addr:street":"ul. Pi\u0142sudskiego","addr:housenumber":"4","addr:teryt:simc":16252,"addr:teryt:sym_ul":975760,"contact:phone":"+48 257812220","contact:email":"zespec@sokp.pl","ref:regon":"711650093","ref:vatin":"PL8231448207","operator":"Powiat Soko\u0142owski","operator:type":"government","landuse":"education","fixme":"amenity=school, amenity=college albo landuse=education w zale\u017cno\u015bci od tego, jakie plac\u00f3wki wchodz\u0105 w sk\u0142ad zespo\u0142u. Sprawd\u017a, kiedy stosowa\u0107 amenity=* a kiedy landuse=education.","note":"Children RSPO: 89832;89839;89844"}},{"id":89832,"type":"Feature","geometry":{"type":"Point","coordinates":[22.23592,52.40615]},"properties":{"isced:level":"1;2","ref:rspo":89832,"official_name":"Szko\u0142a Podstawowa Specjalna","name":"Szko\u0142a Podstawowa Specjalna","addr:country":"PL","addr:postcode":"08-300","addr:city":"Soko\u0142\u00f3w Podlaski","addr:street":"ul. Pi\u0142sudskiego","addr:housenumber":"4","addr:teryt:simc":16252,"addr:teryt:sym_ul":975760,"contact:phone":"+48 257812220","contact:email":"zespec@sokp.pl","contact:website":"http:\/\/www.zespec.sokp.pl","ref:regon":"000891200","operator":"Powiat Soko\u0142owski","operator:type":"government","amenity":"school","note":"Parent RSPO: 49213"}},{"id":89839,"type":"Feature","geometry":{"type":"Point","coordinates":[22.23592,52.40612]},"properties":{"isced:level":"3","ref:rspo":89839,"official_name":"Bran\u017cowa Szko\u0142a I Stopnia Specjalna","name":"Bran\u017cowa Szko\u0142a I Stopnia Specjalna","addr:country":"PL","addr:postcode":"08-300","addr:city":"Soko\u0142\u00f3w Podlaski","addr:street":"ul. Pi\u0142sudskiego","addr:housenumber":"4","addr:teryt:simc":16252,"addr:teryt:sym_ul":975760,"contact:phone":"+48 257812220","contact:email":"zespec@sokp.pl","contact:website":"http:\/\/www.zespec.sokp.pl","ref:regon":"000202382","operator":"Powiat Soko\u0142owski","operator:type":"government","amenity":"school","note":"Parent RSPO: 49213"}},{"id":89844,"type":"Feature","geometry":{"type":"Point","coordinates":[22.23592,52.40609]},"properties":{"ref:rspo":89844,"official_name":"Szko\u0142a Specjalna Przysposabiaj\u0105ca Do Pracy","name":"Szko\u0142a Specjalna Przysposabiaj\u0105ca Do Pracy","addr:country":"PL","addr:postcode":"08-300","addr:city":"Soko\u0142\u00f3w Podlaski","addr:street":"ul. Pi\u0142sudskiego","addr:housenumber":"4","addr:teryt:simc":16252,"addr:teryt:sym_ul":975760,"contact:phone":"+48 257812220","contact:email":"zespec@sokp.pl","contact:website":"http:\/\/www.zespec.sokp.pl","ref:regon":"712572981","operator":"Powiat Soko\u0142owski","operator:type":"government","amenity":"school","note":"Parent RSPO: 49213"}},{"id":80678,"type":"Feature","geometry":{"type":"Point","coordinates":[22.25123,52.40643]},"properties":{"ref:rspo":80678,"official_name":"Niepubliczne Przedszkole \"Akademia Puchatka\"","name":"Niepubliczne Przedszkole \"Akademia Puchatka\"","addr:country":"PL","addr:postcode":"08-300","addr:city":"Soko\u0142\u00f3w Podlaski","addr:street":"ul. D\u0142uga","addr:housenumber":"22a","addr:teryt:simc":3839,"addr:teryt:sym_ul":975760,"contact:phone":"+48 257872606","contact:email":"akademia_puchatka@op.pl","contact:website":"http:\/\/www.akademia-puchatka.pl","ref:regon":"146416090","ref:vatin":"PL8231558172","operator":"Rados\u0142aw Strus","operator:type":"private","amenity":"kindergarten"}},{"id":128440,"type":"Feature","geometry":{"type":"Point","coordinates":[22.2401899,52.40682]},"properties":{"ref:rspo":128440,"official_name":"Niepubliczna Poradnia Psychologiczno - Pedagogiczna \"Alfa\" w Soko\u0142owie Podlaskim","name":"Niepubliczna Poradnia Psychologiczno - Pedagogiczna \"Alfa\" w Soko\u0142owie Podlaskim","addr:country":"PL","addr:postcode":"08-300","addr:city":"Soko\u0142\u00f3w Podlaski","addr:street":"ul. Wolno\u015bci","addr:housenumber":"29","addr:teryt:simc":24687,"addr:teryt:sym_ul":975760,"contact:phone":"+48 600325650","contact:email":"joannakaniuk@wp.pl","ref:regon":"362280772","operator":"Joanna Kaniuk","operator:type":"private","healthcare":"councelling","counselling_type":"education","fixme":"w zale\u017cno\u015bci od przedmiotu dzia\u0142alno\u015bci (np. healthcare=councelling + counselling_type=education albo healthcare=psychotherapist)"}},{"id":54269,"type":"Feature","geometry":{"type":"Point","coordinates":[22.2544,52.40694]},"properties":{"ref:rspo":54269,"official_name":"Szko\u0142a J\u0119zyka Angielskiego","name":"Szko\u0142a J\u0119zyka Angielskiego","addr:country":"PL","addr:postcode":"08-300","addr:city":"Soko\u0142\u00f3w Podlaski","addr:street":"ul. Pi\u0119kna","addr:housenumber":"2","addr:teryt:simc":16191,"addr:teryt:sym_ul":975760,"contact:phone":"+48 257873612","contact:website":"http:\/\/www.sja.pl","ref:regon":"146375557","ref:vatin":"PL8221017262","operator":"El\u017cbieta Miko\u0142ajczyk-Paudyna","operator:type":"private","fixme":"w zale\u017cno\u015bci od przedmiotu dzia\u0142alno\u015bci (np. amenity=training + training=*, amenity=dancing_school, amenity=language_school, amenity=music_school)"}},{"id":129754,"type":"Feature","geometry":{"type":"Point","coordinates":[22.21825,52.40715]},"properties":{"ref:rspo":129754,"official_name":"Niepubliczna Poradnia Psychologiczno - Pedagogiczna Logo","name":"Niepubliczna Poradnia Psychologiczno - Pedagogiczna Logo","addr:country":"PL","addr:postcode":"08-300","addr:city":"Soko\u0142\u00f3w Podlaski","addr:street":"ul. Fabryczna","addr:housenumber":"1","addr:teryt:simc":4863,"addr:teryt:sym_ul":975760,"contact:phone":"+48 508788088","contact:email":"poradnialogo@gmail.com","ref:regon":"362884820","operator":"Aleksandra Badowska-Ma\u0142yszka","operator:type":"private","healthcare":"councelling","counselling_type":"education","fixme":"w zale\u017cno\u015bci od przedmiotu dzia\u0142alno\u015bci (np. healthcare=councelling + counselling_type=education albo healthcare=psychotherapist)"}},{"id":63415,"type":"Feature","geometry":{"type":"Point","coordinates":[22.21556,52.40761]},"properties":{"isced:level":"1;2","ref:rspo":63415,"official_name":"Publiczna Szko\u0142a Podstawowa Nr 2 w Soko\u0142owie Podlaskim","name":"Publiczna Szko\u0142a Podstawowa Nr 2 w Soko\u0142owie Podlaskim","addr:country":"PL","addr:postcode":"08-300","addr:city":"Soko\u0142\u00f3w Podlaski","addr:street":"ul. W\u0119growska","addr:housenumber":"22","addr:teryt:simc":23945,"addr:teryt:sym_ul":975760,"contact:phone":"+48 257812782","contact:email":"skp2@sokp.pl","contact:website":"http:\/\/www.skp2.sokp.pl","ref:regon":"000661173","ref:vatin":"PL8231237427","operator":"Miasto Soko\u0142\u00f3w Podlaski","operator:type":"government","amenity":"school"}},{"id":80675,"type":"Feature","geometry":{"type":"Point","coordinates":[22.21556,52.407579999999996]},"properties":{"ref:rspo":80675,"official_name":"Miejskie Przedszkole Nr 4 \"Le\u015bna Kraina\"","name":"Miejskie Przedszkole Nr 4 \"Le\u015bna Kraina\"","addr:country":"PL","addr:postcode":"08-300","addr:city":"Soko\u0142\u00f3w Podlaski","addr:street":"ul. W\u0119growska","addr:housenumber":"22","addr:teryt:simc":23945,"addr:teryt:sym_ul":975760,"contact:phone":"+48 257816165","contact:email":"mp4@sokolowpodl.pl","contact:website":"http:\/\/www.przedszkole4.az.pl","ref:regon":"142716317","ref:vatin":"PL8231649791","operator":"Miasto Soko\u0142\u00f3w Podlaski","operator:type":"government","amenity":"kindergarten"}},{"id":262750,"type":"Feature","geometry":{"type":"Point","coordinates":[22.23826,52.40815]},"properties":{"isced:level":"1;2","ref:rspo":262750,"official_name":"Publiczna Szko\u0142a Podstawowa Nr 6 im. Paw\u0142a Kami\u0144skiego w Soko\u0142owie Podlaskim","name":"Publiczna Szko\u0142a Podstawowa Nr 6","addr:country":"PL","addr:postcode":"08-300","addr:city":"Soko\u0142\u00f3w Podlaski","addr:street":"ul. Sk\u0142odowskiej-Curie","addr:housenumber":"16","addr:teryt:simc":20066,"addr:teryt:sym_ul":975760,"contact:phone":"+48 257816424","contact:email":"sp6@sokolowpodl.pl","ref:regon":"368054634","operator":"Miasto Soko\u0142\u00f3w Podlaski","operator:type":"government","amenity":"school"}},{"id":125803,"type":"Feature","geometry":{"type":"Point","coordinates":[22.23469,52.40858]},"properties":{"ref:rspo":125803,"official_name":"Niepubliczna Plac\u00f3wka Ksza\u0142cenia Ustawicznego dla Doros\u0142ych \"Cel\"","name":"Niepubliczna Plac\u00f3wka Ksza\u0142cenia Ustawicznego dla Doros\u0142ych \"Cel\"","addr:country":"PL","addr:postcode":"08-300","addr:city":"Soko\u0142\u00f3w Podlaski","addr:street":"ul. Sk\u0142odowskiej-Curie","addr:housenumber":"1","addr:door":"36","addr:teryt:simc":20066,"addr:teryt:sym_ul":975760,"contact:phone":"+48 508346013","ref:regon":"147487063","ref:vatin":"PL8231137393","operator":"Piotr Adamczuk","operator:type":"private","fixme":"w zale\u017cno\u015bci od przedmiotu dzia\u0142alno\u015bci (np. amenity=training + training=*, amenity=dancing_school, amenity=language_school, amenity=music_school)"}},{"id":47209,"type":"Feature","geometry":{"type":"Point","coordinates":[22.23613,52.40864]},"properties":{"ref:rspo":47209,"official_name":"Zesp\u00f3\u0142 Szk\u00f3\u0142 Nr 1 im. K. K. Baczy\u0144skiego","name":"Zesp\u00f3\u0142 Szk\u00f3\u0142 Nr 1","addr:country":"PL","addr:postcode":"08-300","addr:city":"Soko\u0142\u00f3w Podlaski","addr:street":"ul. Sk\u0142odowskiej-Curie","addr:housenumber":"24","addr:teryt:simc":20066,"addr:teryt:sym_ul":975760,"contact:phone":"+48 257812286","contact:email":"zszsok@poczta.onet.pl","ref:regon":"000201454","ref:vatin":"PL8231220711","operator":"Powiat Soko\u0142owski","operator:type":"government","landuse":"education","fixme":"amenity=school, amenity=college albo landuse=education w zale\u017cno\u015bci od tego, jakie plac\u00f3wki wchodz\u0105 w sk\u0142ad zespo\u0142u. Sprawd\u017a, kiedy stosowa\u0107 amenity=* a kiedy landuse=education.","note":"Children RSPO: 90083;90139;90445;273288"}},{"id":47212,"type":"Feature","geometry":{"type":"Point","coordinates":[22.23613,52.408609999999996]},"properties":{"ref:rspo":47212,"official_name":"Publiczna Poradnia Psychologiczno-Pedagogiczna","name":"Publiczna Poradnia Psychologiczno-Pedagogiczna","addr:country":"PL","addr:postcode":"08-300","addr:city":"Soko\u0142\u00f3w Podlaski","addr:street":"ul. Sk\u0142odowskiej-Curie","addr:housenumber":"24A","addr:teryt:simc":20066,"addr:teryt:sym_ul":975760,"contact:phone":"+48 257812239","contact:email":"ppppsok@wp.pl","ref:regon":"712352340","ref:vatin":"PL8231504495","operator":"Powiat Soko\u0142owski","operator:type":"government","healthcare":"councelling","counselling_type":"education","fixme":"w zale\u017cno\u015bci od przedmiotu dzia\u0142alno\u015bci (np. healthcare=councelling + counselling_type=education albo healthcare=psychotherapist)"}},{"id":90083,"type":"Feature","geometry":{"type":"Point","coordinates":[22.23613,52.40858]},"properties":{"isced:level":"3","ref:rspo":90083,"official_name":"Ii Liceum Og\u00f3lnokszta\u0142c\u0105ce","name":"Ii Liceum Og\u00f3lnokszta\u0142c\u0105ce","addr:country":"PL","addr:postcode":"08-300","addr:city":"Soko\u0142\u00f3w Podlaski","addr:street":"ul. Sk\u0142odowskiej-Curie","addr:housenumber":"24","addr:teryt:simc":20066,"addr:teryt:sym_ul":975760,"contact:phone":"+48 257812286","contact:email":"zszsok@poczta.onet.pl","contact:website":"http:\/\/zsnr1.edu.pl","ref:regon":"712572314","operator":"Powiat Soko\u0142owski","operator:type":"government","amenity":"school","note":"Parent RSPO: 47209"}},{"id":90139,"type":"Feature","geometry":{"type":"Point","coordinates":[22.23613,52.40855]},"properties":{"isced:level":"3","ref:rspo":90139,"official_name":"Bran\u017cowa Szko\u0142a I Stopnia","name":"Bran\u017cowa Szko\u0142a I Stopnia","addr:country":"PL","addr:postcode":"08-300","addr:city":"Soko\u0142\u00f3w Podlaski","addr:street":"ul. Sk\u0142odowskiej-Curie","addr:housenumber":"24","addr:teryt:simc":20066,"addr:teryt:sym_ul":975760,"contact:phone":"+48 257812286","contact:email":"zszsok@poczta.onet.pl","contact:website":"http:\/\/www.zsnr1.edu.pl","ref:regon":"712572337","operator":"Powiat Soko\u0142owski","operator:type":"government","amenity":"school","note":"Parent RSPO: 47209"}},{"id":90445,"type":"Feature","geometry":{"type":"Point","coordinates":[22.23613,52.408519999999996]},"properties":{"isced:level":"3","ref:rspo":90445,"official_name":"Technikum Nr 1","name":"Technikum Nr 1","addr:country":"PL","addr:postcode":"08-300","addr:city":"Soko\u0142\u00f3w Podlaski","addr:street":"ul. Sk\u0142odowskiej-Curie","addr:housenumber":"24","addr:teryt:simc":20066,"addr:teryt:sym_ul":975760,"contact:phone":"+48 257812286","contact:email":"zszsok@poczta.onet.pl","contact:website":"http:\/\/www.zsnr1.edu.pl","ref:regon":"712572202","operator":"Powiat Soko\u0142owski","operator:type":"government","amenity":"school","note":"Parent RSPO: 47209"}},{"id":273288,"type":"Feature","geometry":{"type":"Point","coordinates":[22.23613,52.40849]},"properties":{"ref:rspo":273288,"official_name":"Bursa Mi\u0119dzyszkolna","name":"Bursa Mi\u0119dzyszkolna","addr:country":"PL","addr:postcode":"08-300","addr:city":"Soko\u0142\u00f3w Podlaski","addr:street":"ul. Sk\u0142odowskiej-Curie","addr:housenumber":"24 a","addr:teryt:simc":20066,"addr:teryt:sym_ul":975760,"contact:phone":"+48 257812286","contact:email":"zszsok@poczta.onet.pl","contact:website":"http:\/\/www.zsnr1.edu.pl","ref:regon":"384432785","operator":"Powiat Soko\u0142owski","operator:type":"government","building":"dormitory","note":"Parent RSPO: 47209"}},{"id":271905,"type":"Feature","geometry":{"type":"Point","coordinates":[22.24853,52.40982]},"properties":{"ref:rspo":271905,"official_name":"Centrum Edukacji I Rozwoju Kolorowe Kredki Przedszkole Niepubliczne","name":"Centrum Edukacji I Rozwoju Kolorowe Kredki Przedszkole Niepubliczne","addr:country":"PL","addr:postcode":"08-300","addr:city":"Soko\u0142\u00f3w Podlaski","addr:street":"ul. Kosowska","addr:housenumber":"15A","addr:teryt:simc":9452,"addr:teryt:sym_ul":975760,"contact:email":"kolorowekredki.sokolow@gmail.com","ref:regon":"383776459","operator":"Motir-Abs Niewiadomscy Sp\u00f3\u0142ka Jawna","operator:type":"consortium","amenity":"kindergarten"}},{"id":80680,"type":"Feature","geometry":{"type":"Point","coordinates":[22.25613,52.41059]},"properties":{"isced:level":"1;2","ref:rspo":80680,"official_name":"Publiczna Szko\u0142a Podstawowa Nr 4 im. Ks. Gen. Stanis\u0142awa Brz\u00f3ski w Soko\u0142owie Podlaskim","name":"Publiczna Szko\u0142a Podstawowa Nr 4","addr:country":"PL","addr:postcode":"08-300","addr:city":"Soko\u0142\u00f3w Podlaski","addr:street":"ul. Kupienty\u0144ska","addr:housenumber":"15","addr:teryt:simc":31248,"addr:teryt:sym_ul":975760,"contact:phone":"+48 257813076","contact:email":"szkola@sp4.edu.pl","contact:website":"http:\/\/www.sp4.edu.pl","ref:regon":"000717821","ref:vatin":"PL8231237404","operator":"Miasto Soko\u0142\u00f3w Podlaski","operator:type":"government","amenity":"school"}},{"id":41290,"type":"Feature","geometry":{"type":"Point","coordinates":[22.21848,52.41104]},"properties":{"ref:rspo":41290,"official_name":"Zesp\u00f3\u0142 Szk\u00f3\u0142 Centrum Kszta\u0142cenia Rolniczego im. W\u0142adys\u0142awa Stanis\u0142awa Reymonta w Soko\u0142owie Podlaskim","name":"Zesp\u00f3\u0142 Szk\u00f3\u0142 Centrum Kszta\u0142cenia Rolniczego","addr:country":"PL","addr:postcode":"08-300","addr:city":"Soko\u0142\u00f3w Podlaski","addr:street":"ul. Oleksiaka Wichury","addr:housenumber":"3","addr:teryt:simc":23992,"addr:teryt:sym_ul":975760,"contact:phone":"+48 257872137","contact:email":"zsckr.sokolow@wp.pl","contact:website":"http:\/\/www.zs2.sokolowpodl.pl","ref:regon":"000095667","ref:vatin":"PL8231155511","operator":"Ministerstwo Rolnictwa I Rozwoju Wsi","operator:type":"public","landuse":"education","fixme":"amenity=school, amenity=college albo landuse=education w zale\u017cno\u015bci od tego, jakie plac\u00f3wki wchodz\u0105 w sk\u0142ad zespo\u0142u. Sprawd\u017a, kiedy stosowa\u0107 amenity=* a kiedy landuse=education.","note":"Children RSPO: 85045;85046;129851"}},{"id":68698,"type":"Feature","geometry":{"type":"Point","coordinates":[22.21848,52.41101]},"properties":{"ref:rspo":68698,"official_name":"Biblioteka Pedagogiczna im. Heleny Radli\u0144skiej w Siedlcach Filia w Soko\u0142owie Podlaskim","name":"Biblioteka Pedagogiczna","addr:country":"PL","addr:postcode":"08-300","addr:city":"Soko\u0142\u00f3w Podlaski","addr:street":"ul. Oleksiaka Wichury","addr:housenumber":"3","addr:teryt:simc":23992,"addr:teryt:sym_ul":975760,"contact:phone":"+48 257873695","contact:email":"sokolow@bpsiedlce.pl","contact:website":"http:\/\/www.bpsiedlce.pl","ref:regon":"711690885","ref:vatin":"PL8211061132","operator":"Wojew\u00f3dztwo Mazowieckie","operator:type":"government","amenity":"library","note":"Parent RSPO: 28040"}},{"id":85045,"type":"Feature","geometry":{"type":"Point","coordinates":[22.21848,52.41098]},"properties":{"isced:level":"3","ref:rspo":85045,"official_name":"Technikum w Soko\u0142owie Podlaskim","name":"Technikum w Soko\u0142owie Podlaskim","addr:country":"PL","addr:postcode":"08-300","addr:city":"Soko\u0142\u00f3w Podlaski","addr:street":"ul. Oleksiaka Wichury","addr:housenumber":"3","addr:teryt:simc":23992,"addr:teryt:sym_ul":975760,"contact:phone":"+48 257872137","contact:email":"zsckr.sokolow@wp.pl","ref:regon":"712571800","operator":"Ministerstwo Rolnictwa I Rozwoju Wsi","operator:type":"public","amenity":"school","note":"Parent RSPO: 41290"}},{"id":85046,"type":"Feature","geometry":{"type":"Point","coordinates":[22.21848,52.41095]},"properties":{"isced:level":"3","ref:rspo":85046,"official_name":"Bran\u017cowa Szko\u0142a I Stopnia w Soko\u0142owie Podlaskim","name":"Bran\u017cowa Szko\u0142a I Stopnia w Soko\u0142owie Podlaskim","addr:country":"PL","addr:postcode":"08-300","addr:city":"Soko\u0142\u00f3w Podlaski","addr:street":"ul. Oleksiaka Wichury","addr:housenumber":"3","addr:teryt:simc":23992,"addr:teryt:sym_ul":975760,"contact:phone":"+48 257872137","contact:email":"zsckr.sokolow@wp.pl","contact:website":"http:\/\/www.zs2.sokolowpodl.pl","ref:regon":"712571817","operator":"Ministerstwo Rolnictwa I Rozwoju Wsi","operator:type":"public","amenity":"school","note":"Parent RSPO: 41290"}},{"id":129851,"type":"Feature","geometry":{"type":"Point","coordinates":[22.21848,52.41092]},"properties":{"ref:rspo":129851,"official_name":"Centrum Kszta\u0142cenia Ustawicznego w Soko\u0142owie Podlaskim","name":"Centrum Kszta\u0142cenia Ustawicznego w Soko\u0142owie Podlaskim","addr:country":"PL","addr:postcode":"08-300","addr:city":"Soko\u0142\u00f3w Podlaski","addr:street":"ul. Oleksiaka Wichury","addr:housenumber":"3","addr:teryt:simc":23992,"addr:teryt:sym_ul":975760,"contact:phone":"+48 257872137","contact:email":"zsckr.sokolow@wp.pl","contact:website":"http:\/\/www.zs2.sokolowpodl.pl","ref:regon":"363009445","operator":"Ministerstwo Rolnictwa I Rozwoju Wsi","operator:type":"public","fixme":"w zale\u017cno\u015bci od przedmiotu dzia\u0142alno\u015bci (np. amenity=training + training=*, amenity=dancing_school, amenity=language_school, amenity=music_school)","note":"Parent RSPO: 41290"}},{"id":80677,"type":"Feature","geometry":{"type":"Point","coordinates":[22.24637,52.41304]},"properties":{"ref:rspo":80677,"official_name":"Niepubliczne Przedszkole Si\u00f3str Salezjanek im. \u015awi\u0119tej Marii Dominiki Mazzarello w Soko\u0142owie Podlaskim","name":"Niepubliczne Przedszkole Si\u00f3str Salezjanek","addr:country":"PL","addr:postcode":"08-300","addr:city":"Soko\u0142\u00f3w Podlaski","addr:street":"ul. Kosowska","addr:housenumber":"26","addr:teryt:simc":9452,"addr:teryt:sym_ul":975760,"contact:phone":"+48 795566887","contact:email":"przedszkole_salezjanki@poczta.onet.pl","contact:website":"http:\/\/www.przedszkole-salezjanki.pl","ref:regon":"146436840","operator":"Zgromadzenie C\u00f3rek Maryi Wspomo\u017cycielki (Siostry Salezjanki) Inspektoria Warszawska","operator:type":"religious","amenity":"kindergarten"}},{"id":53369,"type":"Feature","geometry":{"type":"Point","coordinates":[22.23687,52.41364]},"properties":{"isced:level":"3","ref:rspo":53369,"official_name":"Niepubliczne Liceum Og\u00f3lnokszta\u0142c\u0105ce dla Doros\u0142ych Acze","name":"Niepubliczne Liceum Og\u00f3lnokszta\u0142c\u0105ce dla Doros\u0142ych Acze","addr:country":"PL","addr:postcode":"08-300","addr:city":"Soko\u0142\u00f3w Podlaski","addr:street":"ul. Z\u0105bkowska","addr:housenumber":"17D","addr:teryt:simc":25882,"addr:teryt:sym_ul":975760,"contact:phone":"+48 257872600","contact:email":"acze@sokolowpodl.pl","contact:website":"http:\/\/www.acze.pl","ref:regon":"146433591","ref:vatin":"PL8231153222","operator":"Andrzej Czerkas","operator:type":"private","amenity":"school"}},{"id":53493,"type":"Feature","geometry":{"type":"Point","coordinates":[22.23687,52.41361]},"properties":{"isced:level":"4","ref:rspo":53493,"official_name":"Niepubliczna Szko\u0142a Policealna Acze","name":"Niepubliczna Szko\u0142a Policealna Acze","addr:country":"PL","addr:postcode":"08-300","addr:city":"Soko\u0142\u00f3w Podlaski","addr:street":"ul. Z\u0105bkowska","addr:housenumber":"17D","addr:teryt:simc":25882,"addr:teryt:sym_ul":975760,"contact:phone":"+48 257872600","ref:regon":"146413789","ref:vatin":"PL8231153222","operator":"Andrzej Czerkas","operator:type":"private","amenity":"college"}},{"id":54268,"type":"Feature","geometry":{"type":"Point","coordinates":[22.23687,52.41358]},"properties":{"ref:rspo":54268,"official_name":"Centrum Szkoleniowe\"Acze\" Andrzej Czerkas","name":"Centrum Szkoleniowe\"Acze\" Andrzej Czerkas","addr:country":"PL","addr:postcode":"08-300","addr:city":"Soko\u0142\u00f3w Podlaski","addr:street":"ul. Z\u0105bkowska","addr:housenumber":"17D","addr:teryt:simc":25882,"addr:teryt:sym_ul":975760,"contact:phone":"+48 257872600","contact:email":"acze@sokolowpodl.pl","contact:website":"http:\/\/www.acze.pl","ref:regon":"146378113","ref:vatin":"PL8231153222","operator":"Andrzej Czerkas","operator:type":"private","fixme":"w zale\u017cno\u015bci od przedmiotu dzia\u0142alno\u015bci (np. amenity=training + training=*, amenity=dancing_school, amenity=language_school, amenity=music_school) albo amenity=school, amenity=college, albo landuse=education w zale\u017cno\u015bci od tego, jakie plac\u00f3wki wchodz\u0105 w sk\u0142ad zespo\u0142u. Sprawd\u017a, kiedy stosowa\u0107 amenity=* a kiedy landuse=education."}}]}