{
    "type": "FeatureCollection",
    "features": [
        {
            "id": 114829,
            "type": "Feature",
            "geometry": {
                "type": "Point",
                "coordinates": [
                    20.61731,
                    52.43273
                ]
            },
            "properties": {
                "ref:rspo": 114829,
                "official_name": "Gminne Przedszkole Publiczne \"Radosne Wzg\u00f3rze\" w Zakroczymiu",
                "name": "Gminne Przedszkole Publiczne \"Radosne Wzg\u00f3rze\" w Zakroczymiu",
                "addr:postcode": "05-170",
                "addr:city": "Zakroczym",
                "addr:street": "Warszawska",
                "addr:housenumber": "25",
                "addr:teryt:simc": 921869,
                "addr:teryt:sym_ul": 23682,
                "phone": "+48 723041010",
                "email": "elzbieta.lewandowska@zakroczym.pl",
                "website": "http:\/\/gppzakroczym.pl",
                "ref:regon": "146701241",
                "ref:vatin": "PL5311706495",
                "operator": "Gmina Zakroczym",
                "operator:type": "government",
                "amenity": "kindergarten"
            }
        },
        {
            "id": 74726,
            "type": "Feature",
            "geometry": {
                "type": "Point",
                "coordinates": [
                    20.6099,
                    52.43569
                ]
            },
            "properties": {
                "ref:rspo": 74726,
                "official_name": "Przedszkole Niepubliczne Zgromadzenia Si\u00f3str Wspomo\u017cycielek Dusz Czy\u015b\u0107cowych im. Wandy Ol\u0119dzkiej",
                "name": "Przedszkole Niepubliczne Zgromadzenia Si\u00f3str Wspomo\u017cycielek Dusz Czy\u015b\u0107cowych",
                "addr:postcode": "05-170",
                "addr:city": "Zakroczym",
                "addr:street": "Parowa Ok\u00f3lna",
                "addr:housenumber": "29",
                "addr:teryt:simc": 921869,
                "addr:teryt:sym_ul": 15718,
                "phone": "+48 227852203",
                "email": "przedszkolebiuro@opw.pl",
                "ref:regon": "146453323",
                "ref:vatin": "PL5311533267",
                "operator": "Zg.ss.wspomo\u017cycielek Dusz Czy\u015b\u0107cowych, Dom Generalny",
                "operator:type": "religious",
                "amenity": "kindergarten"
            }
        },
        {
            "id": 43937,
            "type": "Feature",
            "geometry": {
                "type": "Point",
                "coordinates": [
                    20.61171,
                    52.43653
                ]
            },
            "properties": {
                "isced:level": "1;2",
                "ref:rspo": 43937,
                "official_name": "Szko\u0142a Podstawowa im. Pomnik Wdzi\u0119czno\u015bci w Zakroczymiu",
                "name": "Szko\u0142a Podstawowa",
                "addr:postcode": "05-170",
                "addr:city": "Zakroczym",
                "addr:street": "Ojca Honorata Ko\u017ami\u0144skiego",
                "addr:housenumber": "63",
                "addr:teryt:simc": 921869,
                "addr:teryt:sym_ul": 9762,
                "phone": "+48 227852210",
                "email": "sekretariat@spzakroczym.pl",
                "website": "http:\/\/spzakroczym.pl",
                "ref:regon": "000679316",
                "ref:vatin": "PL5311706489",
                "operator": "Gmina Zakroczym",
                "operator:type": "government",
                "amenity": "school"
            }
        },
        {
            "id": 43939,
            "type": "Feature",
            "geometry": {
                "type": "Point",
                "coordinates": [
                    20.613937,
                    52.4943979
                ]
            },
            "properties": {
                "isced:level": "1;2",
                "ref:rspo": 43939,
                "official_name": "Szko\u0142a Podstawowa im. Fryderyka Chopina w Wojszczycach",
                "name": "Szko\u0142a Podstawowa",
                "addr:postcode": "05-180",
                "addr:place": "Wojszczyce",
                "addr:housenumber": "4a",
                "addr:teryt:simc": 10487,
                "phone": "+48 227852991",
                "email": "dyrektor@spwojszczyce.pl",
                "website": "http:\/\/spwojszczyce.pl",
                "ref:regon": "001146800",
                "ref:vatin": "PL5311649952",
                "operator": "Gmina Zakroczym",
                "operator:type": "government",
                "amenity": "school"
            }
        }
    ]
}