{
    "type": "FeatureCollection",
    "features": [
        {
            "id": 104706,
            "type": "Feature",
            "geometry": {
                "type": "Point",
                "coordinates": [
                    20.827108,
                    52.357974
                ]
            },
            "properties": {
                "ref:rspo": 104706,
                "official_name": "Niepubliczne Przedszkole \"Bajeczka\"",
                "name": "Niepubliczne Przedszkole \"Bajeczka\"",
                "addr:postcode": "05-092",
                "addr:city": "Izabelin-Dziekan\u00f3wek",
                "addr:street": "\u015arodkowa",
                "addr:housenumber": "5",
                "addr:teryt:simc": 1258,
                "addr:teryt:sym_ul": 22419,
                "phone": "+48 227518406",
                "email": "info@bajeczka.net.pl",
                "website": "http:\/\/bajeczka.net.pl",
                "ref:regon": "146451560",
                "ref:vatin": "PL5311552069",
                "operator": "Iwona Olkowska",
                "operator:type": "private",
                "amenity": "kindergarten"
            }
        },
        {
            "id": 77603,
            "type": "Feature",
            "geometry": {
                "type": "Point",
                "coordinates": [
                    20.641296,
                    52.361061
                ]
            },
            "properties": {
                "isced:level": "1;2",
                "ref:rspo": 77603,
                "official_name": "Szko\u0142a Podstawowa w Sowiej Woli",
                "name": "Szko\u0142a Podstawowa w Sowiej Woli",
                "addr:postcode": "05-152",
                "addr:city": "Sowia Wola",
                "addr:street": "Szkolna",
                "addr:housenumber": "108",
                "addr:teryt:simc": 1442,
                "addr:teryt:sym_ul": 21970,
                "phone": "+48 227850296",
                "email": "zsp_sowiawola@op.pl",
                "website": "http:\/\/www.zspsowiawola.pl",
                "ref:regon": "000800002",
                "ref:vatin": "PL5311538365",
                "operator": "Gmina Czosn\u00f3w",
                "operator:type": "government",
                "amenity": "school"
            }
        },
        {
            "id": 31990,
            "type": "Feature",
            "geometry": {
                "type": "Point",
                "coordinates": [
                    20.7387328,
                    52.3682563
                ]
            },
            "properties": {
                "ref:rspo": 31990,
                "official_name": "Zesp\u00f3\u0142 Szkolno-Przedszkolny w Kaliszkach",
                "name": "Zesp\u00f3\u0142 Szkolno-Przedszkolny w Kaliszkach",
                "addr:postcode": "05-152",
                "addr:place": "Kaliszki",
                "addr:housenumber": "170",
                "addr:teryt:simc": 1293,
                "phone": "+48 227850003",
                "email": "zspkaliszki@wp.pl",
                "website": "http:\/\/www.zspkaliszki.superszkolna.pl",
                "ref:regon": "015264598",
                "ref:vatin": "PL5311538425",
                "operator": "Gmina Czosn\u00f3w",
                "operator:type": "government",
                "landuse": "education",
                "fixme": "amenity=school, amenity=college albo landuse=education w zale\u017cno\u015bci od tego, jakie plac\u00f3wki wchodz\u0105 w sk\u0142ad zespo\u0142u. Sprawd\u017a, kiedy stosowa\u0107 amenity=* a kiedy landuse=education.",
                "note": "Children RSPO: 77599;89318"
            }
        },
        {
            "id": 77599,
            "type": "Feature",
            "geometry": {
                "type": "Point",
                "coordinates": [
                    20.7387328,
                    52.368226299999996
                ]
            },
            "properties": {
                "isced:level": "1;2",
                "ref:rspo": 77599,
                "official_name": "Zesp\u00f3\u0142 Szkolno-Przedszkolny Szko\u0142a Podstawowa w Kaliszkach",
                "name": "Zesp\u00f3\u0142 Szkolno-Przedszkolny Szko\u0142a Podstawowa w Kaliszkach",
                "addr:postcode": "05-152",
                "addr:place": "Kaliszki",
                "addr:housenumber": "170",
                "addr:teryt:simc": 1293,
                "phone": "+48 227850003",
                "email": "zspkaliszki@wp.pl",
                "website": "http:\/\/www.zspkaliszki.superszkolna.pl",
                "ref:regon": "001147478",
                "ref:vatin": "PL5311538425",
                "operator": "Gmina Czosn\u00f3w",
                "operator:type": "government",
                "amenity": "school",
                "note": "Parent RSPO: 31990"
            }
        },
        {
            "id": 89318,
            "type": "Feature",
            "geometry": {
                "type": "Point",
                "coordinates": [
                    20.7387328,
                    52.3681963
                ]
            },
            "properties": {
                "ref:rspo": 89318,
                "official_name": "Zesp\u00f3\u0142 Szkolno-Przedszkolny Przedszkole Publiczne w Kaliszkach",
                "name": "Zesp\u00f3\u0142 Szkolno-Przedszkolny Przedszkole Publiczne w Kaliszkach",
                "addr:postcode": "05-152",
                "addr:place": "Kaliszki",
                "addr:housenumber": "170",
                "addr:teryt:simc": 1293,
                "phone": "+48 227850003",
                "email": "zspkaliszki@wp.pl",
                "website": "http:\/\/www.zspkaliszki.superszkolna.pl",
                "ref:regon": "141526299",
                "ref:vatin": "PL5311538425",
                "operator": "Gmina Czosn\u00f3w",
                "operator:type": "government",
                "amenity": "kindergarten",
                "note": "Parent RSPO: 31990"
            }
        },
        {
            "id": 127229,
            "type": "Feature",
            "geometry": {
                "type": "Point",
                "coordinates": [
                    20.659425,
                    52.3713009
                ]
            },
            "properties": {
                "ref:rspo": 127229,
                "official_name": "Przedszkole Niepubliczne \"Przedszkole Elemelek\"",
                "name": "Przedszkole Niepubliczne \"Przedszkole Elemelek\"",
                "addr:postcode": "05-152",
                "addr:city": "Jan\u00f3w-Miko\u0142aj\u00f3wka",
                "addr:street": "Wojska Polskiego",
                "addr:housenumber": "249",
                "addr:teryt:simc": 1264,
                "addr:teryt:sym_ul": 24628,
                "phone": "+48 600247156",
                "email": "elemelek@przedszkole-elemelek.pl",
                "website": "http:\/\/www.przedszkole-elemelek.pl",
                "ref:regon": "361243941",
                "operator": "Barbara Kr\u0119\u017alewicz-Prarat",
                "operator:type": "private",
                "amenity": "kindergarten"
            }
        },
        {
            "id": 47185,
            "type": "Feature",
            "geometry": {
                "type": "Point",
                "coordinates": [
                    20.7480939,
                    52.3736569
                ]
            },
            "properties": {
                "ref:rspo": 47185,
                "official_name": "Gumisiowe Przedszkole",
                "name": "Gumisiowe Przedszkole",
                "addr:postcode": "05-152",
                "addr:city": "Kaliszki",
                "addr:street": "Akacjowa",
                "addr:housenumber": "148",
                "addr:teryt:simc": 1293,
                "addr:teryt:sym_ul": 157,
                "phone": "+48 533337766",
                "email": "info@gumisiowe-przedszkole.pl",
                "website": "http:\/\/www.gumisiowe-przedszkole.pl\/",
                "ref:regon": "146365777",
                "ref:vatin": "PL5311569816",
                "operator": "Almavi Sp\u00f3\u0142ka Z Ograniczon\u0105 Odpowiedzialno\u015bci\u0105",
                "operator:type": "private",
                "amenity": "kindergarten"
            }
        },
        {
            "id": 123750,
            "type": "Feature",
            "geometry": {
                "type": "Point",
                "coordinates": [
                    20.7480939,
                    52.3736269
                ]
            },
            "properties": {
                "isced:level": "1;2",
                "ref:rspo": 123750,
                "official_name": "Niepubliczna J\u0119zykowa Szko\u0142a Podstawowa Creatio w Kaliszkach",
                "name": "Niepubliczna J\u0119zykowa Szko\u0142a Podstawowa Creatio w Kaliszkach",
                "addr:postcode": "05-152",
                "addr:city": "Kaliszki",
                "addr:street": "Akacjowa",
                "addr:housenumber": "148",
                "addr:teryt:simc": 1293,
                "addr:teryt:sym_ul": 157,
                "phone": "+48 533337766",
                "email": "izabelapostawska@creatio.edu.pl",
                "ref:regon": "147347422",
                "ref:vatin": "PL5311696006",
                "operator": "Almavi Sp\u00f3\u0142ka Z Ograniczon\u0105 Odpowiedzialno\u015bci\u0105",
                "operator:type": "private",
                "amenity": "school"
            }
        },
        {
            "id": 132278,
            "type": "Feature",
            "geometry": {
                "type": "Point",
                "coordinates": [
                    20.7480939,
                    52.3735969
                ]
            },
            "properties": {
                "ref:rspo": 132278,
                "official_name": "Niepubliczna Poradnia Psychologiczno-Pedagogiczna Emotka",
                "name": "Niepubliczna Poradnia Psychologiczno-Pedagogiczna Emotka",
                "addr:postcode": "05-152",
                "addr:city": "Kaliszki",
                "addr:street": "Akacjowa",
                "addr:housenumber": "148",
                "addr:teryt:simc": 1293,
                "addr:teryt:sym_ul": 157,
                "email": "piotr@paluchowski.eu",
                "ref:regon": "365529338",
                "operator": "Almavi Sp\u00f3\u0142ka Z Ograniczon\u0105 Odpowiedzialno\u015bci\u0105",
                "operator:type": "private",
                "healthcare": "counselling",
                "counselling_type": "education",
                "fixme": "w zale\u017cno\u015bci od przedmiotu dzia\u0142alno\u015bci (np. healthcare=counselling + counselling_type=education albo healthcare=psychotherapist)"
            }
        },
        {
            "id": 74106,
            "type": "Feature",
            "geometry": {
                "type": "Point",
                "coordinates": [
                    20.6806797,
                    52.3738094
                ]
            },
            "properties": {
                "isced:level": "1;2",
                "ref:rspo": 74106,
                "official_name": "Szko\u0142a Podstawowa im. Macieja Rataja w Ma\u0142ocicach",
                "name": "Szko\u0142a Podstawowa",
                "addr:postcode": "05-152",
                "addr:city": "Ma\u0142ocice",
                "addr:street": "Wojska Polskiego",
                "addr:housenumber": "76",
                "addr:teryt:simc": 1376,
                "addr:teryt:sym_ul": 24628,
                "phone": "+48 227850018",
                "email": "zspmalocice@onet.eu",
                "website": "http:\/\/www.zspmalocice.superszkolna.pl",
                "ref:regon": "000800054",
                "ref:vatin": "PL5311538419",
                "operator": "Gmina Czosn\u00f3w",
                "operator:type": "government",
                "amenity": "school"
            }
        },
        {
            "id": 268236,
            "type": "Feature",
            "geometry": {
                "type": "Point",
                "coordinates": [
                    20.7969,
                    52.3776
                ]
            },
            "properties": {
                "ref:rspo": 268236,
                "official_name": "Punkt Przedszkolny \"Ja\u015b\"",
                "name": "Punkt Przedszkolny \"Ja\u015b\"",
                "addr:postcode": "05-152",
                "addr:place": "\u0141omna-Las",
                "addr:housenumber": "5A",
                "addr:teryt:simc": 1353,
                "phone": "+48 506575329",
                "email": "olgaradecka3@gmail.com",
                "website": "https:\/\/www.facebook.com\/punktprzedszkolnyjas",
                "ref:regon": "381035300",
                "operator": "Olga Radecka",
                "operator:type": "private",
                "amenity": "kindergarten"
            }
        },
        {
            "id": 90166,
            "type": "Feature",
            "geometry": {
                "type": "Point",
                "coordinates": [
                    20.7763749,
                    52.3820179
                ]
            },
            "properties": {
                "isced:level": "1;2",
                "ref:rspo": 90166,
                "official_name": "Szko\u0142a Podstawowa w \u0141omnie",
                "name": "Szko\u0142a Podstawowa w \u0141omnie",
                "addr:postcode": "05-152",
                "addr:city": "\u0141omna",
                "addr:street": "Jana Kochanowskiego",
                "addr:housenumber": "89",
                "addr:teryt:simc": 1347,
                "addr:teryt:sym_ul": 8728,
                "phone": "+48 227850120",
                "email": "szkola.lomna@wp.pl",
                "ref:regon": "000800019",
                "ref:vatin": "PL5311538388",
                "operator": "Gmina Czosn\u00f3w",
                "operator:type": "government",
                "amenity": "school"
            }
        },
        {
            "id": 123749,
            "type": "Feature",
            "geometry": {
                "type": "Point",
                "coordinates": [
                    20.666677,
                    52.3831349
                ]
            },
            "properties": {
                "ref:rspo": 123749,
                "official_name": "Niepubliczne Przedszkole Muzyczno-J\u0119zykowe \"Nutka\"",
                "name": "Niepubliczne Przedszkole Muzyczno-J\u0119zykowe \"Nutka\"",
                "addr:postcode": "05-152",
                "addr:city": "Czeczotki",
                "addr:street": "Brzozowa",
                "addr:housenumber": "17c",
                "addr:teryt:simc": 1206,
                "addr:teryt:sym_ul": 2276,
                "phone": "+48 512205722",
                "email": "malgosiapalzewicz@gmail.com",
                "website": "http:\/\/www.czeczotki.pl",
                "ref:regon": "147347400",
                "operator": "\"\u015awiat Muzyki\" Ma\u0142gorzata Pa\u0142\u017cewicz",
                "operator:type": "consortium",
                "amenity": "kindergarten"
            }
        },
        {
            "id": 48198,
            "type": "Feature",
            "geometry": {
                "type": "Point",
                "coordinates": [
                    20.733755,
                    52.389741
                ]
            },
            "properties": {
                "ref:rspo": 48198,
                "official_name": "Przedszkole Niepubliczne \"Zielona Akademia\"",
                "name": "Przedszkole Niepubliczne \"Zielona Akademia\"",
                "addr:postcode": "05-152",
                "addr:city": "Czosn\u00f3w",
                "addr:street": "Warszawska",
                "addr:housenumber": "29",
                "addr:teryt:simc": 1212,
                "addr:teryt:sym_ul": 23682,
                "phone": "+48 600800611",
                "email": "przedszkole@zielonaakademia.pl",
                "website": "http:\/\/www.zielonaakademia.pl\/",
                "ref:regon": "146366452",
                "operator": "Dane Do Uzupe\u0142nienia",
                "operator:type": "private",
                "amenity": "kindergarten"
            }
        },
        {
            "id": 268398,
            "type": "Feature",
            "geometry": {
                "type": "Point",
                "coordinates": [
                    20.74298,
                    52.3909
                ]
            },
            "properties": {
                "ref:rspo": 268398,
                "official_name": "Niepubliczne Przedszkole Zielona Akademia",
                "name": "Niepubliczne Przedszkole Zielona Akademia",
                "addr:postcode": "05-152",
                "addr:place": "Cz\u0105stk\u00f3w Mazowiecki",
                "addr:housenumber": "79",
                "addr:teryt:simc": 1152,
                "phone": "+48 600800212",
                "email": "przedszkole@zielonaakdemia.pl",
                "website": "http:\/\/www.zielonaakademia.pl",
                "ref:regon": "381142331",
                "ref:vatin": "PL5271188372",
                "operator": "Renata R\u00f3\u017cycka",
                "operator:type": "private",
                "amenity": "kindergarten"
            }
        },
        {
            "id": 58311,
            "type": "Feature",
            "geometry": {
                "type": "Point",
                "coordinates": [
                    20.7462708,
                    52.3919111
                ]
            },
            "properties": {
                "isced:level": "1;2",
                "ref:rspo": 58311,
                "official_name": "Szko\u0142a Podstawowa im. Prezydenta Gabriela Narutowicza w Cz\u0105stkowie Mazowieckim",
                "name": "Szko\u0142a Podstawowa",
                "addr:postcode": "05-152",
                "addr:place": "Cz\u0105stk\u00f3w Mazowiecki",
                "addr:housenumber": "55",
                "addr:teryt:simc": 1152,
                "phone": "+48 600692375",
                "email": "szkolaczastkow@gmail.com",
                "website": "http:\/\/zspczastkow.prohost.pl",
                "ref:regon": "000800048",
                "ref:vatin": "PL5311538371",
                "operator": "Gmina Czosn\u00f3w",
                "operator:type": "government",
                "amenity": "school"
            }
        },
        {
            "id": 89319,
            "type": "Feature",
            "geometry": {
                "type": "Point",
                "coordinates": [
                    20.656547,
                    52.4015659
                ]
            },
            "properties": {
                "isced:level": "1;2",
                "ref:rspo": 89319,
                "official_name": "Szko\u0142a Podstawowa im. Ks. Jerzego Popie\u0142uszki w Kazuniu Polskim",
                "name": "Szko\u0142a Podstawowa",
                "addr:postcode": "05-152",
                "addr:city": "Kazu\u0144 Polski",
                "addr:street": "Szkolna",
                "addr:housenumber": "2",
                "addr:teryt:simc": 1324,
                "addr:teryt:sym_ul": 21970,
                "phone": "+48 797925751",
                "email": "kazunpolski@poczta.onet.pl",
                "website": "http:\/\/www.zspkazunpolski.republika.pl",
                "ref:regon": "000800031",
                "ref:vatin": "PL5311538394",
                "operator": "Gmina Czosn\u00f3w",
                "operator:type": "government",
                "amenity": "school"
            }
        },
        {
            "id": 123860,
            "type": "Feature",
            "geometry": {
                "type": "Point",
                "coordinates": [
                    20.682938,
                    52.4197269
                ]
            },
            "properties": {
                "ref:rspo": 123860,
                "official_name": "Zesp\u00f3\u0142 Szkolno-Przedszkolny w Kazuniu Nowym",
                "name": "Zesp\u00f3\u0142 Szkolno-Przedszkolny w Kazuniu Nowym",
                "addr:postcode": "05-152",
                "addr:city": "Kazu\u0144 Nowy",
                "addr:street": "G\u0142\u00f3wna",
                "addr:housenumber": "6",
                "addr:teryt:simc": 1382,
                "addr:teryt:sym_ul": 5635,
                "phone": "+48 227752671",
                "email": "kaznow37@poczta.onet.pl",
                "website": "http:\/\/www.spkn.superszkolna.pl",
                "ref:regon": "147357455",
                "ref:vatin": "PL5311690771",
                "operator": "Gmina Czosn\u00f3w",
                "operator:type": "government",
                "landuse": "education",
                "fixme": "amenity=school, amenity=college albo landuse=education w zale\u017cno\u015bci od tego, jakie plac\u00f3wki wchodz\u0105 w sk\u0142ad zespo\u0142u. Sprawd\u017a, kiedy stosowa\u0107 amenity=* a kiedy landuse=education.",
                "note": "Children RSPO: 31992;123881"
            }
        },
        {
            "id": 31992,
            "type": "Feature",
            "geometry": {
                "type": "Point",
                "coordinates": [
                    20.682938,
                    52.4196969
                ]
            },
            "properties": {
                "isced:level": "1;2",
                "ref:rspo": 31992,
                "official_name": "Szko\u0142a Podstawowa w Kazuniu Nowym im. 2 Brygady Saper\u00f3w",
                "name": "Szko\u0142a Podstawowa w Kazuniu Nowym",
                "addr:postcode": "05-152",
                "addr:city": "Kazu\u0144 Nowy",
                "addr:street": "G\u0142\u00f3wna",
                "addr:housenumber": "6",
                "addr:teryt:simc": 1382,
                "addr:teryt:sym_ul": 5635,
                "phone": "+48 227752671",
                "email": "kaznow37@poczta.onet.pl",
                "website": "http:\/\/www.spkn.superszkolna.pl",
                "ref:regon": "000799990",
                "operator": "Gmina Czosn\u00f3w",
                "operator:type": "government",
                "amenity": "school",
                "note": "Parent RSPO: 123860"
            }
        },
        {
            "id": 123881,
            "type": "Feature",
            "geometry": {
                "type": "Point",
                "coordinates": [
                    20.682938,
                    52.4196669
                ]
            },
            "properties": {
                "ref:rspo": 123881,
                "official_name": "Publiczne Przedszkole w Kazuniu Nowym",
                "name": "Publiczne Przedszkole w Kazuniu Nowym",
                "addr:postcode": "05-152",
                "addr:city": "Kazu\u0144 Nowy",
                "addr:street": "G\u0142\u00f3wna",
                "addr:housenumber": "6",
                "addr:teryt:simc": 1382,
                "addr:teryt:sym_ul": 5635,
                "phone": "+48 227752671",
                "email": "kaznow37@poczta.onet.pl",
                "website": "http:\/\/www.spkn.superszkolna.pl",
                "ref:regon": "147360227",
                "operator": "Gmina Czosn\u00f3w",
                "operator:type": "government",
                "amenity": "kindergarten",
                "note": "Parent RSPO: 123860"
            }
        },
        {
            "id": 130740,
            "type": "Feature",
            "geometry": {
                "type": "Point",
                "coordinates": [
                    20.7121642,
                    52.4215805
                ]
            },
            "properties": {
                "ref:rspo": 130740,
                "official_name": "Niepubliczna Plac\u00f3wka Kszta\u0142cenia Ustawicznego \"Kontra\"",
                "name": "Niepubliczna Plac\u00f3wka Kszta\u0142cenia Ustawicznego \"Kontra\"",
                "addr:postcode": "05-152",
                "addr:place": "Cz\u0105stk\u00f3w Mazowiecki",
                "addr:housenumber": "128",
                "addr:teryt:simc": 1152,
                "phone": "+48 227851090",
                "email": "stowarzyszenie@stowarzyszeniekontra.pl",
                "ref:regon": "364446455",
                "operator": "Stowarzyszenie Niezale\u017cnych Podatnik\u00f3w \"Kontra\"",
                "operator:type": "ngo",
                "fixme": "w zale\u017cno\u015bci od przedmiotu dzia\u0142alno\u015bci (np. amenity=training + training=*, amenity=dancing_school, amenity=language_school, amenity=music_school)"
            }
        }
    ]
}