{
    "type": "FeatureCollection",
    "features": [
        {
            "id": 4016,
            "type": "Feature",
            "geometry": {
                "type": "Point",
                "coordinates": [
                    20.73678,
                    52.41681
                ]
            },
            "properties": {
                "ref:rspo": 4016,
                "official_name": "Zesp\u00f3\u0142 Szkolno-Przedszkolny Nr 1 w Nowym Dworze Mazowieckim",
                "name": "Zesp\u00f3\u0142 Szkolno-Przedszkolny Nr 1 w Nowym Dworze Mazowieckim",
                "addr:postcode": "05-101",
                "addr:city": "Nowy Dw\u00f3r Mazowiecki",
                "addr:street": "M\u0142odzie\u017cowa",
                "addr:housenumber": "1",
                "addr:city:simc": 921148,
                "addr:street:sym_ul": 13096,
                "phone": "+48 227755000",
                "email": "sekretariat@zs1.nowydwormaz.pl",
                "website": "http:\/\/www.zs1.nowydwormaz.pl",
                "ref:regon": "146254836",
                "operator": "Miasto Nowy Dw\u00f3r Mazowiecki",
                "operator:type": "government",
                "landuse": "education",
                "fixme": "amenity=school, amenity=college albo landuse=education w zale\u017cno\u015bci od tego, jakie plac\u00f3wki wchodz\u0105 w sk\u0142ad zespo\u0142u. Sprawd\u017a, kiedy stosowa\u0107 amenity=* a kiedy landuse=education.",
                "note": "Children RSPO: 11312;11719"
            }
        },
        {
            "id": 11312,
            "type": "Feature",
            "geometry": {
                "type": "Point",
                "coordinates": [
                    20.73678,
                    52.416779999999996
                ]
            },
            "properties": {
                "isced:level": "1;2",
                "ref:rspo": 11312,
                "official_name": "Szko\u0142a Podstawowa Nr 7 im. Or\u0142a Bia\u0142ego",
                "name": "Szko\u0142a Podstawowa Nr 7",
                "addr:postcode": "05-101",
                "addr:city": "Nowy Dw\u00f3r Mazowiecki",
                "addr:street": "M\u0142odzie\u017cowa",
                "addr:housenumber": "1",
                "addr:city:simc": 921148,
                "addr:street:sym_ul": 13096,
                "phone": "+48 227755000",
                "email": "sekretariat@zs1.nowydwormaz.pl",
                "website": "http:\/\/www.zs1.nowydwormaz.pl",
                "ref:regon": "011443750",
                "operator": "Miasto Nowy Dw\u00f3r Mazowiecki",
                "operator:type": "government",
                "amenity": "school",
                "note": "Parent RSPO: 4016"
            }
        },
        {
            "id": 11719,
            "type": "Feature",
            "geometry": {
                "type": "Point",
                "coordinates": [
                    20.73678,
                    52.41675
                ]
            },
            "properties": {
                "ref:rspo": 11719,
                "official_name": "Publiczne Przedszkole Nr 5",
                "name": "Publiczne Przedszkole Nr 5",
                "addr:postcode": "05-101",
                "addr:city": "Nowy Dw\u00f3r Mazowiecki",
                "addr:street": "M\u0142odzie\u017cowa",
                "addr:housenumber": "1",
                "addr:city:simc": 921148,
                "addr:street:sym_ul": 13096,
                "phone": "+48 227755871",
                "email": "sekretariat@zs1.nowydwormaz.pl",
                "website": "http:\/\/www.zs1.nowydwormaz.pl",
                "ref:regon": "013003310",
                "operator": "Miasto Nowy Dw\u00f3r Mazowiecki",
                "operator:type": "government",
                "amenity": "kindergarten",
                "note": "Parent RSPO: 4016"
            }
        },
        {
            "id": 276229,
            "type": "Feature",
            "geometry": {
                "type": "Point",
                "coordinates": [
                    20.73462,
                    52.41767
                ]
            },
            "properties": {
                "ref:rspo": 276229,
                "official_name": "Specjalistyczna Niepubliczna Poradnia Psychologiczno-Pedagogiczna \"\u017bar\u00f3wka\"",
                "name": "Specjalistyczna Niepubliczna Poradnia Psychologiczno-Pedagogiczna \"\u017bar\u00f3wka\"",
                "addr:postcode": "05-101",
                "addr:city": "Nowy Dw\u00f3r Mazowiecki",
                "addr:street": "Prymasa Stefana Wyszy\u0144skiego",
                "addr:housenumber": "3",
                "addr:door": "18",
                "addr:city:simc": 921148,
                "addr:street:sym_ul": 25119,
                "ref:regon": "387045557",
                "operator": "Fundacja Wspierania Rozwoju Dzieci I Wsparcia Rodziny \"Odpocz\u0105tku\"",
                "operator:type": "ngo",
                "healthcare": "counselling",
                "counselling_type": "education",
                "fixme": "w zale\u017cno\u015bci od przedmiotu dzia\u0142alno\u015bci (np. healthcare=counselling + counselling_type=education albo healthcare=psychotherapist)"
            }
        },
        {
            "id": 80123,
            "type": "Feature",
            "geometry": {
                "type": "Point",
                "coordinates": [
                    20.73705,
                    52.41805
                ]
            },
            "properties": {
                "ref:rspo": 80123,
                "official_name": "Niepubliczne Przedszkole \"Akademia Malucha\"",
                "name": "Niepubliczne Przedszkole \"Akademia Malucha\"",
                "addr:postcode": "05-100",
                "addr:city": "Nowy Dw\u00f3r Mazowiecki",
                "addr:street": "Wojska Polskiego",
                "addr:housenumber": "35",
                "addr:city:simc": 921148,
                "addr:street:sym_ul": 24628,
                "phone": "+48 227751586",
                "email": "akademia_malucha@interia.eu",
                "ref:regon": "146405554",
                "operator": "Judyta Jaworska",
                "operator:type": "private",
                "amenity": "kindergarten"
            }
        },
        {
            "id": 126494,
            "type": "Feature",
            "geometry": {
                "type": "Point",
                "coordinates": [
                    20.72956,
                    52.4186
                ]
            },
            "properties": {
                "ref:rspo": 126494,
                "official_name": "Bajkowy Dom",
                "name": "Bajkowy Dom",
                "addr:postcode": "05-101",
                "addr:city": "Nowy Dw\u00f3r Mazowiecki",
                "addr:street": "Genera\u0142a Leopolda Okulickiego",
                "addr:housenumber": "9",
                "addr:city:simc": 921148,
                "addr:street:sym_ul": 14929,
                "phone": "+48 227824236",
                "email": "sekretariatbajkowydom@op.pl",
                "ref:regon": "360387336",
                "ref:vatin": "PL5242129792",
                "operator": "Ewa Kobus",
                "operator:type": "private",
                "amenity": "kindergarten"
            }
        },
        {
            "id": 7992,
            "type": "Feature",
            "geometry": {
                "type": "Point",
                "coordinates": [
                    20.7212299,
                    52.42058
                ]
            },
            "properties": {
                "ref:rspo": 7992,
                "official_name": "Zesp\u00f3\u0142 Szk\u00f3\u0142 Nr 2\nW Nowym Dworze Mazowieckim",
                "name": "Zesp\u00f3\u0142 Szk\u00f3\u0142 Nr 2\nW Nowym Dworze Mazowieckim",
                "addr:postcode": "05-100",
                "addr:city": "Nowy Dw\u00f3r Mazowiecki",
                "addr:street": "D\u0142uga",
                "addr:housenumber": "10",
                "addr:city:simc": 921148,
                "addr:street:sym_ul": 3839,
                "phone": "+48 227752543",
                "email": "zs2@nowydwormaz.pl",
                "website": "http:\/\/www.zs2.nowydwormaz.pl",
                "ref:regon": "011443542",
                "ref:vatin": "PL5311369632",
                "operator": "Miasto Nowy Dw\u00f3r Mazowiecki",
                "operator:type": "government",
                "landuse": "education",
                "fixme": "amenity=school, amenity=college albo landuse=education w zale\u017cno\u015bci od tego, jakie plac\u00f3wki wchodz\u0105 w sk\u0142ad zespo\u0142u. Sprawd\u017a, kiedy stosowa\u0107 amenity=* a kiedy landuse=education.",
                "note": "Children RSPO: 11416;109536;133231"
            }
        },
        {
            "id": 127122,
            "type": "Feature",
            "geometry": {
                "type": "Point",
                "coordinates": [
                    20.7212299,
                    52.42055
                ]
            },
            "properties": {
                "ref:rspo": 127122,
                "official_name": "Puls - Niepubliczne Centrum Kszta\u0142cenia",
                "name": "Puls - Niepubliczne Centrum Kszta\u0142cenia",
                "addr:postcode": "05-100",
                "addr:city": "Nowy Dw\u00f3r Mazowiecki",
                "addr:street": "D\u0142uga",
                "addr:housenumber": "10",
                "addr:city:simc": 921148,
                "addr:street:sym_ul": 3839,
                "email": "biuro@puls-szkolenia.pl",
                "ref:regon": "361136866",
                "operator": "Puls Systemy Organizacji Szkole\u0144 Sp\u00f3\u0142ka Z Ograniczon\u0105 Odpowiedzialno\u015bci\u0105 W Likwidacji",
                "operator:type": "private",
                "fixme": "w zale\u017cno\u015bci od przedmiotu dzia\u0142alno\u015bci (np. amenity=training + training=*, amenity=dancing_school, amenity=language_school, amenity=music_school)"
            }
        },
        {
            "id": 11416,
            "type": "Feature",
            "geometry": {
                "type": "Point",
                "coordinates": [
                    20.7212299,
                    52.42052
                ]
            },
            "properties": {
                "isced:level": "3",
                "ref:rspo": 11416,
                "official_name": "Liceum Og\u00f3lnokszta\u0142c\u0105ce",
                "name": "Liceum Og\u00f3lnokszta\u0142c\u0105ce",
                "addr:postcode": "05-100",
                "addr:city": "Nowy Dw\u00f3r Mazowiecki",
                "addr:street": "D\u0142uga",
                "addr:housenumber": "10",
                "addr:city:simc": 921148,
                "addr:street:sym_ul": 3839,
                "phone": "+48 227752543",
                "email": "zs2@nowydwormaz.pl",
                "website": "http:\/\/www.zs2.nowydwormaz.pl",
                "ref:regon": "146290878",
                "operator": "Miasto Nowy Dw\u00f3r Mazowiecki",
                "operator:type": "government",
                "amenity": "school",
                "note": "Parent RSPO: 7992"
            }
        },
        {
            "id": 109536,
            "type": "Feature",
            "geometry": {
                "type": "Point",
                "coordinates": [
                    20.7212299,
                    52.42049
                ]
            },
            "properties": {
                "isced:level": "3",
                "ref:rspo": 109536,
                "official_name": "Technikum",
                "name": "Technikum",
                "addr:postcode": "05-100",
                "addr:city": "Nowy Dw\u00f3r Mazowiecki",
                "addr:street": "D\u0142uga",
                "addr:housenumber": "10",
                "addr:city:simc": 921148,
                "addr:street:sym_ul": 3839,
                "phone": "+48 227752543",
                "email": "zs2@nowydwormaz.pl",
                "website": "http:\/\/www.zs2.nowydwormaz.pl",
                "ref:regon": "015552647",
                "operator": "Miasto Nowy Dw\u00f3r Mazowiecki",
                "operator:type": "government",
                "amenity": "school",
                "note": "Parent RSPO: 7992"
            }
        },
        {
            "id": 133231,
            "type": "Feature",
            "geometry": {
                "type": "Point",
                "coordinates": [
                    20.7212299,
                    52.42046
                ]
            },
            "properties": {
                "isced:level": "3",
                "ref:rspo": 133231,
                "official_name": "Liceum Og\u00f3lnokszta\u0142c\u0105ce dla Doros\u0142ych",
                "name": "Liceum Og\u00f3lnokszta\u0142c\u0105ce dla Doros\u0142ych",
                "addr:postcode": "05-100",
                "addr:city": "Nowy Dw\u00f3r Mazowiecki",
                "addr:street": "D\u0142uga",
                "addr:housenumber": "10",
                "addr:city:simc": 921148,
                "addr:street:sym_ul": 3839,
                "phone": "+48 227752543",
                "email": "zs2@nowydwormaz.pl",
                "website": "http:\/\/www.zs2.nowydwormaz.pl",
                "ref:regon": "146290973",
                "operator": "Miasto Nowy Dw\u00f3r Mazowiecki",
                "operator:type": "government",
                "amenity": "school",
                "note": "Parent RSPO: 7992"
            }
        },
        {
            "id": 130792,
            "type": "Feature",
            "geometry": {
                "type": "Point",
                "coordinates": [
                    20.73284,
                    52.42215
                ]
            },
            "properties": {
                "ref:rspo": 130792,
                "official_name": "Niepubliczna Szko\u0142a Muzyczna I St. Preludium w Nowym Dworze Mazowieckim",
                "name": "Niepubliczna Szko\u0142a Muzyczna I St. Preludium w Nowym Dworze Mazowieckim",
                "addr:postcode": "05-100",
                "addr:city": "Nowy Dw\u00f3r Mazowiecki",
                "addr:street": "D\u0119bowa",
                "addr:housenumber": "13",
                "addr:city:simc": 921148,
                "addr:street:sym_ul": 3811,
                "email": "kontakt@preludium.edu.pl",
                "website": "http:\/\/preludium.edu.pl",
                "ref:regon": "364523138",
                "operator": "Przemys\u0142aw Piekutowski",
                "operator:type": "private",
                "amenity": "music_school"
            }
        },
        {
            "id": 264237,
            "type": "Feature",
            "geometry": {
                "type": "Point",
                "coordinates": [
                    20.73284,
                    52.42212
                ]
            },
            "properties": {
                "isced:level": "1;2",
                "ref:rspo": 264237,
                "official_name": "Szko\u0142a Podstawowa im. A. Einsteina",
                "name": "Szko\u0142a Podstawowa",
                "addr:postcode": "05-100",
                "addr:city": "Nowy Dw\u00f3r Mazowiecki",
                "addr:street": "D\u0119bowa",
                "addr:housenumber": "13",
                "addr:city:simc": 921148,
                "addr:street:sym_ul": 3811,
                "phone": "+48 724252378",
                "email": "biuro.szkola@ndm.edu.pl",
                "website": "http:\/\/ndm.edu.pl",
                "ref:regon": "368294485",
                "operator": "Ka\u017cdy Jest Geniuszem Sp\u00f3\u0142ka Z Ograniczon\u0105 Odpowiedzialno\u015bci\u0105",
                "operator:type": "private",
                "amenity": "school"
            }
        },
        {
            "id": 264238,
            "type": "Feature",
            "geometry": {
                "type": "Point",
                "coordinates": [
                    20.73284,
                    52.422090000000004
                ]
            },
            "properties": {
                "ref:rspo": 264238,
                "official_name": "Przedszkole im. A.einsteina",
                "name": "Przedszkole",
                "addr:postcode": "05-100",
                "addr:city": "Nowy Dw\u00f3r Mazowiecki",
                "addr:street": "D\u0119bowa",
                "addr:housenumber": "13",
                "addr:city:simc": 921148,
                "addr:street:sym_ul": 3811,
                "phone": "+48 697346700",
                "email": "biuro@ndm.edu.pl",
                "website": "http:\/\/ndm.edu.pl",
                "ref:regon": "368294516",
                "operator": "Zesp\u00f3\u0142 Plac\u00f3wek O\u015bwiatowych Sp\u00f3\u0142ka Z Ograniczon\u0105 Odpowiedzialno\u015bci\u0105",
                "operator:type": "private",
                "amenity": "kindergarten"
            }
        },
        {
            "id": 128427,
            "type": "Feature",
            "geometry": {
                "type": "Point",
                "coordinates": [
                    20.7189799,
                    52.42615
                ]
            },
            "properties": {
                "ref:rspo": 128427,
                "official_name": "Principis Sp\u00f3\u0142ka Z O.o.",
                "name": "Principis Sp\u00f3\u0142ka Z O.o.",
                "addr:postcode": "05-100",
                "addr:city": "Nowy Dw\u00f3r Mazowiecki",
                "addr:street": "Ignacego Paderewskiego",
                "addr:housenumber": "1c",
                "addr:city:simc": 921148,
                "addr:street:sym_ul": 15529,
                "phone": "+48 698989897",
                "ref:regon": "362276380",
                "operator": "\"Principis\" Sp\u00f3\u0142ka Z Ograniczon\u0105 Odpowiedzialno\u015bci\u0105",
                "operator:type": "private",
                "fixme": "w zale\u017cno\u015bci od przedmiotu dzia\u0142alno\u015bci (np. amenity=training + training=*, amenity=dancing_school, amenity=language_school, amenity=music_school)"
            }
        },
        {
            "id": 128428,
            "type": "Feature",
            "geometry": {
                "type": "Point",
                "coordinates": [
                    20.7189799,
                    52.42612
                ]
            },
            "properties": {
                "ref:rspo": 128428,
                "official_name": "Skrobisz Consulting",
                "name": "Skrobisz Consulting",
                "addr:postcode": "05-100",
                "addr:city": "Nowy Dw\u00f3r Mazowiecki",
                "addr:street": "Ignacego Paderewskiego",
                "addr:housenumber": "1c",
                "addr:city:simc": 921148,
                "addr:street:sym_ul": 15529,
                "phone": "+48 792955955",
                "ref:regon": "362276411",
                "operator": "Skrobisz Consulting Krzysztof Skrobisz",
                "operator:type": "consortium",
                "fixme": "w zale\u017cno\u015bci od przedmiotu dzia\u0142alno\u015bci (np. amenity=training + training=*, amenity=dancing_school, amenity=language_school, amenity=music_school)"
            }
        },
        {
            "id": 128868,
            "type": "Feature",
            "geometry": {
                "type": "Point",
                "coordinates": [
                    20.7189799,
                    52.42609
                ]
            },
            "properties": {
                "ref:rspo": 128868,
                "official_name": "Makjub Corporation Jolanta Wereszczy\u0144ska",
                "name": "Makjub Corporation Jolanta Wereszczy\u0144ska",
                "addr:postcode": "05-100",
                "addr:city": "Nowy Dw\u00f3r Mazowiecki",
                "addr:street": "Ignacego Paderewskiego",
                "addr:housenumber": "1c",
                "addr:city:simc": 921148,
                "addr:street:sym_ul": 15529,
                "phone": "+48 694673673",
                "email": "jola.wereszczynska@wp.pl",
                "ref:regon": "362409639",
                "operator": "Jolanta Wereszczy\u0144ska",
                "operator:type": "private",
                "fixme": "w zale\u017cno\u015bci od przedmiotu dzia\u0142alno\u015bci (np. amenity=training + training=*, amenity=dancing_school, amenity=language_school, amenity=music_school)"
            }
        },
        {
            "id": 74178,
            "type": "Feature",
            "geometry": {
                "type": "Point",
                "coordinates": [
                    20.7102499,
                    52.42772
                ]
            },
            "properties": {
                "ref:rspo": 74178,
                "official_name": "Pedagogiczna Biblioteka Wojew\u00f3dzka im. Komisji Edukacji Narodowej w Warszawie Filia w Nowym Dworze Mazowieckim",
                "name": "Pedagogiczna Biblioteka Wojew\u00f3dzka",
                "addr:postcode": "05-100",
                "addr:city": "Nowy Dw\u00f3r Mazowiecki",
                "addr:street": "Mazowiecka",
                "addr:housenumber": "8",
                "addr:city:simc": 921148,
                "addr:street:sym_ul": 12540,
                "phone": "+48 227753001",
                "email": "pbw.nowydwor@pbw.waw.pl",
                "website": "http:\/\/www.pbw.waw.pl",
                "ref:regon": "107317530",
                "ref:vatin": "PL5251563074",
                "operator": "Wojew\u00f3dztwo Mazowieckie",
                "operator:type": "government",
                "amenity": "library",
                "note": "Parent RSPO: 28033"
            }
        },
        {
            "id": 133234,
            "type": "Feature",
            "geometry": {
                "type": "Point",
                "coordinates": [
                    20.71548,
                    52.42797
                ]
            },
            "properties": {
                "isced:level": "1;2",
                "ref:rspo": 133234,
                "official_name": "Szko\u0142a Podstawowa Nr 1 im. \u015awi\u0119tego Jana Paw\u0142a Ii",
                "name": "Szko\u0142a Podstawowa Nr 1",
                "addr:postcode": "05-100",
                "addr:city": "Nowy Dw\u00f3r Mazowiecki",
                "addr:street": "Juliusza S\u0142owackiego",
                "addr:housenumber": "2",
                "addr:city:simc": 921148,
                "addr:street:sym_ul": 20291,
                "phone": "+48 227752424",
                "email": "sekretariat@sp1.nowydwormaz.pl",
                "website": "http:\/\/www.sp1ndm.edupage.org",
                "ref:regon": "366860213",
                "ref:vatin": "PL5311698809",
                "operator": "Miasto Nowy Dw\u00f3r Mazowiecki",
                "operator:type": "government",
                "amenity": "school"
            }
        },
        {
            "id": 27469,
            "type": "Feature",
            "geometry": {
                "type": "Point",
                "coordinates": [
                    20.70971,
                    52.42836
                ]
            },
            "properties": {
                "ref:rspo": 27469,
                "official_name": "Zesp\u00f3\u0142 Plac\u00f3wek Edukacyjnych w Nowym Dworze Mazowieckim",
                "name": "Zesp\u00f3\u0142 Plac\u00f3wek Edukacyjnych w Nowym Dworze Mazowieckim",
                "addr:postcode": "05-100",
                "addr:city": "Nowy Dw\u00f3r Mazowiecki",
                "addr:street": "Mazowiecka",
                "addr:housenumber": "10",
                "addr:city:simc": 921148,
                "addr:street:sym_ul": 12540,
                "phone": "+48 227321839",
                "email": "sekretariat@zpendm.pl",
                "ref:regon": "140617261",
                "ref:vatin": "PL5311615108",
                "operator": "Powiat Nowodworski",
                "operator:type": "government",
                "landuse": "education",
                "fixme": "amenity=school, amenity=college albo landuse=education w zale\u017cno\u015bci od tego, jakie plac\u00f3wki wchodz\u0105 w sk\u0142ad zespo\u0142u. Sprawd\u017a, kiedy stosowa\u0107 amenity=* a kiedy landuse=education.",
                "note": "Children RSPO: 72987;72989"
            }
        },
        {
            "id": 72987,
            "type": "Feature",
            "geometry": {
                "type": "Point",
                "coordinates": [
                    20.70971,
                    52.428329999999995
                ]
            },
            "properties": {
                "isced:level": "1;2",
                "ref:rspo": 72987,
                "official_name": "Szko\u0142a Podstawowa Specjalna",
                "name": "Szko\u0142a Podstawowa Specjalna",
                "addr:postcode": "05-100",
                "addr:city": "Nowy Dw\u00f3r Mazowiecki",
                "addr:street": "Mazowiecka",
                "addr:housenumber": "10",
                "addr:city:simc": 921148,
                "addr:street:sym_ul": 12540,
                "phone": "+48 227321839",
                "email": "sekretariat@zpendm.pl",
                "ref:regon": "000959197",
                "operator": "Powiat Nowodworski",
                "operator:type": "government",
                "amenity": "school",
                "note": "Parent RSPO: 27469"
            }
        },
        {
            "id": 72989,
            "type": "Feature",
            "geometry": {
                "type": "Point",
                "coordinates": [
                    20.70971,
                    52.4283
                ]
            },
            "properties": {
                "ref:rspo": 72989,
                "official_name": "Publiczna Szko\u0142a Specjalna Przysposabiaj\u0105ca Do Pracy",
                "name": "Publiczna Szko\u0142a Specjalna Przysposabiaj\u0105ca Do Pracy",
                "addr:postcode": "05-100",
                "addr:city": "Nowy Dw\u00f3r Mazowiecki",
                "addr:street": "Mazowiecka",
                "addr:housenumber": "10",
                "addr:city:simc": 921148,
                "addr:street:sym_ul": 12540,
                "phone": "+48 227321839",
                "email": "sekretariat@zpendm.pl",
                "ref:regon": "140617249",
                "operator": "Powiat Nowodworski",
                "operator:type": "government",
                "amenity": "school",
                "note": "Parent RSPO: 27469"
            }
        },
        {
            "id": 11290,
            "type": "Feature",
            "geometry": {
                "type": "Point",
                "coordinates": [
                    20.72429,
                    52.4293
                ]
            },
            "properties": {
                "isced:level": "1;2",
                "ref:rspo": 11290,
                "official_name": "Szko\u0142a Podstawowa Nr 5 im. Janusza Kusoci\u0144skiego",
                "name": "Szko\u0142a Podstawowa Nr 5",
                "addr:postcode": "05-100",
                "addr:city": "Nowy Dw\u00f3r Mazowiecki",
                "addr:street": "Chemik\u00f3w",
                "addr:housenumber": "1A",
                "addr:city:simc": 921148,
                "addr:street:sym_ul": 2714,
                "phone": "+48 227755075",
                "email": "dyrektor@sp5.com.pl",
                "website": "http:\/\/www.ndmpiatka.pl",
                "ref:regon": "011443594",
                "ref:vatin": "PL5311015992",
                "operator": "Miasto Nowy Dw\u00f3r Mazowiecki",
                "operator:type": "government",
                "amenity": "school"
            }
        },
        {
            "id": 27470,
            "type": "Feature",
            "geometry": {
                "type": "Point",
                "coordinates": [
                    20.72429,
                    52.429269999999995
                ]
            },
            "properties": {
                "isced:level": "3",
                "ref:rspo": 27470,
                "official_name": "Liceum Og\u00f3lnokszta\u0142cace im. Wojska Polskiego",
                "name": "Liceum Og\u00f3lnokszta\u0142cace",
                "addr:postcode": "05-100",
                "addr:city": "Nowy Dw\u00f3r Mazowiecki",
                "addr:street": "Chemik\u00f3w",
                "addr:housenumber": "1",
                "addr:city:simc": 921148,
                "addr:street:sym_ul": 2714,
                "phone": "+48 227752181",
                "email": "szkola@liceum-ndm.pl",
                "website": "http:\/\/www.liceum-ndm.pl",
                "ref:regon": "000799322",
                "ref:vatin": "PL5311352413",
                "operator": "Powiat Nowodworski",
                "operator:type": "government",
                "amenity": "school"
            }
        },
        {
            "id": 4190,
            "type": "Feature",
            "geometry": {
                "type": "Point",
                "coordinates": [
                    20.70923,
                    52.42936
                ]
            },
            "properties": {
                "ref:rspo": 4190,
                "official_name": "Publiczne Przedszkole Nr 1",
                "name": "Publiczne Przedszkole Nr 1",
                "addr:postcode": "05-100",
                "addr:city": "Nowy Dw\u00f3r Mazowiecki",
                "addr:street": "Mazowiecka",
                "addr:housenumber": "12",
                "addr:city:simc": 921148,
                "addr:street:sym_ul": 12540,
                "phone": "+48 227752562",
                "email": "sekretariat@pp1.nowydwormaz.pl",
                "website": "http:\/\/www.p1.przedszkole.net.pl",
                "ref:regon": "013003327",
                "ref:vatin": "PL5311339252",
                "operator": "Miasto Nowy Dw\u00f3r Mazowiecki",
                "operator:type": "government",
                "amenity": "kindergarten"
            }
        },
        {
            "id": 27733,
            "type": "Feature",
            "geometry": {
                "type": "Point",
                "coordinates": [
                    20.7255,
                    52.42959
                ]
            },
            "properties": {
                "ref:rspo": 27733,
                "official_name": "Poradnia Psychologiczno -Pedagogiczna",
                "name": "Poradnia Psychologiczno -Pedagogiczna",
                "addr:postcode": "05-100",
                "addr:city": "Nowy Dw\u00f3r Mazowiecki",
                "addr:street": "Chemik\u00f3w",
                "addr:housenumber": "6",
                "addr:city:simc": 921148,
                "addr:street:sym_ul": 2714,
                "phone": "+48 227752013",
                "email": "ppp.ndmaz@gmail.com",
                "ref:regon": "000837666",
                "ref:vatin": "PL5311431897",
                "operator": "Powiat Nowodworski",
                "operator:type": "government",
                "healthcare": "counselling",
                "counselling_type": "education",
                "fixme": "w zale\u017cno\u015bci od przedmiotu dzia\u0142alno\u015bci (np. healthcare=counselling + counselling_type=education albo healthcare=psychotherapist)",
                "note": "Children RSPO: 72983"
            }
        },
        {
            "id": 17438,
            "type": "Feature",
            "geometry": {
                "type": "Point",
                "coordinates": [
                    20.715650558472,
                    52.430389404297
                ]
            },
            "properties": {
                "ref:rspo": 17438,
                "official_name": "Zesp\u00f3\u0142 Szkolno-Przedszkolny Nr 4 w Nowym Dworze Mazowieckim",
                "name": "Zesp\u00f3\u0142 Szkolno-Przedszkolny Nr 4 w Nowym Dworze Mazowieckim",
                "addr:postcode": "05-160",
                "addr:city": "Nowy Dw\u00f3r Mazowiecki",
                "addr:street": "Genera\u0142a J\u00f3zefa Bema",
                "addr:housenumber": "312",
                "addr:city:simc": 921148,
                "addr:street:sym_ul": 1014,
                "phone": "+48 227134427",
                "email": "sekretariat@zstwierdza.edu.pl",
                "website": "http:\/\/www.zstwierdza.edu.pl",
                "ref:regon": "011443878",
                "ref:vatin": "PL5311627927",
                "operator": "Miasto Nowy Dw\u00f3r Mazowiecki",
                "operator:type": "government",
                "landuse": "education",
                "fixme": "amenity=school, amenity=college albo landuse=education w zale\u017cno\u015bci od tego, jakie plac\u00f3wki wchodz\u0105 w sk\u0142ad zespo\u0142u. Sprawd\u017a, kiedy stosowa\u0107 amenity=* a kiedy landuse=education.",
                "note": "Children RSPO: 24911;26275"
            }
        },
        {
            "id": 56626,
            "type": "Feature",
            "geometry": {
                "type": "Point",
                "coordinates": [
                    20.715650558472,
                    52.430359404297
                ]
            },
            "properties": {
                "ref:rspo": 56626,
                "official_name": "Niepubliczne Przedszkole Muzyczno-J\u0119zykowe \"Nutka\"",
                "name": "Niepubliczne Przedszkole Muzyczno-J\u0119zykowe \"Nutka\"",
                "addr:postcode": "05-100",
                "addr:city": "Nowy Dw\u00f3r Mazowiecki",
                "addr:street": "Ferdynanda Focha",
                "addr:housenumber": "8",
                "addr:city:simc": 921148,
                "addr:street:sym_ul": 5093,
                "phone": "+48 514752685",
                "email": "nutka.ndm@gmail.com",
                "website": "http:\/\/www.nutkandm.pl",
                "ref:regon": "146368095",
                "operator": "Ma\u0142gorzata Pa\u0142\u017cewicz",
                "operator:type": "private",
                "amenity": "kindergarten"
            }
        },
        {
            "id": 24911,
            "type": "Feature",
            "geometry": {
                "type": "Point",
                "coordinates": [
                    20.715650558472,
                    52.430329404297005
                ]
            },
            "properties": {
                "isced:level": "1;2",
                "ref:rspo": 24911,
                "official_name": "Szko\u0142a Podstawowa Nr 4 im. Obro\u0144c\u00f3w Modlina w Nowym Dworze Mazowieckim",
                "name": "Szko\u0142a Podstawowa Nr 4",
                "addr:postcode": "05-160",
                "addr:city": "Nowy Dw\u00f3r Mazowiecki",
                "addr:street": "Genera\u0142a J\u00f3zefa Bema",
                "addr:housenumber": "312",
                "addr:city:simc": 921148,
                "addr:street:sym_ul": 1014,
                "phone": "+48 227134427",
                "email": "sekretariat@zstwierdza.edu.pl",
                "website": "http:\/\/www.zstwierdza.edu.pl",
                "ref:regon": "017364306",
                "operator": "Miasto Nowy Dw\u00f3r Mazowiecki",
                "operator:type": "government",
                "amenity": "school",
                "note": "Parent RSPO: 17438"
            }
        },
        {
            "id": 27472,
            "type": "Feature",
            "geometry": {
                "type": "Point",
                "coordinates": [
                    20.7253599,
                    52.43048
                ]
            },
            "properties": {
                "ref:rspo": 27472,
                "official_name": "Zesp\u00f3\u0142 Szk\u00f3\u0142 Zawodowych Nr1 w Nowym Dworze Mazowieckim",
                "name": "Zesp\u00f3\u0142 Szk\u00f3\u0142 Zawodowych Nr1 w Nowym Dworze Mazowieckim",
                "addr:postcode": "05-100",
                "addr:city": "Nowy Dw\u00f3r Mazowiecki",
                "addr:street": "G\u00f3rska",
                "addr:housenumber": "39",
                "addr:city:simc": 921148,
                "addr:street:sym_ul": 5989,
                "phone": "+48 227752041",
                "email": "zsz1ndm@wp.pl",
                "website": "http:\/\/zsz1ndm.pl",
                "ref:regon": "000788910",
                "ref:vatin": "PL5311004994",
                "operator": "Powiat Nowodworski",
                "operator:type": "government",
                "landuse": "education",
                "fixme": "amenity=school, amenity=college albo landuse=education w zale\u017cno\u015bci od tego, jakie plac\u00f3wki wchodz\u0105 w sk\u0142ad zespo\u0142u. Sprawd\u017a, kiedy stosowa\u0107 amenity=* a kiedy landuse=education.",
                "note": "Children RSPO: 72985;72986;274896"
            }
        },
        {
            "id": 72985,
            "type": "Feature",
            "geometry": {
                "type": "Point",
                "coordinates": [
                    20.7253599,
                    52.43045
                ]
            },
            "properties": {
                "isced:level": "3",
                "ref:rspo": 72985,
                "official_name": "Technikum Zawodowe im.por.w\u0142adys\u0142awa Jakubowskiego",
                "name": "Technikum Zawodowe im.por.w\u0142adys\u0142awa Jakubowskiego",
                "addr:postcode": "05-100",
                "addr:city": "Nowy Dw\u00f3r Mazowiecki",
                "addr:street": "G\u00f3rska",
                "addr:housenumber": "39",
                "addr:city:simc": 921148,
                "addr:street:sym_ul": 5989,
                "phone": "+48 227752041",
                "email": "zsz1ndm@wp.pl",
                "website": "http:\/\/www.zsz1ndm.pl",
                "ref:regon": "015531987",
                "operator": "Powiat Nowodworski",
                "operator:type": "government",
                "amenity": "school",
                "note": "Parent RSPO: 27472"
            }
        },
        {
            "id": 72986,
            "type": "Feature",
            "geometry": {
                "type": "Point",
                "coordinates": [
                    20.7253599,
                    52.430420000000005
                ]
            },
            "properties": {
                "isced:level": "3",
                "ref:rspo": 72986,
                "official_name": "Bran\u017cowa Szko\u0142a I Stopnia im.por.w\u0142adys\u0142awa Jakubowskiego",
                "name": "Bran\u017cowa Szko\u0142a I Stopnia im.por.w\u0142adys\u0142awa Jakubowskiego",
                "addr:postcode": "05-100",
                "addr:city": "Nowy Dw\u00f3r Mazowiecki",
                "addr:street": "G\u00f3rska",
                "addr:housenumber": "39",
                "addr:city:simc": 921148,
                "addr:street:sym_ul": 5989,
                "phone": "+48 227752041",
                "email": "zsz1ndm@wp.pl",
                "website": "http:\/\/www.zsz1ndm.pl",
                "ref:regon": "015531964",
                "operator": "Powiat Nowodworski",
                "operator:type": "government",
                "amenity": "school",
                "note": "Parent RSPO: 27472"
            }
        },
        {
            "id": 274896,
            "type": "Feature",
            "geometry": {
                "type": "Point",
                "coordinates": [
                    20.7253599,
                    52.43039
                ]
            },
            "properties": {
                "isced:level": "3",
                "ref:rspo": 274896,
                "official_name": "Bran\u017cowa Szko\u0142a II Stopnia",
                "name": "Bran\u017cowa Szko\u0142a II Stopnia",
                "addr:postcode": "05-100",
                "addr:city": "Nowy Dw\u00f3r Mazowiecki",
                "addr:street": "G\u00f3rska",
                "addr:housenumber": "39",
                "addr:city:simc": 921148,
                "addr:street:sym_ul": 5989,
                "phone": "+48 227752041",
                "email": "zsz1ndm@wp.pl",
                "website": "http:\/\/www.zsz1ndm.pl",
                "ref:regon": "386371272",
                "operator": "Powiat Nowodworski",
                "operator:type": "government",
                "amenity": "school",
                "note": "Parent RSPO: 27472"
            }
        },
        {
            "id": 11683,
            "type": "Feature",
            "geometry": {
                "type": "Point",
                "coordinates": [
                    20.72015,
                    52.43156
                ]
            },
            "properties": {
                "ref:rspo": 11683,
                "official_name": "Publiczne Przedszkole Nr 3",
                "name": "Publiczne Przedszkole Nr 3",
                "addr:postcode": "05-100",
                "addr:city": "Nowy Dw\u00f3r Mazowiecki",
                "addr:street": "Bohater\u00f3w Modlina",
                "addr:housenumber": "26",
                "addr:city:simc": 921148,
                "addr:street:sym_ul": 1649,
                "phone": "+48 227753544",
                "email": "sekretariat@pp3.nowydwormaz.pl",
                "website": "http:\/\/www.pp3.przedszkole.net.pl",
                "ref:regon": "013003333",
                "ref:vatin": "PL5311342099",
                "operator": "Miasto Nowy Dw\u00f3r Mazowiecki",
                "operator:type": "government",
                "amenity": "kindergarten"
            }
        },
        {
            "id": 26275,
            "type": "Feature",
            "geometry": {
                "type": "Point",
                "coordinates": [
                    20.66813,
                    52.43665
                ]
            },
            "properties": {
                "ref:rspo": 26275,
                "official_name": "Publiczne Przedszkole Nr 4",
                "name": "Publiczne Przedszkole Nr 4",
                "addr:postcode": "05-160",
                "addr:city": "Nowy Dw\u00f3r Mazowiecki",
                "addr:street": "29 Listopada",
                "addr:housenumber": "109",
                "addr:city:simc": 921148,
                "addr:street:sym_ul": 11208,
                "phone": "+48 227130328",
                "email": "sekretariat@zstwierdza.edu.pl",
                "website": "http:\/\/www.zstwierdza.edu.pl",
                "ref:regon": "015215341",
                "operator": "Miasto Nowy Dw\u00f3r Mazowiecki",
                "operator:type": "government",
                "amenity": "kindergarten",
                "note": "Parent RSPO: 17438"
            }
        },
        {
            "id": 4036,
            "type": "Feature",
            "geometry": {
                "type": "Point",
                "coordinates": [
                    20.7086,
                    52.4475399
                ]
            },
            "properties": {
                "ref:rspo": 4036,
                "official_name": "Zesp\u00f3\u0142 Szkolno-Przedszkolny Nr 3 w Nowym Dworze Mazowieckim",
                "name": "Zesp\u00f3\u0142 Szkolno-Przedszkolny Nr 3 w Nowym Dworze Mazowieckim",
                "addr:postcode": "05-102",
                "addr:city": "Nowy Dw\u00f3r Mazowiecki",
                "addr:street": "Szkolna",
                "addr:housenumber": "3",
                "addr:city:simc": 921148,
                "addr:street:sym_ul": 21970,
                "phone": "+48 227755974",
                "email": "zs3nowydwormaz@wp.pl",
                "website": "http:\/\/www.zs3nowydwormaz.pl",
                "ref:regon": "141520523",
                "ref:vatin": "PL5311646008",
                "operator": "Miasto Nowy Dw\u00f3r Mazowiecki",
                "operator:type": "government",
                "landuse": "education",
                "fixme": "amenity=school, amenity=college albo landuse=education w zale\u017cno\u015bci od tego, jakie plac\u00f3wki wchodz\u0105 w sk\u0142ad zespo\u0142u. Sprawd\u017a, kiedy stosowa\u0107 amenity=* a kiedy landuse=education.",
                "note": "Children RSPO: 14388;14564"
            }
        },
        {
            "id": 14564,
            "type": "Feature",
            "geometry": {
                "type": "Point",
                "coordinates": [
                    20.7086,
                    52.4475099
                ]
            },
            "properties": {
                "isced:level": "1;2",
                "ref:rspo": 14564,
                "official_name": "Szko\u0142a Podstawowa Nr 3 im. J\u00f3zefa Wybickiego w Nowym Dworze Mazowieckim",
                "name": "Szko\u0142a Podstawowa Nr 3",
                "addr:postcode": "05-102",
                "addr:city": "Nowy Dw\u00f3r Mazowiecki",
                "addr:street": "Szkolna",
                "addr:housenumber": "3",
                "addr:city:simc": 921148,
                "addr:street:sym_ul": 21970,
                "phone": "+48 227755974",
                "email": "zs3nowydwormaz@wp.pl",
                "website": "http:\/\/www.zs3.nowydwormaz.pl",
                "ref:regon": "000800249",
                "operator": "Miasto Nowy Dw\u00f3r Mazowiecki",
                "operator:type": "government",
                "amenity": "school",
                "note": "Parent RSPO: 4036"
            }
        },
        {
            "id": 279264,
            "type": "Feature",
            "geometry": {
                "type": "Point",
                "coordinates": [
                    20.6703,
                    52.44826
                ]
            },
            "properties": {
                "ref:rspo": 279264,
                "official_name": "Centrum Szkoleniowe Zbrojownia Modlin",
                "name": "Centrum Szkoleniowe Zbrojownia Modlin",
                "addr:postcode": "05-102",
                "addr:city": "Nowy Dw\u00f3r Mazowiecki",
                "addr:street": "Genera\u0142a Wiktora Thommee",
                "addr:housenumber": "1a",
                "addr:city:simc": 921148,
                "addr:street:sym_ul": 29277,
                "phone": "+48 606750000",
                "email": "biuro@zbrojowniamodlin.pl",
                "website": "http:\/\/zbrojowniamodlin.pl",
                "ref:regon": "521062012",
                "operator": "Zbrojownia Modlin Sp\u00f3\u0142ka Z Ograniczon\u0105 Odpowiedzialno\u015bci\u0105",
                "operator:type": "consortium",
                "fixme": "w zale\u017cno\u015bci od przedmiotu dzia\u0142alno\u015bci (np. amenity=training + training=*, amenity=dancing_school, amenity=language_school, amenity=music_school)"
            }
        },
        {
            "id": 14388,
            "type": "Feature",
            "geometry": {
                "type": "Point",
                "coordinates": [
                    20.7082799,
                    52.44843
                ]
            },
            "properties": {
                "ref:rspo": 14388,
                "official_name": "Publiczne Przedszkole Nr 2 w Nowym Dworze Maz",
                "name": "Publiczne Przedszkole Nr 2 w Nowym Dworze Maz",
                "addr:postcode": "05-102",
                "addr:city": "Nowy Dw\u00f3r Mazowiecki",
                "addr:street": "Miko\u0142aja Kopernika",
                "addr:housenumber": "82",
                "addr:city:simc": 921148,
                "addr:street:sym_ul": 9282,
                "phone": "+48 227755975",
                "email": "zs3nowydwormaz@wp.pl",
                "website": "http:\/\/www.zs3.nowydwormaz.pl",
                "ref:regon": "013003340",
                "operator": "Miasto Nowy Dw\u00f3r Mazowiecki",
                "operator:type": "government",
                "amenity": "kindergarten",
                "note": "Parent RSPO: 4036"
            }
        },
        {
            "id": 133460,
            "type": "Feature",
            "geometry": {
                "type": "Point",
                "coordinates": [
                    20.70104,
                    52.4490399
                ]
            },
            "properties": {
                "ref:rspo": 133460,
                "official_name": "Niepubliczny Punkt Przedszkolny \"Nasza Bajka\"",
                "name": "Niepubliczny Punkt Przedszkolny \"Nasza Bajka\"",
                "addr:postcode": "05-102",
                "addr:city": "Nowy Dw\u00f3r Mazowiecki",
                "addr:street": "\u015arodkowa",
                "addr:housenumber": "10",
                "addr:city:simc": 921148,
                "addr:street:sym_ul": 22419,
                "phone": "+48 515070577",
                "email": "punktprzedszkolny.naszabajka@gmail.com",
                "website": "http:\/\/przedszkolenaszabajka.pl\/",
                "ref:regon": "367335940",
                "operator": "Karolina Werner",
                "operator:type": "private",
                "amenity": "kindergarten"
            }
        }
    ]
}