{
    "type": "FeatureCollection",
    "features": [
        {
            "id": 265803,
            "type": "Feature",
            "geometry": {
                "type": "Point",
                "coordinates": [
                    20.786479,
                    52.542159
                ]
            },
            "properties": {
                "ref:rspo": 265803,
                "official_name": "O\u015brodek Szkolenia \" Falcon Training & Solutions\"",
                "name": "O\u015brodek Szkolenia \" Falcon Training & Solutions\"",
                "addr:country": "PL",
                "addr:postcode": "05-190",
                "addr:place": "Cegielnia Psucka",
                "addr:housenumber": "8",
                "addr:teryt:simc": 119824,
                "contact:phone": "+48 236912793",
                "ref:regon": "368924302",
                "operator": "Piotr Muzal",
                "operator:type": "private",
                "fixme": "w zale\u017cno\u015bci od przedmiotu dzia\u0142alno\u015bci (np. amenity=training + training=*, amenity=dancing_school, amenity=language_school, amenity=music_school)"
            }
        },
        {
            "id": 81175,
            "type": "Feature",
            "geometry": {
                "type": "Point",
                "coordinates": [
                    20.7391909,
                    52.5445919
                ]
            },
            "properties": {
                "isced:level": "1;2",
                "ref:rspo": 81175,
                "official_name": "Szko\u0142a Podstawowa im. Jana Paw\u0142a II w D\u0119binkach",
                "name": "Szko\u0142a Podstawowa",
                "addr:country": "PL",
                "addr:postcode": "05-191",
                "addr:place": "D\u0119binki",
                "addr:housenumber": "12",
                "addr:teryt:simc": 119942,
                "contact:phone": "+48 227943406",
                "contact:email": "sekretariat@debinkisp.szkolnastrona.pl",
                "ref:regon": "001156709",
                "ref:vatin": "PL5311539815",
                "operator": "Gmina Nasielsk",
                "operator:type": "government",
                "amenity": "school"
            }
        },
        {
            "id": 27481,
            "type": "Feature",
            "geometry": {
                "type": "Point",
                "coordinates": [
                    20.787471,
                    52.5447659
                ]
            },
            "properties": {
                "isced:level": "3",
                "ref:rspo": 27481,
                "official_name": "Niepubliczne Liceum Og\u00f3lnokszta\u0142cace dla Doros\u0142ych Twp",
                "name": "Niepubliczne Liceum Og\u00f3lnokszta\u0142cace dla Doros\u0142ych Twp",
                "addr:country": "PL",
                "addr:postcode": "05-190",
                "addr:place": "Budy Siennickie",
                "addr:housenumber": "67",
                "addr:teryt:simc": 119818,
                "contact:phone": "+48 509483969",
                "contact:email": "marianna.turek6@gmail.com",
                "contact:website": "http:\/\/www.szkoladladoroslych.edu.pl",
                "ref:regon": "146342693",
                "ref:vatin": "PL5661369897",
                "operator": "Oddzia\u0142 Regionalny Towarzystwa Wiedzy Powszechnej",
                "operator:type": "ngo",
                "amenity": "school"
            }
        },
        {
            "id": 78971,
            "type": "Feature",
            "geometry": {
                "type": "Point",
                "coordinates": [
                    20.787471,
                    52.5447359
                ]
            },
            "properties": {
                "isced:level": "1;2",
                "ref:rspo": 78971,
                "official_name": "Szko\u0142a Podstawowa im. Pierre'a De Coubertina w Budach Siennickich",
                "name": "Szko\u0142a Podstawowa",
                "addr:country": "PL",
                "addr:postcode": "05-190",
                "addr:place": "Budy Siennickie",
                "addr:housenumber": "67",
                "addr:teryt:simc": 119818,
                "contact:phone": "+48 236912793",
                "contact:email": "sekretariat@budysiennickie.edu.pl",
                "contact:website": "http:\/\/www.budysiennickie.edu.pl",
                "ref:regon": "001156655",
                "ref:vatin": "PL5311539838",
                "operator": "Gmina Nasielsk",
                "operator:type": "government",
                "amenity": "school"
            }
        },
        {
            "id": 78969,
            "type": "Feature",
            "geometry": {
                "type": "Point",
                "coordinates": [
                    20.8899694,
                    52.552341
                ]
            },
            "properties": {
                "isced:level": "1;2",
                "ref:rspo": 78969,
                "official_name": "Szko\u0142a Podstawowa im. Marii Konopnickiej w Popowie Borowym",
                "name": "Szko\u0142a Podstawowa",
                "addr:country": "PL",
                "addr:postcode": "05-190",
                "addr:place": "Popowo Borowe",
                "addr:housenumber": "111",
                "addr:teryt:simc": 120477,
                "contact:phone": "+48 227943405",
                "contact:email": "sekretariat@sppb.pl",
                "contact:website": "http:\/\/www.sppb.pl",
                "ref:regon": "001156678",
                "ref:vatin": "PL5311539755",
                "operator": "Gmina Nasielsk",
                "operator:type": "government",
                "amenity": "school"
            }
        },
        {
            "id": 90151,
            "type": "Feature",
            "geometry": {
                "type": "Point",
                "coordinates": [
                    20.66662,
                    52.57211
                ]
            },
            "properties": {
                "isced:level": "1;2",
                "ref:rspo": 90151,
                "official_name": "Szko\u0142a Podstawowa im. Miko\u0142aja Kopernika w Cieksynie",
                "name": "Szko\u0142a Podstawowa",
                "addr:country": "PL",
                "addr:postcode": "05-192",
                "addr:city": "Cieksyn",
                "addr:street": "Marsza\u0142ka J\u00f3zefa Pi\u0142sudskiego",
                "addr:housenumber": "43",
                "addr:teryt:simc": 119899,
                "addr:teryt:sym_ul": 36029,
                "contact:phone": "+48 236935002",
                "contact:email": "sekretariat@spcieksyn.pl",
                "contact:website": "http:\/\/www.spcieksyn.edu.pl",
                "ref:regon": "001156632",
                "ref:vatin": "PL5311539790",
                "operator": "Gmina Nasielsk",
                "operator:type": "government",
                "amenity": "school"
            }
        },
        {
            "id": 128343,
            "type": "Feature",
            "geometry": {
                "type": "Point",
                "coordinates": [
                    20.78037,
                    52.57459
                ]
            },
            "properties": {
                "isced:level": "1;2",
                "ref:rspo": 128343,
                "official_name": "Niepubliczna Szko\u0142a Podstawowa \"Pod Fio\u0142kami\"",
                "name": "Niepubliczna Szko\u0142a Podstawowa \"Pod Fio\u0142kami\"",
                "addr:country": "PL",
                "addr:postcode": "05-190",
                "addr:city": "Nasielsk",
                "addr:street": "Ogrodowa",
                "addr:housenumber": "9",
                "addr:teryt:simc": 930740,
                "addr:teryt:sym_ul": 14834,
                "contact:phone": "+48 603873897",
                "contact:email": "cewir@nasielsk.pl",
                "ref:regon": "362246670",
                "ref:vatin": "PL5681104742",
                "operator": "Dane Do Uzupe\u0142nienia",
                "operator:type": "private",
                "amenity": "school"
            }
        },
        {
            "id": 83473,
            "type": "Feature",
            "geometry": {
                "type": "Point",
                "coordinates": [
                    20.76376,
                    52.58012
                ]
            },
            "properties": {
                "ref:rspo": 83473,
                "official_name": "Samorz\u0105dowe Przedszkole w Starych Pie\u015bcirogach",
                "name": "Samorz\u0105dowe Przedszkole w Starych Pie\u015bcirogach",
                "addr:country": "PL",
                "addr:postcode": "05-191",
                "addr:city": "Stare Pie\u015bcirogi",
                "addr:street": "Kolejowa",
                "addr:housenumber": "65B",
                "addr:teryt:simc": 120566,
                "addr:teryt:sym_ul": 8828,
                "contact:phone": "+48 236930109",
                "contact:email": "sekretariat@przedszkolepiescirogi.pl",
                "contact:website": "http:\/\/przedszkolepiescirogi.szkolnastrona.pl\/",
                "ref:regon": "130005057",
                "ref:vatin": "PL5311667602",
                "operator": "Gmina Nasielsk",
                "operator:type": "government",
                "amenity": "kindergarten"
            }
        },
        {
            "id": 90153,
            "type": "Feature",
            "geometry": {
                "type": "Point",
                "coordinates": [
                    20.76376,
                    52.58009
                ]
            },
            "properties": {
                "isced:level": "1;2",
                "ref:rspo": 90153,
                "official_name": "Szko\u0142a Podstawowa im. Ksi\u0119cia J\u00f3zefa Poniatowskiego w Starych Pie\u015bcirogach",
                "name": "Szko\u0142a Podstawowa",
                "addr:country": "PL",
                "addr:postcode": "05-191",
                "addr:city": "Stare Pie\u015bcirogi",
                "addr:street": "Kolejowa",
                "addr:housenumber": "65",
                "addr:teryt:simc": 120566,
                "addr:teryt:sym_ul": 8828,
                "contact:phone": "+48 236912767",
                "contact:email": "sekretariat@sppiescirogi.pl",
                "contact:website": "http:\/\/www.sppiescirogi.pl",
                "ref:regon": "001156649",
                "operator": "Gmina Nasielsk",
                "operator:type": "government",
                "amenity": "school"
            }
        },
        {
            "id": 72983,
            "type": "Feature",
            "geometry": {
                "type": "Point",
                "coordinates": [
                    20.81006,
                    52.5883
                ]
            },
            "properties": {
                "ref:rspo": 72983,
                "official_name": "Poradnia Psychologiczno-Pedagogiczna w Nowym Dworze Mazowieckim Filia w Nasielsku",
                "name": "Poradnia Psychologiczno-Pedagogiczna w Nowym Dworze Mazowieckim Filia w Nasielsku",
                "addr:country": "PL",
                "addr:postcode": "05-190",
                "addr:city": "Nasielsk",
                "addr:street": "Marsza\u0142ka J\u00f3zefa Pi\u0142sudskiego",
                "addr:housenumber": "6",
                "addr:teryt:simc": 930740,
                "addr:teryt:sym_ul": 36029,
                "contact:phone": "+48 236912647",
                "ref:regon": "837666000",
                "operator": "Powiat Nowodworski",
                "operator:type": "government",
                "healthcare": "counselling",
                "counselling_type": "education",
                "fixme": "w zale\u017cno\u015bci od przedmiotu dzia\u0142alno\u015bci (np. healthcare=counselling + counselling_type=education albo healthcare=psychotherapist)",
                "note": "Parent RSPO: 27733"
            }
        },
        {
            "id": 133985,
            "type": "Feature",
            "geometry": {
                "type": "Point",
                "coordinates": [
                    20.807263,
                    52.5885482
                ]
            },
            "properties": {
                "isced:level": "1;2",
                "ref:rspo": 133985,
                "official_name": "Szko\u0142a Podstawowa Nr 1 im. Konstytucji 3 Maja w Nasielsku",
                "name": "Szko\u0142a Podstawowa Nr 1",
                "addr:country": "PL",
                "addr:postcode": "05-190",
                "addr:city": "Nasielsk",
                "addr:street": "Stanis\u0142awa Staszica",
                "addr:housenumber": "1",
                "addr:teryt:simc": 930740,
                "addr:teryt:sym_ul": 21065,
                "contact:phone": "+48 236912515",
                "contact:email": "spnr1.nasielsk@gmail.com",
                "ref:regon": "367762866",
                "operator": "Gmina Nasielsk",
                "operator:type": "government",
                "amenity": "school"
            }
        },
        {
            "id": 81176,
            "type": "Feature",
            "geometry": {
                "type": "Point",
                "coordinates": [
                    20.81164,
                    52.59028
                ]
            },
            "properties": {
                "ref:rspo": 81176,
                "official_name": "Samorz\u0105dowe Przedszkole w Nasielsku",
                "name": "Samorz\u0105dowe Przedszkole w Nasielsku",
                "addr:country": "PL",
                "addr:postcode": "05-190",
                "addr:city": "Nasielsk",
                "addr:street": "Warszawska",
                "addr:housenumber": "39A",
                "addr:teryt:simc": 930740,
                "addr:teryt:sym_ul": 23682,
                "contact:phone": "+48 233067666",
                "contact:email": "sekretariat@przedszkolenasielsk.pl",
                "contact:website": "https:\/\/przedszkolenasielsk.pl\/",
                "ref:regon": "130500360",
                "ref:vatin": "PL5311539844",
                "operator": "Gmina Nasielsk",
                "operator:type": "government",
                "amenity": "kindergarten"
            }
        },
        {
            "id": 87217,
            "type": "Feature",
            "geometry": {
                "type": "Point",
                "coordinates": [
                    20.80986,
                    52.59045
                ]
            },
            "properties": {
                "isced:level": "3",
                "ref:rspo": 87217,
                "official_name": "Liceum Og\u00f3lnokszta\u0142c\u0105ce im.jaros\u0142awa Iwaszkiewicza",
                "name": "Liceum Og\u00f3lnokszta\u0142c\u0105ce im.jaros\u0142awa Iwaszkiewicza",
                "addr:country": "PL",
                "addr:postcode": "05-190",
                "addr:city": "Nasielsk",
                "addr:street": "Starzy\u0144skiego",
                "addr:housenumber": "10",
                "addr:teryt:simc": 930740,
                "addr:teryt:sym_ul": 21043,
                "contact:phone": "+48 236912313",
                "contact:email": "sekretariat@lonasielsk.pl",
                "contact:website": "http:\/\/www.lonasielsk.pl",
                "ref:regon": "015534135",
                "operator": "Powiat Nowodworski",
                "operator:type": "government",
                "amenity": "school"
            }
        },
        {
            "id": 81173,
            "type": "Feature",
            "geometry": {
                "type": "Point",
                "coordinates": [
                    20.80171,
                    52.5908299
                ]
            },
            "properties": {
                "isced:level": "1;2",
                "ref:rspo": 81173,
                "official_name": "Szko\u0142a Podstawowa Nr 2 im. Stefana Starzy\u0144skiego w Nasielsku",
                "name": "Szko\u0142a Podstawowa Nr 2",
                "addr:country": "PL",
                "addr:postcode": "05-190",
                "addr:city": "Nasielsk",
                "addr:street": "Tadeusza Ko\u015bciuszki",
                "addr:housenumber": "21",
                "addr:teryt:simc": 930740,
                "addr:teryt:sym_ul": 9582,
                "contact:phone": "+48 236912556",
                "contact:email": "sekretariat@spnasielsk.pl",
                "contact:website": "http:\/\/www.spnasielsk.pl",
                "ref:regon": "000554052",
                "ref:vatin": "PL5311539809",
                "operator": "Gmina Nasielsk",
                "operator:type": "government",
                "amenity": "school"
            }
        },
        {
            "id": 92631,
            "type": "Feature",
            "geometry": {
                "type": "Point",
                "coordinates": [
                    20.7796889,
                    52.5911989
                ]
            },
            "properties": {
                "ref:rspo": 92631,
                "official_name": "Niepubliczne Przedszkole \"Sakolandia\"",
                "name": "Niepubliczne Przedszkole \"Sakolandia\"",
                "addr:country": "PL",
                "addr:postcode": "05-190",
                "addr:place": "Kosewo",
                "addr:housenumber": "51A",
                "addr:teryt:simc": 120075,
                "contact:email": "przedszkolesakolandia@gmail.com",
                "contact:website": "http:\/\/www.przedszkolesakolandia.pl",
                "ref:regon": "146450968",
                "ref:vatin": "PL5311662295",
                "operator": "Dane Do Uzupe\u0142nienia",
                "operator:type": "private",
                "amenity": "kindergarten"
            }
        },
        {
            "id": 78980,
            "type": "Feature",
            "geometry": {
                "type": "Point",
                "coordinates": [
                    20.80276,
                    52.59182
                ]
            },
            "properties": {
                "ref:rspo": 78980,
                "official_name": "Niepubliczne Przedszkole \"Pod Fio\u0142kami\"",
                "name": "Niepubliczne Przedszkole \"Pod Fio\u0142kami\"",
                "addr:country": "PL",
                "addr:postcode": "05-190",
                "addr:city": "Nasielsk",
                "addr:street": "Ko\u015bcielna",
                "addr:housenumber": "21",
                "addr:teryt:simc": 930740,
                "addr:teryt:sym_ul": 9546,
                "contact:phone": "+48 603873897",
                "contact:email": "cewir@nasielsk.pl",
                "contact:website": "http:\/\/www.cewir.nasielsk.pl",
                "ref:regon": "146413795",
                "ref:vatin": "PL5681104742",
                "operator": "Dane Do Uzupe\u0142nienia",
                "operator:type": "private",
                "amenity": "kindergarten"
            }
        },
        {
            "id": 27480,
            "type": "Feature",
            "geometry": {
                "type": "Point",
                "coordinates": [
                    20.79511,
                    52.59509
                ]
            },
            "properties": {
                "ref:rspo": 27480,
                "official_name": "Zesp\u00f3\u0142 Szk\u00f3\u0142 Zawodowych w Nasielsku",
                "name": "Zesp\u00f3\u0142 Szk\u00f3\u0142 Zawodowych w Nasielsku",
                "addr:country": "PL",
                "addr:postcode": "05-190",
                "addr:city": "Nasielsk",
                "addr:street": "Lipowa",
                "addr:housenumber": "10",
                "addr:teryt:simc": 930740,
                "addr:teryt:sym_ul": 11139,
                "contact:phone": "+48 236912585",
                "contact:email": "dyrektor@zsznasielsk.pl",
                "contact:website": "http:\/\/www.zsznasielsk.pl",
                "ref:regon": "000200236",
                "ref:vatin": "PL5681274680",
                "operator": "Powiat Nowodworski",
                "operator:type": "government",
                "landuse": "education",
                "fixme": "amenity=school, amenity=college albo landuse=education w zale\u017cno\u015bci od tego, jakie plac\u00f3wki wchodz\u0105 w sk\u0142ad zespo\u0142u. Sprawd\u017a, kiedy stosowa\u0107 amenity=* a kiedy landuse=education.",
                "note": "Children RSPO: 72979;72981;72982"
            }
        },
        {
            "id": 72979,
            "type": "Feature",
            "geometry": {
                "type": "Point",
                "coordinates": [
                    20.79511,
                    52.59506
                ]
            },
            "properties": {
                "isced:level": "3",
                "ref:rspo": 72979,
                "official_name": "Liceum Og\u00f3lnokszta\u0142c\u0105ce im. Miko\u0142aja Kopernika",
                "name": "Liceum Og\u00f3lnokszta\u0142c\u0105ce",
                "addr:country": "PL",
                "addr:postcode": "05-190",
                "addr:city": "Nasielsk",
                "addr:street": "Lipowa",
                "addr:housenumber": "10",
                "addr:teryt:simc": 930740,
                "addr:teryt:sym_ul": 11139,
                "contact:phone": "+48 236912585",
                "contact:email": "sekretariat@zsznasielsk.pl",
                "contact:website": "http:\/\/www.zsznasielsk.pl",
                "ref:regon": "141105623",
                "operator": "Powiat Nowodworski",
                "operator:type": "government",
                "amenity": "school",
                "note": "Parent RSPO: 27480"
            }
        },
        {
            "id": 72981,
            "type": "Feature",
            "geometry": {
                "type": "Point",
                "coordinates": [
                    20.79511,
                    52.59503
                ]
            },
            "properties": {
                "isced:level": "3",
                "ref:rspo": 72981,
                "official_name": "Technikum im. Miko\u0142aja Kopernika",
                "name": "Technikum",
                "addr:country": "PL",
                "addr:postcode": "05-190",
                "addr:city": "Nasielsk",
                "addr:street": "Lipowa",
                "addr:housenumber": "10",
                "addr:teryt:simc": 930740,
                "addr:teryt:sym_ul": 11139,
                "contact:phone": "+48 236912585",
                "contact:email": "sekretariat@zsznasielsk.pl",
                "contact:website": "http:\/\/www.zsznasielsk.pl",
                "ref:regon": "015527891",
                "operator": "Powiat Nowodworski",
                "operator:type": "government",
                "amenity": "school",
                "note": "Parent RSPO: 27480"
            }
        },
        {
            "id": 72982,
            "type": "Feature",
            "geometry": {
                "type": "Point",
                "coordinates": [
                    20.79511,
                    52.595
                ]
            },
            "properties": {
                "isced:level": "3",
                "ref:rspo": 72982,
                "official_name": "Bran\u017cowa Szko\u0142a I Stopnia im. Miko\u0142aja Kopernika",
                "name": "Bran\u017cowa Szko\u0142a I Stopnia",
                "addr:country": "PL",
                "addr:postcode": "05-190",
                "addr:city": "Nasielsk",
                "addr:street": "Lipowa",
                "addr:housenumber": "10",
                "addr:teryt:simc": 930740,
                "addr:teryt:sym_ul": 11139,
                "contact:phone": "+48 236912585",
                "contact:email": "sekretariat@zsznasielsk.pl",
                "contact:website": "http:\/\/www.zsznasielsk.pl",
                "ref:regon": "015535347",
                "operator": "Powiat Nowodworski",
                "operator:type": "government",
                "amenity": "school",
                "note": "Parent RSPO: 27480"
            }
        }
    ]
}