{
    "type": "FeatureCollection",
    "features": [
        {
            "id": 274973,
            "type": "Feature",
            "geometry": {
                "type": "Point",
                "coordinates": [
                    18.1769399,
                    52.62727
                ]
            },
            "properties": {
                "ref:rspo": 274973,
                "official_name": "Zesp\u00f3\u0142 Szkolno - Przedszkolny Nr 2 w Strzelnie",
                "name": "Zesp\u00f3\u0142 Szkolno - Przedszkolny Nr 2 w Strzelnie",
                "addr:country": "PL",
                "addr:postcode": "88-320",
                "addr:city": "Strzelno",
                "addr:street": "Gimnazjalna",
                "addr:housenumber": "17",
                "addr:teryt:simc": 929598,
                "addr:teryt:sym_ul": 5527,
                "contact:phone": "+48 523189577",
                "contact:email": "sekretariat.zsp.2@wp.pl",
                "ref:regon": "386452349",
                "operator": "Gmina Strzelno",
                "operator:type": "government",
                "landuse": "education",
                "fixme": "amenity=school, amenity=college albo landuse=education w zale\u017cno\u015bci od tego, jakie plac\u00f3wki wchodz\u0105 w sk\u0142ad zespo\u0142u. Sprawd\u017a, kiedy stosowa\u0107 amenity=* a kiedy landuse=education.",
                "note": "Children RSPO: 21613;263026"
            }
        },
        {
            "id": 263026,
            "type": "Feature",
            "geometry": {
                "type": "Point",
                "coordinates": [
                    18.1769399,
                    52.62724
                ]
            },
            "properties": {
                "isced:level": "1;2",
                "ref:rspo": 263026,
                "official_name": "Szko\u0142a Podstawowa Z Oddzia\u0142ami Dwuj\u0119zycznymi im. Jana Da\u0142kowskiego",
                "name": "Szko\u0142a Podstawowa Z Oddzia\u0142ami Dwuj\u0119zycznymi",
                "addr:country": "PL",
                "addr:postcode": "88-320",
                "addr:city": "Strzelno",
                "addr:street": "Gimnazjalna",
                "addr:housenumber": "17",
                "addr:teryt:simc": 929598,
                "addr:teryt:sym_ul": 5527,
                "contact:phone": "+48 523189577",
                "contact:email": "sekretariat.zsp.2@wp.pl",
                "ref:regon": "368092304",
                "operator": "Gmina Strzelno",
                "operator:type": "government",
                "amenity": "school",
                "note": "Parent RSPO: 274973"
            }
        },
        {
            "id": 21611,
            "type": "Feature",
            "geometry": {
                "type": "Point",
                "coordinates": [
                    18.17083,
                    52.62788
                ]
            },
            "properties": {
                "ref:rspo": 21611,
                "official_name": "Przedszkole Nr 1 w Strzelnie",
                "name": "Przedszkole Nr 1 w Strzelnie",
                "addr:country": "PL",
                "addr:postcode": "88-320",
                "addr:city": "Strzelno",
                "addr:street": "Michelsona",
                "addr:housenumber": "1",
                "addr:teryt:simc": 929598,
                "addr:teryt:sym_ul": 12726,
                "contact:phone": "+48 523189282",
                "contact:email": "stareprzedszkole1@wp.pl",
                "contact:website": "http:\/\/www.p1strzelno.szkolnastrona.pl",
                "ref:regon": "093122268",
                "ref:vatin": "PL5571521404",
                "operator": "Gmina Strzelno",
                "operator:type": "government",
                "amenity": "kindergarten",
                "note": "Parent RSPO: 118708"
            }
        },
        {
            "id": 118708,
            "type": "Feature",
            "geometry": {
                "type": "Point",
                "coordinates": [
                    18.15957,
                    52.62792
                ]
            },
            "properties": {
                "ref:rspo": 118708,
                "official_name": "Zesp\u00f3\u0142 Szkolno Przedszkolny",
                "name": "Zesp\u00f3\u0142 Szkolno Przedszkolny",
                "addr:country": "PL",
                "addr:postcode": "88-320",
                "addr:city": "Strzelno",
                "addr:street": "Kardyna\u0142a Stefana Wyszy\u0144skiego",
                "addr:housenumber": "2",
                "addr:teryt:simc": 929598,
                "addr:teryt:sym_ul": 25103,
                "contact:phone": "+48 523189578",
                "contact:email": "sp2strzelno@wp.pl",
                "ref:regon": "341466237",
                "ref:vatin": "PL5571697037",
                "operator": "Gmina Strzelno",
                "operator:type": "government",
                "landuse": "education",
                "fixme": "amenity=school, amenity=college albo landuse=education w zale\u017cno\u015bci od tego, jakie plac\u00f3wki wchodz\u0105 w sk\u0142ad zespo\u0142u. Sprawd\u017a, kiedy stosowa\u0107 amenity=* a kiedy landuse=education.",
                "note": "Children RSPO: 21608;21611"
            }
        },
        {
            "id": 21608,
            "type": "Feature",
            "geometry": {
                "type": "Point",
                "coordinates": [
                    18.15957,
                    52.62789
                ]
            },
            "properties": {
                "isced:level": "1;2",
                "ref:rspo": 21608,
                "official_name": "Szko\u0142a Podstawowa im. Alberta Abrahama Michelsona w Strzelnie",
                "name": "Szko\u0142a Podstawowa",
                "addr:country": "PL",
                "addr:postcode": "88-320",
                "addr:city": "Strzelno",
                "addr:street": "Kardyna\u0142a Stefana Wyszy\u0144skiego",
                "addr:housenumber": "2",
                "addr:teryt:simc": 929598,
                "addr:teryt:sym_ul": 25103,
                "contact:phone": "+48 523189578",
                "contact:email": "sp2strzelno@wp.pl",
                "contact:website": "http:\/\/spstrzelno.pl",
                "ref:regon": "091153603",
                "ref:vatin": "PL5571521404",
                "operator": "Gmina Strzelno",
                "operator:type": "government",
                "amenity": "school",
                "note": "Parent RSPO: 118708"
            }
        },
        {
            "id": 21613,
            "type": "Feature",
            "geometry": {
                "type": "Point",
                "coordinates": [
                    18.16938,
                    52.62876
                ]
            },
            "properties": {
                "ref:rspo": 21613,
                "official_name": "Przedszkole Nr 2 w Strzelnie",
                "name": "Przedszkole Nr 2 w Strzelnie",
                "addr:country": "PL",
                "addr:postcode": "88-320",
                "addr:city": "Strzelno",
                "addr:street": "Tadeusza Ko\u015bciuszki",
                "addr:housenumber": "3",
                "addr:teryt:simc": 929598,
                "addr:teryt:sym_ul": 9582,
                "contact:phone": "+48 523189532",
                "contact:email": "przedszkole_strzelno@wp.pl",
                "contact:website": "http:\/\/www.przedszkole2strzelno.eprzedszkola.pl",
                "ref:regon": "000263254",
                "ref:vatin": "PL5571521404",
                "operator": "Gmina Strzelno",
                "operator:type": "government",
                "amenity": "kindergarten",
                "note": "Parent RSPO: 274973"
            }
        },
        {
            "id": 3895,
            "type": "Feature",
            "geometry": {
                "type": "Point",
                "coordinates": [
                    18.17705,
                    52.62882
                ]
            },
            "properties": {
                "ref:rspo": 3895,
                "official_name": "Zesp\u00f3\u0142 Szk\u00f3\u0142 w Strzelnie",
                "name": "Zesp\u00f3\u0142 Szk\u00f3\u0142 w Strzelnie",
                "addr:country": "PL",
                "addr:postcode": "88-320",
                "addr:city": "Strzelno",
                "addr:street": "Gimnazjalna",
                "addr:housenumber": "7",
                "addr:teryt:simc": 929598,
                "addr:teryt:sym_ul": 5527,
                "contact:phone": "+48 523189516",
                "contact:email": "zsstrzelno@o2.pl",
                "contact:website": "http:\/\/www.zsstrzelno.pl",
                "ref:regon": "341314504",
                "ref:vatin": "PL5571696641",
                "operator": "Powiat Mogile\u0144ski",
                "operator:type": "government",
                "landuse": "education",
                "fixme": "amenity=school, amenity=college albo landuse=education w zale\u017cno\u015bci od tego, jakie plac\u00f3wki wchodz\u0105 w sk\u0142ad zespo\u0142u. Sprawd\u017a, kiedy stosowa\u0107 amenity=* a kiedy landuse=education.",
                "note": "Children RSPO: 55733;58359;58360"
            }
        },
        {
            "id": 58360,
            "type": "Feature",
            "geometry": {
                "type": "Point",
                "coordinates": [
                    18.17705,
                    52.628789999999995
                ]
            },
            "properties": {
                "isced:level": "3",
                "ref:rspo": 58360,
                "official_name": "Liceum Og\u00f3lnokszta\u0142c\u0105ce im. I Armii Wojska Polskiego w Strzelnie",
                "name": "Liceum Og\u00f3lnokszta\u0142c\u0105ce",
                "addr:country": "PL",
                "addr:postcode": "88-320",
                "addr:city": "Strzelno",
                "addr:street": "Gimnazjalna",
                "addr:housenumber": "7",
                "addr:teryt:simc": 929598,
                "addr:teryt:sym_ul": 5527,
                "contact:phone": "+48 523189516",
                "contact:email": "zsstrzelno@o2.pl",
                "contact:website": "http:\/\/zsstrzelno.pl",
                "ref:regon": "000228298",
                "operator": "Powiat Mogile\u0144ski",
                "operator:type": "government",
                "amenity": "school",
                "note": "Parent RSPO: 3895"
            }
        },
        {
            "id": 21614,
            "type": "Feature",
            "geometry": {
                "type": "Point",
                "coordinates": [
                    18.18337,
                    52.62982
                ]
            },
            "properties": {
                "ref:rspo": 21614,
                "official_name": "Specjalny O\u015brodek Szkolno Wychowawczy im. Dra Jakuba Cie\u015blewicza w Strzelnie",
                "name": "Specjalny O\u015brodek Szkolno Wychowawczy",
                "addr:country": "PL",
                "addr:postcode": "88-320",
                "addr:city": "Strzelno",
                "addr:street": "Parkowa",
                "addr:housenumber": "10",
                "addr:teryt:simc": 929598,
                "addr:teryt:sym_ul": 15710,
                "contact:phone": "+48 523189568",
                "contact:email": "soswstrzelno@wp.pl",
                "contact:website": "http:\/\/www.soswstrzelno.cba.pl",
                "ref:regon": "001030760",
                "ref:vatin": "PL5571512960",
                "operator": "Powiat Mogile\u0144ski",
                "operator:type": "government",
                "amenity": "school",
                "note": "Children RSPO: 127819;127820;127822;127823;127828"
            }
        },
        {
            "id": 127819,
            "type": "Feature",
            "geometry": {
                "type": "Point",
                "coordinates": [
                    18.18337,
                    52.62979
                ]
            },
            "properties": {
                "ref:rspo": 127819,
                "official_name": "Przedszkole Specjalne",
                "name": "Przedszkole Specjalne",
                "addr:country": "PL",
                "addr:postcode": "88-320",
                "addr:city": "Strzelno",
                "addr:street": "Parkowa",
                "addr:housenumber": "10",
                "addr:teryt:simc": 929598,
                "addr:teryt:sym_ul": 15710,
                "contact:phone": "+48 523189568",
                "contact:email": "soswstrzelno@wp.pl",
                "contact:website": "http:\/\/www.soswstrzelno.cba.pl",
                "ref:regon": "340638050",
                "operator": "Powiat Mogile\u0144ski",
                "operator:type": "government",
                "amenity": "kindergarten",
                "note": "Parent RSPO: 21614"
            }
        },
        {
            "id": 127820,
            "type": "Feature",
            "geometry": {
                "type": "Point",
                "coordinates": [
                    18.18337,
                    52.629760000000005
                ]
            },
            "properties": {
                "isced:level": "1;2",
                "ref:rspo": 127820,
                "official_name": "Szko\u0142a Podstawowa Specjalna",
                "name": "Szko\u0142a Podstawowa Specjalna",
                "addr:country": "PL",
                "addr:postcode": "88-320",
                "addr:city": "Strzelno",
                "addr:street": "Parkowa",
                "addr:housenumber": "10",
                "addr:teryt:simc": 929598,
                "addr:teryt:sym_ul": 15710,
                "contact:phone": "+48 523189568",
                "contact:email": "soswstrzelno@wp.pl",
                "contact:website": "http:\/\/soswstrzelno.cba.pl",
                "ref:regon": "093139702",
                "operator": "Powiat Mogile\u0144ski",
                "operator:type": "government",
                "amenity": "school",
                "note": "Parent RSPO: 21614"
            }
        },
        {
            "id": 127822,
            "type": "Feature",
            "geometry": {
                "type": "Point",
                "coordinates": [
                    18.18337,
                    52.62973
                ]
            },
            "properties": {
                "isced:level": "3",
                "ref:rspo": 127822,
                "official_name": "Zasadnicza Szko\u0142a Zawodowa",
                "name": "Zasadnicza Szko\u0142a Zawodowa",
                "addr:country": "PL",
                "addr:postcode": "88-320",
                "addr:city": "Strzelno",
                "addr:street": "Parkowa",
                "addr:housenumber": "10",
                "addr:teryt:simc": 929598,
                "addr:teryt:sym_ul": 15710,
                "contact:phone": "+48 583189568",
                "contact:email": "soswstrzelno@wp.pl",
                "contact:website": "http:\/\/www.soswstrzelno.cba.pl",
                "ref:regon": "093140102",
                "operator": "Powiat Mogile\u0144ski",
                "operator:type": "government",
                "amenity": "school",
                "note": "Parent RSPO: 21614"
            }
        },
        {
            "id": 127823,
            "type": "Feature",
            "geometry": {
                "type": "Point",
                "coordinates": [
                    18.18337,
                    52.6297
                ]
            },
            "properties": {
                "ref:rspo": 127823,
                "official_name": "Szko\u0142a Specjalna Przyspasabiaj\u0105ca Do Pracy dla Uczni\u00f3w Z Upo\u015bledzeniem Umys\u0142owym w Stopniu Umiarkowanym Lub Znacznym",
                "name": "Szko\u0142a Specjalna Przyspasabiaj\u0105ca Do Pracy dla Uczni\u00f3w Z Upo\u015bledzeniem Umys\u0142owym w Stopniu Umiarkowanym Lub Znacznym",
                "addr:country": "PL",
                "addr:postcode": "88-320",
                "addr:city": "Strzelno",
                "addr:street": "Parkowa",
                "addr:housenumber": "10",
                "addr:teryt:simc": 929598,
                "addr:teryt:sym_ul": 15710,
                "contact:phone": "+48 523189568",
                "contact:email": "soswstrzelno@wp.pl",
                "contact:website": "http:\/\/www.soswstrzelno.cba.pl",
                "ref:regon": "340072861",
                "operator": "Powiat Mogile\u0144ski",
                "operator:type": "government",
                "amenity": "school",
                "note": "Parent RSPO: 21614"
            }
        },
        {
            "id": 127828,
            "type": "Feature",
            "geometry": {
                "type": "Point",
                "coordinates": [
                    18.18337,
                    52.629670000000004
                ]
            },
            "properties": {
                "ref:rspo": 127828,
                "official_name": "Gimnazjum Specjalne",
                "name": "Gimnazjum Specjalne",
                "addr:country": "PL",
                "addr:postcode": "88-320",
                "addr:city": "Strzelno",
                "addr:street": "Parkowa",
                "addr:housenumber": "10",
                "addr:teryt:simc": 929598,
                "addr:teryt:sym_ul": 15710,
                "contact:phone": "+48 523189568",
                "contact:email": "soswstrzelno@wp.pl",
                "contact:website": "http:\/\/www.soswstrzelno.cba.pl",
                "ref:regon": "093139725",
                "operator": "Powiat Mogile\u0144ski",
                "operator:type": "government",
                "amenity": "school",
                "note": "Parent RSPO: 21614"
            }
        },
        {
            "id": 53013,
            "type": "Feature",
            "geometry": {
                "type": "Point",
                "coordinates": [
                    18.17043,
                    52.63217
                ]
            },
            "properties": {
                "ref:rspo": 53013,
                "official_name": "M\u0142odzie\u017cowy O\u015brodek Wychowawczy dla Ch\u0142opc\u00f3w im. \u015aw. Jana Bosko w Strzelnie",
                "name": "M\u0142odzie\u017cowy O\u015brodek Wychowawczy dla Ch\u0142opc\u00f3w",
                "addr:country": "PL",
                "addr:postcode": "88-320",
                "addr:city": "Strzelno",
                "addr:street": "Tadeusza Ko\u015bciuszki",
                "addr:housenumber": "15",
                "addr:teryt:simc": 929598,
                "addr:teryt:sym_ul": 9582,
                "contact:phone": "+48 523189571",
                "contact:email": "osrodek@mowstrzelno.pl",
                "contact:website": "http:\/\/www.mowstrzelno.pl",
                "ref:regon": "091310221",
                "ref:vatin": "PL5571514172",
                "operator": "Powiat Mogile\u0144ski",
                "operator:type": "government",
                "fixme": "amenity=social_facility + social_facility=group_home + social_facility:for=juvenile",
                "note": "Children RSPO: 60093;266073"
            }
        },
        {
            "id": 58417,
            "type": "Feature",
            "geometry": {
                "type": "Point",
                "coordinates": [
                    18.17043,
                    52.63214
                ]
            },
            "properties": {
                "isced:level": "4",
                "ref:rspo": 58417,
                "official_name": "Policealna Szko\u0142a Zawodowa Twp",
                "name": "Policealna Szko\u0142a Zawodowa Twp",
                "addr:country": "PL",
                "addr:postcode": "88-320",
                "addr:city": "Strzelno",
                "addr:street": "Tadeusza Ko\u015bciuszki",
                "addr:housenumber": "15",
                "addr:teryt:simc": 929598,
                "addr:teryt:sym_ul": 9582,
                "contact:phone": "+48 523189516",
                "contact:email": "twp@twp.edu.pl",
                "ref:regon": "341343820",
                "ref:vatin": "PL9670194873",
                "operator": "Towarzystwo Wiedzy Powszechnej Oddzia\u0142 Regionalny W Bydgoszczy",
                "operator:type": "cooperative",
                "amenity": "college"
            }
        },
        {
            "id": 59700,
            "type": "Feature",
            "geometry": {
                "type": "Point",
                "coordinates": [
                    18.17043,
                    52.632110000000004
                ]
            },
            "properties": {
                "isced:level": "3",
                "ref:rspo": 59700,
                "official_name": "Liceum Og\u00f3lnokszta\u0142c\u0105ce dla Doros\u0142ych Towarzystwa Wiedzy Powszechnej",
                "name": "Liceum Og\u00f3lnokszta\u0142c\u0105ce dla Doros\u0142ych Towarzystwa Wiedzy Powszechnej",
                "addr:country": "PL",
                "addr:postcode": "88-320",
                "addr:city": "Strzelno",
                "addr:street": "Tadeusza Ko\u015bciuszki",
                "addr:housenumber": "15",
                "addr:teryt:simc": 929598,
                "addr:teryt:sym_ul": 9582,
                "contact:phone": "+48 523189516",
                "contact:email": "lotwp@wp.pl",
                "ref:regon": "341343859",
                "operator": "Towarzystwo Wiedzy Powszechnej Oddzia\u0142 Regionalny W Bydgoszczy",
                "operator:type": "cooperative",
                "amenity": "school"
            }
        },
        {
            "id": 55733,
            "type": "Feature",
            "geometry": {
                "type": "Point",
                "coordinates": [
                    18.17043,
                    52.63208
                ]
            },
            "properties": {
                "isced:level": "3",
                "ref:rspo": 55733,
                "official_name": "Bran\u017cowa Szko\u0142a I Stopnia w Strzelnie",
                "name": "Bran\u017cowa Szko\u0142a I Stopnia w Strzelnie",
                "addr:country": "PL",
                "addr:postcode": "88-320",
                "addr:city": "Strzelno",
                "addr:street": "Tadeusza Ko\u015bciuszki",
                "addr:housenumber": "15",
                "addr:teryt:simc": 929598,
                "addr:teryt:sym_ul": 9582,
                "contact:phone": "+48 523189516",
                "contact:email": "zsstrzelno@o2.pl",
                "contact:website": "http:\/\/zsstrzelno.pl",
                "ref:regon": "093048997",
                "operator": "Powiat Mogile\u0144ski",
                "operator:type": "government",
                "amenity": "school",
                "note": "Parent RSPO: 3895"
            }
        },
        {
            "id": 58359,
            "type": "Feature",
            "geometry": {
                "type": "Point",
                "coordinates": [
                    18.17043,
                    52.63205
                ]
            },
            "properties": {
                "isced:level": "3",
                "ref:rspo": 58359,
                "official_name": "Technikum w Strzelnie",
                "name": "Technikum w Strzelnie",
                "addr:country": "PL",
                "addr:postcode": "88-320",
                "addr:city": "Strzelno",
                "addr:street": "Tadeusza Ko\u015bciuszki",
                "addr:housenumber": "15",
                "addr:teryt:simc": 929598,
                "addr:teryt:sym_ul": 9582,
                "contact:phone": "+48 523189516",
                "contact:email": "zsstrzelno@o2.pl",
                "contact:website": "http:\/\/zsstrzelno.pl",
                "ref:regon": "093048980",
                "operator": "Powiat Mogile\u0144ski",
                "operator:type": "government",
                "amenity": "school",
                "note": "Parent RSPO: 3895"
            }
        },
        {
            "id": 60093,
            "type": "Feature",
            "geometry": {
                "type": "Point",
                "coordinates": [
                    18.17043,
                    52.632020000000004
                ]
            },
            "properties": {
                "isced:level": "3",
                "ref:rspo": 60093,
                "official_name": "Specjalna Bran\u017cowa Szko\u0142a I Stopnia Nr 2 w Strzelnie",
                "name": "Specjalna Bran\u017cowa Szko\u0142a I Stopnia Nr 2 w Strzelnie",
                "addr:country": "PL",
                "addr:postcode": "88-320",
                "addr:city": "Strzelno",
                "addr:street": "Tadeusza Ko\u015bciuszki",
                "addr:housenumber": "15",
                "addr:teryt:simc": 929598,
                "addr:teryt:sym_ul": 9582,
                "contact:phone": "+48 523189571",
                "contact:email": "osrodek@mowstrzelno.pl",
                "contact:website": "http:\/\/www.mowstrzelno.pl",
                "ref:regon": "341136793",
                "operator": "Powiat Mogile\u0144ski",
                "operator:type": "government",
                "amenity": "school",
                "note": "Parent RSPO: 53013"
            }
        },
        {
            "id": 266073,
            "type": "Feature",
            "geometry": {
                "type": "Point",
                "coordinates": [
                    18.17043,
                    52.63199
                ]
            },
            "properties": {
                "isced:level": "1;2",
                "ref:rspo": 266073,
                "official_name": "Szko\u0142a Podstawowa Specjalna Nr 2 w Strzelnie",
                "name": "Szko\u0142a Podstawowa Specjalna Nr 2 w Strzelnie",
                "addr:country": "PL",
                "addr:postcode": "88-320",
                "addr:city": "Strzelno",
                "addr:street": "Tadeusza Ko\u015bciuszki",
                "addr:housenumber": "15",
                "addr:teryt:simc": 929598,
                "addr:teryt:sym_ul": 9582,
                "contact:phone": "+48 523189571",
                "contact:email": "osrodek@mowstrzelno.pl",
                "contact:website": "http:\/\/www.mowstrzelno.pl",
                "ref:regon": "369232546",
                "operator": "Powiat Mogile\u0144ski",
                "operator:type": "government",
                "amenity": "school",
                "note": "Parent RSPO: 53013"
            }
        },
        {
            "id": 21607,
            "type": "Feature",
            "geometry": {
                "type": "Point",
                "coordinates": [
                    18.2188079,
                    52.7060589
                ]
            },
            "properties": {
                "isced:level": "1;2",
                "ref:rspo": 21607,
                "official_name": "Szko\u0142a Podstawowa w Markowicach im. Gustawa Zieli\u0144skiego",
                "name": "Szko\u0142a Podstawowa w Markowicach",
                "addr:country": "PL",
                "addr:postcode": "88-320",
                "addr:place": "Markowice",
                "addr:housenumber": "28",
                "addr:teryt:simc": 96514,
                "contact:phone": "+48 523181726",
                "contact:email": "spmarkowice@poczta.fm",
                "contact:website": "https:\/\/spmarkowice.edupage.org\/",
                "ref:regon": "091153632",
                "ref:vatin": "PL5571697250",
                "operator": "Gmina Strzelno",
                "operator:type": "government",
                "amenity": "school"
            }
        }
    ]
}