{
    "type": "FeatureCollection",
    "features": [
        {
            "id": 24160,
            "type": "Feature",
            "geometry": {
                "type": "Point",
                "coordinates": [
                    18.03511,
                    52.59809
                ]
            },
            "properties": {
                "ref:rspo": 24160,
                "official_name": "Przedszkole Bajka w G\u0119bicach",
                "name": "Przedszkole Bajka w G\u0119bicach",
                "addr:postcode": "88-330",
                "addr:city": "G\u0119bice",
                "addr:street": "Rynek",
                "addr:housenumber": "11",
                "addr:city:simc": 91400,
                "addr:street:sym_ul": 19253,
                "phone": "+48 523150417",
                "email": "przegebice@wp.pl",
                "website": "http:\/\/bajkagebice.pl",
                "ref:regon": "093120097",
                "operator": "Gmina Mogilno",
                "operator:type": "government",
                "amenity": "kindergarten"
            }
        },
        {
            "id": 23429,
            "type": "Feature",
            "geometry": {
                "type": "Point",
                "coordinates": [
                    18.027245,
                    52.601261
                ]
            },
            "properties": {
                "isced:level": "1;2",
                "ref:rspo": 23429,
                "official_name": "Szko\u0142a Podstawowa im. Tadeusza Ko\u015bciuszki w G\u0119bicach",
                "name": "Szko\u0142a Podstawowa",
                "addr:postcode": "88-330",
                "addr:place": "Marcinkowo",
                "addr:housenumber": "72",
                "addr:city:simc": 91586,
                "phone": "+48 523150488",
                "email": "sp_gebice@interia.pl",
                "website": "http:\/\/www.gebice.neostrada.pl",
                "ref:regon": "001155615",
                "operator": "Gmina Mogilno",
                "operator:type": "government",
                "amenity": "school"
            }
        },
        {
            "id": 23426,
            "type": "Feature",
            "geometry": {
                "type": "Point",
                "coordinates": [
                    17.935319,
                    52.609697
                ]
            },
            "properties": {
                "isced:level": "1;2",
                "ref:rspo": 23426,
                "official_name": "Szko\u0142a Podstawowa im. Jana Kochanowskiego w Wylatowie",
                "name": "Szko\u0142a Podstawowa",
                "addr:postcode": "88-342",
                "addr:place": "Wylatowo",
                "addr:housenumber": "29",
                "addr:city:simc": 91936,
                "phone": "+48 523158721",
                "email": "spwylatowo@vp.pl",
                "website": "http:\/\/www.sp.wylatowo.pl",
                "ref:regon": "001155934",
                "operator": "Gmina Mogilno",
                "operator:type": "government",
                "amenity": "school"
            }
        },
        {
            "id": 24231,
            "type": "Feature",
            "geometry": {
                "type": "Point",
                "coordinates": [
                    17.9380039,
                    52.6122604
                ]
            },
            "properties": {
                "ref:rspo": 24231,
                "official_name": "Przedszkole w Wylatowie",
                "name": "Przedszkole w Wylatowie",
                "addr:postcode": "88-342",
                "addr:place": "Wylatowo",
                "addr:housenumber": "66",
                "addr:city:simc": 91936,
                "phone": "+48 523158791",
                "email": "przedszkolewylatowo@interia.pl",
                "ref:regon": "093120068",
                "operator": "Gmina Mogilno",
                "operator:type": "government",
                "amenity": "kindergarten"
            }
        },
        {
            "id": 34239,
            "type": "Feature",
            "geometry": {
                "type": "Point",
                "coordinates": [
                    18.0056914,
                    52.6150743
                ]
            },
            "properties": {
                "ref:rspo": 34239,
                "official_name": "Zesp\u00f3\u0142 Szk\u00f3\u0142 Centrum Kszta\u0142cenia Rolniczego im. Powsta\u0144c\u00f3w Wielkopolskich w Bielicach",
                "name": "Zesp\u00f3\u0142 Szk\u00f3\u0142 Centrum Kszta\u0142cenia Rolniczego",
                "addr:postcode": "88-330",
                "addr:place": "Bielice",
                "addr:housenumber": "1",
                "addr:city:simc": 91296,
                "phone": "+48 523155960",
                "email": "sekretariat@zs-bielice.pl",
                "website": "http:\/\/zs-bielice.pl",
                "ref:regon": "000094679",
                "ref:vatin": "PL5571277884",
                "operator": "Ministerstwo Rolnictwa I Rozwoju Wsi",
                "operator:type": "public",
                "landuse": "education",
                "fixme": "amenity=school, amenity=college albo landuse=education w zale\u017cno\u015bci od tego, jakie plac\u00f3wki wchodz\u0105 w sk\u0142ad zespo\u0142u. Sprawd\u017a, kiedy stosowa\u0107 amenity=* a kiedy landuse=education.",
                "note": "Children RSPO: 59690;59771;278819;278821"
            }
        },
        {
            "id": 274535,
            "type": "Feature",
            "geometry": {
                "type": "Point",
                "coordinates": [
                    18.0056914,
                    52.6150443
                ]
            },
            "properties": {
                "ref:rspo": 274535,
                "official_name": "Powiatowy Zesp\u00f3\u0142 Szk\u00f3\u0142 w Bielicach",
                "name": "Powiatowy Zesp\u00f3\u0142 Szk\u00f3\u0142 w Bielicach",
                "addr:postcode": "88-330",
                "addr:place": "Bielice",
                "addr:housenumber": "1",
                "addr:city:simc": 91296,
                "phone": "+48 523026238",
                "email": "pzsbielice@wp.pl",
                "ref:regon": "385923870",
                "ref:vatin": "PL5571704205",
                "operator": "Powiat Mogile\u0144ski",
                "operator:type": "government",
                "landuse": "education",
                "fixme": "amenity=school, amenity=college albo landuse=education w zale\u017cno\u015bci od tego, jakie plac\u00f3wki wchodz\u0105 w sk\u0142ad zespo\u0142u. Sprawd\u017a, kiedy stosowa\u0107 amenity=* a kiedy landuse=education.",
                "note": "Children RSPO: 53018;55275;274536"
            }
        },
        {
            "id": 59690,
            "type": "Feature",
            "geometry": {
                "type": "Point",
                "coordinates": [
                    18.0056914,
                    52.615014300000006
                ]
            },
            "properties": {
                "isced:level": "3",
                "ref:rspo": 59690,
                "official_name": "Technikum w Bielicach",
                "name": "Technikum w Bielicach",
                "addr:postcode": "88-330",
                "addr:place": "Bielice",
                "addr:housenumber": "1",
                "addr:city:simc": 91296,
                "phone": "+48 523155960",
                "email": "sekretariat@zs-bielice.pl",
                "website": "http:\/\/zs-bielice.pl",
                "ref:regon": "092964976",
                "operator": "Ministerstwo Rolnictwa I Rozwoju Wsi",
                "operator:type": "public",
                "amenity": "school",
                "note": "Parent RSPO: 34239"
            }
        },
        {
            "id": 59771,
            "type": "Feature",
            "geometry": {
                "type": "Point",
                "coordinates": [
                    18.0056914,
                    52.6149843
                ]
            },
            "properties": {
                "isced:level": "3",
                "ref:rspo": 59771,
                "official_name": "Bran\u017cowa Szko\u0142a I Stopnia w Bielicach",
                "name": "Bran\u017cowa Szko\u0142a I Stopnia w Bielicach",
                "addr:postcode": "88-330",
                "addr:place": "Bielice",
                "addr:housenumber": "1",
                "addr:city:simc": 91296,
                "phone": "+48 523155960",
                "email": "sekretariat@zs-bielice.pl",
                "website": "http:\/\/zs-bielice.pl",
                "ref:regon": "093123463",
                "operator": "Ministerstwo Rolnictwa I Rozwoju Wsi",
                "operator:type": "public",
                "amenity": "school",
                "note": "Parent RSPO: 34239"
            }
        },
        {
            "id": 278819,
            "type": "Feature",
            "geometry": {
                "type": "Point",
                "coordinates": [
                    18.0056914,
                    52.6149543
                ]
            },
            "properties": {
                "ref:rspo": 278819,
                "official_name": "Centrum Kszta\u0142cenia Ustawicznego w Bielicach",
                "name": "Centrum Kszta\u0142cenia Ustawicznego w Bielicach",
                "addr:postcode": "88-330",
                "addr:place": "Bielice",
                "addr:housenumber": "1",
                "addr:city:simc": 91296,
                "phone": "+48 523155960",
                "email": "sekretariat@zs-belice.pl",
                "website": "http:\/\/zs-bielice.pl",
                "ref:regon": "520101336",
                "operator": "Ministerstwo Rolnictwa I Rozwoju Wsi",
                "operator:type": "public",
                "fixme": "w zale\u017cno\u015bci od przedmiotu dzia\u0142alno\u015bci (np. amenity=training + training=*, amenity=dancing_school, amenity=language_school, amenity=music_school)",
                "note": "Parent RSPO: 34239"
            }
        },
        {
            "id": 278821,
            "type": "Feature",
            "geometry": {
                "type": "Point",
                "coordinates": [
                    18.0056914,
                    52.614924300000006
                ]
            },
            "properties": {
                "isced:level": "3",
                "ref:rspo": 278821,
                "official_name": "Bran\u017cowa Szko\u0142a II Stopnia w Bielicach",
                "name": "Bran\u017cowa Szko\u0142a II Stopnia w Bielicach",
                "addr:postcode": "88-330",
                "addr:place": "Bielice",
                "addr:housenumber": "1",
                "addr:city:simc": 91296,
                "phone": "+48 523155960",
                "email": "sekretariat@zs-bielice.pl",
                "website": "http:\/\/zs-bielice.pl",
                "ref:regon": "520101371",
                "operator": "Ministerstwo Rolnictwa I Rozwoju Wsi",
                "operator:type": "public",
                "amenity": "school",
                "note": "Parent RSPO: 34239"
            }
        },
        {
            "id": 53018,
            "type": "Feature",
            "geometry": {
                "type": "Point",
                "coordinates": [
                    18.0056914,
                    52.6148943
                ]
            },
            "properties": {
                "ref:rspo": 53018,
                "official_name": "Centrum Kszta\u0142cenia Zawodowego w Bielicach",
                "name": "Centrum Kszta\u0142cenia Zawodowego w Bielicach",
                "addr:postcode": "88-330",
                "addr:place": "Bielice",
                "addr:housenumber": "1",
                "addr:city:simc": 91296,
                "phone": "+48 523026238",
                "email": "pzsbielice@wp.pl",
                "ref:regon": "340795520",
                "operator": "Powiat Mogile\u0144ski",
                "operator:type": "government",
                "fixme": "w zale\u017cno\u015bci od przedmiotu dzia\u0142alno\u015bci (np. amenity=training + training=*, amenity=dancing_school, amenity=language_school, amenity=music_school) albo amenity=school, amenity=college, albo landuse=education w zale\u017cno\u015bci od tego, jakie plac\u00f3wki wchodz\u0105 w sk\u0142ad zespo\u0142u. Sprawd\u017a, kiedy stosowa\u0107 amenity=* a kiedy landuse=education.",
                "note": "Parent RSPO: 274535"
            }
        },
        {
            "id": 55275,
            "type": "Feature",
            "geometry": {
                "type": "Point",
                "coordinates": [
                    18.0056914,
                    52.6148643
                ]
            },
            "properties": {
                "isced:level": "3",
                "ref:rspo": 55275,
                "official_name": "Liceum Og\u00f3lnokszta\u0142c\u0105ce w Bielicach",
                "name": "Liceum Og\u00f3lnokszta\u0142c\u0105ce w Bielicach",
                "addr:postcode": "88-330",
                "addr:place": "Bielice",
                "addr:housenumber": "1",
                "addr:city:simc": 91296,
                "phone": "+48 523026238",
                "email": "pzsbielice@wp.pl",
                "ref:regon": "093123486",
                "operator": "Powiat Mogile\u0144ski",
                "operator:type": "government",
                "amenity": "school",
                "note": "Parent RSPO: 274535"
            }
        },
        {
            "id": 274536,
            "type": "Feature",
            "geometry": {
                "type": "Point",
                "coordinates": [
                    18.0056914,
                    52.614834300000005
                ]
            },
            "properties": {
                "isced:level": "3",
                "ref:rspo": 274536,
                "official_name": "Technikum Wielozawodowe w Bielicach",
                "name": "Technikum Wielozawodowe w Bielicach",
                "addr:postcode": "88-330",
                "addr:place": "Bielice",
                "addr:housenumber": "1",
                "addr:city:simc": 91296,
                "phone": "+48 523026238",
                "email": "pzsbielice@wp.pl",
                "ref:regon": "385923887",
                "operator": "Powiat Mogile\u0144ski",
                "operator:type": "government",
                "amenity": "school",
                "note": "Parent RSPO: 274535"
            }
        },
        {
            "id": 44486,
            "type": "Feature",
            "geometry": {
                "type": "Point",
                "coordinates": [
                    18.008374,
                    52.6152309
                ]
            },
            "properties": {
                "ref:rspo": 44486,
                "official_name": "M\u0142odzie\u017cowy O\u015brodek Wychowawczy dla Ch\u0142opc\u00f3w Z Niepe\u0142nosprawno\u015bci\u0105 Intelektualn\u0105 w Stopniu Lekkim w Bielicach",
                "name": "M\u0142odzie\u017cowy O\u015brodek Wychowawczy dla Ch\u0142opc\u00f3w Z Niepe\u0142nosprawno\u015bci\u0105 Intelektualn\u0105 w Stopniu Lekkim w Bielicach",
                "addr:postcode": "88-330",
                "addr:place": "Bielice",
                "addr:housenumber": "2",
                "addr:city:simc": 91296,
                "phone": "+48 523025563",
                "email": "mow.bielice@powiat.mogilno.pl",
                "website": "http:\/\/mow.bielice.pl",
                "ref:regon": "340332552",
                "ref:vatin": "PL5571660407",
                "operator": "Powiat Mogile\u0144ski",
                "operator:type": "government",
                "fixme": "amenity=social_facility + social_facility=group_home + social_facility:for=juvenile",
                "note": "Children RSPO: 53005;272634"
            }
        },
        {
            "id": 53005,
            "type": "Feature",
            "geometry": {
                "type": "Point",
                "coordinates": [
                    18.008374,
                    52.6152009
                ]
            },
            "properties": {
                "isced:level": "1;2",
                "ref:rspo": 53005,
                "official_name": "Szko\u0142a Podstawowa Specjalna dla Uczni\u00f3w Z Upo\u015bledzeniem Umys\u0142owym w Stopniu Lekkim",
                "name": "Szko\u0142a Podstawowa Specjalna dla Uczni\u00f3w Z Upo\u015bledzeniem Umys\u0142owym w Stopniu Lekkim",
                "addr:postcode": "88-330",
                "addr:place": "Bielice",
                "addr:housenumber": "2",
                "addr:city:simc": 91296,
                "phone": "+48 523025563",
                "email": "mow.bielice@powiat.mogilno.pl",
                "website": "http:\/\/mowbielice.pl",
                "ref:regon": "340332569",
                "operator": "Powiat Mogile\u0144ski",
                "operator:type": "government",
                "amenity": "school",
                "note": "Parent RSPO: 44486"
            }
        },
        {
            "id": 272634,
            "type": "Feature",
            "geometry": {
                "type": "Point",
                "coordinates": [
                    18.008374,
                    52.6151709
                ]
            },
            "properties": {
                "isced:level": "3",
                "ref:rspo": 272634,
                "official_name": "Bran\u017cowa Szko\u0142a Specjalna I Stopnia Nr 2 w Bielicach",
                "name": "Bran\u017cowa Szko\u0142a Specjalna I Stopnia Nr 2 w Bielicach",
                "addr:postcode": "88-330",
                "addr:place": "Bielice",
                "addr:housenumber": "2",
                "addr:city:simc": 91296,
                "phone": "+48 523025563",
                "email": "mow.bielice@powiat.mogilno.pl",
                "website": "http:\/\/mowbielice.pl",
                "ref:regon": "384272130",
                "operator": "Powiat Mogile\u0144ski",
                "operator:type": "government",
                "amenity": "school",
                "note": "Parent RSPO: 44486"
            }
        },
        {
            "id": 24111,
            "type": "Feature",
            "geometry": {
                "type": "Point",
                "coordinates": [
                    18.0382189,
                    52.6195819
                ]
            },
            "properties": {
                "isced:level": "1;2",
                "ref:rspo": 24111,
                "official_name": "Szko\u0142a Podstawowa im. Kazimierza Wielkiego w Kwieciszewie",
                "name": "Szko\u0142a Podstawowa",
                "addr:postcode": "88-321",
                "addr:place": "Kwieciszewo",
                "addr:housenumber": "45",
                "addr:city:simc": 91563,
                "phone": "+48 523158321",
                "email": "spkwieciszewo@wp.pl",
                "ref:regon": "001155621",
                "operator": "Gmina Mogilno",
                "operator:type": "government",
                "amenity": "school"
            }
        },
        {
            "id": 122615,
            "type": "Feature",
            "geometry": {
                "type": "Point",
                "coordinates": [
                    17.9727885,
                    52.6441875
                ]
            },
            "properties": {
                "ref:rspo": 122615,
                "official_name": "Przedszkole Niepubliczne \"U Natalki I Kubusia\"",
                "name": "Przedszkole Niepubliczne \"U Natalki I Kubusia\"",
                "addr:postcode": "88-300",
                "addr:place": "\u015awierk\u00f3wiec",
                "addr:housenumber": "49",
                "addr:city:simc": 91818,
                "phone": "+48 523522498",
                "ref:regon": "341557572",
                "operator": "Dane Do Uzupe\u0142nienia",
                "operator:type": "private",
                "amenity": "kindergarten"
            }
        },
        {
            "id": 53010,
            "type": "Feature",
            "geometry": {
                "type": "Point",
                "coordinates": [
                    17.95435,
                    52.65299
                ]
            },
            "properties": {
                "ref:rspo": 53010,
                "official_name": "Poradnia Psychologiczno-Pedagogiczna w Mogilnie",
                "name": "Poradnia Psychologiczno-Pedagogiczna w Mogilnie",
                "addr:postcode": "88-300",
                "addr:city": "Mogilno",
                "addr:street": "Benedykty\u0144ska",
                "addr:housenumber": "3",
                "addr:city:simc": 929428,
                "addr:street:sym_ul": 1023,
                "phone": "+48 523152774",
                "email": "poradnia_mogilno@wp.pl",
                "website": "http:\/\/www.pppmogilno.pl",
                "ref:regon": "092502840",
                "ref:vatin": "PL5571542725",
                "operator": "Powiat Mogile\u0144ski",
                "operator:type": "government",
                "healthcare": "counselling",
                "counselling_type": "education",
                "fixme": "w zale\u017cno\u015bci od przedmiotu dzia\u0142alno\u015bci (np. healthcare=counselling + counselling_type=education albo healthcare=psychotherapist)"
            }
        },
        {
            "id": 28193,
            "type": "Feature",
            "geometry": {
                "type": "Point",
                "coordinates": [
                    17.95373,
                    52.65354
                ]
            },
            "properties": {
                "ref:rspo": 28193,
                "official_name": "Przedszkole Niepubliczne - Ochronka im.edmunda Bojanowskiego Zg.ss. S\u0142u\u017cebniczek Niepokalanego Pocz\u0119cia Nmp.",
                "name": "Przedszkole Niepubliczne - Ochronka im.edmunda Bojanowskiego Zg.ss. S\u0142u\u017cebniczek Niepokalanego Pocz\u0119cia Nmp.",
                "addr:postcode": "88-300",
                "addr:city": "Mogilno",
                "addr:street": "Rynek",
                "addr:housenumber": "14",
                "addr:city:simc": 929428,
                "addr:street:sym_ul": 19253,
                "phone": "+48 523180630",
                "email": "ochronkamogilno@wp.pl",
                "ref:regon": "341339088",
                "operator": "Zg.ss.s\u0142u\u017cebniczek Niepokalanego Pocz\u0119cia Nmp.,Prowincja Warszawska",
                "operator:type": "religious",
                "amenity": "kindergarten"
            }
        },
        {
            "id": 26194,
            "type": "Feature",
            "geometry": {
                "type": "Point",
                "coordinates": [
                    17.95564,
                    52.65526
                ]
            },
            "properties": {
                "isced:level": "1;2",
                "ref:rspo": 26194,
                "official_name": "Szko\u0142a Podstawowa Nr 2 im. Marii Konopnickiej w Mogilnie",
                "name": "Szko\u0142a Podstawowa Nr 2",
                "addr:postcode": "88-300",
                "addr:city": "Mogilno",
                "addr:street": "S\u0105dowa",
                "addr:housenumber": "13",
                "addr:city:simc": 929428,
                "addr:street:sym_ul": 19581,
                "phone": "+48 523152426",
                "email": "sp2mogilno@sp2mogilno.pl",
                "website": "http:\/\/sp2mogilno.pl",
                "ref:regon": "001155609",
                "operator": "Gmina Mogilno",
                "operator:type": "government",
                "amenity": "school"
            }
        },
        {
            "id": 64334,
            "type": "Feature",
            "geometry": {
                "type": "Point",
                "coordinates": [
                    17.95564,
                    52.655229999999996
                ]
            },
            "properties": {
                "isced:level": "3",
                "ref:rspo": 64334,
                "official_name": "Prywatne Liceum Og\u00f3lnokszta\u0142c\u0105ce w Mogilnie",
                "name": "Prywatne Liceum Og\u00f3lnokszta\u0142c\u0105ce w Mogilnie",
                "addr:postcode": "88-300",
                "addr:city": "Mogilno",
                "addr:street": "S\u0105dowa",
                "addr:housenumber": "13",
                "addr:city:simc": 929428,
                "addr:street:sym_ul": 19581,
                "phone": "+48 788717092",
                "email": "kontakt@zsprestige.pl",
                "ref:regon": "341345670",
                "operator": "Tw\u00f3j Prestige Sp\u00f3\u0142ka Z Ograniczon\u0105 Odpowiedzialno\u015bci\u0105",
                "operator:type": "private",
                "amenity": "school"
            }
        },
        {
            "id": 131209,
            "type": "Feature",
            "geometry": {
                "type": "Point",
                "coordinates": [
                    17.95564,
                    52.6552
                ]
            },
            "properties": {
                "isced:level": "4",
                "ref:rspo": 131209,
                "official_name": "Prestige Szko\u0142a Policealna w Mogilnie",
                "name": "Prestige Szko\u0142a Policealna w Mogilnie",
                "addr:postcode": "88-300",
                "addr:city": "Mogilno",
                "addr:street": "S\u0105dowa",
                "addr:housenumber": "13",
                "addr:city:simc": 929428,
                "addr:street:sym_ul": 19581,
                "phone": "+48 788717092",
                "email": "kontakt@zsprestige.pl",
                "ref:regon": "365035122",
                "operator": "Tw\u00f3j Prestige Sp\u00f3\u0142ka Z Ograniczon\u0105 Odpowiedzialno\u015bci\u0105",
                "operator:type": "private",
                "amenity": "college"
            }
        },
        {
            "id": 23430,
            "type": "Feature",
            "geometry": {
                "type": "Point",
                "coordinates": [
                    17.9534999,
                    52.65625
                ]
            },
            "properties": {
                "ref:rspo": 23430,
                "official_name": "Przedszkole Nr 2 w Mogilnie",
                "name": "Przedszkole Nr 2 w Mogilnie",
                "addr:postcode": "88-300",
                "addr:city": "Mogilno",
                "addr:street": "Stanis\u0142awa Moniuszki",
                "addr:housenumber": "4",
                "addr:city:simc": 929428,
                "addr:street:sym_ul": 13246,
                "phone": "+48 523152537",
                "email": "p2mogilno@wp.pl",
                "website": "http:\/\/przedszkole2.mogilno.info",
                "ref:regon": "093120111",
                "operator": "Gmina Mogilno",
                "operator:type": "government",
                "amenity": "kindergarten"
            }
        },
        {
            "id": 272007,
            "type": "Feature",
            "geometry": {
                "type": "Point",
                "coordinates": [
                    17.955310821533,
                    52.657241821289
                ]
            },
            "properties": {
                "ref:rspo": 272007,
                "official_name": "Zesp\u00f3\u0142 Szkolno-Przedszkolny w Mogilnie",
                "name": "Zesp\u00f3\u0142 Szkolno-Przedszkolny w Mogilnie",
                "addr:postcode": "88-300",
                "addr:city": "Mogilno",
                "addr:street": "Powsta\u0144c\u00f3w Wielkopolskich",
                "addr:housenumber": "33",
                "addr:city:simc": 929428,
                "addr:street:sym_ul": 17379,
                "phone": "+48 523152653",
                "email": "sp1.mogilno@gmail.com",
                "ref:regon": "383866234",
                "operator": "Gmina Mogilno",
                "operator:type": "government",
                "landuse": "education",
                "fixme": "amenity=school, amenity=college albo landuse=education w zale\u017cno\u015bci od tego, jakie plac\u00f3wki wchodz\u0105 w sk\u0142ad zespo\u0142u. Sprawd\u017a, kiedy stosowa\u0107 amenity=* a kiedy landuse=education.",
                "note": "Children RSPO: 263169;272001"
            }
        },
        {
            "id": 263169,
            "type": "Feature",
            "geometry": {
                "type": "Point",
                "coordinates": [
                    17.955310821533,
                    52.657211821288996
                ]
            },
            "properties": {
                "isced:level": "1;2",
                "ref:rspo": 263169,
                "official_name": "Szko\u0142a Podstawowa Nr 1 im. Ks. Piotra Wawrzyniaka w Mogilnie",
                "name": "Szko\u0142a Podstawowa Nr 1",
                "addr:postcode": "88-300",
                "addr:city": "Mogilno",
                "addr:street": "Powsta\u0144c\u00f3w Wielkopolskich",
                "addr:housenumber": "33",
                "addr:city:simc": 929428,
                "addr:street:sym_ul": 17379,
                "phone": "+48 523152653",
                "email": "sp1.mogilno@gmail.com",
                "ref:regon": "368112685",
                "operator": "Gmina Mogilno",
                "operator:type": "government",
                "amenity": "school",
                "note": "Parent RSPO: 272007"
            }
        },
        {
            "id": 272001,
            "type": "Feature",
            "geometry": {
                "type": "Point",
                "coordinates": [
                    17.955310821533,
                    52.657181821289
                ]
            },
            "properties": {
                "ref:rspo": 272001,
                "official_name": "Przedszkole Nr 4 w Mogilnie",
                "name": "Przedszkole Nr 4 w Mogilnie",
                "addr:postcode": "88-300",
                "addr:city": "Mogilno",
                "addr:street": "Powsta\u0144c\u00f3w Wielkopolskich",
                "addr:housenumber": "33",
                "addr:city:simc": 929428,
                "addr:street:sym_ul": 17379,
                "phone": "+48 523152653",
                "email": "sp1.mogilno@gmail.com",
                "ref:regon": "383866100",
                "operator": "Gmina Mogilno",
                "operator:type": "government",
                "amenity": "kindergarten",
                "note": "Parent RSPO: 272007"
            }
        },
        {
            "id": 20341,
            "type": "Feature",
            "geometry": {
                "type": "Point",
                "coordinates": [
                    17.878757,
                    52.657922
                ]
            },
            "properties": {
                "ref:rspo": 20341,
                "official_name": "Zesp\u00f3\u0142 Szkolno-Przedszkolny w Padniewie",
                "name": "Zesp\u00f3\u0142 Szkolno-Przedszkolny w Padniewie",
                "addr:postcode": "88-300",
                "addr:place": "Padniewo",
                "addr:housenumber": "55",
                "addr:city:simc": 91669,
                "phone": "+48 523158529",
                "email": "padniewo@pro.onet.pl",
                "ref:regon": "341300198",
                "operator": "Gmina Mogilno",
                "operator:type": "government",
                "landuse": "education",
                "fixme": "amenity=school, amenity=college albo landuse=education w zale\u017cno\u015bci od tego, jakie plac\u00f3wki wchodz\u0105 w sk\u0142ad zespo\u0142u. Sprawd\u017a, kiedy stosowa\u0107 amenity=* a kiedy landuse=education.",
                "note": "Children RSPO: 24042;24043"
            }
        },
        {
            "id": 24042,
            "type": "Feature",
            "geometry": {
                "type": "Point",
                "coordinates": [
                    17.878757,
                    52.657892
                ]
            },
            "properties": {
                "ref:rspo": 24042,
                "official_name": "Przedszkole w Padniewie",
                "name": "Przedszkole w Padniewie",
                "addr:postcode": "88-300",
                "addr:place": "Padniewo",
                "addr:housenumber": "55",
                "addr:city:simc": 91669,
                "phone": "+48 523158529",
                "email": "padniewo@pro.onet.pl",
                "ref:regon": "093120134",
                "operator": "Gmina Mogilno",
                "operator:type": "government",
                "amenity": "kindergarten",
                "note": "Parent RSPO: 20341"
            }
        },
        {
            "id": 24043,
            "type": "Feature",
            "geometry": {
                "type": "Point",
                "coordinates": [
                    17.878757,
                    52.657862
                ]
            },
            "properties": {
                "isced:level": "1;2",
                "ref:rspo": 24043,
                "official_name": "Szko\u0142a Podstawowa im. Ignacego Jana Paderewskiego w Padniewie",
                "name": "Szko\u0142a Podstawowa",
                "addr:postcode": "88-300",
                "addr:place": "Padniewo",
                "addr:housenumber": "55",
                "addr:city:simc": 91669,
                "phone": "+48 523158529",
                "email": "padniewo@pro.onet.pl",
                "ref:regon": "001155940",
                "operator": "Gmina Mogilno",
                "operator:type": "government",
                "amenity": "school",
                "note": "Parent RSPO: 20341"
            }
        },
        {
            "id": 34209,
            "type": "Feature",
            "geometry": {
                "type": "Point",
                "coordinates": [
                    17.9475,
                    52.65854
                ]
            },
            "properties": {
                "ref:rspo": 34209,
                "official_name": "Zesp\u00f3\u0142 Szk\u00f3\u0142 w Mogilnie",
                "name": "Zesp\u00f3\u0142 Szk\u00f3\u0142 w Mogilnie",
                "addr:postcode": "88-300",
                "addr:city": "Mogilno",
                "addr:street": "Dworcowa",
                "addr:housenumber": "9",
                "addr:city:simc": 929428,
                "addr:street:sym_ul": 4434,
                "phone": "+48 523152664",
                "email": "zsmogilno@wp.pl",
                "website": "http:\/\/zs-mogilno.pl",
                "ref:regon": "000185608",
                "ref:vatin": "PL5571280515",
                "operator": "Powiat Mogile\u0144ski",
                "operator:type": "government",
                "landuse": "education",
                "fixme": "amenity=school, amenity=college albo landuse=education w zale\u017cno\u015bci od tego, jakie plac\u00f3wki wchodz\u0105 w sk\u0142ad zespo\u0142u. Sprawd\u017a, kiedy stosowa\u0107 amenity=* a kiedy landuse=education.",
                "note": "Children RSPO: 58372;63496;64384;130516"
            }
        },
        {
            "id": 126916,
            "type": "Feature",
            "geometry": {
                "type": "Point",
                "coordinates": [
                    17.9475,
                    52.65851
                ]
            },
            "properties": {
                "isced:level": "3",
                "ref:rspo": 126916,
                "official_name": "Mogile\u0144ska Szko\u0142a Realna Liceum Og\u00f3lnokszta\u0142c\u0105ce dla Doros\u0142ych",
                "name": "Mogile\u0144ska Szko\u0142a Realna Liceum Og\u00f3lnokszta\u0142c\u0105ce dla Doros\u0142ych",
                "addr:postcode": "88-300",
                "addr:city": "Mogilno",
                "addr:street": "Dworcowa",
                "addr:housenumber": "9",
                "addr:city:simc": 929428,
                "addr:street:sym_ul": 4434,
                "phone": "+48 523151857",
                "email": "zbyszekgrzechowski@wp.pl",
                "ref:regon": "341345752",
                "operator": "Spo\u0142eczne Towarzystwo Edukacyjne",
                "operator:type": "ngo",
                "amenity": "school"
            }
        },
        {
            "id": 58372,
            "type": "Feature",
            "geometry": {
                "type": "Point",
                "coordinates": [
                    17.9475,
                    52.658480000000004
                ]
            },
            "properties": {
                "isced:level": "3",
                "ref:rspo": 58372,
                "official_name": "Liceum Og\u00f3lnokszta\u0142c\u0105ce w Mogilnie",
                "name": "Liceum Og\u00f3lnokszta\u0142c\u0105ce w Mogilnie",
                "addr:postcode": "88-300",
                "addr:city": "Mogilno",
                "addr:street": "Dworcowa",
                "addr:housenumber": "9",
                "addr:city:simc": 929428,
                "addr:street:sym_ul": 4434,
                "phone": "+48 523152664",
                "email": "zsmogilno@wp.pl",
                "website": "http:\/\/zs-mogilno.pl",
                "ref:regon": "093033174",
                "operator": "Powiat Mogile\u0144ski",
                "operator:type": "government",
                "amenity": "school",
                "note": "Parent RSPO: 34209"
            }
        },
        {
            "id": 63496,
            "type": "Feature",
            "geometry": {
                "type": "Point",
                "coordinates": [
                    17.9475,
                    52.65845
                ]
            },
            "properties": {
                "isced:level": "3",
                "ref:rspo": 63496,
                "official_name": "Technikum w Mogilnie",
                "name": "Technikum w Mogilnie",
                "addr:postcode": "88-300",
                "addr:city": "Mogilno",
                "addr:street": "Dworcowa",
                "addr:housenumber": "9",
                "addr:city:simc": 929428,
                "addr:street:sym_ul": 4434,
                "phone": "+48 523152664",
                "email": "zsmogilno@wp.pl",
                "website": "http:\/\/zs-mogilno.pl",
                "ref:regon": "093033168",
                "operator": "Powiat Mogile\u0144ski",
                "operator:type": "government",
                "amenity": "school",
                "note": "Parent RSPO: 34209"
            }
        },
        {
            "id": 64384,
            "type": "Feature",
            "geometry": {
                "type": "Point",
                "coordinates": [
                    17.9475,
                    52.65842
                ]
            },
            "properties": {
                "isced:level": "3",
                "ref:rspo": 64384,
                "official_name": "Bran\u017cowa Szko\u0142a I Stopnia w Mogilnie",
                "name": "Bran\u017cowa Szko\u0142a I Stopnia w Mogilnie",
                "addr:postcode": "88-300",
                "addr:city": "Mogilno",
                "addr:street": "Dworcowa",
                "addr:housenumber": "9",
                "addr:city:simc": 929428,
                "addr:street:sym_ul": 4434,
                "phone": "+48 523152664",
                "email": "zsmogilno@wp.pl",
                "website": "http:\/\/zs-mogilno.pl",
                "ref:regon": "093033180",
                "operator": "Powiat Mogile\u0144ski",
                "operator:type": "government",
                "amenity": "school",
                "note": "Parent RSPO: 34209"
            }
        },
        {
            "id": 130516,
            "type": "Feature",
            "geometry": {
                "type": "Point",
                "coordinates": [
                    17.9475,
                    52.658390000000004
                ]
            },
            "properties": {
                "isced:level": "4",
                "ref:rspo": 130516,
                "official_name": "Policealna Szko\u0142a w Mogilnie",
                "name": "Policealna Szko\u0142a w Mogilnie",
                "addr:postcode": "88-300",
                "addr:city": "Mogilno",
                "addr:street": "Dworcowa",
                "addr:housenumber": "9",
                "addr:city:simc": 929428,
                "addr:street:sym_ul": 4434,
                "phone": "+48 523152664",
                "email": "zsmogilno@wp.pl",
                "website": "http:\/\/zs-mogilno.pl",
                "ref:regon": "364137004",
                "operator": "Powiat Mogile\u0144ski",
                "operator:type": "government",
                "amenity": "college",
                "note": "Parent RSPO: 34209"
            }
        },
        {
            "id": 24129,
            "type": "Feature",
            "geometry": {
                "type": "Point",
                "coordinates": [
                    17.95457,
                    52.65937
                ]
            },
            "properties": {
                "ref:rspo": 24129,
                "official_name": "Przedszkole Nr 1 im. Janusza Korczaka w Mogilnie",
                "name": "Przedszkole Nr 1",
                "addr:postcode": "88-300",
                "addr:city": "Mogilno",
                "addr:street": "Janusza Korczaka",
                "addr:housenumber": "1",
                "addr:city:simc": 929428,
                "addr:street:sym_ul": 9329,
                "phone": "+48 523152657",
                "email": "p1mogilno@vp.pl",
                "ref:regon": "093120128",
                "operator": "Gmina Mogilno",
                "operator:type": "government",
                "amenity": "kindergarten"
            }
        },
        {
            "id": 10769,
            "type": "Feature",
            "geometry": {
                "type": "Point",
                "coordinates": [
                    17.9548,
                    52.66029
                ]
            },
            "properties": {
                "isced:level": "1;2",
                "ref:rspo": 10769,
                "official_name": "Szko\u0142a Podstawowa Nr 3 im. Miko\u0142aja Kopernika w Mogilnie",
                "name": "Szko\u0142a Podstawowa Nr 3",
                "addr:postcode": "88-300",
                "addr:city": "Mogilno",
                "addr:street": "Marsza\u0142ka J\u00f3zefa Pi\u0142sudskiego",
                "addr:housenumber": "16",
                "addr:city:simc": 929428,
                "addr:street:sym_ul": 16269,
                "phone": "+48 519351384",
                "email": "sp3mogilno@poczta.onet.pl",
                "ref:regon": "000671102",
                "operator": "Gmina Mogilno",
                "operator:type": "government",
                "amenity": "school"
            }
        },
        {
            "id": 7064,
            "type": "Feature",
            "geometry": {
                "type": "Point",
                "coordinates": [
                    17.9545,
                    52.6609691
                ]
            },
            "properties": {
                "ref:rspo": 7064,
                "official_name": "Zesp\u00f3\u0142 Plac\u00f3wek Specjalnych w Szerzawach",
                "name": "Zesp\u00f3\u0142 Plac\u00f3wek Specjalnych w Szerzawach",
                "addr:postcode": "88-300",
                "addr:place": "Szerzawy",
                "addr:housenumber": "2",
                "addr:city:simc": 91801,
                "phone": "+48 523157026",
                "email": "zpsszerzawy@wp.pl",
                "website": "http:\/\/zpsszerzawy.pl",
                "ref:regon": "340546572",
                "ref:vatin": "PL5571673597",
                "operator": "Powiat Mogile\u0144ski",
                "operator:type": "government",
                "landuse": "education",
                "fixme": "amenity=school, amenity=college albo landuse=education w zale\u017cno\u015bci od tego, jakie plac\u00f3wki wchodz\u0105 w sk\u0142ad zespo\u0142u. Sprawd\u017a, kiedy stosowa\u0107 amenity=* a kiedy landuse=education.",
                "note": "Children RSPO: 7019;7607;77425"
            }
        },
        {
            "id": 266301,
            "type": "Feature",
            "geometry": {
                "type": "Point",
                "coordinates": [
                    17.9545,
                    52.6609391
                ]
            },
            "properties": {
                "isced:level": "1;2",
                "ref:rspo": 266301,
                "official_name": "Szko\u0142a Podstawowa Specjalna Nr 2 w Szerzawach",
                "name": "Szko\u0142a Podstawowa Specjalna Nr 2 w Szerzawach",
                "addr:postcode": "88-300",
                "addr:place": "Szerzawy",
                "addr:housenumber": "2",
                "addr:city:simc": 91801,
                "phone": "+48 523157026",
                "email": "norbert_woda@interia.pl",
                "ref:regon": "369403893",
                "operator": "Powiat Mogile\u0144ski",
                "operator:type": "government",
                "amenity": "school",
                "note": "Parent RSPO: 7019"
            }
        },
        {
            "id": 7019,
            "type": "Feature",
            "geometry": {
                "type": "Point",
                "coordinates": [
                    17.9545,
                    52.660909100000005
                ]
            },
            "properties": {
                "ref:rspo": 7019,
                "official_name": "M\u0142odzie\u017cowy O\u015brodek Socjoterapii w Szerzawach",
                "name": "M\u0142odzie\u017cowy O\u015brodek Socjoterapii w Szerzawach",
                "addr:postcode": "88-300",
                "addr:place": "Szerzawy",
                "addr:housenumber": "2",
                "addr:city:simc": 91801,
                "phone": "+48 523157026",
                "email": "norbert_woda@interia.pl",
                "ref:regon": "340546603",
                "operator": "Powiat Mogile\u0144ski",
                "operator:type": "government",
                "fixme": "amenity=social_facility + social_facility=group_home + social_facility:for=juvenile",
                "note": "Children RSPO: 266301Parent RSPO: 7064"
            }
        },
        {
            "id": 7607,
            "type": "Feature",
            "geometry": {
                "type": "Point",
                "coordinates": [
                    17.9545,
                    52.6608791
                ]
            },
            "properties": {
                "ref:rspo": 7607,
                "official_name": "Specjalny O\u015brodek Wychowawczy",
                "name": "Specjalny O\u015brodek Wychowawczy",
                "addr:postcode": "88-300",
                "addr:place": "Szerzawy",
                "addr:housenumber": "2",
                "addr:city:simc": 91801,
                "phone": "+48 523157026",
                "email": "norbert_woda@interia.pl",
                "ref:regon": "341321384",
                "operator": "Powiat Mogile\u0144ski",
                "operator:type": "government",
                "amenity": "social_facility",
                "social_facility": "group_home",
                "social_facility:for": "child;juvenile",
                "note": "Parent RSPO: 7064"
            }
        },
        {
            "id": 77425,
            "type": "Feature",
            "geometry": {
                "type": "Point",
                "coordinates": [
                    17.9545,
                    52.6608491
                ]
            },
            "properties": {
                "ref:rspo": 77425,
                "official_name": "Specjalny O\u015brodek Szkolno-Wychowawczy dla Dzieci I M\u0142odzie\u017cy Upo\u015bledzonej Umys\u0142owo im. J.korczaka w Szerzawach K\/Mogilna",
                "name": "Specjalny O\u015brodek Szkolno-Wychowawczy dla Dzieci I M\u0142odzie\u017cy Upo\u015bledzonej Umys\u0142owo",
                "addr:postcode": "88-300",
                "addr:place": "Szerzawy",
                "addr:housenumber": "2",
                "addr:city:simc": 91801,
                "phone": "+48 523157026",
                "email": "norbert_woda@interia.pl",
                "ref:regon": "000198539",
                "operator": "Powiat Mogile\u0144ski",
                "operator:type": "government",
                "amenity": "school",
                "note": "Children RSPO: 83477;83480;83482Parent RSPO: 7064"
            }
        },
        {
            "id": 83477,
            "type": "Feature",
            "geometry": {
                "type": "Point",
                "coordinates": [
                    17.9545,
                    52.660819100000005
                ]
            },
            "properties": {
                "isced:level": "1;2",
                "ref:rspo": 83477,
                "official_name": "Szko\u0142a Podstawowa Specjalna Nr 1 w Szerzawach",
                "name": "Szko\u0142a Podstawowa Specjalna Nr 1 w Szerzawach",
                "addr:postcode": "88-300",
                "addr:place": "Szerzawy",
                "addr:housenumber": "2",
                "addr:city:simc": 91801,
                "phone": "+48 523157026",
                "email": "norbert_woda@interia.pl",
                "ref:regon": "092574382",
                "operator": "Powiat Mogile\u0144ski",
                "operator:type": "government",
                "amenity": "school",
                "note": "Parent RSPO: 77425"
            }
        },
        {
            "id": 83480,
            "type": "Feature",
            "geometry": {
                "type": "Point",
                "coordinates": [
                    17.9545,
                    52.6607891
                ]
            },
            "properties": {
                "isced:level": "3",
                "ref:rspo": 83480,
                "official_name": "Specjalna Bran\u017cowa Szko\u0142a I Stopnia w Szerzawach",
                "name": "Specjalna Bran\u017cowa Szko\u0142a I Stopnia w Szerzawach",
                "addr:postcode": "88-300",
                "addr:place": "Szerzawy",
                "addr:housenumber": "2",
                "addr:city:simc": 91801,
                "phone": "+48 523157026",
                "email": "norbert_woda@interia.pl",
                "ref:regon": "092574407",
                "operator": "Powiat Mogile\u0144ski",
                "operator:type": "government",
                "amenity": "school",
                "note": "Parent RSPO: 77425"
            }
        },
        {
            "id": 83482,
            "type": "Feature",
            "geometry": {
                "type": "Point",
                "coordinates": [
                    17.9545,
                    52.6607591
                ]
            },
            "properties": {
                "ref:rspo": 83482,
                "official_name": "Trzyletnia Szko\u0142a Specjalna Przysposabiaj\u0105ca Do Pracy",
                "name": "Trzyletnia Szko\u0142a Specjalna Przysposabiaj\u0105ca Do Pracy",
                "addr:postcode": "88-300",
                "addr:place": "Szerzawy",
                "addr:housenumber": "2",
                "addr:city:simc": 91801,
                "phone": "+48 523157026",
                "email": "norbert_woda@interia.pl",
                "ref:regon": "093208917",
                "operator": "Powiat Mogile\u0144ski",
                "operator:type": "government",
                "amenity": "school",
                "note": "Parent RSPO: 77425"
            }
        },
        {
            "id": 23431,
            "type": "Feature",
            "geometry": {
                "type": "Point",
                "coordinates": [
                    17.94172,
                    52.66589
                ]
            },
            "properties": {
                "ref:rspo": 23431,
                "official_name": "Przedszkole Nr 3 w Mogilnie",
                "name": "Przedszkole Nr 3 w Mogilnie",
                "addr:postcode": "88-300",
                "addr:city": "Mogilno",
                "addr:street": "Marii Konopnickiej",
                "addr:housenumber": "15a",
                "addr:city:simc": 929428,
                "addr:street:sym_ul": 9186,
                "email": "p3.mogilno@gmail.com",
                "website": "http:\/\/www.przedszkole3mogilno.edupage.org",
                "ref:regon": "093120105",
                "operator": "Gmina Mogilno",
                "operator:type": "government",
                "amenity": "kindergarten"
            }
        },
        {
            "id": 278676,
            "type": "Feature",
            "geometry": {
                "type": "Point",
                "coordinates": [
                    17.94293,
                    52.66597
                ]
            },
            "properties": {
                "ref:rspo": 278676,
                "official_name": "Niepubliczne Przedszkole Terapeutyczne \"Niebieska Przysta\u0144\"",
                "name": "Niepubliczne Przedszkole Terapeutyczne \"Niebieska Przysta\u0144\"",
                "addr:postcode": "88-300",
                "addr:city": "Mogilno",
                "addr:street": "Marii Konopnickiej",
                "addr:housenumber": "20b",
                "addr:city:simc": 929428,
                "addr:street:sym_ul": 9186,
                "phone": "+48 523157267",
                "email": "jacekkrasny@tlen.pl",
                "ref:regon": "520044265",
                "operator": "Centrum Szkole\u0144 ,,Alternatywa\" Jacek Kra\u015bny",
                "operator:type": "consortium",
                "amenity": "kindergarten"
            }
        },
        {
            "id": 23427,
            "type": "Feature",
            "geometry": {
                "type": "Point",
                "coordinates": [
                    18.1008171,
                    52.6756509
                ]
            },
            "properties": {
                "isced:level": "1;2",
                "ref:rspo": 23427,
                "official_name": "Szko\u0142a Podstawowa im. Ofiar Katynia w Strzelcach",
                "name": "Szko\u0142a Podstawowa",
                "addr:postcode": "88-300",
                "addr:place": "Strzelce",
                "addr:housenumber": "15",
                "addr:city:simc": 91758,
                "phone": "+48 523070577",
                "email": "sps1@wp.pl",
                "website": "http:\/\/www.spstrzelce.edupage.org",
                "ref:regon": "001155970",
                "operator": "Gmina Mogilno",
                "operator:type": "government",
                "amenity": "school"
            }
        },
        {
            "id": 23428,
            "type": "Feature",
            "geometry": {
                "type": "Point",
                "coordinates": [
                    17.965113,
                    52.699511
                ]
            },
            "properties": {
                "isced:level": "1;2",
                "ref:rspo": 23428,
                "official_name": "Szko\u0142a Podstawowa im. Adama Mickiewicza we Wszedniu",
                "name": "Szko\u0142a Podstawowa",
                "addr:postcode": "88-300",
                "addr:place": "Wszedzie\u0144",
                "addr:housenumber": "7",
                "addr:city:simc": 91913,
                "phone": "+48 523180004",
                "email": "spwszedzien@gmail.com",
                "website": "http:\/\/spwszedzien.pl",
                "ref:regon": "001155986",
                "operator": "Gmina Mogilno",
                "operator:type": "government",
                "amenity": "school"
            }
        }
    ]
}