{
    "type": "FeatureCollection",
    "features": [
        {
            "id": 10040,
            "type": "Feature",
            "geometry": {
                "type": "Point",
                "coordinates": [
                    20.9978789,
                    50.804381
                ]
            },
            "properties": {
                "isced:level": "1;2",
                "ref:rspo": 10040,
                "official_name": "Szko\u0142a Podstawowa w Lechowie",
                "name": "Szko\u0142a Podstawowa w Lechowie",
                "addr:country": "PL",
                "addr:postcode": "26-004",
                "addr:place": "Lech\u00f3w",
                "addr:housenumber": "66",
                "addr:teryt:sym_ul": 227703,
                "contact:phone": "+48 413025369",
                "contact:email": "lechow@gazeta.pl",
                "contact:website": "http:\/\/www.lechow.pl",
                "ref:regon": "001174156",
                "ref:vatin": "PL6572332611",
                "operator": "Gmina Bieliny",
                "operator:type": "government",
                "amenity": "school"
            }
        },
        {
            "id": 123996,
            "type": "Feature",
            "geometry": {
                "type": "Point",
                "coordinates": [
                    20.9978789,
                    50.804351
                ]
            },
            "properties": {
                "ref:rspo": 123996,
                "official_name": "Punkt Przedszkolny w Szkole Podstawowej w Lechowie",
                "name": "Punkt Przedszkolny w Szkole Podstawowej w Lechowie",
                "addr:country": "PL",
                "addr:postcode": "26-004",
                "addr:place": "Lech\u00f3w",
                "addr:housenumber": "66",
                "addr:teryt:sym_ul": 227703,
                "contact:phone": "+48 413025369",
                "contact:email": "lechow@gazeta.pl",
                "ref:regon": "260787458",
                "operator": "Gmina Bieliny",
                "operator:type": "government",
                "amenity": "kindergarten"
            }
        },
        {
            "id": 10119,
            "type": "Feature",
            "geometry": {
                "type": "Point",
                "coordinates": [
                    20.9636219,
                    50.808026
                ]
            },
            "properties": {
                "isced:level": "1;2",
                "ref:rspo": 10119,
                "official_name": "Szko\u0142a Podstawowa w Makoszynie",
                "name": "Szko\u0142a Podstawowa w Makoszynie",
                "addr:country": "PL",
                "addr:postcode": "26-004",
                "addr:place": "Makoszyn",
                "addr:housenumber": "100A",
                "addr:teryt:sym_ul": 227896,
                "contact:phone": "+48 413025368",
                "contact:email": "spmakosz@tlen.pl",
                "ref:regon": "001174162",
                "ref:vatin": "PL6572332628",
                "operator": "Gmina Bieliny",
                "operator:type": "government",
                "amenity": "school"
            }
        },
        {
            "id": 123997,
            "type": "Feature",
            "geometry": {
                "type": "Point",
                "coordinates": [
                    20.9636219,
                    50.807995999999996
                ]
            },
            "properties": {
                "ref:rspo": 123997,
                "official_name": "Punkt Przedszkolny w Szkole Podstawowej w Makoszynie",
                "name": "Punkt Przedszkolny w Szkole Podstawowej w Makoszynie",
                "addr:country": "PL",
                "addr:postcode": "26-004",
                "addr:place": "Makoszyn",
                "addr:housenumber": "100A",
                "addr:teryt:sym_ul": 227896,
                "contact:phone": "+48 413025368",
                "contact:email": "spmakosz@tlen.pl",
                "ref:regon": "260787464",
                "operator": "Gmina Bieliny",
                "operator:type": "government",
                "amenity": "kindergarten"
            }
        },
        {
            "id": 9376,
            "type": "Feature",
            "geometry": {
                "type": "Point",
                "coordinates": [
                    20.93307,
                    50.817009
                ]
            },
            "properties": {
                "isced:level": "1;2",
                "ref:rspo": 9376,
                "official_name": "Szko\u0142a Podstawowa w Belnie",
                "name": "Szko\u0142a Podstawowa w Belnie",
                "addr:country": "PL",
                "addr:postcode": "26-004",
                "addr:place": "Belno",
                "addr:housenumber": "25",
                "addr:teryt:sym_ul": 227554,
                "contact:phone": "+48 413025370",
                "contact:email": "szkola_belno@poczta.onet.pl",
                "contact:website": "http:\/\/www.spbelno.edupage.org",
                "ref:regon": "001174179",
                "ref:vatin": "PL6572332640",
                "operator": "Gmina Bieliny",
                "operator:type": "government",
                "amenity": "school"
            }
        },
        {
            "id": 123992,
            "type": "Feature",
            "geometry": {
                "type": "Point",
                "coordinates": [
                    20.93307,
                    50.816978999999996
                ]
            },
            "properties": {
                "ref:rspo": 123992,
                "official_name": "Punkt Przedszkolny w Szkole Podstawowej w Belnie",
                "name": "Punkt Przedszkolny w Szkole Podstawowej w Belnie",
                "addr:country": "PL",
                "addr:postcode": "26-004",
                "addr:place": "Belno",
                "addr:housenumber": "25",
                "addr:teryt:sym_ul": 227554,
                "contact:phone": "+48 413025370",
                "contact:email": "szkola_belno@poczta.onet.pl",
                "ref:regon": "260787412",
                "operator": "Gmina Bieliny",
                "operator:type": "government",
                "amenity": "kindergarten"
            }
        },
        {
            "id": 10070,
            "type": "Feature",
            "geometry": {
                "type": "Point",
                "coordinates": [
                    20.9814099,
                    50.838902
                ]
            },
            "properties": {
                "isced:level": "1;2",
                "ref:rspo": 10070,
                "official_name": "Szko\u0142a Podstawowa w Hucie Nowej",
                "name": "Szko\u0142a Podstawowa w Hucie Nowej",
                "addr:country": "PL",
                "addr:postcode": "26-004",
                "addr:place": "Huta Nowa",
                "addr:housenumber": "48",
                "addr:teryt:sym_ul": 228016,
                "contact:phone": "+48 413025069",
                "contact:email": "sphn@wp.pl",
                "contact:website": "https:\/\/sphutanowa.com",
                "ref:regon": "001174239",
                "ref:vatin": "PL6572332634",
                "operator": "Gmina Bieliny",
                "operator:type": "government",
                "amenity": "school"
            }
        },
        {
            "id": 123993,
            "type": "Feature",
            "geometry": {
                "type": "Point",
                "coordinates": [
                    20.9814099,
                    50.838871999999995
                ]
            },
            "properties": {
                "ref:rspo": 123993,
                "official_name": "Punkt Przedszkolny w Szkole Podstawowej w Hucie Nowej",
                "name": "Punkt Przedszkolny w Szkole Podstawowej w Hucie Nowej",
                "addr:country": "PL",
                "addr:postcode": "26-004",
                "addr:place": "Huta Nowa",
                "addr:housenumber": "48",
                "addr:teryt:sym_ul": 228016,
                "contact:phone": "+48 413025069",
                "contact:email": "sphn@wp.pl",
                "ref:regon": "260787429",
                "operator": "Gmina Bieliny",
                "operator:type": "government",
                "amenity": "kindergarten"
            }
        },
        {
            "id": 30791,
            "type": "Feature",
            "geometry": {
                "type": "Point",
                "coordinates": [
                    20.94126,
                    50.84684
                ]
            },
            "properties": {
                "isced:level": "1;2",
                "ref:rspo": 30791,
                "official_name": "Szko\u0142a Podstawowa im. Jana Paw\u0142a II w Bielinach",
                "name": "Szko\u0142a Podstawowa",
                "addr:country": "PL",
                "addr:postcode": "26-004",
                "addr:city": "Bieliny",
                "addr:street": "ul. Partyzant\u00f3w",
                "addr:housenumber": "17",
                "addr:teryt:simc": 15733,
                "addr:teryt:sym_ul": 991278,
                "contact:phone": "+48 413025060",
                "contact:email": "gimbieliny@wp.pl",
                "contact:website": "http:\/\/www.sp.bieliny.pl",
                "ref:regon": "000572311",
                "ref:vatin": "PL6572910373",
                "operator": "Gmina Bieliny",
                "operator:type": "government",
                "amenity": "school"
            }
        },
        {
            "id": 123990,
            "type": "Feature",
            "geometry": {
                "type": "Point",
                "coordinates": [
                    20.94126,
                    50.84681
                ]
            },
            "properties": {
                "ref:rspo": 123990,
                "official_name": "Punkt Przedszkolny w Szkole Podstawowej im. Jana Paw\u0142a II w Bielinach",
                "name": "Punkt Przedszkolny w Szkole Podstawowej",
                "addr:country": "PL",
                "addr:postcode": "26-004",
                "addr:city": "Bieliny",
                "addr:street": "ul. Partyzant\u00f3w",
                "addr:housenumber": "17",
                "addr:teryt:simc": 15733,
                "addr:teryt:sym_ul": 991278,
                "contact:phone": "+48 413025060",
                "contact:email": "gimbieliny@wp.pl",
                "ref:regon": "260787406",
                "operator": "Gmina Bieliny",
                "operator:type": "government",
                "amenity": "kindergarten"
            }
        },
        {
            "id": 118496,
            "type": "Feature",
            "geometry": {
                "type": "Point",
                "coordinates": [
                    21.0083689,
                    50.8480769
                ]
            },
            "properties": {
                "ref:rspo": 118496,
                "official_name": "Zesp\u00f3\u0142 Plac\u00f3wek O\u015bwiatowych w Hucie Starej",
                "name": "Zesp\u00f3\u0142 Plac\u00f3wek O\u015bwiatowych w Hucie Starej",
                "addr:country": "PL",
                "addr:postcode": "26-004",
                "addr:place": "Huta Stara",
                "addr:housenumber": "25",
                "addr:teryt:sym_ul": 228105,
                "contact:phone": "+48 413025086",
                "contact:email": "sphutastara@interia.pl",
                "contact:website": "http:\/\/www.sphutastara.szkolnastrona.pl",
                "ref:regon": "260712035",
                "operator": "Gmina Bieliny",
                "operator:type": "government",
                "landuse": "education",
                "fixme": "amenity=school, amenity=college albo landuse=education w zale\u017cno\u015bci od tego, jakie plac\u00f3wki wchodz\u0105 w sk\u0142ad zespo\u0142u. Sprawd\u017a, kiedy stosowa\u0107 amenity=* a kiedy landuse=education.",
                "note": "Children RSPO: 10159;114880"
            }
        },
        {
            "id": 131917,
            "type": "Feature",
            "geometry": {
                "type": "Point",
                "coordinates": [
                    21.0083689,
                    50.8480469
                ]
            },
            "properties": {
                "ref:rspo": 131917,
                "official_name": "Punkt Przedszkolny w Zespole Plac\u00f3wek O\u015bwiatowych w Hucie Starej",
                "name": "Punkt Przedszkolny w Zespole Plac\u00f3wek O\u015bwiatowych w Hucie Starej",
                "addr:country": "PL",
                "addr:postcode": "26-004",
                "addr:place": "Huta Stara",
                "addr:housenumber": "25",
                "addr:teryt:sym_ul": 228105,
                "contact:phone": "+48 413025086",
                "contact:email": "sphutastara@interia.pl",
                "ref:regon": "365377584",
                "operator": "Gmina Bieliny",
                "operator:type": "government",
                "amenity": "kindergarten"
            }
        },
        {
            "id": 10159,
            "type": "Feature",
            "geometry": {
                "type": "Point",
                "coordinates": [
                    21.0083689,
                    50.848016900000005
                ]
            },
            "properties": {
                "isced:level": "1;2",
                "ref:rspo": 10159,
                "official_name": "Szko\u0142a Podstawowa w Hucie Starej",
                "name": "Szko\u0142a Podstawowa w Hucie Starej",
                "addr:country": "PL",
                "addr:postcode": "26-004",
                "addr:place": "Huta Stara",
                "addr:housenumber": "25",
                "addr:teryt:sym_ul": 228105,
                "contact:phone": "+48 413025086",
                "contact:email": "sphutastara@interia.pl",
                "contact:website": "http:\/\/www.sphutastara.szkolnastrona.pl",
                "ref:regon": "001174191",
                "ref:vatin": "PL6572332686",
                "operator": "Gmina Bieliny",
                "operator:type": "government",
                "amenity": "school",
                "note": "Parent RSPO: 118496"
            }
        },
        {
            "id": 114880,
            "type": "Feature",
            "geometry": {
                "type": "Point",
                "coordinates": [
                    21.0083689,
                    50.8479869
                ]
            },
            "properties": {
                "ref:rspo": 114880,
                "official_name": "Szkolne Schronisko M\u0142odzie\u017cowe w Hucie Starej",
                "name": "Szkolne Schronisko M\u0142odzie\u017cowe w Hucie Starej",
                "addr:country": "PL",
                "addr:postcode": "26-004",
                "addr:place": "Huta Stara",
                "addr:housenumber": "25",
                "addr:teryt:sym_ul": 228105,
                "contact:phone": "+48 413025086",
                "contact:email": "sphutastara@interia.pl",
                "contact:website": "http:\/\/www.sphutastara@interia.pl",
                "ref:regon": "260699292",
                "ref:vatin": "PL6572910574",
                "operator": "Gmina Bieliny",
                "operator:type": "government",
                "tourism": "hostel",
                "note": "Parent RSPO: 118496"
            }
        },
        {
            "id": 10154,
            "type": "Feature",
            "geometry": {
                "type": "Point",
                "coordinates": [
                    20.9882129,
                    50.8580229
                ]
            },
            "properties": {
                "isced:level": "1;2",
                "ref:rspo": 10154,
                "official_name": "Szko\u0142a Podstawowa w Hucie Pod\u0142ysicy",
                "name": "Szko\u0142a Podstawowa w Hucie Pod\u0142ysicy",
                "addr:country": "PL",
                "addr:postcode": "26-004",
                "addr:place": "Huta Pod\u0142ysica",
                "addr:housenumber": "58A",
                "addr:teryt:sym_ul": 228074,
                "contact:phone": "+48 413025093",
                "contact:email": "sphpodlysica@gazeta.pl",
                "contact:website": "http:\/\/sphpodlysica.szkolna.net\/",
                "ref:regon": "001174185",
                "ref:vatin": "PL6572332663",
                "operator": "Gmina Bieliny",
                "operator:type": "government",
                "amenity": "school"
            }
        },
        {
            "id": 123995,
            "type": "Feature",
            "geometry": {
                "type": "Point",
                "coordinates": [
                    20.9884,
                    50.8585909
                ]
            },
            "properties": {
                "ref:rspo": 123995,
                "official_name": "Punkt Przedszkolny w Szkole Podstawowej w Hucie Pod\u0142ysicy",
                "name": "Punkt Przedszkolny w Szkole Podstawowej w Hucie Pod\u0142ysicy",
                "addr:country": "PL",
                "addr:postcode": "26-004",
                "addr:place": "Huta Pod\u0142ysica",
                "addr:housenumber": "58",
                "addr:teryt:sym_ul": 228074,
                "contact:phone": "+48 413025093",
                "contact:email": "sphpodlysica@gazeta.pl",
                "ref:regon": "260787441",
                "operator": "Gmina Bieliny",
                "operator:type": "government",
                "amenity": "kindergarten"
            }
        },
        {
            "id": 10134,
            "type": "Feature",
            "geometry": {
                "type": "Point",
                "coordinates": [
                    20.9049729,
                    50.863966
                ]
            },
            "properties": {
                "isced:level": "1;2",
                "ref:rspo": 10134,
                "official_name": "Szko\u0142a Podstawowa w Por\u0105bkach",
                "name": "Szko\u0142a Podstawowa w Por\u0105bkach",
                "addr:country": "PL",
                "addr:postcode": "26-004",
                "addr:place": "Por\u0105bki",
                "addr:housenumber": "1",
                "addr:teryt:sym_ul": 228097,
                "contact:phone": "+48 413025011",
                "contact:email": "spporobki@gazeta.pl",
                "ref:regon": "001174200",
                "ref:vatin": "PL6572332657",
                "operator": "Gmina Bieliny",
                "operator:type": "government",
                "amenity": "school"
            }
        },
        {
            "id": 123998,
            "type": "Feature",
            "geometry": {
                "type": "Point",
                "coordinates": [
                    20.9049729,
                    50.863935999999995
                ]
            },
            "properties": {
                "ref:rspo": 123998,
                "official_name": "Punkt Przedszkolny w Szkole Podstawowej w Por\u0105bkach",
                "name": "Punkt Przedszkolny w Szkole Podstawowej w Por\u0105bkach",
                "addr:country": "PL",
                "addr:postcode": "26-004",
                "addr:place": "Por\u0105bki",
                "addr:housenumber": "1",
                "addr:teryt:sym_ul": 228097,
                "contact:phone": "+48 413025011",
                "contact:email": "spporobki@gazeta.pl",
                "ref:regon": "260787470",
                "operator": "Gmina Bieliny",
                "operator:type": "government",
                "amenity": "kindergarten"
            }
        }
    ]
}