{"type":"FeatureCollection","features":[{"id":17772,"type":"Feature","geometry":{"type":"Point","coordinates":[20.6845578,50.9414493]},"properties":{"ref:rspo":17772,"official_name":"Niepubliczne Przedszkole Caritas w Kajetanowie","name":"Niepubliczne Przedszkole Caritas w Kajetanowie","addr:country":"PL","addr:postcode":"26-050","addr:place":"Kajetan\u00f3w","addr:housenumber":"126b","addr:teryt:sym_ul":279870,"contact:phone":"+48 413433374","contact:email":"przedszkole.kajetanow@onet.pl","ref:regon":"260634660","operator":"Caritas Diecezji Kieleckiej","operator:type":"religious","amenity":"kindergarten"}},{"id":47083,"type":"Feature","geometry":{"type":"Point","coordinates":[20.6904621,50.9500678]},"properties":{"isced:level":"1;2","ref:rspo":47083,"official_name":"Szko\u0142a Podstawowa im. Armii Krajowej w Kajetanowie","name":"Szko\u0142a Podstawowa","addr:country":"PL","addr:postcode":"26-050","addr:place":"Zab\u0142ocie","addr:housenumber":"1","addr:teryt:sym_ul":280152,"contact:phone":"+48 413011513","contact:email":"spkaj@o2.pl","contact:website":"http:\/\/www.kajetanow.edupage.org","ref:regon":"001218416","operator":"Gmina Zagna\u0144sk","operator:type":"government","amenity":"school"}},{"id":7642,"type":"Feature","geometry":{"type":"Point","coordinates":[20.58639,50.96493]},"properties":{"ref:rspo":7642,"official_name":"Zesp\u00f3\u0142 Szko\u0142y Podstawowej I Przedszkola w Tumlinie","name":"Zesp\u00f3\u0142 Szko\u0142y Podstawowej I Przedszkola w Tumlinie","addr:country":"PL","addr:postcode":"26-050","addr:city":"Tumlin-W\u0119gle","addr:street":"ul. Grodowa","addr:housenumber":"2","addr:teryt:simc":6152,"addr:teryt:sym_ul":280100,"contact:phone":"+48 413003414","contact:email":"szkola@szkolatumlin.pl","contact:website":"http:\/\/www.szkolatumlin.pl","ref:regon":"260019156","ref:vatin":"PL9591805093","operator":"Gmina Zagna\u0144sk","operator:type":"government","landuse":"education","fixme":"amenity=school, amenity=college albo landuse=education w zale\u017cno\u015bci od tego, jakie plac\u00f3wki wchodz\u0105 w sk\u0142ad zespo\u0142u. Sprawd\u017a, kiedy stosowa\u0107 amenity=* a kiedy landuse=education.","note":"Children RSPO: 47081;73539"}},{"id":47081,"type":"Feature","geometry":{"type":"Point","coordinates":[20.58639,50.9649]},"properties":{"isced:level":"1;2","ref:rspo":47081,"official_name":"Szko\u0142a Podstawowa im. Janusza Korczaka w Tumlinie","name":"Szko\u0142a Podstawowa","addr:country":"PL","addr:postcode":"26-050","addr:city":"Tumlin-W\u0119gle","addr:street":"ul. Grodowa","addr:housenumber":"2","addr:teryt:simc":6152,"addr:teryt:sym_ul":280100,"contact:phone":"+48 413003414","contact:email":"szkola@szkolatumlin.pl","contact:website":"http:\/\/szkolatumlin.pl","ref:regon":"001170589","operator":"Gmina Zagna\u0144sk","operator:type":"government","amenity":"school","note":"Parent RSPO: 7642"}},{"id":73539,"type":"Feature","geometry":{"type":"Point","coordinates":[20.58639,50.964870000000005]},"properties":{"ref:rspo":73539,"official_name":"Przedszkole im. Janusza Korczaka w Tumlinie","name":"Przedszkole","addr:country":"PL","addr:postcode":"26-050","addr:city":"Tumlin-W\u0119gle","addr:street":"ul. Grodowa","addr:housenumber":"2","addr:teryt:simc":6152,"addr:teryt:sym_ul":280100,"contact:phone":"+48 413003414","contact:email":"szkola@szkolatumlin.pl","contact:website":"http:\/\/szkolatumlin.pl","ref:regon":"290013526","operator":"Gmina Zagna\u0144sk","operator:type":"government","amenity":"kindergarten","note":"Parent RSPO: 7642"}},{"id":7640,"type":"Feature","geometry":{"type":"Point","coordinates":[20.6782419,50.9694518]},"properties":{"isced:level":"1;2","ref:rspo":7640,"official_name":"Szko\u0142a Podstawowa Nr 1 im. Nauczycieli Tajnego Nauczania w Zagna\u0144sku","name":"Szko\u0142a Podstawowa Nr 1","addr:country":"PL","addr:postcode":"26-050","addr:place":"Chrusty","addr:housenumber":"60","addr:teryt:sym_ul":280181,"contact:phone":"+48 413113003","contact:email":"spnr1wzagnansku@wp.pl","contact:website":"http:\/\/www.sp1zagnansk.edupage.org","ref:regon":"001218385","ref:vatin":"PL9591457686","operator":"Gmina Zagna\u0144sk","operator:type":"government","amenity":"school"}},{"id":120867,"type":"Feature","geometry":{"type":"Point","coordinates":[20.657065,50.9762128]},"properties":{"ref:rspo":120867,"official_name":"Niepubliczne Przedszkole \u201eKraina Tetrapoda\u201d","name":"Niepubliczne Przedszkole \u201eKraina Tetrapoda\u201d","addr:country":"PL","addr:postcode":"26-050","addr:place":"Zache\u0142mie","addr:housenumber":"1","addr:teryt:sym_ul":280169,"contact:phone":"+48 413451480","contact:email":"renata_salwa@wp.pl","ref:regon":"260731699","operator":"Stowarzyszenie W Krainie Tetrapoda","operator:type":"ngo","amenity":"kindergarten"}},{"id":7641,"type":"Feature","geometry":{"type":"Point","coordinates":[20.6668433,50.9791358]},"properties":{"ref:rspo":7641,"official_name":"Zesp\u00f3\u0142 Szko\u0142y Podstawowej Nr 2 I Przedszkola w Zagna\u0144sku","name":"Zesp\u00f3\u0142 Szko\u0142y Podstawowej Nr 2 I Przedszkola w Zagna\u0144sku","addr:country":"PL","addr:postcode":"26-050","addr:city":"Zagna\u0144sk","addr:street":"ul. Turystyczna","addr:housenumber":"59","addr:teryt:simc":23184,"addr:teryt:sym_ul":280175,"contact:phone":"+48 413113275","contact:email":"szkola@sp2zagnansk.pl","contact:website":"http:\/\/zszagnansk.edupage.org","ref:regon":"260018300","ref:vatin":"PL9591805851","operator":"Gmina Zagna\u0144sk","operator:type":"government","landuse":"education","fixme":"amenity=school, amenity=college albo landuse=education w zale\u017cno\u015bci od tego, jakie plac\u00f3wki wchodz\u0105 w sk\u0142ad zespo\u0142u. Sprawd\u017a, kiedy stosowa\u0107 amenity=* a kiedy landuse=education.","note":"Children RSPO: 47087;47089"}},{"id":47087,"type":"Feature","geometry":{"type":"Point","coordinates":[20.6668433,50.9791058]},"properties":{"ref:rspo":47087,"official_name":"Przedszkole im. Stanis\u0142awa Staszica w Zagna\u0144sku","name":"Przedszkole","addr:country":"PL","addr:postcode":"26-050","addr:city":"Zagna\u0144sk","addr:street":"ul. Turystyczna","addr:housenumber":"59","addr:teryt:simc":23184,"addr:teryt:sym_ul":280175,"contact:phone":"+48 413113275","contact:email":"szkola@sp2zagnansk.pl","contact:website":"http:\/\/www.zszagnansk.edupage.org","ref:regon":"292215234","operator":"Gmina Zagna\u0144sk","operator:type":"government","amenity":"kindergarten","note":"Parent RSPO: 7641"}},{"id":47089,"type":"Feature","geometry":{"type":"Point","coordinates":[20.6668433,50.979075800000004]},"properties":{"isced:level":"1;2","ref:rspo":47089,"official_name":"Szko\u0142a Podstawowa Nr 2 im. Stanis\u0142awa Staszica w Zagna\u0144sku","name":"Szko\u0142a Podstawowa Nr 2","addr:country":"PL","addr:postcode":"26-050","addr:city":"Zagna\u0144sk","addr:street":"ul. Turystyczna","addr:housenumber":"59","addr:teryt:simc":23184,"addr:teryt:sym_ul":280175,"contact:phone":"+48 413113275","contact:email":"szkola@sp2zagnansk.pl","contact:website":"http:\/\/www.zszagnansk.edupage.org","ref:regon":"000558587","operator":"Gmina Zagna\u0144sk","operator:type":"government","amenity":"school","note":"Parent RSPO: 7641"}},{"id":38955,"type":"Feature","geometry":{"type":"Point","coordinates":[20.6633299,50.97945]},"properties":{"ref:rspo":38955,"official_name":"Zesp\u00f3\u0142 Szk\u00f3\u0142 Le\u015bnych im.romana Gesinga w Zagna\u0144sku","name":"Zesp\u00f3\u0142 Szk\u00f3\u0142 Le\u015bnych im.romana Gesinga w Zagna\u0144sku","addr:country":"PL","addr:postcode":"26-050","addr:city":"Zagna\u0144sk","addr:street":"ul. Spacerowa","addr:housenumber":"4","addr:teryt:simc":20641,"addr:teryt:sym_ul":280175,"contact:phone":"+48 413001141","contact:email":"sekretariat@zsl-zagnansk.pl","contact:website":"http:\/\/zsl-zagnansk.pl\/","ref:regon":"292438448","ref:vatin":"PL9590830692","operator":"Ministerstwo \u015arodowiska","operator:type":"public","landuse":"education","fixme":"amenity=school, amenity=college albo landuse=education w zale\u017cno\u015bci od tego, jakie plac\u00f3wki wchodz\u0105 w sk\u0142ad zespo\u0142u. Sprawd\u017a, kiedy stosowa\u0107 amenity=* a kiedy landuse=education.","note":"Children RSPO: 56217;56218"}},{"id":56217,"type":"Feature","geometry":{"type":"Point","coordinates":[20.6633299,50.97942]},"properties":{"isced:level":"3","ref:rspo":56217,"official_name":"Bran\u017cowa Szko\u0142a I Stopnia","name":"Bran\u017cowa Szko\u0142a I Stopnia","addr:country":"PL","addr:postcode":"26-050","addr:city":"Zagna\u0144sk","addr:street":"ul. Spacerowa","addr:housenumber":"4","addr:teryt:simc":20641,"addr:teryt:sym_ul":280175,"contact:phone":"+48 413001141","contact:email":"sekretariat@zsl-zagnansk.pl","contact:website":"http:\/\/zsl-zagnansk.pl\/","ref:regon":"292438425","operator":"Ministerstwo \u015arodowiska","operator:type":"public","amenity":"school","note":"Parent RSPO: 38955"}},{"id":56218,"type":"Feature","geometry":{"type":"Point","coordinates":[20.6633299,50.97939]},"properties":{"isced:level":"3","ref:rspo":56218,"official_name":"Technikum Le\u015bne w Zagna\u0144sku","name":"Technikum Le\u015bne w Zagna\u0144sku","addr:country":"PL","addr:postcode":"26-050","addr:city":"Zagna\u0144sk","addr:street":"ul. Spacerowa","addr:housenumber":"4","addr:teryt:simc":20641,"addr:teryt:sym_ul":280175,"contact:phone":"+48 413001141","contact:email":"sekretariat@zsl-zagnansk.pl","contact:website":"http:\/\/www.zsl-zagnansk.pl","ref:regon":"292438419","operator":"Ministerstwo \u015arodowiska","operator:type":"public","amenity":"school","note":"Parent RSPO: 38955"}},{"id":11833,"type":"Feature","geometry":{"type":"Point","coordinates":[20.6172769,50.9910096]},"properties":{"ref:rspo":11833,"official_name":"Zesp\u00f3\u0142 Szko\u0142y Podstawowej I Przedszkola im. Jana Paw\u0142a II w Samsonowie","name":"Zesp\u00f3\u0142 Szko\u0142y Podstawowej I Przedszkola","addr:country":"PL","addr:postcode":"26-050","addr:place":"Samson\u00f3w","addr:housenumber":"24","addr:teryt:sym_ul":279947,"contact:phone":"+48 413003407","contact:email":"informatyka10@poczta.onet.pl","contact:website":"http:\/\/www.zssamsonow.szkolnastrona.pl","ref:regon":"260017387","ref:vatin":"PL9591805839","operator":"Gmina Zagna\u0144sk","operator:type":"government","landuse":"education","fixme":"amenity=school, amenity=college albo landuse=education w zale\u017cno\u015bci od tego, jakie plac\u00f3wki wchodz\u0105 w sk\u0142ad zespo\u0142u. Sprawd\u017a, kiedy stosowa\u0107 amenity=* a kiedy landuse=education.","note":"Children RSPO: 47082;47086"}},{"id":47082,"type":"Feature","geometry":{"type":"Point","coordinates":[20.6172769,50.990979599999996]},"properties":{"isced:level":"1;2","ref:rspo":47082,"official_name":"Szko\u0142a Podstawowa im. Jana Paw\u0142a II w Samsonowie","name":"Szko\u0142a Podstawowa","addr:country":"PL","addr:postcode":"26-050","addr:place":"Samson\u00f3w","addr:housenumber":"24","addr:teryt:sym_ul":279947,"contact:phone":"+48 413003407","contact:email":"informatyka10@poczta.onet.pl","contact:website":"http:\/\/www.zssamsonow.szkolnastrona.pl","ref:regon":"001218400","operator":"Gmina Zagna\u0144sk","operator:type":"government","amenity":"school","note":"Parent RSPO: 11833"}},{"id":47086,"type":"Feature","geometry":{"type":"Point","coordinates":[20.6172769,50.9909496]},"properties":{"ref:rspo":47086,"official_name":"Przedszkole im. Jana Paw\u0142a II w Samsonowie","name":"Przedszkole","addr:country":"PL","addr:postcode":"26-050","addr:place":"Samson\u00f3w","addr:housenumber":"24","addr:teryt:sym_ul":279947,"contact:phone":"+48 413003407","contact:email":"informatyka10@poczta.onet.pl","contact:website":"http:\/\/www.zssamsonow.szkolnastrona.pl","ref:regon":"290012840","operator":"Gmina Zagna\u0144sk","operator:type":"government","amenity":"kindergarten","note":"Parent RSPO: 11833"}}]}