{
    "type": "FeatureCollection",
    "features": [
        {
            "id": 130869,
            "type": "Feature",
            "geometry": {
                "type": "Point",
                "coordinates": [
                    20.68266,
                    50.8736
                ]
            },
            "properties": {
                "ref:rspo": 130869,
                "official_name": "Centrum Szkole\u0144 Pro Niepubliczna Plac\u00f3wka Kszta\u0142cenia Ustawicznego w Domaszowicach",
                "name": "Centrum Szkole\u0144 Pro Niepubliczna Plac\u00f3wka Kszta\u0142cenia Ustawicznego w Domaszowicach",
                "addr:country": "PL",
                "addr:postcode": "25-351",
                "addr:city": "Domaszowice",
                "addr:street": "Walerego Przyborowskiego",
                "addr:housenumber": "88",
                "addr:teryt:simc": 249917,
                "addr:teryt:sym_ul": 17863,
                "contact:phone": "+48 575760554",
                "contact:email": "biuro@pro-szkolenia.eu",
                "contact:website": "http:\/\/www.pro-szkolenia.eu",
                "ref:regon": "364637356",
                "operator": "Dariusz Janik",
                "operator:type": "private",
                "fixme": "w zale\u017cno\u015bci od przedmiotu dzia\u0142alno\u015bci (np. amenity=training + training=*, amenity=dancing_school, amenity=language_school, amenity=music_school)"
            }
        },
        {
            "id": 52663,
            "type": "Feature",
            "geometry": {
                "type": "Point",
                "coordinates": [
                    20.71606,
                    50.8835
                ]
            },
            "properties": {
                "isced:level": "1;2",
                "ref:rspo": 52663,
                "official_name": "Szko\u0142a Podstawowa w Woli Kopcowej",
                "name": "Szko\u0142a Podstawowa w Woli Kopcowej",
                "addr:country": "PL",
                "addr:postcode": "26-001",
                "addr:city": "Wola Kopcowa",
                "addr:street": "\u015awi\u0119tokrzyska",
                "addr:housenumber": "86",
                "addr:teryt:simc": 250240,
                "addr:teryt:sym_ul": 22552,
                "contact:phone": "+48 413110833",
                "contact:email": "sp.wolakopcowa@maslow.pl",
                "ref:regon": "290422667",
                "ref:vatin": "PL6572382796",
                "operator": "Gmina Mas\u0142\u00f3w",
                "operator:type": "government",
                "amenity": "school"
            }
        },
        {
            "id": 64047,
            "type": "Feature",
            "geometry": {
                "type": "Point",
                "coordinates": [
                    20.76921,
                    50.89717
                ]
            },
            "properties": {
                "isced:level": "1;2",
                "ref:rspo": 64047,
                "official_name": "Szko\u0142a Podstawowa im. Marii Sk\u0142odowskiej-Curie w M\u0105chocicach Kapitulnych",
                "name": "Szko\u0142a Podstawowa",
                "addr:country": "PL",
                "addr:postcode": "26-001",
                "addr:city": "M\u0105chocice Kapitulne",
                "addr:street": "Szkolna",
                "addr:housenumber": "27",
                "addr:teryt:simc": 250100,
                "addr:teryt:sym_ul": 21970,
                "contact:phone": "+48 413111781",
                "contact:email": "sekretariat@spmachocice.pl",
                "contact:website": "http:\/\/spmachocice.pl",
                "ref:regon": "001217530",
                "ref:vatin": "PL6572769578",
                "operator": "Gmina Mas\u0142\u00f3w",
                "operator:type": "government",
                "amenity": "school"
            }
        },
        {
            "id": 55312,
            "type": "Feature",
            "geometry": {
                "type": "Point",
                "coordinates": [
                    20.72711,
                    50.90332
                ]
            },
            "properties": {
                "isced:level": "1;2",
                "ref:rspo": 55312,
                "official_name": "Szko\u0142a Podstawowa im. Jana Paw\u0142a II w Mas\u0142owie",
                "name": "Szko\u0142a Podstawowa",
                "addr:country": "PL",
                "addr:postcode": "26-001",
                "addr:city": "Mas\u0142\u00f3w Pierwszy",
                "addr:street": "Jana Paw\u0142a II",
                "addr:housenumber": "1",
                "addr:teryt:simc": 250027,
                "addr:teryt:sym_ul": 7123,
                "contact:phone": "+48 413110879",
                "contact:email": "sp.maslow@maslow.pl",
                "ref:regon": "000272365",
                "ref:vatin": "PL6572383991",
                "operator": "Gmina Mas\u0142\u00f3w",
                "operator:type": "government",
                "amenity": "school"
            }
        },
        {
            "id": 48793,
            "type": "Feature",
            "geometry": {
                "type": "Point",
                "coordinates": [
                    20.796291,
                    50.9105439
                ]
            },
            "properties": {
                "isced:level": "1;2",
                "ref:rspo": 48793,
                "official_name": "Szko\u0142a Podstawowa im. Stefana \u017beromskiego w M\u0105chocicach-Scholasterii",
                "name": "Szko\u0142a Podstawowa",
                "addr:country": "PL",
                "addr:postcode": "26-001",
                "addr:place": "M\u0105chocice-Scholasteria",
                "addr:housenumber": "56a",
                "addr:teryt:simc": 250197,
                "contact:phone": "+48 413111105",
                "contact:email": "scholasteriaszkola@op.pl",
                "ref:regon": "001217523",
                "ref:vatin": "PL6572383985",
                "operator": "Gmina Mas\u0142\u00f3w",
                "operator:type": "government",
                "amenity": "school"
            }
        },
        {
            "id": 110335,
            "type": "Feature",
            "geometry": {
                "type": "Point",
                "coordinates": [
                    20.7968738,
                    50.9111272
                ]
            },
            "properties": {
                "ref:rspo": 110335,
                "official_name": "Powiatowe Szkolne Schronisko M\u0142odzie\u017cowe w Ch\u0119cinach Filia Nr 3 w M\u0105chocicach Scholasterii",
                "name": "Powiatowe Szkolne Schronisko M\u0142odzie\u017cowe w Ch\u0119cinach Filia Nr 3 w M\u0105chocicach Scholasterii",
                "addr:country": "PL",
                "addr:postcode": "26-001",
                "addr:place": "M\u0105chocice-Scholasteria",
                "addr:housenumber": "56",
                "addr:teryt:simc": 250197,
                "contact:phone": "+48 664679450",
                "contact:email": "scholasteria@ssm-checiny.pl",
                "contact:website": "http:\/\/www.ssm-checiny.pl",
                "ref:regon": "292800671",
                "operator": "Powiat Kielecki",
                "operator:type": "government",
                "tourism": "hostel",
                "note": "Parent RSPO: 6014"
            }
        },
        {
            "id": 42244,
            "type": "Feature",
            "geometry": {
                "type": "Point",
                "coordinates": [
                    20.7681769,
                    50.9237309
                ]
            },
            "properties": {
                "isced:level": "1;2",
                "ref:rspo": 42244,
                "official_name": "Szko\u0142a Podstawowa w Brzezinkach",
                "name": "Szko\u0142a Podstawowa w Brzezinkach",
                "addr:country": "PL",
                "addr:postcode": "26-001",
                "addr:place": "Brzezinki",
                "addr:housenumber": "43",
                "addr:teryt:simc": 249780,
                "contact:phone": "+48 413110746",
                "contact:email": "brzezinki@gmail.com",
                "ref:regon": "001217753",
                "ref:vatin": "PL6572384565",
                "operator": "Gmina Mas\u0142\u00f3w",
                "operator:type": "government",
                "amenity": "school"
            }
        }
    ]
}