{"type":"FeatureCollection","features":[{"id":85766,"type":"Feature","geometry":{"type":"Point","coordinates":[20.60053,50.68443]},"properties":{"isced:level":"1;2","ref:rspo":85766,"official_name":"Szko\u0142a Podstawowa w Obicach","name":"Szko\u0142a Podstawowa w Obicach","addr:country":"PL","addr:postcode":"26-026","addr:city":"Obice","addr:street":"ul. Szkolna","addr:housenumber":"18","addr:teryt:simc":21970,"addr:teryt:sym_ul":254290,"contact:phone":"+48 413017587","contact:email":"gobice@wp.pl","ref:regon":"001217457","ref:vatin":"PL6572532988","operator":"Miasto I Gmina Morawica","operator:type":"government","amenity":"school"}},{"id":53302,"type":"Feature","geometry":{"type":"Point","coordinates":[20.67398,50.69167]},"properties":{"isced:level":"1;2","ref:rspo":53302,"official_name":"Publiczna Szko\u0142a Podstawowa w Lisowie","name":"Publiczna Szko\u0142a Podstawowa w Lisowie","addr:country":"PL","addr:postcode":"26-026","addr:city":"Lis\u00f3w","addr:street":"ul. Szkolna","addr:housenumber":"8","addr:teryt:simc":21970,"addr:teryt:sym_ul":234844,"contact:phone":"+48 413549024","contact:email":"spwlisowie@interia.pl","ref:regon":"260647007","ref:vatin":"PL6572538815","operator":"Stowarzyszenie Ekorozwoju Lisowa I Zaborza","operator:type":"ngo","amenity":"school"}},{"id":56453,"type":"Feature","geometry":{"type":"Point","coordinates":[20.67398,50.69164]},"properties":{"ref:rspo":56453,"official_name":"Punkt Przedszkolny w Lisowie","name":"Punkt Przedszkolny w Lisowie","addr:country":"PL","addr:postcode":"26-026","addr:city":"Lis\u00f3w","addr:street":"ul. Szkolna","addr:housenumber":"8","addr:teryt:simc":21970,"addr:teryt:sym_ul":234844,"contact:phone":"+48 413549024","contact:email":"spwlisowie@interia.pl","ref:regon":"260643914","ref:vatin":"PL6572538815","operator":"Stowarzyszenie Ekorozwoju Lisowa I Zaborza","operator:type":"ngo","amenity":"kindergarten"}},{"id":55146,"type":"Feature","geometry":{"type":"Point","coordinates":[20.604030609131,50.709548950195]},"properties":{"isced:level":"1;2","ref:rspo":55146,"official_name":"Szko\u0142a Podstawowa im. Jakuba Szelesta w D\u0119bskiej Woli","name":"Szko\u0142a Podstawowa","addr:country":"PL","addr:postcode":"26-026","addr:city":"D\u0119bska Wola","addr:street":"ul. Szlachecka","addr:housenumber":"173","addr:teryt:simc":21985,"addr:teryt:sym_ul":254031,"contact:phone":"+48 413118502","contact:email":"szkola@spdebskawola.pl","contact:website":"http:\/\/www.spdebskawola.pl","ref:regon":"001217463","ref:vatin":"PL6571860638","operator":"Miasto I Gmina Morawica","operator:type":"government","amenity":"school"}},{"id":126083,"type":"Feature","geometry":{"type":"Point","coordinates":[20.604030609131,50.709518950195]},"properties":{"ref:rspo":126083,"official_name":"Punkt Przedszkolny w D\u0119bskiej Woli","name":"Punkt Przedszkolny w D\u0119bskiej Woli","addr:country":"PL","addr:postcode":"26-026","addr:city":"D\u0119bska Wola","addr:street":"ul. Szlachecka","addr:housenumber":"173","addr:teryt:simc":21985,"addr:teryt:sym_ul":254031,"contact:phone":"+48 413118502","contact:email":"szkola@spdebskawola.pl","ref:regon":"360144303","operator":"Miasto I Gmina Morawica","operator:type":"government","amenity":"kindergarten"}},{"id":263860,"type":"Feature","geometry":{"type":"Point","coordinates":[20.55511,50.71193]},"properties":{"ref:rspo":263860,"official_name":"Zesp\u00f3\u0142 Szkolno - Przedszkolny w Chmielowicach","name":"Zesp\u00f3\u0142 Szkolno - Przedszkolny w Chmielowicach","addr:country":"PL","addr:postcode":"26-026","addr:city":"Chmielowice","addr:street":"ul. Szkolna","addr:housenumber":"29","addr:teryt:simc":21970,"addr:teryt:sym_ul":254025,"contact:phone":"+48 413118615","contact:email":"malaszkola.chmielowice@wp.pl","ref:regon":"368232120","operator":"Towarzystwo Przyjaci\u00f3\u0142 Chmielowic","operator:type":"ngo","landuse":"education","fixme":"amenity=school, amenity=college albo landuse=education w zale\u017cno\u015bci od tego, jakie plac\u00f3wki wchodz\u0105 w sk\u0142ad zespo\u0142u. Sprawd\u017a, kiedy stosowa\u0107 amenity=* a kiedy landuse=education.","note":"Children RSPO: 53130;56580"}},{"id":53130,"type":"Feature","geometry":{"type":"Point","coordinates":[20.55511,50.7119]},"properties":{"isced:level":"1;2","ref:rspo":53130,"official_name":"Publiczna Szko\u0142a Podstawowa w Chmielowicach","name":"Publiczna Szko\u0142a Podstawowa w Chmielowicach","addr:country":"PL","addr:postcode":"26-026","addr:city":"Chmielowice","addr:street":"ul. Szkolna","addr:housenumber":"29","addr:teryt:simc":21970,"addr:teryt:sym_ul":254025,"contact:phone":"+48 413118615","contact:email":"malaszkola.chmielowice@wp.pl","ref:regon":"260647013","ref:vatin":"PL6572463980","operator":"Towarzystwo Przyjaci\u00f3\u0142 Chmielowic","operator:type":"ngo","amenity":"school","note":"Parent RSPO: 263860"}},{"id":56580,"type":"Feature","geometry":{"type":"Point","coordinates":[20.55511,50.711870000000005]},"properties":{"ref:rspo":56580,"official_name":"Punkt Przedszkolny w Chmielowicach","name":"Punkt Przedszkolny w Chmielowicach","addr:country":"PL","addr:postcode":"26-026","addr:city":"Chmielowice","addr:street":"ul. Szkolna","addr:housenumber":"29","addr:teryt:simc":21970,"addr:teryt:sym_ul":254025,"contact:phone":"+48 413118615","contact:email":"malaszkola.chmielowice@wp.pl","ref:regon":"260643972","ref:vatin":"PL6572417767","operator":"Towarzystwo Przyjaci\u00f3\u0142 Chmielowic","operator:type":"ngo","amenity":"kindergarten","note":"Parent RSPO: 263860"}},{"id":52461,"type":"Feature","geometry":{"type":"Point","coordinates":[20.64319,50.73192]},"properties":{"isced:level":"1;2","ref:rspo":52461,"official_name":"Publiczna Szko\u0142a Podstawowa w Woli Morawickiej","name":"Publiczna Szko\u0142a Podstawowa w Woli Morawickiej","addr:country":"PL","addr:postcode":"26-026","addr:city":"Wola Morawicka","addr:street":"ul. Podem\u0142ynie","addr:housenumber":"1","addr:teryt:simc":16730,"addr:teryt:sym_ul":254485,"contact:phone":"+48 413114119","contact:email":"spwolamorawicka@interia.pl","ref:regon":"260646887","ref:vatin":"PL6572741640","operator":"Stowarzyszenie Wola Morawicka","operator:type":"ngo","amenity":"school"}},{"id":55837,"type":"Feature","geometry":{"type":"Point","coordinates":[20.64319,50.73189]},"properties":{"ref:rspo":55837,"official_name":"Punkt Przedszkolny w Woli Morawickiej","name":"Punkt Przedszkolny w Woli Morawickiej","addr:country":"PL","addr:postcode":"26-026","addr:city":"Wola Morawicka","addr:street":"ul. Podem\u0142ynie","addr:housenumber":"1","addr:teryt:simc":16730,"addr:teryt:sym_ul":254485,"contact:phone":"+48 413114119","contact:email":"spwolamorawicka@interia.pl","ref:regon":"260643771","ref:vatin":"PL6572741640","operator":"Stowarzyszenie Wola Morawicka","operator:type":"ngo","amenity":"kindergarten"}},{"id":52524,"type":"Feature","geometry":{"type":"Point","coordinates":[20.65286,50.73646]},"properties":{"isced:level":"1;2","ref:rspo":52524,"official_name":"Publiczna Szko\u0142a Podstawowa w Radomicach","name":"Publiczna Szko\u0142a Podstawowa w Radomicach","addr:country":"PL","addr:postcode":"26-026","addr:city":"Radomice","addr:street":"ul. G\u0142\u00f3wna","addr:housenumber":"2","addr:teryt:simc":5635,"addr:teryt:sym_ul":254396,"contact:phone":"+48 413017222","contact:email":"szkola.radomice@wp.pl","ref:regon":"260647154","ref:vatin":"PL6572421496","operator":"Towarzystwo Ekorozwoju Radomic","operator:type":"ngo","amenity":"school"}},{"id":55930,"type":"Feature","geometry":{"type":"Point","coordinates":[20.65286,50.73643]},"properties":{"ref:rspo":55930,"official_name":"Punkt Przedszkolny w Radomicach","name":"Punkt Przedszkolny w Radomicach","addr:country":"PL","addr:postcode":"26-026","addr:city":"Radomice","addr:street":"ul. G\u0142\u00f3wna","addr:housenumber":"2","addr:teryt:simc":5635,"addr:teryt:sym_ul":254396,"contact:phone":"+48 413017222","contact:email":"szkola.radomice@wp.pl","ref:regon":"260643825","ref:vatin":"PL6572421496","operator":"Towarzystwo Ekorozwoju Radomic","operator:type":"ngo","amenity":"kindergarten"}},{"id":131440,"type":"Feature","geometry":{"type":"Point","coordinates":[20.61879,50.74779]},"properties":{"ref:rspo":131440,"official_name":"Centrum Kszta\u0142cenia Zawodowego I Ustawicznego w Morawicy","name":"Centrum Kszta\u0142cenia Zawodowego I Ustawicznego w Morawicy","addr:country":"PL","addr:postcode":"26-026","addr:city":"Morawica","addr:street":"ul. Kielecka","addr:housenumber":"7","addr:teryt:simc":8379,"addr:teryt:sym_ul":254226,"contact:phone":"+48 413114680","contact:email":"szkolamedyczna@o2.pl","contact:website":"http:\/\/www.szkola-medyczna.com.pl","ref:regon":"365180373","operator":"Wojew\u00f3dztwo \u015awi\u0119tokrzyskie","operator:type":"government","landuse":"education","fixme":"amenity=school, amenity=college albo landuse=education w zale\u017cno\u015bci od tego, jakie plac\u00f3wki wchodz\u0105 w sk\u0142ad zespo\u0142u. Sprawd\u017a, kiedy stosowa\u0107 amenity=* a kiedy landuse=education.","note":"Children RSPO: 7315;266022"}},{"id":7315,"type":"Feature","geometry":{"type":"Point","coordinates":[20.61879,50.74776]},"properties":{"isced:level":"4","ref:rspo":7315,"official_name":"Policealna Szko\u0142a Medyczna im. Hanny Chrzanowskiej w Morawicy","name":"Policealna Szko\u0142a Medyczna","addr:country":"PL","addr:postcode":"26-026","addr:city":"Morawica","addr:street":"ul. Kielecka","addr:housenumber":"7","addr:teryt:simc":8379,"addr:teryt:sym_ul":254226,"contact:phone":"+48 413114680","contact:email":"szkolamedyczna@o2.pl","contact:website":"http:\/\/www.szkola-medyczna@com.pl","ref:regon":"291169874","ref:vatin":"PL6572122084","operator":"Wojew\u00f3dztwo \u015awi\u0119tokrzyskie","operator:type":"government","amenity":"college","note":"Parent RSPO: 131440"}},{"id":266022,"type":"Feature","geometry":{"type":"Point","coordinates":[20.61879,50.747730000000004]},"properties":{"ref:rspo":266022,"official_name":"Centrum Kszta\u0142cenia Ustawicznego w Morawicy","name":"Centrum Kszta\u0142cenia Ustawicznego w Morawicy","addr:country":"PL","addr:postcode":"26-026","addr:city":"Morawica","addr:street":"ul. Kielecka","addr:housenumber":"7","addr:teryt:simc":8379,"addr:teryt:sym_ul":254226,"contact:phone":"+48 413114680","contact:email":"szkolamedyczna@o2.pl","contact:website":"http:\/\/www.szkola-medyczna.com.pl\/","ref:regon":"369153692","operator":"Wojew\u00f3dztwo \u015awi\u0119tokrzyskie","operator:type":"government","fixme":"w zale\u017cno\u015bci od przedmiotu dzia\u0142alno\u015bci (np. amenity=training + training=*, amenity=dancing_school, amenity=language_school, amenity=music_school)","note":"Parent RSPO: 131440"}},{"id":125510,"type":"Feature","geometry":{"type":"Point","coordinates":[20.5501509,50.7579959]},"properties":{"ref:rspo":125510,"official_name":"Zesp\u00f3\u0142 Szkolno-Przedszkolny w Nidzie","name":"Zesp\u00f3\u0142 Szkolno-Przedszkolny w Nidzie","addr:country":"PL","addr:postcode":"26-026","addr:place":"Nida","addr:housenumber":"38","addr:teryt:sym_ul":254232,"contact:phone":"+48 413119084","contact:email":"szkolawnidzie@interia.eu","ref:regon":"260798976","operator":"Towarzystwo Przyjaci\u00f3\u0142 Nidy","operator:type":"ngo","landuse":"education","fixme":"amenity=school, amenity=college albo landuse=education w zale\u017cno\u015bci od tego, jakie plac\u00f3wki wchodz\u0105 w sk\u0142ad zespo\u0142u. Sprawd\u017a, kiedy stosowa\u0107 amenity=* a kiedy landuse=education.","note":"Children RSPO: 57378;72865"}},{"id":57378,"type":"Feature","geometry":{"type":"Point","coordinates":[20.5501509,50.757965899999995]},"properties":{"ref:rspo":57378,"official_name":"Punkt Przedszkolny w Nidzie","name":"Punkt Przedszkolny w Nidzie","addr:country":"PL","addr:postcode":"26-026","addr:place":"Nida","addr:housenumber":"38","addr:teryt:sym_ul":254232,"contact:phone":"+48 413119084","contact:email":"szkolawnidzie@interia.eu","ref:regon":"260644291","ref:vatin":"PL6572524500","operator":"Towarzystwo Przyjaci\u00f3\u0142 Nidy","operator:type":"ngo","amenity":"kindergarten","note":"Parent RSPO: 125510"}},{"id":72865,"type":"Feature","geometry":{"type":"Point","coordinates":[20.5501509,50.7579359]},"properties":{"isced:level":"1;2","ref:rspo":72865,"official_name":"Publiczna Szko\u0142a Podstawowa w Nidzie","name":"Publiczna Szko\u0142a Podstawowa w Nidzie","addr:country":"PL","addr:postcode":"26-026","addr:place":"Nida","addr:housenumber":"38","addr:teryt:sym_ul":254232,"contact:phone":"+48 413119084","contact:email":"szkolawnidzie@interia.eu","ref:regon":"260649242","ref:vatin":"PL6572541504","operator":"Towarzystwo Przyjaci\u00f3\u0142 Nidy","operator:type":"ngo","amenity":"school","note":"Parent RSPO: 125510"}},{"id":57116,"type":"Feature","geometry":{"type":"Point","coordinates":[20.57545,50.77306]},"properties":{"ref:rspo":57116,"official_name":"Punkt Przedszkolny \u201eAkademia Przedszkolaka\u201d w Brzezinach","name":"Punkt Przedszkolny \u201eAkademia Przedszkolaka\u201d w Brzezinach","addr:country":"PL","addr:postcode":"26-026","addr:city":"Brzeziny","addr:street":"ul. Szkolna","addr:housenumber":"1","addr:teryt:simc":21970,"addr:teryt:sym_ul":253907,"contact:phone":"+48 794728340","contact:email":"przedszkole.brzeziny@onet.pl","ref:regon":"260644055","ref:vatin":"PL6572803677","operator":"Stowarzyszenie Przyjaci\u00f3\u0142 Brzezin","operator:type":"ngo","amenity":"kindergarten"}},{"id":85769,"type":"Feature","geometry":{"type":"Point","coordinates":[20.57545,50.77303]},"properties":{"isced:level":"1;2","ref:rspo":85769,"official_name":"Szko\u0142a Podstawowa im. Jana Paw\u0142a II w Brzezinach","name":"Szko\u0142a Podstawowa","addr:country":"PL","addr:postcode":"26-026","addr:city":"Brzeziny","addr:street":"ul. Szkolna","addr:housenumber":"1","addr:teryt:simc":21970,"addr:teryt:sym_ul":253907,"contact:phone":"+48 413114055","contact:email":"sekretariat@zsbrzeziny.pl","contact:website":"http:\/\/zsbrzeziny.pl","ref:regon":"001217434","ref:vatin":"PL6572533019","operator":"Miasto I Gmina Morawica","operator:type":"government","amenity":"school"}},{"id":274572,"type":"Feature","geometry":{"type":"Point","coordinates":[20.57545,50.773]},"properties":{"ref:rspo":274572,"official_name":"Niepubliczne Przedszkole Akademia Przedszkolaka","name":"Niepubliczne Przedszkole Akademia Przedszkolaka","addr:country":"PL","addr:postcode":"26-026","addr:city":"Brzeziny","addr:street":"ul. Szkolna","addr:housenumber":"1","addr:teryt:simc":21970,"addr:teryt:sym_ul":253907,"contact:phone":"+48 794728340","contact:email":"sekretariat@akademia-przedszkolaka.info","contact:website":"http:\/\/akademia-przedszkolaka.info","ref:regon":"385980951","operator":"Stowarzyszenie Przyjaci\u00f3\u0142 Brzezin","operator:type":"ngo","amenity":"kindergarten"}},{"id":114993,"type":"Feature","geometry":{"type":"Point","coordinates":[20.61582,50.78525]},"properties":{"ref:rspo":114993,"official_name":"Niepubliczne Przedszkole \u201eSzalony Brzd\u0105c\u201d","name":"Niepubliczne Przedszkole \u201eSzalony Brzd\u0105c\u201d","addr:country":"PL","addr:postcode":"26-026","addr:city":"Bilcza","addr:street":"ul. Marmurowa","addr:housenumber":"14B","addr:teryt:simc":12387,"addr:teryt:sym_ul":253706,"contact:phone":"+48 413010101","contact:email":"przedszkolesb@wp.pl","ref:regon":"260700701","operator":"Agata Duda","operator:type":"private","amenity":"kindergarten"}},{"id":56726,"type":"Feature","geometry":{"type":"Point","coordinates":[20.61947,50.78887]},"properties":{"ref:rspo":56726,"official_name":"Punkt Przedszkolny w Bilczy","name":"Punkt Przedszkolny w Bilczy","addr:country":"PL","addr:postcode":"26-026","addr:city":"Bilcza","addr:street":"ul. Szkolna","addr:housenumber":"2","addr:teryt:simc":21970,"addr:teryt:sym_ul":253706,"contact:phone":"+48 572498649","contact:email":"bilcza.koloroweprzedszkole@gmail.com","ref:regon":"260644003","ref:vatin":"PL6572822539","operator":"Fundacja Dzia\u0142aj\u0105ca Na Rzecz Miejscowej Spo\u0142eczno\u015bci Bilczy 'Kazimierz'","operator:type":"ngo","amenity":"kindergarten"}},{"id":74345,"type":"Feature","geometry":{"type":"Point","coordinates":[20.61947,50.78884]},"properties":{"isced:level":"1;2","ref:rspo":74345,"official_name":"Szko\u0142a Podstawowa im. Ks. Piotra \u015aciegiennego w Bilczy","name":"Szko\u0142a Podstawowa","addr:country":"PL","addr:postcode":"26-026","addr:city":"Bilcza","addr:street":"ul. Szkolna","addr:housenumber":"2","addr:teryt:simc":21970,"addr:teryt:sym_ul":253706,"contact:phone":"+48 413117138","contact:email":"spbilcza@gmail.com","contact:website":"http:\/\/www.spbilcza.pl","ref:regon":"001217470","ref:vatin":"PL6572534823","operator":"Miasto I Gmina Morawica","operator:type":"government","amenity":"school"}},{"id":274602,"type":"Feature","geometry":{"type":"Point","coordinates":[20.61947,50.788810000000005]},"properties":{"ref:rspo":274602,"official_name":"Kolorowe Przedszkole w Bilczy","name":"Kolorowe Przedszkole w Bilczy","addr:country":"PL","addr:postcode":"26-026","addr:city":"Bilcza","addr:street":"ul. Szkolna","addr:housenumber":"2","addr:teryt:simc":21970,"addr:teryt:sym_ul":253706,"contact:phone":"+48 572498649","contact:email":"bilcza.koloroweprzedszkole@gmail.com","contact:website":"http:\/\/przedszkole-bilcza.pl","ref:regon":"386029823","operator":"Fundacja Dzia\u0142aj\u0105ca Na Rzecz Miejscowej Spo\u0142eczno\u015bci Bilczy 'Kazimierz'","operator:type":"ngo","amenity":"kindergarten"}},{"id":72863,"type":"Feature","geometry":{"type":"Point","coordinates":[20.61948,50.78976]},"properties":{"ref:rspo":72863,"official_name":"Zesp\u00f3\u0142 Plac\u00f3wek O\u015bwiatowych w Morawicy","name":"Zesp\u00f3\u0142 Plac\u00f3wek O\u015bwiatowych w Morawicy","addr:country":"PL","addr:postcode":"26-026","addr:city":"Morawica","addr:street":"ul. Szkolna","addr:housenumber":"4","addr:teryt:simc":21970,"addr:teryt:sym_ul":254226,"contact:phone":"+48 413114510","contact:email":"zpomor@interia.pl","ref:regon":"260016459","ref:vatin":"PL6571858699","operator":"Miasto I Gmina Morawica","operator:type":"government","landuse":"education","fixme":"amenity=school, amenity=college albo landuse=education w zale\u017cno\u015bci od tego, jakie plac\u00f3wki wchodz\u0105 w sk\u0142ad zespo\u0142u. Sprawd\u017a, kiedy stosowa\u0107 amenity=* a kiedy landuse=education.","note":"Children RSPO: 86020;86023"}},{"id":86020,"type":"Feature","geometry":{"type":"Point","coordinates":[20.61948,50.78973]},"properties":{"ref:rspo":86020,"official_name":"Przedszkole Samorz\u0105dowe w Morawicy","name":"Przedszkole Samorz\u0105dowe w Morawicy","addr:country":"PL","addr:postcode":"26-026","addr:city":"Morawica","addr:street":"ul. Szkolna","addr:housenumber":"4","addr:teryt:simc":21970,"addr:teryt:sym_ul":254226,"contact:phone":"+48 413114114","contact:email":"zpomor@interia.pl","ref:regon":"290013450","ref:vatin":"PL6571858699","operator":"Miasto I Gmina Morawica","operator:type":"government","amenity":"kindergarten","note":"Parent RSPO: 72863"}},{"id":86023,"type":"Feature","geometry":{"type":"Point","coordinates":[20.61948,50.7897]},"properties":{"isced:level":"1;2","ref:rspo":86023,"official_name":"Szko\u0142a Podstawowa im. K. Makuszy\u0144skiego w Morawicy","name":"Szko\u0142a Podstawowa","addr:country":"PL","addr:postcode":"26-026","addr:city":"Morawica","addr:street":"ul. Szkolna","addr:housenumber":"4","addr:teryt:simc":21970,"addr:teryt:sym_ul":254226,"contact:phone":"+48 413114510","contact:email":"zpomor@interia.pl","ref:regon":"000588140","ref:vatin":"PL6571858699","operator":"Miasto I Gmina Morawica","operator:type":"government","amenity":"school","note":"Parent RSPO: 72863"}}]}