{
    "type": "FeatureCollection",
    "features": [
        {
            "id": 73049,
            "type": "Feature",
            "geometry": {
                "type": "Point",
                "coordinates": [
                    21.077116,
                    50.8217159
                ]
            },
            "properties": {
                "isced:level": "1;2",
                "ref:rspo": 73049,
                "official_name": "Szko\u0142a Podstawowa w Paprocicach",
                "name": "Szko\u0142a Podstawowa w Paprocicach",
                "addr:country": "PL",
                "addr:postcode": "26-006",
                "addr:place": "Paprocice",
                "addr:housenumber": "1A",
                "addr:teryt:sym_ul": 255533,
                "contact:phone": "+48 413177151",
                "contact:email": "szkpaprocice@wp.pl",
                "ref:regon": "260648461",
                "operator": "Stowarzyszenie Na Rzecz Ekorozwoju Wsi",
                "operator:type": "ngo",
                "amenity": "school"
            }
        },
        {
            "id": 7028,
            "type": "Feature",
            "geometry": {
                "type": "Point",
                "coordinates": [
                    21.116201,
                    50.8443879
                ]
            },
            "properties": {
                "isced:level": "1;2",
                "ref:rspo": 7028,
                "official_name": "Szko\u0142a Podstawowa w Jeleniowie",
                "name": "Szko\u0142a Podstawowa w Jeleniowie",
                "addr:country": "PL",
                "addr:postcode": "26-006",
                "addr:place": "Jeleni\u00f3w",
                "addr:housenumber": "85",
                "addr:teryt:sym_ul": 255390,
                "contact:phone": "+48 413177424",
                "contact:email": "jeleniow@wp.pl",
                "ref:regon": "260628866",
                "ref:vatin": "PL6572403908",
                "operator": "Stowarzyszenie Rozwoju Wsi Jeleni\u00f3w \"Razem Dla Przysz\u0142o\u015bci\"",
                "operator:type": "ngo",
                "amenity": "school"
            }
        },
        {
            "id": 29178,
            "type": "Feature",
            "geometry": {
                "type": "Point",
                "coordinates": [
                    21.0845999,
                    50.85887
                ]
            },
            "properties": {
                "isced:level": "1;2",
                "ref:rspo": 29178,
                "official_name": "Szko\u0142a Podstawowa im. Bohater\u00f3w Powstania Styczniowego w Nowej S\u0142upi",
                "name": "Szko\u0142a Podstawowa",
                "addr:country": "PL",
                "addr:postcode": "26-006",
                "addr:city": "Nowa S\u0142upia",
                "addr:street": "ul. Szkolna",
                "addr:housenumber": "10",
                "addr:teryt:simc": 21970,
                "addr:teryt:sym_ul": 255510,
                "contact:phone": "+48 413177025",
                "contact:email": "spnowaslupia@poczta.fm",
                "ref:regon": "000273867",
                "ref:vatin": "PL6572892729",
                "operator": "Gmina Nowa S\u0142upia",
                "operator:type": "government",
                "amenity": "school"
            }
        },
        {
            "id": 278025,
            "type": "Feature",
            "geometry": {
                "type": "Point",
                "coordinates": [
                    21.0845999,
                    50.85884
                ]
            },
            "properties": {
                "ref:rspo": 278025,
                "official_name": "Zesp\u00f3\u0142 Szk\u00f3\u0142 Nr 8 w Nowej S\u0142upi",
                "name": "Zesp\u00f3\u0142 Szk\u00f3\u0142 Nr 8 w Nowej S\u0142upi",
                "addr:country": "PL",
                "addr:postcode": "26-006",
                "addr:city": "Nowa S\u0142upia",
                "addr:street": "ul. Szkolna",
                "addr:housenumber": "10",
                "addr:teryt:simc": 21970,
                "addr:teryt:sym_ul": 255510,
                "contact:phone": "+48 501266297",
                "contact:email": "zs8nowaslupia@op.pl",
                "contact:website": "http:\/\/zs8nowaslupia.pl",
                "ref:regon": "389744756",
                "operator": "Powiat Kielecki",
                "operator:type": "government",
                "landuse": "education",
                "fixme": "amenity=school, amenity=college albo landuse=education w zale\u017cno\u015bci od tego, jakie plac\u00f3wki wchodz\u0105 w sk\u0142ad zespo\u0142u. Sprawd\u017a, kiedy stosowa\u0107 amenity=* a kiedy landuse=education.",
                "note": "Children RSPO: 278026;278027;278028;278030"
            }
        },
        {
            "id": 278026,
            "type": "Feature",
            "geometry": {
                "type": "Point",
                "coordinates": [
                    21.0845999,
                    50.858810000000005
                ]
            },
            "properties": {
                "isced:level": "3",
                "ref:rspo": 278026,
                "official_name": "Liceum Og\u00f3lnokszta\u0142c\u0105ce w Nowej S\u0142upi",
                "name": "Liceum Og\u00f3lnokszta\u0142c\u0105ce w Nowej S\u0142upi",
                "addr:country": "PL",
                "addr:postcode": "26-006",
                "addr:city": "Nowa S\u0142upia",
                "addr:street": "ul. Szkolna",
                "addr:housenumber": "10",
                "addr:teryt:simc": 21970,
                "addr:teryt:sym_ul": 255510,
                "contact:phone": "+48 413177602",
                "contact:email": "zs8nowaslupia@op.pl",
                "contact:website": "http:\/\/zs8nowaslupia.pl",
                "ref:regon": "389745046",
                "operator": "Powiat Kielecki",
                "operator:type": "government",
                "amenity": "school",
                "note": "Parent RSPO: 278025"
            }
        },
        {
            "id": 278027,
            "type": "Feature",
            "geometry": {
                "type": "Point",
                "coordinates": [
                    21.0845999,
                    50.85878
                ]
            },
            "properties": {
                "isced:level": "3",
                "ref:rspo": 278027,
                "official_name": "Technikum Nr 6 w Nowej S\u0142upi",
                "name": "Technikum Nr 6 w Nowej S\u0142upi",
                "addr:country": "PL",
                "addr:postcode": "26-006",
                "addr:city": "Nowa S\u0142upia",
                "addr:street": "ul. Szkolna",
                "addr:housenumber": "10",
                "addr:teryt:simc": 21970,
                "addr:teryt:sym_ul": 255510,
                "contact:phone": "+48 413177602",
                "contact:email": "zs8nowaslupia@op.pl",
                "contact:website": "http:\/\/zs8nowaslupia.pl",
                "ref:regon": "389746123",
                "operator": "Powiat Kielecki",
                "operator:type": "government",
                "amenity": "school",
                "note": "Parent RSPO: 278025"
            }
        },
        {
            "id": 278028,
            "type": "Feature",
            "geometry": {
                "type": "Point",
                "coordinates": [
                    21.0845999,
                    50.85875
                ]
            },
            "properties": {
                "isced:level": "3",
                "ref:rspo": 278028,
                "official_name": "Bran\u017cowa Szko\u0142a I Stopnia w Nowej S\u0142upi",
                "name": "Bran\u017cowa Szko\u0142a I Stopnia w Nowej S\u0142upi",
                "addr:country": "PL",
                "addr:postcode": "26-006",
                "addr:city": "Nowa S\u0142upia",
                "addr:street": "ul. Szkolna",
                "addr:housenumber": "10",
                "addr:teryt:simc": 21970,
                "addr:teryt:sym_ul": 255510,
                "contact:phone": "+48 413177602",
                "contact:email": "zs8nowaslupia@op.pl",
                "contact:website": "http:\/\/zs8nowaslupia.pl",
                "ref:regon": "389746146",
                "operator": "Powiat Kielecki",
                "operator:type": "government",
                "amenity": "school",
                "note": "Parent RSPO: 278025"
            }
        },
        {
            "id": 278030,
            "type": "Feature",
            "geometry": {
                "type": "Point",
                "coordinates": [
                    21.0845999,
                    50.858720000000005
                ]
            },
            "properties": {
                "isced:level": "4",
                "ref:rspo": 278030,
                "official_name": "Szko\u0142a Policealna w Nowej S\u0142upi",
                "name": "Szko\u0142a Policealna w Nowej S\u0142upi",
                "addr:country": "PL",
                "addr:postcode": "26-006",
                "addr:city": "Nowa S\u0142upia",
                "addr:street": "ul. Szkolna",
                "addr:housenumber": "10",
                "addr:teryt:simc": 21970,
                "addr:teryt:sym_ul": 255510,
                "contact:phone": "+48 413177602",
                "contact:email": "zs8nowaslupia@op.pl",
                "contact:website": "http:\/\/zs8nowaslupia.pl",
                "ref:regon": "389746152",
                "operator": "Powiat Kielecki",
                "operator:type": "government",
                "amenity": "college",
                "note": "Parent RSPO: 278025"
            }
        },
        {
            "id": 9809,
            "type": "Feature",
            "geometry": {
                "type": "Point",
                "coordinates": [
                    21.08595,
                    50.86169
                ]
            },
            "properties": {
                "ref:rspo": 9809,
                "official_name": "Powiatowe Szkolne Schronisko M\u0142odzie\u017cowe w Ch\u0119cinach Filia Nr 4 w Nowej S\u0142upi",
                "name": "Powiatowe Szkolne Schronisko M\u0142odzie\u017cowe w Ch\u0119cinach Filia Nr 4 w Nowej S\u0142upi",
                "addr:country": "PL",
                "addr:postcode": "26-006",
                "addr:city": "Nowa S\u0142upia",
                "addr:street": "ul. \u015awi\u0119tokrzyska",
                "addr:housenumber": "61",
                "addr:teryt:simc": 22552,
                "addr:teryt:sym_ul": 255510,
                "contact:phone": "+48 798607975",
                "contact:email": "nowaslupia@ssm-checiny.pl",
                "contact:website": "http:\/\/www.ssm-checiny.pl",
                "ref:regon": "292800671",
                "operator": "Powiat Kielecki",
                "operator:type": "government",
                "tourism": "hostel",
                "note": "Parent RSPO: 6014"
            }
        },
        {
            "id": 53382,
            "type": "Feature",
            "geometry": {
                "type": "Point",
                "coordinates": [
                    21.09378,
                    50.86994
                ]
            },
            "properties": {
                "ref:rspo": 53382,
                "official_name": "Przedszkole w Rudkach",
                "name": "Przedszkole w Rudkach",
                "addr:country": "PL",
                "addr:postcode": "26-006",
                "addr:city": "Rudki",
                "addr:street": "ul. Che\u0142mowa",
                "addr:housenumber": "11",
                "addr:teryt:simc": 2707,
                "addr:teryt:sym_ul": 255600,
                "contact:phone": "+48 413177288",
                "contact:email": "alina.ca@wp.pl",
                "ref:regon": "290013408",
                "ref:vatin": "PL6572405563",
                "operator": "Gmina Nowa S\u0142upia",
                "operator:type": "government",
                "amenity": "kindergarten",
                "note": "Parent RSPO: 53381"
            }
        },
        {
            "id": 13815,
            "type": "Feature",
            "geometry": {
                "type": "Point",
                "coordinates": [
                    21.120524,
                    50.870819
                ]
            },
            "properties": {
                "isced:level": "1;2",
                "ref:rspo": 13815,
                "official_name": "Szko\u0142a Podstawowa w Starej S\u0142upi",
                "name": "Szko\u0142a Podstawowa w Starej S\u0142upi",
                "addr:country": "PL",
                "addr:postcode": "26-006",
                "addr:place": "Stara S\u0142upia",
                "addr:housenumber": "78",
                "addr:teryt:sym_ul": 255763,
                "contact:phone": "+48 413177126",
                "contact:email": "spstaraslupia@wp.pl",
                "contact:website": "http:\/\/spstaraslupia.szkolnastrona.pl",
                "ref:regon": "260632224",
                "ref:vatin": "PL6572403883",
                "operator": "\"Stowarzyszenia Na Rzecz Rozwoju O\u015bwiaty W Starej S\u0142upi - Szklany Dom\"",
                "operator:type": "ngo",
                "amenity": "school"
            }
        },
        {
            "id": 7192,
            "type": "Feature",
            "geometry": {
                "type": "Point",
                "coordinates": [
                    21.040909,
                    50.883876
                ]
            },
            "properties": {
                "isced:level": "1;2",
                "ref:rspo": 7192,
                "official_name": "Szko\u0142a Podstawowa w Mirocicach",
                "name": "Szko\u0142a Podstawowa w Mirocicach",
                "addr:country": "PL",
                "addr:postcode": "26-006",
                "addr:place": "Mirocice",
                "addr:housenumber": "45A",
                "addr:teryt:sym_ul": 255473,
                "contact:phone": "+48 413177949",
                "contact:email": "spmirocice@wp.pl",
                "ref:regon": "260628872",
                "ref:vatin": "PL6572403972",
                "operator": "Stowarzyszenie Rozwoju Wsi Mirocice, Hucisko, Baszowice",
                "operator:type": "ngo",
                "amenity": "school"
            }
        },
        {
            "id": 53381,
            "type": "Feature",
            "geometry": {
                "type": "Point",
                "coordinates": [
                    21.08912,
                    50.89172
                ]
            },
            "properties": {
                "ref:rspo": 53381,
                "official_name": "Zesp\u00f3\u0142 Szk\u00f3\u0142 w Rudkach",
                "name": "Zesp\u00f3\u0142 Szk\u00f3\u0142 w Rudkach",
                "addr:country": "PL",
                "addr:postcode": "26-006",
                "addr:city": "Rudki",
                "addr:street": "ul. Szkolna",
                "addr:housenumber": "2",
                "addr:teryt:simc": 21970,
                "addr:teryt:sym_ul": 255600,
                "contact:phone": "+48 413177179",
                "contact:email": "alina.ca@wp.pl",
                "ref:regon": "260478616",
                "ref:vatin": "PL6572892712",
                "operator": "Gmina Nowa S\u0142upia",
                "operator:type": "government",
                "landuse": "education",
                "fixme": "amenity=school, amenity=college albo landuse=education w zale\u017cno\u015bci od tego, jakie plac\u00f3wki wchodz\u0105 w sk\u0142ad zespo\u0142u. Sprawd\u017a, kiedy stosowa\u0107 amenity=* a kiedy landuse=education.",
                "note": "Children RSPO: 53382;74742"
            }
        },
        {
            "id": 74742,
            "type": "Feature",
            "geometry": {
                "type": "Point",
                "coordinates": [
                    21.08912,
                    50.89169
                ]
            },
            "properties": {
                "isced:level": "1;2",
                "ref:rspo": 74742,
                "official_name": "Szko\u0142a Podstawowa im. Stanis\u0142awa Staszica w Rudkach",
                "name": "Szko\u0142a Podstawowa",
                "addr:country": "PL",
                "addr:postcode": "26-006",
                "addr:city": "Rudki",
                "addr:street": "ul. Szkolna",
                "addr:housenumber": "2",
                "addr:teryt:simc": 21970,
                "addr:teryt:sym_ul": 255600,
                "contact:phone": "+48 413177179",
                "contact:email": "alina.ca@wp.pl",
                "contact:website": "http:\/\/zsrudki.edupage.org",
                "ref:regon": "001216788",
                "ref:vatin": "PL6572403966",
                "operator": "Gmina Nowa S\u0142upia",
                "operator:type": "government",
                "amenity": "school",
                "note": "Parent RSPO: 53381"
            }
        },
        {
            "id": 13880,
            "type": "Feature",
            "geometry": {
                "type": "Point",
                "coordinates": [
                    21.026891,
                    50.893899
                ]
            },
            "properties": {
                "isced:level": "1;2",
                "ref:rspo": 13880,
                "official_name": "Szko\u0142a Podstawowa im. \u015aw. Eugeniusza De Mazenoda w Jeziorku",
                "name": "Szko\u0142a Podstawowa",
                "addr:country": "PL",
                "addr:postcode": "26-006",
                "addr:place": "Jeziorko",
                "addr:housenumber": "123A",
                "addr:teryt:sym_ul": 255444,
                "contact:phone": "+48 413177980",
                "contact:email": "spjeziorko@o2.pl",
                "contact:website": "http:\/\/www.pspjeziorko.szkolnastrona.pl",
                "ref:regon": "260632230",
                "ref:vatin": "PL6572403937",
                "operator": "Stowarzyszenie Rozwoju Wsi D\u0119bna I Jeziorka",
                "operator:type": "ngo",
                "amenity": "school"
            }
        },
        {
            "id": 7233,
            "type": "Feature",
            "geometry": {
                "type": "Point",
                "coordinates": [
                    21.1272051,
                    50.895176
                ]
            },
            "properties": {
                "isced:level": "1;2",
                "ref:rspo": 7233,
                "official_name": "Szko\u0142a Podstawowa w Pokrzywiance",
                "name": "Szko\u0142a Podstawowa w Pokrzywiance",
                "addr:country": "PL",
                "addr:postcode": "26-006",
                "addr:place": "Pokrzywianka",
                "addr:housenumber": "33",
                "addr:teryt:sym_ul": 255556,
                "contact:phone": "+48 413177127",
                "contact:email": "pokdyr@onet.pl",
                "contact:website": "http:\/\/psppokrzywianka.superszkolna.pl",
                "ref:regon": "260628889",
                "ref:vatin": "PL6572403914",
                "operator": "Stowarzyszenie Przyjaci\u00f3\u0142 Szko\u0142y W Pokrzywiance",
                "operator:type": "ngo",
                "amenity": "school"
            }
        },
        {
            "id": 267795,
            "type": "Feature",
            "geometry": {
                "type": "Point",
                "coordinates": [
                    21.09074,
                    50.89748
                ]
            },
            "properties": {
                "ref:rspo": 267795,
                "official_name": "Dom Wczas\u00f3w Dzieci\u0119cych \u201eGo\u0142oborze\u201d w Rudkach",
                "name": "Dom Wczas\u00f3w Dzieci\u0119cych \u201eGo\u0142oborze\u201d w Rudkach",
                "addr:country": "PL",
                "addr:postcode": "26-006",
                "addr:city": "Rudki",
                "addr:street": "ul. G\u00f3rnicza",
                "addr:housenumber": "3",
                "addr:teryt:simc": 5962,
                "addr:teryt:sym_ul": 255600,
                "contact:phone": "+48 413177483",
                "contact:email": "goloborze@wp.pl",
                "ref:regon": "380653348",
                "operator": "Jerzy Skrabacz",
                "operator:type": "private",
                "leisure": "resort"
            }
        }
    ]
}