{
    "type": "FeatureCollection",
    "features": [
        {
            "id": 20733,
            "type": "Feature",
            "geometry": {
                "type": "Point",
                "coordinates": [
                    20.57546,
                    50.77306
                ]
            },
            "properties": {
                "isced:level": "1;2",
                "ref:rspo": 20733,
                "official_name": "Szko\u0142a Podstawowa im. Janusza Korczaka w G\u00f3rnie",
                "name": "Szko\u0142a Podstawowa",
                "addr:country": "PL",
                "addr:postcode": "26-008",
                "addr:city": "G\u00f3rno",
                "addr:street": "Szkolna",
                "addr:housenumber": "1",
                "addr:teryt:simc": 238871,
                "addr:teryt:sym_ul": 21970,
                "contact:phone": "+48 413024038",
                "contact:email": "spgorno@tlen.pl",
                "contact:website": "http:\/\/www.spgorno.edu.pl",
                "ref:regon": "000776864",
                "ref:vatin": "PL6572321010",
                "operator": "Gmina G\u00f3rno",
                "operator:type": "government",
                "amenity": "school"
            }
        },
        {
            "id": 119937,
            "type": "Feature",
            "geometry": {
                "type": "Point",
                "coordinates": [
                    20.57546,
                    50.77303
                ]
            },
            "properties": {
                "ref:rspo": 119937,
                "official_name": "Punkt Przedszkolny Przy Szkole Podstawowej w G\u00f3rnie",
                "name": "Punkt Przedszkolny Przy Szkole Podstawowej w G\u00f3rnie",
                "addr:country": "PL",
                "addr:postcode": "26-008",
                "addr:city": "G\u00f3rno",
                "addr:street": "Szkolna",
                "addr:housenumber": "1",
                "addr:teryt:simc": 238871,
                "addr:teryt:sym_ul": 21970,
                "contact:phone": "+48 413023002",
                "contact:email": "spgorno@tlen.pl",
                "ref:regon": "260720490",
                "operator": "Gmina G\u00f3rno",
                "operator:type": "government",
                "amenity": "kindergarten"
            }
        },
        {
            "id": 20730,
            "type": "Feature",
            "geometry": {
                "type": "Point",
                "coordinates": [
                    20.877864,
                    50.829543
                ]
            },
            "properties": {
                "isced:level": "1;2",
                "ref:rspo": 20730,
                "official_name": "Szko\u0142a Podstawowa w Skorzeszycach im. Jana Paw\u0142a Ii",
                "name": "Szko\u0142a Podstawowa w Skorzeszycach",
                "addr:country": "PL",
                "addr:postcode": "26-008",
                "addr:place": "Skorzeszyce",
                "addr:housenumber": "165B",
                "addr:teryt:simc": 239273,
                "contact:phone": "+48 413023008",
                "contact:email": "spskorzeszyce@o2.pl",
                "contact:website": "http:\/\/spskorzeszyce.edu.pl",
                "ref:regon": "001167305",
                "ref:vatin": "PL6572332545",
                "operator": "Gmina G\u00f3rno",
                "operator:type": "government",
                "amenity": "school"
            }
        },
        {
            "id": 30529,
            "type": "Feature",
            "geometry": {
                "type": "Point",
                "coordinates": [
                    20.877864,
                    50.829513
                ]
            },
            "properties": {
                "ref:rspo": 30529,
                "official_name": "Punkt Przedszkolny Przy Szkole Podstawowej w Skorzeszycach",
                "name": "Punkt Przedszkolny Przy Szkole Podstawowej w Skorzeszycach",
                "addr:country": "PL",
                "addr:postcode": "26-008",
                "addr:place": "Skorzeszyce",
                "addr:housenumber": "165B",
                "addr:teryt:simc": 239273,
                "contact:phone": "+48 413023008",
                "contact:email": "spskorzeszyce@o2.pl",
                "contact:website": "http:\/\/spskorzeszyce.edu.pl",
                "ref:regon": "260639539",
                "operator": "Gmina G\u00f3rno",
                "operator:type": "government",
                "amenity": "kindergarten"
            }
        },
        {
            "id": 20735,
            "type": "Feature",
            "geometry": {
                "type": "Point",
                "coordinates": [
                    20.8615679,
                    50.8431159
                ]
            },
            "properties": {
                "isced:level": "1;2",
                "ref:rspo": 20735,
                "official_name": "Szko\u0142a Podstawowa im. Gen. W\u0142adys\u0142awa Sikorskiego w Woli Jachowej",
                "name": "Szko\u0142a Podstawowa",
                "addr:country": "PL",
                "addr:postcode": "26-008",
                "addr:place": "Wola Jachowa",
                "addr:housenumber": "136",
                "addr:teryt:simc": 239340,
                "contact:phone": "+48 413023014",
                "contact:email": "zswolajachowa@gmail.com",
                "ref:regon": "001167297",
                "ref:vatin": "PL6572332605",
                "operator": "Gmina G\u00f3rno",
                "operator:type": "government",
                "amenity": "school"
            }
        },
        {
            "id": 30530,
            "type": "Feature",
            "geometry": {
                "type": "Point",
                "coordinates": [
                    20.8615679,
                    50.8430859
                ]
            },
            "properties": {
                "ref:rspo": 30530,
                "official_name": "Punkt Przedszkolny Przy Szkole Podstawowej w Woli Jachowej",
                "name": "Punkt Przedszkolny Przy Szkole Podstawowej w Woli Jachowej",
                "addr:country": "PL",
                "addr:postcode": "26-008",
                "addr:place": "Wola Jachowa",
                "addr:housenumber": "136",
                "addr:teryt:simc": 239340,
                "contact:phone": "+48 413023014",
                "contact:email": "zswolajachowa@gmail.com",
                "ref:regon": "260639545",
                "operator": "Gmina G\u00f3rno",
                "operator:type": "government",
                "amenity": "kindergarten"
            }
        },
        {
            "id": 123130,
            "type": "Feature",
            "geometry": {
                "type": "Point",
                "coordinates": [
                    20.75771,
                    50.8606969
                ]
            },
            "properties": {
                "ref:rspo": 123130,
                "official_name": "Zesp\u00f3\u0142 Szkolno-Przedszkolny w Radlinie",
                "name": "Zesp\u00f3\u0142 Szkolno-Przedszkolny w Radlinie",
                "addr:country": "PL",
                "addr:postcode": "26-008",
                "addr:place": "Radlin",
                "addr:housenumber": "86",
                "addr:teryt:simc": 239221,
                "contact:phone": "+48 413021042",
                "contact:email": "spradlin@interia.pl",
                "ref:regon": "260769710",
                "operator": "Gmina G\u00f3rno",
                "operator:type": "government",
                "landuse": "education",
                "fixme": "amenity=school, amenity=college albo landuse=education w zale\u017cno\u015bci od tego, jakie plac\u00f3wki wchodz\u0105 w sk\u0142ad zespo\u0142u. Sprawd\u017a, kiedy stosowa\u0107 amenity=* a kiedy landuse=education.",
                "note": "Children RSPO: 30522;115034"
            }
        },
        {
            "id": 30522,
            "type": "Feature",
            "geometry": {
                "type": "Point",
                "coordinates": [
                    20.75771,
                    50.8606669
                ]
            },
            "properties": {
                "isced:level": "1;2",
                "ref:rspo": 30522,
                "official_name": "Szko\u0142a Podstawowa im. Karola Wojty\u0142y w Radlinie",
                "name": "Szko\u0142a Podstawowa",
                "addr:country": "PL",
                "addr:postcode": "26-008",
                "addr:place": "Radlin",
                "addr:housenumber": "86",
                "addr:teryt:simc": 239221,
                "contact:phone": "+48 413021042",
                "contact:email": "spradlin@interia.pl",
                "contact:website": "http:\/\/www.spradlin.edupage.org",
                "ref:regon": "001167334",
                "ref:vatin": "PL6572332568",
                "operator": "Gmina G\u00f3rno",
                "operator:type": "government",
                "amenity": "school",
                "note": "Parent RSPO: 123130"
            }
        },
        {
            "id": 115034,
            "type": "Feature",
            "geometry": {
                "type": "Point",
                "coordinates": [
                    20.75771,
                    50.8606369
                ]
            },
            "properties": {
                "ref:rspo": 115034,
                "official_name": "Gminne Przedszkole w Radlinie",
                "name": "Gminne Przedszkole w Radlinie",
                "addr:country": "PL",
                "addr:postcode": "26-008",
                "addr:place": "Radlin",
                "addr:housenumber": "86",
                "addr:teryt:simc": 239221,
                "contact:phone": "+48 413021042",
                "contact:email": "spradlin@interia.pl",
                "contact:website": "http:\/\/www.spradlin.edupage.org",
                "ref:regon": "260701480",
                "operator": "Gmina G\u00f3rno",
                "operator:type": "government",
                "amenity": "kindergarten",
                "note": "Parent RSPO: 123130"
            }
        },
        {
            "id": 20728,
            "type": "Feature",
            "geometry": {
                "type": "Point",
                "coordinates": [
                    20.7695149,
                    50.8708419
                ]
            },
            "properties": {
                "isced:level": "1;2",
                "ref:rspo": 20728,
                "official_name": "Szko\u0142a Podstawowa im. Noblist\u00f3w Polskich w Leszczynach",
                "name": "Szko\u0142a Podstawowa",
                "addr:country": "PL",
                "addr:postcode": "26-008",
                "addr:place": "Leszczyny",
                "addr:housenumber": "33",
                "addr:teryt:simc": 239178,
                "contact:phone": "+48 413021965",
                "contact:email": "sp-leszczyny@wp.pl",
                "contact:website": "http:\/\/www.spleszczyny.pl",
                "ref:regon": "001167280",
                "ref:vatin": "PL6572332551",
                "operator": "Gmina G\u00f3rno",
                "operator:type": "government",
                "amenity": "school"
            }
        },
        {
            "id": 30527,
            "type": "Feature",
            "geometry": {
                "type": "Point",
                "coordinates": [
                    20.7695149,
                    50.8708119
                ]
            },
            "properties": {
                "ref:rspo": 30527,
                "official_name": "Punkt Przedszkolny Przy Szkole Podstawowej w Leszczynach",
                "name": "Punkt Przedszkolny Przy Szkole Podstawowej w Leszczynach",
                "addr:country": "PL",
                "addr:postcode": "26-008",
                "addr:place": "Leszczyny",
                "addr:housenumber": "33",
                "addr:teryt:simc": 239178,
                "contact:phone": "+48 413021965",
                "contact:email": "sp-leszczyny@wp.pl",
                "ref:regon": "260639516",
                "operator": "Gmina G\u00f3rno",
                "operator:type": "government",
                "amenity": "kindergarten"
            }
        },
        {
            "id": 20734,
            "type": "Feature",
            "geometry": {
                "type": "Point",
                "coordinates": [
                    20.7152667,
                    50.8732379
                ]
            },
            "properties": {
                "ref:rspo": 20734,
                "official_name": "Zesp\u00f3\u0142 Szkolno-Przedszkolny w Cedzynie",
                "name": "Zesp\u00f3\u0142 Szkolno-Przedszkolny w Cedzynie",
                "addr:country": "PL",
                "addr:postcode": "25-900",
                "addr:city": "Cedzyna",
                "addr:street": "Szkolna",
                "addr:housenumber": "6",
                "addr:teryt:simc": 238842,
                "addr:teryt:sym_ul": 21970,
                "contact:phone": "+48 413022220",
                "contact:email": "szkola.cedzyna@poczta.onet.pl",
                "ref:regon": "260478941",
                "ref:vatin": "PL6572890328",
                "operator": "Gmina G\u00f3rno",
                "operator:type": "government",
                "landuse": "education",
                "fixme": "amenity=school, amenity=college albo landuse=education w zale\u017cno\u015bci od tego, jakie plac\u00f3wki wchodz\u0105 w sk\u0142ad zespo\u0142u. Sprawd\u017a, kiedy stosowa\u0107 amenity=* a kiedy landuse=education.",
                "note": "Children RSPO: 30512;53936"
            }
        },
        {
            "id": 30512,
            "type": "Feature",
            "geometry": {
                "type": "Point",
                "coordinates": [
                    20.7152667,
                    50.8732079
                ]
            },
            "properties": {
                "ref:rspo": 30512,
                "official_name": "Gminne Przedszkole w Cedzynie",
                "name": "Gminne Przedszkole w Cedzynie",
                "addr:country": "PL",
                "addr:postcode": "25-900",
                "addr:city": "Cedzyna",
                "addr:street": "Szkolna",
                "addr:housenumber": "6",
                "addr:teryt:simc": 238842,
                "addr:teryt:sym_ul": 21970,
                "contact:phone": "+48 413021900",
                "contact:email": "szkola.cedzyna@poczta.onet.pl",
                "contact:website": "http:\/\/szkolacedzyna.pl",
                "ref:regon": "260411463",
                "operator": "Gmina G\u00f3rno",
                "operator:type": "government",
                "amenity": "kindergarten",
                "note": "Parent RSPO: 20734"
            }
        },
        {
            "id": 53936,
            "type": "Feature",
            "geometry": {
                "type": "Point",
                "coordinates": [
                    20.7152667,
                    50.8731779
                ]
            },
            "properties": {
                "isced:level": "1;2",
                "ref:rspo": 53936,
                "official_name": "Szko\u0142a Podstawowa im. Stefana \u017beromskiego w Cedzynie",
                "name": "Szko\u0142a Podstawowa",
                "addr:country": "PL",
                "addr:postcode": "25-900",
                "addr:city": "Cedzyna",
                "addr:street": "Szkolna",
                "addr:housenumber": "6",
                "addr:teryt:simc": 238842,
                "addr:teryt:sym_ul": 21970,
                "contact:phone": "+48 413022220",
                "contact:email": "szkola.cedzyna@poczta.onet.pl",
                "contact:website": "http:\/\/szkolacedzyna.5v.pl",
                "ref:regon": "001167328",
                "operator": "Gmina G\u00f3rno",
                "operator:type": "government",
                "amenity": "school",
                "note": "Parent RSPO: 20734"
            }
        },
        {
            "id": 30517,
            "type": "Feature",
            "geometry": {
                "type": "Point",
                "coordinates": [
                    20.8498099,
                    50.8798709
                ]
            },
            "properties": {
                "isced:level": "1;2",
                "ref:rspo": 30517,
                "official_name": "Szko\u0142a Podstawowa im. Ks. Jerzego Popie\u0142uszki w Krajnie",
                "name": "Szko\u0142a Podstawowa",
                "addr:country": "PL",
                "addr:postcode": "26-008",
                "addr:place": "Krajno Pierwsze",
                "addr:housenumber": "153a",
                "addr:teryt:simc": 239072,
                "contact:phone": "+48 413023003",
                "contact:email": "spkrajno@onet.pl",
                "contact:website": "http:\/\/spkrajno.pl",
                "ref:regon": "001167311",
                "ref:vatin": "PL6572332597",
                "operator": "Gmina G\u00f3rno",
                "operator:type": "government",
                "amenity": "school"
            }
        },
        {
            "id": 53935,
            "type": "Feature",
            "geometry": {
                "type": "Point",
                "coordinates": [
                    20.8498099,
                    50.8798409
                ]
            },
            "properties": {
                "ref:rspo": 53935,
                "official_name": "Punkt Przedszkolny Przy Szkole Podstawowej w Krajnie",
                "name": "Punkt Przedszkolny Przy Szkole Podstawowej w Krajnie",
                "addr:country": "PL",
                "addr:postcode": "26-008",
                "addr:place": "Krajno Pierwsze",
                "addr:housenumber": "153a",
                "addr:teryt:simc": 239072,
                "contact:phone": "+48 413023003",
                "contact:email": "spkrajno@onet.pl",
                "ref:regon": "260643140",
                "operator": "Gmina G\u00f3rno",
                "operator:type": "government",
                "amenity": "kindergarten"
            }
        },
        {
            "id": 30513,
            "type": "Feature",
            "geometry": {
                "type": "Point",
                "coordinates": [
                    20.72507,
                    50.90356
                ]
            },
            "properties": {
                "isced:level": "1;2",
                "ref:rspo": 30513,
                "official_name": "Szko\u0142a Podstawowa im. Piotra \u015aciegiennego w B\u0119czkowie",
                "name": "Szko\u0142a Podstawowa",
                "addr:country": "PL",
                "addr:postcode": "26-008",
                "addr:city": "B\u0119czk\u00f3w",
                "addr:street": "Jana Paw\u0142a II",
                "addr:housenumber": "16",
                "addr:teryt:simc": 238753,
                "addr:teryt:sym_ul": 7123,
                "contact:phone": "+48 413024026",
                "contact:email": "spbeczkow@tlen.pl",
                "contact:website": "http:\/\/spbeczkow.pl",
                "ref:regon": "001167340",
                "ref:vatin": "PL6572291007",
                "operator": "Gmina G\u00f3rno",
                "operator:type": "government",
                "amenity": "school"
            }
        },
        {
            "id": 53934,
            "type": "Feature",
            "geometry": {
                "type": "Point",
                "coordinates": [
                    20.72507,
                    50.903529999999996
                ]
            },
            "properties": {
                "ref:rspo": 53934,
                "official_name": "Punkt Przedszkolny Przy Szkole Podstawowej w B\u0119czkowie",
                "name": "Punkt Przedszkolny Przy Szkole Podstawowej w B\u0119czkowie",
                "addr:country": "PL",
                "addr:postcode": "26-008",
                "addr:city": "B\u0119czk\u00f3w",
                "addr:street": "Jana Paw\u0142a II",
                "addr:housenumber": "16",
                "addr:teryt:simc": 238753,
                "addr:teryt:sym_ul": 7123,
                "contact:phone": "+48 413024026",
                "contact:email": "spbeczkow@tlen.pl",
                "ref:regon": "260643133",
                "operator": "Gmina G\u00f3rno",
                "operator:type": "government",
                "amenity": "kindergarten"
            }
        }
    ]
}