{
    "type": "FeatureCollection",
    "features": [
        {
            "id": 20148,
            "type": "Feature",
            "geometry": {
                "type": "Point",
                "coordinates": [
                    20.4858249,
                    50.97632
                ]
            },
            "properties": {
                "isced:level": "1;2",
                "ref:rspo": 20148,
                "official_name": "Szko\u0142a Podstawowa w Cierchach",
                "name": "Szko\u0142a Podstawowa w Cierchach",
                "addr:country": "PL",
                "addr:postcode": "26-080",
                "addr:place": "Cierchy",
                "addr:housenumber": "1",
                "addr:teryt:sym_ul": 253126,
                "contact:phone": "+48 413737019",
                "contact:email": "spcierchy@mniow.pl",
                "ref:regon": "001194220",
                "ref:vatin": "PL9591468690",
                "operator": "Gmina Mni\u00f3w",
                "operator:type": "government",
                "amenity": "school"
            }
        },
        {
            "id": 103921,
            "type": "Feature",
            "geometry": {
                "type": "Point",
                "coordinates": [
                    20.4022599,
                    51.00943
                ]
            },
            "properties": {
                "isced:level": "1;2",
                "ref:rspo": 103921,
                "official_name": "Szko\u0142a Podstawowa w Grzyma\u0142kowie",
                "name": "Szko\u0142a Podstawowa w Grzyma\u0142kowie",
                "addr:country": "PL",
                "addr:postcode": "26-080",
                "addr:city": "Grzyma\u0142k\u00f3w",
                "addr:street": "\u015awi\u0119tokrzyska",
                "addr:housenumber": "22",
                "addr:teryt:simc": 22552,
                "addr:teryt:sym_ul": 253155,
                "contact:phone": "+48 413737112",
                "contact:email": "spgrzymalkow@mniow.pl",
                "contact:website": "http:\/\/spgrzymalkow.szkolnastrona.pl",
                "ref:regon": "001194259",
                "ref:vatin": "PL9591468715",
                "operator": "Gmina Mni\u00f3w",
                "operator:type": "government",
                "amenity": "school"
            }
        },
        {
            "id": 103936,
            "type": "Feature",
            "geometry": {
                "type": "Point",
                "coordinates": [
                    20.48201,
                    51.01045
                ]
            },
            "properties": {
                "isced:level": "1;2",
                "ref:rspo": 103936,
                "official_name": "Szko\u0142a Podstawowa im. Jana Paw\u0142a II w Mniowie",
                "name": "Szko\u0142a Podstawowa",
                "addr:country": "PL",
                "addr:postcode": "26-080",
                "addr:city": "Mni\u00f3w",
                "addr:street": "Centralna",
                "addr:housenumber": "11",
                "addr:teryt:simc": 2614,
                "addr:teryt:sym_ul": 253244,
                "contact:phone": "+48 413737018",
                "contact:email": "spmniow@mniow.pl",
                "contact:website": "http:\/\/www.spmniow.edupage.org",
                "ref:regon": "000586371",
                "ref:vatin": "PL9591468678",
                "operator": "Gmina Mni\u00f3w",
                "operator:type": "government",
                "amenity": "school"
            }
        },
        {
            "id": 129747,
            "type": "Feature",
            "geometry": {
                "type": "Point",
                "coordinates": [
                    20.48161,
                    51.0119
                ]
            },
            "properties": {
                "ref:rspo": 129747,
                "official_name": "Niepubliczne Przedszkole \u201ePrzedszkole Bajka\u201d",
                "name": "Niepubliczne Przedszkole \u201ePrzedszkole Bajka\u201d",
                "addr:country": "PL",
                "addr:postcode": "26-080",
                "addr:city": "Mni\u00f3w",
                "addr:street": "Centralna",
                "addr:housenumber": "2",
                "addr:teryt:simc": 2614,
                "addr:teryt:sym_ul": 253244,
                "contact:phone": "+48 502867456",
                "contact:email": "snrrwk@o2.pl",
                "contact:website": "http:\/\/www.komorow.eu",
                "ref:regon": "362827182",
                "operator": "Stowarzyszenie Wspierania Edukacji I Rozwoju",
                "operator:type": "ngo",
                "amenity": "kindergarten"
            }
        },
        {
            "id": 92088,
            "type": "Feature",
            "geometry": {
                "type": "Point",
                "coordinates": [
                    20.559085,
                    51.034932
                ]
            },
            "properties": {
                "isced:level": "1;2",
                "ref:rspo": 92088,
                "official_name": "Szko\u0142a Podstawowa w Rogowicach",
                "name": "Szko\u0142a Podstawowa w Rogowicach",
                "addr:country": "PL",
                "addr:postcode": "26-080",
                "addr:place": "Rogowice",
                "addr:housenumber": "123",
                "addr:teryt:sym_ul": 253505,
                "contact:phone": "+48 413737022",
                "contact:email": "sprogowice@poczta.onet.pl",
                "contact:website": "http:\/\/sprogowice.szkolnastrona.pl",
                "ref:regon": "260652853",
                "ref:vatin": "PL9591468709",
                "operator": "Stowarzyszenie \"Razem Dla Wsi I Szko\u0142y\"",
                "operator:type": "ngo",
                "amenity": "school"
            }
        },
        {
            "id": 20152,
            "type": "Feature",
            "geometry": {
                "type": "Point",
                "coordinates": [
                    20.476357,
                    51.0357149
                ]
            },
            "properties": {
                "isced:level": "1;2",
                "ref:rspo": 20152,
                "official_name": "Szko\u0142a Podstawowa w Zaborowicach",
                "name": "Szko\u0142a Podstawowa w Zaborowicach",
                "addr:country": "PL",
                "addr:postcode": "26-080",
                "addr:place": "Zaborowice",
                "addr:housenumber": "160",
                "addr:teryt:sym_ul": 253675,
                "contact:phone": "+48 413737096",
                "contact:email": "spzaborowice@mniow.pl",
                "contact:website": "http:\/\/www.spzaborowice.szkolnastrona.pl",
                "ref:regon": "001189258",
                "ref:vatin": "PL9591468684",
                "operator": "Gmina Mni\u00f3w",
                "operator:type": "government",
                "amenity": "school"
            }
        }
    ]
}