{
    "type": "FeatureCollection",
    "features": [
        {
            "id": 39694,
            "type": "Feature",
            "geometry": {
                "type": "Point",
                "coordinates": [
                    20.285258,
                    50.8675049
                ]
            },
            "properties": {
                "isced:level": "1;2",
                "ref:rspo": 39694,
                "official_name": "Szko\u0142a Podstawowa im. Stefana \u017beromskiego w Gnie\u017adziskach",
                "name": "Szko\u0142a Podstawowa",
                "addr:postcode": "26-070",
                "addr:place": "Gnie\u017adziska",
                "addr:housenumber": "85",
                "addr:teryt:simc": 248504,
                "phone": "+48 413916026",
                "email": "zs.gniezdziska@wp.pl",
                "ref:regon": "001216268",
                "ref:vatin": "PL9591808766",
                "operator": "Gmina \u0141opuszno",
                "operator:type": "government",
                "amenity": "school"
            }
        },
        {
            "id": 104384,
            "type": "Feature",
            "geometry": {
                "type": "Point",
                "coordinates": [
                    20.242303,
                    50.9149029
                ]
            },
            "properties": {
                "isced:level": "1;2",
                "ref:rspo": 104384,
                "official_name": "Szko\u0142a Podstawowa im. Jana Paw\u0142a II w \u0141opusznie Filia w Grabownicy",
                "name": "Szko\u0142a Podstawowa",
                "addr:postcode": "26-070",
                "addr:place": "Grabownica",
                "addr:housenumber": "14",
                "addr:teryt:simc": 248527,
                "phone": "+48 413914194",
                "email": "anna.skrzypczyk@op.pl",
                "ref:regon": "580440000",
                "operator": "Gmina \u0141opuszno",
                "operator:type": "government",
                "amenity": "school",
                "note": "Parent RSPO: 18509"
            }
        },
        {
            "id": 18509,
            "type": "Feature",
            "geometry": {
                "type": "Point",
                "coordinates": [
                    20.25312,
                    50.9462
                ]
            },
            "properties": {
                "isced:level": "1;2",
                "ref:rspo": 18509,
                "official_name": "Szko\u0142a Podstawowa im. Jana Paw\u0142a II w \u0141opusznie",
                "name": "Szko\u0142a Podstawowa",
                "addr:postcode": "26-070",
                "addr:city": "\u0141opuszno",
                "addr:street": "Stra\u017cacka",
                "addr:housenumber": "5",
                "addr:teryt:simc": 248622,
                "addr:teryt:sym_ul": 21271,
                "phone": "+48 413914020",
                "email": "sekretariat@zslopuszno.pl",
                "ref:regon": "000580440",
                "ref:vatin": "PL6581700907",
                "operator": "Gmina \u0141opuszno",
                "operator:type": "government",
                "amenity": "school",
                "note": "Children RSPO: 104384"
            }
        },
        {
            "id": 129241,
            "type": "Feature",
            "geometry": {
                "type": "Point",
                "coordinates": [
                    20.2496383,
                    50.9468207
                ]
            },
            "properties": {
                "ref:rspo": 129241,
                "official_name": "Niepubliczne Naukowe Przedszkole Integracyjne Mini College",
                "name": "Niepubliczne Naukowe Przedszkole Integracyjne Mini College",
                "addr:postcode": "26-070",
                "addr:city": "\u0141opuszno",
                "addr:street": "W\u0142oszczowska",
                "addr:housenumber": "10",
                "addr:teryt:simc": 248622,
                "addr:teryt:sym_ul": 24528,
                "phone": "+48 730760998",
                "email": "ewawasowicz@minicollege.pl",
                "ref:regon": "362535137",
                "operator": "Fundacja Mini College",
                "operator:type": "ngo",
                "amenity": "kindergarten"
            }
        },
        {
            "id": 279111,
            "type": "Feature",
            "geometry": {
                "type": "Point",
                "coordinates": [
                    20.2496383,
                    50.9467907
                ]
            },
            "properties": {
                "ref:rspo": 279111,
                "official_name": "Niepubliczna Poradnia Psychologiczno \u2013 Pedagogiczna \u201e\u015awi\u0119tokrzyska\u201d w \u0141opusznie",
                "name": "Niepubliczna Poradnia Psychologiczno \u2013 Pedagogiczna \u201e\u015awi\u0119tokrzyska\u201d w \u0141opusznie",
                "addr:postcode": "26-070",
                "addr:city": "\u0141opuszno",
                "addr:street": "W\u0142oszczowska",
                "addr:housenumber": "10",
                "addr:teryt:simc": 248622,
                "addr:teryt:sym_ul": 24528,
                "ref:regon": "520677020",
                "operator": "Fundacja Na Rzecz Promocji Zdrowia \"Puls\"",
                "operator:type": "ngo",
                "healthcare": "counselling",
                "counselling_type": "education",
                "fixme": "w zale\u017cno\u015bci od przedmiotu dzia\u0142alno\u015bci (np. healthcare=counselling + counselling_type=education albo healthcare=psychotherapist)"
            }
        },
        {
            "id": 5740,
            "type": "Feature",
            "geometry": {
                "type": "Point",
                "coordinates": [
                    20.23833,
                    50.95466
                ]
            },
            "properties": {
                "ref:rspo": 5740,
                "official_name": "Powiatowy Zesp\u00f3\u0142 Szk\u00f3\u0142 w \u0141opusznie",
                "name": "Powiatowy Zesp\u00f3\u0142 Szk\u00f3\u0142 w \u0141opusznie",
                "addr:postcode": "26-070",
                "addr:city": "\u0141opuszno",
                "addr:street": "Kasztanowa",
                "addr:housenumber": "39",
                "addr:teryt:simc": 248622,
                "addr:teryt:sym_ul": 8171,
                "phone": "+48 413914025",
                "email": "zsp5lopuszno@o2.pl",
                "website": "http:\/\/www.zsp5lopuszno.pl\/",
                "ref:regon": "292679100",
                "ref:vatin": "PL9591545829",
                "operator": "Powiat Kielecki",
                "operator:type": "government",
                "landuse": "education",
                "fixme": "amenity=school, amenity=college albo landuse=education w zale\u017cno\u015bci od tego, jakie plac\u00f3wki wchodz\u0105 w sk\u0142ad zespo\u0142u. Sprawd\u017a, kiedy stosowa\u0107 amenity=* a kiedy landuse=education.",
                "note": "Children RSPO: 8190;8199;8217;8326;14467;275394"
            }
        },
        {
            "id": 8190,
            "type": "Feature",
            "geometry": {
                "type": "Point",
                "coordinates": [
                    20.23833,
                    50.954629999999995
                ]
            },
            "properties": {
                "isced:level": "3",
                "ref:rspo": 8190,
                "official_name": "Liceum Og\u00f3lnokszta\u0142c\u0105ce im. Kardyna\u0142a Karola Wojty\u0142y w \u0141opusznie",
                "name": "Liceum Og\u00f3lnokszta\u0142c\u0105ce",
                "addr:postcode": "26-070",
                "addr:city": "\u0141opuszno",
                "addr:street": "Kasztanowa",
                "addr:housenumber": "39",
                "addr:teryt:simc": 248622,
                "addr:teryt:sym_ul": 8171,
                "phone": "+48 413914025",
                "email": "zsp5lopuszno@o2.pl",
                "website": "http:\/\/www.zsp5lopuszno.pl",
                "ref:regon": "292679614",
                "operator": "Powiat Kielecki",
                "operator:type": "government",
                "amenity": "school",
                "note": "Parent RSPO: 5740"
            }
        },
        {
            "id": 8199,
            "type": "Feature",
            "geometry": {
                "type": "Point",
                "coordinates": [
                    20.23833,
                    50.9546
                ]
            },
            "properties": {
                "isced:level": "3",
                "ref:rspo": 8199,
                "official_name": "Technikum w Powiatowym Zespole Szk\u00f3\u0142 w \u0141opusznie",
                "name": "Technikum w Powiatowym Zespole Szk\u00f3\u0142 w \u0141opusznie",
                "addr:postcode": "26-070",
                "addr:city": "\u0141opuszno",
                "addr:street": "Kasztanowa",
                "addr:housenumber": "39",
                "addr:teryt:simc": 248622,
                "addr:teryt:sym_ul": 8171,
                "phone": "+48 413914025",
                "email": "zsp5lopuszno@o2.pl",
                "website": "http:\/\/www.zsp5lopuszno.pl",
                "ref:regon": "260044964",
                "operator": "Powiat Kielecki",
                "operator:type": "government",
                "amenity": "school",
                "note": "Parent RSPO: 5740"
            }
        },
        {
            "id": 8217,
            "type": "Feature",
            "geometry": {
                "type": "Point",
                "coordinates": [
                    20.23833,
                    50.95457
                ]
            },
            "properties": {
                "isced:level": "3",
                "ref:rspo": 8217,
                "official_name": "Bran\u017cowa Szko\u0142a I Stopnia w Powiatowym Zespole Szk\u00f3\u0142 w \u0141opusznie",
                "name": "Bran\u017cowa Szko\u0142a I Stopnia w Powiatowym Zespole Szk\u00f3\u0142 w \u0141opusznie",
                "addr:postcode": "26-070",
                "addr:city": "\u0141opuszno",
                "addr:street": "Kasztanowa",
                "addr:housenumber": "39",
                "addr:teryt:simc": 248622,
                "addr:teryt:sym_ul": 8171,
                "phone": "+48 413914025",
                "email": "zsp5lopuszno@o2.pl",
                "website": "http:\/\/www.zsp5lopuszno.pl",
                "ref:regon": "260416839",
                "operator": "Powiat Kielecki",
                "operator:type": "government",
                "amenity": "school",
                "note": "Parent RSPO: 5740"
            }
        },
        {
            "id": 8326,
            "type": "Feature",
            "geometry": {
                "type": "Point",
                "coordinates": [
                    20.23833,
                    50.954539999999994
                ]
            },
            "properties": {
                "isced:level": "4",
                "ref:rspo": 8326,
                "official_name": "Szko\u0142a Policealna w Powiatowym Zespole Szk\u00f3\u0142 w \u0141opusznie",
                "name": "Szko\u0142a Policealna w Powiatowym Zespole Szk\u00f3\u0142 w \u0141opusznie",
                "addr:postcode": "26-070",
                "addr:city": "\u0141opuszno",
                "addr:street": "Kasztanowa",
                "addr:housenumber": "39",
                "addr:teryt:simc": 248622,
                "addr:teryt:sym_ul": 8171,
                "phone": "+48 413914025",
                "email": "zsp5lopuszno@o2.pl",
                "website": "http:\/\/www.zsp5lopuszno.pl",
                "ref:regon": "260531820",
                "operator": "Powiat Kielecki",
                "operator:type": "government",
                "amenity": "college",
                "note": "Parent RSPO: 5740"
            }
        },
        {
            "id": 14467,
            "type": "Feature",
            "geometry": {
                "type": "Point",
                "coordinates": [
                    20.23833,
                    50.95451
                ]
            },
            "properties": {
                "isced:level": "3",
                "ref:rspo": 14467,
                "official_name": "Liceum Og\u00f3lnokszta\u0142c\u0105ce dla Doros\u0142ych w Powiatowym Zespole Szk\u00f3\u0142 w \u0141opusznie",
                "name": "Liceum Og\u00f3lnokszta\u0142c\u0105ce dla Doros\u0142ych w Powiatowym Zespole Szk\u00f3\u0142 w \u0141opusznie",
                "addr:postcode": "26-070",
                "addr:city": "\u0141opuszno",
                "addr:street": "Kasztanowa",
                "addr:housenumber": "39",
                "addr:teryt:simc": 248622,
                "addr:teryt:sym_ul": 8171,
                "phone": "+48 413914025",
                "email": "zsp5lopuszno@o2.pl",
                "website": "http:\/\/www.zsp5lopuszno.pl",
                "ref:regon": "260632709",
                "operator": "Powiat Kielecki",
                "operator:type": "government",
                "amenity": "school",
                "note": "Parent RSPO: 5740"
            }
        },
        {
            "id": 275394,
            "type": "Feature",
            "geometry": {
                "type": "Point",
                "coordinates": [
                    20.23833,
                    50.95448
                ]
            },
            "properties": {
                "isced:level": "3",
                "ref:rspo": 275394,
                "official_name": "Bran\u017cowa Szko\u0142a II Stopnia w Powiatowym Zespole Szk\u00f3\u0142 w \u0141opusznie",
                "name": "Bran\u017cowa Szko\u0142a II Stopnia w Powiatowym Zespole Szk\u00f3\u0142 w \u0141opusznie",
                "addr:postcode": "26-070",
                "addr:city": "\u0141opuszno",
                "addr:street": "Kasztanowa",
                "addr:housenumber": "39",
                "addr:teryt:simc": 248622,
                "addr:teryt:sym_ul": 8171,
                "phone": "+48 413914025",
                "email": "zsp5lopuszno@o2.pl",
                "website": "http:\/\/www.zsp5lopuszno.pl",
                "ref:regon": "386917771",
                "operator": "Powiat Kielecki",
                "operator:type": "government",
                "amenity": "school",
                "note": "Parent RSPO: 5740"
            }
        },
        {
            "id": 123574,
            "type": "Feature",
            "geometry": {
                "type": "Point",
                "coordinates": [
                    20.266938,
                    50.9938085
                ]
            },
            "properties": {
                "isced:level": "1;2",
                "ref:rspo": 123574,
                "official_name": "Szko\u0142a Podstawowa w Dobrzeszowie Filia w Sarbicach",
                "name": "Szko\u0142a Podstawowa w Dobrzeszowie Filia w Sarbicach",
                "addr:postcode": "26-070",
                "addr:place": "Sarbice Drugie",
                "addr:housenumber": "1",
                "addr:teryt:simc": 248875,
                "phone": "+48 413913104",
                "email": "szkola138@wp.pl",
                "ref:regon": "121625100",
                "operator": "Gmina \u0141opuszno",
                "operator:type": "government",
                "amenity": "school",
                "note": "Parent RSPO: 12836"
            }
        },
        {
            "id": 12836,
            "type": "Feature",
            "geometry": {
                "type": "Point",
                "coordinates": [
                    20.3951804,
                    51.0038078
                ]
            },
            "properties": {
                "isced:level": "1;2",
                "ref:rspo": 12836,
                "official_name": "Szko\u0142a Podstawowa w Dobrzeszowie",
                "name": "Szko\u0142a Podstawowa w Dobrzeszowie",
                "addr:postcode": "26-070",
                "addr:place": "Dobrzesz\u00f3w",
                "addr:housenumber": "70",
                "addr:teryt:simc": 248332,
                "phone": "+48 413913633",
                "email": "szkola138@wp.pl",
                "ref:regon": "001216251",
                "ref:vatin": "PL9591824239",
                "operator": "Gmina \u0141opuszno",
                "operator:type": "government",
                "amenity": "school",
                "note": "Children RSPO: 123574"
            }
        }
    ]
}