{
    "type": "FeatureCollection",
    "features": [
        {
            "id": 130063,
            "type": "Feature",
            "geometry": {
                "type": "Point",
                "coordinates": [
                    20.572587,
                    50.798175
                ]
            },
            "properties": {
                "ref:rspo": 130063,
                "official_name": "Zesp\u00f3\u0142 Plac\u00f3wek Integracyjnych w Kowali",
                "name": "Zesp\u00f3\u0142 Plac\u00f3wek Integracyjnych w Kowali",
                "addr:postcode": "26-052",
                "addr:place": "Kowala",
                "addr:housenumber": "51",
                "addr:city:simc": 267424,
                "phone": "+48 413465404",
                "email": "kowala51@wp.pl",
                "website": "http:\/\/www.zpikowala.szkolna.net",
                "ref:regon": "363394590",
                "ref:vatin": "PL9591976564",
                "operator": "Gmina Nowiny",
                "operator:type": "government",
                "landuse": "education",
                "fixme": "amenity=school, amenity=college albo landuse=education w zale\u017cno\u015bci od tego, jakie plac\u00f3wki wchodz\u0105 w sk\u0142ad zespo\u0142u. Sprawd\u017a, kiedy stosowa\u0107 amenity=* a kiedy landuse=education.",
                "note": "Children RSPO: 14333;130070"
            }
        },
        {
            "id": 14333,
            "type": "Feature",
            "geometry": {
                "type": "Point",
                "coordinates": [
                    20.572587,
                    50.798145
                ]
            },
            "properties": {
                "isced:level": "1;2",
                "ref:rspo": 14333,
                "official_name": "Szko\u0142a Podstawowa im. Gen. Antoniego Hedy Ps. \u201eSzary\u201d w Kowali",
                "name": "Szko\u0142a Podstawowa",
                "addr:postcode": "26-052",
                "addr:place": "Kowala",
                "addr:housenumber": "51B",
                "addr:city:simc": 267424,
                "phone": "+48 413465404",
                "email": "kowala51@wp.pl",
                "website": "http:\/\/www.spkowala.szkolna.net",
                "ref:regon": "001217204",
                "ref:vatin": "PL9591464166",
                "operator": "Gmina Nowiny",
                "operator:type": "government",
                "amenity": "school",
                "note": "Parent RSPO: 130063"
            }
        },
        {
            "id": 130070,
            "type": "Feature",
            "geometry": {
                "type": "Point",
                "coordinates": [
                    20.572587,
                    50.798115
                ]
            },
            "properties": {
                "ref:rspo": 130070,
                "official_name": "Przedszkole Samorz\u0105dowe Z Oddzia\u0142ami Integracyjnymi w Kowali",
                "name": "Przedszkole Samorz\u0105dowe Z Oddzia\u0142ami Integracyjnymi w Kowali",
                "addr:postcode": "26-052",
                "addr:place": "Kowala",
                "addr:housenumber": "51",
                "addr:city:simc": 267424,
                "phone": "+48 413465404",
                "email": "kowala51@wp.pl",
                "website": "http:\/\/www.spkowala.szkolna.net",
                "ref:regon": "363398725",
                "operator": "Gmina Nowiny",
                "operator:type": "government",
                "amenity": "kindergarten",
                "note": "Parent RSPO: 130063"
            }
        },
        {
            "id": 130062,
            "type": "Feature",
            "geometry": {
                "type": "Point",
                "coordinates": [
                    20.5202213,
                    50.8015783
                ]
            },
            "properties": {
                "ref:rspo": 130062,
                "official_name": "Zesp\u00f3\u0142 Plac\u00f3wek O\u015bwiatowych im. Pierwszej Kampanii Kadrowej w Bolechowicach",
                "name": "Zesp\u00f3\u0142 Plac\u00f3wek O\u015bwiatowych",
                "addr:postcode": "26-052",
                "addr:place": "Bolechowice",
                "addr:housenumber": "10",
                "addr:city:simc": 234057,
                "phone": "+48 413150526",
                "email": "sekretariatzpobolechowice@nowiny.com.pl",
                "website": "http:\/\/www.spbolechowice.pl",
                "ref:regon": "363394437",
                "ref:vatin": "PL9591976558",
                "operator": "Gmina Nowiny",
                "operator:type": "government",
                "landuse": "education",
                "fixme": "amenity=school, amenity=college albo landuse=education w zale\u017cno\u015bci od tego, jakie plac\u00f3wki wchodz\u0105 w sk\u0142ad zespo\u0142u. Sprawd\u017a, kiedy stosowa\u0107 amenity=* a kiedy landuse=education.",
                "note": "Children RSPO: 14334;130069"
            }
        },
        {
            "id": 14334,
            "type": "Feature",
            "geometry": {
                "type": "Point",
                "coordinates": [
                    20.5202213,
                    50.8015483
                ]
            },
            "properties": {
                "isced:level": "1;2",
                "ref:rspo": 14334,
                "official_name": "Szko\u0142a Podstawowa w Bolechowicach",
                "name": "Szko\u0142a Podstawowa w Bolechowicach",
                "addr:postcode": "26-052",
                "addr:place": "Bolechowice",
                "addr:housenumber": "10",
                "addr:city:simc": 234057,
                "phone": "+48 413150526",
                "email": "bolechowice10@wp.pl",
                "website": "http:\/\/spbolechowice.pl",
                "ref:regon": "001170862",
                "ref:vatin": "PL9591464189",
                "operator": "Gmina Nowiny",
                "operator:type": "government",
                "amenity": "school",
                "note": "Parent RSPO: 130062"
            }
        },
        {
            "id": 130069,
            "type": "Feature",
            "geometry": {
                "type": "Point",
                "coordinates": [
                    20.5202213,
                    50.801518300000005
                ]
            },
            "properties": {
                "ref:rspo": 130069,
                "official_name": "Przedszkole Samorz\u0105dowe w Bolechowicach",
                "name": "Przedszkole Samorz\u0105dowe w Bolechowicach",
                "addr:postcode": "26-052",
                "addr:place": "Bolechowice",
                "addr:housenumber": "10",
                "addr:city:simc": 234057,
                "phone": "+48 413150526",
                "email": "bolechowice10@wp.pl",
                "ref:regon": "363398702",
                "operator": "Gmina Nowiny",
                "operator:type": "government",
                "amenity": "kindergarten",
                "note": "Parent RSPO: 130062"
            }
        },
        {
            "id": 14335,
            "type": "Feature",
            "geometry": {
                "type": "Point",
                "coordinates": [
                    20.53395,
                    50.82367
                ]
            },
            "properties": {
                "ref:rspo": 14335,
                "official_name": "Przedszkole Samorz\u0105dowe im. \u201ePluszowego Misia\u201d w Nowinach",
                "name": "Przedszkole Samorz\u0105dowe",
                "addr:postcode": "26-052",
                "addr:city": "Nowiny",
                "addr:street": "Parkowa",
                "addr:housenumber": "11",
                "addr:city:simc": 267453,
                "addr:street:sym_ul": 15710,
                "phone": "+48 413465514",
                "email": "przedszkolenowiny@interia.pl",
                "website": "http:\/\/www.przedszkolenowiny.edupage.org",
                "ref:regon": "290511402",
                "ref:vatin": "PL9591464137",
                "operator": "Gmina Nowiny",
                "operator:type": "government",
                "amenity": "kindergarten"
            }
        },
        {
            "id": 14332,
            "type": "Feature",
            "geometry": {
                "type": "Point",
                "coordinates": [
                    20.533,
                    50.82454
                ]
            },
            "properties": {
                "isced:level": "1;2",
                "ref:rspo": 14332,
                "official_name": "Szko\u0142a Podstawowa im. Orl\u0105t Lwowskich w Nowinach",
                "name": "Szko\u0142a Podstawowa",
                "addr:postcode": "26-052",
                "addr:city": "Nowiny",
                "addr:street": "Bia\u0142e Zag\u0142\u0119bie",
                "addr:housenumber": "21",
                "addr:city:simc": 267453,
                "addr:street:sym_ul": 1147,
                "phone": "+48 413465363",
                "email": "spnowiny@poczta.onet.pl",
                "website": "http:\/\/www.spnowiny.nazwa.pl",
                "ref:regon": "000274045",
                "ref:vatin": "PL9591464120",
                "operator": "Gmina Nowiny",
                "operator:type": "government",
                "amenity": "school"
            }
        },
        {
            "id": 14337,
            "type": "Feature",
            "geometry": {
                "type": "Point",
                "coordinates": [
                    20.47267,
                    50.95257
                ]
            },
            "properties": {
                "ref:rspo": 14337,
                "official_name": "Zesp\u00f3\u0142 Szk\u00f3\u0142 Ponadpodstawowych w Nowinach",
                "name": "Zesp\u00f3\u0142 Szk\u00f3\u0142 Ponadpodstawowych w Nowinach",
                "addr:postcode": "26-052",
                "addr:city": "Nowiny",
                "addr:street": "Gimnazjalna",
                "addr:housenumber": "1",
                "addr:city:simc": 267453,
                "addr:street:sym_ul": 5527,
                "phone": "+48 413465356",
                "email": "sekretariatzsp@nowiny.com.pl",
                "website": "http:\/\/www.sms-nowiny.pl",
                "ref:regon": "292830933",
                "ref:vatin": "PL9591590149",
                "operator": "Gmina Nowiny",
                "operator:type": "government",
                "landuse": "education",
                "fixme": "amenity=school, amenity=college albo landuse=education w zale\u017cno\u015bci od tego, jakie plac\u00f3wki wchodz\u0105 w sk\u0142ad zespo\u0142u. Sprawd\u017a, kiedy stosowa\u0107 amenity=* a kiedy landuse=education.",
                "note": "Children RSPO: 14338;42119;42120"
            }
        },
        {
            "id": 14338,
            "type": "Feature",
            "geometry": {
                "type": "Point",
                "coordinates": [
                    20.47267,
                    50.95254
                ]
            },
            "properties": {
                "ref:rspo": 14338,
                "official_name": "Szkolne Schronisko M\u0142odzie\u017cowe \u201eVentus\u201d w Nowinach",
                "name": "Szkolne Schronisko M\u0142odzie\u017cowe \u201eVentus\u201d w Nowinach",
                "addr:postcode": "26-052",
                "addr:city": "Nowiny",
                "addr:street": "Gimnazjalna",
                "addr:housenumber": "1A",
                "addr:city:simc": 267453,
                "addr:street:sym_ul": 5527,
                "phone": "+48 413459522",
                "email": "schronisko.nowiny@interia.pl",
                "website": "http:\/\/www.ssmventus.pl",
                "ref:regon": "292689191",
                "ref:vatin": "PL9591550405",
                "operator": "Gmina Nowiny",
                "operator:type": "government",
                "tourism": "hostel",
                "note": "Parent RSPO: 14337"
            }
        },
        {
            "id": 42119,
            "type": "Feature",
            "geometry": {
                "type": "Point",
                "coordinates": [
                    20.47267,
                    50.952510000000004
                ]
            },
            "properties": {
                "isced:level": "3",
                "ref:rspo": 42119,
                "official_name": "Liceum Og\u00f3lnokszta\u0142c\u0105ce Z Klasami Mistrzostwa Sportowego im. W\u0142odzimierza Leonarda Luba\u0144skiego w Zespole Szk\u00f3\u0142 Ponadpodstawowych w Nowinach",
                "name": "Liceum Og\u00f3lnokszta\u0142c\u0105ce Z Klasami Mistrzostwa Sportowego",
                "addr:postcode": "26-052",
                "addr:city": "Nowiny",
                "addr:street": "Gimnazjalna",
                "addr:housenumber": "1",
                "addr:city:simc": 267453,
                "addr:street:sym_ul": 5527,
                "phone": "+48 413465356",
                "email": "sekretariatzsp@nowiny.com.pl",
                "website": "http:\/\/www.sms-nowiny.pl",
                "ref:regon": "292899586",
                "ref:vatin": "PL9591749153",
                "operator": "Gmina Nowiny",
                "operator:type": "government",
                "amenity": "school",
                "note": "Parent RSPO: 14337"
            }
        },
        {
            "id": 42120,
            "type": "Feature",
            "geometry": {
                "type": "Point",
                "coordinates": [
                    20.47267,
                    50.95248
                ]
            },
            "properties": {
                "isced:level": "3",
                "ref:rspo": 42120,
                "official_name": "Szko\u0142a Bran\u017cowa I Stopnia w Nowinach",
                "name": "Szko\u0142a Bran\u017cowa I Stopnia w Nowinach",
                "addr:postcode": "26-052",
                "addr:city": "Nowiny",
                "addr:street": "Gimnazjalna",
                "addr:housenumber": "1",
                "addr:city:simc": 267453,
                "addr:street:sym_ul": 5527,
                "phone": "+48 413465356",
                "email": "sekretariatzsp@nowiny.com.pl",
                "website": "http:\/\/www.sms-nowiny.pl",
                "ref:regon": "260412965",
                "ref:vatin": "PL9591906836",
                "operator": "Gmina Nowiny",
                "operator:type": "government",
                "amenity": "school",
                "note": "Parent RSPO: 14337"
            }
        }
    ]
}