{
    "type": "FeatureCollection",
    "features": [
        {
            "id": 12077,
            "type": "Feature",
            "geometry": {
                "type": "Point",
                "coordinates": [
                    20.7482599,
                    50.60842
                ]
            },
            "properties": {
                "ref:rspo": 12077,
                "official_name": "Przedszkole J\u0119zykowe Bajkowa Kraina",
                "name": "Przedszkole J\u0119zykowe Bajkowa Kraina",
                "addr:country": "PL",
                "addr:postcode": "26-020",
                "addr:city": "Chmielnik",
                "addr:street": "Lipowa",
                "addr:housenumber": "31",
                "addr:teryt:simc": 946906,
                "addr:teryt:sym_ul": 11139,
                "contact:phone": "+48 665851621",
                "contact:email": "biuro@bajkowakrainachmielnik.pl",
                "ref:regon": "260631176",
                "ref:vatin": "PL6551430225",
                "operator": "Marzena Juszczak",
                "operator:type": "private",
                "amenity": "kindergarten"
            }
        },
        {
            "id": 14350,
            "type": "Feature",
            "geometry": {
                "type": "Point",
                "coordinates": [
                    20.75484,
                    50.61016
                ]
            },
            "properties": {
                "ref:rspo": 14350,
                "official_name": "Powiatowy Zesp\u00f3\u0142 Szk\u00f3\u0142 w Chmielniku",
                "name": "Powiatowy Zesp\u00f3\u0142 Szk\u00f3\u0142 w Chmielniku",
                "addr:country": "PL",
                "addr:postcode": "26-020",
                "addr:city": "Chmielnik",
                "addr:street": "Dygasi\u0144skiego",
                "addr:housenumber": "11",
                "addr:teryt:simc": 946906,
                "addr:teryt:sym_ul": 4491,
                "contact:phone": "+48 413542894",
                "contact:email": "szkola@pzschmielnik.pl",
                "contact:website": "http:\/\/www.zs3chmielnik.pl",
                "ref:regon": "292677035",
                "ref:vatin": "PL6572481860",
                "operator": "Powiat Kielecki",
                "operator:type": "government",
                "landuse": "education",
                "fixme": "amenity=school, amenity=college albo landuse=education w zale\u017cno\u015bci od tego, jakie plac\u00f3wki wchodz\u0105 w sk\u0142ad zespo\u0142u. Sprawd\u017a, kiedy stosowa\u0107 amenity=* a kiedy landuse=education.",
                "note": "Children RSPO: 19876;19878;19881;19883;19889;28762"
            }
        },
        {
            "id": 19876,
            "type": "Feature",
            "geometry": {
                "type": "Point",
                "coordinates": [
                    20.75484,
                    50.61013
                ]
            },
            "properties": {
                "isced:level": "3",
                "ref:rspo": 19876,
                "official_name": "Liceum Og\u00f3lnokszta\u0142c\u0105ce im. Adolfa Dygasi\u0144skiego w Powiatowym Zespole Szk\u00f3\u0142 w Chmielniku",
                "name": "Liceum Og\u00f3lnokszta\u0142c\u0105ce",
                "addr:country": "PL",
                "addr:postcode": "26-020",
                "addr:city": "Chmielnik",
                "addr:street": "Dygasi\u0144skiego",
                "addr:housenumber": "11",
                "addr:teryt:simc": 946906,
                "addr:teryt:sym_ul": 4491,
                "contact:phone": "+48 413542894",
                "contact:email": "szkola@pzschmielnik.pl",
                "contact:website": "http:\/\/www.zs3chmielnik.pl",
                "ref:regon": "292441404",
                "ref:vatin": "PL6551084444",
                "operator": "Powiat Kielecki",
                "operator:type": "government",
                "amenity": "school",
                "note": "Parent RSPO: 14350"
            }
        },
        {
            "id": 19878,
            "type": "Feature",
            "geometry": {
                "type": "Point",
                "coordinates": [
                    20.75484,
                    50.6101
                ]
            },
            "properties": {
                "isced:level": "3",
                "ref:rspo": 19878,
                "official_name": "Technikum w Powiatowym Zespole Szk\u00f3\u0142 w Chmielniku",
                "name": "Technikum w Powiatowym Zespole Szk\u00f3\u0142 w Chmielniku",
                "addr:country": "PL",
                "addr:postcode": "26-020",
                "addr:city": "Chmielnik",
                "addr:street": "Dygasi\u0144skiego",
                "addr:housenumber": "11",
                "addr:teryt:simc": 946906,
                "addr:teryt:sym_ul": 4491,
                "contact:phone": "+48 413542894",
                "contact:email": "szkola@pzschmielnik.pl",
                "contact:website": "http:\/\/www.zs3chmielnik.pl",
                "ref:regon": "292441380",
                "operator": "Powiat Kielecki",
                "operator:type": "government",
                "amenity": "school",
                "note": "Parent RSPO: 14350"
            }
        },
        {
            "id": 19881,
            "type": "Feature",
            "geometry": {
                "type": "Point",
                "coordinates": [
                    20.75484,
                    50.61007
                ]
            },
            "properties": {
                "isced:level": "3",
                "ref:rspo": 19881,
                "official_name": "Bran\u017cowa Szko\u0142a I Stopnia w Powiatowym Zespole Szk\u00f3\u0142 w Chmielniku",
                "name": "Bran\u017cowa Szko\u0142a I Stopnia w Powiatowym Zespole Szk\u00f3\u0142 w Chmielniku",
                "addr:country": "PL",
                "addr:postcode": "26-020",
                "addr:city": "Chmielnik",
                "addr:street": "Dygasi\u0144skiego",
                "addr:housenumber": "11",
                "addr:teryt:simc": 946906,
                "addr:teryt:sym_ul": 4491,
                "contact:phone": "+48 413542894",
                "contact:email": "szkola@pzschmielnik.pl",
                "contact:website": "http:\/\/www.zs3chmielnik.pl",
                "ref:regon": "292889197",
                "operator": "Powiat Kielecki",
                "operator:type": "government",
                "amenity": "school",
                "note": "Parent RSPO: 14350"
            }
        },
        {
            "id": 19883,
            "type": "Feature",
            "geometry": {
                "type": "Point",
                "coordinates": [
                    20.75484,
                    50.61004
                ]
            },
            "properties": {
                "isced:level": "3",
                "ref:rspo": 19883,
                "official_name": "Liceum Og\u00f3lnokszta\u0142c\u0105ce dla Doros\u0142ych w Powiatowym Zespole Szk\u00f3\u0142 w Chmielniku",
                "name": "Liceum Og\u00f3lnokszta\u0142c\u0105ce dla Doros\u0142ych w Powiatowym Zespole Szk\u00f3\u0142 w Chmielniku",
                "addr:country": "PL",
                "addr:postcode": "26-020",
                "addr:city": "Chmielnik",
                "addr:street": "Dygasi\u0144skiego",
                "addr:housenumber": "11",
                "addr:teryt:simc": 946906,
                "addr:teryt:sym_ul": 4491,
                "contact:phone": "+48 413542894",
                "contact:email": "szkola@pzschmielnik.pl",
                "contact:website": "http:\/\/www.zs3chmielnik.com",
                "ref:regon": "260414757",
                "operator": "Powiat Kielecki",
                "operator:type": "government",
                "amenity": "school",
                "note": "Parent RSPO: 14350"
            }
        },
        {
            "id": 19889,
            "type": "Feature",
            "geometry": {
                "type": "Point",
                "coordinates": [
                    20.75484,
                    50.61001
                ]
            },
            "properties": {
                "isced:level": "4",
                "ref:rspo": 19889,
                "official_name": "Szko\u0142a Policealna w Powiatowym Zespole Szk\u00f3\u0142 w Chmielniku",
                "name": "Szko\u0142a Policealna w Powiatowym Zespole Szk\u00f3\u0142 w Chmielniku",
                "addr:country": "PL",
                "addr:postcode": "26-020",
                "addr:city": "Chmielnik",
                "addr:street": "Dygasi\u0144skiego",
                "addr:housenumber": "11",
                "addr:teryt:simc": 946906,
                "addr:teryt:sym_ul": 4491,
                "contact:phone": "+48 413542894",
                "contact:email": "szkola@pzschmielnik.pl",
                "contact:website": "http:\/\/www.zs3chmielnik.pl",
                "ref:regon": "260414817",
                "operator": "Powiat Kielecki",
                "operator:type": "government",
                "amenity": "college",
                "note": "Parent RSPO: 14350"
            }
        },
        {
            "id": 28762,
            "type": "Feature",
            "geometry": {
                "type": "Point",
                "coordinates": [
                    20.75484,
                    50.60998
                ]
            },
            "properties": {
                "ref:rspo": 28762,
                "official_name": "Centrum Kszta\u0142cenia Zawodowego w Chmielniku",
                "name": "Centrum Kszta\u0142cenia Zawodowego w Chmielniku",
                "addr:country": "PL",
                "addr:postcode": "26-020",
                "addr:city": "Chmielnik",
                "addr:street": "Dygasi\u0144skiego",
                "addr:housenumber": "11",
                "addr:teryt:simc": 946906,
                "addr:teryt:sym_ul": 4491,
                "contact:phone": "+48 413542360",
                "contact:email": "szkola@pzschmielnik.pl",
                "contact:website": "http:\/\/www.zs3chmielnik.pl",
                "ref:regon": "260438887",
                "ref:vatin": "PL6572876162",
                "operator": "Powiat Kielecki",
                "operator:type": "government",
                "fixme": "w zale\u017cno\u015bci od przedmiotu dzia\u0142alno\u015bci (np. amenity=training + training=*, amenity=dancing_school, amenity=language_school, amenity=music_school) albo amenity=school, amenity=college, albo landuse=education w zale\u017cno\u015bci od tego, jakie plac\u00f3wki wchodz\u0105 w sk\u0142ad zespo\u0142u. Sprawd\u017a, kiedy stosowa\u0107 amenity=* a kiedy landuse=education.",
                "note": "Parent RSPO: 14350"
            }
        },
        {
            "id": 5832,
            "type": "Feature",
            "geometry": {
                "type": "Point",
                "coordinates": [
                    20.74825,
                    50.61433
                ]
            },
            "properties": {
                "ref:rspo": 5832,
                "official_name": "Powiatowa Poradnia Psychologiczno-Pedagogiczna w Chmielniku",
                "name": "Powiatowa Poradnia Psychologiczno-Pedagogiczna w Chmielniku",
                "addr:country": "PL",
                "addr:postcode": "26-020",
                "addr:city": "Chmielnik",
                "addr:street": "Furma\u0144ska",
                "addr:housenumber": "1A",
                "addr:teryt:simc": 946906,
                "addr:teryt:sym_ul": 5218,
                "contact:phone": "+48 413544217",
                "contact:email": "poradniachmielnik@poczta.onet.pl",
                "contact:website": "http:\/\/www.pppchmielnik.pl\/",
                "ref:regon": "292442510",
                "ref:vatin": "PL6572435179",
                "operator": "Powiat Kielecki",
                "operator:type": "government",
                "healthcare": "counselling",
                "counselling_type": "education",
                "fixme": "w zale\u017cno\u015bci od przedmiotu dzia\u0142alno\u015bci (np. healthcare=counselling + counselling_type=education albo healthcare=psychotherapist)"
            }
        },
        {
            "id": 7625,
            "type": "Feature",
            "geometry": {
                "type": "Point",
                "coordinates": [
                    20.74684,
                    50.61554
                ]
            },
            "properties": {
                "ref:rspo": 7625,
                "official_name": "Centrum Kszta\u0142cenia Zawodowego w Chmielniku Zak\u0142adu Doskonalenia Zawodowego w Kielcach",
                "name": "Centrum Kszta\u0142cenia Zawodowego w Chmielniku Zak\u0142adu Doskonalenia Zawodowego w Kielcach",
                "addr:country": "PL",
                "addr:postcode": "26-020",
                "addr:city": "Chmielnik",
                "addr:street": "Mielczarskiego",
                "addr:housenumber": "7",
                "addr:teryt:simc": 946906,
                "addr:teryt:sym_ul": 12781,
                "contact:phone": "+48 413542707",
                "contact:email": "chmielnik@zdz.kielce.pl",
                "contact:website": "http:\/\/www.zdz.kielce.pl",
                "ref:regon": "260628990",
                "operator": "Zak\u0142ad Doskonalenia Zawodowego W Kielcach",
                "operator:type": "ngo",
                "fixme": "w zale\u017cno\u015bci od przedmiotu dzia\u0142alno\u015bci (np. amenity=training + training=*, amenity=dancing_school, amenity=language_school, amenity=music_school) albo amenity=school, amenity=college, albo landuse=education w zale\u017cno\u015bci od tego, jakie plac\u00f3wki wchodz\u0105 w sk\u0142ad zespo\u0142u. Sprawd\u017a, kiedy stosowa\u0107 amenity=* a kiedy landuse=education."
            }
        },
        {
            "id": 273074,
            "type": "Feature",
            "geometry": {
                "type": "Point",
                "coordinates": [
                    20.74684,
                    50.61551
                ]
            },
            "properties": {
                "isced:level": "1;2",
                "ref:rspo": 273074,
                "official_name": "Niepubliczna Szko\u0142a Podstawowa w Chmielniku",
                "name": "Niepubliczna Szko\u0142a Podstawowa w Chmielniku",
                "addr:country": "PL",
                "addr:postcode": "26-020",
                "addr:city": "Chmielnik",
                "addr:street": "Mielczarskiego",
                "addr:housenumber": "7",
                "addr:teryt:simc": 946906,
                "addr:teryt:sym_ul": 12781,
                "contact:phone": "+48 413542707",
                "contact:email": "chmielnik@zdz.kielce.pl",
                "ref:regon": "384366580",
                "operator": "Zak\u0142ad Doskonalenia Zawodowego W Kielcach",
                "operator:type": "ngo",
                "amenity": "school"
            }
        },
        {
            "id": 12691,
            "type": "Feature",
            "geometry": {
                "type": "Point",
                "coordinates": [
                    20.75193,
                    50.6162
                ]
            },
            "properties": {
                "ref:rspo": 12691,
                "official_name": "Samorz\u0105dowe Przedszkole w Chmielniku",
                "name": "Samorz\u0105dowe Przedszkole w Chmielniku",
                "addr:country": "PL",
                "addr:postcode": "26-020",
                "addr:city": "Chmielnik",
                "addr:street": "Henryka Sienkiewicza",
                "addr:housenumber": "8",
                "addr:teryt:simc": 946906,
                "addr:teryt:sym_ul": 19830,
                "contact:phone": "+48 413542266",
                "contact:email": "przedszkole@chmielnik.com",
                "contact:website": "http:\/\/www.przedszkolechmielnik.edupage.org",
                "ref:regon": "290014224",
                "ref:vatin": "PL6572384105",
                "operator": "Gmina Chmielnik",
                "operator:type": "government",
                "amenity": "kindergarten"
            }
        },
        {
            "id": 12119,
            "type": "Feature",
            "geometry": {
                "type": "Point",
                "coordinates": [
                    20.74559,
                    50.61712
                ]
            },
            "properties": {
                "isced:level": "1;2",
                "ref:rspo": 12119,
                "official_name": "Szko\u0142a Podstawowa im. Stefana \u017beromskiego w Chmielniku",
                "name": "Szko\u0142a Podstawowa",
                "addr:country": "PL",
                "addr:postcode": "26-020",
                "addr:city": "Chmielnik",
                "addr:street": "Szkolna",
                "addr:housenumber": "7",
                "addr:teryt:simc": 946906,
                "addr:teryt:sym_ul": 21970,
                "contact:phone": "+48 413542113",
                "contact:email": "zeromszczaki@op.pl",
                "contact:website": "http:\/\/spchmielnik.superszkolna.pl\/",
                "ref:regon": "000262763",
                "ref:vatin": "PL6572384080",
                "operator": "Gmina Chmielnik",
                "operator:type": "government",
                "amenity": "school",
                "note": "Children RSPO: 127593"
            }
        },
        {
            "id": 127593,
            "type": "Feature",
            "geometry": {
                "type": "Point",
                "coordinates": [
                    20.74918,
                    50.636696
                ]
            },
            "properties": {
                "isced:level": "1;2",
                "ref:rspo": 127593,
                "official_name": "Szko\u0142a Podstawowa im. Stefana \u017beromskiego w Chmielniku Filia w Suchowoli",
                "name": "Szko\u0142a Podstawowa",
                "addr:country": "PL",
                "addr:postcode": "26-020",
                "addr:place": "Suchowola",
                "addr:housenumber": "102",
                "addr:teryt:simc": 235312,
                "contact:phone": "+48 413542113",
                "contact:email": "zeromszczaki@op.pl",
                "contact:website": "https:\/\/spchmielnik.superszkolna.pl\/",
                "ref:regon": "262763000",
                "operator": "Gmina Chmielnik",
                "operator:type": "government",
                "amenity": "school",
                "note": "Parent RSPO: 12119"
            }
        },
        {
            "id": 12140,
            "type": "Feature",
            "geometry": {
                "type": "Point",
                "coordinates": [
                    20.670360565186,
                    50.669239044189
                ]
            },
            "properties": {
                "ref:rspo": 12140,
                "official_name": "Zesp\u00f3\u0142 Plac\u00f3wek O\u015bwiatowych w Piotrkowicach",
                "name": "Zesp\u00f3\u0142 Plac\u00f3wek O\u015bwiatowych w Piotrkowicach",
                "addr:country": "PL",
                "addr:postcode": "26-020",
                "addr:city": "Piotrkowice",
                "addr:street": "Franciszki Krasi\u0144skiej",
                "addr:housenumber": "1",
                "addr:teryt:simc": 235111,
                "addr:teryt:sym_ul": 55251,
                "contact:phone": "+48 413549012",
                "contact:email": "zpo.piotrkowice@chmielnik.com",
                "contact:website": "http:\/\/www.zpopiotrkowice.pl",
                "ref:regon": "292893750",
                "ref:vatin": "PL6572601643",
                "operator": "Gmina Chmielnik",
                "operator:type": "government",
                "landuse": "education",
                "fixme": "amenity=school, amenity=college albo landuse=education w zale\u017cno\u015bci od tego, jakie plac\u00f3wki wchodz\u0105 w sk\u0142ad zespo\u0142u. Sprawd\u017a, kiedy stosowa\u0107 amenity=* a kiedy landuse=education.",
                "note": "Children RSPO: 18223;18250"
            }
        },
        {
            "id": 18223,
            "type": "Feature",
            "geometry": {
                "type": "Point",
                "coordinates": [
                    20.670360565186,
                    50.669209044188996
                ]
            },
            "properties": {
                "isced:level": "1;2",
                "ref:rspo": 18223,
                "official_name": "Szko\u0142a Podstawowa im. Jana Paw\u0142a II w Piotrkowicach",
                "name": "Szko\u0142a Podstawowa",
                "addr:country": "PL",
                "addr:postcode": "26-020",
                "addr:city": "Piotrkowice",
                "addr:street": "Franciszki Krasi\u0144skiej",
                "addr:housenumber": "1",
                "addr:teryt:simc": 235111,
                "addr:teryt:sym_ul": 55251,
                "contact:phone": "+48 413549012",
                "contact:email": "zpo.piotrkowice@chmielnik.com",
                "contact:website": "http:\/\/www.zpopiotrkowice.pl",
                "ref:regon": "001170738",
                "ref:vatin": "PL6572384074",
                "operator": "Gmina Chmielnik",
                "operator:type": "government",
                "amenity": "school",
                "note": "Parent RSPO: 12140"
            }
        },
        {
            "id": 18250,
            "type": "Feature",
            "geometry": {
                "type": "Point",
                "coordinates": [
                    20.670360565186,
                    50.669179044189
                ]
            },
            "properties": {
                "ref:rspo": 18250,
                "official_name": "Samorz\u0105dowe Przedszkole w Piotrkowicach",
                "name": "Samorz\u0105dowe Przedszkole w Piotrkowicach",
                "addr:country": "PL",
                "addr:postcode": "26-020",
                "addr:city": "Piotrkowice",
                "addr:street": "Franciszki Krasi\u0144skiej",
                "addr:housenumber": "1",
                "addr:teryt:simc": 235111,
                "addr:teryt:sym_ul": 55251,
                "contact:phone": "+48 413549260",
                "contact:email": "tarrnoskala@wp.pl",
                "contact:website": "http:\/\/www.zpopiotrkowice.pl",
                "ref:regon": "290014247",
                "ref:vatin": "PL6572384111",
                "operator": "Gmina Chmielnik",
                "operator:type": "government",
                "amenity": "kindergarten",
                "note": "Parent RSPO: 12140"
            }
        }
    ]
}