{
    "type": "FeatureCollection",
    "features": [
        {
            "id": 62596,
            "type": "Feature",
            "geometry": {
                "type": "Point",
                "coordinates": [
                    20.5360647,
                    50.7271396
                ]
            },
            "properties": {
                "isced:level": "1;2",
                "ref:rspo": 62596,
                "official_name": "Szko\u0142a Podstawowa w \u0141ukowej",
                "name": "Szko\u0142a Podstawowa w \u0141ukowej",
                "addr:country": "PL",
                "addr:postcode": "26-060",
                "addr:place": "\u0141ukowa",
                "addr:housenumber": "104",
                "addr:teryt:simc": 234235,
                "contact:phone": "+48 413155594",
                "contact:email": "splukowa@checiny.pl",
                "contact:website": "http:\/\/splukowa.edupage.org",
                "ref:regon": "001170804",
                "ref:vatin": "PL9591442822",
                "operator": "Gmina Ch\u0119ciny",
                "operator:type": "government",
                "amenity": "school"
            }
        },
        {
            "id": 79089,
            "type": "Feature",
            "geometry": {
                "type": "Point",
                "coordinates": [
                    20.5360647,
                    50.7271096
                ]
            },
            "properties": {
                "ref:rspo": 79089,
                "official_name": "Punkt Przedszkolny Promyczek w \u0141ukowej",
                "name": "Punkt Przedszkolny Promyczek w \u0141ukowej",
                "addr:country": "PL",
                "addr:postcode": "26-060",
                "addr:place": "\u0141ukowa",
                "addr:housenumber": "104",
                "addr:teryt:simc": 234235,
                "contact:phone": "+48 413151140",
                "contact:email": "padre.checiny@gmail.com",
                "contact:website": "http:\/\/www.padre.franciszkanie.pl",
                "ref:regon": "260648107",
                "operator": "Stowarzyszenie \"Padre\" Profilaktyka,Aktywne Dzia\u0142anie,Rozw\u00f3j I Edukacja",
                "operator:type": "ngo",
                "amenity": "kindergarten"
            }
        },
        {
            "id": 87363,
            "type": "Feature",
            "geometry": {
                "type": "Point",
                "coordinates": [
                    20.4738599,
                    50.75388
                ]
            },
            "properties": {
                "isced:level": "1;2",
                "ref:rspo": 87363,
                "official_name": "Szko\u0142a Podstawowa w Wolicy",
                "name": "Szko\u0142a Podstawowa w Wolicy",
                "addr:country": "PL",
                "addr:postcode": "26-060",
                "addr:city": "Wolica",
                "addr:street": "Szkolna",
                "addr:housenumber": "35",
                "addr:teryt:simc": 234577,
                "addr:teryt:sym_ul": 21970,
                "contact:phone": "+48 413154010",
                "contact:email": "spwolica@checiny.pl",
                "contact:website": "http:\/\/www.spwolica.checiny.pl",
                "ref:regon": "001170827",
                "ref:vatin": "PL9591590126",
                "operator": "Gmina Ch\u0119ciny",
                "operator:type": "government",
                "amenity": "school"
            }
        },
        {
            "id": 62599,
            "type": "Feature",
            "geometry": {
                "type": "Point",
                "coordinates": [
                    20.446623,
                    50.762128
                ]
            },
            "properties": {
                "isced:level": "1;2",
                "ref:rspo": 62599,
                "official_name": "Szko\u0142a Podstawowa im. Janusza Korczaka w Tokarni",
                "name": "Szko\u0142a Podstawowa",
                "addr:country": "PL",
                "addr:postcode": "26-060",
                "addr:place": "Tokarnia",
                "addr:housenumber": "186A",
                "addr:teryt:simc": 234519,
                "contact:phone": "+48 413154621",
                "contact:email": "sptokarnia@checiny.pl",
                "contact:website": "http:\/\/sptokarnia.szkolnastrona.pl\/",
                "ref:regon": "001170833",
                "ref:vatin": "PL9591442733",
                "operator": "Gmina Ch\u0119ciny",
                "operator:type": "government",
                "amenity": "school"
            }
        },
        {
            "id": 104424,
            "type": "Feature",
            "geometry": {
                "type": "Point",
                "coordinates": [
                    20.446623,
                    50.762097999999995
                ]
            },
            "properties": {
                "ref:rspo": 104424,
                "official_name": "Punkt Przedszkolny Promyczek w Tokarni",
                "name": "Punkt Przedszkolny Promyczek w Tokarni",
                "addr:country": "PL",
                "addr:postcode": "26-060",
                "addr:place": "Tokarnia",
                "addr:housenumber": "186",
                "addr:teryt:simc": 234519,
                "contact:phone": "+48 413151140",
                "contact:email": "padre.checiny@gmail.com",
                "contact:website": "http:\/\/www.padre.franciszkanie.pl",
                "ref:regon": "260656029",
                "operator": "Stowarzyszenie \"Padre\" Profilaktyka,Aktywne Dzia\u0142anie,Rozw\u00f3j I Edukacja",
                "operator:type": "ngo",
                "amenity": "kindergarten"
            }
        },
        {
            "id": 62595,
            "type": "Feature",
            "geometry": {
                "type": "Point",
                "coordinates": [
                    20.480933,
                    50.776618
                ]
            },
            "properties": {
                "isced:level": "1;2",
                "ref:rspo": 62595,
                "official_name": "Szko\u0142a Podstawowa w Staroch\u0119cinach",
                "name": "Szko\u0142a Podstawowa w Staroch\u0119cinach",
                "addr:country": "PL",
                "addr:postcode": "26-060",
                "addr:place": "Staroch\u0119ciny",
                "addr:housenumber": "62",
                "addr:teryt:simc": 234465,
                "contact:phone": "+48 412020503",
                "contact:email": "spstarocheciny@checiny.pl",
                "ref:regon": "001170856",
                "ref:vatin": "PL9591442727",
                "operator": "Gmina Ch\u0119ciny",
                "operator:type": "government",
                "amenity": "school"
            }
        },
        {
            "id": 79086,
            "type": "Feature",
            "geometry": {
                "type": "Point",
                "coordinates": [
                    20.480933,
                    50.776588
                ]
            },
            "properties": {
                "ref:rspo": 79086,
                "official_name": "Punkt Przedszkolny Promyczek w Staroch\u0119cinach",
                "name": "Punkt Przedszkolny Promyczek w Staroch\u0119cinach",
                "addr:country": "PL",
                "addr:postcode": "26-060",
                "addr:place": "Staroch\u0119ciny",
                "addr:housenumber": "62",
                "addr:teryt:simc": 234465,
                "contact:phone": "+48 413151140",
                "contact:email": "padre.checiny@gmail.com",
                "contact:website": "http:\/\/www.padre.franciszkanie.pl",
                "ref:regon": "260648082",
                "operator": "Stowarzyszenie \"Padre\" Profilaktyka,Aktywne Dzia\u0142anie,Rozw\u00f3j I Edukacja",
                "operator:type": "ngo",
                "amenity": "kindergarten"
            }
        },
        {
            "id": 75963,
            "type": "Feature",
            "geometry": {
                "type": "Point",
                "coordinates": [
                    20.505036,
                    50.788126
                ]
            },
            "properties": {
                "isced:level": "1;2",
                "ref:rspo": 75963,
                "official_name": "Szko\u0142a Podstawowa w Radkowicach",
                "name": "Szko\u0142a Podstawowa w Radkowicach",
                "addr:country": "PL",
                "addr:postcode": "26-060",
                "addr:place": "Radkowice",
                "addr:housenumber": "85",
                "addr:teryt:simc": 234382,
                "contact:phone": "+48 413151778",
                "contact:email": "sp.radkowice.checiny@gmail.com",
                "contact:website": "https:\/\/spradkowice.edupage.org\/",
                "ref:regon": "260649897",
                "ref:vatin": "PL9591833439",
                "operator": "Stowarzyszenie Wspieraj\u0105ce Rozw\u00f3j Wsi Radkowice",
                "operator:type": "ngo",
                "amenity": "school"
            }
        },
        {
            "id": 278046,
            "type": "Feature",
            "geometry": {
                "type": "Point",
                "coordinates": [
                    20.4512249,
                    50.7908251
                ]
            },
            "properties": {
                "isced:level": "1;2",
                "ref:rspo": 278046,
                "official_name": "Szko\u0142a Podstawowa Specjalna w Podzamczu",
                "name": "Szko\u0142a Podstawowa Specjalna w Podzamczu",
                "addr:country": "PL",
                "addr:postcode": "26-060",
                "addr:place": "Podzamcze",
                "addr:housenumber": "46",
                "addr:teryt:simc": 234471,
                "contact:phone": "+48 413151072",
                "contact:email": "sekretariat@amow.edu.pl",
                "ref:regon": "389751093",
                "operator": "Akademicka Fundacja Staropolska",
                "operator:type": "ngo",
                "amenity": "school",
                "note": "Parent RSPO: 278040"
            }
        },
        {
            "id": 278047,
            "type": "Feature",
            "geometry": {
                "type": "Point",
                "coordinates": [
                    20.4512249,
                    50.7907951
                ]
            },
            "properties": {
                "isced:level": "3",
                "ref:rspo": 278047,
                "official_name": "Bran\u017cowa Szko\u0142a I Stopnia Specjalna w Podzamczu",
                "name": "Bran\u017cowa Szko\u0142a I Stopnia Specjalna w Podzamczu",
                "addr:country": "PL",
                "addr:postcode": "26-060",
                "addr:place": "Podzamcze",
                "addr:housenumber": "46",
                "addr:teryt:simc": 234471,
                "contact:phone": "+48 413151072",
                "contact:email": "sekretariat@amow.edu.pl",
                "ref:regon": "389751147",
                "operator": "Akademicka Fundacja Staropolska",
                "operator:type": "ngo",
                "amenity": "school",
                "note": "Parent RSPO: 278040"
            }
        },
        {
            "id": 87365,
            "type": "Feature",
            "geometry": {
                "type": "Point",
                "coordinates": [
                    20.46716,
                    50.80095
                ]
            },
            "properties": {
                "isced:level": "1;2",
                "ref:rspo": 87365,
                "official_name": "Szko\u0142a Podstawowa im. Jana Kochanowskiego w Ch\u0119cinach",
                "name": "Szko\u0142a Podstawowa",
                "addr:country": "PL",
                "addr:postcode": "26-060",
                "addr:city": "Ch\u0119ciny",
                "addr:street": "Kielecka",
                "addr:housenumber": "20",
                "addr:teryt:simc": 946846,
                "addr:teryt:sym_ul": 8379,
                "contact:phone": "+48 413151165",
                "contact:email": "zsocheciny@checiny.pl",
                "contact:website": "http:\/\/spcheciny.szkolnastrona.pl\/",
                "ref:regon": "000631025",
                "operator": "Gmina Ch\u0119ciny",
                "operator:type": "government",
                "amenity": "school"
            }
        },
        {
            "id": 105794,
            "type": "Feature",
            "geometry": {
                "type": "Point",
                "coordinates": [
                    20.417926,
                    50.8017229
                ]
            },
            "properties": {
                "isced:level": "1;2",
                "ref:rspo": 105794,
                "official_name": "Publiczna Szko\u0142a Podstawowa im. 100. Rocznicy Odzyskania Niepodleg\u0142o\u015bci Przez Polsk\u0119 w Korzecku",
                "name": "Publiczna Szko\u0142a Podstawowa",
                "addr:country": "PL",
                "addr:postcode": "26-060",
                "addr:place": "Korzecko",
                "addr:housenumber": "82",
                "addr:teryt:simc": 234206,
                "contact:phone": "+48 413151021",
                "contact:email": "stowarzyszenie.korzecko@gmail.com",
                "contact:website": "http:\/\/spkorzecko.edupage.org",
                "ref:regon": "260661310",
                "ref:vatin": "PL9591779556",
                "operator": "Stowarzyszenie Wspieraj\u0105ce Rozw\u00f3j Kultury W Korzecku",
                "operator:type": "ngo",
                "amenity": "school"
            }
        },
        {
            "id": 5725,
            "type": "Feature",
            "geometry": {
                "type": "Point",
                "coordinates": [
                    20.46454,
                    50.80391
                ]
            },
            "properties": {
                "ref:rspo": 5725,
                "official_name": "Powiatowy Zesp\u00f3\u0142 Szk\u00f3\u0142 w Ch\u0119cinach",
                "name": "Powiatowy Zesp\u00f3\u0142 Szk\u00f3\u0142 w Ch\u0119cinach",
                "addr:country": "PL",
                "addr:postcode": "26-060",
                "addr:city": "Ch\u0119ciny",
                "addr:street": "Bia\u0142ego Zag\u0142\u0119bia",
                "addr:housenumber": "1",
                "addr:teryt:simc": 946846,
                "addr:teryt:sym_ul": 1155,
                "contact:phone": "+48 413151068",
                "contact:email": "zs2checiny@onet.pl",
                "contact:website": "http:\/\/www.zspcheciny.cal.pl",
                "ref:regon": "292438589",
                "ref:vatin": "PL9590826466",
                "operator": "Powiat Kielecki",
                "operator:type": "government",
                "landuse": "education",
                "fixme": "amenity=school, amenity=college albo landuse=education w zale\u017cno\u015bci od tego, jakie plac\u00f3wki wchodz\u0105 w sk\u0142ad zespo\u0142u. Sprawd\u017a, kiedy stosowa\u0107 amenity=* a kiedy landuse=education.",
                "note": "Children RSPO: 8038;8054;8074;55344;57552;114511"
            }
        },
        {
            "id": 6014,
            "type": "Feature",
            "geometry": {
                "type": "Point",
                "coordinates": [
                    20.46454,
                    50.80388
                ]
            },
            "properties": {
                "ref:rspo": 6014,
                "official_name": "Powiatowe Szkolne Schronisko M\u0142odzie\u017cowe w Ch\u0119cinach",
                "name": "Powiatowe Szkolne Schronisko M\u0142odzie\u017cowe w Ch\u0119cinach",
                "addr:country": "PL",
                "addr:postcode": "26-060",
                "addr:city": "Ch\u0119ciny",
                "addr:street": "Bia\u0142ego Zag\u0142\u0119bia",
                "addr:housenumber": "1",
                "addr:teryt:simc": 946846,
                "addr:teryt:sym_ul": 1155,
                "contact:phone": "+48 413152654",
                "contact:email": "schronisko.checiny@op.pl",
                "contact:website": "http:\/\/www.ssm-checiny.pl",
                "ref:regon": "292800671",
                "ref:vatin": "PL9591577485",
                "operator": "Powiat Kielecki",
                "operator:type": "government",
                "tourism": "hostel",
                "note": "Children RSPO: 9373;9377;9809;110335"
            }
        },
        {
            "id": 8038,
            "type": "Feature",
            "geometry": {
                "type": "Point",
                "coordinates": [
                    20.46454,
                    50.803850000000004
                ]
            },
            "properties": {
                "isced:level": "3",
                "ref:rspo": 8038,
                "official_name": "Liceum Og\u00f3lnokszta\u0142c\u0105ce im. W\u0142adys\u0142awa \u0141okietka w Ch\u0119cinach",
                "name": "Liceum Og\u00f3lnokszta\u0142c\u0105ce",
                "addr:country": "PL",
                "addr:postcode": "26-060",
                "addr:city": "Ch\u0119ciny",
                "addr:street": "Bia\u0142ego Zag\u0142\u0119bia",
                "addr:housenumber": "1",
                "addr:teryt:simc": 946846,
                "addr:teryt:sym_ul": 1155,
                "contact:phone": "+48 413151068",
                "contact:email": "zs2checiny@onet.pl",
                "contact:website": "http:\/\/www.zspcheciny.cal.pl",
                "ref:regon": "292438610",
                "operator": "Powiat Kielecki",
                "operator:type": "government",
                "amenity": "school",
                "note": "Parent RSPO: 5725"
            }
        },
        {
            "id": 8054,
            "type": "Feature",
            "geometry": {
                "type": "Point",
                "coordinates": [
                    20.46454,
                    50.80382
                ]
            },
            "properties": {
                "isced:level": "3",
                "ref:rspo": 8054,
                "official_name": "Technikum im. W\u0142adys\u0142awa \u0141okietka w Ch\u0119cinach",
                "name": "Technikum",
                "addr:country": "PL",
                "addr:postcode": "26-060",
                "addr:city": "Ch\u0119ciny",
                "addr:street": "Bia\u0142ego Zag\u0142\u0119bia",
                "addr:housenumber": "1",
                "addr:teryt:simc": 946846,
                "addr:teryt:sym_ul": 1155,
                "contact:phone": "+48 413151068",
                "contact:email": "zs2checiny@onet.pl",
                "contact:website": "http:\/\/www.zspcheciny.cal.pl",
                "ref:regon": "292438626",
                "operator": "Powiat Kielecki",
                "operator:type": "government",
                "amenity": "school",
                "note": "Parent RSPO: 5725"
            }
        },
        {
            "id": 8074,
            "type": "Feature",
            "geometry": {
                "type": "Point",
                "coordinates": [
                    20.46454,
                    50.80379
                ]
            },
            "properties": {
                "isced:level": "3",
                "ref:rspo": 8074,
                "official_name": "Bran\u017cowa Szko\u0142a I Stopnia im. W\u0142adys\u0142awa \u0141okietka w Ch\u0119cinach",
                "name": "Bran\u017cowa Szko\u0142a I Stopnia",
                "addr:country": "PL",
                "addr:postcode": "26-060",
                "addr:city": "Ch\u0119ciny",
                "addr:street": "Bia\u0142ego Zag\u0142\u0119bia",
                "addr:housenumber": "1",
                "addr:teryt:simc": 946846,
                "addr:teryt:sym_ul": 1155,
                "contact:phone": "+48 413151068",
                "contact:email": "zs2checiny@onet.pl",
                "contact:website": "http:\/\/www.zspcheciny.cal.pl",
                "ref:regon": "260181900",
                "operator": "Powiat Kielecki",
                "operator:type": "government",
                "amenity": "school",
                "note": "Parent RSPO: 5725"
            }
        },
        {
            "id": 55344,
            "type": "Feature",
            "geometry": {
                "type": "Point",
                "coordinates": [
                    20.46454,
                    50.803760000000004
                ]
            },
            "properties": {
                "isced:level": "3",
                "ref:rspo": 55344,
                "official_name": "Liceum Og\u00f3lnokszta\u0142c\u0105ce dla Doros\u0142ych w Powiatowym Zespole Szk\u00f3\u0142 w Ch\u0119cinach",
                "name": "Liceum Og\u00f3lnokszta\u0142c\u0105ce dla Doros\u0142ych w Powiatowym Zespole Szk\u00f3\u0142 w Ch\u0119cinach",
                "addr:country": "PL",
                "addr:postcode": "26-060",
                "addr:city": "Ch\u0119ciny",
                "addr:street": "Bia\u0142ego Zag\u0142\u0119bia",
                "addr:housenumber": "1",
                "addr:teryt:simc": 946846,
                "addr:teryt:sym_ul": 1155,
                "contact:phone": "+48 413151068",
                "contact:email": "zs2checiny@onet.pl",
                "contact:website": "http:\/\/www.zspcheciny.cal.pl",
                "ref:regon": "260643624",
                "operator": "Powiat Kielecki",
                "operator:type": "government",
                "amenity": "school",
                "note": "Parent RSPO: 5725"
            }
        },
        {
            "id": 57552,
            "type": "Feature",
            "geometry": {
                "type": "Point",
                "coordinates": [
                    20.46454,
                    50.80373
                ]
            },
            "properties": {
                "ref:rspo": 57552,
                "official_name": "Centrum Kszta\u0142cenia Ustawicznego w Ch\u0119cinach",
                "name": "Centrum Kszta\u0142cenia Ustawicznego w Ch\u0119cinach",
                "addr:country": "PL",
                "addr:postcode": "26-060",
                "addr:city": "Ch\u0119ciny",
                "addr:street": "Bia\u0142ego Zag\u0142\u0119bia",
                "addr:housenumber": "1",
                "addr:teryt:simc": 946846,
                "addr:teryt:sym_ul": 1155,
                "contact:phone": "+48 413151068",
                "contact:email": "zs2checiny@onet.pl",
                "contact:website": "http:\/\/www.zspcheciny.cal.pl",
                "ref:regon": "260250971",
                "operator": "Powiat Kielecki",
                "operator:type": "government",
                "fixme": "w zale\u017cno\u015bci od przedmiotu dzia\u0142alno\u015bci (np. amenity=training + training=*, amenity=dancing_school, amenity=language_school, amenity=music_school)",
                "note": "Parent RSPO: 5725"
            }
        },
        {
            "id": 114511,
            "type": "Feature",
            "geometry": {
                "type": "Point",
                "coordinates": [
                    20.46454,
                    50.8037
                ]
            },
            "properties": {
                "isced:level": "4",
                "ref:rspo": 114511,
                "official_name": "Szko\u0142a Policealna w Powiatowym Zespole Szk\u00f3\u0142 w Ch\u0119cinach",
                "name": "Szko\u0142a Policealna w Powiatowym Zespole Szk\u00f3\u0142 w Ch\u0119cinach",
                "addr:country": "PL",
                "addr:postcode": "26-060",
                "addr:city": "Ch\u0119ciny",
                "addr:street": "Bia\u0142ego Zag\u0142\u0119bia",
                "addr:housenumber": "1",
                "addr:teryt:simc": 946846,
                "addr:teryt:sym_ul": 1155,
                "contact:phone": "+48 413151068",
                "contact:email": "zs2checiny@onet.pl",
                "contact:website": "http:\/\/www.zspcheciny.cal.pl",
                "ref:regon": "260047738",
                "operator": "Powiat Kielecki",
                "operator:type": "government",
                "amenity": "college",
                "note": "Parent RSPO: 5725"
            }
        },
        {
            "id": 75964,
            "type": "Feature",
            "geometry": {
                "type": "Point",
                "coordinates": [
                    20.46442,
                    50.80453
                ]
            },
            "properties": {
                "ref:rspo": 75964,
                "official_name": "Przedszkole Samorz\u0105dowe w Ch\u0119cinach",
                "name": "Przedszkole Samorz\u0105dowe w Ch\u0119cinach",
                "addr:country": "PL",
                "addr:postcode": "26-060",
                "addr:city": "Ch\u0119ciny",
                "addr:street": "Osiedle P\u00f3\u0142noc",
                "addr:housenumber": "8",
                "addr:teryt:simc": 946846,
                "addr:teryt:sym_ul": 17420,
                "contact:phone": "+48 413151297",
                "contact:email": "przedszkole@checiny.pl",
                "contact:website": "http:\/\/www.pscheciny.szkolnastrona.pl\/",
                "ref:regon": "290014253",
                "ref:vatin": "PL9591442650",
                "operator": "Gmina Ch\u0119ciny",
                "operator:type": "government",
                "amenity": "kindergarten"
            }
        },
        {
            "id": 62600,
            "type": "Feature",
            "geometry": {
                "type": "Point",
                "coordinates": [
                    20.3526339,
                    50.811073
                ]
            },
            "properties": {
                "isced:level": "1;2",
                "ref:rspo": 62600,
                "official_name": "Szko\u0142a Podstawowa Z Oddzia\u0142ami Dwuj\u0119zycznymi im. \u015aw. Jana Paw\u0142a II w Bolminie",
                "name": "Szko\u0142a Podstawowa Z Oddzia\u0142ami Dwuj\u0119zycznymi",
                "addr:country": "PL",
                "addr:postcode": "26-060",
                "addr:place": "Bolmin",
                "addr:housenumber": "63a",
                "addr:teryt:simc": 234086,
                "contact:phone": "+48 413151108",
                "contact:email": "spbolmin@op.pl",
                "contact:website": "http:\/\/www.spbolmin.szkolnastrona.pl\/",
                "ref:regon": "001170891",
                "ref:vatin": "PL9591442785",
                "operator": "Gmina Ch\u0119ciny",
                "operator:type": "government",
                "amenity": "school"
            }
        },
        {
            "id": 104425,
            "type": "Feature",
            "geometry": {
                "type": "Point",
                "coordinates": [
                    20.3526339,
                    50.811043
                ]
            },
            "properties": {
                "ref:rspo": 104425,
                "official_name": "Punkt Przedszkolny Promyczek w Bolminie",
                "name": "Punkt Przedszkolny Promyczek w Bolminie",
                "addr:country": "PL",
                "addr:postcode": "26-060",
                "addr:place": "Bolmin",
                "addr:housenumber": "63a",
                "addr:teryt:simc": 234086,
                "contact:phone": "+48 413151140",
                "contact:email": "padre.checiny@gmail.com",
                "contact:website": "http:\/\/www.padre.franciszkanie.pl",
                "ref:regon": "260656035",
                "operator": "Stowarzyszenie \"Padre\" Profilaktyka,Aktywne Dzia\u0142anie,Rozw\u00f3j I Edukacja",
                "operator:type": "ngo",
                "amenity": "kindergarten"
            }
        },
        {
            "id": 62597,
            "type": "Feature",
            "geometry": {
                "type": "Point",
                "coordinates": [
                    20.3962628,
                    50.820285
                ]
            },
            "properties": {
                "isced:level": "1;2",
                "ref:rspo": 62597,
                "official_name": "Szko\u0142a Podstawowa im. Gen. Stanis\u0142awa Skalskiego w Polichnie",
                "name": "Szko\u0142a Podstawowa",
                "addr:country": "PL",
                "addr:postcode": "26-060",
                "addr:place": "Polichno",
                "addr:housenumber": "52",
                "addr:teryt:simc": 234360,
                "contact:phone": "+48 413152071",
                "contact:email": "sppolichno@checiny.pl",
                "contact:website": "https:\/\/sppolichno.edupage.org\/",
                "ref:regon": "001170885",
                "ref:vatin": "PL9591442762",
                "operator": "Gmina Ch\u0119ciny",
                "operator:type": "government",
                "amenity": "school"
            }
        },
        {
            "id": 79087,
            "type": "Feature",
            "geometry": {
                "type": "Point",
                "coordinates": [
                    20.3962628,
                    50.820254999999996
                ]
            },
            "properties": {
                "ref:rspo": 79087,
                "official_name": "Punkt Przedszkolny Promyczek w Polichnie",
                "name": "Punkt Przedszkolny Promyczek w Polichnie",
                "addr:country": "PL",
                "addr:postcode": "26-060",
                "addr:place": "Polichno",
                "addr:housenumber": "52",
                "addr:teryt:simc": 234360,
                "contact:phone": "+48 413151140",
                "contact:email": "padre.checiny@gmail.com",
                "contact:website": "http:\/\/www.padre.franciszkanie.pl",
                "ref:regon": "260648099",
                "operator": "Stowarzyszenie \"Padre\" Profilaktyka,Aktywne Dzia\u0142anie,Rozw\u00f3j I Edukacja",
                "operator:type": "ngo",
                "amenity": "kindergarten"
            }
        }
    ]
}