{
    "type": "FeatureCollection",
    "features": [
        {
            "id": 19412,
            "type": "Feature",
            "geometry": {
                "type": "Point",
                "coordinates": [
                    20.76251,
                    50.73147
                ]
            },
            "properties": {
                "isced:level": "1;2",
                "ref:rspo": 19412,
                "official_name": "Publiczna Szko\u0142a Podstawowa w Szczecnie",
                "name": "Publiczna Szko\u0142a Podstawowa w Szczecnie",
                "addr:postcode": "26-015",
                "addr:place": "Szczecno",
                "addr:housenumber": "172",
                "addr:city:simc": 236820,
                "phone": "+48 413170014",
                "email": "spszczecno@poczta.onet.pl",
                "website": "http:\/\/spszczecno.daleszyce.pl",
                "ref:regon": "260635949",
                "ref:vatin": "PL6572926983",
                "operator": "Stowarzyszenie Na Rzecz Rozwoju Szczecna",
                "operator:type": "ngo",
                "amenity": "school"
            }
        },
        {
            "id": 19413,
            "type": "Feature",
            "geometry": {
                "type": "Point",
                "coordinates": [
                    20.76251,
                    50.73144
                ]
            },
            "properties": {
                "ref:rspo": 19413,
                "official_name": "Punkt Przedszkolny Publicznej Szko\u0142y Podstawowej w Szczecnie",
                "name": "Punkt Przedszkolny Publicznej Szko\u0142y Podstawowej w Szczecnie",
                "addr:postcode": "26-015",
                "addr:place": "Szczecno",
                "addr:housenumber": "172",
                "addr:city:simc": 236820,
                "phone": "+48 413170014",
                "email": "spszczecno@poczta.onet.pl",
                "website": "http:\/\/spszczecno.daleszyce.pl",
                "ref:regon": "260635286",
                "ref:vatin": "PL6572927014",
                "operator": "Stowarzyszenie Na Rzecz Rozwoju Szczecna",
                "operator:type": "ngo",
                "amenity": "kindergarten"
            }
        },
        {
            "id": 79991,
            "type": "Feature",
            "geometry": {
                "type": "Point",
                "coordinates": [
                    20.894222,
                    50.759664
                ]
            },
            "properties": {
                "ref:rspo": 79991,
                "official_name": "Punkt Przedszkolny Przy Szkole Podstawowej im. P\u0142k. Mariana So\u0142tysiaka \u201eBarabasza\u201d w Daleszycach Z Lokalizacj\u0105 w Cisowie",
                "name": "Punkt Przedszkolny Przy Szkole Podstawowej",
                "addr:postcode": "26-021",
                "addr:place": "Cis\u00f3w",
                "addr:housenumber": "44",
                "addr:city:simc": 236352,
                "phone": "+48 413072057",
                "email": "spdaleszyce@poczta.onet.pl",
                "website": "http:\/\/www.zspdaleszyce.edupage.org",
                "ref:regon": "260648366",
                "operator": "Gmina Daleszyce",
                "operator:type": "government",
                "amenity": "kindergarten",
                "note": "Parent RSPO: 19410"
            }
        },
        {
            "id": 53731,
            "type": "Feature",
            "geometry": {
                "type": "Point",
                "coordinates": [
                    20.7037782,
                    50.761572
                ]
            },
            "properties": {
                "isced:level": "1;2",
                "ref:rspo": 53731,
                "official_name": "Publiczna Szko\u0142a Podstawowa w Marzyszu",
                "name": "Publiczna Szko\u0142a Podstawowa w Marzyszu",
                "addr:postcode": "26-021",
                "addr:place": "Marzysz Drugi",
                "addr:housenumber": "12",
                "addr:city:simc": 236560,
                "phone": "+48 413171942",
                "email": "spmarzysz@daleszyce.pl",
                "ref:regon": "260647071",
                "ref:vatin": "PL6572436061",
                "operator": "Towarzystwo Przyjaci\u00f3\u0142 Marzysza",
                "operator:type": "ngo",
                "amenity": "school"
            }
        },
        {
            "id": 53732,
            "type": "Feature",
            "geometry": {
                "type": "Point",
                "coordinates": [
                    20.7037782,
                    50.761542
                ]
            },
            "properties": {
                "ref:rspo": 53732,
                "official_name": "Punkt Przedszkolny Kubu\u015b Przy Publicznej Szkole Podstawowej",
                "name": "Punkt Przedszkolny Kubu\u015b Przy Publicznej Szkole Podstawowej",
                "addr:postcode": "26-021",
                "addr:place": "Marzysz Drugi",
                "addr:housenumber": "12",
                "addr:city:simc": 236560,
                "phone": "+48 413171942",
                "email": "spmarzysz@daleszyce.pl",
                "ref:regon": "260643080",
                "ref:vatin": "PL6572744638",
                "operator": "Towarzystwo Przyjaci\u00f3\u0142 Marzysza",
                "operator:type": "ngo",
                "amenity": "kindergarten"
            }
        },
        {
            "id": 79992,
            "type": "Feature",
            "geometry": {
                "type": "Point",
                "coordinates": [
                    20.9417809,
                    50.767406
                ]
            },
            "properties": {
                "ref:rspo": 79992,
                "official_name": "Punkt Przedszkolny Przy Szkole Podstawowej im. P\u0142k. Mariana So\u0142tysiaka \u201eBarabasza\u201d w Daleszycach Z Lokalizacj\u0105 w Wide\u0142kach",
                "name": "Punkt Przedszkolny Przy Szkole Podstawowej",
                "addr:postcode": "26-021",
                "addr:place": "Wide\u0142ki",
                "addr:housenumber": "38",
                "addr:city:simc": 236889,
                "phone": "+48 413072057",
                "email": "spdaleszyce@poczta.onet.pl",
                "website": "http:\/\/www.zspdaleszyce.edupage.org",
                "ref:regon": "260648395",
                "operator": "Gmina Daleszyce",
                "operator:type": "government",
                "amenity": "kindergarten",
                "note": "Parent RSPO: 19410"
            }
        },
        {
            "id": 3801,
            "type": "Feature",
            "geometry": {
                "type": "Point",
                "coordinates": [
                    20.750301,
                    50.7718299
                ]
            },
            "properties": {
                "isced:level": "1;2",
                "ref:rspo": 3801,
                "official_name": "Publiczna Szko\u0142a Podstawowa im. \u015awi\u0119tej Jadwigi Kr\u00f3lowej w Borkowie",
                "name": "Publiczna Szko\u0142a Podstawowa",
                "addr:postcode": "26-021",
                "addr:place": "Bork\u00f3w",
                "addr:housenumber": "36b",
                "addr:city:simc": 236317,
                "phone": "+48 413171928",
                "email": "szkolaborkow@o2.pl",
                "website": "http:\/\/szkola-borkow.edu.pl\/",
                "ref:regon": "260624928",
                "ref:vatin": "PL6572908181",
                "operator": "Stowarzyszenie Wsp\u00f3lne Dobro Wsi Bork\u00f3w I Trzemosna",
                "operator:type": "ngo",
                "amenity": "school"
            }
        },
        {
            "id": 3802,
            "type": "Feature",
            "geometry": {
                "type": "Point",
                "coordinates": [
                    20.750301,
                    50.7717999
                ]
            },
            "properties": {
                "ref:rspo": 3802,
                "official_name": "Punkt Przedszkolny w Borkowie",
                "name": "Punkt Przedszkolny w Borkowie",
                "addr:postcode": "26-021",
                "addr:place": "Bork\u00f3w",
                "addr:housenumber": "36b",
                "addr:city:simc": 236317,
                "phone": "+48 413171928",
                "email": "szkolaborkow@o2.pl",
                "website": "http:\/\/szkola-borkow.edu.pl\/",
                "ref:regon": "260624934",
                "ref:vatin": "PL6572908175",
                "operator": "Stowarzyszenie Wsp\u00f3lne Dobro Wsi Bork\u00f3w I Trzemosna",
                "operator:type": "ngo",
                "amenity": "kindergarten"
            }
        },
        {
            "id": 41038,
            "type": "Feature",
            "geometry": {
                "type": "Point",
                "coordinates": [
                    20.7750982,
                    50.7773785
                ]
            },
            "properties": {
                "ref:rspo": 41038,
                "official_name": "Punkt Przedszkolny Szko\u0142y Podstawowej im. Edmunda Niziurskiego w S\u0142opcu",
                "name": "Punkt Przedszkolny Szko\u0142y Podstawowej",
                "addr:postcode": "26-021",
                "addr:place": "S\u0142opiec Szlachecki",
                "addr:housenumber": "86",
                "addr:city:simc": 236719,
                "phone": "+48 413171615",
                "email": "szkola.slopiec@onet.eu",
                "website": "http:\/\/www.slopiec.pl",
                "ref:regon": "260640844",
                "ref:vatin": "PL6572934184",
                "operator": "Towarzystwo Przyjaci\u00f3\u0142 S\u0142opca",
                "operator:type": "ngo",
                "amenity": "kindergarten"
            }
        },
        {
            "id": 53781,
            "type": "Feature",
            "geometry": {
                "type": "Point",
                "coordinates": [
                    20.7750982,
                    50.777348499999995
                ]
            },
            "properties": {
                "isced:level": "1;2",
                "ref:rspo": 53781,
                "official_name": "Szko\u0142a Podstawowa im. Edmunda Niziurskiego w S\u0142opcu",
                "name": "Szko\u0142a Podstawowa",
                "addr:postcode": "26-021",
                "addr:place": "S\u0142opiec Szlachecki",
                "addr:housenumber": "86",
                "addr:city:simc": 236719,
                "phone": "+48 413171615",
                "email": "szkola.slopiec@onet.eu",
                "website": "http:\/\/www.slopiec.pl",
                "ref:regon": "260647088",
                "ref:vatin": "PL6572759048",
                "operator": "Towarzystwo Przyjaci\u00f3\u0142 S\u0142opca",
                "operator:type": "ngo",
                "amenity": "school"
            }
        },
        {
            "id": 19410,
            "type": "Feature",
            "geometry": {
                "type": "Point",
                "coordinates": [
                    20.80184,
                    50.80278
                ]
            },
            "properties": {
                "ref:rspo": 19410,
                "official_name": "Zesp\u00f3\u0142 Szkolno-Przedszkolny w Daleszycach",
                "name": "Zesp\u00f3\u0142 Szkolno-Przedszkolny w Daleszycach",
                "addr:postcode": "26-021",
                "addr:city": "Daleszyce",
                "addr:street": "Henryka Sienkiewicza",
                "addr:housenumber": "11B",
                "addr:city:simc": 236429,
                "addr:street:sym_ul": 19834,
                "phone": "+48 413072057",
                "email": "spdaleszyce@poczta.onet.pl",
                "website": "http:\/\/www.zspdaleszyce.edupage.org",
                "ref:regon": "260478728",
                "ref:vatin": "PL6572891227",
                "operator": "Gmina Daleszyce",
                "operator:type": "government",
                "landuse": "education",
                "fixme": "amenity=school, amenity=college albo landuse=education w zale\u017cno\u015bci od tego, jakie plac\u00f3wki wchodz\u0105 w sk\u0142ad zespo\u0142u. Sprawd\u017a, kiedy stosowa\u0107 amenity=* a kiedy landuse=education.",
                "note": "Children RSPO: 41045;41047;79991;79992"
            }
        },
        {
            "id": 41045,
            "type": "Feature",
            "geometry": {
                "type": "Point",
                "coordinates": [
                    20.80184,
                    50.802749999999996
                ]
            },
            "properties": {
                "isced:level": "1;2",
                "ref:rspo": 41045,
                "official_name": "Szko\u0142a Podstawowa im. P\u0142k. Mariana So\u0142tysiaka \u201eBarabasza\u201d w Daleszycach",
                "name": "Szko\u0142a Podstawowa",
                "addr:postcode": "26-021",
                "addr:city": "Daleszyce",
                "addr:street": "Henryka Sienkiewicza",
                "addr:housenumber": "11B",
                "addr:city:simc": 236429,
                "addr:street:sym_ul": 19834,
                "phone": "+48 413072057",
                "email": "spdaleszyce@poczta.onet.pl",
                "website": "http:\/\/www.zspdaleszyce.edupage.org",
                "ref:regon": "000269015",
                "ref:vatin": "PL6572417810",
                "operator": "Gmina Daleszyce",
                "operator:type": "government",
                "amenity": "school",
                "note": "Parent RSPO: 19410"
            }
        },
        {
            "id": 41047,
            "type": "Feature",
            "geometry": {
                "type": "Point",
                "coordinates": [
                    20.8027,
                    50.80336
                ]
            },
            "properties": {
                "ref:rspo": 41047,
                "official_name": "Przedszkole w Daleszycach",
                "name": "Przedszkole w Daleszycach",
                "addr:postcode": "26-021",
                "addr:city": "Daleszyce",
                "addr:street": "Henryka Sienkiewicza",
                "addr:housenumber": "11",
                "addr:city:simc": 236429,
                "addr:street:sym_ul": 19834,
                "phone": "+48 413072057",
                "email": "spdaleszyce@poczta.onet.pl",
                "website": "http:\/\/www.zspdaleszyce.edupagr.org",
                "ref:regon": "290013851",
                "ref:vatin": "PL6572436055",
                "operator": "Gmina Daleszyce",
                "operator:type": "government",
                "amenity": "kindergarten",
                "note": "Parent RSPO: 19410"
            }
        },
        {
            "id": 270658,
            "type": "Feature",
            "geometry": {
                "type": "Point",
                "coordinates": [
                    20.80405,
                    50.80484
                ]
            },
            "properties": {
                "ref:rspo": 270658,
                "official_name": "O\u015brodek Kszta\u0142cenia Kadr Us\u0142ug Motoryzacyjnych w Daleszycach",
                "name": "O\u015brodek Kszta\u0142cenia Kadr Us\u0142ug Motoryzacyjnych w Daleszycach",
                "addr:postcode": "26-021",
                "addr:city": "Daleszyce",
                "addr:street": "Fryderyka Chopina",
                "addr:housenumber": "21",
                "addr:city:simc": 236429,
                "addr:street:sym_ul": 2849,
                "phone": "+48 605855423",
                "email": "biuro@car-bud.com",
                "ref:regon": "382850461",
                "operator": "Hanna Juszczak",
                "operator:type": "private",
                "fixme": "w zale\u017cno\u015bci od przedmiotu dzia\u0142alno\u015bci (np. amenity=training + training=*, amenity=dancing_school, amenity=language_school, amenity=music_school)"
            }
        },
        {
            "id": 41041,
            "type": "Feature",
            "geometry": {
                "type": "Point",
                "coordinates": [
                    20.8899427,
                    50.8063444
                ]
            },
            "properties": {
                "isced:level": "1;2",
                "ref:rspo": 41041,
                "official_name": "Publiczna Szko\u0142a Podstawowa w Sierakowie",
                "name": "Publiczna Szko\u0142a Podstawowa w Sierakowie",
                "addr:postcode": "26-021",
                "addr:place": "Sierak\u00f3w",
                "addr:housenumber": "38",
                "addr:city:simc": 236688,
                "phone": "+48 413072173",
                "email": "pspsierakow@wp.pl",
                "website": "http:\/\/www.pspsierakow.pl",
                "ref:regon": "260643430",
                "ref:vatin": "PL6572759060",
                "operator": "Towarzystwo Ekorozwoju Sierakowa I Smykowa",
                "operator:type": "ngo",
                "amenity": "school"
            }
        },
        {
            "id": 41130,
            "type": "Feature",
            "geometry": {
                "type": "Point",
                "coordinates": [
                    20.8899427,
                    50.8063144
                ]
            },
            "properties": {
                "ref:rspo": 41130,
                "official_name": "Punkt Przedszkolny Przy Publicznej Szkole Podstawowej w Sierakowie",
                "name": "Punkt Przedszkolny Przy Publicznej Szkole Podstawowej w Sierakowie",
                "addr:postcode": "26-021",
                "addr:place": "Sierak\u00f3w",
                "addr:housenumber": "38",
                "addr:city:simc": 236688,
                "phone": "+48 413072173",
                "email": "pspsierakow@wp.pl",
                "website": "https:\/\/sites.google.com\/view\/pspsierakow",
                "ref:regon": "260640956",
                "ref:vatin": "PL6572949553",
                "operator": "Towarzystwo Ekorozwoju Sierakowa I Smykowa",
                "operator:type": "ngo",
                "amenity": "kindergarten"
            }
        },
        {
            "id": 55379,
            "type": "Feature",
            "geometry": {
                "type": "Point",
                "coordinates": [
                    20.686192,
                    50.8152127
                ]
            },
            "properties": {
                "isced:level": "1;2",
                "ref:rspo": 55379,
                "official_name": "Szko\u0142a Podstawowa im. Partyzant\u00f3w Armii Krajowej Ziemi Kieleckiej w Sukowie",
                "name": "Szko\u0142a Podstawowa",
                "addr:postcode": "26-021",
                "addr:place": "Suk\u00f3w",
                "addr:housenumber": "215",
                "addr:city:simc": 236731,
                "phone": "+48 413073444",
                "email": "sekretariat@spsukow.edupage.org",
                "website": "http:\/\/spsukow.edupage.org",
                "ref:regon": "001216400",
                "ref:vatin": "PL6572560281",
                "operator": "Gmina Daleszyce",
                "operator:type": "government",
                "amenity": "school"
            }
        },
        {
            "id": 79993,
            "type": "Feature",
            "geometry": {
                "type": "Point",
                "coordinates": [
                    20.686192,
                    50.815182699999994
                ]
            },
            "properties": {
                "ref:rspo": 79993,
                "official_name": "Punkt Przedszkolny Przy Szkole Podstawowej Imienia Partyzant\u00f3w Armii Krajowej Ziemi Kieleckiej w Sukowie",
                "name": "Punkt Przedszkolny Przy Szkole Podstawowej Imienia Partyzant\u00f3w Armii Krajowej Ziemi Kieleckiej w Sukowie",
                "addr:postcode": "26-021",
                "addr:place": "Suk\u00f3w",
                "addr:housenumber": "215",
                "addr:city:simc": 236731,
                "phone": "+48 413073444",
                "email": "spsukow215@gmail.com",
                "website": "http:\/\/spsukow.edupage.org",
                "ref:regon": "260648403",
                "operator": "Gmina Daleszyce",
                "operator:type": "government",
                "amenity": "kindergarten"
            }
        },
        {
            "id": 3577,
            "type": "Feature",
            "geometry": {
                "type": "Point",
                "coordinates": [
                    20.7847842,
                    50.831618
                ]
            },
            "properties": {
                "isced:level": "1;2",
                "ref:rspo": 3577,
                "official_name": "Szko\u0142a Podstawowa w Brzechowie",
                "name": "Szko\u0142a Podstawowa w Brzechowie",
                "addr:postcode": "26-021",
                "addr:place": "Brzech\u00f3w",
                "addr:housenumber": "41",
                "addr:city:simc": 236330,
                "phone": "+48 413072102",
                "email": "spbrzechow@poczta.onet.pl",
                "website": "https:\/\/spbrzechow.edu.pl\/",
                "ref:regon": "260624680",
                "ref:vatin": "PL6572908146",
                "operator": "Stowarzyszenie Na Rzecz Ekorozwoju Brzechowa \"Ku\u017ania Talent\u00f3w\"",
                "operator:type": "ngo",
                "amenity": "school"
            }
        },
        {
            "id": 3579,
            "type": "Feature",
            "geometry": {
                "type": "Point",
                "coordinates": [
                    20.7847842,
                    50.831587999999996
                ]
            },
            "properties": {
                "ref:rspo": 3579,
                "official_name": "Punkt Przedszkolny w Szkole Podstawowej w Brzechowie",
                "name": "Punkt Przedszkolny w Szkole Podstawowej w Brzechowie",
                "addr:postcode": "26-021",
                "addr:place": "Brzech\u00f3w",
                "addr:housenumber": "41",
                "addr:city:simc": 236330,
                "phone": "+48 413072102",
                "email": "spbrzechow@poczta.onet.pl",
                "website": "https:\/\/spbrzechow.edu.pl\/",
                "ref:regon": "260624756",
                "ref:vatin": "PL6572908152",
                "operator": "Stowarzyszenie Na Rzecz Ekorozwoju Brzechowa \"Ku\u017ania Talent\u00f3w\"",
                "operator:type": "ngo",
                "amenity": "kindergarten"
            }
        },
        {
            "id": 41036,
            "type": "Feature",
            "geometry": {
                "type": "Point",
                "coordinates": [
                    20.7476143,
                    50.8359556
                ]
            },
            "properties": {
                "isced:level": "1;2",
                "ref:rspo": 41036,
                "official_name": "Szko\u0142a Podstawowa im. Kornela Makuszy\u0144skiego w Niestachowie",
                "name": "Szko\u0142a Podstawowa",
                "addr:postcode": "26-021",
                "addr:place": "Niestach\u00f3w",
                "addr:housenumber": "271",
                "addr:city:simc": 236620,
                "phone": "+48 413021408",
                "email": "sp.niestachow_xl@wp.pl",
                "website": "http:\/\/spniestachow.pl",
                "ref:regon": "001216386",
                "ref:vatin": "PL6572421467",
                "operator": "Gmina Daleszyce",
                "operator:type": "government",
                "amenity": "school"
            }
        },
        {
            "id": 275652,
            "type": "Feature",
            "geometry": {
                "type": "Point",
                "coordinates": [
                    20.7476143,
                    50.835925599999996
                ]
            },
            "properties": {
                "ref:rspo": 275652,
                "official_name": "Punkt Przedszkolny Przy Szkole Podstawowej im. Kornela Makuszy\u0144skiego w Niestachowie",
                "name": "Punkt Przedszkolny Przy Szkole Podstawowej",
                "addr:postcode": "26-021",
                "addr:place": "Niestach\u00f3w",
                "addr:housenumber": "271",
                "addr:city:simc": 236620,
                "phone": "+48 413021408",
                "email": "sp.niestachow_xl@wp.pl",
                "website": "http:\/\/spniestachow.pl\/",
                "ref:regon": "386937644",
                "operator": "Gmina Daleszyce",
                "operator:type": "government",
                "amenity": "kindergarten"
            }
        },
        {
            "id": 19411,
            "type": "Feature",
            "geometry": {
                "type": "Point",
                "coordinates": [
                    20.6780295,
                    50.8505267
                ]
            },
            "properties": {
                "isced:level": "1;2",
                "ref:rspo": 19411,
                "official_name": "Szko\u0142a Podstawowa im. Genera\u0142a Tadeusza Buka w M\u00f3jczy",
                "name": "Szko\u0142a Podstawowa",
                "addr:postcode": "26-021",
                "addr:place": "M\u00f3jcza",
                "addr:housenumber": "9",
                "addr:city:simc": 236613,
                "phone": "+48 413617575",
                "email": "sp.mojcza@daleszyce.pl",
                "website": "http:\/\/spmojcza.edupage.org",
                "ref:regon": "001215820",
                "ref:vatin": "PL6572417709",
                "operator": "Gmina Daleszyce",
                "operator:type": "government",
                "amenity": "school"
            }
        },
        {
            "id": 121392,
            "type": "Feature",
            "geometry": {
                "type": "Point",
                "coordinates": [
                    20.6780295,
                    50.8504967
                ]
            },
            "properties": {
                "ref:rspo": 121392,
                "official_name": "Punkt Przedszkolny w Szkole Podstawowej im. Genera\u0142a Tadeusza Buka w M\u00f3jczy",
                "name": "Punkt Przedszkolny w Szkole Podstawowej",
                "addr:postcode": "26-021",
                "addr:place": "M\u00f3jcza",
                "addr:housenumber": "9",
                "addr:city:simc": 236613,
                "phone": "+48 413617575",
                "email": "sp.mojcza@daleszyce.pl",
                "website": "http:\/\/spmojcza.daleszyce.pl",
                "ref:regon": "260741226",
                "operator": "Gmina Daleszyce",
                "operator:type": "government",
                "amenity": "kindergarten"
            }
        }
    ]
}