{
    "type": "FeatureCollection",
    "features": [
        {
            "id": 72339,
            "type": "Feature",
            "geometry": {
                "type": "Point",
                "coordinates": [
                    20.9604149,
                    50.8969759
                ]
            },
            "properties": {
                "isced:level": "1;2",
                "ref:rspo": 72339,
                "official_name": "Szko\u0142a Podstawowa w Woli Szczygie\u0142kowej",
                "name": "Szko\u0142a Podstawowa w Woli Szczygie\u0142kowej",
                "addr:postcode": "26-006",
                "addr:place": "Wola Szczygie\u0142kowa",
                "addr:housenumber": "63",
                "addr:city:simc": 230579,
                "phone": "+48 413127323",
                "email": "spwola@vp.pl",
                "ref:regon": "001191315",
                "ref:vatin": "PL6572334863",
                "operator": "Gmina Bodzentyn",
                "operator:type": "government",
                "amenity": "school"
            }
        },
        {
            "id": 104572,
            "type": "Feature",
            "geometry": {
                "type": "Point",
                "coordinates": [
                    20.9604149,
                    50.8969459
                ]
            },
            "properties": {
                "ref:rspo": 104572,
                "official_name": "Punkt Przedszkolny w Szkole Podstawowej w Woli Szczygie\u0142kowej",
                "name": "Punkt Przedszkolny w Szkole Podstawowej w Woli Szczygie\u0142kowej",
                "addr:postcode": "26-006",
                "addr:place": "Wola Szczygie\u0142kowa",
                "addr:housenumber": "63",
                "addr:city:simc": 230579,
                "phone": "+48 413127323",
                "email": "spwola@vp.pl",
                "ref:regon": "260656302",
                "operator": "Gmina Bodzentyn",
                "operator:type": "government",
                "amenity": "kindergarten"
            }
        },
        {
            "id": 72338,
            "type": "Feature",
            "geometry": {
                "type": "Point",
                "coordinates": [
                    20.88062,
                    50.90676
                ]
            },
            "properties": {
                "isced:level": "1;2",
                "ref:rspo": 72338,
                "official_name": "Szko\u0142a Podstawowa im. Poet\u00f3w Doliny Wilkowskiej w \u015awi\u0119tej Katarzynie",
                "name": "Szko\u0142a Podstawowa",
                "addr:postcode": "26-010",
                "addr:city": "\u015awi\u0119ta Katarzyna",
                "addr:street": "Kielecka",
                "addr:housenumber": "45",
                "addr:city:simc": 230510,
                "addr:street:sym_ul": 8379,
                "phone": "+48 413112114",
                "email": "sp.sw.katarzyna@o2.pl",
                "website": "http:\/\/spswkatarzyna.pl",
                "ref:regon": "001190652",
                "ref:vatin": "PL6572334745",
                "operator": "Gmina Bodzentyn",
                "operator:type": "government",
                "amenity": "school"
            }
        },
        {
            "id": 104571,
            "type": "Feature",
            "geometry": {
                "type": "Point",
                "coordinates": [
                    20.88062,
                    50.906729999999996
                ]
            },
            "properties": {
                "ref:rspo": 104571,
                "official_name": "Punkt Przedszkolny w Szkole Podstawowej im. Poet\u00f3w Doliny Wilkowskiej w \u015awi\u0119tej Katarzynie",
                "name": "Punkt Przedszkolny w Szkole Podstawowej",
                "addr:postcode": "26-010",
                "addr:city": "\u015awi\u0119ta Katarzyna",
                "addr:street": "Kielecka",
                "addr:housenumber": "45",
                "addr:door": "45",
                "addr:city:simc": 230510,
                "addr:street:sym_ul": 8379,
                "phone": "+48 413112114",
                "email": "sp.sw.katarzyna@o2.pl",
                "website": "http:\/\/spswkatarzyna.pl",
                "ref:regon": "260656294",
                "operator": "Gmina Bodzentyn",
                "operator:type": "government",
                "amenity": "kindergarten"
            }
        },
        {
            "id": 6892,
            "type": "Feature",
            "geometry": {
                "type": "Point",
                "coordinates": [
                    20.88222,
                    50.90738
                ]
            },
            "properties": {
                "ref:rspo": 6892,
                "official_name": "Niepubliczne Szkolne Schronisko M\u0142odzie\u017cowe w \u015awi\u0119tej Katarzynie",
                "name": "Niepubliczne Szkolne Schronisko M\u0142odzie\u017cowe w \u015awi\u0119tej Katarzynie",
                "addr:postcode": "26-010",
                "addr:city": "\u015awi\u0119ta Katarzyna",
                "addr:street": "\u015awi\u0119tokrzyska",
                "addr:housenumber": "2",
                "addr:city:simc": 230510,
                "addr:street:sym_ul": 22552,
                "phone": "+48 413112212",
                "email": "poczta@tanie-spanie.info",
                "website": "http:\/\/www.tanie-spanie.info",
                "ref:regon": "260628754",
                "ref:vatin": "PL6571111776",
                "operator": "Anna Janicka",
                "operator:type": "private",
                "tourism": "hostel"
            }
        },
        {
            "id": 54386,
            "type": "Feature",
            "geometry": {
                "type": "Point",
                "coordinates": [
                    20.856115,
                    50.913533
                ]
            },
            "properties": {
                "ref:rspo": 54386,
                "official_name": "Zesp\u00f3\u0142 Szk\u00f3\u0142 we Wzdole Rz\u0105dowym Samorz\u0105dowe Przedszkole we Wzdole Rz\u0105dowym",
                "name": "Zesp\u00f3\u0142 Szk\u00f3\u0142 we Wzdole Rz\u0105dowym Samorz\u0105dowe Przedszkole we Wzdole Rz\u0105dowym",
                "addr:postcode": "26-010",
                "addr:place": "Stara Wie\u015b",
                "addr:housenumber": "27B",
                "addr:city:simc": 230600,
                "phone": "+48 413120205",
                "email": "przedszkole_wzdol@wp.pl",
                "ref:regon": "290013940",
                "ref:vatin": "PL6572334886",
                "operator": "Gmina Bodzentyn",
                "operator:type": "government",
                "amenity": "kindergarten",
                "note": "Parent RSPO: 128222"
            }
        },
        {
            "id": 72337,
            "type": "Feature",
            "geometry": {
                "type": "Point",
                "coordinates": [
                    20.8510099,
                    50.9137668
                ]
            },
            "properties": {
                "isced:level": "1;2",
                "ref:rspo": 72337,
                "official_name": "Szko\u0142a Podstawowa im. Stefana \u017beromskiego w Psarach Starej Wsi",
                "name": "Szko\u0142a Podstawowa",
                "addr:postcode": "26-010",
                "addr:place": "Psary-Stara Wie\u015b",
                "addr:housenumber": "59A",
                "addr:city:simc": 230349,
                "phone": "+48 413112565",
                "email": "sppsary59a@wp.pl",
                "ref:regon": "001190630",
                "ref:vatin": "PL6572334840",
                "operator": "Gmina Bodzentyn",
                "operator:type": "government",
                "amenity": "school"
            }
        },
        {
            "id": 119802,
            "type": "Feature",
            "geometry": {
                "type": "Point",
                "coordinates": [
                    20.8510099,
                    50.913736799999995
                ]
            },
            "properties": {
                "ref:rspo": 119802,
                "official_name": "Punkt Przedszkolny w Psarach Starej Wsi",
                "name": "Punkt Przedszkolny w Psarach Starej Wsi",
                "addr:postcode": "26-010",
                "addr:place": "Psary-Stara Wie\u015b",
                "addr:housenumber": "59a",
                "addr:city:simc": 230349,
                "phone": "+48 413112565",
                "email": "sppsary59a@wp.pl",
                "ref:regon": "260719505",
                "operator": "Gmina Bodzentyn",
                "operator:type": "government",
                "amenity": "kindergarten"
            }
        },
        {
            "id": 128222,
            "type": "Feature",
            "geometry": {
                "type": "Point",
                "coordinates": [
                    20.8556158,
                    50.9141909
                ]
            },
            "properties": {
                "ref:rspo": 128222,
                "official_name": "Zesp\u00f3\u0142 Szk\u00f3\u0142 we Wzdole Rz\u0105dowym",
                "name": "Zesp\u00f3\u0142 Szk\u00f3\u0142 we Wzdole Rz\u0105dowym",
                "addr:postcode": "26-010",
                "addr:place": "Stara Wie\u015b",
                "addr:housenumber": "28",
                "addr:city:simc": 230600,
                "phone": "+48 413120209",
                "email": "spwzdol@o2.pl",
                "ref:regon": "362182851",
                "operator": "Gmina Bodzentyn",
                "operator:type": "government",
                "landuse": "education",
                "fixme": "amenity=school, amenity=college albo landuse=education w zale\u017cno\u015bci od tego, jakie plac\u00f3wki wchodz\u0105 w sk\u0142ad zespo\u0142u. Sprawd\u017a, kiedy stosowa\u0107 amenity=* a kiedy landuse=education.",
                "note": "Children RSPO: 54386;72340"
            }
        },
        {
            "id": 72340,
            "type": "Feature",
            "geometry": {
                "type": "Point",
                "coordinates": [
                    20.8556158,
                    50.9141609
                ]
            },
            "properties": {
                "isced:level": "1;2",
                "ref:rspo": 72340,
                "official_name": "Zesp\u00f3\u0142 Szk\u00f3\u0142 we Wzdole Rz\u0105dowym Szko\u0142a Podstawowa im. Oddzia\u0142u Armii Krajowej \u201eWybranieccy\u201d we Wzdole Rz\u0105dowym",
                "name": "Zesp\u00f3\u0142 Szk\u00f3\u0142 we Wzdole Rz\u0105dowym Szko\u0142a Podstawowa",
                "addr:postcode": "26-010",
                "addr:place": "Stara Wie\u015b",
                "addr:housenumber": "28",
                "addr:city:simc": 230600,
                "phone": "+48 413120209",
                "email": "spwzdol@o2.pl",
                "ref:regon": "001191309",
                "ref:vatin": "PL6572334857",
                "operator": "Gmina Bodzentyn",
                "operator:type": "government",
                "amenity": "school",
                "note": "Parent RSPO: 128222"
            }
        },
        {
            "id": 54385,
            "type": "Feature",
            "geometry": {
                "type": "Point",
                "coordinates": [
                    20.9533099,
                    50.94043
                ]
            },
            "properties": {
                "ref:rspo": 54385,
                "official_name": "Zesp\u00f3\u0142 Szkolno - Przedszkolny w Bodzentynie Samorz\u0105dowe Przedszkole w Bodzentynie",
                "name": "Zesp\u00f3\u0142 Szkolno - Przedszkolny w Bodzentynie Samorz\u0105dowe Przedszkole w Bodzentynie",
                "addr:postcode": "26-010",
                "addr:city": "Bodzentyn",
                "addr:street": "Licealna",
                "addr:housenumber": "3",
                "addr:city:simc": 230102,
                "addr:street:sym_ul": 11033,
                "phone": "+48 413115056",
                "email": "przedszkolebodzentyn@o2.pl",
                "ref:regon": "290013934",
                "ref:vatin": "PL6572334892",
                "operator": "Gmina Bodzentyn",
                "operator:type": "government",
                "amenity": "kindergarten",
                "note": "Parent RSPO: 128221"
            }
        },
        {
            "id": 128221,
            "type": "Feature",
            "geometry": {
                "type": "Point",
                "coordinates": [
                    20.95407,
                    50.94107
                ]
            },
            "properties": {
                "ref:rspo": 128221,
                "official_name": "Zesp\u00f3\u0142 Szkolno - Przedszkolny w Bodzentynie",
                "name": "Zesp\u00f3\u0142 Szkolno - Przedszkolny w Bodzentynie",
                "addr:postcode": "26-010",
                "addr:city": "Bodzentyn",
                "addr:street": "Rynek G\u00f3rny",
                "addr:housenumber": "11",
                "addr:city:simc": 230102,
                "addr:street:sym_ul": 19258,
                "phone": "+48 413115056",
                "email": "spbodzentyn1@wp.pl",
                "website": "http:\/\/zspbodzentyn.szkolna.net",
                "ref:regon": "362182153",
                "operator": "Gmina Bodzentyn",
                "operator:type": "government",
                "landuse": "education",
                "fixme": "amenity=school, amenity=college albo landuse=education w zale\u017cno\u015bci od tego, jakie plac\u00f3wki wchodz\u0105 w sk\u0142ad zespo\u0142u. Sprawd\u017a, kiedy stosowa\u0107 amenity=* a kiedy landuse=education.",
                "note": "Children RSPO: 54385;54405"
            }
        },
        {
            "id": 54405,
            "type": "Feature",
            "geometry": {
                "type": "Point",
                "coordinates": [
                    20.95407,
                    50.94104
                ]
            },
            "properties": {
                "isced:level": "1;2",
                "ref:rspo": 54405,
                "official_name": "Zesp\u00f3\u0142 Szkolno - Przedszkolny w Bodzentynie Szko\u0142a Podstawowa w Bodzentynie im. Antoniego Waci\u0144skiego",
                "name": "Zesp\u00f3\u0142 Szkolno - Przedszkolny w Bodzentynie Szko\u0142a Podstawowa w Bodzentynie",
                "addr:postcode": "26-010",
                "addr:city": "Bodzentyn",
                "addr:street": "Rynek G\u00f3rny",
                "addr:housenumber": "11",
                "addr:city:simc": 230102,
                "addr:street:sym_ul": 19258,
                "phone": "+48 413115056",
                "email": "spbodzentyn1@wp.pl",
                "ref:regon": "000631090",
                "ref:vatin": "PL6572334805",
                "operator": "Gmina Bodzentyn",
                "operator:type": "government",
                "amenity": "school",
                "note": "Parent RSPO: 128221"
            }
        },
        {
            "id": 5122,
            "type": "Feature",
            "geometry": {
                "type": "Point",
                "coordinates": [
                    20.94672,
                    50.94243
                ]
            },
            "properties": {
                "ref:rspo": 5122,
                "official_name": "Powiatowy Zesp\u00f3\u0142 Szk\u00f3\u0142 w Bodzentynie",
                "name": "Powiatowy Zesp\u00f3\u0142 Szk\u00f3\u0142 w Bodzentynie",
                "addr:postcode": "26-010",
                "addr:city": "Bodzentyn",
                "addr:street": "Suchedniowska",
                "addr:housenumber": "6",
                "addr:city:simc": 230102,
                "addr:street:sym_ul": 21506,
                "phone": "+48 413115033",
                "email": "lobodzentyn@wp.pl",
                "website": "http:\/\/www.zspbodzentyn.pl",
                "ref:regon": "292677740",
                "ref:vatin": "PL6572493389",
                "operator": "Powiat Kielecki",
                "operator:type": "government",
                "landuse": "education",
                "fixme": "amenity=school, amenity=college albo landuse=education w zale\u017cno\u015bci od tego, jakie plac\u00f3wki wchodz\u0105 w sk\u0142ad zespo\u0142u. Sprawd\u017a, kiedy stosowa\u0107 amenity=* a kiedy landuse=education.",
                "note": "Children RSPO: 7646;7684;7877;7900;115263"
            }
        },
        {
            "id": 7646,
            "type": "Feature",
            "geometry": {
                "type": "Point",
                "coordinates": [
                    20.94672,
                    50.9424
                ]
            },
            "properties": {
                "isced:level": "3",
                "ref:rspo": 7646,
                "official_name": "Liceum Og\u00f3lnokszta\u0142c\u0105ce im. J\u00f3zefa Szermentowskiego w Powiatowym Zespole Szk\u00f3\u0142 w Bodzentynie",
                "name": "Liceum Og\u00f3lnokszta\u0142c\u0105ce",
                "addr:postcode": "26-010",
                "addr:city": "Bodzentyn",
                "addr:street": "Suchedniowska",
                "addr:housenumber": "6",
                "addr:city:simc": 230102,
                "addr:street:sym_ul": 21506,
                "phone": "+48 413115033",
                "email": "lobodzentyn@wp.pl",
                "website": "http:\/\/www.zspbodzentyn.pl",
                "ref:regon": "291154938",
                "ref:vatin": "PL6641425297",
                "operator": "Powiat Kielecki",
                "operator:type": "government",
                "amenity": "school",
                "note": "Parent RSPO: 5122"
            }
        },
        {
            "id": 7684,
            "type": "Feature",
            "geometry": {
                "type": "Point",
                "coordinates": [
                    20.94672,
                    50.942370000000004
                ]
            },
            "properties": {
                "isced:level": "3",
                "ref:rspo": 7684,
                "official_name": "Technikum w Powiatowym Zespole Szk\u00f3\u0142 w Bodzentynie",
                "name": "Technikum w Powiatowym Zespole Szk\u00f3\u0142 w Bodzentynie",
                "addr:postcode": "26-010",
                "addr:city": "Bodzentyn",
                "addr:street": "Suchedniowska",
                "addr:housenumber": "6",
                "addr:city:simc": 230102,
                "addr:street:sym_ul": 21506,
                "phone": "+48 413115033",
                "email": "lobodzentyn@wp.pl",
                "website": "http:\/\/www.zspbodzentyn.pl",
                "ref:regon": "260243876",
                "ref:vatin": "PL6572798172",
                "operator": "Powiat Kielecki",
                "operator:type": "government",
                "amenity": "school",
                "note": "Parent RSPO: 5122"
            }
        },
        {
            "id": 7877,
            "type": "Feature",
            "geometry": {
                "type": "Point",
                "coordinates": [
                    20.94672,
                    50.94234
                ]
            },
            "properties": {
                "isced:level": "3",
                "ref:rspo": 7877,
                "official_name": "Bran\u017cowa Szko\u0142a I Stopnia w Powiatowym Zespole Szk\u00f3\u0142 w Bodzentynie",
                "name": "Bran\u017cowa Szko\u0142a I Stopnia w Powiatowym Zespole Szk\u00f3\u0142 w Bodzentynie",
                "addr:postcode": "26-010",
                "addr:city": "Bodzentyn",
                "addr:street": "Suchedniowska",
                "addr:housenumber": "6",
                "addr:city:simc": 230102,
                "addr:street:sym_ul": 21506,
                "phone": "+48 413115033",
                "email": "lobodzentyn@wp.pl",
                "website": "http:\/\/www.zspbodzentyn.pl",
                "ref:regon": "260629073",
                "operator": "Powiat Kielecki",
                "operator:type": "government",
                "amenity": "school",
                "note": "Parent RSPO: 5122"
            }
        },
        {
            "id": 7900,
            "type": "Feature",
            "geometry": {
                "type": "Point",
                "coordinates": [
                    20.94672,
                    50.94231
                ]
            },
            "properties": {
                "isced:level": "4",
                "ref:rspo": 7900,
                "official_name": "Szko\u0142a Policealna w Powiatowym Zespole Szk\u00f3\u0142 w Bodzentynie",
                "name": "Szko\u0142a Policealna w Powiatowym Zespole Szk\u00f3\u0142 w Bodzentynie",
                "addr:postcode": "26-010",
                "addr:city": "Bodzentyn",
                "addr:street": "Suchedniowska",
                "addr:housenumber": "6",
                "addr:city:simc": 230102,
                "addr:street:sym_ul": 21506,
                "phone": "+48 413115033",
                "email": "lobodzentyn@wp.pl",
                "website": "http:\/\/www.zspbodzentyn.pl",
                "ref:regon": "260629080",
                "operator": "Powiat Kielecki",
                "operator:type": "government",
                "amenity": "college",
                "note": "Parent RSPO: 5122"
            }
        },
        {
            "id": 115263,
            "type": "Feature",
            "geometry": {
                "type": "Point",
                "coordinates": [
                    20.94672,
                    50.942280000000004
                ]
            },
            "properties": {
                "isced:level": "3",
                "ref:rspo": 115263,
                "official_name": "Liceum Og\u00f3lnokszta\u0142c\u0105ce dla Doros\u0142ych w Powiatowym Zespole Szk\u00f3\u0142 w Bodzentynie",
                "name": "Liceum Og\u00f3lnokszta\u0142c\u0105ce dla Doros\u0142ych w Powiatowym Zespole Szk\u00f3\u0142 w Bodzentynie",
                "addr:postcode": "26-010",
                "addr:city": "Bodzentyn",
                "addr:street": "Suchedniowska",
                "addr:housenumber": "6",
                "addr:city:simc": 230102,
                "addr:street:sym_ul": 21506,
                "phone": "+48 413115033",
                "email": "lobodzentyn@wp.pl",
                "website": "http:\/\/www.zspbodzentyn.pl",
                "ref:regon": "260704113",
                "operator": "Powiat Kielecki",
                "operator:type": "government",
                "amenity": "school",
                "note": "Parent RSPO: 5122"
            }
        },
        {
            "id": 5797,
            "type": "Feature",
            "geometry": {
                "type": "Point",
                "coordinates": [
                    20.94736,
                    50.94316
                ]
            },
            "properties": {
                "ref:rspo": 5797,
                "official_name": "Powiatowa Poradnia Psychologiczno-Pedagogiczna w Bodzentynie",
                "name": "Powiatowa Poradnia Psychologiczno-Pedagogiczna w Bodzentynie",
                "addr:postcode": "26-010",
                "addr:city": "Bodzentyn",
                "addr:street": "Wolno\u015bci",
                "addr:housenumber": "1A",
                "addr:city:simc": 230102,
                "addr:street:sym_ul": 24687,
                "phone": "+48 413115020",
                "email": "pppbodzentyn@op.pl",
                "website": "http:\/\/www.pppbodzentyn.pl\/",
                "ref:regon": "292874238",
                "ref:vatin": "PL6572334998",
                "operator": "Powiat Kielecki",
                "operator:type": "government",
                "healthcare": "counselling",
                "counselling_type": "education",
                "fixme": "w zale\u017cno\u015bci od przedmiotu dzia\u0142alno\u015bci (np. healthcare=counselling + counselling_type=education albo healthcare=psychotherapist)"
            }
        },
        {
            "id": 9373,
            "type": "Feature",
            "geometry": {
                "type": "Point",
                "coordinates": [
                    20.94736,
                    50.94313
                ]
            },
            "properties": {
                "ref:rspo": 9373,
                "official_name": "Powiatowe Szkolne Schronisko M\u0142odzie\u017cowe w Ch\u0119cinach Filia Nr 1 w Bodzentynie",
                "name": "Powiatowe Szkolne Schronisko M\u0142odzie\u017cowe w Ch\u0119cinach Filia Nr 1 w Bodzentynie",
                "addr:postcode": "26-010",
                "addr:city": "Bodzentyn",
                "addr:street": "Wolno\u015bci",
                "addr:housenumber": "1A",
                "addr:city:simc": 230102,
                "addr:street:sym_ul": 24687,
                "phone": "+48 665533961",
                "email": "bodzentyn@ssm-checiny.pl",
                "website": "http:\/\/www.ssm-checiny.pl",
                "ref:regon": "292800671",
                "operator": "Powiat Kielecki",
                "operator:type": "government",
                "tourism": "hostel",
                "note": "Parent RSPO: 6014"
            }
        },
        {
            "id": 119637,
            "type": "Feature",
            "geometry": {
                "type": "Point",
                "coordinates": [
                    20.9942802,
                    50.9590937
                ]
            },
            "properties": {
                "isced:level": "1;2",
                "ref:rspo": 119637,
                "official_name": "Szko\u0142a Podstawowa w \u015aniadce",
                "name": "Szko\u0142a Podstawowa w \u015aniadce",
                "addr:postcode": "26-010",
                "addr:place": "\u015aniadka Druga",
                "addr:housenumber": "19a",
                "addr:city:simc": 230480,
                "phone": "+48 413115327",
                "email": "spsniadka2@o2.pl",
                "ref:regon": "260718960",
                "operator": "Stowarzyszenie Na Rzecz Rozwoju Wsi \u015aniadka",
                "operator:type": "ngo",
                "amenity": "school"
            }
        },
        {
            "id": 265076,
            "type": "Feature",
            "geometry": {
                "type": "Point",
                "coordinates": [
                    20.873423,
                    50.9684389
                ]
            },
            "properties": {
                "isced:level": "1;2",
                "ref:rspo": 265076,
                "official_name": "Niepubliczna Szko\u0142a Podstawowa w Le\u015bnej",
                "name": "Niepubliczna Szko\u0142a Podstawowa w Le\u015bnej",
                "addr:postcode": "26-010",
                "addr:place": "Le\u015bna-Stara Wie\u015b",
                "addr:housenumber": "1",
                "addr:city:simc": 230177,
                "phone": "+48 413115611",
                "email": "szkola.lesna1@o2.pl",
                "ref:regon": "368583172",
                "operator": "Beata Doma\u0144ska-K\u00f3zka",
                "operator:type": "private",
                "amenity": "school"
            }
        },
        {
            "id": 265077,
            "type": "Feature",
            "geometry": {
                "type": "Point",
                "coordinates": [
                    20.873423,
                    50.9684089
                ]
            },
            "properties": {
                "ref:rspo": 265077,
                "official_name": "Punkt Przedszkolny Przy Niepublicznej Szkole Podstawowej w Le\u015bnej",
                "name": "Punkt Przedszkolny Przy Niepublicznej Szkole Podstawowej w Le\u015bnej",
                "addr:postcode": "26-010",
                "addr:place": "Le\u015bna-Stara Wie\u015b",
                "addr:housenumber": "1",
                "addr:city:simc": 230177,
                "phone": "+48 413115611",
                "email": "szkola.lesna1@o2.pl",
                "ref:regon": "368583137",
                "operator": "Beata Doma\u0144ska-K\u00f3zka",
                "operator:type": "private",
                "amenity": "kindergarten"
            }
        }
    ]
}