{
    "type": "FeatureCollection",
    "features": [
        {
            "id": 3069,
            "type": "Feature",
            "geometry": {
                "type": "Point",
                "coordinates": [
                    15.921999,
                    54.185073
                ]
            },
            "properties": {
                "isced:level": "1;2",
                "ref:rspo": 3069,
                "official_name": "Szko\u0142a Podstawowa w Dobrzycy",
                "name": "Szko\u0142a Podstawowa w Dobrzycy",
                "addr:country": "PL",
                "addr:postcode": "76-038",
                "addr:place": "Dobrzyca",
                "addr:housenumber": "53",
                "addr:teryt:sym_ul": 302362,
                "contact:phone": "+48 943160106",
                "contact:email": "spdobrzyca4@wp.pl",
                "contact:website": "http:\/\/www.spdobrzyca4.superszkolna.pl",
                "ref:regon": "331451321",
                "ref:vatin": "PL4990449444",
                "operator": "Gmina B\u0119dzino",
                "operator:type": "government",
                "amenity": "school"
            }
        },
        {
            "id": 84436,
            "type": "Feature",
            "geometry": {
                "type": "Point",
                "coordinates": [
                    15.921999,
                    54.185043
                ]
            },
            "properties": {
                "ref:rspo": 84436,
                "official_name": "Punkt Przedszkolny Przy Szkole Podstawowej w Dobrzycy",
                "name": "Punkt Przedszkolny Przy Szkole Podstawowej w Dobrzycy",
                "addr:country": "PL",
                "addr:postcode": "76-038",
                "addr:place": "Dobrzyca",
                "addr:housenumber": "53",
                "addr:teryt:sym_ul": 302362,
                "contact:phone": "+48 943160106",
                "contact:email": "spdobrzyca4@wp.pl",
                "contact:website": "http:\/\/www.spdobrzyca4.superszkola.pl",
                "ref:regon": "321299602",
                "operator": "Gmina B\u0119dzino",
                "operator:type": "government",
                "amenity": "kindergarten"
            }
        },
        {
            "id": 84214,
            "type": "Feature",
            "geometry": {
                "type": "Point",
                "coordinates": [
                    15.8528505,
                    54.2049385
                ]
            },
            "properties": {
                "ref:rspo": 84214,
                "official_name": "Punkt Przedszkolny Przy Szkole Podstawowej im. Kardyna\u0142a Ignacego Je\u017ca w Tymieniu",
                "name": "Punkt Przedszkolny Przy Szkole Podstawowej",
                "addr:country": "PL",
                "addr:postcode": "76-035",
                "addr:place": "Tymie\u0144",
                "addr:housenumber": "49",
                "addr:teryt:sym_ul": 302646,
                "contact:phone": "+48 943181296",
                "contact:email": "szkolatymien491@wp.pl",
                "contact:website": "http:\/\/www.zs-tymien.pl",
                "ref:regon": "321299619",
                "operator": "Gmina B\u0119dzino",
                "operator:type": "government",
                "amenity": "kindergarten"
            }
        },
        {
            "id": 110230,
            "type": "Feature",
            "geometry": {
                "type": "Point",
                "coordinates": [
                    15.8528505,
                    54.204908499999995
                ]
            },
            "properties": {
                "isced:level": "1;2",
                "ref:rspo": 110230,
                "official_name": "Szko\u0142a Podstawowa im. Kardyna\u0142a Ignacego Je\u017ca w Tymieniu",
                "name": "Szko\u0142a Podstawowa",
                "addr:country": "PL",
                "addr:postcode": "76-035",
                "addr:place": "Tymie\u0144",
                "addr:housenumber": "49",
                "addr:teryt:sym_ul": 302646,
                "contact:phone": "+48 943181296",
                "contact:email": "szkolatymien491@wp.pl",
                "contact:website": "http:\/\/www.zs-tymien.pl",
                "ref:regon": "001175569",
                "ref:vatin": "PL4990451688",
                "operator": "Gmina B\u0119dzino",
                "operator:type": "government",
                "amenity": "school"
            }
        },
        {
            "id": 3070,
            "type": "Feature",
            "geometry": {
                "type": "Point",
                "coordinates": [
                    15.988047,
                    54.208314
                ]
            },
            "properties": {
                "ref:rspo": 3070,
                "official_name": "Przedszkole w B\u0119dzinie",
                "name": "Przedszkole w B\u0119dzinie",
                "addr:country": "PL",
                "addr:postcode": "76-037",
                "addr:place": "B\u0119dzino",
                "addr:housenumber": "31",
                "addr:teryt:sym_ul": 302273,
                "contact:phone": "+48 943162411",
                "contact:email": "psbedzino@wp.pl",
                "contact:website": "http:\/\/www.przedszkolebedzino.nogard.pl",
                "ref:regon": "330916723",
                "ref:vatin": "PL4990357995",
                "operator": "Gmina B\u0119dzino",
                "operator:type": "government",
                "amenity": "kindergarten"
            }
        },
        {
            "id": 3071,
            "type": "Feature",
            "geometry": {
                "type": "Point",
                "coordinates": [
                    16.09383,
                    54.21518
                ]
            },
            "properties": {
                "ref:rspo": 3071,
                "official_name": "Przedszkole Promyki Ba\u0142tyku w M\u015bcicach",
                "name": "Przedszkole Promyki Ba\u0142tyku w M\u015bcicach",
                "addr:country": "PL",
                "addr:postcode": "76-031",
                "addr:city": "M\u015bcice",
                "addr:street": "Szkolna",
                "addr:housenumber": "1B",
                "addr:teryt:simc": 21970,
                "addr:teryt:sym_ul": 302480,
                "contact:phone": "+48 943188340",
                "contact:email": "przedszkolemscice@o2.pl",
                "ref:regon": "330916717",
                "ref:vatin": "PL4990356725",
                "operator": "Gmina B\u0119dzino",
                "operator:type": "government",
                "amenity": "kindergarten"
            }
        },
        {
            "id": 3068,
            "type": "Feature",
            "geometry": {
                "type": "Point",
                "coordinates": [
                    16.018943,
                    54.215555
                ]
            },
            "properties": {
                "isced:level": "1;2",
                "ref:rspo": 3068,
                "official_name": "Szko\u0142a Podstawowa w B\u0119dzinie Z Siedzib\u0105 w \u0141eknie",
                "name": "Szko\u0142a Podstawowa w B\u0119dzinie Z Siedzib\u0105 w \u0141eknie",
                "addr:country": "PL",
                "addr:postcode": "76-037",
                "addr:place": "\u0141ekno",
                "addr:housenumber": "14",
                "addr:teryt:sym_ul": 302451,
                "contact:phone": "+48 943162421",
                "contact:email": "lekno_szkola@op.pl",
                "contact:website": "http:\/\/www.splekno.witrynaszkolna.pl",
                "ref:regon": "000590591",
                "ref:vatin": "PL4990357682",
                "operator": "Gmina B\u0119dzino",
                "operator:type": "government",
                "amenity": "school"
            }
        },
        {
            "id": 109960,
            "type": "Feature",
            "geometry": {
                "type": "Point",
                "coordinates": [
                    16.09401,
                    54.21587
                ]
            },
            "properties": {
                "isced:level": "1;2",
                "ref:rspo": 109960,
                "official_name": "Szko\u0142a Podstawowa im. Ludzi Morza w M\u015bcicach",
                "name": "Szko\u0142a Podstawowa",
                "addr:country": "PL",
                "addr:postcode": "76-031",
                "addr:city": "M\u015bcice",
                "addr:street": "Szkolna",
                "addr:housenumber": "1A",
                "addr:teryt:simc": 21970,
                "addr:teryt:sym_ul": 302480,
                "contact:phone": "+48 943165149",
                "contact:email": "sekretariat@szkolamscice.pl",
                "contact:website": "http:\/\/www.zs-mscice.home.pl\/",
                "ref:regon": "001175227",
                "ref:vatin": "PL4990449289",
                "operator": "Gmina B\u0119dzino",
                "operator:type": "government",
                "amenity": "school"
            }
        }
    ]
}