{
    "type": "FeatureCollection",
    "features": [
        {
            "id": 42245,
            "type": "Feature",
            "geometry": {
                "type": "Point",
                "coordinates": [
                    15.9414729,
                    54.088684
                ]
            },
            "properties": {
                "isced:level": "1;2",
                "ref:rspo": 42245,
                "official_name": "Szko\u0142a Podstawowa im. Kornela Makuszy\u0144skiego w \u015awieminie",
                "name": "Szko\u0142a Podstawowa",
                "addr:postcode": "76-039",
                "addr:place": "\u015awiemino",
                "addr:housenumber": "19",
                "addr:city:simc": 303835,
                "phone": "+48 943180689",
                "email": "spswiemino@interia.pl",
                "website": "http:\/\/www.sp-swiemino.edu.pl",
                "ref:regon": "000742807",
                "ref:vatin": "PL4990347695",
                "operator": "Gmina Biesiekierz",
                "operator:type": "government",
                "amenity": "school"
            }
        },
        {
            "id": 30652,
            "type": "Feature",
            "geometry": {
                "type": "Point",
                "coordinates": [
                    15.941912,
                    54.121723
                ]
            },
            "properties": {
                "ref:rspo": 30652,
                "official_name": "Specjalny O\u015brodek Szkolno-Wychowawczy w Warninie",
                "name": "Specjalny O\u015brodek Szkolno-Wychowawczy w Warninie",
                "addr:postcode": "76-039",
                "addr:place": "Warnino",
                "addr:housenumber": "29",
                "addr:city:simc": 303812,
                "phone": "+48 943180391",
                "email": "sosw.warnino@powiat.koszalin.pl",
                "website": "http:\/\/soswwarnino.powiat.koszalin.pl",
                "ref:regon": "331024122",
                "ref:vatin": "PL4990147111",
                "operator": "Powiat Koszali\u0144ski",
                "operator:type": "government",
                "amenity": "school",
                "note": "Children RSPO: 39063;39111"
            }
        },
        {
            "id": 39063,
            "type": "Feature",
            "geometry": {
                "type": "Point",
                "coordinates": [
                    15.941912,
                    54.121693
                ]
            },
            "properties": {
                "isced:level": "1;2",
                "ref:rspo": 39063,
                "official_name": "Szko\u0142a Podstawowa Specjalna w Warninie",
                "name": "Szko\u0142a Podstawowa Specjalna w Warninie",
                "addr:postcode": "76-039",
                "addr:place": "Warnino",
                "addr:housenumber": "29",
                "addr:city:simc": 303812,
                "phone": "+48 943180391",
                "email": "sosw.warnino@powiat.koszalin.pl",
                "website": "http:\/\/www.sosw.warnino.powiat.koszalin.pl",
                "ref:regon": "331450468",
                "operator": "Powiat Koszali\u0144ski",
                "operator:type": "government",
                "amenity": "school",
                "note": "Parent RSPO: 30652"
            }
        },
        {
            "id": 39111,
            "type": "Feature",
            "geometry": {
                "type": "Point",
                "coordinates": [
                    15.941912,
                    54.121663000000005
                ]
            },
            "properties": {
                "ref:rspo": 39111,
                "official_name": "Szko\u0142a Specjalna Przysposabiaj\u0105ca do Pracy",
                "name": "Szko\u0142a Specjalna Przysposabiaj\u0105ca do Pracy",
                "addr:postcode": "76-039",
                "addr:place": "Warnino",
                "addr:housenumber": "29",
                "addr:city:simc": 303812,
                "phone": "+48 943180391",
                "email": "sosw.warnino@powiat.koszalin.pl",
                "website": "http:\/\/www.sosw.warnino.powiat.koszalin.pl",
                "ref:regon": "331450480",
                "operator": "Powiat Koszali\u0144ski",
                "operator:type": "government",
                "amenity": "school",
                "note": "Parent RSPO: 30652"
            }
        },
        {
            "id": 41897,
            "type": "Feature",
            "geometry": {
                "type": "Point",
                "coordinates": [
                    16.0352709,
                    54.137402
                ]
            },
            "properties": {
                "isced:level": "1;2",
                "ref:rspo": 41897,
                "official_name": "Szko\u0142a Podstawowa im. Kpt. W\u0142. Wysockiego w Biesiekierzu",
                "name": "Szko\u0142a Podstawowa",
                "addr:postcode": "76-039",
                "addr:place": "Biesiekierz",
                "addr:housenumber": "60",
                "addr:city:simc": 303657,
                "phone": "+48 943180395",
                "email": "szkola60@op.pl",
                "website": "http:\/\/www.sp-biesiekierz.pl",
                "ref:regon": "000742776",
                "ref:vatin": "PL4990347726",
                "operator": "Gmina Biesiekierz",
                "operator:type": "government",
                "amenity": "school"
            }
        },
        {
            "id": 68651,
            "type": "Feature",
            "geometry": {
                "type": "Point",
                "coordinates": [
                    16.03898,
                    54.16404
                ]
            },
            "properties": {
                "ref:rspo": 68651,
                "official_name": "Przedszkole Gminne w Parnowie",
                "name": "Przedszkole Gminne w Parnowie",
                "addr:postcode": "76-039",
                "addr:place": "Parnowo",
                "addr:housenumber": "26",
                "addr:city:simc": 303775,
                "phone": "+48 943180251",
                "email": "sekretariat@przedszkole.biesiekierz.pl",
                "website": "http:\/\/www.przedszkole-biesiekierz.pl",
                "ref:regon": "330959388",
                "ref:vatin": "PL4990213090",
                "operator": "Gmina Biesiekierz",
                "operator:type": "government",
                "amenity": "kindergarten"
            }
        },
        {
            "id": 42566,
            "type": "Feature",
            "geometry": {
                "type": "Point",
                "coordinates": [
                    16.13525,
                    54.17663
                ]
            },
            "properties": {
                "isced:level": "1;2",
                "ref:rspo": 42566,
                "official_name": "Szko\u0142a Podstawowa im. Marii Sk\u0142odowskiej Curie w Starych Bielicach",
                "name": "Szko\u0142a Podstawowa",
                "addr:postcode": "76-039",
                "addr:city": "Stare Bielice",
                "addr:street": "Ko\u015bcielna",
                "addr:housenumber": "5",
                "addr:city:simc": 303798,
                "addr:street:sym_ul": 9546,
                "phone": "+48 943163328",
                "email": "msbielice@poczta.onet.pl",
                "website": "http:\/\/www.spbielice.edu.pl",
                "ref:regon": "000742799",
                "ref:vatin": "PL4990347703",
                "operator": "Gmina Biesiekierz",
                "operator:type": "government",
                "amenity": "school"
            }
        },
        {
            "id": 120545,
            "type": "Feature",
            "geometry": {
                "type": "Point",
                "coordinates": [
                    16.13525,
                    54.1766
                ]
            },
            "properties": {
                "ref:rspo": 120545,
                "official_name": "Przedszkole Niepubliczne Angloj\u0119zyczne \"Elf 2\"",
                "name": "Przedszkole Niepubliczne Angloj\u0119zyczne \"Elf 2\"",
                "addr:postcode": "76-039",
                "addr:city": "Stare Bielice",
                "addr:street": "Przyjaci\u00f3\u0142",
                "addr:housenumber": "5",
                "addr:city:simc": 303798,
                "addr:street:sym_ul": 17918,
                "phone": "+48 501524256",
                "ref:regon": "321437808",
                "operator": "Anetta Skrzypek",
                "operator:type": "private",
                "amenity": "kindergarten"
            }
        },
        {
            "id": 127025,
            "type": "Feature",
            "geometry": {
                "type": "Point",
                "coordinates": [
                    16.11435,
                    54.18115
                ]
            },
            "properties": {
                "ref:rspo": 127025,
                "official_name": "Przedszkole Publiczne \"Happy Days - Szcz\u0119\u015bliwe Dni\" w Starych Bielicach",
                "name": "Przedszkole Publiczne \"Happy Days - Szcz\u0119\u015bliwe Dni\" w Starych Bielicach",
                "addr:postcode": "76-039",
                "addr:place": "Stare Bielice",
                "addr:housenumber": "83",
                "addr:city:simc": 303798,
                "phone": "+48 608319882",
                "email": "dyrektor@happydays-starebielice.pl",
                "website": "http:\/\/www.happydays-starebielice.pl",
                "ref:regon": "361035036",
                "ref:vatin": "PL6971483487",
                "operator": "Fundacja \"Happy Days - Szcz\u0119\u015bliwe Dni\"",
                "operator:type": "ngo",
                "amenity": "kindergarten"
            }
        }
    ]
}