{
    "type": "FeatureCollection",
    "features": [
        {
            "id": 5656,
            "type": "Feature",
            "geometry": {
                "type": "Point",
                "coordinates": [
                    16.5899,
                    53.95625
                ]
            },
            "properties": {
                "ref:rspo": 5656,
                "official_name": "Przedszkole w Bobolicach",
                "name": "Przedszkole w Bobolicach",
                "addr:postcode": "76-020",
                "addr:city": "Bobolice",
                "addr:street": "Pionier\u00f3w",
                "addr:housenumber": "7",
                "addr:city:simc": 949804,
                "addr:street:sym_ul": 16290,
                "phone": "+48 943187323",
                "email": "przedszkole.bobolice@interia.pl",
                "website": "http:\/\/przedszkolebobolice.edupage.org",
                "ref:regon": "331015933",
                "ref:vatin": "PL4990262384",
                "operator": "Gmina Bobolice",
                "operator:type": "government",
                "amenity": "kindergarten"
            }
        },
        {
            "id": 115255,
            "type": "Feature",
            "geometry": {
                "type": "Point",
                "coordinates": [
                    16.58962,
                    53.95704
                ]
            },
            "properties": {
                "ref:rspo": 115255,
                "official_name": "O\u015brodek Rehabilitacyjno-Edukacyjno-Wychowawczy",
                "name": "O\u015brodek Rehabilitacyjno-Edukacyjno-Wychowawczy",
                "addr:postcode": "76-020",
                "addr:city": "Bobolice",
                "addr:street": "Pocztowa",
                "addr:housenumber": "15",
                "addr:city:simc": 949804,
                "addr:street:sym_ul": 16579,
                "phone": "+48 943187335",
                "email": "stow.ws@gmail.com",
                "website": "http:\/\/orewbobolice.pl",
                "ref:regon": "321393287",
                "operator": "Stowarzyszenie Na Rzecz Os\u00f3b Wykluczonych I Zagro\u017conych Wykluczeniem Spo\u0142ecznym \"Wsp\u00f3lny \u015awiat\"",
                "operator:type": "ngo",
                "amenity": "school"
            }
        },
        {
            "id": 15175,
            "type": "Feature",
            "geometry": {
                "type": "Point",
                "coordinates": [
                    16.59373,
                    53.95858
                ]
            },
            "properties": {
                "isced:level": "1;2",
                "ref:rspo": 15175,
                "official_name": "Szko\u0142a Podstawowa im. Henryka Sienkiewicza w Bobolicach",
                "name": "Szko\u0142a Podstawowa",
                "addr:postcode": "76-020",
                "addr:city": "Bobolice",
                "addr:street": "G\u0142owackiego",
                "addr:housenumber": "7d",
                "addr:city:simc": 949804,
                "addr:street:sym_ul": 5623,
                "phone": "+48 943187486",
                "email": "szkola@bobolice.pl",
                "website": "http:\/\/www.szkola.bobolice.pl",
                "ref:regon": "331062097",
                "ref:vatin": "PL4990604608",
                "operator": "Gmina Bobolice",
                "operator:type": "government",
                "amenity": "school"
            }
        },
        {
            "id": 30838,
            "type": "Feature",
            "geometry": {
                "type": "Point",
                "coordinates": [
                    16.59373,
                    53.958549999999995
                ]
            },
            "properties": {
                "isced:level": "3",
                "ref:rspo": 30838,
                "official_name": "Liceum Og\u00f3lnokszta\u0142c\u0105ce dla Doros\u0142ych \"Nauta\"",
                "name": "Liceum Og\u00f3lnokszta\u0142c\u0105ce dla Doros\u0142ych \"Nauta\"",
                "addr:postcode": "76-020",
                "addr:city": "Bobolice",
                "addr:street": "G\u0142owackiego",
                "addr:housenumber": "7",
                "addr:door": "D",
                "addr:city:simc": 949804,
                "addr:street:sym_ul": 5623,
                "phone": "+48 943425067",
                "email": "nautab@wp.pl",
                "website": "http:\/\/nauta.edu.pl",
                "ref:regon": "321289963",
                "ref:vatin": "PL6692280963",
                "operator": "\"Nauta\" Sp\u00f3\u0142ka Z Ograniczon\u0105 Odpowiedzialno\u015bci\u0105",
                "operator:type": "private",
                "amenity": "school"
            }
        },
        {
            "id": 123876,
            "type": "Feature",
            "geometry": {
                "type": "Point",
                "coordinates": [
                    16.59373,
                    53.95852
                ]
            },
            "properties": {
                "isced:level": "3",
                "ref:rspo": 123876,
                "official_name": "Bran\u017cowa Szko\u0142a I Stopnia \"Nauta\" w Bobolicach",
                "name": "Bran\u017cowa Szko\u0142a I Stopnia \"Nauta\" w Bobolicach",
                "addr:postcode": "76-020",
                "addr:city": "Bobolice",
                "addr:street": "G\u0142owackiego",
                "addr:housenumber": "7",
                "addr:door": "D",
                "addr:city:simc": 949804,
                "addr:street:sym_ul": 5623,
                "phone": "+48 943425067",
                "email": "nautab@wp.pl",
                "ref:regon": "321555749",
                "operator": "\"Nauta\" Sp\u00f3\u0142ka Z Ograniczon\u0105 Odpowiedzialno\u015bci\u0105",
                "operator:type": "private",
                "amenity": "school"
            }
        },
        {
            "id": 275352,
            "type": "Feature",
            "geometry": {
                "type": "Point",
                "coordinates": [
                    16.59373,
                    53.95849
                ]
            },
            "properties": {
                "isced:level": "3",
                "ref:rspo": 275352,
                "official_name": "Liceum Og\u00f3lnokszta\u0142c\u0105ce \"Nauta\" w Bobolicach",
                "name": "Liceum Og\u00f3lnokszta\u0142c\u0105ce \"Nauta\" w Bobolicach",
                "addr:postcode": "76-020",
                "addr:city": "Bobolice",
                "addr:street": "G\u0142owackiego",
                "addr:housenumber": "7",
                "addr:door": "D",
                "addr:city:simc": 949804,
                "addr:street:sym_ul": 5623,
                "phone": "+48 943461460",
                "email": "uczelnia.kwsnh@wp.pl",
                "ref:regon": "386821210",
                "operator": "\"Nauta\" Sp\u00f3\u0142ka Z Ograniczon\u0105 Odpowiedzialno\u015bci\u0105",
                "operator:type": "private",
                "amenity": "school"
            }
        },
        {
            "id": 14965,
            "type": "Feature",
            "geometry": {
                "type": "Point",
                "coordinates": [
                    16.684036,
                    53.995863
                ]
            },
            "properties": {
                "isced:level": "1;2",
                "ref:rspo": 14965,
                "official_name": "Szko\u0142a Podstawowa w Drzewianach",
                "name": "Szko\u0142a Podstawowa w Drzewianach",
                "addr:postcode": "76-020",
                "addr:place": "Drzewiany",
                "addr:housenumber": "76",
                "addr:city:simc": 304007,
                "phone": "+48 943187823",
                "email": "drzewiany@wp.pl",
                "website": "http:\/\/spdrzewiany-bobolice.szkolnastrona.pl",
                "ref:regon": "001174742",
                "ref:vatin": "PL4990279031",
                "operator": "Gmina Bobolice",
                "operator:type": "government",
                "amenity": "school"
            }
        },
        {
            "id": 19311,
            "type": "Feature",
            "geometry": {
                "type": "Point",
                "coordinates": [
                    16.3961072,
                    54.0131573
                ]
            },
            "properties": {
                "isced:level": "1;2",
                "ref:rspo": 19311,
                "official_name": "Szko\u0142a Podstawowa w Dargini",
                "name": "Szko\u0142a Podstawowa w Dargini",
                "addr:postcode": "76-020",
                "addr:place": "Dargi\u0144",
                "addr:housenumber": "47",
                "addr:city:simc": 303930,
                "phone": "+48 943182899",
                "email": "szkoladargin@op.pl",
                "website": "http:\/\/szkoladargin.bobolice.pl",
                "ref:regon": "331347902",
                "ref:vatin": "PL4990376202",
                "operator": "Gmina Bobolice",
                "operator:type": "government",
                "amenity": "school"
            }
        },
        {
            "id": 19312,
            "type": "Feature",
            "geometry": {
                "type": "Point",
                "coordinates": [
                    16.4639509,
                    54.029194
                ]
            },
            "properties": {
                "isced:level": "1;2",
                "ref:rspo": 19312,
                "official_name": "Szko\u0142a Podstawowa im. Jana Brzechwy w K\u0142aninie",
                "name": "Szko\u0142a Podstawowa",
                "addr:postcode": "76-020",
                "addr:place": "K\u0142anino",
                "addr:housenumber": "7",
                "addr:city:simc": 304214,
                "phone": "+48 943167036",
                "email": "szkolaklanino@o2.pl",
                "website": "http:\/\/www.szkolaklanino.cba.pl",
                "ref:regon": "001174759",
                "ref:vatin": "PL4990259011",
                "operator": "Gmina Bobolice",
                "operator:type": "government",
                "amenity": "school"
            }
        }
    ]
}