{
    "type": "FeatureCollection",
    "features": [
        {
            "id": 5968,
            "type": "Feature",
            "geometry": {
                "type": "Point",
                "coordinates": [
                    15.95656,
                    54.24853
                ]
            },
            "properties": {
                "isced:level": "1;2",
                "ref:rspo": 5968,
                "official_name": "Szko\u0142a Podstawowa im. Stra\u017cy Granicznej w Sarbinowie",
                "name": "Szko\u0142a Podstawowa",
                "addr:postcode": "76-034",
                "addr:city": "Sarbinowo",
                "addr:street": "Nadmorska",
                "addr:housenumber": "27a",
                "addr:city:simc": 308382,
                "addr:street:sym_ul": 13888,
                "phone": "+48 943165528",
                "email": "spsarbinowosekretariat@onet.pl",
                "website": "http:\/\/www.spsarbinowo.edupage.org",
                "ref:regon": "001176089",
                "operator": "Gmina Mielno",
                "operator:type": "government",
                "amenity": "school"
            }
        },
        {
            "id": 9226,
            "type": "Feature",
            "geometry": {
                "type": "Point",
                "coordinates": [
                    16.0538108,
                    54.2551469
                ]
            },
            "properties": {
                "isced:level": "1;2",
                "ref:rspo": 9226,
                "official_name": "Szko\u0142a Podstawowa im. Leonida Teligi w Mielnie",
                "name": "Szko\u0142a Podstawowa",
                "addr:postcode": "76-032",
                "addr:city": "Mielno",
                "addr:street": "Lechit\u00f3w",
                "addr:housenumber": "19",
                "addr:city:simc": 308353,
                "addr:street:sym_ul": 10740,
                "phone": "+48 943461986",
                "email": "sp.mielno@wp.pl",
                "website": "http:\/\/www.zsmielno.pl",
                "ref:regon": "000677010",
                "operator": "Gmina Mielno",
                "operator:type": "government",
                "amenity": "school"
            }
        },
        {
            "id": 5953,
            "type": "Feature",
            "geometry": {
                "type": "Point",
                "coordinates": [
                    16.05546,
                    54.25553
                ]
            },
            "properties": {
                "ref:rspo": 5953,
                "official_name": "Przedszkole w Mielnie",
                "name": "Przedszkole w Mielnie",
                "addr:postcode": "76-032",
                "addr:city": "Mielno",
                "addr:street": "Szkolna",
                "addr:housenumber": "1",
                "addr:city:simc": 308353,
                "addr:street:sym_ul": 21970,
                "phone": "+48 943189347",
                "email": "przedszkolemielno@wp.pl",
                "website": "http:\/\/www.przedszkolemielno.edupage.org",
                "ref:regon": "330480496",
                "operator": "Gmina Mielno",
                "operator:type": "government",
                "amenity": "kindergarten"
            }
        },
        {
            "id": 92289,
            "type": "Feature",
            "geometry": {
                "type": "Point",
                "coordinates": [
                    16.05621,
                    54.26094
                ]
            },
            "properties": {
                "ref:rspo": 92289,
                "official_name": "Pozaszkolna Plac\u00f3wka Specjalistyczna - O\u015brodek Rehabilitacyjno-Wypoczynkowy \"Syrena\" w Mielnie",
                "name": "Pozaszkolna Plac\u00f3wka Specjalistyczna - O\u015brodek Rehabilitacyjno-Wypoczynkowy \"Syrena\" w Mielnie",
                "addr:postcode": "76-032",
                "addr:city": "Mielno",
                "addr:street": "Piast\u00f3w",
                "addr:housenumber": "10",
                "addr:city:simc": 308353,
                "addr:street:sym_ul": 16057,
                "phone": "+48 943166450",
                "email": "sekretariat@syrena-mielno.pl",
                "website": "http:\/\/www.syrena.ta.pl",
                "ref:regon": "320932575",
                "ref:vatin": "PL6690504720",
                "operator": "Miasto Sto\u0142eczne Warszawa",
                "operator:type": "government",
                "fixme": "w zale\u017cno\u015bci od przedmiotu dzia\u0142alno\u015bci (np. amenity=training + training=*, amenity=dancing_school, amenity=language_school, amenity=music_school)"
            }
        }
    ]
}