{"type":"FeatureCollection","features":[{"id":19555,"type":"Feature","geometry":{"type":"Point","coordinates":[15.75099,52.96549]},"properties":{"isced:level":"3","ref:rspo":19555,"official_name":"Gminny Zesp\u00f3\u0142 Szk\u00f3\u0142 w Dobiegniewie.liceum Og\u00f3lnokszta\u0142c\u0105ce","name":"Gminny Zesp\u00f3\u0142 Szk\u00f3\u0142 w Dobiegniewie.liceum Og\u00f3lnokszta\u0142c\u0105ce","addr:country":"PL","addr:postcode":"66-520","addr:city":"Dobiegniew","addr:street":"ul. Pozna\u0144ska","addr:housenumber":"5","addr:teryt:simc":17394,"addr:teryt:sym_ul":935334,"contact:phone":"+48 957611091","contact:email":"gzsdobiegniew@wp.pl","contact:website":"http:\/\/www.gzsdobiegniew.edupage.org","ref:regon":"210140448","ref:vatin":"PL2810082781","operator":"Gmina Dobiegniew","operator:type":"government","amenity":"school","note":"Parent RSPO: 133978"}},{"id":19608,"type":"Feature","geometry":{"type":"Point","coordinates":[15.75099,52.96546]},"properties":{"isced:level":"3","ref:rspo":19608,"official_name":"Gminny Zesp\u00f3\u0142 Szk\u00f3\u0142 w Dobiegniewie.bran\u017cowa Szko\u0142a I Stopnia","name":"Gminny Zesp\u00f3\u0142 Szk\u00f3\u0142 w Dobiegniewie.bran\u017cowa Szko\u0142a I Stopnia","addr:country":"PL","addr:postcode":"66-520","addr:city":"Dobiegniew","addr:street":"ul. Pozna\u0144ska","addr:housenumber":"5","addr:teryt:simc":17394,"addr:teryt:sym_ul":935334,"contact:phone":"+48 957611091","contact:email":"gzsdobiegniew@wp.pl","contact:website":"http:\/\/www.gzsdobiegniew.edupage.org","ref:regon":"210140431","ref:vatin":"PL2810082781","operator":"Gmina Dobiegniew","operator:type":"government","amenity":"school","note":"Parent RSPO: 133978"}},{"id":106278,"type":"Feature","geometry":{"type":"Point","coordinates":[15.75099,52.965430000000005]},"properties":{"ref:rspo":106278,"official_name":"Szkolne Schronisko M\u0142odzie\u017cowe","name":"Szkolne Schronisko M\u0142odzie\u017cowe","addr:country":"PL","addr:postcode":"66-520","addr:city":"Dobiegniew","addr:street":"ul. Pozna\u0144ska","addr:housenumber":"5","addr:teryt:simc":17394,"addr:teryt:sym_ul":935334,"contact:phone":"+48 957611124","ref:regon":"081103961","operator":"Gmina Dobiegniew","operator:type":"government","tourism":"hostel","note":"Parent RSPO: 133978"}},{"id":133978,"type":"Feature","geometry":{"type":"Point","coordinates":[15.75774,52.97026]},"properties":{"ref:rspo":133978,"official_name":"Gminny Zesp\u00f3\u0142 Szk\u00f3\u0142 w Dobiegniewie","name":"Gminny Zesp\u00f3\u0142 Szk\u00f3\u0142 w Dobiegniewie","addr:country":"PL","addr:postcode":"66-520","addr:city":"Dobiegniew","addr:street":"ul. Gda\u0144ska","addr:housenumber":"8","addr:teryt:simc":5431,"addr:teryt:sym_ul":935334,"contact:phone":"+48 957611091","contact:email":"gzsdobiegniew@wp.pl","contact:website":"http:\/\/www.gzsdobiegniew.edupage.org","ref:regon":"367760821","ref:vatin":"PL2810090243","operator":"Gmina Dobiegniew","operator:type":"government","landuse":"education","fixme":"amenity=school, amenity=college albo landuse=education w zale\u017cno\u015bci od tego, jakie plac\u00f3wki wchodz\u0105 w sk\u0142ad zespo\u0142u. Sprawd\u017a, kiedy stosowa\u0107 amenity=* a kiedy landuse=education.","note":"Children RSPO: 7909;19555;19608;106278"}},{"id":7909,"type":"Feature","geometry":{"type":"Point","coordinates":[15.75774,52.97023]},"properties":{"isced:level":"1;2","ref:rspo":7909,"official_name":"Gminny Zesp\u00f3\u0142 Szk\u00f3\u0142 w Dobiegniewie.szko\u0142a Podstawowa im.\u017co\u0142nierzy Wrze\u015bnia-Woldenberczyk\u00f3w","name":"Gminny Zesp\u00f3\u0142 Szk\u00f3\u0142 w Dobiegniewie.szko\u0142a Podstawowa im.\u017co\u0142nierzy Wrze\u015bnia-Woldenberczyk\u00f3w","addr:country":"PL","addr:postcode":"66-520","addr:city":"Dobiegniew","addr:street":"ul. Gda\u0144ska","addr:housenumber":"8","addr:teryt:simc":5431,"addr:teryt:sym_ul":935334,"contact:phone":"+48 957611091","contact:email":"gzsdobiegniew@wp.pl","contact:website":"http:\/\/www.gzsdobiegniew.edupage.org","ref:regon":"000261864","ref:vatin":"PL5941263208","operator":"Gmina Dobiegniew","operator:type":"government","amenity":"school","note":"Parent RSPO: 133978"}},{"id":7823,"type":"Feature","geometry":{"type":"Point","coordinates":[15.74789,52.9705]},"properties":{"ref:rspo":7823,"official_name":"Przedszkole Ba\u015bniowa Kraina w Dobiegniewie","name":"Przedszkole Ba\u015bniowa Kraina w Dobiegniewie","addr:country":"PL","addr:postcode":"66-520","addr:city":"Dobiegniew","addr:street":"ul. Mickiewicza","addr:housenumber":"9","addr:teryt:simc":12734,"addr:teryt:sym_ul":935334,"contact:phone":"+48 957611080","contact:email":"przedszkole_dobiegniew@wp.pl","ref:regon":"210211697","operator":"Gmina Dobiegniew","operator:type":"government","amenity":"kindergarten"}},{"id":80979,"type":"Feature","geometry":{"type":"Point","coordinates":[15.74869,52.9707]},"properties":{"ref:rspo":80979,"official_name":"O\u015brodek Szkoleniowy I Przygotowania Zawodowego Stowarzyszenia Wspierania Ma\u0142ej Przedsi\u0119biorczo\u015bci Z Siedzib\u0105 w Dobiegniewie","name":"O\u015brodek Szkoleniowy I Przygotowania Zawodowego Stowarzyszenia Wspierania Ma\u0142ej Przedsi\u0119biorczo\u015bci Z Siedzib\u0105 w Dobiegniewie","addr:country":"PL","addr:postcode":"66-520","addr:city":"Dobiegniew","addr:street":"ul. Mickiewicza","addr:housenumber":"7","addr:teryt:simc":12734,"addr:teryt:sym_ul":935334,"contact:phone":"+48 957611540","ref:regon":"081086850","operator":"Stowarzyszenie Wspierania Ma\u0142ej Przedsi\u0119biorczo\u015bci Z Siedzib\u0105 W Dobiegniewie","operator:type":"ngo","fixme":"w zale\u017cno\u015bci od przedmiotu dzia\u0142alno\u015bci (np. amenity=training + training=*, amenity=dancing_school, amenity=language_school, amenity=music_school)"}}]}