{"type":"FeatureCollection","features":[{"id":267942,"type":"Feature","geometry":{"type":"Point","coordinates":[22.03614,50.5967399]},"properties":{"ref:rspo":267942,"official_name":"Zesp\u00f3\u0142 Szk\u00f3\u0142 w Turbi","name":"Zesp\u00f3\u0142 Szk\u00f3\u0142 w Turbi","addr:country":"PL","addr:postcode":"37-415","addr:city":"Turbia","addr:street":"ul. Sandomierska","addr:housenumber":"45","addr:teryt:simc":19491,"addr:teryt:sym_ul":811193,"contact:phone":"+48 158450428","contact:email":"zsturbia@gmail.com","contact:website":"https:\/\/zsturbia.edupage.org\/","ref:regon":"380770858","operator":"Gmina Zaleszany","operator:type":"government","landuse":"education","fixme":"amenity=school, amenity=college albo landuse=education w zale\u017cno\u015bci od tego, jakie plac\u00f3wki wchodz\u0105 w sk\u0142ad zespo\u0142u. Sprawd\u017a, kiedy stosowa\u0107 amenity=* a kiedy landuse=education.","note":"Children RSPO: 32059;262229"}},{"id":262229,"type":"Feature","geometry":{"type":"Point","coordinates":[21.98682,50.60687]},"properties":{"ref:rspo":262229,"official_name":"Publiczne Przedszkole w Obojnej","name":"Publiczne Przedszkole w Obojnej","addr:country":"PL","addr:postcode":"37-415","addr:place":"Obojna","addr:housenumber":"61","addr:teryt:sym_ul":810940,"contact:phone":"+48 158450428","contact:email":"zsturbia@gmail.com","contact:website":"https:\/\/zsturbia.edupage.org\/","ref:regon":"367992419","operator":"Gmina Zaleszany","operator:type":"government","amenity":"kindergarten","note":"Parent RSPO: 267942"}},{"id":56428,"type":"Feature","geometry":{"type":"Point","coordinates":[22.02381,50.61663]},"properties":{"isced:level":"1;2","ref:rspo":56428,"official_name":"Publiczna Szko\u0142a Podstawowa w Pilchowie","name":"Publiczna Szko\u0142a Podstawowa w Pilchowie","addr:country":"PL","addr:postcode":"37-464","addr:city":"Pilch\u00f3w","addr:street":"ul. por. J\u00f3zefa Sarny","addr:housenumber":"1","addr:teryt:simc":19543,"addr:teryt:sym_ul":811030,"contact:phone":"+48 158141957","contact:email":"psppilchow@op.pl","ref:regon":"180901077","operator":"Stowarzyszenie Integracji Edukacyjnej 'Pi-Ko-Ma'","operator:type":"ngo","amenity":"school"}},{"id":128210,"type":"Feature","geometry":{"type":"Point","coordinates":[22.02381,50.6166]},"properties":{"ref:rspo":128210,"official_name":"Przedszkole Niepubliczne \"Ma\u0142y Mi\u015b\"","name":"Przedszkole Niepubliczne \"Ma\u0142y Mi\u015b\"","addr:country":"PL","addr:postcode":"37-464","addr:city":"Pilch\u00f3w","addr:street":"ul. por. J\u00f3zefa Sarny","addr:housenumber":"1","addr:teryt:simc":19543,"addr:teryt:sym_ul":811030,"contact:phone":"+48 158141957","contact:email":"psppilchow@op.pl","contact:website":"http:\/\/www.malymispilchow.pl","ref:regon":"362176046","operator":"Stowarzyszenie Integracji Edukacyjnej 'Pi-Ko-Ma'","operator:type":"ngo","amenity":"kindergarten"}},{"id":56430,"type":"Feature","geometry":{"type":"Point","coordinates":[21.93224,50.61813]},"properties":{"isced:level":"1;2","ref:rspo":56430,"official_name":"Publiczna Szko\u0142a Podstawowa w Kotowej Woli","name":"Publiczna Szko\u0142a Podstawowa w Kotowej Woli","addr:country":"PL","addr:postcode":"37-416","addr:place":"Kotowa Wola","addr:housenumber":"1","addr:teryt:sym_ul":810779,"contact:phone":"+48 158141958","contact:email":"kotowa@op.pl","contact:website":"http:\/\/www.pspkotowawola.pl","ref:regon":"180901114","ref:vatin":"PL8652149643","operator":"Stowarzyszenie Integracji Edukacyjnej 'Pi-Ko-Ma'","operator:type":"ngo","amenity":"school"}},{"id":130002,"type":"Feature","geometry":{"type":"Point","coordinates":[21.93224,50.6181]},"properties":{"ref:rspo":130002,"official_name":"Przedszkole Publiczne","name":"Przedszkole Publiczne","addr:country":"PL","addr:postcode":"37-416","addr:place":"Kotowa Wola","addr:housenumber":"1","addr:teryt:sym_ul":810779,"contact:phone":"+48 158141958","contact:email":"kotowa@op.pl","ref:regon":"363252832","ref:vatin":"PL8652147302","operator":"Stowarzyszenie Integracji Edukacyjnej 'Pi-Ko-Ma'","operator:type":"ngo","amenity":"kindergarten"}},{"id":32059,"type":"Feature","geometry":{"type":"Point","coordinates":[22.032102584839,50.619571685791]},"properties":{"isced:level":"1;2","ref:rspo":32059,"official_name":"Publiczna Szko\u0142a Podstawowa w Turbi im. \u015aw. Jana Paw\u0142a Ii","name":"Publiczna Szko\u0142a Podstawowa w Turbi","addr:country":"PL","addr:postcode":"37-416","addr:place":"Turbia","addr:housenumber":"37","addr:teryt:sym_ul":811193,"contact:phone":"+48 158450428","contact:email":"zsturbia@gmail.com","contact:website":"https:\/\/zsturbia.edupage.org\/","ref:regon":"001186320","ref:vatin":"PL8652146254","operator":"Gmina Zaleszany","operator:type":"government","amenity":"school","note":"Parent RSPO: 267942"}},{"id":31927,"type":"Feature","geometry":{"type":"Point","coordinates":[21.95953,50.6266]},"properties":{"ref:rspo":31927,"official_name":"Przedszkole Publiczne w Zbydniowie","name":"Przedszkole Publiczne w Zbydniowie","addr:country":"PL","addr:postcode":"37-415","addr:city":"Zbydni\u00f3w","addr:street":"ul. Ksi\u0119dza Nai","addr:housenumber":"5","addr:teryt:simc":45265,"addr:teryt:sym_ul":811402,"contact:phone":"+48 158458312","contact:email":"przedszkolezbydniow203@op.pl","contact:website":"http:\/\/www.przedszkolezbydniow.ugu.pl","ref:regon":"830466776","ref:vatin":"PL8652171772","operator":"Gmina Zaleszany","operator:type":"government","amenity":"kindergarten","note":"Parent RSPO: 127961"}},{"id":127961,"type":"Feature","geometry":{"type":"Point","coordinates":[21.93899,50.63208]},"properties":{"ref:rspo":127961,"official_name":"Zesp\u00f3\u0142 Szkolno-Przedszkolny w Zbydniowie","name":"Zesp\u00f3\u0142 Szkolno-Przedszkolny w Zbydniowie","addr:country":"PL","addr:postcode":"37-415","addr:city":"Zbydni\u00f3w","addr:street":"ul. Sandomierska","addr:housenumber":"210","addr:teryt:simc":19491,"addr:teryt:sym_ul":811402,"contact:phone":"+48 158458746","contact:email":"podzbydniow@poczta.onet.pl","contact:website":"http:\/\/pspzbydnioww.pl","ref:regon":"361993056","operator":"Gmina Zaleszany","operator:type":"government","landuse":"education","fixme":"amenity=school, amenity=college albo landuse=education w zale\u017cno\u015bci od tego, jakie plac\u00f3wki wchodz\u0105 w sk\u0142ad zespo\u0142u. Sprawd\u017a, kiedy stosowa\u0107 amenity=* a kiedy landuse=education.","note":"Children RSPO: 31927;31935"}},{"id":31935,"type":"Feature","geometry":{"type":"Point","coordinates":[21.93899,50.63205]},"properties":{"isced:level":"1;2","ref:rspo":31935,"official_name":"Publiczna Szko\u0142a Podstawowa im. Rodziny Horody\u0144skich w Zbydniowie","name":"Publiczna Szko\u0142a Podstawowa","addr:country":"PL","addr:postcode":"37-415","addr:city":"Zbydni\u00f3w","addr:street":"ul. Sandomierska","addr:housenumber":"210","addr:teryt:simc":19491,"addr:teryt:sym_ul":811402,"contact:phone":"+48 158458746","contact:email":"podzbydniow@poczta.onet.pl","contact:website":"http:\/\/www.pspzbydniow.pl","ref:regon":"001186337","ref:vatin":"PL8652149146","operator":"Gmina Zaleszany","operator:type":"government","amenity":"school","note":"Parent RSPO: 127961"}},{"id":127958,"type":"Feature","geometry":{"type":"Point","coordinates":[21.8881,50.64809]},"properties":{"ref:rspo":127958,"official_name":"Zesp\u00f3\u0142 Szk\u00f3\u0142 w Zaleszanach","name":"Zesp\u00f3\u0142 Szk\u00f3\u0142 w Zaleszanach","addr:country":"PL","addr:postcode":"37-415","addr:city":"Zaleszany","addr:street":"ul. Sandomierska","addr:housenumber":"95","addr:teryt:simc":19491,"addr:teryt:sym_ul":811359,"contact:phone":"+48 158459422","contact:email":"bszczepanski72@gmail.com","ref:regon":"361991590","operator":"Gmina Zaleszany","operator:type":"government","landuse":"education","fixme":"amenity=school, amenity=college albo landuse=education w zale\u017cno\u015bci od tego, jakie plac\u00f3wki wchodz\u0105 w sk\u0142ad zespo\u0142u. Sprawd\u017a, kiedy stosowa\u0107 amenity=* a kiedy landuse=education.","note":"Children RSPO: 31938;131530"}},{"id":31938,"type":"Feature","geometry":{"type":"Point","coordinates":[21.8881,50.64806]},"properties":{"isced:level":"1;2","ref:rspo":31938,"official_name":"Publiczna Szko\u0142a Podstawowa im. Por. J\u00f3zefa M\u0105czki w Zaleszanach","name":"Publiczna Szko\u0142a Podstawowa","addr:country":"PL","addr:postcode":"37-415","addr:city":"Zaleszany","addr:street":"ul. Sandomierska","addr:housenumber":"95","addr:teryt:simc":19491,"addr:teryt:sym_ul":811359,"contact:phone":"+48 158459422","contact:email":"bszczepanski72@gmail.com","contact:website":"http:\/\/szkola-zaleszany.pl","ref:regon":"000650399","ref:vatin":"PL8652146432","operator":"Gmina Zaleszany","operator:type":"government","amenity":"school","note":"Parent RSPO: 127958"}},{"id":131530,"type":"Feature","geometry":{"type":"Point","coordinates":[21.8881,50.648030000000006]},"properties":{"ref:rspo":131530,"official_name":"Publiczne Przedszkole w Zaleszanach","name":"Publiczne Przedszkole w Zaleszanach","addr:country":"PL","addr:postcode":"37-415","addr:city":"Zaleszany","addr:street":"ul. Sandomierska","addr:housenumber":"95","addr:teryt:simc":19491,"addr:teryt:sym_ul":811359,"contact:phone":"+48 158459422","contact:email":"bszczepanski72@gmail.com","ref:regon":"365216020","operator":"Gmina Zaleszany","operator:type":"government","amenity":"kindergarten","note":"Parent RSPO: 127958"}},{"id":56429,"type":"Feature","geometry":{"type":"Point","coordinates":[21.97599,50.64929]},"properties":{"isced:level":"1;2","ref:rspo":56429,"official_name":"Publiczna Szko\u0142a Podstawowa w Majdanie Zbydniowskim - W\u00f3lce Turebskiej im. \u017bo\u0142nierzy II Armii Wojska Polskiego","name":"Publiczna Szko\u0142a Podstawowa w Majdanie Zbydniowskim - W\u00f3lce Turebskiej","addr:country":"PL","addr:postcode":"37-416","addr:place":"Majdan Zbydniowski","addr:housenumber":"1","addr:teryt:sym_ul":810851,"contact:phone":"+48 158141959","contact:email":"pspmajdanzb@poczta.onet.pl","ref:regon":"180901090","operator":"Stowarzyszenie Integracji Edukacyjnej 'Pi-Ko-Ma'","operator:type":"ngo","amenity":"school"}},{"id":31932,"type":"Feature","geometry":{"type":"Point","coordinates":[21.9027299,50.67278]},"properties":{"isced:level":"1;2","ref:rspo":31932,"official_name":"Publiczna Szko\u0142a Podstawowa im. \u015aw. Jana Paw\u0142a II w Skowierzynie","name":"Publiczna Szko\u0142a Podstawowa","addr:country":"PL","addr:postcode":"37-415","addr:place":"Skowierzyn","addr:housenumber":"13","addr:teryt:sym_ul":811081,"contact:phone":"+48 158459427","contact:email":"pspskowierzyn@poczta.onet.pl","contact:website":"http:\/\/www.pspskowierzyn.szkolnastrona.pl","ref:regon":"001186314","ref:vatin":"PL8652149488","operator":"Gmina Zaleszany","operator:type":"government","amenity":"school"}},{"id":40176,"type":"Feature","geometry":{"type":"Point","coordinates":[21.9027299,50.67275]},"properties":{"ref:rspo":40176,"official_name":"Punkt Przedszkolny Przy Publicznej Szkole Podstawowej w Skowierzynie","name":"Punkt Przedszkolny Przy Publicznej Szkole Podstawowej w Skowierzynie","addr:country":"PL","addr:postcode":"37-415","addr:place":"Skowierzyn","addr:housenumber":"13","addr:teryt:sym_ul":811081,"contact:phone":"+48 158459427","contact:email":"pspskowierzyn@poczta.onet.pl","ref:regon":"180898748","operator":"Gmina Zaleszany","operator:type":"government","amenity":"kindergarten"}}]}