{
    "type": "FeatureCollection",
    "features": [
        {
            "id": 21113,
            "type": "Feature",
            "geometry": {
                "type": "Point",
                "coordinates": [
                    22.07836,
                    50.54355
                ]
            },
            "properties": {
                "ref:rspo": 21113,
                "official_name": "Przedszkole nr 4 w Stalowej Woli",
                "name": "Przedszkole nr 4 w Stalowej Woli",
                "addr:postcode": "37-450",
                "addr:city": "Stalowa Wola",
                "addr:street": "Melchiora Wa\u0144kowicza",
                "addr:housenumber": "72",
                "addr:door": "1",
                "addr:city:simc": 981133,
                "addr:street:sym_ul": 23620,
                "phone": "+48 158425803",
                "email": "przedszkole4@stalowawola.pl",
                "website": "http:\/\/www.przedszkole4.stalowawola.pl",
                "ref:regon": "830220704",
                "ref:vatin": "PL8651733311",
                "operator": "Gmina Stalowa Wola",
                "operator:type": "government",
                "amenity": "kindergarten"
            }
        },
        {
            "id": 21981,
            "type": "Feature",
            "geometry": {
                "type": "Point",
                "coordinates": [
                    22.08357,
                    50.54358
                ]
            },
            "properties": {
                "isced:level": "1;2",
                "ref:rspo": 21981,
                "official_name": "Publiczna Szko\u0142a Podstawowa nr 5 im. Energetyk\u00f3w w Stalowej Woli",
                "name": "Publiczna Szko\u0142a Podstawowa nr 5",
                "addr:postcode": "37-450",
                "addr:city": "Stalowa Wola",
                "addr:street": "Energetyk\u00f3w",
                "addr:housenumber": "18",
                "addr:city:simc": 981133,
                "addr:street:sym_ul": 4805,
                "phone": "+48 158109494",
                "email": "psp5@stalowawola.pl",
                "website": "http:\/\/www.zso1.idhost.pl",
                "ref:regon": "000837442",
                "operator": "Gmina Stalowa Wola",
                "operator:type": "government",
                "amenity": "school"
            }
        },
        {
            "id": 133107,
            "type": "Feature",
            "geometry": {
                "type": "Point",
                "coordinates": [
                    22.07552,
                    50.55086
                ]
            },
            "properties": {
                "isced:level": "1;2",
                "ref:rspo": 133107,
                "official_name": "Szko\u0142a Podstawowa Mistrzostwa Sportowego w Stalowej Woli",
                "name": "Szko\u0142a Podstawowa Mistrzostwa Sportowego w Stalowej Woli",
                "addr:postcode": "37-450",
                "addr:city": "Stalowa Wola",
                "addr:street": "Energetyk\u00f3w",
                "addr:housenumber": "11a",
                "addr:city:simc": 981133,
                "addr:street:sym_ul": 4805,
                "phone": "+48 156422520",
                "email": "biuro@smsstalowawola.pl",
                "ref:regon": "366638957",
                "operator": "Uczniowski Klub Sportowy Sportowa Pasja",
                "operator:type": "ngo",
                "amenity": "school"
            }
        },
        {
            "id": 271833,
            "type": "Feature",
            "geometry": {
                "type": "Point",
                "coordinates": [
                    22.07552,
                    50.55083
                ]
            },
            "properties": {
                "isced:level": "3",
                "ref:rspo": 271833,
                "official_name": "Bran\u017cowa Szko\u0142a I Stopnia w Stalowej Woli",
                "name": "Bran\u017cowa Szko\u0142a I Stopnia w Stalowej Woli",
                "addr:postcode": "37-450",
                "addr:city": "Stalowa Wola",
                "addr:street": "Energetyk\u00f3w",
                "addr:housenumber": "11 A",
                "addr:city:simc": 981133,
                "addr:street:sym_ul": 4805,
                "email": "wssg@vp.pl",
                "ref:regon": "383674434",
                "operator": "Wy\u017csza Szko\u0142a Spo\u0142eczno-Gospodarcza Z Siedzib\u0105 W Przeworsku",
                "operator:type": "private",
                "amenity": "school"
            }
        },
        {
            "id": 26374,
            "type": "Feature",
            "geometry": {
                "type": "Point",
                "coordinates": [
                    22.04979,
                    50.55614
                ]
            },
            "properties": {
                "ref:rspo": 26374,
                "official_name": "Centrum Edukacji Zawodowej w Stalowej Woli",
                "name": "Centrum Edukacji Zawodowej w Stalowej Woli",
                "addr:postcode": "37-450",
                "addr:city": "Stalowa Wola",
                "addr:street": "Eugeniusza Kwiatkowskiego",
                "addr:housenumber": "1",
                "addr:city:simc": 981133,
                "addr:street:sym_ul": 10559,
                "phone": "+48 158134854",
                "email": "cezstalowawola@wp.pl",
                "website": "http:\/\/cezstalowawola.pl",
                "ref:regon": "000031957",
                "ref:vatin": "PL8651036782",
                "operator": "Powiat Stalowowolski",
                "operator:type": "government",
                "landuse": "education",
                "fixme": "amenity=school, amenity=college albo landuse=education w zale\u017cno\u015bci od tego, jakie plac\u00f3wki wchodz\u0105 w sk\u0142ad zespo\u0142u. Sprawd\u017a, kiedy stosowa\u0107 amenity=* a kiedy landuse=education.",
                "note": "Children RSPO: 41911;41912;41913;276128"
            }
        },
        {
            "id": 41911,
            "type": "Feature",
            "geometry": {
                "type": "Point",
                "coordinates": [
                    22.04979,
                    50.55611
                ]
            },
            "properties": {
                "isced:level": "3",
                "ref:rspo": 41911,
                "official_name": "Bran\u017cowa Szko\u0142a I Stopnia nr 4",
                "name": "Bran\u017cowa Szko\u0142a I Stopnia nr 4",
                "addr:postcode": "37-450",
                "addr:city": "Stalowa Wola",
                "addr:street": "Eugeniusza Kwiatkowskiego",
                "addr:housenumber": "1",
                "addr:city:simc": 981133,
                "addr:street:sym_ul": 10559,
                "phone": "+48 158134854",
                "email": "cezstalowawola@wp.pl",
                "ref:regon": "830468611",
                "ref:vatin": "PL8651036782",
                "operator": "Powiat Stalowowolski",
                "operator:type": "government",
                "amenity": "school",
                "note": "Parent RSPO: 26374"
            }
        },
        {
            "id": 41912,
            "type": "Feature",
            "geometry": {
                "type": "Point",
                "coordinates": [
                    22.04979,
                    50.55608
                ]
            },
            "properties": {
                "isced:level": "3",
                "ref:rspo": 41912,
                "official_name": "Technikum nr 4",
                "name": "Technikum nr 4",
                "addr:postcode": "37-450",
                "addr:city": "Stalowa Wola",
                "addr:street": "Eugeniusza Kwiatkowskiego",
                "addr:housenumber": "1",
                "addr:city:simc": 981133,
                "addr:street:sym_ul": 10559,
                "phone": "+48 158134854",
                "email": "cezstalowawola@wp.pl",
                "ref:regon": "830468628",
                "ref:vatin": "PL8651036782",
                "operator": "Powiat Stalowowolski",
                "operator:type": "government",
                "amenity": "school",
                "note": "Parent RSPO: 26374"
            }
        },
        {
            "id": 41913,
            "type": "Feature",
            "geometry": {
                "type": "Point",
                "coordinates": [
                    22.04979,
                    50.55605
                ]
            },
            "properties": {
                "ref:rspo": 41913,
                "official_name": "Centrum Kszta\u0142cenia Zawodowego nr 1",
                "name": "Centrum Kszta\u0142cenia Zawodowego nr 1",
                "addr:postcode": "37-450",
                "addr:city": "Stalowa Wola",
                "addr:street": "Eugeniusza Kwiatkowskiego",
                "addr:housenumber": "1",
                "addr:city:simc": 981133,
                "addr:street:sym_ul": 10559,
                "phone": "+48 158134854",
                "email": "cezstalowawola@wp.pl",
                "ref:regon": "830479550",
                "ref:vatin": "PL8651036782",
                "operator": "Powiat Stalowowolski",
                "operator:type": "government",
                "fixme": "w zale\u017cno\u015bci od przedmiotu dzia\u0142alno\u015bci (np. amenity=training + training=*, amenity=dancing_school, amenity=language_school, amenity=music_school) albo amenity=school, amenity=college, albo landuse=education w zale\u017cno\u015bci od tego, jakie plac\u00f3wki wchodz\u0105 w sk\u0142ad zespo\u0142u. Sprawd\u017a, kiedy stosowa\u0107 amenity=* a kiedy landuse=education.",
                "note": "Parent RSPO: 26374"
            }
        },
        {
            "id": 276128,
            "type": "Feature",
            "geometry": {
                "type": "Point",
                "coordinates": [
                    22.04979,
                    50.55602
                ]
            },
            "properties": {
                "isced:level": "3",
                "ref:rspo": 276128,
                "official_name": "Bran\u017cowa Szko\u0142a II Stopnia nr 4 w Centrum Edukacji Zawodowej w Stalowej Woli",
                "name": "Bran\u017cowa Szko\u0142a II Stopnia nr 4 w Centrum Edukacji Zawodowej w Stalowej Woli",
                "addr:postcode": "37-450",
                "addr:city": "Stalowa Wola",
                "addr:street": "Eugeniusza Kwiatkowskiego",
                "addr:housenumber": "1",
                "addr:city:simc": 981133,
                "addr:street:sym_ul": 10559,
                "phone": "+48 158134854",
                "email": "cezstalowawola@wp.pl",
                "ref:regon": "386996888",
                "operator": "Powiat Stalowowolski",
                "operator:type": "government",
                "amenity": "school",
                "note": "Parent RSPO: 26374"
            }
        },
        {
            "id": 26371,
            "type": "Feature",
            "geometry": {
                "type": "Point",
                "coordinates": [
                    22.05304,
                    50.55901
                ]
            },
            "properties": {
                "ref:rspo": 26371,
                "official_name": "Zesp\u00f3\u0142 Szk\u00f3\u0142 nr 1 im. Gen. W\u0142adys\u0142awa Sikorskiego w Stalowej Woli",
                "name": "Zesp\u00f3\u0142 Szk\u00f3\u0142 nr 1",
                "addr:postcode": "37-450",
                "addr:city": "Stalowa Wola",
                "addr:street": "Hutnicza",
                "addr:housenumber": "17",
                "addr:city:simc": 981133,
                "addr:street:sym_ul": 6825,
                "phone": "+48 158421741",
                "email": "poczta@zsp1-sikorski.pl",
                "website": "http:\/\/zsp1-sikorski.pl",
                "ref:regon": "000196931",
                "ref:vatin": "PL8651027263",
                "operator": "Powiat Stalowowolski",
                "operator:type": "government",
                "landuse": "education",
                "fixme": "amenity=school, amenity=college albo landuse=education w zale\u017cno\u015bci od tego, jakie plac\u00f3wki wchodz\u0105 w sk\u0142ad zespo\u0142u. Sprawd\u017a, kiedy stosowa\u0107 amenity=* a kiedy landuse=education.",
                "note": "Children RSPO: 86969;86976;86986"
            }
        },
        {
            "id": 86969,
            "type": "Feature",
            "geometry": {
                "type": "Point",
                "coordinates": [
                    22.05304,
                    50.55898
                ]
            },
            "properties": {
                "isced:level": "3",
                "ref:rspo": 86969,
                "official_name": "Bran\u017cowa Szko\u0142a I Stopnia nr 1",
                "name": "Bran\u017cowa Szko\u0142a I Stopnia nr 1",
                "addr:postcode": "37-450",
                "addr:city": "Stalowa Wola",
                "addr:street": "Hutnicza",
                "addr:housenumber": "17",
                "addr:city:simc": 981133,
                "addr:street:sym_ul": 6825,
                "phone": "+48 158421741",
                "email": "poczta@zsp1-sikorski.pl",
                "website": "http:\/\/zsp1-sikorski.pl",
                "ref:regon": "830469639",
                "operator": "Powiat Stalowowolski",
                "operator:type": "government",
                "amenity": "school",
                "note": "Parent RSPO: 26371"
            }
        },
        {
            "id": 86976,
            "type": "Feature",
            "geometry": {
                "type": "Point",
                "coordinates": [
                    22.05304,
                    50.55895
                ]
            },
            "properties": {
                "isced:level": "3",
                "ref:rspo": 86976,
                "official_name": "Iii Liceum Og\u00f3lnokszta\u0142c\u0105ce",
                "name": "Iii Liceum Og\u00f3lnokszta\u0142c\u0105ce",
                "addr:postcode": "37-450",
                "addr:city": "Stalowa Wola",
                "addr:street": "Hutnicza",
                "addr:housenumber": "17",
                "addr:city:simc": 981133,
                "addr:street:sym_ul": 6825,
                "phone": "+48 158421741",
                "email": "poczta@zsp1-sikorski.pl",
                "website": "http:\/\/zsp1-sikorski.pl",
                "ref:regon": "830469591",
                "ref:vatin": "PL8651027263",
                "operator": "Powiat Stalowowolski",
                "operator:type": "government",
                "amenity": "school",
                "note": "Parent RSPO: 26371"
            }
        },
        {
            "id": 86986,
            "type": "Feature",
            "geometry": {
                "type": "Point",
                "coordinates": [
                    22.05304,
                    50.55892
                ]
            },
            "properties": {
                "isced:level": "3",
                "ref:rspo": 86986,
                "official_name": "Technikum nr 1",
                "name": "Technikum nr 1",
                "addr:postcode": "37-450",
                "addr:city": "Stalowa Wola",
                "addr:street": "Hutnicza",
                "addr:housenumber": "17",
                "addr:city:simc": 981133,
                "addr:street:sym_ul": 6825,
                "phone": "+48 158421741",
                "email": "poczta@zsp1-sikorski.pl",
                "website": "http:\/\/www.zsp1-sikorski.pl",
                "ref:regon": "830469616",
                "ref:vatin": "PL8651027263",
                "operator": "Powiat Stalowowolski",
                "operator:type": "government",
                "amenity": "school",
                "note": "Parent RSPO: 26371"
            }
        },
        {
            "id": 29367,
            "type": "Feature",
            "geometry": {
                "type": "Point",
                "coordinates": [
                    22.05551,
                    50.5591099
                ]
            },
            "properties": {
                "isced:level": "3",
                "ref:rspo": 29367,
                "official_name": "Spo\u0142eczne Liceum Og\u00f3lnokszta\u0142c\u0105ce w Stalowej Woli",
                "name": "Spo\u0142eczne Liceum Og\u00f3lnokszta\u0142c\u0105ce w Stalowej Woli",
                "addr:postcode": "37-450",
                "addr:city": "Stalowa Wola",
                "addr:street": "Eugeniusza Kwiatkowskiego",
                "addr:housenumber": "27",
                "addr:city:simc": 981133,
                "addr:street:sym_ul": 10559,
                "phone": "+48 158136725",
                "email": "slostalowawola@pro.onet.pl",
                "website": "http:\/\/slostw.gpe.pl",
                "ref:regon": "180897140",
                "ref:vatin": "PL8651719156",
                "operator": "Spo\u0142eczne Stowarzyszenie Edukacyjno-O\u015bwiatowe \"Ergo\"",
                "operator:type": "ngo",
                "amenity": "school"
            }
        },
        {
            "id": 26377,
            "type": "Feature",
            "geometry": {
                "type": "Point",
                "coordinates": [
                    22.05171,
                    50.55928
                ]
            },
            "properties": {
                "ref:rspo": 26377,
                "official_name": "Centrum Kszta\u0142cenia Zawodowego I Ustawicznego",
                "name": "Centrum Kszta\u0142cenia Zawodowego I Ustawicznego",
                "addr:postcode": "37-450",
                "addr:city": "Stalowa Wola",
                "addr:street": "Hutnicza",
                "addr:housenumber": "12",
                "addr:city:simc": 981133,
                "addr:street:sym_ul": 6825,
                "phone": "+48 158429523",
                "email": "ckustwola@wp.pl",
                "website": "http:\/\/www.ckustalowawola.pl",
                "ref:regon": "830333696",
                "ref:vatin": "PL8651805648",
                "operator": "Powiat Stalowowolski",
                "operator:type": "government",
                "landuse": "education",
                "fixme": "amenity=school, amenity=college albo landuse=education w zale\u017cno\u015bci od tego, jakie plac\u00f3wki wchodz\u0105 w sk\u0142ad zespo\u0142u. Sprawd\u017a, kiedy stosowa\u0107 amenity=* a kiedy landuse=education.",
                "note": "Children RSPO: 87092;87101;87113;263611;276119"
            }
        },
        {
            "id": 26379,
            "type": "Feature",
            "geometry": {
                "type": "Point",
                "coordinates": [
                    22.05171,
                    50.55925
                ]
            },
            "properties": {
                "ref:rspo": 26379,
                "official_name": "Poradnia Psychologiczno-Pedagogiczna w Stalowej Woli",
                "name": "Poradnia Psychologiczno-Pedagogiczna w Stalowej Woli",
                "addr:postcode": "37-450",
                "addr:city": "Stalowa Wola",
                "addr:street": "Hutnicza",
                "addr:housenumber": "12",
                "addr:city:simc": 981133,
                "addr:street:sym_ul": 6825,
                "phone": "+48 158421831",
                "email": "poradniapp@stalowowolski.pl",
                "website": "http:\/\/ppp.stalowowolski.pl",
                "ref:regon": "000902642",
                "ref:vatin": "PL8651170322",
                "operator": "Powiat Stalowowolski",
                "operator:type": "government",
                "healthcare": "counselling",
                "counselling_type": "education",
                "fixme": "w zale\u017cno\u015bci od przedmiotu dzia\u0142alno\u015bci (np. healthcare=counselling + counselling_type=education albo healthcare=psychotherapist)"
            }
        },
        {
            "id": 87092,
            "type": "Feature",
            "geometry": {
                "type": "Point",
                "coordinates": [
                    22.05171,
                    50.55922
                ]
            },
            "properties": {
                "isced:level": "3",
                "ref:rspo": 87092,
                "official_name": "Iv Liceum Og\u00f3lnokszta\u0142c\u0105ce dla Doros\u0142ych",
                "name": "Iv Liceum Og\u00f3lnokszta\u0142c\u0105ce dla Doros\u0142ych",
                "addr:postcode": "37-450",
                "addr:city": "Stalowa Wola",
                "addr:street": "Hutnicza",
                "addr:housenumber": "12",
                "addr:city:simc": 981133,
                "addr:street:sym_ul": 6825,
                "phone": "+48 158429523",
                "email": "ckustwola@wp.pl",
                "website": "http:\/\/ckustalowawola.pl",
                "ref:regon": "831309435",
                "ref:vatin": "PL8651805648",
                "operator": "Powiat Stalowowolski",
                "operator:type": "government",
                "amenity": "school",
                "note": "Parent RSPO: 26377"
            }
        },
        {
            "id": 87101,
            "type": "Feature",
            "geometry": {
                "type": "Point",
                "coordinates": [
                    22.05171,
                    50.55919
                ]
            },
            "properties": {
                "isced:level": "4",
                "ref:rspo": 87101,
                "official_name": "Szko\u0142a Policealna nr 3",
                "name": "Szko\u0142a Policealna nr 3",
                "addr:postcode": "37-450",
                "addr:city": "Stalowa Wola",
                "addr:street": "Hutnicza",
                "addr:housenumber": "12",
                "addr:city:simc": 981133,
                "addr:street:sym_ul": 6825,
                "phone": "+48 158425923",
                "email": "ckustwola@wp.pl",
                "website": "http:\/\/www.ckustalowawola.pl",
                "ref:regon": "831362085",
                "ref:vatin": "PL8651805648",
                "operator": "Powiat Stalowowolski",
                "operator:type": "government",
                "amenity": "college",
                "note": "Parent RSPO: 26377"
            }
        },
        {
            "id": 87113,
            "type": "Feature",
            "geometry": {
                "type": "Point",
                "coordinates": [
                    22.05171,
                    50.55916
                ]
            },
            "properties": {
                "ref:rspo": 87113,
                "official_name": "Centrum Kszta\u0142cenia Zawodowego nr 2",
                "name": "Centrum Kszta\u0142cenia Zawodowego nr 2",
                "addr:postcode": "37-450",
                "addr:city": "Stalowa Wola",
                "addr:street": "Hutnicza",
                "addr:housenumber": "12",
                "addr:city:simc": 981133,
                "addr:street:sym_ul": 6825,
                "phone": "+48 158429523",
                "email": "ckustwola@wp.pl",
                "website": "http:\/\/www.ckustalowawola.pl",
                "ref:regon": "180355367",
                "ref:vatin": "PL8651805648",
                "operator": "Powiat Stalowowolski",
                "operator:type": "government",
                "fixme": "w zale\u017cno\u015bci od przedmiotu dzia\u0142alno\u015bci (np. amenity=training + training=*, amenity=dancing_school, amenity=language_school, amenity=music_school) albo amenity=school, amenity=college, albo landuse=education w zale\u017cno\u015bci od tego, jakie plac\u00f3wki wchodz\u0105 w sk\u0142ad zespo\u0142u. Sprawd\u017a, kiedy stosowa\u0107 amenity=* a kiedy landuse=education.",
                "note": "Parent RSPO: 26377"
            }
        },
        {
            "id": 263611,
            "type": "Feature",
            "geometry": {
                "type": "Point",
                "coordinates": [
                    22.05171,
                    50.55913
                ]
            },
            "properties": {
                "isced:level": "1;2",
                "ref:rspo": 263611,
                "official_name": "Szko\u0142a Podstawowa dla Doros\u0142ych",
                "name": "Szko\u0142a Podstawowa dla Doros\u0142ych",
                "addr:postcode": "37-450",
                "addr:city": "Stalowa Wola",
                "addr:street": "Hutnicza",
                "addr:housenumber": "12",
                "addr:city:simc": 981133,
                "addr:street:sym_ul": 6825,
                "phone": "+48 158429523",
                "email": "ckustwola@wp.pl",
                "website": "http:\/\/ckustalowawola.pl",
                "ref:regon": "368209344",
                "ref:vatin": "PL8651805648",
                "operator": "Powiat Stalowowolski",
                "operator:type": "government",
                "amenity": "school",
                "note": "Parent RSPO: 26377"
            }
        },
        {
            "id": 276119,
            "type": "Feature",
            "geometry": {
                "type": "Point",
                "coordinates": [
                    22.05171,
                    50.5591
                ]
            },
            "properties": {
                "isced:level": "3",
                "ref:rspo": 276119,
                "official_name": "Bran\u017cowa Szko\u0142a II Stopnia nr 1 w Centrum Kszta\u0142cenia Zawodowego I Ustawicznego w Stalowej Woli",
                "name": "Bran\u017cowa Szko\u0142a II Stopnia nr 1 w Centrum Kszta\u0142cenia Zawodowego I Ustawicznego w Stalowej Woli",
                "addr:postcode": "37-450",
                "addr:city": "Stalowa Wola",
                "addr:street": "Hutnicza",
                "addr:housenumber": "12",
                "addr:city:simc": 981133,
                "addr:street:sym_ul": 6825,
                "phone": "+48 158429523",
                "email": "ckustwola@wp.pl",
                "website": "http:\/\/www.ckustalowawola.pl",
                "ref:regon": "386996865",
                "operator": "Powiat Stalowowolski",
                "operator:type": "government",
                "amenity": "school",
                "note": "Parent RSPO: 26377"
            }
        },
        {
            "id": 262416,
            "type": "Feature",
            "geometry": {
                "type": "Point",
                "coordinates": [
                    22.06444,
                    50.56235
                ]
            },
            "properties": {
                "isced:level": "1;2",
                "ref:rspo": 262416,
                "official_name": "Publiczna Szko\u0142a Podstawowa z Oddzia\u0142ami Mistrzostwa Sportowego nr 2 im. Jana Paw\u0142a II w Stalowej Woli",
                "name": "Publiczna Szko\u0142a Podstawowa z Oddzia\u0142ami Mistrzostwa Sportowego nr 2",
                "addr:postcode": "37-450",
                "addr:city": "Stalowa Wola",
                "addr:street": "Adama Mickiewicza",
                "addr:housenumber": "15",
                "addr:city:simc": 981133,
                "addr:street:sym_ul": 12734,
                "phone": "+48 158426383",
                "email": "psp2stalowa@wp.pl",
                "website": "http:\/\/psp2.stalowawola.pl",
                "ref:regon": "368003453",
                "operator": "Gmina Stalowa Wola",
                "operator:type": "government",
                "amenity": "school"
            }
        },
        {
            "id": 41921,
            "type": "Feature",
            "geometry": {
                "type": "Point",
                "coordinates": [
                    22.06678,
                    50.56257
                ]
            },
            "properties": {
                "isced:level": "3",
                "ref:rspo": 41921,
                "official_name": "I Liceum Og\u00f3lnokszta\u0142c\u0105ce im. Komisji Edukacji Narodowej w Stalowej Woli",
                "name": "I Liceum Og\u00f3lnokszta\u0142c\u0105ce",
                "addr:postcode": "37-450",
                "addr:city": "Stalowa Wola",
                "addr:street": "Stanis\u0142awa Staszica",
                "addr:housenumber": "5",
                "addr:city:simc": 981133,
                "addr:street:sym_ul": 21065,
                "phone": "+48 158426945",
                "email": "liceum@loken.pl",
                "website": "http:\/\/www.loken.pl",
                "ref:regon": "831201710",
                "ref:vatin": "PL8651162877",
                "operator": "Powiat Stalowowolski",
                "operator:type": "government",
                "amenity": "school"
            }
        },
        {
            "id": 90859,
            "type": "Feature",
            "geometry": {
                "type": "Point",
                "coordinates": [
                    22.06678,
                    50.56254
                ]
            },
            "properties": {
                "isced:level": "4",
                "ref:rspo": 90859,
                "official_name": "Medyczna Szko\u0142a Policealna im. Hanny Chrzanowskiej w Stalowej Woli",
                "name": "Medyczna Szko\u0142a Policealna",
                "addr:postcode": "37-450",
                "addr:city": "Stalowa Wola",
                "addr:street": "Stanis\u0142awa Staszica",
                "addr:housenumber": "5",
                "addr:city:simc": 981133,
                "addr:street:sym_ul": 21065,
                "phone": "+48 158420410",
                "email": "medyk_stw@poczta.onet.pl",
                "ref:regon": "830469987",
                "ref:vatin": "PL8651500386",
                "operator": "Powiat Stalowowolski",
                "operator:type": "government",
                "amenity": "college"
            }
        },
        {
            "id": 16627,
            "type": "Feature",
            "geometry": {
                "type": "Point",
                "coordinates": [
                    22.05778,
                    50.56282
                ]
            },
            "properties": {
                "ref:rspo": 16627,
                "official_name": "Niepubliczne Przedszkole \"Dzieciaki.pl\" w Stalowej Woli",
                "name": "Niepubliczne Przedszkole \"Dzieciaki.pl\" w Stalowej Woli",
                "addr:postcode": "37-450",
                "addr:city": "Stalowa Wola",
                "addr:street": "Ofiar Katynia",
                "addr:housenumber": "10",
                "addr:city:simc": 981133,
                "addr:street:sym_ul": 14793,
                "phone": "+48 156005025",
                "email": "dzieciaki.pl@tlen.pl",
                "website": "http:\/\/www.przedszkole-dzieciakipl.eu",
                "ref:regon": "180889399",
                "operator": "Bo\u017cena Brzozowska",
                "operator:type": "private",
                "amenity": "kindergarten"
            }
        },
        {
            "id": 18555,
            "type": "Feature",
            "geometry": {
                "type": "Point",
                "coordinates": [
                    22.06329,
                    50.5632499
                ]
            },
            "properties": {
                "isced:level": "1;2",
                "ref:rspo": 18555,
                "official_name": "Spo\u0142eczna Szko\u0142a Podstawowa nr 1 im. Armii Krajowej w Stalowej Woli",
                "name": "Spo\u0142eczna Szko\u0142a Podstawowa nr 1",
                "addr:postcode": "37-450",
                "addr:city": "Stalowa Wola",
                "addr:street": "Ksi\u0119dza J\u00f3zefa Skoczy\u0144skiego",
                "addr:housenumber": "1",
                "addr:city:simc": 981133,
                "addr:street:sym_ul": 20077,
                "phone": "+48 158424959",
                "email": "ssp1@spolecznastalowa.pl",
                "website": "http:\/\/www.spoleczna-stalowa.pl",
                "ref:regon": "180891723",
                "operator": "Stalowowolskie Spo\u0142eczne Towarzystwo O\u015bwiatowe",
                "operator:type": "ngo",
                "amenity": "school"
            }
        },
        {
            "id": 276997,
            "type": "Feature",
            "geometry": {
                "type": "Point",
                "coordinates": [
                    22.05892,
                    50.56326
                ]
            },
            "properties": {
                "ref:rspo": 276997,
                "official_name": "Isp Pdn",
                "name": "Isp Pdn",
                "addr:postcode": "37-450",
                "addr:city": "Stalowa Wola",
                "addr:street": "Ofiar Katynia",
                "addr:housenumber": "8",
                "addr:door": "10",
                "addr:city:simc": 981133,
                "addr:street:sym_ul": 14793,
                "ref:regon": "387982492",
                "operator": "Krafc Consulting Sp\u00f3\u0142ka Z Ograniczon\u0105 Odpowiedzialno\u015bci\u0105",
                "operator:type": "private",
                "amenity": "training"
            }
        },
        {
            "id": 26378,
            "type": "Feature",
            "geometry": {
                "type": "Point",
                "coordinates": [
                    22.04722,
                    50.5635
                ]
            },
            "properties": {
                "ref:rspo": 26378,
                "official_name": "Zesp\u00f3\u0142 Plac\u00f3wek O\u015bwiatowo-Wychowawczych w Stalowej Woli",
                "name": "Zesp\u00f3\u0142 Plac\u00f3wek O\u015bwiatowo-Wychowawczych w Stalowej Woli",
                "addr:postcode": "37-450",
                "addr:city": "Stalowa Wola",
                "addr:street": "Elizy Orzeszkowej",
                "addr:housenumber": "2",
                "addr:city:simc": 981133,
                "addr:street:sym_ul": 15209,
                "phone": "+48 158420637",
                "email": "zpow@stalowowolski.pl",
                "website": "http:\/\/zpow.stalowowolski.pl",
                "ref:regon": "180257593",
                "ref:vatin": "PL8652471356",
                "operator": "Powiat Stalowowolski",
                "operator:type": "government",
                "landuse": "education",
                "fixme": "amenity=school, amenity=college albo landuse=education w zale\u017cno\u015bci od tego, jakie plac\u00f3wki wchodz\u0105 w sk\u0142ad zespo\u0142u. Sprawd\u017a, kiedy stosowa\u0107 amenity=* a kiedy landuse=education.",
                "note": "Children RSPO: 44230;44231"
            }
        },
        {
            "id": 44230,
            "type": "Feature",
            "geometry": {
                "type": "Point",
                "coordinates": [
                    22.04722,
                    50.563469999999995
                ]
            },
            "properties": {
                "ref:rspo": 44230,
                "official_name": "Szkolne Schronisko M\u0142odzie\u017cowe w Stalowej Woli",
                "name": "Szkolne Schronisko M\u0142odzie\u017cowe w Stalowej Woli",
                "addr:postcode": "37-450",
                "addr:city": "Stalowa Wola",
                "addr:street": "Elizy Orzeszkowej",
                "addr:housenumber": "2",
                "addr:city:simc": 981133,
                "addr:street:sym_ul": 15209,
                "phone": "+48 158420637",
                "email": "zpow@stalowowolski.pl",
                "website": "http:\/\/www.zpow.stalowowolski.pl",
                "ref:regon": "831367763",
                "ref:vatin": "PL8652471356",
                "operator": "Powiat Stalowowolski",
                "operator:type": "government",
                "tourism": "hostel",
                "note": "Parent RSPO: 26378"
            }
        },
        {
            "id": 44231,
            "type": "Feature",
            "geometry": {
                "type": "Point",
                "coordinates": [
                    22.04722,
                    50.56344
                ]
            },
            "properties": {
                "ref:rspo": 44231,
                "official_name": "Bursa Mi\u0119dzyszkolna w Stalowej Woli",
                "name": "Bursa Mi\u0119dzyszkolna w Stalowej Woli",
                "addr:postcode": "37-450",
                "addr:city": "Stalowa Wola",
                "addr:street": "Elizy Orzeszkowej",
                "addr:housenumber": "2",
                "addr:city:simc": 981133,
                "addr:street:sym_ul": 15209,
                "phone": "+48 158420637",
                "email": "zpow@stalowowolski.pl",
                "website": "http:\/\/www.zpow.stalowowolski.pl",
                "ref:regon": "000785691",
                "ref:vatin": "PL8652471356",
                "operator": "Powiat Stalowowolski",
                "operator:type": "government",
                "building": "dormitory",
                "note": "Parent RSPO: 26378"
            }
        },
        {
            "id": 128406,
            "type": "Feature",
            "geometry": {
                "type": "Point",
                "coordinates": [
                    22.04722,
                    50.56341
                ]
            },
            "properties": {
                "ref:rspo": 128406,
                "official_name": "Biblioteka Pedagogiczna w Tarnobrzegu Filia w Stalowej Woli",
                "name": "Biblioteka Pedagogiczna w Tarnobrzegu Filia w Stalowej Woli",
                "addr:postcode": "37-450",
                "addr:city": "Stalowa Wola",
                "addr:street": "Elizy Orzeszkowej",
                "addr:housenumber": "2",
                "addr:city:simc": 981133,
                "addr:street:sym_ul": 15209,
                "phone": "+48 158420565",
                "email": "stwola@pbw.org.pl",
                "ref:regon": "719091000",
                "operator": "Wojew\u00f3dztwo Podkarpackie",
                "operator:type": "government",
                "amenity": "library",
                "note": "Parent RSPO: 92410"
            }
        },
        {
            "id": 20971,
            "type": "Feature",
            "geometry": {
                "type": "Point",
                "coordinates": [
                    22.06243,
                    50.56443
                ]
            },
            "properties": {
                "ref:rspo": 20971,
                "official_name": "Przedszkole nr 2 im.jana Brzechwy w Stalowej Woli",
                "name": "Przedszkole nr 2 im.jana Brzechwy w Stalowej Woli",
                "addr:postcode": "37-450",
                "addr:city": "Stalowa Wola",
                "addr:street": "Ksi\u0119dza J\u00f3zefa Skoczy\u0144skiego",
                "addr:housenumber": "5",
                "addr:city:simc": 981133,
                "addr:street:sym_ul": 20077,
                "phone": "+48 158425592",
                "email": "pijbn2wsw@wp.pl",
                "website": "http:\/\/www.przedszkole2.stalowawola.pl",
                "ref:regon": "830220615",
                "ref:vatin": "PL8651520354",
                "operator": "Gmina Stalowa Wola",
                "operator:type": "government",
                "amenity": "kindergarten"
            }
        },
        {
            "id": 20792,
            "type": "Feature",
            "geometry": {
                "type": "Point",
                "coordinates": [
                    22.0623,
                    50.5651
                ]
            },
            "properties": {
                "ref:rspo": 20792,
                "official_name": "Pa\u0144stwowa Szko\u0142a Muzyczna I I II St. im. Ignacego Jana Paderewskiego w Stalowej Woli",
                "name": "Pa\u0144stwowa Szko\u0142a Muzyczna I I II St.",
                "addr:postcode": "37-450",
                "addr:city": "Stalowa Wola",
                "addr:street": "Gabriela Narutowicza",
                "addr:housenumber": "11",
                "addr:city:simc": 981133,
                "addr:street:sym_ul": 14018,
                "phone": "+48 158421131",
                "email": "psm@stalowawola.pl",
                "website": "http:\/\/www.psmstalowawola.pl",
                "ref:regon": "000631226",
                "operator": "Ministerstwo Kultury I Dziedzictwa Narodowego",
                "operator:type": "government",
                "landuse": "education",
                "fixme": "amenity=school, amenity=college albo landuse=education w zale\u017cno\u015bci od tego, jakie plac\u00f3wki wchodz\u0105 w sk\u0142ad zespo\u0142u. Sprawd\u017a, kiedy stosowa\u0107 amenity=* a kiedy landuse=education.",
                "note": "Children RSPO: 103694;103695"
            }
        },
        {
            "id": 103694,
            "type": "Feature",
            "geometry": {
                "type": "Point",
                "coordinates": [
                    22.0623,
                    50.56507
                ]
            },
            "properties": {
                "ref:rspo": 103694,
                "official_name": "Pa\u0144stwowa Szko\u0142a Muzyczna I St. w Stalowej Woli",
                "name": "Pa\u0144stwowa Szko\u0142a Muzyczna I St. w Stalowej Woli",
                "addr:postcode": "37-450",
                "addr:city": "Stalowa Wola",
                "addr:street": "Gabriela Narutowicza",
                "addr:housenumber": "11",
                "addr:city:simc": 981133,
                "addr:street:sym_ul": 14018,
                "phone": "+48 158421131",
                "ref:regon": "180028071",
                "operator": "Ministerstwo Kultury I Dziedzictwa Narodowego",
                "operator:type": "government",
                "amenity": "music_school",
                "note": "Parent RSPO: 20792"
            }
        },
        {
            "id": 103695,
            "type": "Feature",
            "geometry": {
                "type": "Point",
                "coordinates": [
                    22.0623,
                    50.56504
                ]
            },
            "properties": {
                "ref:rspo": 103695,
                "official_name": "Pa\u0144stwowa Szko\u0142a Muzyczna II St. w Stalowej Woli",
                "name": "Pa\u0144stwowa Szko\u0142a Muzyczna II St. w Stalowej Woli",
                "addr:postcode": "37-450",
                "addr:city": "Stalowa Wola",
                "addr:street": "Gabriela Narutowicza",
                "addr:housenumber": "11",
                "addr:city:simc": 981133,
                "addr:street:sym_ul": 14015,
                "phone": "+48 158421131",
                "ref:regon": "180028094",
                "operator": "Ministerstwo Kultury I Dziedzictwa Narodowego",
                "operator:type": "government",
                "amenity": "music_school",
                "note": "Parent RSPO: 20792"
            }
        },
        {
            "id": 21379,
            "type": "Feature",
            "geometry": {
                "type": "Point",
                "coordinates": [
                    22.05563,
                    50.56557
                ]
            },
            "properties": {
                "ref:rspo": 21379,
                "official_name": "Przedszkole nr 7 im. Marii Konopnickiej w Stalowej Woli",
                "name": "Przedszkole nr 7",
                "addr:postcode": "37-450",
                "addr:city": "Stalowa Wola",
                "addr:street": "Ksi\u0119dza Jerzego Popie\u0142uszki",
                "addr:housenumber": "29A",
                "addr:city:simc": 981133,
                "addr:street:sym_ul": 17149,
                "phone": "+48 158424958",
                "email": "przedszkole7sw@wp.pl",
                "website": "http:\/\/www.przedszkole7.stalowawola.pl",
                "ref:regon": "830220733",
                "ref:vatin": "PL8651501813",
                "operator": "Gmina Stalowa Wola",
                "operator:type": "government",
                "amenity": "kindergarten"
            }
        },
        {
            "id": 46670,
            "type": "Feature",
            "geometry": {
                "type": "Point",
                "coordinates": [
                    22.06546,
                    50.56581
                ]
            },
            "properties": {
                "isced:level": "3",
                "ref:rspo": 46670,
                "official_name": "Liceum Og\u00f3lnokszta\u0142c\u0105ce w Stalowej Woli",
                "name": "Liceum Og\u00f3lnokszta\u0142c\u0105ce w Stalowej Woli",
                "addr:postcode": "37-450",
                "addr:city": "Stalowa Wola",
                "addr:street": "Gabriela Narutowicza",
                "addr:housenumber": "6",
                "addr:city:simc": 981133,
                "addr:street:sym_ul": 14015,
                "phone": "+48 158143622",
                "email": "stalowawola@medyk.net.pl",
                "website": "http:\/\/www.medyk.net.pl",
                "ref:regon": "180899357",
                "operator": "Ratio Sp\u00f3\u0142ka Z Ograniczon\u0105 Odpowiedzialno\u015bci\u0105",
                "operator:type": "private",
                "amenity": "school"
            }
        },
        {
            "id": 46671,
            "type": "Feature",
            "geometry": {
                "type": "Point",
                "coordinates": [
                    22.06546,
                    50.56578
                ]
            },
            "properties": {
                "isced:level": "4",
                "ref:rspo": 46671,
                "official_name": "Policealna Szko\u0142a w Stalowej Woli",
                "name": "Policealna Szko\u0142a w Stalowej Woli",
                "addr:postcode": "37-450",
                "addr:city": "Stalowa Wola",
                "addr:street": "Gabriela Narutowicza",
                "addr:housenumber": "6",
                "addr:city:simc": 981133,
                "addr:street:sym_ul": 14015,
                "phone": "+48 158143622",
                "email": "stalowawola@medyk.net.pl",
                "website": "http:\/\/www.medyk.net.pl",
                "ref:regon": "180899363",
                "operator": "Ratio Sp\u00f3\u0142ka Z Ograniczon\u0105 Odpowiedzialno\u015bci\u0105",
                "operator:type": "private",
                "amenity": "college"
            }
        },
        {
            "id": 107437,
            "type": "Feature",
            "geometry": {
                "type": "Point",
                "coordinates": [
                    22.06546,
                    50.56575
                ]
            },
            "properties": {
                "isced:level": "4",
                "ref:rspo": 107437,
                "official_name": "Medyczna Szko\u0142a Policealna w Stalowej Woli",
                "name": "Medyczna Szko\u0142a Policealna w Stalowej Woli",
                "addr:postcode": "37-450",
                "addr:city": "Stalowa Wola",
                "addr:street": "Gabriela Narutowicza",
                "addr:housenumber": "6",
                "addr:city:simc": 981133,
                "addr:street:sym_ul": 14015,
                "phone": "+48 158143622",
                "email": "stalowawola@medyk.net.pl",
                "website": "http:\/\/www.medyk.net.pl",
                "ref:regon": "180935580",
                "ref:vatin": "PL8652248687",
                "operator": "Ratio Sp\u00f3\u0142ka Z Ograniczon\u0105 Odpowiedzialno\u015bci\u0105",
                "operator:type": "private",
                "amenity": "college"
            }
        },
        {
            "id": 276809,
            "type": "Feature",
            "geometry": {
                "type": "Point",
                "coordinates": [
                    22.06546,
                    50.56572
                ]
            },
            "properties": {
                "isced:level": "4",
                "ref:rspo": 276809,
                "official_name": "Niepubliczna Medyczna Szko\u0142a Policealna w Stalowej Woli",
                "name": "Niepubliczna Medyczna Szko\u0142a Policealna w Stalowej Woli",
                "addr:postcode": "37-450",
                "addr:city": "Stalowa Wola",
                "addr:street": "Gabriela Narutowicza",
                "addr:housenumber": "6",
                "addr:city:simc": 981133,
                "addr:street:sym_ul": 14015,
                "email": "stalowawola@studeo.szkola.pl",
                "ref:regon": "387608463",
                "operator": "Studeo Sp\u00f3\u0142ka Z Ograniczon\u0105 Odpowiedzialno\u015bci\u0105",
                "operator:type": "private",
                "amenity": "college"
            }
        },
        {
            "id": 276810,
            "type": "Feature",
            "geometry": {
                "type": "Point",
                "coordinates": [
                    22.06546,
                    50.56569
                ]
            },
            "properties": {
                "isced:level": "4",
                "ref:rspo": 276810,
                "official_name": "Niepubliczna Szko\u0142a Policealna w Stalowej Woli",
                "name": "Niepubliczna Szko\u0142a Policealna w Stalowej Woli",
                "addr:postcode": "37-450",
                "addr:city": "Stalowa Wola",
                "addr:street": "Gabriela Narutowicza",
                "addr:housenumber": "6",
                "addr:city:simc": 981133,
                "addr:street:sym_ul": 14015,
                "email": "stalowawola@studeo.szkola.pl",
                "ref:regon": "387608658",
                "operator": "Studeo Sp\u00f3\u0142ka Z Ograniczon\u0105 Odpowiedzialno\u015bci\u0105",
                "operator:type": "private",
                "amenity": "college"
            }
        },
        {
            "id": 19754,
            "type": "Feature",
            "geometry": {
                "type": "Point",
                "coordinates": [
                    22.04925,
                    50.56612
                ]
            },
            "properties": {
                "isced:level": "1;2",
                "ref:rspo": 19754,
                "official_name": "Publiczna Szko\u0142a Podstawowa Nr4 im. Eugeniusza Kwiatkowskiego w Stalowej Woli",
                "name": "Publiczna Szko\u0142a Podstawowa Nr4",
                "addr:postcode": "37-450",
                "addr:city": "Stalowa Wola",
                "addr:street": "Niez\u0142omnych",
                "addr:housenumber": "1",
                "addr:city:simc": 981133,
                "addr:street:sym_ul": 14250,
                "phone": "+48 158421187",
                "email": "szkola4@stalowawola.pl",
                "website": "http:\/\/www.psp4.edu.pl",
                "ref:regon": "000837436",
                "ref:vatin": "PL8651427270",
                "operator": "Gmina Stalowa Wola",
                "operator:type": "government",
                "amenity": "school"
            }
        },
        {
            "id": 30678,
            "type": "Feature",
            "geometry": {
                "type": "Point",
                "coordinates": [
                    22.05014,
                    50.56696
                ]
            },
            "properties": {
                "ref:rspo": 30678,
                "official_name": "Przedszkole nr 1 w Stalowej Woli",
                "name": "Przedszkole nr 1 w Stalowej Woli",
                "addr:postcode": "37-450",
                "addr:city": "Stalowa Wola",
                "addr:street": "Niez\u0142omnych",
                "addr:housenumber": "2A",
                "addr:city:simc": 981133,
                "addr:street:sym_ul": 14250,
                "phone": "+48 158425796",
                "email": "przedszkole1@stalowawola.pl",
                "website": "http:\/\/www.przedszkole1.stalowawola.pl",
                "ref:regon": "830220609",
                "ref:vatin": "PL8651520325",
                "operator": "Gmina Stalowa Wola",
                "operator:type": "government",
                "amenity": "kindergarten"
            }
        },
        {
            "id": 131519,
            "type": "Feature",
            "geometry": {
                "type": "Point",
                "coordinates": [
                    22.04782,
                    50.56714
                ]
            },
            "properties": {
                "ref:rspo": 131519,
                "official_name": "Przedszkole Prywatne \"Ene-Due-Rabe\" w Stalowej Woli",
                "name": "Przedszkole Prywatne \"Ene-Due-Rabe\" w Stalowej Woli",
                "addr:postcode": "37-450",
                "addr:city": "Stalowa Wola",
                "addr:street": "Marcelego Siedlanowskiego",
                "addr:housenumber": "3",
                "addr:city:simc": 981133,
                "addr:street:sym_ul": 19767,
                "phone": "+48 792775646",
                "email": "info@ene-due-rabe.edu.pl",
                "website": "http:\/\/www.ene-due-rabe.edu.pl",
                "ref:regon": "365208628",
                "operator": "Marek W\u00f3jcik",
                "operator:type": "private",
                "amenity": "kindergarten"
            }
        },
        {
            "id": 29378,
            "type": "Feature",
            "geometry": {
                "type": "Point",
                "coordinates": [
                    22.07017,
                    50.56716
                ]
            },
            "properties": {
                "isced:level": "1;2",
                "ref:rspo": 29378,
                "official_name": "Publiczna Szko\u0142a Podstawowa nr 3 im. Bohater\u00f3w Westerplatte w Stalowej Woli",
                "name": "Publiczna Szko\u0142a Podstawowa nr 3",
                "addr:postcode": "37-450",
                "addr:city": "Stalowa Wola",
                "addr:street": "Prymasa Stefana Wyszy\u0144skiego",
                "addr:housenumber": "14",
                "addr:city:simc": 981133,
                "addr:street:sym_ul": 25119,
                "phone": "+48 158421186",
                "email": "psp3@stalowawola.pl",
                "website": "http:\/\/www.psp3stalowawola.pl",
                "ref:regon": "000837420",
                "ref:vatin": "PL8651426997",
                "operator": "Gmina Stalowa Wola",
                "operator:type": "government",
                "amenity": "school"
            }
        },
        {
            "id": 29377,
            "type": "Feature",
            "geometry": {
                "type": "Point",
                "coordinates": [
                    22.05244,
                    50.56722
                ]
            },
            "properties": {
                "isced:level": "1;2",
                "ref:rspo": 29377,
                "official_name": "Publiczna Szko\u0142a Podstawowa nr 1 im. Wac\u0142awa G\u00f3rskiego w Stalowej Woli",
                "name": "Publiczna Szko\u0142a Podstawowa nr 1",
                "addr:postcode": "37-450",
                "addr:city": "Stalowa Wola",
                "addr:street": "Romana Dmowskiego",
                "addr:housenumber": "9",
                "addr:city:simc": 981133,
                "addr:street:sym_ul": 3868,
                "phone": "+48 158421132",
                "email": "psp1@stalowawola.pl",
                "website": "http:\/\/www.psp1stw.szkola.pl",
                "ref:regon": "000837413",
                "ref:vatin": "PL8651427287",
                "operator": "Gmina Stalowa Wola",
                "operator:type": "government",
                "amenity": "school"
            }
        },
        {
            "id": 21201,
            "type": "Feature",
            "geometry": {
                "type": "Point",
                "coordinates": [
                    22.0728,
                    50.56749
                ]
            },
            "properties": {
                "ref:rspo": 21201,
                "official_name": "Przedszkole nr 6 w Stalowej Woli",
                "name": "Przedszkole nr 6 w Stalowej Woli",
                "addr:postcode": "37-450",
                "addr:city": "Stalowa Wola",
                "addr:street": "Partyzant\u00f3w",
                "addr:housenumber": "10",
                "addr:city:simc": 981133,
                "addr:street:sym_ul": 15733,
                "phone": "+48 158420020",
                "email": "przedszkole6@stalowawola.pl",
                "website": "http:\/\/p6stwola.dlaprzedszkoli.eu",
                "ref:regon": "830220727",
                "ref:vatin": "PL8651494792",
                "operator": "Gmina Stalowa Wola",
                "operator:type": "government",
                "amenity": "kindergarten"
            }
        },
        {
            "id": 29630,
            "type": "Feature",
            "geometry": {
                "type": "Point",
                "coordinates": [
                    22.0708,
                    50.56932
                ]
            },
            "properties": {
                "ref:rspo": 29630,
                "official_name": "Niepubliczny Zak\u0142ad Opieki Zdrowotnej O\u015brodek Rehabilitacji Dzieci Niepe\u0142nosprawnych, O\u015brodek Rewalidacyjno-Wychowawczy",
                "name": "Niepubliczny Zak\u0142ad Opieki Zdrowotnej O\u015brodek Rehabilitacji Dzieci Niepe\u0142nosprawnych, O\u015brodek Rewalidacyjno-Wychowawczy",
                "addr:postcode": "37-450",
                "addr:city": "Stalowa Wola",
                "addr:street": "Czarnieckiego",
                "addr:housenumber": "3",
                "addr:city:simc": 981133,
                "addr:street:sym_ul": 3279,
                "phone": "+48 158420250",
                "email": "ordnstw@o2.pl",
                "website": "http:\/\/www.szansa.c0.pl",
                "ref:regon": "180897275",
                "ref:vatin": "PL8652200019",
                "operator": "Stowarzyszenie Na Rzecz Dzieci I M\u0142odzie\u017cy Niepe\u0142nosprawnej \"Szansa\"",
                "operator:type": "ngo",
                "amenity": "school"
            }
        },
        {
            "id": 278664,
            "type": "Feature",
            "geometry": {
                "type": "Point",
                "coordinates": [
                    22.0708,
                    50.569289999999995
                ]
            },
            "properties": {
                "ref:rspo": 278664,
                "official_name": "Terapeutyczny Punkt Przedszkolny \"Nasze Przedszkole\"",
                "name": "Terapeutyczny Punkt Przedszkolny \"Nasze Przedszkole\"",
                "addr:postcode": "37-450",
                "addr:city": "Stalowa Wola",
                "addr:street": "Czarnieckiego",
                "addr:housenumber": "3",
                "addr:city:simc": 981133,
                "addr:street:sym_ul": 3279,
                "phone": "+48 158420250",
                "email": "ordnstw@o2.pl",
                "ref:regon": "520024185",
                "operator": "Stowarzyszenie Na Rzecz Dzieci I M\u0142odzie\u017cy Niepe\u0142nosprawnej \"Szansa\"",
                "operator:type": "ngo",
                "amenity": "kindergarten"
            }
        },
        {
            "id": 29372,
            "type": "Feature",
            "geometry": {
                "type": "Point",
                "coordinates": [
                    22.0515599,
                    50.57036
                ]
            },
            "properties": {
                "isced:level": "3",
                "ref:rspo": 29372,
                "official_name": "Katolickie Liceum Og\u00f3lnokszta\u0142c\u0105ce Imienia B\u0142ogos\u0142awionego Ksi\u0119dza Jerzego Popie\u0142uszki w Stalowej Woli",
                "name": "Katolickie Liceum Og\u00f3lnokszta\u0142c\u0105ce Imienia B\u0142ogos\u0142awionego Ksi\u0119dza Jerzego Popie\u0142uszki w Stalowej Woli",
                "addr:postcode": "37-450",
                "addr:city": "Stalowa Wola",
                "addr:street": "Podle\u015bna",
                "addr:housenumber": "4",
                "addr:city:simc": 981133,
                "addr:street:sym_ul": 16799,
                "phone": "+48 156425628",
                "email": "sekretariat@skst.pl",
                "website": "http:\/\/skst.pl",
                "ref:regon": "180897269",
                "ref:vatin": "PL8652493725",
                "operator": "Diecezja Sandomierska",
                "operator:type": "religious",
                "amenity": "school"
            }
        },
        {
            "id": 262428,
            "type": "Feature",
            "geometry": {
                "type": "Point",
                "coordinates": [
                    22.0515599,
                    50.57033
                ]
            },
            "properties": {
                "isced:level": "1;2",
                "ref:rspo": 262428,
                "official_name": "Katolicka Szko\u0142a Podstawowa w Stalowej Woli",
                "name": "Katolicka Szko\u0142a Podstawowa w Stalowej Woli",
                "addr:postcode": "37-450",
                "addr:city": "Stalowa Wola",
                "addr:street": "Podle\u015bna",
                "addr:housenumber": "4",
                "addr:city:simc": 981133,
                "addr:street:sym_ul": 16799,
                "phone": "+48 156425628",
                "email": "sekretariat@skst.pl",
                "website": "http:\/\/skst.pl",
                "ref:regon": "368007178",
                "operator": "Diecezja Sandomierska",
                "operator:type": "religious",
                "amenity": "school"
            }
        },
        {
            "id": 30880,
            "type": "Feature",
            "geometry": {
                "type": "Point",
                "coordinates": [
                    22.06713,
                    50.57037
                ]
            },
            "properties": {
                "ref:rspo": 30880,
                "official_name": "Przedszkole nr 11 w Stalowej Woli",
                "name": "Przedszkole nr 11 w Stalowej Woli",
                "addr:postcode": "37-450",
                "addr:city": "Stalowa Wola",
                "addr:street": "Aleje Jana Paw\u0142a II",
                "addr:housenumber": "6",
                "addr:city:simc": 981133,
                "addr:street:sym_ul": 35344,
                "phone": "+48 158422173",
                "email": "przedszkole11@stalowawola.pl",
                "website": "http:\/\/przedszkole11stalowawola.eprzedszkola.pl",
                "ref:regon": "830220762",
                "ref:vatin": "PL8651494384",
                "operator": "Gmina Stalowa Wola",
                "operator:type": "government",
                "amenity": "kindergarten"
            }
        },
        {
            "id": 19590,
            "type": "Feature",
            "geometry": {
                "type": "Point",
                "coordinates": [
                    22.05937,
                    50.57086
                ]
            },
            "properties": {
                "isced:level": "1;2",
                "ref:rspo": 19590,
                "official_name": "Publiczna Szko\u0142a Podstawowa z Oddzia\u0142ami Integracyjnymi Nr7 im. Miko\u0142aja Kopernika w Stalowej Woli",
                "name": "Publiczna Szko\u0142a Podstawowa z Oddzia\u0142ami Integracyjnymi Nr7",
                "addr:postcode": "37-450",
                "addr:city": "Stalowa Wola",
                "addr:street": "Genera\u0142a Leopolda Okulickiego",
                "addr:housenumber": "14",
                "addr:city:simc": 981133,
                "addr:street:sym_ul": 39990,
                "phone": "+48 158420488",
                "email": "psp7@stalowawola.pl",
                "website": "http:\/\/www.psp7stalowa.pl",
                "ref:regon": "000837465",
                "ref:vatin": "PL8651427241",
                "operator": "Gmina Stalowa Wola",
                "operator:type": "government",
                "amenity": "school"
            }
        },
        {
            "id": 31088,
            "type": "Feature",
            "geometry": {
                "type": "Point",
                "coordinates": [
                    22.05791,
                    50.57114
                ]
            },
            "properties": {
                "ref:rspo": 31088,
                "official_name": "Przedszkole Integracyjne nr 12 im. Jana Christiana Andersena w Stalowej Woli",
                "name": "Przedszkole Integracyjne nr 12",
                "addr:postcode": "37-450",
                "addr:city": "Stalowa Wola",
                "addr:street": "Genera\u0142a Leopolda Okulickiego",
                "addr:housenumber": "20",
                "addr:city:simc": 981133,
                "addr:street:sym_ul": 39990,
                "phone": "+48 158423205",
                "email": "st.w.pi12@wp.pl",
                "website": "http:\/\/www.pi12.stalowawola.pl",
                "ref:regon": "830220779",
                "ref:vatin": "PL8651500311",
                "operator": "Gmina Stalowa Wola",
                "operator:type": "government",
                "amenity": "kindergarten"
            }
        },
        {
            "id": 30732,
            "type": "Feature",
            "geometry": {
                "type": "Point",
                "coordinates": [
                    22.06146,
                    50.57126
                ]
            },
            "properties": {
                "ref:rspo": 30732,
                "official_name": "Przedszkole nr 9 w Stalowej Woli",
                "name": "Przedszkole nr 9 w Stalowej Woli",
                "addr:postcode": "37-450",
                "addr:city": "Stalowa Wola",
                "addr:street": "Aleje Jana Paw\u0142a II",
                "addr:housenumber": "5",
                "addr:city:simc": 981133,
                "addr:street:sym_ul": 35344,
                "phone": "+48 158443261",
                "email": "przedszkole9@stalowawola.pl",
                "website": "http:\/\/www.przed-9.blizej.info",
                "ref:regon": "830220740",
                "ref:vatin": "PL8651494800",
                "operator": "Gmina Stalowa Wola",
                "operator:type": "government",
                "amenity": "kindergarten"
            }
        },
        {
            "id": 122282,
            "type": "Feature",
            "geometry": {
                "type": "Point",
                "coordinates": [
                    22.05348,
                    50.57165
                ]
            },
            "properties": {
                "ref:rspo": 122282,
                "official_name": "Centrum Szkole\u0144 Personalnych, Handlowych I Biznesowych Skarem Sp. z o.o.",
                "name": "Centrum Szkole\u0144 Personalnych, Handlowych I Biznesowych Skarem Sp. z o.o.",
                "addr:postcode": "37-450",
                "addr:city": "Stalowa Wola",
                "addr:street": "1-go Sierpnia",
                "addr:housenumber": "24",
                "addr:city:simc": 981133,
                "addr:street:sym_ul": 48315,
                "phone": "+48 158432346",
                "email": "biuro@skarem.pl",
                "website": "http:\/\/skarem.pl",
                "ref:regon": "181079627",
                "operator": "Skarem Sp\u00f3\u0142ka Z Ograniczon\u0105 Odpowiedzialno\u015bci\u0105",
                "operator:type": "private",
                "fixme": "w zale\u017cno\u015bci od przedmiotu dzia\u0142alno\u015bci (np. amenity=training + training=*, amenity=dancing_school, amenity=language_school, amenity=music_school)"
            }
        },
        {
            "id": 125217,
            "type": "Feature",
            "geometry": {
                "type": "Point",
                "coordinates": [
                    22.05801,
                    50.57217
                ]
            },
            "properties": {
                "ref:rspo": 125217,
                "official_name": "Przedszkole Niepubliczne \"Chatka Misia\" w Stalowej Woli",
                "name": "Przedszkole Niepubliczne \"Chatka Misia\" w Stalowej Woli",
                "addr:postcode": "37-450",
                "addr:city": "Stalowa Wola",
                "addr:street": "Genera\u0142a Leopolda Okulickiego",
                "addr:housenumber": "24",
                "addr:city:simc": 981133,
                "addr:street:sym_ul": 39990,
                "phone": "+48 693396281",
                "email": "kontakt@chatkamisia.pl",
                "website": "http:\/\/www.chatkamisia.pl",
                "ref:regon": "181155430",
                "operator": "Rafa\u0142 Stefaniak",
                "operator:type": "private",
                "amenity": "kindergarten"
            }
        },
        {
            "id": 104223,
            "type": "Feature",
            "geometry": {
                "type": "Point",
                "coordinates": [
                    22.05507,
                    50.57273
                ]
            },
            "properties": {
                "ref:rspo": 104223,
                "official_name": "O\u015brodek Doskonalenia Nauczycieli \"Torus\"",
                "name": "O\u015brodek Doskonalenia Nauczycieli \"Torus\"",
                "addr:postcode": "37-450",
                "addr:city": "Stalowa Wola",
                "addr:street": "gen. Leopolda Okulickiego",
                "addr:housenumber": "51",
                "addr:city:simc": 981133,
                "addr:street:sym_ul": 14929,
                "phone": "+48 158143622",
                "email": "stalowawola@szkola-torus.pl",
                "ref:regon": "180921720",
                "ref:vatin": "PL8652248687",
                "operator": "Dane Do Uzupe\u0142nienia",
                "operator:type": "private",
                "amenity": "training"
            }
        },
        {
            "id": 123233,
            "type": "Feature",
            "geometry": {
                "type": "Point",
                "coordinates": [
                    22.05493,
                    50.57287
                ]
            },
            "properties": {
                "ref:rspo": 123233,
                "official_name": "Niepubliczny O\u015brodek Edukacji Cechu Rzemie\u015blnik\u00f3w I Przedsi\u0119biorc\u00f3w w Stalowej Woli",
                "name": "Niepubliczny O\u015brodek Edukacji Cechu Rzemie\u015blnik\u00f3w I Przedsi\u0119biorc\u00f3w w Stalowej Woli",
                "addr:postcode": "37-450",
                "addr:city": "Stalowa Wola",
                "addr:street": "Genera\u0142a Leopolda Okulickiego",
                "addr:housenumber": "83",
                "addr:city:simc": 981133,
                "addr:street:sym_ul": 39990,
                "phone": "+48 158421765",
                "email": "cechstalowawola@poczta.onet.pl",
                "ref:regon": "181116819",
                "operator": "Cech Rzemie\u015blnik\u00f3w I Przedsi\u0119biorc\u00f3w W Stalowej Woli",
                "operator:type": "ngo",
                "fixme": "w zale\u017cno\u015bci od przedmiotu dzia\u0142alno\u015bci (np. amenity=training + training=*, amenity=dancing_school, amenity=language_school, amenity=music_school)"
            }
        },
        {
            "id": 26372,
            "type": "Feature",
            "geometry": {
                "type": "Point",
                "coordinates": [
                    22.0520299,
                    50.57299
                ]
            },
            "properties": {
                "ref:rspo": 26372,
                "official_name": "Zesp\u00f3\u0142 Szk\u00f3\u0142 nr 2 im. Tadeusza Ko\u015bciuszki w Stalowej Woli",
                "name": "Zesp\u00f3\u0142 Szk\u00f3\u0142 nr 2",
                "addr:postcode": "37-450",
                "addr:city": "Stalowa Wola",
                "addr:street": "1-go Sierpnia",
                "addr:housenumber": "26",
                "addr:city:simc": 981133,
                "addr:street:sym_ul": 48315,
                "phone": "+48 158420640",
                "email": "zs2stalowawola@pro.onet.pl",
                "website": "http:\/\/www.zsnr2.stalowa-wola.pl",
                "ref:regon": "000241583",
                "ref:vatin": "PL8651027984",
                "operator": "Powiat Stalowowolski",
                "operator:type": "government",
                "landuse": "education",
                "fixme": "amenity=school, amenity=college albo landuse=education w zale\u017cno\u015bci od tego, jakie plac\u00f3wki wchodz\u0105 w sk\u0142ad zespo\u0142u. Sprawd\u017a, kiedy stosowa\u0107 amenity=* a kiedy landuse=education.",
                "note": "Children RSPO: 87052;87060;87062;87129;276120"
            }
        },
        {
            "id": 87052,
            "type": "Feature",
            "geometry": {
                "type": "Point",
                "coordinates": [
                    22.0520299,
                    50.572959999999995
                ]
            },
            "properties": {
                "isced:level": "3",
                "ref:rspo": 87052,
                "official_name": "Bran\u017cowa Szko\u0142a I Stopnia nr 2",
                "name": "Bran\u017cowa Szko\u0142a I Stopnia nr 2",
                "addr:postcode": "37-450",
                "addr:city": "Stalowa Wola",
                "addr:street": "1-go Sierpnia",
                "addr:housenumber": "26",
                "addr:city:simc": 981133,
                "addr:street:sym_ul": 48315,
                "phone": "+48 158420640",
                "email": "sekretariat@zsnr2.stalowa-wola.pl",
                "website": "http:\/\/www.zsnr2.stalowa-wola.pl",
                "ref:regon": "830469740",
                "ref:vatin": "PL8651027984",
                "operator": "Powiat Stalowowolski",
                "operator:type": "government",
                "amenity": "school",
                "note": "Parent RSPO: 26372"
            }
        },
        {
            "id": 87060,
            "type": "Feature",
            "geometry": {
                "type": "Point",
                "coordinates": [
                    22.0520299,
                    50.57293
                ]
            },
            "properties": {
                "isced:level": "3",
                "ref:rspo": 87060,
                "official_name": "Ii Liceum Og\u00f3lnokszta\u0142c\u0105ce",
                "name": "Ii Liceum Og\u00f3lnokszta\u0142c\u0105ce",
                "addr:postcode": "37-450",
                "addr:city": "Stalowa Wola",
                "addr:street": "1-go Sierpnia",
                "addr:housenumber": "26",
                "addr:city:simc": 981133,
                "addr:street:sym_ul": 48315,
                "phone": "+48 158420640",
                "email": "sekretariat@zsnr2.stalowa-wola.pl",
                "website": "http:\/\/www.zsnr2.stalowa-wola.pl",
                "ref:regon": "830469757",
                "ref:vatin": "PL8651027984",
                "operator": "Powiat Stalowowolski",
                "operator:type": "government",
                "amenity": "school",
                "note": "Parent RSPO: 26372"
            }
        },
        {
            "id": 87062,
            "type": "Feature",
            "geometry": {
                "type": "Point",
                "coordinates": [
                    22.0520299,
                    50.5729
                ]
            },
            "properties": {
                "isced:level": "3",
                "ref:rspo": 87062,
                "official_name": "Technikum nr 2",
                "name": "Technikum nr 2",
                "addr:postcode": "37-450",
                "addr:city": "Stalowa Wola",
                "addr:street": "1-go Sierpnia",
                "addr:housenumber": "26",
                "addr:city:simc": 981133,
                "addr:street:sym_ul": 48315,
                "phone": "+48 158420640",
                "email": "sekretariat@zsnr2.stalowa-wola.pl",
                "website": "http:\/\/www.zsnr2.stalowa-wola.pl",
                "ref:regon": "830469711",
                "ref:vatin": "PL8651027984",
                "operator": "Powiat Stalowowolski",
                "operator:type": "government",
                "amenity": "school",
                "note": "Parent RSPO: 26372"
            }
        },
        {
            "id": 87129,
            "type": "Feature",
            "geometry": {
                "type": "Point",
                "coordinates": [
                    22.0520299,
                    50.572869999999995
                ]
            },
            "properties": {
                "isced:level": "4",
                "ref:rspo": 87129,
                "official_name": "Szko\u0142a Policealna nr 2",
                "name": "Szko\u0142a Policealna nr 2",
                "addr:postcode": "37-450",
                "addr:city": "Stalowa Wola",
                "addr:street": "1-go Sierpnia",
                "addr:housenumber": "26",
                "addr:city:simc": 981133,
                "addr:street:sym_ul": 48315,
                "phone": "+48 158420640",
                "email": "sekretariat@zsnr2.stalowa-wola.pl",
                "website": "http:\/\/www.zsnr2.stalowa-wola.pl",
                "ref:regon": "831197947",
                "ref:vatin": "PL8651027984",
                "operator": "Powiat Stalowowolski",
                "operator:type": "government",
                "amenity": "college",
                "note": "Parent RSPO: 26372"
            }
        },
        {
            "id": 276120,
            "type": "Feature",
            "geometry": {
                "type": "Point",
                "coordinates": [
                    22.0520299,
                    50.57284
                ]
            },
            "properties": {
                "isced:level": "3",
                "ref:rspo": 276120,
                "official_name": "Bran\u017cowa Szko\u0142a II Stopnia nr 2 w Zespole Szk\u00f3\u0142 nr 2 im. Tadeusza Ko\u015bciuszki w Stalowej Woli",
                "name": "Bran\u017cowa Szko\u0142a II Stopnia nr 2 w Zespole Szk\u00f3\u0142 nr 2",
                "addr:postcode": "37-450",
                "addr:city": "Stalowa Wola",
                "addr:street": "1-go Sierpnia",
                "addr:housenumber": "26",
                "addr:city:simc": 981133,
                "addr:street:sym_ul": 48315,
                "phone": "+48 158420640",
                "email": "sekretariat@zsnr2.stalowa-wola.pl",
                "ref:regon": "386995989",
                "operator": "Powiat Stalowowolski",
                "operator:type": "government",
                "amenity": "school",
                "note": "Parent RSPO: 26372"
            }
        },
        {
            "id": 30810,
            "type": "Feature",
            "geometry": {
                "type": "Point",
                "coordinates": [
                    22.06148,
                    50.57309
                ]
            },
            "properties": {
                "ref:rspo": 30810,
                "official_name": "Przedszkole nr 10 im.marii Kownackiej w Stalowej Woli",
                "name": "Przedszkole nr 10 im.marii Kownackiej w Stalowej Woli",
                "addr:postcode": "37-450",
                "addr:city": "Stalowa Wola",
                "addr:street": "Aleje Jana Paw\u0142a II",
                "addr:housenumber": "11",
                "addr:city:simc": 981133,
                "addr:street:sym_ul": 35344,
                "phone": "+48 158423574",
                "email": "przedszkole10@stalowawola.pl",
                "website": "http:\/\/www.p10stw.dlaprzedszkoli.eu",
                "ref:regon": "830220756",
                "ref:vatin": "PL8651520377",
                "operator": "Gmina Stalowa Wola",
                "operator:type": "government",
                "amenity": "kindergarten"
            }
        },
        {
            "id": 26375,
            "type": "Feature",
            "geometry": {
                "type": "Point",
                "coordinates": [
                    22.06033,
                    50.57343
                ]
            },
            "properties": {
                "ref:rspo": 26375,
                "official_name": "Zesp\u00f3\u0142 Szk\u00f3\u0142 nr 6 Specjalnych w Stalowej Woli",
                "name": "Zesp\u00f3\u0142 Szk\u00f3\u0142 nr 6 Specjalnych w Stalowej Woli",
                "addr:postcode": "37-450",
                "addr:city": "Stalowa Wola",
                "addr:street": "Aleje Jana Paw\u0142a II",
                "addr:housenumber": "21",
                "addr:city:simc": 981133,
                "addr:street:sym_ul": 35344,
                "phone": "+48 158421031",
                "email": "szkola@zss6stalowa-wola.pl",
                "website": "http:\/\/www.zss6stalowa-wola.pl",
                "ref:regon": "000719168",
                "ref:vatin": "PL8651296313",
                "operator": "Powiat Stalowowolski",
                "operator:type": "government",
                "landuse": "education",
                "fixme": "amenity=school, amenity=college albo landuse=education w zale\u017cno\u015bci od tego, jakie plac\u00f3wki wchodz\u0105 w sk\u0142ad zespo\u0142u. Sprawd\u017a, kiedy stosowa\u0107 amenity=* a kiedy landuse=education.",
                "note": "Children RSPO: 41917;41919;41920"
            }
        },
        {
            "id": 41917,
            "type": "Feature",
            "geometry": {
                "type": "Point",
                "coordinates": [
                    22.06033,
                    50.5734
                ]
            },
            "properties": {
                "isced:level": "1;2",
                "ref:rspo": 41917,
                "official_name": "Publiczna Szko\u0142a Podstawowa nr 8 Specjalna im. Ksi\u0119dza Jana Twardowskiego w Stalowej Woli",
                "name": "Publiczna Szko\u0142a Podstawowa nr 8 Specjalna",
                "addr:postcode": "37-450",
                "addr:city": "Stalowa Wola",
                "addr:street": "Aleje Jana Paw\u0142a II",
                "addr:housenumber": "21",
                "addr:city:simc": 981133,
                "addr:street:sym_ul": 35344,
                "phone": "+48 158421031",
                "email": "szkola@zss6stalowa-wola.pl",
                "website": "http:\/\/www.zss6stalowa-wola.pl",
                "ref:regon": "830476243",
                "ref:vatin": "PL8651296313",
                "operator": "Powiat Stalowowolski",
                "operator:type": "government",
                "amenity": "school",
                "note": "Parent RSPO: 26375"
            }
        },
        {
            "id": 41919,
            "type": "Feature",
            "geometry": {
                "type": "Point",
                "coordinates": [
                    22.06033,
                    50.573370000000004
                ]
            },
            "properties": {
                "isced:level": "3",
                "ref:rspo": 41919,
                "official_name": "Bran\u017cowa Szko\u0142a I Stopnia Specjalna im. Ksi\u0119dza Jana Twardowskiego w Stalowej Woli",
                "name": "Bran\u017cowa Szko\u0142a I Stopnia Specjalna",
                "addr:postcode": "37-450",
                "addr:city": "Stalowa Wola",
                "addr:street": "Aleje Jana Paw\u0142a II",
                "addr:housenumber": "21",
                "addr:city:simc": 981133,
                "addr:street:sym_ul": 35344,
                "phone": "+48 158421031",
                "email": "szkola@zss6stalowa-wola.pl",
                "website": "http:\/\/www.zss6stalowa-wola.pl",
                "ref:regon": "830476289",
                "ref:vatin": "PL8651296313",
                "operator": "Powiat Stalowowolski",
                "operator:type": "government",
                "amenity": "school",
                "note": "Parent RSPO: 26375"
            }
        },
        {
            "id": 41920,
            "type": "Feature",
            "geometry": {
                "type": "Point",
                "coordinates": [
                    22.06033,
                    50.57334
                ]
            },
            "properties": {
                "ref:rspo": 41920,
                "official_name": "Szko\u0142a Specjalna Przysposabiaj\u0105ca do Pracy im. Ksi\u0119dza Jana Twardowskiego w Stalowej Woli",
                "name": "Szko\u0142a Specjalna Przysposabiaj\u0105ca do Pracy",
                "addr:postcode": "37-450",
                "addr:city": "Stalowa Wola",
                "addr:street": "Aleje Jana Paw\u0142a II",
                "addr:housenumber": "21",
                "addr:city:simc": 981133,
                "addr:street:sym_ul": 35344,
                "phone": "+48 158421031",
                "email": "szkola@zss6stalowa-wola.pl",
                "website": "http:\/\/www.zss6stalowa-wola.pl",
                "ref:regon": "831374846",
                "ref:vatin": "PL8651296313",
                "operator": "Powiat Stalowowolski",
                "operator:type": "government",
                "amenity": "school",
                "note": "Parent RSPO: 26375"
            }
        },
        {
            "id": 31179,
            "type": "Feature",
            "geometry": {
                "type": "Point",
                "coordinates": [
                    22.06594,
                    50.5741
                ]
            },
            "properties": {
                "ref:rspo": 31179,
                "official_name": "Przedszkole nr 18 im.marii Montessori w Stalowej Woli",
                "name": "Przedszkole nr 18 im.marii Montessori w Stalowej Woli",
                "addr:postcode": "37-450",
                "addr:city": "Stalowa Wola",
                "addr:street": "J\u00f3zefa Poniatowskiego",
                "addr:housenumber": "33",
                "addr:city:simc": 981133,
                "addr:street:sym_ul": 17107,
                "phone": "+48 158421111",
                "email": "przedszkole18@poczta.onet.pl",
                "website": "http:\/\/wwww.p18montessori.stalowa-wola.pl",
                "ref:regon": "830220816",
                "ref:vatin": "PL8651427264",
                "operator": "Gmina Stalowa Wola",
                "operator:type": "government",
                "amenity": "kindergarten"
            }
        },
        {
            "id": 16382,
            "type": "Feature",
            "geometry": {
                "type": "Point",
                "coordinates": [
                    22.05722,
                    50.57616
                ]
            },
            "properties": {
                "ref:rspo": 16382,
                "official_name": "Niepubliczne Przedszkole \"B\u0105belkowo\" w Stalowej Woli",
                "name": "Niepubliczne Przedszkole \"B\u0105belkowo\" w Stalowej Woli",
                "addr:postcode": "37-450",
                "addr:city": "Stalowa Wola",
                "addr:street": "Wojska Polskiego",
                "addr:housenumber": "4A",
                "addr:city:simc": 981133,
                "addr:street:sym_ul": 24628,
                "phone": "+48 156493149",
                "email": "joanna.piorun@gmail.com",
                "website": "http:\/\/www.babelkowo.pl",
                "ref:regon": "180889270",
                "operator": "Joanna Piorun",
                "operator:type": "private",
                "amenity": "kindergarten"
            }
        },
        {
            "id": 88269,
            "type": "Feature",
            "geometry": {
                "type": "Point",
                "coordinates": [
                    22.05902,
                    50.57658
                ]
            },
            "properties": {
                "ref:rspo": 88269,
                "official_name": "Zak\u0142ad Doskonalenia Zawodowego w Rzeszowie O\u015brodek Kszta\u0142cenia Zawodowego w Stalowej Woli",
                "name": "Zak\u0142ad Doskonalenia Zawodowego w Rzeszowie O\u015brodek Kszta\u0142cenia Zawodowego w Stalowej Woli",
                "addr:postcode": "37-450",
                "addr:city": "Stalowa Wola",
                "addr:street": "Aleje Jana Paw\u0142a II",
                "addr:housenumber": "25a",
                "addr:city:simc": 981133,
                "addr:street:sym_ul": 35344,
                "phone": "+48 510998022",
                "email": "stalowawola@zdz.rzeszow.pl",
                "website": "http:\/\/www.zdz.rzeszow.pl",
                "ref:regon": "180912709",
                "ref:vatin": "PL8130268194",
                "operator": "Zak\u0142ad Doskonalenia Zawodowego W Rzeszowie",
                "operator:type": "ngo",
                "fixme": "w zale\u017cno\u015bci od przedmiotu dzia\u0142alno\u015bci (np. amenity=training + training=*, amenity=dancing_school, amenity=language_school, amenity=music_school)"
            }
        },
        {
            "id": 20719,
            "type": "Feature",
            "geometry": {
                "type": "Point",
                "coordinates": [
                    22.05609,
                    50.5773
                ]
            },
            "properties": {
                "isced:level": "1;2",
                "ref:rspo": 20719,
                "official_name": "Publiczna Szko\u0142a Podstawowa nr 11 im. Szarych Szereg\u00f3w w Stalowej Woli",
                "name": "Publiczna Szko\u0142a Podstawowa nr 11",
                "addr:postcode": "37-450",
                "addr:city": "Stalowa Wola",
                "addr:street": "Wojska Polskiego",
                "addr:housenumber": "9",
                "addr:city:simc": 981133,
                "addr:street:sym_ul": 24628,
                "phone": "+48 158424922",
                "email": "psp11@stalowawola.pl",
                "website": "http:\/\/www.szkola11.pl",
                "ref:regon": "001321670",
                "ref:vatin": "PL8651450926",
                "operator": "Gmina Stalowa Wola",
                "operator:type": "government",
                "amenity": "school"
            }
        },
        {
            "id": 21360,
            "type": "Feature",
            "geometry": {
                "type": "Point",
                "coordinates": [
                    22.05609,
                    50.57727
                ]
            },
            "properties": {
                "isced:level": "3",
                "ref:rspo": 21360,
                "official_name": "Samorz\u0105dowe Liceum Og\u00f3lnokszta\u0142c\u0105ce im. Cypriana Kamila Norwida w Stalowej Woli",
                "name": "Samorz\u0105dowe Liceum Og\u00f3lnokszta\u0142c\u0105ce",
                "addr:postcode": "37-450",
                "addr:city": "Stalowa Wola",
                "addr:street": "Wojska Polskiego",
                "addr:housenumber": "9",
                "addr:city:simc": 981133,
                "addr:street:sym_ul": 24628,
                "phone": "+48 158421833",
                "email": "sekretariat.slosw@stalowawola.pl",
                "website": "http:\/\/www.slosw.pl",
                "ref:regon": "830468249",
                "operator": "Gmina Stalowa Wola",
                "operator:type": "government",
                "amenity": "school"
            }
        },
        {
            "id": 31143,
            "type": "Feature",
            "geometry": {
                "type": "Point",
                "coordinates": [
                    22.05187,
                    50.57887
                ]
            },
            "properties": {
                "ref:rspo": 31143,
                "official_name": "Przedszkole nr 15 w Stalowej Woli",
                "name": "Przedszkole nr 15 w Stalowej Woli",
                "addr:postcode": "37-450",
                "addr:city": "Stalowa Wola",
                "addr:street": "Obro\u0144c\u00f3w Westerplatte",
                "addr:housenumber": "1",
                "addr:city:simc": 981133,
                "addr:street:sym_ul": 14655,
                "phone": "+48 158424903",
                "email": "przedszkole15@interia.pl",
                "website": "http:\/\/przedszkole15stw.pl",
                "ref:regon": "830220791",
                "ref:vatin": "PL8651522034",
                "operator": "Gmina Stalowa Wola",
                "operator:type": "government",
                "amenity": "kindergarten"
            }
        },
        {
            "id": 132643,
            "type": "Feature",
            "geometry": {
                "type": "Point",
                "coordinates": [
                    22.05603,
                    50.5809799
                ]
            },
            "properties": {
                "ref:rspo": 132643,
                "official_name": "Niepubliczne Przedszkole \"S\u0142oneczko\"W Stalowej Woli",
                "name": "Niepubliczne Przedszkole \"S\u0142oneczko\"W Stalowej Woli",
                "addr:postcode": "37-450",
                "addr:city": "Stalowa Wola",
                "addr:street": "Aleje Jana Paw\u0142a II",
                "addr:housenumber": "64D",
                "addr:city:simc": 981133,
                "addr:street:sym_ul": 35344,
                "phone": "+48 534024560",
                "email": "sloneczkostwola@interia.pl",
                "ref:regon": "365966725",
                "operator": "Stowarzyszenie Na Rzecz Rozwoju Wsi Rac\u0142awice",
                "operator:type": "ngo",
                "amenity": "kindergarten"
            }
        },
        {
            "id": 21078,
            "type": "Feature",
            "geometry": {
                "type": "Point",
                "coordinates": [
                    22.05909,
                    50.58165
                ]
            },
            "properties": {
                "ref:rspo": 21078,
                "official_name": "Przedszkole nr 3 w Stalowej Woli",
                "name": "Przedszkole nr 3 w Stalowej Woli",
                "addr:postcode": "37-450",
                "addr:city": "Stalowa Wola",
                "addr:street": "J\u00f3zefa Poniatowskiego",
                "addr:housenumber": "57",
                "addr:city:simc": 981133,
                "addr:street:sym_ul": 17107,
                "phone": "+48 158423356",
                "email": "przedszkole3@stalowawola.pl",
                "website": "http:\/\/www.przedszkole3.stalowawola.pl",
                "ref:regon": "830220696",
                "ref:vatin": "PL8651494378",
                "operator": "Gmina Stalowa Wola",
                "operator:type": "government",
                "amenity": "kindergarten"
            }
        },
        {
            "id": 114815,
            "type": "Feature",
            "geometry": {
                "type": "Point",
                "coordinates": [
                    22.05802,
                    50.58167
                ]
            },
            "properties": {
                "ref:rspo": 114815,
                "official_name": "Planeta Przedszkolaka Przedszkole J\u0119zykowe w Stalowej Woli",
                "name": "Planeta Przedszkolaka Przedszkole J\u0119zykowe w Stalowej Woli",
                "addr:postcode": "37-450",
                "addr:city": "Stalowa Wola",
                "addr:street": "Aleje Jana Paw\u0142a II",
                "addr:housenumber": "60B",
                "addr:city:simc": 981133,
                "addr:street:sym_ul": 35344,
                "phone": "+48 509854451",
                "email": "dominika.rej@gmail.com",
                "ref:regon": "180982294",
                "operator": "Dominika Rej",
                "operator:type": "private",
                "amenity": "kindergarten"
            }
        },
        {
            "id": 29732,
            "type": "Feature",
            "geometry": {
                "type": "Point",
                "coordinates": [
                    22.06111,
                    50.58184
                ]
            },
            "properties": {
                "isced:level": "1;2",
                "ref:rspo": 29732,
                "official_name": "Publiczna Szko\u0142a Podstawowa nr 12 im. Jana Paw\u0142a II w Stalowej Woli",
                "name": "Publiczna Szko\u0142a Podstawowa nr 12",
                "addr:postcode": "37-450",
                "addr:city": "Stalowa Wola",
                "addr:street": "J\u00f3zefa Poniatowskiego",
                "addr:housenumber": "55",
                "addr:city:simc": 981133,
                "addr:street:sym_ul": 17107,
                "phone": "+48 158422886",
                "email": "psp12@stalowawola.pl",
                "website": "http:\/\/psp12.stalowawola.szkolnastrona.pl",
                "ref:regon": "830003591",
                "operator": "Gmina Stalowa Wola",
                "operator:type": "government",
                "amenity": "school"
            }
        },
        {
            "id": 129786,
            "type": "Feature",
            "geometry": {
                "type": "Point",
                "coordinates": [
                    22.0524,
                    50.58288
                ]
            },
            "properties": {
                "ref:rspo": 129786,
                "official_name": "Domowa Akademia Przedszkolaka Przedszkole Niepubliczne w Stalowej Woli",
                "name": "Domowa Akademia Przedszkolaka Przedszkole Niepubliczne w Stalowej Woli",
                "addr:postcode": "37-450",
                "addr:city": "Stalowa Wola",
                "addr:street": "Harcerska",
                "addr:housenumber": "2",
                "addr:city:simc": 981133,
                "addr:street:sym_ul": 6523,
                "phone": "+48 509854451",
                "email": "domowa.akademia@gmail.com",
                "website": "http:\/\/www.domowa-akademia.pl",
                "ref:regon": "362894296",
                "operator": "Dominika Rej",
                "operator:type": "private",
                "amenity": "kindergarten"
            }
        },
        {
            "id": 34449,
            "type": "Feature",
            "geometry": {
                "type": "Point",
                "coordinates": [
                    22.04651,
                    50.58967
                ]
            },
            "properties": {
                "isced:level": "1;2",
                "ref:rspo": 34449,
                "official_name": "Publiczna Szko\u0142a Podstawowa nr 9 im. Jana Kochanowskiego w Stalowej Woli",
                "name": "Publiczna Szko\u0142a Podstawowa nr 9",
                "addr:postcode": "37-464",
                "addr:city": "Stalowa Wola",
                "addr:street": "Rozwadowska",
                "addr:housenumber": "10",
                "addr:city:simc": 981133,
                "addr:street:sym_ul": 18967,
                "phone": "+48 158420429",
                "email": "sekretariat@psp9stw.pl",
                "website": "http:\/\/www.psp9stw.pl",
                "ref:regon": "831201146",
                "operator": "Gmina Stalowa Wola",
                "operator:type": "government",
                "amenity": "school"
            }
        },
        {
            "id": 122576,
            "type": "Feature",
            "geometry": {
                "type": "Point",
                "coordinates": [
                    22.04421,
                    50.59068
                ]
            },
            "properties": {
                "ref:rspo": 122576,
                "official_name": "Niepubliczne Przedszkole Ba\u015bniowy \u015awiat II w Stalowej Woli",
                "name": "Niepubliczne Przedszkole Ba\u015bniowy \u015awiat II w Stalowej Woli",
                "addr:postcode": "37-464",
                "addr:city": "Stalowa Wola",
                "addr:street": "D\u0105browskiego",
                "addr:housenumber": "10b",
                "addr:city:simc": 981133,
                "addr:street:sym_ul": 3667,
                "phone": "+48 667338170",
                "email": "basniowyswiatii@gmail.com",
                "website": "http:\/\/www.basniowyswiat.eu",
                "ref:regon": "181089117",
                "operator": "Iwona Gryszun",
                "operator:type": "private",
                "amenity": "kindergarten"
            }
        },
        {
            "id": 122594,
            "type": "Feature",
            "geometry": {
                "type": "Point",
                "coordinates": [
                    22.04423,
                    50.59091
                ]
            },
            "properties": {
                "ref:rspo": 122594,
                "official_name": "Niepubliczne Przedszkole Ba\u015bniowy \u015awiat w Stalowej Woli",
                "name": "Niepubliczne Przedszkole Ba\u015bniowy \u015awiat w Stalowej Woli",
                "addr:postcode": "37-464",
                "addr:city": "Stalowa Wola",
                "addr:street": "D\u0105browskiego",
                "addr:housenumber": "10c",
                "addr:city:simc": 981133,
                "addr:street:sym_ul": 3667,
                "phone": "+48 153070010",
                "email": "basniowyswiat@gmail.com",
                "website": "http:\/\/www.basniowyswiat.eu",
                "ref:regon": "181089212",
                "operator": "Magdalena Mierzwa",
                "operator:type": "private",
                "amenity": "kindergarten"
            }
        },
        {
            "id": 26373,
            "type": "Feature",
            "geometry": {
                "type": "Point",
                "coordinates": [
                    22.05182,
                    50.59388
                ]
            },
            "properties": {
                "ref:rspo": 26373,
                "official_name": "Zesp\u00f3\u0142 Szk\u00f3\u0142 nr 3 im. Kr\u00f3la Jana III Sobieskiego w Stalowej Woli",
                "name": "Zesp\u00f3\u0142 Szk\u00f3\u0142 nr 3",
                "addr:postcode": "37-464",
                "addr:city": "Stalowa Wola",
                "addr:street": "Polna",
                "addr:housenumber": "15",
                "addr:city:simc": 981133,
                "addr:street:sym_ul": 17011,
                "phone": "+48 158440412",
                "email": "sekretariat@ekonomik-stalowawola.pl",
                "website": "http:\/\/www.ekonomik.stalowawola.pl",
                "ref:regon": "000244564",
                "ref:vatin": "PL8651027139",
                "operator": "Powiat Stalowowolski",
                "operator:type": "government",
                "landuse": "education",
                "fixme": "amenity=school, amenity=college albo landuse=education w zale\u017cno\u015bci od tego, jakie plac\u00f3wki wchodz\u0105 w sk\u0142ad zespo\u0142u. Sprawd\u017a, kiedy stosowa\u0107 amenity=* a kiedy landuse=education.",
                "note": "Children RSPO: 87015;87027;87042;276124"
            }
        },
        {
            "id": 87015,
            "type": "Feature",
            "geometry": {
                "type": "Point",
                "coordinates": [
                    22.05182,
                    50.593849999999996
                ]
            },
            "properties": {
                "isced:level": "3",
                "ref:rspo": 87015,
                "official_name": "Bran\u017cowa Szko\u0142a I Stopnia nr 3",
                "name": "Bran\u017cowa Szko\u0142a I Stopnia nr 3",
                "addr:postcode": "37-464",
                "addr:city": "Stalowa Wola",
                "addr:street": "Polna",
                "addr:housenumber": "15",
                "addr:city:simc": 981133,
                "addr:street:sym_ul": 17011,
                "phone": "+48 158440412",
                "email": "sekretariat@ekonomik-stalowawola.pl",
                "website": "http:\/\/www.ekonomik.stalowawola.pl",
                "ref:regon": "830469390",
                "ref:vatin": "PL8651027139",
                "operator": "Powiat Stalowowolski",
                "operator:type": "government",
                "amenity": "school",
                "note": "Parent RSPO: 26373"
            }
        },
        {
            "id": 87027,
            "type": "Feature",
            "geometry": {
                "type": "Point",
                "coordinates": [
                    22.05182,
                    50.59382
                ]
            },
            "properties": {
                "isced:level": "3",
                "ref:rspo": 87027,
                "official_name": "Technikum nr 3",
                "name": "Technikum nr 3",
                "addr:postcode": "37-464",
                "addr:city": "Stalowa Wola",
                "addr:street": "Polna",
                "addr:housenumber": "15",
                "addr:city:simc": 981133,
                "addr:street:sym_ul": 17011,
                "phone": "+48 158440412",
                "email": "sekretariat@ekonomik-stalowawola.pl",
                "website": "http:\/\/www.ekonomik.stalowawola.pl",
                "ref:regon": "830469303",
                "ref:vatin": "PL8651027139",
                "operator": "Powiat Stalowowolski",
                "operator:type": "government",
                "amenity": "school",
                "note": "Parent RSPO: 26373"
            }
        },
        {
            "id": 87042,
            "type": "Feature",
            "geometry": {
                "type": "Point",
                "coordinates": [
                    22.05182,
                    50.59379
                ]
            },
            "properties": {
                "isced:level": "4",
                "ref:rspo": 87042,
                "official_name": "Szko\u0142a Policealna nr 1",
                "name": "Szko\u0142a Policealna nr 1",
                "addr:postcode": "37-464",
                "addr:city": "Stalowa Wola",
                "addr:street": "Polna",
                "addr:housenumber": "15",
                "addr:city:simc": 981133,
                "addr:street:sym_ul": 17011,
                "phone": "+48 158440412",
                "email": "sekretariat@ekonomik-stalowawola.pl",
                "website": "http:\/\/www.ekonomik.stalowawola.pl",
                "ref:regon": "830469355",
                "ref:vatin": "PL8651027139",
                "operator": "Powiat Stalowowolski",
                "operator:type": "government",
                "amenity": "college",
                "note": "Parent RSPO: 26373"
            }
        },
        {
            "id": 276124,
            "type": "Feature",
            "geometry": {
                "type": "Point",
                "coordinates": [
                    22.05182,
                    50.593759999999996
                ]
            },
            "properties": {
                "isced:level": "3",
                "ref:rspo": 276124,
                "official_name": "Bran\u017cowa Szko\u0142a II Stopnia nr 3 w Zespole Szk\u00f3\u0142 nr 3 im. Kr\u00f3la Jana III Sobieskiego w Stalowej Woli",
                "name": "Bran\u017cowa Szko\u0142a II Stopnia nr 3 w Zespole Szk\u00f3\u0142 nr 3",
                "addr:postcode": "37-464",
                "addr:city": "Stalowa Wola",
                "addr:street": "Polna",
                "addr:housenumber": "15",
                "addr:city:simc": 981133,
                "addr:street:sym_ul": 17011,
                "phone": "+48 158440412",
                "email": "sekretariat@ekonomik-stalowawola.pl",
                "website": "http:\/\/www.ekonomik.stalowawola.pl",
                "ref:regon": "386996871",
                "operator": "Powiat Stalowowolski",
                "operator:type": "government",
                "amenity": "school",
                "note": "Parent RSPO: 26373"
            }
        },
        {
            "id": 21139,
            "type": "Feature",
            "geometry": {
                "type": "Point",
                "coordinates": [
                    22.04832,
                    50.59399
                ]
            },
            "properties": {
                "ref:rspo": 21139,
                "official_name": "Przedszkole nr 5 im.juliana Tuwima w Stalowej Woli",
                "name": "Przedszkole nr 5 im.juliana Tuwima w Stalowej Woli",
                "addr:postcode": "37-464",
                "addr:city": "Stalowa Wola",
                "addr:street": "Mieszka I-go",
                "addr:housenumber": "5",
                "addr:city:simc": 981133,
                "addr:street:sym_ul": 52703,
                "phone": "+48 158440325",
                "email": "mieszko5@wp.pl",
                "website": "http:\/\/www.przedszkole5.stalowawola.pl",
                "ref:regon": "830220710",
                "ref:vatin": "PL8651776579",
                "operator": "Gmina Stalowa Wola",
                "operator:type": "government",
                "amenity": "kindergarten"
            }
        }
    ]
}