{
    "type": "FeatureCollection",
    "features": [
        {
            "id": 23852,
            "type": "Feature",
            "geometry": {
                "type": "Point",
                "coordinates": [
                    22.06612,
                    50.62146
                ]
            },
            "properties": {
                "isced:level": "1;2",
                "ref:rspo": 23852,
                "official_name": "Publiczna Szko\u0142a Podstawowa im. Tadeusza Ko\u015bciuszki w Rzeczycy D\u0142ugiej",
                "name": "Publiczna Szko\u0142a Podstawowa",
                "addr:postcode": "37-455",
                "addr:place": "Rzeczyca D\u0142uga",
                "addr:housenumber": "176",
                "addr:city:simc": 805117,
                "phone": "+48 158453076",
                "email": "zsrzeczycadluga@poczta.onet.pl",
                "website": "http:\/\/www.rzeczyca-dluga.pl",
                "ref:regon": "001186863",
                "ref:vatin": "PL8651657320",
                "operator": "Gmina Radomy\u015bl Nad Sanem",
                "operator:type": "government",
                "amenity": "school"
            }
        },
        {
            "id": 272367,
            "type": "Feature",
            "geometry": {
                "type": "Point",
                "coordinates": [
                    22.06612,
                    50.62143
                ]
            },
            "properties": {
                "ref:rspo": 272367,
                "official_name": "Punkt Przedszkolny w Rzeczycy D\u0142ugiej",
                "name": "Punkt Przedszkolny w Rzeczycy D\u0142ugiej",
                "addr:postcode": "37-455",
                "addr:place": "Rzeczyca D\u0142uga",
                "addr:housenumber": "176",
                "addr:city:simc": 805117,
                "phone": "+48 158453076",
                "email": "zsrzeczycadluga@poczta.onet.pl",
                "website": "http:\/\/www.rzeczyca-dluga.pl",
                "ref:regon": "384151508",
                "operator": "Stowarzyszenie Mieszka\u0144c\u00f3w Rzeczycy D\u0142ugiej I Musikowa",
                "operator:type": "ngo",
                "amenity": "kindergarten"
            }
        },
        {
            "id": 44685,
            "type": "Feature",
            "geometry": {
                "type": "Point",
                "coordinates": [
                    22.01926,
                    50.65747
                ]
            },
            "properties": {
                "isced:level": "1;2",
                "ref:rspo": 44685,
                "official_name": "Publiczna Szko\u0142a Podstawowa im. Jana Paw\u0142a II w Woli Rzeczyckiej",
                "name": "Publiczna Szko\u0142a Podstawowa",
                "addr:postcode": "37-455",
                "addr:place": "Wola Rzeczycka",
                "addr:housenumber": "254",
                "addr:city:simc": 805318,
                "phone": "+48 158453002",
                "email": "psp_wolarzecz@interia.pl",
                "website": "http:\/\/wolarzeczycka.edu.pl",
                "ref:regon": "001186857",
                "ref:vatin": "PL8652265527",
                "operator": "Gmina Radomy\u015bl Nad Sanem",
                "operator:type": "government",
                "amenity": "school"
            }
        },
        {
            "id": 55424,
            "type": "Feature",
            "geometry": {
                "type": "Point",
                "coordinates": [
                    22.01926,
                    50.65744
                ]
            },
            "properties": {
                "ref:rspo": 55424,
                "official_name": "Punkt Przedszkolny w Woli Rzeczyckiej",
                "name": "Punkt Przedszkolny w Woli Rzeczyckiej",
                "addr:postcode": "37-455",
                "addr:place": "Wola Rzeczycka",
                "addr:housenumber": "254",
                "addr:city:simc": 805318,
                "phone": "+48 158453002",
                "email": "psp_wolarzecz@interia.pl",
                "ref:regon": "180900362",
                "operator": "Stowarzyszenie Na Rzecz Wspierania Inicjatyw Lokalnych W Woli Rzeczyckiej",
                "operator:type": "ngo",
                "amenity": "kindergarten"
            }
        },
        {
            "id": 49760,
            "type": "Feature",
            "geometry": {
                "type": "Point",
                "coordinates": [
                    21.9393,
                    50.67892
                ]
            },
            "properties": {
                "ref:rspo": 49760,
                "official_name": "Zesp\u00f3\u0142 Szk\u00f3\u0142 w Radomy\u015blu Nad Sanem",
                "name": "Zesp\u00f3\u0142 Szk\u00f3\u0142 w Radomy\u015blu Nad Sanem",
                "addr:postcode": "37-455",
                "addr:city": "Radomy\u015bl nad Sanem",
                "addr:street": "Legion\u00f3w",
                "addr:housenumber": "22",
                "addr:city:simc": 805040,
                "addr:street:sym_ul": 10769,
                "phone": "+48 158454312",
                "email": "szkola@radomysl.pl",
                "website": "http:\/\/www.zsradomysl.szkolnastrona.pl",
                "ref:regon": "180055240",
                "ref:vatin": "PL8652471379",
                "operator": "Gmina Radomy\u015bl Nad Sanem",
                "operator:type": "government",
                "landuse": "education",
                "fixme": "amenity=school, amenity=college albo landuse=education w zale\u017cno\u015bci od tego, jakie plac\u00f3wki wchodz\u0105 w sk\u0142ad zespo\u0142u. Sprawd\u017a, kiedy stosowa\u0107 amenity=* a kiedy landuse=education.",
                "note": "Children RSPO: 52869;56332"
            }
        },
        {
            "id": 52869,
            "type": "Feature",
            "geometry": {
                "type": "Point",
                "coordinates": [
                    21.9393,
                    50.678889999999996
                ]
            },
            "properties": {
                "ref:rspo": 52869,
                "official_name": "Gminne Przedszkole Publiczne w Radomy\u015blu Nad Sanem",
                "name": "Gminne Przedszkole Publiczne w Radomy\u015blu Nad Sanem",
                "addr:postcode": "37-455",
                "addr:city": "Radomy\u015bl nad Sanem",
                "addr:street": "Legion\u00f3w",
                "addr:housenumber": "22",
                "addr:city:simc": 805040,
                "addr:street:sym_ul": 10769,
                "phone": "+48 158454312",
                "email": "szkola@radomysl.pl",
                "website": "http:\/\/www.zsradomysl.szkolnastrona.pl",
                "ref:regon": "830006655",
                "ref:vatin": "PL8651657544",
                "operator": "Gmina Radomy\u015bl Nad Sanem",
                "operator:type": "government",
                "amenity": "kindergarten",
                "note": "Parent RSPO: 49760"
            }
        },
        {
            "id": 56332,
            "type": "Feature",
            "geometry": {
                "type": "Point",
                "coordinates": [
                    21.9393,
                    50.67886
                ]
            },
            "properties": {
                "isced:level": "1;2",
                "ref:rspo": 56332,
                "official_name": "Publiczna Szko\u0142a Podstawowa im. Jana Wiktora w Radomy\u015blu Nad Sanem",
                "name": "Publiczna Szko\u0142a Podstawowa",
                "addr:postcode": "37-455",
                "addr:city": "Radomy\u015bl nad Sanem",
                "addr:street": "Legion\u00f3w",
                "addr:housenumber": "22",
                "addr:city:simc": 805040,
                "addr:street:sym_ul": 10769,
                "phone": "+48 158454312",
                "email": "szkola@radomysl.pl",
                "website": "http:\/\/www.zsradomysl.szkolnastrona.pl",
                "ref:regon": "000641970",
                "ref:vatin": "PL8651657165",
                "operator": "Gmina Radomy\u015bl Nad Sanem",
                "operator:type": "government",
                "amenity": "school",
                "note": "Parent RSPO: 49760"
            }
        },
        {
            "id": 49888,
            "type": "Feature",
            "geometry": {
                "type": "Point",
                "coordinates": [
                    21.89029,
                    50.72636
                ]
            },
            "properties": {
                "isced:level": "1;2",
                "ref:rspo": 49888,
                "official_name": "Publiczna Szko\u0142a Podstawowa im. Gen. Kazimierza Sosnkowskiego w Antoniowie",
                "name": "Publiczna Szko\u0142a Podstawowa",
                "addr:postcode": "37-455",
                "addr:place": "Antoni\u00f3w",
                "addr:housenumber": "33",
                "addr:city:simc": 804649,
                "phone": "+48 158453304",
                "email": "zsantoniow@radomysl.pl",
                "website": "http:\/\/antoniow.edu.pl",
                "ref:regon": "001186834",
                "ref:vatin": "PL8651657389",
                "operator": "Gmina Radomy\u015bl Nad Sanem",
                "operator:type": "government",
                "amenity": "school"
            }
        },
        {
            "id": 58551,
            "type": "Feature",
            "geometry": {
                "type": "Point",
                "coordinates": [
                    21.89029,
                    50.72633
                ]
            },
            "properties": {
                "ref:rspo": 58551,
                "official_name": "Przedszkole Alternatywne",
                "name": "Przedszkole Alternatywne",
                "addr:postcode": "37-455",
                "addr:place": "Antoni\u00f3w",
                "addr:housenumber": "33",
                "addr:city:simc": 804649,
                "phone": "+48 158453304",
                "email": "pandoz-antoniow@wp.pl",
                "ref:regon": "180904609",
                "operator": "Stowarzyszenie Pandoz - Inicjatywa Rozwoju",
                "operator:type": "ngo",
                "amenity": "kindergarten"
            }
        },
        {
            "id": 53485,
            "type": "Feature",
            "geometry": {
                "type": "Point",
                "coordinates": [
                    21.8863179,
                    50.7719034
                ]
            },
            "properties": {
                "ref:rspo": 53485,
                "official_name": "Punkt Przedszkolny Jasia I Ma\u0142gosi w Chwa\u0142owicach",
                "name": "Punkt Przedszkolny Jasia I Ma\u0142gosi w Chwa\u0142owicach",
                "addr:postcode": "37-455",
                "addr:place": "Chwa\u0142owice",
                "addr:housenumber": "130",
                "addr:city:simc": 804690,
                "phone": "+48 158453353",
                "email": "swil@onet.pl",
                "ref:regon": "180900215",
                "operator": "Stowarzyszenie Wspierania Inicjatyw Lokalnych W Chwa\u0142owicach",
                "operator:type": "ngo",
                "amenity": "kindergarten"
            }
        },
        {
            "id": 56192,
            "type": "Feature",
            "geometry": {
                "type": "Point",
                "coordinates": [
                    21.8863179,
                    50.7718734
                ]
            },
            "properties": {
                "isced:level": "1;2",
                "ref:rspo": 56192,
                "official_name": "Publiczna Szko\u0142a Podstawowa im. Jana Paw\u0142a II w Chwa\u0142owicach",
                "name": "Publiczna Szko\u0142a Podstawowa",
                "addr:postcode": "37-455",
                "addr:place": "Chwa\u0142owice",
                "addr:housenumber": "130",
                "addr:city:simc": 804690,
                "phone": "+48 158453353",
                "email": "zschwalowice@op.pl",
                "ref:regon": "001186840",
                "ref:vatin": "PL8651657455",
                "operator": "Gmina Radomy\u015bl Nad Sanem",
                "operator:type": "government",
                "amenity": "school"
            }
        }
    ]
}