{
    "type": "FeatureCollection",
    "features": [
        {
            "id": 19163,
            "type": "Feature",
            "geometry": {
                "type": "Point",
                "coordinates": [
                    18.90295,
                    50.27986
                ]
            },
            "properties": {
                "ref:rspo": 19163,
                "official_name": "Salezja\u0144ski Zesp\u00f3\u0142 Szk\u00f3\u0142 Publicznych Don Bosko w \u015awi\u0119toch\u0142owicach",
                "name": "Salezja\u0144ski Zesp\u00f3\u0142 Szk\u00f3\u0142 Publicznych Don Bosko w \u015awi\u0119toch\u0142owicach",
                "addr:postcode": "41-603",
                "addr:city": "\u015awi\u0119toch\u0142owice",
                "addr:street": "Wojska Polskiego",
                "addr:housenumber": "82",
                "addr:city:simc": 943724,
                "addr:street:sym_ul": 24628,
                "phone": "+48 323452166",
                "email": "swietochlowice@salezjanie.com.pl",
                "website": "http:\/\/www.salezjanie.com.pl",
                "ref:regon": "243056660",
                "ref:vatin": "PL6272397718",
                "operator": "Towarzystwo Salezja\u0144skie Inspektoria Krakowska P.w. \u015aw.jacka",
                "operator:type": "religious",
                "landuse": "education",
                "fixme": "amenity=school, amenity=college albo landuse=education w zale\u017cno\u015bci od tego, jakie plac\u00f3wki wchodz\u0105 w sk\u0142ad zespo\u0142u. Sprawd\u017a, kiedy stosowa\u0107 amenity=* a kiedy landuse=education.",
                "note": "Children RSPO: 66146;66147;196343"
            }
        },
        {
            "id": 66146,
            "type": "Feature",
            "geometry": {
                "type": "Point",
                "coordinates": [
                    18.90295,
                    50.27983
                ]
            },
            "properties": {
                "isced:level": "3",
                "ref:rspo": 66146,
                "official_name": "Salezja\u0144skie Publiczne Liceum Og\u00f3lnokszta\u0142c\u0105ce w \u015awi\u0119toch\u0142owicach",
                "name": "Salezja\u0144skie Publiczne Liceum Og\u00f3lnokszta\u0142c\u0105ce w \u015awi\u0119toch\u0142owicach",
                "addr:postcode": "41-603",
                "addr:city": "\u015awi\u0119toch\u0142owice",
                "addr:street": "Wojska Polskiego",
                "addr:housenumber": "82",
                "addr:city:simc": 943724,
                "addr:street:sym_ul": 24628,
                "phone": "+48 323542166",
                "email": "swietochlowice@salezjanie.com.pl",
                "website": "http:\/\/www.salezjanie.com.pl",
                "ref:regon": "243085643",
                "operator": "Towarzystwo Salezja\u0144skie Inspektoria Krakowska P.w. \u015aw.jacka",
                "operator:type": "religious",
                "amenity": "school",
                "note": "Parent RSPO: 19163"
            }
        },
        {
            "id": 66147,
            "type": "Feature",
            "geometry": {
                "type": "Point",
                "coordinates": [
                    18.90295,
                    50.2798
                ]
            },
            "properties": {
                "isced:level": "3",
                "ref:rspo": 66147,
                "official_name": "Salezja\u0144skie Publiczne Technikum w \u015awi\u0119toch\u0142owicach",
                "name": "Salezja\u0144skie Publiczne Technikum w \u015awi\u0119toch\u0142owicach",
                "addr:postcode": "41-603",
                "addr:city": "\u015awi\u0119toch\u0142owice",
                "addr:street": "Wojska Polskiego",
                "addr:housenumber": "82",
                "addr:city:simc": 943724,
                "addr:street:sym_ul": 24628,
                "phone": "+48 323452166",
                "email": "swietochlowice@salezjanie.com.pl",
                "website": "http:\/\/www.salezjanie.com.pl",
                "ref:regon": "243085650",
                "operator": "Towarzystwo Salezja\u0144skie Inspektoria Krakowska P.w. \u015aw.jacka",
                "operator:type": "religious",
                "amenity": "school",
                "note": "Parent RSPO: 19163"
            }
        },
        {
            "id": 196343,
            "type": "Feature",
            "geometry": {
                "type": "Point",
                "coordinates": [
                    18.90295,
                    50.27977
                ]
            },
            "properties": {
                "isced:level": "1;2",
                "ref:rspo": 196343,
                "official_name": "Salezja\u0144ska Publiczna Szko\u0142a Podstawowa w \u015awi\u0119toch\u0142owicach",
                "name": "Salezja\u0144ska Publiczna Szko\u0142a Podstawowa w \u015awi\u0119toch\u0142owicach",
                "addr:postcode": "41-603",
                "addr:city": "\u015awi\u0119toch\u0142owice",
                "addr:street": "Wojska Polskiego",
                "addr:housenumber": "82",
                "addr:city:simc": 943724,
                "addr:street:sym_ul": 24628,
                "phone": "+48 323452166",
                "email": "swietochlowice@salezjanie.com.pl",
                "website": "http:\/\/salezjanie.eu",
                "ref:regon": "367993850",
                "operator": "Towarzystwo Salezja\u0144skie Inspektoria Krakowska P.w. \u015aw.jacka",
                "operator:type": "religious",
                "amenity": "school",
                "note": "Parent RSPO: 19163"
            }
        },
        {
            "id": 131693,
            "type": "Feature",
            "geometry": {
                "type": "Point",
                "coordinates": [
                    18.91358,
                    50.28194
                ]
            },
            "properties": {
                "ref:rspo": 131693,
                "official_name": "Niepubliczne Przedszkole Pingwinki w \u015awi\u0119toch\u0142owicach",
                "name": "Niepubliczne Przedszkole Pingwinki w \u015awi\u0119toch\u0142owicach",
                "addr:postcode": "41-600",
                "addr:city": "\u015awi\u0119toch\u0142owice",
                "addr:street": "\u015al\u0105ska",
                "addr:housenumber": "23\/I",
                "addr:city:simc": 943724,
                "addr:street:sym_ul": 22308,
                "phone": "+48 600379244",
                "email": "teresasc@interia.pl",
                "website": "http:\/\/zlobek.one.pl",
                "ref:regon": "365328539",
                "operator": "Teresa Cyl P. W. Opieka Nad Dzie\u0107mi Pingwinki",
                "operator:type": "consortium",
                "amenity": "kindergarten"
            }
        },
        {
            "id": 19156,
            "type": "Feature",
            "geometry": {
                "type": "Point",
                "coordinates": [
                    18.9087795,
                    50.2825233
                ]
            },
            "properties": {
                "ref:rspo": 19156,
                "official_name": "Przedszkole Miejskie Nr 4 w \u015awi\u0119toch\u0142owicach",
                "name": "Przedszkole Miejskie Nr 4 w \u015awi\u0119toch\u0142owicach",
                "addr:postcode": "41-603",
                "addr:city": "\u015awi\u0119toch\u0142owice",
                "addr:street": "Andrzeja Miel\u0119ckiego",
                "addr:housenumber": "19",
                "addr:city:simc": 943724,
                "addr:street:sym_ul": 12792,
                "phone": "+48 322452785",
                "email": "pm4swietochlowice@gmail.com",
                "website": "http:\/\/pm4swietochlowice.pl",
                "ref:regon": "271509676",
                "ref:vatin": "PL6271263849",
                "operator": "Gmina \u015awi\u0119toch\u0142owice",
                "operator:type": "government",
                "amenity": "kindergarten"
            }
        },
        {
            "id": 272156,
            "type": "Feature",
            "geometry": {
                "type": "Point",
                "coordinates": [
                    18.90853,
                    50.2827
                ]
            },
            "properties": {
                "ref:rspo": 272156,
                "official_name": "Zesp\u00f3\u0142 Edukacji Wspomagaj\u0105cej",
                "name": "Zesp\u00f3\u0142 Edukacji Wspomagaj\u0105cej",
                "addr:postcode": "41-600",
                "addr:city": "\u015awi\u0119toch\u0142owice",
                "addr:street": "Wojska Polskiego",
                "addr:housenumber": "75",
                "addr:city:simc": 943724,
                "addr:street:sym_ul": 24628,
                "phone": "+48 322411456",
                "email": "sekretariat@zew.swietochlowice.pl",
                "website": "http:\/\/zew.swietochlowice.pl",
                "ref:regon": "383979547",
                "operator": "Gmina \u015awi\u0119toch\u0142owice",
                "operator:type": "government",
                "landuse": "education",
                "fixme": "amenity=school, amenity=college albo landuse=education w zale\u017cno\u015bci od tego, jakie plac\u00f3wki wchodz\u0105 w sk\u0142ad zespo\u0142u. Sprawd\u017a, kiedy stosowa\u0107 amenity=* a kiedy landuse=education.",
                "note": "Children RSPO: 79112;123512"
            }
        },
        {
            "id": 79112,
            "type": "Feature",
            "geometry": {
                "type": "Point",
                "coordinates": [
                    18.90853,
                    50.282669999999996
                ]
            },
            "properties": {
                "isced:level": "3",
                "ref:rspo": 79112,
                "official_name": "Bran\u017cowa Szko\u0142a Specjalna I Stopnia Nr 2 w \u015awi\u0119toch\u0142owicach",
                "name": "Bran\u017cowa Szko\u0142a Specjalna I Stopnia Nr 2 w \u015awi\u0119toch\u0142owicach",
                "addr:postcode": "41-600",
                "addr:city": "\u015awi\u0119toch\u0142owice",
                "addr:street": "Wojska Polskiego",
                "addr:housenumber": "75",
                "addr:city:simc": 943724,
                "addr:street:sym_ul": 24628,
                "phone": "+48 322411456",
                "email": "sekretariat@zew.swietochlowice.pl",
                "website": "http:\/\/www.zew.swietochlowice.pl",
                "ref:regon": "277874371",
                "operator": "Gmina \u015awi\u0119toch\u0142owice",
                "operator:type": "government",
                "amenity": "school",
                "note": "Parent RSPO: 272156"
            }
        },
        {
            "id": 123512,
            "type": "Feature",
            "geometry": {
                "type": "Point",
                "coordinates": [
                    18.90853,
                    50.28264
                ]
            },
            "properties": {
                "ref:rspo": 123512,
                "official_name": "Szko\u0142a Specjalna Przysposabiaj\u0105ca Do Pracy w \u015awi\u0119toch\u0142owicach",
                "name": "Szko\u0142a Specjalna Przysposabiaj\u0105ca Do Pracy w \u015awi\u0119toch\u0142owicach",
                "addr:postcode": "41-600",
                "addr:city": "\u015awi\u0119toch\u0142owice",
                "addr:street": "Wojska Polskiego",
                "addr:housenumber": "75",
                "addr:city:simc": 943724,
                "addr:street:sym_ul": 24628,
                "phone": "+48 322411456",
                "email": "sekretariat@zew.swietochlowice.pl",
                "website": "http:\/\/www.zew.swietochlowice.pl",
                "ref:regon": "243613208",
                "operator": "Gmina \u015awi\u0119toch\u0142owice",
                "operator:type": "government",
                "amenity": "school",
                "note": "Parent RSPO: 272156"
            }
        },
        {
            "id": 19160,
            "type": "Feature",
            "geometry": {
                "type": "Point",
                "coordinates": [
                    18.92794,
                    50.28335
                ]
            },
            "properties": {
                "ref:rspo": 19160,
                "official_name": "Przedszkole Miejskie Nr 11 w \u015awi\u0119toch\u0142owicach",
                "name": "Przedszkole Miejskie Nr 11 w \u015awi\u0119toch\u0142owicach",
                "addr:postcode": "41-600",
                "addr:city": "\u015awi\u0119toch\u0142owice",
                "addr:street": "Hajduki",
                "addr:housenumber": "14",
                "addr:city:simc": 943724,
                "addr:street:sym_ul": 6461,
                "phone": "+48 322453823",
                "email": "przedszkole11@interia.eu",
                "website": "http:\/\/www.pm11.pl",
                "ref:regon": "271509720",
                "ref:vatin": "PL6271263660",
                "operator": "Gmina \u015awi\u0119toch\u0142owice",
                "operator:type": "government",
                "amenity": "kindergarten"
            }
        },
        {
            "id": 19165,
            "type": "Feature",
            "geometry": {
                "type": "Point",
                "coordinates": [
                    18.93542,
                    50.28373
                ]
            },
            "properties": {
                "isced:level": "1;2",
                "ref:rspo": 19165,
                "official_name": "Szko\u0142a Podstawowa Z Oddzia\u0142ami Integracyjnymi Nr 17 im. Gustawa Morcinka w \u015awi\u0119toch\u0142owicach",
                "name": "Szko\u0142a Podstawowa Z Oddzia\u0142ami Integracyjnymi Nr 17",
                "addr:postcode": "41-608",
                "addr:city": "\u015awi\u0119toch\u0142owice",
                "addr:street": "Armii Krajowej",
                "addr:housenumber": "14",
                "addr:city:simc": 943724,
                "addr:street:sym_ul": 432,
                "phone": "+48 322454939",
                "email": "sp17_68@o2.pl",
                "website": "http:\/\/www.sp17.sw-ce.superszkolna.pl",
                "ref:regon": "000725306",
                "ref:vatin": "PL6271263016",
                "operator": "Gmina \u015awi\u0119toch\u0142owice",
                "operator:type": "government",
                "amenity": "school"
            }
        },
        {
            "id": 278233,
            "type": "Feature",
            "geometry": {
                "type": "Point",
                "coordinates": [
                    18.9063,
                    50.28978
                ]
            },
            "properties": {
                "ref:rspo": 278233,
                "official_name": "Zesp\u00f3\u0142 Szkolno-Przedszkolny",
                "name": "Zesp\u00f3\u0142 Szkolno-Przedszkolny",
                "addr:postcode": "41-600",
                "addr:city": "\u015awi\u0119toch\u0142owice",
                "addr:street": "Fryderyka Chopina",
                "addr:housenumber": "1",
                "addr:city:simc": 943724,
                "addr:street:sym_ul": 2849,
                "phone": "+48 322453835",
                "email": "swsp3@wp.pl",
                "ref:regon": "389855639",
                "ref:vatin": "PL6272773877",
                "operator": "Gmina \u015awi\u0119toch\u0142owice",
                "operator:type": "government",
                "landuse": "education",
                "fixme": "amenity=school, amenity=college albo landuse=education w zale\u017cno\u015bci od tego, jakie plac\u00f3wki wchodz\u0105 w sk\u0142ad zespo\u0142u. Sprawd\u017a, kiedy stosowa\u0107 amenity=* a kiedy landuse=education.",
                "note": "Children RSPO: 19132;19153"
            }
        },
        {
            "id": 19132,
            "type": "Feature",
            "geometry": {
                "type": "Point",
                "coordinates": [
                    18.9063,
                    50.28975
                ]
            },
            "properties": {
                "isced:level": "1;2",
                "ref:rspo": 19132,
                "official_name": "Szko\u0142a Podstawowa Nr 3 im.henryka Sienkiewicza w \u015awi\u0119toch\u0142owicach",
                "name": "Szko\u0142a Podstawowa Nr 3 im.henryka Sienkiewicza w \u015awi\u0119toch\u0142owicach",
                "addr:postcode": "41-600",
                "addr:city": "\u015awi\u0119toch\u0142owice",
                "addr:street": "Fryderyka Chopina",
                "addr:housenumber": "1",
                "addr:city:simc": 943724,
                "addr:street:sym_ul": 2849,
                "phone": "+48 322453835",
                "email": "swsp3@wp.pl",
                "website": "http:\/\/www.swsp3.edupage.org",
                "ref:regon": "000725223",
                "ref:vatin": "PL6271262809",
                "operator": "Gmina \u015awi\u0119toch\u0142owice",
                "operator:type": "government",
                "amenity": "school",
                "note": "Parent RSPO: 278233"
            }
        },
        {
            "id": 74025,
            "type": "Feature",
            "geometry": {
                "type": "Point",
                "coordinates": [
                    18.92942,
                    50.29013
                ]
            },
            "properties": {
                "isced:level": "3",
                "ref:rspo": 74025,
                "official_name": "I Liceum Og\u00f3lnokszta\u0142c\u0105ce im. Jana Kochanowskiego w \u015awi\u0119toch\u0142owicach",
                "name": "I Liceum Og\u00f3lnokszta\u0142c\u0105ce",
                "addr:postcode": "41-600",
                "addr:city": "\u015awi\u0119toch\u0142owice",
                "addr:street": "Licealna",
                "addr:housenumber": "1",
                "addr:city:simc": 943724,
                "addr:street:sym_ul": 11033,
                "phone": "+48 322452797",
                "email": "lo1swiet@gmail.com",
                "website": "http:\/\/www.lo1-kochanowski.pl",
                "ref:regon": "000783901",
                "ref:vatin": "PL6271263424",
                "operator": "Gmina \u015awi\u0119toch\u0142owice",
                "operator:type": "government",
                "amenity": "school"
            }
        },
        {
            "id": 19130,
            "type": "Feature",
            "geometry": {
                "type": "Point",
                "coordinates": [
                    18.92458,
                    50.2904399
                ]
            },
            "properties": {
                "isced:level": "1;2",
                "ref:rspo": 19130,
                "official_name": "Szko\u0142a Podstawowa Nr 2 w \u015awi\u0119toch\u0142owicach",
                "name": "Szko\u0142a Podstawowa Nr 2 w \u015awi\u0119toch\u0142owicach",
                "addr:postcode": "41-600",
                "addr:city": "\u015awi\u0119toch\u0142owice",
                "addr:street": "Wyzwolenia",
                "addr:housenumber": "50",
                "addr:city:simc": 943724,
                "addr:street:sym_ul": 25133,
                "phone": "+48 322455217",
                "email": "sp2swiet@interia.pl",
                "website": "http:\/\/www.sp2.swietochlowice.org.pl",
                "ref:regon": "000725217",
                "ref:vatin": "PL6271262778",
                "operator": "Gmina \u015awi\u0119toch\u0142owice",
                "operator:type": "government",
                "amenity": "school"
            }
        },
        {
            "id": 19154,
            "type": "Feature",
            "geometry": {
                "type": "Point",
                "coordinates": [
                    18.92338,
                    50.2914699
                ]
            },
            "properties": {
                "ref:rspo": 19154,
                "official_name": "Przedszkole Miejskie Nr 2 Pod S\u0142onkiem w \u015awi\u0119toch\u0142owicach",
                "name": "Przedszkole Miejskie Nr 2 Pod S\u0142onkiem w \u015awi\u0119toch\u0142owicach",
                "addr:postcode": "41-600",
                "addr:city": "\u015awi\u0119toch\u0142owice",
                "addr:street": "Wodna",
                "addr:housenumber": "13",
                "addr:city:simc": 943724,
                "addr:street:sym_ul": 24550,
                "phone": "+48 322453310",
                "email": "pm2swietochlowice@onet.eu",
                "website": "http:\/\/pm2swietochlowice.superszkolna.pl",
                "ref:regon": "271509653",
                "ref:vatin": "PL6271263921",
                "operator": "Gmina \u015awi\u0119toch\u0142owice",
                "operator:type": "government",
                "amenity": "kindergarten"
            }
        },
        {
            "id": 19153,
            "type": "Feature",
            "geometry": {
                "type": "Point",
                "coordinates": [
                    18.9047051,
                    50.2917584
                ]
            },
            "properties": {
                "ref:rspo": 19153,
                "official_name": "Przedszkole Miejskie Nr 1 w \u015awi\u0119toch\u0142owicach",
                "name": "Przedszkole Miejskie Nr 1 w \u015awi\u0119toch\u0142owicach",
                "addr:postcode": "41-600",
                "addr:city": "\u015awi\u0119toch\u0142owice",
                "addr:street": "Karola Miarki",
                "addr:housenumber": "1",
                "addr:city:simc": 943724,
                "addr:street:sym_ul": 12674,
                "phone": "+48 322454912",
                "email": "przedszkole_miejskie@interia.pl",
                "website": "http:\/\/www.pm1swietochlowice.superszkolna.pl",
                "ref:regon": "271509647",
                "ref:vatin": "PL6271263795",
                "operator": "Gmina \u015awi\u0119toch\u0142owice",
                "operator:type": "government",
                "amenity": "kindergarten",
                "note": "Parent RSPO: 278233"
            }
        },
        {
            "id": 19166,
            "type": "Feature",
            "geometry": {
                "type": "Point",
                "coordinates": [
                    18.92265,
                    50.29229
                ]
            },
            "properties": {
                "isced:level": "1;2",
                "ref:rspo": 19166,
                "official_name": "Szko\u0142a Podstawowa Nr 4 im. Tadeusza Ko\u015bciuszki w \u015awi\u0119toch\u0142owicach",
                "name": "Szko\u0142a Podstawowa Nr 4",
                "addr:postcode": "41-600",
                "addr:city": "\u015awi\u0119toch\u0142owice",
                "addr:street": "Szkolna",
                "addr:housenumber": "17",
                "addr:city:simc": 943724,
                "addr:street:sym_ul": 21970,
                "phone": "+48 322452923",
                "email": "sp4swietochlowice@onet.eu",
                "website": "http:\/\/sp4sw.edupage.org",
                "ref:regon": "000725230",
                "ref:vatin": "PL6271263619",
                "operator": "Gmina \u015awi\u0119toch\u0142owice",
                "operator:type": "government",
                "amenity": "school"
            }
        },
        {
            "id": 19150,
            "type": "Feature",
            "geometry": {
                "type": "Point",
                "coordinates": [
                    18.91207,
                    50.2932599
                ]
            },
            "properties": {
                "ref:rspo": 19150,
                "official_name": "Zesp\u00f3\u0142 Szk\u00f3\u0142 Technicznych I Zawodowych im. Augustyna \u015awidra w \u015awi\u0119toch\u0142owicach",
                "name": "Zesp\u00f3\u0142 Szk\u00f3\u0142 Technicznych I Zawodowych",
                "addr:postcode": "41-600",
                "addr:city": "\u015awi\u0119toch\u0142owice",
                "addr:street": "W\u0142adys\u0142awa Sikorskiego",
                "addr:housenumber": "9",
                "addr:city:simc": 943724,
                "addr:street:sym_ul": 19914,
                "phone": "+48 327700060",
                "email": "zspswiet@wp.pl",
                "website": "http:\/\/www.zstiz.pl",
                "ref:regon": "000200590",
                "ref:vatin": "PL6271263507",
                "operator": "Gmina \u015awi\u0119toch\u0142owice",
                "operator:type": "government",
                "landuse": "education",
                "fixme": "amenity=school, amenity=college albo landuse=education w zale\u017cno\u015bci od tego, jakie plac\u00f3wki wchodz\u0105 w sk\u0142ad zespo\u0142u. Sprawd\u017a, kiedy stosowa\u0107 amenity=* a kiedy landuse=education.",
                "note": "Children RSPO: 80811;80813;80816;80824;82792;126011;196328"
            }
        },
        {
            "id": 80811,
            "type": "Feature",
            "geometry": {
                "type": "Point",
                "coordinates": [
                    18.91207,
                    50.2932299
                ]
            },
            "properties": {
                "isced:level": "3",
                "ref:rspo": 80811,
                "official_name": "Bran\u017cowa Szko\u0142a I Stopnia Nr 1 w \u015awi\u0119toch\u0142owicach",
                "name": "Bran\u017cowa Szko\u0142a I Stopnia Nr 1 w \u015awi\u0119toch\u0142owicach",
                "addr:postcode": "41-600",
                "addr:city": "\u015awi\u0119toch\u0142owice",
                "addr:street": "W\u0142adys\u0142awa Sikorskiego",
                "addr:housenumber": "9",
                "addr:city:simc": 943724,
                "addr:street:sym_ul": 19914,
                "phone": "+48 327700060",
                "email": "zspswiet@wp.pl",
                "website": "http:\/\/www.zstiz.pl",
                "ref:regon": "000026063",
                "operator": "Gmina \u015awi\u0119toch\u0142owice",
                "operator:type": "government",
                "amenity": "school",
                "note": "Parent RSPO: 19150"
            }
        },
        {
            "id": 80813,
            "type": "Feature",
            "geometry": {
                "type": "Point",
                "coordinates": [
                    18.91207,
                    50.293199900000005
                ]
            },
            "properties": {
                "isced:level": "3",
                "ref:rspo": 80813,
                "official_name": "Technikum w \u015awi\u0119toch\u0142owicach",
                "name": "Technikum w \u015awi\u0119toch\u0142owicach",
                "addr:postcode": "41-600",
                "addr:city": "\u015awi\u0119toch\u0142owice",
                "addr:street": "W\u0142adys\u0142awa Sikorskiego",
                "addr:housenumber": "9",
                "addr:city:simc": 943724,
                "addr:street:sym_ul": 19914,
                "phone": "+48 327700060",
                "email": "zspswiet@wp.pl",
                "website": "http:\/\/www.zstiz.pl",
                "ref:regon": "278108271",
                "operator": "Gmina \u015awi\u0119toch\u0142owice",
                "operator:type": "government",
                "amenity": "school",
                "note": "Parent RSPO: 19150"
            }
        },
        {
            "id": 80816,
            "type": "Feature",
            "geometry": {
                "type": "Point",
                "coordinates": [
                    18.91207,
                    50.2931699
                ]
            },
            "properties": {
                "isced:level": "4",
                "ref:rspo": 80816,
                "official_name": "Szko\u0142a Policealna w \u015awi\u0119toch\u0142owicach",
                "name": "Szko\u0142a Policealna w \u015awi\u0119toch\u0142owicach",
                "addr:postcode": "41-600",
                "addr:city": "\u015awi\u0119toch\u0142owice",
                "addr:street": "W\u0142adys\u0142awa Sikorskiego",
                "addr:housenumber": "9",
                "addr:city:simc": 943724,
                "addr:street:sym_ul": 19914,
                "phone": "+48 327700060",
                "email": "a.niescior@wp.pl",
                "website": "http:\/\/www.zseu.com.pl",
                "ref:regon": "278106510",
                "operator": "Gmina \u015awi\u0119toch\u0142owice",
                "operator:type": "government",
                "amenity": "college",
                "note": "Parent RSPO: 19150"
            }
        },
        {
            "id": 80824,
            "type": "Feature",
            "geometry": {
                "type": "Point",
                "coordinates": [
                    18.91207,
                    50.2931399
                ]
            },
            "properties": {
                "ref:rspo": 80824,
                "official_name": "O\u015brodek Kszta\u0142cenia I Doskonalenia Kadr Centrum Kszta\u0142cenia Ustawicznego w Zespole Szk\u00f3\u0142 Technicznych I Zawodowych w \u015awi\u0119toch\u0142owicach",
                "name": "O\u015brodek Kszta\u0142cenia I Doskonalenia Kadr Centrum Kszta\u0142cenia Ustawicznego w Zespole Szk\u00f3\u0142 Technicznych I Zawodowych w \u015awi\u0119toch\u0142owicach",
                "addr:postcode": "41-600",
                "addr:city": "\u015awi\u0119toch\u0142owice",
                "addr:street": "W\u0142adys\u0142awa Sikorskiego",
                "addr:housenumber": "9",
                "addr:city:simc": 943724,
                "addr:street:sym_ul": 19914,
                "phone": "+48 327700060",
                "email": "zspswiet@wp.pl",
                "website": "http:\/\/www.zstiz.pl",
                "ref:regon": "241694220",
                "operator": "Gmina \u015awi\u0119toch\u0142owice",
                "operator:type": "government",
                "fixme": "w zale\u017cno\u015bci od przedmiotu dzia\u0142alno\u015bci (np. amenity=training + training=*, amenity=dancing_school, amenity=language_school, amenity=music_school)",
                "note": "Parent RSPO: 19150"
            }
        },
        {
            "id": 82792,
            "type": "Feature",
            "geometry": {
                "type": "Point",
                "coordinates": [
                    18.91207,
                    50.293109900000005
                ]
            },
            "properties": {
                "isced:level": "3",
                "ref:rspo": 82792,
                "official_name": "Liceum Og\u00f3lnokszta\u0142c\u0105ce dla Doros\u0142ych Centrum Kszta\u0142cenia Ustawicznego w Zespole Szk\u00f3\u0142 Technicznych I Zawodowych w \u015awi\u0119toch\u0142owicach",
                "name": "Liceum Og\u00f3lnokszta\u0142c\u0105ce dla Doros\u0142ych Centrum Kszta\u0142cenia Ustawicznego w Zespole Szk\u00f3\u0142 Technicznych I Zawodowych w \u015awi\u0119toch\u0142owicach",
                "addr:postcode": "41-600",
                "addr:city": "\u015awi\u0119toch\u0142owice",
                "addr:street": "W\u0142adys\u0142awa Sikorskiego",
                "addr:housenumber": "9",
                "addr:city:simc": 943724,
                "addr:street:sym_ul": 19914,
                "phone": "+48 327700060",
                "email": "zspswiet@wp.pl",
                "website": "http:\/\/www.zstiz.pl",
                "ref:regon": "241694065",
                "operator": "Gmina \u015awi\u0119toch\u0142owice",
                "operator:type": "government",
                "amenity": "school",
                "note": "Parent RSPO: 19150"
            }
        },
        {
            "id": 126011,
            "type": "Feature",
            "geometry": {
                "type": "Point",
                "coordinates": [
                    18.91207,
                    50.2930799
                ]
            },
            "properties": {
                "ref:rspo": 126011,
                "official_name": "Centrum Kszta\u0142cenia Ustawicznego w Zespole Szk\u00f3\u0142 Technicznych I Zawodowych w \u015awi\u0119toch\u0142owicach",
                "name": "Centrum Kszta\u0142cenia Ustawicznego w Zespole Szk\u00f3\u0142 Technicznych I Zawodowych w \u015awi\u0119toch\u0142owicach",
                "addr:postcode": "41-600",
                "addr:city": "\u015awi\u0119toch\u0142owice",
                "addr:street": "W\u0142adys\u0142awa Sikorskiego",
                "addr:housenumber": "9",
                "addr:city:simc": 943724,
                "addr:street:sym_ul": 19914,
                "phone": "+48 327700060",
                "email": "zspswiet@wp.pl",
                "website": "http:\/\/zstiz.pl",
                "ref:regon": "241693918",
                "ref:vatin": "PL6271263507",
                "operator": "Gmina \u015awi\u0119toch\u0142owice",
                "operator:type": "government",
                "fixme": "w zale\u017cno\u015bci od przedmiotu dzia\u0142alno\u015bci (np. amenity=training + training=*, amenity=dancing_school, amenity=language_school, amenity=music_school)",
                "note": "Parent RSPO: 19150"
            }
        },
        {
            "id": 196328,
            "type": "Feature",
            "geometry": {
                "type": "Point",
                "coordinates": [
                    18.91207,
                    50.2930499
                ]
            },
            "properties": {
                "isced:level": "1;2",
                "ref:rspo": 196328,
                "official_name": "Szko\u0142a Podstawowa dla Doros\u0142ych w \u015awi\u0119toch\u0142owicach",
                "name": "Szko\u0142a Podstawowa dla Doros\u0142ych w \u015awi\u0119toch\u0142owicach",
                "addr:postcode": "41-600",
                "addr:city": "\u015awi\u0119toch\u0142owice",
                "addr:street": "W\u0142adys\u0142awa Sikorskiego",
                "addr:housenumber": "9",
                "addr:city:simc": 943724,
                "addr:street:sym_ul": 19914,
                "phone": "+48 327700060",
                "email": "zspswiet@wp.pl",
                "website": "http:\/\/zstiz.pl",
                "ref:regon": "367993940",
                "operator": "Gmina \u015awi\u0119toch\u0142owice",
                "operator:type": "government",
                "amenity": "school",
                "note": "Parent RSPO: 19150"
            }
        },
        {
            "id": 19151,
            "type": "Feature",
            "geometry": {
                "type": "Point",
                "coordinates": [
                    18.9139,
                    50.29406
                ]
            },
            "properties": {
                "ref:rspo": 19151,
                "official_name": "M\u0142odzie\u017cowy Dom Kultury im. W\u0142adys\u0142awa Broniewskiego w \u015awi\u0119toch\u0142owicach",
                "name": "M\u0142odzie\u017cowy Dom Kultury",
                "addr:postcode": "41-600",
                "addr:city": "\u015awi\u0119toch\u0142owice",
                "addr:street": "Harcerska",
                "addr:housenumber": "1",
                "addr:city:simc": 943724,
                "addr:street:sym_ul": 6523,
                "phone": "+48 327700071",
                "email": "sekretariat@mdksw.pl",
                "website": "http:\/\/www.mdksw.pl",
                "ref:regon": "000725370",
                "ref:vatin": "PL6271263602",
                "operator": "Gmina \u015awi\u0119toch\u0142owice",
                "operator:type": "government",
                "amenity": "community_centre",
                "community_centre:for": "juvenile"
            }
        },
        {
            "id": 19161,
            "type": "Feature",
            "geometry": {
                "type": "Point",
                "coordinates": [
                    18.9105317,
                    50.2944634
                ]
            },
            "properties": {
                "ref:rspo": 19161,
                "official_name": "Przedszkole Miejskie Nr 12 w \u015awi\u0119toch\u0142owicach",
                "name": "Przedszkole Miejskie Nr 12 w \u015awi\u0119toch\u0142owicach",
                "addr:postcode": "41-600",
                "addr:city": "\u015awi\u0119toch\u0142owice",
                "addr:street": "Harcerska",
                "addr:housenumber": "10",
                "addr:city:simc": 943724,
                "addr:street:sym_ul": 6523,
                "phone": "+48 322452920",
                "email": "skrzaty.przedszkole12@gmail.com",
                "website": "http:\/\/www.pm12swietochlowice.superszkolna.pl",
                "ref:regon": "271509736",
                "ref:vatin": "PL6271263654",
                "operator": "Gmina \u015awi\u0119toch\u0142owice",
                "operator:type": "government",
                "amenity": "kindergarten"
            }
        },
        {
            "id": 19155,
            "type": "Feature",
            "geometry": {
                "type": "Point",
                "coordinates": [
                    18.91131,
                    50.29484
                ]
            },
            "properties": {
                "ref:rspo": 19155,
                "official_name": "Przedszkole Miejskie Nr 3 w \u015awi\u0119toch\u0142owicach",
                "name": "Przedszkole Miejskie Nr 3 w \u015awi\u0119toch\u0142owicach",
                "addr:postcode": "41-600",
                "addr:city": "\u015awi\u0119toch\u0142owice",
                "addr:street": "Harcerska",
                "addr:housenumber": "6",
                "addr:city:simc": 943724,
                "addr:street:sym_ul": 6523,
                "phone": "+48 323070143",
                "email": "pm3.swietochlowice@wp.pl",
                "website": "http:\/\/www.pm3swietochlowice.superszkolna.pl",
                "ref:regon": "271509660",
                "ref:vatin": "PL6271263967",
                "operator": "Gmina \u015awi\u0119toch\u0142owice",
                "operator:type": "government",
                "amenity": "kindergarten"
            }
        },
        {
            "id": 19133,
            "type": "Feature",
            "geometry": {
                "type": "Point",
                "coordinates": [
                    18.919019699097,
                    50.298160552979
                ]
            },
            "properties": {
                "isced:level": "1;2",
                "ref:rspo": 19133,
                "official_name": "Szko\u0142a Podstawowa Nr 8 im. Jana III Sobieskiego w \u015awi\u0119toch\u0142owicach",
                "name": "Szko\u0142a Podstawowa Nr 8",
                "addr:postcode": "41-600",
                "addr:city": "\u015awi\u0119toch\u0142owice",
                "addr:street": "Wi\u015bniowa",
                "addr:housenumber": "9",
                "addr:city:simc": 943724,
                "addr:street:sym_ul": 24412,
                "phone": "+48 322452636",
                "email": "sp8swietochlowice@poczta.fm",
                "website": "http:\/\/sp8swietochlowice.pl",
                "ref:regon": "000725269",
                "ref:vatin": "PL6271262896",
                "operator": "Gmina \u015awi\u0119toch\u0142owice",
                "operator:type": "government",
                "amenity": "school"
            }
        },
        {
            "id": 19131,
            "type": "Feature",
            "geometry": {
                "type": "Point",
                "coordinates": [
                    18.91426,
                    50.30194
                ]
            },
            "properties": {
                "isced:level": "1;2",
                "ref:rspo": 19131,
                "official_name": "Szko\u0142a Podstawowa Nr 1 im.mi\u0142o\u015bnik\u00f3w Ziemi \u015aL\u0105skiej w \u015awi\u0119toch\u0142owicach",
                "name": "Szko\u0142a Podstawowa Nr 1 im.mi\u0142o\u015bnik\u00f3w Ziemi \u015aL\u0105skiej w \u015awi\u0119toch\u0142owicach",
                "addr:postcode": "41-605",
                "addr:city": "\u015awi\u0119toch\u0142owice",
                "addr:street": "Juliana Zubrzyckiego",
                "addr:housenumber": "38",
                "addr:city:simc": 943724,
                "addr:street:sym_ul": 52274,
                "phone": "+48 322456711",
                "email": "sekretariat@sp1.swietochlowice.pl",
                "website": "http:\/\/www.szkola.sp1swce.pl",
                "ref:regon": "000725281",
                "ref:vatin": "PL6271262726",
                "operator": "Gmina \u015awi\u0119toch\u0142owice",
                "operator:type": "government",
                "amenity": "school"
            }
        },
        {
            "id": 19158,
            "type": "Feature",
            "geometry": {
                "type": "Point",
                "coordinates": [
                    18.91475,
                    50.30435
                ]
            },
            "properties": {
                "ref:rspo": 19158,
                "official_name": "Przedszkole Miejskie Nr 8 im.krasnala Ha\u0142aba\u0142y w \u015awi\u0119toch\u0142owicach",
                "name": "Przedszkole Miejskie Nr 8 im.krasnala Ha\u0142aba\u0142y w \u015awi\u0119toch\u0142owicach",
                "addr:postcode": "41-605",
                "addr:city": "\u015awi\u0119toch\u0142owice",
                "addr:street": "Juliana Zubrzyckiego",
                "addr:housenumber": "10",
                "addr:city:simc": 943724,
                "addr:street:sym_ul": 52274,
                "phone": "+48 327707215",
                "email": "krasnalowagromada@onet.eu",
                "website": "http:\/\/www.pm8swietochlowice.superszkolna.pl",
                "ref:regon": "271509707",
                "ref:vatin": "PL6271263714",
                "operator": "Gmina \u015awi\u0119toch\u0142owice",
                "operator:type": "government",
                "amenity": "kindergarten"
            }
        },
        {
            "id": 19152,
            "type": "Feature",
            "geometry": {
                "type": "Point",
                "coordinates": [
                    18.89936,
                    50.30678
                ]
            },
            "properties": {
                "ref:rspo": 19152,
                "official_name": "Poradnia Psychologiczno-Pedagogiczna w \u015awi\u0119toch\u0142owicach",
                "name": "Poradnia Psychologiczno-Pedagogiczna w \u015awi\u0119toch\u0142owicach",
                "addr:postcode": "41-605",
                "addr:city": "\u015awi\u0119toch\u0142owice",
                "addr:street": "S\u0105dowa",
                "addr:housenumber": "1",
                "addr:city:simc": 943724,
                "addr:street:sym_ul": 19581,
                "phone": "+48 322454910",
                "email": "ppp_ed@poczta.onet.pl",
                "website": "http:\/\/www.ppp.swietochlowice.pl",
                "ref:regon": "000725393",
                "ref:vatin": "PL6272313650",
                "operator": "Gmina \u015awi\u0119toch\u0142owice",
                "operator:type": "government",
                "healthcare": "counselling",
                "counselling_type": "education",
                "fixme": "w zale\u017cno\u015bci od przedmiotu dzia\u0142alno\u015bci (np. healthcare=counselling + counselling_type=education albo healthcare=psychotherapist)"
            }
        },
        {
            "id": 19162,
            "type": "Feature",
            "geometry": {
                "type": "Point",
                "coordinates": [
                    18.91385,
                    50.30822
                ]
            },
            "properties": {
                "ref:rspo": 19162,
                "official_name": "Przedszkole Miejskie Nr 13 Misia Uszatka w \u015awi\u0119toch\u0142owicach",
                "name": "Przedszkole Miejskie Nr 13 Misia Uszatka w \u015awi\u0119toch\u0142owicach",
                "addr:postcode": "41-608",
                "addr:city": "\u015awi\u0119toch\u0142owice",
                "addr:street": "Sudecka",
                "addr:housenumber": "1",
                "addr:city:simc": 943724,
                "addr:street:sym_ul": 21525,
                "phone": "+48 322456664",
                "email": "p.13@vp.pl",
                "website": "http:\/\/www.pm13swietochlowice.superszkolna.pl",
                "ref:regon": "271509742",
                "ref:vatin": "PL6271263648",
                "operator": "Gmina \u015awi\u0119toch\u0142owice",
                "operator:type": "government",
                "amenity": "kindergarten"
            }
        },
        {
            "id": 19149,
            "type": "Feature",
            "geometry": {
                "type": "Point",
                "coordinates": [
                    18.91552,
                    50.30834
                ]
            },
            "properties": {
                "ref:rspo": 19149,
                "official_name": "Zesp\u00f3\u0142 Szk\u00f3\u0142 Og\u00f3lnokszta\u0142c\u0105cych w \u015awi\u0119toch\u0142owicach",
                "name": "Zesp\u00f3\u0142 Szk\u00f3\u0142 Og\u00f3lnokszta\u0142c\u0105cych w \u015awi\u0119toch\u0142owicach",
                "addr:postcode": "41-608",
                "addr:city": "\u015awi\u0119toch\u0142owice",
                "addr:street": "Sudecka",
                "addr:housenumber": "5",
                "addr:city:simc": 943724,
                "addr:street:sym_ul": 21525,
                "phone": "+48 322456052",
                "email": "marzenagrela.zso@wp.pl",
                "website": "http:\/\/www.zso.com.pl",
                "ref:regon": "276885190",
                "ref:vatin": "PL6272396647",
                "operator": "Gmina \u015awi\u0119toch\u0142owice",
                "operator:type": "government",
                "landuse": "education",
                "fixme": "amenity=school, amenity=college albo landuse=education w zale\u017cno\u015bci od tego, jakie plac\u00f3wki wchodz\u0105 w sk\u0142ad zespo\u0142u. Sprawd\u017a, kiedy stosowa\u0107 amenity=* a kiedy landuse=education.",
                "note": "Children RSPO: 74027;272161"
            }
        },
        {
            "id": 74027,
            "type": "Feature",
            "geometry": {
                "type": "Point",
                "coordinates": [
                    18.91552,
                    50.30831
                ]
            },
            "properties": {
                "isced:level": "3",
                "ref:rspo": 74027,
                "official_name": "Ii Liceum Og\u00f3lnokszta\u0142c\u0105ce Z Oddzia\u0142ami Integracyjnymi im. Miko\u0142aja Reja w \u015awi\u0119toch\u0142owicach",
                "name": "Ii Liceum Og\u00f3lnokszta\u0142c\u0105ce Z Oddzia\u0142ami Integracyjnymi",
                "addr:postcode": "41-608",
                "addr:city": "\u015awi\u0119toch\u0142owice",
                "addr:street": "Sudecka",
                "addr:housenumber": "5",
                "addr:city:simc": 943724,
                "addr:street:sym_ul": 21525,
                "phone": "+48 322456052",
                "email": "marzenagrela.zso@wp.pl",
                "website": "http:\/\/www.zso.com.pl",
                "ref:regon": "000787543",
                "ref:vatin": "PL6271263453",
                "operator": "Gmina \u015awi\u0119toch\u0142owice",
                "operator:type": "government",
                "amenity": "school",
                "note": "Parent RSPO: 19149"
            }
        },
        {
            "id": 272161,
            "type": "Feature",
            "geometry": {
                "type": "Point",
                "coordinates": [
                    18.91552,
                    50.30828
                ]
            },
            "properties": {
                "isced:level": "1;2",
                "ref:rspo": 272161,
                "official_name": "Szko\u0142a Podstawowa Z Oddzia\u0142ami Integracyjnymi Nr 5 im.jerzego Kukuczki w \u015awi\u0119toch\u0142owicach",
                "name": "Szko\u0142a Podstawowa Z Oddzia\u0142ami Integracyjnymi Nr 5 im.jerzego Kukuczki w \u015awi\u0119toch\u0142owicach",
                "addr:postcode": "41-608",
                "addr:city": "\u015awi\u0119toch\u0142owice",
                "addr:street": "Sudecka",
                "addr:housenumber": "5",
                "addr:city:simc": 943724,
                "addr:street:sym_ul": 21525,
                "phone": "+48 322456052",
                "email": "marzenagrela.zso@wp.pl",
                "website": "http:\/\/zso.com.pl",
                "ref:regon": "383987771",
                "operator": "Gmina \u015awi\u0119toch\u0142owice",
                "operator:type": "government",
                "amenity": "school",
                "note": "Parent RSPO: 19149"
            }
        },
        {
            "id": 19134,
            "type": "Feature",
            "geometry": {
                "type": "Point",
                "coordinates": [
                    18.89675,
                    50.30918
                ]
            },
            "properties": {
                "isced:level": "1;2",
                "ref:rspo": 19134,
                "official_name": "Szko\u0142a Podstawowa Nr 19 im. Boles\u0142awa Chrobrego w \u015awi\u0119toch\u0142owicach",
                "name": "Szko\u0142a Podstawowa Nr 19",
                "addr:postcode": "41-605",
                "addr:city": "\u015awi\u0119toch\u0142owice",
                "addr:street": "Boles\u0142awa Chrobrego",
                "addr:housenumber": "4",
                "addr:city:simc": 943724,
                "addr:street:sym_ul": 1742,
                "phone": "+48 322452772",
                "email": "swietochlowicesp19@wp.pl",
                "website": "http:\/\/www.swietochlowicesp19.pl",
                "ref:regon": "000725329",
                "ref:vatin": "PL6271263039",
                "operator": "Gmina \u015awi\u0119toch\u0142owice",
                "operator:type": "government",
                "amenity": "school"
            }
        },
        {
            "id": 25951,
            "type": "Feature",
            "geometry": {
                "type": "Point",
                "coordinates": [
                    18.91208,
                    50.31074
                ]
            },
            "properties": {
                "isced:level": "1;2",
                "ref:rspo": 25951,
                "official_name": "Szko\u0142a Podstawowa Specjalna Nr 10 im. Janusza Korczaka w \u015awi\u0119toch\u0142owicach",
                "name": "Szko\u0142a Podstawowa Specjalna Nr 10",
                "addr:postcode": "41-608",
                "addr:city": "\u015awi\u0119toch\u0142owice",
                "addr:street": "\u0141agiewnicka",
                "addr:housenumber": "65",
                "addr:city:simc": 943724,
                "addr:street:sym_ul": 11497,
                "phone": "+48 323451926",
                "email": "sps10@onet.pl",
                "website": "http:\/\/sps10.edupage.org",
                "ref:regon": "000725341",
                "ref:vatin": "PL6271262933",
                "operator": "Gmina \u015awi\u0119toch\u0142owice",
                "operator:type": "government",
                "amenity": "school"
            }
        },
        {
            "id": 19157,
            "type": "Feature",
            "geometry": {
                "type": "Point",
                "coordinates": [
                    18.89666,
                    50.31104
                ]
            },
            "properties": {
                "ref:rspo": 19157,
                "official_name": "Przedszkole Miejskie Nr 7 w \u015awi\u0119toch\u0142owicach",
                "name": "Przedszkole Miejskie Nr 7 w \u015awi\u0119toch\u0142owicach",
                "addr:postcode": "41-605",
                "addr:city": "\u015awi\u0119toch\u0142owice",
                "addr:street": "Boles\u0142awa Chrobrego",
                "addr:housenumber": "6",
                "addr:city:simc": 943724,
                "addr:street:sym_ul": 1742,
                "phone": "+48 322452596",
                "email": "dyrektorpm7@onet.pl",
                "website": "http:\/\/www.przedszkole7.wordpress.com",
                "ref:regon": "271509699",
                "ref:vatin": "PL6271263878",
                "operator": "Gmina \u015awi\u0119toch\u0142owice",
                "operator:type": "government",
                "amenity": "kindergarten"
            }
        },
        {
            "id": 120791,
            "type": "Feature",
            "geometry": {
                "type": "Point",
                "coordinates": [
                    18.9264699,
                    50.31346
                ]
            },
            "properties": {
                "ref:rspo": 120791,
                "official_name": "Niepubliczne Przedszkole Kolorado Z Oddzia\u0142ami Integracyjnymi",
                "name": "Niepubliczne Przedszkole Kolorado Z Oddzia\u0142ami Integracyjnymi",
                "addr:postcode": "41-608",
                "addr:city": "\u015awi\u0119toch\u0142owice",
                "addr:street": "Wi\u015blan",
                "addr:housenumber": "11",
                "addr:door": "I",
                "addr:city:simc": 943724,
                "addr:street:sym_ul": 24397,
                "phone": "+48 506177233",
                "email": "przedszkole@kolorado.edu.pl",
                "website": "http:\/\/www.kolorado.edu.pl",
                "ref:regon": "243415632",
                "ref:vatin": "PL6272267938",
                "operator": "Agnieszka Rajczyk",
                "operator:type": "private",
                "amenity": "kindergarten"
            }
        },
        {
            "id": 19164,
            "type": "Feature",
            "geometry": {
                "type": "Point",
                "coordinates": [
                    18.92658,
                    50.31393
                ]
            },
            "properties": {
                "ref:rspo": 19164,
                "official_name": "Terapeutyczny Punkt Przedszkolny \"Kolorado\"",
                "name": "Terapeutyczny Punkt Przedszkolny \"Kolorado\"",
                "addr:postcode": "41-608",
                "addr:city": "\u015awi\u0119toch\u0142owice",
                "addr:street": "Wi\u015blan",
                "addr:housenumber": "9",
                "addr:door": "I",
                "addr:city:simc": 943724,
                "addr:street:sym_ul": 24397,
                "phone": "+48 506177233",
                "email": "przedszkole@kolorado.edu.pl",
                "website": "http:\/\/www.kolorado.edu.pl",
                "ref:regon": "243056653",
                "ref:vatin": "PL6272267938",
                "operator": "Agnieszka Rajczyk",
                "operator:type": "private",
                "amenity": "kindergarten"
            }
        },
        {
            "id": 19159,
            "type": "Feature",
            "geometry": {
                "type": "Point",
                "coordinates": [
                    18.9192399,
                    50.31581
                ]
            },
            "properties": {
                "ref:rspo": 19159,
                "official_name": "Przedszkole Miejskie Nr 9 w \u015awi\u0119toch\u0142owicach",
                "name": "Przedszkole Miejskie Nr 9 w \u015awi\u0119toch\u0142owicach",
                "addr:postcode": "41-608",
                "addr:city": "\u015awi\u0119toch\u0142owice",
                "addr:street": "Sportowa",
                "addr:housenumber": "6",
                "addr:city:simc": 943724,
                "addr:street:sym_ul": 20683,
                "phone": "+48 322458233",
                "email": "przedszkole9swce@interia.pl",
                "website": "http:\/\/www.przedszkole9swce.edupage.org",
                "ref:regon": "271509713",
                "ref:vatin": "PL6271263677",
                "operator": "Gmina \u015awi\u0119toch\u0142owice",
                "operator:type": "government",
                "amenity": "kindergarten"
            }
        }
    ]
}