{
    "type": "FeatureCollection",
    "features": [
        {
            "id": 275310,
            "type": "Feature",
            "geometry": {
                "type": "Point",
                "coordinates": [
                    19.40983,
                    51.27072
                ]
            },
            "properties": {
                "ref:rspo": 275310,
                "official_name": "Zesp\u00f3\u0142 Szkolno-Przedszkolny w \u0141\u0119kawie",
                "name": "Zesp\u00f3\u0142 Szkolno-Przedszkolny w \u0141\u0119kawie",
                "addr:postcode": "97-400",
                "addr:place": "\u0141\u0119kawa",
                "addr:housenumber": "4",
                "addr:city:simc": 535681,
                "phone": "+48 446332104",
                "email": "sp_lekawa@interia.pl",
                "ref:regon": "386801413",
                "ref:vatin": "PL7692237123",
                "operator": "Gmina Be\u0142chat\u00f3w",
                "operator:type": "government",
                "landuse": "education",
                "fixme": "amenity=school, amenity=college albo landuse=education w zale\u017cno\u015bci od tego, jakie plac\u00f3wki wchodz\u0105 w sk\u0142ad zespo\u0142u. Sprawd\u017a, kiedy stosowa\u0107 amenity=* a kiedy landuse=education.",
                "note": "Children RSPO: 85844;271964"
            }
        },
        {
            "id": 85844,
            "type": "Feature",
            "geometry": {
                "type": "Point",
                "coordinates": [
                    19.40983,
                    51.270689999999995
                ]
            },
            "properties": {
                "isced:level": "1;2",
                "ref:rspo": 85844,
                "official_name": "Szko\u0142a Podstawowa im.komisji Edukacji Narodowej w \u0141\u0119kawie",
                "name": "Szko\u0142a Podstawowa im.komisji Edukacji Narodowej w \u0141\u0119kawie",
                "addr:postcode": "97-400",
                "addr:place": "\u0141\u0119kawa",
                "addr:housenumber": "4",
                "addr:city:simc": 535681,
                "phone": "+48 446332104",
                "email": "sp_lekawa@interia.pl",
                "website": "http:\/\/www.splekawa",
                "ref:regon": "001231888",
                "ref:vatin": "PL7691773931",
                "operator": "Gmina Be\u0142chat\u00f3w",
                "operator:type": "government",
                "amenity": "school",
                "note": "Parent RSPO: 275310"
            }
        },
        {
            "id": 271964,
            "type": "Feature",
            "geometry": {
                "type": "Point",
                "coordinates": [
                    19.40983,
                    51.27066
                ]
            },
            "properties": {
                "ref:rspo": 271964,
                "official_name": "Gminne Przedszkole w \u0141\u0119kawie",
                "name": "Gminne Przedszkole w \u0141\u0119kawie",
                "addr:postcode": "97-400",
                "addr:place": "\u0141\u0119kawa",
                "addr:housenumber": "4",
                "addr:city:simc": 535681,
                "phone": "+48 446332104",
                "email": "sp_lekawa@interia.pl",
                "ref:regon": "383834659",
                "ref:vatin": "PL7692234923",
                "operator": "Gmina Be\u0142chat\u00f3w",
                "operator:type": "government",
                "amenity": "kindergarten",
                "note": "Parent RSPO: 275310"
            }
        },
        {
            "id": 7092,
            "type": "Feature",
            "geometry": {
                "type": "Point",
                "coordinates": [
                    19.40807,
                    51.27125
                ]
            },
            "properties": {
                "ref:rspo": 7092,
                "official_name": "M\u0142odzie\u017cowy O\u015brodek Socjoterapii w \u0141\u0119kawie",
                "name": "M\u0142odzie\u017cowy O\u015brodek Socjoterapii w \u0141\u0119kawie",
                "addr:postcode": "97-400",
                "addr:place": "\u0141\u0119kawa",
                "addr:housenumber": "9",
                "addr:city:simc": 535681,
                "phone": "+48 446351348",
                "email": "moslekawa@op.pl",
                "website": "http:\/\/www.moslekawa.pl",
                "ref:regon": "101444948",
                "ref:vatin": "PL7692220022",
                "operator": "Powiat Be\u0142chatowski",
                "operator:type": "government",
                "fixme": "amenity=social_facility + social_facility=group_home + social_facility:for=juvenile",
                "note": "Children RSPO: 262660"
            }
        },
        {
            "id": 262660,
            "type": "Feature",
            "geometry": {
                "type": "Point",
                "coordinates": [
                    19.40807,
                    51.27122
                ]
            },
            "properties": {
                "isced:level": "1;2",
                "ref:rspo": 262660,
                "official_name": "Szko\u0142a Podstawowa Specjalna w \u0141\u0119kawie",
                "name": "Szko\u0142a Podstawowa Specjalna w \u0141\u0119kawie",
                "addr:postcode": "97-400",
                "addr:place": "\u0141\u0119kawa",
                "addr:housenumber": "9",
                "addr:city:simc": 535681,
                "phone": "+48 446351348",
                "email": "moslekawa@op.pl",
                "website": "http:\/\/www.moslekawa.pl",
                "ref:regon": "368049700",
                "operator": "Powiat Be\u0142chatowski",
                "operator:type": "government",
                "amenity": "school",
                "note": "Parent RSPO: 7092"
            }
        },
        {
            "id": 275304,
            "type": "Feature",
            "geometry": {
                "type": "Point",
                "coordinates": [
                    19.3083,
                    51.32564
                ]
            },
            "properties": {
                "ref:rspo": 275304,
                "official_name": "Zesp\u00f3\u0142 Szkolno-Przedszkolny w Kurnosie Drugim",
                "name": "Zesp\u00f3\u0142 Szkolno-Przedszkolny w Kurnosie Drugim",
                "addr:postcode": "97-400",
                "addr:place": "Kurnos Drugi",
                "addr:housenumber": "175",
                "addr:city:simc": 535592,
                "phone": "+48 446331631",
                "email": "spkurnos2@o2.pl",
                "ref:regon": "386800431",
                "ref:vatin": "PL7692237100",
                "operator": "Gmina Be\u0142chat\u00f3w",
                "operator:type": "government",
                "landuse": "education",
                "fixme": "amenity=school, amenity=college albo landuse=education w zale\u017cno\u015bci od tego, jakie plac\u00f3wki wchodz\u0105 w sk\u0142ad zespo\u0142u. Sprawd\u017a, kiedy stosowa\u0107 amenity=* a kiedy landuse=education.",
                "note": "Children RSPO: 85811;271967"
            }
        },
        {
            "id": 85811,
            "type": "Feature",
            "geometry": {
                "type": "Point",
                "coordinates": [
                    19.3083,
                    51.32561
                ]
            },
            "properties": {
                "isced:level": "1;2",
                "ref:rspo": 85811,
                "official_name": "Szko\u0142a Podstawowa im.alfonsa Brandta w Kurnosie Drugim",
                "name": "Szko\u0142a Podstawowa im.alfonsa Brandta w Kurnosie Drugim",
                "addr:postcode": "97-400",
                "addr:place": "Kurnos Drugi",
                "addr:housenumber": "175",
                "addr:city:simc": 535592,
                "phone": "+48 446331631",
                "email": "spkurnos2@o2.pl",
                "ref:regon": "001231894",
                "ref:vatin": "PL7691774020",
                "operator": "Gmina Be\u0142chat\u00f3w",
                "operator:type": "government",
                "amenity": "school",
                "note": "Parent RSPO: 275304"
            }
        },
        {
            "id": 271967,
            "type": "Feature",
            "geometry": {
                "type": "Point",
                "coordinates": [
                    19.30441,
                    51.32612
                ]
            },
            "properties": {
                "ref:rspo": 271967,
                "official_name": "Gminne Przedszkole w Kurnosie Drugim",
                "name": "Gminne Przedszkole w Kurnosie Drugim",
                "addr:postcode": "97-400",
                "addr:place": "Kurnos Drugi",
                "addr:housenumber": "16",
                "addr:city:simc": 535592,
                "email": "gpkurnos@interia.pl",
                "ref:regon": "383834702",
                "ref:vatin": "PL7692234917",
                "operator": "Gmina Be\u0142chat\u00f3w",
                "operator:type": "government",
                "amenity": "kindergarten",
                "note": "Parent RSPO: 275304"
            }
        },
        {
            "id": 85810,
            "type": "Feature",
            "geometry": {
                "type": "Point",
                "coordinates": [
                    19.247594833374,
                    51.360076904297
                ]
            },
            "properties": {
                "isced:level": "1;2",
                "ref:rspo": 85810,
                "official_name": "Szko\u0142a Podstawowa im. Gen. Janusza G\u0142uchowskiego w Dobiecinie",
                "name": "Szko\u0142a Podstawowa",
                "addr:postcode": "97-400",
                "addr:place": "Korczew",
                "addr:housenumber": "37",
                "addr:city:simc": 535563,
                "phone": "+48 446336206",
                "email": "sp_dobiecin@wp.pl",
                "website": "https:\/\/spdobiecin.edupage.org\/",
                "ref:regon": "001231859",
                "ref:vatin": "PL7691773894",
                "operator": "Gmina Be\u0142chat\u00f3w",
                "operator:type": "government",
                "amenity": "school"
            }
        },
        {
            "id": 275305,
            "type": "Feature",
            "geometry": {
                "type": "Point",
                "coordinates": [
                    19.33123,
                    51.38168
                ]
            },
            "properties": {
                "ref:rspo": 275305,
                "official_name": "Zesp\u00f3\u0142 Szkolno-Przedszkolny w Domiechowicach",
                "name": "Zesp\u00f3\u0142 Szkolno-Przedszkolny w Domiechowicach",
                "addr:postcode": "97-400",
                "addr:place": "Domiechowice",
                "addr:housenumber": "80",
                "addr:city:simc": 535379,
                "phone": "+48 446322122",
                "email": "spdomiechowice@o2.pl",
                "ref:regon": "386800610",
                "ref:vatin": "PL7692237086",
                "operator": "Gmina Be\u0142chat\u00f3w",
                "operator:type": "government",
                "landuse": "education",
                "fixme": "amenity=school, amenity=college albo landuse=education w zale\u017cno\u015bci od tego, jakie plac\u00f3wki wchodz\u0105 w sk\u0142ad zespo\u0142u. Sprawd\u017a, kiedy stosowa\u0107 amenity=* a kiedy landuse=education.",
                "note": "Children RSPO: 84226;85812"
            }
        },
        {
            "id": 84226,
            "type": "Feature",
            "geometry": {
                "type": "Point",
                "coordinates": [
                    19.33123,
                    51.38165
                ]
            },
            "properties": {
                "isced:level": "1;2",
                "ref:rspo": 84226,
                "official_name": "Szko\u0142a Podstawowa im. Marii Kownackiej w Domiechowicach",
                "name": "Szko\u0142a Podstawowa",
                "addr:postcode": "97-400",
                "addr:place": "Domiechowice",
                "addr:housenumber": "80",
                "addr:city:simc": 535379,
                "phone": "+48 446322122",
                "email": "spdomiechowice@o2.pl",
                "ref:regon": "001248297",
                "ref:vatin": "PL7691774014",
                "operator": "Gmina Be\u0142chat\u00f3w",
                "operator:type": "government",
                "amenity": "school",
                "note": "Parent RSPO: 275305"
            }
        },
        {
            "id": 85812,
            "type": "Feature",
            "geometry": {
                "type": "Point",
                "coordinates": [
                    19.33123,
                    51.381620000000005
                ]
            },
            "properties": {
                "ref:rspo": 85812,
                "official_name": "Gminne Przedszkole w Domiechowicach",
                "name": "Gminne Przedszkole w Domiechowicach",
                "addr:postcode": "97-400",
                "addr:place": "Domiechowice",
                "addr:housenumber": "80",
                "addr:city:simc": 535379,
                "phone": "+48 504921655",
                "email": "gpdomiechowice@o2.pl",
                "ref:regon": "100231630",
                "ref:vatin": "PL7692098704",
                "operator": "Gmina Be\u0142chat\u00f3w",
                "operator:type": "government",
                "amenity": "kindergarten",
                "note": "Parent RSPO: 275305"
            }
        },
        {
            "id": 275307,
            "type": "Feature",
            "geometry": {
                "type": "Point",
                "coordinates": [
                    19.39069,
                    51.38779
                ]
            },
            "properties": {
                "ref:rspo": 275307,
                "official_name": "Zesp\u00f3\u0142 Szkolno-Przedszkolny w Dobrzelowie",
                "name": "Zesp\u00f3\u0142 Szkolno-Przedszkolny w Dobrzelowie",
                "addr:postcode": "97-400",
                "addr:place": "Dobrzel\u00f3w",
                "addr:housenumber": "7",
                "addr:city:simc": 535333,
                "phone": "+48 446359032",
                "email": "dobrzelowszkol@interia.pl",
                "ref:regon": "386800810",
                "ref:vatin": "PL7692237063",
                "operator": "Gmina Be\u0142chat\u00f3w",
                "operator:type": "government",
                "landuse": "education",
                "fixme": "amenity=school, amenity=college albo landuse=education w zale\u017cno\u015bci od tego, jakie plac\u00f3wki wchodz\u0105 w sk\u0142ad zespo\u0142u. Sprawd\u017a, kiedy stosowa\u0107 amenity=* a kiedy landuse=education.",
                "note": "Children RSPO: 85842;271966"
            }
        },
        {
            "id": 85842,
            "type": "Feature",
            "geometry": {
                "type": "Point",
                "coordinates": [
                    19.39069,
                    51.38776
                ]
            },
            "properties": {
                "isced:level": "1;2",
                "ref:rspo": 85842,
                "official_name": "Szko\u0142a Podstawowa im. Jana Brzechwy w Dobrzelowie",
                "name": "Szko\u0142a Podstawowa",
                "addr:postcode": "97-400",
                "addr:place": "Dobrzel\u00f3w",
                "addr:housenumber": "7",
                "addr:city:simc": 535333,
                "phone": "+48 446359032",
                "email": "dobrzelowszkol@interia.pl",
                "ref:regon": "001231865",
                "ref:vatin": "PL7691773983",
                "operator": "Gmina Be\u0142chat\u00f3w",
                "operator:type": "government",
                "amenity": "school",
                "note": "Parent RSPO: 275307"
            }
        },
        {
            "id": 271966,
            "type": "Feature",
            "geometry": {
                "type": "Point",
                "coordinates": [
                    19.4497,
                    51.38879
                ]
            },
            "properties": {
                "ref:rspo": 271966,
                "official_name": "Gminne Przedszkole w Niedyszynie",
                "name": "Gminne Przedszkole w Niedyszynie",
                "addr:postcode": "97-400",
                "addr:place": "Niedyszyna",
                "addr:housenumber": "40",
                "addr:city:simc": 535770,
                "email": "gpniedyszyna@wp.pl",
                "ref:regon": "383834636",
                "ref:vatin": "PL7692234952",
                "operator": "Gmina Be\u0142chat\u00f3w",
                "operator:type": "government",
                "amenity": "kindergarten",
                "note": "Parent RSPO: 275307"
            }
        },
        {
            "id": 275308,
            "type": "Feature",
            "geometry": {
                "type": "Point",
                "coordinates": [
                    19.20693,
                    51.41914
                ]
            },
            "properties": {
                "ref:rspo": 275308,
                "official_name": "Zesp\u00f3\u0142 Szkolno-Przedszkolny w Janowie",
                "name": "Zesp\u00f3\u0142 Szkolno-Przedszkolny w Janowie",
                "addr:postcode": "97-400",
                "addr:place": "Jan\u00f3w",
                "addr:housenumber": "1",
                "addr:city:simc": 535451,
                "phone": "+48 446333546",
                "email": "spjanow@gmail.com",
                "website": "http:\/\/spjanow1.szkolnastrona.pl",
                "ref:regon": "386801287",
                "ref:vatin": "PL7692237092",
                "operator": "Gmina Be\u0142chat\u00f3w",
                "operator:type": "government",
                "landuse": "education",
                "fixme": "amenity=school, amenity=college albo landuse=education w zale\u017cno\u015bci od tego, jakie plac\u00f3wki wchodz\u0105 w sk\u0142ad zespo\u0142u. Sprawd\u017a, kiedy stosowa\u0107 amenity=* a kiedy landuse=education.",
                "note": "Children RSPO: 85843;271965"
            }
        },
        {
            "id": 85843,
            "type": "Feature",
            "geometry": {
                "type": "Point",
                "coordinates": [
                    19.20693,
                    51.419109999999996
                ]
            },
            "properties": {
                "isced:level": "1;2",
                "ref:rspo": 85843,
                "official_name": "Szko\u0142a Podstawowa im. W\u0142adys\u0142awa Szafera w Janowie",
                "name": "Szko\u0142a Podstawowa",
                "addr:postcode": "97-400",
                "addr:place": "Jan\u00f3w",
                "addr:housenumber": "1",
                "addr:city:simc": 535451,
                "phone": "+48 446333546",
                "email": "spjanow@gmail.com",
                "ref:regon": "001231871",
                "ref:vatin": "PL7691773919",
                "operator": "Gmina Be\u0142chat\u00f3w",
                "operator:type": "government",
                "amenity": "school",
                "note": "Parent RSPO: 275308"
            }
        },
        {
            "id": 271965,
            "type": "Feature",
            "geometry": {
                "type": "Point",
                "coordinates": [
                    19.20693,
                    51.41908
                ]
            },
            "properties": {
                "ref:rspo": 271965,
                "official_name": "Gminne Przedszkole w Janowie",
                "name": "Gminne Przedszkole w Janowie",
                "addr:postcode": "97-400",
                "addr:place": "Jan\u00f3w",
                "addr:housenumber": "1",
                "addr:city:simc": 535451,
                "phone": "+48 507435155",
                "email": "gpjanow2019@gmail.com",
                "ref:regon": "383834671",
                "ref:vatin": "PL7692234946",
                "operator": "Gmina Be\u0142chat\u00f3w",
                "operator:type": "government",
                "amenity": "kindergarten",
                "note": "Parent RSPO: 275308"
            }
        }
    ]
}