{
    "type": "FeatureCollection",
    "features": [
        {
            "id": 262248,
            "type": "Feature",
            "geometry": {
                "type": "Point",
                "coordinates": [
                    19.38259,
                    51.42293
                ]
            },
            "properties": {
                "isced:level": "1;2",
                "ref:rspo": 262248,
                "official_name": "Szko\u0142a Podstawowa Imienia Henryka Sienkiewicza w Rasach",
                "name": "Szko\u0142a Podstawowa Imienia Henryka Sienkiewicza w Rasach",
                "addr:postcode": "97-403",
                "addr:place": "Rasy",
                "addr:housenumber": "27",
                "addr:city:simc": 538627,
                "phone": "+48 446311235",
                "email": "sekretariat@sprasy.druzbice.pl",
                "website": "http:\/\/www.sprasy.edupage.org",
                "ref:regon": "367994045",
                "operator": "Gmina Dru\u017cbice",
                "operator:type": "government",
                "amenity": "school"
            }
        },
        {
            "id": 60840,
            "type": "Feature",
            "geometry": {
                "type": "Point",
                "coordinates": [
                    19.40017,
                    51.46195
                ]
            },
            "properties": {
                "ref:rspo": 60840,
                "official_name": "Zesp\u00f3\u0142 Szkolno - Przedszkolny w Dru\u017cbicach",
                "name": "Zesp\u00f3\u0142 Szkolno - Przedszkolny w Dru\u017cbicach",
                "addr:postcode": "97-403",
                "addr:place": "Dru\u017cbice",
                "addr:housenumber": "15",
                "addr:city:simc": 538283,
                "phone": "+48 446311091",
                "email": "spdruzbice@interia.pl",
                "website": "http:\/\/www.zsp.druzbice.pl",
                "ref:regon": "100733863",
                "operator": "Gmina Dru\u017cbice",
                "operator:type": "government",
                "landuse": "education",
                "fixme": "amenity=school, amenity=college albo landuse=education w zale\u017cno\u015bci od tego, jakie plac\u00f3wki wchodz\u0105 w sk\u0142ad zespo\u0142u. Sprawd\u017a, kiedy stosowa\u0107 amenity=* a kiedy landuse=education.",
                "note": "Children RSPO: 80003;80437"
            }
        },
        {
            "id": 80003,
            "type": "Feature",
            "geometry": {
                "type": "Point",
                "coordinates": [
                    19.40017,
                    51.46192
                ]
            },
            "properties": {
                "isced:level": "1;2",
                "ref:rspo": 80003,
                "official_name": "Szko\u0142a Podstawowa im.tadeusza Ko\u015bciuszki w Dru\u017cbicach",
                "name": "Szko\u0142a Podstawowa im.tadeusza Ko\u015bciuszki w Dru\u017cbicach",
                "addr:postcode": "97-403",
                "addr:place": "Dru\u017cbice",
                "addr:housenumber": "15",
                "addr:city:simc": 538283,
                "phone": "+48 446311091",
                "email": "spdruzbice@interia.pl",
                "website": "http:\/\/zsp.druzbice.pl",
                "ref:regon": "000266726",
                "ref:vatin": "PL7691883950",
                "operator": "Gmina Dru\u017cbice",
                "operator:type": "government",
                "amenity": "school",
                "note": "Parent RSPO: 60840"
            }
        },
        {
            "id": 80437,
            "type": "Feature",
            "geometry": {
                "type": "Point",
                "coordinates": [
                    19.40017,
                    51.461890000000004
                ]
            },
            "properties": {
                "ref:rspo": 80437,
                "official_name": "Punkt Przedszkolny w Szkole Podstawowej im.tadeusza Ko\u015bciuszki w Dru\u017cbicach",
                "name": "Punkt Przedszkolny w Szkole Podstawowej im.tadeusza Ko\u015bciuszki w Dru\u017cbicach",
                "addr:postcode": "97-403",
                "addr:place": "Dru\u017cbice",
                "addr:housenumber": "15",
                "addr:city:simc": 538283,
                "phone": "+48 446311091",
                "ref:regon": "100741970",
                "operator": "Gmina Dru\u017cbice",
                "operator:type": "government",
                "amenity": "kindergarten",
                "note": "Parent RSPO: 60840"
            }
        },
        {
            "id": 66220,
            "type": "Feature",
            "geometry": {
                "type": "Point",
                "coordinates": [
                    19.40487,
                    51.50588
                ]
            },
            "properties": {
                "ref:rspo": 66220,
                "official_name": "Punkt Przedszkolny im. Misia Czarodzieja",
                "name": "Punkt Przedszkolny",
                "addr:postcode": "97-403",
                "addr:city": "Wadlew",
                "addr:street": "Plac ks. Jaros\u0142awa Burskiego",
                "addr:housenumber": "55",
                "addr:city:simc": 538834,
                "addr:street:sym_ul": 44207,
                "phone": "+48 446311287",
                "email": "spwadlew@wp.pl",
                "website": "http:\/\/spwadlew.druzbice.pl",
                "ref:regon": "101492605",
                "operator": "Gmina Dru\u017cbice",
                "operator:type": "government",
                "amenity": "kindergarten"
            }
        },
        {
            "id": 60839,
            "type": "Feature",
            "geometry": {
                "type": "Point",
                "coordinates": [
                    19.41189,
                    51.50742
                ]
            },
            "properties": {
                "isced:level": "1;2",
                "ref:rspo": 60839,
                "official_name": "Szko\u0142a Podstawowa w Wadlewie",
                "name": "Szko\u0142a Podstawowa w Wadlewie",
                "addr:postcode": "97-403",
                "addr:place": "Wadlew",
                "addr:housenumber": "59",
                "addr:city:simc": 538834,
                "phone": "+48 446311287",
                "email": "spwadlew@wp.pl",
                "website": "http:\/\/spwadlew.druzbice.pl",
                "ref:regon": "001140016",
                "operator": "Gmina Dru\u017cbice",
                "operator:type": "government",
                "amenity": "school"
            }
        }
    ]
}