{
    "type": "FeatureCollection",
    "features": [
        {
            "id": 17147,
            "type": "Feature",
            "geometry": {
                "type": "Point",
                "coordinates": [
                    19.29527,
                    51.20357
                ]
            },
            "properties": {
                "ref:rspo": 17147,
                "official_name": "Publiczne Przedszkole Samorz\u0105dowe w \u0141uszczanowicach",
                "name": "Publiczne Przedszkole Samorz\u0105dowe w \u0141uszczanowicach",
                "addr:country": "PL",
                "addr:postcode": "97-410",
                "addr:city": "\u0141uszczanowice",
                "addr:street": "Turkusowa",
                "addr:housenumber": "8",
                "addr:teryt:simc": 541581,
                "addr:teryt:sym_ul": 23160,
                "contact:phone": "+48 447314733",
                "contact:email": "ppsluszcz@wikom.pl",
                "contact:website": "http:\/\/www.wikom.pl\/ppsluszcz",
                "ref:regon": "590020296",
                "ref:vatin": "PL7691964453",
                "operator": "Gmina Kleszcz\u00f3w",
                "operator:type": "government",
                "amenity": "kindergarten"
            }
        },
        {
            "id": 17150,
            "type": "Feature",
            "geometry": {
                "type": "Point",
                "coordinates": [
                    19.31837,
                    51.21002
                ]
            },
            "properties": {
                "ref:rspo": 17150,
                "official_name": "Publiczne Przedszkole Samorz\u0105dowe w Kleszczowie",
                "name": "Publiczne Przedszkole Samorz\u0105dowe w Kleszczowie",
                "addr:country": "PL",
                "addr:postcode": "97-410",
                "addr:city": "Kleszcz\u00f3w",
                "addr:street": "Jagodowa",
                "addr:housenumber": "4",
                "addr:teryt:simc": 541486,
                "addr:teryt:sym_ul": 7059,
                "contact:phone": "+48 447313175",
                "contact:email": "ppskleszczow@wp.pl",
                "contact:website": "http:\/\/ppskleszczow.wikom.pl",
                "ref:regon": "592135081",
                "ref:vatin": "PL7691964447",
                "operator": "Gmina Kleszcz\u00f3w",
                "operator:type": "government",
                "amenity": "kindergarten"
            }
        },
        {
            "id": 17148,
            "type": "Feature",
            "geometry": {
                "type": "Point",
                "coordinates": [
                    19.34848,
                    51.2165
                ]
            },
            "properties": {
                "ref:rspo": 17148,
                "official_name": "Publiczne Przedzszkole Samorz\u0105dowe w \u0141\u0119ki\u0144sku",
                "name": "Publiczne Przedzszkole Samorz\u0105dowe w \u0141\u0119ki\u0144sku",
                "addr:country": "PL",
                "addr:postcode": "97-410",
                "addr:city": "\u0141\u0119ki\u0144sko",
                "addr:street": "Szkolna",
                "addr:housenumber": "18",
                "addr:teryt:simc": 541517,
                "addr:teryt:sym_ul": 21970,
                "contact:phone": "+48 447314600",
                "contact:email": "ppslekinsko@onet.eu",
                "contact:website": "http:\/\/www.ppslekinsko.wikom.pl",
                "ref:regon": "590020304",
                "ref:vatin": "PL7691964476",
                "operator": "Gmina Kleszcz\u00f3w",
                "operator:type": "government",
                "amenity": "kindergarten"
            }
        },
        {
            "id": 17151,
            "type": "Feature",
            "geometry": {
                "type": "Point",
                "coordinates": [
                    19.34891,
                    51.2165
                ]
            },
            "properties": {
                "isced:level": "1;2",
                "ref:rspo": 17151,
                "official_name": "Szko\u0142a Podstawowa im. Miko\u0142aja Kopernika w \u0141\u0119ki\u0144sku",
                "name": "Szko\u0142a Podstawowa",
                "addr:country": "PL",
                "addr:postcode": "97-410",
                "addr:city": "\u0141\u0119ki\u0144sko",
                "addr:street": "Szkolna",
                "addr:housenumber": "20",
                "addr:teryt:simc": 541517,
                "addr:teryt:sym_ul": 21970,
                "contact:phone": "+48 447314225",
                "contact:email": "sekretariat@splekinsko.pl",
                "contact:website": "http:\/\/splekinsko.pl",
                "ref:regon": "001248392",
                "ref:vatin": "PL7691745343",
                "operator": "Gmina Kleszcz\u00f3w",
                "operator:type": "government",
                "amenity": "school"
            }
        },
        {
            "id": 83955,
            "type": "Feature",
            "geometry": {
                "type": "Point",
                "coordinates": [
                    19.31428,
                    51.21713
                ]
            },
            "properties": {
                "ref:rspo": 83955,
                "official_name": "Zesp\u00f3\u0142 Szk\u00f3\u0142 Ponadpodstawowych w Kleszczowie",
                "name": "Zesp\u00f3\u0142 Szk\u00f3\u0142 Ponadpodstawowych w Kleszczowie",
                "addr:country": "PL",
                "addr:postcode": "97-410",
                "addr:city": "Kleszcz\u00f3w",
                "addr:street": "Sportowa",
                "addr:housenumber": "8",
                "addr:teryt:simc": 541486,
                "addr:teryt:sym_ul": 20683,
                "contact:phone": "+48 447316560",
                "contact:email": "zspkleszczow@zspkleszczow.pl",
                "contact:website": "http:\/\/www.zspkleszczow.pl",
                "ref:regon": "100721417",
                "ref:vatin": "PL7692181753",
                "operator": "Gmina Kleszcz\u00f3w",
                "operator:type": "government",
                "landuse": "education",
                "fixme": "amenity=school, amenity=college albo landuse=education w zale\u017cno\u015bci od tego, jakie plac\u00f3wki wchodz\u0105 w sk\u0142ad zespo\u0142u. Sprawd\u017a, kiedy stosowa\u0107 amenity=* a kiedy landuse=education.",
                "note": "Children RSPO: 17153;17154"
            }
        },
        {
            "id": 17153,
            "type": "Feature",
            "geometry": {
                "type": "Point",
                "coordinates": [
                    19.31428,
                    51.217099999999995
                ]
            },
            "properties": {
                "isced:level": "3",
                "ref:rspo": 17153,
                "official_name": "Liceum Og\u00f3lnokszta\u0142c\u0105ce im. Jana Paw\u0142a II w Kleszczowie",
                "name": "Liceum Og\u00f3lnokszta\u0142c\u0105ce",
                "addr:country": "PL",
                "addr:postcode": "97-410",
                "addr:city": "Kleszcz\u00f3w",
                "addr:street": "Sportowa",
                "addr:housenumber": "8",
                "addr:teryt:simc": 541486,
                "addr:teryt:sym_ul": 20683,
                "contact:phone": "+48 447316560",
                "contact:email": "zspkleszczow@zspkleszczow.pl",
                "contact:website": "http:\/\/www.zspkleszczow.pl",
                "ref:regon": "100721430",
                "ref:vatin": "PL7692181753",
                "operator": "Gmina Kleszcz\u00f3w",
                "operator:type": "government",
                "amenity": "school",
                "note": "Parent RSPO: 83955"
            }
        },
        {
            "id": 17154,
            "type": "Feature",
            "geometry": {
                "type": "Point",
                "coordinates": [
                    19.31428,
                    51.21707
                ]
            },
            "properties": {
                "isced:level": "3",
                "ref:rspo": 17154,
                "official_name": "Technikum Nowoczesnych Technologii im. Jana Paw\u0142a II w Kleszczowie",
                "name": "Technikum Nowoczesnych Technologii",
                "addr:country": "PL",
                "addr:postcode": "97-410",
                "addr:city": "Kleszcz\u00f3w",
                "addr:street": "Sportowa",
                "addr:housenumber": "8",
                "addr:teryt:simc": 541486,
                "addr:teryt:sym_ul": 20683,
                "contact:phone": "+48 447316560",
                "contact:email": "zspkleszczow@zspkleszczow.pl",
                "contact:website": "http:\/\/www.zspkleszczow.pl",
                "ref:regon": "100721386",
                "ref:vatin": "PL7692181753",
                "operator": "Gmina Kleszcz\u00f3w",
                "operator:type": "government",
                "amenity": "school",
                "note": "Parent RSPO: 83955"
            }
        },
        {
            "id": 26800,
            "type": "Feature",
            "geometry": {
                "type": "Point",
                "coordinates": [
                    19.30076,
                    51.22367
                ]
            },
            "properties": {
                "ref:rspo": 26800,
                "official_name": "O\u015brodek Doskonalenia Zawodowego \"Adept\"",
                "name": "O\u015brodek Doskonalenia Zawodowego \"Adept\"",
                "addr:country": "PL",
                "addr:postcode": "97-410",
                "addr:city": "Kleszcz\u00f3w",
                "addr:street": "G\u0142\u00f3wna",
                "addr:housenumber": "122",
                "addr:teryt:simc": 541486,
                "addr:teryt:sym_ul": 5635,
                "contact:phone": "+48 447313731",
                "contact:email": "szkolenia@arreks.com.pl",
                "contact:website": "http:\/\/www.arreks.com.pl",
                "ref:regon": "101480708",
                "operator": "Agencja Rozwoju Regionalnego \"Arreks\" - Sp\u00f3\u0142ka Akcyjna",
                "operator:type": "private",
                "fixme": "w zale\u017cno\u015bci od przedmiotu dzia\u0142alno\u015bci (np. amenity=training + training=*, amenity=dancing_school, amenity=language_school, amenity=music_school)"
            }
        },
        {
            "id": 17149,
            "type": "Feature",
            "geometry": {
                "type": "Point",
                "coordinates": [
                    19.30051,
                    51.22428
                ]
            },
            "properties": {
                "isced:level": "1;2",
                "ref:rspo": 17149,
                "official_name": "Szko\u0142a Podstawowa Im Janusza Korczaka w Kleszczowie",
                "name": "Szko\u0142a Podstawowa Im Janusza Korczaka w Kleszczowie",
                "addr:country": "PL",
                "addr:postcode": "97-410",
                "addr:city": "Kleszcz\u00f3w",
                "addr:street": "Szkolna",
                "addr:housenumber": "4",
                "addr:teryt:simc": 541486,
                "addr:teryt:sym_ul": 21970,
                "contact:phone": "+48 447313346",
                "contact:email": "sekretariat@spkleszczow.pl",
                "contact:website": "http:\/\/spkleszczow.pl",
                "ref:regon": "000269133",
                "ref:vatin": "PL7691745337",
                "operator": "Gmina Kleszcz\u00f3w",
                "operator:type": "government",
                "amenity": "school"
            }
        },
        {
            "id": 278758,
            "type": "Feature",
            "geometry": {
                "type": "Point",
                "coordinates": [
                    19.30008,
                    51.22466
                ]
            },
            "properties": {
                "ref:rspo": 278758,
                "official_name": "Niepubliczne Przedszkole Muminki Z Oddzia\u0142ami Integracyjnymi",
                "name": "Niepubliczne Przedszkole Muminki Z Oddzia\u0142ami Integracyjnymi",
                "addr:country": "PL",
                "addr:postcode": "97-410",
                "addr:city": "Kleszcz\u00f3w",
                "addr:street": "Szkolna",
                "addr:housenumber": "6",
                "addr:teryt:simc": 541486,
                "addr:teryt:sym_ul": 21970,
                "contact:phone": "+48 511707567",
                "contact:email": "szkolyprofesjapiotrkow@gmail.com",
                "ref:regon": "520064180",
                "ref:vatin": "PL7712875069",
                "operator": "Michalina Fulara",
                "operator:type": "private",
                "amenity": "kindergarten"
            }
        },
        {
            "id": 277586,
            "type": "Feature",
            "geometry": {
                "type": "Point",
                "coordinates": [
                    19.33887,
                    51.26524
                ]
            },
            "properties": {
                "ref:rspo": 277586,
                "official_name": "Centrum Rozwoju Kompetencji Wojew\u00f3dztwa \u0141\u00f3dzkiego I Pge Polskiej Grupy Energetycznej w Rogowcu",
                "name": "Centrum Rozwoju Kompetencji Wojew\u00f3dztwa \u0141\u00f3dzkiego I Pge Polskiej Grupy Energetycznej w Rogowcu",
                "addr:country": "PL",
                "addr:postcode": "97-427",
                "addr:city": "Rogowiec",
                "addr:street": "Energetyczna",
                "addr:housenumber": "9",
                "addr:teryt:simc": 541612,
                "addr:teryt:sym_ul": 4801,
                "contact:phone": "+48 447773176",
                "contact:email": "crk@lodzkie.pl",
                "contact:website": "http:\/\/crklodzkie.pl",
                "ref:regon": "389161919",
                "ref:vatin": "PL7692239961",
                "operator": "Wojew\u00f3dztwo \u0141\u00f3dzkie",
                "operator:type": "government",
                "landuse": "education",
                "fixme": "amenity=school, amenity=college albo landuse=education w zale\u017cno\u015bci od tego, jakie plac\u00f3wki wchodz\u0105 w sk\u0142ad zespo\u0142u. Sprawd\u017a, kiedy stosowa\u0107 amenity=* a kiedy landuse=education.",
                "note": "Children RSPO: 277591;277592"
            }
        },
        {
            "id": 277591,
            "type": "Feature",
            "geometry": {
                "type": "Point",
                "coordinates": [
                    19.33887,
                    51.265209999999996
                ]
            },
            "properties": {
                "isced:level": "3",
                "ref:rspo": 277591,
                "official_name": "Bran\u017cowa Szko\u0142a II Stopnia Wojew\u00f3dztwa \u0141\u00f3dzkiego I Pge Polskiej Grupy Energetycznej w Rogowcu",
                "name": "Bran\u017cowa Szko\u0142a II Stopnia Wojew\u00f3dztwa \u0141\u00f3dzkiego I Pge Polskiej Grupy Energetycznej w Rogowcu",
                "addr:country": "PL",
                "addr:postcode": "97-427",
                "addr:city": "Rogowiec",
                "addr:street": "Energetyczna",
                "addr:housenumber": "9",
                "addr:teryt:simc": 541612,
                "addr:teryt:sym_ul": 4801,
                "contact:phone": "+48 447773176",
                "contact:email": "crk@lodzkie.pl",
                "contact:website": "http:\/\/www.crklodzkie.pl",
                "ref:regon": "389166503",
                "operator": "Wojew\u00f3dztwo \u0141\u00f3dzkie",
                "operator:type": "government",
                "amenity": "school",
                "note": "Parent RSPO: 277586"
            }
        },
        {
            "id": 277592,
            "type": "Feature",
            "geometry": {
                "type": "Point",
                "coordinates": [
                    19.33887,
                    51.26518
                ]
            },
            "properties": {
                "ref:rspo": 277592,
                "official_name": "Centrum Kszta\u0142cenia Zawodowego Wojew\u00f3dztwa \u0141\u00f3dzkiego I Pge Polskiej Grupy Energetycznej w Rogowcu",
                "name": "Centrum Kszta\u0142cenia Zawodowego Wojew\u00f3dztwa \u0141\u00f3dzkiego I Pge Polskiej Grupy Energetycznej w Rogowcu",
                "addr:country": "PL",
                "addr:postcode": "97-427",
                "addr:city": "Rogowiec",
                "addr:street": "Energetyczna",
                "addr:housenumber": "9",
                "addr:teryt:simc": 541612,
                "addr:teryt:sym_ul": 4801,
                "contact:phone": "+48 447773176",
                "contact:email": "crk@lodzkie.pl",
                "ref:regon": "389166526",
                "operator": "Wojew\u00f3dztwo \u0141\u00f3dzkie",
                "operator:type": "government",
                "fixme": "w zale\u017cno\u015bci od przedmiotu dzia\u0142alno\u015bci (np. amenity=training + training=*, amenity=dancing_school, amenity=language_school, amenity=music_school) albo amenity=school, amenity=college, albo landuse=education w zale\u017cno\u015bci od tego, jakie plac\u00f3wki wchodz\u0105 w sk\u0142ad zespo\u0142u. Sprawd\u017a, kiedy stosowa\u0107 amenity=* a kiedy landuse=education.",
                "note": "Parent RSPO: 277586"
            }
        }
    ]
}