{
    "type": "FeatureCollection",
    "features": [
        {
            "id": 133953,
            "type": "Feature",
            "geometry": {
                "type": "Point",
                "coordinates": [
                    19.247594833374,
                    51.360076904297
                ]
            },
            "properties": {
                "isced:level": "1;2",
                "ref:rspo": 133953,
                "official_name": "Szko\u0142a Podstawowa im. Janusza Kusoci\u0144skiego w \u0141obudzicach Z Fili\u0105 w Bijnach Szlacheckich",
                "name": "Szko\u0142a Podstawowa",
                "addr:postcode": "97-425",
                "addr:place": "\u0141obudzice",
                "addr:housenumber": "54",
                "addr:teryt:simc": 557174,
                "phone": "+48 446342289",
                "email": "lobudzice@interia.pl",
                "website": "http:\/\/www.lobudzice.cal.pl",
                "ref:regon": "367742510",
                "operator": "Gmina Zel\u00f3w",
                "operator:type": "government",
                "amenity": "school",
                "note": "Children RSPO: 275714"
            }
        },
        {
            "id": 39746,
            "type": "Feature",
            "geometry": {
                "type": "Point",
                "coordinates": [
                    19.1086,
                    51.45371
                ]
            },
            "properties": {
                "isced:level": "1;2",
                "ref:rspo": 39746,
                "official_name": "Szko\u0142a Podstawowa im. Marii Konopnickiej w Wygie\u0142zowie",
                "name": "Szko\u0142a Podstawowa",
                "addr:postcode": "97-425",
                "addr:place": "Wygie\u0142z\u00f3w",
                "addr:housenumber": "17",
                "addr:teryt:simc": 557470,
                "phone": "+48 446341491",
                "email": "szkolawygielzow@op.pl",
                "website": "http:\/\/www.szkolawygielzow.com.pl",
                "ref:regon": "001231813",
                "ref:vatin": "PL7691918068",
                "operator": "Gmina Zel\u00f3w",
                "operator:type": "government",
                "amenity": "school"
            }
        },
        {
            "id": 40705,
            "type": "Feature",
            "geometry": {
                "type": "Point",
                "coordinates": [
                    19.1086,
                    51.45368
                ]
            },
            "properties": {
                "ref:rspo": 40705,
                "official_name": "Punkt Przedszkolny Przy Szkole Podstawowej w Wygie\u0142zowie",
                "name": "Punkt Przedszkolny Przy Szkole Podstawowej w Wygie\u0142zowie",
                "addr:postcode": "97-425",
                "addr:place": "Wygie\u0142z\u00f3w",
                "addr:housenumber": "17",
                "addr:teryt:simc": 557470,
                "phone": "+48 446341491",
                "email": "szkolawygielzow@op.pl",
                "website": "http:\/\/www.szkolawygielzow.com.pl",
                "ref:regon": "101486480",
                "operator": "Gmina Zel\u00f3w",
                "operator:type": "government",
                "amenity": "kindergarten"
            }
        },
        {
            "id": 132353,
            "type": "Feature",
            "geometry": {
                "type": "Point",
                "coordinates": [
                    19.23294,
                    51.45866
                ]
            },
            "properties": {
                "ref:rspo": 132353,
                "official_name": "Niepubliczne Przedszkole \"Akademia U\u015bmiechu\"",
                "name": "Niepubliczne Przedszkole \"Akademia U\u015bmiechu\"",
                "addr:postcode": "97-425",
                "addr:city": "Zel\u00f3w",
                "addr:street": "Piotrkowska",
                "addr:housenumber": "55",
                "addr:door": "57",
                "addr:teryt:simc": 968664,
                "addr:teryt:sym_ul": 16308,
                "phone": "+48 577886448",
                "email": "zelow@akademiausmiechu.info",
                "website": "http:\/\/www.akademiausmiechu.info",
                "ref:regon": "365558920",
                "ref:vatin": "PL7692225858",
                "operator": "Justyna Oset",
                "operator:type": "private",
                "amenity": "kindergarten"
            }
        },
        {
            "id": 40773,
            "type": "Feature",
            "geometry": {
                "type": "Point",
                "coordinates": [
                    19.28406,
                    51.46224
                ]
            },
            "properties": {
                "ref:rspo": 40773,
                "official_name": "Punkt Przedszkolny Przy Szkole Filialnej w Bujnach Szlacheckich",
                "name": "Punkt Przedszkolny Przy Szkole Filialnej w Bujnach Szlacheckich",
                "addr:postcode": "97-425",
                "addr:place": "Bujny Szlacheckie",
                "addr:housenumber": "51",
                "addr:teryt:simc": 556810,
                "phone": "+48 446341521",
                "email": "bujnyszl@interia.pl",
                "website": "http:\/\/spbujnyszl.wikom.pl",
                "ref:regon": "101486473",
                "operator": "Gmina Zel\u00f3w",
                "operator:type": "government",
                "amenity": "kindergarten"
            }
        },
        {
            "id": 275714,
            "type": "Feature",
            "geometry": {
                "type": "Point",
                "coordinates": [
                    19.28406,
                    51.46221
                ]
            },
            "properties": {
                "isced:level": "1;2",
                "ref:rspo": 275714,
                "official_name": "Szko\u0142a Podstawowa im. Janusza Kusoci\u0144skiego w \u0141obudzicach Szko\u0142a Filialna w Bujnach Szlacheckich",
                "name": "Szko\u0142a Podstawowa",
                "addr:postcode": "97-425",
                "addr:place": "Bujny Szlacheckie",
                "addr:housenumber": "51",
                "addr:teryt:simc": 556810,
                "phone": "+48 446341521",
                "email": "bujnyszl@interia.pl",
                "website": "http:\/\/www.spbujnyszl.wikom.pl",
                "ref:regon": "367742510",
                "ref:vatin": "PL7692229098",
                "operator": "Gmina Zel\u00f3w",
                "operator:type": "government",
                "amenity": "school",
                "note": "Parent RSPO: 133953"
            }
        },
        {
            "id": 64055,
            "type": "Feature",
            "geometry": {
                "type": "Point",
                "coordinates": [
                    19.22054,
                    51.46235
                ]
            },
            "properties": {
                "ref:rspo": 64055,
                "official_name": "Przedszkole Edukacyjne im. Jana Amosa Kome\u0144skiego w Zelowie",
                "name": "Przedszkole Edukacyjne",
                "addr:postcode": "97-425",
                "addr:city": "Zel\u00f3w",
                "addr:street": "Henryka Sienkiewicza",
                "addr:housenumber": "14",
                "addr:teryt:simc": 968664,
                "addr:teryt:sym_ul": 19834,
                "phone": "+48 446341053",
                "email": "przedszkole@zelandia.pl",
                "website": "http:\/\/www.przedszkole.zelandia.pl",
                "ref:regon": "101495503",
                "ref:vatin": "PL7691576484",
                "operator": "Parafia Ewangelicko-Reformowana W Zelowie",
                "operator:type": "religious",
                "amenity": "kindergarten"
            }
        },
        {
            "id": 29773,
            "type": "Feature",
            "geometry": {
                "type": "Point",
                "coordinates": [
                    19.22094,
                    51.46552
                ]
            },
            "properties": {
                "ref:rspo": 29773,
                "official_name": "Zesp\u00f3\u0142 Szk\u00f3\u0142 Ponadpodstawowych im. Jana Kili\u0144skiego w Zelowie",
                "name": "Zesp\u00f3\u0142 Szk\u00f3\u0142 Ponadpodstawowych",
                "addr:postcode": "97-425",
                "addr:city": "Zel\u00f3w",
                "addr:street": "Jana Kili\u0144skiego",
                "addr:housenumber": "5",
                "addr:teryt:simc": 968664,
                "addr:teryt:sym_ul": 8435,
                "phone": "+48 446341070",
                "email": "zsp.kilinski.zelow@gmail.com",
                "website": "http:\/\/www.kilinski-zelow.edu.pl",
                "ref:regon": "000192749",
                "ref:vatin": "PL7691785897",
                "operator": "Powiat Be\u0142chatowski",
                "operator:type": "government",
                "landuse": "education",
                "fixme": "amenity=school, amenity=college albo landuse=education w zale\u017cno\u015bci od tego, jakie plac\u00f3wki wchodz\u0105 w sk\u0142ad zespo\u0142u. Sprawd\u017a, kiedy stosowa\u0107 amenity=* a kiedy landuse=education.",
                "note": "Children RSPO: 55752;56397;118869"
            }
        },
        {
            "id": 55752,
            "type": "Feature",
            "geometry": {
                "type": "Point",
                "coordinates": [
                    19.22094,
                    51.465489999999996
                ]
            },
            "properties": {
                "isced:level": "3",
                "ref:rspo": 55752,
                "official_name": "Technikum Mechaniczne",
                "name": "Technikum Mechaniczne",
                "addr:postcode": "97-425",
                "addr:city": "Zel\u00f3w",
                "addr:street": "Jana Kili\u0144skiego",
                "addr:housenumber": "5",
                "addr:teryt:simc": 968664,
                "addr:teryt:sym_ul": 8435,
                "phone": "+48 447336611",
                "email": "zsp.kilinski.zelow@gmail.com",
                "website": "http:\/\/www.kilinski-zelow.edu.pl",
                "ref:regon": "592266044",
                "operator": "Powiat Be\u0142chatowski",
                "operator:type": "government",
                "amenity": "school",
                "note": "Parent RSPO: 29773"
            }
        },
        {
            "id": 56397,
            "type": "Feature",
            "geometry": {
                "type": "Point",
                "coordinates": [
                    19.22094,
                    51.46546
                ]
            },
            "properties": {
                "isced:level": "3",
                "ref:rspo": 56397,
                "official_name": "Bran\u017cowa Szko\u0142a I Stopnia w Zelowie",
                "name": "Bran\u017cowa Szko\u0142a I Stopnia w Zelowie",
                "addr:postcode": "97-425",
                "addr:city": "Zel\u00f3w",
                "addr:street": "Jana Kili\u0144skiego",
                "addr:housenumber": "5",
                "addr:teryt:simc": 968664,
                "addr:teryt:sym_ul": 8435,
                "phone": "+48 446341070",
                "email": "zsp.kilinski.zelow@gmail.com",
                "website": "http:\/\/www.kilinski-zelow.edu.pl",
                "ref:regon": "592147919",
                "operator": "Powiat Be\u0142chatowski",
                "operator:type": "government",
                "amenity": "school",
                "note": "Parent RSPO: 29773"
            }
        },
        {
            "id": 118869,
            "type": "Feature",
            "geometry": {
                "type": "Point",
                "coordinates": [
                    19.22094,
                    51.46543
                ]
            },
            "properties": {
                "isced:level": "3",
                "ref:rspo": 118869,
                "official_name": "Liceum Og\u00f3lnokszta\u0142c\u0105ce dla Doros\u0142ych",
                "name": "Liceum Og\u00f3lnokszta\u0142c\u0105ce dla Doros\u0142ych",
                "addr:postcode": "97-425",
                "addr:city": "Zel\u00f3w",
                "addr:street": "Jana Kili\u0144skiego",
                "addr:housenumber": "5",
                "addr:teryt:simc": 968664,
                "addr:teryt:sym_ul": 8435,
                "phone": "+48 446341070",
                "email": "zsp.kilinski.zelow@gmail.com",
                "ref:regon": "101650850",
                "operator": "Powiat Be\u0142chatowski",
                "operator:type": "government",
                "amenity": "school",
                "note": "Parent RSPO: 29773"
            }
        },
        {
            "id": 35208,
            "type": "Feature",
            "geometry": {
                "type": "Point",
                "coordinates": [
                    19.21373,
                    51.46587
                ]
            },
            "properties": {
                "isced:level": "1;2",
                "ref:rspo": 35208,
                "official_name": "Szko\u0142a Podstawowa Nr 2 im. Tadeusza Ko\u015bciuszki Z Oddzia\u0142ami Integracyjnymi w Zelowie",
                "name": "Szko\u0142a Podstawowa Nr 2",
                "addr:postcode": "97-425",
                "addr:city": "Zel\u00f3w",
                "addr:street": "Tadeusza Ko\u015bciuszki",
                "addr:housenumber": "40\/42",
                "addr:teryt:simc": 968664,
                "addr:teryt:sym_ul": 9582,
                "phone": "+48 446341062",
                "email": "szkolapodstawowanr2zelow@gmail.com",
                "website": "http:\/\/sp2zelow.pl\/",
                "ref:regon": "000816405",
                "ref:vatin": "PL7691918080",
                "operator": "Gmina Zel\u00f3w",
                "operator:type": "government",
                "amenity": "school"
            }
        },
        {
            "id": 276948,
            "type": "Feature",
            "geometry": {
                "type": "Point",
                "coordinates": [
                    19.21707,
                    51.46636
                ]
            },
            "properties": {
                "ref:rspo": 276948,
                "official_name": "Niepubliczne Przedszkole Kids Fun",
                "name": "Niepubliczne Przedszkole Kids Fun",
                "addr:postcode": "97-425",
                "addr:city": "Zel\u00f3w",
                "addr:street": "Stefana \u017beromskiego",
                "addr:housenumber": "20",
                "addr:teryt:simc": 968664,
                "addr:teryt:sym_ul": 26469,
                "email": "lisowska.karolina92@gmail.com",
                "website": "http:\/\/kidsfun-przedszkole.pl",
                "ref:regon": "387877364",
                "ref:vatin": "PL9512505570",
                "operator": "Kids Joy Sp\u00f3\u0142ka Z Ograniczon\u0105 Odpowiedzialno\u015bci\u0105",
                "operator:type": "private",
                "amenity": "kindergarten"
            }
        },
        {
            "id": 30817,
            "type": "Feature",
            "geometry": {
                "type": "Point",
                "coordinates": [
                    19.21951,
                    51.46653
                ]
            },
            "properties": {
                "ref:rspo": 30817,
                "official_name": "Przedszkole Samorz\u0105dowe Nr 4 im. Jana Brzechwy w Zelowie",
                "name": "Przedszkole Samorz\u0105dowe Nr 4",
                "addr:postcode": "97-425",
                "addr:city": "Zel\u00f3w",
                "addr:street": "Stefana \u017beromskiego",
                "addr:housenumber": "4\/10",
                "addr:teryt:simc": 968664,
                "addr:teryt:sym_ul": 26469,
                "phone": "+48 446341243",
                "email": "przedszkole4zelow@op.pl",
                "website": "http:\/\/www.ps4zelow.wikom.pl",
                "ref:regon": "592132651",
                "ref:vatin": "PL7691918039",
                "operator": "Gmina Zel\u00f3w",
                "operator:type": "government",
                "amenity": "kindergarten"
            }
        },
        {
            "id": 7908,
            "type": "Feature",
            "geometry": {
                "type": "Point",
                "coordinates": [
                    19.20884,
                    51.4667
                ]
            },
            "properties": {
                "ref:rspo": 7908,
                "official_name": "O\u015brodek Szkoleniowy \"Wiedza\"",
                "name": "O\u015brodek Szkoleniowy \"Wiedza\"",
                "addr:postcode": "97-425",
                "addr:city": "Zel\u00f3w",
                "addr:street": "Adama Mickiewicza",
                "addr:housenumber": "4",
                "addr:teryt:simc": 968664,
                "addr:teryt:sym_ul": 12740,
                "phone": "+48 446341006",
                "email": "frgz@frgz.pl",
                "ref:regon": "101461450",
                "operator": "Fundacja Rozwoju Gminy Zel\u00f3w",
                "operator:type": "ngo",
                "fixme": "w zale\u017cno\u015bci od przedmiotu dzia\u0142alno\u015bci (np. amenity=training + training=*, amenity=dancing_school, amenity=language_school, amenity=music_school)"
            }
        },
        {
            "id": 30662,
            "type": "Feature",
            "geometry": {
                "type": "Point",
                "coordinates": [
                    19.21086,
                    51.46719
                ]
            },
            "properties": {
                "ref:rspo": 30662,
                "official_name": "Przedszkole Samorz\u0105dowe Nr 1 Z Oddzia\u0142ami Integracyjnymi im. Marii Konopnickiej w Zelowie",
                "name": "Przedszkole Samorz\u0105dowe Nr 1 Z Oddzia\u0142ami Integracyjnymi",
                "addr:postcode": "97-425",
                "addr:city": "Zel\u00f3w",
                "addr:street": "Tadeusza Ko\u015bciuszki",
                "addr:housenumber": "57",
                "addr:teryt:simc": 968664,
                "addr:teryt:sym_ul": 9582,
                "phone": "+48 446341289",
                "email": "przedszkole1.zelow@onet.eu",
                "website": "http:\/\/www.zelowps1.c0.pl",
                "ref:regon": "592132645",
                "ref:vatin": "PL7691918045",
                "operator": "Gmina Zel\u00f3w",
                "operator:type": "government",
                "amenity": "kindergarten"
            }
        },
        {
            "id": 38999,
            "type": "Feature",
            "geometry": {
                "type": "Point",
                "coordinates": [
                    19.21019,
                    51.4696799
                ]
            },
            "properties": {
                "isced:level": "1;2",
                "ref:rspo": 38999,
                "official_name": "Szko\u0142a Podstawowa Nr 4 im. Henryka Sienkiewicza w Zelowie",
                "name": "Szko\u0142a Podstawowa Nr 4",
                "addr:postcode": "97-425",
                "addr:city": "Zel\u00f3w",
                "addr:street": "Stefana \u017beromskiego",
                "addr:housenumber": "53",
                "addr:teryt:simc": 968664,
                "addr:teryt:sym_ul": 26469,
                "phone": "+48 446341132",
                "email": "sp4zelow@interia.pl",
                "website": "http:\/\/www.sp4zelow.pl",
                "ref:regon": "001248311",
                "ref:vatin": "PL7691918074",
                "operator": "Gmina Zel\u00f3w",
                "operator:type": "government",
                "amenity": "school"
            }
        },
        {
            "id": 41150,
            "type": "Feature",
            "geometry": {
                "type": "Point",
                "coordinates": [
                    19.22321,
                    51.4697
                ]
            },
            "properties": {
                "ref:rspo": 41150,
                "official_name": "Zesp\u00f3\u0142 Szk\u00f3\u0142 Og\u00f3lnokszta\u0142c\u0105cych w Zelowie",
                "name": "Zesp\u00f3\u0142 Szk\u00f3\u0142 Og\u00f3lnokszta\u0142c\u0105cych w Zelowie",
                "addr:postcode": "97-425",
                "addr:city": "Zel\u00f3w",
                "addr:street": "Jana Kili\u0144skiego",
                "addr:housenumber": "40",
                "addr:teryt:simc": 968664,
                "addr:teryt:sym_ul": 8435,
                "phone": "+48 446341170",
                "email": "zelowzso@gmail.com",
                "website": "http:\/\/zsozelow.edupage.org",
                "ref:regon": "590730520",
                "ref:vatin": "PL7691918016",
                "operator": "Gmina Zel\u00f3w",
                "operator:type": "government",
                "landuse": "education",
                "fixme": "amenity=school, amenity=college albo landuse=education w zale\u017cno\u015bci od tego, jakie plac\u00f3wki wchodz\u0105 w sk\u0142ad zespo\u0142u. Sprawd\u017a, kiedy stosowa\u0107 amenity=* a kiedy landuse=education.",
                "note": "Children RSPO: 53948;262533"
            }
        },
        {
            "id": 53948,
            "type": "Feature",
            "geometry": {
                "type": "Point",
                "coordinates": [
                    19.22321,
                    51.46967
                ]
            },
            "properties": {
                "isced:level": "3",
                "ref:rspo": 53948,
                "official_name": "Liceum Og\u00f3lnokszta\u0142c\u0105ce im. Obro\u0144c\u00f3w Praw Cz\u0142owieka w Zelowie",
                "name": "Liceum Og\u00f3lnokszta\u0142c\u0105ce",
                "addr:postcode": "97-425",
                "addr:city": "Zel\u00f3w",
                "addr:street": "Jana Kili\u0144skiego",
                "addr:housenumber": "40",
                "addr:teryt:simc": 968664,
                "addr:teryt:sym_ul": 8435,
                "phone": "+48 446341170",
                "email": "zelowzso@gmail.com",
                "website": "http:\/\/www.zsozelow.edupage.org",
                "ref:regon": "000231260",
                "operator": "Gmina Zel\u00f3w",
                "operator:type": "government",
                "amenity": "school",
                "note": "Parent RSPO: 41150"
            }
        },
        {
            "id": 262533,
            "type": "Feature",
            "geometry": {
                "type": "Point",
                "coordinates": [
                    19.22321,
                    51.469640000000005
                ]
            },
            "properties": {
                "isced:level": "1;2",
                "ref:rspo": 262533,
                "official_name": "Szko\u0142a Podstawowa Nr 1 im. Obro\u0144c\u00f3w Praw Cz\u0142owieka w Zelowie",
                "name": "Szko\u0142a Podstawowa Nr 1",
                "addr:postcode": "97-425",
                "addr:city": "Zel\u00f3w",
                "addr:street": "Jana Kili\u0144skiego",
                "addr:housenumber": "40",
                "addr:teryt:simc": 968664,
                "addr:teryt:sym_ul": 8435,
                "phone": "+48 446341170",
                "email": "zelowzso@gmail.com",
                "website": "http:\/\/zsozelow.edupage.org",
                "ref:regon": "368030349",
                "operator": "Gmina Zel\u00f3w",
                "operator:type": "government",
                "amenity": "school",
                "note": "Parent RSPO: 41150"
            }
        },
        {
            "id": 39747,
            "type": "Feature",
            "geometry": {
                "type": "Point",
                "coordinates": [
                    19.27265,
                    51.49166
                ]
            },
            "properties": {
                "isced:level": "1;2",
                "ref:rspo": 39747,
                "official_name": "Szko\u0142a Podstawowa im. Tadeusza Ko\u015bciuszki w Kociszewie",
                "name": "Szko\u0142a Podstawowa",
                "addr:postcode": "97-425",
                "addr:place": "Kociszew",
                "addr:housenumber": "32",
                "addr:teryt:simc": 557062,
                "phone": "+48 446341239",
                "email": "kociszewsp@poczta.onet.pl",
                "website": "http:\/\/www.kociszew.pl",
                "ref:regon": "001231820",
                "ref:vatin": "PL7691918051",
                "operator": "Gmina Zel\u00f3w",
                "operator:type": "government",
                "amenity": "school"
            }
        },
        {
            "id": 40706,
            "type": "Feature",
            "geometry": {
                "type": "Point",
                "coordinates": [
                    19.27265,
                    51.49163
                ]
            },
            "properties": {
                "ref:rspo": 40706,
                "official_name": "Punkt Przedszkolny Przy Szkole Podstawowej w Kociszewie",
                "name": "Punkt Przedszkolny Przy Szkole Podstawowej w Kociszewie",
                "addr:postcode": "97-425",
                "addr:place": "Kociszew",
                "addr:housenumber": "32",
                "addr:teryt:simc": 557062,
                "phone": "+48 446341239",
                "email": "kociszewsp@poczta.onet.pl",
                "website": "http:\/\/www.kociszew.pl",
                "ref:regon": "101486450",
                "operator": "Gmina Zel\u00f3w",
                "operator:type": "government",
                "amenity": "kindergarten"
            }
        }
    ]
}