{
    "type": "FeatureCollection",
    "features": [
        {
            "id": 270095,
            "type": "Feature",
            "geometry": {
                "type": "Point",
                "coordinates": [
                    19.37632,
                    51.33557
                ]
            },
            "properties": {
                "ref:rspo": 270095,
                "official_name": "Niepubliczne Przedszkole \"Mali Giganci\"",
                "name": "Niepubliczne Przedszkole \"Mali Giganci\"",
                "addr:postcode": "97-400",
                "addr:city": "Be\u0142chat\u00f3w",
                "addr:street": "Rynek Grocholski",
                "addr:housenumber": "21",
                "addr:teryt:simc": 967647,
                "addr:teryt:sym_ul": 33660,
                "email": "kontakt@przedszkolebelchatow.pl",
                "website": "http:\/\/www.przedszkolebelchatow.pl",
                "ref:regon": "382018640",
                "operator": "Milena Olejnik",
                "operator:type": "private",
                "amenity": "kindergarten"
            }
        },
        {
            "id": 26876,
            "type": "Feature",
            "geometry": {
                "type": "Point",
                "coordinates": [
                    19.38104,
                    51.33594
                ]
            },
            "properties": {
                "ref:rspo": 26876,
                "official_name": "Przedszkole Samorz\u0105dowe Nr 8 im. Bajkowy Zak\u0105tek",
                "name": "Przedszkole Samorz\u0105dowe Nr 8",
                "addr:postcode": "97-400",
                "addr:city": "Be\u0142chat\u00f3w",
                "addr:street": "Szkolna",
                "addr:housenumber": "14",
                "addr:teryt:simc": 967647,
                "addr:teryt:sym_ul": 21970,
                "phone": "+48 446333088",
                "email": "ps8@belchatow.pl",
                "website": "http:\/\/ps8belchatow.wikom.pl",
                "ref:regon": "592133188",
                "ref:vatin": "PL7691967569",
                "operator": "Miasto Be\u0142chat\u00f3w",
                "operator:type": "government",
                "amenity": "kindergarten"
            }
        },
        {
            "id": 43853,
            "type": "Feature",
            "geometry": {
                "type": "Point",
                "coordinates": [
                    19.37915,
                    51.33608
                ]
            },
            "properties": {
                "isced:level": "1;2",
                "ref:rspo": 43853,
                "official_name": "Szko\u0142a Podstawowa Nr 5 im. \u017bo\u0142nierzy Wojska Polskiego",
                "name": "Szko\u0142a Podstawowa Nr 5",
                "addr:postcode": "97-400",
                "addr:city": "Be\u0142chat\u00f3w",
                "addr:street": "Szkolna",
                "addr:housenumber": "10",
                "addr:teryt:simc": 967647,
                "addr:teryt:sym_ul": 21970,
                "phone": "+48 446326614",
                "email": "sp5@belchatow.pl",
                "website": "http:\/\/sp5belchatow.edupage.org",
                "ref:regon": "000816049",
                "ref:vatin": "PL7691967658",
                "operator": "Miasto Be\u0142chat\u00f3w",
                "operator:type": "government",
                "amenity": "school"
            }
        },
        {
            "id": 127412,
            "type": "Feature",
            "geometry": {
                "type": "Point",
                "coordinates": [
                    19.38265,
                    51.33814
                ]
            },
            "properties": {
                "ref:rspo": 127412,
                "official_name": "Niepubliczna Plac\u00f3wka Kszta\u0142cenia Ustawicznego I Praktycznego \"Centrum Pierwszej Pomocy Medismed\"",
                "name": "Niepubliczna Plac\u00f3wka Kszta\u0142cenia Ustawicznego I Praktycznego \"Centrum Pierwszej Pomocy Medismed\"",
                "addr:postcode": "97-400",
                "addr:city": "Be\u0142chat\u00f3w",
                "addr:street": "Piotrkowska",
                "addr:housenumber": "45",
                "addr:teryt:simc": 967647,
                "addr:teryt:sym_ul": 16308,
                "phone": "+48 793442793",
                "email": "biuro@medismed.com.pl",
                "ref:regon": "361557674",
                "operator": "Barbara Larczy\u0144ska",
                "operator:type": "private",
                "fixme": "w zale\u017cno\u015bci od przedmiotu dzia\u0142alno\u015bci (np. amenity=training + training=*, amenity=dancing_school, amenity=language_school, amenity=music_school)"
            }
        },
        {
            "id": 26867,
            "type": "Feature",
            "geometry": {
                "type": "Point",
                "coordinates": [
                    19.36598,
                    51.34754
                ]
            },
            "properties": {
                "ref:rspo": 26867,
                "official_name": "Przedszkole Samorz\u0105dowe Nr 2 im. Akademia Bolka I Lolka",
                "name": "Przedszkole Samorz\u0105dowe Nr 2",
                "addr:postcode": "97-400",
                "addr:city": "Be\u0142chat\u00f3w",
                "addr:street": "Ignacego Jana Paderewskiego",
                "addr:housenumber": "3",
                "addr:teryt:simc": 967647,
                "addr:teryt:sym_ul": 15532,
                "phone": "+48 446334385",
                "email": "ps2@belchatow.pl",
                "website": "http:\/\/ps2belchatow.edupage.org",
                "ref:regon": "592131539",
                "ref:vatin": "PL7691967612",
                "operator": "Miasto Be\u0142chat\u00f3w",
                "operator:type": "government",
                "amenity": "kindergarten"
            }
        },
        {
            "id": 25826,
            "type": "Feature",
            "geometry": {
                "type": "Point",
                "coordinates": [
                    19.37478,
                    51.34791
                ]
            },
            "properties": {
                "ref:rspo": 25826,
                "official_name": "O\u015brodek Szkoleniowy Be\u0142chatowsko Kleszczowskiego Parku Przemys\u0142owo Technologicznego \nSp. Z O.o. w Be\u0142chatowie",
                "name": "O\u015brodek Szkoleniowy Be\u0142chatowsko Kleszczowskiego Parku Przemys\u0142owo Technologicznego \nSp. Z O.o. w Be\u0142chatowie",
                "addr:postcode": "97-400",
                "addr:city": "Be\u0142chat\u00f3w",
                "addr:street": "Ciep\u0142ownicza",
                "addr:housenumber": "5",
                "addr:teryt:simc": 967647,
                "addr:teryt:sym_ul": 3034,
                "phone": "+48 447331120",
                "email": "bkppt@ppt.belchatow.pl",
                "website": "http:\/\/www.ppt.belchatow.pl",
                "ref:regon": "101479763",
                "operator": "Be\u0142chatowsko Kleszczowski Park Przemys\u0142owo Technologiczny Sp\u00f3\u0142ka Z Ograniczon\u0105 Odpowiedzialno\u015bci\u0105",
                "operator:type": "private",
                "fixme": "w zale\u017cno\u015bci od przedmiotu dzia\u0142alno\u015bci (np. amenity=training + training=*, amenity=dancing_school, amenity=language_school, amenity=music_school)"
            }
        },
        {
            "id": 31459,
            "type": "Feature",
            "geometry": {
                "type": "Point",
                "coordinates": [
                    19.36253,
                    51.34851
                ]
            },
            "properties": {
                "ref:rspo": 31459,
                "official_name": "Zesp\u00f3\u0142 Zaocznych Szk\u00f3\u0142 dla Doros\u0142ych \"Lider\" w Be\u0142chatowie",
                "name": "Zesp\u00f3\u0142 Zaocznych Szk\u00f3\u0142 dla Doros\u0142ych \"Lider\" w Be\u0142chatowie",
                "addr:postcode": "97-400",
                "addr:city": "Be\u0142chat\u00f3w",
                "addr:street": "Juliusza S\u0142owackiego",
                "addr:housenumber": "8",
                "addr:teryt:simc": 967647,
                "addr:teryt:sym_ul": 20291,
                "phone": "+48 505041528",
                "email": "szkolalider@gmail.com",
                "ref:regon": "101487113",
                "operator": "Lider S.c.",
                "operator:type": "consortium",
                "landuse": "education",
                "fixme": "amenity=school, amenity=college albo landuse=education w zale\u017cno\u015bci od tego, jakie plac\u00f3wki wchodz\u0105 w sk\u0142ad zespo\u0142u. Sprawd\u017a, kiedy stosowa\u0107 amenity=* a kiedy landuse=education.",
                "note": "Children RSPO: 56384;57817"
            }
        },
        {
            "id": 43855,
            "type": "Feature",
            "geometry": {
                "type": "Point",
                "coordinates": [
                    19.36253,
                    51.348479999999995
                ]
            },
            "properties": {
                "isced:level": "1;2",
                "ref:rspo": 43855,
                "official_name": "Szko\u0142a Podstawowa Nr 13 im. Unicef Z Oddzia\u0142ami Integracyjnymi",
                "name": "Szko\u0142a Podstawowa Nr 13",
                "addr:postcode": "97-400",
                "addr:city": "Be\u0142chat\u00f3w",
                "addr:street": "Juliusza S\u0142owackiego",
                "addr:housenumber": "8",
                "addr:teryt:simc": 967647,
                "addr:teryt:sym_ul": 20291,
                "phone": "+48 446334141",
                "email": "sp13@belchatow.pl",
                "website": "http:\/\/sp13.eu",
                "ref:regon": "590012931",
                "operator": "Miasto Be\u0142chat\u00f3w",
                "operator:type": "government",
                "amenity": "school"
            }
        },
        {
            "id": 56384,
            "type": "Feature",
            "geometry": {
                "type": "Point",
                "coordinates": [
                    19.36253,
                    51.34845
                ]
            },
            "properties": {
                "isced:level": "3",
                "ref:rspo": 56384,
                "official_name": "Zaoczne Liceum Og\u00f3lnokszta\u0142c\u0105ce dla Doros\u0142ych w Be\u0142chatowie",
                "name": "Zaoczne Liceum Og\u00f3lnokszta\u0142c\u0105ce dla Doros\u0142ych w Be\u0142chatowie",
                "addr:postcode": "97-400",
                "addr:city": "Be\u0142chat\u00f3w",
                "addr:street": "Juliusza S\u0142owackiego",
                "addr:housenumber": "8",
                "addr:teryt:simc": 967647,
                "addr:teryt:sym_ul": 20291,
                "phone": "+48 505041528",
                "email": "szkolalider@gmail.com",
                "website": "http:\/\/www.szkolalider.eu",
                "ref:regon": "101492479",
                "operator": "Lider S.c.",
                "operator:type": "consortium",
                "amenity": "school",
                "note": "Parent RSPO: 31459"
            }
        },
        {
            "id": 57817,
            "type": "Feature",
            "geometry": {
                "type": "Point",
                "coordinates": [
                    19.36253,
                    51.34842
                ]
            },
            "properties": {
                "isced:level": "4",
                "ref:rspo": 57817,
                "official_name": "Zaoczna Szko\u0142a Policealna Lider w Be\u0142chatowie",
                "name": "Zaoczna Szko\u0142a Policealna Lider w Be\u0142chatowie",
                "addr:postcode": "97-400",
                "addr:city": "Be\u0142chat\u00f3w",
                "addr:street": "Juliusza S\u0142owackiego",
                "addr:housenumber": "8",
                "addr:teryt:simc": 967647,
                "addr:teryt:sym_ul": 20291,
                "phone": "+48 505041528",
                "email": "szkolalider@gmail.com",
                "website": "http:\/\/www.szkolalider.eu",
                "ref:regon": "101495414",
                "operator": "Lider S.c.",
                "operator:type": "consortium",
                "amenity": "college",
                "note": "Parent RSPO: 31459"
            }
        },
        {
            "id": 273710,
            "type": "Feature",
            "geometry": {
                "type": "Point",
                "coordinates": [
                    19.37065,
                    51.35189
                ]
            },
            "properties": {
                "ref:rspo": 273710,
                "official_name": "Centrum Szkole\u0144 Energetycznych",
                "name": "Centrum Szkole\u0144 Energetycznych",
                "addr:postcode": "97-400",
                "addr:city": "Be\u0142chat\u00f3w",
                "addr:street": "Wojska Polskiego",
                "addr:housenumber": "107",
                "addr:teryt:simc": 967647,
                "addr:teryt:sym_ul": 24628,
                "phone": "+48 538212203",
                "email": "biuro@kursy-energetyczne.pl",
                "website": "http:\/\/www.kursy-energetyczne.pl",
                "ref:regon": "384570292",
                "operator": "\u017baneta Garstka",
                "operator:type": "private",
                "fixme": "w zale\u017cno\u015bci od przedmiotu dzia\u0142alno\u015bci (np. amenity=training + training=*, amenity=dancing_school, amenity=language_school, amenity=music_school) albo amenity=school, amenity=college, albo landuse=education w zale\u017cno\u015bci od tego, jakie plac\u00f3wki wchodz\u0105 w sk\u0142ad zespo\u0142u. Sprawd\u017a, kiedy stosowa\u0107 amenity=* a kiedy landuse=education."
            }
        },
        {
            "id": 13907,
            "type": "Feature",
            "geometry": {
                "type": "Point",
                "coordinates": [
                    19.38165,
                    51.35233
                ]
            },
            "properties": {
                "ref:rspo": 13907,
                "official_name": "Centrum Kszta\u0142cenia Ustawicznego I Praktycznego",
                "name": "Centrum Kszta\u0142cenia Ustawicznego I Praktycznego",
                "addr:postcode": "97-400",
                "addr:city": "Be\u0142chat\u00f3w",
                "addr:street": "Kolejowa",
                "addr:housenumber": "41",
                "addr:teryt:simc": 967647,
                "addr:teryt:sym_ul": 8828,
                "phone": "+48 446333151",
                "email": "stigbelchatow@neostrada.pl",
                "ref:regon": "101467435",
                "operator": "Stowarzyszenie In\u017cynier\u00f3w I Technik\u00f3w G\u00f3rnictwa Oddzia\u0142 W Be\u0142chatowie",
                "operator:type": "ngo",
                "fixme": "w zale\u017cno\u015bci od przedmiotu dzia\u0142alno\u015bci (np. amenity=training + training=*, amenity=dancing_school, amenity=language_school, amenity=music_school) albo amenity=school, amenity=college, albo landuse=education w zale\u017cno\u015bci od tego, jakie plac\u00f3wki wchodz\u0105 w sk\u0142ad zespo\u0142u. Sprawd\u017a, kiedy stosowa\u0107 amenity=* a kiedy landuse=education."
            }
        },
        {
            "id": 26927,
            "type": "Feature",
            "geometry": {
                "type": "Point",
                "coordinates": [
                    19.38165,
                    51.3523
                ]
            },
            "properties": {
                "ref:rspo": 26927,
                "official_name": "O\u015brodek Szkoleniowy Stowarzyszenia Elektryk\u00f3w Polskich Oddzia\u0142 Piotrkowski Filia w Be\u0142chatowie",
                "name": "O\u015brodek Szkoleniowy Stowarzyszenia Elektryk\u00f3w Polskich Oddzia\u0142 Piotrkowski Filia w Be\u0142chatowie",
                "addr:postcode": "97-400",
                "addr:city": "Be\u0142chat\u00f3w",
                "addr:street": "Kolejowa",
                "addr:housenumber": "41",
                "addr:teryt:simc": 967647,
                "addr:teryt:sym_ul": 8828,
                "phone": "+48 446321980",
                "email": "optsep@pro.onet.pl",
                "ref:regon": "101480714",
                "operator": "Stowarzyszenie Elektryk\u00f3w Polskich",
                "operator:type": "ngo",
                "fixme": "w zale\u017cno\u015bci od przedmiotu dzia\u0142alno\u015bci (np. amenity=training + training=*, amenity=dancing_school, amenity=language_school, amenity=music_school)"
            }
        },
        {
            "id": 26880,
            "type": "Feature",
            "geometry": {
                "type": "Point",
                "coordinates": [
                    19.37909,
                    51.3523799
                ]
            },
            "properties": {
                "ref:rspo": 26880,
                "official_name": "Przedszkole Niepubliczne Klub Malucha Baby Town",
                "name": "Przedszkole Niepubliczne Klub Malucha Baby Town",
                "addr:postcode": "97-400",
                "addr:city": "Be\u0142chat\u00f3w",
                "addr:street": "Armii Krajowej",
                "addr:housenumber": "18",
                "addr:teryt:simc": 967647,
                "addr:teryt:sym_ul": 432,
                "phone": "+48 446313166",
                "email": "biuro@przedszkole-babytown.pl",
                "website": "http:\/\/przedszkole-babytown.pl",
                "ref:regon": "101480789",
                "ref:vatin": "PL7691930106",
                "operator": "Iwona B\u0105kiewicz",
                "operator:type": "private",
                "amenity": "kindergarten"
            }
        },
        {
            "id": 26858,
            "type": "Feature",
            "geometry": {
                "type": "Point",
                "coordinates": [
                    19.3676,
                    51.35405
                ]
            },
            "properties": {
                "ref:rspo": 26858,
                "official_name": "Zesp\u00f3\u0142 Szkolno-Przedszkolny Nr 9",
                "name": "Zesp\u00f3\u0142 Szkolno-Przedszkolny Nr 9",
                "addr:postcode": "97-400",
                "addr:city": "Be\u0142chat\u00f3w",
                "addr:street": "Osiedle osiedle Dolno\u015bl\u0105skie",
                "addr:housenumber": "204a",
                "addr:teryt:simc": 967647,
                "addr:teryt:sym_ul": 50294,
                "phone": "+48 446334680",
                "email": "sp9@belchatow.pl",
                "website": "http:\/\/zspnr9.pl",
                "ref:regon": "101297275",
                "ref:vatin": "PL7692218539",
                "operator": "Miasto Be\u0142chat\u00f3w",
                "operator:type": "government",
                "landuse": "education",
                "fixme": "amenity=school, amenity=college albo landuse=education w zale\u017cno\u015bci od tego, jakie plac\u00f3wki wchodz\u0105 w sk\u0142ad zespo\u0142u. Sprawd\u017a, kiedy stosowa\u0107 amenity=* a kiedy landuse=education.",
                "note": "Children RSPO: 46581;46583"
            }
        },
        {
            "id": 46581,
            "type": "Feature",
            "geometry": {
                "type": "Point",
                "coordinates": [
                    19.3676,
                    51.35402
                ]
            },
            "properties": {
                "ref:rspo": 46581,
                "official_name": "Przedszkole Samorz\u0105dowe Nr 9",
                "name": "Przedszkole Samorz\u0105dowe Nr 9",
                "addr:postcode": "97-400",
                "addr:city": "Be\u0142chat\u00f3w",
                "addr:street": "Osiedle osiedle Dolno\u015bl\u0105skie",
                "addr:housenumber": "204A",
                "addr:teryt:simc": 967647,
                "addr:teryt:sym_ul": 50294,
                "phone": "+48 446334680",
                "email": "sp9@belchatow.pl",
                "website": "http:\/\/zspnr9.pl",
                "ref:regon": "101137962",
                "operator": "Miasto Be\u0142chat\u00f3w",
                "operator:type": "government",
                "amenity": "kindergarten",
                "note": "Parent RSPO: 26858"
            }
        },
        {
            "id": 46583,
            "type": "Feature",
            "geometry": {
                "type": "Point",
                "coordinates": [
                    19.3676,
                    51.35399
                ]
            },
            "properties": {
                "isced:level": "1;2",
                "ref:rspo": 46583,
                "official_name": "Szko\u0142a Podstawowa Nr 9 im. Aliny I Czes\u0142awa Centkiewicz\u00f3w",
                "name": "Szko\u0142a Podstawowa Nr 9",
                "addr:postcode": "97-400",
                "addr:city": "Be\u0142chat\u00f3w",
                "addr:street": "Osiedle osiedle Dolno\u015bl\u0105skie",
                "addr:housenumber": "204A",
                "addr:teryt:simc": 967647,
                "addr:teryt:sym_ul": 50294,
                "phone": "+48 446334680",
                "email": "sp9@belchatow.pl",
                "website": "http:\/\/zspnr9.pl",
                "ref:regon": "001269945",
                "operator": "Miasto Be\u0142chat\u00f3w",
                "operator:type": "government",
                "amenity": "school",
                "note": "Parent RSPO: 26858"
            }
        },
        {
            "id": 58526,
            "type": "Feature",
            "geometry": {
                "type": "Point",
                "coordinates": [
                    19.3704,
                    51.3546
                ]
            },
            "properties": {
                "ref:rspo": 58526,
                "official_name": "Niepubliczne Przedszkole Akademia Przedszkolaka \"Jab\u0142uszko\"",
                "name": "Niepubliczne Przedszkole Akademia Przedszkolaka \"Jab\u0142uszko\"",
                "addr:postcode": "97-400",
                "addr:city": "Be\u0142chat\u00f3w",
                "addr:street": "Wojska Polskiego",
                "addr:housenumber": "78",
                "addr:teryt:simc": 967647,
                "addr:teryt:sym_ul": 24628,
                "phone": "+48 606683663",
                "email": "akademia.jabluszko@interia.pl",
                "website": "http:\/\/przedszkole-jabluszko.pl",
                "ref:regon": "101495093",
                "ref:vatin": "PL7712198344",
                "operator": "Jan Jab\u0142o\u0144ski",
                "operator:type": "private",
                "amenity": "kindergarten"
            }
        },
        {
            "id": 13839,
            "type": "Feature",
            "geometry": {
                "type": "Point",
                "coordinates": [
                    19.38666,
                    51.35466
                ]
            },
            "properties": {
                "ref:rspo": 13839,
                "official_name": "Centrum Nauczania Pierwszej Pomocy Paramedikus Filip Ja\u015bkiewicz",
                "name": "Centrum Nauczania Pierwszej Pomocy Paramedikus Filip Ja\u015bkiewicz",
                "addr:postcode": "97-400",
                "addr:city": "Be\u0142chat\u00f3w",
                "addr:street": "Turkusowa",
                "addr:housenumber": "5",
                "addr:door": "18",
                "addr:teryt:simc": 967647,
                "addr:teryt:sym_ul": 23160,
                "phone": "+48 501702178",
                "email": "biuro@paramedikus.pl",
                "ref:regon": "101467406",
                "ref:vatin": "PL7692037269",
                "operator": "Filip Ja\u015bkiewicz",
                "operator:type": "private",
                "fixme": "w zale\u017cno\u015bci od przedmiotu dzia\u0142alno\u015bci (np. amenity=training + training=*, amenity=dancing_school, amenity=language_school, amenity=music_school)"
            }
        },
        {
            "id": 26872,
            "type": "Feature",
            "geometry": {
                "type": "Point",
                "coordinates": [
                    19.36631,
                    51.35493
                ]
            },
            "properties": {
                "ref:rspo": 26872,
                "official_name": "Przedszkole Samorz\u0105dowe Nr 5 im. Jana Brzechwy",
                "name": "Przedszkole Samorz\u0105dowe Nr 5",
                "addr:postcode": "97-400",
                "addr:city": "Be\u0142chat\u00f3w",
                "addr:street": "Osiedle osiedle Dolno\u015bl\u0105skie",
                "addr:housenumber": "222a",
                "addr:teryt:simc": 967647,
                "addr:teryt:sym_ul": 50294,
                "phone": "+48 446334700",
                "email": "ps5@belchatow.pl",
                "website": "http:\/\/ps5belchatow.wikom.pl",
                "ref:regon": "592131522",
                "ref:vatin": "PL7691144282",
                "operator": "Miasto Be\u0142chat\u00f3w",
                "operator:type": "government",
                "amenity": "kindergarten"
            }
        },
        {
            "id": 26873,
            "type": "Feature",
            "geometry": {
                "type": "Point",
                "coordinates": [
                    19.38929,
                    51.35548
                ]
            },
            "properties": {
                "ref:rspo": 26873,
                "official_name": "Przedszkole Samorz\u0105dowe Nr 6 im. Marii Kownackiej",
                "name": "Przedszkole Samorz\u0105dowe Nr 6",
                "addr:postcode": "97-400",
                "addr:city": "Be\u0142chat\u00f3w",
                "addr:street": "Witolda Budryka",
                "addr:housenumber": "12A",
                "addr:teryt:simc": 967647,
                "addr:teryt:sym_ul": 2342,
                "phone": "+48 446336399",
                "email": "ps6@belchatow.pl",
                "website": "http:\/\/ps6belchatow.wikom.pl",
                "ref:regon": "592131516",
                "ref:vatin": "PL7691967598",
                "operator": "Miasto Be\u0142chat\u00f3w",
                "operator:type": "government",
                "amenity": "kindergarten"
            }
        },
        {
            "id": 277421,
            "type": "Feature",
            "geometry": {
                "type": "Point",
                "coordinates": [
                    19.39052,
                    51.35584
                ]
            },
            "properties": {
                "ref:rspo": 277421,
                "official_name": "Niepubliczne Przedszkole \"Receptorek\"",
                "name": "Niepubliczne Przedszkole \"Receptorek\"",
                "addr:postcode": "97-400",
                "addr:city": "Be\u0142chat\u00f3w",
                "addr:street": "Kredowa",
                "addr:housenumber": "37",
                "addr:teryt:simc": 967647,
                "addr:teryt:sym_ul": 9901,
                "phone": "+48 666117776",
                "email": "przedszkole@receptorek.com.pl",
                "website": "http:\/\/receptor.com.pl",
                "ref:regon": "388817223",
                "ref:vatin": "PL7331134726",
                "operator": "Beata Mirecka",
                "operator:type": "private",
                "amenity": "kindergarten"
            }
        },
        {
            "id": 270334,
            "type": "Feature",
            "geometry": {
                "type": "Point",
                "coordinates": [
                    19.39544,
                    51.35611
                ]
            },
            "properties": {
                "ref:rspo": 270334,
                "official_name": "\"Niebieska Sowa\" Sp\u00f3\u0142ka Cywilna Izabela Rzepka, Ewelina Kowalczyk",
                "name": "\"Niebieska Sowa\" Sp\u00f3\u0142ka Cywilna Izabela Rzepka, Ewelina Kowalczyk",
                "addr:postcode": "97-400",
                "addr:city": "Be\u0142chat\u00f3w",
                "addr:street": "Szafirowa",
                "addr:housenumber": "16",
                "addr:teryt:simc": 967647,
                "addr:teryt:sym_ul": 21712,
                "phone": "+48 503198147",
                "email": "biuro.niebieska.sowa@gmail.com",
                "website": "http:\/\/niebieska-sowa.pl",
                "ref:regon": "382388672",
                "operator": "\"Niebieska Sowa\" Sp\u00f3\u0142ka Cywilna Izabela Rzepka, Ewelina Kowalczyk",
                "operator:type": "consortium",
                "amenity": "kindergarten"
            }
        },
        {
            "id": 46585,
            "type": "Feature",
            "geometry": {
                "type": "Point",
                "coordinates": [
                    19.36687,
                    51.35645
                ]
            },
            "properties": {
                "isced:level": "3",
                "ref:rspo": 46585,
                "official_name": "Iii Liceum Og\u00f3lnokszta\u0142c\u0105ce im. Adama Mickiewicza",
                "name": "Iii Liceum Og\u00f3lnokszta\u0142c\u0105ce",
                "addr:postcode": "97-400",
                "addr:city": "Be\u0142chat\u00f3w",
                "addr:street": "Edward\u00f3w",
                "addr:housenumber": "5",
                "addr:teryt:simc": 967647,
                "addr:teryt:sym_ul": 4735,
                "phone": "+48 446321263",
                "email": "lo3@mickiewicz.belchatow.pl",
                "website": "http:\/\/mickiewicz.belchatow.pl",
                "ref:regon": "590550574",
                "ref:vatin": "PL7692234975",
                "operator": "Miasto Be\u0142chat\u00f3w",
                "operator:type": "government",
                "amenity": "school"
            }
        },
        {
            "id": 127815,
            "type": "Feature",
            "geometry": {
                "type": "Point",
                "coordinates": [
                    19.36687,
                    51.35642
                ]
            },
            "properties": {
                "ref:rspo": 127815,
                "official_name": "O\u015brodek Ksztalcenia I Doskonalenia Zawodowego Skoltech",
                "name": "O\u015brodek Ksztalcenia I Doskonalenia Zawodowego Skoltech",
                "addr:postcode": "97-400",
                "addr:city": "Be\u0142chat\u00f3w",
                "addr:street": "Edward\u00f3w",
                "addr:housenumber": "5",
                "addr:teryt:simc": 967647,
                "addr:teryt:sym_ul": 4735,
                "phone": "+48 512354996",
                "email": "bartek.tatarczak@poczta.fm",
                "ref:regon": "361861700",
                "operator": "Bartosz Tatarczak",
                "operator:type": "private",
                "fixme": "w zale\u017cno\u015bci od przedmiotu dzia\u0142alno\u015bci (np. amenity=training + training=*, amenity=dancing_school, amenity=language_school, amenity=music_school)"
            }
        },
        {
            "id": 272050,
            "type": "Feature",
            "geometry": {
                "type": "Point",
                "coordinates": [
                    19.36687,
                    51.356390000000005
                ]
            },
            "properties": {
                "isced:level": "1;2",
                "ref:rspo": 272050,
                "official_name": "Szko\u0142a Podstawowa dla Doros\u0142ych w Be\u0142chatowie \"Dr Piontek\"",
                "name": "Szko\u0142a Podstawowa dla Doros\u0142ych w Be\u0142chatowie \"Dr Piontek\"",
                "addr:postcode": "97-400",
                "addr:city": "Be\u0142chat\u00f3w",
                "addr:street": "Edward\u00f3w",
                "addr:housenumber": "5",
                "addr:teryt:simc": 967647,
                "addr:teryt:sym_ul": 4735,
                "phone": "+48 446330878",
                "email": "dyrekcja@piontek.edu.pl",
                "website": "http:\/\/piontek.edu.pl",
                "ref:regon": "383895187",
                "operator": "Jerzy Piontek",
                "operator:type": "private",
                "amenity": "school"
            }
        },
        {
            "id": 272855,
            "type": "Feature",
            "geometry": {
                "type": "Point",
                "coordinates": [
                    19.36687,
                    51.35636
                ]
            },
            "properties": {
                "isced:level": "4",
                "ref:rspo": 272855,
                "official_name": "Publiczna Szko\u0142a Policealna \"Cosinus Plus\" w Be\u0142chatowie",
                "name": "Publiczna Szko\u0142a Policealna \"Cosinus Plus\" w Be\u0142chatowie",
                "addr:postcode": "97-400",
                "addr:city": "Be\u0142chat\u00f3w",
                "addr:street": "Edward\u00f3w",
                "addr:housenumber": "5",
                "addr:teryt:simc": 967647,
                "addr:teryt:sym_ul": 4735,
                "phone": "+48 446331859",
                "email": "belchatow@cosinus.pl",
                "website": "http:\/\/www.cosinus.pl",
                "ref:regon": "384308393",
                "operator": "Fundacja Rideton",
                "operator:type": "ngo",
                "amenity": "college"
            }
        },
        {
            "id": 273811,
            "type": "Feature",
            "geometry": {
                "type": "Point",
                "coordinates": [
                    19.36687,
                    51.35633
                ]
            },
            "properties": {
                "ref:rspo": 273811,
                "official_name": "Niepubliczna Plac\u00f3wka Dydaktyki I Praktyki Zawodu w Be\u0142chatowie",
                "name": "Niepubliczna Plac\u00f3wka Dydaktyki I Praktyki Zawodu w Be\u0142chatowie",
                "addr:postcode": "97-400",
                "addr:city": "Be\u0142chat\u00f3w",
                "addr:street": "Edward\u00f3w",
                "addr:housenumber": "5",
                "addr:teryt:simc": 967647,
                "addr:teryt:sym_ul": 4735,
                "phone": "+48 697139690",
                "email": "anna.m.owczarek@wp.pl",
                "ref:regon": "384663674",
                "operator": "Anna Owczarek",
                "operator:type": "private",
                "fixme": "w zale\u017cno\u015bci od przedmiotu dzia\u0142alno\u015bci (np. amenity=training + training=*, amenity=dancing_school, amenity=language_school, amenity=music_school)"
            }
        },
        {
            "id": 278548,
            "type": "Feature",
            "geometry": {
                "type": "Point",
                "coordinates": [
                    19.37196,
                    51.35645
                ]
            },
            "properties": {
                "ref:rspo": 278548,
                "official_name": "Muzyczno-Artystyczne Niepubliczne Przedszkole Karolinka",
                "name": "Muzyczno-Artystyczne Niepubliczne Przedszkole Karolinka",
                "addr:postcode": "97-400",
                "addr:city": "Be\u0142chat\u00f3w",
                "addr:street": "Lucjana Nehrebeckiego",
                "addr:housenumber": "55",
                "addr:teryt:simc": 967647,
                "addr:teryt:sym_ul": 32809,
                "phone": "+48 663557676",
                "email": "muzycznakarolinka@gmail.com",
                "website": "http:\/\/ekarolinka.pl",
                "ref:regon": "389965428",
                "ref:vatin": "PL7712748862",
                "operator": "Mateusz Cie\u015blak",
                "operator:type": "private",
                "amenity": "kindergarten"
            }
        },
        {
            "id": 43854,
            "type": "Feature",
            "geometry": {
                "type": "Point",
                "coordinates": [
                    19.38961,
                    51.35648
                ]
            },
            "properties": {
                "isced:level": "1;2",
                "ref:rspo": 43854,
                "official_name": "Szko\u0142a Podstawowa Nr 12 im. Kornela Makuszy\u0144skiego",
                "name": "Szko\u0142a Podstawowa Nr 12",
                "addr:postcode": "97-400",
                "addr:city": "Be\u0142chat\u00f3w",
                "addr:street": "Witolda Budryka",
                "addr:housenumber": "7",
                "addr:teryt:simc": 967647,
                "addr:teryt:sym_ul": 2342,
                "phone": "+48 446336421",
                "email": "sp12@belchatow.pl",
                "website": "https:\/\/sp12belchatow.edupage.org",
                "ref:regon": "590030580",
                "ref:vatin": "PL7691086627",
                "operator": "Miasto Be\u0142chat\u00f3w",
                "operator:type": "government",
                "amenity": "school"
            }
        },
        {
            "id": 26874,
            "type": "Feature",
            "geometry": {
                "type": "Point",
                "coordinates": [
                    19.36178,
                    51.35687
                ]
            },
            "properties": {
                "ref:rspo": 26874,
                "official_name": "Przedszkole Samorz\u0105dowe Nr 7 im. Krasnala Ha\u0142aba\u0142y",
                "name": "Przedszkole Samorz\u0105dowe Nr 7",
                "addr:postcode": "97-400",
                "addr:city": "Be\u0142chat\u00f3w",
                "addr:street": "Edward\u00f3w",
                "addr:housenumber": "4",
                "addr:teryt:simc": 967647,
                "addr:teryt:sym_ul": 4735,
                "phone": "+48 446326637",
                "email": "ps7@belchatow.pl",
                "website": "http:\/\/ps7belchatow.wikom.pl",
                "ref:regon": "592132533",
                "ref:vatin": "PL7691967606",
                "operator": "Miasto Be\u0142chat\u00f3w",
                "operator:type": "government",
                "amenity": "kindergarten"
            }
        },
        {
            "id": 40095,
            "type": "Feature",
            "geometry": {
                "type": "Point",
                "coordinates": [
                    19.36384,
                    51.35929
                ]
            },
            "properties": {
                "isced:level": "1;2",
                "ref:rspo": 40095,
                "official_name": "Szko\u0142a Podstawowa Nr 8 im. Jana Brzechwy Z Oddzia\u0142ami Integracyjnymi",
                "name": "Szko\u0142a Podstawowa Nr 8",
                "addr:postcode": "97-400",
                "addr:city": "Be\u0142chat\u00f3w",
                "addr:street": "Osiedle osiedle Dolno\u015bl\u0105skie",
                "addr:housenumber": "112a",
                "addr:teryt:simc": 967647,
                "addr:teryt:sym_ul": 50294,
                "phone": "+48 446322206",
                "email": "sp8@belchatow.pl",
                "website": "http:\/\/sp8belchatow.pl\/",
                "ref:regon": "001074035",
                "ref:vatin": "PL7691142171",
                "operator": "Miasto Be\u0142chat\u00f3w",
                "operator:type": "government",
                "amenity": "school"
            }
        },
        {
            "id": 124246,
            "type": "Feature",
            "geometry": {
                "type": "Point",
                "coordinates": [
                    19.36332,
                    51.36229
                ]
            },
            "properties": {
                "isced:level": "1;2",
                "ref:rspo": 124246,
                "official_name": "Niepubliczna Szko\u0142a Podstawowa",
                "name": "Niepubliczna Szko\u0142a Podstawowa",
                "addr:postcode": "97-400",
                "addr:city": "Be\u0142chat\u00f3w",
                "addr:street": "Lipowa",
                "addr:housenumber": "5",
                "addr:teryt:simc": 967647,
                "addr:teryt:sym_ul": 11139,
                "phone": "+48 606683663",
                "email": "edyta1204@interia.pl",
                "website": "http:\/\/www.nspbelchatow.pl",
                "ref:regon": "101827840",
                "operator": "Edyta Jab\u0142o\u0144ska",
                "operator:type": "private",
                "amenity": "school"
            }
        },
        {
            "id": 26868,
            "type": "Feature",
            "geometry": {
                "type": "Point",
                "coordinates": [
                    19.37998,
                    51.36245
                ]
            },
            "properties": {
                "ref:rspo": 26868,
                "official_name": "Integracyjne Przedszkole Samorz\u0105dowe Nr 3",
                "name": "Integracyjne Przedszkole Samorz\u0105dowe Nr 3",
                "addr:postcode": "97-400",
                "addr:city": "Be\u0142chat\u00f3w",
                "addr:street": "Osiedle osiedle Okrzei",
                "addr:housenumber": "15a",
                "addr:teryt:simc": 967647,
                "addr:teryt:sym_ul": 50284,
                "phone": "+48 446324641",
                "email": "ps3@belchatow.pl",
                "website": "http:\/\/przedszkolenr3.type.pl",
                "ref:regon": "592131500",
                "ref:vatin": "PL7691967581",
                "operator": "Miasto Be\u0142chat\u00f3w",
                "operator:type": "government",
                "amenity": "kindergarten"
            }
        },
        {
            "id": 9485,
            "type": "Feature",
            "geometry": {
                "type": "Point",
                "coordinates": [
                    19.36624,
                    51.36261
                ]
            },
            "properties": {
                "ref:rspo": 9485,
                "official_name": "O\u015brodek Kszta\u0142cenia Zawodowego I J\u0119zykowego \"Labora\" Sp. Z O.o.",
                "name": "O\u015brodek Kszta\u0142cenia Zawodowego I J\u0119zykowego \"Labora\" Sp. Z O.o.",
                "addr:postcode": "97-400",
                "addr:city": "Be\u0142chat\u00f3w",
                "addr:street": "Rotmistrza Witolda Pileckiego",
                "addr:housenumber": "26",
                "addr:teryt:simc": 967647,
                "addr:teryt:sym_ul": 31083,
                "phone": "+48 446322248",
                "email": "labora@labora.com.pl",
                "ref:regon": "101461958",
                "operator": "O\u015brodek Kszta\u0142cenia Zawodowego I J\u0119zykowego \"Labora\" Sp\u00f3\u0142ka Z Ograniczon\u0105 Odpowiedzialno\u015bci\u0105",
                "operator:type": "private",
                "fixme": "w zale\u017cno\u015bci od przedmiotu dzia\u0142alno\u015bci (np. amenity=training + training=*, amenity=dancing_school, amenity=language_school, amenity=music_school)"
            }
        },
        {
            "id": 29282,
            "type": "Feature",
            "geometry": {
                "type": "Point",
                "coordinates": [
                    19.36221,
                    51.36271
                ]
            },
            "properties": {
                "isced:level": "4",
                "ref:rspo": 29282,
                "official_name": "Policealna Szko\u0142a w Be\u0142chatowie",
                "name": "Policealna Szko\u0142a w Be\u0142chatowie",
                "addr:postcode": "97-400",
                "addr:city": "Be\u0142chat\u00f3w",
                "addr:street": "Lipowa",
                "addr:housenumber": "11",
                "addr:teryt:simc": 967647,
                "addr:teryt:sym_ul": 11139,
                "phone": "+48 446311504",
                "email": "belchatow@szkolygabor.pl",
                "ref:regon": "101482653",
                "operator": "Gabor Sp\u00f3\u0142ka Z Ograniczon\u0105 Odpowiedzialno\u015bci\u0105 Sp\u00f3\u0142ka Komandytowa",
                "operator:type": "private",
                "amenity": "college"
            }
        },
        {
            "id": 43799,
            "type": "Feature",
            "geometry": {
                "type": "Point",
                "coordinates": [
                    19.36221,
                    51.36268
                ]
            },
            "properties": {
                "isced:level": "3",
                "ref:rspo": 43799,
                "official_name": "Zaoczne Liceum Og\u00f3lnokszta\u0142c\u0105ce dla Doros\u0142ych",
                "name": "Zaoczne Liceum Og\u00f3lnokszta\u0142c\u0105ce dla Doros\u0142ych",
                "addr:postcode": "97-400",
                "addr:city": "Be\u0142chat\u00f3w",
                "addr:street": "Lipowa",
                "addr:housenumber": "11",
                "addr:teryt:simc": 967647,
                "addr:teryt:sym_ul": 11139,
                "phone": "+48 693364292",
                "email": "belchatow@szkolygabor.pl",
                "ref:regon": "101489879",
                "operator": "Gabor Sp\u00f3\u0142ka Z Ograniczon\u0105 Odpowiedzialno\u015bci\u0105 Sp\u00f3\u0142ka Komandytowa",
                "operator:type": "private",
                "amenity": "school"
            }
        },
        {
            "id": 43850,
            "type": "Feature",
            "geometry": {
                "type": "Point",
                "coordinates": [
                    19.36221,
                    51.36265
                ]
            },
            "properties": {
                "isced:level": "1;2",
                "ref:rspo": 43850,
                "official_name": "Szko\u0142a Podstawowa Nr 4 im. Stefana \u017beromskiego",
                "name": "Szko\u0142a Podstawowa Nr 4",
                "addr:postcode": "97-400",
                "addr:city": "Be\u0142chat\u00f3w",
                "addr:street": "Lipowa",
                "addr:housenumber": "11",
                "addr:teryt:simc": 967647,
                "addr:teryt:sym_ul": 11139,
                "phone": "+48 446322218",
                "email": "sp4@belchatow.pl",
                "website": "http:\/\/czworka.info",
                "ref:regon": "000816061",
                "ref:vatin": "PL7691362004",
                "operator": "Miasto Be\u0142chat\u00f3w",
                "operator:type": "government",
                "amenity": "school"
            }
        },
        {
            "id": 43849,
            "type": "Feature",
            "geometry": {
                "type": "Point",
                "coordinates": [
                    19.37691,
                    51.36318
                ]
            },
            "properties": {
                "isced:level": "1;2",
                "ref:rspo": 43849,
                "official_name": "Szko\u0142a Podstawowa Nr 1 im. Stanis\u0142awa Jachowicza Z Oddzia\u0142ami Integracyjnymi",
                "name": "Szko\u0142a Podstawowa Nr 1",
                "addr:postcode": "97-400",
                "addr:city": "Be\u0142chat\u00f3w",
                "addr:street": "D\u0105browskiego",
                "addr:housenumber": "11",
                "addr:teryt:simc": 967647,
                "addr:teryt:sym_ul": 3667,
                "phone": "+48 446321596",
                "email": "sp1@belchatow.pl",
                "website": "http:\/\/sp1.belchatow.pl",
                "ref:regon": "000816380",
                "ref:vatin": "PL7691105945",
                "operator": "Miasto Be\u0142chat\u00f3w",
                "operator:type": "government",
                "amenity": "school"
            }
        },
        {
            "id": 27568,
            "type": "Feature",
            "geometry": {
                "type": "Point",
                "coordinates": [
                    19.37423,
                    51.36483
                ]
            },
            "properties": {
                "isced:level": "3",
                "ref:rspo": 27568,
                "official_name": "I Liceum Og\u00f3lnokszta\u0142c\u0105ce im. W\u0142. Broniewskiego w Be\u0142chatowie",
                "name": "I Liceum Og\u00f3lnokszta\u0142c\u0105ce",
                "addr:postcode": "97-400",
                "addr:city": "Be\u0142chat\u00f3w",
                "addr:street": "1 Maja",
                "addr:housenumber": "6",
                "addr:teryt:simc": 967647,
                "addr:teryt:sym_ul": 11926,
                "phone": "+48 446322010",
                "email": "lo1@lo1.pol.pl",
                "ref:regon": "592145760",
                "operator": "Powiat Be\u0142chatowski",
                "operator:type": "government",
                "amenity": "school"
            }
        },
        {
            "id": 29541,
            "type": "Feature",
            "geometry": {
                "type": "Point",
                "coordinates": [
                    19.37289,
                    51.36491
                ]
            },
            "properties": {
                "isced:level": "4",
                "ref:rspo": 29541,
                "official_name": "Policealna Szko\u0142a Teb Edukacja w Be\u0142chatowie",
                "name": "Policealna Szko\u0142a Teb Edukacja w Be\u0142chatowie",
                "addr:postcode": "97-400",
                "addr:city": "Be\u0142chat\u00f3w",
                "addr:street": "1 Maja",
                "addr:housenumber": "4",
                "addr:teryt:simc": 967647,
                "addr:teryt:sym_ul": 11926,
                "phone": "+48 447152380",
                "email": "belchatow@teb-edukacja.pl",
                "website": "http:\/\/www.teb.pl",
                "ref:regon": "101488897",
                "operator": "Teb Edukacja Sp\u00f3\u0142ka Z Ograniczon\u0105 Odpowiedzialno\u015bci\u0105",
                "operator:type": "private",
                "amenity": "college"
            }
        },
        {
            "id": 29607,
            "type": "Feature",
            "geometry": {
                "type": "Point",
                "coordinates": [
                    19.37289,
                    51.36488
                ]
            },
            "properties": {
                "isced:level": "4",
                "ref:rspo": 29607,
                "official_name": "Niepubliczna Szko\u0142a Policealna Teb Edukacja w Be\u0142chatowie",
                "name": "Niepubliczna Szko\u0142a Policealna Teb Edukacja w Be\u0142chatowie",
                "addr:postcode": "97-400",
                "addr:city": "Be\u0142chat\u00f3w",
                "addr:street": "1 Maja",
                "addr:housenumber": "4",
                "addr:teryt:simc": 967647,
                "addr:teryt:sym_ul": 11926,
                "phone": "+48 447152380",
                "email": "belchatow@teb-edukacja.pl",
                "website": "http:\/\/www.teb.pl",
                "ref:regon": "101493935",
                "operator": "Teb Edukacja Sp\u00f3\u0142ka Z Ograniczon\u0105 Odpowiedzialno\u015bci\u0105",
                "operator:type": "private",
                "amenity": "college"
            }
        },
        {
            "id": 43794,
            "type": "Feature",
            "geometry": {
                "type": "Point",
                "coordinates": [
                    19.37289,
                    51.364850000000004
                ]
            },
            "properties": {
                "ref:rspo": 43794,
                "official_name": "Teb Edukacja Studium Kszta\u0142cenia Praktycznego",
                "name": "Teb Edukacja Studium Kszta\u0142cenia Praktycznego",
                "addr:postcode": "97-400",
                "addr:city": "Be\u0142chat\u00f3w",
                "addr:street": "1 Maja",
                "addr:housenumber": "4",
                "addr:teryt:simc": 967647,
                "addr:teryt:sym_ul": 11926,
                "phone": "+48 447152380",
                "email": "belchatow@teb-edukacja.pl",
                "website": "http:\/\/www.teb.pl",
                "ref:regon": "101487320",
                "operator": "Teb Edukacja Sp\u00f3\u0142ka Z Ograniczon\u0105 Odpowiedzialno\u015bci\u0105",
                "operator:type": "private",
                "fixme": "w zale\u017cno\u015bci od przedmiotu dzia\u0142alno\u015bci (np. amenity=training + training=*, amenity=dancing_school, amenity=language_school, amenity=music_school)"
            }
        },
        {
            "id": 132301,
            "type": "Feature",
            "geometry": {
                "type": "Point",
                "coordinates": [
                    19.37289,
                    51.36482
                ]
            },
            "properties": {
                "isced:level": "3",
                "ref:rspo": 132301,
                "official_name": "Technikum Teb Edukacja w Be\u0142chatowie",
                "name": "Technikum Teb Edukacja w Be\u0142chatowie",
                "addr:postcode": "97-400",
                "addr:city": "Be\u0142chat\u00f3w",
                "addr:street": "1 Maja",
                "addr:housenumber": "4",
                "addr:teryt:simc": 967647,
                "addr:teryt:sym_ul": 11926,
                "phone": "+48 447152380",
                "email": "belchatow@teb-edukacja.pl",
                "website": "http:\/\/www.technikum.pl",
                "ref:regon": "365533877",
                "operator": "Teb Edukacja Sp\u00f3\u0142ka Z Ograniczon\u0105 Odpowiedzialno\u015bci\u0105",
                "operator:type": "private",
                "amenity": "school"
            }
        },
        {
            "id": 43796,
            "type": "Feature",
            "geometry": {
                "type": "Point",
                "coordinates": [
                    19.3697,
                    51.36499
                ]
            },
            "properties": {
                "isced:level": "4",
                "ref:rspo": 43796,
                "official_name": "Szko\u0142a Policealna Centrum Nauki I Biznesu \"\u017bak\"",
                "name": "Szko\u0142a Policealna Centrum Nauki I Biznesu \"\u017bak\"",
                "addr:postcode": "97-400",
                "addr:city": "Be\u0142chat\u00f3w",
                "addr:street": "Tadeusza Ko\u015bciuszki",
                "addr:housenumber": "17",
                "addr:teryt:simc": 967647,
                "addr:teryt:sym_ul": 9572,
                "phone": "+48 446350761",
                "email": "belchatow@zak.edu.pl",
                "ref:regon": "101489744",
                "operator": "Centrum Nauki I Biznesu \"\u017bak\" Sp\u00f3\u0142ka Z Ograniczon\u0105 Odpowiedzialno\u015bci\u0105",
                "operator:type": "private",
                "amenity": "college"
            }
        },
        {
            "id": 129339,
            "type": "Feature",
            "geometry": {
                "type": "Point",
                "coordinates": [
                    19.3697,
                    51.364959999999996
                ]
            },
            "properties": {
                "isced:level": "4",
                "ref:rspo": 129339,
                "official_name": "Szko\u0142a Policealna Medyczna \"\u017bak\" w Be\u0142chatowie",
                "name": "Szko\u0142a Policealna Medyczna \"\u017bak\" w Be\u0142chatowie",
                "addr:postcode": "97-400",
                "addr:city": "Be\u0142chat\u00f3w",
                "addr:street": "Tadeusza Ko\u015bciuszki",
                "addr:housenumber": "17",
                "addr:teryt:simc": 967647,
                "addr:teryt:sym_ul": 9572,
                "phone": "+48 446350761",
                "email": "centrala@zak.edu.pl",
                "website": "http:\/\/www.zak.edu.pl",
                "ref:regon": "362568042",
                "operator": "Centrum Nauki I Biznesu \"\u017bak\" Sp\u00f3\u0142ka Z Ograniczon\u0105 Odpowiedzialno\u015bci\u0105",
                "operator:type": "private",
                "amenity": "college"
            }
        },
        {
            "id": 262982,
            "type": "Feature",
            "geometry": {
                "type": "Point",
                "coordinates": [
                    19.3697,
                    51.36493
                ]
            },
            "properties": {
                "isced:level": "4",
                "ref:rspo": 262982,
                "official_name": "Szko\u0142a Policealna Opieki Medycznej \"\u017bak\" w Be\u0142chatowie",
                "name": "Szko\u0142a Policealna Opieki Medycznej \"\u017bak\" w Be\u0142chatowie",
                "addr:postcode": "97-400",
                "addr:city": "Be\u0142chat\u00f3w",
                "addr:street": "Tadeusza Ko\u015bciuszki",
                "addr:housenumber": "17",
                "addr:teryt:simc": 967647,
                "addr:teryt:sym_ul": 9572,
                "phone": "+48 446350761",
                "email": "belchatow@zak.edu.pl",
                "website": "http:\/\/www.zak.edu.pl",
                "ref:regon": "368082352",
                "operator": "Centrum Nauki I Biznesu \"\u017bak\" Sp\u00f3\u0142ka Z Ograniczon\u0105 Odpowiedzialno\u015bci\u0105",
                "operator:type": "private",
                "amenity": "college"
            }
        },
        {
            "id": 270776,
            "type": "Feature",
            "geometry": {
                "type": "Point",
                "coordinates": [
                    19.3697,
                    51.3649
                ]
            },
            "properties": {
                "isced:level": "4",
                "ref:rspo": 270776,
                "official_name": "Publiczna Szko\u0142a Policealna Florystyki \"\u017bak\" w Be\u0142chatowie",
                "name": "Publiczna Szko\u0142a Policealna Florystyki \"\u017bak\" w Be\u0142chatowie",
                "addr:postcode": "97-400",
                "addr:city": "Be\u0142chat\u00f3w",
                "addr:street": "Tadeusza Ko\u015bciuszki",
                "addr:housenumber": "17",
                "addr:teryt:simc": 967647,
                "addr:teryt:sym_ul": 9572,
                "phone": "+48 446350761",
                "email": "belchatow@zak.edu.pl",
                "website": "http:\/\/www.belchatow.zak.edu.pl",
                "ref:regon": "382916527",
                "operator": "Centrum Nauki I Biznesu \"\u017bak\" Sp\u00f3\u0142ka Z Ograniczon\u0105 Odpowiedzialno\u015bci\u0105",
                "operator:type": "private",
                "amenity": "college"
            }
        },
        {
            "id": 26870,
            "type": "Feature",
            "geometry": {
                "type": "Point",
                "coordinates": [
                    19.37987,
                    51.36561
                ]
            },
            "properties": {
                "ref:rspo": 26870,
                "official_name": "Przedszkole Samorz\u0105dowe Nr 4",
                "name": "Przedszkole Samorz\u0105dowe Nr 4",
                "addr:postcode": "97-400",
                "addr:city": "Be\u0142chat\u00f3w",
                "addr:street": "Osiedle osiedle 1 Maja",
                "addr:housenumber": "8",
                "addr:teryt:simc": 967647,
                "addr:teryt:sym_ul": 50290,
                "phone": "+48 446322615",
                "email": "ps4@belchatow.pl",
                "website": "http:\/\/ps4belchatow.wikom.pl",
                "ref:regon": "592131551",
                "ref:vatin": "PL7691144336",
                "operator": "Miasto Be\u0142chat\u00f3w",
                "operator:type": "government",
                "amenity": "kindergarten"
            }
        },
        {
            "id": 26866,
            "type": "Feature",
            "geometry": {
                "type": "Point",
                "coordinates": [
                    19.38032,
                    51.3662
                ]
            },
            "properties": {
                "ref:rspo": 26866,
                "official_name": "Przedszkole Samorz\u0105dowe Nr 1 im. Pod Topol\u0105",
                "name": "Przedszkole Samorz\u0105dowe Nr 1",
                "addr:postcode": "97-400",
                "addr:city": "Be\u0142chat\u00f3w",
                "addr:street": "1 Maja",
                "addr:housenumber": "4a",
                "addr:teryt:simc": 967647,
                "addr:teryt:sym_ul": 11926,
                "phone": "+48 446321267",
                "email": "ps1@belchatow.pl",
                "website": "http:\/\/ps1belchatow.wikom.pl",
                "ref:regon": "592131545",
                "ref:vatin": "PL7691967552",
                "operator": "Miasto Be\u0142chat\u00f3w",
                "operator:type": "government",
                "amenity": "kindergarten"
            }
        },
        {
            "id": 124588,
            "type": "Feature",
            "geometry": {
                "type": "Point",
                "coordinates": [
                    19.35846,
                    51.36653
                ]
            },
            "properties": {
                "ref:rspo": 124588,
                "official_name": "Przedszkole Niepubliczne \"Akademia U\u015bmiechu\"",
                "name": "Przedszkole Niepubliczne \"Akademia U\u015bmiechu\"",
                "addr:postcode": "97-400",
                "addr:city": "Be\u0142chat\u00f3w",
                "addr:street": "Czapliniecka",
                "addr:housenumber": "44",
                "addr:teryt:simc": 967647,
                "addr:teryt:sym_ul": 3252,
                "phone": "+48 696931807",
                "email": "akademia.usmiechu@poczta.fm",
                "ref:regon": "101834425",
                "operator": "S\u0142awomir Oset",
                "operator:type": "private",
                "amenity": "kindergarten"
            }
        },
        {
            "id": 130119,
            "type": "Feature",
            "geometry": {
                "type": "Point",
                "coordinates": [
                    19.36439,
                    51.36707
                ]
            },
            "properties": {
                "ref:rspo": 130119,
                "official_name": "Niepubliczne Przedszkole \"Kraina Malucha\"",
                "name": "Niepubliczne Przedszkole \"Kraina Malucha\"",
                "addr:postcode": "97-400",
                "addr:city": "Be\u0142chat\u00f3w",
                "addr:street": "Mielczarskiego",
                "addr:housenumber": "25",
                "addr:teryt:simc": 967647,
                "addr:teryt:sym_ul": 12781,
                "phone": "+48 510460226",
                "email": "krainamaluchabelchatow@o2.pl",
                "ref:regon": "363504080",
                "ref:vatin": "PL7691747690",
                "operator": "\"Interlogos\" S.c.anna Olejniczak Jaros\u0142aw Olejniczak",
                "operator:type": "private",
                "amenity": "kindergarten"
            }
        },
        {
            "id": 75605,
            "type": "Feature",
            "geometry": {
                "type": "Point",
                "coordinates": [
                    19.37874,
                    51.36769
                ]
            },
            "properties": {
                "ref:rspo": 75605,
                "official_name": "Pa\u0144stwowa Szko\u0142a Muzyczna I St. w Be\u0142chatowie",
                "name": "Pa\u0144stwowa Szko\u0142a Muzyczna I St. w Be\u0142chatowie",
                "addr:postcode": "97-400",
                "addr:city": "Be\u0142chat\u00f3w",
                "addr:street": "pl. Wolno\u015bci",
                "addr:housenumber": "20",
                "addr:teryt:simc": 967647,
                "addr:teryt:sym_ul": 24685,
                "phone": "+48 446324779",
                "email": "psm1st-bel@o2.pl",
                "website": "http:\/\/www.muzycznabelchatow.szkolnastrona.pl",
                "ref:regon": "001095422",
                "operator": "Ministerstwo Kultury I Dziedzictwa Narodowego",
                "operator:type": "public",
                "amenity": "music_school"
            }
        },
        {
            "id": 104941,
            "type": "Feature",
            "geometry": {
                "type": "Point",
                "coordinates": [
                    19.35708,
                    51.36829
                ]
            },
            "properties": {
                "ref:rspo": 104941,
                "official_name": "Akademia Ma\u0142ych Smok\u00f3w Izabela Rzepka",
                "name": "Akademia Ma\u0142ych Smok\u00f3w Izabela Rzepka",
                "addr:postcode": "97-400",
                "addr:city": "Be\u0142chat\u00f3w",
                "addr:street": "Czapliniecka",
                "addr:housenumber": "107",
                "addr:teryt:simc": 967647,
                "addr:teryt:sym_ul": 3252,
                "email": "biuro.malesmoki@gmail.com",
                "website": "http:\/\/male-smoki.pl",
                "ref:regon": "101520448",
                "operator": "Izabela Rzepka",
                "operator:type": "private",
                "amenity": "kindergarten"
            }
        },
        {
            "id": 11334,
            "type": "Feature",
            "geometry": {
                "type": "Point",
                "coordinates": [
                    19.37137,
                    51.36848
                ]
            },
            "properties": {
                "ref:rspo": 11334,
                "official_name": "O\u015brodek Kszta\u0142cenia Ustawicznego w Be\u0142chatowie",
                "name": "O\u015brodek Kszta\u0142cenia Ustawicznego w Be\u0142chatowie",
                "addr:postcode": "97-400",
                "addr:city": "Be\u0142chat\u00f3w",
                "addr:street": "Fabryczna",
                "addr:housenumber": "6",
                "addr:teryt:simc": 967647,
                "addr:teryt:sym_ul": 4863,
                "phone": "+48 446329712",
                "email": "slobelchatow@interia.pl",
                "ref:regon": "101475759",
                "operator": "Be\u0142chatowskie Spo\u0142eczne Towarzystwo O\u015bwiatowe",
                "operator:type": "ngo",
                "fixme": "w zale\u017cno\u015bci od przedmiotu dzia\u0142alno\u015bci (np. amenity=training + training=*, amenity=dancing_school, amenity=language_school, amenity=music_school)"
            }
        },
        {
            "id": 31008,
            "type": "Feature",
            "geometry": {
                "type": "Point",
                "coordinates": [
                    19.37137,
                    51.368449999999996
                ]
            },
            "properties": {
                "ref:rspo": 31008,
                "official_name": "Zesp\u00f3\u0142 Szk\u00f3\u0142 I Plac\u00f3wek O\u015bwiatowych Bsto",
                "name": "Zesp\u00f3\u0142 Szk\u00f3\u0142 I Plac\u00f3wek O\u015bwiatowych Bsto",
                "addr:postcode": "97-400",
                "addr:city": "Be\u0142chat\u00f3w",
                "addr:street": "Fabryczna",
                "addr:housenumber": "6",
                "addr:teryt:simc": 967647,
                "addr:teryt:sym_ul": 4863,
                "phone": "+48 446329712",
                "email": "slobelchatow@interia.pl",
                "website": "http:\/\/www.zsherbert.pl",
                "ref:regon": "101487171",
                "ref:vatin": "PL7691685316",
                "operator": "Be\u0142chatowskie Spo\u0142eczne Towarzystwo O\u015bwiatowe",
                "operator:type": "ngo",
                "landuse": "education",
                "fixme": "amenity=school, amenity=college albo landuse=education w zale\u017cno\u015bci od tego, jakie plac\u00f3wki wchodz\u0105 w sk\u0142ad zespo\u0142u. Sprawd\u017a, kiedy stosowa\u0107 amenity=* a kiedy landuse=education.",
                "note": "Children RSPO: 55840"
            }
        },
        {
            "id": 55840,
            "type": "Feature",
            "geometry": {
                "type": "Point",
                "coordinates": [
                    19.37137,
                    51.36842
                ]
            },
            "properties": {
                "isced:level": "3",
                "ref:rspo": 55840,
                "official_name": "Vi Liceum Og\u00f3lnokszta\u0142c\u0105ce",
                "name": "Vi Liceum Og\u00f3lnokszta\u0142c\u0105ce",
                "addr:postcode": "97-400",
                "addr:city": "Be\u0142chat\u00f3w",
                "addr:street": "Fabryczna",
                "addr:housenumber": "6",
                "addr:teryt:simc": 967647,
                "addr:teryt:sym_ul": 4863,
                "phone": "+48 446329712",
                "email": "slobelchatow@interia.pl",
                "website": "http:\/\/www.zsherbert.pl",
                "ref:regon": "101490894",
                "operator": "Be\u0142chatowskie Spo\u0142eczne Towarzystwo O\u015bwiatowe",
                "operator:type": "ngo",
                "amenity": "school",
                "note": "Parent RSPO: 31008"
            }
        },
        {
            "id": 107398,
            "type": "Feature",
            "geometry": {
                "type": "Point",
                "coordinates": [
                    19.35705,
                    51.3685199
                ]
            },
            "properties": {
                "ref:rspo": 107398,
                "official_name": "Niepubliczna Plac\u00f3wka O\u015bwiatowa \"Motohouse\"",
                "name": "Niepubliczna Plac\u00f3wka O\u015bwiatowa \"Motohouse\"",
                "addr:postcode": "97-400",
                "addr:city": "Be\u0142chat\u00f3w",
                "addr:street": "Czapliniecka",
                "addr:housenumber": "67",
                "addr:teryt:simc": 967647,
                "addr:teryt:sym_ul": 3252,
                "phone": "+48 446321846",
                "email": "motohouse@onet.pl",
                "ref:regon": "101539896",
                "operator": "Mieczys\u0142aw Pelczar",
                "operator:type": "private",
                "fixme": "w zale\u017cno\u015bci od przedmiotu dzia\u0142alno\u015bci (np. amenity=training + training=*, amenity=dancing_school, amenity=language_school, amenity=music_school)"
            }
        },
        {
            "id": 13857,
            "type": "Feature",
            "geometry": {
                "type": "Point",
                "coordinates": [
                    19.357210159302,
                    51.369228363037
                ]
            },
            "properties": {
                "ref:rspo": 13857,
                "official_name": "Centrum Wyszkolenia Strzeleckiego Przy Zwi\u0105zku Strzeleckim \"Strzelec\"",
                "name": "Centrum Wyszkolenia Strzeleckiego Przy Zwi\u0105zku Strzeleckim \"Strzelec\"",
                "addr:postcode": "97-400",
                "addr:city": "Be\u0142chat\u00f3w",
                "addr:street": "Doktora W\u0142odzimierza Rodziewicza",
                "addr:housenumber": "10",
                "addr:teryt:simc": 967647,
                "addr:teryt:sym_ul": 35411,
                "phone": "+48 447120006",
                "email": "cws@strzelec-belchatow.pl",
                "ref:regon": "101467412",
                "operator": "Zwi\u0105zek Strzelecki \"Strzelec\" J\u00f3zefa Pi\u0142sudskiego Jednostka Strzelecka 1001 Im. Gen.dyw. Janusza G\u0142uchowskiego",
                "operator:type": "cooperative",
                "fixme": "w zale\u017cno\u015bci od przedmiotu dzia\u0142alno\u015bci (np. amenity=training + training=*, amenity=dancing_school, amenity=language_school, amenity=music_school)"
            }
        },
        {
            "id": 129040,
            "type": "Feature",
            "geometry": {
                "type": "Point",
                "coordinates": [
                    19.357210159302,
                    51.369198363037
                ]
            },
            "properties": {
                "ref:rspo": 129040,
                "official_name": "Gabinety Terapeutyczne \"Neurocentrum\" Niepubliczna Poradnia Psychologiczno-Pedagogiczna",
                "name": "Gabinety Terapeutyczne \"Neurocentrum\" Niepubliczna Poradnia Psychologiczno-Pedagogiczna",
                "addr:postcode": "97-400",
                "addr:city": "Be\u0142chat\u00f3w",
                "addr:street": "Lecha i Marii Kaczy\u0144skich",
                "addr:housenumber": "14",
                "addr:teryt:simc": 967647,
                "addr:teryt:sym_ul": 52335,
                "phone": "+48 601265955",
                "email": "poradniateczowa@onet.pl",
                "ref:regon": "362455266",
                "ref:vatin": "PL7712301641",
                "operator": "Monika Bujak",
                "operator:type": "private",
                "healthcare": "counselling",
                "counselling_type": "education",
                "fixme": "w zale\u017cno\u015bci od przedmiotu dzia\u0142alno\u015bci (np. healthcare=counselling + counselling_type=education albo healthcare=psychotherapist)"
            }
        },
        {
            "id": 25419,
            "type": "Feature",
            "geometry": {
                "type": "Point",
                "coordinates": [
                    19.38295,
                    51.36965
                ]
            },
            "properties": {
                "ref:rspo": 25419,
                "official_name": "Specjalny O\u015brodek Szkolno-Wychowawczy im. Gen. Janusza G\u0142uchowskiego w Be\u0142chatowie",
                "name": "Specjalny O\u015brodek Szkolno-Wychowawczy",
                "addr:postcode": "97-400",
                "addr:city": "Be\u0142chat\u00f3w",
                "addr:street": "Targowa",
                "addr:housenumber": "20",
                "addr:teryt:simc": 967647,
                "addr:teryt:sym_ul": 22659,
                "phone": "+48 446336008",
                "email": "sekretariat@soswbelchatow.pl",
                "website": "http:\/\/www.soswbelchatow.szkolnastrona.pl",
                "ref:regon": "001108768",
                "ref:vatin": "PL7691511728",
                "operator": "Powiat Be\u0142chatowski",
                "operator:type": "government",
                "amenity": "school",
                "note": "Children RSPO: 55439;55442;55444"
            }
        },
        {
            "id": 55439,
            "type": "Feature",
            "geometry": {
                "type": "Point",
                "coordinates": [
                    19.38295,
                    51.36962
                ]
            },
            "properties": {
                "isced:level": "1;2",
                "ref:rspo": 55439,
                "official_name": "Szko\u0142a Podstawowa Nr 6 w Be\u0142chatowie",
                "name": "Szko\u0142a Podstawowa Nr 6 w Be\u0142chatowie",
                "addr:postcode": "97-400",
                "addr:city": "Be\u0142chat\u00f3w",
                "addr:street": "Targowa",
                "addr:housenumber": "20",
                "addr:teryt:simc": 967647,
                "addr:teryt:sym_ul": 22659,
                "phone": "+48 446336008",
                "email": "sekretariat@soswbelchatow.pl",
                "website": "http:\/\/www.soswbelchatow.pl",
                "ref:regon": "592147279",
                "operator": "Powiat Be\u0142chatowski",
                "operator:type": "government",
                "amenity": "school",
                "note": "Parent RSPO: 25419"
            }
        },
        {
            "id": 55442,
            "type": "Feature",
            "geometry": {
                "type": "Point",
                "coordinates": [
                    19.38295,
                    51.36959
                ]
            },
            "properties": {
                "isced:level": "3",
                "ref:rspo": 55442,
                "official_name": "Bran\u017cowa Szko\u0142a Specjalna I Stopnia w Be\u0142chatowie",
                "name": "Bran\u017cowa Szko\u0142a Specjalna I Stopnia w Be\u0142chatowie",
                "addr:postcode": "97-400",
                "addr:city": "Be\u0142chat\u00f3w",
                "addr:street": "Targowa",
                "addr:housenumber": "20",
                "addr:teryt:simc": 967647,
                "addr:teryt:sym_ul": 22659,
                "phone": "+48 446336008",
                "email": "sekretariat@soswbelchatow.pl",
                "website": "http:\/\/www.soswbelchatow.pl",
                "ref:regon": "592147291",
                "operator": "Powiat Be\u0142chatowski",
                "operator:type": "government",
                "amenity": "school",
                "note": "Parent RSPO: 25419"
            }
        },
        {
            "id": 55444,
            "type": "Feature",
            "geometry": {
                "type": "Point",
                "coordinates": [
                    19.38295,
                    51.36956
                ]
            },
            "properties": {
                "ref:rspo": 55444,
                "official_name": "Szko\u0142a Specjalna Przysposabiaj\u0105ca Do Pracy w Be\u0142chatowie",
                "name": "Szko\u0142a Specjalna Przysposabiaj\u0105ca Do Pracy w Be\u0142chatowie",
                "addr:postcode": "97-400",
                "addr:city": "Be\u0142chat\u00f3w",
                "addr:street": "Targowa",
                "addr:housenumber": "20",
                "addr:teryt:simc": 967647,
                "addr:teryt:sym_ul": 22659,
                "phone": "+48 446336008",
                "email": "sekretariat@soswbelchatow.pl",
                "website": "http:\/\/www.soswbelchatow.pl",
                "ref:regon": "100420124",
                "operator": "Powiat Be\u0142chatowski",
                "operator:type": "government",
                "amenity": "school",
                "note": "Parent RSPO: 25419"
            }
        },
        {
            "id": 8212,
            "type": "Feature",
            "geometry": {
                "type": "Point",
                "coordinates": [
                    19.3542984,
                    51.3701478
                ]
            },
            "properties": {
                "ref:rspo": 8212,
                "official_name": "Bursa Szkolna w Be\u0142chatowie",
                "name": "Bursa Szkolna w Be\u0142chatowie",
                "addr:postcode": "97-400",
                "addr:city": "Be\u0142chat\u00f3w",
                "addr:street": "Czapliniecka",
                "addr:housenumber": "66",
                "addr:teryt:simc": 967647,
                "addr:teryt:sym_ul": 3252,
                "phone": "+48 446321252",
                "email": "bursa.belchatow@wp.pl",
                "ref:regon": "590296839",
                "ref:vatin": "PL7692067477",
                "operator": "Powiat Be\u0142chatowski",
                "operator:type": "government",
                "building": "dormitory"
            }
        },
        {
            "id": 31059,
            "type": "Feature",
            "geometry": {
                "type": "Point",
                "coordinates": [
                    19.35349,
                    51.3703
                ]
            },
            "properties": {
                "isced:level": "3",
                "ref:rspo": 31059,
                "official_name": "Ii Liceum Og\u00f3lnokszta\u0142c\u0105ce im. Jana Kochanowskiego w Be\u0142chatowie",
                "name": "Ii Liceum Og\u00f3lnokszta\u0142c\u0105ce",
                "addr:postcode": "97-400",
                "addr:city": "Be\u0142chat\u00f3w",
                "addr:street": "Czapliniecka",
                "addr:housenumber": "72",
                "addr:teryt:simc": 967647,
                "addr:teryt:sym_ul": 3252,
                "phone": "+48 446322211",
                "email": "sekretariat@2lokochanowski.pl",
                "website": "http:\/\/www.2lokochanowski.pl",
                "ref:regon": "592144000",
                "ref:vatin": "PL7692181730",
                "operator": "Powiat Be\u0142chatowski",
                "operator:type": "government",
                "amenity": "school"
            }
        },
        {
            "id": 119379,
            "type": "Feature",
            "geometry": {
                "type": "Point",
                "coordinates": [
                    19.35349,
                    51.37027
                ]
            },
            "properties": {
                "isced:level": "4",
                "ref:rspo": 119379,
                "official_name": "Prywatna Policealna Szko\u0142a \"Cosinus\" w Be\u0142chatowie",
                "name": "Prywatna Policealna Szko\u0142a \"Cosinus\" w Be\u0142chatowie",
                "addr:postcode": "97-400",
                "addr:city": "Be\u0142chat\u00f3w",
                "addr:street": "Czapliniecka",
                "addr:housenumber": "72",
                "addr:teryt:simc": 967647,
                "addr:teryt:sym_ul": 3252,
                "phone": "+48 446331859",
                "email": "belchatow@cosinus.pl",
                "ref:regon": "101659241",
                "operator": "Fundacja Rideton",
                "operator:type": "ngo",
                "amenity": "college"
            }
        },
        {
            "id": 126667,
            "type": "Feature",
            "geometry": {
                "type": "Point",
                "coordinates": [
                    19.35349,
                    51.37024
                ]
            },
            "properties": {
                "isced:level": "3",
                "ref:rspo": 126667,
                "official_name": "Zaoczne Liceum Og\u00f3lnokszta\u0142c\u0105ce dla Doros\u0142ych \"Cosinus Plus\" w Be\u0142chatowie",
                "name": "Zaoczne Liceum Og\u00f3lnokszta\u0142c\u0105ce dla Doros\u0142ych \"Cosinus Plus\" w Be\u0142chatowie",
                "addr:postcode": "97-400",
                "addr:city": "Be\u0142chat\u00f3w",
                "addr:street": "Czapliniecka",
                "addr:housenumber": "72",
                "addr:teryt:simc": 967647,
                "addr:teryt:sym_ul": 3252,
                "phone": "+48 446331859",
                "email": "belchatow@cosinus.pl",
                "ref:regon": "360601054",
                "operator": "Fundacja Rideton",
                "operator:type": "ngo",
                "amenity": "school"
            }
        },
        {
            "id": 126668,
            "type": "Feature",
            "geometry": {
                "type": "Point",
                "coordinates": [
                    19.35349,
                    51.37021
                ]
            },
            "properties": {
                "isced:level": "4",
                "ref:rspo": 126668,
                "official_name": "Szko\u0142a Policealna \"Cosinus Plus\" w Be\u0142chatowie",
                "name": "Szko\u0142a Policealna \"Cosinus Plus\" w Be\u0142chatowie",
                "addr:postcode": "97-400",
                "addr:city": "Be\u0142chat\u00f3w",
                "addr:street": "Czapliniecka",
                "addr:housenumber": "72",
                "addr:teryt:simc": 967647,
                "addr:teryt:sym_ul": 3252,
                "phone": "+48 446331859",
                "email": "belchatow@cosinus.pl",
                "ref:regon": "360600801",
                "operator": "Fundacja Rideton",
                "operator:type": "ngo",
                "amenity": "college"
            }
        },
        {
            "id": 273809,
            "type": "Feature",
            "geometry": {
                "type": "Point",
                "coordinates": [
                    19.35349,
                    51.37018
                ]
            },
            "properties": {
                "ref:rspo": 273809,
                "official_name": "Niepubliczna Plac\u00f3wka Kszta\u0142cenia Ustawicznego \"Cosinus\" w Be\u0142chatowie",
                "name": "Niepubliczna Plac\u00f3wka Kszta\u0142cenia Ustawicznego \"Cosinus\" w Be\u0142chatowie",
                "addr:postcode": "97-400",
                "addr:city": "Be\u0142chat\u00f3w",
                "addr:street": "Czapliniecka",
                "addr:housenumber": "72",
                "addr:teryt:simc": 967647,
                "addr:teryt:sym_ul": 3252,
                "phone": "+48 446331859",
                "email": "belchatow@cosinus.pl",
                "website": "http:\/\/www.cosinus.pl",
                "ref:regon": "384663480",
                "operator": "\"Fundacja Equamp-Fiz\"",
                "operator:type": "ngo",
                "fixme": "w zale\u017cno\u015bci od przedmiotu dzia\u0142alno\u015bci (np. amenity=training + training=*, amenity=dancing_school, amenity=language_school, amenity=music_school)"
            }
        },
        {
            "id": 43851,
            "type": "Feature",
            "geometry": {
                "type": "Point",
                "coordinates": [
                    19.3834,
                    51.37047
                ]
            },
            "properties": {
                "isced:level": "1;2",
                "ref:rspo": 43851,
                "official_name": "Szko\u0142a Podstawowa Nr 3 im. \u017bo\u0142nierzy Pow",
                "name": "Szko\u0142a Podstawowa Nr 3",
                "addr:postcode": "97-400",
                "addr:city": "Be\u0142chat\u00f3w",
                "addr:street": "Henryka Sienkiewicza",
                "addr:housenumber": "25",
                "addr:teryt:simc": 967647,
                "addr:teryt:sym_ul": 19830,
                "phone": "+48 446321792",
                "email": "sp3@belchatow.pl",
                "website": "http:\/\/sp3.belchatow.pl",
                "ref:regon": "000816084",
                "ref:vatin": "PL7691107335",
                "operator": "Miasto Be\u0142chat\u00f3w",
                "operator:type": "government",
                "amenity": "school"
            }
        },
        {
            "id": 272744,
            "type": "Feature",
            "geometry": {
                "type": "Point",
                "coordinates": [
                    19.37019,
                    51.37059
                ]
            },
            "properties": {
                "ref:rspo": 272744,
                "official_name": "Niepubliczne Przedszkole Akademia U\u015bmiechu Plus",
                "name": "Niepubliczne Przedszkole Akademia U\u015bmiechu Plus",
                "addr:postcode": "97-400",
                "addr:city": "Be\u0142chat\u00f3w",
                "addr:street": "Henryka Sienkiewicza",
                "addr:housenumber": "8",
                "addr:teryt:simc": 967647,
                "addr:teryt:sym_ul": 19830,
                "email": "ewelinadobrzynskaa@gmail.com",
                "ref:regon": "384282512",
                "ref:vatin": "PL7691887735",
                "operator": "Ewelina Dobrzy\u0144ska",
                "operator:type": "private",
                "amenity": "kindergarten"
            }
        },
        {
            "id": 8210,
            "type": "Feature",
            "geometry": {
                "type": "Point",
                "coordinates": [
                    19.34946,
                    51.37288
                ]
            },
            "properties": {
                "ref:rspo": 8210,
                "official_name": "Poradnia Psychologiczno-Pedagogiczna w Be\u0142chatowie",
                "name": "Poradnia Psychologiczno-Pedagogiczna w Be\u0142chatowie",
                "addr:postcode": "97-400",
                "addr:city": "Be\u0142chat\u00f3w",
                "addr:street": "Czapliniecka",
                "addr:housenumber": "96",
                "addr:teryt:simc": 967647,
                "addr:teryt:sym_ul": 3252,
                "phone": "+48 446322874",
                "email": "ppp_belchatow111@wp.pl",
                "ref:regon": "001045826",
                "ref:vatin": "PL7691847776",
                "operator": "Powiat Be\u0142chatowski",
                "operator:type": "government",
                "healthcare": "counselling",
                "counselling_type": "education",
                "fixme": "w zale\u017cno\u015bci od przedmiotu dzia\u0142alno\u015bci (np. healthcare=counselling + counselling_type=education albo healthcare=psychotherapist)"
            }
        },
        {
            "id": 8211,
            "type": "Feature",
            "geometry": {
                "type": "Point",
                "coordinates": [
                    19.34946,
                    51.37285
                ]
            },
            "properties": {
                "ref:rspo": 8211,
                "official_name": "Centrum Kszta\u0142cenia Zawodowego w Be\u0142chatowie",
                "name": "Centrum Kszta\u0142cenia Zawodowego w Be\u0142chatowie",
                "addr:postcode": "97-400",
                "addr:city": "Be\u0142chat\u00f3w",
                "addr:street": "Czapliniecka",
                "addr:housenumber": "96",
                "addr:teryt:simc": 967647,
                "addr:teryt:sym_ul": 3252,
                "phone": "+48 446332378",
                "email": "ckp_belchatow@wp.pl",
                "website": "http:\/\/www.ckpbelchatow.bai.pl",
                "ref:regon": "590473017",
                "ref:vatin": "PL7691583449",
                "operator": "Powiat Be\u0142chatowski",
                "operator:type": "government",
                "fixme": "w zale\u017cno\u015bci od przedmiotu dzia\u0142alno\u015bci (np. amenity=training + training=*, amenity=dancing_school, amenity=language_school, amenity=music_school) albo amenity=school, amenity=college, albo landuse=education w zale\u017cno\u015bci od tego, jakie plac\u00f3wki wchodz\u0105 w sk\u0142ad zespo\u0142u. Sprawd\u017a, kiedy stosowa\u0107 amenity=* a kiedy landuse=education."
            }
        },
        {
            "id": 31851,
            "type": "Feature",
            "geometry": {
                "type": "Point",
                "coordinates": [
                    19.34946,
                    51.372820000000004
                ]
            },
            "properties": {
                "ref:rspo": 31851,
                "official_name": "Zesp\u00f3\u0142 Szk\u00f3\u0142 Ponadpodstawowych Nr 1 im. Gen. Ludwika Czy\u017cewskiego w Be\u0142chatowie",
                "name": "Zesp\u00f3\u0142 Szk\u00f3\u0142 Ponadpodstawowych Nr 1",
                "addr:postcode": "97-400",
                "addr:city": "Be\u0142chat\u00f3w",
                "addr:street": "Czapliniecka",
                "addr:housenumber": "96",
                "addr:teryt:simc": 967647,
                "addr:teryt:sym_ul": 3252,
                "phone": "+48 446323156",
                "email": "sekretariat@zsp1belchatow.pl",
                "website": "http:\/\/www.zsp1belchatow.pl",
                "ref:regon": "000678914",
                "ref:vatin": "PL7691751295",
                "operator": "Powiat Be\u0142chatowski",
                "operator:type": "government",
                "landuse": "education",
                "fixme": "amenity=school, amenity=college albo landuse=education w zale\u017cno\u015bci od tego, jakie plac\u00f3wki wchodz\u0105 w sk\u0142ad zespo\u0142u. Sprawd\u017a, kiedy stosowa\u0107 amenity=* a kiedy landuse=education.",
                "note": "Children RSPO: 44361;53601;53648"
            }
        },
        {
            "id": 18941,
            "type": "Feature",
            "geometry": {
                "type": "Point",
                "coordinates": [
                    19.34946,
                    51.37279
                ]
            },
            "properties": {
                "ref:rspo": 18941,
                "official_name": "Biblioteka Pedagogiczna w Piotrkowie Trybunalskim Filia w Be\u0142chatowie",
                "name": "Biblioteka Pedagogiczna w Piotrkowie Trybunalskim Filia w Be\u0142chatowie",
                "addr:postcode": "97-400",
                "addr:city": "Be\u0142chat\u00f3w",
                "addr:street": "Czapliniecka",
                "addr:housenumber": "96",
                "addr:teryt:simc": 967647,
                "addr:teryt:sym_ul": 3252,
                "phone": "+48 446330342",
                "email": "belchatow@pedagogiczna.edu.pl",
                "ref:regon": "103210800",
                "operator": "Wojew\u00f3dztwo \u0141\u00f3dzkie",
                "operator:type": "government",
                "amenity": "library",
                "note": "Parent RSPO: 12703"
            }
        },
        {
            "id": 44361,
            "type": "Feature",
            "geometry": {
                "type": "Point",
                "coordinates": [
                    19.34946,
                    51.37276
                ]
            },
            "properties": {
                "isced:level": "3",
                "ref:rspo": 44361,
                "official_name": "Iv Liceum Og\u00f3lnokszta\u0142c\u0105ce",
                "name": "Iv Liceum Og\u00f3lnokszta\u0142c\u0105ce",
                "addr:postcode": "97-400",
                "addr:city": "Be\u0142chat\u00f3w",
                "addr:street": "Czapliniecka",
                "addr:housenumber": "96",
                "addr:teryt:simc": 967647,
                "addr:teryt:sym_ul": 3252,
                "phone": "+48 446325711",
                "email": "sekretariat@zsp1belchatow.pl",
                "website": "http:\/\/www.zsp1.belchatow.pl",
                "ref:regon": "592146825",
                "operator": "Powiat Be\u0142chatowski",
                "operator:type": "government",
                "amenity": "school",
                "note": "Parent RSPO: 31851"
            }
        },
        {
            "id": 53601,
            "type": "Feature",
            "geometry": {
                "type": "Point",
                "coordinates": [
                    19.34946,
                    51.372730000000004
                ]
            },
            "properties": {
                "isced:level": "3",
                "ref:rspo": 53601,
                "official_name": "Bran\u017cowa Szko\u0142a I Stopnia Nr 1 w Be\u0142chatowie",
                "name": "Bran\u017cowa Szko\u0142a I Stopnia Nr 1 w Be\u0142chatowie",
                "addr:postcode": "97-400",
                "addr:city": "Be\u0142chat\u00f3w",
                "addr:street": "Czapliniecka",
                "addr:housenumber": "96",
                "addr:teryt:simc": 967647,
                "addr:teryt:sym_ul": 3252,
                "phone": "+48 446325711",
                "email": "sekretariat@zsp1belchatow.pl",
                "website": "http:\/\/www.zsp1belchatow.pl",
                "ref:regon": "592146802",
                "operator": "Powiat Be\u0142chatowski",
                "operator:type": "government",
                "amenity": "school",
                "note": "Parent RSPO: 31851"
            }
        },
        {
            "id": 53648,
            "type": "Feature",
            "geometry": {
                "type": "Point",
                "coordinates": [
                    19.34946,
                    51.3727
                ]
            },
            "properties": {
                "isced:level": "3",
                "ref:rspo": 53648,
                "official_name": "Technikum Energetyczne",
                "name": "Technikum Energetyczne",
                "addr:postcode": "97-400",
                "addr:city": "Be\u0142chat\u00f3w",
                "addr:street": "Czapliniecka",
                "addr:housenumber": "96",
                "addr:teryt:simc": 967647,
                "addr:teryt:sym_ul": 3252,
                "phone": "+48 446325711",
                "email": "sekretariat@zsp1belchatow.pl",
                "website": "http:\/\/www.zsp1belchatow.pl",
                "ref:regon": "592146736",
                "operator": "Powiat Be\u0142chatowski",
                "operator:type": "government",
                "amenity": "school",
                "note": "Parent RSPO: 31851"
            }
        },
        {
            "id": 27509,
            "type": "Feature",
            "geometry": {
                "type": "Point",
                "coordinates": [
                    19.34754,
                    51.37354
                ]
            },
            "properties": {
                "ref:rspo": 27509,
                "official_name": "O\u015brodek Szkoleniowy Centrum Nauki I Biznesu \"\u017bak\" w Be\u0142chatowie",
                "name": "O\u015brodek Szkoleniowy Centrum Nauki I Biznesu \"\u017bak\" w Be\u0142chatowie",
                "addr:postcode": "97-400",
                "addr:city": "Be\u0142chat\u00f3w",
                "addr:street": "Czapliniecka",
                "addr:housenumber": "98",
                "addr:teryt:simc": 967647,
                "addr:teryt:sym_ul": 3252,
                "phone": "+48 446327212",
                "email": "belchatow@zak.edu.pl",
                "ref:regon": "101488986",
                "operator": "Centrum Nauki I Biznesu \"\u017bak\" Sp\u00f3\u0142ka Z Ograniczon\u0105 Odpowiedzialno\u015bci\u0105",
                "operator:type": "private",
                "fixme": "w zale\u017cno\u015bci od przedmiotu dzia\u0142alno\u015bci (np. amenity=training + training=*, amenity=dancing_school, amenity=language_school, amenity=music_school)"
            }
        },
        {
            "id": 31896,
            "type": "Feature",
            "geometry": {
                "type": "Point",
                "coordinates": [
                    19.34754,
                    51.373509999999996
                ]
            },
            "properties": {
                "ref:rspo": 31896,
                "official_name": "Zesp\u00f3\u0142 Szk\u00f3\u0142 Ponadpodstawowych Nr 2 im. Romualda Traugutta w Be\u0142chatowie",
                "name": "Zesp\u00f3\u0142 Szk\u00f3\u0142 Ponadpodstawowych Nr 2",
                "addr:postcode": "97-400",
                "addr:city": "Be\u0142chat\u00f3w",
                "addr:street": "Czapliniecka",
                "addr:housenumber": "98",
                "addr:teryt:simc": 967647,
                "addr:teryt:sym_ul": 3252,
                "phone": "+48 446321642",
                "email": "sekretariat@zsp2bel.pl",
                "website": "http:\/\/www.zsp2bel.pl",
                "ref:regon": "007007962",
                "ref:vatin": "PL7691151388",
                "operator": "Powiat Be\u0142chatowski",
                "operator:type": "government",
                "landuse": "education",
                "fixme": "amenity=school, amenity=college albo landuse=education w zale\u017cno\u015bci od tego, jakie plac\u00f3wki wchodz\u0105 w sk\u0142ad zespo\u0142u. Sprawd\u017a, kiedy stosowa\u0107 amenity=* a kiedy landuse=education.",
                "note": "Children RSPO: 53891;55751;277399"
            }
        },
        {
            "id": 43797,
            "type": "Feature",
            "geometry": {
                "type": "Point",
                "coordinates": [
                    19.34754,
                    51.37348
                ]
            },
            "properties": {
                "isced:level": "3",
                "ref:rspo": 43797,
                "official_name": "Liceum Og\u00f3lnokszta\u0142c\u0105ce dla Doros\u0142ych \"\u017bak\" w Be\u0142chatowie",
                "name": "Liceum Og\u00f3lnokszta\u0142c\u0105ce dla Doros\u0142ych \"\u017bak\" w Be\u0142chatowie",
                "addr:postcode": "97-400",
                "addr:city": "Be\u0142chat\u00f3w",
                "addr:street": "Czapliniecka",
                "addr:housenumber": "98",
                "addr:teryt:simc": 967647,
                "addr:teryt:sym_ul": 3252,
                "phone": "+48 446350761",
                "email": "belchatow@zak.edu.pl",
                "ref:regon": "101489678",
                "operator": "Centrum Nauki I Biznesu \"\u017bak\" Sp\u00f3\u0142ka Z Ograniczon\u0105 Odpowiedzialno\u015bci\u0105",
                "operator:type": "private",
                "amenity": "school"
            }
        },
        {
            "id": 53891,
            "type": "Feature",
            "geometry": {
                "type": "Point",
                "coordinates": [
                    19.34754,
                    51.37345
                ]
            },
            "properties": {
                "isced:level": "3",
                "ref:rspo": 53891,
                "official_name": "Technikum Ekonomiczno-Hotelarskie",
                "name": "Technikum Ekonomiczno-Hotelarskie",
                "addr:postcode": "97-400",
                "addr:city": "Be\u0142chat\u00f3w",
                "addr:street": "Czapliniecka",
                "addr:housenumber": "98",
                "addr:teryt:simc": 967647,
                "addr:teryt:sym_ul": 3252,
                "phone": "+48 446321642",
                "email": "sekretariat@zsp2bel.pl",
                "website": "http:\/\/zsp2bel.pl",
                "ref:regon": "592146908",
                "operator": "Powiat Be\u0142chatowski",
                "operator:type": "government",
                "amenity": "school",
                "note": "Parent RSPO: 31896"
            }
        },
        {
            "id": 55751,
            "type": "Feature",
            "geometry": {
                "type": "Point",
                "coordinates": [
                    19.34754,
                    51.373419999999996
                ]
            },
            "properties": {
                "isced:level": "3",
                "ref:rspo": 55751,
                "official_name": "Bran\u017cowa Szko\u0142a I Stopnia Nr 2 w Be\u0142chatowie",
                "name": "Bran\u017cowa Szko\u0142a I Stopnia Nr 2 w Be\u0142chatowie",
                "addr:postcode": "97-400",
                "addr:city": "Be\u0142chat\u00f3w",
                "addr:street": "Czapliniecka",
                "addr:housenumber": "98",
                "addr:teryt:simc": 967647,
                "addr:teryt:sym_ul": 3252,
                "phone": "+48 446321642",
                "email": "sekretariat@zsp2bel.pl",
                "website": "http:\/\/www.zsp2bel.pl",
                "ref:regon": "592146943",
                "operator": "Powiat Be\u0142chatowski",
                "operator:type": "government",
                "amenity": "school",
                "note": "Parent RSPO: 31896"
            }
        },
        {
            "id": 277399,
            "type": "Feature",
            "geometry": {
                "type": "Point",
                "coordinates": [
                    19.34754,
                    51.37339
                ]
            },
            "properties": {
                "isced:level": "4",
                "ref:rspo": 277399,
                "official_name": "Szko\u0142a Policealna",
                "name": "Szko\u0142a Policealna",
                "addr:postcode": "97-400",
                "addr:city": "Be\u0142chat\u00f3w",
                "addr:street": "Czapliniecka",
                "addr:housenumber": "98",
                "addr:teryt:simc": 967647,
                "addr:teryt:sym_ul": 3252,
                "phone": "+48 446321642",
                "email": "sekretariat@zsp2bel.pl",
                "website": "http:\/\/www.zsp2.bel.pl",
                "ref:regon": "388771461",
                "operator": "Powiat Be\u0142chatowski",
                "operator:type": "government",
                "amenity": "college",
                "note": "Parent RSPO: 31896"
            }
        },
        {
            "id": 130957,
            "type": "Feature",
            "geometry": {
                "type": "Point",
                "coordinates": [
                    19.34767,
                    51.37544
                ]
            },
            "properties": {
                "ref:rspo": 130957,
                "official_name": "Niepubliczne Przedszkole \"Aktywne Maluchy\"",
                "name": "Niepubliczne Przedszkole \"Aktywne Maluchy\"",
                "addr:postcode": "97-400",
                "addr:city": "Be\u0142chat\u00f3w",
                "addr:street": "Czapliniecka",
                "addr:housenumber": "121",
                "addr:teryt:simc": 967647,
                "addr:teryt:sym_ul": 3252,
                "phone": "+48 603441093",
                "email": "kontakt@aktywne-maluchy.pl",
                "website": "http:\/\/aktywne-maluchy.pl",
                "ref:regon": "364765812",
                "operator": "Micha\u0142 M\u0119karski",
                "operator:type": "private",
                "amenity": "kindergarten"
            }
        }
    ]
}