{
    "type": "FeatureCollection",
    "features": [
        {
            "id": 6296,
            "type": "Feature",
            "geometry": {
                "type": "Point",
                "coordinates": [
                    17.17367,
                    51.50219
                ]
            },
            "properties": {
                "isced:level": "1;2",
                "ref:rspo": 6296,
                "official_name": "Szko\u0142a Podstawowa im. Juliusza S\u0142owackiego w Su\u0142owie",
                "name": "Szko\u0142a Podstawowa",
                "addr:postcode": "56-300",
                "addr:city": "Su\u0142\u00f3w",
                "addr:street": "Szkolna",
                "addr:housenumber": "6",
                "addr:city:simc": 878300,
                "addr:street:sym_ul": 21970,
                "phone": "+48 713847133",
                "email": "spsulow@poczta.onet.pl",
                "website": "http:\/\/www.spsulow.ehost.pl",
                "ref:regon": "001181831",
                "ref:vatin": "PL9161313306",
                "operator": "Gmina Milicz",
                "operator:type": "government",
                "amenity": "school"
            }
        },
        {
            "id": 6292,
            "type": "Feature",
            "geometry": {
                "type": "Point",
                "coordinates": [
                    17.37487,
                    51.51292
                ]
            },
            "properties": {
                "isced:level": "1;2",
                "ref:rspo": 6292,
                "official_name": "Szko\u0142a Podstawowa w Czatkowicach",
                "name": "Szko\u0142a Podstawowa w Czatkowicach",
                "addr:postcode": "56-300",
                "addr:city": "Czatkowice",
                "addr:street": "Szosowa",
                "addr:housenumber": "2",
                "addr:city:simc": 877654,
                "addr:street:sym_ul": 22050,
                "phone": "+48 713849695",
                "email": "sp_czatko@wp.pl",
                "ref:regon": "001181825",
                "ref:vatin": "PL9161250959",
                "operator": "Gmina Milicz",
                "operator:type": "government",
                "amenity": "school"
            }
        },
        {
            "id": 63950,
            "type": "Feature",
            "geometry": {
                "type": "Point",
                "coordinates": [
                    17.26134,
                    51.51756
                ]
            },
            "properties": {
                "ref:rspo": 63950,
                "official_name": "Dolno\u015bL\u0105ski Zesp\u00f3\u0142 Szk\u00f3\u0142 Specjalnych Przy Wielospecjalistycznym Szpitalu w Miliczu",
                "name": "Dolno\u015bL\u0105ski Zesp\u00f3\u0142 Szk\u00f3\u0142 Specjalnych Przy Wielospecjalistycznym Szpitalu w Miliczu",
                "addr:postcode": "56-300",
                "addr:city": "Milicz",
                "addr:street": "Grzybowa",
                "addr:housenumber": "1",
                "addr:city:simc": 987130,
                "addr:street:sym_ul": 6341,
                "phone": "+48 797307747",
                "email": "zssmilicz@poczta.onet.pl",
                "website": "http:\/\/zssmilicz.cba.pl",
                "ref:regon": "020014200",
                "operator": "Wojew\u00f3dztwo Dolno\u015bl\u0105skie",
                "operator:type": "government",
                "landuse": "education",
                "fixme": "amenity=school, amenity=college albo landuse=education w zale\u017cno\u015bci od tego, jakie plac\u00f3wki wchodz\u0105 w sk\u0142ad zespo\u0142u. Sprawd\u017a, kiedy stosowa\u0107 amenity=* a kiedy landuse=education.",
                "note": "Children RSPO: 121446;263917"
            }
        },
        {
            "id": 121446,
            "type": "Feature",
            "geometry": {
                "type": "Point",
                "coordinates": [
                    17.26134,
                    51.51753
                ]
            },
            "properties": {
                "isced:level": "1;2",
                "ref:rspo": 121446,
                "official_name": "Szko\u0142a Podstawowa Specjalna nr 1",
                "name": "Szko\u0142a Podstawowa Specjalna nr 1",
                "addr:postcode": "56-300",
                "addr:city": "Milicz",
                "addr:street": "Grzybowa",
                "addr:housenumber": "1",
                "addr:city:simc": 987130,
                "addr:street:sym_ul": 6341,
                "email": "zssmilicz@poczta.onet.pl",
                "website": "http:\/\/www.zssmilicz.cba.pl",
                "ref:regon": "020014216",
                "operator": "Wojew\u00f3dztwo Dolno\u015bl\u0105skie",
                "operator:type": "government",
                "amenity": "school",
                "note": "Parent RSPO: 63950"
            }
        },
        {
            "id": 263917,
            "type": "Feature",
            "geometry": {
                "type": "Point",
                "coordinates": [
                    17.26134,
                    51.517500000000005
                ]
            },
            "properties": {
                "isced:level": "3",
                "ref:rspo": 263917,
                "official_name": "Liceum Og\u00f3lnokszta\u0142c\u0105ce Specjalne w Miliczu",
                "name": "Liceum Og\u00f3lnokszta\u0142c\u0105ce Specjalne w Miliczu",
                "addr:postcode": "56-300",
                "addr:city": "Milicz",
                "addr:street": "Grzybowa",
                "addr:housenumber": "1",
                "addr:city:simc": 987130,
                "addr:street:sym_ul": 6341,
                "phone": "+48 797307747",
                "email": "zssmilicz@onet.pl",
                "ref:regon": "368244719",
                "operator": "Wojew\u00f3dztwo Dolno\u015bl\u0105skie",
                "operator:type": "government",
                "amenity": "school",
                "note": "Parent RSPO: 63950"
            }
        },
        {
            "id": 123537,
            "type": "Feature",
            "geometry": {
                "type": "Point",
                "coordinates": [
                    17.27995,
                    51.52128
                ]
            },
            "properties": {
                "isced:level": "1;2",
                "ref:rspo": 123537,
                "official_name": "Spo\u0142eczna Szko\u0142a Podstawowa im. Astrid Lindgren w Miliczu",
                "name": "Spo\u0142eczna Szko\u0142a Podstawowa",
                "addr:postcode": "56-300",
                "addr:city": "Milicz",
                "addr:street": "Jaros\u0142awa D\u0105browskiego",
                "addr:housenumber": "3",
                "addr:city:simc": 987130,
                "addr:street:sym_ul": 3687,
                "email": "szkola@kom.edu.pl",
                "ref:regon": "022451843",
                "operator": "\"Fundacja Kom\"",
                "operator:type": "ngo",
                "amenity": "school"
            }
        },
        {
            "id": 21964,
            "type": "Feature",
            "geometry": {
                "type": "Point",
                "coordinates": [
                    17.27394,
                    51.522
                ]
            },
            "properties": {
                "ref:rspo": 21964,
                "official_name": "Zesp\u00f3\u0142 Szk\u00f3\u0142 im. Tadeusza Ko\u015bciuszki",
                "name": "Zesp\u00f3\u0142 Szk\u00f3\u0142",
                "addr:postcode": "56-300",
                "addr:city": "Milicz",
                "addr:street": "Trzebnicka",
                "addr:housenumber": "4",
                "addr:city:simc": 987130,
                "addr:street:sym_ul": 23073,
                "phone": "+48 713840350",
                "email": "sekretariat@zsmilicz.eu",
                "website": "http:\/\/www.zsmilicz.eu",
                "ref:regon": "000188877",
                "ref:vatin": "PL9161236416",
                "operator": "Powiat Milicki",
                "operator:type": "government",
                "landuse": "education",
                "fixme": "amenity=school, amenity=college albo landuse=education w zale\u017cno\u015bci od tego, jakie plac\u00f3wki wchodz\u0105 w sk\u0142ad zespo\u0142u. Sprawd\u017a, kiedy stosowa\u0107 amenity=* a kiedy landuse=education.",
                "note": "Children RSPO: 60194;60195;60196;60197;60198"
            }
        },
        {
            "id": 22698,
            "type": "Feature",
            "geometry": {
                "type": "Point",
                "coordinates": [
                    17.27394,
                    51.521969999999996
                ]
            },
            "properties": {
                "ref:rspo": 22698,
                "official_name": "Powiatowe Centrum Edukacyjne I Psychologiczno Pedagogiczne w Miliczu",
                "name": "Powiatowe Centrum Edukacyjne I Psychologiczno Pedagogiczne w Miliczu",
                "addr:postcode": "56-300",
                "addr:city": "Milicz",
                "addr:street": "Trzebnicka",
                "addr:housenumber": "4b",
                "addr:city:simc": 987130,
                "addr:street:sym_ul": 23073,
                "phone": "+48 713840237",
                "email": "sekretariat@pceipp.pl",
                "website": "http:\/\/www.pceipp.pl",
                "ref:regon": "932240151",
                "ref:vatin": "PL9161301160",
                "operator": "Powiat Milicki",
                "operator:type": "government",
                "landuse": "education",
                "fixme": "amenity=school, amenity=college albo landuse=education w zale\u017cno\u015bci od tego, jakie plac\u00f3wki wchodz\u0105 w sk\u0142ad zespo\u0142u. Sprawd\u017a, kiedy stosowa\u0107 amenity=* a kiedy landuse=education.",
                "note": "Children RSPO: 60188;60189;60193"
            }
        },
        {
            "id": 9899,
            "type": "Feature",
            "geometry": {
                "type": "Point",
                "coordinates": [
                    17.27394,
                    51.52194
                ]
            },
            "properties": {
                "ref:rspo": 9899,
                "official_name": "Szko\u0142a Muzyczna I Stopnia w Miliczu",
                "name": "Szko\u0142a Muzyczna I Stopnia w Miliczu",
                "addr:postcode": "56-300",
                "addr:city": "Milicz",
                "addr:street": "Trzebnicka",
                "addr:housenumber": "4b",
                "addr:city:simc": 987130,
                "addr:street:sym_ul": 23073,
                "phone": "+48 713840183",
                "email": "smmilicz@wp.pl",
                "website": "http:\/\/www.sp2milicz.pl",
                "ref:regon": "930744150",
                "operator": "Gmina Milicz",
                "operator:type": "government",
                "amenity": "music_school",
                "note": "Parent RSPO: 7195"
            }
        },
        {
            "id": 60194,
            "type": "Feature",
            "geometry": {
                "type": "Point",
                "coordinates": [
                    17.27394,
                    51.52191
                ]
            },
            "properties": {
                "isced:level": "3",
                "ref:rspo": 60194,
                "official_name": "Ii Liceum Og\u00f3lnokszta\u0142c\u0105ce w Zespole Szk\u00f3\u0142 im. Tadeusza Ko\u015bciuszki w Miliczu",
                "name": "Ii Liceum Og\u00f3lnokszta\u0142c\u0105ce w Zespole Szk\u00f3\u0142",
                "addr:postcode": "56-300",
                "addr:city": "Milicz",
                "addr:street": "Trzebnicka",
                "addr:housenumber": "4",
                "addr:city:simc": 987130,
                "addr:street:sym_ul": 23073,
                "phone": "+48 713840350",
                "email": "sekretariat@zsmilicz.eu",
                "website": "http:\/\/www.zsmilicz.eu",
                "ref:regon": "932843607",
                "ref:vatin": "PL9161236416",
                "operator": "Powiat Milicki",
                "operator:type": "government",
                "amenity": "school",
                "note": "Parent RSPO: 21964"
            }
        },
        {
            "id": 60195,
            "type": "Feature",
            "geometry": {
                "type": "Point",
                "coordinates": [
                    17.27394,
                    51.521879999999996
                ]
            },
            "properties": {
                "isced:level": "3",
                "ref:rspo": 60195,
                "official_name": "Bran\u017cowa Szko\u0142a I Stopnia w Zespole Szk\u00f3\u0142 im. Tadeusza Ko\u015bciuszki w Milicz",
                "name": "Bran\u017cowa Szko\u0142a I Stopnia w Zespole Szk\u00f3\u0142",
                "addr:postcode": "56-300",
                "addr:city": "Milicz",
                "addr:street": "Trzebnicka",
                "addr:housenumber": "4",
                "addr:city:simc": 987130,
                "addr:street:sym_ul": 23073,
                "phone": "+48 713840350",
                "email": "sekretariat@zsmilicz.eu",
                "website": "http:\/\/www.zsmilicz.eu",
                "ref:regon": "932843636",
                "ref:vatin": "PL9161236416",
                "operator": "Powiat Milicki",
                "operator:type": "government",
                "amenity": "school",
                "note": "Parent RSPO: 21964"
            }
        },
        {
            "id": 60196,
            "type": "Feature",
            "geometry": {
                "type": "Point",
                "coordinates": [
                    17.27394,
                    51.52185
                ]
            },
            "properties": {
                "isced:level": "3",
                "ref:rspo": 60196,
                "official_name": "Technikum w Zespole Szk\u00f3\u0142 im. Tadeusza Ko\u015bciuszki w Miliczu",
                "name": "Technikum w Zespole Szk\u00f3\u0142",
                "addr:postcode": "56-300",
                "addr:city": "Milicz",
                "addr:street": "Trzebnicka",
                "addr:housenumber": "4",
                "addr:city:simc": 987130,
                "addr:street:sym_ul": 23073,
                "phone": "+48 713840350",
                "email": "sekretariat@zsmilicz.eu",
                "website": "http:\/\/www.zsmilicz.eu",
                "ref:regon": "020112137",
                "ref:vatin": "PL9161236416",
                "operator": "Powiat Milicki",
                "operator:type": "government",
                "amenity": "school",
                "note": "Parent RSPO: 21964"
            }
        },
        {
            "id": 60197,
            "type": "Feature",
            "geometry": {
                "type": "Point",
                "coordinates": [
                    17.27394,
                    51.52182
                ]
            },
            "properties": {
                "isced:level": "3",
                "ref:rspo": 60197,
                "official_name": "Liceum Og\u00f3lnokszta\u0142c\u0105ce dla Doros\u0142ych w Zespole Szk\u00f3\u0142 im. Tadeusza Ko\u015bciuszki w Miliczu",
                "name": "Liceum Og\u00f3lnokszta\u0142c\u0105ce dla Doros\u0142ych w Zespole Szk\u00f3\u0142",
                "addr:postcode": "56-300",
                "addr:city": "Milicz",
                "addr:street": "Trzebnicka",
                "addr:housenumber": "4",
                "addr:city:simc": 987130,
                "addr:street:sym_ul": 23073,
                "phone": "+48 713840350",
                "email": "sekretariat@zsmilicz.eu",
                "website": "http:\/\/www.zsmilicz.eu",
                "ref:regon": "021999757",
                "ref:vatin": "PL9161236416",
                "operator": "Powiat Milicki",
                "operator:type": "government",
                "amenity": "school",
                "note": "Parent RSPO: 21964"
            }
        },
        {
            "id": 60198,
            "type": "Feature",
            "geometry": {
                "type": "Point",
                "coordinates": [
                    17.27394,
                    51.521789999999996
                ]
            },
            "properties": {
                "isced:level": "4",
                "ref:rspo": 60198,
                "official_name": "Szko\u0142a Policealna w Zespole Szk\u00f3\u0142 im. Tadeusza Ko\u015bciuszki w Milicz",
                "name": "Szko\u0142a Policealna w Zespole Szk\u00f3\u0142",
                "addr:postcode": "56-300",
                "addr:city": "Milicz",
                "addr:street": "Trzebnicka",
                "addr:housenumber": "4",
                "addr:city:simc": 987130,
                "addr:street:sym_ul": 23073,
                "phone": "+48 713840350",
                "email": "sekretariat@zsmilicz.eu",
                "website": "http:\/\/www.zsmilicz.eu",
                "ref:regon": "020820236",
                "ref:vatin": "PL9161236416",
                "operator": "Powiat Milicki",
                "operator:type": "government",
                "amenity": "college",
                "note": "Parent RSPO: 21964"
            }
        },
        {
            "id": 60188,
            "type": "Feature",
            "geometry": {
                "type": "Point",
                "coordinates": [
                    17.27394,
                    51.52176
                ]
            },
            "properties": {
                "ref:rspo": 60188,
                "official_name": "Poradnia Psychologiczno-Pedagogiczna w Milicz",
                "name": "Poradnia Psychologiczno-Pedagogiczna w Milicz",
                "addr:postcode": "56-300",
                "addr:city": "Milicz",
                "addr:street": "Trzebnicka",
                "addr:housenumber": "4B",
                "addr:city:simc": 987130,
                "addr:street:sym_ul": 23073,
                "phone": "+48 713840237",
                "email": "poradnia@pceipp.pl",
                "website": "http:\/\/www.pceipp.pl",
                "ref:regon": "932700316",
                "ref:vatin": "PL9161301160",
                "operator": "Powiat Milicki",
                "operator:type": "government",
                "healthcare": "counselling",
                "counselling_type": "education",
                "fixme": "w zale\u017cno\u015bci od przedmiotu dzia\u0142alno\u015bci (np. healthcare=counselling + counselling_type=education albo healthcare=psychotherapist)",
                "note": "Parent RSPO: 22698"
            }
        },
        {
            "id": 60189,
            "type": "Feature",
            "geometry": {
                "type": "Point",
                "coordinates": [
                    17.27394,
                    51.52173
                ]
            },
            "properties": {
                "ref:rspo": 60189,
                "official_name": "Szkolne Schronisko M\u0142odzie\u017cowe \"Dolina Baryczy\" w Miliczu",
                "name": "Szkolne Schronisko M\u0142odzie\u017cowe \"Dolina Baryczy\" w Miliczu",
                "addr:postcode": "56-300",
                "addr:city": "Milicz",
                "addr:street": "Trzebnicka",
                "addr:housenumber": "4b",
                "addr:city:simc": 987130,
                "addr:street:sym_ul": 23073,
                "phone": "+48 713840237",
                "email": "schronisko.milicz@gmail.com",
                "website": "http:\/\/www.pceipp.pl",
                "ref:regon": "931998319",
                "ref:vatin": "PL9161301160",
                "operator": "Powiat Milicki",
                "operator:type": "government",
                "tourism": "hostel",
                "note": "Parent RSPO: 22698"
            }
        },
        {
            "id": 60193,
            "type": "Feature",
            "geometry": {
                "type": "Point",
                "coordinates": [
                    17.27394,
                    51.521699999999996
                ]
            },
            "properties": {
                "ref:rspo": 60193,
                "official_name": "Biblioteka Pedagogiczna w Miliczu",
                "name": "Biblioteka Pedagogiczna w Miliczu",
                "addr:postcode": "56-300",
                "addr:city": "Milicz",
                "addr:street": "Trzebnicka",
                "addr:housenumber": "4b",
                "addr:city:simc": 987130,
                "addr:street:sym_ul": 23073,
                "phone": "+48 713840237",
                "email": "biblioteka@pceipp.pl",
                "website": "http:\/\/www.pceipp.pl",
                "ref:regon": "022006267",
                "ref:vatin": "PL9161301160",
                "operator": "Powiat Milicki",
                "operator:type": "government",
                "amenity": "library",
                "note": "Parent RSPO: 22698"
            }
        },
        {
            "id": 7195,
            "type": "Feature",
            "geometry": {
                "type": "Point",
                "coordinates": [
                    17.26464,
                    51.52441
                ]
            },
            "properties": {
                "ref:rspo": 7195,
                "official_name": "Szko\u0142a Podstawowa nr 2 I Szko\u0142a Muzyczna I Stopnia w Miliczu",
                "name": "Szko\u0142a Podstawowa nr 2 I Szko\u0142a Muzyczna I Stopnia w Miliczu",
                "addr:postcode": "56-300",
                "addr:city": "Milicz",
                "addr:street": "Miko\u0142aja Kopernika",
                "addr:housenumber": "18",
                "addr:city:simc": 987130,
                "addr:street:sym_ul": 9282,
                "phone": "+48 713840183",
                "email": "dwojka@sp2milicz.pl",
                "website": "http:\/\/www.sp2milicz.pl",
                "ref:regon": "000704362",
                "ref:vatin": "PL9161251031",
                "operator": "Gmina Milicz",
                "operator:type": "government",
                "landuse": "education",
                "fixme": "amenity=school, amenity=college albo landuse=education w zale\u017cno\u015bci od tego, jakie plac\u00f3wki wchodz\u0105 w sk\u0142ad zespo\u0142u. Sprawd\u017a, kiedy stosowa\u0107 amenity=* a kiedy landuse=education.",
                "note": "Children RSPO: 9854;9899"
            }
        },
        {
            "id": 56639,
            "type": "Feature",
            "geometry": {
                "type": "Point",
                "coordinates": [
                    17.26464,
                    51.52438
                ]
            },
            "properties": {
                "isced:level": "4",
                "ref:rspo": 56639,
                "official_name": "Szko\u0142a Policealna \"Lider\"",
                "name": "Szko\u0142a Policealna \"Lider\"",
                "addr:postcode": "56-300",
                "addr:city": "Milicz",
                "addr:street": "Miko\u0142aja Kopernika",
                "addr:housenumber": "18",
                "addr:city:simc": 987130,
                "addr:street:sym_ul": 9282,
                "phone": "+48 713840183",
                "email": "biuro@cds-lider.com.pl",
                "website": "http:\/\/www.cds-lider.com.pl",
                "ref:regon": "022000402",
                "ref:vatin": "PL7881340170",
                "operator": "Ma\u0142gorzata Szl\u0105zak",
                "operator:type": "private",
                "amenity": "college"
            }
        },
        {
            "id": 277242,
            "type": "Feature",
            "geometry": {
                "type": "Point",
                "coordinates": [
                    17.26464,
                    51.524350000000005
                ]
            },
            "properties": {
                "ref:rspo": 277242,
                "official_name": "Zak\u0142ad Szkolenia Zawodowego \"Kursor\"",
                "name": "Zak\u0142ad Szkolenia Zawodowego \"Kursor\"",
                "addr:postcode": "56-300",
                "addr:city": "Milicz",
                "addr:street": "Miko\u0142aja Kopernika",
                "addr:housenumber": "18",
                "addr:city:simc": 987130,
                "addr:street:sym_ul": 9282,
                "phone": "+48 713840469",
                "email": "czeslaw.bezpalko@epf.pl",
                "ref:regon": "388440557",
                "ref:vatin": "PL9161017186",
                "operator": "Danuta Bezpa\u0142ko",
                "operator:type": "private",
                "fixme": "w zale\u017cno\u015bci od przedmiotu dzia\u0142alno\u015bci (np. amenity=training + training=*, amenity=dancing_school, amenity=language_school, amenity=music_school)"
            }
        },
        {
            "id": 278720,
            "type": "Feature",
            "geometry": {
                "type": "Point",
                "coordinates": [
                    17.26464,
                    51.52432
                ]
            },
            "properties": {
                "isced:level": "3",
                "ref:rspo": 278720,
                "official_name": "Szko\u0142a Bran\u017cowa II Stopnia Lider w Miliczu",
                "name": "Szko\u0142a Bran\u017cowa II Stopnia Lider w Miliczu",
                "addr:postcode": "56-300",
                "addr:city": "Milicz",
                "addr:street": "Miko\u0142aja Kopernika",
                "addr:housenumber": "18",
                "addr:city:simc": 987130,
                "addr:street:sym_ul": 9282,
                "phone": "+48 713840183",
                "email": "biuro@cds-lider.com.pl",
                "website": "http:\/\/www.cds-lider.com.pl",
                "ref:regon": "520072586",
                "operator": "Ma\u0142gorzata Szl\u0105zak",
                "operator:type": "private",
                "amenity": "school"
            }
        },
        {
            "id": 9854,
            "type": "Feature",
            "geometry": {
                "type": "Point",
                "coordinates": [
                    17.26464,
                    51.52429
                ]
            },
            "properties": {
                "isced:level": "1;2",
                "ref:rspo": 9854,
                "official_name": "Szko\u0142a Podstawowa nr 2 w Miliczu",
                "name": "Szko\u0142a Podstawowa nr 2 w Miliczu",
                "addr:postcode": "56-300",
                "addr:city": "Milicz",
                "addr:street": "Miko\u0142aja Kopernika",
                "addr:housenumber": "18",
                "addr:city:simc": 987130,
                "addr:street:sym_ul": 9282,
                "phone": "+48 713840183",
                "email": "dwojka@sp2milicz.pl",
                "website": "http:\/\/www.sp2milicz.pl",
                "ref:regon": "932936438",
                "operator": "Gmina Milicz",
                "operator:type": "government",
                "amenity": "school",
                "note": "Parent RSPO: 7195"
            }
        },
        {
            "id": 6297,
            "type": "Feature",
            "geometry": {
                "type": "Point",
                "coordinates": [
                    17.27385,
                    51.52483
                ]
            },
            "properties": {
                "ref:rspo": 6297,
                "official_name": "Przedszkole Samorz\u0105dowe w Miliczu",
                "name": "Przedszkole Samorz\u0105dowe w Miliczu",
                "addr:postcode": "56-300",
                "addr:city": "Milicz",
                "addr:street": "Grunwaldzka",
                "addr:housenumber": "1",
                "addr:city:simc": 987130,
                "addr:street:sym_ul": 6260,
                "phone": "+48 713840382",
                "email": "przedszkolemilicz1@gmail.com",
                "website": "http:\/\/www.przedszkolesamorzadowewmiliczu.przedszkolowo.pl",
                "ref:regon": "932681228",
                "ref:vatin": "PL9161313298",
                "operator": "Gmina Milicz",
                "operator:type": "government",
                "amenity": "kindergarten"
            }
        },
        {
            "id": 10267,
            "type": "Feature",
            "geometry": {
                "type": "Point",
                "coordinates": [
                    17.2664,
                    51.52514
                ]
            },
            "properties": {
                "ref:rspo": 10267,
                "official_name": "Dzienny O\u015brodek Rehabilitacyjno-Wychowawczy w Miliczu - Przedszkole Masowe - Przedszkole Specjalne",
                "name": "Dzienny O\u015brodek Rehabilitacyjno-Wychowawczy w Miliczu - Przedszkole Masowe - Przedszkole Specjalne",
                "addr:postcode": "56-300",
                "addr:city": "Milicz",
                "addr:street": "Miko\u0142aja Kopernika",
                "addr:housenumber": "20",
                "addr:city:simc": 987130,
                "addr:street:sym_ul": 9282,
                "phone": "+48 713841110",
                "email": "dorw@mspdion.org.pl",
                "website": "http:\/\/www.mspdion.org.pl",
                "ref:regon": "021961772",
                "operator": "Dane Do Uzupe\u0142nienia",
                "operator:type": "private",
                "amenity": "kindergarten"
            }
        },
        {
            "id": 22057,
            "type": "Feature",
            "geometry": {
                "type": "Point",
                "coordinates": [
                    17.2664,
                    51.52511
                ]
            },
            "properties": {
                "ref:rspo": 22057,
                "official_name": "Dzienny O\u015brodek Rewalidacyjno Wychowawczy",
                "name": "Dzienny O\u015brodek Rewalidacyjno Wychowawczy",
                "addr:postcode": "56-300",
                "addr:city": "Milicz",
                "addr:street": "Miko\u0142aja Kopernika",
                "addr:housenumber": "20",
                "addr:city:simc": 987130,
                "addr:street:sym_ul": 9282,
                "phone": "+48 713841110",
                "email": "dorw@mspdion.org.pl",
                "website": "http:\/\/www.mspdion.org.pl\/",
                "ref:regon": "021977431",
                "ref:vatin": "PL9161008483",
                "operator": "Milickie Stowarzyszenie Przyjaci\u00f3\u0142 Dzieci I Os\u00f3b Niepe\u0142nosprawnych",
                "operator:type": "ngo",
                "amenity": "school"
            }
        },
        {
            "id": 21982,
            "type": "Feature",
            "geometry": {
                "type": "Point",
                "coordinates": [
                    17.27523,
                    51.526
                ]
            },
            "properties": {
                "isced:level": "3",
                "ref:rspo": 21982,
                "official_name": "I Liceum Og\u00f3lnokszta\u0142c\u0105ce im. Armii Krajowej",
                "name": "I Liceum Og\u00f3lnokszta\u0142c\u0105ce",
                "addr:postcode": "56-300",
                "addr:city": "Milicz",
                "addr:street": "11 Listopada",
                "addr:housenumber": "5",
                "addr:city:simc": 987130,
                "addr:street:sym_ul": 11205,
                "phone": "+48 713840012",
                "email": "lo1milicz@pro.onet.pl",
                "website": "http:\/\/www.lo1milicz.pl",
                "ref:regon": "000831698",
                "ref:vatin": "PL9161267931",
                "operator": "Powiat Milicki",
                "operator:type": "government",
                "amenity": "school"
            }
        },
        {
            "id": 127814,
            "type": "Feature",
            "geometry": {
                "type": "Point",
                "coordinates": [
                    17.27523,
                    51.52597
                ]
            },
            "properties": {
                "isced:level": "3",
                "ref:rspo": 127814,
                "official_name": "Liceum Og\u00f3lnokszta\u0142c\u0105ce dla Doros\u0142ych \"Vena\" w Miliczu",
                "name": "Liceum Og\u00f3lnokszta\u0142c\u0105ce dla Doros\u0142ych \"Vena\" w Miliczu",
                "addr:postcode": "56-300",
                "addr:city": "Milicz",
                "addr:street": "11 Listopada",
                "addr:housenumber": "5",
                "addr:city:simc": 987130,
                "addr:street:sym_ul": 11205,
                "phone": "+48 713840012",
                "email": "agiedyk@wp.pl",
                "ref:regon": "361875902",
                "operator": "Marcin Giedyk",
                "operator:type": "private",
                "amenity": "school"
            }
        },
        {
            "id": 21996,
            "type": "Feature",
            "geometry": {
                "type": "Point",
                "coordinates": [
                    17.27362,
                    51.52725
                ]
            },
            "properties": {
                "ref:rspo": 21996,
                "official_name": "Specjalny O\u015brodek Szkolno Wychowawczy",
                "name": "Specjalny O\u015brodek Szkolno Wychowawczy",
                "addr:postcode": "56-300",
                "addr:city": "Milicz",
                "addr:street": "Armii Krajowej",
                "addr:housenumber": "2",
                "addr:city:simc": 987130,
                "addr:street:sym_ul": 432,
                "phone": "+48 713840745",
                "email": "soswmilicz@o2.pl",
                "website": "http:\/\/www.soswmilicz.pl",
                "ref:regon": "932686266",
                "ref:vatin": "PL9161250391",
                "operator": "Powiat Milicki",
                "operator:type": "government",
                "amenity": "school",
                "note": "Children RSPO: 62436;62440;62442"
            }
        },
        {
            "id": 41323,
            "type": "Feature",
            "geometry": {
                "type": "Point",
                "coordinates": [
                    17.27362,
                    51.52722
                ]
            },
            "properties": {
                "ref:rspo": 41323,
                "official_name": "Przedszkole Niepubliczne \"Swiat Malucha\"",
                "name": "Przedszkole Niepubliczne \"Swiat Malucha\"",
                "addr:postcode": "56-300",
                "addr:city": "Milicz",
                "addr:street": "Armii Krajowej",
                "addr:housenumber": "2",
                "addr:city:simc": 987130,
                "addr:street:sym_ul": 432,
                "phone": "+48 796767389",
                "ref:regon": "021991945",
                "operator": "Milickie Stowarzyszenie \"Razem Bli\u017cej\"",
                "operator:type": "ngo",
                "amenity": "kindergarten"
            }
        },
        {
            "id": 62436,
            "type": "Feature",
            "geometry": {
                "type": "Point",
                "coordinates": [
                    17.27362,
                    51.527190000000004
                ]
            },
            "properties": {
                "isced:level": "1;2",
                "ref:rspo": 62436,
                "official_name": "Specjalny O\u015brodek Szkolno-Wychowawczy - Specjalna Szko\u0142a Podstawowa",
                "name": "Specjalny O\u015brodek Szkolno-Wychowawczy - Specjalna Szko\u0142a Podstawowa",
                "addr:postcode": "56-300",
                "addr:city": "Milicz",
                "addr:street": "Armii Krajowej",
                "addr:housenumber": "2",
                "addr:city:simc": 987130,
                "addr:street:sym_ul": 432,
                "phone": "+48 713840745",
                "email": "soswmilicz@o2.pl",
                "website": "http:\/\/www.sosw-milicz.pl",
                "ref:regon": "001012399",
                "ref:vatin": "PL9161250391",
                "operator": "Powiat Milicki",
                "operator:type": "government",
                "amenity": "school",
                "note": "Parent RSPO: 21996"
            }
        },
        {
            "id": 62440,
            "type": "Feature",
            "geometry": {
                "type": "Point",
                "coordinates": [
                    17.27362,
                    51.52716
                ]
            },
            "properties": {
                "isced:level": "3",
                "ref:rspo": 62440,
                "official_name": "Spcejalny O\u015brodek Szkolno-Wychowawczy -Bran\u017cowa I Stopnia",
                "name": "Spcejalny O\u015brodek Szkolno-Wychowawczy -Bran\u017cowa I Stopnia",
                "addr:postcode": "56-300",
                "addr:city": "Milicz",
                "addr:street": "Armii Krajowej",
                "addr:housenumber": "2",
                "addr:city:simc": 987130,
                "addr:street:sym_ul": 432,
                "phone": "+48 713840745",
                "email": "soswmilicz@o2.pl",
                "website": "http:\/\/www.sosw-milicz.pl",
                "ref:regon": "932686243",
                "ref:vatin": "PL9161250391",
                "operator": "Powiat Milicki",
                "operator:type": "government",
                "amenity": "school",
                "note": "Parent RSPO: 21996"
            }
        },
        {
            "id": 62442,
            "type": "Feature",
            "geometry": {
                "type": "Point",
                "coordinates": [
                    17.27362,
                    51.52713
                ]
            },
            "properties": {
                "ref:rspo": 62442,
                "official_name": "Szko\u0142a Specjalna Przysposabiaj\u0105ca do Pracy w Specjalnym O\u015brodku Szkolno-Wychowawczym w Miliczu",
                "name": "Szko\u0142a Specjalna Przysposabiaj\u0105ca do Pracy w Specjalnym O\u015brodku Szkolno-Wychowawczym w Miliczu",
                "addr:postcode": "56-300",
                "addr:city": "Milicz",
                "addr:street": "Armii Krajowej",
                "addr:housenumber": "2",
                "addr:city:simc": 987130,
                "addr:street:sym_ul": 432,
                "phone": "+48 713840745",
                "email": "soswmilicz@o2.pl",
                "website": "http:\/\/www.sosw-milicz.pl",
                "ref:regon": "933023119",
                "ref:vatin": "PL9161250391",
                "operator": "Powiat Milicki",
                "operator:type": "government",
                "amenity": "school",
                "note": "Parent RSPO: 21996"
            }
        },
        {
            "id": 262788,
            "type": "Feature",
            "geometry": {
                "type": "Point",
                "coordinates": [
                    17.27625,
                    51.52744
                ]
            },
            "properties": {
                "isced:level": "1;2",
                "ref:rspo": 262788,
                "official_name": "Szko\u0142a Podstawowa nr 1 im. Miko\u0142aja Kopernika w Miliczu",
                "name": "Szko\u0142a Podstawowa nr 1",
                "addr:postcode": "56-300",
                "addr:city": "Milicz",
                "addr:street": "Armii Krajowej",
                "addr:housenumber": "7",
                "addr:city:simc": 987130,
                "addr:street:sym_ul": 432,
                "phone": "+48 713840015",
                "email": "gimmil@poczta.onet.pl",
                "website": "http:\/\/sp1milicz.pl",
                "ref:regon": "368062415",
                "operator": "Gmina Milicz",
                "operator:type": "government",
                "amenity": "school"
            }
        },
        {
            "id": 26834,
            "type": "Feature",
            "geometry": {
                "type": "Point",
                "coordinates": [
                    17.26765,
                    51.53123
                ]
            },
            "properties": {
                "isced:level": "3",
                "ref:rspo": 26834,
                "official_name": "Technikum Le\u015bne w Miliczu im. Prof. W\u0142adys\u0142awa Jedli\u0144skiego",
                "name": "Technikum Le\u015bne w Miliczu",
                "addr:postcode": "56-300",
                "addr:city": "Milicz",
                "addr:street": "Kasztela\u0144ska",
                "addr:housenumber": "1",
                "addr:city:simc": 987130,
                "addr:street:sym_ul": 8179,
                "phone": "+48 713840718",
                "email": "sekretariat@tlmilicz.pl",
                "website": "http:\/\/www.tlmilicz.pl",
                "ref:regon": "020686967",
                "ref:vatin": "PL9161393133",
                "operator": "Ministerstwo \u015arodowiska",
                "operator:type": "public",
                "amenity": "school"
            }
        },
        {
            "id": 7194,
            "type": "Feature",
            "geometry": {
                "type": "Point",
                "coordinates": [
                    17.27725,
                    51.53286
                ]
            },
            "properties": {
                "ref:rspo": 7194,
                "official_name": "Przedszkole Parafialne im. \u015aw. Feliksa z Cantalicio w Miliczu",
                "name": "Przedszkole Parafialne",
                "addr:postcode": "56-300",
                "addr:city": "Milicz",
                "addr:street": "Ko\u015bcielna",
                "addr:housenumber": "3",
                "addr:city:simc": 987130,
                "addr:street:sym_ul": 9546,
                "phone": "+48 713842875",
                "email": "przedszkole.parafialne@wp.pl",
                "website": "http:\/\/www.przedszkoleparafialne.pl",
                "ref:regon": "021961766",
                "operator": "Dane Do Uzupe\u0142nienia",
                "operator:type": "private",
                "amenity": "kindergarten"
            }
        },
        {
            "id": 6293,
            "type": "Feature",
            "geometry": {
                "type": "Point",
                "coordinates": [
                    17.16817,
                    51.53559
                ]
            },
            "properties": {
                "isced:level": "1;2",
                "ref:rspo": 6293,
                "official_name": "Szko\u0142a Podstawowa w Dunkowej",
                "name": "Szko\u0142a Podstawowa w Dunkowej",
                "addr:postcode": "56-300",
                "addr:place": "Dunkowa",
                "addr:housenumber": "1",
                "addr:city:simc": 877677,
                "phone": "+48 713847103",
                "email": "spdunkowa@poczta.onet.pl",
                "ref:regon": "001267834",
                "ref:vatin": "PL9161251114",
                "operator": "Gmina Milicz",
                "operator:type": "government",
                "amenity": "school"
            }
        },
        {
            "id": 12403,
            "type": "Feature",
            "geometry": {
                "type": "Point",
                "coordinates": [
                    17.27071,
                    51.53613
                ]
            },
            "properties": {
                "ref:rspo": 12403,
                "official_name": "\"Mali Odkrywcy\" Przedszkole",
                "name": "\"Mali Odkrywcy\" Przedszkole",
                "addr:postcode": "56-300",
                "addr:city": "Milicz",
                "addr:street": "Krotoszy\u0144ska",
                "addr:housenumber": "13",
                "addr:city:simc": 987130,
                "addr:street:sym_ul": 9969,
                "phone": "+48 503691875",
                "email": "m.platek.maliodkrywcy@gmail.com",
                "ref:regon": "021960229",
                "operator": "Monika P\u0142atek",
                "operator:type": "private",
                "amenity": "kindergarten"
            }
        },
        {
            "id": 262729,
            "type": "Feature",
            "geometry": {
                "type": "Point",
                "coordinates": [
                    17.55185,
                    51.54171
                ]
            },
            "properties": {
                "isced:level": "1;2",
                "ref:rspo": 262729,
                "official_name": "Szko\u0142a Podstawowa we Wr\u00f3bli\u0144cu",
                "name": "Szko\u0142a Podstawowa we Wr\u00f3bli\u0144cu",
                "addr:postcode": "56-300",
                "addr:place": "Wr\u00f3bliniec",
                "addr:housenumber": "24",
                "addr:city:simc": 878470,
                "phone": "+48 713849522",
                "email": "wrobliniec@wp.pl",
                "ref:regon": "368052919",
                "ref:vatin": "PL9161398283",
                "operator": "Gmina Milicz",
                "operator:type": "government",
                "amenity": "school"
            }
        },
        {
            "id": 123539,
            "type": "Feature",
            "geometry": {
                "type": "Point",
                "coordinates": [
                    17.27567,
                    51.54717
                ]
            },
            "properties": {
                "ref:rspo": 123539,
                "official_name": "Niepubliczna Plac\u00f3wka Przedszkolna \"Akademia Przedszkolaka\"",
                "name": "Niepubliczna Plac\u00f3wka Przedszkolna \"Akademia Przedszkolaka\"",
                "addr:postcode": "56-300",
                "addr:city": "Wszewilki",
                "addr:street": "Sulmierzycka",
                "addr:housenumber": "37",
                "addr:city:simc": 878493,
                "addr:street:sym_ul": 21564,
                "phone": "+48 601768480",
                "email": "przedszkole.wszewilki@gmail.com",
                "ref:regon": "022451889",
                "operator": "Katarzyna Musielak",
                "operator:type": "private",
                "amenity": "kindergarten"
            }
        },
        {
            "id": 6294,
            "type": "Feature",
            "geometry": {
                "type": "Point",
                "coordinates": [
                    17.35765,
                    51.55809
                ]
            },
            "properties": {
                "isced:level": "1;2",
                "ref:rspo": 6294,
                "official_name": "Szko\u0142a Podstawowa w Nowym Zamku",
                "name": "Szko\u0142a Podstawowa w Nowym Zamku",
                "addr:postcode": "56-300",
                "addr:place": "Nowe Grodzisko",
                "addr:housenumber": "9",
                "addr:city:simc": 878010,
                "phone": "+48 713831252",
                "email": "spnz@poczta.onet.pl",
                "ref:regon": "001181848",
                "ref:vatin": "PL9161251114",
                "operator": "Gmina Milicz",
                "operator:type": "government",
                "amenity": "school"
            }
        },
        {
            "id": 123422,
            "type": "Feature",
            "geometry": {
                "type": "Point",
                "coordinates": [
                    17.45843,
                    51.56931
                ]
            },
            "properties": {
                "ref:rspo": 123422,
                "official_name": "Przedszkole Niepubliczne w G\u0105dkowicach",
                "name": "Przedszkole Niepubliczne w G\u0105dkowicach",
                "addr:postcode": "56-300",
                "addr:place": "G\u0105dkowice",
                "addr:housenumber": "45",
                "addr:city:simc": 877683,
                "phone": "+48 691412262",
                "email": "danutastefanska61@gmail.com",
                "ref:regon": "022448806",
                "operator": "Dane Do Uzupe\u0142nienia",
                "operator:type": "private",
                "amenity": "kindergarten"
            }
        },
        {
            "id": 6295,
            "type": "Feature",
            "geometry": {
                "type": "Point",
                "coordinates": [
                    17.45456,
                    51.5822
                ]
            },
            "properties": {
                "isced:level": "1;2",
                "ref:rspo": 6295,
                "official_name": "Szko\u0142a Podstawowa we Wzi\u0105chowie Wielkim",
                "name": "Szko\u0142a Podstawowa we Wzi\u0105chowie Wielkim",
                "addr:postcode": "56-300",
                "addr:place": "Wzi\u0105chowo Wielkie",
                "addr:housenumber": "47",
                "addr:city:simc": 878530,
                "phone": "+48 713849216",
                "email": "spwziachowo@op.pl",
                "website": "http:\/\/www.spwziachowo.pl",
                "ref:regon": "001181854",
                "ref:vatin": "PL9161313281",
                "operator": "Gmina Milicz",
                "operator:type": "government",
                "amenity": "school"
            }
        }
    ]
}