{
    "type": "FeatureCollection",
    "features": [
        {
            "id": 89258,
            "type": "Feature",
            "geometry": {
                "type": "Point",
                "coordinates": [
                    22.916055,
                    51.696818
                ]
            },
            "properties": {
                "isced:level": "1;2",
                "ref:rspo": 89258,
                "official_name": "Szko\u0142a Podstawowa w Kostrach",
                "name": "Szko\u0142a Podstawowa w Kostrach",
                "addr:postcode": "21-210",
                "addr:place": "Kostry",
                "addr:housenumber": "1",
                "addr:city:simc": 16449,
                "phone": "+48 833567534",
                "email": "spkostry@wp.pl",
                "website": "http:\/\/spkostry.szkolna.net",
                "ref:regon": "001117388",
                "ref:vatin": "PL5391391319",
                "operator": "Gmina Milan\u00f3w",
                "operator:type": "government",
                "amenity": "school"
            }
        },
        {
            "id": 105358,
            "type": "Feature",
            "geometry": {
                "type": "Point",
                "coordinates": [
                    22.88981,
                    51.70139
                ]
            },
            "properties": {
                "isced:level": "1;2",
                "ref:rspo": 105358,
                "official_name": "Szko\u0142a Podstawowa im. J\u00f3zefa Ignacego Kraszewskiego",
                "name": "Szko\u0142a Podstawowa",
                "addr:postcode": "21-210",
                "addr:city": "Milan\u00f3w",
                "addr:street": "Szkolna",
                "addr:housenumber": "12",
                "addr:city:simc": 16478,
                "addr:street:sym_ul": 21970,
                "phone": "+48 833567197",
                "email": "sekretariat5@poczta.onet.pl",
                "website": "http:\/\/www.gim-milanow.edu.pl",
                "ref:regon": "000739024",
                "ref:vatin": "PL5391391271",
                "operator": "Gmina Milan\u00f3w",
                "operator:type": "government",
                "amenity": "school"
            }
        },
        {
            "id": 89257,
            "type": "Feature",
            "geometry": {
                "type": "Point",
                "coordinates": [
                    22.89091,
                    51.70162
                ]
            },
            "properties": {
                "ref:rspo": 89257,
                "official_name": "Przedszkole Samorz\u0105dowe w Milanowie",
                "name": "Przedszkole Samorz\u0105dowe w Milanowie",
                "addr:postcode": "21-210",
                "addr:city": "Milan\u00f3w",
                "addr:street": "Szkolna",
                "addr:housenumber": "12A",
                "addr:city:simc": 16478,
                "addr:street:sym_ul": 21970,
                "phone": "+48 833567048",
                "email": "przedszkole_samorzadowe@wp.pl",
                "ref:regon": "000967995",
                "ref:vatin": "PL5391391294",
                "operator": "Gmina Milan\u00f3w",
                "operator:type": "government",
                "amenity": "kindergarten"
            }
        },
        {
            "id": 89259,
            "type": "Feature",
            "geometry": {
                "type": "Point",
                "coordinates": [
                    22.9454118,
                    51.753988
                ]
            },
            "properties": {
                "isced:level": "1;2",
                "ref:rspo": 89259,
                "official_name": "Szko\u0142a Podstawowa im. Marii D\u0105browskiej w Rudnie",
                "name": "Szko\u0142a Podstawowa",
                "addr:postcode": "21-210",
                "addr:place": "Rudno",
                "addr:housenumber": "129B",
                "addr:city:simc": 16544,
                "phone": "+48 833569004",
                "email": "sprudno@wp.pl",
                "website": "http:\/\/sprudno.szkolnastrona.pl",
                "ref:regon": "001119594",
                "ref:vatin": "PL5391391288",
                "operator": "Gmina Milan\u00f3w",
                "operator:type": "government",
                "amenity": "school"
            }
        },
        {
            "id": 82552,
            "type": "Feature",
            "geometry": {
                "type": "Point",
                "coordinates": [
                    22.984136,
                    51.7603859
                ]
            },
            "properties": {
                "isced:level": "1;2",
                "ref:rspo": 82552,
                "official_name": "Publiczna Ma\u0142a Szko\u0142a Podstawowa w Radczu",
                "name": "Publiczna Ma\u0142a Szko\u0142a Podstawowa w Radczu",
                "addr:postcode": "21-210",
                "addr:place": "Radcze",
                "addr:housenumber": "88",
                "addr:city:simc": 16515,
                "phone": "+48 783021545",
                "email": "edyta92@autograf.pl",
                "ref:regon": "061492665",
                "ref:vatin": "PL5391430769",
                "operator": "Stowarzyszenie Kulturalno-O\u015bwiatowe Wsi Radcze",
                "operator:type": "ngo",
                "amenity": "school"
            }
        }
    ]
}