{
    "type": "FeatureCollection",
    "features": [
        {
            "id": 130373,
            "type": "Feature",
            "geometry": {
                "type": "Point",
                "coordinates": [
                    23.0666379,
                    51.675112
                ]
            },
            "properties": {
                "isced:level": "1;2",
                "ref:rspo": 130373,
                "official_name": "Szko\u0142a Podstawowa im. Amelii Hr. \u0141ubie\u0144skiej w Kolanie",
                "name": "Szko\u0142a Podstawowa",
                "addr:country": "PL",
                "addr:postcode": "21-205",
                "addr:place": "Kolano-Kolonia",
                "addr:housenumber": "44",
                "addr:teryt:simc": 12842,
                "contact:phone": "+48 833561363",
                "contact:email": "spkolano@wp.pl",
                "ref:regon": "363930479",
                "operator": "Stowarzyszenie \"Nadzieja\"",
                "operator:type": "ngo",
                "amenity": "school"
            }
        },
        {
            "id": 130371,
            "type": "Feature",
            "geometry": {
                "type": "Point",
                "coordinates": [
                    23.0151699,
                    51.70232
                ]
            },
            "properties": {
                "isced:level": "1;2",
                "ref:rspo": 130371,
                "official_name": "Szko\u0142a Podstawowa w G\u0119si",
                "name": "Szko\u0142a Podstawowa w G\u0119si",
                "addr:country": "PL",
                "addr:postcode": "21-205",
                "addr:place": "G\u0119\u015b",
                "addr:housenumber": "165",
                "addr:teryt:simc": 12776,
                "contact:phone": "+48 833561196",
                "contact:email": "szkolawgesi@op.pl",
                "contact:website": "http:\/\/www.spges.szkolnastrona.pl",
                "ref:regon": "363930373",
                "operator": "Spo\u0142eczno - O\u015bwiatowe Stowarzyszenie Pomocy Pokrzywdzonym I Niepe\u0142nosprawnym \"Edukator\"",
                "operator:type": "ngo",
                "amenity": "school"
            }
        },
        {
            "id": 120268,
            "type": "Feature",
            "geometry": {
                "type": "Point",
                "coordinates": [
                    23.136279,
                    51.7208675
                ]
            },
            "properties": {
                "isced:level": "1;2",
                "ref:rspo": 120268,
                "official_name": "Szko\u0142a Podstawowa Siw w Paszenkach",
                "name": "Szko\u0142a Podstawowa Siw w Paszenkach",
                "addr:country": "PL",
                "addr:postcode": "21-205",
                "addr:place": "Paszenki",
                "addr:housenumber": "78",
                "addr:teryt:simc": 12888,
                "contact:phone": "+48 833560523",
                "contact:email": "stowarzyszeniesiw@gmail.com",
                "ref:regon": "061606637",
                "ref:vatin": "PL5391511232",
                "operator": "\"Szko\u0142a I Wie\u015b\"",
                "operator:type": "ngo",
                "amenity": "school"
            }
        },
        {
            "id": 4378,
            "type": "Feature",
            "geometry": {
                "type": "Point",
                "coordinates": [
                    23.08988,
                    51.72343
                ]
            },
            "properties": {
                "isced:level": "1;2",
                "ref:rspo": 4378,
                "official_name": "Szko\u0142a Podstawowa im. Sgo Polesie w Jab\u0142oniu",
                "name": "Szko\u0142a Podstawowa",
                "addr:country": "PL",
                "addr:postcode": "21-205",
                "addr:city": "Jab\u0142o\u0144",
                "addr:street": "Jadwigi Tokarskiej",
                "addr:housenumber": "2",
                "addr:teryt:simc": 12799,
                "addr:teryt:sym_ul": 22827,
                "contact:phone": "+48 513588198",
                "contact:email": "zsjablon@o2.pl",
                "contact:website": "http:\/\/zsjablon.szkolnastrona.pl",
                "ref:regon": "000559240",
                "ref:vatin": "PL5391387909",
                "operator": "Gmina Jab\u0142o\u0144",
                "operator:type": "government",
                "amenity": "school"
            }
        },
        {
            "id": 34352,
            "type": "Feature",
            "geometry": {
                "type": "Point",
                "coordinates": [
                    23.08753,
                    51.7249
                ]
            },
            "properties": {
                "ref:rspo": 34352,
                "official_name": "Zesp\u00f3\u0142 Szk\u00f3\u0142 Centrum Kszta\u0142cenia Rolniczego im. Augusta Zamoyskiego w Jab\u0142oniu",
                "name": "Zesp\u00f3\u0142 Szk\u00f3\u0142 Centrum Kszta\u0142cenia Rolniczego",
                "addr:country": "PL",
                "addr:postcode": "21-205",
                "addr:city": "Jab\u0142o\u0144",
                "addr:street": "Augusta Zamoyskiego",
                "addr:housenumber": "4",
                "addr:teryt:simc": 12799,
                "addr:teryt:sym_ul": 39762,
                "contact:phone": "+48 823560017",
                "contact:email": "sekretariat@zsckrjablon.pl",
                "contact:website": "http:\/\/www.zsckrjablon.pl",
                "ref:regon": "000094455",
                "ref:vatin": "PL5391171546",
                "operator": "Ministerstwo Rolnictwa I Rozwoju Wsi",
                "operator:type": "public",
                "landuse": "education",
                "fixme": "amenity=school, amenity=college albo landuse=education w zale\u017cno\u015bci od tego, jakie plac\u00f3wki wchodz\u0105 w sk\u0142ad zespo\u0142u. Sprawd\u017a, kiedy stosowa\u0107 amenity=* a kiedy landuse=education.",
                "note": "Children RSPO: 104380;104381;104391;115530"
            }
        },
        {
            "id": 104380,
            "type": "Feature",
            "geometry": {
                "type": "Point",
                "coordinates": [
                    23.08753,
                    51.724869999999996
                ]
            },
            "properties": {
                "isced:level": "3",
                "ref:rspo": 104380,
                "official_name": "Technikum w Jab\u0142oniu",
                "name": "Technikum w Jab\u0142oniu",
                "addr:country": "PL",
                "addr:postcode": "21-205",
                "addr:city": "Jab\u0142o\u0144",
                "addr:street": "Augusta Zamoyskiego",
                "addr:housenumber": "4",
                "addr:teryt:simc": 12799,
                "addr:teryt:sym_ul": 39762,
                "contact:phone": "+48 833560017",
                "contact:email": "sekretariat@zsckrjablon.pl",
                "contact:website": "http:\/\/www.zsckrjablon.pl",
                "ref:regon": "060298599",
                "operator": "Ministerstwo Rolnictwa I Rozwoju Wsi",
                "operator:type": "public",
                "amenity": "school",
                "note": "Parent RSPO: 34352"
            }
        },
        {
            "id": 104381,
            "type": "Feature",
            "geometry": {
                "type": "Point",
                "coordinates": [
                    23.08753,
                    51.72484
                ]
            },
            "properties": {
                "isced:level": "3",
                "ref:rspo": 104381,
                "official_name": "Bran\u017cowa Szko\u0142a I Stopnia w Jab\u0142oniu",
                "name": "Bran\u017cowa Szko\u0142a I Stopnia w Jab\u0142oniu",
                "addr:country": "PL",
                "addr:postcode": "21-205",
                "addr:city": "Jab\u0142o\u0144",
                "addr:street": "Augusta Zamoyskiego",
                "addr:housenumber": "4",
                "addr:teryt:simc": 12799,
                "addr:teryt:sym_ul": 39762,
                "contact:phone": "+48 833560017",
                "contact:email": "sekretariat@zsckrjablon.pl",
                "contact:website": "http:\/\/www.zsckrjablon.pl",
                "ref:regon": "030310898",
                "operator": "Ministerstwo Rolnictwa I Rozwoju Wsi",
                "operator:type": "public",
                "amenity": "school",
                "note": "Parent RSPO: 34352"
            }
        },
        {
            "id": 104391,
            "type": "Feature",
            "geometry": {
                "type": "Point",
                "coordinates": [
                    23.08753,
                    51.72481
                ]
            },
            "properties": {
                "isced:level": "4",
                "ref:rspo": 104391,
                "official_name": "Szko\u0142a Policealna w Jab\u0142oniu",
                "name": "Szko\u0142a Policealna w Jab\u0142oniu",
                "addr:country": "PL",
                "addr:postcode": "21-205",
                "addr:city": "Jab\u0142o\u0144",
                "addr:street": "Augusta Zamoyskiego",
                "addr:housenumber": "4",
                "addr:teryt:simc": 12799,
                "addr:teryt:sym_ul": 39762,
                "contact:phone": "+48 833560017",
                "contact:email": "zsckrjablon@poczta.fm",
                "contact:website": "http:\/\/www.zsckrjablon.pl",
                "ref:regon": "060298620",
                "operator": "Ministerstwo Rolnictwa I Rozwoju Wsi",
                "operator:type": "public",
                "amenity": "college",
                "note": "Parent RSPO: 34352"
            }
        },
        {
            "id": 115530,
            "type": "Feature",
            "geometry": {
                "type": "Point",
                "coordinates": [
                    23.08753,
                    51.724779999999996
                ]
            },
            "properties": {
                "ref:rspo": 115530,
                "official_name": "Centrum Kszta\u0142cenia Ustawicznego w Jab\u0142oniu",
                "name": "Centrum Kszta\u0142cenia Ustawicznego w Jab\u0142oniu",
                "addr:country": "PL",
                "addr:postcode": "21-205",
                "addr:city": "Jab\u0142o\u0144",
                "addr:street": "Augusta Zamoyskiego",
                "addr:housenumber": "4",
                "addr:teryt:simc": 12799,
                "addr:teryt:sym_ul": 39762,
                "contact:phone": "+48 833560017",
                "contact:email": "zsckrjablon@poczta.fm",
                "contact:website": "http:\/\/www.zsckrjablon.pl",
                "ref:regon": "061577634",
                "operator": "Ministerstwo Rolnictwa I Rozwoju Wsi",
                "operator:type": "public",
                "fixme": "w zale\u017cno\u015bci od przedmiotu dzia\u0142alno\u015bci (np. amenity=training + training=*, amenity=dancing_school, amenity=language_school, amenity=music_school)",
                "note": "Parent RSPO: 34352"
            }
        },
        {
            "id": 130372,
            "type": "Feature",
            "geometry": {
                "type": "Point",
                "coordinates": [
                    23.026106,
                    51.7402619
                ]
            },
            "properties": {
                "isced:level": "1;2",
                "ref:rspo": 130372,
                "official_name": "Szko\u0142a Podstawowa w Dawidach",
                "name": "Szko\u0142a Podstawowa w Dawidach",
                "addr:country": "PL",
                "addr:postcode": "21-205",
                "addr:place": "Dawidy",
                "addr:housenumber": "56",
                "addr:teryt:simc": 12760,
                "contact:phone": "+48 833560014",
                "contact:email": "spdawidy1@wp.pl",
                "contact:website": "http:\/\/spdawidy.szkolnastrona.pl",
                "ref:regon": "363930456",
                "operator": "Stowarzyszenie \"Szko\u0142a Marze\u0144\"",
                "operator:type": "ngo",
                "amenity": "school"
            }
        }
    ]
}