{
    "type": "FeatureCollection",
    "features": [
        {
            "id": 59590,
            "type": "Feature",
            "geometry": {
                "type": "Point",
                "coordinates": [
                    21.8755,
                    53.48905
                ]
            },
            "properties": {
                "isced:level": "1;2",
                "ref:rspo": 59590,
                "official_name": "Szko\u0142a Podstawowa w Je\u017cach",
                "name": "Szko\u0142a Podstawowa w Je\u017cach",
                "addr:postcode": "12-200",
                "addr:place": "Je\u017ce",
                "addr:housenumber": "14",
                "addr:city:simc": 764246,
                "phone": "+48 874230193",
                "email": "sp_jeze@wp.pl",
                "website": "http:\/\/www.spjeze.szkolnastrona.pl",
                "ref:regon": "001153898",
                "ref:vatin": "PL8491439949",
                "operator": "Gmina Pisz",
                "operator:type": "government",
                "amenity": "school"
            }
        },
        {
            "id": 59596,
            "type": "Feature",
            "geometry": {
                "type": "Point",
                "coordinates": [
                    21.5273,
                    53.51023
                ]
            },
            "properties": {
                "isced:level": "1;2",
                "ref:rspo": 59596,
                "official_name": "Szko\u0142a Podstawowa w Hejdyku",
                "name": "Szko\u0142a Podstawowa w Hejdyku",
                "addr:postcode": "12-220",
                "addr:place": "Hejdyk",
                "addr:housenumber": "8",
                "addr:city:simc": 764186,
                "phone": "+48 874256155",
                "email": "sphejdyk@interia.pl",
                "website": "http:\/\/sphejdyk.edupage.org",
                "ref:regon": "001153881",
                "ref:vatin": "PL8491440036",
                "operator": "Gmina Pisz",
                "operator:type": "government",
                "amenity": "school"
            }
        },
        {
            "id": 66135,
            "type": "Feature",
            "geometry": {
                "type": "Point",
                "coordinates": [
                    21.69255,
                    53.54499
                ]
            },
            "properties": {
                "isced:level": "1;2",
                "ref:rspo": 66135,
                "official_name": "Szko\u0142a Podstawowa w U\u015bcianach Starych",
                "name": "Szko\u0142a Podstawowa w U\u015bcianach Starych",
                "addr:postcode": "12-200",
                "addr:place": "U\u015bciany Stare",
                "addr:housenumber": "1",
                "addr:city:simc": 764536,
                "phone": "+48 874240327",
                "email": "szkolausciany@wp.pl",
                "website": "http:\/\/sp.usciany.pl",
                "ref:regon": "281444041",
                "ref:vatin": "PL7181729859",
                "operator": "Spo\u0142eczno - O\u015bwiatowe Stowarzyszenie Pomocy Pokrzywdzonym I Niepe\u0142nosprawnym \"Edukator\"",
                "operator:type": "ngo",
                "amenity": "school"
            }
        },
        {
            "id": 75612,
            "type": "Feature",
            "geometry": {
                "type": "Point",
                "coordinates": [
                    21.82159,
                    53.6174899
                ]
            },
            "properties": {
                "isced:level": "1;2",
                "ref:rspo": 75612,
                "official_name": "Og\u00f3lnokszta\u0142c\u0105ca Szko\u0142a Muzyczna I St. w Piszu",
                "name": "Og\u00f3lnokszta\u0142c\u0105ca Szko\u0142a Muzyczna I St. w Piszu",
                "addr:postcode": "12-200",
                "addr:city": "Pisz",
                "addr:street": "Jagodna",
                "addr:housenumber": "4",
                "addr:city:simc": 977835,
                "addr:street:sym_ul": 7055,
                "phone": "+48 874234928",
                "email": "sekretariat@osmpisz.pl",
                "website": "http:\/\/www.muzycznapisz.szkolnastrona.pl\/",
                "ref:regon": "790127728",
                "operator": "Ministerstwo Kultury I Dziedzictwa Narodowego",
                "operator:type": "government",
                "amenity": "school"
            }
        },
        {
            "id": 63253,
            "type": "Feature",
            "geometry": {
                "type": "Point",
                "coordinates": [
                    21.83019,
                    53.6233
                ]
            },
            "properties": {
                "isced:level": "1;2",
                "ref:rspo": 63253,
                "official_name": "Szko\u0142a Podstawowa nr 4 im. Papie\u017ca Jana Paw\u0142a Ii",
                "name": "Szko\u0142a Podstawowa nr 4",
                "addr:postcode": "12-200",
                "addr:city": "Pisz",
                "addr:street": "Micha\u0142a Wo\u0142odyjowskiego",
                "addr:housenumber": "2a",
                "addr:city:simc": 977835,
                "addr:street:sym_ul": 24715,
                "phone": "+48 874251522",
                "email": "sp4pisz@interia.pl",
                "website": "http:\/\/sp4.pisz.pl",
                "ref:regon": "001153869",
                "ref:vatin": "PL8491014687",
                "operator": "Gmina Pisz",
                "operator:type": "government",
                "amenity": "school"
            }
        },
        {
            "id": 60206,
            "type": "Feature",
            "geometry": {
                "type": "Point",
                "coordinates": [
                    21.9398,
                    53.6237799
                ]
            },
            "properties": {
                "isced:level": "1;2",
                "ref:rspo": 60206,
                "official_name": "Szko\u0142a Podstawowa w Kotle Du\u017cym",
                "name": "Szko\u0142a Podstawowa w Kotle Du\u017cym",
                "addr:postcode": "12-200",
                "addr:place": "Kocio\u0142 Du\u017cy",
                "addr:housenumber": "6",
                "addr:city:simc": 764275,
                "phone": "+48 874234280",
                "email": "szkola_kociol@wp.pl",
                "ref:regon": "001153906",
                "ref:vatin": "PL8491439926",
                "operator": "Gmina Pisz",
                "operator:type": "government",
                "amenity": "school"
            }
        },
        {
            "id": 61642,
            "type": "Feature",
            "geometry": {
                "type": "Point",
                "coordinates": [
                    21.82313,
                    53.62384
                ]
            },
            "properties": {
                "ref:rspo": 61642,
                "official_name": "O\u015brodek Szkolenia Kierowc\u00f3w",
                "name": "O\u015brodek Szkolenia Kierowc\u00f3w",
                "addr:postcode": "12-200",
                "addr:city": "Pisz",
                "addr:street": "Spacerowa",
                "addr:housenumber": "32",
                "addr:city:simc": 977835,
                "addr:street:sym_ul": 20641,
                "phone": "+48 501734554",
                "email": "biuro@oskgietek.pl",
                "website": "http:\/\/www.oskgietek.pl",
                "ref:regon": "281440818",
                "ref:vatin": "PL8491021569",
                "operator": "Krzysztof Gietek",
                "operator:type": "private",
                "fixme": "w zale\u017cno\u015bci od przedmiotu dzia\u0142alno\u015bci (np. amenity=training + training=*, amenity=dancing_school, amenity=language_school, amenity=music_school)"
            }
        },
        {
            "id": 54400,
            "type": "Feature",
            "geometry": {
                "type": "Point",
                "coordinates": [
                    21.81307,
                    53.62586
                ]
            },
            "properties": {
                "ref:rspo": 54400,
                "official_name": "Powiatowa Poradnia Psychologiczno- Pedagogiczna w Piszu",
                "name": "Powiatowa Poradnia Psychologiczno- Pedagogiczna w Piszu",
                "addr:postcode": "12-200",
                "addr:city": "Pisz",
                "addr:street": "Warszawska",
                "addr:housenumber": "5",
                "addr:city:simc": 977835,
                "addr:street:sym_ul": 23682,
                "phone": "+48 874232404",
                "email": "4p.pisz@gmail.com",
                "website": "http:\/\/www.4p.pisz.pl",
                "ref:regon": "000695781",
                "ref:vatin": "PL8491431103",
                "operator": "Powiat Piski",
                "operator:type": "government",
                "healthcare": "counselling",
                "counselling_type": "education",
                "fixme": "w zale\u017cno\u015bci od przedmiotu dzia\u0142alno\u015bci (np. healthcare=counselling + counselling_type=education albo healthcare=psychotherapist)"
            }
        },
        {
            "id": 61667,
            "type": "Feature",
            "geometry": {
                "type": "Point",
                "coordinates": [
                    21.81307,
                    53.62583
                ]
            },
            "properties": {
                "ref:rspo": 61667,
                "official_name": "Zesp\u00f3\u0142 Plac\u00f3wek Kszta\u0142cenia Ustawicznego w Piszu",
                "name": "Zesp\u00f3\u0142 Plac\u00f3wek Kszta\u0142cenia Ustawicznego w Piszu",
                "addr:postcode": "12-200",
                "addr:city": "Pisz",
                "addr:street": "Warszawska",
                "addr:housenumber": "5",
                "addr:city:simc": 977835,
                "addr:street:sym_ul": 23682,
                "phone": "+48 874233499",
                "email": "zpku@powiat.pisz.pl",
                "website": "http:\/\/www.zpkupisz.szkolnastrona.pl",
                "ref:regon": "280039410",
                "ref:vatin": "PL8491518488",
                "operator": "Powiat Piski",
                "operator:type": "government",
                "landuse": "education",
                "fixme": "amenity=school, amenity=college albo landuse=education w zale\u017cno\u015bci od tego, jakie plac\u00f3wki wchodz\u0105 w sk\u0142ad zespo\u0142u. Sprawd\u017a, kiedy stosowa\u0107 amenity=* a kiedy landuse=education.",
                "note": "Children RSPO: 109470;109508"
            }
        },
        {
            "id": 109470,
            "type": "Feature",
            "geometry": {
                "type": "Point",
                "coordinates": [
                    21.81307,
                    53.625800000000005
                ]
            },
            "properties": {
                "isced:level": "3",
                "ref:rspo": 109470,
                "official_name": "Liceum Og\u00f3lnokszta\u0142c\u0105ce dla Doros\u0142ych w Piszu w Zespole Plac\u00f3wek Kszta\u0142cenia Ustawicznego w Piszu",
                "name": "Liceum Og\u00f3lnokszta\u0142c\u0105ce dla Doros\u0142ych w Piszu w Zespole Plac\u00f3wek Kszta\u0142cenia Ustawicznego w Piszu",
                "addr:postcode": "12-200",
                "addr:city": "Pisz",
                "addr:street": "Warszawska",
                "addr:housenumber": "5",
                "addr:city:simc": 977835,
                "addr:street:sym_ul": 23682,
                "phone": "+48 874233499",
                "email": "zpku@powiat.pisz.pl",
                "website": "http:\/\/www.zpkupisz.szkolnastrona.pl",
                "ref:regon": "280039367",
                "ref:vatin": "PL8491518488",
                "operator": "Powiat Piski",
                "operator:type": "government",
                "amenity": "school",
                "note": "Parent RSPO: 61667"
            }
        },
        {
            "id": 109508,
            "type": "Feature",
            "geometry": {
                "type": "Point",
                "coordinates": [
                    21.81307,
                    53.62577
                ]
            },
            "properties": {
                "isced:level": "4",
                "ref:rspo": 109508,
                "official_name": "Szko\u0142a Policealna w Piszu w Zespole Plac\u00f3wek Kszta\u0142cenia Ustawicznego w Piszu",
                "name": "Szko\u0142a Policealna w Piszu w Zespole Plac\u00f3wek Kszta\u0142cenia Ustawicznego w Piszu",
                "addr:postcode": "12-200",
                "addr:city": "Pisz",
                "addr:street": "Warszawska",
                "addr:housenumber": "5",
                "addr:city:simc": 977835,
                "addr:street:sym_ul": 23682,
                "phone": "+48 874233499",
                "email": "zpku@powiat.pisz.pl",
                "website": "http:\/\/www.zpkupisz.szkolnastrona.pl",
                "ref:regon": "280039404",
                "ref:vatin": "PL8491518488",
                "operator": "Powiat Piski",
                "operator:type": "government",
                "amenity": "college",
                "note": "Parent RSPO: 61667"
            }
        },
        {
            "id": 105062,
            "type": "Feature",
            "geometry": {
                "type": "Point",
                "coordinates": [
                    21.8138,
                    53.6259299
                ]
            },
            "properties": {
                "isced:level": "3",
                "ref:rspo": 105062,
                "official_name": "Ii Liceum Og\u00f3lnokszta\u0142c\u0105ce",
                "name": "Ii Liceum Og\u00f3lnokszta\u0142c\u0105ce",
                "addr:postcode": "12-200",
                "addr:city": "Pisz",
                "addr:street": "M\u0142odzie\u017cowa",
                "addr:housenumber": "26",
                "addr:city:simc": 977835,
                "addr:street:sym_ul": 13096,
                "phone": "+48 874232143",
                "email": "lo2pisz@gmail.com",
                "website": "http:\/\/www.lo2.pisz.pl",
                "ref:regon": "511444201",
                "ref:vatin": "PL8491023054",
                "operator": "Powiat Piski",
                "operator:type": "government",
                "amenity": "school"
            }
        },
        {
            "id": 62119,
            "type": "Feature",
            "geometry": {
                "type": "Point",
                "coordinates": [
                    21.80695,
                    53.62667
                ]
            },
            "properties": {
                "ref:rspo": 62119,
                "official_name": "O\u015brodek Kszta\u0142cenia Zawodowego w Piszu",
                "name": "O\u015brodek Kszta\u0142cenia Zawodowego w Piszu",
                "addr:postcode": "12-200",
                "addr:city": "Pisz",
                "addr:street": "Rybacka",
                "addr:housenumber": "5",
                "addr:city:simc": 977835,
                "addr:street:sym_ul": 19142,
                "phone": "+48 874232745",
                "email": "pisz@zdz.bialystok.pl",
                "website": "http:\/\/pisz.zdz.bialystok.pl",
                "ref:regon": "281440830",
                "operator": "Zak\u0142ad Doskonalenia Zawodowego",
                "operator:type": "ngo",
                "fixme": "w zale\u017cno\u015bci od przedmiotu dzia\u0142alno\u015bci (np. amenity=training + training=*, amenity=dancing_school, amenity=language_school, amenity=music_school)"
            }
        },
        {
            "id": 127022,
            "type": "Feature",
            "geometry": {
                "type": "Point",
                "coordinates": [
                    21.80695,
                    53.626639999999995
                ]
            },
            "properties": {
                "isced:level": "3",
                "ref:rspo": 127022,
                "official_name": "Liceum Og\u00f3lnokszta\u0142c\u0105ce w Piszu Zak\u0142adu Doskonalenia Zawodowego w Bia\u0142ymstoku",
                "name": "Liceum Og\u00f3lnokszta\u0142c\u0105ce w Piszu Zak\u0142adu Doskonalenia Zawodowego w Bia\u0142ymstoku",
                "addr:postcode": "12-200",
                "addr:city": "Pisz",
                "addr:street": "Rybacka",
                "addr:housenumber": "5",
                "addr:city:simc": 977835,
                "addr:street:sym_ul": 19142,
                "phone": "+48 874232745",
                "email": "pisz@zdz.bialystok.pl",
                "website": "http:\/\/www.pisz.zdz.bialystok.pl",
                "ref:regon": "361048760",
                "operator": "Zak\u0142ad Doskonalenia Zawodowego",
                "operator:type": "ngo",
                "amenity": "school"
            }
        },
        {
            "id": 105059,
            "type": "Feature",
            "geometry": {
                "type": "Point",
                "coordinates": [
                    21.81479,
                    53.6278
                ]
            },
            "properties": {
                "isced:level": "3",
                "ref:rspo": 105059,
                "official_name": "I Liceum Og\u00f3lnokszta\u0142c\u0105ce im. Bojownik\u00f3w O Polsko\u015b\u0107 Mazur w Piszu",
                "name": "I Liceum Og\u00f3lnokszta\u0142c\u0105ce",
                "addr:postcode": "12-200",
                "addr:city": "Pisz",
                "addr:street": "W\u0142adys\u0142awa Sikorskiego",
                "addr:housenumber": "15",
                "addr:city:simc": 977835,
                "addr:street:sym_ul": 19914,
                "phone": "+48 874232587",
                "email": "1lo.wpiszu@gmail.com",
                "website": "http:\/\/www.1lo.pisz.pl",
                "ref:regon": "280086131",
                "ref:vatin": "PL8491022675",
                "operator": "Powiat Piski",
                "operator:type": "government",
                "amenity": "school"
            }
        },
        {
            "id": 130701,
            "type": "Feature",
            "geometry": {
                "type": "Point",
                "coordinates": [
                    21.80396,
                    53.62806
                ]
            },
            "properties": {
                "ref:rspo": 130701,
                "official_name": "Powiatowa Biblioteka Pedagogiczna",
                "name": "Powiatowa Biblioteka Pedagogiczna",
                "addr:postcode": "12-200",
                "addr:city": "Pisz",
                "addr:street": "Okopowa",
                "addr:housenumber": "2",
                "addr:city:simc": 977835,
                "addr:street:sym_ul": 14886,
                "phone": "+48 874233365",
                "ref:regon": "364361813",
                "operator": "Powiat Piski",
                "operator:type": "government",
                "amenity": "library",
                "note": "Parent RSPO: 56128"
            }
        },
        {
            "id": 52408,
            "type": "Feature",
            "geometry": {
                "type": "Point",
                "coordinates": [
                    21.80743,
                    53.6282799
                ]
            },
            "properties": {
                "isced:level": "3",
                "ref:rspo": 52408,
                "official_name": "Katolickie Liceum Og\u00f3lnokszta\u0142c\u0105ce w Piszu",
                "name": "Katolickie Liceum Og\u00f3lnokszta\u0142c\u0105ce w Piszu",
                "addr:postcode": "12-200",
                "addr:city": "Pisz",
                "addr:street": "Plac Ignacego Daszy\u0144skiego",
                "addr:housenumber": "9A",
                "addr:city:simc": 977835,
                "addr:street:sym_ul": 3638,
                "phone": "+48 874251500",
                "email": "kontakt@zsk.pisz.pl",
                "website": "http:\/\/www.zsk.pisz.pl",
                "ref:regon": "281442131",
                "ref:vatin": "PL8491508099",
                "operator": "Stowarzyszenie Rodzin Katolickich Im.\u015bw.maksymiliana Marii Kolbego W Piszu",
                "operator:type": "ngo",
                "amenity": "school"
            }
        },
        {
            "id": 263467,
            "type": "Feature",
            "geometry": {
                "type": "Point",
                "coordinates": [
                    21.80743,
                    53.6282499
                ]
            },
            "properties": {
                "isced:level": "1;2",
                "ref:rspo": 263467,
                "official_name": "Katolicka Szko\u0142a Podstawowa w Piszu im. Kardyna\u0142a Stefana Wyszy\u0144skiego",
                "name": "Katolicka Szko\u0142a Podstawowa w Piszu",
                "addr:postcode": "12-200",
                "addr:city": "Pisz",
                "addr:street": "Plac Ignacego Daszy\u0144skiego",
                "addr:housenumber": "9A",
                "addr:city:simc": 977835,
                "addr:street:sym_ul": 3638,
                "phone": "+48 874251500",
                "email": "kontakt@zsk.pisz.pl",
                "website": "http:\/\/www.zsk.pisz.pl",
                "ref:regon": "368191816",
                "operator": "Stowarzyszenie Rodzin Katolickich Im.\u015bw.maksymiliana Marii Kolbego W Piszu",
                "operator:type": "ngo",
                "amenity": "school"
            }
        },
        {
            "id": 43347,
            "type": "Feature",
            "geometry": {
                "type": "Point",
                "coordinates": [
                    21.8016,
                    53.62863
                ]
            },
            "properties": {
                "isced:level": "1;2",
                "ref:rspo": 43347,
                "official_name": "Szko\u0142a Podstawowa nr 1 im. Miko\u0142aja Kopernika w Piszu",
                "name": "Szko\u0142a Podstawowa nr 1",
                "addr:postcode": "12-200",
                "addr:city": "Pisz",
                "addr:street": "Doktora W\u0142adys\u0142awa Klementowskiego",
                "addr:housenumber": "2",
                "addr:city:simc": 977835,
                "addr:street:sym_ul": 8510,
                "phone": "+48 874232522",
                "email": "sp_1_pisz@wp.pl",
                "website": "http:\/\/www.sp1.pisz.pl",
                "ref:regon": "000677056",
                "ref:vatin": "PL8491022505",
                "operator": "Gmina Pisz",
                "operator:type": "government",
                "amenity": "school"
            }
        },
        {
            "id": 278062,
            "type": "Feature",
            "geometry": {
                "type": "Point",
                "coordinates": [
                    21.80608,
                    53.62868
                ]
            },
            "properties": {
                "ref:rspo": 278062,
                "official_name": "Centrum Edukacji I Terapii Przy Stowarzyszeniu \"Przymierze- Ziemia Piska\" z Siedzib\u0105 w Piszu",
                "name": "Centrum Edukacji I Terapii Przy Stowarzyszeniu \"Przymierze- Ziemia Piska\" z Siedzib\u0105 w Piszu",
                "addr:postcode": "12-200",
                "addr:city": "Pisz",
                "addr:street": "Plac Ignacego Daszy\u0144skiego",
                "addr:housenumber": "11A",
                "addr:city:simc": 977835,
                "addr:street:sym_ul": 3638,
                "email": "ceit.pisz@przymierzeziemiapiska.pl",
                "website": "http:\/\/www.przymierzeziemiapiska.pl",
                "ref:regon": "389760347",
                "ref:vatin": "PL8491475129",
                "operator": "Stowarzyszenie \"Przymierze-Ziemia Piska\" Z Siedzib\u0105 W Piszu",
                "operator:type": "ngo",
                "landuse": "education",
                "fixme": "amenity=school, amenity=college albo landuse=education w zale\u017cno\u015bci od tego, jakie plac\u00f3wki wchodz\u0105 w sk\u0142ad zespo\u0142u. Sprawd\u017a, kiedy stosowa\u0107 amenity=* a kiedy landuse=education.",
                "note": "Children RSPO: 84369;276262"
            }
        },
        {
            "id": 84369,
            "type": "Feature",
            "geometry": {
                "type": "Point",
                "coordinates": [
                    21.80608,
                    53.62865
                ]
            },
            "properties": {
                "ref:rspo": 84369,
                "official_name": "O\u015brodek Rewalidacyjno-Edukacyjno- Wychowawczy w Centrum Edukacji I Terapii w Piszu",
                "name": "O\u015brodek Rewalidacyjno-Edukacyjno- Wychowawczy w Centrum Edukacji I Terapii w Piszu",
                "addr:postcode": "12-200",
                "addr:city": "Pisz",
                "addr:street": "Plac Ignacego Daszy\u0144skiego",
                "addr:housenumber": "11A",
                "addr:city:simc": 977835,
                "addr:street:sym_ul": 3638,
                "phone": "+48 695998596",
                "email": "orew.biuro@przymierzeziemiapiska.pl",
                "website": "http:\/\/www.przymierzeziemiapiska.pl",
                "ref:regon": "281447275",
                "ref:vatin": "PL8491475129",
                "operator": "Stowarzyszenie \"Przymierze-Ziemia Piska\" Z Siedzib\u0105 W Piszu",
                "operator:type": "ngo",
                "amenity": "school",
                "note": "Parent RSPO: 278062"
            }
        },
        {
            "id": 276262,
            "type": "Feature",
            "geometry": {
                "type": "Point",
                "coordinates": [
                    21.80608,
                    53.628620000000005
                ]
            },
            "properties": {
                "ref:rspo": 276262,
                "official_name": "Szko\u0142a Specjalna Przysposabiaj\u0105ca do Pracy w Centrum Edukacji I Terapii w Piszu",
                "name": "Szko\u0142a Specjalna Przysposabiaj\u0105ca do Pracy w Centrum Edukacji I Terapii w Piszu",
                "addr:postcode": "12-200",
                "addr:city": "Pisz",
                "addr:street": "Plac Ignacego Daszy\u0144skiego",
                "addr:housenumber": "11a",
                "addr:city:simc": 977835,
                "addr:street:sym_ul": 3638,
                "phone": "+48 601317044",
                "ref:regon": "387060918",
                "operator": "Stowarzyszenie \"Przymierze-Ziemia Piska\" Z Siedzib\u0105 W Piszu",
                "operator:type": "ngo",
                "amenity": "school",
                "note": "Parent RSPO: 278062"
            }
        },
        {
            "id": 111808,
            "type": "Feature",
            "geometry": {
                "type": "Point",
                "coordinates": [
                    21.8149799,
                    53.62917
                ]
            },
            "properties": {
                "ref:rspo": 111808,
                "official_name": "Niepubliczny Punkt Przedszkolny \"Skrzatek\"",
                "name": "Niepubliczny Punkt Przedszkolny \"Skrzatek\"",
                "addr:postcode": "12-200",
                "addr:city": "Pisz",
                "addr:street": "Wojska Polskiego",
                "addr:housenumber": "13",
                "addr:door": "1A",
                "addr:city:simc": 977835,
                "addr:street:sym_ul": 24628,
                "phone": "+48 508640218",
                "email": "adam@poczta.fm",
                "ref:regon": "281478844",
                "ref:vatin": "PL8491466337",
                "operator": "Adam Musia\u0142",
                "operator:type": "private",
                "amenity": "kindergarten"
            }
        },
        {
            "id": 119662,
            "type": "Feature",
            "geometry": {
                "type": "Point",
                "coordinates": [
                    21.79437,
                    53.62936
                ]
            },
            "properties": {
                "isced:level": "3",
                "ref:rspo": 119662,
                "official_name": "Niepubliczne Liceum Og\u00f3lnokszta\u0142c\u0105ce dla Doros\u0142ych w Piszu",
                "name": "Niepubliczne Liceum Og\u00f3lnokszta\u0142c\u0105ce dla Doros\u0142ych w Piszu",
                "addr:postcode": "12-200",
                "addr:city": "Pisz",
                "addr:street": "Adama Mickiewicza",
                "addr:housenumber": "41",
                "addr:city:simc": 977835,
                "addr:street:sym_ul": 12740,
                "phone": "+48 874235566",
                "email": "ce.pisz@op.pl",
                "website": "http:\/\/www.ce.pisz.pl",
                "ref:regon": "281529033",
                "ref:vatin": "PL8491385432",
                "operator": "Janusz D\u0142ugozima",
                "operator:type": "private",
                "amenity": "school"
            }
        },
        {
            "id": 133852,
            "type": "Feature",
            "geometry": {
                "type": "Point",
                "coordinates": [
                    21.79437,
                    53.629329999999996
                ]
            },
            "properties": {
                "isced:level": "1;2",
                "ref:rspo": 133852,
                "official_name": "Prywatna Szko\u0142a Podstawowa",
                "name": "Prywatna Szko\u0142a Podstawowa",
                "addr:postcode": "12-200",
                "addr:city": "Pisz",
                "addr:street": "Adama Mickiewicza",
                "addr:housenumber": "41",
                "addr:city:simc": 977835,
                "addr:street:sym_ul": 12740,
                "phone": "+48 874235566",
                "email": "psp.pisz@onet.pl",
                "website": "http:\/\/ww.ce.pisz.pl",
                "ref:regon": "367690150",
                "operator": "Janusz D\u0142ugozima",
                "operator:type": "private",
                "amenity": "school"
            }
        },
        {
            "id": 66694,
            "type": "Feature",
            "geometry": {
                "type": "Point",
                "coordinates": [
                    21.82314,
                    53.63031
                ]
            },
            "properties": {
                "ref:rspo": 66694,
                "official_name": "Niepubliczny Punkt Przedszkolny \"Zielona Chatka\" w Piszu",
                "name": "Niepubliczny Punkt Przedszkolny \"Zielona Chatka\" w Piszu",
                "addr:postcode": "12-200",
                "addr:city": "Pisz",
                "addr:street": "D\u0142uga",
                "addr:housenumber": "4",
                "addr:city:simc": 977835,
                "addr:street:sym_ul": 3839,
                "email": "zielonachatka@poczta.fm",
                "ref:regon": "281440994",
                "ref:vatin": "PL8491591278",
                "operator": "Aleksandra Jagaczewska",
                "operator:type": "private",
                "amenity": "kindergarten"
            }
        },
        {
            "id": 133857,
            "type": "Feature",
            "geometry": {
                "type": "Point",
                "coordinates": [
                    21.80647,
                    53.63038
                ]
            },
            "properties": {
                "ref:rspo": 133857,
                "official_name": "Zesp\u00f3\u0142 Szkolno - Przedszkolny nr 1 w Piszu",
                "name": "Zesp\u00f3\u0142 Szkolno - Przedszkolny nr 1 w Piszu",
                "addr:postcode": "12-200",
                "addr:city": "Pisz",
                "addr:street": "Gustawa Gizewiusza",
                "addr:housenumber": "8",
                "addr:city:simc": 977835,
                "addr:street:sym_ul": 5536,
                "phone": "+48 874232027",
                "email": "sp2pisz@wp.pl",
                "website": "http:\/\/www.zsp.pisz.pl",
                "ref:regon": "367691764",
                "operator": "Gmina Pisz",
                "operator:type": "government",
                "landuse": "education",
                "fixme": "amenity=school, amenity=college albo landuse=education w zale\u017cno\u015bci od tego, jakie plac\u00f3wki wchodz\u0105 w sk\u0142ad zespo\u0142u. Sprawd\u017a, kiedy stosowa\u0107 amenity=* a kiedy landuse=education.",
                "note": "Children RSPO: 57109;60024"
            }
        },
        {
            "id": 57109,
            "type": "Feature",
            "geometry": {
                "type": "Point",
                "coordinates": [
                    21.80647,
                    53.63035
                ]
            },
            "properties": {
                "isced:level": "1;2",
                "ref:rspo": 57109,
                "official_name": "Szko\u0142a Podstawowa nr 2 im. Henryka Sienkiewicza w Piszu",
                "name": "Szko\u0142a Podstawowa nr 2",
                "addr:postcode": "12-200",
                "addr:city": "Pisz",
                "addr:street": "Gustawa Gizewiusza",
                "addr:housenumber": "8",
                "addr:city:simc": 977835,
                "addr:street:sym_ul": 5536,
                "phone": "+48 874232366",
                "email": "sp2pisz@wp.pl",
                "website": "http:\/\/www.sp2.pisz.pl",
                "ref:regon": "001153846",
                "ref:vatin": "PL8491440013",
                "operator": "Gmina Pisz",
                "operator:type": "government",
                "amenity": "school",
                "note": "Parent RSPO: 133857"
            }
        },
        {
            "id": 61500,
            "type": "Feature",
            "geometry": {
                "type": "Point",
                "coordinates": [
                    21.80303,
                    53.63073
                ]
            },
            "properties": {
                "ref:rspo": 61500,
                "official_name": "Zesp\u00f3\u0142 Szk\u00f3\u0142 Zawodowych w Piszu Szkolne Schronisko M\u0142odzie\u017cowe w Piszu",
                "name": "Zesp\u00f3\u0142 Szk\u00f3\u0142 Zawodowych w Piszu Szkolne Schronisko M\u0142odzie\u017cowe w Piszu",
                "addr:postcode": "12-200",
                "addr:city": "Pisz",
                "addr:street": "Piaskowa",
                "addr:housenumber": "2",
                "addr:city:simc": 977835,
                "addr:street:sym_ul": 16033,
                "phone": "+48 874232996",
                "ref:regon": "281440712",
                "operator": "Powiat Piski",
                "operator:type": "government",
                "tourism": "hostel",
                "note": "Parent RSPO: 56128"
            }
        },
        {
            "id": 56128,
            "type": "Feature",
            "geometry": {
                "type": "Point",
                "coordinates": [
                    21.80411,
                    53.6308
                ]
            },
            "properties": {
                "ref:rspo": 56128,
                "official_name": "Zesp\u00f3\u0142 Szk\u00f3\u0142 Zawodowych z Bibliotek\u0105 Pedagogiczn\u0105 w Piszu",
                "name": "Zesp\u00f3\u0142 Szk\u00f3\u0142 Zawodowych z Bibliotek\u0105 Pedagogiczn\u0105 w Piszu",
                "addr:postcode": "12-200",
                "addr:city": "Pisz",
                "addr:street": "Gustawa Gizewiusza",
                "addr:housenumber": "3",
                "addr:city:simc": 977835,
                "addr:street:sym_ul": 5536,
                "phone": "+48 874232052",
                "email": "sekretariat@zsz.pisz.pl",
                "website": "http:\/\/www.zsz.pisz.pl",
                "ref:regon": "000236317",
                "ref:vatin": "PL8491023172",
                "operator": "Powiat Piski",
                "operator:type": "government",
                "landuse": "education",
                "fixme": "amenity=school, amenity=college albo landuse=education w zale\u017cno\u015bci od tego, jakie plac\u00f3wki wchodz\u0105 w sk\u0142ad zespo\u0142u. Sprawd\u017a, kiedy stosowa\u0107 amenity=* a kiedy landuse=education.",
                "note": "Children RSPO: 61500;106007;106009;130701"
            }
        },
        {
            "id": 106007,
            "type": "Feature",
            "geometry": {
                "type": "Point",
                "coordinates": [
                    21.80411,
                    53.63077
                ]
            },
            "properties": {
                "isced:level": "3",
                "ref:rspo": 106007,
                "official_name": "Technikum w Piszu w Zespole Szk\u00f3\u0142 Zawodowych z Bibliotek\u0105 Pedagogiczn\u0105 w Piszu",
                "name": "Technikum w Piszu w Zespole Szk\u00f3\u0142 Zawodowych z Bibliotek\u0105 Pedagogiczn\u0105 w Piszu",
                "addr:postcode": "12-200",
                "addr:city": "Pisz",
                "addr:street": "Gustawa Gizewiusza",
                "addr:housenumber": "3",
                "addr:city:simc": 977835,
                "addr:street:sym_ul": 5536,
                "phone": "+48 874232052",
                "email": "sekretariat@zsz.pisz.pl",
                "website": "http:\/\/www.zsz.pisz.pl",
                "ref:regon": "519558298",
                "ref:vatin": "PL8491023172",
                "operator": "Powiat Piski",
                "operator:type": "government",
                "amenity": "school",
                "note": "Parent RSPO: 56128"
            }
        },
        {
            "id": 106009,
            "type": "Feature",
            "geometry": {
                "type": "Point",
                "coordinates": [
                    21.80411,
                    53.63074
                ]
            },
            "properties": {
                "isced:level": "3",
                "ref:rspo": 106009,
                "official_name": "Bran\u017cowa Szko\u0142a I Stopnia w Piszu w Zespole Szk\u00f3\u0142 Zawodowych z Bibliotek\u0105 Pedagogiczn\u0105 w Piszu",
                "name": "Bran\u017cowa Szko\u0142a I Stopnia w Piszu w Zespole Szk\u00f3\u0142 Zawodowych z Bibliotek\u0105 Pedagogiczn\u0105 w Piszu",
                "addr:postcode": "12-200",
                "addr:city": "Pisz",
                "addr:street": "Gustawa Gizewiusza",
                "addr:housenumber": "3",
                "addr:city:simc": 977835,
                "addr:street:sym_ul": 5536,
                "phone": "+48 874232052",
                "email": "sekretariat@zsz.pisz.pl",
                "website": "http:\/\/www.zsz.pisz.pl",
                "ref:regon": "280039350",
                "ref:vatin": "PL8491023172",
                "operator": "Powiat Piski",
                "operator:type": "government",
                "amenity": "school",
                "note": "Parent RSPO: 56128"
            }
        },
        {
            "id": 60024,
            "type": "Feature",
            "geometry": {
                "type": "Point",
                "coordinates": [
                    21.80742,
                    53.63096
                ]
            },
            "properties": {
                "ref:rspo": 60024,
                "official_name": "Przedszkole Miejskie nr 1 w Piszu",
                "name": "Przedszkole Miejskie nr 1 w Piszu",
                "addr:postcode": "12-200",
                "addr:city": "Pisz",
                "addr:street": "Gustawa Gizewiusza",
                "addr:housenumber": "9",
                "addr:city:simc": 977835,
                "addr:street:sym_ul": 5536,
                "phone": "+48 874233582",
                "email": "przedszkolepisz@op.pl",
                "website": "http:\/\/www.zsp.pisz.pl",
                "ref:regon": "280567215",
                "ref:vatin": "PL8491578579",
                "operator": "Gmina Pisz",
                "operator:type": "government",
                "amenity": "kindergarten",
                "note": "Parent RSPO: 133857"
            }
        },
        {
            "id": 111854,
            "type": "Feature",
            "geometry": {
                "type": "Point",
                "coordinates": [
                    21.82461,
                    53.63272
                ]
            },
            "properties": {
                "ref:rspo": 111854,
                "official_name": "Niepubliczne Przedszkole \"Sosenka\"",
                "name": "Niepubliczne Przedszkole \"Sosenka\"",
                "addr:postcode": "12-200",
                "addr:city": "Pisz",
                "addr:street": "\u0141ab\u0119dzia",
                "addr:housenumber": "1",
                "addr:city:simc": 977835,
                "addr:street:sym_ul": 11474,
                "phone": "+48 609376522",
                "email": "a.kordulewska@przedszkolesosenka.pl",
                "ref:regon": "281480500",
                "ref:vatin": "PL9521105924",
                "operator": "Agata Kordulewska",
                "operator:type": "private",
                "amenity": "kindergarten"
            }
        },
        {
            "id": 131921,
            "type": "Feature",
            "geometry": {
                "type": "Point",
                "coordinates": [
                    21.76619,
                    53.6376599
                ]
            },
            "properties": {
                "isced:level": "1;2",
                "ref:rspo": 131921,
                "official_name": "Szko\u0142a Podstawowa w Snopkach",
                "name": "Szko\u0142a Podstawowa w Snopkach",
                "addr:postcode": "12-200",
                "addr:place": "Snopki",
                "addr:housenumber": "52",
                "addr:city:simc": 764513,
                "phone": "+48 874235350",
                "email": "spsnopki@onet.pl",
                "ref:regon": "365377957",
                "operator": "Stowarzyszenie Przyjaci\u00f3\u0142 I Mieszka\u0144c\u00f3w Wsi Snopki \"Snopek\"",
                "operator:type": "ngo",
                "amenity": "school"
            }
        },
        {
            "id": 61660,
            "type": "Feature",
            "geometry": {
                "type": "Point",
                "coordinates": [
                    21.82121,
                    53.63812
                ]
            },
            "properties": {
                "ref:rspo": 61660,
                "official_name": "Powiatowy Mi\u0119dzyszkolny O\u015brodek Sportowy w Piszu",
                "name": "Powiatowy Mi\u0119dzyszkolny O\u015brodek Sportowy w Piszu",
                "addr:postcode": "12-200",
                "addr:city": "Pisz",
                "addr:street": "Aleja Turyst\u00f3w",
                "addr:housenumber": "22",
                "addr:city:simc": 977835,
                "addr:street:sym_ul": 34825,
                "phone": "+48 874234572",
                "email": "bazamos@wp.pl",
                "website": "http:\/\/www.pmos.pisz.pl",
                "ref:regon": "000890979",
                "ref:vatin": "PL8491431126",
                "operator": "Powiat Piski",
                "operator:type": "government",
                "leisure": "sports_centre"
            }
        },
        {
            "id": 57826,
            "type": "Feature",
            "geometry": {
                "type": "Point",
                "coordinates": [
                    21.85904,
                    53.64891
                ]
            },
            "properties": {
                "ref:rspo": 57826,
                "official_name": "Specjalny O\u015brodek Szkolno- Wychowawczy im. Dr. W\u0142adys\u0142awa Klementowskiego w \u0141upkach",
                "name": "Specjalny O\u015brodek Szkolno- Wychowawczy",
                "addr:postcode": "12-200",
                "addr:place": "\u0141upki",
                "addr:housenumber": "15",
                "addr:city:simc": 764358,
                "phone": "+48 874234857",
                "email": "osw-lupki@powiat.pisz.pl",
                "website": "http:\/\/www.soswlupki.powiat.pisz.pl",
                "ref:regon": "001058473",
                "ref:vatin": "PL8491431238",
                "operator": "Powiat Piski",
                "operator:type": "government",
                "amenity": "school",
                "note": "Children RSPO: 105252;105263;105272"
            }
        },
        {
            "id": 105252,
            "type": "Feature",
            "geometry": {
                "type": "Point",
                "coordinates": [
                    21.85904,
                    53.64888
                ]
            },
            "properties": {
                "isced:level": "1;2",
                "ref:rspo": 105252,
                "official_name": "Szko\u0142a Podstawowa Specjalna w \u0141upkach w Specjalnym O\u015brodku Szkolno- Wychowawczym im. Dr W\u0142adys\u0142awa Klementowskiego w \u0141upkach",
                "name": "Szko\u0142a Podstawowa Specjalna w \u0141upkach w Specjalnym O\u015brodku Szkolno- Wychowawczym",
                "addr:postcode": "12-200",
                "addr:place": "\u0141upki",
                "addr:housenumber": "15",
                "addr:city:simc": 764358,
                "phone": "+48 874234857",
                "email": "osw-lupki@powiat.pisz.pl",
                "website": "http:\/\/www.soswlupki.powiat.pisz.pl",
                "ref:regon": "001066030",
                "ref:vatin": "PL8491431238",
                "operator": "Powiat Piski",
                "operator:type": "government",
                "amenity": "school",
                "note": "Parent RSPO: 57826"
            }
        },
        {
            "id": 105263,
            "type": "Feature",
            "geometry": {
                "type": "Point",
                "coordinates": [
                    21.85904,
                    53.64885
                ]
            },
            "properties": {
                "isced:level": "3",
                "ref:rspo": 105263,
                "official_name": "Szko\u0142a Bran\u017cowa Specjalna I Stopnia w \u0141upkach w Specjalnym O\u015brodku Szkolno- Wychowawczym im. Dr W\u0142adys\u0142awa Klementowskiego w \u0141upkach",
                "name": "Szko\u0142a Bran\u017cowa Specjalna I Stopnia w \u0141upkach w Specjalnym O\u015brodku Szkolno- Wychowawczym",
                "addr:postcode": "12-200",
                "addr:place": "\u0141upki",
                "addr:housenumber": "15",
                "addr:city:simc": 764358,
                "phone": "+48 874234857",
                "email": "osw-lupki@powiat.pisz.pl",
                "website": "http:\/\/www.soswlupki.powiat.pisz.pl",
                "ref:regon": "519629785",
                "ref:vatin": "PL8491431238",
                "operator": "Powiat Piski",
                "operator:type": "government",
                "amenity": "school",
                "note": "Parent RSPO: 57826"
            }
        },
        {
            "id": 105272,
            "type": "Feature",
            "geometry": {
                "type": "Point",
                "coordinates": [
                    21.85904,
                    53.64882
                ]
            },
            "properties": {
                "ref:rspo": 105272,
                "official_name": "Szko\u0142a Specjalna Przysposabiaj\u0105ca do Pracy w \u0141upkach w Specjalnym O\u015brodku Szkolno- Wychowawczym im. Dr W\u0142adys\u0142awa Klementowskiego w \u0141upkach",
                "name": "Szko\u0142a Specjalna Przysposabiaj\u0105ca do Pracy w \u0141upkach w Specjalnym O\u015brodku Szkolno- Wychowawczym",
                "addr:postcode": "12-200",
                "addr:place": "\u0141upki",
                "addr:housenumber": "15",
                "addr:city:simc": 764358,
                "phone": "+48 874234857",
                "email": "osw-lupki@powiat.pisz.pl",
                "website": "http:\/\/www.soswlupki.powiat.pisz.pl",
                "ref:regon": "280327882",
                "ref:vatin": "PL8491431238",
                "operator": "Powiat Piski",
                "operator:type": "government",
                "amenity": "school",
                "note": "Parent RSPO: 57826"
            }
        },
        {
            "id": 56017,
            "type": "Feature",
            "geometry": {
                "type": "Point",
                "coordinates": [
                    21.842086791992,
                    53.661632537842
                ]
            },
            "properties": {
                "isced:level": "1;2",
                "ref:rspo": 56017,
                "official_name": "Szko\u0142a Podstawowa im. Ks. Jerzego Popie\u0142uszki w Liskach",
                "name": "Szko\u0142a Podstawowa",
                "addr:postcode": "12-200",
                "addr:place": "Liski",
                "addr:housenumber": "22",
                "addr:city:simc": 764341,
                "phone": "+48 874232290",
                "email": "spliski@wp.pl",
                "website": "http:\/\/www.liski.edupage.org",
                "ref:regon": "001153929",
                "ref:vatin": "PL8491439903",
                "operator": "Gmina Pisz",
                "operator:type": "government",
                "amenity": "school"
            }
        },
        {
            "id": 59793,
            "type": "Feature",
            "geometry": {
                "type": "Point",
                "coordinates": [
                    21.81572,
                    53.68345
                ]
            },
            "properties": {
                "isced:level": "1;2",
                "ref:rspo": 59793,
                "official_name": "Szko\u0142a Podstawowa im. Janusza Korczaka w Trzonkach",
                "name": "Szko\u0142a Podstawowa",
                "addr:postcode": "12-200",
                "addr:place": "Trzonki",
                "addr:housenumber": "29",
                "addr:city:simc": 764571,
                "phone": "+48 874233263",
                "email": "sptrzonki@wp.pl",
                "website": "http:\/\/sptrzonki.pl",
                "ref:regon": "001153987",
                "ref:vatin": "PL8491439895",
                "operator": "Gmina Pisz",
                "operator:type": "government",
                "amenity": "school"
            }
        }
    ]
}