{
    "type": "FeatureCollection",
    "features": [
        {
            "id": 59854,
            "type": "Feature",
            "geometry": {
                "type": "Point",
                "coordinates": [
                    21.842086791992,
                    53.661632537842
                ]
            },
            "properties": {
                "ref:rspo": 59854,
                "official_name": "Przedszkole Miejskie Niezapominajka w Orzyszu",
                "name": "Przedszkole Miejskie Niezapominajka w Orzyszu",
                "addr:postcode": "12-250",
                "addr:place": "Orzysz",
                "addr:housenumber": "4",
                "addr:city:simc": 977806,
                "phone": "+48 874237114",
                "email": "przedszkole@orzysz.pl",
                "website": "http:\/\/www.orzysz.pl",
                "ref:regon": "001011282",
                "ref:vatin": "PL8491435147",
                "operator": "Gmina Orzysz",
                "operator:type": "government",
                "amenity": "kindergarten",
                "note": "Parent RSPO: 128170"
            }
        },
        {
            "id": 118809,
            "type": "Feature",
            "geometry": {
                "type": "Point",
                "coordinates": [
                    21.85608,
                    53.80698
                ]
            },
            "properties": {
                "ref:rspo": 118809,
                "official_name": "Szkolne Schronisko M\u0142odzie\u017cowe w Okartowie",
                "name": "Szkolne Schronisko M\u0142odzie\u017cowe w Okartowie",
                "addr:postcode": "12-250",
                "addr:place": "Okartowo",
                "addr:housenumber": "22",
                "addr:city:simc": 763956,
                "phone": "+48 874253048",
                "ref:regon": "281523591",
                "ref:vatin": "PL8491435087",
                "operator": "Powiat Piski",
                "operator:type": "government",
                "tourism": "hostel"
            }
        },
        {
            "id": 128169,
            "type": "Feature",
            "geometry": {
                "type": "Point",
                "coordinates": [
                    21.85608,
                    53.80695
                ]
            },
            "properties": {
                "ref:rspo": 128169,
                "official_name": "Zesp\u00f3\u0142 Szkolno - Przedszkolny w Okartowie",
                "name": "Zesp\u00f3\u0142 Szkolno - Przedszkolny w Okartowie",
                "addr:postcode": "12-250",
                "addr:place": "Okartowo",
                "addr:housenumber": "22",
                "addr:city:simc": 763956,
                "phone": "+48 874253048",
                "email": "zsp@okartowo.pl",
                "website": "http:\/\/www.orzysz.pl",
                "ref:regon": "362141378",
                "operator": "Gmina Orzysz",
                "operator:type": "government",
                "landuse": "education",
                "fixme": "amenity=school, amenity=college albo landuse=education w zale\u017cno\u015bci od tego, jakie plac\u00f3wki wchodz\u0105 w sk\u0142ad zespo\u0142u. Sprawd\u017a, kiedy stosowa\u0107 amenity=* a kiedy landuse=education.",
                "note": "Children RSPO: 59632;128195;276429"
            }
        },
        {
            "id": 59632,
            "type": "Feature",
            "geometry": {
                "type": "Point",
                "coordinates": [
                    21.85608,
                    53.806920000000005
                ]
            },
            "properties": {
                "isced:level": "1;2",
                "ref:rspo": 59632,
                "official_name": "Szko\u0142a Podstawowa im. Konstantego Ildefonsa Ga\u0142czy\u0144skiego w Okartowie",
                "name": "Szko\u0142a Podstawowa",
                "addr:postcode": "12-250",
                "addr:place": "Okartowo",
                "addr:housenumber": "22",
                "addr:city:simc": 763956,
                "phone": "+48 874253048",
                "email": "zsp@okartowo.pl",
                "website": "http:\/\/www.orzysz.pl",
                "ref:regon": "001153823",
                "ref:vatin": "PL8491435087",
                "operator": "Gmina Orzysz",
                "operator:type": "government",
                "amenity": "school",
                "note": "Parent RSPO: 128169"
            }
        },
        {
            "id": 128195,
            "type": "Feature",
            "geometry": {
                "type": "Point",
                "coordinates": [
                    21.85608,
                    53.80689
                ]
            },
            "properties": {
                "ref:rspo": 128195,
                "official_name": "Przedszkole w Okartowie",
                "name": "Przedszkole w Okartowie",
                "addr:postcode": "12-250",
                "addr:place": "Okartowo",
                "addr:housenumber": "22",
                "addr:city:simc": 763956,
                "phone": "+48 874253048",
                "email": "zsp@okartowo.pl",
                "website": "http:\/\/www.orzysz.pl",
                "ref:regon": "362160996",
                "operator": "Gmina Orzysz",
                "operator:type": "government",
                "amenity": "kindergarten",
                "note": "Parent RSPO: 128169"
            }
        },
        {
            "id": 276429,
            "type": "Feature",
            "geometry": {
                "type": "Point",
                "coordinates": [
                    21.85608,
                    53.80686
                ]
            },
            "properties": {
                "ref:rspo": 276429,
                "official_name": "O\u015brodek Rewalidacyjno - Edukacyjno-Wychowawczy",
                "name": "O\u015brodek Rewalidacyjno - Edukacyjno-Wychowawczy",
                "addr:postcode": "12-250",
                "addr:place": "Okartowo",
                "addr:housenumber": "22",
                "addr:city:simc": 763956,
                "phone": "+48 874253048",
                "email": "zsp@okartowo.pl",
                "website": "http:\/\/www.orzysz.pl",
                "ref:regon": "387130889",
                "operator": "Gmina Orzysz",
                "operator:type": "government",
                "amenity": "school",
                "note": "Parent RSPO: 128169"
            }
        },
        {
            "id": 128170,
            "type": "Feature",
            "geometry": {
                "type": "Point",
                "coordinates": [
                    21.94522,
                    53.80794
                ]
            },
            "properties": {
                "ref:rspo": 128170,
                "official_name": "Zesp\u00f3\u0142 Szkolno - Przedszkolny w Orzyszu",
                "name": "Zesp\u00f3\u0142 Szkolno - Przedszkolny w Orzyszu",
                "addr:postcode": "12-250",
                "addr:city": "Orzysz",
                "addr:street": "Wojska Polskiego",
                "addr:housenumber": "14",
                "addr:city:simc": 977806,
                "addr:street:sym_ul": 24628,
                "phone": "+48 874237024",
                "email": "zsp@orzysz.pl",
                "website": "http:\/\/www.orzysz.pl",
                "ref:regon": "362141473",
                "operator": "Gmina Orzysz",
                "operator:type": "government",
                "landuse": "education",
                "fixme": "amenity=school, amenity=college albo landuse=education w zale\u017cno\u015bci od tego, jakie plac\u00f3wki wchodz\u0105 w sk\u0142ad zespo\u0142u. Sprawd\u017a, kiedy stosowa\u0107 amenity=* a kiedy landuse=education.",
                "note": "Children RSPO: 59854;60256"
            }
        },
        {
            "id": 60256,
            "type": "Feature",
            "geometry": {
                "type": "Point",
                "coordinates": [
                    21.94522,
                    53.80791
                ]
            },
            "properties": {
                "isced:level": "1;2",
                "ref:rspo": 60256,
                "official_name": "Szko\u0142a Podstawowa im. Majora Henryka Sucharskiego w Orzyszu",
                "name": "Szko\u0142a Podstawowa",
                "addr:postcode": "12-250",
                "addr:city": "Orzysz",
                "addr:street": "Wojska Polskiego",
                "addr:housenumber": "14",
                "addr:city:simc": 977806,
                "addr:street:sym_ul": 24628,
                "phone": "+48 874237024",
                "email": "zsp@orzysz.pl",
                "website": "http:\/\/www.orzysz.pl",
                "ref:regon": "001154774",
                "ref:vatin": "PL8491022959",
                "operator": "Gmina Orzysz",
                "operator:type": "government",
                "amenity": "school",
                "note": "Parent RSPO: 128170"
            }
        },
        {
            "id": 56174,
            "type": "Feature",
            "geometry": {
                "type": "Point",
                "coordinates": [
                    21.9460915,
                    53.8080626
                ]
            },
            "properties": {
                "ref:rspo": 56174,
                "official_name": "Zesp\u00f3\u0142 Szk\u00f3\u0142 Og\u00f3lnokszta\u0142c\u0105cych w Orzyszu",
                "name": "Zesp\u00f3\u0142 Szk\u00f3\u0142 Og\u00f3lnokszta\u0142c\u0105cych w Orzyszu",
                "addr:postcode": "12-250",
                "addr:city": "Orzysz",
                "addr:street": "Wojska Polskiego",
                "addr:housenumber": "3",
                "addr:city:simc": 977806,
                "addr:street:sym_ul": 24628,
                "phone": "+48 874237080",
                "email": "lo@orzysz.pl",
                "website": "http:\/\/www.lo.orzysz.pl",
                "ref:regon": "000695730",
                "ref:vatin": "PL8491023019",
                "operator": "Powiat Piski",
                "operator:type": "government",
                "landuse": "education",
                "fixme": "amenity=school, amenity=college albo landuse=education w zale\u017cno\u015bci od tego, jakie plac\u00f3wki wchodz\u0105 w sk\u0142ad zespo\u0142u. Sprawd\u017a, kiedy stosowa\u0107 amenity=* a kiedy landuse=education.",
                "note": "Children RSPO: 86237;133240;133241"
            }
        },
        {
            "id": 86237,
            "type": "Feature",
            "geometry": {
                "type": "Point",
                "coordinates": [
                    21.9460915,
                    53.8080326
                ]
            },
            "properties": {
                "isced:level": "3",
                "ref:rspo": 86237,
                "official_name": "Liceum Og\u00f3lnokszta\u0142c\u0105ce w Orzyszu w Zespole Szk\u00f3\u0142 Og\u00f3lnokszta\u0142c\u0105cych w Orzyszu",
                "name": "Liceum Og\u00f3lnokszta\u0142c\u0105ce w Orzyszu w Zespole Szk\u00f3\u0142 Og\u00f3lnokszta\u0142c\u0105cych w Orzyszu",
                "addr:postcode": "12-250",
                "addr:city": "Orzysz",
                "addr:street": "Wojska Polskiego",
                "addr:housenumber": "3",
                "addr:city:simc": 977806,
                "addr:street:sym_ul": 24628,
                "phone": "+48 874237080",
                "email": "lo@orzysz.pl",
                "ref:regon": "519456089",
                "ref:vatin": "PL8491023019",
                "operator": "Powiat Piski",
                "operator:type": "government",
                "amenity": "school",
                "note": "Parent RSPO: 56174"
            }
        },
        {
            "id": 133240,
            "type": "Feature",
            "geometry": {
                "type": "Point",
                "coordinates": [
                    21.9460915,
                    53.8080026
                ]
            },
            "properties": {
                "isced:level": "3",
                "ref:rspo": 133240,
                "official_name": "Bran\u017cowa Szko\u0142a I Stopnia w Orzyszu w Zespole Szk\u00f3\u0142 Og\u00f3lnokszta\u0142c\u0105cych w Orzyszu",
                "name": "Bran\u017cowa Szko\u0142a I Stopnia w Orzyszu w Zespole Szk\u00f3\u0142 Og\u00f3lnokszta\u0142c\u0105cych w Orzyszu",
                "addr:postcode": "12-250",
                "addr:city": "Orzysz",
                "addr:street": "Wojska Polskiego",
                "addr:housenumber": "3",
                "addr:city:simc": 977806,
                "addr:street:sym_ul": 24628,
                "phone": "+48 874237080",
                "email": "lo@orzysz.pl",
                "ref:regon": "366865995",
                "operator": "Powiat Piski",
                "operator:type": "government",
                "amenity": "school",
                "note": "Parent RSPO: 56174"
            }
        },
        {
            "id": 133241,
            "type": "Feature",
            "geometry": {
                "type": "Point",
                "coordinates": [
                    21.9460915,
                    53.8079726
                ]
            },
            "properties": {
                "isced:level": "3",
                "ref:rspo": 133241,
                "official_name": "Technikum w Orzyszu w Zespole Szk\u00f3\u0142 Og\u00f3lnokszta\u0142c\u0105cych w Orzyszu",
                "name": "Technikum w Orzyszu w Zespole Szk\u00f3\u0142 Og\u00f3lnokszta\u0142c\u0105cych w Orzyszu",
                "addr:postcode": "12-250",
                "addr:city": "Orzysz",
                "addr:street": "Wojska Polskiego",
                "addr:housenumber": "3",
                "addr:city:simc": 977806,
                "addr:street:sym_ul": 24628,
                "phone": "+48 874237080",
                "email": "lo@orzysz.pl",
                "ref:regon": "366866167",
                "operator": "Powiat Piski",
                "operator:type": "government",
                "amenity": "school",
                "note": "Parent RSPO: 56174"
            }
        },
        {
            "id": 264201,
            "type": "Feature",
            "geometry": {
                "type": "Point",
                "coordinates": [
                    21.96343,
                    53.81139
                ]
            },
            "properties": {
                "ref:rspo": 264201,
                "official_name": "Przedszkole Artystyczno-J\u0119zykowe Akademia Montessori",
                "name": "Przedszkole Artystyczno-J\u0119zykowe Akademia Montessori",
                "addr:postcode": "12-250",
                "addr:city": "Orzysz",
                "addr:street": "Polna",
                "addr:housenumber": "21",
                "addr:city:simc": 977806,
                "addr:street:sym_ul": 17011,
                "email": "przedszkole_montessori@wp.pl",
                "ref:regon": "368284328",
                "ref:vatin": "PL8491246334",
                "operator": "Ewa Kaczkowska",
                "operator:type": "private",
                "amenity": "kindergarten"
            }
        },
        {
            "id": 119174,
            "type": "Feature",
            "geometry": {
                "type": "Point",
                "coordinates": [
                    21.7905,
                    53.84787
                ]
            },
            "properties": {
                "ref:rspo": 119174,
                "official_name": "Szkolne Schronisko M\u0142odzie\u017cowe w Drozdowie",
                "name": "Szkolne Schronisko M\u0142odzie\u017cowe w Drozdowie",
                "addr:postcode": "12-250",
                "addr:place": "Drozdowo",
                "addr:housenumber": "15",
                "addr:city:simc": 763732,
                "phone": "+48 874233224",
                "ref:regon": "281527695",
                "ref:vatin": "PL8491435093",
                "operator": "Powiat Piski",
                "operator:type": "government",
                "tourism": "hostel"
            }
        },
        {
            "id": 60485,
            "type": "Feature",
            "geometry": {
                "type": "Point",
                "coordinates": [
                    21.74327,
                    53.86075
                ]
            },
            "properties": {
                "ref:rspo": 60485,
                "official_name": "Zesp\u00f3\u0142 Szk\u00f3\u0142 im. Micha\u0142a Kajki w D\u0105br\u00f3wce",
                "name": "Zesp\u00f3\u0142 Szk\u00f3\u0142",
                "addr:postcode": "12-250",
                "addr:place": "D\u0105br\u00f3wka",
                "addr:housenumber": "40",
                "addr:city:simc": 763726,
                "phone": "+48 874253224",
                "email": "zs_dabrowka@o2.pl",
                "website": "http:\/\/www.orzysz.pl",
                "ref:regon": "510891211",
                "ref:vatin": "PL8491435101",
                "operator": "Gmina Orzysz",
                "operator:type": "government",
                "landuse": "education",
                "fixme": "amenity=school, amenity=college albo landuse=education w zale\u017cno\u015bci od tego, jakie plac\u00f3wki wchodz\u0105 w sk\u0142ad zespo\u0142u. Sprawd\u017a, kiedy stosowa\u0107 amenity=* a kiedy landuse=education."
            }
        },
        {
            "id": 128172,
            "type": "Feature",
            "geometry": {
                "type": "Point",
                "coordinates": [
                    21.74327,
                    53.86072
                ]
            },
            "properties": {
                "ref:rspo": 128172,
                "official_name": "Zesp\u00f3\u0142 Szkolno - Przedszkolny im. Micha\u0142a Kajki w D\u0105br\u00f3wce",
                "name": "Zesp\u00f3\u0142 Szkolno - Przedszkolny",
                "addr:postcode": "12-250",
                "addr:place": "D\u0105br\u00f3wka",
                "addr:housenumber": "40",
                "addr:city:simc": 763726,
                "phone": "+48 874253224",
                "email": "zs_dabrowka@o2.pl",
                "website": "http:\/\/www.orzysz.pl",
                "ref:regon": "362142580",
                "operator": "Gmina Orzysz",
                "operator:type": "government",
                "landuse": "education",
                "fixme": "amenity=school, amenity=college albo landuse=education w zale\u017cno\u015bci od tego, jakie plac\u00f3wki wchodz\u0105 w sk\u0142ad zespo\u0142u. Sprawd\u017a, kiedy stosowa\u0107 amenity=* a kiedy landuse=education.",
                "note": "Children RSPO: 74946;128588;277945"
            }
        },
        {
            "id": 74946,
            "type": "Feature",
            "geometry": {
                "type": "Point",
                "coordinates": [
                    21.74327,
                    53.860690000000005
                ]
            },
            "properties": {
                "isced:level": "1;2",
                "ref:rspo": 74946,
                "official_name": "Szko\u0142a Podstawowa im. Micha\u0142a Kajki w D\u0105br\u00f3wce",
                "name": "Szko\u0142a Podstawowa",
                "addr:postcode": "12-250",
                "addr:place": "D\u0105br\u00f3wka",
                "addr:housenumber": "40",
                "addr:city:simc": 763726,
                "phone": "+48 874253224",
                "email": "zs_dabrowka@o2.pl",
                "website": "http:\/\/www.orzysz.pl",
                "ref:regon": "519457628",
                "ref:vatin": "PL8491435101",
                "operator": "Gmina Orzysz",
                "operator:type": "government",
                "amenity": "school",
                "note": "Parent RSPO: 128172"
            }
        },
        {
            "id": 128588,
            "type": "Feature",
            "geometry": {
                "type": "Point",
                "coordinates": [
                    21.74327,
                    53.86066
                ]
            },
            "properties": {
                "ref:rspo": 128588,
                "official_name": "Przedszkole",
                "name": "Przedszkole",
                "addr:postcode": "12-250",
                "addr:place": "D\u0105br\u00f3wka",
                "addr:housenumber": "40",
                "addr:city:simc": 763726,
                "phone": "+48 874253224",
                "ref:regon": "362327410",
                "operator": "Gmina Orzysz",
                "operator:type": "government",
                "amenity": "kindergarten",
                "note": "Parent RSPO: 128172"
            }
        },
        {
            "id": 277945,
            "type": "Feature",
            "geometry": {
                "type": "Point",
                "coordinates": [
                    21.74327,
                    53.86063
                ]
            },
            "properties": {
                "isced:level": "3",
                "ref:rspo": 277945,
                "official_name": "Bran\u017cowa Szko\u0142a I Stopnia w D\u0105br\u00f3wce",
                "name": "Bran\u017cowa Szko\u0142a I Stopnia w D\u0105br\u00f3wce",
                "addr:postcode": "12-250",
                "addr:place": "D\u0105br\u00f3wka",
                "addr:housenumber": "40",
                "addr:city:simc": 763726,
                "phone": "+48 874253224",
                "email": "zs_dabrowka@o2.pl",
                "website": "http:\/\/www.orzysz.pl",
                "ref:regon": "389691528",
                "operator": "Gmina Orzysz",
                "operator:type": "government",
                "amenity": "school",
                "note": "Parent RSPO: 128172"
            }
        }
    ]
}