{
    "type": "FeatureCollection",
    "features": [
        {
            "id": 129131,
            "type": "Feature",
            "geometry": {
                "type": "Point",
                "coordinates": [
                    22.839780807495,
                    51.135356903076
                ]
            },
            "properties": {
                "isced:level": "3",
                "ref:rspo": 129131,
                "official_name": "Liceum Og\u00f3lnokszta\u0142c\u0105ce dla Doros\u0142ych \"Edukator\" w \u015awidniku",
                "name": "Liceum Og\u00f3lnokszta\u0142c\u0105ce dla Doros\u0142ych \"Edukator\" w \u015awidniku",
                "addr:country": "PL",
                "addr:postcode": "21-040",
                "addr:place": "\u015awidnik",
                "addr:housenumber": "9",
                "addr:teryt:sym_ul": 957146,
                "contact:phone": "+48 506749541",
                "contact:email": "kontakt@swidnikedukator.pl",
                "contact:website": "http:\/\/swidnikedukator.pl\/",
                "ref:regon": "362491055",
                "operator": "Grzegorz Turewicz",
                "operator:type": "private",
                "amenity": "school"
            }
        },
        {
            "id": 104908,
            "type": "Feature",
            "geometry": {
                "type": "Point",
                "coordinates": [
                    22.69958,
                    51.19508
                ]
            },
            "properties": {
                "ref:rspo": 104908,
                "official_name": "Niepubliczne Przedszkole \"T\u0119czowy Domek\" w \u015awidniku",
                "name": "Niepubliczne Przedszkole \"T\u0119czowy Domek\" w \u015awidniku",
                "addr:country": "PL",
                "addr:postcode": "21-040",
                "addr:city": "\u015awidnik",
                "addr:street": "Sosnowa",
                "addr:housenumber": "17a",
                "addr:teryt:simc": 20598,
                "addr:teryt:sym_ul": 957146,
                "contact:email": "info@teczowy-domek.com",
                "contact:website": "http:\/\/www.teczowy-domek.com",
                "ref:regon": "061506404",
                "ref:vatin": "PL9222127668",
                "operator": "Edyta D\u0105bska",
                "operator:type": "private",
                "amenity": "kindergarten"
            }
        },
        {
            "id": 269350,
            "type": "Feature",
            "geometry": {
                "type": "Point",
                "coordinates": [
                    22.68367,
                    51.19824
                ]
            },
            "properties": {
                "ref:rspo": 269350,
                "official_name": "Niepubliczne Przedszkole Poszukiwacze Przyg\u00f3d",
                "name": "Niepubliczne Przedszkole Poszukiwacze Przyg\u00f3d",
                "addr:country": "PL",
                "addr:postcode": "21-040",
                "addr:city": "\u015awidnik",
                "addr:street": "Piasecka",
                "addr:housenumber": "154",
                "addr:teryt:simc": 16013,
                "addr:teryt:sym_ul": 957146,
                "contact:email": "kontakt@poszukiwaczeprzygod.edu.pl",
                "contact:website": "http:\/\/poszukiwaczeprzygod.edu.pl",
                "ref:regon": "381449466",
                "operator": "Fundacja Ingenium",
                "operator:type": "ngo",
                "amenity": "kindergarten"
            }
        },
        {
            "id": 56479,
            "type": "Feature",
            "geometry": {
                "type": "Point",
                "coordinates": [
                    22.6842,
                    51.21081
                ]
            },
            "properties": {
                "ref:rspo": 56479,
                "official_name": "Niepubliczne Przedszkole \"Kubu\u015b Puchatek I Przyjaciele\" w \u015awidniku",
                "name": "Niepubliczne Przedszkole \"Kubu\u015b Puchatek I Przyjaciele\" w \u015awidniku",
                "addr:country": "PL",
                "addr:postcode": "21-040",
                "addr:city": "\u015awidnik",
                "addr:street": "Aleja Lotnik\u00f3w Polskich",
                "addr:housenumber": "94",
                "addr:teryt:simc": 48411,
                "addr:teryt:sym_ul": 957146,
                "contact:phone": "+48 604117367",
                "contact:email": "przedszkole.swidnik@gmail.com",
                "contact:website": "http:\/\/przedszkole-kubus.pl",
                "ref:regon": "061478174",
                "ref:vatin": "PL7122362564",
                "operator": "Agnieszka Kulik",
                "operator:type": "private",
                "amenity": "kindergarten"
            }
        },
        {
            "id": 104907,
            "type": "Feature",
            "geometry": {
                "type": "Point",
                "coordinates": [
                    22.69794,
                    51.21164
                ]
            },
            "properties": {
                "ref:rspo": 104907,
                "official_name": "Niepubliczne Przedszkole \"Bajkowy \u015awiat\"",
                "name": "Niepubliczne Przedszkole \"Bajkowy \u015awiat\"",
                "addr:country": "PL",
                "addr:postcode": "21-040",
                "addr:city": "\u015awidnik",
                "addr:street": "Cisowa",
                "addr:housenumber": "7A",
                "addr:teryt:simc": 3098,
                "addr:teryt:sym_ul": 957146,
                "contact:phone": "+48 691317928",
                "contact:email": "bajkowyswiat.swidnik@gmail.com",
                "contact:website": "http:\/\/www.bajkowyswiat.com",
                "ref:regon": "061506380",
                "ref:vatin": "PL9462463673",
                "operator": "Ewa Stefaniak",
                "operator:type": "private",
                "amenity": "kindergarten"
            }
        },
        {
            "id": 56476,
            "type": "Feature",
            "geometry": {
                "type": "Point",
                "coordinates": [
                    22.70202,
                    51.21384
                ]
            },
            "properties": {
                "ref:rspo": 56476,
                "official_name": "Przedszkole Nr 7 im. Marii Kownackiej w \u015awidniku",
                "name": "Przedszkole Nr 7",
                "addr:country": "PL",
                "addr:postcode": "21-040",
                "addr:city": "\u015awidnik",
                "addr:street": "Ksi\u0119dza Kanonika Jana Hryniewicza",
                "addr:housenumber": "7",
                "addr:teryt:simc": 32778,
                "addr:teryt:sym_ul": 957146,
                "contact:phone": "+48 817512807",
                "contact:email": "p7@oswiata.e-swidnik.pl",
                "contact:website": "http:\/\/www.p7swidnik.szkolnastrona.pl",
                "ref:regon": "060707709",
                "ref:vatin": "PL7123233886",
                "operator": "Gmina Miejska \u015awidnik",
                "operator:type": "government",
                "amenity": "kindergarten"
            }
        },
        {
            "id": 85287,
            "type": "Feature",
            "geometry": {
                "type": "Point",
                "coordinates": [
                    22.70017,
                    51.21411
                ]
            },
            "properties": {
                "isced:level": "1;2",
                "ref:rspo": 85287,
                "official_name": "Szko\u0142a Podstawowa Nr 5 im.janusza Kusoci\u0144skiego w \u015awidniku",
                "name": "Szko\u0142a Podstawowa Nr 5 im.janusza Kusoci\u0144skiego w \u015awidniku",
                "addr:country": "PL",
                "addr:postcode": "21-040",
                "addr:city": "\u015awidnik",
                "addr:street": "Jarz\u0119binowa",
                "addr:housenumber": "6",
                "addr:teryt:simc": 7290,
                "addr:teryt:sym_ul": 957146,
                "contact:phone": "+48 817513371",
                "contact:email": "info@sp5.swidnik.pl",
                "contact:website": "http:\/\/www.sp5.swidnik.pl",
                "ref:regon": "001272580",
                "ref:vatin": "PL7123254730",
                "operator": "Gmina Miejska \u015awidnik",
                "operator:type": "government",
                "amenity": "school"
            }
        },
        {
            "id": 274755,
            "type": "Feature",
            "geometry": {
                "type": "Point",
                "coordinates": [
                    22.71325,
                    51.21599
                ]
            },
            "properties": {
                "ref:rspo": 274755,
                "official_name": "Zesp\u00f3\u0142 Szkolno-Przedszkolny Nr 1 w \u015awidniku",
                "name": "Zesp\u00f3\u0142 Szkolno-Przedszkolny Nr 1 w \u015awidniku",
                "addr:country": "PL",
                "addr:postcode": "21-040",
                "addr:city": "\u015awidnik",
                "addr:street": "Aleja Armii Krajowej",
                "addr:housenumber": "3",
                "addr:teryt:simc": 35012,
                "addr:teryt:sym_ul": 957146,
                "contact:phone": "+48 817102530",
                "contact:email": "sp7@oswiata.e-swidnik.pl",
                "contact:website": "http:\/\/www.sp7.swidnik.pl",
                "ref:regon": "386287985",
                "operator": "Gmina Miejska \u015awidnik",
                "operator:type": "government",
                "landuse": "education",
                "fixme": "amenity=school, amenity=college albo landuse=education w zale\u017cno\u015bci od tego, jakie plac\u00f3wki wchodz\u0105 w sk\u0142ad zespo\u0142u. Sprawd\u017a, kiedy stosowa\u0107 amenity=* a kiedy landuse=education.",
                "note": "Children RSPO: 57703;93022"
            }
        },
        {
            "id": 93022,
            "type": "Feature",
            "geometry": {
                "type": "Point",
                "coordinates": [
                    22.71325,
                    51.215959999999995
                ]
            },
            "properties": {
                "isced:level": "1;2",
                "ref:rspo": 93022,
                "official_name": "Szko\u0142a Podstawowa Nr 7 im. \u017bo\u0142nierzy Armii Krajowej w \u015awidniku",
                "name": "Szko\u0142a Podstawowa Nr 7",
                "addr:country": "PL",
                "addr:postcode": "21-040",
                "addr:city": "\u015awidnik",
                "addr:street": "Aleja Armii Krajowej",
                "addr:housenumber": "3",
                "addr:teryt:simc": 35012,
                "addr:teryt:sym_ul": 957146,
                "contact:phone": "+48 817102530",
                "contact:email": "sp7@oswiata.e-swidnik.pl",
                "contact:website": "http:\/\/www.sp7.swidnik.pl",
                "ref:regon": "430567863",
                "ref:vatin": "PL7131406953",
                "operator": "Gmina Miejska \u015awidnik",
                "operator:type": "government",
                "amenity": "school",
                "note": "Parent RSPO: 274755"
            }
        },
        {
            "id": 7109,
            "type": "Feature",
            "geometry": {
                "type": "Point",
                "coordinates": [
                    22.69673,
                    51.21646
                ]
            },
            "properties": {
                "isced:level": "4",
                "ref:rspo": 7109,
                "official_name": "Prywatna Policealna Szko\u0142a Farmaceutyczna",
                "name": "Prywatna Policealna Szko\u0142a Farmaceutyczna",
                "addr:country": "PL",
                "addr:postcode": "21-040",
                "addr:city": "\u015awidnik",
                "addr:street": "Rac\u0142awicka",
                "addr:housenumber": "31",
                "addr:door": "30",
                "addr:teryt:simc": 18273,
                "addr:teryt:sym_ul": 957146,
                "contact:phone": "+48 606486510",
                "contact:email": "farmacja@onet.pl",
                "ref:regon": "061453180",
                "ref:vatin": "PL7131216655",
                "operator": "Dane Do Uzupe\u0142nienia",
                "operator:type": "private",
                "amenity": "college"
            }
        },
        {
            "id": 121738,
            "type": "Feature",
            "geometry": {
                "type": "Point",
                "coordinates": [
                    22.7083799,
                    51.21654
                ]
            },
            "properties": {
                "ref:rspo": 121738,
                "official_name": "Przedszkole Niepubliczne \"Sigma I Pi\" Mariola Bujacz w \u015awidniku",
                "name": "Przedszkole Niepubliczne \"Sigma I Pi\" Mariola Bujacz w \u015awidniku",
                "addr:country": "PL",
                "addr:postcode": "21-040",
                "addr:city": "\u015awidnik",
                "addr:street": "Kosynier\u00f3w",
                "addr:housenumber": "17",
                "addr:teryt:simc": 9501,
                "addr:teryt:sym_ul": 957146,
                "contact:phone": "+48 787680620",
                "contact:email": "przedszkole@sigmaipi.com",
                "contact:website": "http:\/\/www.sigmaipi.com",
                "ref:regon": "061647205",
                "ref:vatin": "PL7131145576",
                "operator": "Mariola Bujacz",
                "operator:type": "private",
                "amenity": "kindergarten"
            }
        },
        {
            "id": 53456,
            "type": "Feature",
            "geometry": {
                "type": "Point",
                "coordinates": [
                    22.70519,
                    51.21671
                ]
            },
            "properties": {
                "isced:level": "1;2",
                "ref:rspo": 53456,
                "official_name": "Szko\u0142a Podstawowa Nr 3 im.tadeusza Ko\u015bciuszki w \u015awidniku",
                "name": "Szko\u0142a Podstawowa Nr 3 im.tadeusza Ko\u015bciuszki w \u015awidniku",
                "addr:country": "PL",
                "addr:postcode": "21-040",
                "addr:city": "\u015awidnik",
                "addr:street": "Miko\u0142aja Kopernika",
                "addr:housenumber": "9a",
                "addr:teryt:simc": 9282,
                "addr:teryt:sym_ul": 957146,
                "contact:phone": "+48 814682305",
                "contact:email": "sp3@oswiata.e-swidnik.pl",
                "contact:website": "http:\/\/www.sp3.swidnik.pl",
                "ref:regon": "000714567",
                "ref:vatin": "PL7131777862",
                "operator": "Gmina Miejska \u015awidnik",
                "operator:type": "government",
                "amenity": "school"
            }
        },
        {
            "id": 129132,
            "type": "Feature",
            "geometry": {
                "type": "Point",
                "coordinates": [
                    22.70599,
                    51.21777
                ]
            },
            "properties": {
                "isced:level": "4",
                "ref:rspo": 129132,
                "official_name": "Policealna Szko\u0142a Zawodowa \"Edukator\" w \u015awidniku",
                "name": "Policealna Szko\u0142a Zawodowa \"Edukator\" w \u015awidniku",
                "addr:country": "PL",
                "addr:postcode": "21-040",
                "addr:city": "\u015awidnik",
                "addr:street": "Miko\u0142aja Kopernika",
                "addr:housenumber": "9",
                "addr:teryt:simc": 9282,
                "addr:teryt:sym_ul": 957146,
                "contact:phone": "+48 506749541",
                "contact:email": "kontakt@swidnikedukator.pl",
                "contact:website": "http:\/\/swidnikedukator.pl\/",
                "ref:regon": "362491517",
                "operator": "Grzegorz Turewicz",
                "operator:type": "private",
                "amenity": "college"
            }
        },
        {
            "id": 57703,
            "type": "Feature",
            "geometry": {
                "type": "Point",
                "coordinates": [
                    22.7124099,
                    51.21788
                ]
            },
            "properties": {
                "ref:rspo": 57703,
                "official_name": "Przedszkole Integracyjne Nr 5 im. Doroty Gellner w \u015awidniku",
                "name": "Przedszkole Integracyjne Nr 5",
                "addr:country": "PL",
                "addr:postcode": "21-040",
                "addr:city": "\u015awidnik",
                "addr:street": "Genera\u0142a J\u00f3zefa Hallera",
                "addr:housenumber": "11",
                "addr:teryt:simc": 34447,
                "addr:teryt:sym_ul": 957146,
                "contact:phone": "+48 814686339",
                "contact:email": "pi5@oswiata.e-swidnik.pl",
                "contact:website": "http:\/\/www.pi5swidnik.szkolnastrona.pl",
                "ref:regon": "060707678",
                "ref:vatin": "PL7123234762",
                "operator": "Gmina Miejska \u015awidnik",
                "operator:type": "government",
                "amenity": "kindergarten",
                "note": "Parent RSPO: 274755"
            }
        },
        {
            "id": 272135,
            "type": "Feature",
            "geometry": {
                "type": "Point",
                "coordinates": [
                    22.70408,
                    51.21806
                ]
            },
            "properties": {
                "ref:rspo": 272135,
                "official_name": "Zesp\u00f3\u0142 Przedszkoli Nr 1 w \u015awidniku",
                "name": "Zesp\u00f3\u0142 Przedszkoli Nr 1 w \u015awidniku",
                "addr:country": "PL",
                "addr:postcode": "21-040",
                "addr:city": "\u015awidnik",
                "addr:street": "Hotelowa",
                "addr:housenumber": "7",
                "addr:teryt:simc": 6749,
                "addr:teryt:sym_ul": 957146,
                "contact:phone": "+48 817515588",
                "contact:email": "zp_1@oswiata.e-swidnik.pl",
                "ref:regon": "383958321",
                "operator": "Gmina Miejska \u015awidnik",
                "operator:type": "government",
                "landuse": "education",
                "fixme": "amenity=school, amenity=college albo landuse=education w zale\u017cno\u015bci od tego, jakie plac\u00f3wki wchodz\u0105 w sk\u0142ad zespo\u0142u. Sprawd\u017a, kiedy stosowa\u0107 amenity=* a kiedy landuse=education.",
                "note": "Children RSPO: 56478;57701"
            }
        },
        {
            "id": 57701,
            "type": "Feature",
            "geometry": {
                "type": "Point",
                "coordinates": [
                    22.70408,
                    51.21803
                ]
            },
            "properties": {
                "ref:rspo": 57701,
                "official_name": "Przedszkole Nr 3 im. Jana Brzechwy w \u015awidniku",
                "name": "Przedszkole Nr 3",
                "addr:country": "PL",
                "addr:postcode": "21-040",
                "addr:city": "\u015awidnik",
                "addr:street": "Hotelowa",
                "addr:housenumber": "7",
                "addr:teryt:simc": 6749,
                "addr:teryt:sym_ul": 957146,
                "contact:phone": "+48 817515588",
                "contact:email": "zp_1@oswiata.e-swidnik.pl",
                "ref:regon": "060706957",
                "ref:vatin": "PL7123235046",
                "operator": "Gmina Miejska \u015awidnik",
                "operator:type": "government",
                "amenity": "kindergarten",
                "note": "Parent RSPO: 272135"
            }
        },
        {
            "id": 272136,
            "type": "Feature",
            "geometry": {
                "type": "Point",
                "coordinates": [
                    22.69181,
                    51.21925
                ]
            },
            "properties": {
                "ref:rspo": 272136,
                "official_name": "Zesp\u00f3\u0142 Przedszkoli Nr 2 w \u015awidniku",
                "name": "Zesp\u00f3\u0142 Przedszkoli Nr 2 w \u015awidniku",
                "addr:country": "PL",
                "addr:postcode": "21-040",
                "addr:city": "\u015awidnik",
                "addr:street": "Marsza\u0142ka J\u00f3zefa Pi\u0142sudskiego",
                "addr:housenumber": "1",
                "addr:teryt:simc": 36029,
                "addr:teryt:sym_ul": 957146,
                "contact:phone": "+48 814685934",
                "contact:email": "zp2@oswiata.e-swidnik.pl",
                "ref:regon": "383958380",
                "operator": "Gmina Miejska \u015awidnik",
                "operator:type": "government",
                "landuse": "education",
                "fixme": "amenity=school, amenity=college albo landuse=education w zale\u017cno\u015bci od tego, jakie plac\u00f3wki wchodz\u0105 w sk\u0142ad zespo\u0142u. Sprawd\u017a, kiedy stosowa\u0107 amenity=* a kiedy landuse=education.",
                "note": "Children RSPO: 57702;57704"
            }
        },
        {
            "id": 57702,
            "type": "Feature",
            "geometry": {
                "type": "Point",
                "coordinates": [
                    22.69181,
                    51.21922
                ]
            },
            "properties": {
                "ref:rspo": 57702,
                "official_name": "Przedszkole Nr 4 im. Kaprala Nied\u017awiedzia Wojtka w \u015awidniku",
                "name": "Przedszkole Nr 4",
                "addr:country": "PL",
                "addr:postcode": "21-040",
                "addr:city": "\u015awidnik",
                "addr:street": "Marsza\u0142ka J\u00f3zefa Pi\u0142sudskiego",
                "addr:housenumber": "1",
                "addr:teryt:simc": 36029,
                "addr:teryt:sym_ul": 957146,
                "contact:phone": "+48 814685934",
                "contact:email": "p4@oswiata.e-swidnik.pl",
                "contact:website": "http:\/\/www.przedszkole4.swidnik.pl",
                "ref:regon": "060702445",
                "ref:vatin": "PL7123235052",
                "operator": "Gmina Miejska \u015awidnik",
                "operator:type": "government",
                "amenity": "kindergarten",
                "note": "Parent RSPO: 272136"
            }
        },
        {
            "id": 57704,
            "type": "Feature",
            "geometry": {
                "type": "Point",
                "coordinates": [
                    22.69842,
                    51.21942
                ]
            },
            "properties": {
                "ref:rspo": 57704,
                "official_name": "Przedszkole Nr 6 im. Joanny Papuzi\u0144skiej w \u015awidniku",
                "name": "Przedszkole Nr 6",
                "addr:country": "PL",
                "addr:postcode": "21-040",
                "addr:city": "\u015awidnik",
                "addr:street": "\u015arodkowa",
                "addr:housenumber": "2",
                "addr:teryt:simc": 22419,
                "addr:teryt:sym_ul": 957146,
                "contact:phone": "+48 814685927",
                "contact:email": "p6@oswiata.e-swidnik.pl",
                "contact:website": "http:\/\/www.p6swidnik.szkolnastrona.pl",
                "ref:regon": "060699536",
                "ref:vatin": "PL7123234756",
                "operator": "Gmina Miejska \u015awidnik",
                "operator:type": "government",
                "amenity": "kindergarten",
                "note": "Parent RSPO: 272136"
            }
        },
        {
            "id": 75564,
            "type": "Feature",
            "geometry": {
                "type": "Point",
                "coordinates": [
                    22.70878,
                    51.21985
                ]
            },
            "properties": {
                "ref:rspo": 75564,
                "official_name": "Pa\u0144stwowa Szko\u0142a Muzyczna I St. im. Rodziny Wi\u0142komirskich w \u015awidniku",
                "name": "Pa\u0144stwowa Szko\u0142a Muzyczna I St.",
                "addr:country": "PL",
                "addr:postcode": "21-040",
                "addr:city": "\u015awidnik",
                "addr:street": "Kr\u00f3la Pole",
                "addr:housenumber": "7",
                "addr:teryt:simc": 31279,
                "addr:teryt:sym_ul": 957146,
                "contact:phone": "+48 817516856",
                "contact:email": "sekretariat@psm.swidnik.pl",
                "contact:website": "http:\/\/psm.swidnik.pl",
                "ref:regon": "000278238",
                "operator": "Ministerstwo Kultury I Dziedzictwa Narodowego",
                "operator:type": "public",
                "amenity": "music_school"
            }
        },
        {
            "id": 6204,
            "type": "Feature",
            "geometry": {
                "type": "Point",
                "coordinates": [
                    22.70025062561,
                    51.219940185547
                ]
            },
            "properties": {
                "ref:rspo": 6204,
                "official_name": "Specjalny O\u015brodek Szkolno-Wychowawczy im. Henryka Sienkiewicza w \u015awidniku",
                "name": "Specjalny O\u015brodek Szkolno-Wychowawczy",
                "addr:country": "PL",
                "addr:postcode": "21-040",
                "addr:city": "\u015awidnik",
                "addr:street": "Cypriana Kamila Norwida",
                "addr:housenumber": "4",
                "addr:teryt:simc": 14319,
                "addr:teryt:sym_ul": 957146,
                "contact:phone": "+48 814688945",
                "contact:email": "sekretariat@sosw.eu",
                "contact:website": "http:\/\/www.sosw.eu",
                "ref:regon": "430418212",
                "ref:vatin": "PL7132268306",
                "operator": "Powiat \u015awidnicki",
                "operator:type": "government",
                "amenity": "school",
                "note": "Children RSPO: 89522;89548;89557"
            }
        },
        {
            "id": 6535,
            "type": "Feature",
            "geometry": {
                "type": "Point",
                "coordinates": [
                    22.70025062561,
                    51.219910185547
                ]
            },
            "properties": {
                "ref:rspo": 6535,
                "official_name": "Poradnia Psychologiczno-Pedagogiczna",
                "name": "Poradnia Psychologiczno-Pedagogiczna",
                "addr:country": "PL",
                "addr:postcode": "21-040",
                "addr:city": "\u015awidnik",
                "addr:street": "Cypriana Kamila Norwida",
                "addr:housenumber": "2a",
                "addr:teryt:simc": 14319,
                "addr:teryt:sym_ul": 957146,
                "contact:phone": "+48 817515236",
                "contact:email": "info@poradnia.swidnik.pl",
                "contact:website": "http:\/\/www.poradnia.swidnik.pl",
                "ref:regon": "000714580",
                "ref:vatin": "PL7132265727",
                "operator": "Powiat \u015awidnicki",
                "operator:type": "government",
                "healthcare": "counselling",
                "counselling_type": "education",
                "fixme": "w zale\u017cno\u015bci od przedmiotu dzia\u0142alno\u015bci (np. healthcare=counselling + counselling_type=education albo healthcare=psychotherapist)"
            }
        },
        {
            "id": 89522,
            "type": "Feature",
            "geometry": {
                "type": "Point",
                "coordinates": [
                    22.70025062561,
                    51.219880185547005
                ]
            },
            "properties": {
                "isced:level": "1;2",
                "ref:rspo": 89522,
                "official_name": "Szko\u0142a Podstawowa Specjalna w \u015awidniku",
                "name": "Szko\u0142a Podstawowa Specjalna w \u015awidniku",
                "addr:country": "PL",
                "addr:postcode": "21-040",
                "addr:city": "\u015awidnik",
                "addr:street": "Cypriana Kamila Norwida",
                "addr:housenumber": "4",
                "addr:teryt:simc": 14319,
                "addr:teryt:sym_ul": 957146,
                "contact:phone": "+48 814688945",
                "contact:email": "sekretariat@sosw.eu",
                "contact:website": "http:\/\/www.sosw.eu",
                "ref:regon": "431276949",
                "operator": "Powiat \u015awidnicki",
                "operator:type": "government",
                "amenity": "school",
                "note": "Parent RSPO: 6204"
            }
        },
        {
            "id": 89548,
            "type": "Feature",
            "geometry": {
                "type": "Point",
                "coordinates": [
                    22.70025062561,
                    51.219850185547
                ]
            },
            "properties": {
                "ref:rspo": 89548,
                "official_name": "Szko\u0142a Specjalna Przysposabiaj\u0105ca Do Pracy w \u015awidniku",
                "name": "Szko\u0142a Specjalna Przysposabiaj\u0105ca Do Pracy w \u015awidniku",
                "addr:country": "PL",
                "addr:postcode": "21-040",
                "addr:city": "\u015awidnik",
                "addr:street": "Cypriana Kamila Norwida",
                "addr:housenumber": "4",
                "addr:teryt:simc": 14319,
                "addr:teryt:sym_ul": 957146,
                "contact:phone": "+48 814688945",
                "contact:email": "sekretariat@sosw.eu",
                "contact:website": "http:\/\/sosw.eu",
                "ref:regon": "432722581",
                "operator": "Powiat \u015awidnicki",
                "operator:type": "government",
                "amenity": "school",
                "note": "Parent RSPO: 6204"
            }
        },
        {
            "id": 89557,
            "type": "Feature",
            "geometry": {
                "type": "Point",
                "coordinates": [
                    22.70025062561,
                    51.219820185547
                ]
            },
            "properties": {
                "ref:rspo": 89557,
                "official_name": "Przedszkole Specjalne w \u015awidniku",
                "name": "Przedszkole Specjalne w \u015awidniku",
                "addr:country": "PL",
                "addr:postcode": "21-040",
                "addr:city": "\u015awidnik",
                "addr:street": "Cypriana Kamila Norwida",
                "addr:housenumber": "4",
                "addr:teryt:simc": 14319,
                "addr:teryt:sym_ul": 957146,
                "contact:phone": "+48 814688945",
                "contact:email": "sekretariat@sosw.eu",
                "contact:website": "http:\/\/sosw.eu",
                "ref:regon": "061491631",
                "operator": "Powiat \u015awidnicki",
                "operator:type": "government",
                "amenity": "kindergarten",
                "note": "Parent RSPO: 6204"
            }
        },
        {
            "id": 56478,
            "type": "Feature",
            "geometry": {
                "type": "Point",
                "coordinates": [
                    22.70392,
                    51.22093
                ]
            },
            "properties": {
                "ref:rspo": 56478,
                "official_name": "Przedszkole Nr 2 im. Marii Konopnickiej w \u015awidniku",
                "name": "Przedszkole Nr 2",
                "addr:country": "PL",
                "addr:postcode": "21-040",
                "addr:city": "\u015awidnik",
                "addr:street": "Genera\u0142a Leopolda Okulickiego",
                "addr:housenumber": "19",
                "addr:teryt:simc": 33662,
                "addr:teryt:sym_ul": 957146,
                "contact:phone": "+48 814697161",
                "contact:email": "zp_1@oswiata.e-swidnik.pl",
                "ref:regon": "060701204",
                "ref:vatin": "PL7123234354",
                "operator": "Gmina Miejska \u015awidnik",
                "operator:type": "government",
                "amenity": "kindergarten",
                "note": "Parent RSPO: 272135"
            }
        },
        {
            "id": 6389,
            "type": "Feature",
            "geometry": {
                "type": "Point",
                "coordinates": [
                    22.7013399,
                    51.22139
                ]
            },
            "properties": {
                "ref:rspo": 6389,
                "official_name": "Zesp\u00f3\u0142 Szk\u00f3\u0142 Nr 1 im. Cypriana Kamila Norwida w \u015awidniku",
                "name": "Zesp\u00f3\u0142 Szk\u00f3\u0142 Nr 1",
                "addr:country": "PL",
                "addr:postcode": "21-040",
                "addr:city": "\u015awidnik",
                "addr:street": "Genera\u0142a Leopolda Okulickiego",
                "addr:housenumber": "13",
                "addr:teryt:simc": 33662,
                "addr:teryt:sym_ul": 957146,
                "contact:phone": "+48 817512394",
                "contact:email": "sekretariat@zsnorwid.swidnik.pl",
                "contact:website": "http:\/\/www.zsnorwid.swidnik.pl",
                "ref:regon": "000189285",
                "ref:vatin": "PL7131096122",
                "operator": "Powiat \u015awidnicki",
                "operator:type": "government",
                "landuse": "education",
                "fixme": "amenity=school, amenity=college albo landuse=education w zale\u017cno\u015bci od tego, jakie plac\u00f3wki wchodz\u0105 w sk\u0142ad zespo\u0142u. Sprawd\u017a, kiedy stosowa\u0107 amenity=* a kiedy landuse=education.",
                "note": "Children RSPO: 49611;49614;49615;49616;115618;275748"
            }
        },
        {
            "id": 10389,
            "type": "Feature",
            "geometry": {
                "type": "Point",
                "coordinates": [
                    22.7013399,
                    51.22136
                ]
            },
            "properties": {
                "isced:level": "3",
                "ref:rspo": 10389,
                "official_name": "I Liceum Og\u00f3lnokszta\u0142c\u0105ce im. W\u0142adys\u0142awa Broniewskiego w \u015awidniku",
                "name": "I Liceum Og\u00f3lnokszta\u0142c\u0105ce",
                "addr:country": "PL",
                "addr:postcode": "21-040",
                "addr:city": "\u015awidnik",
                "addr:street": "Genera\u0142a Leopolda Okulickiego",
                "addr:housenumber": "13",
                "addr:teryt:simc": 33662,
                "addr:teryt:sym_ul": 957146,
                "contact:phone": "+48 817515713",
                "contact:email": "sekretariat@1lo.swidnik.pl",
                "contact:website": "http:\/\/www.1lo.swidnik.pl",
                "ref:regon": "000714573",
                "ref:vatin": "PL7131096139",
                "operator": "Powiat \u015awidnicki",
                "operator:type": "government",
                "amenity": "school"
            }
        },
        {
            "id": 276239,
            "type": "Feature",
            "geometry": {
                "type": "Point",
                "coordinates": [
                    22.7013399,
                    51.22133
                ]
            },
            "properties": {
                "isced:level": "1;2",
                "ref:rspo": 276239,
                "official_name": "Niepubliczna Szko\u0142a Podstawowa Mistrzostwa Sportowego w \u015awidniku",
                "name": "Niepubliczna Szko\u0142a Podstawowa Mistrzostwa Sportowego w \u015awidniku",
                "addr:country": "PL",
                "addr:postcode": "21-040",
                "addr:city": "\u015awidnik",
                "addr:street": "Genera\u0142a Leopolda Okulickiego",
                "addr:housenumber": "13",
                "addr:teryt:simc": 33662,
                "addr:teryt:sym_ul": 957146,
                "contact:phone": "+48 735157035",
                "contact:email": "kontakt@sms-swidnik.pl",
                "contact:website": "http:\/\/www.smsswidnik.pl",
                "ref:regon": "387050104",
                "operator": "Kamaro Sport Sp\u00f3\u0142ka Z Ograniczon\u0105 Odpowiedzialno\u015bci\u0105",
                "operator:type": "private",
                "amenity": "school"
            }
        },
        {
            "id": 49611,
            "type": "Feature",
            "geometry": {
                "type": "Point",
                "coordinates": [
                    22.7013399,
                    51.2213
                ]
            },
            "properties": {
                "isced:level": "3",
                "ref:rspo": 49611,
                "official_name": "Technikum Nr 2 w \u015awidniku",
                "name": "Technikum Nr 2 w \u015awidniku",
                "addr:country": "PL",
                "addr:postcode": "21-040",
                "addr:city": "\u015awidnik",
                "addr:street": "Genera\u0142a Leopolda Okulickiego",
                "addr:housenumber": "13",
                "addr:teryt:simc": 33662,
                "addr:teryt:sym_ul": 957146,
                "contact:phone": "+48 817512394",
                "ref:regon": "432674505",
                "operator": "Powiat \u015awidnicki",
                "operator:type": "government",
                "amenity": "school",
                "note": "Parent RSPO: 6389"
            }
        },
        {
            "id": 49614,
            "type": "Feature",
            "geometry": {
                "type": "Point",
                "coordinates": [
                    22.7013399,
                    51.22127
                ]
            },
            "properties": {
                "isced:level": "3",
                "ref:rspo": 49614,
                "official_name": "Bran\u017cowa Szko\u0142a I Stopnia Nr 2 w \u015awidniku",
                "name": "Bran\u017cowa Szko\u0142a I Stopnia Nr 2 w \u015awidniku",
                "addr:country": "PL",
                "addr:postcode": "21-040",
                "addr:city": "\u015awidnik",
                "addr:street": "Genera\u0142a Leopolda Okulickiego",
                "addr:housenumber": "13",
                "addr:teryt:simc": 33662,
                "addr:teryt:sym_ul": 957146,
                "contact:phone": "+48 817512394",
                "ref:regon": "432243202",
                "operator": "Powiat \u015awidnicki",
                "operator:type": "government",
                "amenity": "school",
                "note": "Parent RSPO: 6389"
            }
        },
        {
            "id": 49615,
            "type": "Feature",
            "geometry": {
                "type": "Point",
                "coordinates": [
                    22.7013399,
                    51.22124
                ]
            },
            "properties": {
                "isced:level": "4",
                "ref:rspo": 49615,
                "official_name": "Szko\u0142a Policealna Nr 2 w \u015awidniku",
                "name": "Szko\u0142a Policealna Nr 2 w \u015awidniku",
                "addr:country": "PL",
                "addr:postcode": "21-040",
                "addr:city": "\u015awidnik",
                "addr:street": "Genera\u0142a Leopolda Okulickiego",
                "addr:housenumber": "13",
                "addr:teryt:simc": 33662,
                "addr:teryt:sym_ul": 957146,
                "contact:phone": "+48 817512394",
                "ref:regon": "431260894",
                "operator": "Powiat \u015awidnicki",
                "operator:type": "government",
                "amenity": "college",
                "note": "Parent RSPO: 6389"
            }
        },
        {
            "id": 49616,
            "type": "Feature",
            "geometry": {
                "type": "Point",
                "coordinates": [
                    22.7013399,
                    51.22121
                ]
            },
            "properties": {
                "isced:level": "3",
                "ref:rspo": 49616,
                "official_name": "Ii Liceum Og\u00f3lnokszta\u0142c\u0105ce dla Doros\u0142ych w \u015awidniku",
                "name": "Ii Liceum Og\u00f3lnokszta\u0142c\u0105ce dla Doros\u0142ych w \u015awidniku",
                "addr:country": "PL",
                "addr:postcode": "21-040",
                "addr:city": "\u015awidnik",
                "addr:street": "Genera\u0142a Leopolda Okulickiego",
                "addr:housenumber": "13",
                "addr:teryt:simc": 33662,
                "addr:teryt:sym_ul": 957146,
                "contact:phone": "+48 817512394",
                "ref:regon": "060641494",
                "operator": "Powiat \u015awidnicki",
                "operator:type": "government",
                "amenity": "school",
                "note": "Parent RSPO: 6389"
            }
        },
        {
            "id": 115618,
            "type": "Feature",
            "geometry": {
                "type": "Point",
                "coordinates": [
                    22.7013399,
                    51.22118
                ]
            },
            "properties": {
                "isced:level": "3",
                "ref:rspo": 115618,
                "official_name": "Iii Liceum Og\u00f3lnokszta\u0142c\u0105ce Z Oddzia\u0142ami Integracyjnymi w \u015awidniku",
                "name": "Iii Liceum Og\u00f3lnokszta\u0142c\u0105ce Z Oddzia\u0142ami Integracyjnymi w \u015awidniku",
                "addr:country": "PL",
                "addr:postcode": "21-040",
                "addr:city": "\u015awidnik",
                "addr:street": "Genera\u0142a Leopolda Okulickiego",
                "addr:housenumber": "13",
                "addr:teryt:simc": 33662,
                "addr:teryt:sym_ul": 957146,
                "contact:phone": "+48 817512394",
                "ref:regon": "061579030",
                "operator": "Powiat \u015awidnicki",
                "operator:type": "government",
                "amenity": "school",
                "note": "Parent RSPO: 6389"
            }
        },
        {
            "id": 275748,
            "type": "Feature",
            "geometry": {
                "type": "Point",
                "coordinates": [
                    22.7013399,
                    51.22115
                ]
            },
            "properties": {
                "isced:level": "3",
                "ref:rspo": 275748,
                "official_name": "Bran\u017cowa Szko\u0142a II Stopnia w \u015awidniku",
                "name": "Bran\u017cowa Szko\u0142a II Stopnia w \u015awidniku",
                "addr:country": "PL",
                "addr:postcode": "21-040",
                "addr:city": "\u015awidnik",
                "addr:street": "Genera\u0142a Leopolda Okulickiego",
                "addr:housenumber": "13",
                "addr:teryt:simc": 33662,
                "addr:teryt:sym_ul": 957146,
                "contact:phone": "+48 817512394",
                "contact:email": "sekretariat@zsnorwid.swidnik.pl",
                "contact:website": "http:\/\/www.zsnorwid.swidnik.pl\/",
                "ref:regon": "386934019",
                "operator": "Powiat \u015awidnicki",
                "operator:type": "government",
                "amenity": "school",
                "note": "Parent RSPO: 6389"
            }
        },
        {
            "id": 55627,
            "type": "Feature",
            "geometry": {
                "type": "Point",
                "coordinates": [
                    22.68681,
                    51.2219
                ]
            },
            "properties": {
                "ref:rspo": 55627,
                "official_name": "Zesp\u00f3\u0142 Szk\u00f3\u0142 Og\u00f3lnokszta\u0142c\u0105cych Nr 1 w \u015awidniku",
                "name": "Zesp\u00f3\u0142 Szk\u00f3\u0142 Og\u00f3lnokszta\u0142c\u0105cych Nr 1 w \u015awidniku",
                "addr:country": "PL",
                "addr:postcode": "21-040",
                "addr:city": "\u015awidnik",
                "addr:street": "Aleja Wojska Polskiego",
                "addr:housenumber": "27",
                "addr:teryt:simc": 49088,
                "addr:teryt:sym_ul": 957146,
                "contact:phone": "+48 817514247",
                "contact:email": "zso1@oswiata.e-swidnik.pl",
                "ref:regon": "430336767",
                "ref:vatin": "PL7131780953",
                "operator": "Gmina Miejska \u015awidnik",
                "operator:type": "government",
                "landuse": "education",
                "fixme": "amenity=school, amenity=college albo landuse=education w zale\u017cno\u015bci od tego, jakie plac\u00f3wki wchodz\u0105 w sk\u0142ad zespo\u0142u. Sprawd\u017a, kiedy stosowa\u0107 amenity=* a kiedy landuse=education.",
                "note": "Children RSPO: 86337;86832"
            }
        },
        {
            "id": 86337,
            "type": "Feature",
            "geometry": {
                "type": "Point",
                "coordinates": [
                    22.68681,
                    51.221869999999996
                ]
            },
            "properties": {
                "isced:level": "1;2",
                "ref:rspo": 86337,
                "official_name": "Szko\u0142a Podstawowa Nr 4 im. Gen.w\u0142adys\u0142awa Sikorskiego w \u015awidniku",
                "name": "Szko\u0142a Podstawowa Nr 4",
                "addr:country": "PL",
                "addr:postcode": "21-040",
                "addr:city": "\u015awidnik",
                "addr:street": "Aleja Wojska Polskiego",
                "addr:housenumber": "27",
                "addr:teryt:simc": 49088,
                "addr:teryt:sym_ul": 957146,
                "contact:phone": "+48 817514247",
                "contact:email": "sp4@oswiata.e-swidnik.pl",
                "contact:website": "http:\/\/www.sp4.zso1.swidnik.pl",
                "ref:regon": "000990066",
                "operator": "Gmina Miejska \u015awidnik",
                "operator:type": "government",
                "amenity": "school",
                "note": "Parent RSPO: 55627"
            }
        },
        {
            "id": 86832,
            "type": "Feature",
            "geometry": {
                "type": "Point",
                "coordinates": [
                    22.68681,
                    51.22184
                ]
            },
            "properties": {
                "isced:level": "3",
                "ref:rspo": 86832,
                "official_name": "Ii Liceum Og\u00f3lnokszta\u0142c\u0105ce w \u015awidniku w Zespole Szk\u00f3\u0142 Og\u00f3lnokszta\u0142c\u0105cych Nr 1 w \u015awidniku",
                "name": "Ii Liceum Og\u00f3lnokszta\u0142c\u0105ce w \u015awidniku w Zespole Szk\u00f3\u0142 Og\u00f3lnokszta\u0142c\u0105cych Nr 1 w \u015awidniku",
                "addr:country": "PL",
                "addr:postcode": "21-040",
                "addr:city": "\u015awidnik",
                "addr:street": "Aleja Wojska Polskiego",
                "addr:housenumber": "27",
                "addr:teryt:simc": 49088,
                "addr:teryt:sym_ul": 957146,
                "contact:phone": "+48 817514247",
                "contact:email": "zso1@oswiata.e-swidnik.pl",
                "contact:website": "http:\/\/www.2lo.zso1.swidnik.pl",
                "ref:regon": "430342791",
                "operator": "Gmina Miejska \u015awidnik",
                "operator:type": "government",
                "amenity": "school",
                "note": "Parent RSPO: 55627"
            }
        },
        {
            "id": 278629,
            "type": "Feature",
            "geometry": {
                "type": "Point",
                "coordinates": [
                    22.65494,
                    51.22588
                ]
            },
            "properties": {
                "ref:rspo": 278629,
                "official_name": "Niepubliczna Plac\u00f3wka Kszta\u0142cenia Ustawicznego Beryl",
                "name": "Niepubliczna Plac\u00f3wka Kszta\u0142cenia Ustawicznego Beryl",
                "addr:country": "PL",
                "addr:postcode": "21-040",
                "addr:city": "\u015awidnik",
                "addr:street": "Brzegowa",
                "addr:housenumber": "96",
                "addr:teryt:simc": 2229,
                "addr:teryt:sym_ul": 957146,
                "contact:phone": "+48 531853335",
                "contact:email": "berylspolka@gmail.com",
                "ref:regon": "520003384",
                "operator": "Anna W\u0142osek",
                "operator:type": "private",
                "fixme": "w zale\u017cno\u015bci od przedmiotu dzia\u0142alno\u015bci (np. amenity=training + training=*, amenity=dancing_school, amenity=language_school, amenity=music_school)"
            }
        },
        {
            "id": 6413,
            "type": "Feature",
            "geometry": {
                "type": "Point",
                "coordinates": [
                    22.6976,
                    51.22658
                ]
            },
            "properties": {
                "ref:rspo": 6413,
                "official_name": "Powiatowe Centrum Edukacji Zawodowej im. Zygmunta Pu\u0142awskiego w \u015awidniku",
                "name": "Powiatowe Centrum Edukacji Zawodowej",
                "addr:country": "PL",
                "addr:postcode": "21-045",
                "addr:city": "\u015awidnik",
                "addr:street": "Szkolna",
                "addr:housenumber": "1",
                "addr:teryt:simc": 21970,
                "addr:teryt:sym_ul": 957146,
                "contact:phone": "+48 817512671",
                "contact:email": "sekretariat@pcez.pl",
                "contact:website": "http:\/\/www.pcez.pl",
                "ref:regon": "000037262",
                "ref:vatin": "PL7131140018",
                "operator": "Powiat \u015awidnicki",
                "operator:type": "government",
                "landuse": "education",
                "fixme": "amenity=school, amenity=college albo landuse=education w zale\u017cno\u015bci od tego, jakie plac\u00f3wki wchodz\u0105 w sk\u0142ad zespo\u0142u. Sprawd\u017a, kiedy stosowa\u0107 amenity=* a kiedy landuse=education.",
                "note": "Children RSPO: 57133;57136;57139;57142;266319"
            }
        },
        {
            "id": 57133,
            "type": "Feature",
            "geometry": {
                "type": "Point",
                "coordinates": [
                    22.6976,
                    51.226549999999996
                ]
            },
            "properties": {
                "isced:level": "3",
                "ref:rspo": 57133,
                "official_name": "Bran\u017cowa Szko\u0142a I Stopnia Nr 1 w \u015awidniku",
                "name": "Bran\u017cowa Szko\u0142a I Stopnia Nr 1 w \u015awidniku",
                "addr:country": "PL",
                "addr:postcode": "21-045",
                "addr:city": "\u015awidnik",
                "addr:street": "Szkolna",
                "addr:housenumber": "1",
                "addr:teryt:simc": 21970,
                "addr:teryt:sym_ul": 957146,
                "contact:phone": "+48 817512671",
                "contact:email": "sekretariat@pcez.pl",
                "contact:website": "http:\/\/www.pcez.pl",
                "ref:regon": "432506200",
                "operator": "Powiat \u015awidnicki",
                "operator:type": "government",
                "amenity": "school",
                "note": "Parent RSPO: 6413"
            }
        },
        {
            "id": 57136,
            "type": "Feature",
            "geometry": {
                "type": "Point",
                "coordinates": [
                    22.6976,
                    51.22652
                ]
            },
            "properties": {
                "ref:rspo": 57136,
                "official_name": "Centrum Kszta\u0142cenia Zawodowego w \u015awidniku",
                "name": "Centrum Kszta\u0142cenia Zawodowego w \u015awidniku",
                "addr:country": "PL",
                "addr:postcode": "21-045",
                "addr:city": "\u015awidnik",
                "addr:street": "Szkolna",
                "addr:housenumber": "1",
                "addr:teryt:simc": 21970,
                "addr:teryt:sym_ul": 957146,
                "contact:phone": "+48 817512671",
                "contact:email": "sekretariat@pcez.pl",
                "contact:website": "http:\/\/www.pcez.pl",
                "ref:regon": "060459281",
                "operator": "Powiat \u015awidnicki",
                "operator:type": "government",
                "fixme": "w zale\u017cno\u015bci od przedmiotu dzia\u0142alno\u015bci (np. amenity=training + training=*, amenity=dancing_school, amenity=language_school, amenity=music_school) albo amenity=school, amenity=college, albo landuse=education w zale\u017cno\u015bci od tego, jakie plac\u00f3wki wchodz\u0105 w sk\u0142ad zespo\u0142u. Sprawd\u017a, kiedy stosowa\u0107 amenity=* a kiedy landuse=education.",
                "note": "Parent RSPO: 6413"
            }
        },
        {
            "id": 57139,
            "type": "Feature",
            "geometry": {
                "type": "Point",
                "coordinates": [
                    22.6976,
                    51.22649
                ]
            },
            "properties": {
                "isced:level": "4",
                "ref:rspo": 57139,
                "official_name": "Szko\u0142a Policealna Nr 1 w \u015awidniku",
                "name": "Szko\u0142a Policealna Nr 1 w \u015awidniku",
                "addr:country": "PL",
                "addr:postcode": "21-045",
                "addr:city": "\u015awidnik",
                "addr:street": "Szkolna",
                "addr:housenumber": "1",
                "addr:teryt:simc": 21970,
                "addr:teryt:sym_ul": 957146,
                "contact:phone": "+48 817512671",
                "contact:email": "sekretariat@pcez.pl",
                "ref:regon": "060115222",
                "operator": "Powiat \u015awidnicki",
                "operator:type": "government",
                "amenity": "college",
                "note": "Parent RSPO: 6413"
            }
        },
        {
            "id": 57142,
            "type": "Feature",
            "geometry": {
                "type": "Point",
                "coordinates": [
                    22.6976,
                    51.226459999999996
                ]
            },
            "properties": {
                "isced:level": "3",
                "ref:rspo": 57142,
                "official_name": "Technikum Nr 1 w \u015awidniku",
                "name": "Technikum Nr 1 w \u015awidniku",
                "addr:country": "PL",
                "addr:postcode": "21-045",
                "addr:city": "\u015awidnik",
                "addr:street": "Szkolna",
                "addr:housenumber": "1",
                "addr:teryt:simc": 21970,
                "addr:teryt:sym_ul": 957146,
                "contact:phone": "+48 817512671",
                "contact:email": "sekretariat@pcez.pl",
                "contact:website": "http:\/\/www.pcez.pl",
                "ref:regon": "060115200",
                "operator": "Powiat \u015awidnicki",
                "operator:type": "government",
                "amenity": "school",
                "note": "Parent RSPO: 6413"
            }
        },
        {
            "id": 266319,
            "type": "Feature",
            "geometry": {
                "type": "Point",
                "coordinates": [
                    22.6976,
                    51.22643
                ]
            },
            "properties": {
                "isced:level": "3",
                "ref:rspo": 266319,
                "official_name": "I Liceum Og\u00f3lnokszta\u0142c\u0105ce dla Doros\u0142ych w \u015awidniku",
                "name": "I Liceum Og\u00f3lnokszta\u0142c\u0105ce dla Doros\u0142ych w \u015awidniku",
                "addr:country": "PL",
                "addr:postcode": "21-045",
                "addr:city": "\u015awidnik",
                "addr:street": "Szkolna",
                "addr:housenumber": "1",
                "addr:teryt:simc": 21970,
                "addr:teryt:sym_ul": 957146,
                "contact:phone": "+48 817512671",
                "contact:email": "sekretariat@pcez.pl",
                "contact:website": "http:\/\/www.pcez.pl",
                "ref:regon": "369425015",
                "operator": "Powiat \u015awidnicki",
                "operator:type": "government",
                "amenity": "school",
                "note": "Parent RSPO: 6413"
            }
        }
    ]
}