{
    "type": "FeatureCollection",
    "features": [
        {
            "id": 47190,
            "type": "Feature",
            "geometry": {
                "type": "Point",
                "coordinates": [
                    22.839780807495,
                    51.135356903076
                ]
            },
            "properties": {
                "isced:level": "1;2",
                "ref:rspo": 47190,
                "official_name": "Szko\u0142a Podstawowa im. Jana Brzechwy w Jackowie",
                "name": "Szko\u0142a Podstawowa",
                "addr:postcode": "21-007",
                "addr:place": "Jack\u00f3w",
                "addr:housenumber": "21",
                "addr:city:simc": 385780,
                "phone": "+48 814670420",
                "email": "sekretariat@jackow-sp.pl",
                "website": "https:\/\/www.jackow-sp.pl",
                "ref:regon": "001288687",
                "ref:vatin": "PL7131407059",
                "operator": "Gmina Me\u0142giew",
                "operator:type": "government",
                "amenity": "school"
            }
        },
        {
            "id": 47194,
            "type": "Feature",
            "geometry": {
                "type": "Point",
                "coordinates": [
                    22.84199,
                    51.21761
                ]
            },
            "properties": {
                "isced:level": "1;2",
                "ref:rspo": 47194,
                "official_name": "Szko\u0142a Podstawowa im. Marii Konopnickiej w Dominowie",
                "name": "Szko\u0142a Podstawowa",
                "addr:postcode": "21-007",
                "addr:place": "Domin\u00f3w",
                "addr:housenumber": "78",
                "addr:city:simc": 385767,
                "phone": "+48 817572583",
                "email": "domin_szkola@poczta.onet.pl",
                "ref:regon": "001151511",
                "ref:vatin": "PL7132252386",
                "operator": "Gmina Me\u0142giew",
                "operator:type": "government",
                "amenity": "school"
            }
        },
        {
            "id": 47193,
            "type": "Feature",
            "geometry": {
                "type": "Point",
                "coordinates": [
                    22.71643,
                    51.22396
                ]
            },
            "properties": {
                "isced:level": "1;2",
                "ref:rspo": 47193,
                "official_name": "Szko\u0142a Podstawowa im. Marii W\u00f3jcik w Kr\u0119pcu",
                "name": "Szko\u0142a Podstawowa",
                "addr:postcode": "21-007",
                "addr:city": "Kr\u0119piec",
                "addr:street": "Szkolna",
                "addr:housenumber": "3",
                "addr:city:simc": 385827,
                "addr:street:sym_ul": 21970,
                "phone": "+48 814638259",
                "email": "sekretariat@sp-krepiec.pl",
                "website": "http:\/\/sp-krepiec.pl",
                "ref:regon": "001180790",
                "ref:vatin": "PL7131805535",
                "operator": "Gmina Me\u0142giew",
                "operator:type": "government",
                "amenity": "school"
            }
        },
        {
            "id": 129136,
            "type": "Feature",
            "geometry": {
                "type": "Point",
                "coordinates": [
                    22.78039,
                    51.22836
                ]
            },
            "properties": {
                "ref:rspo": 129136,
                "official_name": "Niepubliczna Poradnia Psychologiczno-Pedagogiczna",
                "name": "Niepubliczna Poradnia Psychologiczno-Pedagogiczna",
                "addr:postcode": "21-007",
                "addr:city": "Me\u0142giew",
                "addr:street": "Ko\u015bcielna",
                "addr:housenumber": "29",
                "addr:city:simc": 385862,
                "addr:street:sym_ul": 9546,
                "phone": "+48 666614221",
                "email": "alicjabonat.nppp@gmail.com",
                "ref:regon": "362491701",
                "ref:vatin": "PL7122903959",
                "operator": "Alicja Lizer-Bonat",
                "operator:type": "private",
                "healthcare": "counselling",
                "counselling_type": "education",
                "fixme": "w zale\u017cno\u015bci od przedmiotu dzia\u0142alno\u015bci (np. healthcare=counselling + counselling_type=education albo healthcare=psychotherapist)"
            }
        },
        {
            "id": 125594,
            "type": "Feature",
            "geometry": {
                "type": "Point",
                "coordinates": [
                    22.78631,
                    51.23428
                ]
            },
            "properties": {
                "ref:rspo": 125594,
                "official_name": "Przedszkole Niepubliczne \"Bartu\u015b\"",
                "name": "Przedszkole Niepubliczne \"Bartu\u015b\"",
                "addr:postcode": "21-007",
                "addr:city": "Me\u0142giew",
                "addr:street": "Partyzancka",
                "addr:housenumber": "32",
                "addr:city:simc": 385862,
                "addr:street:sym_ul": 15729,
                "phone": "+48 604261125",
                "email": "przedszkolebartus@wp.pl",
                "ref:regon": "061736587",
                "ref:vatin": "PL7131554524",
                "operator": "Dorota Galant",
                "operator:type": "private",
                "amenity": "kindergarten"
            }
        },
        {
            "id": 47188,
            "type": "Feature",
            "geometry": {
                "type": "Point",
                "coordinates": [
                    22.7850499,
                    51.23453
                ]
            },
            "properties": {
                "isced:level": "1;2",
                "ref:rspo": 47188,
                "official_name": "Szko\u0142a Podstawowa im.j\u00f3zefa Pi\u0142sudskiego w Me\u0142gwi",
                "name": "Szko\u0142a Podstawowa im.j\u00f3zefa Pi\u0142sudskiego w Me\u0142gwi",
                "addr:postcode": "21-007",
                "addr:city": "Me\u0142giew",
                "addr:street": "Partyzancka",
                "addr:housenumber": "19",
                "addr:city:simc": 385862,
                "addr:street:sym_ul": 15729,
                "phone": "+48 815049303",
                "email": "sp-melgiew@o2.pl",
                "website": "http:\/\/spmelgiew.szkolna.net",
                "ref:regon": "000653245",
                "ref:vatin": "PL7123133239",
                "operator": "Gmina Me\u0142giew",
                "operator:type": "government",
                "amenity": "school"
            }
        },
        {
            "id": 47197,
            "type": "Feature",
            "geometry": {
                "type": "Point",
                "coordinates": [
                    22.7850499,
                    51.2345
                ]
            },
            "properties": {
                "ref:rspo": 47197,
                "official_name": "Przedszkole Niepubliczne Edyta Szostakiewicz",
                "name": "Przedszkole Niepubliczne Edyta Szostakiewicz",
                "addr:postcode": "21-007",
                "addr:city": "Me\u0142giew",
                "addr:street": "Partyzancka",
                "addr:housenumber": "19",
                "addr:city:simc": 385862,
                "addr:street:sym_ul": 15729,
                "phone": "+48 814670588",
                "email": "wesole@przedszkole-melgiew.pl",
                "website": "http:\/\/przedszkole-melgiew.pl",
                "ref:regon": "061476620",
                "ref:vatin": "PL7132361299",
                "operator": "Edyta Szostakiewicz",
                "operator:type": "private",
                "amenity": "kindergarten"
            }
        },
        {
            "id": 47195,
            "type": "Feature",
            "geometry": {
                "type": "Point",
                "coordinates": [
                    22.81881,
                    51.25253
                ]
            },
            "properties": {
                "isced:level": "1;2",
                "ref:rspo": 47195,
                "official_name": "Szko\u0142a Podstawowa im. Jaworzniak\u00f3w w Krzesimowie",
                "name": "Szko\u0142a Podstawowa",
                "addr:postcode": "21-007",
                "addr:place": "Krzesim\u00f3w",
                "addr:housenumber": "116",
                "addr:city:simc": 385833,
                "phone": "+48 814670680",
                "email": "sekretariat@sp-krzesimow.pl",
                "website": "http:\/\/www.sp-krzesimow.pl",
                "ref:regon": "001151528",
                "ref:vatin": "PL7131997279",
                "operator": "Gmina Me\u0142giew",
                "operator:type": "government",
                "amenity": "school"
            }
        }
    ]
}