{
    "type": "FeatureCollection",
    "features": [
        {
            "id": 49323,
            "type": "Feature",
            "geometry": {
                "type": "Point",
                "coordinates": [
                    20.16319,
                    51.22775
                ]
            },
            "properties": {
                "isced:level": "1;2",
                "ref:rspo": 49323,
                "official_name": "Szko\u0142a Podstawowa w Sielcu",
                "name": "Szko\u0142a Podstawowa w Sielcu",
                "addr:country": "PL",
                "addr:postcode": "26-300",
                "addr:place": "Sielec",
                "addr:housenumber": "40",
                "addr:teryt:sym_ul": 547448,
                "contact:phone": "+48 447551822",
                "contact:email": "spsielec@opoczno.edu.pl",
                "contact:website": "http:\/\/www.spsielec.wikom.pl",
                "ref:regon": "590507220",
                "ref:vatin": "PL7681635185",
                "operator": "Gmina Opoczno",
                "operator:type": "government",
                "amenity": "school"
            }
        },
        {
            "id": 69887,
            "type": "Feature",
            "geometry": {
                "type": "Point",
                "coordinates": [
                    20.30334,
                    51.34685
                ]
            },
            "properties": {
                "isced:level": "1;2",
                "ref:rspo": 69887,
                "official_name": "Szko\u0142a Podstawowa w Ogonowicach im. Armii Krajowej",
                "name": "Szko\u0142a Podstawowa w Ogonowicach",
                "addr:country": "PL",
                "addr:postcode": "26-300",
                "addr:place": "Ogonowice",
                "addr:housenumber": "207A",
                "addr:teryt:sym_ul": 547365,
                "contact:phone": "+48 447551836",
                "contact:email": "zsogonowice@opoczno.edu.pl",
                "contact:website": "http:\/\/www.spogonowice.pl",
                "ref:regon": "001231799",
                "ref:vatin": "PL7681635328",
                "operator": "Gmina Opoczno",
                "operator:type": "government",
                "amenity": "school"
            }
        },
        {
            "id": 269057,
            "type": "Feature",
            "geometry": {
                "type": "Point",
                "coordinates": [
                    20.2939,
                    51.36904
                ]
            },
            "properties": {
                "ref:rspo": 269057,
                "official_name": "Przedszkole Niepubliczne Akademia Malucha",
                "name": "Przedszkole Niepubliczne Akademia Malucha",
                "addr:country": "PL",
                "addr:postcode": "26-300",
                "addr:city": "Opoczno",
                "addr:street": "Majora Hubala",
                "addr:housenumber": "3",
                "addr:teryt:simc": 40303,
                "addr:teryt:sym_ul": 967943,
                "contact:email": "aladkz@o2.pl",
                "ref:regon": "381347620",
                "operator": "Przedszkola Niepubliczne Akademia Malucha Sp\u00f3\u0142ka Z Ograniczon\u0105 Odpowiedzialno\u015bci\u0105",
                "operator:type": "private",
                "amenity": "kindergarten"
            }
        },
        {
            "id": 87289,
            "type": "Feature",
            "geometry": {
                "type": "Point",
                "coordinates": [
                    20.27788,
                    51.37232
                ]
            },
            "properties": {
                "ref:rspo": 87289,
                "official_name": "Zesp\u00f3\u0142 Szk\u00f3\u0142 Prywatnych",
                "name": "Zesp\u00f3\u0142 Szk\u00f3\u0142 Prywatnych",
                "addr:country": "PL",
                "addr:postcode": "26-300",
                "addr:city": "Opoczno",
                "addr:street": "Partyzant\u00f3w",
                "addr:housenumber": "1A",
                "addr:teryt:simc": 15733,
                "addr:teryt:sym_ul": 967943,
                "contact:phone": "+48 447555276",
                "contact:email": "poczta@zsprywopoczno.pl",
                "contact:website": "http:\/\/www.zsprywopoczno.pl",
                "ref:regon": "101502172",
                "operator": "Marek Orciuch",
                "operator:type": "private",
                "landuse": "education",
                "fixme": "amenity=school, amenity=college albo landuse=education w zale\u017cno\u015bci od tego, jakie plac\u00f3wki wchodz\u0105 w sk\u0142ad zespo\u0142u. Sprawd\u017a, kiedy stosowa\u0107 amenity=* a kiedy landuse=education.",
                "note": "Children RSPO: 90106;90107;90109;90815;120575;133422"
            }
        },
        {
            "id": 90159,
            "type": "Feature",
            "geometry": {
                "type": "Point",
                "coordinates": [
                    20.27788,
                    51.37229
                ]
            },
            "properties": {
                "ref:rspo": 90159,
                "official_name": "Centrum Kszta\u0142cenia Ustawicznego w Opocznie",
                "name": "Centrum Kszta\u0142cenia Ustawicznego w Opocznie",
                "addr:country": "PL",
                "addr:postcode": "26-300",
                "addr:city": "Opoczno",
                "addr:street": "Partyzant\u00f3w",
                "addr:housenumber": "1A",
                "addr:teryt:simc": 15733,
                "addr:teryt:sym_ul": 967943,
                "contact:phone": "+48 447552888",
                "ref:regon": "101504946",
                "operator": "Barbara Kosno",
                "operator:type": "private",
                "fixme": "w zale\u017cno\u015bci od przedmiotu dzia\u0142alno\u015bci (np. amenity=training + training=*, amenity=dancing_school, amenity=language_school, amenity=music_school)"
            }
        },
        {
            "id": 90106,
            "type": "Feature",
            "geometry": {
                "type": "Point",
                "coordinates": [
                    20.27788,
                    51.372260000000004
                ]
            },
            "properties": {
                "isced:level": "3",
                "ref:rspo": 90106,
                "official_name": "Prywatne Liceum Og\u00f3lnokszta\u0142c\u0105ce w Opocznie",
                "name": "Prywatne Liceum Og\u00f3lnokszta\u0142c\u0105ce w Opocznie",
                "addr:country": "PL",
                "addr:postcode": "26-300",
                "addr:city": "Opoczno",
                "addr:street": "Partyzant\u00f3w",
                "addr:housenumber": "1A",
                "addr:teryt:simc": 15733,
                "addr:teryt:sym_ul": 967943,
                "contact:phone": "+48 447555276",
                "contact:email": "poczta@zsprywopoczno.pl",
                "contact:website": "http:\/\/www.zsprywopoczno.pl",
                "ref:regon": "101505503",
                "operator": "Marek Orciuch",
                "operator:type": "private",
                "amenity": "school",
                "note": "Parent RSPO: 87289"
            }
        },
        {
            "id": 90107,
            "type": "Feature",
            "geometry": {
                "type": "Point",
                "coordinates": [
                    20.27788,
                    51.37223
                ]
            },
            "properties": {
                "isced:level": "4",
                "ref:rspo": 90107,
                "official_name": "Publiczna Szko\u0142a Policealna dla Doros\u0142ych w Opocznie",
                "name": "Publiczna Szko\u0142a Policealna dla Doros\u0142ych w Opocznie",
                "addr:country": "PL",
                "addr:postcode": "26-300",
                "addr:city": "Opoczno",
                "addr:street": "Partyzant\u00f3w",
                "addr:housenumber": "1A",
                "addr:teryt:simc": 15733,
                "addr:teryt:sym_ul": 967943,
                "contact:phone": "+48 447555276",
                "contact:email": "poczta@zsprywopoczno.pl",
                "ref:regon": "101505532",
                "operator": "Barbara Kosno",
                "operator:type": "private",
                "amenity": "college",
                "note": "Parent RSPO: 87289"
            }
        },
        {
            "id": 90815,
            "type": "Feature",
            "geometry": {
                "type": "Point",
                "coordinates": [
                    20.27788,
                    51.3722
                ]
            },
            "properties": {
                "ref:rspo": 90815,
                "official_name": "Prywatne Przedszkole \"Kubusia Puchatka\" w Opocznie",
                "name": "Prywatne Przedszkole \"Kubusia Puchatka\" w Opocznie",
                "addr:country": "PL",
                "addr:postcode": "26-300",
                "addr:city": "Opoczno",
                "addr:street": "Partyzant\u00f3w",
                "addr:housenumber": "1A",
                "addr:teryt:simc": 15733,
                "addr:teryt:sym_ul": 967943,
                "contact:phone": "+48 447555276",
                "contact:email": "poczta@zsprywopoczno.pl",
                "contact:website": "http:\/\/www.zsprywopoczno.pl",
                "ref:regon": "101507086",
                "operator": "Marek Orciuch",
                "operator:type": "private",
                "amenity": "kindergarten",
                "note": "Parent RSPO: 87289"
            }
        },
        {
            "id": 120575,
            "type": "Feature",
            "geometry": {
                "type": "Point",
                "coordinates": [
                    20.27788,
                    51.372170000000004
                ]
            },
            "properties": {
                "isced:level": "3",
                "ref:rspo": 120575,
                "official_name": "Publiczne Liceum Og\u00f3lnokszta\u0142c\u0105ce dla Doros\u0142ych w Opocznie",
                "name": "Publiczne Liceum Og\u00f3lnokszta\u0142c\u0105ce dla Doros\u0142ych w Opocznie",
                "addr:country": "PL",
                "addr:postcode": "26-300",
                "addr:city": "Opoczno",
                "addr:street": "Partyzant\u00f3w",
                "addr:housenumber": "1A",
                "addr:teryt:simc": 15733,
                "addr:teryt:sym_ul": 967943,
                "contact:phone": "+48 447555276",
                "contact:email": "poczta@zsprywopoczno.pl",
                "ref:regon": "101677530",
                "operator": "Barbara Kosno",
                "operator:type": "private",
                "amenity": "school",
                "note": "Parent RSPO: 87289"
            }
        },
        {
            "id": 133422,
            "type": "Feature",
            "geometry": {
                "type": "Point",
                "coordinates": [
                    20.27788,
                    51.37214
                ]
            },
            "properties": {
                "isced:level": "1;2",
                "ref:rspo": 133422,
                "official_name": "Publiczna Szko\u0142a Podstawowa Z Oddzia\u0142ami Mistrzostwa Sportowego w Opocznie",
                "name": "Publiczna Szko\u0142a Podstawowa Z Oddzia\u0142ami Mistrzostwa Sportowego w Opocznie",
                "addr:country": "PL",
                "addr:postcode": "26-300",
                "addr:city": "Opoczno",
                "addr:street": "Partyzant\u00f3w",
                "addr:housenumber": "1a",
                "addr:teryt:simc": 15733,
                "addr:teryt:sym_ul": 967943,
                "contact:phone": "+48 447555276",
                "contact:email": "poczta@zsprywopoczno.pl",
                "contact:website": "http:\/\/www.zsprywopoczno.pl",
                "ref:regon": "367268965",
                "operator": "Marek Orciuch",
                "operator:type": "private",
                "amenity": "school",
                "note": "Parent RSPO: 87289"
            }
        },
        {
            "id": 90109,
            "type": "Feature",
            "geometry": {
                "type": "Point",
                "coordinates": [
                    20.29017,
                    51.37466
                ]
            },
            "properties": {
                "ref:rspo": 90109,
                "official_name": "Bursa Szkolna w Opocznie",
                "name": "Bursa Szkolna w Opocznie",
                "addr:country": "PL",
                "addr:postcode": "26-300",
                "addr:city": "Opoczno",
                "addr:street": "Aleja Sportowa",
                "addr:housenumber": "1",
                "addr:teryt:simc": 205,
                "addr:teryt:sym_ul": 967943,
                "contact:phone": "+48 447552418",
                "ref:regon": "101505549",
                "operator": "Marek Orciuch",
                "operator:type": "private",
                "building": "dormitory",
                "note": "Parent RSPO: 87289"
            }
        },
        {
            "id": 131322,
            "type": "Feature",
            "geometry": {
                "type": "Point",
                "coordinates": [
                    20.27417,
                    51.37502
                ]
            },
            "properties": {
                "ref:rspo": 131322,
                "official_name": "Specjalny O\u015brodek Szkolno-Wychowawczy \"Centrum Edukacji I Rozwoju\" w Opocznie",
                "name": "Specjalny O\u015brodek Szkolno-Wychowawczy \"Centrum Edukacji I Rozwoju\" w Opocznie",
                "addr:country": "PL",
                "addr:postcode": "26-300",
                "addr:city": "Opoczno",
                "addr:street": "Piotrkowska",
                "addr:housenumber": "61",
                "addr:teryt:simc": 16308,
                "addr:teryt:sym_ul": 967943,
                "contact:phone": "+48 447361455",
                "contact:email": "ceir.opoczno@gmail.com",
                "ref:regon": "365115507",
                "operator": "Powiat Opoczy\u0144ski",
                "operator:type": "government",
                "amenity": "school",
                "note": "Children RSPO: 9665;9667;9668;262950"
            }
        },
        {
            "id": 9665,
            "type": "Feature",
            "geometry": {
                "type": "Point",
                "coordinates": [
                    20.27417,
                    51.37499
                ]
            },
            "properties": {
                "isced:level": "1;2",
                "ref:rspo": 9665,
                "official_name": "Szko\u0142a Podstawowa Specjalna w Opocznie",
                "name": "Szko\u0142a Podstawowa Specjalna w Opocznie",
                "addr:country": "PL",
                "addr:postcode": "26-300",
                "addr:city": "Opoczno",
                "addr:street": "Piotrkowska",
                "addr:housenumber": "61",
                "addr:teryt:simc": 16308,
                "addr:teryt:sym_ul": 967943,
                "contact:phone": "+48 447361455",
                "contact:email": "ceir.opoczno@gmail.com",
                "ref:regon": "001086802",
                "operator": "Powiat Opoczy\u0144ski",
                "operator:type": "government",
                "amenity": "school",
                "note": "Parent RSPO: 131322"
            }
        },
        {
            "id": 9667,
            "type": "Feature",
            "geometry": {
                "type": "Point",
                "coordinates": [
                    20.27417,
                    51.37496
                ]
            },
            "properties": {
                "isced:level": "3",
                "ref:rspo": 9667,
                "official_name": "Bran\u017cowa Szko\u0142a Specjalna I Stopnia Nr 2 w Opocznie",
                "name": "Bran\u017cowa Szko\u0142a Specjalna I Stopnia Nr 2 w Opocznie",
                "addr:country": "PL",
                "addr:postcode": "26-300",
                "addr:city": "Opoczno",
                "addr:street": "Piotrkowska",
                "addr:housenumber": "61",
                "addr:teryt:simc": 16308,
                "addr:teryt:sym_ul": 967943,
                "contact:phone": "+48 447361455",
                "contact:email": "ceir.opoczno@gmail.com",
                "ref:regon": "001088528",
                "operator": "Powiat Opoczy\u0144ski",
                "operator:type": "government",
                "amenity": "school",
                "note": "Parent RSPO: 131322"
            }
        },
        {
            "id": 9668,
            "type": "Feature",
            "geometry": {
                "type": "Point",
                "coordinates": [
                    20.27417,
                    51.37493
                ]
            },
            "properties": {
                "ref:rspo": 9668,
                "official_name": "Szko\u0142a Specjalna Przysposabiaj\u0105ca Do Pracy w Opocznie",
                "name": "Szko\u0142a Specjalna Przysposabiaj\u0105ca Do Pracy w Opocznie",
                "addr:country": "PL",
                "addr:postcode": "26-300",
                "addr:city": "Opoczno",
                "addr:street": "Piotrkowska",
                "addr:housenumber": "61",
                "addr:teryt:simc": 16308,
                "addr:teryt:sym_ul": 967943,
                "contact:phone": "+48 447361455",
                "contact:email": "ceir.opoczno@gmail.com",
                "ref:regon": "100244680",
                "operator": "Powiat Opoczy\u0144ski",
                "operator:type": "government",
                "amenity": "school",
                "note": "Parent RSPO: 131322"
            }
        },
        {
            "id": 262950,
            "type": "Feature",
            "geometry": {
                "type": "Point",
                "coordinates": [
                    20.27417,
                    51.3749
                ]
            },
            "properties": {
                "ref:rspo": 262950,
                "official_name": "Przedszkole Specjalne w Opocznie",
                "name": "Przedszkole Specjalne w Opocznie",
                "addr:country": "PL",
                "addr:postcode": "26-300",
                "addr:city": "Opoczno",
                "addr:street": "Piotrkowska",
                "addr:housenumber": "61",
                "addr:teryt:simc": 16308,
                "addr:teryt:sym_ul": 967943,
                "contact:phone": "+48 447361455",
                "contact:email": "ceir.opoczno@gmail.com",
                "ref:regon": "368078221",
                "operator": "Powiat Opoczy\u0144ski",
                "operator:type": "government",
                "amenity": "kindergarten",
                "note": "Parent RSPO: 131322"
            }
        },
        {
            "id": 53137,
            "type": "Feature",
            "geometry": {
                "type": "Point",
                "coordinates": [
                    20.25719,
                    51.37544
                ]
            },
            "properties": {
                "ref:rspo": 53137,
                "official_name": "Przedszkole Nr2 w Opocznie",
                "name": "Przedszkole Nr2 w Opocznie",
                "addr:country": "PL",
                "addr:postcode": "26-300",
                "addr:city": "Opoczno",
                "addr:street": "Szkolna",
                "addr:housenumber": "11",
                "addr:teryt:simc": 21970,
                "addr:teryt:sym_ul": 967943,
                "contact:phone": "+48 447551839",
                "contact:email": "przedszkole2@opoczno.edu.pl",
                "contact:website": "http:\/\/www.p2opoczno.wikom.pl\/",
                "ref:regon": "592132616",
                "ref:vatin": "PL7681334710",
                "operator": "Gmina Opoczno",
                "operator:type": "government",
                "amenity": "kindergarten"
            }
        },
        {
            "id": 75609,
            "type": "Feature",
            "geometry": {
                "type": "Point",
                "coordinates": [
                    20.28036,
                    51.37574
                ]
            },
            "properties": {
                "ref:rspo": 75609,
                "official_name": "Pa\u0144stwowa Szko\u0142a Muzyczna I St. w Opocznie",
                "name": "Pa\u0144stwowa Szko\u0142a Muzyczna I St. w Opocznie",
                "addr:country": "PL",
                "addr:postcode": "26-300",
                "addr:city": "Opoczno",
                "addr:street": "Piotrkowska",
                "addr:housenumber": "28",
                "addr:teryt:simc": 16308,
                "addr:teryt:sym_ul": 967943,
                "contact:phone": "+48 447553110",
                "contact:email": "psmopoczno@poczta.onet.pl",
                "contact:website": "http:\/\/psmopoczno.pl",
                "ref:regon": "001073432",
                "operator": "Ministerstwo Kultury I Dziedzictwa Narodowego",
                "operator:type": "public",
                "amenity": "music_school"
            }
        },
        {
            "id": 9575,
            "type": "Feature",
            "geometry": {
                "type": "Point",
                "coordinates": [
                    20.2843,
                    51.37585
                ]
            },
            "properties": {
                "isced:level": "3",
                "ref:rspo": 9575,
                "official_name": "Zaoczne Liceum Og\u00f3lnokszta\u0142c\u0105ce dla Doros\u0142ych Zdz w \u0141odzi Z Siedzib\u0105 w Opocznie",
                "name": "Zaoczne Liceum Og\u00f3lnokszta\u0142c\u0105ce dla Doros\u0142ych Zdz w \u0141odzi Z Siedzib\u0105 w Opocznie",
                "addr:country": "PL",
                "addr:postcode": "26-300",
                "addr:city": "Opoczno",
                "addr:street": "Piotrkowska",
                "addr:housenumber": "9A",
                "addr:teryt:simc": 16308,
                "addr:teryt:sym_ul": 967943,
                "contact:phone": "+48 502394084",
                "contact:email": "zdzopoczno@interia.pl",
                "ref:regon": "101471158",
                "operator": "Zak\u0142ad Doskonalenia Zawodowego W \u0141odzi",
                "operator:type": "ngo",
                "amenity": "school"
            }
        },
        {
            "id": 9580,
            "type": "Feature",
            "geometry": {
                "type": "Point",
                "coordinates": [
                    20.2843,
                    51.37582
                ]
            },
            "properties": {
                "ref:rspo": 9580,
                "official_name": "O\u015brodek Kszta\u0142cenia Zawodowego",
                "name": "O\u015brodek Kszta\u0142cenia Zawodowego",
                "addr:country": "PL",
                "addr:postcode": "26-300",
                "addr:city": "Opoczno",
                "addr:street": "Piotrkowska",
                "addr:housenumber": "9A",
                "addr:teryt:simc": 16308,
                "addr:teryt:sym_ul": 967943,
                "contact:phone": "+48 447553528",
                "contact:email": "zdzopoczno@interia.pl",
                "ref:regon": "101467139",
                "operator": "Zak\u0142ad Doskonalenia Zawodowego W \u0141odzi",
                "operator:type": "ngo",
                "fixme": "w zale\u017cno\u015bci od przedmiotu dzia\u0142alno\u015bci (np. amenity=training + training=*, amenity=dancing_school, amenity=language_school, amenity=music_school)"
            }
        },
        {
            "id": 124144,
            "type": "Feature",
            "geometry": {
                "type": "Point",
                "coordinates": [
                    20.2843,
                    51.37579
                ]
            },
            "properties": {
                "isced:level": "3",
                "ref:rspo": 124144,
                "official_name": "Bran\u017cowa Szko\u0142a I Stopnia Zdz w \u0141odzi Z Siedzib\u0105 w Opocznie",
                "name": "Bran\u017cowa Szko\u0142a I Stopnia Zdz w \u0141odzi Z Siedzib\u0105 w Opocznie",
                "addr:country": "PL",
                "addr:postcode": "26-300",
                "addr:city": "Opoczno",
                "addr:street": "Piotrkowska",
                "addr:housenumber": "9A",
                "addr:teryt:simc": 16308,
                "addr:teryt:sym_ul": 967943,
                "contact:email": "szkolyopoczno@zdz.lodz.pl",
                "ref:regon": "101825521",
                "operator": "Zak\u0142ad Doskonalenia Zawodowego W \u0141odzi",
                "operator:type": "ngo",
                "amenity": "school"
            }
        },
        {
            "id": 64610,
            "type": "Feature",
            "geometry": {
                "type": "Point",
                "coordinates": [
                    20.26911,
                    51.37586
                ]
            },
            "properties": {
                "ref:rspo": 64610,
                "official_name": "Szko\u0142a J\u0119zyk\u00f3w Obcych",
                "name": "Szko\u0142a J\u0119zyk\u00f3w Obcych",
                "addr:country": "PL",
                "addr:postcode": "26-300",
                "addr:city": "Opoczno",
                "addr:street": "Piotrkowska",
                "addr:housenumber": "104",
                "addr:teryt:simc": 16308,
                "addr:teryt:sym_ul": 967943,
                "contact:phone": "+48 447552100",
                "ref:regon": "101495265",
                "operator": "Dane Do Uzupe\u0142nienia",
                "operator:type": "private"
            }
        },
        {
            "id": 55143,
            "type": "Feature",
            "geometry": {
                "type": "Point",
                "coordinates": [
                    20.28661,
                    51.37608
                ]
            },
            "properties": {
                "ref:rspo": 55143,
                "official_name": "Prywatna Szko\u0142a J\u0119zyk\u00f3w Obcych \"Big Ben\"",
                "name": "Prywatna Szko\u0142a J\u0119zyk\u00f3w Obcych \"Big Ben\"",
                "addr:country": "PL",
                "addr:postcode": "26-300",
                "addr:city": "Opoczno",
                "addr:street": "Plac Kili\u0144skiego",
                "addr:housenumber": "23",
                "addr:teryt:simc": 51354,
                "addr:teryt:sym_ul": 967943,
                "contact:phone": "+48 447554902",
                "contact:email": "bigben@vp.pl",
                "ref:regon": "101489796",
                "operator": "Katarzyna Pawlik",
                "operator:type": "private",
                "fixme": "w zale\u017cno\u015bci od przedmiotu dzia\u0142alno\u015bci (np. amenity=training + training=*, amenity=dancing_school, amenity=language_school, amenity=music_school)"
            }
        },
        {
            "id": 121229,
            "type": "Feature",
            "geometry": {
                "type": "Point",
                "coordinates": [
                    20.34776,
                    51.3764899
                ]
            },
            "properties": {
                "isced:level": "1;2",
                "ref:rspo": 121229,
                "official_name": "Szko\u0142a Podstawowa w Dzielnej",
                "name": "Szko\u0142a Podstawowa w Dzielnej",
                "addr:country": "PL",
                "addr:postcode": "26-300",
                "addr:place": "Dzielna",
                "addr:housenumber": "64A",
                "addr:teryt:sym_ul": 547046,
                "contact:phone": "+48 447541026",
                "contact:email": "spdzielna@opoczno.edu.pl",
                "ref:regon": "101706489",
                "ref:vatin": "PL7681635104",
                "operator": "Stowarzyszenie \"W Trosce O Dzieci\" Na Rzecz Rozwoju O\u015bwiaty W Dzielnej",
                "operator:type": "ngo",
                "amenity": "school"
            }
        },
        {
            "id": 69896,
            "type": "Feature",
            "geometry": {
                "type": "Point",
                "coordinates": [
                    20.2691899,
                    51.37664
                ]
            },
            "properties": {
                "isced:level": "1;2",
                "ref:rspo": 69896,
                "official_name": "Szko\u0142a Podstawowa Nr 3 w Opocznie im. Henryka Sienkiewicza",
                "name": "Szko\u0142a Podstawowa Nr 3 w Opocznie",
                "addr:country": "PL",
                "addr:postcode": "26-300",
                "addr:city": "Opoczno",
                "addr:street": "Armii Krajowej",
                "addr:housenumber": "1",
                "addr:teryt:simc": 432,
                "addr:teryt:sym_ul": 967943,
                "contact:phone": "+48 447552888",
                "contact:email": "zss3@opoczno.edu.pl",
                "contact:website": "http:\/\/zss3.opoczno.pl",
                "ref:regon": "000816109",
                "ref:vatin": "PL7681664293",
                "operator": "Gmina Opoczno",
                "operator:type": "government",
                "amenity": "school"
            }
        },
        {
            "id": 121287,
            "type": "Feature",
            "geometry": {
                "type": "Point",
                "coordinates": [
                    20.3473653,
                    51.3767348
                ]
            },
            "properties": {
                "ref:rspo": 121287,
                "official_name": "Publiczne Stowarzyszeniowe Przedszkole w Dzielnej",
                "name": "Publiczne Stowarzyszeniowe Przedszkole w Dzielnej",
                "addr:country": "PL",
                "addr:postcode": "26-300",
                "addr:place": "Dzielna",
                "addr:housenumber": "64 A",
                "addr:teryt:sym_ul": 547046,
                "contact:email": "spdzielna@opoczno.edu.pl",
                "ref:regon": "101709536",
                "operator": "Stowarzyszenie \"W Trosce O Dzieci\" Na Rzecz Rozwoju O\u015bwiaty W Dzielnej",
                "operator:type": "ngo",
                "amenity": "kindergarten"
            }
        },
        {
            "id": 276017,
            "type": "Feature",
            "geometry": {
                "type": "Point",
                "coordinates": [
                    20.2723,
                    51.37743
                ]
            },
            "properties": {
                "isced:level": "3",
                "ref:rspo": 276017,
                "official_name": "Bran\u017cowa Szko\u0142a II Stopnia w Opocznie",
                "name": "Bran\u017cowa Szko\u0142a II Stopnia w Opocznie",
                "addr:country": "PL",
                "addr:postcode": "26-300",
                "addr:city": "Opoczno",
                "addr:street": "Wojciecha Kossaka",
                "addr:housenumber": "1",
                "addr:teryt:simc": 9464,
                "addr:teryt:sym_ul": 967943,
                "contact:phone": "+48 447552998",
                "contact:email": "sekretariat@zspnr1.pl",
                "contact:website": "http:\/\/www.zspnr1.pl",
                "ref:regon": "386965310",
                "operator": "Powiat Opoczy\u0144ski",
                "operator:type": "government",
                "amenity": "school",
                "note": "Parent RSPO: 6121"
            }
        },
        {
            "id": 14269,
            "type": "Feature",
            "geometry": {
                "type": "Point",
                "coordinates": [
                    20.27037,
                    51.37755
                ]
            },
            "properties": {
                "ref:rspo": 14269,
                "official_name": "Poradnia Psychologiczno-Pedagogiczna w Opocznie",
                "name": "Poradnia Psychologiczno-Pedagogiczna w Opocznie",
                "addr:country": "PL",
                "addr:postcode": "26-300",
                "addr:city": "Opoczno",
                "addr:street": "Armii Krajowej",
                "addr:housenumber": "2",
                "addr:teryt:simc": 432,
                "addr:teryt:sym_ul": 967943,
                "contact:phone": "+48 447416462",
                "contact:email": "sekretariat@pppopoczno.pl",
                "ref:regon": "001045861",
                "operator": "Powiat Opoczy\u0144ski",
                "operator:type": "government",
                "healthcare": "counselling",
                "counselling_type": "education",
                "fixme": "w zale\u017cno\u015bci od przedmiotu dzia\u0142alno\u015bci (np. healthcare=counselling + counselling_type=education albo healthcare=psychotherapist)",
                "note": "Children RSPO: 18284"
            }
        },
        {
            "id": 130127,
            "type": "Feature",
            "geometry": {
                "type": "Point",
                "coordinates": [
                    20.27037,
                    51.37752
                ]
            },
            "properties": {
                "ref:rspo": 130127,
                "official_name": "Bursa Nr 1 w Opocznie",
                "name": "Bursa Nr 1 w Opocznie",
                "addr:country": "PL",
                "addr:postcode": "26-300",
                "addr:city": "Opoczno",
                "addr:street": "Armii Krajowej",
                "addr:housenumber": "2",
                "addr:teryt:simc": 432,
                "addr:teryt:sym_ul": 967943,
                "contact:phone": "+48 447552998",
                "contact:email": "sekretariat@zspnr1.pl",
                "contact:website": "http:\/\/www.zspnr1.pl",
                "ref:regon": "363515533",
                "operator": "Powiat Opoczy\u0144ski",
                "operator:type": "government",
                "building": "dormitory",
                "note": "Parent RSPO: 6121"
            }
        },
        {
            "id": 18946,
            "type": "Feature",
            "geometry": {
                "type": "Point",
                "coordinates": [
                    20.27037,
                    51.37749
                ]
            },
            "properties": {
                "ref:rspo": 18946,
                "official_name": "Biblioteka Pedagogiczna w Piotrkowie Trybunalskim Filia w Opocznie",
                "name": "Biblioteka Pedagogiczna w Piotrkowie Trybunalskim Filia w Opocznie",
                "addr:country": "PL",
                "addr:postcode": "26-300",
                "addr:city": "Opoczno",
                "addr:street": "Armii Krajowej",
                "addr:housenumber": "2",
                "addr:teryt:simc": 432,
                "addr:teryt:sym_ul": 967943,
                "contact:phone": "+48 447552435",
                "contact:email": "opoczno@pedagogiczna.edu.pl",
                "ref:regon": "103210800",
                "operator": "Wojew\u00f3dztwo \u0141\u00f3dzkie",
                "operator:type": "government",
                "amenity": "library",
                "note": "Parent RSPO: 12703"
            }
        },
        {
            "id": 9320,
            "type": "Feature",
            "geometry": {
                "type": "Point",
                "coordinates": [
                    20.28504,
                    51.37763
                ]
            },
            "properties": {
                "isced:level": "3",
                "ref:rspo": 9320,
                "official_name": "I Liceum Og\u00f3lnokszta\u0142c\u0105ce im. Stefana \u017beromskiego w Opocznie",
                "name": "I Liceum Og\u00f3lnokszta\u0142c\u0105ce",
                "addr:country": "PL",
                "addr:postcode": "26-300",
                "addr:city": "Opoczno",
                "addr:street": "Stefana \u017beromskiego",
                "addr:housenumber": "3",
                "addr:teryt:simc": 26469,
                "addr:teryt:sym_ul": 967943,
                "contact:phone": "+48 447361101",
                "contact:email": "lozeromski@poczta.onet.pl",
                "contact:website": "http:\/\/www.lozeromski.opoczno.pl",
                "ref:regon": "000228460",
                "operator": "Powiat Opoczy\u0144ski",
                "operator:type": "government",
                "amenity": "school"
            }
        },
        {
            "id": 53132,
            "type": "Feature",
            "geometry": {
                "type": "Point",
                "coordinates": [
                    20.27436,
                    51.37779
                ]
            },
            "properties": {
                "ref:rspo": 53132,
                "official_name": "Przedszkole Nr 6 Z Grup\u0105 \u017b\u0142obkow\u0105 \"Zielona Dolinka\" w Opocznie",
                "name": "Przedszkole Nr 6 Z Grup\u0105 \u017b\u0142obkow\u0105 \"Zielona Dolinka\" w Opocznie",
                "addr:country": "PL",
                "addr:postcode": "26-300",
                "addr:city": "Opoczno",
                "addr:street": "Miko\u0142aja Kopernika",
                "addr:housenumber": "3",
                "addr:teryt:simc": 9282,
                "addr:teryt:sym_ul": 967943,
                "contact:phone": "+48 447551840",
                "contact:email": "przedszkole6@opoczno.edu.pl",
                "contact:website": "http:\/\/p6zielonadolinka.szkolnastrona.pl",
                "ref:regon": "592132349",
                "ref:vatin": "PL7681334762",
                "operator": "Gmina Opoczno",
                "operator:type": "government",
                "amenity": "kindergarten"
            }
        },
        {
            "id": 69891,
            "type": "Feature",
            "geometry": {
                "type": "Point",
                "coordinates": [
                    20.28734,
                    51.3778
                ]
            },
            "properties": {
                "isced:level": "1;2",
                "ref:rspo": 69891,
                "official_name": "Szko\u0142a Podstawowa Nr 2 Z Oddzia\u0142ami Integracyjnymi im. Kazimierza Wielkiego w Opocznie",
                "name": "Szko\u0142a Podstawowa Nr 2 Z Oddzia\u0142ami Integracyjnymi",
                "addr:country": "PL",
                "addr:postcode": "26-300",
                "addr:city": "Opoczno",
                "addr:street": "Inow\u0142odzka",
                "addr:housenumber": "3",
                "addr:teryt:simc": 6906,
                "addr:teryt:sym_ul": 967943,
                "contact:phone": "+48 447552559",
                "contact:email": "zss2@opoczno.edu.pl",
                "contact:website": "http:\/\/sp2opoczno.pl",
                "ref:regon": "590335350",
                "ref:vatin": "PL7681664790",
                "operator": "Gmina Opoczno",
                "operator:type": "government",
                "amenity": "school"
            }
        },
        {
            "id": 6121,
            "type": "Feature",
            "geometry": {
                "type": "Point",
                "coordinates": [
                    20.27222,
                    51.3778099
                ]
            },
            "properties": {
                "ref:rspo": 6121,
                "official_name": "Zesp\u00f3\u0142 Szk\u00f3\u0142 Powiatowych im. Stanis\u0142awa Staszica w Opocznie",
                "name": "Zesp\u00f3\u0142 Szk\u00f3\u0142 Powiatowych",
                "addr:country": "PL",
                "addr:postcode": "26-300",
                "addr:city": "Opoczno",
                "addr:street": "Wojciecha Kossaka",
                "addr:housenumber": "1A",
                "addr:teryt:simc": 9464,
                "addr:teryt:sym_ul": 967943,
                "contact:phone": "+48 447552998",
                "contact:email": "sekretariat@zspnr1.pl",
                "contact:website": "http:\/\/www.zspnr1.pl",
                "ref:regon": "000184359",
                "operator": "Powiat Opoczy\u0144ski",
                "operator:type": "government",
                "landuse": "education",
                "fixme": "amenity=school, amenity=college albo landuse=education w zale\u017cno\u015bci od tego, jakie plac\u00f3wki wchodz\u0105 w sk\u0142ad zespo\u0142u. Sprawd\u017a, kiedy stosowa\u0107 amenity=* a kiedy landuse=education.",
                "note": "Children RSPO: 8250;8251;8254;8255;120574;130127;276017"
            }
        },
        {
            "id": 8250,
            "type": "Feature",
            "geometry": {
                "type": "Point",
                "coordinates": [
                    20.27222,
                    51.3777799
                ]
            },
            "properties": {
                "isced:level": "3",
                "ref:rspo": 8250,
                "official_name": "Bran\u017cowa Szko\u0142a I Stopnia Nr 1 w Opocznie",
                "name": "Bran\u017cowa Szko\u0142a I Stopnia Nr 1 w Opocznie",
                "addr:country": "PL",
                "addr:postcode": "26-300",
                "addr:city": "Opoczno",
                "addr:street": "Wojciecha Kossaka",
                "addr:housenumber": "1a",
                "addr:teryt:simc": 9464,
                "addr:teryt:sym_ul": 967943,
                "contact:phone": "+48 447552998",
                "contact:email": "sekretariat@zspnr1.pl",
                "contact:website": "http:\/\/www.zspnr1.pl",
                "ref:regon": "592146890",
                "operator": "Powiat Opoczy\u0144ski",
                "operator:type": "government",
                "amenity": "school",
                "note": "Parent RSPO: 6121"
            }
        },
        {
            "id": 8251,
            "type": "Feature",
            "geometry": {
                "type": "Point",
                "coordinates": [
                    20.27222,
                    51.377749900000005
                ]
            },
            "properties": {
                "isced:level": "3",
                "ref:rspo": 8251,
                "official_name": "Ii Liceum Og\u00f3lnokszta\u0142c\u0105ce w Opocznie",
                "name": "Ii Liceum Og\u00f3lnokszta\u0142c\u0105ce w Opocznie",
                "addr:country": "PL",
                "addr:postcode": "26-300",
                "addr:city": "Opoczno",
                "addr:street": "Wojciecha Kossaka",
                "addr:housenumber": "1a",
                "addr:teryt:simc": 9464,
                "addr:teryt:sym_ul": 967943,
                "contact:phone": "+48 447552998",
                "contact:email": "sekretariat@zspnr1.pl",
                "contact:website": "http:\/\/www.zspnr1.pl",
                "ref:regon": "592147026",
                "operator": "Powiat Opoczy\u0144ski",
                "operator:type": "government",
                "amenity": "school",
                "note": "Parent RSPO: 6121"
            }
        },
        {
            "id": 8254,
            "type": "Feature",
            "geometry": {
                "type": "Point",
                "coordinates": [
                    20.27222,
                    51.3777199
                ]
            },
            "properties": {
                "isced:level": "3",
                "ref:rspo": 8254,
                "official_name": "Technikum w Opocznie",
                "name": "Technikum w Opocznie",
                "addr:country": "PL",
                "addr:postcode": "26-300",
                "addr:city": "Opoczno",
                "addr:street": "Wojciecha Kossaka",
                "addr:housenumber": "1a",
                "addr:teryt:simc": 9464,
                "addr:teryt:sym_ul": 967943,
                "contact:phone": "+48 447552998",
                "contact:email": "zszopoczno@wp.pl",
                "contact:website": "http:\/\/www.zspnr1.pl",
                "ref:regon": "592146914",
                "operator": "Powiat Opoczy\u0144ski",
                "operator:type": "government",
                "amenity": "school",
                "note": "Parent RSPO: 6121"
            }
        },
        {
            "id": 8255,
            "type": "Feature",
            "geometry": {
                "type": "Point",
                "coordinates": [
                    20.27222,
                    51.3776899
                ]
            },
            "properties": {
                "isced:level": "4",
                "ref:rspo": 8255,
                "official_name": "Szko\u0142a Policealna w Opocznie",
                "name": "Szko\u0142a Policealna w Opocznie",
                "addr:country": "PL",
                "addr:postcode": "26-300",
                "addr:city": "Opoczno",
                "addr:street": "Wojciecha Kossaka",
                "addr:housenumber": "1a",
                "addr:teryt:simc": 9464,
                "addr:teryt:sym_ul": 967943,
                "contact:phone": "+48 447552998",
                "contact:email": "sekretariat@zspnr1.pl",
                "contact:website": "http:\/\/www.zspnr1.pl",
                "ref:regon": "101461094",
                "operator": "Powiat Opoczy\u0144ski",
                "operator:type": "government",
                "amenity": "college",
                "note": "Parent RSPO: 6121"
            }
        },
        {
            "id": 120574,
            "type": "Feature",
            "geometry": {
                "type": "Point",
                "coordinates": [
                    20.27222,
                    51.377659900000005
                ]
            },
            "properties": {
                "isced:level": "3",
                "ref:rspo": 120574,
                "official_name": "Zaoczne Liceum Og\u00f3lnokszta\u0142c\u0105ce dla Doros\u0142ych w Opocznie",
                "name": "Zaoczne Liceum Og\u00f3lnokszta\u0142c\u0105ce dla Doros\u0142ych w Opocznie",
                "addr:country": "PL",
                "addr:postcode": "26-300",
                "addr:city": "Opoczno",
                "addr:street": "Wojciecha Kossaka",
                "addr:housenumber": "1A",
                "addr:teryt:simc": 9464,
                "addr:teryt:sym_ul": 967943,
                "contact:phone": "+48 447552998",
                "contact:email": "sekretariat@zspnr1.pl",
                "contact:website": "http:\/\/www.zspnr1.pl",
                "ref:regon": "101677517",
                "operator": "Powiat Opoczy\u0144ski",
                "operator:type": "government",
                "amenity": "school",
                "note": "Parent RSPO: 6121"
            }
        },
        {
            "id": 64609,
            "type": "Feature",
            "geometry": {
                "type": "Point",
                "coordinates": [
                    20.2862,
                    51.37859
                ]
            },
            "properties": {
                "ref:rspo": 64609,
                "official_name": "O\u015brodek Szkoleniowy \"A.t.\" S.c.",
                "name": "O\u015brodek Szkoleniowy \"A.t.\" S.c.",
                "addr:country": "PL",
                "addr:postcode": "26-300",
                "addr:city": "Opoczno",
                "addr:street": "Inow\u0142odzka",
                "addr:housenumber": "11",
                "addr:teryt:simc": 6906,
                "addr:teryt:sym_ul": 967943,
                "contact:phone": "+48 447361377",
                "contact:email": "os_at@op.pl",
                "ref:regon": "101495271",
                "operator": "Anna Ka\u017amierczyk",
                "operator:type": "private",
                "fixme": "w zale\u017cno\u015bci od przedmiotu dzia\u0142alno\u015bci (np. amenity=training + training=*, amenity=dancing_school, amenity=language_school, amenity=music_school)"
            }
        },
        {
            "id": 53138,
            "type": "Feature",
            "geometry": {
                "type": "Point",
                "coordinates": [
                    20.28333,
                    51.37986
                ]
            },
            "properties": {
                "ref:rspo": 53138,
                "official_name": "Zesp\u00f3\u0142 Szk\u00f3\u0142 Samorz\u0105dowych Nr1 im.marii Sk\u0142odowskiej - Curie w Opocznie",
                "name": "Zesp\u00f3\u0142 Szk\u00f3\u0142 Samorz\u0105dowych Nr1 im.marii Sk\u0142odowskiej - Curie w Opocznie",
                "addr:country": "PL",
                "addr:postcode": "26-300",
                "addr:city": "Opoczno",
                "addr:street": "Marii Curie-Sk\u0142odowskiej",
                "addr:housenumber": "5",
                "addr:teryt:simc": 3148,
                "addr:teryt:sym_ul": 967943,
                "contact:phone": "+48 447552640",
                "contact:email": "zss1@opoczno.edu.pl",
                "contact:website": "http:\/\/www.jedynkaopoczno.pl",
                "ref:regon": "592145458",
                "ref:vatin": "PL7681334704",
                "operator": "Gmina Opoczno",
                "operator:type": "government",
                "landuse": "education",
                "fixme": "amenity=school, amenity=college albo landuse=education w zale\u017cno\u015bci od tego, jakie plac\u00f3wki wchodz\u0105 w sk\u0142ad zespo\u0142u. Sprawd\u017a, kiedy stosowa\u0107 amenity=* a kiedy landuse=education.",
                "note": "Children RSPO: 69889;86542"
            }
        },
        {
            "id": 69889,
            "type": "Feature",
            "geometry": {
                "type": "Point",
                "coordinates": [
                    20.28333,
                    51.37983
                ]
            },
            "properties": {
                "isced:level": "1;2",
                "ref:rspo": 69889,
                "official_name": "Szko\u0142a Podstawowa Nr 1 w Opocznie im. Kornela Makuszy\u0144skiego",
                "name": "Szko\u0142a Podstawowa Nr 1 w Opocznie",
                "addr:country": "PL",
                "addr:postcode": "26-300",
                "addr:city": "Opoczno",
                "addr:street": "Marii Curie-Sk\u0142odowskiej",
                "addr:housenumber": "5",
                "addr:teryt:simc": 3148,
                "addr:teryt:sym_ul": 967943,
                "contact:phone": "+48 447552640",
                "contact:email": "zss1@opoczno.edu.pl",
                "contact:website": "http:\/\/www.sp1.opoczno.pl",
                "ref:regon": "592153564",
                "ref:vatin": "PL7681334704",
                "operator": "Gmina Opoczno",
                "operator:type": "government",
                "amenity": "school",
                "note": "Parent RSPO: 53138"
            }
        },
        {
            "id": 86542,
            "type": "Feature",
            "geometry": {
                "type": "Point",
                "coordinates": [
                    20.28333,
                    51.3798
                ]
            },
            "properties": {
                "isced:level": "3",
                "ref:rspo": 86542,
                "official_name": "Samorz\u0105dowe Liceum Og\u00f3lnokszta\u0142c\u0105ce w Opocznie",
                "name": "Samorz\u0105dowe Liceum Og\u00f3lnokszta\u0142c\u0105ce w Opocznie",
                "addr:country": "PL",
                "addr:postcode": "26-300",
                "addr:city": "Opoczno",
                "addr:street": "Marii Curie-Sk\u0142odowskiej",
                "addr:housenumber": "5",
                "addr:teryt:simc": 3148,
                "addr:teryt:sym_ul": 967943,
                "contact:phone": "+48 447552640",
                "contact:email": "zss1@opoczno.edu.pl",
                "ref:regon": "592145493",
                "operator": "Gmina Opoczno",
                "operator:type": "government",
                "amenity": "school",
                "note": "Parent RSPO: 53138"
            }
        },
        {
            "id": 69885,
            "type": "Feature",
            "geometry": {
                "type": "Point",
                "coordinates": [
                    20.38513,
                    51.3799599
                ]
            },
            "properties": {
                "isced:level": "1;2",
                "ref:rspo": 69885,
                "official_name": "Szko\u0142a Podstawowa im. Jana Paw\u0142a II w Mroczkowie Go\u015bcinnym",
                "name": "Szko\u0142a Podstawowa",
                "addr:country": "PL",
                "addr:postcode": "26-300",
                "addr:place": "Mroczk\u00f3w Go\u015bcinny",
                "addr:housenumber": "50",
                "addr:teryt:sym_ul": 547320,
                "contact:phone": "+48 447551823",
                "contact:email": "zsmroczkow@opoczno.edu.pl",
                "contact:website": "http:\/\/www.szkolamroczkow.szkolnastrona.pl\/",
                "ref:regon": "001231782",
                "ref:vatin": "PL7681671212",
                "operator": "Gmina Opoczno",
                "operator:type": "government",
                "amenity": "school"
            }
        },
        {
            "id": 262505,
            "type": "Feature",
            "geometry": {
                "type": "Point",
                "coordinates": [
                    20.38513,
                    51.3799299
                ]
            },
            "properties": {
                "ref:rspo": 262505,
                "official_name": "Powiatowe Centrum Kszta\u0142cenia Zawodowego I Ustawicznego w Mroczkowie Go\u015bcinnym",
                "name": "Powiatowe Centrum Kszta\u0142cenia Zawodowego I Ustawicznego w Mroczkowie Go\u015bcinnym",
                "addr:country": "PL",
                "addr:postcode": "26-300",
                "addr:place": "Mroczk\u00f3w Go\u015bcinny",
                "addr:housenumber": "8",
                "addr:teryt:sym_ul": 547320,
                "contact:phone": "+48 447541320",
                "contact:email": "zstmroczkow@wp.pl",
                "contact:website": "http:\/\/www.pckziu-mroczkow.pl",
                "ref:regon": "368022255",
                "operator": "Powiat Opoczy\u0144ski",
                "operator:type": "government",
                "landuse": "education",
                "fixme": "amenity=school, amenity=college albo landuse=education w zale\u017cno\u015bci od tego, jakie plac\u00f3wki wchodz\u0105 w sk\u0142ad zespo\u0142u. Sprawd\u017a, kiedy stosowa\u0107 amenity=* a kiedy landuse=education.",
                "note": "Children RSPO: 6948;6949;6951;9266;9267;9268;9271;9273;114489;120573;262668;276013;276016"
            }
        },
        {
            "id": 6948,
            "type": "Feature",
            "geometry": {
                "type": "Point",
                "coordinates": [
                    20.38513,
                    51.379899900000005
                ]
            },
            "properties": {
                "isced:level": "3",
                "ref:rspo": 6948,
                "official_name": "Technikum w Mroczkowie Go\u015bcinnym",
                "name": "Technikum w Mroczkowie Go\u015bcinnym",
                "addr:country": "PL",
                "addr:postcode": "26-300",
                "addr:place": "Mroczk\u00f3w Go\u015bcinny",
                "addr:housenumber": "8",
                "addr:teryt:sym_ul": 547320,
                "contact:phone": "+48 447541320",
                "contact:email": "zstmroczkow@wp.pl",
                "contact:website": "http:\/\/www.pckziu-mroczkow.pl",
                "ref:regon": "592188278",
                "operator": "Powiat Opoczy\u0144ski",
                "operator:type": "government",
                "amenity": "school",
                "note": "Parent RSPO: 262505"
            }
        },
        {
            "id": 6949,
            "type": "Feature",
            "geometry": {
                "type": "Point",
                "coordinates": [
                    20.38513,
                    51.3798699
                ]
            },
            "properties": {
                "isced:level": "3",
                "ref:rspo": 6949,
                "official_name": "Bran\u017cowa Szko\u0142a I Stopnia w Mroczkowie Go\u015bcinnym",
                "name": "Bran\u017cowa Szko\u0142a I Stopnia w Mroczkowie Go\u015bcinnym",
                "addr:country": "PL",
                "addr:postcode": "26-300",
                "addr:place": "Mroczk\u00f3w Go\u015bcinny",
                "addr:housenumber": "8",
                "addr:teryt:sym_ul": 547320,
                "contact:phone": "+48 447541320",
                "contact:email": "zstmroczkow@wp.pl",
                "contact:website": "http:\/\/www.pckziu-mroczkow.pl",
                "ref:regon": "592147434",
                "operator": "Powiat Opoczy\u0144ski",
                "operator:type": "government",
                "amenity": "school",
                "note": "Parent RSPO: 262505"
            }
        },
        {
            "id": 6951,
            "type": "Feature",
            "geometry": {
                "type": "Point",
                "coordinates": [
                    20.38513,
                    51.3798399
                ]
            },
            "properties": {
                "isced:level": "4",
                "ref:rspo": 6951,
                "official_name": "Szko\u0142a Policealna w Mroczkowie Go\u015bcinnym",
                "name": "Szko\u0142a Policealna w Mroczkowie Go\u015bcinnym",
                "addr:country": "PL",
                "addr:postcode": "26-300",
                "addr:place": "Mroczk\u00f3w Go\u015bcinny",
                "addr:housenumber": "8",
                "addr:teryt:sym_ul": 547320,
                "contact:phone": "+48 447541320",
                "contact:email": "zstmroczkow@wp.pl",
                "contact:website": "http:\/\/www.pckziu-mroczkow.pl",
                "ref:regon": "592296430",
                "operator": "Powiat Opoczy\u0144ski",
                "operator:type": "government",
                "amenity": "college",
                "note": "Parent RSPO: 262505"
            }
        },
        {
            "id": 114489,
            "type": "Feature",
            "geometry": {
                "type": "Point",
                "coordinates": [
                    20.38513,
                    51.379809900000005
                ]
            },
            "properties": {
                "isced:level": "3",
                "ref:rspo": 114489,
                "official_name": "Liceum Og\u00f3lnokszta\u0142c\u0105ce w Mroczkowie Go\u015bcinnym",
                "name": "Liceum Og\u00f3lnokszta\u0142c\u0105ce w Mroczkowie Go\u015bcinnym",
                "addr:country": "PL",
                "addr:postcode": "26-300",
                "addr:place": "Mroczk\u00f3w Go\u015bcinny",
                "addr:housenumber": "8",
                "addr:teryt:sym_ul": 547320,
                "contact:phone": "+48 447541320",
                "contact:email": "zstmroczkow@wp.pl",
                "contact:website": "http:\/\/www.pckziu-mroczkow.pl",
                "ref:regon": "101602360",
                "operator": "Powiat Opoczy\u0144ski",
                "operator:type": "government",
                "amenity": "school",
                "note": "Parent RSPO: 262505"
            }
        },
        {
            "id": 120573,
            "type": "Feature",
            "geometry": {
                "type": "Point",
                "coordinates": [
                    20.38513,
                    51.3797799
                ]
            },
            "properties": {
                "isced:level": "3",
                "ref:rspo": 120573,
                "official_name": "Zaoczne Liceum Og\u00f3lnokszta\u0142c\u0105ce dla Doros\u0142ych w Mroczkowie Go\u015bcinnym",
                "name": "Zaoczne Liceum Og\u00f3lnokszta\u0142c\u0105ce dla Doros\u0142ych w Mroczkowie Go\u015bcinnym",
                "addr:country": "PL",
                "addr:postcode": "26-300",
                "addr:place": "Mroczk\u00f3w Go\u015bcinny",
                "addr:housenumber": "8",
                "addr:teryt:sym_ul": 547320,
                "contact:phone": "+48 447541320",
                "contact:email": "zstmroczkow@wp.pl",
                "contact:website": "http:\/\/www.pckziu-mroczkow.pl",
                "ref:regon": "101677500",
                "operator": "Powiat Opoczy\u0144ski",
                "operator:type": "government",
                "amenity": "school",
                "note": "Parent RSPO: 262505"
            }
        },
        {
            "id": 262668,
            "type": "Feature",
            "geometry": {
                "type": "Point",
                "coordinates": [
                    20.38513,
                    51.3797499
                ]
            },
            "properties": {
                "ref:rspo": 262668,
                "official_name": "Centrum Kszta\u0142cenia Zawodowego w Mroczkowie Go\u015bcinnym",
                "name": "Centrum Kszta\u0142cenia Zawodowego w Mroczkowie Go\u015bcinnym",
                "addr:country": "PL",
                "addr:postcode": "26-300",
                "addr:place": "Mroczk\u00f3w Go\u015bcinny",
                "addr:housenumber": "8",
                "addr:teryt:sym_ul": 547320,
                "contact:phone": "+48 447541320",
                "contact:email": "zstmroczkow@wp.pl",
                "contact:website": "http:\/\/www.pckziu-mroczkow.pl",
                "ref:regon": "368049544",
                "operator": "Powiat Opoczy\u0144ski",
                "operator:type": "government",
                "fixme": "w zale\u017cno\u015bci od przedmiotu dzia\u0142alno\u015bci (np. amenity=training + training=*, amenity=dancing_school, amenity=language_school, amenity=music_school) albo amenity=school, amenity=college, albo landuse=education w zale\u017cno\u015bci od tego, jakie plac\u00f3wki wchodz\u0105 w sk\u0142ad zespo\u0142u. Sprawd\u017a, kiedy stosowa\u0107 amenity=* a kiedy landuse=education.",
                "note": "Parent RSPO: 262505"
            }
        },
        {
            "id": 276016,
            "type": "Feature",
            "geometry": {
                "type": "Point",
                "coordinates": [
                    20.38513,
                    51.379719900000005
                ]
            },
            "properties": {
                "isced:level": "3",
                "ref:rspo": 276016,
                "official_name": "Bran\u017cowa Szko\u0142a II Stopnia w Mroczkowie Go\u015bcinnym",
                "name": "Bran\u017cowa Szko\u0142a II Stopnia w Mroczkowie Go\u015bcinnym",
                "addr:country": "PL",
                "addr:postcode": "26-300",
                "addr:place": "Mroczk\u00f3w Go\u015bcinny",
                "addr:housenumber": "8",
                "addr:teryt:sym_ul": 547320,
                "contact:phone": "+48 447541320",
                "contact:email": "zstmroczkow@wp.pl",
                "contact:website": "http:\/\/www.pckziu-mroczkow.pl",
                "ref:regon": "386965304",
                "operator": "Powiat Opoczy\u0144ski",
                "operator:type": "government",
                "amenity": "school",
                "note": "Parent RSPO: 262505"
            }
        },
        {
            "id": 55142,
            "type": "Feature",
            "geometry": {
                "type": "Point",
                "coordinates": [
                    20.26964,
                    51.38005
                ]
            },
            "properties": {
                "ref:rspo": 55142,
                "official_name": "Prywatna Szko\u0142a J\u0119zyk\u00f3w Obcych \"Linguist\"",
                "name": "Prywatna Szko\u0142a J\u0119zyk\u00f3w Obcych \"Linguist\"",
                "addr:country": "PL",
                "addr:postcode": "26-300",
                "addr:city": "Opoczno",
                "addr:street": "Prymasa Stefana Wyszy\u0144skiego",
                "addr:housenumber": "2A",
                "addr:teryt:simc": 25119,
                "addr:teryt:sym_ul": 967943,
                "contact:phone": "+48 447556052",
                "contact:email": "kasia.skwara@wp.pl",
                "ref:regon": "101489750",
                "operator": "Izabela Skwara-Kucharska",
                "operator:type": "private",
                "fixme": "w zale\u017cno\u015bci od przedmiotu dzia\u0142alno\u015bci (np. amenity=training + training=*, amenity=dancing_school, amenity=language_school, amenity=music_school)"
            }
        },
        {
            "id": 53136,
            "type": "Feature",
            "geometry": {
                "type": "Point",
                "coordinates": [
                    20.27528,
                    51.38067
                ]
            },
            "properties": {
                "ref:rspo": 53136,
                "official_name": "Przedszkole Nr 8 w Opocznie",
                "name": "Przedszkole Nr 8 w Opocznie",
                "addr:country": "PL",
                "addr:postcode": "26-300",
                "addr:city": "Opoczno",
                "addr:street": "Miko\u0142aja Kopernika",
                "addr:housenumber": "10A",
                "addr:teryt:simc": 9282,
                "addr:teryt:sym_ul": 967943,
                "contact:phone": "+48 447551842",
                "contact:email": "przedszkole8@opoczno.edu.pl",
                "contact:website": "http:\/\/www.p8opoczno.wikom.pl",
                "ref:regon": "592132361",
                "ref:vatin": "PL7681334779",
                "operator": "Gmina Opoczno",
                "operator:type": "government",
                "amenity": "kindergarten"
            }
        },
        {
            "id": 49089,
            "type": "Feature",
            "geometry": {
                "type": "Point",
                "coordinates": [
                    20.2776,
                    51.38099
                ]
            },
            "properties": {
                "ref:rspo": 49089,
                "official_name": "Przedszkole Nr 5 w Opocznie",
                "name": "Przedszkole Nr 5 w Opocznie",
                "addr:country": "PL",
                "addr:postcode": "26-300",
                "addr:city": "Opoczno",
                "addr:street": "Partyzant\u00f3w",
                "addr:housenumber": "36",
                "addr:teryt:simc": 15733,
                "addr:teryt:sym_ul": 967943,
                "contact:phone": "+48 447551841",
                "contact:email": "przedszkole5@opoczno.edu.pl",
                "contact:website": "http:\/\/www.p5opoczno.wikom.pl",
                "ref:regon": "592132326",
                "ref:vatin": "PL7681334756",
                "operator": "Gmina Opoczno",
                "operator:type": "government",
                "amenity": "kindergarten"
            }
        },
        {
            "id": 276819,
            "type": "Feature",
            "geometry": {
                "type": "Point",
                "coordinates": [
                    20.28354,
                    51.3822
                ]
            },
            "properties": {
                "ref:rspo": 276819,
                "official_name": "Akademia Przedszkolaka Agnieszka Klimek",
                "name": "Akademia Przedszkolaka Agnieszka Klimek",
                "addr:country": "PL",
                "addr:postcode": "26-300",
                "addr:city": "Opoczno",
                "addr:street": "Marii Curie-Sk\u0142odowskiej",
                "addr:housenumber": "22",
                "addr:teryt:simc": 3148,
                "addr:teryt:sym_ul": 967943,
                "contact:email": "info@akademia-przedszkolaka.com",
                "contact:website": "http:\/\/www.akademia-przedszkolaka.com",
                "ref:regon": "387640030",
                "operator": "Agnieszka Klimek",
                "operator:type": "private",
                "amenity": "kindergarten"
            }
        },
        {
            "id": 273821,
            "type": "Feature",
            "geometry": {
                "type": "Point",
                "coordinates": [
                    20.30001,
                    51.38282
                ]
            },
            "properties": {
                "ref:rspo": 273821,
                "official_name": "E-Maluch 7",
                "name": "E-Maluch 7",
                "addr:country": "PL",
                "addr:postcode": "26-300",
                "addr:city": "Opoczno",
                "addr:street": "Staromiejska",
                "addr:housenumber": "75",
                "addr:teryt:simc": 20952,
                "addr:teryt:sym_ul": 967943,
                "contact:email": "emaluchgosia@gmail.com",
                "contact:website": "http:\/\/emaluch.eu",
                "ref:regon": "384680945",
                "operator": "Ma\u0142gorzata Piekarska",
                "operator:type": "private",
                "amenity": "kindergarten"
            }
        },
        {
            "id": 49321,
            "type": "Feature",
            "geometry": {
                "type": "Point",
                "coordinates": [
                    20.21734,
                    51.38309
                ]
            },
            "properties": {
                "isced:level": "1;2",
                "ref:rspo": 49321,
                "official_name": "Szko\u0142a Podstawowa w Januszewicach",
                "name": "Szko\u0142a Podstawowa w Januszewicach",
                "addr:country": "PL",
                "addr:postcode": "26-300",
                "addr:place": "Januszewice",
                "addr:housenumber": "67",
                "addr:teryt:sym_ul": 547098,
                "contact:phone": "+48 447551837",
                "contact:email": "spjanuszewice@opoczno.edu.pl",
                "contact:website": "http:\/\/www.spjanuszewice.szkolnastrona.pl",
                "ref:regon": "001231931",
                "ref:vatin": "PL7681635110",
                "operator": "Gmina Opoczno",
                "operator:type": "government",
                "amenity": "school"
            }
        },
        {
            "id": 264836,
            "type": "Feature",
            "geometry": {
                "type": "Point",
                "coordinates": [
                    20.27643,
                    51.38318
                ]
            },
            "properties": {
                "ref:rspo": 264836,
                "official_name": "Artystyczne Niepubliczne Przedszkole Z Oddzia\u0142em Integracyjnym \"Tygrysek Plus\"",
                "name": "Artystyczne Niepubliczne Przedszkole Z Oddzia\u0142em Integracyjnym \"Tygrysek Plus\"",
                "addr:country": "PL",
                "addr:postcode": "26-300",
                "addr:city": "Opoczno",
                "addr:street": "Partyzant\u00f3w",
                "addr:housenumber": "65",
                "addr:teryt:simc": 15733,
                "addr:teryt:sym_ul": 967943,
                "contact:email": "przedszkole-tygrysekplus@wp.pl",
                "contact:website": "https:\/\/tygrysek-opoczno.pl",
                "ref:regon": "368483855",
                "operator": "Karolina Urba\u0144czyk",
                "operator:type": "private",
                "amenity": "kindergarten"
            }
        },
        {
            "id": 269880,
            "type": "Feature",
            "geometry": {
                "type": "Point",
                "coordinates": [
                    20.27643,
                    51.38315
                ]
            },
            "properties": {
                "ref:rspo": 269880,
                "official_name": "Niepubliczna Poradnia Psychologiczno-Pedagogiczna Nr 2 w Opocznie",
                "name": "Niepubliczna Poradnia Psychologiczno-Pedagogiczna Nr 2 w Opocznie",
                "addr:country": "PL",
                "addr:postcode": "26-300",
                "addr:city": "Opoczno",
                "addr:street": "Partyzant\u00f3w",
                "addr:housenumber": "65",
                "addr:teryt:simc": 15733,
                "addr:teryt:sym_ul": 967943,
                "contact:email": "karolina_zd@interia.pl",
                "ref:regon": "381817421",
                "operator": "Karolina Zdziechowska-Dzierzgwa",
                "operator:type": "private",
                "healthcare": "counselling",
                "counselling_type": "education",
                "fixme": "w zale\u017cno\u015bci od przedmiotu dzia\u0142alno\u015bci (np. healthcare=counselling + counselling_type=education albo healthcare=psychotherapist)"
            }
        },
        {
            "id": 133198,
            "type": "Feature",
            "geometry": {
                "type": "Point",
                "coordinates": [
                    20.2742,
                    51.38819
                ]
            },
            "properties": {
                "ref:rspo": 133198,
                "official_name": "Niepubliczna Poradnia Psychologiczno-Pedagogiczna \"Pleciuga\" w Opocznie",
                "name": "Niepubliczna Poradnia Psychologiczno-Pedagogiczna \"Pleciuga\" w Opocznie",
                "addr:country": "PL",
                "addr:postcode": "26-300",
                "addr:city": "Opoczno",
                "addr:street": "Partyzant\u00f3w",
                "addr:housenumber": "73",
                "addr:door": "3",
                "addr:teryt:simc": 15733,
                "addr:teryt:sym_ul": 967943,
                "contact:phone": "+48 501585003",
                "contact:email": "biuro@poradniapleciuga.pl",
                "ref:regon": "366801765",
                "operator": "Magdalena Pejska",
                "operator:type": "private",
                "healthcare": "counselling",
                "counselling_type": "education",
                "fixme": "w zale\u017cno\u015bci od przedmiotu dzia\u0142alno\u015bci (np. healthcare=counselling + counselling_type=education albo healthcare=psychotherapist)"
            }
        },
        {
            "id": 49320,
            "type": "Feature",
            "geometry": {
                "type": "Point",
                "coordinates": [
                    20.36085,
                    51.38965
                ]
            },
            "properties": {
                "isced:level": "1;2",
                "ref:rspo": 49320,
                "official_name": "Szko\u0142a Podstawowa im. Stefana \u017beromskiego w Bielowicach",
                "name": "Szko\u0142a Podstawowa",
                "addr:country": "PL",
                "addr:postcode": "26-300",
                "addr:place": "Bielowice",
                "addr:housenumber": "56",
                "addr:teryt:sym_ul": 546905,
                "contact:phone": "+48 447551821",
                "contact:email": "spbielowice@opoczno.edu.pl",
                "ref:regon": "001231919",
                "ref:vatin": "PL7681506571",
                "operator": "Gmina Opoczno",
                "operator:type": "government",
                "amenity": "school"
            }
        },
        {
            "id": 121699,
            "type": "Feature",
            "geometry": {
                "type": "Point",
                "coordinates": [
                    20.36085,
                    51.38962
                ]
            },
            "properties": {
                "ref:rspo": 121699,
                "official_name": "Punkt Przedszkolny w Szkole Podstawowej im. Stefana \u017beromskiego w Bielowicach",
                "name": "Punkt Przedszkolny w Szkole Podstawowej",
                "addr:country": "PL",
                "addr:postcode": "26-300",
                "addr:place": "Bielowice",
                "addr:housenumber": "56",
                "addr:teryt:sym_ul": 546905,
                "contact:phone": "+48 447551821",
                "contact:email": "spbielowice@opoczno.edu.pl",
                "ref:regon": "101726368",
                "operator": "Gmina Opoczno",
                "operator:type": "government",
                "amenity": "kindergarten"
            }
        },
        {
            "id": 121231,
            "type": "Feature",
            "geometry": {
                "type": "Point",
                "coordinates": [
                    20.3212474,
                    51.3908328
                ]
            },
            "properties": {
                "isced:level": "1;2",
                "ref:rspo": 121231,
                "official_name": "Szko\u0142a Podstawowa w Woli Za\u0142\u0119\u017cnej",
                "name": "Szko\u0142a Podstawowa w Woli Za\u0142\u0119\u017cnej",
                "addr:country": "PL",
                "addr:postcode": "26-300",
                "addr:place": "Wola Za\u0142\u0119\u017cna",
                "addr:housenumber": "75",
                "addr:teryt:sym_ul": 547632,
                "contact:phone": "+48 447550102",
                "contact:email": "spwolazalezna@opoczno.edu.pl",
                "ref:regon": "101706466",
                "operator": "Stowarzyszenie Na Rzecz Rozwoju Wsi Wola Za\u0142\u0119\u017cna W Gminie Opoczno",
                "operator:type": "ngo",
                "amenity": "school"
            }
        },
        {
            "id": 262426,
            "type": "Feature",
            "geometry": {
                "type": "Point",
                "coordinates": [
                    20.13363,
                    51.40006
                ]
            },
            "properties": {
                "isced:level": "1;2",
                "ref:rspo": 262426,
                "official_name": "Szko\u0142a Podstawowa w Wygnanowie",
                "name": "Szko\u0142a Podstawowa w Wygnanowie",
                "addr:country": "PL",
                "addr:postcode": "26-300",
                "addr:place": "Wygnan\u00f3w",
                "addr:housenumber": "57",
                "addr:teryt:sym_ul": 547744,
                "contact:phone": "+48 447551825",
                "contact:email": "spwygnanow@opoczno.edu.pl",
                "contact:website": "http:\/\/spwygnanow.szkolnastrona.pl\/",
                "ref:regon": "368009674",
                "operator": "Gmina Opoczno",
                "operator:type": "government",
                "amenity": "school"
            }
        },
        {
            "id": 49311,
            "type": "Feature",
            "geometry": {
                "type": "Point",
                "coordinates": [
                    20.28583,
                    51.41325
                ]
            },
            "properties": {
                "ref:rspo": 49311,
                "official_name": "Przedszkole Nr 4 w Opocznie",
                "name": "Przedszkole Nr 4 w Opocznie",
                "addr:country": "PL",
                "addr:postcode": "26-300",
                "addr:city": "Opoczno",
                "addr:street": "Cypriana Kamila Norwida",
                "addr:housenumber": "2",
                "addr:teryt:simc": 14319,
                "addr:teryt:sym_ul": 967943,
                "contact:phone": "+48 447551838",
                "contact:email": "przedszkole4@opoczno.edu.pl",
                "contact:website": "http:\/\/www.p4opoczno.wikom.pl",
                "ref:regon": "592132303",
                "ref:vatin": "PL7681334733",
                "operator": "Gmina Opoczno",
                "operator:type": "government",
                "amenity": "kindergarten"
            }
        },
        {
            "id": 69883,
            "type": "Feature",
            "geometry": {
                "type": "Point",
                "coordinates": [
                    20.2618699,
                    51.41641
                ]
            },
            "properties": {
                "isced:level": "1;2",
                "ref:rspo": 69883,
                "official_name": "Szko\u0142a Podstawowa im. Tadeusza Sygiety\u0144skiego w Bukowcu Opoczy\u0144skim",
                "name": "Szko\u0142a Podstawowa",
                "addr:country": "PL",
                "addr:postcode": "26-300",
                "addr:place": "Bukowiec Opoczy\u0144ski",
                "addr:housenumber": "74",
                "addr:teryt:sym_ul": 547017,
                "contact:phone": "+48 447551826",
                "contact:email": "zsbukowiec@opoczno.edu.pl",
                "ref:regon": "001231925",
                "ref:vatin": "PL7681664301",
                "operator": "Gmina Opoczno",
                "operator:type": "government",
                "amenity": "school"
            }
        },
        {
            "id": 49315,
            "type": "Feature",
            "geometry": {
                "type": "Point",
                "coordinates": [
                    20.21466,
                    51.42602
                ]
            },
            "properties": {
                "isced:level": "1;2",
                "ref:rspo": 49315,
                "official_name": "Szko\u0142a Podstawowa w Modrzewiu Z Siedzib\u0105 w Zi\u0119bowie",
                "name": "Szko\u0142a Podstawowa w Modrzewiu Z Siedzib\u0105 w Zi\u0119bowie",
                "addr:country": "PL",
                "addr:postcode": "26-300",
                "addr:place": "Zi\u0119b\u00f3w",
                "addr:housenumber": "14",
                "addr:teryt:sym_ul": 547767,
                "contact:phone": "+48 447551829",
                "contact:email": "spmodrzew@opoczno.edu.pl",
                "ref:regon": "001231776",
                "ref:vatin": "PL7681635162",
                "operator": "Gmina Opoczno",
                "operator:type": "government",
                "amenity": "school"
            }
        },
        {
            "id": 49322,
            "type": "Feature",
            "geometry": {
                "type": "Point",
                "coordinates": [
                    20.31239,
                    51.43085
                ]
            },
            "properties": {
                "isced:level": "1;2",
                "ref:rspo": 49322,
                "official_name": "Szko\u0142a Podstawowa im.oddzia\u0142u Partyzanckiego Ak \"Doliniacy\" w Libiszowie",
                "name": "Szko\u0142a Podstawowa im.oddzia\u0142u Partyzanckiego Ak \"Doliniacy\" w Libiszowie",
                "addr:country": "PL",
                "addr:postcode": "26-300",
                "addr:place": "Libisz\u00f3w",
                "addr:housenumber": "64",
                "addr:teryt:sym_ul": 547253,
                "contact:phone": "+48 447551830",
                "contact:email": "splibiszow@opoczno.edu.pl",
                "contact:website": "https:\/\/libiszow64.edupage.org",
                "ref:regon": "001231760",
                "ref:vatin": "PL7681635156",
                "operator": "Gmina Opoczno",
                "operator:type": "government",
                "amenity": "school"
            }
        },
        {
            "id": 121228,
            "type": "Feature",
            "geometry": {
                "type": "Point",
                "coordinates": [
                    20.30048,
                    51.44639
                ]
            },
            "properties": {
                "isced:level": "1;2",
                "ref:rspo": 121228,
                "official_name": "Szko\u0142a Podstawowa w Kruszewcu",
                "name": "Szko\u0142a Podstawowa w Kruszewcu",
                "addr:country": "PL",
                "addr:postcode": "26-300",
                "addr:place": "Kruszewiec",
                "addr:housenumber": "7",
                "addr:teryt:sym_ul": 547218,
                "contact:phone": "+48 447541801",
                "contact:email": "spkruszewiec@opoczno.edu.pl",
                "ref:regon": "101706503",
                "operator": "Stowarzyszenie Na Rzecz Rozwoju O\u015bwiaty W Kruszewcu \"Nasza Szko\u0142a\"",
                "operator:type": "ngo",
                "amenity": "school"
            }
        },
        {
            "id": 49318,
            "type": "Feature",
            "geometry": {
                "type": "Point",
                "coordinates": [
                    20.24057,
                    51.45749
                ]
            },
            "properties": {
                "isced:level": "1;2",
                "ref:rspo": 49318,
                "official_name": "Szko\u0142a Podstawowa w Kra\u015bnicy",
                "name": "Szko\u0142a Podstawowa w Kra\u015bnicy",
                "addr:country": "PL",
                "addr:postcode": "26-300",
                "addr:place": "Kra\u015bnica",
                "addr:housenumber": "57",
                "addr:teryt:sym_ul": 547201,
                "contact:phone": "+48 447541703",
                "contact:email": "spkrasnica@opoczno.edu.pl",
                "ref:regon": "001231948",
                "ref:vatin": "PL7681635127",
                "operator": "Gmina Opoczno",
                "operator:type": "government",
                "amenity": "school"
            }
        }
    ]
}