{
    "type": "FeatureCollection",
    "features": [
        {
            "id": 123885,
            "type": "Feature",
            "geometry": {
                "type": "Point",
                "coordinates": [
                    20.14363,
                    51.34088
                ]
            },
            "properties": {
                "ref:rspo": 123885,
                "official_name": "Punkt Przedszkolny Przy Publicznej Szkole Podstawowej w Zachorzowie z Siedzib\u0105 w Psarach",
                "name": "Punkt Przedszkolny Przy Publicznej Szkole Podstawowej w Zachorzowie z Siedzib\u0105 w Psarach",
                "addr:postcode": "26-332",
                "addr:place": "Psary",
                "addr:housenumber": "80A",
                "addr:city:simc": 552001,
                "phone": "+48 447551864",
                "ref:regon": "101821345",
                "operator": "Gmina S\u0142awno",
                "operator:type": "government",
                "amenity": "kindergarten"
            }
        },
        {
            "id": 51847,
            "type": "Feature",
            "geometry": {
                "type": "Point",
                "coordinates": [
                    20.18006,
                    51.3454
                ]
            },
            "properties": {
                "isced:level": "1;2",
                "ref:rspo": 51847,
                "official_name": "Publiczna Szko\u0142a Podstawowa w Zachorzowie",
                "name": "Publiczna Szko\u0142a Podstawowa w Zachorzowie",
                "addr:postcode": "26-332",
                "addr:place": "Zachorz\u00f3w",
                "addr:housenumber": "62",
                "addr:city:simc": 552165,
                "phone": "+48 447551864",
                "email": "s.p.zachorzow@interia.pl",
                "website": "http:\/\/www.spzachorzow.comoj.com",
                "ref:regon": "001248535",
                "ref:vatin": "PL7681639970",
                "operator": "Gmina S\u0142awno",
                "operator:type": "government",
                "amenity": "school"
            }
        },
        {
            "id": 51838,
            "type": "Feature",
            "geometry": {
                "type": "Point",
                "coordinates": [
                    20.18186,
                    51.36531
                ]
            },
            "properties": {
                "ref:rspo": 51838,
                "official_name": "Zesp\u00f3\u0142 Szk\u00f3\u0142 Samorz\u0105dowych w Prymusowej Woli",
                "name": "Zesp\u00f3\u0142 Szk\u00f3\u0142 Samorz\u0105dowych w Prymusowej Woli",
                "addr:postcode": "26-332",
                "addr:place": "Prymusowa Wola",
                "addr:housenumber": "6",
                "addr:city:simc": 551993,
                "phone": "+48 447551866",
                "email": "zss.prymusowa.wola@gmail.com",
                "website": "http:\/\/www.prymusowa.szkoly.lodz.pl",
                "ref:regon": "592183602",
                "ref:vatin": "PL7681662503",
                "operator": "Gmina S\u0142awno",
                "operator:type": "government",
                "landuse": "education",
                "fixme": "amenity=school, amenity=college albo landuse=education w zale\u017cno\u015bci od tego, jakie plac\u00f3wki wchodz\u0105 w sk\u0142ad zespo\u0142u. Sprawd\u017a, kiedy stosowa\u0107 amenity=* a kiedy landuse=education.",
                "note": "Children RSPO: 72409;262552"
            }
        },
        {
            "id": 72409,
            "type": "Feature",
            "geometry": {
                "type": "Point",
                "coordinates": [
                    20.18186,
                    51.36528
                ]
            },
            "properties": {
                "isced:level": "3",
                "ref:rspo": 72409,
                "official_name": "Bran\u017cowa Szko\u0142a I Stopnia w Prymusowej Woli",
                "name": "Bran\u017cowa Szko\u0142a I Stopnia w Prymusowej Woli",
                "addr:postcode": "26-332",
                "addr:place": "Prymusowa Wola",
                "addr:housenumber": "6",
                "addr:city:simc": 551993,
                "phone": "+48 447551866",
                "email": "zss.prymusowa.wola@gmail.com",
                "website": "http:\/\/prymusowa.szkoly.lodz.pl",
                "ref:regon": "592183571",
                "ref:vatin": "PL7681736319",
                "operator": "Gmina S\u0142awno",
                "operator:type": "government",
                "amenity": "school",
                "note": "Parent RSPO: 51838"
            }
        },
        {
            "id": 262552,
            "type": "Feature",
            "geometry": {
                "type": "Point",
                "coordinates": [
                    20.18186,
                    51.36525
                ]
            },
            "properties": {
                "isced:level": "1;2",
                "ref:rspo": 262552,
                "official_name": "Publiczna Szko\u0142a Podstawowa w Prymusowej Woli",
                "name": "Publiczna Szko\u0142a Podstawowa w Prymusowej Woli",
                "addr:postcode": "26-332",
                "addr:place": "Prymusowa Wola",
                "addr:housenumber": "6",
                "addr:city:simc": 551987,
                "phone": "+48 447551866",
                "email": "zss.prymusowa.wola@gmail.com",
                "website": "http:\/\/www.prymusowa.szkoly.lodz.pl\/",
                "ref:regon": "368033661",
                "ref:vatin": "PL7681839491",
                "operator": "Gmina S\u0142awno",
                "operator:type": "government",
                "amenity": "school",
                "note": "Parent RSPO: 51838"
            }
        },
        {
            "id": 47512,
            "type": "Feature",
            "geometry": {
                "type": "Point",
                "coordinates": [
                    20.11521,
                    51.36804
                ]
            },
            "properties": {
                "isced:level": "1;2",
                "ref:rspo": 47512,
                "official_name": "Publiczna Szko\u0142a Podstawowa w Kozeninie",
                "name": "Publiczna Szko\u0142a Podstawowa w Kozeninie",
                "addr:postcode": "26-332",
                "addr:place": "Kozenin",
                "addr:housenumber": "34",
                "addr:city:simc": 551846,
                "phone": "+48 447551860",
                "email": "pspkozenin@interia.pl",
                "website": "http:\/\/www.pspkozenin.szkolnastrona.pl",
                "ref:regon": "001248512",
                "ref:vatin": "PL7681635334",
                "operator": "Gmina S\u0142awno",
                "operator:type": "government",
                "amenity": "school"
            }
        },
        {
            "id": 92334,
            "type": "Feature",
            "geometry": {
                "type": "Point",
                "coordinates": [
                    20.11521,
                    51.36801
                ]
            },
            "properties": {
                "ref:rspo": 92334,
                "official_name": "Punkt Przedszkolny z Siedzib\u0105 w Publicznej Szkole Podstawowej w Kozeninie",
                "name": "Punkt Przedszkolny z Siedzib\u0105 w Publicznej Szkole Podstawowej w Kozeninie",
                "addr:postcode": "26-332",
                "addr:place": "Kozenin",
                "addr:housenumber": "34",
                "addr:city:simc": 551846,
                "phone": "+48 447551860",
                "email": "pspkozenin@interia.pl",
                "website": "http:\/\/www.spkozenin.tvcc.pl",
                "ref:regon": "101510295",
                "operator": "Gmina S\u0142awno",
                "operator:type": "government",
                "amenity": "kindergarten"
            }
        },
        {
            "id": 51832,
            "type": "Feature",
            "geometry": {
                "type": "Point",
                "coordinates": [
                    20.13816,
                    51.38919
                ]
            },
            "properties": {
                "isced:level": "1;2",
                "ref:rspo": 51832,
                "official_name": "Publiczna Szko\u0142a Podstawowa im. Jana Paw\u0142a II w S\u0142awnie",
                "name": "Publiczna Szko\u0142a Podstawowa",
                "addr:postcode": "26-332",
                "addr:city": "S\u0142awno",
                "addr:street": "Szkolna",
                "addr:housenumber": "10",
                "addr:city:simc": 552053,
                "addr:street:sym_ul": 21970,
                "phone": "+48 447551858",
                "email": "spwslawnie@wp.pl",
                "website": "http:\/\/www.spslawno.szkolnastrona.pl",
                "ref:regon": "000678676",
                "ref:vatin": "PL7681633909",
                "operator": "Gmina S\u0142awno",
                "operator:type": "government",
                "amenity": "school"
            }
        },
        {
            "id": 277761,
            "type": "Feature",
            "geometry": {
                "type": "Point",
                "coordinates": [
                    20.15775,
                    51.39954
                ]
            },
            "properties": {
                "ref:rspo": 277761,
                "official_name": "Punkt Przedszkolny w Publicznej Szkole Podstawowej im. Jana Paw\u0142a II w S\u0142awnie",
                "name": "Punkt Przedszkolny w Publicznej Szkole Podstawowej",
                "addr:postcode": "26-332",
                "addr:place": "S\u0142awno",
                "addr:housenumber": "10",
                "addr:city:simc": 552053,
                "phone": "+48 447551858",
                "email": "spwslawnie@wp.pl",
                "website": "http:\/\/spslawno.szkolnastrona.pl\/",
                "ref:regon": "389440157",
                "operator": "Gmina S\u0142awno",
                "operator:type": "government",
                "amenity": "kindergarten"
            }
        },
        {
            "id": 51830,
            "type": "Feature",
            "geometry": {
                "type": "Point",
                "coordinates": [
                    20.18405,
                    51.40063
                ]
            },
            "properties": {
                "isced:level": "1;2",
                "ref:rspo": 51830,
                "official_name": "Publiczna Szko\u0142a Podstawowa im. Wandy I Henryka Ossowskich w Kunicach",
                "name": "Publiczna Szko\u0142a Podstawowa",
                "addr:postcode": "26-332",
                "addr:place": "Kunice",
                "addr:housenumber": "62a",
                "addr:city:simc": 551852,
                "phone": "+48 447551863",
                "email": "spkunice@o2.pl",
                "website": "http:\/\/www.spkunice.eu5.org",
                "ref:regon": "001248529",
                "ref:vatin": "PL7681636339",
                "operator": "Gmina S\u0142awno",
                "operator:type": "government",
                "amenity": "school"
            }
        },
        {
            "id": 92365,
            "type": "Feature",
            "geometry": {
                "type": "Point",
                "coordinates": [
                    20.18405,
                    51.4006
                ]
            },
            "properties": {
                "ref:rspo": 92365,
                "official_name": "Punkt Przedszkolny z Siedzib\u0105 w Publicznej Szkole Podstawowej im. Wandy I Henryka Ossowskich w Kunicach",
                "name": "Punkt Przedszkolny z Siedzib\u0105 w Publicznej Szkole Podstawowej",
                "addr:postcode": "26-332",
                "addr:place": "Kunice",
                "addr:housenumber": "62a",
                "addr:city:simc": 551852,
                "phone": "+48 447551863",
                "email": "spkunice@o2.pl",
                "website": "http:\/\/www.spkunice.eu5.org",
                "ref:regon": "101510250",
                "operator": "Gmina S\u0142awno",
                "operator:type": "government",
                "amenity": "kindergarten"
            }
        },
        {
            "id": 262551,
            "type": "Feature",
            "geometry": {
                "type": "Point",
                "coordinates": [
                    20.16804,
                    51.42132
                ]
            },
            "properties": {
                "isced:level": "1;2",
                "ref:rspo": 262551,
                "official_name": "Publiczna Szko\u0142a Podstawowa im. Kazimierza Wielkiego w Szadkowicach",
                "name": "Publiczna Szko\u0142a Podstawowa",
                "addr:postcode": "26-332",
                "addr:place": "Szadkowice",
                "addr:housenumber": "38A",
                "addr:city:simc": 552082,
                "phone": "+48 447551865",
                "email": "gimszadkowice@vp.pl",
                "website": "http:\/\/pspszadkowice.pl",
                "ref:regon": "368033610",
                "ref:vatin": "PL7681839516",
                "operator": "Gmina S\u0142awno",
                "operator:type": "government",
                "amenity": "school"
            }
        },
        {
            "id": 51813,
            "type": "Feature",
            "geometry": {
                "type": "Point",
                "coordinates": [
                    20.08556,
                    51.43706
                ]
            },
            "properties": {
                "isced:level": "1;2",
                "ref:rspo": 51813,
                "official_name": "Publiczna Szko\u0142a Podstawowa w Celestynowie",
                "name": "Publiczna Szko\u0142a Podstawowa w Celestynowie",
                "addr:postcode": "26-332",
                "addr:place": "Celestyn\u00f3w",
                "addr:housenumber": "24",
                "addr:city:simc": 551668,
                "phone": "+48 447551861",
                "email": "spcelestynow@vp.pl",
                "website": "http:\/\/www.spcelestynow.szkolnastrona.pl",
                "ref:regon": "001160616",
                "ref:vatin": "PL7681635311",
                "operator": "Gmina S\u0142awno",
                "operator:type": "government",
                "amenity": "school"
            }
        },
        {
            "id": 92361,
            "type": "Feature",
            "geometry": {
                "type": "Point",
                "coordinates": [
                    20.08556,
                    51.43703
                ]
            },
            "properties": {
                "ref:rspo": 92361,
                "official_name": "Punkt Przedszkolny z Siedzib\u0105 w Publicznej Szkole Podstawowej w Celestynowie",
                "name": "Punkt Przedszkolny z Siedzib\u0105 w Publicznej Szkole Podstawowej w Celestynowie",
                "addr:postcode": "26-332",
                "addr:place": "Celestyn\u00f3w",
                "addr:housenumber": "24",
                "addr:city:simc": 551668,
                "phone": "+48 447551861",
                "email": "spcelestynow@vp.pl",
                "website": "http:\/\/www.spcelestynow.szkolnastrona.pl",
                "ref:regon": "101510214",
                "operator": "Gmina S\u0142awno",
                "operator:type": "government",
                "amenity": "kindergarten"
            }
        },
        {
            "id": 47620,
            "type": "Feature",
            "geometry": {
                "type": "Point",
                "coordinates": [
                    20.14384,
                    51.43777
                ]
            },
            "properties": {
                "isced:level": "1;2",
                "ref:rspo": 47620,
                "official_name": "Publiczna Szko\u0142a Podstawowa im. Ks. Jana Twardowskiego w Kamieniu",
                "name": "Publiczna Szko\u0142a Podstawowa",
                "addr:postcode": "26-332",
                "addr:place": "Kamie\u0144",
                "addr:housenumber": "64",
                "addr:city:simc": 551800,
                "phone": "+48 447551862",
                "email": "pspwkamieniu@gmail.com",
                "website": "http:\/\/pspkamien.szkolna.net\/",
                "ref:regon": "001160728",
                "ref:vatin": "PL7681635274",
                "operator": "Gmina S\u0142awno",
                "operator:type": "government",
                "amenity": "school"
            }
        },
        {
            "id": 277760,
            "type": "Feature",
            "geometry": {
                "type": "Point",
                "coordinates": [
                    20.14384,
                    51.43774
                ]
            },
            "properties": {
                "ref:rspo": 277760,
                "official_name": "Punkt Przedszkolny w Publicznej Szkole Podstawowej im. Ks. Jana Twardowskiego w Kamieniu",
                "name": "Punkt Przedszkolny w Publicznej Szkole Podstawowej",
                "addr:postcode": "26-332",
                "addr:place": "Kamie\u0144",
                "addr:housenumber": "64",
                "addr:city:simc": 551800,
                "phone": "+48 447551862",
                "email": "pspwkamieniu@gmail.com",
                "website": "https:\/\/pspkamien.szkolna.net\/",
                "ref:regon": "389440105",
                "operator": "Gmina S\u0142awno",
                "operator:type": "government",
                "amenity": "kindergarten"
            }
        }
    ]
}