{
    "type": "FeatureCollection",
    "features": [
        {
            "id": 16793,
            "type": "Feature",
            "geometry": {
                "type": "Point",
                "coordinates": [
                    20.37,
                    51.2795599
                ]
            },
            "properties": {
                "isced:level": "1;2",
                "ref:rspo": 16793,
                "official_name": "Szko\u0142a Podstawowa w Skroninie im. \u015aw. Jana Paw\u0142a Ii",
                "name": "Szko\u0142a Podstawowa w Skroninie",
                "addr:postcode": "26-307",
                "addr:place": "Skronina",
                "addr:housenumber": "156",
                "addr:city:simc": 536640,
                "phone": "+48 447582768",
                "email": "er-61@o2.pl",
                "website": "http:\/\/www.spskroninaszkolnastrona.pl",
                "ref:regon": "001141398",
                "ref:vatin": "PL7681795977",
                "operator": "Gmina Bia\u0142acz\u00f3w",
                "operator:type": "government",
                "amenity": "school"
            }
        },
        {
            "id": 16790,
            "type": "Feature",
            "geometry": {
                "type": "Point",
                "coordinates": [
                    20.29337,
                    51.30299
                ]
            },
            "properties": {
                "isced:level": "1;2",
                "ref:rspo": 16790,
                "official_name": "Szko\u0142a Podstawowa im.adama Mickiewicza w Bia\u0142aczowie",
                "name": "Szko\u0142a Podstawowa im.adama Mickiewicza w Bia\u0142aczowie",
                "addr:postcode": "26-307",
                "addr:city": "Bia\u0142acz\u00f3w",
                "addr:street": "Szkolna",
                "addr:housenumber": "36",
                "addr:city:simc": 536350,
                "addr:street:sym_ul": 21970,
                "phone": "+48 447581412",
                "email": "spbialaczow@gmail.com",
                "website": "http:\/\/www.spbialaczow.edupage.org",
                "ref:regon": "000647397",
                "ref:vatin": "PL7681795954",
                "operator": "Gmina Bia\u0142acz\u00f3w",
                "operator:type": "government",
                "amenity": "school"
            }
        },
        {
            "id": 16792,
            "type": "Feature",
            "geometry": {
                "type": "Point",
                "coordinates": [
                    20.3560899,
                    51.309
                ]
            },
            "properties": {
                "isced:level": "1;2",
                "ref:rspo": 16792,
                "official_name": "Szko\u0142a Podstawowa w Petrykozach",
                "name": "Szko\u0142a Podstawowa w Petrykozach",
                "addr:postcode": "26-307",
                "addr:place": "Petrykozy",
                "addr:housenumber": "1",
                "addr:city:simc": 536597,
                "phone": "+48 447582760",
                "email": "szkolapod1@wp.pl",
                "website": "http:\/\/wwww.sppetrykozy.szkolnastrona.pl",
                "ref:regon": "001140476",
                "ref:vatin": "PL7681795948",
                "operator": "Gmina Bia\u0142acz\u00f3w",
                "operator:type": "government",
                "amenity": "school"
            }
        },
        {
            "id": 16791,
            "type": "Feature",
            "geometry": {
                "type": "Point",
                "coordinates": [
                    20.26729,
                    51.31608
                ]
            },
            "properties": {
                "isced:level": "1;2",
                "ref:rspo": 16791,
                "official_name": "Szko\u0142a Podstawowa im.henryka Sienkiewicza w Miedznej Drewnianej",
                "name": "Szko\u0142a Podstawowa im.henryka Sienkiewicza w Miedznej Drewnianej",
                "addr:postcode": "26-307",
                "addr:place": "Miedzna Drewniana",
                "addr:housenumber": "259",
                "addr:city:simc": 536462,
                "phone": "+48 447581417",
                "email": "szkolamiedzna.drew983@gmail.com",
                "website": "http:\/\/wwww.spmiedzdrew.szkolnastrona.pl",
                "ref:regon": "001140482",
                "ref:vatin": "PL7681795931",
                "operator": "Gmina Bia\u0142acz\u00f3w",
                "operator:type": "government",
                "amenity": "school"
            }
        }
    ]
}