{
    "type": "FeatureCollection",
    "features": [
        {
            "id": 62334,
            "type": "Feature",
            "geometry": {
                "type": "Point",
                "coordinates": [
                    20.02272,
                    51.20727
                ]
            },
            "properties": {
                "isced:level": "1;2",
                "ref:rspo": 62334,
                "official_name": "Szko\u0142a Podstawowa im. Marii Sk\u0142odowskiej-Curie w Klewie",
                "name": "Szko\u0142a Podstawowa",
                "addr:postcode": "26-330",
                "addr:place": "Klew",
                "addr:housenumber": "38",
                "addr:teryt:simc": 557719,
                "phone": "+48 447578703",
                "email": "spklew@op.pl",
                "website": "http:\/\/www.szkolawklewie.pl",
                "ref:regon": "590297572",
                "ref:vatin": "PL7681612818",
                "operator": "Gmina \u017barn\u00f3w",
                "operator:type": "government",
                "amenity": "school"
            }
        },
        {
            "id": 9266,
            "type": "Feature",
            "geometry": {
                "type": "Point",
                "coordinates": [
                    20.1754399,
                    51.24448
                ]
            },
            "properties": {
                "isced:level": "3",
                "ref:rspo": 9266,
                "official_name": "Liceum Og\u00f3lnokszta\u0142c\u0105ce w \u017barnowie",
                "name": "Liceum Og\u00f3lnokszta\u0142c\u0105ce w \u017barnowie",
                "addr:postcode": "26-330",
                "addr:city": "\u017barn\u00f3w",
                "addr:street": "17 Stycznia",
                "addr:housenumber": "15",
                "addr:teryt:simc": 558274,
                "addr:teryt:sym_ul": 21445,
                "phone": "+48 447578083",
                "email": "zszzarnow@poczta.onet.pl",
                "website": "http:\/\/www.zspzarnow.pl",
                "ref:regon": "101461875",
                "operator": "Powiat Opoczy\u0144ski",
                "operator:type": "government",
                "amenity": "school",
                "note": "Parent RSPO: 262505"
            }
        },
        {
            "id": 9267,
            "type": "Feature",
            "geometry": {
                "type": "Point",
                "coordinates": [
                    20.1754399,
                    51.24445
                ]
            },
            "properties": {
                "isced:level": "3",
                "ref:rspo": 9267,
                "official_name": "Bran\u017cowa Szko\u0142a I Stopnia w \u017barnowie",
                "name": "Bran\u017cowa Szko\u0142a I Stopnia w \u017barnowie",
                "addr:postcode": "26-330",
                "addr:city": "\u017barn\u00f3w",
                "addr:street": "17 Stycznia",
                "addr:housenumber": "15",
                "addr:teryt:simc": 558274,
                "addr:teryt:sym_ul": 21445,
                "phone": "+48 447578083",
                "email": "zszzarnow@poczta.onet.pl",
                "website": "http:\/\/www.zspzarnow.pl",
                "ref:regon": "590625556",
                "operator": "Powiat Opoczy\u0144ski",
                "operator:type": "government",
                "amenity": "school",
                "note": "Parent RSPO: 262505"
            }
        },
        {
            "id": 9268,
            "type": "Feature",
            "geometry": {
                "type": "Point",
                "coordinates": [
                    20.1754399,
                    51.244420000000005
                ]
            },
            "properties": {
                "isced:level": "3",
                "ref:rspo": 9268,
                "official_name": "Technikum w \u017barnowie",
                "name": "Technikum w \u017barnowie",
                "addr:postcode": "26-330",
                "addr:city": "\u017barn\u00f3w",
                "addr:street": "17 Stycznia",
                "addr:housenumber": "15",
                "addr:teryt:simc": 558274,
                "addr:teryt:sym_ul": 21445,
                "phone": "+48 447578083",
                "email": "zszzarnow@poczta.onet.pl",
                "website": "http:\/\/www.zspzarnow.pl",
                "ref:regon": "100395610",
                "operator": "Powiat Opoczy\u0144ski",
                "operator:type": "government",
                "amenity": "school",
                "note": "Parent RSPO: 262505"
            }
        },
        {
            "id": 9271,
            "type": "Feature",
            "geometry": {
                "type": "Point",
                "coordinates": [
                    20.1754399,
                    51.24439
                ]
            },
            "properties": {
                "isced:level": "3",
                "ref:rspo": 9271,
                "official_name": "Zaoczne Liceum Og\u00f3lnokszta\u0142c\u0105ce dla Doros\u0142ych w \u017barnowie",
                "name": "Zaoczne Liceum Og\u00f3lnokszta\u0142c\u0105ce dla Doros\u0142ych w \u017barnowie",
                "addr:postcode": "26-330",
                "addr:city": "\u017barn\u00f3w",
                "addr:street": "17 Stycznia",
                "addr:housenumber": "15",
                "addr:teryt:simc": 558274,
                "addr:teryt:sym_ul": 21445,
                "phone": "+48 447578083",
                "email": "zszzarnow@poczta.onet.pl",
                "website": "http:\/\/www.zspzarnow.pl",
                "ref:regon": "100243768",
                "operator": "Powiat Opoczy\u0144ski",
                "operator:type": "government",
                "amenity": "school",
                "note": "Parent RSPO: 262505"
            }
        },
        {
            "id": 9273,
            "type": "Feature",
            "geometry": {
                "type": "Point",
                "coordinates": [
                    20.1754399,
                    51.24436
                ]
            },
            "properties": {
                "isced:level": "4",
                "ref:rspo": 9273,
                "official_name": "Szko\u0142a Policealna w \u017barnowie",
                "name": "Szko\u0142a Policealna w \u017barnowie",
                "addr:postcode": "26-330",
                "addr:city": "\u017barn\u00f3w",
                "addr:street": "17 Stycznia",
                "addr:housenumber": "15",
                "addr:teryt:simc": 558274,
                "addr:teryt:sym_ul": 21445,
                "phone": "+48 447578083",
                "email": "zszzarnow@poczta.onet.pl",
                "website": "http:\/\/www.zspzarnow.pl",
                "ref:regon": "592295880",
                "operator": "Powiat Opoczy\u0144ski",
                "operator:type": "government",
                "amenity": "college",
                "note": "Parent RSPO: 262505"
            }
        },
        {
            "id": 276013,
            "type": "Feature",
            "geometry": {
                "type": "Point",
                "coordinates": [
                    20.1754399,
                    51.244330000000005
                ]
            },
            "properties": {
                "isced:level": "3",
                "ref:rspo": 276013,
                "official_name": "Bran\u017cowa Szko\u0142a II Stopnia w \u017barnowie",
                "name": "Bran\u017cowa Szko\u0142a II Stopnia w \u017barnowie",
                "addr:postcode": "26-330",
                "addr:city": "\u017barn\u00f3w",
                "addr:street": "17 Stycznia",
                "addr:housenumber": "15",
                "addr:teryt:simc": 558274,
                "addr:teryt:sym_ul": 21445,
                "phone": "+48 447578083",
                "email": "zszzarnow@poczta.onet.pl",
                "website": "http:\/\/www.zspzarnow.pl",
                "ref:regon": "386965209",
                "operator": "Powiat Opoczy\u0144ski",
                "operator:type": "government",
                "amenity": "school",
                "note": "Parent RSPO: 262505"
            }
        },
        {
            "id": 14744,
            "type": "Feature",
            "geometry": {
                "type": "Point",
                "coordinates": [
                    20.16969,
                    51.24642
                ]
            },
            "properties": {
                "isced:level": "1;2",
                "ref:rspo": 14744,
                "official_name": "Szko\u0142a Podstawowa im. Juliana Bartoszewicza w \u017barnowie",
                "name": "Szko\u0142a Podstawowa",
                "addr:postcode": "26-330",
                "addr:city": "\u017barn\u00f3w",
                "addr:street": "Przedborska",
                "addr:housenumber": "10",
                "addr:teryt:simc": 558274,
                "addr:teryt:sym_ul": 17654,
                "phone": "+48 447577011",
                "email": "spzarnow@poczta.onet.pl",
                "website": "http:\/\/spzarnow.pl",
                "ref:regon": "000678707",
                "ref:vatin": "PL7681838178",
                "operator": "Gmina \u017barn\u00f3w",
                "operator:type": "government",
                "amenity": "school"
            }
        },
        {
            "id": 84379,
            "type": "Feature",
            "geometry": {
                "type": "Point",
                "coordinates": [
                    20.16969,
                    51.24639
                ]
            },
            "properties": {
                "ref:rspo": 84379,
                "official_name": "Niepubliczne Przedszkole \"Radosna Dolinka\" S.c.",
                "name": "Niepubliczne Przedszkole \"Radosna Dolinka\" S.c.",
                "addr:postcode": "26-330",
                "addr:city": "\u017barn\u00f3w",
                "addr:street": "Przedborska",
                "addr:housenumber": "10",
                "addr:teryt:simc": 558274,
                "addr:teryt:sym_ul": 17654,
                "phone": "+48 605217991",
                "email": "radosnadolinka@op.pl",
                "website": "http:\/\/www.radosnadolinka.pl",
                "ref:regon": "101500316",
                "ref:vatin": "PL7681832106",
                "operator": "Niepubliczny Punkt Przedszkolny \"Radosna Dolinka\" S.c. A.krawczyk,S.biega\u0142a",
                "operator:type": "private",
                "amenity": "kindergarten"
            }
        }
    ]
}