{
    "type": "FeatureCollection",
    "features": [
        {
            "id": 90234,
            "type": "Feature",
            "geometry": {
                "type": "Point",
                "coordinates": [
                    20.11047,
                    51.30262
                ]
            },
            "properties": {
                "isced:level": "1;2",
                "ref:rspo": 90234,
                "official_name": "Szko\u0142a Podstawowa im. Oddzia\u0142u Partyzanckiego Armii Krajowej \"B\u0142ysk\" w Parady\u017cu",
                "name": "Szko\u0142a Podstawowa",
                "addr:country": "PL",
                "addr:postcode": "26-333",
                "addr:city": "Parady\u017c",
                "addr:street": "Przedborska",
                "addr:housenumber": "29",
                "addr:teryt:simc": 17654,
                "addr:teryt:sym_ul": 547997,
                "contact:phone": "+48 447584025",
                "contact:email": "spparadyz@gmail.com",
                "contact:website": "http:\/\/www.spparadyz.szkolnastrona.pl\/",
                "ref:regon": "000782445",
                "ref:vatin": "PL7681623733",
                "operator": "Gmina Parady\u017c",
                "operator:type": "government",
                "amenity": "school"
            }
        },
        {
            "id": 129398,
            "type": "Feature",
            "geometry": {
                "type": "Point",
                "coordinates": [
                    20.11047,
                    51.302589999999995
                ]
            },
            "properties": {
                "ref:rspo": 129398,
                "official_name": "Punkt Przedszkolny \"Dzieciniec\"",
                "name": "Punkt Przedszkolny \"Dzieciniec\"",
                "addr:country": "PL",
                "addr:postcode": "26-333",
                "addr:city": "Parady\u017c",
                "addr:street": "Przedborska",
                "addr:housenumber": "29",
                "addr:teryt:simc": 17654,
                "addr:teryt:sym_ul": 547997,
                "contact:email": "monikakarkocha@gmail.com",
                "ref:regon": "362580729",
                "operator": "Stowarzyszenie \"Parady\u017c Dzieciom\"",
                "operator:type": "ngo",
                "amenity": "kindergarten"
            }
        },
        {
            "id": 90236,
            "type": "Feature",
            "geometry": {
                "type": "Point",
                "coordinates": [
                    20.16533,
                    51.31828
                ]
            },
            "properties": {
                "isced:level": "1;2",
                "ref:rspo": 90236,
                "official_name": "Szko\u0142a Podstawowa w Soko\u0142owie",
                "name": "Szko\u0142a Podstawowa w Soko\u0142owie",
                "addr:country": "PL",
                "addr:postcode": "26-333",
                "addr:place": "Grzyma\u0142\u00f3w",
                "addr:housenumber": "38",
                "addr:teryt:sym_ul": 547900,
                "contact:phone": "+48 447584023",
                "contact:email": "spsokolow@op.pl",
                "ref:regon": "001161107",
                "ref:vatin": "PL7681622567",
                "operator": "Gmina Parady\u017c",
                "operator:type": "government",
                "amenity": "school"
            }
        },
        {
            "id": 90237,
            "type": "Feature",
            "geometry": {
                "type": "Point",
                "coordinates": [
                    20.0384567,
                    51.3273765
                ]
            },
            "properties": {
                "isced:level": "1;2",
                "ref:rspo": 90237,
                "official_name": "Szko\u0142a Podstawowa im. Kardyna\u0142a Stefana Wyszy\u0144skiego Prymasa Tysi\u0105clecia w W\u00f3jcinie",
                "name": "Szko\u0142a Podstawowa",
                "addr:country": "PL",
                "addr:postcode": "26-333",
                "addr:place": "W\u00f3jcin A",
                "addr:housenumber": "16",
                "addr:teryt:sym_ul": 548152,
                "contact:phone": "+48 447585155",
                "contact:email": "spwojcin@wp.pl",
                "ref:regon": "001161113",
                "ref:vatin": "PL7681623791",
                "operator": "Gmina Parady\u017c",
                "operator:type": "government",
                "amenity": "school"
            }
        },
        {
            "id": 110360,
            "type": "Feature",
            "geometry": {
                "type": "Point",
                "coordinates": [
                    20.0384567,
                    51.3273465
                ]
            },
            "properties": {
                "ref:rspo": 110360,
                "official_name": "Opoczy\u0144ski O\u015brodek Przedszkolny w W\u00f3jcinie",
                "name": "Opoczy\u0144ski O\u015brodek Przedszkolny w W\u00f3jcinie",
                "addr:country": "PL",
                "addr:postcode": "26-333",
                "addr:place": "W\u00f3jcin A",
                "addr:housenumber": "16",
                "addr:teryt:sym_ul": 548152,
                "contact:phone": "+48 508503754",
                "contact:email": "dar_dla_potrzebujacych@wp.pl",
                "contact:website": "http:\/\/www.dardlapotrzebujacych.pl",
                "ref:regon": "101564500",
                "ref:vatin": "PL7681798208",
                "operator": "Dane Do Uzupe\u0142nienia",
                "operator:type": "private",
                "amenity": "kindergarten"
            }
        }
    ]
}