{
    "type": "FeatureCollection",
    "features": [
        {
            "id": 103876,
            "type": "Feature",
            "geometry": {
                "type": "Point",
                "coordinates": [
                    20.0841299,
                    51.3495
                ]
            },
            "properties": {
                "isced:level": "1;2",
                "ref:rspo": 103876,
                "official_name": "Szko\u0142a Podstawowa im. Marii Konopnickiej w Stoku",
                "name": "Szko\u0142a Podstawowa",
                "addr:country": "PL",
                "addr:postcode": "26-341",
                "addr:place": "Stok",
                "addr:housenumber": "40",
                "addr:teryt:simc": 546242,
                "contact:phone": "+48 447561511",
                "contact:email": "spstok@poczta.onet.pl",
                "ref:regon": "001159719",
                "ref:vatin": "PL7681621579",
                "operator": "Gmina Mniszk\u00f3w",
                "operator:type": "government",
                "amenity": "school"
            }
        },
        {
            "id": 126130,
            "type": "Feature",
            "geometry": {
                "type": "Point",
                "coordinates": [
                    20.03049,
                    51.36982
                ]
            },
            "properties": {
                "ref:rspo": 126130,
                "official_name": "Punkt Przedszkolny Przy Szkole Podstawowej w Mniszkowie",
                "name": "Punkt Przedszkolny Przy Szkole Podstawowej w Mniszkowie",
                "addr:country": "PL",
                "addr:postcode": "26-341",
                "addr:city": "Mniszk\u00f3w",
                "addr:street": "Piotrkowska",
                "addr:housenumber": "74",
                "addr:teryt:simc": 546118,
                "addr:teryt:sym_ul": 16308,
                "contact:phone": "+48 447561584",
                "contact:email": "gim_mniszkow@poczta.fm",
                "ref:regon": "360154394",
                "operator": "Gmina Mniszk\u00f3w",
                "operator:type": "government",
                "amenity": "kindergarten"
            }
        },
        {
            "id": 134000,
            "type": "Feature",
            "geometry": {
                "type": "Point",
                "coordinates": [
                    20.03138,
                    51.3700199
                ]
            },
            "properties": {
                "isced:level": "1;2",
                "ref:rspo": 134000,
                "official_name": "Szko\u0142a Podstawowa w Mniszkowie",
                "name": "Szko\u0142a Podstawowa w Mniszkowie",
                "addr:country": "PL",
                "addr:postcode": "26-341",
                "addr:city": "Mniszk\u00f3w",
                "addr:street": "Piotrkowska",
                "addr:housenumber": "72",
                "addr:teryt:simc": 546118,
                "addr:teryt:sym_ul": 16308,
                "contact:phone": "+48 447561584",
                "contact:email": "gim_mniszkow@poczta.fm",
                "ref:regon": "367770268",
                "ref:vatin": "PL7681839485",
                "operator": "Gmina Mniszk\u00f3w",
                "operator:type": "government",
                "amenity": "school"
            }
        },
        {
            "id": 23265,
            "type": "Feature",
            "geometry": {
                "type": "Point",
                "coordinates": [
                    19.96519,
                    51.38811
                ]
            },
            "properties": {
                "isced:level": "1;2",
                "ref:rspo": 23265,
                "official_name": "Szko\u0142a Podstawowa im. P\u0142k. W. Kucharskiego \"Wichra\" w B\u0142ogiem Rz\u0105dowym",
                "name": "Szko\u0142a Podstawowa",
                "addr:country": "PL",
                "addr:postcode": "26-341",
                "addr:place": "B\u0142ogie Rz\u0105dowe",
                "addr:housenumber": "39",
                "addr:teryt:simc": 545834,
                "contact:phone": "+48 447561011",
                "contact:email": "szkolablogie@wp.pl",
                "contact:website": "http:\/\/www.szkolablogie.szkolnastrona.pl",
                "ref:regon": "001160970",
                "ref:vatin": "PL7681621562",
                "operator": "Gmina Mniszk\u00f3w",
                "operator:type": "government",
                "amenity": "school"
            }
        },
        {
            "id": 23266,
            "type": "Feature",
            "geometry": {
                "type": "Point",
                "coordinates": [
                    20.02384,
                    51.41897
                ]
            },
            "properties": {
                "isced:level": "1;2",
                "ref:rspo": 23266,
                "official_name": "Szko\u0142a Podstawowa w Bukowcu Nad Pilic\u0105",
                "name": "Szko\u0142a Podstawowa w Bukowcu Nad Pilic\u0105",
                "addr:country": "PL",
                "addr:postcode": "26-341",
                "addr:place": "Bukowiec nad Pilic\u0105",
                "addr:housenumber": "34",
                "addr:teryt:simc": 545870,
                "contact:phone": "+48 447561508",
                "contact:email": "spbuknp@interia.pl",
                "contact:website": "http:\/\/www.spbukowiec.szkolnastrona.pl",
                "ref:regon": "001160987",
                "ref:vatin": "PL7681621556",
                "operator": "Gmina Mniszk\u00f3w",
                "operator:type": "government",
                "amenity": "school"
            }
        }
    ]
}