{"type":"FeatureCollection","features":[{"id":11307,"type":"Feature","geometry":{"type":"Point","coordinates":[18.59804,52.4825]},"properties":{"isced:level":"1;2","ref:rspo":11307,"official_name":"Publiczna Szko\u0142a Podstawowa im. W\u0142adys\u0142awa Broniewskiego w Byczu","name":"Publiczna Szko\u0142a Podstawowa","addr:country":"PL","addr:postcode":"88-230","addr:place":"Bycz","addr:housenumber":"23","addr:teryt:sym_ul":867302,"contact:phone":"+48 542654262","contact:email":"sp_bycz@piotrkowkujawski.pl","ref:regon":"001136693","ref:vatin":"PL8891488555","operator":"Miasto I Gmina Piotrk\u00f3w Kujawski","operator:type":"government","amenity":"school"}},{"id":11279,"type":"Feature","geometry":{"type":"Point","coordinates":[18.4641787,52.5107986]},"properties":{"isced:level":"1;2","ref:rspo":11279,"official_name":"Publiczna Szko\u0142a Podstawowa w D\u0119bo\u0142\u0119ce","name":"Publiczna Szko\u0142a Podstawowa w D\u0119bo\u0142\u0119ce","addr:country":"PL","addr:postcode":"88-230","addr:place":"D\u0119bo\u0142\u0119ka","addr:housenumber":"7","addr:teryt:sym_ul":867331,"contact:phone":"+48 542654032","contact:email":"sp_deboleka@piotrkowkujawski.pl","ref:regon":"001134926","ref:vatin":"PL8891488561","operator":"Miasto I Gmina Piotrk\u00f3w Kujawski","operator:type":"government","amenity":"school"}},{"id":104618,"type":"Feature","geometry":{"type":"Point","coordinates":[18.50541,52.55078]},"properties":{"isced:level":"3","ref:rspo":104618,"official_name":"Spo\u0142eczna Bran\u017cowa Szko\u0142a I Stopnia","name":"Spo\u0142eczna Bran\u017cowa Szko\u0142a I Stopnia","addr:country":"PL","addr:postcode":"88-230","addr:city":"Piotrk\u00f3w Kujawski","addr:street":"ul. W\u0142oc\u0142awska","addr:housenumber":"39","addr:teryt:simc":24504,"addr:teryt:sym_ul":867510,"contact:phone":"+48 542655100","contact:email":"szkolyspolecznepiotrkow@wp.pl","contact:website":"http:\/\/www.szkolyspolecznepiotrkow.pl","ref:regon":"341367386","ref:vatin":"PL8891455828","operator":"Stowarzyszenie Rozwoju Miasta I Gminy Piotrk\u00f3w Kujawski","operator:type":"ngo","amenity":"school"}},{"id":104619,"type":"Feature","geometry":{"type":"Point","coordinates":[18.50541,52.55075]},"properties":{"isced:level":"3","ref:rspo":104619,"official_name":"Spo\u0142eczne Liceum Og\u00f3lnokszta\u0142cace","name":"Spo\u0142eczne Liceum Og\u00f3lnokszta\u0142cace","addr:country":"PL","addr:postcode":"88-230","addr:city":"Piotrk\u00f3w Kujawski","addr:street":"ul. W\u0142oc\u0142awska","addr:housenumber":"39","addr:teryt:simc":24504,"addr:teryt:sym_ul":867510,"contact:phone":"+48 542655100","contact:email":"szkolyspolecznepiotrkow@wp.pl","ref:regon":"341367370","ref:vatin":"PL8891455828","operator":"Stowarzyszenie Rozwoju Miasta I Gminy Piotrk\u00f3w Kujawski","operator:type":"ngo","amenity":"school"}},{"id":128211,"type":"Feature","geometry":{"type":"Point","coordinates":[18.50541,52.550720000000005]},"properties":{"isced:level":"3","ref:rspo":128211,"official_name":"Spo\u0142eczne Liceum Og\u00f3lnokszta\u0142\u0105ce dla Doros\u0142ych","name":"Spo\u0142eczne Liceum Og\u00f3lnokszta\u0142\u0105ce dla Doros\u0142ych","addr:country":"PL","addr:postcode":"88-230","addr:city":"Piotrk\u00f3w Kujawski","addr:street":"ul. W\u0142oc\u0142awska","addr:housenumber":"39","addr:teryt:simc":24504,"addr:teryt:sym_ul":867510,"contact:phone":"+48 542655100","contact:email":"szkolyspolecznepiotrkow@wp.pl","ref:regon":"362177436","ref:vatin":"PL8891455828","operator":"Stowarzyszenie Rozwoju Miasta I Gminy Piotrk\u00f3w Kujawski","operator:type":"ngo","amenity":"school"}},{"id":12335,"type":"Feature","geometry":{"type":"Point","coordinates":[18.4882199,52.55111]},"properties":{"ref:rspo":12335,"official_name":"Przedszkole Samorz\u0105dowe w Piotrkowie Kujawskim","name":"Przedszkole Samorz\u0105dowe w Piotrkowie Kujawskim","addr:country":"PL","addr:postcode":"88-230","addr:city":"Piotrk\u00f3w Kujawski","addr:street":"ul. Pozna\u0144ska","addr:housenumber":"21","addr:teryt:simc":17394,"addr:teryt:sym_ul":867510,"contact:phone":"+48 542654169","contact:email":"przedszkole@piotrkowkujawski.pl","contact:website":"http:\/\/www.przedszkolekujawiaczek.dlaprzedszkoli.eu\/","ref:regon":"910038722","ref:vatin":"PL8891488549","operator":"Miasto I Gmina Piotrk\u00f3w Kujawski","operator:type":"government","amenity":"kindergarten"}},{"id":21587,"type":"Feature","geometry":{"type":"Point","coordinates":[18.50373,52.55112]},"properties":{"isced:level":"1;2","ref:rspo":21587,"official_name":"Publiczna Szko\u0142a Podstawowa w Piotrkowie Kujawskim","name":"Publiczna Szko\u0142a Podstawowa w Piotrkowie Kujawskim","addr:country":"PL","addr:postcode":"88-230","addr:city":"Piotrk\u00f3w Kujawski","addr:street":"ul. W\u0142oc\u0142awska","addr:housenumber":"37","addr:teryt:simc":24504,"addr:teryt:sym_ul":867510,"contact:phone":"+48 542654153","contact:email":"sp_piotrkow@piotrkowkujawski.pl","ref:regon":"000269765","ref:vatin":"PL8891512549","operator":"Miasto I Gmina Piotrk\u00f3w Kujawski","operator:type":"government","amenity":"school"}}]}