{"type":"FeatureCollection","features":[{"id":13306,"type":"Feature","geometry":{"type":"Point","coordinates":[18.5282899,52.61877]},"properties":{"ref:rspo":13306,"official_name":"Zesp\u00f3\u0142 Szko\u0142 Mechanicznych","name":"Zesp\u00f3\u0142 Szko\u0142 Mechanicznych","addr:country":"PL","addr:postcode":"88-200","addr:city":"Radziej\u00f3w","addr:street":"ul. Ko\u015bciuszki","addr:housenumber":"58","addr:teryt:simc":9572,"addr:teryt:sym_ul":986060,"contact:phone":"+48 542853625","contact:email":"poczta@zsmradziejow.pl","contact:website":"http:\/\/www.zsmradziejow.pl","ref:regon":"000191508","ref:vatin":"PL8891257904","operator":"Powiat Radziejowski","operator:type":"government","landuse":"education","fixme":"amenity=school, amenity=college albo landuse=education w zale\u017cno\u015bci od tego, jakie plac\u00f3wki wchodz\u0105 w sk\u0142ad zespo\u0142u. Sprawd\u017a, kiedy stosowa\u0107 amenity=* a kiedy landuse=education.","note":"Children RSPO: 110315;110317;110318;115021;276044"}},{"id":13310,"type":"Feature","geometry":{"type":"Point","coordinates":[18.5282899,52.618739999999995]},"properties":{"ref:rspo":13310,"official_name":"Poradnia Psychologiczno - Pedagogiczna","name":"Poradnia Psychologiczno - Pedagogiczna","addr:country":"PL","addr:postcode":"88-200","addr:city":"Radziej\u00f3w","addr:street":"ul. Ko\u015bciuszki","addr:housenumber":"58","addr:teryt:simc":9572,"addr:teryt:sym_ul":986060,"contact:phone":"+48 542853865","contact:email":"poradnia_psych@poczta.onet.pl","ref:regon":"001058438","ref:vatin":"PL8891436280","operator":"Powiat Radziejowski","operator:type":"government","healthcare":"councelling","counselling_type":"education","fixme":"w zale\u017cno\u015bci od przedmiotu dzia\u0142alno\u015bci (np. healthcare=councelling + counselling_type=education albo healthcare=psychotherapist)"}},{"id":110315,"type":"Feature","geometry":{"type":"Point","coordinates":[18.5282899,52.61871]},"properties":{"isced:level":"3","ref:rspo":110315,"official_name":"Bran\u017cowa Szko\u0142a I Stopnia","name":"Bran\u017cowa Szko\u0142a I Stopnia","addr:country":"PL","addr:postcode":"88-200","addr:city":"Radziej\u00f3w","addr:street":"ul. Ko\u015bciuszki","addr:housenumber":"58","addr:teryt:simc":9572,"addr:teryt:sym_ul":986060,"contact:phone":"+48 542853625","contact:email":"poczta@zsmradziejow.pl","contact:website":"http:\/\/www.zsmradziejow.pl","ref:regon":"910952153","operator":"Powiat Radziejowski","operator:type":"government","amenity":"school","note":"Parent RSPO: 13306"}},{"id":110317,"type":"Feature","geometry":{"type":"Point","coordinates":[18.5282899,52.61868]},"properties":{"isced:level":"3","ref:rspo":110317,"official_name":"Technikum","name":"Technikum","addr:country":"PL","addr:postcode":"88-200","addr:city":"Radziej\u00f3w","addr:street":"ul. Ko\u015bciuszki","addr:housenumber":"58","addr:teryt:simc":9572,"addr:teryt:sym_ul":986060,"contact:phone":"+48 542853625","contact:email":"poczta@zsmradziejow.pl","contact:website":"http:\/\/www.zsmradziejow.edu.pl","ref:regon":"910952118","operator":"Powiat Radziejowski","operator:type":"government","amenity":"school","note":"Parent RSPO: 13306"}},{"id":110318,"type":"Feature","geometry":{"type":"Point","coordinates":[18.5282899,52.618649999999995]},"properties":{"isced:level":"3","ref:rspo":110318,"official_name":"Liceum Og\u00f3lnokszta\u0142c\u0105ce dla Doros\u0142ych","name":"Liceum Og\u00f3lnokszta\u0142c\u0105ce dla Doros\u0142ych","addr:country":"PL","addr:postcode":"88-200","addr:city":"Radziej\u00f3w","addr:street":"ul. Ko\u015bciuszki","addr:housenumber":"58","addr:teryt:simc":9572,"addr:teryt:sym_ul":986060,"contact:phone":"+48 542853625","contact:email":"poczta@zsmradziejow.pl","contact:website":"http:\/\/www.zsmradziejow.edu.pl","ref:regon":"340807713","operator":"Powiat Radziejowski","operator:type":"government","amenity":"school","note":"Parent RSPO: 13306"}},{"id":115021,"type":"Feature","geometry":{"type":"Point","coordinates":[18.5282899,52.61862]},"properties":{"isced:level":"3","ref:rspo":115021,"official_name":"Bran\u017cowa Szko\u0142a Specjalna I Stopnia","name":"Bran\u017cowa Szko\u0142a Specjalna I Stopnia","addr:country":"PL","addr:postcode":"88-200","addr:city":"Radziej\u00f3w","addr:street":"ul. Ko\u015bciuszki","addr:housenumber":"58","addr:teryt:simc":9572,"addr:teryt:sym_ul":986060,"contact:phone":"+48 542853625","contact:email":"poczta@zsmradziejow.pl","contact:website":"http:\/\/www.zsmradziejow.edu.pl","ref:regon":"910952160","operator":"Powiat Radziejowski","operator:type":"government","amenity":"school","note":"Parent RSPO: 13306"}},{"id":276044,"type":"Feature","geometry":{"type":"Point","coordinates":[18.5282899,52.61859]},"properties":{"isced:level":"3","ref:rspo":276044,"official_name":"Bran\u017cowa Szko\u0142a II Stopnia","name":"Bran\u017cowa Szko\u0142a II Stopnia","addr:country":"PL","addr:postcode":"88-200","addr:city":"Radziej\u00f3w","addr:street":"ul. Ko\u015bciuszki","addr:housenumber":"58","addr:teryt:simc":9572,"addr:teryt:sym_ul":986060,"contact:phone":"+48 542853625","contact:email":"poczta@zsmradziejow.pl","contact:website":"http:\/\/www.zsmradziejow.pl","ref:regon":"386974007","operator":"Powiat Radziejowski","operator:type":"government","amenity":"school","note":"Parent RSPO: 13306"}},{"id":114190,"type":"Feature","geometry":{"type":"Point","coordinates":[18.53116,52.61911]},"properties":{"ref:rspo":114190,"official_name":"Miejski Zesp\u00f3\u0142 Szk\u00f3\u0142 w Radziejowie","name":"Miejski Zesp\u00f3\u0142 Szk\u00f3\u0142 w Radziejowie","addr:country":"PL","addr:postcode":"88-200","addr:city":"Radziej\u00f3w","addr:street":"ul. Szkolna","addr:housenumber":"28","addr:teryt:simc":21970,"addr:teryt:sym_ul":986060,"contact:phone":"+48 542853615","contact:email":"sekretariat@mzs-radziejow.pl","contact:website":"http:\/\/www.mzs-radziejow.pl","ref:regon":"341052056","ref:vatin":"PL8891509636","operator":"Gmina Miasto Radziej\u00f3w","operator:type":"government","landuse":"education","fixme":"amenity=school, amenity=college albo landuse=education w zale\u017cno\u015bci od tego, jakie plac\u00f3wki wchodz\u0105 w sk\u0142ad zespo\u0142u. Sprawd\u017a, kiedy stosowa\u0107 amenity=* a kiedy landuse=education.","note":"Children RSPO: 66116;114321"}},{"id":114321,"type":"Feature","geometry":{"type":"Point","coordinates":[18.53116,52.61908]},"properties":{"isced:level":"1;2","ref:rspo":114321,"official_name":"Publiczna Szko\u0142a Podstawowa Nr 1 im.miko\u0142aja Kopernika","name":"Publiczna Szko\u0142a Podstawowa Nr 1 im.miko\u0142aja Kopernika","addr:country":"PL","addr:postcode":"88-200","addr:city":"Radziej\u00f3w","addr:street":"ul. Szkolna","addr:housenumber":"28","addr:teryt:simc":21970,"addr:teryt:sym_ul":986060,"contact:phone":"+48 542853615","contact:email":"sekretariat@mzs-radziejow.pl","contact:website":"http:\/\/www.mzs-radziejow.pl","ref:regon":"000262266","operator":"Gmina Miasto Radziej\u00f3w","operator:type":"government","amenity":"school","note":"Parent RSPO: 114190"}},{"id":91781,"type":"Feature","geometry":{"type":"Point","coordinates":[18.52663,52.62098]},"properties":{"ref:rspo":91781,"official_name":"Akademia Wiedzy Niepubliczna Plac\u00f3wka Doskonalenia","name":"Akademia Wiedzy Niepubliczna Plac\u00f3wka Doskonalenia","addr:country":"PL","addr:postcode":"88-200","addr:city":"Radziej\u00f3w","addr:street":"ul. Objezdna","addr:housenumber":"72","addr:teryt:simc":14576,"addr:teryt:sym_ul":986060,"contact:phone":"+48 501537115","contact:email":"biuro@akademiawiedzy.pl","contact:website":"http:\/\/www.akademiawiedzy.pl","ref:regon":"341361768","ref:vatin":"PL8891076367","operator":"Dane Do Uzupe\u0142nienia","operator:type":"private","amenity":"training"}},{"id":13307,"type":"Feature","geometry":{"type":"Point","coordinates":[18.52949,52.62205]},"properties":{"ref:rspo":13307,"official_name":"Zesp\u00f3\u0142 Szko\u0142 I Plac\u00f3wek","name":"Zesp\u00f3\u0142 Szko\u0142 I Plac\u00f3wek","addr:country":"PL","addr:postcode":"88-200","addr:city":"Radziej\u00f3w","addr:street":"ul. Szkolna","addr:housenumber":"12","addr:teryt:simc":21970,"addr:teryt:sym_ul":986060,"contact:phone":"+48 542853228","contact:email":"kadry@radziejow.edu.pl","contact:website":"http:\/\/www.radziejow.edu.pl","ref:regon":"000228306","ref:vatin":"PL8891412598","operator":"Powiat Radziejowski","operator:type":"government","landuse":"education","fixme":"amenity=school, amenity=college albo landuse=education w zale\u017cno\u015bci od tego, jakie plac\u00f3wki wchodz\u0105 w sk\u0142ad zespo\u0142u. Sprawd\u017a, kiedy stosowa\u0107 amenity=* a kiedy landuse=education.","note":"Children RSPO: 110236;110239;110240;110241"}},{"id":110236,"type":"Feature","geometry":{"type":"Point","coordinates":[18.52949,52.62202]},"properties":{"isced:level":"3","ref:rspo":110236,"official_name":"Liceum Og\u00f3lnokszta\u0142c\u0105ce im. W\u0142adys\u0142awa \u0141okietka","name":"Liceum Og\u00f3lnokszta\u0142c\u0105ce","addr:country":"PL","addr:postcode":"88-200","addr:city":"Radziej\u00f3w","addr:street":"ul. Szkolna","addr:housenumber":"12","addr:teryt:simc":21970,"addr:teryt:sym_ul":986060,"contact:phone":"+48 542853228","contact:email":"dyrektor@radziejow.edu.pl","contact:website":"http:\/\/www.radziejow.edu.pl","ref:regon":"910950065","operator":"Powiat Radziejowski","operator:type":"government","amenity":"school","note":"Parent RSPO: 13307"}},{"id":110239,"type":"Feature","geometry":{"type":"Point","coordinates":[18.52838,52.6226]},"properties":{"isced:level":"1;2","ref:rspo":110239,"official_name":"Szko\u0142a Podstawowa Specjalna Nr 2","name":"Szko\u0142a Podstawowa Specjalna Nr 2","addr:country":"PL","addr:postcode":"88-200","addr:city":"Radziej\u00f3w","addr:street":"ul. Szkolna","addr:housenumber":"10","addr:teryt:simc":21970,"addr:teryt:sym_ul":986060,"contact:phone":"+48 542853228","contact:email":"dyrektor@radziejow.edu.pl","contact:website":"http:\/\/www.radziejow.edu.pl","ref:regon":"910950088","operator":"Powiat Radziejowski","operator:type":"government","amenity":"school","note":"Parent RSPO: 13307"}},{"id":110240,"type":"Feature","geometry":{"type":"Point","coordinates":[18.52838,52.622569999999996]},"properties":{"ref:rspo":110240,"official_name":"Szko\u0142a Specjalna Przysposabiaj\u0105ca Do Pracy","name":"Szko\u0142a Specjalna Przysposabiaj\u0105ca Do Pracy","addr:country":"PL","addr:postcode":"88-200","addr:city":"Radziej\u00f3w","addr:street":"ul. Szkolna","addr:housenumber":"10","addr:teryt:simc":21970,"addr:teryt:sym_ul":986060,"contact:phone":"+48 542853228","contact:email":"dyrektor@radziejow.edu.pl","contact:website":"http:\/\/www.radziejow.edu.pl","ref:regon":"340070164","operator":"Powiat Radziejowski","operator:type":"government","amenity":"school","note":"Parent RSPO: 13307"}},{"id":110241,"type":"Feature","geometry":{"type":"Point","coordinates":[18.52838,52.62254]},"properties":{"ref:rspo":110241,"official_name":"Specjalny O\u015brodek Szkolno - Wychowawczy im. W\u0142adys\u0142awa \u0141okietka","name":"Specjalny O\u015brodek Szkolno - Wychowawczy","addr:country":"PL","addr:postcode":"88-200","addr:city":"Radziej\u00f3w","addr:street":"ul. Szkolna","addr:housenumber":"10","addr:teryt:simc":21970,"addr:teryt:sym_ul":986060,"contact:phone":"+48 542853228","contact:email":"dyrektor@radziejow.edu.pl","contact:website":"http:\/\/www.radziejow.edu.pl","ref:regon":"910955980","operator":"Powiat Radziejowski","operator:type":"government","amenity":"social facility","social_facility":"group_home","social_facility:for":"child;juvenile","note":"Parent RSPO: 13307"}},{"id":66116,"type":"Feature","geometry":{"type":"Point","coordinates":[18.52098,52.62619]},"properties":{"ref:rspo":66116,"official_name":"Przedszkole Nr.1 w Radziejowie","name":"Przedszkole Nr.1 w Radziejowie","addr:country":"PL","addr:postcode":"88-200","addr:city":"Radziej\u00f3w","addr:street":"ul. Polna","addr:housenumber":"1","addr:teryt:simc":17011,"addr:teryt:sym_ul":986060,"contact:email":"iwonabrasz@op.pl","ref:regon":"910004545","ref:vatin":"PL8891415510","operator":"Gmina Miasto Radziej\u00f3w","operator:type":"government","amenity":"kindergarten","note":"Parent RSPO: 114190"}},{"id":13309,"type":"Feature","geometry":{"type":"Point","coordinates":[18.52487,52.62652]},"properties":{"ref:rspo":13309,"official_name":"Szko\u0142a Muzyczna I Stopnia","name":"Szko\u0142a Muzyczna I Stopnia","addr:country":"PL","addr:postcode":"88-200","addr:city":"Radziej\u00f3w","addr:street":"ul. Dolna","addr:housenumber":"20","addr:teryt:simc":4034,"addr:teryt:sym_ul":986060,"contact:phone":"+48 542853534","contact:email":"smradziejow@vp.pl","ref:regon":"910953342","ref:vatin":"PL8891385370","operator":"Powiat Radziejowski","operator:type":"government","amenity":"music_school"}},{"id":13311,"type":"Feature","geometry":{"type":"Point","coordinates":[18.53519,52.63019]},"properties":{"ref:rspo":13311,"official_name":"O\u015brodek Szkolenia Zawodowego Centrum Edukacyjne O\u015bwiata","name":"O\u015brodek Szkolenia Zawodowego Centrum Edukacyjne O\u015bwiata","addr:country":"PL","addr:postcode":"88-200","addr:city":"Radziej\u00f3w","addr:street":"ul. Brzeska","addr:housenumber":"64","addr:teryt:simc":2230,"addr:teryt:sym_ul":986060,"contact:phone":"+48 542852994","contact:email":"centrumoswiata@wp.pl","ref:regon":"341327062","ref:vatin":"PL8891046544","operator":"Centrum Edukacyjne \"O\u015bwiata\" Sp\u00f3\u0142ka Z Ograniczon\u0105 Odpowiedzialno\u015bci\u0105","operator:type":"private","fixme":"w zale\u017cno\u015bci od przedmiotu dzia\u0142alno\u015bci (np. amenity=training + training=*, amenity=dancing_school, amenity=language_school, amenity=music_school)"}},{"id":111583,"type":"Feature","geometry":{"type":"Point","coordinates":[18.53519,52.63016]},"properties":{"isced:level":"4","ref:rspo":111583,"official_name":"Prywatna Szko\u0142a Policealna","name":"Prywatna Szko\u0142a Policealna","addr:country":"PL","addr:postcode":"88-200","addr:city":"Radziej\u00f3w","addr:street":"ul. Brzeska","addr:housenumber":"64","addr:teryt:simc":2230,"addr:teryt:sym_ul":986060,"contact:phone":"+48 542852994","contact:email":"centrumoswiata@wp.pl","ref:regon":"341405098","operator":"Centrum Edukacyjne \"O\u015bwiata\" Sp\u00f3\u0142ka Z Ograniczon\u0105 Odpowiedzialno\u015bci\u0105","operator:type":"private","amenity":"college"}},{"id":111613,"type":"Feature","geometry":{"type":"Point","coordinates":[18.53519,52.63013]},"properties":{"isced:level":"3","ref:rspo":111613,"official_name":"Prywatne Liceum Ogolnokszta\u0142c\u0105ce dla Doros\u0142ych","name":"Prywatne Liceum Ogolnokszta\u0142c\u0105ce dla Doros\u0142ych","addr:country":"PL","addr:postcode":"88-200","addr:city":"Radziej\u00f3w","addr:street":"ul. Brzeska","addr:housenumber":"64","addr:teryt:simc":2230,"addr:teryt:sym_ul":986060,"contact:phone":"+48 542852994","contact:email":"centrumoswiata@wp.pl","ref:regon":"341405187","operator":"Centrum Edukacyjne \"O\u015bwiata\" Sp\u00f3\u0142ka Z Ograniczon\u0105 Odpowiedzialno\u015bci\u0105","operator:type":"private","amenity":"school"}}]}