{
    "type": "FeatureCollection",
    "features": [
        {
            "id": 106539,
            "type": "Feature",
            "geometry": {
                "type": "Point",
                "coordinates": [
                    18.7106299,
                    52.50297
                ]
            },
            "properties": {
                "ref:rspo": 106539,
                "official_name": "Punkt Przedszkolny Przy Szkole Podstawowej w Top\u00f3lce",
                "name": "Punkt Przedszkolny Przy Szkole Podstawowej w Top\u00f3lce",
                "addr:postcode": "87-875",
                "addr:place": "Top\u00f3lka",
                "addr:housenumber": "53",
                "addr:teryt:simc": 870729,
                "phone": "+48 542869067",
                "email": "sp_topolka@op.pl",
                "ref:regon": "341380056",
                "operator": "Gmina Top\u00f3lka",
                "operator:type": "government",
                "amenity": "kindergarten"
            }
        },
        {
            "id": 106077,
            "type": "Feature",
            "geometry": {
                "type": "Point",
                "coordinates": [
                    18.71375,
                    52.50302
                ]
            },
            "properties": {
                "isced:level": "1;2",
                "ref:rspo": 106077,
                "official_name": "Szko\u0142a Podstawowa im. Miko\u0142aja Kopernika w Top\u00f3lce",
                "name": "Szko\u0142a Podstawowa",
                "addr:postcode": "87-875",
                "addr:place": "Top\u00f3lka",
                "addr:housenumber": "26",
                "addr:door": "26",
                "addr:teryt:simc": 870729,
                "phone": "+48 542869099",
                "email": "sp_topolka@op.pl",
                "ref:regon": "000272069",
                "ref:vatin": "PL8891504679",
                "operator": "Gmina Top\u00f3lka",
                "operator:type": "government",
                "amenity": "school"
            }
        },
        {
            "id": 106014,
            "type": "Feature",
            "geometry": {
                "type": "Point",
                "coordinates": [
                    18.72979,
                    52.54551
                ]
            },
            "properties": {
                "isced:level": "1;2",
                "ref:rspo": 106014,
                "official_name": "Szko\u0142a Podstawowa im. Franciszka Beci\u0144skiego w Paniewie",
                "name": "Szko\u0142a Podstawowa",
                "addr:postcode": "87-875",
                "addr:place": "Paniewo",
                "addr:housenumber": "18",
                "addr:door": "18",
                "addr:teryt:simc": 870630,
                "phone": "+48 542869028",
                "email": "sp.paniewo@wp.pl",
                "ref:regon": "001138798",
                "ref:vatin": "PL8891504691",
                "operator": "Gmina Top\u00f3lka",
                "operator:type": "government",
                "amenity": "school"
            }
        }
    ]
}