{
    "type": "FeatureCollection",
    "features": [
        {
            "id": 42470,
            "type": "Feature",
            "geometry": {
                "type": "Point",
                "coordinates": [
                    18.02237,
                    52.49857
                ]
            },
            "properties": {
                "ref:rspo": 42470,
                "official_name": "Zesp\u00f3\u0142 Szkolno-Przedszkolny w Orchowie",
                "name": "Zesp\u00f3\u0142 Szkolno-Przedszkolny w Orchowie",
                "addr:postcode": "62-436",
                "addr:city": "Orchowo",
                "addr:street": "Szkolna",
                "addr:housenumber": "11",
                "addr:city:simc": 290660,
                "addr:street:sym_ul": 21970,
                "phone": "+48 632684012",
                "email": "sekretariat@zsp-orchowo.pl",
                "website": "http:\/\/zsp-orchowo.pl",
                "ref:regon": "301165165",
                "ref:vatin": "PL6671741778",
                "operator": "Gmina Orchowo",
                "operator:type": "government",
                "landuse": "education",
                "fixme": "amenity=school, amenity=college albo landuse=education w zale\u017cno\u015bci od tego, jakie plac\u00f3wki wchodz\u0105 w sk\u0142ad zespo\u0142u. Sprawd\u017a, kiedy stosowa\u0107 amenity=* a kiedy landuse=education.",
                "note": "Children RSPO: 53892;56311"
            }
        },
        {
            "id": 56311,
            "type": "Feature",
            "geometry": {
                "type": "Point",
                "coordinates": [
                    18.02237,
                    52.49854
                ]
            },
            "properties": {
                "isced:level": "1;2",
                "ref:rspo": 56311,
                "official_name": "Szko\u0142a Podstawowa im. W\u0142adys\u0142awa Lorkiewicza w Orchowie",
                "name": "Szko\u0142a Podstawowa",
                "addr:postcode": "62-436",
                "addr:city": "Orchowo",
                "addr:street": "Szkolna",
                "addr:housenumber": "11",
                "addr:city:simc": 290660,
                "addr:street:sym_ul": 21970,
                "phone": "+48 632684012",
                "email": "sekretariat@zsp-orchowo.pl",
                "website": "http:\/\/zsp-orchowo.pl",
                "ref:regon": "000271101",
                "ref:vatin": "PL6671609547",
                "operator": "Gmina Orchowo",
                "operator:type": "government",
                "amenity": "school",
                "note": "Parent RSPO: 42470"
            }
        },
        {
            "id": 53892,
            "type": "Feature",
            "geometry": {
                "type": "Point",
                "coordinates": [
                    18.01664,
                    52.50963
                ]
            },
            "properties": {
                "ref:rspo": 53892,
                "official_name": "Przedszkole Gminne w Orchowie",
                "name": "Przedszkole Gminne w Orchowie",
                "addr:postcode": "62-436",
                "addr:city": "Orchowo",
                "addr:street": "Powsta\u0144c\u00f3w Wielkopolskich",
                "addr:housenumber": "4",
                "addr:city:simc": 290660,
                "addr:street:sym_ul": 17377,
                "phone": "+48 632684031",
                "email": "sekretariat@zsp-orchowo.pl",
                "website": "http:\/\/zsp-orchowo.pl",
                "ref:regon": "000996206",
                "ref:vatin": "PL6671609607",
                "operator": "Gmina Orchowo",
                "operator:type": "government",
                "amenity": "kindergarten",
                "note": "Parent RSPO: 42470"
            }
        },
        {
            "id": 118444,
            "type": "Feature",
            "geometry": {
                "type": "Point",
                "coordinates": [
                    17.935524,
                    52.516284
                ]
            },
            "properties": {
                "ref:rspo": 118444,
                "official_name": "Zesp\u00f3\u0142 Szkolno-Przedszkolny w S\u0142owikowie",
                "name": "Zesp\u00f3\u0142 Szkolno-Przedszkolny w S\u0142owikowie",
                "addr:postcode": "62-436",
                "addr:place": "S\u0142owikowo",
                "addr:housenumber": "24",
                "addr:city:simc": 290771,
                "phone": "+48 632688100",
                "email": "zsp.slowikowo@orchowo.pl",
                "website": "http:\/\/www.razem-slowikowo.pl",
                "ref:regon": "302493167",
                "operator": "Stowarzyszenie Rozwoju Wsi \"Razem\"",
                "operator:type": "ngo",
                "landuse": "education",
                "fixme": "amenity=school, amenity=college albo landuse=education w zale\u017cno\u015bci od tego, jakie plac\u00f3wki wchodz\u0105 w sk\u0142ad zespo\u0142u. Sprawd\u017a, kiedy stosowa\u0107 amenity=* a kiedy landuse=education.",
                "note": "Children RSPO: 118533;118534"
            }
        },
        {
            "id": 118533,
            "type": "Feature",
            "geometry": {
                "type": "Point",
                "coordinates": [
                    17.935524,
                    52.516253999999996
                ]
            },
            "properties": {
                "isced:level": "1;2",
                "ref:rspo": 118533,
                "official_name": "Niepubliczna Szko\u0142a Podstawowa w S\u0142owikowie",
                "name": "Niepubliczna Szko\u0142a Podstawowa w S\u0142owikowie",
                "addr:postcode": "62-436",
                "addr:place": "S\u0142owikowo",
                "addr:housenumber": "24",
                "addr:city:simc": 290771,
                "phone": "+48 632688100",
                "email": "zsp.slowikowo@orchowo.pl",
                "website": "http:\/\/www.razem-slowikowo.pl",
                "ref:regon": "302495597",
                "operator": "Stowarzyszenie Rozwoju Wsi \"Razem\"",
                "operator:type": "ngo",
                "amenity": "school",
                "note": "Parent RSPO: 118444"
            }
        },
        {
            "id": 118534,
            "type": "Feature",
            "geometry": {
                "type": "Point",
                "coordinates": [
                    17.935524,
                    52.516224
                ]
            },
            "properties": {
                "ref:rspo": 118534,
                "official_name": "Niepubliczne Przedszkole w S\u0142owikowie",
                "name": "Niepubliczne Przedszkole w S\u0142owikowie",
                "addr:postcode": "62-436",
                "addr:place": "S\u0142owikowo",
                "addr:housenumber": "24",
                "addr:city:simc": 290771,
                "phone": "+48 632688100",
                "email": "zsp.slowikowo@orchowo.pl",
                "website": "http:\/\/www.razem-orchowo.pl",
                "ref:regon": "302495605",
                "operator": "Stowarzyszenie Rozwoju Wsi \"Razem\"",
                "operator:type": "ngo",
                "amenity": "kindergarten",
                "note": "Parent RSPO: 118444"
            }
        },
        {
            "id": 118473,
            "type": "Feature",
            "geometry": {
                "type": "Point",
                "coordinates": [
                    18.0824966,
                    52.5370872
                ]
            },
            "properties": {
                "isced:level": "1;2",
                "ref:rspo": 118473,
                "official_name": "Niepubliczna Szko\u0142a Podstawowa w Bielsku",
                "name": "Niepubliczna Szko\u0142a Podstawowa w Bielsku",
                "addr:postcode": "62-436",
                "addr:place": "Bielsko",
                "addr:housenumber": "98",
                "addr:city:simc": 290541,
                "phone": "+48 632684207",
                "email": "skobielsko@wp.pl",
                "ref:regon": "302493470",
                "operator": "Stowarzyszenie Kuturalno-O\u015bwiatowe \"Z Edukacj\u0105 W Przysz\u0142o\u015b\u0107\"",
                "operator:type": "ngo",
                "amenity": "school"
            }
        },
        {
            "id": 119289,
            "type": "Feature",
            "geometry": {
                "type": "Point",
                "coordinates": [
                    18.0824966,
                    52.5370572
                ]
            },
            "properties": {
                "ref:rspo": 119289,
                "official_name": "Niepubliczne Przedszkole w Bielsku",
                "name": "Niepubliczne Przedszkole w Bielsku",
                "addr:postcode": "62-436",
                "addr:place": "Bielsko",
                "addr:housenumber": "98",
                "addr:city:simc": 290541,
                "phone": "+48 632684207",
                "email": "skobielsko@wp.pl",
                "website": "http:\/\/www.skobielsko.pl",
                "ref:regon": "302515176",
                "operator": "Stowarzyszenie Kuturalno-O\u015bwiatowe \"Z Edukacj\u0105 W Przysz\u0142o\u015b\u0107\"",
                "operator:type": "ngo",
                "amenity": "kindergarten"
            }
        },
        {
            "id": 118425,
            "type": "Feature",
            "geometry": {
                "type": "Point",
                "coordinates": [
                    18.023325,
                    52.5407919
                ]
            },
            "properties": {
                "isced:level": "1;2",
                "ref:rspo": 118425,
                "official_name": "Niepubliczna Szko\u0142a Podstawowa w R\u00f3\u017cannie",
                "name": "Niepubliczna Szko\u0142a Podstawowa w R\u00f3\u017cannie",
                "addr:postcode": "62-436",
                "addr:place": "R\u00f3\u017canna",
                "addr:housenumber": "9",
                "addr:city:simc": 290736,
                "phone": "+48 662705920",
                "email": "nsrozanna@onet.pl",
                "ref:regon": "302493078",
                "operator": "Stowarzyszenie \"Decydujemy Sami\"",
                "operator:type": "ngo",
                "amenity": "school"
            }
        },
        {
            "id": 125361,
            "type": "Feature",
            "geometry": {
                "type": "Point",
                "coordinates": [
                    18.023325,
                    52.5407619
                ]
            },
            "properties": {
                "ref:rspo": 125361,
                "official_name": "Niepubliczne Przedszkole w R\u00f3\u017cannie",
                "name": "Niepubliczne Przedszkole w R\u00f3\u017cannie",
                "addr:postcode": "62-436",
                "addr:place": "R\u00f3\u017canna",
                "addr:housenumber": "9",
                "addr:city:simc": 290736,
                "phone": "+48 632684210",
                "email": "nsrozanna@onet.pl",
                "ref:regon": "302833717",
                "operator": "Stowarzyszenie \"Decydujemy Sami\"",
                "operator:type": "ngo",
                "amenity": "kindergarten"
            }
        }
    ]
}