{"type":"FeatureCollection","features":[{"id":22093,"type":"Feature","geometry":{"type":"Point","coordinates":[17.842841,52.129098]},"properties":{"isced:level":"1;2","ref:rspo":22093,"official_name":"Szko\u0142a Podstawowa im. Kawaler\u00f3w Orderu U\u015bmiechu w \u0141ukomiu I","name":"Szko\u0142a Podstawowa","addr:country":"PL","addr:postcode":"62-410","addr:place":"\u0141ukom","addr:housenumber":"2","addr:teryt:sym_ul":301291,"contact:phone":"+48 632762726","contact:email":"splukom@gmail.com","ref:regon":"001210165","ref:vatin":"PL6671613158","operator":"Gmina Zag\u00f3r\u00f3w","operator:type":"government","amenity":"school"}},{"id":88478,"type":"Feature","geometry":{"type":"Point","coordinates":[17.957669,52.1409839]},"properties":{"isced:level":"1;2","ref:rspo":88478,"official_name":"Szko\u0142a Podstawowa im. Unii Europejskiej w Tr\u0105bczynie","name":"Szko\u0142a Podstawowa","addr:country":"PL","addr:postcode":"62-410","addr:place":"Tr\u0105bczyn","addr:housenumber":"50","addr:teryt:sym_ul":301670,"contact:phone":"+48 632762106","contact:email":"zsgtrabczyn@poczta.onet.pl","contact:website":"http:\/\/zsgtrabczyn.eu","ref:regon":"001210142","ref:vatin":"PL6671639063","operator":"Gmina Zag\u00f3r\u00f3w","operator:type":"government","amenity":"school"}},{"id":268752,"type":"Feature","geometry":{"type":"Point","coordinates":[17.88247,52.16471]},"properties":{"ref:rspo":268752,"official_name":"Niepubliczne Przedszkole \"Ekoludki\" w Zag\u00f3rowie","name":"Niepubliczne Przedszkole \"Ekoludki\" w Zag\u00f3rowie","addr:country":"PL","addr:postcode":"62-410","addr:city":"Zag\u00f3r\u00f3w","addr:street":"ul. Le\u015bna","addr:housenumber":"1","addr:teryt:simc":10898,"addr:teryt:sym_ul":949431,"contact:email":"kontakt@ekoludki.com.pl","contact:website":"http:\/\/ekoludki.com.pl","ref:regon":"381244379","operator":"Damian Przyby\u0142a","operator:type":"private","amenity":"kindergarten"}},{"id":22092,"type":"Feature","geometry":{"type":"Point","coordinates":[17.89931,52.1674099]},"properties":{"isced:level":"1;2","ref:rspo":22092,"official_name":"Szko\u0142a Podstawowa Im Micha\u0142a Okurza\u0142ego w Zag\u00f3rowie","name":"Szko\u0142a Podstawowa Im Micha\u0142a Okurza\u0142ego w Zag\u00f3rowie","addr:country":"PL","addr:postcode":"62-410","addr:city":"Zag\u00f3r\u00f3w","addr:street":"pl. Szkolny","addr:housenumber":"1","addr:teryt:simc":21972,"addr:teryt:sym_ul":949431,"contact:phone":"+48 632748102","contact:email":"zag.szko.pod@interia.pl","contact:website":"http:\/\/spzagorow.pl","ref:regon":"000566227","ref:vatin":"PL6671613129","operator":"Gmina Zag\u00f3r\u00f3w","operator:type":"government","amenity":"school"}},{"id":26646,"type":"Feature","geometry":{"type":"Point","coordinates":[17.88823,52.1679699]},"properties":{"ref:rspo":26646,"official_name":"Zesp\u00f3\u0142 Szk\u00f3\u0142 Og\u00f3lnokszta\u0142c\u0105cych I Zawodowych w Zag\u00f3rowie","name":"Zesp\u00f3\u0142 Szk\u00f3\u0142 Og\u00f3lnokszta\u0142c\u0105cych I Zawodowych w Zag\u00f3rowie","addr:country":"PL","addr:postcode":"62-410","addr:city":"Zag\u00f3r\u00f3w","addr:street":"ul. Pyzderska","addr:housenumber":"75","addr:teryt:simc":18237,"addr:teryt:sym_ul":949431,"contact:phone":"+48 632761113","contact:email":"sekretariat@zszagorow.eu","contact:website":"http:\/\/www.zszagorow.eu","ref:regon":"003734174","ref:vatin":"PL6671054919","operator":"Powiat S\u0142upecki","operator:type":"government","landuse":"education","fixme":"amenity=school, amenity=college albo landuse=education w zale\u017cno\u015bci od tego, jakie plac\u00f3wki wchodz\u0105 w sk\u0142ad zespo\u0142u. Sprawd\u017a, kiedy stosowa\u0107 amenity=* a kiedy landuse=education.","note":"Children RSPO: 30304;30308;62038"}},{"id":30304,"type":"Feature","geometry":{"type":"Point","coordinates":[17.88823,52.1679399]},"properties":{"isced:level":"3","ref:rspo":30304,"official_name":"Zesp\u00f3\u0142 Szk\u00f3\u0142 Og\u00f3lnokszta\u0142c\u0105cych I Zawodowych w Zag\u00f3rowie-Liceum Og\u00f3lnokszta\u0142c\u0105ce im. Braci Kostaneckich w Zag\u00f3rowie","name":"Zesp\u00f3\u0142 Szk\u00f3\u0142 Og\u00f3lnokszta\u0142c\u0105cych I Zawodowych w Zag\u00f3rowie-Liceum Og\u00f3lnokszta\u0142c\u0105ce","addr:country":"PL","addr:postcode":"62-410","addr:city":"Zag\u00f3r\u00f3w","addr:street":"ul. Pyzderska","addr:housenumber":"75","addr:teryt:simc":18237,"addr:teryt:sym_ul":949431,"contact:phone":"+48 632761113","contact:email":"sekretariat@zszagorow.eu","contact:website":"http:\/\/www.zszagorow.eu","ref:regon":"311594929","operator":"Powiat S\u0142upecki","operator:type":"government","amenity":"school","note":"Parent RSPO: 26646"}},{"id":30308,"type":"Feature","geometry":{"type":"Point","coordinates":[17.88823,52.167909900000005]},"properties":{"isced:level":"3","ref:rspo":30308,"official_name":"Zesp\u00f3\u0142 Szk\u00f3\u0142 Og\u00f3lnokszta\u0142c\u0105cych I Zawodowych w Zag\u00f3rowie- Technikum im. Braci Kostaneckich w Zag\u00f3rowie","name":"Zesp\u00f3\u0142 Szk\u00f3\u0142 Og\u00f3lnokszta\u0142c\u0105cych I Zawodowych w Zag\u00f3rowie- Technikum","addr:country":"PL","addr:postcode":"62-410","addr:city":"Zag\u00f3r\u00f3w","addr:street":"ul. Pyzderska","addr:housenumber":"75","addr:teryt:simc":18237,"addr:teryt:sym_ul":949431,"contact:phone":"+48 632761113","contact:email":"sekretariat@zszagorow.eu","contact:website":"http:\/\/www.zszagorow.eu","ref:regon":"311594970","operator":"Powiat S\u0142upecki","operator:type":"government","amenity":"school","note":"Parent RSPO: 26646"}},{"id":62038,"type":"Feature","geometry":{"type":"Point","coordinates":[17.88823,52.1678799]},"properties":{"isced:level":"3","ref:rspo":62038,"official_name":"Zesp\u00f3\u0142 Szk\u00f3\u0142 Og\u00f3lnokszta\u0142c\u0105cych I Zawodowych w Zag\u00f3rowie - Bran\u017cowa Szko\u0142a I Stopnia im. Braci Kostaneckich w Zag\u00f3rowie","name":"Zesp\u00f3\u0142 Szk\u00f3\u0142 Og\u00f3lnokszta\u0142c\u0105cych I Zawodowych w Zag\u00f3rowie - Bran\u017cowa Szko\u0142a I Stopnia","addr:country":"PL","addr:postcode":"62-410","addr:city":"Zag\u00f3r\u00f3w","addr:street":"ul. Pyzderska","addr:housenumber":"75","addr:teryt:simc":18237,"addr:teryt:sym_ul":949431,"contact:phone":"+48 632761113","contact:email":"sekretariat@zszagorow.eu","contact:website":"http:\/\/www.zszagorow.eu","ref:regon":"311621081","operator":"Powiat S\u0142upecki","operator:type":"government","amenity":"school","note":"Parent RSPO: 26646"}},{"id":61925,"type":"Feature","geometry":{"type":"Point","coordinates":[17.8908099,52.1680599]},"properties":{"ref:rspo":61925,"official_name":"Miejskie Przedszkole Samorz\u0105dowe w Zag\u00f3rowie","name":"Miejskie Przedszkole Samorz\u0105dowe w Zag\u00f3rowie","addr:country":"PL","addr:postcode":"62-410","addr:city":"Zag\u00f3r\u00f3w","addr:street":"ul. Pyzderska","addr:housenumber":"7","addr:teryt:simc":18237,"addr:teryt:sym_ul":949431,"contact:phone":"+48 632748105","contact:email":"przedszkolezagorow@gmail.com","ref:regon":"000996175","ref:vatin":"PL6671629320","operator":"Gmina Zag\u00f3r\u00f3w","operator:type":"government","amenity":"kindergarten"}},{"id":276043,"type":"Feature","geometry":{"type":"Point","coordinates":[17.8962458,52.169588]},"properties":{"ref:rspo":276043,"official_name":"Zesp\u00f3\u0142 Niepublicznych Szk\u00f3\u0142 I Plac\u00f3wek O\u015bwiatowych \"Nasza Szko\u0142a\"","name":"Zesp\u00f3\u0142 Niepublicznych Szk\u00f3\u0142 I Plac\u00f3wek O\u015bwiatowych \"Nasza Szko\u0142a\"","addr:country":"PL","addr:postcode":"62-410","addr:place":"Michalin\u00f3w","addr:housenumber":"1","addr:teryt:sym_ul":301463,"contact:phone":"+48 632762550","contact:email":"dyrektor@naszaszkola-michalinow.pl","contact:website":"http:\/\/naszaszkola-michalinow.pl","ref:regon":"386989090","operator":"Polskie Stowarzyszenie Na Rzecz Os\u00f3b Z Niepe\u0142nosprawno\u015bci\u0105 Intelektualn\u0105 Ko\u0142o W Zag\u00f3rowie Z Siedzib\u0105 W Michalinowie Ole\u015bnickim","operator:type":"ngo","landuse":"education","fixme":"amenity=school, amenity=college albo landuse=education w zale\u017cno\u015bci od tego, jakie plac\u00f3wki wchodz\u0105 w sk\u0142ad zespo\u0142u. Sprawd\u017a, kiedy stosowa\u0107 amenity=* a kiedy landuse=education.","note":"Children RSPO: 17478;276105;276106"}},{"id":17478,"type":"Feature","geometry":{"type":"Point","coordinates":[17.8962458,52.169557999999995]},"properties":{"ref:rspo":17478,"official_name":"Niepubliczny O\u015brodek Rewalidacyjno-Wychowawczy w Zespole Niepublicznych Szk\u00f3\u0142 I Plac\u00f3wek O\u015bwiatowych \"Nasza Szko\u0142a\"","name":"Niepubliczny O\u015brodek Rewalidacyjno-Wychowawczy w Zespole Niepublicznych Szk\u00f3\u0142 I Plac\u00f3wek O\u015bwiatowych \"Nasza Szko\u0142a\"","addr:country":"PL","addr:postcode":"62-410","addr:place":"Michalin\u00f3w","addr:housenumber":"1","addr:teryt:sym_ul":301463,"contact:phone":"+48 632762550","contact:email":"dyrektor@naszaszkola-michalinow.pl","contact:website":"http:\/\/naszaszkola-michalinow.pl","ref:regon":"302220498","ref:vatin":"PL6671075695","operator":"Polskie Stowarzyszenie Na Rzecz Os\u00f3b Z Niepe\u0142nosprawno\u015bci\u0105 Intelektualn\u0105 Ko\u0142o W Zag\u00f3rowie Z Siedzib\u0105 W Michalinowie Ole\u015bnickim","operator:type":"ngo","amenity":"school","note":"Parent RSPO: 276043"}},{"id":276105,"type":"Feature","geometry":{"type":"Point","coordinates":[17.8962458,52.169528]},"properties":{"isced:level":"1;2","ref:rspo":276105,"official_name":"Niepubliczna Szko\u0142a Podstawowa Specjalna w Zespole Niepublicznych Szk\u00f3\u0142 I Plac\u00f3wek O\u015bwiatowych \"Nasza Szko\u0142a\" w Michalinowie Ole\u015bnickim","name":"Niepubliczna Szko\u0142a Podstawowa Specjalna w Zespole Niepublicznych Szk\u00f3\u0142 I Plac\u00f3wek O\u015bwiatowych \"Nasza Szko\u0142a\" w Michalinowie Ole\u015bnickim","addr:country":"PL","addr:postcode":"62-410","addr:place":"Michalin\u00f3w","addr:housenumber":"1","addr:teryt:sym_ul":301463,"contact:phone":"+48 632762550","contact:email":"dyrektor@naszaszkola-michalinow.pl","contact:website":"http:\/\/naszaszkola-michalinow.pl","ref:regon":"386990331","operator":"Polskie Stowarzyszenie Na Rzecz Os\u00f3b Z Niepe\u0142nosprawno\u015bci\u0105 Intelektualn\u0105 Ko\u0142o W Zag\u00f3rowie Z Siedzib\u0105 W Michalinowie Ole\u015bnickim","operator:type":"ngo","amenity":"school","note":"Parent RSPO: 276043"}},{"id":276106,"type":"Feature","geometry":{"type":"Point","coordinates":[17.8962458,52.169498]},"properties":{"ref:rspo":276106,"official_name":"Niepubliczna Szko\u0142a Specjalna Przysposabiaj\u0105ca Do Pracy w Zespole Niepublicznych Szk\u00f3\u0142 I Plac\u00f3wek O\u015bwiatowych \"Nasza Szko\u0142a\" w Michalinowie Ole\u015bnickim","name":"Niepubliczna Szko\u0142a Specjalna Przysposabiaj\u0105ca Do Pracy w Zespole Niepublicznych Szk\u00f3\u0142 I Plac\u00f3wek O\u015bwiatowych \"Nasza Szko\u0142a\" w Michalinowie Ole\u015bnickim","addr:country":"PL","addr:postcode":"62-410","addr:place":"Michalin\u00f3w","addr:housenumber":"1","addr:teryt:sym_ul":301463,"contact:phone":"+48 632762550","contact:email":"dyrektor@naszaszkola-michalinow.pl","contact:website":"http:\/\/naszaszkola-michalinow.pl","ref:regon":"386992749","operator":"Polskie Stowarzyszenie Na Rzecz Os\u00f3b Z Niepe\u0142nosprawno\u015bci\u0105 Intelektualn\u0105 Ko\u0142o W Zag\u00f3rowie Z Siedzib\u0105 W Michalinowie Ole\u015bnickim","operator:type":"ngo","amenity":"school","note":"Parent RSPO: 276043"}}]}