{
    "type": "FeatureCollection",
    "features": [
        {
            "id": 267415,
            "type": "Feature",
            "geometry": {
                "type": "Point",
                "coordinates": [
                    17.82153,
                    52.30943
                ]
            },
            "properties": {
                "ref:rspo": 267415,
                "official_name": "Zesp\u00f3\u0142 Szkolno - Przedszkolny w Strza\u0142kowie",
                "name": "Zesp\u00f3\u0142 Szkolno - Przedszkolny w Strza\u0142kowie",
                "addr:postcode": "62-420",
                "addr:city": "Strza\u0142kowo",
                "addr:street": "Aleja Prymasa Wyszy\u0144skiego",
                "addr:housenumber": "10",
                "addr:teryt:simc": 296621,
                "addr:teryt:sym_ul": 37799,
                "phone": "+48 632750500",
                "email": "dyrektor.gimstrz@op.pl",
                "website": "http:\/\/spstrzalkowo.pl",
                "ref:regon": "380308769",
                "ref:vatin": "PL6671774513",
                "operator": "Gmina Strza\u0142kowo",
                "operator:type": "government",
                "landuse": "education",
                "fixme": "amenity=school, amenity=college albo landuse=education w zale\u017cno\u015bci od tego, jakie plac\u00f3wki wchodz\u0105 w sk\u0142ad zespo\u0142u. Sprawd\u017a, kiedy stosowa\u0107 amenity=* a kiedy landuse=education.",
                "note": "Children RSPO: 41257;60737"
            }
        },
        {
            "id": 41257,
            "type": "Feature",
            "geometry": {
                "type": "Point",
                "coordinates": [
                    17.82153,
                    52.3094
                ]
            },
            "properties": {
                "ref:rspo": 41257,
                "official_name": "Przedszkole Kubu\u015b Puchatek w Strza\u0142kowie",
                "name": "Przedszkole Kubu\u015b Puchatek w Strza\u0142kowie",
                "addr:postcode": "62-420",
                "addr:city": "Strza\u0142kowo",
                "addr:street": "Aleja Prymasa Wyszy\u0144skiego",
                "addr:housenumber": "10",
                "addr:teryt:simc": 296621,
                "addr:teryt:sym_ul": 37799,
                "phone": "+48 632223189",
                "email": "kontakt@przedszkole-strzalkowo.pl",
                "website": "http:\/\/www.spstrzalkowo.pl",
                "ref:regon": "000996235",
                "ref:vatin": "PL6671604886",
                "operator": "Gmina Strza\u0142kowo",
                "operator:type": "government",
                "amenity": "kindergarten",
                "note": "Parent RSPO: 267415"
            }
        },
        {
            "id": 60737,
            "type": "Feature",
            "geometry": {
                "type": "Point",
                "coordinates": [
                    17.82153,
                    52.30937
                ]
            },
            "properties": {
                "isced:level": "1;2",
                "ref:rspo": 60737,
                "official_name": "Szko\u0142a Podstawowa im. Powsta\u0144c\u00f3w Wielkopolskich w Strza\u0142kowie",
                "name": "Szko\u0142a Podstawowa",
                "addr:postcode": "62-420",
                "addr:city": "Strza\u0142kowo",
                "addr:street": "Aleja Prymasa Wyszy\u0144skiego",
                "addr:housenumber": "10",
                "addr:teryt:simc": 296621,
                "addr:teryt:sym_ul": 37799,
                "phone": "+48 632750500",
                "email": "dyrektor.gimstrz@op.pl",
                "website": "http:\/\/www.spstrzalkowo.pl",
                "ref:regon": "000269334",
                "ref:vatin": "PL6671573499",
                "operator": "Gmina Strza\u0142kowo",
                "operator:type": "government",
                "amenity": "school",
                "note": "Parent RSPO: 267415"
            }
        },
        {
            "id": 74422,
            "type": "Feature",
            "geometry": {
                "type": "Point",
                "coordinates": [
                    17.81867,
                    52.31707
                ]
            },
            "properties": {
                "ref:rspo": 74422,
                "official_name": "Niepubliczne Przedszkole Z Oddzia\u0142ami Integracyjnymi w Strza\u0142kowie",
                "name": "Niepubliczne Przedszkole Z Oddzia\u0142ami Integracyjnymi w Strza\u0142kowie",
                "addr:postcode": "62-420",
                "addr:city": "Strza\u0142kowo",
                "addr:street": "Rolnicza",
                "addr:housenumber": "3A",
                "addr:teryt:simc": 296621,
                "addr:teryt:sym_ul": 18821,
                "phone": "+48 632750170",
                "email": "iwona.plocka@wp.pl",
                "ref:regon": "302261770",
                "ref:vatin": "PL1230280601",
                "operator": "Ewa Kanabus-Koszal",
                "operator:type": "private",
                "amenity": "kindergarten"
            }
        },
        {
            "id": 128031,
            "type": "Feature",
            "geometry": {
                "type": "Point",
                "coordinates": [
                    17.81345,
                    52.31794
                ]
            },
            "properties": {
                "ref:rspo": 128031,
                "official_name": "Centrum Kszta\u0142cenia Zawodowego I Ustawicznego w Strza\u0142kowie",
                "name": "Centrum Kszta\u0142cenia Zawodowego I Ustawicznego w Strza\u0142kowie",
                "addr:postcode": "62-420",
                "addr:city": "Strza\u0142kowo",
                "addr:street": "G\u00f3rna",
                "addr:housenumber": "12",
                "addr:teryt:simc": 296621,
                "addr:teryt:sym_ul": 5948,
                "phone": "+48 632756008",
                "email": "ckziustrzalkowo@wp.pl",
                "website": "http:\/\/www.ckziustrzalkowo.pl",
                "ref:regon": "362040476",
                "operator": "Powiat S\u0142upecki",
                "operator:type": "government",
                "landuse": "education",
                "fixme": "amenity=school, amenity=college albo landuse=education w zale\u017cno\u015bci od tego, jakie plac\u00f3wki wchodz\u0105 w sk\u0142ad zespo\u0142u. Sprawd\u017a, kiedy stosowa\u0107 amenity=* a kiedy landuse=education.",
                "note": "Children RSPO: 128296;128298;128301;128302"
            }
        },
        {
            "id": 128296,
            "type": "Feature",
            "geometry": {
                "type": "Point",
                "coordinates": [
                    17.81345,
                    52.31791
                ]
            },
            "properties": {
                "isced:level": "3",
                "ref:rspo": 128296,
                "official_name": "Technikum im. Wincentego Witosa w Centrum Kszta\u0142cenia Zawodowego I Ustawicznego w Strza\u0142kowie",
                "name": "Technikum",
                "addr:postcode": "62-420",
                "addr:city": "Strza\u0142kowo",
                "addr:street": "G\u00f3rna",
                "addr:housenumber": "12",
                "addr:teryt:simc": 296621,
                "addr:teryt:sym_ul": 5948,
                "phone": "+48 632756008",
                "email": "ckziustrzalkowo@wp.pl",
                "website": "http:\/\/www.ckziustrzalkowo.pl",
                "ref:regon": "362225201",
                "operator": "Powiat S\u0142upecki",
                "operator:type": "government",
                "amenity": "school",
                "note": "Parent RSPO: 128031"
            }
        },
        {
            "id": 128298,
            "type": "Feature",
            "geometry": {
                "type": "Point",
                "coordinates": [
                    17.81345,
                    52.31788
                ]
            },
            "properties": {
                "isced:level": "3",
                "ref:rspo": 128298,
                "official_name": "Liceum Og\u00f3lnokszta\u0142cace im. Wincentego Witosa w Centrum Kszta\u0142cenia Zawodowego I Ustawicznego w Strza\u0142kowie",
                "name": "Liceum Og\u00f3lnokszta\u0142cace",
                "addr:postcode": "62-420",
                "addr:city": "Strza\u0142kowo",
                "addr:street": "G\u00f3rna",
                "addr:housenumber": "12",
                "addr:teryt:simc": 296621,
                "addr:teryt:sym_ul": 5948,
                "phone": "+48 632756128",
                "email": "ckziustrzalkowo@wp.pl",
                "website": "http:\/\/www.ckziustrzalkowo.pl",
                "ref:regon": "362225276",
                "operator": "Powiat S\u0142upecki",
                "operator:type": "government",
                "amenity": "school",
                "note": "Parent RSPO: 128031"
            }
        },
        {
            "id": 128301,
            "type": "Feature",
            "geometry": {
                "type": "Point",
                "coordinates": [
                    17.81345,
                    52.31785
                ]
            },
            "properties": {
                "isced:level": "4",
                "ref:rspo": 128301,
                "official_name": "Szko\u0142a Policealna im. Wincentego Witosa w Centrum Kszta\u0142cenia Zawodowego I Ustawicznego w Strza\u0142kowie",
                "name": "Szko\u0142a Policealna",
                "addr:postcode": "62-420",
                "addr:city": "Strza\u0142kowo",
                "addr:street": "G\u00f3rna",
                "addr:housenumber": "12",
                "addr:teryt:simc": 296621,
                "addr:teryt:sym_ul": 5948,
                "phone": "+48 632756008",
                "email": "ckziustrzalkowo@wp.pl",
                "website": "http:\/\/www.ckziustrzalkowo.pl",
                "ref:regon": "362225307",
                "operator": "Powiat S\u0142upecki",
                "operator:type": "government",
                "amenity": "college",
                "note": "Parent RSPO: 128031"
            }
        },
        {
            "id": 128302,
            "type": "Feature",
            "geometry": {
                "type": "Point",
                "coordinates": [
                    17.81345,
                    52.31782
                ]
            },
            "properties": {
                "isced:level": "3",
                "ref:rspo": 128302,
                "official_name": "Bran\u017cowa Szko\u0142a I Stopnia im. Wincentego Witosa w Centrum Kszta\u0142cenia Zawodowego I Ustawicznego w Strza\u0142kowie",
                "name": "Bran\u017cowa Szko\u0142a I Stopnia",
                "addr:postcode": "62-420",
                "addr:city": "Strza\u0142kowo",
                "addr:street": "G\u00f3rna",
                "addr:housenumber": "12",
                "addr:teryt:simc": 296621,
                "addr:teryt:sym_ul": 5948,
                "phone": "+48 632756128",
                "email": "ckziustrzalkowo@wp.pl",
                "website": "http:\/\/www.ckziustrzalkowo.pl",
                "ref:regon": "362226028",
                "operator": "Powiat S\u0142upecki",
                "operator:type": "government",
                "amenity": "school",
                "note": "Parent RSPO: 128031"
            }
        },
        {
            "id": 264723,
            "type": "Feature",
            "geometry": {
                "type": "Point",
                "coordinates": [
                    17.775102,
                    52.321397
                ]
            },
            "properties": {
                "ref:rspo": 264723,
                "official_name": "Zesp\u00f3\u0142 Szkolno - Przedszkolny w W\u00f3lce",
                "name": "Zesp\u00f3\u0142 Szkolno - Przedszkolny w W\u00f3lce",
                "addr:postcode": "62-420",
                "addr:place": "W\u00f3lka",
                "addr:housenumber": "1",
                "addr:teryt:simc": 296680,
                "phone": "+48 632759118",
                "email": "szkola@pspwolka.pl",
                "website": "http:\/\/pspwolka.superszkola.pl",
                "ref:regon": "368435299",
                "ref:vatin": "PL6671771489",
                "operator": "Gmina Strza\u0142kowo",
                "operator:type": "government",
                "landuse": "education",
                "fixme": "amenity=school, amenity=college albo landuse=education w zale\u017cno\u015bci od tego, jakie plac\u00f3wki wchodz\u0105 w sk\u0142ad zespo\u0142u. Sprawd\u017a, kiedy stosowa\u0107 amenity=* a kiedy landuse=education.",
                "note": "Children RSPO: 41256;133957"
            }
        },
        {
            "id": 41256,
            "type": "Feature",
            "geometry": {
                "type": "Point",
                "coordinates": [
                    17.775102,
                    52.321366999999995
                ]
            },
            "properties": {
                "isced:level": "1;2",
                "ref:rspo": 41256,
                "official_name": "Publiczna Szko\u0142a Podstawowa im. Henryka Sienkiewicza w W\u00f3lce",
                "name": "Publiczna Szko\u0142a Podstawowa",
                "addr:postcode": "62-420",
                "addr:place": "W\u00f3lka",
                "addr:housenumber": "1",
                "addr:teryt:simc": 296680,
                "phone": "+48 632759118",
                "email": "szkola@pspwolka.pl",
                "ref:regon": "001192088",
                "ref:vatin": "PL6671573482",
                "operator": "Gmina Strza\u0142kowo",
                "operator:type": "government",
                "amenity": "school",
                "note": "Parent RSPO: 264723"
            }
        },
        {
            "id": 133957,
            "type": "Feature",
            "geometry": {
                "type": "Point",
                "coordinates": [
                    17.775102,
                    52.321337
                ]
            },
            "properties": {
                "ref:rspo": 133957,
                "official_name": "Przedszkole Gminne w W\u00f3lce",
                "name": "Przedszkole Gminne w W\u00f3lce",
                "addr:postcode": "62-420",
                "addr:place": "W\u00f3lka",
                "addr:housenumber": "1",
                "addr:teryt:simc": 296680,
                "phone": "+48 699671774",
                "email": "szkola@pspwolka.pl",
                "ref:regon": "367750248",
                "ref:vatin": "PL6671770981",
                "operator": "Gmina Strza\u0142kowo",
                "operator:type": "government",
                "amenity": "kindergarten",
                "note": "Parent RSPO: 264723"
            }
        }
    ]
}