{
    "type": "FeatureCollection",
    "features": [
        {
            "id": 133813,
            "type": "Feature",
            "geometry": {
                "type": "Point",
                "coordinates": [
                    17.9297831,
                    52.212394
                ]
            },
            "properties": {
                "isced:level": "1;2",
                "ref:rspo": 133813,
                "official_name": "Szko\u0142a Podstawowa im. Polskich Olimpijczyk\u00f3w w Kowalewie Opactwie",
                "name": "Szko\u0142a Podstawowa",
                "addr:postcode": "62-400",
                "addr:place": "Kowalewo-Opactwo",
                "addr:housenumber": "25",
                "addr:city:simc": 294964,
                "phone": "+48 632772556",
                "email": "sekretariat@spkowalewo.com",
                "website": "http:\/\/www.spkowalewo.com",
                "ref:regon": "367672519",
                "operator": "Gmina S\u0142upca",
                "operator:type": "government",
                "amenity": "school"
            }
        },
        {
            "id": 12804,
            "type": "Feature",
            "geometry": {
                "type": "Point",
                "coordinates": [
                    17.9707969,
                    52.254689
                ]
            },
            "properties": {
                "ref:rspo": 12804,
                "official_name": "Przedszkole Gminne w Cieninie Zabornym",
                "name": "Przedszkole Gminne w Cieninie Zabornym",
                "addr:postcode": "62-400",
                "addr:place": "Cienin Zaborny",
                "addr:housenumber": "51A",
                "addr:city:simc": 294697,
                "phone": "+48 632772241",
                "email": "cienin.zab@wp.pl",
                "website": "http:\/\/pgcieninzaborny.szkolnastrona.pl\/",
                "ref:regon": "310005322",
                "ref:vatin": "PL6671656920",
                "operator": "Gmina S\u0142upca",
                "operator:type": "government",
                "amenity": "kindergarten",
                "note": "Parent RSPO: 133811"
            }
        },
        {
            "id": 133809,
            "type": "Feature",
            "geometry": {
                "type": "Point",
                "coordinates": [
                    17.8615639,
                    52.262547
                ]
            },
            "properties": {
                "ref:rspo": 133809,
                "official_name": "Zesp\u00f3\u0142 Szkolno - Przedszkolny w Kotuni",
                "name": "Zesp\u00f3\u0142 Szkolno - Przedszkolny w Kotuni",
                "addr:postcode": "62-400",
                "addr:place": "Kotunia",
                "addr:housenumber": "47",
                "addr:city:simc": 294935,
                "phone": "+48 632757582",
                "email": "spkotunia@vp.pl",
                "website": "http:\/\/www.spkotunia.pdg.pl",
                "ref:regon": "367671307",
                "ref:vatin": "PL6671770834",
                "operator": "Gmina S\u0142upca",
                "operator:type": "government",
                "landuse": "education",
                "fixme": "amenity=school, amenity=college albo landuse=education w zale\u017cno\u015bci od tego, jakie plac\u00f3wki wchodz\u0105 w sk\u0142ad zespo\u0142u. Sprawd\u017a, kiedy stosowa\u0107 amenity=* a kiedy landuse=education.",
                "note": "Children RSPO: 12800;79320"
            }
        },
        {
            "id": 12800,
            "type": "Feature",
            "geometry": {
                "type": "Point",
                "coordinates": [
                    17.8615639,
                    52.262516999999995
                ]
            },
            "properties": {
                "ref:rspo": 12800,
                "official_name": "Przedszkole Gminne w Kotuni",
                "name": "Przedszkole Gminne w Kotuni",
                "addr:postcode": "62-400",
                "addr:place": "Kotunia",
                "addr:housenumber": "47",
                "addr:city:simc": 294935,
                "phone": "+48 632757582",
                "email": "przedszkole.kotunia@wp.pl",
                "website": "http:\/\/www.przedszkolekotunia.pl",
                "ref:regon": "311601210",
                "ref:vatin": "PL6671665675",
                "operator": "Gmina S\u0142upca",
                "operator:type": "government",
                "amenity": "kindergarten",
                "note": "Parent RSPO: 133809"
            }
        },
        {
            "id": 79320,
            "type": "Feature",
            "geometry": {
                "type": "Point",
                "coordinates": [
                    17.8615639,
                    52.262487
                ]
            },
            "properties": {
                "isced:level": "1;2",
                "ref:rspo": 79320,
                "official_name": "Szko\u0142a Podstawowa im. Ireny Kosmowskiej w Kotuni",
                "name": "Szko\u0142a Podstawowa",
                "addr:postcode": "62-400",
                "addr:place": "Kotunia",
                "addr:housenumber": "47",
                "addr:city:simc": 294935,
                "phone": "+48 632757582",
                "email": "spkotunia@vp.pl",
                "website": "http:\/\/www.spkotunia.pdg.pl",
                "ref:regon": "000957732",
                "ref:vatin": "PL6671609671",
                "operator": "Gmina S\u0142upca",
                "operator:type": "government",
                "amenity": "school",
                "note": "Parent RSPO: 133809"
            }
        },
        {
            "id": 133754,
            "type": "Feature",
            "geometry": {
                "type": "Point",
                "coordinates": [
                    18.0103504,
                    52.2640969
                ]
            },
            "properties": {
                "ref:rspo": 133754,
                "official_name": "Zesp\u00f3\u0142 Szkolno- Przedszkolny w Cieninie Ko\u015bcielnym",
                "name": "Zesp\u00f3\u0142 Szkolno- Przedszkolny w Cieninie Ko\u015bcielnym",
                "addr:postcode": "62-400",
                "addr:place": "Cienin Ko\u015bcielny",
                "addr:housenumber": "82",
                "addr:city:simc": 294668,
                "phone": "+48 632772010",
                "email": "cienink@wp.pl",
                "website": "http:\/\/sp.cienink.edupage.org",
                "ref:regon": "367586234",
                "operator": "Gmina S\u0142upca",
                "operator:type": "government",
                "landuse": "education",
                "fixme": "amenity=school, amenity=college albo landuse=education w zale\u017cno\u015bci od tego, jakie plac\u00f3wki wchodz\u0105 w sk\u0142ad zespo\u0142u. Sprawd\u017a, kiedy stosowa\u0107 amenity=* a kiedy landuse=education.",
                "note": "Children RSPO: 12796;12803"
            }
        },
        {
            "id": 12796,
            "type": "Feature",
            "geometry": {
                "type": "Point",
                "coordinates": [
                    18.0103504,
                    52.264066899999996
                ]
            },
            "properties": {
                "isced:level": "1;2",
                "ref:rspo": 12796,
                "official_name": "Szko\u0142a Podstawowa im. Bohater\u00f3w Wrze\u015bnia 1939 R. w Cieninie Ko\u015bcielnym",
                "name": "Szko\u0142a Podstawowa",
                "addr:postcode": "62-400",
                "addr:place": "Cienin Ko\u015bcielny",
                "addr:housenumber": "82",
                "addr:city:simc": 294668,
                "phone": "+48 632772010",
                "email": "cienink@wp.pl",
                "website": "http:\/\/sp.cienink.edukade.org",
                "ref:regon": "001192094",
                "ref:vatin": "PL6671611202",
                "operator": "Gmina S\u0142upca",
                "operator:type": "government",
                "amenity": "school",
                "note": "Parent RSPO: 133754"
            }
        },
        {
            "id": 12803,
            "type": "Feature",
            "geometry": {
                "type": "Point",
                "coordinates": [
                    18.0103504,
                    52.2640369
                ]
            },
            "properties": {
                "ref:rspo": 12803,
                "official_name": "Przedszkole Gminne w Cieninie Ko\u015bcielnym",
                "name": "Przedszkole Gminne w Cieninie Ko\u015bcielnym",
                "addr:postcode": "62-400",
                "addr:place": "Cienin Ko\u015bcielny",
                "addr:housenumber": "82",
                "addr:city:simc": 294668,
                "phone": "+48 632772013",
                "email": "cienink@wp.pl",
                "website": "http:\/\/spcienink.edupage.org",
                "ref:regon": "310005339",
                "ref:vatin": "PL6671609659",
                "operator": "Gmina S\u0142upca",
                "operator:type": "government",
                "amenity": "kindergarten",
                "note": "Parent RSPO: 133754"
            }
        },
        {
            "id": 133811,
            "type": "Feature",
            "geometry": {
                "type": "Point",
                "coordinates": [
                    17.9737699,
                    52.2689029
                ]
            },
            "properties": {
                "ref:rspo": 133811,
                "official_name": "Zesp\u00f3\u0142 Szkolno - Przedszkolny w Cieninie Zabornym",
                "name": "Zesp\u00f3\u0142 Szkolno - Przedszkolny w Cieninie Zabornym",
                "addr:postcode": "62-400",
                "addr:place": "Cienin Zaborny",
                "addr:housenumber": "44",
                "addr:city:simc": 294697,
                "phone": "+48 632772241",
                "email": "cienin.zab@wp.pl",
                "website": "https:\/\/spcieninzaborny.edupage.org\/",
                "ref:regon": "367672123",
                "operator": "Gmina S\u0142upca",
                "operator:type": "government",
                "landuse": "education",
                "fixme": "amenity=school, amenity=college albo landuse=education w zale\u017cno\u015bci od tego, jakie plac\u00f3wki wchodz\u0105 w sk\u0142ad zespo\u0142u. Sprawd\u017a, kiedy stosowa\u0107 amenity=* a kiedy landuse=education.",
                "note": "Children RSPO: 12795;12804"
            }
        },
        {
            "id": 12795,
            "type": "Feature",
            "geometry": {
                "type": "Point",
                "coordinates": [
                    17.9737699,
                    52.2688729
                ]
            },
            "properties": {
                "isced:level": "1;2",
                "ref:rspo": 12795,
                "official_name": "Szko\u0142a Podstawowa im. Kazimierza Janickiego w Cieninie Zabornym",
                "name": "Szko\u0142a Podstawowa",
                "addr:postcode": "62-400",
                "addr:place": "Cienin Zaborny",
                "addr:housenumber": "44",
                "addr:city:simc": 294697,
                "phone": "+48 632772241",
                "email": "cienin.zab@wp.pl",
                "website": "https:\/\/spcieninzaborny.edupage.org\/",
                "ref:regon": "001192102",
                "ref:vatin": "PL6671609642",
                "operator": "Gmina S\u0142upca",
                "operator:type": "government",
                "amenity": "school",
                "note": "Parent RSPO: 133811"
            }
        },
        {
            "id": 12794,
            "type": "Feature",
            "geometry": {
                "type": "Point",
                "coordinates": [
                    17.917572,
                    52.2887233
                ]
            },
            "properties": {
                "isced:level": "1;2",
                "ref:rspo": 12794,
                "official_name": "Szkola Podstawowa im. J\u00f3zefa Janika w Koszutach",
                "name": "Szkola Podstawowa",
                "addr:postcode": "62-400",
                "addr:place": "Koszuty",
                "addr:housenumber": "17",
                "addr:city:simc": 294846,
                "phone": "+48 632757186",
                "email": "sekretariat@spkoszuty.pl",
                "website": "http:\/\/www.spkoszuty.superszkolna.pl",
                "ref:regon": "001192125",
                "ref:vatin": "PL6671611981",
                "operator": "Gmina S\u0142upca",
                "operator:type": "government",
                "amenity": "school"
            }
        },
        {
            "id": 133805,
            "type": "Feature",
            "geometry": {
                "type": "Point",
                "coordinates": [
                    17.986631,
                    52.312252
                ]
            },
            "properties": {
                "isced:level": "1;2",
                "ref:rspo": 133805,
                "official_name": "Szko\u0142a Podstawowa im. Polskich Noblist\u00f3w w Dr\u0105\u017cnej",
                "name": "Szko\u0142a Podstawowa",
                "addr:postcode": "62-400",
                "addr:place": "Dr\u0105\u017cna",
                "addr:housenumber": "38",
                "addr:city:simc": 294728,
                "phone": "+48 632436633",
                "email": "sekretariatpgd@wp.pl",
                "website": "http:\/\/drazna.pl",
                "ref:regon": "367661579",
                "operator": "Gmina S\u0142upca",
                "operator:type": "government",
                "amenity": "school"
            }
        },
        {
            "id": 133810,
            "type": "Feature",
            "geometry": {
                "type": "Point",
                "coordinates": [
                    17.9379353,
                    52.3159787
                ]
            },
            "properties": {
                "ref:rspo": 133810,
                "official_name": "Zesp\u00f3\u0142 Szkolno - Przedszkolny w M\u0142odojewie",
                "name": "Zesp\u00f3\u0142 Szkolno - Przedszkolny w M\u0142odojewie",
                "addr:postcode": "62-400",
                "addr:place": "M\u0142odojewo",
                "addr:housenumber": "92",
                "addr:city:simc": 295047,
                "phone": "+48 632757122",
                "email": "mlodojewo@o2.pl",
                "website": "http:\/\/www.zspmlodojewo.pl",
                "ref:regon": "367672063",
                "operator": "Gmina S\u0142upca",
                "operator:type": "government",
                "landuse": "education",
                "fixme": "amenity=school, amenity=college albo landuse=education w zale\u017cno\u015bci od tego, jakie plac\u00f3wki wchodz\u0105 w sk\u0142ad zespo\u0142u. Sprawd\u017a, kiedy stosowa\u0107 amenity=* a kiedy landuse=education.",
                "note": "Children RSPO: 12797;12802;12805"
            }
        },
        {
            "id": 12797,
            "type": "Feature",
            "geometry": {
                "type": "Point",
                "coordinates": [
                    17.9379353,
                    52.3159487
                ]
            },
            "properties": {
                "isced:level": "1;2",
                "ref:rspo": 12797,
                "official_name": "Szko\u0142a Podstawowa im. Jana Paw\u0142a II w M\u0142odojewie",
                "name": "Szko\u0142a Podstawowa",
                "addr:postcode": "62-400",
                "addr:place": "M\u0142odojewo",
                "addr:housenumber": "92",
                "addr:city:simc": 295047,
                "phone": "+48 632757122",
                "email": "mlodojewo@o2.pl",
                "website": "http:\/\/www.zspmlodojewo.pl",
                "ref:regon": "001192266",
                "ref:vatin": "PL6671611231",
                "operator": "Gmina S\u0142upca",
                "operator:type": "government",
                "amenity": "school",
                "note": "Parent RSPO: 133810"
            }
        },
        {
            "id": 12802,
            "type": "Feature",
            "geometry": {
                "type": "Point",
                "coordinates": [
                    17.9379353,
                    52.315918700000005
                ]
            },
            "properties": {
                "ref:rspo": 12802,
                "official_name": "Przedszkole Gminne M\u0142odojewo",
                "name": "Przedszkole Gminne M\u0142odojewo",
                "addr:postcode": "62-400",
                "addr:place": "M\u0142odojewo",
                "addr:housenumber": "92",
                "addr:city:simc": 295047,
                "phone": "+48 632757122",
                "email": "mlodojewo@o2.pl",
                "website": "http:\/\/www.zspmlodojewo.pl",
                "ref:regon": "310501179",
                "ref:vatin": "PL6671611107",
                "operator": "Gmina S\u0142upca",
                "operator:type": "government",
                "amenity": "kindergarten",
                "note": "Parent RSPO: 133810"
            }
        },
        {
            "id": 12805,
            "type": "Feature",
            "geometry": {
                "type": "Point",
                "coordinates": [
                    17.89292,
                    52.31838
                ]
            },
            "properties": {
                "ref:rspo": 12805,
                "official_name": "Przedszkole Gminne w Piotrowicach",
                "name": "Przedszkole Gminne w Piotrowicach",
                "addr:postcode": "62-400",
                "addr:city": "Piotrowice",
                "addr:street": "S\u0142upecka",
                "addr:housenumber": "10",
                "addr:city:simc": 295165,
                "addr:street:sym_ul": 20312,
                "phone": "+48 632754388",
                "email": "mlodojewo@o2.pl",
                "website": "http:\/\/www.pgpiotrowice.superszkolna.pl",
                "ref:regon": "310501162",
                "ref:vatin": "PL6671656937",
                "operator": "Gmina S\u0142upca",
                "operator:type": "government",
                "amenity": "kindergarten",
                "note": "Parent RSPO: 133810"
            }
        },
        {
            "id": 128282,
            "type": "Feature",
            "geometry": {
                "type": "Point",
                "coordinates": [
                    17.892990112305,
                    52.319618225098
                ]
            },
            "properties": {
                "isced:level": "1;2",
                "ref:rspo": 128282,
                "official_name": "Niepubliczna Szko\u0142a Podstawowa z Oddzia\u0142ami Integracyjnymi w Piotrowicach",
                "name": "Niepubliczna Szko\u0142a Podstawowa z Oddzia\u0142ami Integracyjnymi w Piotrowicach",
                "addr:postcode": "62-400",
                "addr:city": "Piotrowice",
                "addr:street": "Czere\u015bniowa",
                "addr:housenumber": "2",
                "addr:city:simc": 295165,
                "addr:street:sym_ul": 3376,
                "phone": "+48 607559152",
                "email": "szkolapiotrowice@wp.pl",
                "ref:regon": "362218483",
                "operator": "Iwona P\u0142ocka",
                "operator:type": "private",
                "amenity": "school"
            }
        },
        {
            "id": 130230,
            "type": "Feature",
            "geometry": {
                "type": "Point",
                "coordinates": [
                    17.89309,
                    52.31991
                ]
            },
            "properties": {
                "ref:rspo": 130230,
                "official_name": "Niepubliczne Przedszkole z Oddzia\u0142ami Integracyjnymi \"Mali Odkrywcy\" w Piotrowicach",
                "name": "Niepubliczne Przedszkole z Oddzia\u0142ami Integracyjnymi \"Mali Odkrywcy\" w Piotrowicach",
                "addr:postcode": "62-400",
                "addr:city": "Piotrowice",
                "addr:street": "S\u0142upecka",
                "addr:housenumber": "83",
                "addr:city:simc": 295165,
                "addr:street:sym_ul": 20312,
                "phone": "+48 607377388",
                "email": "kontakt@maliodkrywcy.net.pl",
                "website": "http:\/\/www.maliodkrywcy.net.pl",
                "ref:regon": "363670618",
                "ref:vatin": "PL6671770662",
                "operator": "Edukacja - Miko\u0142ajczyk Sp\u00f3\u0142ka Z Ograniczon\u0105 Odpowiedzialno\u015bci\u0105",
                "operator:type": "private",
                "amenity": "kindergarten"
            }
        }
    ]
}