{"type":"FeatureCollection","features":[{"id":17318,"type":"Feature","geometry":{"type":"Point","coordinates":[18.010969161987,52.248210906982]},"properties":{"ref:rspo":17318,"official_name":"Zesp\u00f3\u0142 Szk\u00f3\u0142 Muzycznych im. Apolinarego Szeluty w S\u0142upcy","name":"Zesp\u00f3\u0142 Szk\u00f3\u0142 Muzycznych","addr:country":"PL","addr:postcode":"62-400","addr:city":"S\u0142upca","addr:street":"ul. Rotmistrza Witolda Pileckiego","addr:housenumber":"3","addr:teryt:simc":31083,"addr:teryt:sym_ul":949247,"contact:phone":"+48 632753813","contact:email":"zsm_slupca@wp.pl","contact:website":"http:\/\/szeluto.pl","ref:regon":"001416783","operator":"Ministerstwo Kultury I Dziedzictwa Narodowego","operator:type":"public","landuse":"education","fixme":"amenity=school, amenity=college albo landuse=education w zale\u017cno\u015bci od tego, jakie plac\u00f3wki wchodz\u0105 w sk\u0142ad zespo\u0142u. Sprawd\u017a, kiedy stosowa\u0107 amenity=* a kiedy landuse=education.","note":"Children RSPO: 78087;78088"}},{"id":130413,"type":"Feature","geometry":{"type":"Point","coordinates":[18.010969161987,52.248180906982]},"properties":{"ref:rspo":130413,"official_name":"Niepubliczna Szko\u0142a Muzyczna II St. w S\u0142upcy","name":"Niepubliczna Szko\u0142a Muzyczna II St. w S\u0142upcy","addr:country":"PL","addr:postcode":"62-400","addr:city":"S\u0142upca","addr:street":"ul. Rotmistrza Witolda Pileckiego","addr:housenumber":"3","addr:teryt:simc":31083,"addr:teryt:sym_ul":949247,"contact:phone":"+48 632753813","contact:email":"zsm_slupca@wp.pl","ref:regon":"363989018","operator":"S\u0142upeckie Towarzystwo Muzyczne","operator:type":"ngo","amenity":"music_school"}},{"id":78087,"type":"Feature","geometry":{"type":"Point","coordinates":[18.010969161987,52.248150906982005]},"properties":{"ref:rspo":78087,"official_name":"Pa\u0144stwowa Szko\u0142a Muzyczna I St. w S\u0142upcy","name":"Pa\u0144stwowa Szko\u0142a Muzyczna I St. w S\u0142upcy","addr:country":"PL","addr:postcode":"62-400","addr:city":"S\u0142upca","addr:street":"ul. Rotmistrza Witolda Pileckiego","addr:housenumber":"3","addr:teryt:simc":31083,"addr:teryt:sym_ul":949247,"contact:phone":"+48 632753813","ref:regon":"311601150","operator":"Ministerstwo Kultury I Dziedzictwa Narodowego","operator:type":"public","amenity":"music_school","note":"Parent RSPO: 17318"}},{"id":78088,"type":"Feature","geometry":{"type":"Point","coordinates":[18.010969161987,52.248120906982]},"properties":{"ref:rspo":78088,"official_name":"Pa\u0144stwowa Szko\u0142a Muzyczna II St. w S\u0142upcy","name":"Pa\u0144stwowa Szko\u0142a Muzyczna II St. w S\u0142upcy","addr:country":"PL","addr:postcode":"62-400","addr:city":"S\u0142upca","addr:street":"ul. Rotmistrza Witolda Pileckiego","addr:housenumber":"3","addr:teryt:simc":31083,"addr:teryt:sym_ul":949247,"contact:phone":"+48 632753813","ref:regon":"311601167","operator":"Ministerstwo Kultury I Dziedzictwa Narodowego","operator:type":"public","amenity":"music_school","note":"Parent RSPO: 17318"}},{"id":268777,"type":"Feature","geometry":{"type":"Point","coordinates":[17.86674,52.28552]},"properties":{"ref:rspo":268777,"official_name":"Niepubliczne Przedszkole Bajka","name":"Niepubliczne Przedszkole Bajka","addr:country":"PL","addr:postcode":"62-400","addr:city":"S\u0142upca","addr:street":"ul. 3 Maja","addr:housenumber":"13","addr:teryt:simc":11937,"addr:teryt:sym_ul":949247,"contact:email":"biuro@dinobajka.pl","ref:regon":"381248644","ref:vatin":"PL6671705127","operator":"Agnieszka Skweres-P\u0142ocka","operator:type":"private","amenity":"kindergarten"}},{"id":88114,"type":"Feature","geometry":{"type":"Point","coordinates":[17.87337,52.28615]},"properties":{"ref:rspo":88114,"official_name":"Przedszkole Nr 1 Z Oddzia\u0142ami Integracyjnymi im. Doroty Gellner w S\u0142upcy","name":"Przedszkole Nr 1 Z Oddzia\u0142ami Integracyjnymi","addr:country":"PL","addr:postcode":"62-400","addr:city":"S\u0142upca","addr:street":"ul. Okopowa","addr:housenumber":"4A","addr:teryt:simc":14886,"addr:teryt:sym_ul":949247,"contact:phone":"+48 632751405","contact:email":"przedszkole1.slupca@op.pl","contact:website":"http:\/\/www.przedszkole1slupca.szkolnastrona.pl","ref:regon":"000996152","ref:vatin":"PL6671629811","operator":"Miasto S\u0142upca","operator:type":"government","amenity":"kindergarten"}},{"id":87182,"type":"Feature","geometry":{"type":"Point","coordinates":[17.8719499,52.28915]},"properties":{"isced:level":"3","ref:rspo":87182,"official_name":"Liceum Og\u00f3lnokszta\u0142c\u0105ce im. Marsza\u0142ka J.pi\u0142sudskiego w S\u0142upcy","name":"Liceum Og\u00f3lnokszta\u0142c\u0105ce","addr:country":"PL","addr:postcode":"62-400","addr:city":"S\u0142upca","addr:street":"pl. Szkolny","addr:housenumber":"1","addr:teryt:simc":21972,"addr:teryt:sym_ul":949247,"contact:phone":"+48 632751093","contact:email":"loslupca@o2.pl","contact:website":"http:\/\/www.loslupca.pl","ref:regon":"000229145","ref:vatin":"PL6671222883","operator":"Powiat S\u0142upecki","operator:type":"government","amenity":"school"}},{"id":88116,"type":"Feature","geometry":{"type":"Point","coordinates":[17.8725,52.28988]},"properties":{"isced:level":"1;2","ref:rspo":88116,"official_name":"Szko\u0142a Podstawowa Nr 1 im. Komisji Edukacji Narodowej w S\u0142upcy","name":"Szko\u0142a Podstawowa Nr 1","addr:country":"PL","addr:postcode":"62-400","addr:city":"S\u0142upca","addr:street":"pl. Szkolny","addr:housenumber":"1A","addr:teryt:simc":21972,"addr:teryt:sym_ul":949247,"contact:phone":"+48 632743748","contact:email":"sp1sl@wp.pl","contact:website":"http:\/\/sp1slupca.szkolnastrona.pl","ref:regon":"000710345","ref:vatin":"PL6671222156","operator":"Miasto S\u0142upca","operator:type":"government","amenity":"school"}},{"id":88117,"type":"Feature","geometry":{"type":"Point","coordinates":[17.87603,52.29043]},"properties":{"ref:rspo":88117,"official_name":"Przedszkole Nr 2 \"Mi\u015b\" w S\u0142upcy","name":"Przedszkole Nr 2 \"Mi\u015b\" w S\u0142upcy","addr:country":"PL","addr:postcode":"62-400","addr:city":"S\u0142upca","addr:street":"ul. Armii Krajowej","addr:housenumber":"4a","addr:teryt:simc":432,"addr:teryt:sym_ul":949247,"contact:phone":"+48 632751915","contact:email":"p2slupca@p2slupca.pl","contact:website":"http:\/\/www.p2slupca.pl","ref:regon":"310501096","ref:vatin":"PL6671629219","operator":"Miasto S\u0142upca","operator:type":"government","amenity":"kindergarten"}},{"id":129582,"type":"Feature","geometry":{"type":"Point","coordinates":[17.86987,52.29049]},"properties":{"ref:rspo":129582,"official_name":"Przedszkole Niepubliczne \"Mi\u015b Uszatek\" - Donata Hedrych","name":"Przedszkole Niepubliczne \"Mi\u015b Uszatek\" - Donata Hedrych","addr:country":"PL","addr:postcode":"62-400","addr:city":"S\u0142upca","addr:street":"ul. Jana Kili\u0144skiego","addr:housenumber":"9","addr:door":"a","addr:teryt:simc":8435,"addr:teryt:sym_ul":949247,"contact:phone":"+48 632223074","contact:email":"przedszkole@misuszatekslupca.pl","contact:website":"http:\/\/www.misuszatekslupca.pl","ref:regon":"362672319","ref:vatin":"PL7891013283","operator":"Donata Hedrych","operator:type":"private","amenity":"kindergarten"}},{"id":278111,"type":"Feature","geometry":{"type":"Point","coordinates":[17.87857,52.29059]},"properties":{"ref:rspo":278111,"official_name":"Przedszkole Nr 3 w S\u0142upcy","name":"Przedszkole Nr 3 w S\u0142upcy","addr:country":"PL","addr:postcode":"62-400","addr:city":"S\u0142upca","addr:street":"ul. Armii Krajowej","addr:housenumber":"31","addr:teryt:simc":432,"addr:teryt:sym_ul":949247,"contact:email":"biuro@slupca.kreskowka.org","ref:regon":"389845339","operator":"Natalia Aleksandrov","operator:type":"private","amenity":"kindergarten"}},{"id":128875,"type":"Feature","geometry":{"type":"Point","coordinates":[17.87959,52.29066]},"properties":{"ref:rspo":128875,"official_name":"Centrum Doskonalenia Nauczycieli Publiczna Biblioteka Pedagogiczna w Koninie Filia w S\u0142upcy","name":"Centrum Doskonalenia Nauczycieli Publiczna Biblioteka Pedagogiczna w Koninie Filia w S\u0142upcy","addr:country":"PL","addr:postcode":"62-400","addr:city":"S\u0142upca","addr:street":"ul. Armii Krajowej","addr:housenumber":"27","addr:teryt:simc":432,"addr:teryt:sym_ul":949247,"contact:phone":"+48 632751543","contact:email":"slupca@cdnkonin.pl","ref:regon":"311111776","operator":"Wojew\u00f3dztwo Wielkopolskie","operator:type":"government","amenity":"library","note":"Parent RSPO: 30934"}},{"id":62314,"type":"Feature","geometry":{"type":"Point","coordinates":[17.87963,52.29164]},"properties":{"ref:rspo":62314,"official_name":"Zesp\u00f3\u0142 Szk\u00f3\u0142 Ekonomicznych im. Maksymiliana Jackowskiego w S\u0142upcy","name":"Zesp\u00f3\u0142 Szk\u00f3\u0142 Ekonomicznych","addr:country":"PL","addr:postcode":"62-400","addr:city":"S\u0142upca","addr:street":"ul. Powsta\u0144c\u00f3w Wielkopolskich","addr:housenumber":"22","addr:teryt:simc":17377,"addr:teryt:sym_ul":949247,"contact:phone":"+48 632751130","contact:email":"sekretariat@zseslupca.eu","contact:website":"http:\/\/www.zseslupca.eu","ref:regon":"000186223","ref:vatin":"PL6671230204","operator":"Powiat S\u0142upecki","operator:type":"government","landuse":"education","fixme":"amenity=school, amenity=college albo landuse=education w zale\u017cno\u015bci od tego, jakie plac\u00f3wki wchodz\u0105 w sk\u0142ad zespo\u0142u. Sprawd\u017a, kiedy stosowa\u0107 amenity=* a kiedy landuse=education.","note":"Children RSPO: 83429;83561"}},{"id":72633,"type":"Feature","geometry":{"type":"Point","coordinates":[17.87963,52.29161]},"properties":{"ref:rspo":72633,"official_name":"Mi\u0119dzyszkolny O\u015brodek Sportowy","name":"Mi\u0119dzyszkolny O\u015brodek Sportowy","addr:country":"PL","addr:postcode":"62-400","addr:city":"S\u0142upca","addr:street":"ul. Powsta\u0144c\u00f3w Wielkopolskich","addr:housenumber":"22b","addr:teryt:simc":17377,"addr:teryt:sym_ul":949247,"contact:phone":"+48 632753373","contact:email":"slupcamos@wp.pl","contact:website":"http:\/\/www.mosslupca.pl","ref:regon":"311013648","ref:vatin":"PL6671643610","operator":"Powiat S\u0142upecki","operator:type":"government","leisure":"sports_centre"}},{"id":83429,"type":"Feature","geometry":{"type":"Point","coordinates":[17.87963,52.29158]},"properties":{"isced:level":"3","ref:rspo":83429,"official_name":"Zesp\u00f3\u0142 Szk\u00f3\u0142 Ekonomicznych w S\u0142upcy im. Masymiliana Jackowskiego - Liceum Og\u00f3lnokszta\u0142c\u0105ce Nr Ii","name":"Zesp\u00f3\u0142 Szk\u00f3\u0142 Ekonomicznych w S\u0142upcy","addr:country":"PL","addr:postcode":"62-400","addr:city":"S\u0142upca","addr:street":"ul. Powsta\u0144c\u00f3w Wielkopolskich","addr:housenumber":"22","addr:teryt:simc":17377,"addr:teryt:sym_ul":949247,"contact:phone":"+48 632751130","contact:email":"sekretariat@zseslupca.eu","contact:website":"http:\/\/www.zseslupca.eu","ref:regon":"311595700","operator":"Powiat S\u0142upecki","operator:type":"government","amenity":"school","note":"Parent RSPO: 62314"}},{"id":83561,"type":"Feature","geometry":{"type":"Point","coordinates":[17.87963,52.29155]},"properties":{"isced:level":"3","ref:rspo":83561,"official_name":"Zesp\u00f3\u0142 Szk\u00f3\u0142 Ekonomicznych w S\u0142upcy im. Maksymiliana Jackowskiego - Technikum Nr I","name":"Zesp\u00f3\u0142 Szk\u00f3\u0142 Ekonomicznych w S\u0142upcy","addr:country":"PL","addr:postcode":"62-400","addr:city":"S\u0142upca","addr:street":"ul. Powsta\u0144c\u00f3w Wielkopolskich","addr:housenumber":"22","addr:teryt:simc":17377,"addr:teryt:sym_ul":949247,"contact:phone":"+48 632751130","contact:email":"sekretariat@zseslupca.eu","contact:website":"http:\/\/www.zseslupca.eu","ref:regon":"311595722","operator":"Powiat S\u0142upecki","operator:type":"government","amenity":"school","note":"Parent RSPO: 62314"}},{"id":25802,"type":"Feature","geometry":{"type":"Point","coordinates":[17.88131,52.29164]},"properties":{"ref:rspo":25802,"official_name":"Poradnia Psychologiczno-Pedagogiczna w S\u0142upcy","name":"Poradnia Psychologiczno-Pedagogiczna w S\u0142upcy","addr:country":"PL","addr:postcode":"62-400","addr:city":"S\u0142upca","addr:street":"ul. Wojska Polskiego","addr:housenumber":"13","addr:teryt:simc":24628,"addr:teryt:sym_ul":949247,"contact:phone":"+48 632771322","contact:email":"sekretariat@poradniapp-slupca.pl","contact:website":"http:\/\/www.poradniapp-slupca.pl","ref:regon":"310508603","ref:vatin":"PL6671173943","operator":"Powiat S\u0142upecki","operator:type":"government","healthcare":"councelling","counselling_type":"education","fixme":"w zale\u017cno\u015bci od przedmiotu dzia\u0142alno\u015bci (np. healthcare=councelling + counselling_type=education albo healthcare=psychotherapist)"}},{"id":57234,"type":"Feature","geometry":{"type":"Point","coordinates":[17.88131,52.29161]},"properties":{"ref:rspo":57234,"official_name":"Specjalny O\u015brodek Szkolno-Wychowawczy im. Marii Grzegorzewskiej w S\u0142upcy","name":"Specjalny O\u015brodek Szkolno-Wychowawczy","addr:country":"PL","addr:postcode":"62-400","addr:city":"S\u0142upca","addr:street":"ul. Wojska Polskiego","addr:housenumber":"13","addr:teryt:simc":24628,"addr:teryt:sym_ul":949247,"contact:phone":"+48 632752018","contact:email":"dyrektorsosw@wp.pl","contact:website":"http:\/\/www.soswslupca.pl","ref:regon":"000710351","ref:vatin":"PL6671222877","operator":"Powiat S\u0142upecki","operator:type":"government","amenity":"school","note":"Children RSPO: 75470;75642;75674;131516"}},{"id":75470,"type":"Feature","geometry":{"type":"Point","coordinates":[17.88131,52.29158]},"properties":{"isced:level":"1;2","ref:rspo":75470,"official_name":"Szko\u0142a Podstawowa Specjalna w S\u0142upcy","name":"Szko\u0142a Podstawowa Specjalna w S\u0142upcy","addr:country":"PL","addr:postcode":"62-400","addr:city":"S\u0142upca","addr:street":"ul. Wojska Polskiego","addr:housenumber":"13","addr:teryt:simc":24628,"addr:teryt:sym_ul":949247,"contact:phone":"+48 632752018","contact:email":"dyrektorsosw@wp.pl","contact:website":"http:\/\/www.soswslupca.pl","ref:regon":"311509504","operator":"Powiat S\u0142upecki","operator:type":"government","amenity":"school","note":"Parent RSPO: 57234"}},{"id":75642,"type":"Feature","geometry":{"type":"Point","coordinates":[17.88131,52.29155]},"properties":{"isced:level":"3","ref:rspo":75642,"official_name":"Bran\u017cowa Szko\u0142a Specjalna w S\u0142upcy","name":"Bran\u017cowa Szko\u0142a Specjalna w S\u0142upcy","addr:country":"PL","addr:postcode":"62-400","addr:city":"S\u0142upca","addr:street":"ul. Wojska Polskiego","addr:housenumber":"13","addr:teryt:simc":24628,"addr:teryt:sym_ul":949247,"contact:phone":"+48 632752018","contact:email":"dyrektorsosw@wp.pl","contact:website":"http:\/\/www.soswslupca.pl","ref:regon":"311509510","operator":"Powiat S\u0142upecki","operator:type":"government","amenity":"school","note":"Parent RSPO: 57234"}},{"id":75674,"type":"Feature","geometry":{"type":"Point","coordinates":[17.88131,52.29152]},"properties":{"ref:rspo":75674,"official_name":"Specjalny O\u015brodek Szkolno-Wychowawczy im. Marii Grzegorzewskiej - Szko\u0142a Specjalna Przysposabiaj\u0105ca Do Pracy w S\u0142upcy","name":"Specjalny O\u015brodek Szkolno-Wychowawczy","addr:country":"PL","addr:postcode":"62-400","addr:city":"S\u0142upca","addr:street":"ul. Wojska Polskiego","addr:housenumber":"13","addr:teryt:simc":24628,"addr:teryt:sym_ul":949247,"contact:phone":"+48 632752018","contact:email":"dyrektorsosw@wp.pl","contact:website":"http:\/\/www.soswslupca.pl","ref:regon":"300113456","operator":"Powiat S\u0142upecki","operator:type":"government","amenity":"school","note":"Parent RSPO: 57234"}},{"id":131516,"type":"Feature","geometry":{"type":"Point","coordinates":[17.88131,52.29149]},"properties":{"ref:rspo":131516,"official_name":"Przedszkole Specjalne w Specjalnym O\u015brodku Szkolno-Wychowawczym im. Marii Grzegorzewskiej w S\u0142upcy","name":"Przedszkole Specjalne w Specjalnym O\u015brodku Szkolno-Wychowawczym","addr:country":"PL","addr:postcode":"62-400","addr:city":"S\u0142upca","addr:street":"ul. Wojska Polskiego","addr:housenumber":"13","addr:teryt:simc":24628,"addr:teryt:sym_ul":949247,"contact:phone":"+48 632752018","contact:email":"dyrektorsosw@wp.pl","contact:website":"http:\/\/www.soswslupca.pl","ref:regon":"365210660","operator":"Powiat S\u0142upecki","operator:type":"government","amenity":"kindergarten","note":"Parent RSPO: 57234"}},{"id":25313,"type":"Feature","geometry":{"type":"Point","coordinates":[17.86766,52.29193]},"properties":{"ref:rspo":25313,"official_name":"Centrum Kszta\u0142cenia Zawodowego","name":"Centrum Kszta\u0142cenia Zawodowego","addr:country":"PL","addr:postcode":"62-400","addr:city":"S\u0142upca","addr:street":"ul. Miko\u0142aja Kopernika","addr:housenumber":"11A","addr:teryt:simc":9282,"addr:teryt:sym_ul":949247,"contact:phone":"+48 632751426","contact:email":"odidz.slupca@interia.pl","contact:website":"http:\/\/zszslupca.pl","ref:regon":"301523914","ref:vatin":"PL6671753712","operator":"Powiat S\u0142upecki","operator:type":"government","fixme":"w zale\u017cno\u015bci od przedmiotu dzia\u0142alno\u015bci (np. amenity=training + training=*, amenity=dancing_school, amenity=language_school, amenity=music_school) albo amenity=school, amenity=college, albo landuse=education w zale\u017cno\u015bci od tego, jakie plac\u00f3wki wchodz\u0105 w sk\u0142ad zespo\u0142u. Sprawd\u017a, kiedy stosowa\u0107 amenity=* a kiedy landuse=education."}},{"id":26729,"type":"Feature","geometry":{"type":"Point","coordinates":[17.86766,52.2919]},"properties":{"ref:rspo":26729,"official_name":"Zesp\u00f3\u0142 Szk\u00f3\u0142 Zawodowych im. Gen. W\u0142adys\u0142awa Sikorskiego w S\u0142upcy","name":"Zesp\u00f3\u0142 Szk\u00f3\u0142 Zawodowych","addr:country":"PL","addr:postcode":"62-400","addr:city":"S\u0142upca","addr:street":"ul. Miko\u0142aja Kopernika","addr:housenumber":"11A","addr:teryt:simc":9282,"addr:teryt:sym_ul":949247,"contact:phone":"+48 632751426","contact:email":"zszslupca@interia.pl","contact:website":"http:\/\/www.zszslupca.pl\/","ref:regon":"000684470","ref:vatin":"PL6671272438","operator":"Powiat S\u0142upecki","operator:type":"government","landuse":"education","fixme":"amenity=school, amenity=college albo landuse=education w zale\u017cno\u015bci od tego, jakie plac\u00f3wki wchodz\u0105 w sk\u0142ad zespo\u0142u. Sprawd\u017a, kiedy stosowa\u0107 amenity=* a kiedy landuse=education.","note":"Children RSPO: 53477;53479;65183;66223;275924"}},{"id":53477,"type":"Feature","geometry":{"type":"Point","coordinates":[17.86766,52.29187]},"properties":{"isced:level":"3","ref:rspo":53477,"official_name":"Zesp\u00f3\u0142 Szk\u00f3\u0142 Zawodowych im. Gen. W\u0142adys\u0142awa Sikorskiego Technikum Nr 2 w S\u0142upcy","name":"Zesp\u00f3\u0142 Szk\u00f3\u0142 Zawodowych","addr:country":"PL","addr:postcode":"62-400","addr:city":"S\u0142upca","addr:street":"ul. Miko\u0142aja Kopernika","addr:housenumber":"11A","addr:teryt:simc":9282,"addr:teryt:sym_ul":949247,"contact:phone":"+48 632751426","contact:email":"zszslupca@interia.pl","contact:website":"http:\/\/www.zszslupca.pl","ref:regon":"311596555","operator":"Powiat S\u0142upecki","operator:type":"government","amenity":"school","note":"Parent RSPO: 26729"}},{"id":53479,"type":"Feature","geometry":{"type":"Point","coordinates":[17.86766,52.29184]},"properties":{"isced:level":"3","ref:rspo":53479,"official_name":"Zesp\u00f3\u0142 Szk\u00f3\u0142 Zawodowych im. Gen. W\u0142adys\u0142awa Sikorskiego Bran\u017cowa Szko\u0142a I Stopnia w S\u0142upcy","name":"Zesp\u00f3\u0142 Szk\u00f3\u0142 Zawodowych","addr:country":"PL","addr:postcode":"62-400","addr:city":"S\u0142upca","addr:street":"ul. Miko\u0142aja Kopernika","addr:housenumber":"11A","addr:teryt:simc":9282,"addr:teryt:sym_ul":949247,"contact:phone":"+48 632751426","contact:email":"zszslupca@interia.pl","contact:website":"http:\/\/www.zszslupca.pl","ref:regon":"311596532","operator":"Powiat S\u0142upecki","operator:type":"government","amenity":"school","note":"Parent RSPO: 26729"}},{"id":65183,"type":"Feature","geometry":{"type":"Point","coordinates":[17.86766,52.29181]},"properties":{"isced:level":"4","ref:rspo":65183,"official_name":"Zesp\u00f3\u0142 Szk\u00f3\u0142 Zawodowych im. Gen. W\u0142adys\u0142awa Sikorskiego Szko\u0142a Policealna Nr 2","name":"Zesp\u00f3\u0142 Szk\u00f3\u0142 Zawodowych","addr:country":"PL","addr:postcode":"62-400","addr:city":"S\u0142upca","addr:street":"ul. Miko\u0142aja Kopernika","addr:housenumber":"11A","addr:teryt:simc":9282,"addr:teryt:sym_ul":949247,"contact:phone":"+48 632751426","contact:email":"zszslupca@interia.pl","contact:website":"http:\/\/www.zszslupca.pl","ref:regon":"300109615","operator":"Powiat S\u0142upecki","operator:type":"government","amenity":"college","note":"Parent RSPO: 26729"}},{"id":66223,"type":"Feature","geometry":{"type":"Point","coordinates":[17.86766,52.29178]},"properties":{"isced:level":"3","ref:rspo":66223,"official_name":"Zesp\u00f3\u0142 Szk\u00f3\u0142 Zawodowych im. Gen. W\u0142adys\u0142awa Sikorskiego Liceum Og\u00f3lnokszta\u0142c\u0105ce dla Doros\u0142ych","name":"Zesp\u00f3\u0142 Szk\u00f3\u0142 Zawodowych","addr:country":"PL","addr:postcode":"62-400","addr:city":"S\u0142upca","addr:street":"ul. Miko\u0142aja Kopernika","addr:housenumber":"11A","addr:teryt:simc":9282,"addr:teryt:sym_ul":949247,"contact:phone":"+48 632751426","contact:email":"zszslupca@interia.pl","contact:website":"http:\/\/zszslupca.pl","ref:regon":"300109220","operator":"Powiat S\u0142upecki","operator:type":"government","amenity":"school","note":"Parent RSPO: 26729"}},{"id":275924,"type":"Feature","geometry":{"type":"Point","coordinates":[17.86766,52.29175]},"properties":{"isced:level":"3","ref:rspo":275924,"official_name":"Zesp\u00f3\u0142 Szk\u00f3\u0142 Zawodowych im. Gen. W\u0142adys\u0142awa Sikorskiego Bran\u017cowa Szko\u0142a II Stopnia","name":"Zesp\u00f3\u0142 Szk\u00f3\u0142 Zawodowych","addr:country":"PL","addr:postcode":"62-400","addr:city":"S\u0142upca","addr:street":"ul. Miko\u0142aja Kopernika","addr:housenumber":"11A","addr:teryt:simc":9282,"addr:teryt:sym_ul":949247,"contact:phone":"+48 632751426","contact:email":"zszslupca@interia.pl","contact:website":"http:\/\/www.zszslupca.pl","ref:regon":"386956015","operator":"Powiat S\u0142upecki","operator:type":"government","amenity":"school","note":"Parent RSPO: 26729"}},{"id":88115,"type":"Feature","geometry":{"type":"Point","coordinates":[17.87323,52.29299]},"properties":{"ref:rspo":88115,"official_name":"Przedszkole Nr 4 \"Jarz\u0119binka\" w S\u0142upcy","name":"Przedszkole Nr 4 \"Jarz\u0119binka\" w S\u0142upcy","addr:country":"PL","addr:postcode":"62-400","addr:city":"S\u0142upca","addr:street":"ul. gen. W\u0142adys\u0142awa Sikorskiego","addr:housenumber":"3","addr:teryt:simc":19907,"addr:teryt:sym_ul":949247,"contact:phone":"+48 632752719","contact:email":"przedszkole-jarzebinka@wp.pl","contact:website":"http:\/\/www.przedszkole-jarzebinka.cba.pl","ref:regon":"310501080","ref:vatin":"PL6671627522","operator":"Miasto S\u0142upca","operator:type":"government","amenity":"kindergarten"}},{"id":88113,"type":"Feature","geometry":{"type":"Point","coordinates":[17.86868,52.29428]},"properties":{"isced:level":"1;2","ref:rspo":88113,"official_name":"Szko\u0142a Podstawowa Nr 3 im. Adama Mickiewicza w S\u0142upcy","name":"Szko\u0142a Podstawowa Nr 3","addr:country":"PL","addr:postcode":"62-400","addr:city":"S\u0142upca","addr:street":"ul. Miko\u0142aja Kopernika","addr:housenumber":"13","addr:teryt:simc":9282,"addr:teryt:sym_ul":949247,"contact:phone":"+48 632751531","contact:email":"sp3slupca@sp3slupca.pl","contact:website":"http:\/\/www.sp3slupca.pl","ref:regon":"310003174","ref:vatin":"PL6671201763","operator":"Miasto S\u0142upca","operator:type":"government","amenity":"school"}}]}