{
    "type": "FeatureCollection",
    "features": [
        {
            "id": 264391,
            "type": "Feature",
            "geometry": {
                "type": "Point",
                "coordinates": [
                    18.49627,
                    54.56371
                ]
            },
            "properties": {
                "ref:rspo": 264391,
                "official_name": "Niepubliczne Przedszkole J\u0119zykowe \"Mr\u00f3weczki\"",
                "name": "Niepubliczne Przedszkole J\u0119zykowe \"Mr\u00f3weczki\"",
                "addr:postcode": "81-198",
                "addr:city": "Pog\u00f3rze",
                "addr:street": "Jana III Sobieskiego",
                "addr:housenumber": "1",
                "addr:city:simc": 164180,
                "addr:street:sym_ul": 20431,
                "email": "dyrektor@przedszkolemroweczki.pl",
                "website": "http:\/\/przedszkolemroweczki.pl",
                "ref:regon": "368329752",
                "operator": "Anna Borowiec-Paw\u0142owska",
                "operator:type": "private",
                "amenity": "kindergarten"
            }
        },
        {
            "id": 273185,
            "type": "Feature",
            "geometry": {
                "type": "Point",
                "coordinates": [
                    18.49138,
                    54.56402
                ]
            },
            "properties": {
                "ref:rspo": 273185,
                "official_name": "Przedszkole Niepubliczne Beauforcik",
                "name": "Przedszkole Niepubliczne Beauforcik",
                "addr:postcode": "81-198",
                "addr:city": "Pog\u00f3rze",
                "addr:street": "Szymona Czechowicza",
                "addr:housenumber": "1U",
                "addr:door": "1-2-3",
                "addr:city:simc": 164180,
                "addr:street:sym_ul": 3344,
                "email": "przedszkole@beauforcik.stronyzklasa.pl",
                "website": "http:\/\/www.beauforcik.stronyzklasa.pl",
                "ref:regon": "384391075",
                "operator": "Beata Bergmuller",
                "operator:type": "private",
                "amenity": "kindergarten"
            }
        },
        {
            "id": 7210,
            "type": "Feature",
            "geometry": {
                "type": "Point",
                "coordinates": [
                    18.47991,
                    54.56592
                ]
            },
            "properties": {
                "isced:level": "1;2",
                "ref:rspo": 7210,
                "official_name": "Szko\u0142a Podstawowa Im Kmdr Xawerego Czernickiego w Pog\u00f3rzu",
                "name": "Szko\u0142a Podstawowa Im Kmdr Xawerego Czernickiego w Pog\u00f3rzu",
                "addr:postcode": "81-198",
                "addr:city": "Pog\u00f3rze",
                "addr:street": "Szkolna",
                "addr:housenumber": "15",
                "addr:city:simc": 164180,
                "addr:street:sym_ul": 21970,
                "phone": "+48 586657630",
                "email": "sp-pogorze@wp.pl",
                "website": "http:\/\/sp-pogorze.pl",
                "ref:regon": "001172499",
                "ref:vatin": "PL9580925072",
                "operator": "Gmina Kosakowo",
                "operator:type": "government",
                "amenity": "school"
            }
        },
        {
            "id": 269182,
            "type": "Feature",
            "geometry": {
                "type": "Point",
                "coordinates": [
                    18.4787,
                    54.5661
                ]
            },
            "properties": {
                "ref:rspo": 269182,
                "official_name": "Niepubliczne Przedszkole Nutka",
                "name": "Niepubliczne Przedszkole Nutka",
                "addr:postcode": "81-198",
                "addr:city": "Pog\u00f3rze",
                "addr:street": "Majakowskiego",
                "addr:housenumber": "1",
                "addr:city:simc": 164180,
                "addr:street:sym_ul": 11947,
                "email": "przedszkole-nutka@wp.pl",
                "ref:regon": "381393636",
                "operator": "Niepubliczne Przedszkole Muzyczno Terapeutyczne Nutka Sp\u00f3\u0142ka Z Ograniczon\u0105 Odpowiedzialno\u015bci\u0105",
                "operator:type": "private",
                "amenity": "kindergarten"
            }
        },
        {
            "id": 278753,
            "type": "Feature",
            "geometry": {
                "type": "Point",
                "coordinates": [
                    18.4787,
                    54.566069999999996
                ]
            },
            "properties": {
                "ref:rspo": 278753,
                "official_name": "Niepubliczna Poradnia Psychologiczno-Pedagogiczna \"Nutka\"",
                "name": "Niepubliczna Poradnia Psychologiczno-Pedagogiczna \"Nutka\"",
                "addr:postcode": "81-198",
                "addr:city": "Pog\u00f3rze",
                "addr:street": "Majakowskiego",
                "addr:housenumber": "1",
                "addr:city:simc": 164180,
                "addr:street:sym_ul": 11947,
                "phone": "+48 604723911",
                "email": "przedszkole-nutka@wp.pl",
                "ref:regon": "520058066",
                "operator": "Niepubliczne Przedszkole Muzyczno Terapeutyczne Nutka Sp\u00f3\u0142ka Z Ograniczon\u0105 Odpowiedzialno\u015bci\u0105",
                "operator:type": "private",
                "healthcare": "counselling",
                "counselling_type": "education",
                "fixme": "w zale\u017cno\u015bci od przedmiotu dzia\u0142alno\u015bci (np. healthcare=counselling + counselling_type=education albo healthcare=psychotherapist)"
            }
        },
        {
            "id": 274839,
            "type": "Feature",
            "geometry": {
                "type": "Point",
                "coordinates": [
                    18.47666,
                    54.56683
                ]
            },
            "properties": {
                "isced:level": "1;2",
                "ref:rspo": 274839,
                "official_name": "Szko\u0142a Podstawowa w Kosakowie",
                "name": "Szko\u0142a Podstawowa w Kosakowie",
                "addr:postcode": "81-198",
                "addr:city": "Kosakowo",
                "addr:street": "Stefana \u017beromskiego",
                "addr:housenumber": "11",
                "addr:city:simc": 164144,
                "addr:street:sym_ul": 26464,
                "phone": "+48 586792390",
                "email": "dyrektor.sp.kosakowo@gmail.com",
                "website": "http:\/\/sp.kosakowo@gmail.com",
                "ref:regon": "386326573",
                "operator": "Gmina Kosakowo",
                "operator:type": "government",
                "amenity": "school"
            }
        },
        {
            "id": 124849,
            "type": "Feature",
            "geometry": {
                "type": "Point",
                "coordinates": [
                    18.4871899,
                    54.57028
                ]
            },
            "properties": {
                "ref:rspo": 124849,
                "official_name": "Niepubliczne Przedszkole Montessori \"R\u00f3\u017cowa Wie\u017ca\"",
                "name": "Niepubliczne Przedszkole Montessori \"R\u00f3\u017cowa Wie\u017ca\"",
                "addr:postcode": "81-198",
                "addr:city": "Pog\u00f3rze",
                "addr:street": "Wiejska",
                "addr:housenumber": "1",
                "addr:city:simc": 164180,
                "addr:street:sym_ul": 24048,
                "email": "przedszkole@montessori-pogorze.pl",
                "website": "http:\/\/www.montessori-pogorze.pl",
                "ref:regon": "222156167",
                "operator": "Cezary Markowiak",
                "operator:type": "private",
                "amenity": "kindergarten"
            }
        },
        {
            "id": 124854,
            "type": "Feature",
            "geometry": {
                "type": "Point",
                "coordinates": [
                    18.469900131226,
                    54.574611663818
                ]
            },
            "properties": {
                "ref:rspo": 124854,
                "official_name": "Niepubliczne Przedszkole Kreatywne Sorbonka",
                "name": "Niepubliczne Przedszkole Kreatywne Sorbonka",
                "addr:postcode": "81-198",
                "addr:city": "Suchy Dw\u00f3r",
                "addr:street": "Miko\u0142aja Reja",
                "addr:housenumber": "1",
                "addr:city:simc": 164204,
                "addr:street:sym_ul": 18565,
                "phone": "+48 513014820",
                "email": "patrycjaleciej@sorbonka.pl",
                "ref:regon": "222156180",
                "operator": "Patrycja Leciej",
                "operator:type": "private",
                "amenity": "kindergarten"
            }
        },
        {
            "id": 124843,
            "type": "Feature",
            "geometry": {
                "type": "Point",
                "coordinates": [
                    18.4724098,
                    54.5750046
                ]
            },
            "properties": {
                "ref:rspo": 124843,
                "official_name": "Niepubliczne Przedszkole Tenisowe Jaworek",
                "name": "Niepubliczne Przedszkole Tenisowe Jaworek",
                "addr:postcode": "81-198",
                "addr:city": "Suchy Dw\u00f3r",
                "addr:street": "Sowia",
                "addr:housenumber": "4",
                "addr:city:simc": 164204,
                "addr:street:sym_ul": 20615,
                "phone": "+48 604658954",
                "email": "jaworek@spartandomy.pl",
                "website": "http:\/\/www.jaworek.edu.pl",
                "ref:regon": "222156150",
                "operator": "Jaworek Sp\u00f3\u0142ka Z Ograniczon\u0105 Odpowiedzialno\u015bci\u0105",
                "operator:type": "private",
                "amenity": "kindergarten"
            }
        },
        {
            "id": 125271,
            "type": "Feature",
            "geometry": {
                "type": "Point",
                "coordinates": [
                    18.49011,
                    54.5756
                ]
            },
            "properties": {
                "ref:rspo": 125271,
                "official_name": "Nasza Planeta",
                "name": "Nasza Planeta",
                "addr:postcode": "81-198",
                "addr:city": "Pog\u00f3rze",
                "addr:street": "Wiejska",
                "addr:housenumber": "123",
                "addr:city:simc": 164180,
                "addr:street:sym_ul": 24048,
                "phone": "+48 795464486",
                "email": "izabela.lipinska1@gmail.com",
                "ref:regon": "222164333",
                "operator": "Izabela Kwidzi\u0144ska-Lipi\u0144ska",
                "operator:type": "private",
                "amenity": "kindergarten"
            }
        },
        {
            "id": 11520,
            "type": "Feature",
            "geometry": {
                "type": "Point",
                "coordinates": [
                    18.48828,
                    54.57714
                ]
            },
            "properties": {
                "ref:rspo": 11520,
                "official_name": "Przedszkole Niepubliczne \"Podniebny Raj\"",
                "name": "Przedszkole Niepubliczne \"Podniebny Raj\"",
                "addr:postcode": "81-198",
                "addr:city": "Kosakowo",
                "addr:street": "Krasickiego",
                "addr:housenumber": "14",
                "addr:city:simc": 164144,
                "addr:street:sym_ul": 9826,
                "email": "podniebnyraj.violetta@gmail.com",
                "ref:regon": "221737614",
                "ref:vatin": "PL8761488143",
                "operator": "Violetta Myszk-Zawadzka",
                "operator:type": "private",
                "amenity": "kindergarten"
            }
        },
        {
            "id": 125094,
            "type": "Feature",
            "geometry": {
                "type": "Point",
                "coordinates": [
                    18.49301,
                    54.58696
                ]
            },
            "properties": {
                "ref:rspo": 125094,
                "official_name": "Przytulny K\u0105cik",
                "name": "Przytulny K\u0105cik",
                "addr:postcode": "81-198",
                "addr:city": "Kosakowo",
                "addr:street": "Stefana \u017beromskiego",
                "addr:housenumber": "49a",
                "addr:city:simc": 164144,
                "addr:street:sym_ul": 26464,
                "phone": "+48 722336676",
                "email": "przytulnykacik@wp.pl",
                "website": "http:\/\/www.przytulnykacik.eu",
                "ref:regon": "222161205",
                "operator": "Monika Gom\u00f3\u0142ka-Bigus",
                "operator:type": "private",
                "amenity": "kindergarten"
            }
        },
        {
            "id": 132501,
            "type": "Feature",
            "geometry": {
                "type": "Point",
                "coordinates": [
                    18.46826,
                    54.58916
                ]
            },
            "properties": {
                "ref:rspo": 132501,
                "official_name": "Niepubliczne Przedszkole J\u0119zykowe Kr\u00f3L Maciu\u015b 1",
                "name": "Niepubliczne Przedszkole J\u0119zykowe Kr\u00f3L Maciu\u015b 1",
                "addr:postcode": "81-198",
                "addr:city": "D\u0119bog\u00f3rze",
                "addr:street": "Gronowa",
                "addr:housenumber": "15",
                "addr:city:simc": 164115,
                "addr:street:sym_ul": 6179,
                "phone": "+48 570998877",
                "email": "przedszkolekrolm@gmail.com",
                "website": "http:\/\/krolmacius1.edu.pl",
                "ref:regon": "365687468",
                "ref:vatin": "PL9580870230",
                "operator": "Alina Zuba",
                "operator:type": "private",
                "amenity": "kindergarten"
            }
        },
        {
            "id": 12528,
            "type": "Feature",
            "geometry": {
                "type": "Point",
                "coordinates": [
                    18.45479,
                    54.59134
                ]
            },
            "properties": {
                "ref:rspo": 12528,
                "official_name": "Zesp\u00f3\u0142 Szkolno-Przedszkolny w D\u0119bog\u00f3rzu",
                "name": "Zesp\u00f3\u0142 Szkolno-Przedszkolny w D\u0119bog\u00f3rzu",
                "addr:postcode": "81-198",
                "addr:city": "D\u0119bog\u00f3rze",
                "addr:street": "Pomorska",
                "addr:housenumber": "30",
                "addr:city:simc": 164115,
                "addr:street:sym_ul": 17088,
                "phone": "+48 586791325",
                "email": "sekretariat@zspdebogorze.pl",
                "website": "http:\/\/www.spdebogorze.edupage.org",
                "ref:regon": "220110741",
                "ref:vatin": "PL9580899305",
                "operator": "Gmina Kosakowo",
                "operator:type": "government",
                "landuse": "education",
                "fixme": "amenity=school, amenity=college albo landuse=education w zale\u017cno\u015bci od tego, jakie plac\u00f3wki wchodz\u0105 w sk\u0142ad zespo\u0142u. Sprawd\u017a, kiedy stosowa\u0107 amenity=* a kiedy landuse=education.",
                "note": "Children RSPO: 12555;12593"
            }
        },
        {
            "id": 12555,
            "type": "Feature",
            "geometry": {
                "type": "Point",
                "coordinates": [
                    18.45479,
                    54.59131
                ]
            },
            "properties": {
                "isced:level": "1;2",
                "ref:rspo": 12555,
                "official_name": "Szko\u0142a Podstawowa Im Obro\u0144c\u00f3w K\u0119py Oksywskiej w D\u0119bog\u00f3rzu",
                "name": "Szko\u0142a Podstawowa Im Obro\u0144c\u00f3w K\u0119py Oksywskiej w D\u0119bog\u00f3rzu",
                "addr:postcode": "81-198",
                "addr:city": "D\u0119bog\u00f3rze",
                "addr:street": "Pomorska",
                "addr:housenumber": "30",
                "addr:city:simc": 164115,
                "addr:street:sym_ul": 17088,
                "phone": "+48 586791325",
                "email": "spdebogorze.dyrektor@wp.pl",
                "website": "http:\/\/www.spdebogorze.edupage.org",
                "ref:regon": "001172507",
                "ref:vatin": "PL9580899305",
                "operator": "Gmina Kosakowo",
                "operator:type": "government",
                "amenity": "school",
                "note": "Parent RSPO: 12528"
            }
        },
        {
            "id": 12593,
            "type": "Feature",
            "geometry": {
                "type": "Point",
                "coordinates": [
                    18.45479,
                    54.591280000000005
                ]
            },
            "properties": {
                "ref:rspo": 12593,
                "official_name": "Przedszkole w D\u0119bog\u00f3rzu",
                "name": "Przedszkole w D\u0119bog\u00f3rzu",
                "addr:postcode": "81-198",
                "addr:city": "D\u0119bog\u00f3rze",
                "addr:street": "Pomorska",
                "addr:housenumber": "30",
                "addr:city:simc": 164115,
                "addr:street:sym_ul": 17088,
                "phone": "+48 586791325",
                "email": "sekretariatdebogorze@interia.pl",
                "website": "http:\/\/www.spdebogorze.edupage.org",
                "ref:regon": "221677941",
                "ref:vatin": "PL9580899305",
                "operator": "Gmina Kosakowo",
                "operator:type": "government",
                "amenity": "kindergarten",
                "note": "Parent RSPO: 12528"
            }
        },
        {
            "id": 126758,
            "type": "Feature",
            "geometry": {
                "type": "Point",
                "coordinates": [
                    18.49143,
                    54.60632
                ]
            },
            "properties": {
                "ref:rspo": 126758,
                "official_name": "Niepubliczna Poradnia Psychologiczno - Pedagogiczna Fundacji Dobroczy\u0144ca",
                "name": "Niepubliczna Poradnia Psychologiczno - Pedagogiczna Fundacji Dobroczy\u0144ca",
                "addr:postcode": "81-198",
                "addr:city": "Mosty",
                "addr:street": "Le\u015bna",
                "addr:housenumber": "49",
                "addr:city:simc": 164167,
                "addr:street:sym_ul": 10898,
                "phone": "+48 587362075",
                "email": "fundacjadobroczynca@gmail.com",
                "ref:regon": "360699350",
                "ref:vatin": "PL5871703606",
                "operator": "Fundacja Dobroczy\u0144ca",
                "operator:type": "ngo",
                "healthcare": "counselling",
                "counselling_type": "education",
                "fixme": "w zale\u017cno\u015bci od przedmiotu dzia\u0142alno\u015bci (np. healthcare=counselling + counselling_type=education albo healthcare=psychotherapist)"
            }
        },
        {
            "id": 269567,
            "type": "Feature",
            "geometry": {
                "type": "Point",
                "coordinates": [
                    18.49143,
                    54.606289999999994
                ]
            },
            "properties": {
                "ref:rspo": 269567,
                "official_name": "Niepubliczny Punkt Przedszkolny",
                "name": "Niepubliczny Punkt Przedszkolny",
                "addr:postcode": "81-198",
                "addr:city": "Mosty",
                "addr:street": "Le\u015bna",
                "addr:housenumber": "49",
                "addr:city:simc": 164167,
                "addr:street:sym_ul": 10898,
                "email": "doktor.logopeda@gmail.com",
                "ref:regon": "381558698",
                "operator": "Marta Lichwa",
                "operator:type": "private",
                "amenity": "kindergarten"
            }
        },
        {
            "id": 8518,
            "type": "Feature",
            "geometry": {
                "type": "Point",
                "coordinates": [
                    18.49403,
                    54.6085
                ]
            },
            "properties": {
                "ref:rspo": 8518,
                "official_name": "Przedszkole Niepubliczne \"Poziomkowo\"",
                "name": "Przedszkole Niepubliczne \"Poziomkowo\"",
                "addr:postcode": "81-198",
                "addr:city": "Mosty",
                "addr:street": "Ogrodowa",
                "addr:housenumber": "9",
                "addr:city:simc": 164167,
                "addr:street:sym_ul": 14834,
                "phone": "+48 790205009",
                "email": "poziomkowo@gmail.com",
                "website": "http:\/\/www.poziomkowo.com",
                "ref:regon": "221734917",
                "ref:vatin": "PL9570688535",
                "operator": "Anna Walter",
                "operator:type": "private",
                "amenity": "kindergarten"
            }
        },
        {
            "id": 7135,
            "type": "Feature",
            "geometry": {
                "type": "Point",
                "coordinates": [
                    18.50256,
                    54.61016
                ]
            },
            "properties": {
                "ref:rspo": 7135,
                "official_name": "Zesp\u00f3\u0142 Szkolno-Przedszkolny w Mostach",
                "name": "Zesp\u00f3\u0142 Szkolno-Przedszkolny w Mostach",
                "addr:postcode": "81-198",
                "addr:city": "Mosty",
                "addr:street": "Szkolna",
                "addr:housenumber": "16",
                "addr:city:simc": 164167,
                "addr:street:sym_ul": 21970,
                "phone": "+48 586791321",
                "email": "spmosty@onet.pl",
                "website": "http:\/\/spmosty.szkolnastrona.pl",
                "ref:regon": "221733585",
                "operator": "Gmina Kosakowo",
                "operator:type": "government",
                "landuse": "education",
                "fixme": "amenity=school, amenity=college albo landuse=education w zale\u017cno\u015bci od tego, jakie plac\u00f3wki wchodz\u0105 w sk\u0142ad zespo\u0142u. Sprawd\u017a, kiedy stosowa\u0107 amenity=* a kiedy landuse=education.",
                "note": "Children RSPO: 11594;11816"
            }
        },
        {
            "id": 11816,
            "type": "Feature",
            "geometry": {
                "type": "Point",
                "coordinates": [
                    18.50256,
                    54.61013
                ]
            },
            "properties": {
                "isced:level": "1;2",
                "ref:rspo": 11816,
                "official_name": "Szko\u0142a Podstawowa Im Piotra Dunina w Mostach",
                "name": "Szko\u0142a Podstawowa Im Piotra Dunina w Mostach",
                "addr:postcode": "81-198",
                "addr:city": "Mosty",
                "addr:street": "Szkolna",
                "addr:housenumber": "16",
                "addr:city:simc": 164167,
                "addr:street:sym_ul": 21970,
                "phone": "+48 586791321",
                "email": "spmosty@epf.pl",
                "website": "http:\/\/www.spmosty.szkolnastrona.pl",
                "ref:regon": "000207528",
                "ref:vatin": "PL5871532501",
                "operator": "Gmina Kosakowo",
                "operator:type": "government",
                "amenity": "school",
                "note": "Parent RSPO: 7135"
            }
        },
        {
            "id": 124809,
            "type": "Feature",
            "geometry": {
                "type": "Point",
                "coordinates": [
                    18.49575,
                    54.61251
                ]
            },
            "properties": {
                "ref:rspo": 124809,
                "official_name": "Akademia Ma\u0142ego Cz\u0142owieka",
                "name": "Akademia Ma\u0142ego Cz\u0142owieka",
                "addr:postcode": "81-198",
                "addr:city": "Mosty",
                "addr:street": "Gdy\u0144ska",
                "addr:housenumber": "25",
                "addr:city:simc": 164167,
                "addr:street:sym_ul": 5441,
                "phone": "+48 608316144",
                "email": "akademia.mosty@gmail.com",
                "website": "http:\/\/akademiamalegoczlowieka.pl",
                "ref:regon": "222155191",
                "operator": "Marta Karsznia",
                "operator:type": "private",
                "amenity": "kindergarten"
            }
        },
        {
            "id": 11594,
            "type": "Feature",
            "geometry": {
                "type": "Point",
                "coordinates": [
                    18.49641,
                    54.6314
                ]
            },
            "properties": {
                "ref:rspo": 11594,
                "official_name": "Przedszkole w Rewie",
                "name": "Przedszkole w Rewie",
                "addr:postcode": "81-198",
                "addr:city": "Rewa",
                "addr:street": "Koralowa",
                "addr:housenumber": "1",
                "addr:city:simc": 164210,
                "addr:street:sym_ul": 9316,
                "phone": "+48 586791378",
                "ref:regon": "221738217",
                "operator": "Gmina Kosakowo",
                "operator:type": "government",
                "amenity": "kindergarten",
                "note": "Parent RSPO: 7135"
            }
        }
    ]
}