{
    "type": "FeatureCollection",
    "features": [
        {
            "id": 126761,
            "type": "Feature",
            "geometry": {
                "type": "Point",
                "coordinates": [
                    18.39133,
                    54.71124
                ]
            },
            "properties": {
                "ref:rspo": 126761,
                "official_name": "Biuro Bezpiecze\u0144stwa I Higieny Pracy \"Roma\"",
                "name": "Biuro Bezpiecze\u0144stwa I Higieny Pracy \"Roma\"",
                "addr:postcode": "84-100",
                "addr:city": "Puck",
                "addr:street": "Kasztanowa",
                "addr:housenumber": "22A",
                "addr:city:simc": 934636,
                "addr:street:sym_ul": 8171,
                "phone": "+48 586731953",
                "email": "biuro@bhp-roma.pl",
                "website": "http:\/\/www.bhp-roma.pl",
                "ref:regon": "360736430",
                "ref:vatin": "PL5871076724",
                "operator": "Romana Ginter",
                "operator:type": "private",
                "fixme": "w zale\u017cno\u015bci od przedmiotu dzia\u0142alno\u015bci (np. amenity=training + training=*, amenity=dancing_school, amenity=language_school, amenity=music_school) albo amenity=school, amenity=college, albo landuse=education w zale\u017cno\u015bci od tego, jakie plac\u00f3wki wchodz\u0105 w sk\u0142ad zespo\u0142u. Sprawd\u017a, kiedy stosowa\u0107 amenity=* a kiedy landuse=education."
            }
        },
        {
            "id": 133847,
            "type": "Feature",
            "geometry": {
                "type": "Point",
                "coordinates": [
                    18.3994399,
                    54.7114
                ]
            },
            "properties": {
                "ref:rspo": 133847,
                "official_name": "Przedszkole Samorzadowe w Pucku",
                "name": "Przedszkole Samorzadowe w Pucku",
                "addr:postcode": "84-100",
                "addr:city": "Puck",
                "addr:street": "Wejherowska",
                "addr:housenumber": "43a",
                "addr:city:simc": 934636,
                "addr:street:sym_ul": 23842,
                "phone": "+48 587363005",
                "email": "dyrektor@przedszkole.miastopuck.pl",
                "ref:regon": "367689744",
                "ref:vatin": "PL5871712114",
                "operator": "Gmina Miasta Puck",
                "operator:type": "government",
                "amenity": "kindergarten"
            }
        },
        {
            "id": 107076,
            "type": "Feature",
            "geometry": {
                "type": "Point",
                "coordinates": [
                    18.40842,
                    54.71155
                ]
            },
            "properties": {
                "ref:rspo": 107076,
                "official_name": "Poradnia Psychologiczno - Pedagogiczna w Pucku",
                "name": "Poradnia Psychologiczno - Pedagogiczna w Pucku",
                "addr:postcode": "84-100",
                "addr:city": "Puck",
                "addr:street": "Kolejowa",
                "addr:housenumber": "7",
                "addr:city:simc": 934636,
                "addr:street:sym_ul": 8828,
                "phone": "+48 585065999",
                "email": "sekretariat@poradniapuck.pl",
                "website": "http:\/\/poradniapuck.pl",
                "ref:regon": "000957910",
                "ref:vatin": "PL5871320762",
                "operator": "Powiat Pucki",
                "operator:type": "government",
                "healthcare": "counselling",
                "counselling_type": "education",
                "fixme": "w zale\u017cno\u015bci od przedmiotu dzia\u0142alno\u015bci (np. healthcare=counselling + counselling_type=education albo healthcare=psychotherapist)"
            }
        },
        {
            "id": 109771,
            "type": "Feature",
            "geometry": {
                "type": "Point",
                "coordinates": [
                    18.40842,
                    54.71152
                ]
            },
            "properties": {
                "ref:rspo": 109771,
                "official_name": "Powiatowe Centrum Kszta\u0142cenia Zawodowego I Ustawicznego w Pucku",
                "name": "Powiatowe Centrum Kszta\u0142cenia Zawodowego I Ustawicznego w Pucku",
                "addr:postcode": "84-100",
                "addr:city": "Puck",
                "addr:street": "Kolejowa",
                "addr:housenumber": "7",
                "addr:city:simc": 934636,
                "addr:street:sym_ul": 8828,
                "phone": "+48 586732051",
                "email": "kancelaria@pckziu-puck.pl",
                "website": "http:\/\/www.pckziu-puck.pl",
                "ref:regon": "221829440",
                "ref:vatin": "PL5871700068",
                "operator": "Powiat Pucki",
                "operator:type": "government",
                "landuse": "education",
                "fixme": "amenity=school, amenity=college albo landuse=education w zale\u017cno\u015bci od tego, jakie plac\u00f3wki wchodz\u0105 w sk\u0142ad zespo\u0142u. Sprawd\u017a, kiedy stosowa\u0107 amenity=* a kiedy landuse=education.",
                "note": "Children RSPO: 111529;111530;111532;119399;119400;278679;278681"
            }
        },
        {
            "id": 111529,
            "type": "Feature",
            "geometry": {
                "type": "Point",
                "coordinates": [
                    18.40842,
                    54.711490000000005
                ]
            },
            "properties": {
                "isced:level": "3",
                "ref:rspo": 111529,
                "official_name": "Bran\u017cowa Szko\u0142a I Stopnia w Pucku w Powiatowym Centrum Kszta\u0142cenia Zawodowego I Ustawicznego w Pucku",
                "name": "Bran\u017cowa Szko\u0142a I Stopnia w Pucku w Powiatowym Centrum Kszta\u0142cenia Zawodowego I Ustawicznego w Pucku",
                "addr:postcode": "84-100",
                "addr:city": "Puck",
                "addr:street": "Kolejowa",
                "addr:housenumber": "7",
                "addr:city:simc": 934636,
                "addr:street:sym_ul": 8828,
                "phone": "+48 586732051",
                "email": "kancelaria@pckziu-puck.pl",
                "website": "http:\/\/www.pckziupuck.pl",
                "ref:regon": "192785957",
                "operator": "Powiat Pucki",
                "operator:type": "government",
                "amenity": "school",
                "note": "Parent RSPO: 109771"
            }
        },
        {
            "id": 111530,
            "type": "Feature",
            "geometry": {
                "type": "Point",
                "coordinates": [
                    18.40842,
                    54.71146
                ]
            },
            "properties": {
                "isced:level": "3",
                "ref:rspo": 111530,
                "official_name": "Technikum w Pucku w Powiatowym Centrum Kszta\u0142cenia Zawodowego I Ustawicznego w Pucku",
                "name": "Technikum w Pucku w Powiatowym Centrum Kszta\u0142cenia Zawodowego I Ustawicznego w Pucku",
                "addr:postcode": "84-100",
                "addr:city": "Puck",
                "addr:street": "Kolejowa",
                "addr:housenumber": "7",
                "addr:city:simc": 934636,
                "addr:street:sym_ul": 8828,
                "phone": "+48 586732051",
                "email": "kancelaria@pckziu-puck.pl",
                "website": "http:\/\/www.pckziu-puck.pl",
                "ref:regon": "192943505",
                "operator": "Powiat Pucki",
                "operator:type": "government",
                "amenity": "school",
                "note": "Parent RSPO: 109771"
            }
        },
        {
            "id": 111532,
            "type": "Feature",
            "geometry": {
                "type": "Point",
                "coordinates": [
                    18.40842,
                    54.71143
                ]
            },
            "properties": {
                "isced:level": "3",
                "ref:rspo": 111532,
                "official_name": "Ii Liceum Og\u00f3lnokszta\u0142c\u0105ce w Pucku w Powiatowym Centrum Kszta\u0142cenia Zawodowego I Ustawicznego w Pucku",
                "name": "Ii Liceum Og\u00f3lnokszta\u0142c\u0105ce w Pucku w Powiatowym Centrum Kszta\u0142cenia Zawodowego I Ustawicznego w Pucku",
                "addr:postcode": "84-100",
                "addr:city": "Puck",
                "addr:street": "Kolejowa",
                "addr:housenumber": "7",
                "addr:city:simc": 934636,
                "addr:street:sym_ul": 8828,
                "phone": "+48 586732051",
                "email": "kancelaria@pckziu-puck.pl",
                "website": "http:\/\/www.pckziu-puck.pl",
                "ref:regon": "220815128",
                "operator": "Powiat Pucki",
                "operator:type": "government",
                "amenity": "school",
                "note": "Parent RSPO: 109771"
            }
        },
        {
            "id": 119399,
            "type": "Feature",
            "geometry": {
                "type": "Point",
                "coordinates": [
                    18.40842,
                    54.711400000000005
                ]
            },
            "properties": {
                "isced:level": "3",
                "ref:rspo": 119399,
                "official_name": "Liceum Og\u00f3lnokszta\u0142c\u0105ce dla Doros\u0142ych w Pucku w Powiatowym Centrum Kszta\u0142cenia Zawodowego I Ustawicznego w Pucku",
                "name": "Liceum Og\u00f3lnokszta\u0142c\u0105ce dla Doros\u0142ych w Pucku w Powiatowym Centrum Kszta\u0142cenia Zawodowego I Ustawicznego w Pucku",
                "addr:postcode": "84-100",
                "addr:city": "Puck",
                "addr:street": "Kolejowa",
                "addr:housenumber": "7",
                "addr:city:simc": 934636,
                "addr:street:sym_ul": 8828,
                "phone": "+48 586734461",
                "email": "kancelaria@pckziu-puck.pl",
                "website": "http:\/\/www.pckziu-puck.pl",
                "ref:regon": "220722183",
                "operator": "Powiat Pucki",
                "operator:type": "government",
                "amenity": "school",
                "note": "Parent RSPO: 109771"
            }
        },
        {
            "id": 119400,
            "type": "Feature",
            "geometry": {
                "type": "Point",
                "coordinates": [
                    18.40842,
                    54.71137
                ]
            },
            "properties": {
                "isced:level": "4",
                "ref:rspo": 119400,
                "official_name": "Szko\u0142a Policealna w Pucku w Powiatowym Centrum Kszta\u0142cenia Zawodowego I Ustawicznego w Pucku",
                "name": "Szko\u0142a Policealna w Pucku w Powiatowym Centrum Kszta\u0142cenia Zawodowego I Ustawicznego w Pucku",
                "addr:postcode": "84-100",
                "addr:city": "Puck",
                "addr:street": "Kolejowa",
                "addr:housenumber": "7",
                "addr:city:simc": 934636,
                "addr:street:sym_ul": 8828,
                "phone": "+48 586734461",
                "email": "kancelaria@pckziu-puck.pl",
                "website": "http:\/\/www.pckziu-puck-pl",
                "ref:regon": "220032952",
                "operator": "Powiat Pucki",
                "operator:type": "government",
                "amenity": "college",
                "note": "Parent RSPO: 109771"
            }
        },
        {
            "id": 278679,
            "type": "Feature",
            "geometry": {
                "type": "Point",
                "coordinates": [
                    18.40842,
                    54.71134
                ]
            },
            "properties": {
                "ref:rspo": 278679,
                "official_name": "Centrum Kszta\u0142cenia Ustawicznego w Pucku",
                "name": "Centrum Kszta\u0142cenia Ustawicznego w Pucku",
                "addr:postcode": "84-100",
                "addr:city": "Puck",
                "addr:street": "Kolejowa",
                "addr:housenumber": "7",
                "addr:city:simc": 934636,
                "addr:street:sym_ul": 8828,
                "phone": "+48 586732051",
                "email": "kancelaria@pckziu-puck.pl",
                "website": "http:\/\/pckziu-puck.pl",
                "ref:regon": "520038081",
                "operator": "Powiat Pucki",
                "operator:type": "government",
                "fixme": "w zale\u017cno\u015bci od przedmiotu dzia\u0142alno\u015bci (np. amenity=training + training=*, amenity=dancing_school, amenity=language_school, amenity=music_school) albo amenity=school, amenity=college, albo landuse=education w zale\u017cno\u015bci od tego, jakie plac\u00f3wki wchodz\u0105 w sk\u0142ad zespo\u0142u. Sprawd\u017a, kiedy stosowa\u0107 amenity=* a kiedy landuse=education.",
                "note": "Parent RSPO: 109771"
            }
        },
        {
            "id": 278681,
            "type": "Feature",
            "geometry": {
                "type": "Point",
                "coordinates": [
                    18.40842,
                    54.711310000000005
                ]
            },
            "properties": {
                "isced:level": "3",
                "ref:rspo": 278681,
                "official_name": "Bran\u017cowa Szko\u0142a II Stopnia w Pucku",
                "name": "Bran\u017cowa Szko\u0142a II Stopnia w Pucku",
                "addr:postcode": "84-100",
                "addr:city": "Puck",
                "addr:street": "Kolejowa",
                "addr:housenumber": "7",
                "addr:city:simc": 934636,
                "addr:street:sym_ul": 8828,
                "phone": "+48 586732051",
                "email": "kancelaria@pckziu-puck.pl",
                "website": "http:\/\/pckziu-puck.pl",
                "ref:regon": "520038371",
                "operator": "Powiat Pucki",
                "operator:type": "government",
                "amenity": "school",
                "note": "Parent RSPO: 109771"
            }
        },
        {
            "id": 107075,
            "type": "Feature",
            "geometry": {
                "type": "Point",
                "coordinates": [
                    18.393430709839,
                    54.712829589844
                ]
            },
            "properties": {
                "isced:level": "3",
                "ref:rspo": 107075,
                "official_name": "I Liceum Og\u00f3lnokszta\u0142c\u0105ce im. Stefana \u017beromskiego w Pucku",
                "name": "I Liceum Og\u00f3lnokszta\u0142c\u0105ce",
                "addr:postcode": "84-100",
                "addr:city": "Puck",
                "addr:street": "Morskiego Dywizjonu Lotniczego",
                "addr:housenumber": "18",
                "addr:city:simc": 934636,
                "addr:street:sym_ul": 27460,
                "phone": "+48 586732416",
                "email": "sekretariat@lo-puck.gda.pl",
                "website": "http:\/\/lo-puck.gda.pl",
                "ref:regon": "192781735",
                "ref:vatin": "PL5871684702",
                "operator": "Powiat Pucki",
                "operator:type": "government",
                "amenity": "school"
            }
        },
        {
            "id": 107077,
            "type": "Feature",
            "geometry": {
                "type": "Point",
                "coordinates": [
                    18.393430709839,
                    54.712799589843996
                ]
            },
            "properties": {
                "ref:rspo": 107077,
                "official_name": "Powiatowy O\u015brodek Sportu M\u0142odzie\u017cowego w Pucku",
                "name": "Powiatowy O\u015brodek Sportu M\u0142odzie\u017cowego w Pucku",
                "addr:postcode": "84-100",
                "addr:city": "Puck",
                "addr:street": "Morskiego Dywizjonu Lotniczego",
                "addr:housenumber": "18",
                "addr:city:simc": 934636,
                "addr:street:sym_ul": 27460,
                "phone": "+48 586734464",
                "email": "poczta@posm.info.pl",
                "website": "http:\/\/posm.info.pl",
                "ref:regon": "191855070",
                "ref:vatin": "PL5871491156",
                "operator": "Powiat Pucki",
                "operator:type": "government",
                "leisure": "sports_centre"
            }
        },
        {
            "id": 128892,
            "type": "Feature",
            "geometry": {
                "type": "Point",
                "coordinates": [
                    18.402,
                    54.71397
                ]
            },
            "properties": {
                "ref:rspo": 128892,
                "official_name": "Pierwsze Przedszkole Integracyjne",
                "name": "Pierwsze Przedszkole Integracyjne",
                "addr:postcode": "84-100",
                "addr:city": "Puck",
                "addr:street": "Wejherowska",
                "addr:housenumber": "32A",
                "addr:city:simc": 934636,
                "addr:street:sym_ul": 23842,
                "phone": "+48 608574739",
                "email": "pierwszeintegracyjne@onet.com.pl",
                "ref:regon": "362440454",
                "operator": "Fundacja Centrum Diagnozy, Terapii I Edukacji",
                "operator:type": "ngo",
                "amenity": "kindergarten"
            }
        },
        {
            "id": 83448,
            "type": "Feature",
            "geometry": {
                "type": "Point",
                "coordinates": [
                    18.4118,
                    54.71416
                ]
            },
            "properties": {
                "ref:rspo": 83448,
                "official_name": "Niepubliczne Przedszkole im. Jana Brzechwy w Pucku",
                "name": "Niepubliczne Przedszkole",
                "addr:postcode": "84-100",
                "addr:city": "Puck",
                "addr:street": "Wojska Polskiego",
                "addr:housenumber": "35",
                "addr:city:simc": 934636,
                "addr:street:sym_ul": 24628,
                "email": "przedszkole.brzechwa.puck@op.pl",
                "website": "https:\/\/brzechwa-puck.pl\/",
                "ref:regon": "221777861",
                "operator": "Anna Blaszke",
                "operator:type": "private",
                "amenity": "kindergarten"
            }
        },
        {
            "id": 83814,
            "type": "Feature",
            "geometry": {
                "type": "Point",
                "coordinates": [
                    18.42045,
                    54.71567
                ]
            },
            "properties": {
                "isced:level": "1;2",
                "ref:rspo": 83814,
                "official_name": "Szko\u0142a Podstawowa im. Mariusza Zaruskiego w Pucku",
                "name": "Szko\u0142a Podstawowa",
                "addr:postcode": "84-100",
                "addr:city": "Puck",
                "addr:street": "Przebendowskiego",
                "addr:housenumber": "27",
                "addr:city:simc": 934636,
                "addr:street:sym_ul": 17626,
                "phone": "+48 586732711",
                "email": "sppuck@wp.pl",
                "website": "http:\/\/www.sppuck.pl",
                "ref:regon": "190078138",
                "operator": "Gmina Miasta Puck",
                "operator:type": "government",
                "amenity": "school"
            }
        },
        {
            "id": 83445,
            "type": "Feature",
            "geometry": {
                "type": "Point",
                "coordinates": [
                    18.41497,
                    54.71658
                ]
            },
            "properties": {
                "ref:rspo": 83445,
                "official_name": "Przedszkole Niepubliczne Pod T\u0119cz\u0105 w Pucku",
                "name": "Przedszkole Niepubliczne Pod T\u0119cz\u0105 w Pucku",
                "addr:postcode": "84-100",
                "addr:city": "Puck",
                "addr:street": "Przebendowskiego",
                "addr:housenumber": "12A",
                "addr:city:simc": 934636,
                "addr:street:sym_ul": 17626,
                "phone": "+48 586732013",
                "ref:regon": "221777849",
                "operator": "Hanna Konkol",
                "operator:type": "private",
                "amenity": "kindergarten"
            }
        },
        {
            "id": 83438,
            "type": "Feature",
            "geometry": {
                "type": "Point",
                "coordinates": [
                    18.41471,
                    54.71664
                ]
            },
            "properties": {
                "ref:rspo": 83438,
                "official_name": "Niepubliczne Przedszkole Ma\u0142e Morze w Pucku",
                "name": "Niepubliczne Przedszkole Ma\u0142e Morze w Pucku",
                "addr:postcode": "84-100",
                "addr:city": "Puck",
                "addr:street": "Przebendowskiego",
                "addr:housenumber": "12",
                "addr:door": "1",
                "addr:city:simc": 934636,
                "addr:street:sym_ul": 17626,
                "phone": "+48 604413004",
                "email": "m.wozniak@pozytywneinicjatywy.pl",
                "website": "http:\/\/www.siec.pozytywneinicjatywy.pl",
                "ref:regon": "221777803",
                "operator": "Fundacja Pozytywne Inicjatywy",
                "operator:type": "ngo",
                "amenity": "kindergarten"
            }
        },
        {
            "id": 83467,
            "type": "Feature",
            "geometry": {
                "type": "Point",
                "coordinates": [
                    18.41471,
                    54.716609999999996
                ]
            },
            "properties": {
                "isced:level": "1;2",
                "ref:rspo": 83467,
                "official_name": "Szko\u0142a Podstawowa Ma\u0142e Morze im. Ks. Jana Kaczkowskiego w Pucku",
                "name": "Szko\u0142a Podstawowa Ma\u0142e Morze",
                "addr:postcode": "84-100",
                "addr:city": "Puck",
                "addr:street": "Przebendowskiego",
                "addr:housenumber": "12",
                "addr:city:simc": 934636,
                "addr:street:sym_ul": 17626,
                "phone": "+48 604413004",
                "email": "m.wozniak@pozytywneinicjatywy.pl",
                "website": "http:\/\/www.sp.pozytywneinicjatywy.pl",
                "ref:regon": "221777967",
                "operator": "\"Pozytywne Inicjatywy-Edukacja\" Sp\u00f3\u0142ka Z Ograniczon\u0105 Odpowiedzialno\u015bci\u0105",
                "operator:type": "private",
                "amenity": "school"
            }
        },
        {
            "id": 126764,
            "type": "Feature",
            "geometry": {
                "type": "Point",
                "coordinates": [
                    18.41471,
                    54.71658
                ]
            },
            "properties": {
                "ref:rspo": 126764,
                "official_name": "Zesp\u00f3\u0142 Szk\u00f3\u0142 im. Macieja P\u0142a\u017cy\u0144skiego Sp. z o.o. w Pucku",
                "name": "Zesp\u00f3\u0142 Szk\u00f3\u0142",
                "addr:postcode": "84-100",
                "addr:city": "Puck",
                "addr:street": "Przebendowskiego",
                "addr:housenumber": "12",
                "addr:city:simc": 934636,
                "addr:street:sym_ul": 17626,
                "phone": "+48 668464984",
                "email": "biuro@szkolypuck.pl",
                "website": "http:\/\/www.szkolypuck.pl",
                "ref:regon": "360736995",
                "ref:vatin": "PL5871689332",
                "operator": "\"Pozytywne Inicjatywy-Edukacja\" Sp\u00f3\u0142ka Z Ograniczon\u0105 Odpowiedzialno\u015bci\u0105",
                "operator:type": "private",
                "landuse": "education",
                "fixme": "amenity=school, amenity=college albo landuse=education w zale\u017cno\u015bci od tego, jakie plac\u00f3wki wchodz\u0105 w sk\u0142ad zespo\u0142u. Sprawd\u017a, kiedy stosowa\u0107 amenity=* a kiedy landuse=education."
            }
        },
        {
            "id": 24885,
            "type": "Feature",
            "geometry": {
                "type": "Point",
                "coordinates": [
                    18.41586,
                    54.71683
                ]
            },
            "properties": {
                "ref:rspo": 24885,
                "official_name": "Pa\u0144stwowa Szko\u0142a Muzyczna I St. im. Stanis\u0142awa Moniuszki w Pucku",
                "name": "Pa\u0144stwowa Szko\u0142a Muzyczna I St.",
                "addr:postcode": "84-100",
                "addr:city": "Puck",
                "addr:street": "Przebendowskiego",
                "addr:housenumber": "17",
                "addr:city:simc": 934636,
                "addr:street:sym_ul": 17626,
                "phone": "+48 586732746",
                "email": "smpuck@onet.pl",
                "website": "http:\/\/psmpuck.pl",
                "ref:regon": "001099124",
                "operator": "Ministerstwo Kultury I Dziedzictwa Narodowego",
                "operator:type": "government",
                "amenity": "music_school"
            }
        },
        {
            "id": 107078,
            "type": "Feature",
            "geometry": {
                "type": "Point",
                "coordinates": [
                    18.41586,
                    54.7168
                ]
            },
            "properties": {
                "ref:rspo": 107078,
                "official_name": "Pa\u0144stwowe Ognisko Baletowe w Pucku",
                "name": "Pa\u0144stwowe Ognisko Baletowe w Pucku",
                "addr:postcode": "84-100",
                "addr:city": "Puck",
                "addr:street": "Przebendowskiego",
                "addr:housenumber": "17",
                "addr:city:simc": 934636,
                "addr:street:sym_ul": 17626,
                "phone": "+48 586732746",
                "email": "pobpuck@wp.pl",
                "ref:regon": "003000561",
                "ref:vatin": "PL5871023076",
                "operator": "Powiat Pucki",
                "operator:type": "government",
                "amenity": "community_centre",
                "community_centre:for": "child;juvenile"
            }
        },
        {
            "id": 126765,
            "type": "Feature",
            "geometry": {
                "type": "Point",
                "coordinates": [
                    18.41086,
                    54.71779
                ]
            },
            "properties": {
                "isced:level": "3",
                "ref:rspo": 126765,
                "official_name": "Technikum Informatyczne w Pucku",
                "name": "Technikum Informatyczne w Pucku",
                "addr:postcode": "84-100",
                "addr:city": "Puck",
                "addr:street": "Wojska Polskiego",
                "addr:housenumber": "2b",
                "addr:city:simc": 934636,
                "addr:street:sym_ul": 24628,
                "phone": "+48 668464984",
                "email": "m.oberzig@op.pl",
                "website": "http:\/\/ti.pozytywneinicjatywy.pl",
                "ref:regon": "360717236",
                "ref:vatin": "PL5871689332",
                "operator": "\"Pozytywne Inicjatywy-Edukacja\" Sp\u00f3\u0142ka Z Ograniczon\u0105 Odpowiedzialno\u015bci\u0105",
                "operator:type": "private",
                "amenity": "school"
            }
        },
        {
            "id": 126766,
            "type": "Feature",
            "geometry": {
                "type": "Point",
                "coordinates": [
                    18.41086,
                    54.71776
                ]
            },
            "properties": {
                "isced:level": "3",
                "ref:rspo": 126766,
                "official_name": "Liceum Akademickie im. Macieja P\u0142a\u017cy\u0144skiego w Pucku",
                "name": "Liceum Akademickie",
                "addr:postcode": "84-100",
                "addr:city": "Puck",
                "addr:street": "Wojska Polskiego",
                "addr:housenumber": "2B",
                "addr:city:simc": 934636,
                "addr:street:sym_ul": 24628,
                "phone": "+48 696623941",
                "email": "m.oberzig@op.pl",
                "website": "http:\/\/la.pozytywneinicjatywy.pl",
                "ref:regon": "360717242",
                "ref:vatin": "PL5871689332",
                "operator": "\"Pozytywne Inicjatywy-Edukacja\" Sp\u00f3\u0142ka Z Ograniczon\u0105 Odpowiedzialno\u015bci\u0105",
                "operator:type": "private",
                "amenity": "school"
            }
        },
        {
            "id": 272420,
            "type": "Feature",
            "geometry": {
                "type": "Point",
                "coordinates": [
                    18.41101,
                    54.71904
                ]
            },
            "properties": {
                "isced:level": "1;2",
                "ref:rspo": 272420,
                "official_name": "Szko\u0142a Podstawowa Factum",
                "name": "Szko\u0142a Podstawowa Factum",
                "addr:postcode": "84-100",
                "addr:city": "Puck",
                "addr:street": "Wa\u0142owa",
                "addr:housenumber": "10 a",
                "addr:city:simc": 934636,
                "addr:street:sym_ul": 23586,
                "phone": "+48 608574739",
                "email": "szkolafactum@onet.pl",
                "website": "http:\/\/www.szkolafactum.pl",
                "ref:regon": "384167739",
                "ref:vatin": "PL5871704178",
                "operator": "Fundacja Centrum Diagnozy, Terapii I Edukacji",
                "operator:type": "ngo",
                "amenity": "school"
            }
        },
        {
            "id": 83444,
            "type": "Feature",
            "geometry": {
                "type": "Point",
                "coordinates": [
                    18.41664,
                    54.7197
                ]
            },
            "properties": {
                "ref:rspo": 83444,
                "official_name": "Przedszkole Niepubliczne Grzybek w Pucku",
                "name": "Przedszkole Niepubliczne Grzybek w Pucku",
                "addr:postcode": "84-100",
                "addr:city": "Puck",
                "addr:street": "Aleja Lipowa",
                "addr:housenumber": "14",
                "addr:city:simc": 934636,
                "addr:street:sym_ul": 48169,
                "phone": "+48 586732291",
                "email": "przedszkole.grzybek@gmail.com",
                "website": "http:\/\/przedszkolegrzybek.pl",
                "ref:regon": "221777832",
                "operator": "Longina Struck",
                "operator:type": "private",
                "amenity": "kindergarten"
            }
        },
        {
            "id": 126760,
            "type": "Feature",
            "geometry": {
                "type": "Point",
                "coordinates": [
                    18.41169,
                    54.71985
                ]
            },
            "properties": {
                "ref:rspo": 126760,
                "official_name": "Powiatowy Cech Rzemios\u0142 R\u00f3\u017cnych Ma\u0142ych I \u015arednich Przedsi\u0119biorstw w Pucku - O\u015brodek Szkoleniowy",
                "name": "Powiatowy Cech Rzemios\u0142 R\u00f3\u017cnych Ma\u0142ych I \u015arednich Przedsi\u0119biorstw w Pucku - O\u015brodek Szkoleniowy",
                "addr:postcode": "84-100",
                "addr:city": "Puck",
                "addr:street": "Bogus\u0142awa",
                "addr:housenumber": "2",
                "addr:city:simc": 934636,
                "addr:street:sym_ul": 1596,
                "phone": "+48 586732465",
                "email": "cech.puck@box43.pl",
                "website": "http:\/\/cech-puck.pl",
                "ref:regon": "360738913",
                "ref:vatin": "PL5871317381",
                "operator": "Pomorska Izba Rzemie\u015blnicza Ma\u0142ych I \u015arednich Przedsi\u0119biorstw",
                "operator:type": "cooperative"
            }
        },
        {
            "id": 111377,
            "type": "Feature",
            "geometry": {
                "type": "Point",
                "coordinates": [
                    18.41457,
                    54.71995
                ]
            },
            "properties": {
                "ref:rspo": 111377,
                "official_name": "Pedagogiczna Biblioteka Wojew\u00f3dzka w Gda\u0144sku Filia w Pucku",
                "name": "Pedagogiczna Biblioteka Wojew\u00f3dzka w Gda\u0144sku Filia w Pucku",
                "addr:postcode": "84-100",
                "addr:city": "Puck",
                "addr:street": "Sambora",
                "addr:housenumber": "16",
                "addr:city:simc": 934636,
                "addr:street:sym_ul": 19455,
                "phone": "+48 586732912",
                "email": "pbwpuck@pbw.it.pl",
                "ref:regon": "191688264",
                "operator": "Wojew\u00f3dztwo Pomorskie",
                "operator:type": "government",
                "amenity": "library",
                "note": "Parent RSPO: 9619"
            }
        },
        {
            "id": 107098,
            "type": "Feature",
            "geometry": {
                "type": "Point",
                "coordinates": [
                    18.40951,
                    54.72126
                ]
            },
            "properties": {
                "ref:rspo": 107098,
                "official_name": "Specjalny O\u015brodek Szkolno - Wychowawczy w Pucku",
                "name": "Specjalny O\u015brodek Szkolno - Wychowawczy w Pucku",
                "addr:postcode": "84-100",
                "addr:city": "Puck",
                "addr:street": "Zamkowa",
                "addr:housenumber": "5",
                "addr:city:simc": 934636,
                "addr:street:sym_ul": 25547,
                "phone": "+48 586732250",
                "email": "soswpuck@wp.pl",
                "website": "http:\/\/soswpuck.edu.pl",
                "ref:regon": "000877453",
                "ref:vatin": "PL5871423456",
                "operator": "Powiat Pucki",
                "operator:type": "government",
                "amenity": "school",
                "note": "Children RSPO: 126570;126572"
            }
        },
        {
            "id": 126570,
            "type": "Feature",
            "geometry": {
                "type": "Point",
                "coordinates": [
                    18.40951,
                    54.72123
                ]
            },
            "properties": {
                "isced:level": "1;2",
                "ref:rspo": 126570,
                "official_name": "Specjalna Szko\u0142a Podstawowa nr 2 w Pucku w Specjalnym O\u015brodku Szkolno-Wychowawczym w Pucku",
                "name": "Specjalna Szko\u0142a Podstawowa nr 2 w Pucku w Specjalnym O\u015brodku Szkolno-Wychowawczym w Pucku",
                "addr:postcode": "84-100",
                "addr:city": "Puck",
                "addr:street": "Zamkowa",
                "addr:housenumber": "5",
                "addr:city:simc": 934636,
                "addr:street:sym_ul": 25547,
                "phone": "+48 586732250",
                "email": "soswpuck@wp.pl",
                "website": "http:\/\/www.soswpuck.edu.pl",
                "ref:regon": "220041164",
                "operator": "Powiat Pucki",
                "operator:type": "government",
                "amenity": "school",
                "note": "Parent RSPO: 107098"
            }
        },
        {
            "id": 126572,
            "type": "Feature",
            "geometry": {
                "type": "Point",
                "coordinates": [
                    18.40951,
                    54.7212
                ]
            },
            "properties": {
                "ref:rspo": 126572,
                "official_name": "Szko\u0142a Specjalna Przysposabiaj\u0105ca do Pracy w Pucku w Specjalnym O\u015brodku Szkolno-Wychowawczym w Pucku",
                "name": "Szko\u0142a Specjalna Przysposabiaj\u0105ca do Pracy w Pucku w Specjalnym O\u015brodku Szkolno-Wychowawczym w Pucku",
                "addr:postcode": "84-100",
                "addr:city": "Puck",
                "addr:street": "Zamkowa",
                "addr:housenumber": "5",
                "addr:city:simc": 934636,
                "addr:street:sym_ul": 25547,
                "phone": "+48 586732250",
                "email": "soswpuck@wp.pl",
                "website": "http:\/\/wwww.soswpuck.edu.pl",
                "ref:regon": "220041224",
                "operator": "Powiat Pucki",
                "operator:type": "government",
                "amenity": "school",
                "note": "Parent RSPO: 107098"
            }
        },
        {
            "id": 126767,
            "type": "Feature",
            "geometry": {
                "type": "Point",
                "coordinates": [
                    18.4022,
                    54.72254
                ]
            },
            "properties": {
                "isced:level": "3",
                "ref:rspo": 126767,
                "official_name": "Liceum S\u0142u\u017cb Mundurowych w Pucku",
                "name": "Liceum S\u0142u\u017cb Mundurowych w Pucku",
                "addr:postcode": "84-100",
                "addr:city": "Puck",
                "addr:street": "Komandora Edwarda Szystowskiego",
                "addr:housenumber": "10",
                "addr:city:simc": 934636,
                "addr:street:sym_ul": 28492,
                "phone": "+48 696624081",
                "email": "lsm@pozytywneinicjatywy.pl",
                "website": "http:\/\/lsm.pozytywneinicjatywy.pl",
                "ref:regon": "360717259",
                "ref:vatin": "PL5871689332",
                "operator": "\"Pozytywne Inicjatywy-Edukacja\" Sp\u00f3\u0142ka Z Ograniczon\u0105 Odpowiedzialno\u015bci\u0105",
                "operator:type": "private",
                "amenity": "school"
            }
        }
    ]
}