{
    "type": "FeatureCollection",
    "features": [
        {
            "id": 48877,
            "type": "Feature",
            "geometry": {
                "type": "Point",
                "coordinates": [
                    18.33973,
                    54.64059
                ]
            },
            "properties": {
                "isced:level": "1;2",
                "ref:rspo": 48877,
                "official_name": "Szko\u0142a Podstawowa im. Wiktora Czapiewskiego w Rekowie G\u00f3rnym",
                "name": "Szko\u0142a Podstawowa",
                "addr:postcode": "84-123",
                "addr:city": "Rekowo G\u00f3rne",
                "addr:street": "Wiktora Czapiewskiego",
                "addr:housenumber": "1",
                "addr:city:simc": 170720,
                "addr:street:sym_ul": 35372,
                "phone": "+48 586738561",
                "email": "sekretariat@sprekowo.edu.pl",
                "website": "http:\/\/www.sprekowo.edupage.org",
                "ref:regon": "191085519",
                "ref:vatin": "PL5871506521",
                "operator": "Gmina Puck",
                "operator:type": "government",
                "amenity": "school"
            }
        },
        {
            "id": 268528,
            "type": "Feature",
            "geometry": {
                "type": "Point",
                "coordinates": [
                    18.37115,
                    54.64648
                ]
            },
            "properties": {
                "ref:rspo": 268528,
                "official_name": "Zesp\u00f3\u0142 Szkolno - Przedszkolny w Po\u0142chowie",
                "name": "Zesp\u00f3\u0142 Szkolno - Przedszkolny w Po\u0142chowie",
                "addr:postcode": "84-123",
                "addr:city": "Po\u0142chowo",
                "addr:street": "Dworcowa",
                "addr:housenumber": "2",
                "addr:city:simc": 170660,
                "addr:street:sym_ul": 4434,
                "phone": "+48 586738424",
                "email": "sekretariat@sppolchowo.pl",
                "website": "http:\/\/www.zsppolchowo.edupage.org",
                "ref:regon": "381199816",
                "ref:vatin": "PL5871717614",
                "operator": "Gmina Puck",
                "operator:type": "government",
                "landuse": "education",
                "fixme": "amenity=school, amenity=college albo landuse=education w zale\u017cno\u015bci od tego, jakie plac\u00f3wki wchodz\u0105 w sk\u0142ad zespo\u0142u. Sprawd\u017a, kiedy stosowa\u0107 amenity=* a kiedy landuse=education.",
                "note": "Children RSPO: 48875;268530"
            }
        },
        {
            "id": 48875,
            "type": "Feature",
            "geometry": {
                "type": "Point",
                "coordinates": [
                    18.37115,
                    54.646449999999994
                ]
            },
            "properties": {
                "isced:level": "1;2",
                "ref:rspo": 48875,
                "official_name": "Szko\u0142a Podstawowa im. J\u00f3zefa Wierzbickiego w Po\u0142chowie",
                "name": "Szko\u0142a Podstawowa",
                "addr:postcode": "84-123",
                "addr:city": "Po\u0142chowo",
                "addr:street": "Dworcowa",
                "addr:housenumber": "2",
                "addr:city:simc": 170660,
                "addr:street:sym_ul": 4434,
                "phone": "+48 586738424",
                "email": "sekretariat@sppolchowo.pl",
                "website": "http:\/\/www.zsppolchowo.edupage.org",
                "ref:regon": "000737284",
                "ref:vatin": "PL5871506395",
                "operator": "Gmina Puck",
                "operator:type": "government",
                "amenity": "school",
                "note": "Parent RSPO: 268528"
            }
        },
        {
            "id": 268530,
            "type": "Feature",
            "geometry": {
                "type": "Point",
                "coordinates": [
                    18.37115,
                    54.64642
                ]
            },
            "properties": {
                "ref:rspo": 268530,
                "official_name": "Przedszkole w Po\u0142chowie",
                "name": "Przedszkole w Po\u0142chowie",
                "addr:postcode": "84-123",
                "addr:city": "Po\u0142chowo",
                "addr:street": "Dworcowa",
                "addr:housenumber": "2",
                "addr:city:simc": 170660,
                "addr:street:sym_ul": 4434,
                "phone": "+48 586739424",
                "email": "sekretariat@sppolchowo.pl",
                "website": "http:\/\/sppolchowo.edupage.org",
                "ref:regon": "381199874",
                "operator": "Gmina Puck",
                "operator:type": "government",
                "amenity": "kindergarten",
                "note": "Parent RSPO: 268528"
            }
        },
        {
            "id": 128922,
            "type": "Feature",
            "geometry": {
                "type": "Point",
                "coordinates": [
                    18.42115,
                    54.65233
                ]
            },
            "properties": {
                "ref:rspo": 128922,
                "official_name": "Niepubliczne Przedszkole S\u0142oneczko w Mrzezinie",
                "name": "Niepubliczne Przedszkole S\u0142oneczko w Mrzezinie",
                "addr:postcode": "84-123",
                "addr:city": "Mrzezino",
                "addr:street": "Dworcowa",
                "addr:housenumber": "28",
                "addr:city:simc": 170624,
                "addr:street:sym_ul": 4434,
                "phone": "+48 515184472",
                "email": "isamp@wp.pl",
                "ref:regon": "362440460",
                "operator": "Katarzyna Sk\u00f3ra",
                "operator:type": "private",
                "amenity": "kindergarten"
            }
        },
        {
            "id": 63430,
            "type": "Feature",
            "geometry": {
                "type": "Point",
                "coordinates": [
                    18.41516,
                    54.65282
                ]
            },
            "properties": {
                "isced:level": "1;2",
                "ref:rspo": 63430,
                "official_name": "Szko\u0142a Podstawowa im. Paw\u0142a G\u00f3ry w Mrzezinie",
                "name": "Szko\u0142a Podstawowa",
                "addr:postcode": "84-123",
                "addr:city": "Mrzezino",
                "addr:street": "Dworcowa",
                "addr:housenumber": "54",
                "addr:city:simc": 170624,
                "addr:street:sym_ul": 4434,
                "phone": "+48 586738848",
                "email": "spmrzezino@onet.pl",
                "website": "http:\/\/www.zsmrzezino.edupage.org",
                "ref:regon": "000738088",
                "ref:vatin": "PL5871713208",
                "operator": "Gmina Puck",
                "operator:type": "government",
                "amenity": "school"
            }
        },
        {
            "id": 3368,
            "type": "Feature",
            "geometry": {
                "type": "Point",
                "coordinates": [
                    18.4103299,
                    54.67487
                ]
            },
            "properties": {
                "ref:rspo": 3368,
                "official_name": "Niepubliczne Przedszkole Krasnoludki w \u017belistrzewie",
                "name": "Niepubliczne Przedszkole Krasnoludki w \u017belistrzewie",
                "addr:postcode": "84-100",
                "addr:city": "\u017belistrzewo",
                "addr:street": "Kasztanowa",
                "addr:housenumber": "6",
                "addr:city:simc": 170860,
                "addr:street:sym_ul": 8171,
                "phone": "+48 784356572",
                "email": "przedszkolekrasnoludki2012@interia.pl",
                "website": "http:\/\/www.przedszkolekrasnoludki.pl",
                "ref:regon": "221722914",
                "operator": "Karolina Rohde- Wi\u015bniewska",
                "operator:type": "private",
                "amenity": "kindergarten"
            }
        },
        {
            "id": 268533,
            "type": "Feature",
            "geometry": {
                "type": "Point",
                "coordinates": [
                    18.4212,
                    54.67532
                ]
            },
            "properties": {
                "ref:rspo": 268533,
                "official_name": "Zesp\u00f3\u0142 Szkolno - Przedszkolny w \u017belistrzewie",
                "name": "Zesp\u00f3\u0142 Szkolno - Przedszkolny w \u017belistrzewie",
                "addr:postcode": "84-100",
                "addr:city": "\u017belistrzewo",
                "addr:street": "Szkolna",
                "addr:housenumber": "1",
                "addr:city:simc": 170860,
                "addr:street:sym_ul": 21970,
                "phone": "+48 586738618",
                "email": "sekretariat@zspzelistrzewo.pl",
                "website": "http:\/\/www.zspzelistrzewo.edupage.org",
                "ref:regon": "381199992",
                "ref:vatin": "PL5871718766",
                "operator": "Gmina Puck",
                "operator:type": "government",
                "landuse": "education",
                "fixme": "amenity=school, amenity=college albo landuse=education w zale\u017cno\u015bci od tego, jakie plac\u00f3wki wchodz\u0105 w sk\u0142ad zespo\u0142u. Sprawd\u017a, kiedy stosowa\u0107 amenity=* a kiedy landuse=education.",
                "note": "Children RSPO: 63426;268537"
            }
        },
        {
            "id": 63426,
            "type": "Feature",
            "geometry": {
                "type": "Point",
                "coordinates": [
                    18.4212,
                    54.67529
                ]
            },
            "properties": {
                "isced:level": "1;2",
                "ref:rspo": 63426,
                "official_name": "Szko\u0142a Podstawowa im. Jana III Sobieskiego w \u017belistrzewie",
                "name": "Szko\u0142a Podstawowa",
                "addr:postcode": "84-100",
                "addr:city": "\u017belistrzewo",
                "addr:street": "Szkolna",
                "addr:housenumber": "1",
                "addr:city:simc": 170860,
                "addr:street:sym_ul": 21970,
                "phone": "+48 586738618",
                "email": "sekretariat@zspzelistrzewo.pl",
                "website": "http:\/\/www.zspzelistrzewo.edupage.org",
                "ref:regon": "000270159",
                "ref:vatin": "PL5871713160",
                "operator": "Gmina Puck",
                "operator:type": "government",
                "amenity": "school",
                "note": "Parent RSPO: 268533"
            }
        },
        {
            "id": 268537,
            "type": "Feature",
            "geometry": {
                "type": "Point",
                "coordinates": [
                    18.4212,
                    54.67526
                ]
            },
            "properties": {
                "ref:rspo": 268537,
                "official_name": "Przedszkole w \u017belistrzewie",
                "name": "Przedszkole w \u017belistrzewie",
                "addr:postcode": "84-100",
                "addr:city": "\u017belistrzewo",
                "addr:street": "Szkolna",
                "addr:housenumber": "1",
                "addr:city:simc": 170860,
                "addr:street:sym_ul": 21970,
                "phone": "+48 586738618",
                "email": "sekretariat@zspzelistrzewo.pl",
                "website": "http:\/\/zspzelistrzewo.edupage.org",
                "ref:regon": "381200028",
                "operator": "Gmina Puck",
                "operator:type": "government",
                "amenity": "kindergarten",
                "note": "Parent RSPO: 268533"
            }
        },
        {
            "id": 274529,
            "type": "Feature",
            "geometry": {
                "type": "Point",
                "coordinates": [
                    18.23493,
                    54.69635
                ]
            },
            "properties": {
                "ref:rspo": 274529,
                "official_name": "Publiczne Pozytywne Przedszkole w Le\u015bniewie",
                "name": "Publiczne Pozytywne Przedszkole w Le\u015bniewie",
                "addr:postcode": "84-106",
                "addr:city": "Le\u015bniewo",
                "addr:street": "Szkolna",
                "addr:housenumber": "2",
                "addr:city:simc": 170430,
                "addr:street:sym_ul": 21970,
                "email": "przedszkole.lesniewo@pozytywneinicjatywy.pl",
                "ref:regon": "385907747",
                "operator": "\"Pozytywne Inicjatywy-Edukacja\" Sp\u00f3\u0142ka Z Ograniczon\u0105 Odpowiedzialno\u015bci\u0105",
                "operator:type": "private",
                "amenity": "kindergarten"
            }
        },
        {
            "id": 48874,
            "type": "Feature",
            "geometry": {
                "type": "Point",
                "coordinates": [
                    18.2479881,
                    54.6980334
                ]
            },
            "properties": {
                "isced:level": "1;2",
                "ref:rspo": 48874,
                "official_name": "Szko\u0142a Podstawowa im. J\u00f3zefa Dambka w Le\u015bniewie",
                "name": "Szko\u0142a Podstawowa",
                "addr:postcode": "84-106",
                "addr:city": "Le\u015bniewo",
                "addr:street": "Mechowska",
                "addr:housenumber": "2",
                "addr:city:simc": 170430,
                "addr:street:sym_ul": 12577,
                "phone": "+48 585065070",
                "email": "splesniewo@wp.pl",
                "website": "http:\/\/www.splesniewo.pl",
                "ref:regon": "000737261",
                "ref:vatin": "PL5871506403",
                "operator": "Gmina Puck",
                "operator:type": "government",
                "amenity": "school"
            }
        },
        {
            "id": 3851,
            "type": "Feature",
            "geometry": {
                "type": "Point",
                "coordinates": [
                    18.32022,
                    54.69946
                ]
            },
            "properties": {
                "ref:rspo": 3851,
                "official_name": "Niepubliczne Przedszkole Integracyjne \"Zaczarowana \u0141\u0105ka\" w Darzlubiu",
                "name": "Niepubliczne Przedszkole Integracyjne \"Zaczarowana \u0141\u0105ka\" w Darzlubiu",
                "addr:postcode": "84-100",
                "addr:city": "Darzlubie",
                "addr:street": "Brzozowa",
                "addr:housenumber": "8",
                "addr:city:simc": 170363,
                "addr:street:sym_ul": 2276,
                "phone": "+48 509851630",
                "email": "zaczarowanalaka@wp.pl",
                "ref:regon": "221724149",
                "ref:vatin": "PL5871287792",
                "operator": "Aleksander Gierwatowski",
                "operator:type": "private",
                "amenity": "kindergarten"
            }
        },
        {
            "id": 124495,
            "type": "Feature",
            "geometry": {
                "type": "Point",
                "coordinates": [
                    18.67247,
                    54.70076
                ]
            },
            "properties": {
                "ref:rspo": 124495,
                "official_name": "Niepubliczne Przedszkole \"Zaczarowana \u0141\u0105ka\" w \u0141ebczu",
                "name": "Niepubliczne Przedszkole \"Zaczarowana \u0141\u0105ka\" w \u0141ebczu",
                "addr:postcode": "84-103",
                "addr:city": "\u0141ebcz",
                "addr:street": "Sportowa",
                "addr:housenumber": "8",
                "addr:city:simc": 170506,
                "addr:street:sym_ul": 20683,
                "phone": "+48 509851630",
                "email": "zaczarowanalaka@wp.pl",
                "ref:regon": "222150503",
                "operator": "Aleksander Gierwatowski",
                "operator:type": "private",
                "amenity": "kindergarten"
            }
        },
        {
            "id": 128923,
            "type": "Feature",
            "geometry": {
                "type": "Point",
                "coordinates": [
                    18.406661,
                    54.702553
                ]
            },
            "properties": {
                "ref:rspo": 128923,
                "official_name": "Niepubliczne Przedszkole \"Sprytny Maluch\" w Celb\u00f3wku",
                "name": "Niepubliczne Przedszkole \"Sprytny Maluch\" w Celb\u00f3wku",
                "addr:postcode": "84-100",
                "addr:place": "Celb\u00f3wko",
                "addr:housenumber": "2",
                "addr:city:simc": 170357,
                "phone": "+48 609265080",
                "email": "b.kubowicz@op.pl",
                "ref:regon": "362435737",
                "operator": "Sukces Bo\u017cena Kubowicz-Machnica",
                "operator:type": "consortium",
                "amenity": "kindergarten"
            }
        },
        {
            "id": 72302,
            "type": "Feature",
            "geometry": {
                "type": "Point",
                "coordinates": [
                    18.3214,
                    54.70291
                ]
            },
            "properties": {
                "isced:level": "1;2",
                "ref:rspo": 72302,
                "official_name": "Szko\u0142a Podstawowa im. Maksymiliana Wilandta w Darzlubiu",
                "name": "Szko\u0142a Podstawowa",
                "addr:postcode": "84-100",
                "addr:city": "Darzlubie",
                "addr:street": "Pucka",
                "addr:housenumber": "74",
                "addr:city:simc": 170363,
                "addr:street:sym_ul": 18079,
                "phone": "+48 586738292",
                "email": "sekretariat@darzlubie.eu",
                "website": "http:\/\/www.darzlubie.eu",
                "ref:regon": "001203490",
                "ref:vatin": "PL5871713183",
                "operator": "Gmina Puck",
                "operator:type": "government",
                "amenity": "school"
            }
        },
        {
            "id": 48158,
            "type": "Feature",
            "geometry": {
                "type": "Point",
                "coordinates": [
                    18.23121,
                    54.70345
                ]
            },
            "properties": {
                "ref:rspo": 48158,
                "official_name": "Niepubliczne Przedszkole \"Pod Sosenk\u0105\" w Le\u015bniewie",
                "name": "Niepubliczne Przedszkole \"Pod Sosenk\u0105\" w Le\u015bniewie",
                "addr:postcode": "84-106",
                "addr:city": "Le\u015bniewo",
                "addr:street": "Jana Brzechwy",
                "addr:housenumber": "7",
                "addr:city:simc": 170430,
                "addr:street:sym_ul": 2225,
                "phone": "+48 601885191",
                "email": "podsosenka@wp.pl",
                "ref:regon": "221760837",
                "ref:vatin": "PL5871049584",
                "operator": "Jerzy R\u00f3\u017cek",
                "operator:type": "private",
                "amenity": "kindergarten"
            }
        },
        {
            "id": 132464,
            "type": "Feature",
            "geometry": {
                "type": "Point",
                "coordinates": [
                    18.35794,
                    54.70474
                ]
            },
            "properties": {
                "ref:rspo": 132464,
                "official_name": "Niepubliczny Punkt Przedszkolny M\u0105dry Mi\u015b w Po\u0142czynie",
                "name": "Niepubliczny Punkt Przedszkolny M\u0105dry Mi\u015b w Po\u0142czynie",
                "addr:postcode": "84-100",
                "addr:city": "Po\u0142czyno",
                "addr:street": "Szkolna",
                "addr:housenumber": "37a",
                "addr:city:simc": 170682,
                "addr:street:sym_ul": 21970,
                "phone": "+48 515065553",
                "email": "madrymis2@wp.pl",
                "ref:regon": "365644654",
                "operator": "Fores Bis Sp\u00f3\u0142ka Z Ograniczon\u0105 Odpowiedzialno\u015bci\u0105",
                "operator:type": "private",
                "amenity": "kindergarten"
            }
        },
        {
            "id": 48186,
            "type": "Feature",
            "geometry": {
                "type": "Point",
                "coordinates": [
                    18.35748,
                    54.70678
                ]
            },
            "properties": {
                "isced:level": "1;2",
                "ref:rspo": 48186,
                "official_name": "Szko\u0142a Podstawowa im. Antoniego Abrahama w Po\u0142czynie",
                "name": "Szko\u0142a Podstawowa",
                "addr:postcode": "84-100",
                "addr:city": "Po\u0142czyno",
                "addr:street": "Szkolna",
                "addr:housenumber": "21",
                "addr:city:simc": 170682,
                "addr:street:sym_ul": 21970,
                "phone": "+48 586738278",
                "email": "sekretariat@sppolczyno.pl",
                "website": "http:\/\/www.sppolczyno.pl",
                "ref:regon": "000737255",
                "ref:vatin": "PL5871506509",
                "operator": "Gmina Puck",
                "operator:type": "government",
                "amenity": "school"
            }
        },
        {
            "id": 48166,
            "type": "Feature",
            "geometry": {
                "type": "Point",
                "coordinates": [
                    18.37987,
                    54.74738
                ]
            },
            "properties": {
                "isced:level": "1;2",
                "ref:rspo": 48166,
                "official_name": "Szko\u0142a Podstawowa im. Leona Bizewskiego w Gnie\u017cd\u017cewie",
                "name": "Szko\u0142a Podstawowa",
                "addr:postcode": "84-100",
                "addr:city": "Gnie\u017cd\u017cewo",
                "addr:street": "Dworcowa",
                "addr:housenumber": "6",
                "addr:city:simc": 170423,
                "addr:street:sym_ul": 4434,
                "phone": "+48 586732545",
                "email": "spgniezdzewo@wp.pl",
                "website": "http:\/\/www.spgniezdzewo.edupage.org",
                "ref:regon": "000737278",
                "ref:vatin": "PL5871498193",
                "operator": "Gmina Puck",
                "operator:type": "government",
                "amenity": "school"
            }
        },
        {
            "id": 48878,
            "type": "Feature",
            "geometry": {
                "type": "Point",
                "coordinates": [
                    18.30434,
                    54.74865
                ]
            },
            "properties": {
                "isced:level": "1;2",
                "ref:rspo": 48878,
                "official_name": "Szko\u0142a Podstawowa w Werblini",
                "name": "Szko\u0142a Podstawowa w Werblini",
                "addr:postcode": "84-107",
                "addr:city": "Werblinia",
                "addr:street": "Szkolna",
                "addr:housenumber": "2",
                "addr:city:simc": 170854,
                "addr:street:sym_ul": 21970,
                "phone": "+48 586738778",
                "email": "spwerblinia@interia.pl",
                "website": "http:\/\/spwerblinia.edupage.org",
                "ref:regon": "000958080",
                "ref:vatin": "PL5871506490",
                "operator": "Gmina Puck",
                "operator:type": "government",
                "amenity": "school"
            }
        },
        {
            "id": 82614,
            "type": "Feature",
            "geometry": {
                "type": "Point",
                "coordinates": [
                    18.26282,
                    54.75357
                ]
            },
            "properties": {
                "ref:rspo": 82614,
                "official_name": "Niepubliczne Przedszkole Pod Anio\u0142ami w Starzynie",
                "name": "Niepubliczne Przedszkole Pod Anio\u0142ami w Starzynie",
                "addr:postcode": "84-107",
                "addr:city": "Starzyno",
                "addr:street": "D\u0142uga",
                "addr:housenumber": "17",
                "addr:city:simc": 170794,
                "addr:street:sym_ul": 3839,
                "phone": "+48 506500895",
                "email": "male.anioly@wp.pl",
                "ref:regon": "221777281",
                "ref:vatin": "PL5831424751",
                "operator": "Piotr Skoczke",
                "operator:type": "private",
                "amenity": "kindergarten"
            }
        },
        {
            "id": 48185,
            "type": "Feature",
            "geometry": {
                "type": "Point",
                "coordinates": [
                    18.39725,
                    54.75371
                ]
            },
            "properties": {
                "isced:level": "1;2",
                "ref:rspo": 48185,
                "official_name": "Szko\u0142a Podstawowa im. Ksi\u0119dza Biskupa Konstantyna Dominika w Swarzewie",
                "name": "Szko\u0142a Podstawowa",
                "addr:postcode": "84-100",
                "addr:city": "Swarzewo",
                "addr:street": "Szkolna",
                "addr:housenumber": "36",
                "addr:city:simc": 170848,
                "addr:street:sym_ul": 21970,
                "phone": "+48 586740997",
                "email": "szkolna1@wp.pl",
                "website": "http:\/\/www.spswarzewo.edupage.org",
                "ref:regon": "000737309",
                "ref:vatin": "PL5871506515",
                "operator": "Gmina Puck",
                "operator:type": "government",
                "amenity": "school"
            }
        },
        {
            "id": 63434,
            "type": "Feature",
            "geometry": {
                "type": "Point",
                "coordinates": [
                    18.25854,
                    54.75582
                ]
            },
            "properties": {
                "isced:level": "1;2",
                "ref:rspo": 63434,
                "official_name": "Szko\u0142a Podstawowa im. W\u0142adys\u0142awa Konefki w Starzynie",
                "name": "Szko\u0142a Podstawowa",
                "addr:postcode": "84-107",
                "addr:city": "Starzyno",
                "addr:street": "\u017barnowiecka",
                "addr:housenumber": "22",
                "addr:city:simc": 170794,
                "addr:street:sym_ul": 26406,
                "phone": "+48 586738776",
                "email": "starzyno@wp.pl",
                "website": "http:\/\/www.szkolastarzyno.eu",
                "ref:regon": "000267826",
                "ref:vatin": "PL5871713177",
                "operator": "Gmina Puck",
                "operator:type": "government",
                "amenity": "school"
            }
        },
        {
            "id": 272785,
            "type": "Feature",
            "geometry": {
                "type": "Point",
                "coordinates": [
                    18.39669,
                    54.76004
                ]
            },
            "properties": {
                "ref:rspo": 272785,
                "official_name": "Publiczne Pozytywne Przedszkole w Swarzewie",
                "name": "Publiczne Pozytywne Przedszkole w Swarzewie",
                "addr:postcode": "84-100",
                "addr:city": "Swarzewo",
                "addr:street": "W\u0142adys\u0142awowska",
                "addr:housenumber": "39",
                "addr:city:simc": 170848,
                "addr:street:sym_ul": 24497,
                "phone": "+48 668464984",
                "email": "przedszkoleswarzewo@pozytywneinicjatywy.pl",
                "ref:regon": "384294426",
                "operator": "Gmina Puck",
                "operator:type": "government",
                "amenity": "kindergarten"
            }
        },
        {
            "id": 278150,
            "type": "Feature",
            "geometry": {
                "type": "Point",
                "coordinates": [
                    18.33723,
                    54.7664
                ]
            },
            "properties": {
                "ref:rspo": 278150,
                "official_name": "Zesp\u00f3\u0142 Szkolno-Przedszkolny w \u0141ebczu",
                "name": "Zesp\u00f3\u0142 Szkolno-Przedszkolny w \u0141ebczu",
                "addr:postcode": "84-103",
                "addr:city": "\u0141ebcz",
                "addr:street": "Pucka",
                "addr:housenumber": "27",
                "addr:city:simc": 170506,
                "addr:street:sym_ul": 18079,
                "phone": "+48 586738377",
                "email": "splebcz@op.pl",
                "ref:regon": "389848993",
                "ref:vatin": "PL5871732163",
                "operator": "Gmina Puck",
                "operator:type": "government",
                "landuse": "education",
                "fixme": "amenity=school, amenity=college albo landuse=education w zale\u017cno\u015bci od tego, jakie plac\u00f3wki wchodz\u0105 w sk\u0142ad zespo\u0142u. Sprawd\u017a, kiedy stosowa\u0107 amenity=* a kiedy landuse=education.",
                "note": "Children RSPO: 48873;278223"
            }
        },
        {
            "id": 48873,
            "type": "Feature",
            "geometry": {
                "type": "Point",
                "coordinates": [
                    18.33723,
                    54.766369999999995
                ]
            },
            "properties": {
                "isced:level": "1;2",
                "ref:rspo": 48873,
                "official_name": "Szko\u0142a Podstawowa w \u0141ebczu Imienia Polskich Noblist\u00f3w",
                "name": "Szko\u0142a Podstawowa w \u0141ebczu Imienia Polskich Noblist\u00f3w",
                "addr:postcode": "84-103",
                "addr:city": "\u0141ebcz",
                "addr:street": "Pucka",
                "addr:housenumber": "27",
                "addr:city:simc": 170506,
                "addr:street:sym_ul": 18079,
                "phone": "+48 586738377",
                "email": "splebcz@op.pl",
                "website": "http:\/\/www.splebcz.edupage.org",
                "ref:regon": "000737290",
                "ref:vatin": "PL5871506426",
                "operator": "Gmina Puck",
                "operator:type": "government",
                "amenity": "school",
                "note": "Parent RSPO: 278150"
            }
        },
        {
            "id": 278223,
            "type": "Feature",
            "geometry": {
                "type": "Point",
                "coordinates": [
                    18.33723,
                    54.76634
                ]
            },
            "properties": {
                "ref:rspo": 278223,
                "official_name": "Przedszkole w \u0141ebczu",
                "name": "Przedszkole w \u0141ebczu",
                "addr:postcode": "84-103",
                "addr:city": "\u0141ebcz",
                "addr:street": "Pucka",
                "addr:housenumber": "27",
                "addr:city:simc": 170506,
                "addr:street:sym_ul": 18079,
                "phone": "+48 586738377",
                "email": "splebcz@op.pl",
                "ref:regon": "389863231",
                "ref:vatin": "PL5871732298",
                "operator": "Gmina Puck",
                "operator:type": "government",
                "amenity": "kindergarten",
                "note": "Parent RSPO: 278150"
            }
        },
        {
            "id": 271748,
            "type": "Feature",
            "geometry": {
                "type": "Point",
                "coordinates": [
                    18.33813,
                    54.76786
                ]
            },
            "properties": {
                "ref:rspo": 271748,
                "official_name": "Przedszkole Niepubliczne \"Kubu\u015b Puchatek \" w \u0141ebczu",
                "name": "Przedszkole Niepubliczne \"Kubu\u015b Puchatek \" w \u0141ebczu",
                "addr:postcode": "84-103",
                "addr:city": "\u0141ebcz",
                "addr:street": "Stra\u017cacka",
                "addr:housenumber": "2",
                "addr:city:simc": 170506,
                "addr:street:sym_ul": 21271,
                "email": "marzena214@op.pl",
                "ref:regon": "383596438",
                "operator": "Marzena Wyrwa\u0142",
                "operator:type": "private",
                "amenity": "kindergarten"
            }
        },
        {
            "id": 279294,
            "type": "Feature",
            "geometry": {
                "type": "Point",
                "coordinates": [
                    18.33813,
                    54.76783
                ]
            },
            "properties": {
                "ref:rspo": 279294,
                "official_name": "Przedszkole Publiczne \"Kubu\u015b Puchatek\" w \u0141ebczu",
                "name": "Przedszkole Publiczne \"Kubu\u015b Puchatek\" w \u0141ebczu",
                "addr:postcode": "84-103",
                "addr:city": "\u0141ebcz",
                "addr:street": "Stra\u017cacka",
                "addr:housenumber": "2",
                "addr:city:simc": 170506,
                "addr:street:sym_ul": 21271,
                "email": "marzena214@op.pl",
                "ref:regon": "521157741",
                "operator": "Marzena Wyrwa\u0142",
                "operator:type": "private",
                "amenity": "kindergarten"
            }
        },
        {
            "id": 48876,
            "type": "Feature",
            "geometry": {
                "type": "Point",
                "coordinates": [
                    18.32259,
                    54.78263
                ]
            },
            "properties": {
                "isced:level": "1;2",
                "ref:rspo": 48876,
                "official_name": "Szko\u0142a Podstawowa im. Alojzego Stenzla w Strzelnie",
                "name": "Szko\u0142a Podstawowa",
                "addr:postcode": "84-103",
                "addr:city": "Strzelno",
                "addr:street": "Szkolna",
                "addr:housenumber": "5",
                "addr:city:simc": 170831,
                "addr:street:sym_ul": 21970,
                "phone": "+48 586738384",
                "email": "spstrzelno@op.pl",
                "website": "http:\/\/www.spstrzelno.prv.pl",
                "ref:regon": "000737605",
                "ref:vatin": "PL5871506538",
                "operator": "Gmina Puck",
                "operator:type": "government",
                "amenity": "school"
            }
        },
        {
            "id": 48882,
            "type": "Feature",
            "geometry": {
                "type": "Point",
                "coordinates": [
                    18.3227699,
                    54.78668
                ]
            },
            "properties": {
                "ref:rspo": 48882,
                "official_name": "Przedszkole Niepubliczne \"Kubu\u015b Puchatek\" w Strzelnie",
                "name": "Przedszkole Niepubliczne \"Kubu\u015b Puchatek\" w Strzelnie",
                "addr:postcode": "84-103",
                "addr:city": "Strzelno",
                "addr:street": "Ba\u0142tycka",
                "addr:housenumber": "8",
                "addr:city:simc": 170831,
                "addr:street:sym_ul": 656,
                "phone": "+48 586758216",
                "email": "przedszkolestrzelno@op.pl",
                "website": "http:\/\/www.przedszkolekubuspuchatek.pl",
                "ref:regon": "221763592",
                "ref:vatin": "PL5871263001",
                "operator": "Maria Ceszke",
                "operator:type": "private",
                "amenity": "kindergarten"
            }
        },
        {
            "id": 263803,
            "type": "Feature",
            "geometry": {
                "type": "Point",
                "coordinates": [
                    18.3129,
                    54.80151
                ]
            },
            "properties": {
                "ref:rspo": 263803,
                "official_name": "Zesp\u00f3\u0142 Szkolno-Przedszkolny w Mieroszynie",
                "name": "Zesp\u00f3\u0142 Szkolno-Przedszkolny w Mieroszynie",
                "addr:postcode": "84-103",
                "addr:city": "Mieroszyno",
                "addr:street": "Szkolna",
                "addr:housenumber": "2",
                "addr:city:simc": 170587,
                "addr:street:sym_ul": 21970,
                "phone": "+48 586738392",
                "email": "mieroszyno@poczta.onet.pl",
                "ref:regon": "368225225",
                "ref:vatin": "PL5871713220",
                "operator": "Gmina Puck",
                "operator:type": "government",
                "landuse": "education",
                "fixme": "amenity=school, amenity=college albo landuse=education w zale\u017cno\u015bci od tego, jakie plac\u00f3wki wchodz\u0105 w sk\u0142ad zespo\u0142u. Sprawd\u017a, kiedy stosowa\u0107 amenity=* a kiedy landuse=education.",
                "note": "Children RSPO: 48879;263833"
            }
        },
        {
            "id": 48879,
            "type": "Feature",
            "geometry": {
                "type": "Point",
                "coordinates": [
                    18.3129,
                    54.80148
                ]
            },
            "properties": {
                "isced:level": "1;2",
                "ref:rspo": 48879,
                "official_name": "Szko\u0142a Podstawowa im. Augustyna Necla w Mieroszynie",
                "name": "Szko\u0142a Podstawowa",
                "addr:postcode": "84-103",
                "addr:city": "Mieroszyno",
                "addr:street": "Szkolna",
                "addr:housenumber": "2",
                "addr:city:simc": 170587,
                "addr:street:sym_ul": 21970,
                "phone": "+48 586738392",
                "email": "mieroszyno@poczta.onet.pl",
                "website": "http:\/\/www.mieroszyno-sp.edu.pl",
                "ref:regon": "000958097",
                "operator": "Gmina Puck",
                "operator:type": "government",
                "amenity": "school",
                "note": "Parent RSPO: 263803"
            }
        },
        {
            "id": 263833,
            "type": "Feature",
            "geometry": {
                "type": "Point",
                "coordinates": [
                    18.3129,
                    54.80145
                ]
            },
            "properties": {
                "ref:rspo": 263833,
                "official_name": "Przedszkole w Mieroszynie",
                "name": "Przedszkole w Mieroszynie",
                "addr:postcode": "84-103",
                "addr:city": "Mieroszyno",
                "addr:street": "Szkolna",
                "addr:housenumber": "2",
                "addr:city:simc": 170587,
                "addr:street:sym_ul": 21970,
                "phone": "+48 586738392",
                "ref:regon": "368229625",
                "operator": "Gmina Puck",
                "operator:type": "government",
                "amenity": "kindergarten",
                "note": "Parent RSPO: 263803"
            }
        }
    ]
}