{
    "type": "FeatureCollection",
    "features": [
        {
            "id": 59153,
            "type": "Feature",
            "geometry": {
                "type": "Point",
                "coordinates": [
                    18.50867,
                    54.75983
                ]
            },
            "properties": {
                "ref:rspo": 59153,
                "official_name": "Zesp\u00f3\u0142 Wychowania Przedszkolnego \"\u015awiate\u0142ko\"",
                "name": "Zesp\u00f3\u0142 Wychowania Przedszkolnego \"\u015awiate\u0142ko\"",
                "addr:country": "PL",
                "addr:postcode": "84-120",
                "addr:city": "Cha\u0142upy",
                "addr:street": "Kaperska",
                "addr:housenumber": "25",
                "addr:teryt:simc": 7975,
                "addr:teryt:sym_ul": 935038,
                "contact:email": "bliza_chalupy@wp.pl",
                "ref:regon": "221768394",
                "operator": "Stowarzyszenie Mieszka\u0144c\u00f3w Cha\u0142up \"Bliza\"",
                "operator:type": "ngo",
                "amenity": "kindergarten"
            }
        },
        {
            "id": 120890,
            "type": "Feature",
            "geometry": {
                "type": "Point",
                "coordinates": [
                    18.39999,
                    54.78509
                ]
            },
            "properties": {
                "ref:rspo": 120890,
                "official_name": "Przedszkole Niepubliczne \"Abc Przedszkolaka\"",
                "name": "Przedszkole Niepubliczne \"Abc Przedszkolaka\"",
                "addr:country": "PL",
                "addr:postcode": "84-120",
                "addr:city": "W\u0142adys\u0142awowo",
                "addr:street": "Droga Ch\u0142apowska",
                "addr:housenumber": "16",
                "addr:teryt:simc": 2732,
                "addr:teryt:sym_ul": 935015,
                "contact:phone": "+48 500726863",
                "contact:email": "abc.przedszkolaka.npp@wp.pl",
                "ref:regon": "221991494",
                "operator": "Bogumi\u0142a Ochocka",
                "operator:type": "private",
                "amenity": "kindergarten"
            }
        },
        {
            "id": 130106,
            "type": "Feature",
            "geometry": {
                "type": "Point",
                "coordinates": [
                    18.39875,
                    54.78828
                ]
            },
            "properties": {
                "ref:rspo": 130106,
                "official_name": "Niepubliczny Punkt Przedszkolny \"Bajkowy M\u0142yn\"",
                "name": "Niepubliczny Punkt Przedszkolny \"Bajkowy M\u0142yn\"",
                "addr:country": "PL",
                "addr:postcode": "84-120",
                "addr:city": "W\u0142adys\u0142awowo",
                "addr:street": "M\u0142y\u0144ska",
                "addr:housenumber": "44",
                "addr:teryt:simc": 13132,
                "addr:teryt:sym_ul": 935015,
                "contact:phone": "+48 502101406",
                "contact:email": "anika1990@wp.pl",
                "ref:regon": "363480929",
                "operator": "Danuta Janaszek",
                "operator:type": "private",
                "amenity": "kindergarten"
            }
        },
        {
            "id": 59921,
            "type": "Feature",
            "geometry": {
                "type": "Point",
                "coordinates": [
                    18.40782,
                    54.79048
                ]
            },
            "properties": {
                "ref:rspo": 59921,
                "official_name": "Przedszkole Niepubliczne \"Bursztynek\" Anita Kortas",
                "name": "Przedszkole Niepubliczne \"Bursztynek\" Anita Kortas",
                "addr:country": "PL",
                "addr:postcode": "84-120",
                "addr:city": "W\u0142adys\u0142awowo",
                "addr:street": "Niepodleg\u0142o\u015bci",
                "addr:housenumber": "6",
                "addr:teryt:simc": 14203,
                "addr:teryt:sym_ul": 935015,
                "contact:phone": "+48 586740186",
                "contact:email": "przedszkole.bursztynek@wp.pl",
                "ref:regon": "221768477",
                "ref:vatin": "PL5871006043",
                "operator": "Anita Kortas",
                "operator:type": "private",
                "amenity": "kindergarten"
            }
        },
        {
            "id": 60007,
            "type": "Feature",
            "geometry": {
                "type": "Point",
                "coordinates": [
                    18.39662,
                    54.79282
                ]
            },
            "properties": {
                "ref:rspo": 60007,
                "official_name": "Przedszkole Niepubliczne \"Muszelka\" Joanna Kacprzyk",
                "name": "Przedszkole Niepubliczne \"Muszelka\" Joanna Kacprzyk",
                "addr:country": "PL",
                "addr:postcode": "84-120",
                "addr:city": "W\u0142adys\u0142awowo",
                "addr:street": "Wyzwolenia",
                "addr:housenumber": "1",
                "addr:teryt:simc": 25133,
                "addr:teryt:sym_ul": 935015,
                "contact:phone": "+48 586741894",
                "contact:email": "muszelka81@wp.pl",
                "ref:regon": "221768508",
                "ref:vatin": "PL5871270461",
                "operator": "Joanna Kacprzyk",
                "operator:type": "private",
                "amenity": "kindergarten"
            }
        },
        {
            "id": 271384,
            "type": "Feature",
            "geometry": {
                "type": "Point",
                "coordinates": [
                    18.3992,
                    54.79466
                ]
            },
            "properties": {
                "ref:rspo": 271384,
                "official_name": "Zesp\u00f3\u0142 Szk\u00f3\u0142 Nr 1",
                "name": "Zesp\u00f3\u0142 Szk\u00f3\u0142 Nr 1",
                "addr:country": "PL",
                "addr:postcode": "84-120",
                "addr:city": "W\u0142adys\u0142awowo",
                "addr:street": "Morska",
                "addr:housenumber": "1",
                "addr:teryt:simc": 13296,
                "addr:teryt:sym_ul": 935015,
                "contact:phone": "+48 586740441",
                "contact:email": "zs1@wladyslawowo.pl",
                "ref:regon": "383313765",
                "operator": "Gmina W\u0142adys\u0142awowo",
                "operator:type": "government",
                "landuse": "education",
                "fixme": "amenity=school, amenity=college albo landuse=education w zale\u017cno\u015bci od tego, jakie plac\u00f3wki wchodz\u0105 w sk\u0142ad zespo\u0142u. Sprawd\u017a, kiedy stosowa\u0107 amenity=* a kiedy landuse=education.",
                "note": "Children RSPO: 57155;57716"
            }
        },
        {
            "id": 57155,
            "type": "Feature",
            "geometry": {
                "type": "Point",
                "coordinates": [
                    18.3992,
                    54.79463
                ]
            },
            "properties": {
                "isced:level": "1;2",
                "ref:rspo": 57155,
                "official_name": "Szko\u0142a Podstawowa Nr 3",
                "name": "Szko\u0142a Podstawowa Nr 3",
                "addr:country": "PL",
                "addr:postcode": "84-120",
                "addr:city": "W\u0142adys\u0142awowo",
                "addr:street": "Morska",
                "addr:housenumber": "1",
                "addr:teryt:simc": 13296,
                "addr:teryt:sym_ul": 935015,
                "contact:phone": "+48 586740441",
                "contact:email": "zs1@wladyslawowo.pl",
                "contact:website": "http:\/\/www.zs1.wladyslawowo.pl",
                "ref:regon": "190894004",
                "ref:vatin": "PL5871258218",
                "operator": "Gmina W\u0142adys\u0142awowo",
                "operator:type": "government",
                "amenity": "school",
                "note": "Parent RSPO: 271384"
            }
        },
        {
            "id": 57716,
            "type": "Feature",
            "geometry": {
                "type": "Point",
                "coordinates": [
                    18.3992,
                    54.7946
                ]
            },
            "properties": {
                "isced:level": "3",
                "ref:rspo": 57716,
                "official_name": "Zesp\u00f3\u0142 Szk\u00f3\u0142 Nr 1 Technikum",
                "name": "Zesp\u00f3\u0142 Szk\u00f3\u0142 Nr 1 Technikum",
                "addr:country": "PL",
                "addr:postcode": "84-120",
                "addr:city": "W\u0142adys\u0142awowo",
                "addr:street": "Morska",
                "addr:housenumber": "1",
                "addr:teryt:simc": 13296,
                "addr:teryt:sym_ul": 935015,
                "contact:phone": "+48 586740441",
                "contact:email": "zs1@wladyslawowo.pl",
                "contact:website": "http:\/\/www.zs1.wladyslawowo.pl",
                "ref:regon": "220027840",
                "operator": "Gmina W\u0142adys\u0142awowo",
                "operator:type": "government",
                "amenity": "school",
                "note": "Parent RSPO: 271384"
            }
        },
        {
            "id": 126749,
            "type": "Feature",
            "geometry": {
                "type": "Point",
                "coordinates": [
                    18.39342,
                    54.80109
                ]
            },
            "properties": {
                "isced:level": "3",
                "ref:rspo": 126749,
                "official_name": "Niepubliczne Liceum Og\u00f3lnokszta\u0142c\u0105ce Szko\u0142a Mistrzostwa Sportowego Polskiego Zwi\u0105zku Koszyk\u00f3wki we W\u0142adys\u0142awowie",
                "name": "Niepubliczne Liceum Og\u00f3lnokszta\u0142c\u0105ce Szko\u0142a Mistrzostwa Sportowego Polskiego Zwi\u0105zku Koszyk\u00f3wki we W\u0142adys\u0142awowie",
                "addr:country": "PL",
                "addr:postcode": "84-120",
                "addr:city": "W\u0142adys\u0142awowo",
                "addr:street": "Stefana \u017beromskiego",
                "addr:housenumber": "52",
                "addr:teryt:simc": 26464,
                "addr:teryt:sym_ul": 935015,
                "contact:phone": "+48 508175575",
                "contact:email": "smscetniewo@pzkosz.pl",
                "contact:website": "http:\/\/www.sms-cetniewo.pl",
                "ref:regon": "360698480",
                "ref:vatin": "PL5871682904",
                "operator": "Polski Zwi\u0105zek Koszyk\u00f3wki",
                "operator:type": "cooperative",
                "amenity": "school"
            }
        },
        {
            "id": 271866,
            "type": "Feature",
            "geometry": {
                "type": "Point",
                "coordinates": [
                    18.38654,
                    54.8018
                ]
            },
            "properties": {
                "ref:rspo": 271866,
                "official_name": "Przedszkole Nr 1 we W\u0142adys\u0142awowie",
                "name": "Przedszkole Nr 1 we W\u0142adys\u0142awowie",
                "addr:country": "PL",
                "addr:postcode": "84-120",
                "addr:city": "W\u0142adys\u0142awowo",
                "addr:street": "Drogowc\u00f3w",
                "addr:housenumber": "1",
                "addr:teryt:simc": 4247,
                "addr:teryt:sym_ul": 935015,
                "contact:phone": "+48 786123137",
                "contact:email": "przedszkole@wladyslawowo.pl",
                "contact:website": "http:\/\/przedszkole.wladyslawowo.pl",
                "ref:regon": "383713588",
                "operator": "Gmina W\u0142adys\u0142awowo",
                "operator:type": "government",
                "amenity": "kindergarten"
            }
        },
        {
            "id": 57158,
            "type": "Feature",
            "geometry": {
                "type": "Point",
                "coordinates": [
                    18.36685,
                    54.80466
                ]
            },
            "properties": {
                "isced:level": "1;2",
                "ref:rspo": 57158,
                "official_name": "Szko\u0142a Podstawowa im.kpt.\u017c.w.gustawa Karola Ka\u0144skiego",
                "name": "Szko\u0142a Podstawowa im.kpt.\u017c.w.gustawa Karola Ka\u0144skiego",
                "addr:country": "PL",
                "addr:postcode": "84-120",
                "addr:city": "Ch\u0142apowo",
                "addr:street": "W\u0142adys\u0142awowska",
                "addr:housenumber": "87",
                "addr:teryt:simc": 24497,
                "addr:teryt:sym_ul": 935044,
                "contact:phone": "+48 586740696",
                "contact:email": "spchlapowo@wp.pl",
                "ref:regon": "190384668",
                "ref:vatin": "PL5871257495",
                "operator": "Gmina W\u0142adys\u0142awowo",
                "operator:type": "government",
                "amenity": "school"
            }
        },
        {
            "id": 124861,
            "type": "Feature",
            "geometry": {
                "type": "Point",
                "coordinates": [
                    18.3141399,
                    54.82432
                ]
            },
            "properties": {
                "ref:rspo": 124861,
                "official_name": "Niepubliczne Przedszkole J\u0119zykowe \"Bajkowy Domek\"",
                "name": "Niepubliczne Przedszkole J\u0119zykowe \"Bajkowy Domek\"",
                "addr:country": "PL",
                "addr:postcode": "84-104",
                "addr:city": "Tupad\u0142y",
                "addr:street": "Pucka",
                "addr:housenumber": "31A",
                "addr:teryt:simc": 18079,
                "addr:teryt:sym_ul": 935110,
                "contact:phone": "+48 661520005",
                "contact:email": "przedszkoletupadly@o2.pl",
                "ref:regon": "222156635",
                "operator": "Anna Turemka",
                "operator:type": "private",
                "amenity": "kindergarten"
            }
        },
        {
            "id": 46544,
            "type": "Feature",
            "geometry": {
                "type": "Point",
                "coordinates": [
                    18.20465,
                    54.8304
                ]
            },
            "properties": {
                "isced:level": "1;2",
                "ref:rspo": 46544,
                "official_name": "Szko\u0142a Podstawowa im. Jana Kazimierza Kuczy\u0144skiego",
                "name": "Szko\u0142a Podstawowa",
                "addr:country": "PL",
                "addr:postcode": "84-105",
                "addr:city": "Karwia",
                "addr:street": "Wojska Polskiego",
                "addr:housenumber": "47",
                "addr:teryt:simc": 24628,
                "addr:teryt:sym_ul": 935067,
                "contact:phone": "+48 586747304",
                "contact:email": "poczta@spkarwia.wladyslawowo.pl",
                "ref:regon": "190384680",
                "operator": "Gmina W\u0142adys\u0142awowo",
                "operator:type": "government",
                "amenity": "school"
            }
        },
        {
            "id": 57147,
            "type": "Feature",
            "geometry": {
                "type": "Point",
                "coordinates": [
                    18.20958,
                    54.8309
                ]
            },
            "properties": {
                "isced:level": "1;2",
                "ref:rspo": 57147,
                "official_name": "Szko\u0142a Podstawowa Nr 2 im. Kontradmira\u0142a W\u0142odzimierza Steyera",
                "name": "Szko\u0142a Podstawowa Nr 2",
                "addr:country": "PL",
                "addr:postcode": "84-120",
                "addr:city": "W\u0142adys\u0142awowo",
                "addr:street": "1000-lecia Pa\u0144stwa Polskiego",
                "addr:housenumber": "2",
                "addr:teryt:simc": 11,
                "addr:teryt:sym_ul": 935015,
                "contact:phone": "+48 586740942",
                "contact:email": "sekretariat@sp2.wladyslawowo.pl",
                "contact:website": "http:\/\/sp2.wladyslawowo.pl",
                "ref:regon": "190384651",
                "ref:vatin": "PL5871028501",
                "operator": "Gmina W\u0142adys\u0142awowo",
                "operator:type": "government",
                "amenity": "school"
            }
        },
        {
            "id": 57145,
            "type": "Feature",
            "geometry": {
                "type": "Point",
                "coordinates": [
                    18.30107,
                    54.83464
                ]
            },
            "properties": {
                "isced:level": "1;2",
                "ref:rspo": 57145,
                "official_name": "Szko\u0142a Podstawowa im. Stefana \u017beromskiego w Jastrz\u0119biej G\u00f3rze",
                "name": "Szko\u0142a Podstawowa",
                "addr:country": "PL",
                "addr:postcode": "84-104",
                "addr:city": "Jastrz\u0119bia G\u00f3ra",
                "addr:street": "Juliusza S\u0142owackiego",
                "addr:housenumber": "4",
                "addr:teryt:simc": 20286,
                "addr:teryt:sym_ul": 935050,
                "contact:email": "spjg@wp.pl",
                "contact:website": "http:\/\/www.spjg.szkolnastrona.pl",
                "ref:regon": "190384674",
                "ref:vatin": "PL5871028518",
                "operator": "Gmina W\u0142adys\u0142awowo",
                "operator:type": "government",
                "amenity": "school"
            }
        }
    ]
}