{
    "type": "FeatureCollection",
    "features": [
        {
            "id": 106053,
            "type": "Feature",
            "geometry": {
                "type": "Point",
                "coordinates": [
                    22.2357799,
                    50.06074
                ]
            },
            "properties": {
                "ref:rspo": 106053,
                "official_name": "Przedszkole Niepubliczne Si\u00f3str S\u0142u\u017cebniczek Nmp",
                "name": "Przedszkole Niepubliczne Si\u00f3str S\u0142u\u017cebniczek Nmp",
                "addr:postcode": "37-100",
                "addr:city": "\u0141a\u0144cut",
                "addr:street": "G\u00f3rne",
                "addr:housenumber": "2",
                "addr:city:simc": 974529,
                "addr:street:sym_ul": 5953,
                "phone": "+48 172252103",
                "email": "ochronkalancut@gmail.com",
                "ref:regon": "180931003",
                "ref:vatin": "PL8151298668",
                "operator": "Zg. Ss. S\u0142u\u017cebniczek Nmp Niepokalanie Pocz\u0119tej, Prowincja Przemyska",
                "operator:type": "religious",
                "amenity": "kindergarten"
            }
        },
        {
            "id": 106025,
            "type": "Feature",
            "geometry": {
                "type": "Point",
                "coordinates": [
                    22.2169,
                    50.06161
                ]
            },
            "properties": {
                "ref:rspo": 106025,
                "official_name": "Niepubliczne Przedszkole Artystyczno-J\u0119zykowe \"Babyland\"",
                "name": "Niepubliczne Przedszkole Artystyczno-J\u0119zykowe \"Babyland\"",
                "addr:postcode": "37-100",
                "addr:city": "\u0141a\u0144cut",
                "addr:street": "J\u00f3zefa Pi\u0142sudskiego",
                "addr:housenumber": "46 A",
                "addr:city:simc": 974529,
                "addr:street:sym_ul": 16264,
                "phone": "+48 792700636",
                "email": "babyland.lancut@gmail.com",
                "website": "http:\/\/www.babyland-lancut.pl\/",
                "ref:regon": "180929443",
                "ref:vatin": "PL8151637521",
                "operator": "Andrzej Dziobak",
                "operator:type": "private",
                "amenity": "kindergarten"
            }
        },
        {
            "id": 106109,
            "type": "Feature",
            "geometry": {
                "type": "Point",
                "coordinates": [
                    22.22131,
                    50.06345
                ]
            },
            "properties": {
                "ref:rspo": 106109,
                "official_name": "Przedszkole Miejskie nr 2 w \u0141a\u0144cucie",
                "name": "Przedszkole Miejskie nr 2 w \u0141a\u0144cucie",
                "addr:postcode": "37-100",
                "addr:city": "\u0141a\u0144cut",
                "addr:street": "J\u00f3zefa Pi\u0142sudskiego",
                "addr:housenumber": "70",
                "addr:city:simc": 974529,
                "addr:street:sym_ul": 16264,
                "phone": "+48 172253068",
                "email": "przedszkolemiejskie2@wp.pl",
                "website": "http:\/\/przedszkole2.lancut.org\/",
                "ref:regon": "690588295",
                "ref:vatin": "PL8151543777",
                "operator": "Miasto \u0141a\u0144cut",
                "operator:type": "government",
                "amenity": "kindergarten"
            }
        },
        {
            "id": 13357,
            "type": "Feature",
            "geometry": {
                "type": "Point",
                "coordinates": [
                    22.23671,
                    50.06416
                ]
            },
            "properties": {
                "ref:rspo": 13357,
                "official_name": "Powiatowe Centrum Kszta\u0142cenia Zawodowego im. Felicjana Dzier\u017canowskiego w \u0141a\u0144cucie",
                "name": "Powiatowe Centrum Kszta\u0142cenia Zawodowego",
                "addr:postcode": "37-100",
                "addr:city": "\u0141a\u0144cut",
                "addr:street": "Armii Krajowej",
                "addr:housenumber": "51",
                "addr:city:simc": 974529,
                "addr:street:sym_ul": 432,
                "phone": "+48 172252716",
                "ref:regon": "180255016",
                "ref:vatin": "PL8151739440",
                "operator": "Powiat \u0141a\u0144cucki",
                "operator:type": "government",
                "fixme": "w zale\u017cno\u015bci od przedmiotu dzia\u0142alno\u015bci (np. amenity=training + training=*, amenity=dancing_school, amenity=language_school, amenity=music_school) albo amenity=school, amenity=college, albo landuse=education w zale\u017cno\u015bci od tego, jakie plac\u00f3wki wchodz\u0105 w sk\u0142ad zespo\u0142u. Sprawd\u017a, kiedy stosowa\u0107 amenity=* a kiedy landuse=education."
            }
        },
        {
            "id": 129981,
            "type": "Feature",
            "geometry": {
                "type": "Point",
                "coordinates": [
                    22.23671,
                    50.06413
                ]
            },
            "properties": {
                "ref:rspo": 129981,
                "official_name": "Ognisko Pracy Pozaszkolnej w \u0141a\u0144cucie",
                "name": "Ognisko Pracy Pozaszkolnej w \u0141a\u0144cucie",
                "addr:postcode": "37-100",
                "addr:city": "\u0141a\u0144cut",
                "addr:street": "Armii Krajowej",
                "addr:housenumber": "51",
                "addr:door": "d",
                "addr:city:simc": 974529,
                "addr:street:sym_ul": 432,
                "phone": "+48 172256934",
                "email": "bursa@bursa.itl.pl",
                "website": "http:\/\/www.bursa.itl.pl",
                "ref:regon": "363211690",
                "operator": "Powiat \u0141a\u0144cucki",
                "operator:type": "government",
                "amenity": "community_centre",
                "community_centre:for": "child;juvenile",
                "note": "Parent RSPO: 123736"
            }
        },
        {
            "id": 15513,
            "type": "Feature",
            "geometry": {
                "type": "Point",
                "coordinates": [
                    22.23665,
                    50.06421
                ]
            },
            "properties": {
                "ref:rspo": 15513,
                "official_name": "Zesp\u00f3\u0142 Szk\u00f3\u0142 Technicznych w \u0141a\u0144cucie",
                "name": "Zesp\u00f3\u0142 Szk\u00f3\u0142 Technicznych w \u0141a\u0144cucie",
                "addr:postcode": "37-100",
                "addr:city": "\u0141a\u0144cut",
                "addr:street": "Armii Krajowej",
                "addr:housenumber": "51a",
                "addr:city:simc": 974529,
                "addr:street:sym_ul": 432,
                "phone": "+48 172252286",
                "email": "szkola@zstlancut.pl",
                "website": "http:\/\/www.zstlancut.pl",
                "ref:regon": "000096247",
                "ref:vatin": "PL8151259303",
                "operator": "Powiat \u0141a\u0144cucki",
                "operator:type": "government",
                "landuse": "education",
                "fixme": "amenity=school, amenity=college albo landuse=education w zale\u017cno\u015bci od tego, jakie plac\u00f3wki wchodz\u0105 w sk\u0142ad zespo\u0142u. Sprawd\u017a, kiedy stosowa\u0107 amenity=* a kiedy landuse=education.",
                "note": "Children RSPO: 24463;24464;25118;31920"
            }
        },
        {
            "id": 24463,
            "type": "Feature",
            "geometry": {
                "type": "Point",
                "coordinates": [
                    22.23665,
                    50.06418
                ]
            },
            "properties": {
                "isced:level": "3",
                "ref:rspo": 24463,
                "official_name": "Technikum nr 3 im. Jana Inglota",
                "name": "Technikum nr 3",
                "addr:postcode": "37-100",
                "addr:city": "\u0141a\u0144cut",
                "addr:street": "Armii Krajowej",
                "addr:housenumber": "51A",
                "addr:city:simc": 974529,
                "addr:street:sym_ul": 432,
                "phone": "+48 172252286",
                "email": "szkola@zstlancut.pl",
                "website": "http:\/\/www.zstlancut.pl",
                "ref:regon": "691681772",
                "ref:vatin": "PL8151259303",
                "operator": "Powiat \u0141a\u0144cucki",
                "operator:type": "government",
                "amenity": "school",
                "note": "Parent RSPO: 15513"
            }
        },
        {
            "id": 24464,
            "type": "Feature",
            "geometry": {
                "type": "Point",
                "coordinates": [
                    22.23665,
                    50.064150000000005
                ]
            },
            "properties": {
                "isced:level": "3",
                "ref:rspo": 24464,
                "official_name": "Bran\u017cowa Szko\u0142a I Stopnia nr 3 w \u0141a\u0144cucie",
                "name": "Bran\u017cowa Szko\u0142a I Stopnia nr 3 w \u0141a\u0144cucie",
                "addr:postcode": "37-100",
                "addr:city": "\u0141a\u0144cut",
                "addr:street": "Armii Krajowej",
                "addr:housenumber": "51A",
                "addr:city:simc": 974529,
                "addr:street:sym_ul": 432,
                "phone": "+48 172252286",
                "email": "szkola@zstlancut.pl",
                "website": "http:\/\/www.zstlancut.pl",
                "ref:regon": "691681789",
                "ref:vatin": "PL8151259303",
                "operator": "Powiat \u0141a\u0144cucki",
                "operator:type": "government",
                "amenity": "school",
                "note": "Parent RSPO: 15513"
            }
        },
        {
            "id": 25118,
            "type": "Feature",
            "geometry": {
                "type": "Point",
                "coordinates": [
                    22.23665,
                    50.06412
                ]
            },
            "properties": {
                "isced:level": "3",
                "ref:rspo": 25118,
                "official_name": "Iv Liceum Og\u00f3lnokszta\u0142c\u0105ce",
                "name": "Iv Liceum Og\u00f3lnokszta\u0142c\u0105ce",
                "addr:postcode": "37-100",
                "addr:city": "\u0141a\u0144cut",
                "addr:street": "Armii Krajowej",
                "addr:housenumber": "51A",
                "addr:city:simc": 974529,
                "addr:street:sym_ul": 432,
                "phone": "+48 172252286",
                "email": "szkola@zstlancut.pl",
                "website": "http:\/\/www.zstlancut.pl",
                "ref:regon": "691684718",
                "ref:vatin": "PL8151259303",
                "operator": "Powiat \u0141a\u0144cucki",
                "operator:type": "government",
                "amenity": "school",
                "note": "Parent RSPO: 15513"
            }
        },
        {
            "id": 31920,
            "type": "Feature",
            "geometry": {
                "type": "Point",
                "coordinates": [
                    22.23665,
                    50.06409
                ]
            },
            "properties": {
                "isced:level": "3",
                "ref:rspo": 31920,
                "official_name": "Liceum Og\u00f3lnokszta\u0142c\u0105ce dla Doros\u0142ych nr 2 w \u0141a\u0144cucie",
                "name": "Liceum Og\u00f3lnokszta\u0142c\u0105ce dla Doros\u0142ych nr 2 w \u0141a\u0144cucie",
                "addr:postcode": "37-100",
                "addr:city": "\u0141a\u0144cut",
                "addr:street": "Armii Krajowej",
                "addr:housenumber": "51A",
                "addr:city:simc": 974529,
                "addr:street:sym_ul": 432,
                "phone": "+48 172252286",
                "email": "szkola@zstlancut.pl",
                "website": "http:\/\/www.zstlancut.pl",
                "ref:regon": "180897499",
                "ref:vatin": "PL8151259303",
                "operator": "Powiat \u0141a\u0144cucki",
                "operator:type": "government",
                "amenity": "school",
                "note": "Parent RSPO: 15513"
            }
        },
        {
            "id": 123736,
            "type": "Feature",
            "geometry": {
                "type": "Point",
                "coordinates": [
                    22.2379,
                    50.0650199
                ]
            },
            "properties": {
                "ref:rspo": 123736,
                "official_name": "Zesp\u00f3\u0142 Plac\u00f3wek O\u015bwiatowych w \u0141a\u0144cucie",
                "name": "Zesp\u00f3\u0142 Plac\u00f3wek O\u015bwiatowych w \u0141a\u0144cucie",
                "addr:postcode": "37-100",
                "addr:city": "\u0141a\u0144cut",
                "addr:street": "Armii Krajowej",
                "addr:housenumber": "51D",
                "addr:city:simc": 974529,
                "addr:street:sym_ul": 432,
                "phone": "+48 172256934",
                "email": "bursa@bursa.itl.pl",
                "website": "http:\/\/www.bursa.itl.pl",
                "ref:regon": "181135567",
                "operator": "Powiat \u0141a\u0144cucki",
                "operator:type": "government",
                "landuse": "education",
                "fixme": "amenity=school, amenity=college albo landuse=education w zale\u017cno\u015bci od tego, jakie plac\u00f3wki wchodz\u0105 w sk\u0142ad zespo\u0142u. Sprawd\u017a, kiedy stosowa\u0107 amenity=* a kiedy landuse=education.",
                "note": "Children RSPO: 14091;123764;129981"
            }
        },
        {
            "id": 14091,
            "type": "Feature",
            "geometry": {
                "type": "Point",
                "coordinates": [
                    22.2379,
                    50.0649899
                ]
            },
            "properties": {
                "ref:rspo": 14091,
                "official_name": "Bursa Szkolna w \u0141a\u0144cucie",
                "name": "Bursa Szkolna w \u0141a\u0144cucie",
                "addr:postcode": "37-100",
                "addr:city": "\u0141a\u0144cut",
                "addr:street": "Armii Krajowej",
                "addr:housenumber": "51d",
                "addr:city:simc": 974529,
                "addr:street:sym_ul": 432,
                "phone": "+48 172256934",
                "email": "bursa@bursa.itl.pl",
                "website": "http:\/\/www.bursa.itl.pl",
                "ref:regon": "690673316",
                "ref:vatin": "PL8151545405",
                "operator": "Powiat \u0141a\u0144cucki",
                "operator:type": "government",
                "building": "dormitory",
                "note": "Parent RSPO: 123736"
            }
        },
        {
            "id": 123764,
            "type": "Feature",
            "geometry": {
                "type": "Point",
                "coordinates": [
                    22.2379,
                    50.064959900000005
                ]
            },
            "properties": {
                "ref:rspo": 123764,
                "official_name": "Szkolne Schronisko M\u0142odzie\u017cowe w \u0141a\u0144cucie",
                "name": "Szkolne Schronisko M\u0142odzie\u017cowe w \u0141a\u0144cucie",
                "addr:postcode": "37-100",
                "addr:city": "\u0141a\u0144cut",
                "addr:street": "Armii Krajowej",
                "addr:housenumber": "51D",
                "addr:city:simc": 974529,
                "addr:street:sym_ul": 432,
                "phone": "+48 172256934",
                "email": "bursa@bursa.itl.pl",
                "website": "http:\/\/www.bursa.itl.pl",
                "ref:regon": "181135998",
                "operator": "Powiat \u0141a\u0144cucki",
                "operator:type": "government",
                "tourism": "hostel",
                "note": "Parent RSPO: 123736"
            }
        },
        {
            "id": 106020,
            "type": "Feature",
            "geometry": {
                "type": "Point",
                "coordinates": [
                    22.24012,
                    50.06563
                ]
            },
            "properties": {
                "ref:rspo": 106020,
                "official_name": "Niepubliczne Przedszkole \u201eJa\u015b I Ma\u0142gosia\"",
                "name": "Niepubliczne Przedszkole \u201eJa\u015b I Ma\u0142gosia\"",
                "addr:postcode": "37-100",
                "addr:city": "\u0141a\u0144cut",
                "addr:street": "3 Maja",
                "addr:housenumber": "25",
                "addr:city:simc": 974529,
                "addr:street:sym_ul": 29830,
                "phone": "+48 609214208",
                "email": "jasimalgosia.ewa@gmail.com",
                "website": "http:\/\/www.jas-malgosia.com",
                "ref:regon": "180929437",
                "ref:vatin": "PL8151548757",
                "operator": "Ewa Pilawa",
                "operator:type": "private",
                "amenity": "kindergarten"
            }
        },
        {
            "id": 16756,
            "type": "Feature",
            "geometry": {
                "type": "Point",
                "coordinates": [
                    22.22979,
                    50.06573
                ]
            },
            "properties": {
                "ref:rspo": 16756,
                "official_name": "Poradnia Psychologiczno Pedagogiczna w \u0141a\u0144cucie",
                "name": "Poradnia Psychologiczno Pedagogiczna w \u0141a\u0144cucie",
                "addr:postcode": "37-100",
                "addr:city": "\u0141a\u0144cut",
                "addr:street": "Adama Mickiewicza",
                "addr:housenumber": "3",
                "addr:city:simc": 974529,
                "addr:street:sym_ul": 12740,
                "phone": "+48 172253307",
                "email": "poradniapplancut@gmail.com",
                "website": "http:\/\/www.ppplancut.pl",
                "ref:regon": "001030196",
                "ref:vatin": "PL8151373720",
                "operator": "Powiat \u0141a\u0144cucki",
                "operator:type": "government",
                "healthcare": "counselling",
                "counselling_type": "education",
                "fixme": "w zale\u017cno\u015bci od przedmiotu dzia\u0142alno\u015bci (np. healthcare=counselling + counselling_type=education albo healthcare=psychotherapist)"
            }
        },
        {
            "id": 19372,
            "type": "Feature",
            "geometry": {
                "type": "Point",
                "coordinates": [
                    22.22979,
                    50.0657
                ]
            },
            "properties": {
                "isced:level": "3",
                "ref:rspo": 19372,
                "official_name": "I Liceum Og\u00f3lnokszta\u0142c\u0105ce w \u0141a\u0144cucie",
                "name": "I Liceum Og\u00f3lnokszta\u0142c\u0105ce w \u0141a\u0144cucie",
                "addr:postcode": "37-100",
                "addr:city": "\u0141a\u0144cut",
                "addr:street": "Adama Mickiewicza",
                "addr:housenumber": "3",
                "addr:city:simc": 974529,
                "addr:street:sym_ul": 12740,
                "phone": "+48 172252961",
                "email": "dyrektor@lo-lancut.pl",
                "website": "http:\/\/www.lo-lancut.pl",
                "ref:regon": "000229292",
                "ref:vatin": "PL8151276715",
                "operator": "Powiat \u0141a\u0144cucki",
                "operator:type": "government",
                "amenity": "school"
            }
        },
        {
            "id": 106029,
            "type": "Feature",
            "geometry": {
                "type": "Point",
                "coordinates": [
                    22.23122,
                    50.06619
                ]
            },
            "properties": {
                "ref:rspo": 106029,
                "official_name": "Przedszkole Artystyczno-J\u0119zykowe Nutka",
                "name": "Przedszkole Artystyczno-J\u0119zykowe Nutka",
                "addr:postcode": "37-100",
                "addr:city": "\u0141a\u0144cut",
                "addr:street": "Osiedle osiedle 3-go Maja",
                "addr:housenumber": "11",
                "addr:city:simc": 974529,
                "addr:street:sym_ul": 49095,
                "phone": "+48 172242441",
                "email": "info@przedszkolenutka.edu.pl",
                "website": "http:\/\/www.przedszkolenutka.edu.pl",
                "ref:regon": "180929420",
                "ref:vatin": "PL8151115260",
                "operator": "Anna Bia\u0142ek",
                "operator:type": "private",
                "amenity": "kindergarten"
            }
        },
        {
            "id": 263954,
            "type": "Feature",
            "geometry": {
                "type": "Point",
                "coordinates": [
                    22.22942,
                    50.0664299
                ]
            },
            "properties": {
                "isced:level": "1;2",
                "ref:rspo": 263954,
                "official_name": "Szko\u0142a Podstawowa nr 1 im. Kardyna\u0142a Stefana Wyszy\u0144skiego",
                "name": "Szko\u0142a Podstawowa nr 1",
                "addr:postcode": "37-100",
                "addr:city": "\u0141a\u0144cut",
                "addr:street": "J\u00f3zefa Pi\u0142sudskiego",
                "addr:housenumber": "7",
                "addr:city:simc": 974529,
                "addr:street:sym_ul": 16264,
                "phone": "+48 172253140",
                "email": "szkola@sp1lancut.pl",
                "website": "http:\/\/sp1lancut.pl\/",
                "ref:regon": "368244889",
                "operator": "Miasto \u0141a\u0144cut",
                "operator:type": "government",
                "amenity": "school"
            }
        },
        {
            "id": 71057,
            "type": "Feature",
            "geometry": {
                "type": "Point",
                "coordinates": [
                    22.23871,
                    50.06669
                ]
            },
            "properties": {
                "ref:rspo": 71057,
                "official_name": "Pa\u0144stwowa Szko\u0142a Muzyczna I St. im. Teodora Leszetyckiego w \u0141a\u0144cucie",
                "name": "Pa\u0144stwowa Szko\u0142a Muzyczna I St.",
                "addr:postcode": "37-100",
                "addr:city": "\u0141a\u0144cut",
                "addr:street": "3 Maja",
                "addr:housenumber": "19",
                "addr:city:simc": 974529,
                "addr:street:sym_ul": 11937,
                "phone": "+48 172253192",
                "email": "sekretariat@psmlancut.pl",
                "website": "http:\/\/www.psmlancut.pl",
                "ref:regon": "000282866",
                "operator": "Ministerstwo Kultury I Dziedzictwa Narodowego",
                "operator:type": "government",
                "amenity": "music_school"
            }
        },
        {
            "id": 106063,
            "type": "Feature",
            "geometry": {
                "type": "Point",
                "coordinates": [
                    22.22679,
                    50.06678
                ]
            },
            "properties": {
                "ref:rspo": 106063,
                "official_name": "Niepubliczne Przedszkole Specjalne dla Dzieci Niepe\u0142nosprawnych I Autystycznych \"Niebieska Kraina\"",
                "name": "Niepubliczne Przedszkole Specjalne dla Dzieci Niepe\u0142nosprawnych I Autystycznych \"Niebieska Kraina\"",
                "addr:postcode": "37-100",
                "addr:city": "\u0141a\u0144cut",
                "addr:street": "Jana Cetnarskiego",
                "addr:housenumber": "8",
                "addr:city:simc": 974529,
                "addr:street:sym_ul": 34812,
                "phone": "+48 506655738",
                "email": "przedszkole@niebieskakraina.pl",
                "ref:regon": "180929680",
                "operator": "Barbara Nicpo\u0144",
                "operator:type": "private",
                "amenity": "kindergarten"
            }
        },
        {
            "id": 276452,
            "type": "Feature",
            "geometry": {
                "type": "Point",
                "coordinates": [
                    22.22679,
                    50.06675
                ]
            },
            "properties": {
                "isced:level": "1;2",
                "ref:rspo": 276452,
                "official_name": "Niepubliczna Szko\u0142a Podstawowa Specjalna z Oddzia\u0142ami Przedszkolnymi Niebieska Kraina w \u0141a\u0144cucie",
                "name": "Niepubliczna Szko\u0142a Podstawowa Specjalna z Oddzia\u0142ami Przedszkolnymi Niebieska Kraina w \u0141a\u0144cucie",
                "addr:postcode": "37-100",
                "addr:city": "\u0141a\u0144cut",
                "addr:street": "Jana Cetnarskiego",
                "addr:housenumber": "8",
                "addr:city:simc": 974529,
                "addr:street:sym_ul": 34812,
                "email": "katarzynalach28@interia.pl",
                "ref:regon": "387144118",
                "operator": "Katarzyna \u0141ach",
                "operator:type": "private",
                "amenity": "school"
            }
        },
        {
            "id": 273604,
            "type": "Feature",
            "geometry": {
                "type": "Point",
                "coordinates": [
                    22.24299,
                    50.06701
                ]
            },
            "properties": {
                "ref:rspo": 273604,
                "official_name": "Podkarpacka Akademia Sportu",
                "name": "Podkarpacka Akademia Sportu",
                "addr:postcode": "37-100",
                "addr:city": "\u0141a\u0144cut",
                "addr:street": "Armii Krajowej",
                "addr:housenumber": "57",
                "addr:door": "216-217",
                "addr:city:simc": 974529,
                "addr:street:sym_ul": 432,
                "email": "szkolenia.mazur@wp.pl",
                "ref:regon": "384514684",
                "operator": "Wojciech Mazur",
                "operator:type": "private",
                "fixme": "w zale\u017cno\u015bci od przedmiotu dzia\u0142alno\u015bci (np. amenity=training + training=*, amenity=dancing_school, amenity=language_school, amenity=music_school)"
            }
        },
        {
            "id": 128422,
            "type": "Feature",
            "geometry": {
                "type": "Point",
                "coordinates": [
                    22.2283,
                    50.06708
                ]
            },
            "properties": {
                "ref:rspo": 128422,
                "official_name": "Pedagogiczna Biblioteka Wojew\u00f3dzka w Rzeszowie Filia w \u0141a\u0144cucie",
                "name": "Pedagogiczna Biblioteka Wojew\u00f3dzka w Rzeszowie Filia w \u0141a\u0144cucie",
                "addr:postcode": "37-100",
                "addr:city": "\u0141a\u0144cut",
                "addr:street": "Konstantego Danielewicza",
                "addr:housenumber": "8",
                "addr:city:simc": 974529,
                "addr:street:sym_ul": 3589,
                "phone": "+48 172252700",
                "email": "lancut@pbw.org.pl",
                "ref:regon": "691164717",
                "operator": "Wojew\u00f3dztwo Podkarpackie",
                "operator:type": "government",
                "amenity": "library",
                "note": "Parent RSPO: 92368"
            }
        },
        {
            "id": 104944,
            "type": "Feature",
            "geometry": {
                "type": "Point",
                "coordinates": [
                    22.21684,
                    50.06715
                ]
            },
            "properties": {
                "isced:level": "1;2",
                "ref:rspo": 104944,
                "official_name": "Szko\u0142a Podstawowa nr 3 im. 10 Pu\u0142ku Strzelc\u00f3w Konnych w \u0141a\u0144cucie",
                "name": "Szko\u0142a Podstawowa nr 3",
                "addr:postcode": "37-100",
                "addr:city": "\u0141a\u0144cut",
                "addr:street": "29 Listopada",
                "addr:housenumber": "21",
                "addr:city:simc": 974529,
                "addr:street:sym_ul": 11208,
                "phone": "+48 172252434",
                "email": "sp3lancut@poczta.onet.pl",
                "website": "http:\/\/www.sp3.elancut.pl\/",
                "ref:regon": "000803058",
                "ref:vatin": "PL8151098053",
                "operator": "Miasto \u0141a\u0144cut",
                "operator:type": "government",
                "amenity": "school"
            }
        },
        {
            "id": 18843,
            "type": "Feature",
            "geometry": {
                "type": "Point",
                "coordinates": [
                    22.22989,
                    50.06977
                ]
            },
            "properties": {
                "ref:rspo": 18843,
                "official_name": "Zesp\u00f3\u0142 Szk\u00f3\u0142 nr 3 Im Miko\u0142aja Kopernika w \u0141a\u0144cucie",
                "name": "Zesp\u00f3\u0142 Szk\u00f3\u0142 nr 3 Im Miko\u0142aja Kopernika w \u0141a\u0144cucie",
                "addr:postcode": "37-100",
                "addr:city": "\u0141a\u0144cut",
                "addr:street": "Farna",
                "addr:housenumber": "10",
                "addr:city:simc": 974529,
                "addr:street:sym_ul": 4907,
                "phone": "+48 172254080",
                "email": "zszlancut@poczta.onet.pl",
                "website": "http:\/\/www.zsn3lancut.pl",
                "ref:regon": "000236286",
                "ref:vatin": "PL8151205477",
                "operator": "Powiat \u0141a\u0144cucki",
                "operator:type": "government",
                "landuse": "education",
                "fixme": "amenity=school, amenity=college albo landuse=education w zale\u017cno\u015bci od tego, jakie plac\u00f3wki wchodz\u0105 w sk\u0142ad zespo\u0142u. Sprawd\u017a, kiedy stosowa\u0107 amenity=* a kiedy landuse=education.",
                "note": "Children RSPO: 21507;22085"
            }
        },
        {
            "id": 21507,
            "type": "Feature",
            "geometry": {
                "type": "Point",
                "coordinates": [
                    22.22989,
                    50.069739999999996
                ]
            },
            "properties": {
                "isced:level": "3",
                "ref:rspo": 21507,
                "official_name": "Technikum nr 2",
                "name": "Technikum nr 2",
                "addr:postcode": "37-100",
                "addr:city": "\u0141a\u0144cut",
                "addr:street": "Farna",
                "addr:housenumber": "10",
                "addr:city:simc": 974529,
                "addr:street:sym_ul": 4907,
                "phone": "+48 172254080",
                "email": "zszlancut@poczta.onet.pl",
                "website": "http:\/\/www.zsn3lancut.pl",
                "ref:regon": "691681861",
                "ref:vatin": "PL8151259303",
                "operator": "Powiat \u0141a\u0144cucki",
                "operator:type": "government",
                "amenity": "school",
                "note": "Parent RSPO: 18843"
            }
        },
        {
            "id": 22085,
            "type": "Feature",
            "geometry": {
                "type": "Point",
                "coordinates": [
                    22.22989,
                    50.06971
                ]
            },
            "properties": {
                "isced:level": "3",
                "ref:rspo": 22085,
                "official_name": "Bran\u017cowa Szko\u0142a I Stopnia nr 2",
                "name": "Bran\u017cowa Szko\u0142a I Stopnia nr 2",
                "addr:postcode": "37-100",
                "addr:city": "\u0141a\u0144cut",
                "addr:street": "Farna",
                "addr:housenumber": "10",
                "addr:city:simc": 974529,
                "addr:street:sym_ul": 4907,
                "phone": "+48 172254080",
                "email": "zszlancut@poczta.onet.pl",
                "website": "http:\/\/www.zsn3lancut.pl",
                "ref:regon": "691681878",
                "ref:vatin": "PL8151205477",
                "operator": "Powiat \u0141a\u0144cucki",
                "operator:type": "government",
                "amenity": "school",
                "note": "Parent RSPO: 18843"
            }
        },
        {
            "id": 106110,
            "type": "Feature",
            "geometry": {
                "type": "Point",
                "coordinates": [
                    22.22607,
                    50.0698099
                ]
            },
            "properties": {
                "ref:rspo": 106110,
                "official_name": "Przedszkole Miejskie nr 1 w \u0141a\u0144cucie",
                "name": "Przedszkole Miejskie nr 1 w \u0141a\u0144cucie",
                "addr:postcode": "37-100",
                "addr:city": "\u0141a\u0144cut",
                "addr:street": "Henryka Sienkiewicza",
                "addr:housenumber": "5B",
                "addr:city:simc": 974529,
                "addr:street:sym_ul": 19834,
                "phone": "+48 172252144",
                "email": "przedszkole1.lancut@wp.pl",
                "ref:regon": "690588289",
                "ref:vatin": "PL8151543760",
                "operator": "Miasto \u0141a\u0144cut",
                "operator:type": "government",
                "amenity": "kindergarten"
            }
        },
        {
            "id": 18574,
            "type": "Feature",
            "geometry": {
                "type": "Point",
                "coordinates": [
                    22.2312,
                    50.07038
                ]
            },
            "properties": {
                "ref:rspo": 18574,
                "official_name": "Zesp\u00f3\u0142 Szk\u00f3\u0142 nr 1 im. Janusza Korczaka w \u0141a\u0144cucie",
                "name": "Zesp\u00f3\u0142 Szk\u00f3\u0142 nr 1",
                "addr:postcode": "37-100",
                "addr:city": "\u0141a\u0144cut",
                "addr:street": "Grunwaldzka",
                "addr:housenumber": "11",
                "addr:city:simc": 974529,
                "addr:street:sym_ul": 6260,
                "phone": "+48 172253674",
                "email": "sekretariat@2lolancut.pl",
                "website": "http:\/\/www.2lolancut.pl",
                "ref:regon": "690685101",
                "ref:vatin": "PL8151212276",
                "operator": "Powiat \u0141a\u0144cucki",
                "operator:type": "government",
                "landuse": "education",
                "fixme": "amenity=school, amenity=college albo landuse=education w zale\u017cno\u015bci od tego, jakie plac\u00f3wki wchodz\u0105 w sk\u0142ad zespo\u0142u. Sprawd\u017a, kiedy stosowa\u0107 amenity=* a kiedy landuse=education.",
                "note": "Children RSPO: 20387;20854;91496;128381"
            }
        },
        {
            "id": 20387,
            "type": "Feature",
            "geometry": {
                "type": "Point",
                "coordinates": [
                    22.2312,
                    50.07035
                ]
            },
            "properties": {
                "isced:level": "3",
                "ref:rspo": 20387,
                "official_name": "Ii Liceum Og\u00f3lnokszta\u0142c\u0105ce",
                "name": "Ii Liceum Og\u00f3lnokszta\u0142c\u0105ce",
                "addr:postcode": "37-100",
                "addr:city": "\u0141a\u0144cut",
                "addr:street": "Grunwaldzka",
                "addr:housenumber": "11",
                "addr:city:simc": 974529,
                "addr:street:sym_ul": 6260,
                "phone": "+48 172253674",
                "email": "sekretariat@2lolancut.pl",
                "website": "http:\/\/www.2lolancut.pl",
                "ref:regon": "691681476",
                "ref:vatin": "PL8151212276",
                "operator": "Powiat \u0141a\u0144cucki",
                "operator:type": "government",
                "amenity": "school",
                "note": "Parent RSPO: 18574"
            }
        },
        {
            "id": 20854,
            "type": "Feature",
            "geometry": {
                "type": "Point",
                "coordinates": [
                    22.2312,
                    50.07032
                ]
            },
            "properties": {
                "isced:level": "3",
                "ref:rspo": 20854,
                "official_name": "Liceum Og\u00f3lnokszta\u0142c\u0105ce dla Doros\u0142ych nr 1",
                "name": "Liceum Og\u00f3lnokszta\u0142c\u0105ce dla Doros\u0142ych nr 1",
                "addr:postcode": "37-100",
                "addr:city": "\u0141a\u0144cut",
                "addr:street": "Grunwaldzka",
                "addr:housenumber": "11",
                "addr:city:simc": 974529,
                "addr:street:sym_ul": 6260,
                "phone": "+48 172253674",
                "email": "2lolancut@wp.pl",
                "website": "http:\/\/www.2lolancut.pl",
                "ref:regon": "691684747",
                "ref:vatin": "PL8151212276",
                "operator": "Powiat \u0141a\u0144cucki",
                "operator:type": "government",
                "amenity": "school",
                "note": "Parent RSPO: 18574"
            }
        },
        {
            "id": 91496,
            "type": "Feature",
            "geometry": {
                "type": "Point",
                "coordinates": [
                    22.2312,
                    50.07029
                ]
            },
            "properties": {
                "isced:level": "4",
                "ref:rspo": 91496,
                "official_name": "Medyczna Szko\u0142a Policealna w \u0141a\u0144cucie",
                "name": "Medyczna Szko\u0142a Policealna w \u0141a\u0144cucie",
                "addr:postcode": "37-100",
                "addr:city": "\u0141a\u0144cut",
                "addr:street": "Grunwaldzka",
                "addr:housenumber": "11",
                "addr:city:simc": 974529,
                "addr:street:sym_ul": 6260,
                "phone": "+48 172253674",
                "email": "2lolancut@wp.pl",
                "ref:regon": "690665179",
                "ref:vatin": "PL8151543955",
                "operator": "Powiat \u0141a\u0144cucki",
                "operator:type": "government",
                "amenity": "college",
                "note": "Parent RSPO: 18574"
            }
        },
        {
            "id": 128381,
            "type": "Feature",
            "geometry": {
                "type": "Point",
                "coordinates": [
                    22.2312,
                    50.07026
                ]
            },
            "properties": {
                "ref:rspo": 128381,
                "official_name": "Podkarpackie Centrum Kszta\u0142cenia Ustawicznego w \u0141a\u0144cucie",
                "name": "Podkarpackie Centrum Kszta\u0142cenia Ustawicznego w \u0141a\u0144cucie",
                "addr:postcode": "37-100",
                "addr:city": "\u0141a\u0144cut",
                "addr:street": "Grunwaldzka",
                "addr:housenumber": "11",
                "addr:city:simc": 974529,
                "addr:street:sym_ul": 6260,
                "phone": "+48 172253674",
                "email": "medyk-lancut@wp.pl",
                "ref:regon": "362256696",
                "operator": "Powiat \u0141a\u0144cucki",
                "operator:type": "government",
                "fixme": "w zale\u017cno\u015bci od przedmiotu dzia\u0142alno\u015bci (np. amenity=training + training=*, amenity=dancing_school, amenity=language_school, amenity=music_school)",
                "note": "Parent RSPO: 18574"
            }
        },
        {
            "id": 115664,
            "type": "Feature",
            "geometry": {
                "type": "Point",
                "coordinates": [
                    22.23156,
                    50.0706
                ]
            },
            "properties": {
                "ref:rspo": 115664,
                "official_name": "Niepubliczny M\u0142odzie\u017cowy O\u015brodek Wychowawczy w \u0141a\u0144cucie",
                "name": "Niepubliczny M\u0142odzie\u017cowy O\u015brodek Wychowawczy w \u0141a\u0144cucie",
                "addr:postcode": "37-100",
                "addr:city": "\u0141a\u0144cut",
                "addr:street": "Grunwaldzka",
                "addr:housenumber": "10A",
                "addr:city:simc": 974529,
                "addr:street:sym_ul": 6260,
                "phone": "+48 172252241",
                "email": "mowlancut@wp.pl",
                "ref:regon": "180997769",
                "operator": "\"\u0141a\u0144cuckie Stowarzyszenie - Nadzieja\"",
                "operator:type": "ngo",
                "fixme": "amenity=social_facility + social_facility=group_home + social_facility:for=juvenile",
                "note": "Children RSPO: 119374;129089"
            }
        },
        {
            "id": 119374,
            "type": "Feature",
            "geometry": {
                "type": "Point",
                "coordinates": [
                    22.23156,
                    50.07057
                ]
            },
            "properties": {
                "isced:level": "3",
                "ref:rspo": 119374,
                "official_name": "Bran\u017cowa Szko\u0142a I Stopnia Specjalna w \u0141a\u0144cucie",
                "name": "Bran\u017cowa Szko\u0142a I Stopnia Specjalna w \u0141a\u0144cucie",
                "addr:postcode": "37-100",
                "addr:city": "\u0141a\u0144cut",
                "addr:street": "Grunwaldzka",
                "addr:housenumber": "10A",
                "addr:city:simc": 974529,
                "addr:street:sym_ul": 6260,
                "phone": "+48 172252241",
                "email": "administracja@mowlancut.pl",
                "ref:regon": "181016644",
                "operator": "\"\u0141a\u0144cuckie Stowarzyszenie - Nadzieja\"",
                "operator:type": "ngo",
                "amenity": "school",
                "note": "Parent RSPO: 115664"
            }
        },
        {
            "id": 129089,
            "type": "Feature",
            "geometry": {
                "type": "Point",
                "coordinates": [
                    22.23156,
                    50.07054
                ]
            },
            "properties": {
                "isced:level": "1;2",
                "ref:rspo": 129089,
                "official_name": "Szko\u0142a Podstawowa Specjalna w \u0141a\u0144cucie",
                "name": "Szko\u0142a Podstawowa Specjalna w \u0141a\u0144cucie",
                "addr:postcode": "37-100",
                "addr:city": "\u0141a\u0144cut",
                "addr:street": "Grunwaldzka",
                "addr:housenumber": "10A",
                "addr:city:simc": 974529,
                "addr:street:sym_ul": 6260,
                "phone": "+48 172252241",
                "email": "administracja@mowlancut.pl",
                "ref:regon": "362469587",
                "operator": "\"\u0141a\u0144cuckie Stowarzyszenie - Nadzieja\"",
                "operator:type": "ngo",
                "amenity": "school",
                "note": "Parent RSPO: 115664"
            }
        },
        {
            "id": 104871,
            "type": "Feature",
            "geometry": {
                "type": "Point",
                "coordinates": [
                    22.23615,
                    50.07101
                ]
            },
            "properties": {
                "isced:level": "1;2",
                "ref:rspo": 104871,
                "official_name": "Szko\u0142a Podstawowa nr 2 im. Ks. Jana Twardowskiego w \u0141a\u0144cucie",
                "name": "Szko\u0142a Podstawowa nr 2",
                "addr:postcode": "37-100",
                "addr:city": "\u0141a\u0144cut",
                "addr:street": "Tadeusza Ko\u015bciuszki",
                "addr:housenumber": "17",
                "addr:city:simc": 974529,
                "addr:street:sym_ul": 9582,
                "phone": "+48 172252822",
                "email": "sp2lancut@wp.pl",
                "website": "http:\/\/sp2lancut.edupage.org",
                "ref:regon": "000803064",
                "ref:vatin": "PL8151192668",
                "operator": "Miasto \u0141a\u0144cut",
                "operator:type": "government",
                "amenity": "school"
            }
        },
        {
            "id": 269862,
            "type": "Feature",
            "geometry": {
                "type": "Point",
                "coordinates": [
                    22.22631,
                    50.07156
                ]
            },
            "properties": {
                "ref:rspo": 269862,
                "official_name": "Niepubliczne Przedszkole \"S\u0142oneczny Zak\u0105tek\"",
                "name": "Niepubliczne Przedszkole \"S\u0142oneczny Zak\u0105tek\"",
                "addr:postcode": "37-100",
                "addr:city": "\u0141a\u0144cut",
                "addr:street": "Marii Konopnickiej",
                "addr:housenumber": "2",
                "addr:city:simc": 974529,
                "addr:street:sym_ul": 9186,
                "phone": "+48 533038500",
                "email": "przedszkole_slonecznyzakatek@wp.pl",
                "website": "http:\/\/npslonecznyzakatek.pl",
                "ref:regon": "381811565",
                "operator": "Ewelina Mokrzycka",
                "operator:type": "private",
                "amenity": "kindergarten"
            }
        },
        {
            "id": 104958,
            "type": "Feature",
            "geometry": {
                "type": "Point",
                "coordinates": [
                    22.2386,
                    50.07219
                ]
            },
            "properties": {
                "ref:rspo": 104958,
                "official_name": "Przedszkoloe Miejskie nr 4 w \u0141a\u0144cucie",
                "name": "Przedszkoloe Miejskie nr 4 w \u0141a\u0144cucie",
                "addr:postcode": "37-100",
                "addr:city": "\u0141a\u0144cut",
                "addr:street": "Osiedle osiedle Trze\u015bnik",
                "addr:housenumber": "16",
                "addr:city:simc": 974529,
                "addr:street:sym_ul": 49094,
                "phone": "+48 172252572",
                "email": "przedszkole4lancut@wp.pl",
                "website": "https:\/\/przedszkole4lancut.edupage.org\/",
                "ref:regon": "690588310",
                "ref:vatin": "PL8151543837",
                "operator": "Miasto \u0141a\u0144cut",
                "operator:type": "government",
                "amenity": "kindergarten"
            }
        },
        {
            "id": 271843,
            "type": "Feature",
            "geometry": {
                "type": "Point",
                "coordinates": [
                    22.22645,
                    50.07506
                ]
            },
            "properties": {
                "ref:rspo": 271843,
                "official_name": "Niepubliczne Przedszkole Encepence",
                "name": "Niepubliczne Przedszkole Encepence",
                "addr:postcode": "37-100",
                "addr:city": "\u0141a\u0144cut",
                "addr:street": "Kardyna\u0142a Stefana Wyszy\u0144skiego",
                "addr:housenumber": "41A",
                "addr:city:simc": 974529,
                "addr:street:sym_ul": 48861,
                "phone": "+48 782750782",
                "email": "encepence.lancut@gmail.com",
                "website": "http:\/\/www.encepence-lancut.pl",
                "ref:regon": "383680357",
                "operator": "Devan Sp\u00f3\u0142ka Z Ograniczon\u0105 Odpowiedzialno\u015bci\u0105",
                "operator:type": "private",
                "amenity": "kindergarten"
            }
        },
        {
            "id": 106508,
            "type": "Feature",
            "geometry": {
                "type": "Point",
                "coordinates": [
                    22.23497,
                    50.08993
                ]
            },
            "properties": {
                "isced:level": "1;2",
                "ref:rspo": 106508,
                "official_name": "Szko\u0142a Podstawowa nr 4 im. Jana Paw\u0142a II w \u0141a\u0144cucie",
                "name": "Szko\u0142a Podstawowa nr 4",
                "addr:postcode": "37-100",
                "addr:city": "\u0141a\u0144cut",
                "addr:street": "Jana Kochanowskiego",
                "addr:housenumber": "6",
                "addr:city:simc": 974529,
                "addr:street:sym_ul": 8728,
                "phone": "+48 172250080",
                "email": "lancutsp4@op.pl",
                "website": "http:\/\/www.sp4lancut.pl",
                "ref:regon": "000803041",
                "operator": "Miasto \u0141a\u0144cut",
                "operator:type": "government",
                "amenity": "school"
            }
        },
        {
            "id": 269680,
            "type": "Feature",
            "geometry": {
                "type": "Point",
                "coordinates": [
                    22.23328,
                    50.09049
                ]
            },
            "properties": {
                "ref:rspo": 269680,
                "official_name": "Niepubliczne Przedszkole Klekotka",
                "name": "Niepubliczne Przedszkole Klekotka",
                "addr:postcode": "37-100",
                "addr:city": "\u0141a\u0144cut",
                "addr:street": "Jana Kochanowskiego",
                "addr:housenumber": "1",
                "addr:city:simc": 974529,
                "addr:street:sym_ul": 8728,
                "phone": "+48 785573274",
                "email": "przedszkole@klekotka.edu.pl",
                "ref:regon": "381734907",
                "operator": "Barbara Nicpo\u0144",
                "operator:type": "private",
                "amenity": "kindergarten"
            }
        },
        {
            "id": 14232,
            "type": "Feature",
            "geometry": {
                "type": "Point",
                "coordinates": [
                    22.2311799,
                    50.09075
                ]
            },
            "properties": {
                "ref:rspo": 14232,
                "official_name": "Zesp\u00f3\u0142 Szk\u00f3\u0142 nr 2 im. Jana Kochanowskiego w \u0141a\u0144cucie",
                "name": "Zesp\u00f3\u0142 Szk\u00f3\u0142 nr 2",
                "addr:postcode": "38-100",
                "addr:city": "\u0141a\u0144cut",
                "addr:street": "Podzwierzyniec",
                "addr:housenumber": "41",
                "addr:city:simc": 974529,
                "addr:street:sym_ul": 16896,
                "phone": "+48 172252582",
                "email": "sekretariat@zs2lancut.pl",
                "website": "http:\/\/www.zs2lancut.pl",
                "ref:regon": "000028530",
                "ref:vatin": "PL8151276419",
                "operator": "Powiat \u0141a\u0144cucki",
                "operator:type": "government",
                "landuse": "education",
                "fixme": "amenity=school, amenity=college albo landuse=education w zale\u017cno\u015bci od tego, jakie plac\u00f3wki wchodz\u0105 w sk\u0142ad zespo\u0142u. Sprawd\u017a, kiedy stosowa\u0107 amenity=* a kiedy landuse=education.",
                "note": "Children RSPO: 19510;19755;20130;20160"
            }
        },
        {
            "id": 265986,
            "type": "Feature",
            "geometry": {
                "type": "Point",
                "coordinates": [
                    22.2311799,
                    50.09072
                ]
            },
            "properties": {
                "ref:rspo": 265986,
                "official_name": "Prywatne Przedszkole Tygrysek",
                "name": "Prywatne Przedszkole Tygrysek",
                "addr:postcode": "37-100",
                "addr:city": "\u0141a\u0144cut",
                "addr:street": "Podzwierzyniec",
                "addr:housenumber": "41",
                "addr:city:simc": 974529,
                "addr:street:sym_ul": 16896,
                "phone": "+48 600710655",
                "email": "dyrektortygrysek@outlook.com",
                "website": "http:\/\/www.tygrysek-przedszkole.pl",
                "ref:regon": "369120735",
                "operator": "Elzbieta Walawender",
                "operator:type": "private",
                "amenity": "kindergarten"
            }
        },
        {
            "id": 19510,
            "type": "Feature",
            "geometry": {
                "type": "Point",
                "coordinates": [
                    22.2311799,
                    50.09069
                ]
            },
            "properties": {
                "isced:level": "3",
                "ref:rspo": 19510,
                "official_name": "Technikum nr 1",
                "name": "Technikum nr 1",
                "addr:postcode": "37-100",
                "addr:city": "\u0141a\u0144cut",
                "addr:street": "Podzwierzyniec",
                "addr:housenumber": "41",
                "addr:city:simc": 974529,
                "addr:street:sym_ul": 16896,
                "phone": "+48 172252582",
                "email": "sekretariat@zs2lancut.pl",
                "website": "http:\/\/www.zs2lancut.pl",
                "ref:regon": "691681559",
                "ref:vatin": "PL8151276419",
                "operator": "Powiat \u0141a\u0144cucki",
                "operator:type": "government",
                "amenity": "school",
                "note": "Parent RSPO: 14232"
            }
        },
        {
            "id": 19755,
            "type": "Feature",
            "geometry": {
                "type": "Point",
                "coordinates": [
                    22.2311799,
                    50.09066
                ]
            },
            "properties": {
                "isced:level": "3",
                "ref:rspo": 19755,
                "official_name": "Bran\u017cowa Szko\u0142a I Stopnia nr 1",
                "name": "Bran\u017cowa Szko\u0142a I Stopnia nr 1",
                "addr:postcode": "37-100",
                "addr:city": "\u0141a\u0144cut",
                "addr:street": "Podzwierzyniec",
                "addr:housenumber": "41",
                "addr:city:simc": 974529,
                "addr:street:sym_ul": 16896,
                "phone": "+48 172252582",
                "email": "sekretariat@zs2lancut.pl",
                "website": "http:\/\/www.zs2lancut.pl",
                "ref:regon": "691681565",
                "ref:vatin": "PL8151276419",
                "operator": "Powiat \u0141a\u0144cucki",
                "operator:type": "government",
                "amenity": "school",
                "note": "Parent RSPO: 14232"
            }
        },
        {
            "id": 20130,
            "type": "Feature",
            "geometry": {
                "type": "Point",
                "coordinates": [
                    22.2311799,
                    50.09063
                ]
            },
            "properties": {
                "isced:level": "3",
                "ref:rspo": 20130,
                "official_name": "Iii Liceum Og\u00f3lnokszta\u0142c\u0105ce",
                "name": "Iii Liceum Og\u00f3lnokszta\u0142c\u0105ce",
                "addr:postcode": "37-100",
                "addr:city": "\u0141a\u0144cut",
                "addr:street": "Podzwierzyniec",
                "addr:housenumber": "41",
                "addr:city:simc": 974529,
                "addr:street:sym_ul": 16896,
                "phone": "+48 172252582",
                "email": "sekretariat@zs2lancut.pl",
                "website": "http:\/\/www.zs2lancut.pl",
                "ref:regon": "691681520",
                "ref:vatin": "PL8151276419",
                "operator": "Powiat \u0141a\u0144cucki",
                "operator:type": "government",
                "amenity": "school",
                "note": "Parent RSPO: 14232"
            }
        },
        {
            "id": 20160,
            "type": "Feature",
            "geometry": {
                "type": "Point",
                "coordinates": [
                    22.2311799,
                    50.0906
                ]
            },
            "properties": {
                "isced:level": "4",
                "ref:rspo": 20160,
                "official_name": "Szko\u0142a Policealna nr 1",
                "name": "Szko\u0142a Policealna nr 1",
                "addr:postcode": "37-100",
                "addr:city": "\u0141a\u0144cut",
                "addr:street": "Podzwierzyniec",
                "addr:housenumber": "41",
                "addr:city:simc": 974529,
                "addr:street:sym_ul": 16896,
                "phone": "+48 172252582",
                "email": "sekretariat@zs2lancut.pl",
                "website": "http:\/\/www.zs2lancut.pl",
                "ref:regon": "691684687",
                "ref:vatin": "PL8151276419",
                "operator": "Powiat \u0141a\u0144cucki",
                "operator:type": "government",
                "amenity": "college",
                "note": "Parent RSPO: 14232"
            }
        },
        {
            "id": 106108,
            "type": "Feature",
            "geometry": {
                "type": "Point",
                "coordinates": [
                    22.2345599,
                    50.09125
                ]
            },
            "properties": {
                "ref:rspo": 106108,
                "official_name": "Przedszkole Miejskie nr 3 w \u0141a\u0144cucie",
                "name": "Przedszkole Miejskie nr 3 w \u0141a\u0144cucie",
                "addr:postcode": "37-100",
                "addr:city": "\u0141a\u0144cut",
                "addr:street": "Jana Kochanowskiego",
                "addr:housenumber": "1D",
                "addr:city:simc": 974529,
                "addr:street:sym_ul": 8728,
                "phone": "+48 172254174",
                "email": "przedszkole3.lancut@gmail.com",
                "website": "http:\/\/przedszkole3lancut.cba.pl",
                "ref:regon": "690588303",
                "ref:vatin": "PL8151543814",
                "operator": "Miasto \u0141a\u0144cut",
                "operator:type": "government",
                "amenity": "kindergarten"
            }
        }
    ]
}