{
    "type": "FeatureCollection",
    "features": [
        {
            "id": 73149,
            "type": "Feature",
            "geometry": {
                "type": "Point",
                "coordinates": [
                    22.1877299,
                    50.07296
                ]
            },
            "properties": {
                "ref:rspo": 73149,
                "official_name": "Zesp\u00f3\u0142 Szk\u00f3\u0142 w Krzemienicy",
                "name": "Zesp\u00f3\u0142 Szk\u00f3\u0142 w Krzemienicy",
                "addr:postcode": "37-127",
                "addr:place": "Krzemienica",
                "addr:housenumber": "631",
                "addr:teryt:simc": 647279,
                "phone": "+48 172247370",
                "email": "sekretariat@zskrzemienica.pl",
                "website": "http:\/\/www.zskrzemienica.pl",
                "ref:regon": "180252242",
                "ref:vatin": "PL8151739457",
                "operator": "Gmina Czarna",
                "operator:type": "government",
                "landuse": "education",
                "fixme": "amenity=school, amenity=college albo landuse=education w zale\u017cno\u015bci od tego, jakie plac\u00f3wki wchodz\u0105 w sk\u0142ad zespo\u0142u. Sprawd\u017a, kiedy stosowa\u0107 amenity=* a kiedy landuse=education.",
                "note": "Children RSPO: 85707;85710"
            }
        },
        {
            "id": 85707,
            "type": "Feature",
            "geometry": {
                "type": "Point",
                "coordinates": [
                    22.1877299,
                    50.07293
                ]
            },
            "properties": {
                "ref:rspo": 85707,
                "official_name": "Publiczne Przedszkole w Krzemienicy",
                "name": "Publiczne Przedszkole w Krzemienicy",
                "addr:postcode": "37-127",
                "addr:place": "Krzemienica",
                "addr:housenumber": "631",
                "addr:teryt:simc": 647279,
                "phone": "+48 172247370",
                "email": "sekretariat@zskrzemienica.pl",
                "website": "http:\/\/www.zskrzemienica.pl",
                "ref:regon": "180911147",
                "operator": "Gmina Czarna",
                "operator:type": "government",
                "amenity": "kindergarten",
                "note": "Parent RSPO: 73149"
            }
        },
        {
            "id": 85710,
            "type": "Feature",
            "geometry": {
                "type": "Point",
                "coordinates": [
                    22.1877299,
                    50.072900000000004
                ]
            },
            "properties": {
                "isced:level": "1;2",
                "ref:rspo": 85710,
                "official_name": "Szko\u0142a Podstawowa im. Marii Konopnickiej w Krzemienicy",
                "name": "Szko\u0142a Podstawowa",
                "addr:postcode": "37-127",
                "addr:place": "Krzemienica",
                "addr:housenumber": "631",
                "addr:teryt:simc": 647279,
                "phone": "+48 172247370",
                "email": "sekretariat@zskrzemienica.pl",
                "website": "http:\/\/www.zskrzemienica.pl",
                "ref:regon": "001130897",
                "ref:vatin": "PL8151379355",
                "operator": "Gmina Czarna",
                "operator:type": "government",
                "amenity": "school",
                "note": "Parent RSPO: 73149"
            }
        },
        {
            "id": 54241,
            "type": "Feature",
            "geometry": {
                "type": "Point",
                "coordinates": [
                    22.22704,
                    50.09555
                ]
            },
            "properties": {
                "ref:rspo": 54241,
                "official_name": "Zesp\u00f3\u0142 Szk\u00f3\u0142 w Woli Ma\u0142ej",
                "name": "Zesp\u00f3\u0142 Szk\u00f3\u0142 w Woli Ma\u0142ej",
                "addr:postcode": "37-100",
                "addr:place": "Wola Ma\u0142a",
                "addr:housenumber": "160",
                "addr:teryt:simc": 647546,
                "phone": "+48 172253397",
                "email": "spwola_mala@op.pl",
                "ref:regon": "691756524",
                "ref:vatin": "PL8151638839",
                "operator": "Gmina Czarna",
                "operator:type": "government",
                "landuse": "education",
                "fixme": "amenity=school, amenity=college albo landuse=education w zale\u017cno\u015bci od tego, jakie plac\u00f3wki wchodz\u0105 w sk\u0142ad zespo\u0142u. Sprawd\u017a, kiedy stosowa\u0107 amenity=* a kiedy landuse=education.",
                "note": "Children RSPO: 85726;119304"
            }
        },
        {
            "id": 85726,
            "type": "Feature",
            "geometry": {
                "type": "Point",
                "coordinates": [
                    22.22704,
                    50.09552
                ]
            },
            "properties": {
                "isced:level": "1;2",
                "ref:rspo": 85726,
                "official_name": "Szko\u0142a Podstawowa im. Kornela Makuszy\u0144skiego w Woli Ma\u0142ej",
                "name": "Szko\u0142a Podstawowa",
                "addr:postcode": "37-100",
                "addr:place": "Wola Ma\u0142a",
                "addr:housenumber": "160",
                "addr:teryt:simc": 647546,
                "phone": "+48 172253397",
                "email": "spwola_mala@op.pl",
                "ref:regon": "001130911",
                "ref:vatin": "PL8151259272",
                "operator": "Gmina Czarna",
                "operator:type": "government",
                "amenity": "school",
                "note": "Parent RSPO: 54241"
            }
        },
        {
            "id": 119304,
            "type": "Feature",
            "geometry": {
                "type": "Point",
                "coordinates": [
                    22.22704,
                    50.095490000000005
                ]
            },
            "properties": {
                "ref:rspo": 119304,
                "official_name": "Publiczne Przedszkole w Woli Ma\u0142ej",
                "name": "Publiczne Przedszkole w Woli Ma\u0142ej",
                "addr:postcode": "37-100",
                "addr:place": "Wola Ma\u0142a",
                "addr:housenumber": "160",
                "addr:teryt:simc": 647546,
                "phone": "+48 170053397",
                "email": "spwola_mala@op.pl",
                "ref:regon": "181016153",
                "operator": "Gmina Czarna",
                "operator:type": "government",
                "amenity": "kindergarten",
                "note": "Parent RSPO: 54241"
            }
        },
        {
            "id": 73145,
            "type": "Feature",
            "geometry": {
                "type": "Point",
                "coordinates": [
                    22.18674,
                    50.10633
                ]
            },
            "properties": {
                "ref:rspo": 73145,
                "official_name": "Zesp\u00f3\u0142 Szk\u00f3\u0142 w Czarnej",
                "name": "Zesp\u00f3\u0142 Szk\u00f3\u0142 w Czarnej",
                "addr:postcode": "37-125",
                "addr:place": "Czarna",
                "addr:housenumber": "857",
                "addr:teryt:simc": 647144,
                "phone": "+48 172262218",
                "email": "zsczarna@outlook.com",
                "website": "http:\/\/zszczarna.pl",
                "ref:regon": "691757050",
                "ref:vatin": "PL8151639129",
                "operator": "Gmina Czarna",
                "operator:type": "government",
                "landuse": "education",
                "fixme": "amenity=school, amenity=college albo landuse=education w zale\u017cno\u015bci od tego, jakie plac\u00f3wki wchodz\u0105 w sk\u0142ad zespo\u0142u. Sprawd\u017a, kiedy stosowa\u0107 amenity=* a kiedy landuse=education.",
                "note": "Children RSPO: 85699;128320"
            }
        },
        {
            "id": 85699,
            "type": "Feature",
            "geometry": {
                "type": "Point",
                "coordinates": [
                    22.18674,
                    50.1063
                ]
            },
            "properties": {
                "isced:level": "1;2",
                "ref:rspo": 85699,
                "official_name": "Szko\u0142a Podstawowa im.miko\u0142aja Kopernika w Czarnej",
                "name": "Szko\u0142a Podstawowa im.miko\u0142aja Kopernika w Czarnej",
                "addr:postcode": "37-125",
                "addr:place": "Czarna",
                "addr:housenumber": "857",
                "addr:teryt:simc": 647144,
                "phone": "+48 172262218",
                "email": "zsczarna@outlook.com",
                "website": "http:\/\/zszczarna.pl",
                "ref:regon": "001130874",
                "ref:vatin": "PL8151217865",
                "operator": "Gmina Czarna",
                "operator:type": "government",
                "amenity": "school",
                "note": "Parent RSPO: 73145"
            }
        },
        {
            "id": 128320,
            "type": "Feature",
            "geometry": {
                "type": "Point",
                "coordinates": [
                    22.18674,
                    50.10627
                ]
            },
            "properties": {
                "ref:rspo": 128320,
                "official_name": "Publiczne Przedszkole w Czarnej",
                "name": "Publiczne Przedszkole w Czarnej",
                "addr:postcode": "37-125",
                "addr:place": "Czarna",
                "addr:housenumber": "857",
                "addr:teryt:simc": 647144,
                "phone": "+48 172262218",
                "email": "zsczarna@outlook.com",
                "ref:regon": "362232856",
                "operator": "Gmina Czarna",
                "operator:type": "government",
                "amenity": "kindergarten",
                "note": "Parent RSPO: 73145"
            }
        },
        {
            "id": 73146,
            "type": "Feature",
            "geometry": {
                "type": "Point",
                "coordinates": [
                    22.23312,
                    50.11774
                ]
            },
            "properties": {
                "ref:rspo": 73146,
                "official_name": "Zesp\u00f3\u0142 Szk\u00f3\u0142 w D\u0105br\u00f3wkach",
                "name": "Zesp\u00f3\u0142 Szk\u00f3\u0142 w D\u0105br\u00f3wkach",
                "addr:postcode": "37-100",
                "addr:place": "D\u0105br\u00f3wki",
                "addr:housenumber": "211",
                "addr:teryt:simc": 647227,
                "phone": "+48 172251403",
                "email": "szkoladabrowki@gmail.com",
                "website": "http:\/\/www.zsdabrowki.pl",
                "ref:regon": "691757038",
                "ref:vatin": "PL8151639081",
                "operator": "Gmina Czarna",
                "operator:type": "government",
                "landuse": "education",
                "fixme": "amenity=school, amenity=college albo landuse=education w zale\u017cno\u015bci od tego, jakie plac\u00f3wki wchodz\u0105 w sk\u0142ad zespo\u0142u. Sprawd\u017a, kiedy stosowa\u0107 amenity=* a kiedy landuse=education.",
                "note": "Children RSPO: 85703;85855"
            }
        },
        {
            "id": 85703,
            "type": "Feature",
            "geometry": {
                "type": "Point",
                "coordinates": [
                    22.23312,
                    50.117709999999995
                ]
            },
            "properties": {
                "isced:level": "1;2",
                "ref:rspo": 85703,
                "official_name": "Szko\u0142a Podstawowa im.obro\u0144c\u00f3w Westerplatte w D\u0105br\u00f3wkach",
                "name": "Szko\u0142a Podstawowa im.obro\u0144c\u00f3w Westerplatte w D\u0105br\u00f3wkach",
                "addr:postcode": "37-100",
                "addr:place": "D\u0105br\u00f3wki",
                "addr:housenumber": "211",
                "addr:teryt:simc": 647227,
                "phone": "+48 172251403",
                "email": "szkoladabrowki@gmail.com",
                "website": "http:\/\/zsdabrowki.pl",
                "ref:regon": "001130880",
                "ref:vatin": "PL8151273415",
                "operator": "Gmina Czarna",
                "operator:type": "government",
                "amenity": "school",
                "note": "Parent RSPO: 73146"
            }
        },
        {
            "id": 85855,
            "type": "Feature",
            "geometry": {
                "type": "Point",
                "coordinates": [
                    22.23312,
                    50.11768
                ]
            },
            "properties": {
                "ref:rspo": 85855,
                "official_name": "Publiczne Przedszkole w D\u0105br\u00f3wkach",
                "name": "Publiczne Przedszkole w D\u0105br\u00f3wkach",
                "addr:postcode": "37-100",
                "addr:place": "D\u0105br\u00f3wki",
                "addr:housenumber": "211",
                "addr:teryt:simc": 647227,
                "phone": "+48 172251403",
                "email": "szkoladabrowki@gmail.com",
                "website": "http:\/\/zsdabrowki.pl",
                "ref:regon": "180911012",
                "operator": "Gmina Czarna",
                "operator:type": "government",
                "amenity": "kindergarten",
                "note": "Parent RSPO: 73146"
            }
        },
        {
            "id": 53551,
            "type": "Feature",
            "geometry": {
                "type": "Point",
                "coordinates": [
                    22.1388399,
                    50.13353
                ]
            },
            "properties": {
                "ref:rspo": 53551,
                "official_name": "Zesp\u00f3\u0142 Szk\u00f3\u0142 im. Stanis\u0142awa Pigonia w Medyni \u0141a\u0144cuckiej",
                "name": "Zesp\u00f3\u0142 Szk\u00f3\u0142",
                "addr:postcode": "37-126",
                "addr:place": "Medynia \u0141a\u0144cucka",
                "addr:housenumber": "105",
                "addr:teryt:simc": 647405,
                "phone": "+48 177712663",
                "email": "szkolamedlanc@wp.pl",
                "website": "http:\/\/zsmedlanc.edupage.org",
                "ref:regon": "691756530",
                "ref:vatin": "PL8151638756",
                "operator": "Gmina Czarna",
                "operator:type": "government",
                "landuse": "education",
                "fixme": "amenity=school, amenity=college albo landuse=education w zale\u017cno\u015bci od tego, jakie plac\u00f3wki wchodz\u0105 w sk\u0142ad zespo\u0142u. Sprawd\u017a, kiedy stosowa\u0107 amenity=* a kiedy landuse=education.",
                "note": "Children RSPO: 85720;85722"
            }
        },
        {
            "id": 85720,
            "type": "Feature",
            "geometry": {
                "type": "Point",
                "coordinates": [
                    22.1388399,
                    50.1335
                ]
            },
            "properties": {
                "ref:rspo": 85720,
                "official_name": "Publiczne Przedszkole w Medyni \u0141a\u0144cuckiej",
                "name": "Publiczne Przedszkole w Medyni \u0141a\u0144cuckiej",
                "addr:postcode": "37-126",
                "addr:place": "Medynia \u0141a\u0144cucka",
                "addr:housenumber": "105",
                "addr:door": "105",
                "addr:teryt:simc": 647405,
                "phone": "+48 177712663",
                "email": "szkolamedlanc@wp.pl",
                "website": "http:\/\/zsmedlanc.edupage.org",
                "ref:regon": "180911213",
                "operator": "Gmina Czarna",
                "operator:type": "government",
                "amenity": "kindergarten",
                "note": "Parent RSPO: 53551"
            }
        },
        {
            "id": 85722,
            "type": "Feature",
            "geometry": {
                "type": "Point",
                "coordinates": [
                    22.1388399,
                    50.13347
                ]
            },
            "properties": {
                "isced:level": "1;2",
                "ref:rspo": 85722,
                "official_name": "Szko\u0142a Podstawowa im. Stanis\u0142awa Pigonia w Medyni \u0141a\u0144cuckiej",
                "name": "Szko\u0142a Podstawowa",
                "addr:postcode": "37-126",
                "addr:place": "Medynia \u0141a\u0144cucka",
                "addr:housenumber": "105",
                "addr:teryt:simc": 647405,
                "phone": "+48 177712663",
                "email": "szkolamedlanc@wp.pl",
                "website": "http:\/\/zsmedlanc.edupage.org",
                "ref:regon": "690033456",
                "ref:vatin": "PL8151207186",
                "operator": "Gmina Czarna",
                "operator:type": "government",
                "amenity": "school",
                "note": "Parent RSPO: 53551"
            }
        },
        {
            "id": 53785,
            "type": "Feature",
            "geometry": {
                "type": "Point",
                "coordinates": [
                    22.16134,
                    50.15688
                ]
            },
            "properties": {
                "ref:rspo": 53785,
                "official_name": "Zesp\u00f3\u0142 Szk\u00f3\u0142 im. \u015aw. Jana Kantego w Zalesiu",
                "name": "Zesp\u00f3\u0142 Szk\u00f3\u0142",
                "addr:postcode": "37-126",
                "addr:place": "Zalesie",
                "addr:housenumber": "123",
                "addr:teryt:simc": 647569,
                "phone": "+48 177714700",
                "email": "spzalesie@poczta.onet.pl",
                "website": "http:\/\/www.zszalesie.webg.pl",
                "ref:regon": "691756547",
                "ref:vatin": "PL8151639046",
                "operator": "Gmina Czarna",
                "operator:type": "government",
                "landuse": "education",
                "fixme": "amenity=school, amenity=college albo landuse=education w zale\u017cno\u015bci od tego, jakie plac\u00f3wki wchodz\u0105 w sk\u0142ad zespo\u0142u. Sprawd\u017a, kiedy stosowa\u0107 amenity=* a kiedy landuse=education.",
                "note": "Children RSPO: 85731;85732"
            }
        },
        {
            "id": 85731,
            "type": "Feature",
            "geometry": {
                "type": "Point",
                "coordinates": [
                    22.16134,
                    50.15685
                ]
            },
            "properties": {
                "ref:rspo": 85731,
                "official_name": "Publiczne Przedszkole w Zalesiu",
                "name": "Publiczne Przedszkole w Zalesiu",
                "addr:postcode": "37-126",
                "addr:place": "Zalesie",
                "addr:housenumber": "123",
                "addr:teryt:simc": 647569,
                "phone": "+48 177714701",
                "email": "spzalesie@poczta.onet.pl",
                "website": "http:\/\/www.zszalesie.webg.pl",
                "ref:regon": "180911288",
                "operator": "Gmina Czarna",
                "operator:type": "government",
                "amenity": "kindergarten",
                "note": "Parent RSPO: 53785"
            }
        },
        {
            "id": 85732,
            "type": "Feature",
            "geometry": {
                "type": "Point",
                "coordinates": [
                    22.16134,
                    50.15682
                ]
            },
            "properties": {
                "isced:level": "1;2",
                "ref:rspo": 85732,
                "official_name": "Szko\u0142a Podstawowa im. \u015aw. Jana Kantego w Zalesiu",
                "name": "Szko\u0142a Podstawowa",
                "addr:postcode": "37-126",
                "addr:place": "Zalesie",
                "addr:housenumber": "123",
                "addr:teryt:simc": 647569,
                "phone": "+48 177714700",
                "email": "spzalesie@poczta.onet.pl",
                "website": "http:\/\/www.zszalesie.webg.pl",
                "ref:regon": "690033433",
                "ref:vatin": "PL8151217724",
                "operator": "Gmina Czarna",
                "operator:type": "government",
                "amenity": "school",
                "note": "Parent RSPO: 53785"
            }
        },
        {
            "id": 73148,
            "type": "Feature",
            "geometry": {
                "type": "Point",
                "coordinates": [
                    22.137,
                    50.15737
                ]
            },
            "properties": {
                "ref:rspo": 73148,
                "official_name": "Zesp\u00f3\u0142 Szk\u00f3\u0142 w Medyni G\u0142ogowskiej",
                "name": "Zesp\u00f3\u0142 Szk\u00f3\u0142 w Medyni G\u0142ogowskiej",
                "addr:postcode": "37-126",
                "addr:place": "Medynia G\u0142ogowska",
                "addr:housenumber": "426",
                "addr:teryt:simc": 647345,
                "phone": "+48 177726674",
                "email": "sekretariat@zsmedgl.pl",
                "website": "http:\/\/zsmedgl.pl",
                "ref:regon": "180252259",
                "ref:vatin": "PL8151739463",
                "operator": "Gmina Czarna",
                "operator:type": "government",
                "landuse": "education",
                "fixme": "amenity=school, amenity=college albo landuse=education w zale\u017cno\u015bci od tego, jakie plac\u00f3wki wchodz\u0105 w sk\u0142ad zespo\u0142u. Sprawd\u017a, kiedy stosowa\u0107 amenity=* a kiedy landuse=education.",
                "note": "Children RSPO: 85716;128323"
            }
        },
        {
            "id": 85716,
            "type": "Feature",
            "geometry": {
                "type": "Point",
                "coordinates": [
                    22.137,
                    50.15734
                ]
            },
            "properties": {
                "isced:level": "1;2",
                "ref:rspo": 85716,
                "official_name": "Szko\u0142a Podstawowa im. Jana Paw\u0142a II w Medyni G\u0142ogowskiej",
                "name": "Szko\u0142a Podstawowa",
                "addr:postcode": "37-126",
                "addr:place": "Medynia G\u0142ogowska",
                "addr:housenumber": "426",
                "addr:teryt:simc": 647345,
                "phone": "+48 177726674",
                "email": "sekretariat@zsmedgl.pl",
                "website": "http:\/\/zsmedgl.pl",
                "ref:regon": "000773222",
                "ref:vatin": "PL8151212247",
                "operator": "Gmina Czarna",
                "operator:type": "government",
                "amenity": "school",
                "note": "Parent RSPO: 73148"
            }
        },
        {
            "id": 128323,
            "type": "Feature",
            "geometry": {
                "type": "Point",
                "coordinates": [
                    22.137,
                    50.15731
                ]
            },
            "properties": {
                "ref:rspo": 128323,
                "official_name": "Publiczne Przedszkole w Medyni G\u0142ogowskiej",
                "name": "Publiczne Przedszkole w Medyni G\u0142ogowskiej",
                "addr:postcode": "37-127",
                "addr:place": "Medynia G\u0142ogowska",
                "addr:housenumber": "426",
                "addr:teryt:simc": 647345,
                "phone": "+48 177726674",
                "email": "sekretariat@zsmedgl.pl",
                "ref:regon": "362232862",
                "operator": "Gmina Czarna",
                "operator:type": "government",
                "amenity": "kindergarten",
                "note": "Parent RSPO: 73148"
            }
        }
    ]
}