{
    "type": "FeatureCollection",
    "features": [
        {
            "id": 275191,
            "type": "Feature",
            "geometry": {
                "type": "Point",
                "coordinates": [
                    22.22437,
                    49.98736
                ]
            },
            "properties": {
                "ref:rspo": 275191,
                "official_name": "Zesp\u00f3\u0142 Szkolno-Przedszkolny w Handzl\u00f3wce",
                "name": "Zesp\u00f3\u0142 Szkolno-Przedszkolny w Handzl\u00f3wce",
                "addr:postcode": "37-123",
                "addr:place": "Handzl\u00f3wka",
                "addr:housenumber": "264",
                "addr:city:simc": 654859,
                "phone": "+48 172472786",
                "email": "sphandzlowka@gminalancut.pl",
                "website": "http:\/\/www.sphandzlowka.pl",
                "ref:regon": "386674587",
                "operator": "Gmina \u0141a\u0144cut",
                "operator:type": "government",
                "landuse": "education",
                "fixme": "amenity=school, amenity=college albo landuse=education w zale\u017cno\u015bci od tego, jakie plac\u00f3wki wchodz\u0105 w sk\u0142ad zespo\u0142u. Sprawd\u017a, kiedy stosowa\u0107 amenity=* a kiedy landuse=education.",
                "note": "Children RSPO: 73095;73311"
            }
        },
        {
            "id": 73311,
            "type": "Feature",
            "geometry": {
                "type": "Point",
                "coordinates": [
                    22.22437,
                    49.98733
                ]
            },
            "properties": {
                "isced:level": "1;2",
                "ref:rspo": 73311,
                "official_name": "Szko\u0142a Podstawowa im. Ks. W\u0142adys\u0142awa Krakowskiego w Handzl\u00f3wce",
                "name": "Szko\u0142a Podstawowa",
                "addr:postcode": "37-123",
                "addr:place": "Handzl\u00f3wka",
                "addr:housenumber": "264",
                "addr:city:simc": 654859,
                "phone": "+48 172472786",
                "email": "sphandzlowka@wp.pl",
                "website": "http:\/\/www.sphandzlowka.pl",
                "ref:regon": "001133460",
                "operator": "Gmina \u0141a\u0144cut",
                "operator:type": "government",
                "amenity": "school",
                "note": "Parent RSPO: 275191"
            }
        },
        {
            "id": 73095,
            "type": "Feature",
            "geometry": {
                "type": "Point",
                "coordinates": [
                    22.22016,
                    49.98754
                ]
            },
            "properties": {
                "ref:rspo": 73095,
                "official_name": "Przedszkole Publiczne w Handzl\u00f3wce",
                "name": "Przedszkole Publiczne w Handzl\u00f3wce",
                "addr:postcode": "37-123",
                "addr:place": "Handzl\u00f3wka",
                "addr:housenumber": "109A",
                "addr:city:simc": 654859,
                "phone": "+48 172264217",
                "email": "pphandzlowka@gminalancut.pl",
                "website": "http:\/\/pphandzlowka.edupage.org",
                "ref:regon": "690705045",
                "operator": "Gmina \u0141a\u0144cut",
                "operator:type": "government",
                "amenity": "kindergarten",
                "note": "Parent RSPO: 275191"
            }
        },
        {
            "id": 71858,
            "type": "Feature",
            "geometry": {
                "type": "Point",
                "coordinates": [
                    22.16486,
                    50.01432
                ]
            },
            "properties": {
                "ref:rspo": 71858,
                "official_name": "Zesp\u00f3\u0142 Szk\u00f3\u0142 im.\u015bw. Faustyny Kowalskiej w Cierpiszu",
                "name": "Zesp\u00f3\u0142 Szk\u00f3\u0142 im.\u015bw. Faustyny Kowalskiej w Cierpiszu",
                "addr:postcode": "37-124",
                "addr:place": "Cierpisz",
                "addr:housenumber": "110A",
                "addr:city:simc": 654724,
                "phone": "+48 172266023",
                "email": "szkolacierpisz@interia.pl",
                "ref:regon": "691678959",
                "operator": "Gmina \u0141a\u0144cut",
                "operator:type": "government",
                "landuse": "education",
                "fixme": "amenity=school, amenity=college albo landuse=education w zale\u017cno\u015bci od tego, jakie plac\u00f3wki wchodz\u0105 w sk\u0142ad zespo\u0142u. Sprawd\u017a, kiedy stosowa\u0107 amenity=* a kiedy landuse=education.",
                "note": "Children RSPO: 74468;74596"
            }
        },
        {
            "id": 74468,
            "type": "Feature",
            "geometry": {
                "type": "Point",
                "coordinates": [
                    22.16486,
                    50.014289999999995
                ]
            },
            "properties": {
                "isced:level": "1;2",
                "ref:rspo": 74468,
                "official_name": "Szko\u0142a Podstawowa w Cierpiszu",
                "name": "Szko\u0142a Podstawowa w Cierpiszu",
                "addr:postcode": "37-124",
                "addr:place": "Cierpisz",
                "addr:housenumber": "110A",
                "addr:city:simc": 654724,
                "phone": "+48 172266023",
                "email": "szkolacierpisz@interia.pl",
                "ref:regon": "001133447",
                "operator": "Gmina \u0141a\u0144cut",
                "operator:type": "government",
                "amenity": "school",
                "note": "Parent RSPO: 71858"
            }
        },
        {
            "id": 74596,
            "type": "Feature",
            "geometry": {
                "type": "Point",
                "coordinates": [
                    22.16486,
                    50.01426
                ]
            },
            "properties": {
                "ref:rspo": 74596,
                "official_name": "Przedszkole Publiczne w Cierpiszu",
                "name": "Przedszkole Publiczne w Cierpiszu",
                "addr:postcode": "37-124",
                "addr:place": "Cierpisz",
                "addr:housenumber": "110A",
                "addr:city:simc": 654724,
                "phone": "+48 172266023",
                "email": "szkolacierpisz@interia.pl",
                "ref:regon": "691678942",
                "operator": "Gmina \u0141a\u0144cut",
                "operator:type": "government",
                "amenity": "kindergarten",
                "note": "Parent RSPO: 71858"
            }
        },
        {
            "id": 277491,
            "type": "Feature",
            "geometry": {
                "type": "Point",
                "coordinates": [
                    22.22904,
                    50.01653
                ]
            },
            "properties": {
                "ref:rspo": 277491,
                "official_name": "Zesp\u00f3\u0142 Szkolno-Przedszkolny w Albigowej",
                "name": "Zesp\u00f3\u0142 Szkolno-Przedszkolny w Albigowej",
                "addr:postcode": "37-122",
                "addr:place": "Albigowa",
                "addr:housenumber": "489",
                "addr:city:simc": 654635,
                "phone": "+48 172267191",
                "email": "spalbigowa@gminalnacut.pl",
                "website": "http:\/\/spalbigowa.pl",
                "ref:regon": "388995373",
                "operator": "Gmina \u0141a\u0144cut",
                "operator:type": "government",
                "landuse": "education",
                "fixme": "amenity=school, amenity=college albo landuse=education w zale\u017cno\u015bci od tego, jakie plac\u00f3wki wchodz\u0105 w sk\u0142ad zespo\u0142u. Sprawd\u017a, kiedy stosowa\u0107 amenity=* a kiedy landuse=education.",
                "note": "Children RSPO: 73031;74226"
            }
        },
        {
            "id": 74226,
            "type": "Feature",
            "geometry": {
                "type": "Point",
                "coordinates": [
                    22.22904,
                    50.0165
                ]
            },
            "properties": {
                "isced:level": "1;2",
                "ref:rspo": 74226,
                "official_name": "Szko\u0142a Podstawowa im. Ks. Antoniego Tyczy\u0144skiego w Albigowej",
                "name": "Szko\u0142a Podstawowa",
                "addr:postcode": "37-122",
                "addr:place": "Albigowa",
                "addr:housenumber": "489",
                "addr:city:simc": 654635,
                "phone": "+48 172267191",
                "email": "zsalbigowa@op.pl",
                "website": "http:\/\/www.spalbigowa.pl",
                "ref:regon": "001133430",
                "ref:vatin": "PL8151739687",
                "operator": "Gmina \u0141a\u0144cut",
                "operator:type": "government",
                "amenity": "school",
                "note": "Parent RSPO: 277491"
            }
        },
        {
            "id": 73031,
            "type": "Feature",
            "geometry": {
                "type": "Point",
                "coordinates": [
                    22.22698,
                    50.01735
                ]
            },
            "properties": {
                "ref:rspo": 73031,
                "official_name": "Przedszkole Publiczne w Albigowej",
                "name": "Przedszkole Publiczne w Albigowej",
                "addr:postcode": "37-122",
                "addr:place": "Albigowa",
                "addr:housenumber": "478",
                "addr:city:simc": 654635,
                "phone": "+48 172267113",
                "email": "ppalbigowa@wp.pl",
                "ref:regon": "690704991",
                "operator": "Gmina \u0141a\u0144cut",
                "operator:type": "government",
                "amenity": "kindergarten",
                "note": "Parent RSPO: 277491"
            }
        },
        {
            "id": 266562,
            "type": "Feature",
            "geometry": {
                "type": "Point",
                "coordinates": [
                    22.22328,
                    50.02991
                ]
            },
            "properties": {
                "ref:rspo": 266562,
                "official_name": "Niepubliczne Przedszkole Integracyjne \"Ja\u015b I Ma\u0142gosia\"",
                "name": "Niepubliczne Przedszkole Integracyjne \"Ja\u015b I Ma\u0142gosia\"",
                "addr:postcode": "37-122",
                "addr:place": "Albigowa",
                "addr:housenumber": "300",
                "addr:city:simc": 654635,
                "phone": "+48 791806908",
                "email": "jasimalgosia.ewa@gmail.com",
                "website": "http:\/\/www.jas-malgosia.com",
                "ref:regon": "369561907",
                "operator": "Ewa Pilawa",
                "operator:type": "private",
                "amenity": "kindergarten"
            }
        },
        {
            "id": 266561,
            "type": "Feature",
            "geometry": {
                "type": "Point",
                "coordinates": [
                    22.19115,
                    50.03519
                ]
            },
            "properties": {
                "ref:rspo": 266561,
                "official_name": "Niepubliczne Przedszkole Integracyjne \"Ja\u015b I Ma\u0142gosia\"",
                "name": "Niepubliczne Przedszkole Integracyjne \"Ja\u015b I Ma\u0142gosia\"",
                "addr:postcode": "37-124",
                "addr:place": "Kraczkowa",
                "addr:housenumber": "1125",
                "addr:city:simc": 655089,
                "phone": "+48 574905907",
                "email": "jasimalgosia.ewa@gmail.com",
                "website": "http:\/\/www.jas-malgosia.com",
                "ref:regon": "369561830",
                "operator": "Ewa Pilawa",
                "operator:type": "private",
                "amenity": "kindergarten"
            }
        },
        {
            "id": 74865,
            "type": "Feature",
            "geometry": {
                "type": "Point",
                "coordinates": [
                    22.16135,
                    50.03851
                ]
            },
            "properties": {
                "isced:level": "1;2",
                "ref:rspo": 74865,
                "official_name": "Szko\u0142a Podstawowa im. Jana Paw\u0142a II w Kraczkowej",
                "name": "Szko\u0142a Podstawowa",
                "addr:postcode": "37-124",
                "addr:place": "Kraczkowa",
                "addr:housenumber": "311",
                "addr:city:simc": 655089,
                "phone": "+48 172266026",
                "email": "sp.kraczkowa@interia.pl",
                "website": "http:\/\/zs.kraczkowa.edupage.org",
                "ref:regon": "001133482",
                "ref:vatin": "PL8151739693",
                "operator": "Gmina \u0141a\u0144cut",
                "operator:type": "government",
                "amenity": "school"
            }
        },
        {
            "id": 73686,
            "type": "Feature",
            "geometry": {
                "type": "Point",
                "coordinates": [
                    22.17383,
                    50.03866
                ]
            },
            "properties": {
                "ref:rspo": 73686,
                "official_name": "Przedszkole Publiczne w Kraczkowej",
                "name": "Przedszkole Publiczne w Kraczkowej",
                "addr:postcode": "37-124",
                "addr:place": "Kraczkowa",
                "addr:housenumber": "882",
                "addr:city:simc": 655089,
                "phone": "+48 172266592",
                "email": "ppkraczkowa@gminalancut.pl",
                "website": "http:\/\/przedszkole-kraczkowa.edu.pl",
                "ref:regon": "690705068",
                "operator": "Gmina \u0141a\u0144cut",
                "operator:type": "government",
                "amenity": "kindergarten"
            }
        },
        {
            "id": 19234,
            "type": "Feature",
            "geometry": {
                "type": "Point",
                "coordinates": [
                    22.23826,
                    50.04338
                ]
            },
            "properties": {
                "ref:rspo": 19234,
                "official_name": "Niepubliczny O\u015brodek Rewalidacyjno - Wychowawczy Caritas w Wysokiej",
                "name": "Niepubliczny O\u015brodek Rewalidacyjno - Wychowawczy Caritas w Wysokiej",
                "addr:postcode": "37-100",
                "addr:place": "Wysoka",
                "addr:housenumber": "49",
                "addr:city:simc": 655250,
                "phone": "+48 172258055",
                "email": "kontakt@osrodekwysoka.pl",
                "website": "http:\/\/www.osrodekwysoka.pl",
                "ref:regon": "180891516",
                "ref:vatin": "PL8151741394",
                "operator": "Caritas Archidiecezji Przemyskiej",
                "operator:type": "religious",
                "amenity": "school"
            }
        },
        {
            "id": 73507,
            "type": "Feature",
            "geometry": {
                "type": "Point",
                "coordinates": [
                    22.23826,
                    50.04335
                ]
            },
            "properties": {
                "ref:rspo": 73507,
                "official_name": "Zesp\u00f3\u0142 Szk\u00f3\u0142 im. Tadeusza Ko\u015bciuszki w Wysokiej",
                "name": "Zesp\u00f3\u0142 Szk\u00f3\u0142",
                "addr:postcode": "37-100",
                "addr:place": "Wysoka",
                "addr:housenumber": "49",
                "addr:city:simc": 655250,
                "phone": "+48 172253211",
                "email": "pg@zs-wysoka.pl",
                "website": "http:\/\/www.zs-wysoka.pl",
                "ref:regon": "000099168",
                "operator": "Gmina \u0141a\u0144cut",
                "operator:type": "government",
                "landuse": "education",
                "fixme": "amenity=school, amenity=college albo landuse=education w zale\u017cno\u015bci od tego, jakie plac\u00f3wki wchodz\u0105 w sk\u0142ad zespo\u0142u. Sprawd\u017a, kiedy stosowa\u0107 amenity=* a kiedy landuse=education.",
                "note": "Children RSPO: 79293;132992"
            }
        },
        {
            "id": 276380,
            "type": "Feature",
            "geometry": {
                "type": "Point",
                "coordinates": [
                    22.23826,
                    50.04332
                ]
            },
            "properties": {
                "ref:rspo": 276380,
                "official_name": "Terapeutyczny Punkt Przedszkolny I Centrum Rozwoju Plaster Miodu",
                "name": "Terapeutyczny Punkt Przedszkolny I Centrum Rozwoju Plaster Miodu",
                "addr:postcode": "37-100",
                "addr:place": "Wysoka",
                "addr:housenumber": "49c",
                "addr:city:simc": 655250,
                "phone": "+48 172832302",
                "email": "punktprzedszkolny@plastermiodu.edu.pl",
                "website": "http:\/\/plastermiodu.edu.pl",
                "ref:regon": "387113997",
                "operator": "Terapeutyczny Punkt Przedszkolny I Centrum Rozwoju Plaster Miodu Sp\u00f3\u0142ka Z Ograniczon\u0105 Odpowiedzialno\u015bci\u0105",
                "operator:type": "private",
                "amenity": "kindergarten"
            }
        },
        {
            "id": 79293,
            "type": "Feature",
            "geometry": {
                "type": "Point",
                "coordinates": [
                    22.23826,
                    50.04329
                ]
            },
            "properties": {
                "isced:level": "3",
                "ref:rspo": 79293,
                "official_name": "Technikum w Wysokiej",
                "name": "Technikum w Wysokiej",
                "addr:postcode": "37-100",
                "addr:place": "Wysoka",
                "addr:housenumber": "49",
                "addr:city:simc": 655250,
                "phone": "+48 172253211",
                "email": "pg@zs-wysoka.pl",
                "ref:regon": "691681737",
                "operator": "Gmina \u0141a\u0144cut",
                "operator:type": "government",
                "amenity": "school",
                "note": "Parent RSPO: 73507"
            }
        },
        {
            "id": 132992,
            "type": "Feature",
            "geometry": {
                "type": "Point",
                "coordinates": [
                    22.23826,
                    50.04326
                ]
            },
            "properties": {
                "isced:level": "3",
                "ref:rspo": 132992,
                "official_name": "Bran\u017cowa Szko\u0142a I Stopnia w Wysokiej",
                "name": "Bran\u017cowa Szko\u0142a I Stopnia w Wysokiej",
                "addr:postcode": "37-100",
                "addr:place": "Wysoka",
                "addr:housenumber": "49",
                "addr:city:simc": 655250,
                "phone": "+48 172253211",
                "email": "pg@zs-wysoka.pl",
                "website": "http:\/\/www.zs-wysoka.pl",
                "ref:regon": "366466947",
                "operator": "Gmina \u0141a\u0144cut",
                "operator:type": "government",
                "amenity": "school",
                "note": "Parent RSPO: 73507"
            }
        },
        {
            "id": 73126,
            "type": "Feature",
            "geometry": {
                "type": "Point",
                "coordinates": [
                    22.24966,
                    50.0441999
                ]
            },
            "properties": {
                "ref:rspo": 73126,
                "official_name": "Przedszkole Publiczne w Wysokiej",
                "name": "Przedszkole Publiczne w Wysokiej",
                "addr:postcode": "37-100",
                "addr:place": "Wysoka",
                "addr:housenumber": "81",
                "addr:city:simc": 655250,
                "phone": "+48 172254345",
                "email": "przedszkole_wysoka@onet.pl",
                "ref:regon": "690705105",
                "operator": "Gmina \u0141a\u0144cut",
                "operator:type": "government",
                "amenity": "kindergarten",
                "note": "Parent RSPO: 275190"
            }
        },
        {
            "id": 275190,
            "type": "Feature",
            "geometry": {
                "type": "Point",
                "coordinates": [
                    22.25113,
                    50.0464399
                ]
            },
            "properties": {
                "ref:rspo": 275190,
                "official_name": "Zesp\u00f3\u0142 Szkolno-Przedszkolny w Wysokiej",
                "name": "Zesp\u00f3\u0142 Szkolno-Przedszkolny w Wysokiej",
                "addr:postcode": "37-100",
                "addr:place": "Wysoka",
                "addr:housenumber": "98",
                "addr:city:simc": 655250,
                "phone": "+48 172252958",
                "email": "spwysoka@gminalancut.pl",
                "website": "http:\/\/www.sp-wysoka.edupage.org",
                "ref:regon": "386673665",
                "operator": "Gmina \u0141a\u0144cut",
                "operator:type": "government",
                "landuse": "education",
                "fixme": "amenity=school, amenity=college albo landuse=education w zale\u017cno\u015bci od tego, jakie plac\u00f3wki wchodz\u0105 w sk\u0142ad zespo\u0142u. Sprawd\u017a, kiedy stosowa\u0107 amenity=* a kiedy landuse=education.",
                "note": "Children RSPO: 73030;73126"
            }
        },
        {
            "id": 73030,
            "type": "Feature",
            "geometry": {
                "type": "Point",
                "coordinates": [
                    22.25113,
                    50.0464099
                ]
            },
            "properties": {
                "isced:level": "1;2",
                "ref:rspo": 73030,
                "official_name": "Szko\u0142a Podstawowa im. \u015aw. Jana Bosko w Wysokiej",
                "name": "Szko\u0142a Podstawowa",
                "addr:postcode": "37-100",
                "addr:place": "Wysoka",
                "addr:housenumber": "98",
                "addr:city:simc": 655250,
                "phone": "+48 172252958",
                "email": "spw@interklasa.pl",
                "ref:regon": "001133513",
                "operator": "Gmina \u0141a\u0144cut",
                "operator:type": "government",
                "amenity": "school",
                "note": "Parent RSPO: 275190"
            }
        },
        {
            "id": 276386,
            "type": "Feature",
            "geometry": {
                "type": "Point",
                "coordinates": [
                    22.26073,
                    50.05995
                ]
            },
            "properties": {
                "ref:rspo": 276386,
                "official_name": "Niepubliczne Przedszkole Specjalne Niebieska Kraina",
                "name": "Niepubliczne Przedszkole Specjalne Niebieska Kraina",
                "addr:postcode": "37-100",
                "addr:place": "Sonina",
                "addr:housenumber": "493C",
                "addr:city:simc": 655209,
                "phone": "+48 692462267",
                "email": "sonina@niebieskakraina.pl",
                "ref:regon": "387114525",
                "operator": "Katarzyna \u0141ach",
                "operator:type": "private",
                "amenity": "kindergarten"
            }
        },
        {
            "id": 73127,
            "type": "Feature",
            "geometry": {
                "type": "Point",
                "coordinates": [
                    22.26892,
                    50.06272
                ]
            },
            "properties": {
                "ref:rspo": 73127,
                "official_name": "Przedszkole Publiczne w Soninie",
                "name": "Przedszkole Publiczne w Soninie",
                "addr:postcode": "37-100",
                "addr:place": "Sonina",
                "addr:housenumber": "267",
                "addr:city:simc": 655209,
                "phone": "+48 172241595",
                "email": "ppsonina@gminalancut.pl",
                "ref:regon": "690705080",
                "operator": "Gmina \u0141a\u0144cut",
                "operator:type": "government",
                "amenity": "kindergarten"
            }
        },
        {
            "id": 74867,
            "type": "Feature",
            "geometry": {
                "type": "Point",
                "coordinates": [
                    22.26645,
                    50.06629
                ]
            },
            "properties": {
                "isced:level": "1;2",
                "ref:rspo": 74867,
                "official_name": "Szko\u0142a Podstawowa im. Kapitana Wac\u0142awa Nycza w Soninie",
                "name": "Szko\u0142a Podstawowa",
                "addr:postcode": "37-100",
                "addr:place": "Sonina",
                "addr:housenumber": "168",
                "addr:city:simc": 655209,
                "phone": "+48 172241521",
                "email": "spsonina@o2.pl",
                "website": "http:\/\/www.szkolasonina.cba.pl",
                "ref:regon": "001133507",
                "ref:vatin": "PL8151747132",
                "operator": "Gmina \u0141a\u0144cut",
                "operator:type": "government",
                "amenity": "school"
            }
        },
        {
            "id": 71964,
            "type": "Feature",
            "geometry": {
                "type": "Point",
                "coordinates": [
                    22.32567,
                    50.07158
                ]
            },
            "properties": {
                "ref:rspo": 71964,
                "official_name": "Zesp\u00f3\u0142 Szk\u00f3\u0142 w Kosinie",
                "name": "Zesp\u00f3\u0142 Szk\u00f3\u0142 w Kosinie",
                "addr:postcode": "37-112",
                "addr:place": "Kosina",
                "addr:housenumber": "268",
                "addr:city:simc": 655037,
                "phone": "+48 172250505",
                "email": "zskosina@wp.pl",
                "website": "http:\/\/zskosina.edupage.org",
                "ref:regon": "180253833",
                "operator": "Gmina \u0141a\u0144cut",
                "operator:type": "government",
                "landuse": "education",
                "fixme": "amenity=school, amenity=college albo landuse=education w zale\u017cno\u015bci od tego, jakie plac\u00f3wki wchodz\u0105 w sk\u0142ad zespo\u0142u. Sprawd\u017a, kiedy stosowa\u0107 amenity=* a kiedy landuse=education.",
                "note": "Children RSPO: 73096;74594"
            }
        },
        {
            "id": 73096,
            "type": "Feature",
            "geometry": {
                "type": "Point",
                "coordinates": [
                    22.32567,
                    50.071549999999995
                ]
            },
            "properties": {
                "ref:rspo": 73096,
                "official_name": "Przedszkole Publiczne w Kosinie",
                "name": "Przedszkole Publiczne w Kosinie",
                "addr:postcode": "37-112",
                "addr:place": "Kosina",
                "addr:housenumber": "268",
                "addr:city:simc": 655037,
                "phone": "+48 172250505",
                "email": "zskosina@wp.pl",
                "ref:regon": "690705051",
                "operator": "Gmina \u0141a\u0144cut",
                "operator:type": "government",
                "amenity": "kindergarten",
                "note": "Parent RSPO: 71964"
            }
        },
        {
            "id": 74594,
            "type": "Feature",
            "geometry": {
                "type": "Point",
                "coordinates": [
                    22.32567,
                    50.07152
                ]
            },
            "properties": {
                "isced:level": "1;2",
                "ref:rspo": 74594,
                "official_name": "Szko\u0142a Podstawowa im. P\u0142k. Leopolda Lisa-Kuli w Kosinie",
                "name": "Szko\u0142a Podstawowa",
                "addr:postcode": "37-112",
                "addr:place": "Kosina",
                "addr:housenumber": "268",
                "addr:city:simc": 655037,
                "phone": "+48 172250505",
                "email": "zskosina@wp.pl",
                "ref:regon": "001133476",
                "operator": "Gmina \u0141a\u0144cut",
                "operator:type": "government",
                "amenity": "school",
                "note": "Parent RSPO: 71964"
            }
        },
        {
            "id": 71982,
            "type": "Feature",
            "geometry": {
                "type": "Point",
                "coordinates": [
                    22.37441,
                    50.0752
                ]
            },
            "properties": {
                "ref:rspo": 71982,
                "official_name": "Zesp\u00f3\u0142 Szk\u00f3\u0142 im. Anny Jenke w Rog\u00f3\u017cnie",
                "name": "Zesp\u00f3\u0142 Szk\u00f3\u0142",
                "addr:postcode": "37-112",
                "addr:place": "Rog\u00f3\u017cno",
                "addr:housenumber": "374",
                "addr:city:simc": 655155,
                "phone": "+48 172250530",
                "email": "zsrogozno@gminalancut.pl",
                "ref:regon": "691678988",
                "operator": "Gmina \u0141a\u0144cut",
                "operator:type": "government",
                "landuse": "education",
                "fixme": "amenity=school, amenity=college albo landuse=education w zale\u017cno\u015bci od tego, jakie plac\u00f3wki wchodz\u0105 w sk\u0142ad zespo\u0142u. Sprawd\u017a, kiedy stosowa\u0107 amenity=* a kiedy landuse=education.",
                "note": "Children RSPO: 79289;79290"
            }
        },
        {
            "id": 79289,
            "type": "Feature",
            "geometry": {
                "type": "Point",
                "coordinates": [
                    22.37441,
                    50.07517
                ]
            },
            "properties": {
                "isced:level": "1;2",
                "ref:rspo": 79289,
                "official_name": "Szko\u0142a Podstawowa w Rog\u00f3\u017cnie",
                "name": "Szko\u0142a Podstawowa w Rog\u00f3\u017cnie",
                "addr:postcode": "37-112",
                "addr:place": "Rog\u00f3\u017cno",
                "addr:housenumber": "374",
                "addr:city:simc": 655155,
                "phone": "+48 172250530",
                "email": "zsrogozno@gminalancut.pl",
                "ref:regon": "001133499",
                "operator": "Gmina \u0141a\u0144cut",
                "operator:type": "government",
                "amenity": "school",
                "note": "Parent RSPO: 71982"
            }
        },
        {
            "id": 79290,
            "type": "Feature",
            "geometry": {
                "type": "Point",
                "coordinates": [
                    22.37441,
                    50.075140000000005
                ]
            },
            "properties": {
                "ref:rspo": 79290,
                "official_name": "Przedszkole Publiczne w Rog\u00f3\u017cnie",
                "name": "Przedszkole Publiczne w Rog\u00f3\u017cnie",
                "addr:postcode": "37-112",
                "addr:place": "Rog\u00f3\u017cno",
                "addr:housenumber": "374",
                "addr:city:simc": 655155,
                "phone": "+48 172250530",
                "email": "sprogozno@wp.pl",
                "ref:regon": "690705097",
                "operator": "Gmina \u0141a\u0144cut",
                "operator:type": "government",
                "amenity": "kindergarten",
                "note": "Parent RSPO: 71982"
            }
        },
        {
            "id": 71859,
            "type": "Feature",
            "geometry": {
                "type": "Point",
                "coordinates": [
                    22.26973,
                    50.08157
                ]
            },
            "properties": {
                "ref:rspo": 71859,
                "official_name": "Zesp\u00f3\u0142 Szk\u00f3\u0142 im. \u015awi\u0119tej Jadwigi Kr\u00f3lowej w G\u0142uchowie",
                "name": "Zesp\u00f3\u0142 Szk\u00f3\u0142",
                "addr:postcode": "37-100",
                "addr:place": "G\u0142uch\u00f3w",
                "addr:housenumber": "443",
                "addr:city:simc": 654776,
                "phone": "+48 172241231",
                "email": "szkolagluchow@gmail.com",
                "website": "http:\/\/zsgluchow.edupage.org",
                "ref:regon": "691678971",
                "operator": "Gmina \u0141a\u0144cut",
                "operator:type": "government",
                "landuse": "education",
                "fixme": "amenity=school, amenity=college albo landuse=education w zale\u017cno\u015bci od tego, jakie plac\u00f3wki wchodz\u0105 w sk\u0142ad zespo\u0142u. Sprawd\u017a, kiedy stosowa\u0107 amenity=* a kiedy landuse=education.",
                "note": "Children RSPO: 74469;74470"
            }
        },
        {
            "id": 74469,
            "type": "Feature",
            "geometry": {
                "type": "Point",
                "coordinates": [
                    22.26973,
                    50.08154
                ]
            },
            "properties": {
                "ref:rspo": 74469,
                "official_name": "Przedszkole Publiczne w G\u0142uchowie",
                "name": "Przedszkole Publiczne w G\u0142uchowie",
                "addr:postcode": "37-100",
                "addr:place": "G\u0142uch\u00f3w",
                "addr:housenumber": "443",
                "addr:city:simc": 654776,
                "phone": "+48 172241231",
                "email": "zsgluchow@gminalancut.pl",
                "website": "http:\/\/zsgluchow.edupage.org",
                "ref:regon": "690705022",
                "operator": "Gmina \u0141a\u0144cut",
                "operator:type": "government",
                "amenity": "kindergarten",
                "note": "Parent RSPO: 71859"
            }
        },
        {
            "id": 74470,
            "type": "Feature",
            "geometry": {
                "type": "Point",
                "coordinates": [
                    22.26973,
                    50.08151
                ]
            },
            "properties": {
                "isced:level": "1;2",
                "ref:rspo": 74470,
                "official_name": "Szko\u0142a Podstawowa w G\u0142uchowie",
                "name": "Szko\u0142a Podstawowa w G\u0142uchowie",
                "addr:postcode": "37-100",
                "addr:place": "G\u0142uch\u00f3w",
                "addr:housenumber": "443",
                "addr:city:simc": 654776,
                "phone": "+48 172241231",
                "email": "szkolagluchow@gmail.com",
                "website": "http:\/\/zsgluchow.edupage.org",
                "ref:regon": "001133453",
                "operator": "Gmina \u0141a\u0144cut",
                "operator:type": "government",
                "amenity": "school",
                "note": "Parent RSPO: 71859"
            }
        }
    ]
}