{
    "type": "FeatureCollection",
    "features": [
        {
            "id": 61923,
            "type": "Feature",
            "geometry": {
                "type": "Point",
                "coordinates": [
                    18.92733,
                    54.07206
                ]
            },
            "properties": {
                "isced:level": "1;2",
                "ref:rspo": 61923,
                "official_name": "Szko\u0142a Podstawowa im. Edyty Czosk\u00f3wny w Szymankowie",
                "name": "Szko\u0142a Podstawowa",
                "addr:postcode": "82-224",
                "addr:city": "Szymankowo",
                "addr:street": "Bohater\u00f3w Wrze\u015bnia 1939 roku",
                "addr:housenumber": "14",
                "addr:city:simc": 151845,
                "addr:street:sym_ul": 1689,
                "phone": "+48 552711917",
                "email": "sekretariat@szymankowo.pl",
                "website": "http:\/\/www.szymankowo.pl",
                "ref:regon": "170302143",
                "operator": "Gmina Lichnowy",
                "operator:type": "government",
                "amenity": "school"
            }
        },
        {
            "id": 61846,
            "type": "Feature",
            "geometry": {
                "type": "Point",
                "coordinates": [
                    18.8323,
                    54.09978
                ]
            },
            "properties": {
                "isced:level": "1;2",
                "ref:rspo": 61846,
                "official_name": "Szko\u0142a Podstawowa im. Bohater\u00f3w Wrze\u015bnia 1939 Roku w Lisewie Malborskim",
                "name": "Szko\u0142a Podstawowa",
                "addr:postcode": "82-224",
                "addr:city": "Lisewo Malborskie",
                "addr:street": "10 Marca",
                "addr:housenumber": "51",
                "addr:city:simc": 151785,
                "addr:street:sym_ul": 12248,
                "phone": "+48 552712126",
                "email": "zslm@wp.pl",
                "website": "http:\/\/www.zslm.superszkolna.pl",
                "ref:regon": "170302150",
                "ref:vatin": "PL5792263076",
                "operator": "Gmina Lichnowy",
                "operator:type": "government",
                "amenity": "school"
            }
        },
        {
            "id": 61788,
            "type": "Feature",
            "geometry": {
                "type": "Point",
                "coordinates": [
                    18.9116499,
                    54.1196833
                ]
            },
            "properties": {
                "isced:level": "1;2",
                "ref:rspo": 61788,
                "official_name": "Szko\u0142a Podstawowa im. Stefana \u017beromskiego w Lichnowach",
                "name": "Szko\u0142a Podstawowa",
                "addr:postcode": "82-224",
                "addr:city": "Lichnowy",
                "addr:street": "Zwyci\u0119stwa",
                "addr:housenumber": "15",
                "addr:city:simc": 151733,
                "addr:street:sym_ul": 26326,
                "phone": "+48 552712727",
                "email": "szkolalichnowy@o2.pl",
                "website": "http:\/\/www.zslichnowy.szkolnastrona.pl",
                "ref:regon": "193077560",
                "operator": "Gmina Lichnowy",
                "operator:type": "government",
                "amenity": "school"
            }
        }
    ]
}