{
    "type": "FeatureCollection",
    "features": [
        {
            "id": 105622,
            "type": "Feature",
            "geometry": {
                "type": "Point",
                "coordinates": [
                    19.0171,
                    54.01389
                ]
            },
            "properties": {
                "ref:rspo": 105622,
                "official_name": "Jasko Sp. Z O. O.",
                "name": "Jasko Sp. Z O. O.",
                "addr:country": "PL",
                "addr:postcode": "82-200",
                "addr:city": "Malbork",
                "addr:street": "ul. Jana Kochanowskiego",
                "addr:housenumber": "19",
                "addr:teryt:simc": 8728,
                "addr:teryt:sym_ul": 932815,
                "contact:phone": "+48 604947295",
                "ref:regon": "221801565",
                "ref:vatin": "PL5791480765",
                "operator": "Jasko Sp\u00f3\u0142ka Z Ograniczon\u0105 Odpowiedzialno\u015bci\u0105",
                "operator:type": "private",
                "fixme": "w zale\u017cno\u015bci od przedmiotu dzia\u0142alno\u015bci (np. amenity=training + training=*, amenity=dancing_school, amenity=language_school, amenity=music_school)"
            }
        },
        {
            "id": 49215,
            "type": "Feature",
            "geometry": {
                "type": "Point",
                "coordinates": [
                    19.01592,
                    54.01553
                ]
            },
            "properties": {
                "ref:rspo": 49215,
                "official_name": "Przedszkole Niepubliczne \"Bajka\" w Malborku",
                "name": "Przedszkole Niepubliczne \"Bajka\" w Malborku",
                "addr:country": "PL",
                "addr:postcode": "82-200",
                "addr:city": "Malbork",
                "addr:street": "ul. Konstantego Ildefonsa Ga\u0142czy\u0144skiego",
                "addr:housenumber": "5",
                "addr:teryt:simc": 5300,
                "addr:teryt:sym_ul": 932815,
                "contact:phone": "+48 552723558",
                "contact:email": "pbajka1@wp.pl",
                "ref:regon": "221763712",
                "ref:vatin": "PL5791453685",
                "operator": "Jolanta Wa\u015bniewska",
                "operator:type": "private",
                "amenity": "kindergarten"
            }
        },
        {
            "id": 83663,
            "type": "Feature",
            "geometry": {
                "type": "Point",
                "coordinates": [
                    19.01193,
                    54.0166
                ]
            },
            "properties": {
                "ref:rspo": 83663,
                "official_name": "\"Akademia Nauczania\" Pph Rarytas J. I R. Markowscy",
                "name": "\"Akademia Nauczania\" Pph Rarytas J. I R. Markowscy",
                "addr:country": "PL",
                "addr:postcode": "82-200",
                "addr:city": "Malbork",
                "addr:street": "ul. Bartosza Wojciecha G\u0142owackiego",
                "addr:housenumber": "111",
                "addr:teryt:simc": 5628,
                "addr:teryt:sym_ul": 932815,
                "contact:phone": "+48 552727666",
                "contact:email": "rarytas@onet.eu",
                "ref:regon": "221778079",
                "ref:vatin": "PL5790005909",
                "operator": "Jacek Markowski",
                "operator:type": "private",
                "fixme": "w zale\u017cno\u015bci od przedmiotu dzia\u0142alno\u015bci (np. amenity=training + training=*, amenity=dancing_school, amenity=language_school, amenity=music_school)"
            }
        },
        {
            "id": 128950,
            "type": "Feature",
            "geometry": {
                "type": "Point",
                "coordinates": [
                    19.01193,
                    54.016569999999994
                ]
            },
            "properties": {
                "ref:rspo": 128950,
                "official_name": "Malborska Fundacja Rozwoju Regionalnego",
                "name": "Malborska Fundacja Rozwoju Regionalnego",
                "addr:country": "PL",
                "addr:postcode": "82-200",
                "addr:city": "Malbork",
                "addr:street": "ul. Bartosza Wojciecha G\u0142owackiego",
                "addr:housenumber": "111",
                "addr:teryt:simc": 5628,
                "addr:teryt:sym_ul": 932815,
                "contact:phone": "+48 607665818",
                "contact:email": "biuro@mftt.pl",
                "ref:regon": "362437989",
                "ref:vatin": "PL5792254278",
                "operator": "Justyna Paw\u0142owska",
                "operator:type": "private",
                "fixme": "w zale\u017cno\u015bci od przedmiotu dzia\u0142alno\u015bci (np. amenity=training + training=*, amenity=dancing_school, amenity=language_school, amenity=music_school)"
            }
        },
        {
            "id": 49985,
            "type": "Feature",
            "geometry": {
                "type": "Point",
                "coordinates": [
                    19.03859,
                    54.01713
                ]
            },
            "properties": {
                "ref:rspo": 49985,
                "official_name": "Punkt Przedszkolny \"S\u0142oneczko\" Alicja Polak - Ca\u0142ka w Malborku",
                "name": "Punkt Przedszkolny \"S\u0142oneczko\" Alicja Polak - Ca\u0142ka w Malborku",
                "addr:country": "PL",
                "addr:postcode": "82-200",
                "addr:city": "Malbork",
                "addr:street": "ul. Rolnicza",
                "addr:housenumber": "6",
                "addr:door": "3 i 4",
                "addr:teryt:simc": 18821,
                "addr:teryt:sym_ul": 932815,
                "contact:phone": "+48 552728804",
                "contact:email": "alicjapolakcalka@o2.pl",
                "ref:regon": "221764611",
                "ref:vatin": "PL5792022875",
                "operator": "Alicja Polak - Ca\u0142ka",
                "operator:type": "private",
                "amenity": "kindergarten"
            }
        },
        {
            "id": 7660,
            "type": "Feature",
            "geometry": {
                "type": "Point",
                "coordinates": [
                    19.0257,
                    54.01786
                ]
            },
            "properties": {
                "isced:level": "1;2",
                "ref:rspo": 7660,
                "official_name": "Szko\u0142a Podstawowa Nr 3 im. 2 Pu\u0142ku Nocnych Bombowc\u00f3w \"Krak\u00f3w\" w Malborku",
                "name": "Szko\u0142a Podstawowa Nr 3",
                "addr:country": "PL",
                "addr:postcode": "82-200",
                "addr:city": "Malbork",
                "addr:street": "ul. Stanis\u0142awa Hadyny",
                "addr:housenumber": "18",
                "addr:teryt:simc": 31738,
                "addr:teryt:sym_ul": 932815,
                "contact:phone": "+48 552723566",
                "contact:email": "bombek_sp3@wp.pl",
                "contact:website": "http:\/\/www.sp3.malbork.edu.pl",
                "ref:regon": "001121958",
                "ref:vatin": "PL5791923406",
                "operator": "Miasto Malbork",
                "operator:type": "government",
                "amenity": "school"
            }
        },
        {
            "id": 266941,
            "type": "Feature",
            "geometry": {
                "type": "Point",
                "coordinates": [
                    19.0392,
                    54.02009
                ]
            },
            "properties": {
                "ref:rspo": 266941,
                "official_name": "Firma Consultingowo-Us\u0142ugowa O\u015brodek Szkoleniowy",
                "name": "Firma Consultingowo-Us\u0142ugowa O\u015brodek Szkoleniowy",
                "addr:country": "PL",
                "addr:postcode": "82-200",
                "addr:city": "Malbork",
                "addr:street": "ul. Kazimierza Micha\u0142owskiego",
                "addr:housenumber": "12d",
                "addr:door": "2",
                "addr:teryt:simc": 12715,
                "addr:teryt:sym_ul": 932815,
                "ref:regon": "369755209",
                "ref:vatin": "PL5791038236",
                "operator": "Firma Consultingowo-Us\u0142ugowa O\u015brodek Szkoleniowy Katarzyna Miko\u0142ajczyk",
                "operator:type": "consortium",
                "fixme": "w zale\u017cno\u015bci od przedmiotu dzia\u0142alno\u015bci (np. amenity=training + training=*, amenity=dancing_school, amenity=language_school, amenity=music_school)"
            }
        },
        {
            "id": 274326,
            "type": "Feature",
            "geometry": {
                "type": "Point",
                "coordinates": [
                    19.04642,
                    54.02423
                ]
            },
            "properties": {
                "ref:rspo": 274326,
                "official_name": "Przedszkole Niepubliczne \"Kubu\u015b Puchatek\"",
                "name": "Przedszkole Niepubliczne \"Kubu\u015b Puchatek\"",
                "addr:country": "PL",
                "addr:postcode": "82-200",
                "addr:city": "Malbork",
                "addr:street": "ul. Karola Pomianowskiego",
                "addr:housenumber": "8",
                "addr:teryt:simc": 29570,
                "addr:teryt:sym_ul": 932815,
                "contact:email": "kubuspuchatekmalbork@wp.pl",
                "contact:website": "http:\/\/kubuspuchatekmalbork.pl",
                "ref:regon": "385579728",
                "operator": "Jowita Sobczak",
                "operator:type": "private",
                "amenity": "kindergarten"
            }
        },
        {
            "id": 41008,
            "type": "Feature",
            "geometry": {
                "type": "Point",
                "coordinates": [
                    19.04413,
                    54.02472
                ]
            },
            "properties": {
                "ref:rspo": 41008,
                "official_name": "Poradnia Psychologiczno-Pedagogiczna",
                "name": "Poradnia Psychologiczno-Pedagogiczna",
                "addr:country": "PL",
                "addr:postcode": "82-200",
                "addr:city": "Malbork",
                "addr:street": "ul. Tadeusza Kotarbi\u0144skiego",
                "addr:housenumber": "32",
                "addr:teryt:simc": 9606,
                "addr:teryt:sym_ul": 932815,
                "contact:phone": "+48 552729803",
                "contact:email": "pppmalbork@post.pl",
                "contact:website": "http:\/\/www.ppp.malbork.pl",
                "ref:regon": "001011661",
                "ref:vatin": "PL5791787630",
                "operator": "Powiat Malborski",
                "operator:type": "government",
                "healthcare": "counselling",
                "counselling_type": "education",
                "fixme": "w zale\u017cno\u015bci od przedmiotu dzia\u0142alno\u015bci (np. healthcare=counselling + counselling_type=education albo healthcare=psychotherapist)"
            }
        },
        {
            "id": 271756,
            "type": "Feature",
            "geometry": {
                "type": "Point",
                "coordinates": [
                    19.04226,
                    54.02613
                ]
            },
            "properties": {
                "ref:rspo": 271756,
                "official_name": "Zesp\u00f3\u0142 Szkolno-Przedszkolny Nr 1 w Malborku",
                "name": "Zesp\u00f3\u0142 Szkolno-Przedszkolny Nr 1 w Malborku",
                "addr:country": "PL",
                "addr:postcode": "82-200",
                "addr:city": "Malbork",
                "addr:street": "ul. J\u00f3zefa Wybickiego",
                "addr:housenumber": "32",
                "addr:teryt:simc": 24908,
                "addr:teryt:sym_ul": 932815,
                "contact:phone": "+48 552722468",
                "contact:email": "sekretariat@zsp1malbork.pl",
                "contact:website": "https:\/\/zsp1malbork.pl\/",
                "ref:regon": "383602624",
                "ref:vatin": "PL5792271087",
                "operator": "Miasto Malbork",
                "operator:type": "government",
                "landuse": "education",
                "fixme": "amenity=school, amenity=college albo landuse=education w zale\u017cno\u015bci od tego, jakie plac\u00f3wki wchodz\u0105 w sk\u0142ad zespo\u0142u. Sprawd\u017a, kiedy stosowa\u0107 amenity=* a kiedy landuse=education.",
                "note": "Children RSPO: 55893;272562"
            }
        },
        {
            "id": 55893,
            "type": "Feature",
            "geometry": {
                "type": "Point",
                "coordinates": [
                    19.04226,
                    54.0261
                ]
            },
            "properties": {
                "isced:level": "1;2",
                "ref:rspo": 55893,
                "official_name": "Szko\u0142a Podstawowa Nr 5 Z Oddzia\u0142ami Integracyjnymi im. Unicef w Malborku",
                "name": "Szko\u0142a Podstawowa Nr 5 Z Oddzia\u0142ami Integracyjnymi",
                "addr:country": "PL",
                "addr:postcode": "82-200",
                "addr:city": "Malbork",
                "addr:street": "ul. J\u00f3zefa Wybickiego",
                "addr:housenumber": "32",
                "addr:teryt:simc": 24908,
                "addr:teryt:sym_ul": 932815,
                "contact:phone": "+48 552722468",
                "contact:email": "sekretariat@zsp1malbork.pl",
                "ref:regon": "170063520",
                "ref:vatin": "PL5791923398",
                "operator": "Miasto Malbork",
                "operator:type": "government",
                "amenity": "school",
                "note": "Parent RSPO: 271756"
            }
        },
        {
            "id": 272562,
            "type": "Feature",
            "geometry": {
                "type": "Point",
                "coordinates": [
                    19.04226,
                    54.026070000000004
                ]
            },
            "properties": {
                "ref:rspo": 272562,
                "official_name": "Przedszkole Nr 1 Z Oddzia\u0142ami Integracyjnymi I Specjalnymi w Malborku",
                "name": "Przedszkole Nr 1 Z Oddzia\u0142ami Integracyjnymi I Specjalnymi w Malborku",
                "addr:country": "PL",
                "addr:postcode": "82-200",
                "addr:city": "Malbork",
                "addr:street": "ul. J\u00f3zefa Wybickiego",
                "addr:housenumber": "32",
                "addr:teryt:simc": 24908,
                "addr:teryt:sym_ul": 932815,
                "contact:phone": "+48 552722468",
                "contact:email": "sekretariat@zsp1malbork.pl",
                "ref:regon": "384283180",
                "operator": "Miasto Malbork",
                "operator:type": "government",
                "amenity": "kindergarten",
                "note": "Parent RSPO: 271756"
            }
        },
        {
            "id": 107658,
            "type": "Feature",
            "geometry": {
                "type": "Point",
                "coordinates": [
                    19.02531,
                    54.02655
                ]
            },
            "properties": {
                "ref:rspo": 107658,
                "official_name": "Powiatowe Ognisko Plastyczne w Malborku",
                "name": "Powiatowe Ognisko Plastyczne w Malborku",
                "addr:country": "PL",
                "addr:postcode": "82-200",
                "addr:city": "Malbork",
                "addr:street": "ul. Jagiello\u0144ska",
                "addr:housenumber": "78a",
                "addr:teryt:simc": 7029,
                "addr:teryt:sym_ul": 932815,
                "contact:phone": "+48 552722668",
                "contact:email": "kontakt.pop@powiat.malbork.pl",
                "contact:website": "http:\/\/www.ognisko.malbork.biz",
                "ref:regon": "000589145",
                "ref:vatin": "PL5791446975",
                "operator": "Powiat Malborski",
                "operator:type": "government",
                "amenity": "community_centre",
                "community_centre:for": "child;juvenile"
            }
        },
        {
            "id": 41007,
            "type": "Feature",
            "geometry": {
                "type": "Point",
                "coordinates": [
                    19.02657,
                    54.02732
                ]
            },
            "properties": {
                "ref:rspo": 41007,
                "official_name": "Specjalny O\u015brodek Szkolno-Wychowawczy im. Marii Grzegorzewskiej w Malborku",
                "name": "Specjalny O\u015brodek Szkolno-Wychowawczy",
                "addr:country": "PL",
                "addr:postcode": "82-200",
                "addr:city": "Malbork",
                "addr:street": "ul. Jagiello\u0144ska",
                "addr:housenumber": "79",
                "addr:door": "82",
                "addr:teryt:simc": 7029,
                "addr:teryt:sym_ul": 932815,
                "contact:phone": "+48 552723242",
                "contact:email": "sekretariat.sosw@powiat.malbork.pl",
                "contact:website": "http:\/\/www.sosw.malbork.pl",
                "ref:regon": "000206440",
                "ref:vatin": "PL5791568448",
                "operator": "Powiat Malborski",
                "operator:type": "government",
                "amenity": "school",
                "note": "Children RSPO: 109763;109764;109945"
            }
        },
        {
            "id": 72366,
            "type": "Feature",
            "geometry": {
                "type": "Point",
                "coordinates": [
                    19.02657,
                    54.02729
                ]
            },
            "properties": {
                "ref:rspo": 72366,
                "official_name": "Specjalny O\u015brodek Rewalidacyjno-Wychowawczy dla Dzieci I M\u0142odzie\u017cy Z Autyzmem",
                "name": "Specjalny O\u015brodek Rewalidacyjno-Wychowawczy dla Dzieci I M\u0142odzie\u017cy Z Autyzmem",
                "addr:country": "PL",
                "addr:postcode": "82-200",
                "addr:city": "Malbork",
                "addr:street": "ul. Jagiello\u0144ska",
                "addr:housenumber": "79",
                "addr:door": "82",
                "addr:teryt:simc": 7029,
                "addr:teryt:sym_ul": 932815,
                "contact:phone": "+48 556200977",
                "contact:email": "dyrektor.sorw@powiat.malbork.pl",
                "contact:website": "http:\/\/www.autyzm.malbork.edu.pl",
                "ref:regon": "170394240",
                "ref:vatin": "PL5791802080",
                "operator": "Powiat Malborski",
                "operator:type": "government",
                "amenity": "school"
            }
        },
        {
            "id": 115264,
            "type": "Feature",
            "geometry": {
                "type": "Point",
                "coordinates": [
                    19.02657,
                    54.027260000000005
                ]
            },
            "properties": {
                "ref:rspo": 115264,
                "official_name": "Punkt Przedszkolny Specjalny",
                "name": "Punkt Przedszkolny Specjalny",
                "addr:country": "PL",
                "addr:postcode": "82-200",
                "addr:city": "Malbork",
                "addr:street": "ul. Jagiello\u0144ska",
                "addr:housenumber": "79",
                "addr:door": "82",
                "addr:teryt:simc": 7029,
                "addr:teryt:sym_ul": 932815,
                "contact:phone": "+48 552723242",
                "contact:email": "sekretariat.sosw@powiat.malbork.pl",
                "contact:website": "http:\/\/sosw.malbork.pl",
                "ref:regon": "221708630",
                "ref:vatin": "PL5791568448",
                "operator": "Powiat Malborski",
                "operator:type": "government",
                "amenity": "kindergarten"
            }
        },
        {
            "id": 109763,
            "type": "Feature",
            "geometry": {
                "type": "Point",
                "coordinates": [
                    19.02657,
                    54.02723
                ]
            },
            "properties": {
                "isced:level": "3",
                "ref:rspo": 109763,
                "official_name": "Bran\u017cowa Szko\u0142a I Stopnia Nr 5 Specjalna",
                "name": "Bran\u017cowa Szko\u0142a I Stopnia Nr 5 Specjalna",
                "addr:country": "PL",
                "addr:postcode": "82-200",
                "addr:city": "Malbork",
                "addr:street": "ul. Jagiello\u0144ska",
                "addr:housenumber": "79\/82",
                "addr:teryt:simc": 7029,
                "addr:teryt:sym_ul": 932815,
                "contact:phone": "+48 552723242",
                "contact:email": "sekretariat.sosw@powiat.malbork.pl",
                "contact:website": "http:\/\/www.sosw.malbork.pl",
                "ref:regon": "001077223",
                "ref:vatin": "PL5791568448",
                "operator": "Powiat Malborski",
                "operator:type": "government",
                "amenity": "school",
                "note": "Parent RSPO: 41007"
            }
        },
        {
            "id": 109764,
            "type": "Feature",
            "geometry": {
                "type": "Point",
                "coordinates": [
                    19.02657,
                    54.0272
                ]
            },
            "properties": {
                "ref:rspo": 109764,
                "official_name": "Szko\u0142a Specjalna Przysposabiaj\u0105ca Do Pracy",
                "name": "Szko\u0142a Specjalna Przysposabiaj\u0105ca Do Pracy",
                "addr:country": "PL",
                "addr:postcode": "82-200",
                "addr:city": "Malbork",
                "addr:street": "ul. Jagiello\u0144ska",
                "addr:housenumber": "79",
                "addr:door": "82",
                "addr:teryt:simc": 7029,
                "addr:teryt:sym_ul": 932815,
                "contact:phone": "+48 552723242",
                "contact:email": "sekretariat.sosw@powiat.malbork.pl",
                "contact:website": "http:\/\/www.sosw.malbork.pl",
                "ref:regon": "193078682",
                "ref:vatin": "PL5791568448",
                "operator": "Powiat Malborski",
                "operator:type": "government",
                "amenity": "school",
                "note": "Parent RSPO: 41007"
            }
        },
        {
            "id": 109945,
            "type": "Feature",
            "geometry": {
                "type": "Point",
                "coordinates": [
                    19.02657,
                    54.027170000000005
                ]
            },
            "properties": {
                "isced:level": "1;2",
                "ref:rspo": 109945,
                "official_name": "Szko\u0142a Podstawowa Nr 10 Specjalna",
                "name": "Szko\u0142a Podstawowa Nr 10 Specjalna",
                "addr:country": "PL",
                "addr:postcode": "82-200",
                "addr:city": "Malbork",
                "addr:street": "ul. Jagiello\u0144ska",
                "addr:housenumber": "79",
                "addr:door": "82",
                "addr:teryt:simc": 7029,
                "addr:teryt:sym_ul": 932815,
                "contact:phone": "+48 552723242",
                "contact:email": "sekretariat.sosw@powiat.malbork.pl",
                "contact:website": "http:\/\/www.sosw.malbork.pl",
                "ref:regon": "001070103",
                "ref:vatin": "PL5791568448",
                "operator": "Powiat Malborski",
                "operator:type": "government",
                "amenity": "school",
                "note": "Parent RSPO: 41007"
            }
        },
        {
            "id": 28132,
            "type": "Feature",
            "geometry": {
                "type": "Point",
                "coordinates": [
                    19.02902,
                    54.02977
                ]
            },
            "properties": {
                "ref:rspo": 28132,
                "official_name": "M\u0142odzie\u017cowy O\u015brodek Wychowawczy Nr 1 im. Tadeusza Ko\u015bciuszki w Malborku",
                "name": "M\u0142odzie\u017cowy O\u015brodek Wychowawczy Nr 1",
                "addr:country": "PL",
                "addr:postcode": "82-200",
                "addr:city": "Malbork",
                "addr:street": "ul. Jagiello\u0144ska",
                "addr:housenumber": "94",
                "addr:teryt:simc": 7029,
                "addr:teryt:sym_ul": 932815,
                "contact:phone": "+48 552723037",
                "contact:email": "mow@pro.onet.pl",
                "contact:website": "http:\/\/www.mowmalbork.pl",
                "ref:regon": "000205618",
                "ref:vatin": "PL5791561860",
                "operator": "Powiat Malborski",
                "operator:type": "government",
                "fixme": "amenity=social_facility + social_facility=group_home + social_facility:for=juvenile",
                "note": "Children RSPO: 109765;270097"
            }
        },
        {
            "id": 109765,
            "type": "Feature",
            "geometry": {
                "type": "Point",
                "coordinates": [
                    19.02902,
                    54.02974
                ]
            },
            "properties": {
                "isced:level": "1;2",
                "ref:rspo": 109765,
                "official_name": "Specjalna Szko\u0142a Podstawowa Nr 11",
                "name": "Specjalna Szko\u0142a Podstawowa Nr 11",
                "addr:country": "PL",
                "addr:postcode": "82-200",
                "addr:city": "Malbork",
                "addr:street": "ul. Jagiello\u0144ska",
                "addr:housenumber": "94",
                "addr:teryt:simc": 7029,
                "addr:teryt:sym_ul": 932815,
                "contact:phone": "+48 552723037",
                "contact:email": "mow@pro.onet.pl",
                "contact:website": "http:\/\/www.mowmalbork.pl",
                "ref:regon": "001070008",
                "ref:vatin": "PL5791561860",
                "operator": "Powiat Malborski",
                "operator:type": "government",
                "amenity": "school",
                "note": "Parent RSPO: 28132"
            }
        },
        {
            "id": 270097,
            "type": "Feature",
            "geometry": {
                "type": "Point",
                "coordinates": [
                    19.02902,
                    54.02971
                ]
            },
            "properties": {
                "isced:level": "3",
                "ref:rspo": 270097,
                "official_name": "Bran\u017cowa Szko\u0142a I Stopnia Specjalna Nr.2",
                "name": "Bran\u017cowa Szko\u0142a I Stopnia Specjalna Nr.2",
                "addr:country": "PL",
                "addr:postcode": "82-200",
                "addr:city": "Malbork",
                "addr:street": "ul. Jagiello\u0144ska",
                "addr:housenumber": "94",
                "addr:teryt:simc": 7029,
                "addr:teryt:sym_ul": 932815,
                "contact:phone": "+48 552723037",
                "contact:email": "mow@pro.onet.pl",
                "contact:website": "http:\/\/mowmalbork.pl",
                "ref:regon": "382022190",
                "ref:vatin": "PL5791561860",
                "operator": "Powiat Malborski",
                "operator:type": "government",
                "amenity": "school",
                "note": "Parent RSPO: 28132"
            }
        },
        {
            "id": 18054,
            "type": "Feature",
            "geometry": {
                "type": "Point",
                "coordinates": [
                    19.035190582275,
                    54.03076171875
                ]
            },
            "properties": {
                "isced:level": "1;2",
                "ref:rspo": 18054,
                "official_name": "Szko\u0142a Podstawowa Nr 8 im. Miko\u0142aja Kopernika w Malborku",
                "name": "Szko\u0142a Podstawowa Nr 8",
                "addr:country": "PL",
                "addr:postcode": "82-200",
                "addr:city": "Malbork",
                "addr:street": "ul. gen. de Gaulle'a",
                "addr:housenumber": "91",
                "addr:teryt:simc": 5362,
                "addr:teryt:sym_ul": 932815,
                "contact:phone": "+48 552723883",
                "contact:email": "sp8malbork@wp.pl",
                "contact:website": "http:\/\/www.sp8.malbork.pl",
                "ref:regon": "001121964",
                "ref:vatin": "PL5791923470",
                "operator": "Miasto Malbork",
                "operator:type": "government",
                "amenity": "school"
            }
        },
        {
            "id": 49005,
            "type": "Feature",
            "geometry": {
                "type": "Point",
                "coordinates": [
                    19.035190582275,
                    54.03073171875
                ]
            },
            "properties": {
                "ref:rspo": 49005,
                "official_name": "Przedszkole Niepubliczne \"Czerwony Kapturek\" S.c. Aleksandra Ma\u015blanka, Hanna Serkowska w Malborku",
                "name": "Przedszkole Niepubliczne \"Czerwony Kapturek\" S.c. Aleksandra Ma\u015blanka, Hanna Serkowska w Malborku",
                "addr:country": "PL",
                "addr:postcode": "82-200",
                "addr:city": "Malbork",
                "addr:street": "ul. gen. J\u00f3zefa Bema",
                "addr:housenumber": "13",
                "addr:teryt:simc": 1014,
                "addr:teryt:sym_ul": 932815,
                "contact:phone": "+48 552735038",
                "contact:email": "przedszkole.malbork@wp.pl",
                "ref:regon": "221763623",
                "ref:vatin": "PL5792007657",
                "operator": "Aleksandra Ma\u015blanka",
                "operator:type": "private",
                "amenity": "kindergarten"
            }
        },
        {
            "id": 107586,
            "type": "Feature",
            "geometry": {
                "type": "Point",
                "coordinates": [
                    19.035190582275,
                    54.03070171875
                ]
            },
            "properties": {
                "ref:rspo": 107586,
                "official_name": "Centrum Edukacji Zawodowej",
                "name": "Centrum Edukacji Zawodowej",
                "addr:country": "PL",
                "addr:postcode": "82-200",
                "addr:city": "Malbork",
                "addr:street": "ul. gen. de Gaulle'a",
                "addr:housenumber": "75a",
                "addr:teryt:simc": 5362,
                "addr:teryt:sym_ul": 932815,
                "contact:phone": "+48 556476778",
                "contact:email": "sekretariat@cez.malbork.pl",
                "contact:website": "http:\/\/www.cez.malbork.pl",
                "ref:regon": "193106355",
                "ref:vatin": "PL5792051204",
                "operator": "Powiat Malborski",
                "operator:type": "government",
                "landuse": "education",
                "fixme": "amenity=school, amenity=college albo landuse=education w zale\u017cno\u015bci od tego, jakie plac\u00f3wki wchodz\u0105 w sk\u0142ad zespo\u0142u. Sprawd\u017a, kiedy stosowa\u0107 amenity=* a kiedy landuse=education.",
                "note": "Children RSPO: 118758;118759;264156"
            }
        },
        {
            "id": 118758,
            "type": "Feature",
            "geometry": {
                "type": "Point",
                "coordinates": [
                    19.035190582275,
                    54.03067171875
                ]
            },
            "properties": {
                "ref:rspo": 118758,
                "official_name": "Centrum Kszta\u0142cenia Zawodowego",
                "name": "Centrum Kszta\u0142cenia Zawodowego",
                "addr:country": "PL",
                "addr:postcode": "82-200",
                "addr:city": "Malbork",
                "addr:street": "ul. gen. de Gaulle'a",
                "addr:housenumber": "75a",
                "addr:teryt:simc": 5362,
                "addr:teryt:sym_ul": 932815,
                "contact:phone": "+48 556476778",
                "contact:email": "sekretariat@cez.malbork.pl",
                "contact:website": "http:\/\/www.cez.malbork.pl",
                "ref:regon": "193106349",
                "ref:vatin": "PL5792051204",
                "operator": "Powiat Malborski",
                "operator:type": "government",
                "fixme": "w zale\u017cno\u015bci od przedmiotu dzia\u0142alno\u015bci (np. amenity=training + training=*, amenity=dancing_school, amenity=language_school, amenity=music_school) albo amenity=school, amenity=college, albo landuse=education w zale\u017cno\u015bci od tego, jakie plac\u00f3wki wchodz\u0105 w sk\u0142ad zespo\u0142u. Sprawd\u017a, kiedy stosowa\u0107 amenity=* a kiedy landuse=education.",
                "note": "Parent RSPO: 107586"
            }
        },
        {
            "id": 118759,
            "type": "Feature",
            "geometry": {
                "type": "Point",
                "coordinates": [
                    19.035190582275,
                    54.03064171875
                ]
            },
            "properties": {
                "ref:rspo": 118759,
                "official_name": "Centrum Kszta\u0142cenia Ustawicznego",
                "name": "Centrum Kszta\u0142cenia Ustawicznego",
                "addr:country": "PL",
                "addr:postcode": "82-200",
                "addr:city": "Malbork",
                "addr:street": "ul. gen. de Gaulle'a",
                "addr:housenumber": "75a",
                "addr:teryt:simc": 5362,
                "addr:teryt:sym_ul": 932815,
                "contact:phone": "+48 556476778",
                "contact:email": "sekretariat@cez.malbork.pl",
                "contact:website": "http:\/\/www.cez.malbork.pl",
                "ref:regon": "221502064",
                "ref:vatin": "PL5792051204",
                "operator": "Powiat Malborski",
                "operator:type": "government",
                "amenity": "school",
                "fixme": "amenity=school lub amenity=college",
                "note": "Children RSPO: 118822Parent RSPO: 107586"
            }
        },
        {
            "id": 264156,
            "type": "Feature",
            "geometry": {
                "type": "Point",
                "coordinates": [
                    19.035190582275,
                    54.03061171875
                ]
            },
            "properties": {
                "isced:level": "1;2",
                "ref:rspo": 264156,
                "official_name": "Szko\u0142a Podstawowa dla Doros\u0142ych",
                "name": "Szko\u0142a Podstawowa dla Doros\u0142ych",
                "addr:country": "PL",
                "addr:postcode": "82-200",
                "addr:city": "Malbork",
                "addr:street": "ul. gen. de Gaulle'a",
                "addr:housenumber": "75",
                "addr:teryt:simc": 5362,
                "addr:teryt:sym_ul": 932815,
                "contact:phone": "+48 556476778",
                "contact:email": "sekretariat@cez.malbork.pl",
                "contact:website": "http:\/\/www.cez.malbork.pl",
                "ref:regon": "368274755",
                "operator": "Powiat Malborski",
                "operator:type": "government",
                "amenity": "school",
                "note": "Parent RSPO: 107586"
            }
        },
        {
            "id": 118822,
            "type": "Feature",
            "geometry": {
                "type": "Point",
                "coordinates": [
                    19.035190582275,
                    54.03058171875
                ]
            },
            "properties": {
                "isced:level": "3",
                "ref:rspo": 118822,
                "official_name": "Liceum Og\u00f3lnokszta\u0142c\u0105ce dla Doros\u0142ych",
                "name": "Liceum Og\u00f3lnokszta\u0142c\u0105ce dla Doros\u0142ych",
                "addr:country": "PL",
                "addr:postcode": "82-200",
                "addr:city": "Malbork",
                "addr:street": "ul. gen. de Gaulle'a",
                "addr:housenumber": "75a",
                "addr:teryt:simc": 5362,
                "addr:teryt:sym_ul": 932815,
                "contact:phone": "+48 556476778",
                "contact:email": "sekretariat@cez.malbork.pl",
                "contact:website": "http:\/\/www.cez.malbork.pl",
                "ref:regon": "221525830",
                "ref:vatin": "PL5792051204",
                "operator": "Powiat Malborski",
                "operator:type": "government",
                "amenity": "school",
                "note": "Parent RSPO: 118759"
            }
        },
        {
            "id": 48660,
            "type": "Feature",
            "geometry": {
                "type": "Point",
                "coordinates": [
                    19.0360799,
                    54.03186
                ]
            },
            "properties": {
                "ref:rspo": 48660,
                "official_name": "Przedszkole Nr 10 w Malborku",
                "name": "Przedszkole Nr 10 w Malborku",
                "addr:country": "PL",
                "addr:postcode": "82-200",
                "addr:city": "Malbork",
                "addr:street": "ul. W\u0142adys\u0142awa Stanis\u0142awa Reymonta",
                "addr:housenumber": "3",
                "addr:teryt:simc": 18652,
                "addr:teryt:sym_ul": 932815,
                "contact:phone": "+48 552723221",
                "contact:email": "przedszkolenr10malbork@wp.pl",
                "ref:regon": "170019938",
                "ref:vatin": "PL5792135013",
                "operator": "Miasto Malbork",
                "operator:type": "government",
                "amenity": "kindergarten"
            }
        },
        {
            "id": 49125,
            "type": "Feature",
            "geometry": {
                "type": "Point",
                "coordinates": [
                    19.02528,
                    54.03197
                ]
            },
            "properties": {
                "ref:rspo": 49125,
                "official_name": "Przedszkole Niepubliczne \"Bratek II\" El\u017cbieta Zalewska",
                "name": "Przedszkole Niepubliczne \"Bratek II\" El\u017cbieta Zalewska",
                "addr:country": "PL",
                "addr:postcode": "82-200",
                "addr:city": "Malbork",
                "addr:street": "ul. Hieronima Derdowskiego",
                "addr:housenumber": "3",
                "addr:teryt:simc": 3769,
                "addr:teryt:sym_ul": 932815,
                "contact:phone": "+48 552722526",
                "contact:email": "elzbietazalewska@op.pl",
                "ref:regon": "221763675",
                "ref:vatin": "PL5791103927",
                "operator": "El\u017cbieta Zalewska",
                "operator:type": "private",
                "amenity": "kindergarten"
            }
        },
        {
            "id": 22606,
            "type": "Feature",
            "geometry": {
                "type": "Point",
                "coordinates": [
                    19.02692,
                    54.03219
                ]
            },
            "properties": {
                "ref:rspo": 22606,
                "official_name": "Przedszkole Niepubliczne T\u0119cza Wies\u0142awa Wiedemann w Malborku",
                "name": "Przedszkole Niepubliczne T\u0119cza Wies\u0142awa Wiedemann w Malborku",
                "addr:country": "PL",
                "addr:postcode": "82-200",
                "addr:city": "Malbork",
                "addr:street": "ul. 17 Marca",
                "addr:housenumber": "16",
                "addr:teryt:simc": 12252,
                "addr:teryt:sym_ul": 932815,
                "contact:phone": "+48 552722536",
                "contact:email": "pntecza@onet.pl",
                "contact:website": "http:\/\/www.ptecza.republika.pl",
                "ref:regon": "221752186",
                "ref:vatin": "PL5791292288",
                "operator": "Wies\u0142awa Wiedemann",
                "operator:type": "private",
                "amenity": "kindergarten"
            }
        },
        {
            "id": 132733,
            "type": "Feature",
            "geometry": {
                "type": "Point",
                "coordinates": [
                    19.0259079,
                    54.0323452
                ]
            },
            "properties": {
                "ref:rspo": 132733,
                "official_name": "Niepubliczne Dwuj\u0119zykowe Przedszkole Montessori House",
                "name": "Niepubliczne Dwuj\u0119zykowe Przedszkole Montessori House",
                "addr:country": "PL",
                "addr:postcode": "82-200",
                "addr:city": "Malbork",
                "addr:street": "ul. Jana Kasprowicza",
                "addr:housenumber": "3A",
                "addr:teryt:simc": 8153,
                "addr:teryt:sym_ul": 932815,
                "contact:phone": "+48 606727556",
                "contact:email": "e_grenda@tlen.pl",
                "ref:regon": "366152663",
                "ref:vatin": "PL5920003666",
                "operator": "J\u00f3zef Peka",
                "operator:type": "private",
                "amenity": "kindergarten"
            }
        },
        {
            "id": 57131,
            "type": "Feature",
            "geometry": {
                "type": "Point",
                "coordinates": [
                    19.03653,
                    54.03238
                ]
            },
            "properties": {
                "ref:rspo": 57131,
                "official_name": "Zesp\u00f3\u0142 Szk\u00f3\u0142 Katolickich im. \u015aw. Jana Paw\u0142a Ii",
                "name": "Zesp\u00f3\u0142 Szk\u00f3\u0142 Katolickich",
                "addr:country": "PL",
                "addr:postcode": "82-200",
                "addr:city": "Malbork",
                "addr:street": "ul. W\u0142adys\u0142awa Stanis\u0142awa Reymonta",
                "addr:housenumber": "24",
                "addr:teryt:simc": 18652,
                "addr:teryt:sym_ul": 932815,
                "contact:phone": "+48 556471929",
                "contact:email": "kat.gim@interia.pl",
                "ref:regon": "221771315",
                "ref:vatin": "PL5792088118",
                "operator": "Parafia Rzym.-Kat. Pw. Matki Boskiej Nieustaj\u0105cej Pomocy",
                "operator:type": "cooperative",
                "landuse": "education",
                "fixme": "amenity=school, amenity=college albo landuse=education w zale\u017cno\u015bci od tego, jakie plac\u00f3wki wchodz\u0105 w sk\u0142ad zespo\u0142u. Sprawd\u017a, kiedy stosowa\u0107 amenity=* a kiedy landuse=education.",
                "note": "Children RSPO: 83317;118870"
            }
        },
        {
            "id": 83317,
            "type": "Feature",
            "geometry": {
                "type": "Point",
                "coordinates": [
                    19.03653,
                    54.03235
                ]
            },
            "properties": {
                "isced:level": "3",
                "ref:rspo": 83317,
                "official_name": "Publiczne Katolickie Liceum Og\u00f3lnokszta\u0142c\u0105ce",
                "name": "Publiczne Katolickie Liceum Og\u00f3lnokszta\u0142c\u0105ce",
                "addr:country": "PL",
                "addr:postcode": "82-200",
                "addr:city": "Malbork",
                "addr:street": "ul. W\u0142adys\u0142awa Reymonta",
                "addr:housenumber": "24",
                "addr:teryt:simc": 18648,
                "addr:teryt:sym_ul": 932815,
                "contact:phone": "+48 556471929",
                "contact:email": "kat.gim@interia.pl",
                "contact:website": "http:\/\/www.gimnazjumkatolickie.malbork.opoka.net.pl",
                "ref:regon": "221780060",
                "ref:vatin": "PL5791824006",
                "operator": "Parafia Rzym.-Kat. Pw. Matki Boskiej Nieustaj\u0105cej Pomocy",
                "operator:type": "cooperative",
                "amenity": "school",
                "note": "Parent RSPO: 57131"
            }
        },
        {
            "id": 118870,
            "type": "Feature",
            "geometry": {
                "type": "Point",
                "coordinates": [
                    19.03653,
                    54.032320000000006
                ]
            },
            "properties": {
                "isced:level": "1;2",
                "ref:rspo": 118870,
                "official_name": "Publiczna Katolicka Szko\u0142a Podstawowa Z Oddzia\u0142ami Przedszkolnymi",
                "name": "Publiczna Katolicka Szko\u0142a Podstawowa Z Oddzia\u0142ami Przedszkolnymi",
                "addr:country": "PL",
                "addr:postcode": "82-200",
                "addr:city": "Malbork",
                "addr:street": "ul. W\u0142adys\u0142awa Stanis\u0142awa Reymonta",
                "addr:housenumber": "24",
                "addr:teryt:simc": 18652,
                "addr:teryt:sym_ul": 932815,
                "contact:phone": "+48 556471929",
                "contact:email": "kat.gim@interia.pl",
                "contact:website": "http:\/\/katolik.szkolnastrona.pl",
                "ref:regon": "221937052",
                "operator": "Parafia Rzym.-Kat. Pw. Matki Boskiej Nieustaj\u0105cej Pomocy",
                "operator:type": "cooperative",
                "amenity": "school",
                "note": "Parent RSPO: 57131"
            }
        },
        {
            "id": 35298,
            "type": "Feature",
            "geometry": {
                "type": "Point",
                "coordinates": [
                    19.03149,
                    54.03242
                ]
            },
            "properties": {
                "ref:rspo": 35298,
                "official_name": "Przedszkole Nr 8 w Malborku",
                "name": "Przedszkole Nr 8 w Malborku",
                "addr:country": "PL",
                "addr:postcode": "82-200",
                "addr:city": "Malbork",
                "addr:street": "ul. Adama Mickiewicza",
                "addr:housenumber": "40",
                "addr:teryt:simc": 12740,
                "addr:teryt:sym_ul": 932815,
                "contact:phone": "+48 552722154",
                "contact:email": "przedszkole@osemka.malbork.pl",
                "ref:regon": "170019921",
                "ref:vatin": "PL5792134976",
                "operator": "Miasto Malbork",
                "operator:type": "government",
                "amenity": "kindergarten"
            }
        },
        {
            "id": 133660,
            "type": "Feature",
            "geometry": {
                "type": "Point",
                "coordinates": [
                    19.02664,
                    54.03368
                ]
            },
            "properties": {
                "isced:level": "1;2",
                "ref:rspo": 133660,
                "official_name": "Szko\u0142a Podstawowa Nr 1 im. Jana III Sobieskiego w Malborku",
                "name": "Szko\u0142a Podstawowa Nr 1",
                "addr:country": "PL",
                "addr:postcode": "82-200",
                "addr:city": "Malbork",
                "addr:street": "ul. Stefana \u017beromskiego",
                "addr:housenumber": "45",
                "addr:teryt:simc": 26469,
                "addr:teryt:sym_ul": 932815,
                "contact:phone": "+48 552722511",
                "contact:email": "sekretariat@g1.malbork.pl",
                "contact:website": "http:\/\/www.g1.malbork.pl",
                "ref:regon": "367519605",
                "ref:vatin": "PL5792262409",
                "operator": "Miasto Malbork",
                "operator:type": "government",
                "amenity": "school"
            }
        },
        {
            "id": 71243,
            "type": "Feature",
            "geometry": {
                "type": "Point",
                "coordinates": [
                    19.0275399,
                    54.03452
                ]
            },
            "properties": {
                "isced:level": "3",
                "ref:rspo": 71243,
                "official_name": "I Liceum Og\u00f3lnokszta\u0142c\u0105ce im. Henryka Sienkiewicza",
                "name": "I Liceum Og\u00f3lnokszta\u0142c\u0105ce",
                "addr:country": "PL",
                "addr:postcode": "82-200",
                "addr:city": "Malbork",
                "addr:street": "ul. 17 Marca",
                "addr:housenumber": "6",
                "addr:teryt:simc": 12252,
                "addr:teryt:sym_ul": 932815,
                "contact:phone": "+48 552722422",
                "contact:email": "sekretariat@lo1malbork.pl",
                "contact:website": "http:\/\/www.lo1malbork.pl",
                "ref:regon": "192995838",
                "ref:vatin": "PL5792259867",
                "operator": "Powiat Malborski",
                "operator:type": "government",
                "amenity": "school"
            }
        },
        {
            "id": 111374,
            "type": "Feature",
            "geometry": {
                "type": "Point",
                "coordinates": [
                    19.024606646562,
                    54.034571117477
                ]
            },
            "properties": {
                "ref:rspo": 111374,
                "official_name": "Pedagogiczna Biblioteka Wojew\u00f3dzka w Gda\u0144sku Filia w Malborku",
                "name": "Pedagogiczna Biblioteka Wojew\u00f3dzka w Gda\u0144sku Filia w Malborku",
                "addr:country": "PL",
                "addr:postcode": "82-200",
                "addr:city": "Malbork",
                "addr:street": "pl. Plac S\u0142owia\u0144ski",
                "addr:housenumber": "5",
                "addr:teryt:simc": 38513,
                "addr:teryt:sym_ul": 932815,
                "contact:phone": "+48 552722514",
                "contact:email": "pbwmalbork@pbw.it.pl",
                "ref:regon": "191688264",
                "operator": "Wojew\u00f3dztwo Pomorskie",
                "operator:type": "government",
                "amenity": "library",
                "note": "Parent RSPO: 9619"
            }
        },
        {
            "id": 24839,
            "type": "Feature",
            "geometry": {
                "type": "Point",
                "coordinates": [
                    19.02462,
                    54.03458
                ]
            },
            "properties": {
                "ref:rspo": 24839,
                "official_name": "Pa\u0144stwowa Szko\u0142a Muzyczna I St. im. Ignacego Jana Paderewskiego w Malborku",
                "name": "Pa\u0144stwowa Szko\u0142a Muzyczna I St.",
                "addr:country": "PL",
                "addr:postcode": "82-200",
                "addr:city": "Malbork",
                "addr:street": "pl. S\u0142owia\u0144ski",
                "addr:housenumber": "18",
                "addr:teryt:simc": 20295,
                "addr:teryt:sym_ul": 932815,
                "contact:phone": "+48 552723158",
                "contact:email": "psmmalbork@list.pl",
                "contact:website": "http:\/\/psmmalbork.pl",
                "ref:regon": "000278735",
                "operator": "Ministerstwo Kultury I Dziedzictwa Narodowego",
                "operator:type": "public",
                "amenity": "music_school"
            }
        },
        {
            "id": 48661,
            "type": "Feature",
            "geometry": {
                "type": "Point",
                "coordinates": [
                    19.02783,
                    54.03591
                ]
            },
            "properties": {
                "ref:rspo": 48661,
                "official_name": "Przedszkole Nr 5 im. Dzieci Z Zamkowego Wzg\u00f3rza w Malborku",
                "name": "Przedszkole Nr 5",
                "addr:country": "PL",
                "addr:postcode": "82-200",
                "addr:city": "Malbork",
                "addr:street": "ul. Wincentego Witosa",
                "addr:housenumber": "10",
                "addr:teryt:simc": 24459,
                "addr:teryt:sym_ul": 932815,
                "contact:phone": "+48 552723652",
                "contact:email": "przedszkolenr5@poczta.onet.pl",
                "ref:regon": "170019878",
                "ref:vatin": "PL5792134982",
                "operator": "Miasto Malbork",
                "operator:type": "government",
                "amenity": "kindergarten"
            }
        },
        {
            "id": 89766,
            "type": "Feature",
            "geometry": {
                "type": "Point",
                "coordinates": [
                    19.05647,
                    54.03602
                ]
            },
            "properties": {
                "ref:rspo": 89766,
                "official_name": "Centrum Szkoleniowe \"J&J\" Niepubliczna Plac\u00f3wka Kszta\u0142cenia Ustawicznego",
                "name": "Centrum Szkoleniowe \"J&J\" Niepubliczna Plac\u00f3wka Kszta\u0142cenia Ustawicznego",
                "addr:country": "PL",
                "addr:postcode": "82-200",
                "addr:city": "Malbork",
                "addr:street": "ul. Aleja Wojska Polskiego",
                "addr:housenumber": "499",
                "addr:teryt:simc": 33764,
                "addr:teryt:sym_ul": 932815,
                "contact:phone": "+48 552735085",
                "contact:email": "cs@j-j.pl",
                "ref:regon": "221784252",
                "ref:vatin": "PL5791996055",
                "operator": "Safety Group \"J&J\" S.c. Jaros\u0142aw Filipczak (Wsp\u00f3lnik Sp\u00f3\u0142ki Cywilnej); Creator Jaros\u0142aw Filipczak",
                "operator:type": "consortium",
                "fixme": "w zale\u017cno\u015bci od przedmiotu dzia\u0142alno\u015bci (np. amenity=training + training=*, amenity=dancing_school, amenity=language_school, amenity=music_school)"
            }
        },
        {
            "id": 105623,
            "type": "Feature",
            "geometry": {
                "type": "Point",
                "coordinates": [
                    19.05647,
                    54.03599
                ]
            },
            "properties": {
                "ref:rspo": 105623,
                "official_name": "Centrum Szkoleniowe",
                "name": "Centrum Szkoleniowe",
                "addr:country": "PL",
                "addr:postcode": "82-200",
                "addr:city": "Malbork",
                "addr:street": "ul. Aleja Wojska Polskiego",
                "addr:housenumber": "499",
                "addr:teryt:simc": 33764,
                "addr:teryt:sym_ul": 932815,
                "contact:phone": "+48 552729724",
                "contact:email": "dyrektor@c.s.malbork.pl",
                "ref:regon": "221801559",
                "ref:vatin": "PL5791103838",
                "operator": "Iwona B\u0142aszczyk",
                "operator:type": "private",
                "fixme": "w zale\u017cno\u015bci od przedmiotu dzia\u0142alno\u015bci (np. amenity=training + training=*, amenity=dancing_school, amenity=language_school, amenity=music_school)"
            }
        },
        {
            "id": 20515,
            "type": "Feature",
            "geometry": {
                "type": "Point",
                "coordinates": [
                    19.0531,
                    54.03607
                ]
            },
            "properties": {
                "ref:rspo": 20515,
                "official_name": "Zesp\u00f3\u0142 Szk\u00f3\u0142 Ponadgimnazjalnych Nr 3",
                "name": "Zesp\u00f3\u0142 Szk\u00f3\u0142 Ponadgimnazjalnych Nr 3",
                "addr:country": "PL",
                "addr:postcode": "82-200",
                "addr:city": "Malbork",
                "addr:street": "ul. Aleja Wojska Polskiego",
                "addr:housenumber": "502",
                "addr:teryt:simc": 33764,
                "addr:teryt:sym_ul": 932815,
                "contact:phone": "+48 556460630",
                "contact:email": "dyrektor@tech3.malbork.pl",
                "contact:website": "http:\/\/tech3.malbork.pl",
                "ref:regon": "192078875",
                "ref:vatin": "PL5791576749",
                "operator": "Powiat Malborski",
                "operator:type": "government",
                "landuse": "education",
                "fixme": "amenity=school, amenity=college albo landuse=education w zale\u017cno\u015bci od tego, jakie plac\u00f3wki wchodz\u0105 w sk\u0142ad zespo\u0142u. Sprawd\u017a, kiedy stosowa\u0107 amenity=* a kiedy landuse=education.",
                "note": "Children RSPO: 69238;69900"
            }
        },
        {
            "id": 69238,
            "type": "Feature",
            "geometry": {
                "type": "Point",
                "coordinates": [
                    19.0531,
                    54.03604
                ]
            },
            "properties": {
                "isced:level": "3",
                "ref:rspo": 69238,
                "official_name": "Technikum Nr 3",
                "name": "Technikum Nr 3",
                "addr:country": "PL",
                "addr:postcode": "82-200",
                "addr:city": "Malbork",
                "addr:street": "ul. Aleja Wojska Polskiego",
                "addr:housenumber": "502",
                "addr:teryt:simc": 33764,
                "addr:teryt:sym_ul": 932815,
                "contact:phone": "+48 556460630",
                "contact:email": "dyrektor@tech3.malbork.pl",
                "contact:website": "http:\/\/tech3.malbork.pl",
                "ref:regon": "192806040",
                "ref:vatin": "PL5791576749",
                "operator": "Powiat Malborski",
                "operator:type": "government",
                "amenity": "school",
                "note": "Parent RSPO: 20515"
            }
        },
        {
            "id": 69900,
            "type": "Feature",
            "geometry": {
                "type": "Point",
                "coordinates": [
                    19.0531,
                    54.036010000000005
                ]
            },
            "properties": {
                "isced:level": "3",
                "ref:rspo": 69900,
                "official_name": "Bran\u017cowa Szko\u0142a I Stopnia Nr 3",
                "name": "Bran\u017cowa Szko\u0142a I Stopnia Nr 3",
                "addr:country": "PL",
                "addr:postcode": "82-200",
                "addr:city": "Malbork",
                "addr:street": "ul. Aleja Wojska Polskiego",
                "addr:housenumber": "502",
                "addr:teryt:simc": 33764,
                "addr:teryt:sym_ul": 932815,
                "contact:phone": "+48 556460630",
                "contact:email": "dyrektor@tech3.malbork.pl",
                "contact:website": "http:\/\/tech3.malbork.pl",
                "ref:regon": "192806091",
                "ref:vatin": "PL5791576749",
                "operator": "Powiat Malborski",
                "operator:type": "government",
                "amenity": "school",
                "note": "Parent RSPO: 20515"
            }
        },
        {
            "id": 71328,
            "type": "Feature",
            "geometry": {
                "type": "Point",
                "coordinates": [
                    19.05465,
                    54.03667
                ]
            },
            "properties": {
                "isced:level": "3",
                "ref:rspo": 71328,
                "official_name": "Ii Liceum Og\u00f3lnokszta\u0142c\u0105ce",
                "name": "Ii Liceum Og\u00f3lnokszta\u0142c\u0105ce",
                "addr:country": "PL",
                "addr:postcode": "82-200",
                "addr:city": "Malbork",
                "addr:street": "ul. Aleja Wojska Polskiego",
                "addr:housenumber": "493",
                "addr:teryt:simc": 33764,
                "addr:teryt:sym_ul": 932815,
                "contact:phone": "+48 556471901",
                "contact:email": "liceum@malbork.org",
                "contact:website": "http:\/\/www.zsp2malbork.ehost.pl",
                "ref:regon": "192797015",
                "ref:vatin": "PL5791560033",
                "operator": "Powiat Malborski",
                "operator:type": "government",
                "amenity": "school"
            }
        },
        {
            "id": 56973,
            "type": "Feature",
            "geometry": {
                "type": "Point",
                "coordinates": [
                    19.06004,
                    54.03673
                ]
            },
            "properties": {
                "isced:level": "1;2",
                "ref:rspo": 56973,
                "official_name": "Szko\u0142a Podstawowa Nr 2 im. Ignacego Krasickiego w Malborku",
                "name": "Szko\u0142a Podstawowa Nr 2",
                "addr:country": "PL",
                "addr:postcode": "82-200",
                "addr:city": "Malbork",
                "addr:street": "al. Wojska Polskiego",
                "addr:housenumber": "479",
                "addr:teryt:simc": 24623,
                "addr:teryt:sym_ul": 932815,
                "contact:phone": "+48 552723710",
                "contact:email": "sp2-malbork@wp.pl",
                "ref:regon": "001121941",
                "ref:vatin": "PL5792262757",
                "operator": "Miasto Malbork",
                "operator:type": "government",
                "amenity": "school"
            }
        },
        {
            "id": 49843,
            "type": "Feature",
            "geometry": {
                "type": "Point",
                "coordinates": [
                    19.07111,
                    54.03875
                ]
            },
            "properties": {
                "ref:rspo": 49843,
                "official_name": "Przedszkole Niepubliczne \"Pod Kasztanami\" Wioletta Czapla w Malborku",
                "name": "Przedszkole Niepubliczne \"Pod Kasztanami\" Wioletta Czapla w Malborku",
                "addr:country": "PL",
                "addr:postcode": "82-200",
                "addr:city": "Malbork",
                "addr:street": "ul. Zieleniecka",
                "addr:housenumber": "15",
                "addr:teryt:simc": 26055,
                "addr:teryt:sym_ul": 932815,
                "contact:email": "p2malbork@vp.pl",
                "ref:regon": "221764367",
                "ref:vatin": "PL5791448810",
                "operator": "Wioletta Czapla",
                "operator:type": "private",
                "amenity": "kindergarten"
            }
        },
        {
            "id": 18266,
            "type": "Feature",
            "geometry": {
                "type": "Point",
                "coordinates": [
                    19.03424,
                    54.03904
                ]
            },
            "properties": {
                "isced:level": "1;2",
                "ref:rspo": 18266,
                "official_name": "Szko\u0142a Podstawowa Nr 9 im. Kazimierza Jagiello\u0144czyka w Malborku",
                "name": "Szko\u0142a Podstawowa Nr 9",
                "addr:country": "PL",
                "addr:postcode": "82-200",
                "addr:city": "Malbork",
                "addr:street": "pl. Gabriela Narutowicza",
                "addr:housenumber": "15",
                "addr:teryt:simc": 14016,
                "addr:teryt:sym_ul": 932815,
                "contact:phone": "+48 552722253",
                "contact:email": "sp9malbork@wp.pl",
                "contact:website": "http:\/\/www.sp9.malbork.pl",
                "ref:regon": "001121970",
                "ref:vatin": "PL5791923487",
                "operator": "Miasto Malbork",
                "operator:type": "government",
                "amenity": "school"
            }
        },
        {
            "id": 16289,
            "type": "Feature",
            "geometry": {
                "type": "Point",
                "coordinates": [
                    19.03302,
                    54.03953
                ]
            },
            "properties": {
                "ref:rspo": 16289,
                "official_name": "Zesp\u00f3\u0142 Szk\u00f3\u0142 Ponadgimnazjalnych Nr 4",
                "name": "Zesp\u00f3\u0142 Szk\u00f3\u0142 Ponadgimnazjalnych Nr 4",
                "addr:country": "PL",
                "addr:postcode": "82-200",
                "addr:city": "Malbork",
                "addr:street": "pl. Pl. Gabriela Narutowicza",
                "addr:housenumber": "14",
                "addr:teryt:simc": 52543,
                "addr:teryt:sym_ul": 932815,
                "contact:phone": "+48 556473434",
                "contact:email": "zsp4@zsp4.malbork.pl",
                "contact:website": "http:\/\/www.zsp4.malbork.pl",
                "ref:regon": "000196919",
                "ref:vatin": "PL5791552648",
                "operator": "Powiat Malborski",
                "operator:type": "government",
                "landuse": "education",
                "fixme": "amenity=school, amenity=college albo landuse=education w zale\u017cno\u015bci od tego, jakie plac\u00f3wki wchodz\u0105 w sk\u0142ad zespo\u0142u. Sprawd\u017a, kiedy stosowa\u0107 amenity=* a kiedy landuse=education.",
                "note": "Children RSPO: 28126;28128;28129;262965;274793"
            }
        },
        {
            "id": 28126,
            "type": "Feature",
            "geometry": {
                "type": "Point",
                "coordinates": [
                    19.03302,
                    54.0395
                ]
            },
            "properties": {
                "isced:level": "3",
                "ref:rspo": 28126,
                "official_name": "Bran\u017cowa Szko\u0142a I Stopnia Nr 1",
                "name": "Bran\u017cowa Szko\u0142a I Stopnia Nr 1",
                "addr:country": "PL",
                "addr:postcode": "82-200",
                "addr:city": "Malbork",
                "addr:street": "pl. Pl. Gabriela Narutowicza",
                "addr:housenumber": "14",
                "addr:teryt:simc": 52543,
                "addr:teryt:sym_ul": 932815,
                "contact:phone": "+48 556473434",
                "contact:email": "zsp4@zsp4.malbork.pl",
                "contact:website": "http:\/\/www.zsp4.malbork.pl",
                "ref:regon": "192826656",
                "ref:vatin": "PL5791552648",
                "operator": "Powiat Malborski",
                "operator:type": "government",
                "amenity": "school",
                "note": "Parent RSPO: 16289"
            }
        },
        {
            "id": 28128,
            "type": "Feature",
            "geometry": {
                "type": "Point",
                "coordinates": [
                    19.03302,
                    54.03947
                ]
            },
            "properties": {
                "isced:level": "3",
                "ref:rspo": 28128,
                "official_name": "Technikum Nr 2",
                "name": "Technikum Nr 2",
                "addr:country": "PL",
                "addr:postcode": "82-200",
                "addr:city": "Malbork",
                "addr:street": "pl. Pl. Gabriela Narutowicza",
                "addr:housenumber": "14",
                "addr:teryt:simc": 52543,
                "addr:teryt:sym_ul": 932815,
                "contact:phone": "+48 556473434",
                "contact:email": "zsp4@zsp4.malbork.pl",
                "contact:website": "http:\/\/www.zsp4.malbork.pl",
                "ref:regon": "192825912",
                "ref:vatin": "PL5791552648",
                "operator": "Powiat Malborski",
                "operator:type": "government",
                "amenity": "school",
                "note": "Parent RSPO: 16289"
            }
        },
        {
            "id": 28129,
            "type": "Feature",
            "geometry": {
                "type": "Point",
                "coordinates": [
                    19.03302,
                    54.03944
                ]
            },
            "properties": {
                "isced:level": "3",
                "ref:rspo": 28129,
                "official_name": "Iv Liceum Og\u00f3lnokszta\u0142c\u0105ce",
                "name": "Iv Liceum Og\u00f3lnokszta\u0142c\u0105ce",
                "addr:country": "PL",
                "addr:postcode": "82-200",
                "addr:city": "Malbork",
                "addr:street": "pl. Pl. Gabriela Narutowicza",
                "addr:housenumber": "14",
                "addr:teryt:simc": 52543,
                "addr:teryt:sym_ul": 932815,
                "contact:phone": "+48 556473434",
                "contact:email": "zsp4@zsp4.malbork.pl",
                "contact:website": "http:\/\/www.zsp4.malbork.pl",
                "ref:regon": "192996766",
                "ref:vatin": "PL5791552648",
                "operator": "Powiat Malborski",
                "operator:type": "government",
                "amenity": "school",
                "note": "Parent RSPO: 16289"
            }
        },
        {
            "id": 262965,
            "type": "Feature",
            "geometry": {
                "type": "Point",
                "coordinates": [
                    19.03302,
                    54.03941
                ]
            },
            "properties": {
                "isced:level": "1;2",
                "ref:rspo": 262965,
                "official_name": "Szko\u0142a Mistrzostwa Sportowego",
                "name": "Szko\u0142a Mistrzostwa Sportowego",
                "addr:country": "PL",
                "addr:postcode": "82-200",
                "addr:city": "Malbork",
                "addr:street": "pl. Pl. Gabriela Narutowicza",
                "addr:housenumber": "14",
                "addr:teryt:simc": 52543,
                "addr:teryt:sym_ul": 932815,
                "contact:phone": "+48 556473434",
                "contact:email": "zsp4@zsp4.malbork.pl",
                "contact:website": "http:\/\/www.zsp4.malbork.pl",
                "ref:regon": "368081170",
                "operator": "Powiat Malborski",
                "operator:type": "government",
                "amenity": "school",
                "note": "Parent RSPO: 16289"
            }
        },
        {
            "id": 274793,
            "type": "Feature",
            "geometry": {
                "type": "Point",
                "coordinates": [
                    19.03302,
                    54.03938
                ]
            },
            "properties": {
                "isced:level": "3",
                "ref:rspo": 274793,
                "official_name": "Bran\u017cowa Szko\u0142a II Stopnia w Malborku",
                "name": "Bran\u017cowa Szko\u0142a II Stopnia w Malborku",
                "addr:country": "PL",
                "addr:postcode": "82-200",
                "addr:city": "Malbork",
                "addr:street": "pl. Pl. Gabriela Narutowicza",
                "addr:housenumber": "14",
                "addr:teryt:simc": 52543,
                "addr:teryt:sym_ul": 932815,
                "contact:phone": "+48 556473434",
                "contact:email": "zsp4@zsp4.malbork.pl",
                "contact:website": "http:\/\/www.zsp4.malbork.pl",
                "ref:regon": "386306926",
                "operator": "Powiat Malborski",
                "operator:type": "government",
                "amenity": "school",
                "note": "Parent RSPO: 16289"
            }
        },
        {
            "id": 69888,
            "type": "Feature",
            "geometry": {
                "type": "Point",
                "coordinates": [
                    19.06849,
                    54.04013
                ]
            },
            "properties": {
                "ref:rspo": 69888,
                "official_name": "O\u015brodek Szkolenia I Us\u0142ug J\u00f3zefa Zygan",
                "name": "O\u015brodek Szkolenia I Us\u0142ug J\u00f3zefa Zygan",
                "addr:country": "PL",
                "addr:postcode": "82-200",
                "addr:city": "Malbork",
                "addr:street": "ul. Lubelska",
                "addr:housenumber": "26",
                "addr:teryt:simc": 11307,
                "addr:teryt:sym_ul": 932815,
                "contact:phone": "+48 600253499",
                "contact:email": "zygan.j@wp.pl",
                "ref:regon": "221771769",
                "ref:vatin": "PL5791118627",
                "operator": "J\u00f3zefa Zygan",
                "operator:type": "private",
                "fixme": "w zale\u017cno\u015bci od przedmiotu dzia\u0142alno\u015bci (np. amenity=training + training=*, amenity=dancing_school, amenity=language_school, amenity=music_school) albo amenity=school, amenity=college, albo landuse=education w zale\u017cno\u015bci od tego, jakie plac\u00f3wki wchodz\u0105 w sk\u0142ad zespo\u0142u. Sprawd\u017a, kiedy stosowa\u0107 amenity=* a kiedy landuse=education."
            }
        },
        {
            "id": 68192,
            "type": "Feature",
            "geometry": {
                "type": "Point",
                "coordinates": [
                    19.01718,
                    54.04257
                ]
            },
            "properties": {
                "isced:level": "1;2",
                "ref:rspo": 68192,
                "official_name": "Szko\u0142a Podstawowa Nr 6 im. Jana Kochanowskiego w Malborku",
                "name": "Szko\u0142a Podstawowa Nr 6",
                "addr:country": "PL",
                "addr:postcode": "82-200",
                "addr:city": "Malbork",
                "addr:street": "ul. Tczewska",
                "addr:housenumber": "13",
                "addr:teryt:simc": 22722,
                "addr:teryt:sym_ul": 932815,
                "contact:phone": "+48 552722035",
                "contact:email": "szkola65@o2.pl",
                "contact:website": "http:\/\/sp6malbork.edupage.org",
                "ref:regon": "193011614",
                "ref:vatin": "PL5792262740",
                "operator": "Miasto Malbork",
                "operator:type": "government",
                "amenity": "school"
            }
        },
        {
            "id": 49925,
            "type": "Feature",
            "geometry": {
                "type": "Point",
                "coordinates": [
                    19.04745,
                    54.04327
                ]
            },
            "properties": {
                "ref:rspo": 49925,
                "official_name": "Przedszkole Niepubliczne \"Krasnal\" w Malborku",
                "name": "Przedszkole Niepubliczne \"Krasnal\" w Malborku",
                "addr:country": "PL",
                "addr:postcode": "82-200",
                "addr:city": "Malbork",
                "addr:street": "ul. Fryderyka Chopina",
                "addr:housenumber": "71",
                "addr:teryt:simc": 2849,
                "addr:teryt:sym_ul": 932815,
                "contact:phone": "+48 552722876",
                "contact:email": "krasnal7171@tlen.pl",
                "ref:regon": "221764574",
                "ref:vatin": "PL5791264197",
                "operator": "Dorota Czoprowska",
                "operator:type": "private",
                "amenity": "kindergarten"
            }
        },
        {
            "id": 53303,
            "type": "Feature",
            "geometry": {
                "type": "Point",
                "coordinates": [
                    19.02239,
                    54.04344
                ]
            },
            "properties": {
                "isced:level": "1;2",
                "ref:rspo": 53303,
                "official_name": "Szko\u0142a Podstawowa w Gminie Malbork",
                "name": "Szko\u0142a Podstawowa w Gminie Malbork",
                "addr:country": "PL",
                "addr:postcode": "82-200",
                "addr:city": "Malbork",
                "addr:street": "ul. G\u0142\u00f3wna",
                "addr:housenumber": "5",
                "addr:teryt:simc": 5635,
                "addr:teryt:sym_ul": 932815,
                "contact:phone": "+48 556472705",
                "contact:email": "spwgmalbork@wp.pl",
                "contact:website": "http:\/\/www.spwgmalbork.naszbip.pl\/",
                "ref:regon": "170004670",
                "ref:vatin": "PL5792262823",
                "operator": "Gmina Malbork",
                "operator:type": "government",
                "amenity": "school"
            }
        },
        {
            "id": 49328,
            "type": "Feature",
            "geometry": {
                "type": "Point",
                "coordinates": [
                    19.01836,
                    54.04438
                ]
            },
            "properties": {
                "ref:rspo": 49328,
                "official_name": "Przedszkole Niepubliczne \"Promyk\" w Malborku",
                "name": "Przedszkole Niepubliczne \"Promyk\" w Malborku",
                "addr:country": "PL",
                "addr:postcode": "82-200",
                "addr:city": "Malbork",
                "addr:street": "ul. Ko\u015bcielna",
                "addr:housenumber": "10",
                "addr:teryt:simc": 9546,
                "addr:teryt:sym_ul": 932815,
                "contact:phone": "+48 552722008",
                "contact:email": "promyk.malbork@gmail.com",
                "ref:regon": "221763729",
                "ref:vatin": "PL5791490605",
                "operator": "Iwona Kurpias",
                "operator:type": "private",
                "amenity": "kindergarten"
            }
        }
    ]
}