{
    "type": "FeatureCollection",
    "features": [
        {
            "id": 3868,
            "type": "Feature",
            "geometry": {
                "type": "Point",
                "coordinates": [
                    19.1386,
                    50.42469
                ]
            },
            "properties": {
                "isced:level": "1;2",
                "ref:rspo": 3868,
                "official_name": "Szko\u0142a Podstawowa w Toporowicach",
                "name": "Szko\u0142a Podstawowa w Toporowicach",
                "addr:country": "PL",
                "addr:postcode": "42-460",
                "addr:city": "Toporowice",
                "addr:street": "Czerwonego Zag\u0142\u0119bia",
                "addr:housenumber": "6",
                "addr:teryt:simc": 3436,
                "addr:teryt:sym_ul": 217395,
                "contact:phone": "+48 322887028",
                "contact:email": "sptoporowice@poczta.onet.pl",
                "ref:regon": "001233060",
                "ref:vatin": "PL6252146781",
                "operator": "Gmina Mierz\u0119cice",
                "operator:type": "government",
                "amenity": "school"
            }
        },
        {
            "id": 3848,
            "type": "Feature",
            "geometry": {
                "type": "Point",
                "coordinates": [
                    19.17339,
                    50.42747
                ]
            },
            "properties": {
                "isced:level": "1;2",
                "ref:rspo": 3848,
                "official_name": "Szko\u0142a Podstawowa im. Marii Konopnickiej w Przeczycach",
                "name": "Szko\u0142a Podstawowa",
                "addr:country": "PL",
                "addr:postcode": "42-460",
                "addr:city": "Przeczyce",
                "addr:street": "Tysi\u0105clecia",
                "addr:housenumber": "6",
                "addr:teryt:simc": 23270,
                "addr:teryt:sym_ul": 217260,
                "contact:phone": "+48 322887012",
                "contact:email": "spmkonopnicka@wp.pl",
                "contact:website": "http:\/\/spprzeczyce.szkolnastrona.pl",
                "ref:regon": "001191628",
                "ref:vatin": "PL6252146812",
                "operator": "Gmina Mierz\u0119cice",
                "operator:type": "government",
                "amenity": "school"
            }
        },
        {
            "id": 6815,
            "type": "Feature",
            "geometry": {
                "type": "Point",
                "coordinates": [
                    19.08759,
                    50.4365499
                ]
            },
            "properties": {
                "ref:rspo": 6815,
                "official_name": "Przedszkole Publiczne w Nowej Wsi",
                "name": "Przedszkole Publiczne w Nowej Wsi",
                "addr:country": "PL",
                "addr:postcode": "42-460",
                "addr:city": "Nowa Wie\u015b",
                "addr:street": "Aleksandra Zawadzkiego",
                "addr:housenumber": "159",
                "addr:teryt:simc": 25821,
                "addr:teryt:sym_ul": 217254,
                "contact:phone": "+48 322887020",
                "contact:email": "poczta@zsp.mierzecice.pl",
                "contact:website": "http:\/\/zsp.mierzecice.pl",
                "ref:regon": "271512419",
                "ref:vatin": "PL6252146870",
                "operator": "Gmina Mierz\u0119cice",
                "operator:type": "government",
                "amenity": "kindergarten"
            }
        },
        {
            "id": 3840,
            "type": "Feature",
            "geometry": {
                "type": "Point",
                "coordinates": [
                    19.1294,
                    50.44389
                ]
            },
            "properties": {
                "ref:rspo": 3840,
                "official_name": "Przedszkole Publiczne \"Radosny Zak\u0105tek\" w Mierz\u0119cicach",
                "name": "Przedszkole Publiczne \"Radosny Zak\u0105tek\" w Mierz\u0119cicach",
                "addr:country": "PL",
                "addr:postcode": "42-460",
                "addr:city": "Mierz\u0119cice",
                "addr:street": "Bankowa",
                "addr:housenumber": "24",
                "addr:teryt:simc": 692,
                "addr:teryt:sym_ul": 217165,
                "contact:phone": "+48 322887002",
                "contact:email": "poczta@pprz.mierzecice.pl",
                "contact:website": "http:\/\/przedszkolemierzecice.szkolnastrona.pl",
                "ref:regon": "271512425",
                "ref:vatin": "PL6252146924",
                "operator": "Gmina Mierz\u0119cice",
                "operator:type": "government",
                "amenity": "kindergarten"
            }
        },
        {
            "id": 6754,
            "type": "Feature",
            "geometry": {
                "type": "Point",
                "coordinates": [
                    19.12632,
                    50.44445
                ]
            },
            "properties": {
                "isced:level": "1;2",
                "ref:rspo": 6754,
                "official_name": "Szko\u0142a Podstawowa Nr 1 im. Tadeusza Ko\u015bciuszki w Mierz\u0119cicach",
                "name": "Szko\u0142a Podstawowa Nr 1",
                "addr:country": "PL",
                "addr:postcode": "42-460",
                "addr:city": "Mierz\u0119cice",
                "addr:street": "Wolno\u015bci",
                "addr:housenumber": "68",
                "addr:teryt:simc": 24687,
                "addr:teryt:sym_ul": 217165,
                "contact:phone": "+48 323910022",
                "contact:email": "poczta@sp1-mierzecice.pl",
                "contact:website": "http:\/\/sp1-mierzecice.pl",
                "ref:regon": "000268990",
                "ref:vatin": "PL6252146829",
                "operator": "Gmina Mierz\u0119cice",
                "operator:type": "government",
                "amenity": "school"
            }
        },
        {
            "id": 268545,
            "type": "Feature",
            "geometry": {
                "type": "Point",
                "coordinates": [
                    19.17369,
                    50.45362
                ]
            },
            "properties": {
                "isced:level": "1;2",
                "ref:rspo": 268545,
                "official_name": "Szko\u0142a Podstawowa w Boguchwa\u0142owicach",
                "name": "Szko\u0142a Podstawowa w Boguchwa\u0142owicach",
                "addr:country": "PL",
                "addr:postcode": "42-460",
                "addr:city": "Boguchwa\u0142owice",
                "addr:street": "Mariana Buczka",
                "addr:housenumber": "1",
                "addr:teryt:simc": 2315,
                "addr:teryt:sym_ul": 217159,
                "contact:phone": "+48 322887019",
                "contact:email": "poczta@spbce.mierzecice.pl",
                "ref:regon": "381200809",
                "ref:vatin": "PL6252146835",
                "operator": "Gmina Mierz\u0119cice",
                "operator:type": "government",
                "amenity": "school"
            }
        },
        {
            "id": 6762,
            "type": "Feature",
            "geometry": {
                "type": "Point",
                "coordinates": [
                    19.0951,
                    50.45995
                ]
            },
            "properties": {
                "isced:level": "1;2",
                "ref:rspo": 6762,
                "official_name": "Szko\u0142a Podstawowa Nr 2 im. Lotnik\u00f3w Polskich w Mierz\u0119cicach",
                "name": "Szko\u0142a Podstawowa Nr 2",
                "addr:country": "PL",
                "addr:postcode": "42-460",
                "addr:city": "Mierz\u0119cice",
                "addr:street": "Kolejowa",
                "addr:housenumber": "122",
                "addr:teryt:simc": 8828,
                "addr:teryt:sym_ul": 217165,
                "contact:phone": "+48 322887076",
                "contact:email": "sp2mierzecice@poczta.onet.pl",
                "contact:website": "http:\/\/sp2mierzecice.szkolnastrona.pl",
                "ref:regon": "001191611",
                "ref:vatin": "PL6252146775",
                "operator": "Gmina Mierz\u0119cice",
                "operator:type": "government",
                "amenity": "school"
            }
        }
    ]
}