{
    "type": "FeatureCollection",
    "features": [
        {
            "id": 4888,
            "type": "Feature",
            "geometry": {
                "type": "Point",
                "coordinates": [
                    19.2025,
                    50.4111
                ]
            },
            "properties": {
                "ref:rspo": 4888,
                "official_name": "Zesp\u00f3\u0142 Szkolno Przedszkolny w Wojkowicach Ko\u015bcielnych",
                "name": "Zesp\u00f3\u0142 Szkolno Przedszkolny w Wojkowicach Ko\u015bcielnych",
                "addr:country": "PL",
                "addr:postcode": "42-510",
                "addr:city": "Wojkowice Ko\u015bcielne",
                "addr:street": "Zachodnia",
                "addr:housenumber": "4",
                "addr:teryt:simc": 25305,
                "addr:teryt:sym_ul": 221698,
                "contact:phone": "+48 326741053",
                "contact:email": "sekretariat@zspwk.edu.pl",
                "contact:website": "http:\/\/www.zspwk.edu.pl",
                "ref:regon": "278080940",
                "ref:vatin": "PL6252225581",
                "operator": "Gmina Siewierz",
                "operator:type": "government",
                "landuse": "education",
                "fixme": "amenity=school, amenity=college albo landuse=education w zale\u017cno\u015bci od tego, jakie plac\u00f3wki wchodz\u0105 w sk\u0142ad zespo\u0142u. Sprawd\u017a, kiedy stosowa\u0107 amenity=* a kiedy landuse=education.",
                "note": "Children RSPO: 9472;9473"
            }
        },
        {
            "id": 9472,
            "type": "Feature",
            "geometry": {
                "type": "Point",
                "coordinates": [
                    19.2025,
                    50.411069999999995
                ]
            },
            "properties": {
                "isced:level": "1;2",
                "ref:rspo": 9472,
                "official_name": "Zesp\u00f3\u0142 Szkolno Przedszkolny w Wojkowicach Ko\u015bcielnych - Szko\u0142a Podstawawa im. Marii Sk\u0142odowskiej-Curie",
                "name": "Zesp\u00f3\u0142 Szkolno Przedszkolny w Wojkowicach Ko\u015bcielnych - Szko\u0142a Podstawawa",
                "addr:country": "PL",
                "addr:postcode": "42-510",
                "addr:city": "Wojkowice Ko\u015bcielne",
                "addr:street": "Zachodnia",
                "addr:housenumber": "4",
                "addr:teryt:simc": 25305,
                "addr:teryt:sym_ul": 221698,
                "contact:phone": "+48 326741053",
                "contact:email": "sekretariat@zspwk.edu.pl",
                "ref:regon": "001211963",
                "operator": "Gmina Siewierz",
                "operator:type": "government",
                "amenity": "school",
                "note": "Parent RSPO: 4888"
            }
        },
        {
            "id": 9473,
            "type": "Feature",
            "geometry": {
                "type": "Point",
                "coordinates": [
                    19.2025,
                    50.41104
                ]
            },
            "properties": {
                "ref:rspo": 9473,
                "official_name": "Zesp\u00f3\u0142 Szkolno Przedszkolny w Wojkowicach Ko\u015bcielnych - Przedszkole",
                "name": "Zesp\u00f3\u0142 Szkolno Przedszkolny w Wojkowicach Ko\u015bcielnych - Przedszkole",
                "addr:country": "PL",
                "addr:postcode": "42-510",
                "addr:city": "Wojkowice Ko\u015bcielne",
                "addr:street": "Zachodnia",
                "addr:housenumber": "4",
                "addr:teryt:simc": 25305,
                "addr:teryt:sym_ul": 221698,
                "contact:phone": "+48 326741053",
                "contact:email": "sekretariat@zspwk.edu.pl",
                "ref:regon": "278080986",
                "ref:vatin": "PL6252225581",
                "operator": "Gmina Siewierz",
                "operator:type": "government",
                "amenity": "kindergarten",
                "note": "Parent RSPO: 4888"
            }
        },
        {
            "id": 5141,
            "type": "Feature",
            "geometry": {
                "type": "Point",
                "coordinates": [
                    19.25583,
                    50.45632
                ]
            },
            "properties": {
                "isced:level": "1;2",
                "ref:rspo": 5141,
                "official_name": "Szko\u0142a Podstawowa Nr 2 w Siewierzu",
                "name": "Szko\u0142a Podstawowa Nr 2 w Siewierzu",
                "addr:country": "PL",
                "addr:postcode": "42-470",
                "addr:city": "Siewierz",
                "addr:street": "D\u0142uga",
                "addr:housenumber": "2",
                "addr:teryt:simc": 3839,
                "addr:teryt:sym_ul": 943204,
                "contact:phone": "+48 326741623",
                "contact:email": "sp2.siewierz@poczta.onet.pl",
                "ref:regon": "276878817",
                "ref:vatin": "PL6252137954",
                "operator": "Gmina Siewierz",
                "operator:type": "government",
                "amenity": "school"
            }
        },
        {
            "id": 276454,
            "type": "Feature",
            "geometry": {
                "type": "Point",
                "coordinates": [
                    19.23369,
                    50.46688
                ]
            },
            "properties": {
                "ref:rspo": 276454,
                "official_name": "Niepubliczne Przedszkole Jezioraczek",
                "name": "Niepubliczne Przedszkole Jezioraczek",
                "addr:country": "PL",
                "addr:postcode": "42-470",
                "addr:city": "Siewierz",
                "addr:street": "Dzikiej Wi\u015bni",
                "addr:housenumber": "4",
                "addr:teryt:simc": 46891,
                "addr:teryt:sym_ul": 943204,
                "contact:phone": "+48 504094886",
                "ref:regon": "387145684",
                "operator": "Beata Janyga",
                "operator:type": "private",
                "amenity": "kindergarten"
            }
        },
        {
            "id": 273183,
            "type": "Feature",
            "geometry": {
                "type": "Point",
                "coordinates": [
                    19.23896,
                    50.46909
                ]
            },
            "properties": {
                "ref:rspo": 273183,
                "official_name": "Niepubliczne Przedszkole \" \u015awiat Dziecka\"",
                "name": "Niepubliczne Przedszkole \" \u015awiat Dziecka\"",
                "addr:country": "PL",
                "addr:postcode": "42-470",
                "addr:city": "Siewierz",
                "addr:street": "Wolno\u015bci",
                "addr:housenumber": "2",
                "addr:teryt:simc": 24687,
                "addr:teryt:sym_ul": 943204,
                "contact:email": "nzip.swiatdziecka@gmail.com",
                "contact:website": "http:\/\/www.swiatdziecka.org.pl",
                "ref:regon": "384391477",
                "operator": "Piotr Mi\u0142och",
                "operator:type": "private",
                "amenity": "kindergarten"
            }
        },
        {
            "id": 4204,
            "type": "Feature",
            "geometry": {
                "type": "Point",
                "coordinates": [
                    19.24148,
                    50.46916
                ]
            },
            "properties": {
                "ref:rspo": 4204,
                "official_name": "Zesp\u00f3\u0142 Szk\u00f3\u0142 Og\u00f3lnokszta\u0142c\u0105cych I Technicznych im. Jana Paw\u0142a II w Siewierzu",
                "name": "Zesp\u00f3\u0142 Szk\u00f3\u0142 Og\u00f3lnokszta\u0142c\u0105cych I Technicznych",
                "addr:country": "PL",
                "addr:postcode": "42-470",
                "addr:city": "Siewierz",
                "addr:street": "Tadeusza Ko\u015bciuszki",
                "addr:housenumber": "15",
                "addr:teryt:simc": 9582,
                "addr:teryt:sym_ul": 943204,
                "contact:phone": "+48 326741612",
                "contact:email": "losiewierz@o2.pl",
                "contact:website": "http:\/\/www.lo.siewierz.pl",
                "ref:regon": "273268194",
                "ref:vatin": "PL6491529344",
                "operator": "Powiat B\u0119dzi\u0144ski",
                "operator:type": "government",
                "landuse": "education",
                "fixme": "amenity=school, amenity=college albo landuse=education w zale\u017cno\u015bci od tego, jakie plac\u00f3wki wchodz\u0105 w sk\u0142ad zespo\u0142u. Sprawd\u017a, kiedy stosowa\u0107 amenity=* a kiedy landuse=education.",
                "note": "Children RSPO: 93089;93090;268142"
            }
        },
        {
            "id": 93089,
            "type": "Feature",
            "geometry": {
                "type": "Point",
                "coordinates": [
                    19.24148,
                    50.46913
                ]
            },
            "properties": {
                "isced:level": "3",
                "ref:rspo": 93089,
                "official_name": "Liceum Og\u00f3lnokszta\u0142c\u0105ce",
                "name": "Liceum Og\u00f3lnokszta\u0142c\u0105ce",
                "addr:country": "PL",
                "addr:postcode": "42-470",
                "addr:city": "Siewierz",
                "addr:street": "Tadeusza Ko\u015bciuszki",
                "addr:housenumber": "15",
                "addr:teryt:simc": 9582,
                "addr:teryt:sym_ul": 943204,
                "contact:phone": "+48 326741612",
                "contact:email": "losiewierz@o2.pl",
                "contact:website": "http:\/\/www.lo.siewierz.pl",
                "ref:regon": "000204406",
                "operator": "Powiat B\u0119dzi\u0144ski",
                "operator:type": "government",
                "amenity": "school",
                "note": "Parent RSPO: 4204"
            }
        },
        {
            "id": 93090,
            "type": "Feature",
            "geometry": {
                "type": "Point",
                "coordinates": [
                    19.24148,
                    50.469100000000005
                ]
            },
            "properties": {
                "isced:level": "3",
                "ref:rspo": 93090,
                "official_name": "Liceum Og\u00f3lnokszta\u0142c\u0105ce dla Doros\u0142ych",
                "name": "Liceum Og\u00f3lnokszta\u0142c\u0105ce dla Doros\u0142ych",
                "addr:country": "PL",
                "addr:postcode": "42-470",
                "addr:city": "Siewierz",
                "addr:street": "Tadeusza Ko\u015bciuszki",
                "addr:housenumber": "15",
                "addr:teryt:simc": 9582,
                "addr:teryt:sym_ul": 943204,
                "contact:phone": "+48 326741612",
                "contact:email": "zssiewierz@poczta.onet.pl",
                "contact:website": "http:\/\/www.lo.siewierz.pl",
                "ref:regon": "240067573",
                "operator": "Powiat B\u0119dzi\u0144ski",
                "operator:type": "government",
                "amenity": "school",
                "note": "Parent RSPO: 4204"
            }
        },
        {
            "id": 268142,
            "type": "Feature",
            "geometry": {
                "type": "Point",
                "coordinates": [
                    19.24148,
                    50.46907
                ]
            },
            "properties": {
                "isced:level": "3",
                "ref:rspo": 268142,
                "official_name": "Technikum",
                "name": "Technikum",
                "addr:country": "PL",
                "addr:postcode": "42-470",
                "addr:city": "Siewierz",
                "addr:street": "Tadeusza Ko\u015bciuszki",
                "addr:housenumber": "15",
                "addr:teryt:simc": 9582,
                "addr:teryt:sym_ul": 943204,
                "contact:phone": "+48 326741612",
                "contact:email": "losiewierz@o2.pl",
                "contact:website": "http:\/\/www.lo.siewierz.pl",
                "ref:regon": "380969152",
                "operator": "Powiat B\u0119dzi\u0144ski",
                "operator:type": "government",
                "amenity": "school",
                "note": "Parent RSPO: 4204"
            }
        },
        {
            "id": 11690,
            "type": "Feature",
            "geometry": {
                "type": "Point",
                "coordinates": [
                    19.23262,
                    50.4712
                ]
            },
            "properties": {
                "isced:level": "1;2",
                "ref:rspo": 11690,
                "official_name": "Szko\u0142a Podstawowa Nr 1 im. Ksi\u0119stwa Siewierskiego w Siewierzu",
                "name": "Szko\u0142a Podstawowa Nr 1",
                "addr:country": "PL",
                "addr:postcode": "42-470",
                "addr:city": "Siewierz",
                "addr:street": "Marsza\u0142ka J\u00f3zefa Pi\u0142sudskiego",
                "addr:housenumber": "31",
                "addr:teryt:simc": 16274,
                "addr:teryt:sym_ul": 943204,
                "contact:phone": "+48 326741335",
                "contact:email": "sekretariat@sp1siewierz.pl",
                "ref:regon": "000264839",
                "operator": "Gmina Siewierz",
                "operator:type": "government",
                "amenity": "school"
            }
        },
        {
            "id": 11743,
            "type": "Feature",
            "geometry": {
                "type": "Point",
                "coordinates": [
                    19.23119,
                    50.4720299
                ]
            },
            "properties": {
                "ref:rspo": 11743,
                "official_name": "Przedszkole Niepubliczne Akademia Przedszkolaka",
                "name": "Przedszkole Niepubliczne Akademia Przedszkolaka",
                "addr:country": "PL",
                "addr:postcode": "42-470",
                "addr:city": "Siewierz",
                "addr:street": "Bohater\u00f3w",
                "addr:housenumber": "3",
                "addr:teryt:simc": 1624,
                "addr:teryt:sym_ul": 943204,
                "contact:phone": "+48 501309210",
                "contact:email": "akademiaprzedszkolaka-siewierz@wp.pl",
                "contact:website": "http:\/\/akademiaprzedszkolaka-siewierz.pl",
                "ref:regon": "243032977",
                "ref:vatin": "PL6252298901",
                "operator": "Klaudia Nowakiewicz",
                "operator:type": "private",
                "amenity": "kindergarten"
            }
        },
        {
            "id": 3465,
            "type": "Feature",
            "geometry": {
                "type": "Point",
                "coordinates": [
                    19.22559,
                    50.4743
                ]
            },
            "properties": {
                "ref:rspo": 3465,
                "official_name": "Publiczne Przedszkole",
                "name": "Publiczne Przedszkole",
                "addr:country": "PL",
                "addr:postcode": "42-470",
                "addr:city": "Siewierz",
                "addr:street": "Genera\u0142a W\u0142adys\u0142awa Sikorskiego",
                "addr:housenumber": "17",
                "addr:teryt:simc": 19907,
                "addr:teryt:sym_ul": 943204,
                "contact:phone": "+48 324420566",
                "contact:email": "przedszkolesiewierz@o2.pl",
                "ref:regon": "278101270",
                "ref:vatin": "PL6491630327",
                "operator": "Gmina Siewierz",
                "operator:type": "government",
                "amenity": "kindergarten"
            }
        },
        {
            "id": 9470,
            "type": "Feature",
            "geometry": {
                "type": "Point",
                "coordinates": [
                    19.1895185,
                    50.4988357
                ]
            },
            "properties": {
                "isced:level": "1;2",
                "ref:rspo": 9470,
                "official_name": "Szko\u0142a Podstawowa w Brudzowicach",
                "name": "Szko\u0142a Podstawowa w Brudzowicach",
                "addr:country": "PL",
                "addr:postcode": "42-470",
                "addr:city": "Brudzowice",
                "addr:street": "Szkolna",
                "addr:housenumber": "41",
                "addr:teryt:simc": 21970,
                "addr:teryt:sym_ul": 221327,
                "contact:phone": "+48 326741643",
                "contact:email": "zsbrudzowice@tlen.pl",
                "contact:website": "http:\/\/zsbrudzowice.edupage.org",
                "ref:regon": "001211970",
                "ref:vatin": "PL6252461732",
                "operator": "Gmina Siewierz",
                "operator:type": "government",
                "amenity": "school"
            }
        },
        {
            "id": 4889,
            "type": "Feature",
            "geometry": {
                "type": "Point",
                "coordinates": [
                    19.26311,
                    50.51253
                ]
            },
            "properties": {
                "ref:rspo": 4889,
                "official_name": "Zesp\u00f3\u0142 Szkolno Przedszkolny",
                "name": "Zesp\u00f3\u0142 Szkolno Przedszkolny",
                "addr:country": "PL",
                "addr:postcode": "42-470",
                "addr:city": "\u017belis\u0142awice",
                "addr:street": "Przysz\u0142o\u015bci",
                "addr:housenumber": "9",
                "addr:teryt:simc": 18000,
                "addr:teryt:sym_ul": 221770,
                "contact:phone": "+48 326741750",
                "contact:email": "e.stelmach@siewierz.pl",
                "ref:regon": "278079078",
                "ref:vatin": "PL6252228289",
                "operator": "Gmina Siewierz",
                "operator:type": "government",
                "landuse": "education",
                "fixme": "amenity=school, amenity=college albo landuse=education w zale\u017cno\u015bci od tego, jakie plac\u00f3wki wchodz\u0105 w sk\u0142ad zespo\u0142u. Sprawd\u017a, kiedy stosowa\u0107 amenity=* a kiedy landuse=education.",
                "note": "Children RSPO: 11687;11688"
            }
        },
        {
            "id": 11687,
            "type": "Feature",
            "geometry": {
                "type": "Point",
                "coordinates": [
                    19.26311,
                    50.512499999999996
                ]
            },
            "properties": {
                "ref:rspo": 11687,
                "official_name": "Zesp\u00f3\u0142 Szkolno-Przedszkolny w \u017belis\u0142awicach - Przedszkole",
                "name": "Zesp\u00f3\u0142 Szkolno-Przedszkolny w \u017belis\u0142awicach - Przedszkole",
                "addr:country": "PL",
                "addr:postcode": "42-470",
                "addr:city": "\u017belis\u0142awice",
                "addr:street": "Przysz\u0142o\u015bci",
                "addr:housenumber": "9",
                "addr:teryt:simc": 18000,
                "addr:teryt:sym_ul": 221770,
                "contact:phone": "+48 326741750",
                "contact:email": "zspz@zspz.edu.pl",
                "ref:regon": "278079380",
                "operator": "Gmina Siewierz",
                "operator:type": "government",
                "amenity": "kindergarten",
                "note": "Parent RSPO: 4889"
            }
        },
        {
            "id": 11688,
            "type": "Feature",
            "geometry": {
                "type": "Point",
                "coordinates": [
                    19.26311,
                    50.51247
                ]
            },
            "properties": {
                "isced:level": "1;2",
                "ref:rspo": 11688,
                "official_name": "Zesp\u00f3\u0142 Szkolno Przedszkolny w \u017belis\u0142awicach - Szko\u0142a Podstawowa im. H. Sienkiewicza",
                "name": "Zesp\u00f3\u0142 Szkolno Przedszkolny w \u017belis\u0142awicach - Szko\u0142a Podstawowa",
                "addr:country": "PL",
                "addr:postcode": "42-470",
                "addr:city": "\u017belis\u0142awice",
                "addr:street": "Przysz\u0142o\u015bci",
                "addr:housenumber": "9",
                "addr:teryt:simc": 18000,
                "addr:teryt:sym_ul": 221770,
                "contact:phone": "+48 326741750",
                "contact:email": "zspz@zspzelislawice.dlaedu.pl",
                "ref:regon": "001211986",
                "ref:vatin": "PL6252228289",
                "operator": "Gmina Siewierz",
                "operator:type": "government",
                "amenity": "school",
                "note": "Parent RSPO: 4889"
            }
        }
    ]
}