{
    "type": "FeatureCollection",
    "features": [
        {
            "id": 77954,
            "type": "Feature",
            "geometry": {
                "type": "Point",
                "coordinates": [
                    19.10931,
                    50.36619
                ]
            },
            "properties": {
                "isced:level": "1;2",
                "ref:rspo": 77954,
                "official_name": "Szko\u0142a Podstawowa im. Emilii Gierczak w Gr\u00f3dkowie",
                "name": "Szko\u0142a Podstawowa",
                "addr:country": "PL",
                "addr:postcode": "42-575",
                "addr:city": "Gr\u00f3dk\u00f3w",
                "addr:street": "Le\u015bna",
                "addr:housenumber": "2",
                "addr:teryt:simc": 220240,
                "addr:teryt:sym_ul": 10898,
                "contact:phone": "+48 322672240",
                "contact:email": "spgrodkow1@wp.pl",
                "ref:regon": "001199400",
                "ref:vatin": "PL6251988667",
                "operator": "Gmina Psary",
                "operator:type": "government",
                "amenity": "school"
            }
        },
        {
            "id": 3938,
            "type": "Feature",
            "geometry": {
                "type": "Point",
                "coordinates": [
                    19.14542,
                    50.37146
                ]
            },
            "properties": {
                "ref:rspo": 3938,
                "official_name": "Zesp\u00f3\u0142 Szkolno-Przedszkolny Nr 2 w Sarnowie",
                "name": "Zesp\u00f3\u0142 Szkolno-Przedszkolny Nr 2 w Sarnowie",
                "addr:country": "PL",
                "addr:postcode": "42-512",
                "addr:city": "Sarn\u00f3w",
                "addr:street": "Szkolna",
                "addr:housenumber": "5",
                "addr:teryt:simc": 220351,
                "addr:teryt:sym_ul": 21970,
                "contact:phone": "+48 322672215",
                "contact:email": "spsarnow1@poczta.fm",
                "contact:website": "http:\/\/www.sp.sarnow.pl",
                "ref:regon": "243012816",
                "ref:vatin": "PL6252447057",
                "operator": "Gmina Psary",
                "operator:type": "government",
                "landuse": "education",
                "fixme": "amenity=school, amenity=college albo landuse=education w zale\u017cno\u015bci od tego, jakie plac\u00f3wki wchodz\u0105 w sk\u0142ad zespo\u0142u. Sprawd\u017a, kiedy stosowa\u0107 amenity=* a kiedy landuse=education.",
                "note": "Children RSPO: 110530;110531"
            }
        },
        {
            "id": 110530,
            "type": "Feature",
            "geometry": {
                "type": "Point",
                "coordinates": [
                    19.14542,
                    50.37143
                ]
            },
            "properties": {
                "isced:level": "1;2",
                "ref:rspo": 110530,
                "official_name": "Szko\u0142a Podstawowa im. Alfreda Szklarskiego w Sarnowie",
                "name": "Szko\u0142a Podstawowa",
                "addr:country": "PL",
                "addr:postcode": "42-512",
                "addr:city": "Sarn\u00f3w",
                "addr:street": "Szkolna",
                "addr:housenumber": "5",
                "addr:teryt:simc": 220351,
                "addr:teryt:sym_ul": 21970,
                "contact:phone": "+48 322672215",
                "contact:email": "spsarnow1@poczta.fm",
                "contact:website": "http:\/\/www.sp.sarnow.pl",
                "ref:regon": "000267849",
                "ref:vatin": "PL6251988727",
                "operator": "Gmina Psary",
                "operator:type": "government",
                "amenity": "school",
                "note": "Parent RSPO: 3938"
            }
        },
        {
            "id": 110531,
            "type": "Feature",
            "geometry": {
                "type": "Point",
                "coordinates": [
                    19.1456899,
                    50.37197
                ]
            },
            "properties": {
                "ref:rspo": 110531,
                "official_name": "Przedszkole Publiczne im. Kubusia Puchatka w Sarnowie",
                "name": "Przedszkole Publiczne",
                "addr:country": "PL",
                "addr:postcode": "42-512",
                "addr:city": "Sarn\u00f3w",
                "addr:street": "Szkolna",
                "addr:housenumber": "5a",
                "addr:teryt:simc": 220351,
                "addr:teryt:sym_ul": 21970,
                "contact:phone": "+48 322672270",
                "contact:email": "spsarnow1@poczta.fm",
                "contact:website": "http:\/\/www.sp.sarnow.pl",
                "ref:regon": "271512684",
                "ref:vatin": "PL6251683181",
                "operator": "Gmina Psary",
                "operator:type": "government",
                "amenity": "kindergarten",
                "note": "Parent RSPO: 3938"
            }
        },
        {
            "id": 274987,
            "type": "Feature",
            "geometry": {
                "type": "Point",
                "coordinates": [
                    19.10971,
                    50.3792199
                ]
            },
            "properties": {
                "ref:rspo": 274987,
                "official_name": "Zesp\u00f3\u0142 Szkolno-Przedszkolny Nr 3 w Psarach",
                "name": "Zesp\u00f3\u0142 Szkolno-Przedszkolny Nr 3 w Psarach",
                "addr:country": "PL",
                "addr:postcode": "42-512",
                "addr:city": "Psary",
                "addr:street": "Szkolna",
                "addr:housenumber": "32",
                "addr:teryt:simc": 220291,
                "addr:teryt:sym_ul": 21970,
                "contact:phone": "+48 322672142",
                "contact:email": "sekretariat@sp.psary.pl",
                "ref:regon": "386476195",
                "operator": "Gmina Psary",
                "operator:type": "government",
                "landuse": "education",
                "fixme": "amenity=school, amenity=college albo landuse=education w zale\u017cno\u015bci od tego, jakie plac\u00f3wki wchodz\u0105 w sk\u0142ad zespo\u0142u. Sprawd\u017a, kiedy stosowa\u0107 amenity=* a kiedy landuse=education.",
                "note": "Children RSPO: 133979;274537"
            }
        },
        {
            "id": 133979,
            "type": "Feature",
            "geometry": {
                "type": "Point",
                "coordinates": [
                    19.10971,
                    50.3791899
                ]
            },
            "properties": {
                "isced:level": "1;2",
                "ref:rspo": 133979,
                "official_name": "Szko\u0142a Podstawowa w Psarach",
                "name": "Szko\u0142a Podstawowa w Psarach",
                "addr:country": "PL",
                "addr:postcode": "42-512",
                "addr:city": "Psary",
                "addr:street": "Szkolna",
                "addr:housenumber": "32",
                "addr:teryt:simc": 220291,
                "addr:teryt:sym_ul": 21970,
                "contact:phone": "+48 322672142",
                "contact:email": "sekretariat@sp.psary.pl",
                "ref:regon": "367760784",
                "ref:vatin": "PL6252461353",
                "operator": "Gmina Psary",
                "operator:type": "government",
                "amenity": "school",
                "note": "Parent RSPO: 274987"
            }
        },
        {
            "id": 274537,
            "type": "Feature",
            "geometry": {
                "type": "Point",
                "coordinates": [
                    19.13503,
                    50.38123
                ]
            },
            "properties": {
                "ref:rspo": 274537,
                "official_name": "Przedszkole Publiczne w Psarach",
                "name": "Przedszkole Publiczne w Psarach",
                "addr:country": "PL",
                "addr:postcode": "42-512",
                "addr:city": "Psary",
                "addr:street": "Malinowicka",
                "addr:housenumber": "16",
                "addr:teryt:simc": 220291,
                "addr:teryt:sym_ul": 12068,
                "contact:phone": "+48 661599222",
                "contact:email": "przedszkole@sp.psary.pl",
                "ref:regon": "385926236",
                "operator": "Gmina Psary",
                "operator:type": "government",
                "amenity": "kindergarten",
                "note": "Parent RSPO: 274987"
            }
        },
        {
            "id": 77952,
            "type": "Feature",
            "geometry": {
                "type": "Point",
                "coordinates": [
                    19.07874,
                    50.38658
                ]
            },
            "properties": {
                "ref:rspo": 77952,
                "official_name": "Zesp\u00f3\u0142 Szkolno - Przedszkolny Nr 1 w Strzy\u017cowicach",
                "name": "Zesp\u00f3\u0142 Szkolno - Przedszkolny Nr 1 w Strzy\u017cowicach",
                "addr:country": "PL",
                "addr:postcode": "42-575",
                "addr:city": "Strzy\u017cowice",
                "addr:street": "1 Maja",
                "addr:housenumber": "17",
                "addr:teryt:simc": 220380,
                "addr:teryt:sym_ul": 11926,
                "contact:phone": "+48 322672233",
                "contact:email": "sekretariat@spstrzyzowice.pl",
                "ref:regon": "242986663",
                "ref:vatin": "PL6252446891",
                "operator": "Gmina Psary",
                "operator:type": "government",
                "landuse": "education",
                "fixme": "amenity=school, amenity=college albo landuse=education w zale\u017cno\u015bci od tego, jakie plac\u00f3wki wchodz\u0105 w sk\u0142ad zespo\u0142u. Sprawd\u017a, kiedy stosowa\u0107 amenity=* a kiedy landuse=education.",
                "note": "Children RSPO: 110517;110518"
            }
        },
        {
            "id": 110517,
            "type": "Feature",
            "geometry": {
                "type": "Point",
                "coordinates": [
                    19.07874,
                    50.38655
                ]
            },
            "properties": {
                "ref:rspo": 110517,
                "official_name": "Przedszkole Publiczne im. Misia Uszatka w Strzy\u017cowicach",
                "name": "Przedszkole Publiczne",
                "addr:country": "PL",
                "addr:postcode": "42-575",
                "addr:city": "Strzy\u017cowice",
                "addr:street": "1 Maja",
                "addr:housenumber": "17",
                "addr:teryt:simc": 220380,
                "addr:teryt:sym_ul": 11926,
                "contact:phone": "+48 323604371",
                "contact:email": "sekretariat@przedszkolestrzyzowice.pl",
                "ref:regon": "271512690",
                "ref:vatin": "PL6251683198",
                "operator": "Gmina Psary",
                "operator:type": "government",
                "amenity": "kindergarten",
                "note": "Parent RSPO: 77952"
            }
        },
        {
            "id": 110518,
            "type": "Feature",
            "geometry": {
                "type": "Point",
                "coordinates": [
                    19.07874,
                    50.386520000000004
                ]
            },
            "properties": {
                "isced:level": "1;2",
                "ref:rspo": 110518,
                "official_name": "Szko\u0142a Podstawowa im. Stanis\u0142awa Polakowskiego w Strzy\u017cowicach",
                "name": "Szko\u0142a Podstawowa",
                "addr:country": "PL",
                "addr:postcode": "42-575",
                "addr:city": "Strzy\u017cowice",
                "addr:street": "1 Maja",
                "addr:housenumber": "17",
                "addr:teryt:simc": 220380,
                "addr:teryt:sym_ul": 11926,
                "contact:phone": "+48 322672233",
                "contact:email": "sekretariat@spstrzyzowice.pl",
                "ref:regon": "001199423",
                "ref:vatin": "PL6251713083",
                "operator": "Gmina Psary",
                "operator:type": "government",
                "amenity": "school",
                "note": "Parent RSPO: 77952"
            }
        },
        {
            "id": 77953,
            "type": "Feature",
            "geometry": {
                "type": "Point",
                "coordinates": [
                    19.13664,
                    50.40551
                ]
            },
            "properties": {
                "isced:level": "1;2",
                "ref:rspo": 77953,
                "official_name": "Szko\u0142a Podstawowa im. Tadeusza Ko\u015bciuszki w D\u0105biu",
                "name": "Szko\u0142a Podstawowa",
                "addr:country": "PL",
                "addr:postcode": "42-504",
                "addr:city": "D\u0105bie",
                "addr:street": "Pocztowa",
                "addr:housenumber": "39",
                "addr:teryt:simc": 220150,
                "addr:teryt:sym_ul": 16579,
                "contact:phone": "+48 322672204",
                "contact:email": "spdabie@interia.pl",
                "contact:website": "http:\/\/psary.pl\/www\/epsary\/spdabie\/",
                "ref:regon": "001199392",
                "ref:vatin": "PL6251713108",
                "operator": "Gmina Psary",
                "operator:type": "government",
                "amenity": "school"
            }
        }
    ]
}