{"type":"FeatureCollection","features":[{"id":89878,"type":"Feature","geometry":{"type":"Point","coordinates":[23.2160781,50.9475557]},"properties":{"isced:level":"1;2","ref:rspo":89878,"official_name":"Szko\u0142a Podstawowa im. Juliusza S\u0142owackiego","name":"Szko\u0142a Podstawowa","addr:country":"PL","addr:postcode":"22-300","addr:place":"Ma\u0142ochwiej Du\u017cy","addr:housenumber":"82","addr:teryt:sym_ul":104343,"contact:phone":"+48 825779014","contact:email":"sp@malochwiej.pl","contact:website":"http:\/\/www.malochwiej.pl","ref:regon":"001176505","operator":"Gmina Krasnystaw","operator:type":"government","amenity":"school"}},{"id":128256,"type":"Feature","geometry":{"type":"Point","coordinates":[23.1880974,50.9505105]},"properties":{"ref:rspo":128256,"official_name":"Niepubliczne Przedszkole Zgromadzenia Si\u00f3str S\u0142u\u017cebniczek Nmp Np","name":"Niepubliczne Przedszkole Zgromadzenia Si\u00f3str S\u0142u\u017cebniczek Nmp Np","addr:country":"PL","addr:postcode":"22-300","addr:place":"Tulig\u0142owy","addr:housenumber":"1","addr:teryt:sym_ul":104350,"contact:phone":"+48 825766675","contact:email":"npstuliglowy@o2.pl","ref:regon":"362213801","operator":"Zgromadzenie Si\u00f3str S\u0142u\u017cebniczek Nmp Prowincja \u0141\u00f3dzka","operator:type":"religious","amenity":"kindergarten"}},{"id":71440,"type":"Feature","geometry":{"type":"Point","coordinates":[23.071883,51.0034859]},"properties":{"isced:level":"1;2","ref:rspo":71440,"official_name":"Szko\u0142a Podstawowa im. Batalion\u00f3w Ch\u0142opskich","name":"Szko\u0142a Podstawowa","addr:country":"PL","addr:postcode":"22-300","addr:place":"Ja\u015blik\u00f3w","addr:housenumber":"31","addr:teryt:sym_ul":104248,"contact:phone":"+48 825778869","contact:email":"szpjaslikow@poczta.onet.pl","contact:website":"http:\/\/spjaslikow.szkolnastrona.pl","ref:regon":"001176474","ref:vatin":"PL5641789805","operator":"Gmina Krasnystaw","operator:type":"government","amenity":"school"}},{"id":71441,"type":"Feature","geometry":{"type":"Point","coordinates":[23.191459655762,51.013118743896]},"properties":{"ref:rspo":71441,"official_name":"Gminne Przedszkole im. Jana Brzechwy","name":"Gminne Przedszkole","addr:country":"PL","addr:postcode":"22-302","addr:city":"Siennica Nadolna","addr:street":"os. Cukrowni","addr:housenumber":"15C","addr:teryt:simc":29201,"addr:teryt:sym_ul":104410,"contact:phone":"+48 825770582","contact:email":"przedszkole_gpsn@krasnystaw.ug.gov.pl","contact:website":"http:\/\/www.gpsiennicanadolna.szkolnastrona.pl","ref:regon":"000941286","ref:vatin":"PL5641199392","operator":"Gmina Krasnystaw","operator:type":"government","amenity":"kindergarten"}},{"id":123290,"type":"Feature","geometry":{"type":"Point","coordinates":[23.191459655762,51.013088743896]},"properties":{"isced:level":"1;2","ref:rspo":123290,"official_name":"Szko\u0142a Podstawowa im. Ks. Jana Twardowskiego w Siennicy Nadolnej","name":"Szko\u0142a Podstawowa","addr:country":"PL","addr:postcode":"22-302","addr:city":"Siennica Nadolna","addr:street":"os. Cukrowni","addr:housenumber":"79a","addr:teryt:simc":29201,"addr:teryt:sym_ul":104410,"contact:phone":"+48 825770285","contact:email":"szkola@siennicanadolna.pl","contact:website":"http:\/\/szkola.siennicanadolna.pl","ref:regon":"001176511","ref:vatin":"PL5641514876","operator":"Gmina Krasnystaw","operator:type":"government","amenity":"school"}},{"id":124747,"type":"Feature","geometry":{"type":"Point","coordinates":[23.1091251,51.024018]},"properties":{"ref:rspo":124747,"official_name":"Punkt Przedszkolny St\u0119\u017cyca Kolonia","name":"Punkt Przedszkolny St\u0119\u017cyca Kolonia","addr:country":"PL","addr:postcode":"22-300","addr:place":"St\u0119\u017cyca-Kolonia","addr:housenumber":"1","addr:teryt:sym_ul":104426,"contact:phone":"+48 825702295","contact:email":"szpjaslikow@poczta.onet.pl","contact:website":"http:\/\/www.spjaslikow.szkolnastrona.pl","ref:regon":"061724874","operator":"Gmina Krasnystaw","operator:type":"government","amenity":"kindergarten"}},{"id":272848,"type":"Feature","geometry":{"type":"Point","coordinates":[23.236369,51.0337959]},"properties":{"ref:rspo":272848,"official_name":"Zesp\u00f3\u0142 Przedszkola I Szko\u0142y Podstawowej w Krupem","name":"Zesp\u00f3\u0142 Przedszkola I Szko\u0142y Podstawowej w Krupem","addr:country":"PL","addr:postcode":"22-302","addr:place":"Krupe","addr:housenumber":"89","addr:teryt:sym_ul":104277,"contact:phone":"+48 825774222","contact:email":"szkolakrupe@interia.pl","contact:website":"http:\/\/szkolakrupe.edu.pl","ref:regon":"384302500","operator":"Gmina Krasnystaw","operator:type":"government","landuse":"education","fixme":"amenity=school, amenity=college albo landuse=education w zale\u017cno\u015bci od tego, jakie plac\u00f3wki wchodz\u0105 w sk\u0142ad zespo\u0142u. Sprawd\u017a, kiedy stosowa\u0107 amenity=* a kiedy landuse=education.","note":"Children RSPO: 71442;89880"}},{"id":71442,"type":"Feature","geometry":{"type":"Point","coordinates":[23.236369,51.0337659]},"properties":{"ref:rspo":71442,"official_name":"Publiczne Przedszkole","name":"Publiczne Przedszkole","addr:country":"PL","addr:postcode":"22-302","addr:place":"Krupe","addr:housenumber":"89","addr:teryt:sym_ul":104277,"contact:phone":"+48 825772424","contact:email":"szkolakrupe@interia.pl","ref:regon":"110165612","ref:vatin":"PL5641428562","operator":"Gmina Krasnystaw","operator:type":"government","amenity":"kindergarten","note":"Parent RSPO: 272848"}},{"id":89880,"type":"Feature","geometry":{"type":"Point","coordinates":[23.236369,51.0337359]},"properties":{"isced:level":"1;2","ref:rspo":89880,"official_name":"Szko\u0142a Podstawowa im. Kardyna\u0142a Stefana Wyszy\u0144skiego w Krupem","name":"Szko\u0142a Podstawowa","addr:country":"PL","addr:postcode":"22-302","addr:place":"Krupe","addr:housenumber":"89","addr:teryt:sym_ul":104277,"contact:phone":"+48 825772422","contact:email":"szkolakrupe@interia.pl","contact:website":"http:\/\/www.szkolakrupe.edu.pl\/","ref:regon":"001176480","operator":"Gmina Krasnystaw","operator:type":"government","amenity":"school","note":"Parent RSPO: 272848"}}]}