{
    "type": "FeatureCollection",
    "features": [
        {
            "id": 59638,
            "type": "Feature",
            "geometry": {
                "type": "Point",
                "coordinates": [
                    22.97738,
                    50.84512
                ]
            },
            "properties": {
                "isced:level": "1;2",
                "ref:rspo": 59638,
                "official_name": "Szko\u0142a Podstawowa w P\u0142once",
                "name": "Szko\u0142a Podstawowa w P\u0142once",
                "addr:country": "PL",
                "addr:postcode": "22-330",
                "addr:place": "P\u0142onka",
                "addr:housenumber": "70",
                "addr:teryt:sym_ul": 897757,
                "contact:phone": "+48 846841118",
                "contact:email": "plonkasp@op.pl",
                "contact:website": "http:\/\/spplonka.szkolnastrona.pl",
                "ref:regon": "001136210",
                "ref:vatin": "PL5641581803",
                "operator": "Gmina Rudnik",
                "operator:type": "government",
                "amenity": "school"
            }
        },
        {
            "id": 59639,
            "type": "Feature",
            "geometry": {
                "type": "Point",
                "coordinates": [
                    22.97655,
                    50.88164
                ]
            },
            "properties": {
                "isced:level": "1;2",
                "ref:rspo": 59639,
                "official_name": "Szko\u0142a Podstawowa w Rudniku",
                "name": "Szko\u0142a Podstawowa w Rudniku",
                "addr:country": "PL",
                "addr:postcode": "22-330",
                "addr:place": "Rudnik",
                "addr:housenumber": "78",
                "addr:teryt:sym_ul": 897823,
                "contact:phone": "+48 846841110",
                "contact:email": "szp.rudnik78@wp.pl",
                "ref:regon": "000563766",
                "ref:vatin": "PL5641581832",
                "operator": "Gmina Rudnik",
                "operator:type": "government",
                "amenity": "school"
            }
        }
    ]
}