{
    "type": "FeatureCollection",
    "features": [
        {
            "id": 71437,
            "type": "Feature",
            "geometry": {
                "type": "Point",
                "coordinates": [
                    23.13146,
                    50.97283
                ]
            },
            "properties": {
                "ref:rspo": 71437,
                "official_name": "Zesp\u00f3\u0142 Nr 3 Przedszkola I Szko\u0142y Podstawowej w Krasnymstawie",
                "name": "Zesp\u00f3\u0142 Nr 3 Przedszkola I Szko\u0142y Podstawowej w Krasnymstawie",
                "addr:postcode": "22-300",
                "addr:city": "Krasnystaw",
                "addr:street": "Krakowskie Przedmie\u015bcie",
                "addr:housenumber": "38",
                "addr:city:simc": 930070,
                "addr:street:sym_ul": 9803,
                "phone": "+48 825762349",
                "email": "zsip3@interia.pl",
                "website": "http:\/\/www.zsip3krasnystaw.pl",
                "ref:regon": "000739165",
                "ref:vatin": "PL5641298183",
                "operator": "Gmina Krasnystaw",
                "operator:type": "government",
                "landuse": "education",
                "fixme": "amenity=school, amenity=college albo landuse=education w zale\u017cno\u015bci od tego, jakie plac\u00f3wki wchodz\u0105 w sk\u0142ad zespo\u0142u. Sprawd\u017a, kiedy stosowa\u0107 amenity=* a kiedy landuse=education.",
                "note": "Children RSPO: 89875;89876"
            }
        },
        {
            "id": 89875,
            "type": "Feature",
            "geometry": {
                "type": "Point",
                "coordinates": [
                    23.13146,
                    50.9728
                ]
            },
            "properties": {
                "ref:rspo": 89875,
                "official_name": "Przedszkole Nr 3",
                "name": "Przedszkole Nr 3",
                "addr:postcode": "22-300",
                "addr:city": "Krasnystaw",
                "addr:street": "Krakowskie Przedmie\u015bcie",
                "addr:housenumber": "38",
                "addr:city:simc": 930070,
                "addr:street:sym_ul": 9803,
                "phone": "+48 825762349",
                "email": "zsip3@interia.pl",
                "website": "http:\/\/www.zsip3krasnystaw.pl",
                "ref:regon": "110600462",
                "operator": "Gmina Krasnystaw",
                "operator:type": "government",
                "amenity": "kindergarten",
                "note": "Parent RSPO: 71437"
            }
        },
        {
            "id": 89876,
            "type": "Feature",
            "geometry": {
                "type": "Point",
                "coordinates": [
                    23.13146,
                    50.972770000000004
                ]
            },
            "properties": {
                "isced:level": "1;2",
                "ref:rspo": 89876,
                "official_name": "Szko\u0142a Podstawowa Nr 3",
                "name": "Szko\u0142a Podstawowa Nr 3",
                "addr:postcode": "22-300",
                "addr:city": "Krasnystaw",
                "addr:street": "Krakowskie Przedmie\u015bcie",
                "addr:housenumber": "38",
                "addr:city:simc": 930070,
                "addr:street:sym_ul": 9803,
                "phone": "+48 825762349",
                "email": "zsip3@interia.pl",
                "website": "http:\/\/www.zsip3krasnystaw.pl",
                "ref:regon": "110600456",
                "operator": "Gmina Krasnystaw",
                "operator:type": "government",
                "amenity": "school",
                "note": "Parent RSPO: 71437"
            }
        },
        {
            "id": 14390,
            "type": "Feature",
            "geometry": {
                "type": "Point",
                "coordinates": [
                    23.16135,
                    50.98021
                ]
            },
            "properties": {
                "isced:level": "3",
                "ref:rspo": 14390,
                "official_name": "I Liceum Og\u00f3lnokszta\u0142c\u0105ce im.w\u0142adys\u0142awa Jagie\u0142\u0142y w Krasnymstawie",
                "name": "I Liceum Og\u00f3lnokszta\u0142c\u0105ce im.w\u0142adys\u0142awa Jagie\u0142\u0142y w Krasnymstawie",
                "addr:postcode": "22-300",
                "addr:city": "Krasnystaw",
                "addr:street": "Marsza\u0142ka Pi\u0142sudskiego",
                "addr:housenumber": "50",
                "addr:city:simc": 930070,
                "addr:street:sym_ul": 37694,
                "phone": "+48 825762146",
                "email": "sekretariat@1lo.krasnystaw.pl",
                "website": "http:\/\/www.1lo.krasnystaw.pl",
                "ref:regon": "000739120",
                "ref:vatin": "PL5641290460",
                "operator": "Powiat Krasnostawski",
                "operator:type": "government",
                "amenity": "school"
            }
        },
        {
            "id": 108691,
            "type": "Feature",
            "geometry": {
                "type": "Point",
                "coordinates": [
                    23.16527,
                    50.98097
                ]
            },
            "properties": {
                "isced:level": "1;2",
                "ref:rspo": 108691,
                "official_name": "Publiczna Szko\u0142a Podstawowa Nr 4 im. Jana Paw\u0142a II w Krasnymstawie",
                "name": "Publiczna Szko\u0142a Podstawowa Nr 4",
                "addr:postcode": "22-300",
                "addr:city": "Krasnystaw",
                "addr:street": "Marsza\u0142ka Pi\u0142sudskiego",
                "addr:housenumber": "21",
                "addr:city:simc": 930070,
                "addr:street:sym_ul": 37694,
                "phone": "+48 825762808",
                "email": "zsnr4krasnystaw@wp.pl",
                "website": "http:\/\/www.zs4.krasnystaw.pl",
                "ref:regon": "000832692",
                "operator": "Miasto Krasnystaw",
                "operator:type": "government",
                "amenity": "school"
            }
        },
        {
            "id": 84111,
            "type": "Feature",
            "geometry": {
                "type": "Point",
                "coordinates": [
                    23.1697,
                    50.98184
                ]
            },
            "properties": {
                "ref:rspo": 84111,
                "official_name": "Przedszkole Nr 1 im. S\u0142oneczna Jedyneczka w Krasnymstawie",
                "name": "Przedszkole Nr 1",
                "addr:postcode": "22-300",
                "addr:city": "Krasnystaw",
                "addr:street": "Sikorskiego",
                "addr:housenumber": "4",
                "addr:city:simc": 930070,
                "addr:street:sym_ul": 19900,
                "phone": "+48 825763734",
                "email": "przedszkole_nr1@poczta.fm",
                "website": "http:\/\/www.slonecznajedyneczka.pl",
                "ref:regon": "110200403",
                "operator": "Miasto Krasnystaw",
                "operator:type": "government",
                "amenity": "kindergarten"
            }
        },
        {
            "id": 14602,
            "type": "Feature",
            "geometry": {
                "type": "Point",
                "coordinates": [
                    23.16198,
                    50.98218
                ]
            },
            "properties": {
                "ref:rspo": 14602,
                "official_name": "Poradnia Psychologiczno Pedagogiczna w Krasnymstawie",
                "name": "Poradnia Psychologiczno Pedagogiczna w Krasnymstawie",
                "addr:postcode": "22-300",
                "addr:city": "Krasnystaw",
                "addr:street": "Sobieskiego",
                "addr:housenumber": "3",
                "addr:city:simc": 930070,
                "addr:street:sym_ul": 20421,
                "phone": "+48 825763608",
                "email": "poradnia@pppkrasnystaw.pl",
                "website": "http:\/\/pppkrasnystaw.pl",
                "ref:regon": "000739194",
                "ref:vatin": "PL5641163201",
                "operator": "Powiat Krasnostawski",
                "operator:type": "government",
                "healthcare": "counselling",
                "counselling_type": "education",
                "fixme": "w zale\u017cno\u015bci od przedmiotu dzia\u0142alno\u015bci (np. healthcare=counselling + counselling_type=education albo healthcare=psychotherapist)"
            }
        },
        {
            "id": 14477,
            "type": "Feature",
            "geometry": {
                "type": "Point",
                "coordinates": [
                    23.17069,
                    50.9825
                ]
            },
            "properties": {
                "ref:rspo": 14477,
                "official_name": "M\u0142odzie\u017cowy Dom Kultury im. M. Konopnickiej w Krasnymstawie",
                "name": "M\u0142odzie\u017cowy Dom Kultury",
                "addr:postcode": "22-300",
                "addr:city": "Krasnystaw",
                "addr:street": "Marsza\u0142ka Pi\u0142sudskiego",
                "addr:housenumber": "5",
                "addr:door": "A",
                "addr:city:simc": 930070,
                "addr:street:sym_ul": 37694,
                "phone": "+48 825762097",
                "email": "sekretariat.mdk@mdk-krasnystaw.pl",
                "website": "http:\/\/mdk-krasnystaw.pl",
                "ref:regon": "000941300",
                "ref:vatin": "PL5641265841",
                "operator": "Powiat Krasnostawski",
                "operator:type": "government",
                "amenity": "community_centre",
                "community_centre:for": "juvenile"
            }
        },
        {
            "id": 14413,
            "type": "Feature",
            "geometry": {
                "type": "Point",
                "coordinates": [
                    23.16825,
                    50.98278
                ]
            },
            "properties": {
                "isced:level": "3",
                "ref:rspo": 14413,
                "official_name": "Ii Liceum Og\u00f3lnokszta\u0142cace im.c.k.norwida w Krasnymstawie",
                "name": "Ii Liceum Og\u00f3lnokszta\u0142cace im.c.k.norwida w Krasnymstawie",
                "addr:postcode": "22-300",
                "addr:city": "Krasnystaw",
                "addr:street": "Okrzei",
                "addr:housenumber": "5",
                "addr:city:simc": 930070,
                "addr:street:sym_ul": 14909,
                "phone": "+48 825762528",
                "email": "lo_norwid@poczta.onet.pl",
                "website": "http:\/\/www.norwidkrasnystaw.pl",
                "ref:regon": "110074772",
                "ref:vatin": "PL5641127949",
                "operator": "Powiat Krasnostawski",
                "operator:type": "government",
                "amenity": "school"
            }
        },
        {
            "id": 20809,
            "type": "Feature",
            "geometry": {
                "type": "Point",
                "coordinates": [
                    23.1675,
                    50.98317
                ]
            },
            "properties": {
                "ref:rspo": 20809,
                "official_name": "Pa\u0144stwowa Szko\u0142a Muzyczna I I II St. im. Witolda Lutos\u0142awskiego w Krasnymstawie",
                "name": "Pa\u0144stwowa Szko\u0142a Muzyczna I I II St.",
                "addr:postcode": "22-300",
                "addr:city": "Krasnystaw",
                "addr:street": "Okrzei",
                "addr:housenumber": "10",
                "addr:city:simc": 930070,
                "addr:street:sym_ul": 14909,
                "phone": "+48 825764440",
                "email": "dyrektor@psmkrasnystaw.edu.pl",
                "website": "http:\/\/psmkrasnystaw.pl",
                "ref:regon": "002680097",
                "operator": "Ministerstwo Kultury I Dziedzictwa Narodowego",
                "operator:type": "public",
                "landuse": "education",
                "fixme": "amenity=school, amenity=college albo landuse=education w zale\u017cno\u015bci od tego, jakie plac\u00f3wki wchodz\u0105 w sk\u0142ad zespo\u0142u. Sprawd\u017a, kiedy stosowa\u0107 amenity=* a kiedy landuse=education.",
                "note": "Children RSPO: 103601;103615"
            }
        },
        {
            "id": 103601,
            "type": "Feature",
            "geometry": {
                "type": "Point",
                "coordinates": [
                    23.1675,
                    50.98314
                ]
            },
            "properties": {
                "ref:rspo": 103601,
                "official_name": "Pa\u0144stwowa Szko\u0142a Muzyczna II St. w Krasnymstawie",
                "name": "Pa\u0144stwowa Szko\u0142a Muzyczna II St. w Krasnymstawie",
                "addr:postcode": "22-300",
                "addr:city": "Krasnystaw",
                "addr:street": "Okrzei",
                "addr:housenumber": "10",
                "addr:city:simc": 930070,
                "addr:street:sym_ul": 14909,
                "phone": "+48 825764440",
                "ref:regon": "060050400",
                "operator": "Ministerstwo Kultury I Dziedzictwa Narodowego",
                "operator:type": "public",
                "amenity": "music_school",
                "note": "Parent RSPO: 20809"
            }
        },
        {
            "id": 103615,
            "type": "Feature",
            "geometry": {
                "type": "Point",
                "coordinates": [
                    23.1675,
                    50.98311
                ]
            },
            "properties": {
                "ref:rspo": 103615,
                "official_name": "Pa\u0144stwowa Szko\u0142a Muzyczna I St. w Krasnymstawie",
                "name": "Pa\u0144stwowa Szko\u0142a Muzyczna I St. w Krasnymstawie",
                "addr:postcode": "22-300",
                "addr:city": "Krasnystaw",
                "addr:street": "Okrzei",
                "addr:housenumber": "10",
                "addr:city:simc": 930070,
                "addr:street:sym_ul": 14909,
                "phone": "+48 825764440",
                "ref:regon": "060050379",
                "operator": "Ministerstwo Kultury I Dziedzictwa Narodowego",
                "operator:type": "public",
                "amenity": "music_school",
                "note": "Parent RSPO: 20809"
            }
        },
        {
            "id": 108724,
            "type": "Feature",
            "geometry": {
                "type": "Point",
                "coordinates": [
                    23.16889,
                    50.98342
                ]
            },
            "properties": {
                "ref:rspo": 108724,
                "official_name": "Przedszkole Specjalne Nr 2",
                "name": "Przedszkole Specjalne Nr 2",
                "addr:postcode": "22-300",
                "addr:city": "Krasnystaw",
                "addr:street": "PCK",
                "addr:housenumber": "1",
                "addr:city:simc": 930070,
                "addr:street:sym_ul": 15905,
                "phone": "+48 825762308",
                "ref:regon": "061103994",
                "operator": "Powiat Krasnostawski",
                "operator:type": "government",
                "amenity": "kindergarten",
                "note": "Parent RSPO: 14661"
            }
        },
        {
            "id": 108845,
            "type": "Feature",
            "geometry": {
                "type": "Point",
                "coordinates": [
                    23.17319,
                    50.98342
                ]
            },
            "properties": {
                "ref:rspo": 108845,
                "official_name": "O\u015brodek Szkoleniowy Agencja Rozwoju Lokalnego Sp. Z O.o.",
                "name": "O\u015brodek Szkoleniowy Agencja Rozwoju Lokalnego Sp. Z O.o.",
                "addr:postcode": "22-300",
                "addr:city": "Krasnystaw",
                "addr:street": "Plac 3 Maja",
                "addr:housenumber": "21",
                "addr:city:simc": 930070,
                "addr:street:sym_ul": 16392,
                "phone": "+48 825761997",
                "ref:regon": "061514823",
                "operator": "Agencja Rozwoju Lokalnego Sp\u00f3\u0142ka Z Ograniczon\u0105 Odpowiedzialno\u015bci\u0105",
                "operator:type": "private",
                "fixme": "w zale\u017cno\u015bci od przedmiotu dzia\u0142alno\u015bci (np. amenity=training + training=*, amenity=dancing_school, amenity=language_school, amenity=music_school)"
            }
        },
        {
            "id": 14661,
            "type": "Feature",
            "geometry": {
                "type": "Point",
                "coordinates": [
                    23.1691523,
                    50.9835708
                ]
            },
            "properties": {
                "ref:rspo": 14661,
                "official_name": "Specjalny O\u015brodek Szkolno Wychowawczy im.j.doroszewskiej w Krasnymstawie",
                "name": "Specjalny O\u015brodek Szkolno Wychowawczy im.j.doroszewskiej w Krasnymstawie",
                "addr:postcode": "22-300",
                "addr:city": "Krasnystaw",
                "addr:street": "PCK",
                "addr:housenumber": "2",
                "addr:city:simc": 930070,
                "addr:street:sym_ul": 15905,
                "phone": "+48 825762308",
                "email": "soswkrasnystaw@poczta.onet.pl",
                "ref:regon": "000200466",
                "ref:vatin": "PL5641018031",
                "operator": "Powiat Krasnostawski",
                "operator:type": "government",
                "amenity": "school",
                "note": "Children RSPO: 107730;107734;108724;108758"
            }
        },
        {
            "id": 107730,
            "type": "Feature",
            "geometry": {
                "type": "Point",
                "coordinates": [
                    23.1691523,
                    50.9835408
                ]
            },
            "properties": {
                "isced:level": "1;2",
                "ref:rspo": 107730,
                "official_name": "Szko\u0142a Podstawowa Specjalna",
                "name": "Szko\u0142a Podstawowa Specjalna",
                "addr:postcode": "22-300",
                "addr:city": "Krasnystaw",
                "addr:street": "PCK",
                "addr:housenumber": "2",
                "addr:city:simc": 930070,
                "addr:street:sym_ul": 15905,
                "phone": "+48 825762308",
                "email": "soswkrasnystaw@poczta.onet.pl",
                "ref:regon": "000739171",
                "operator": "Powiat Krasnostawski",
                "operator:type": "government",
                "amenity": "school",
                "note": "Parent RSPO: 14661"
            }
        },
        {
            "id": 107734,
            "type": "Feature",
            "geometry": {
                "type": "Point",
                "coordinates": [
                    23.1691523,
                    50.983510800000005
                ]
            },
            "properties": {
                "isced:level": "3",
                "ref:rspo": 107734,
                "official_name": "Bran\u017cowa Szko\u0142a I Stopnia Specjalna",
                "name": "Bran\u017cowa Szko\u0142a I Stopnia Specjalna",
                "addr:postcode": "22-300",
                "addr:city": "Krasnystaw",
                "addr:street": "PCK",
                "addr:housenumber": "2",
                "addr:city:simc": 930070,
                "addr:street:sym_ul": 15905,
                "phone": "+48 825762308",
                "ref:regon": "110116855",
                "operator": "Powiat Krasnostawski",
                "operator:type": "government",
                "amenity": "school",
                "note": "Parent RSPO: 14661"
            }
        },
        {
            "id": 108758,
            "type": "Feature",
            "geometry": {
                "type": "Point",
                "coordinates": [
                    23.1691523,
                    50.9834808
                ]
            },
            "properties": {
                "ref:rspo": 108758,
                "official_name": "Szko\u0142a Specjalna Przysposabiaj\u0105ca Do Pracy",
                "name": "Szko\u0142a Specjalna Przysposabiaj\u0105ca Do Pracy",
                "addr:postcode": "22-300",
                "addr:city": "Krasnystaw",
                "addr:street": "PCK",
                "addr:housenumber": "2",
                "addr:city:simc": 930070,
                "addr:street:sym_ul": 15905,
                "phone": "+48 825762308",
                "ref:regon": "110723443",
                "operator": "Powiat Krasnostawski",
                "operator:type": "government",
                "amenity": "school",
                "note": "Parent RSPO: 14661"
            }
        },
        {
            "id": 14375,
            "type": "Feature",
            "geometry": {
                "type": "Point",
                "coordinates": [
                    23.16043,
                    50.98359
                ]
            },
            "properties": {
                "ref:rspo": 14375,
                "official_name": "Zesp\u00f3\u0142 Szk\u00f3\u0142 Nr 2 im. B. G\u0142owackiego w Krasnymstawie",
                "name": "Zesp\u00f3\u0142 Szk\u00f3\u0142 Nr 2",
                "addr:postcode": "22-300",
                "addr:city": "Krasnystaw",
                "addr:street": "Sobieskiego",
                "addr:housenumber": "5",
                "addr:city:simc": 930070,
                "addr:street:sym_ul": 20421,
                "phone": "+48 825763065",
                "email": "sekretariat-glowacki.p9@wp.pl",
                "website": "http:\/\/www.glowacki.p9.pl",
                "ref:regon": "000095609",
                "ref:vatin": "PL5641373513",
                "operator": "Powiat Krasnostawski",
                "operator:type": "government",
                "landuse": "education",
                "fixme": "amenity=school, amenity=college albo landuse=education w zale\u017cno\u015bci od tego, jakie plac\u00f3wki wchodz\u0105 w sk\u0142ad zespo\u0142u. Sprawd\u017a, kiedy stosowa\u0107 amenity=* a kiedy landuse=education.",
                "note": "Children RSPO: 107711;107720;129480;276817"
            }
        },
        {
            "id": 107711,
            "type": "Feature",
            "geometry": {
                "type": "Point",
                "coordinates": [
                    23.16043,
                    50.98356
                ]
            },
            "properties": {
                "isced:level": "3",
                "ref:rspo": 107711,
                "official_name": "Technikum Nr 2",
                "name": "Technikum Nr 2",
                "addr:postcode": "22-300",
                "addr:city": "Krasnystaw",
                "addr:street": "Sobieskiego",
                "addr:housenumber": "5",
                "addr:city:simc": 930070,
                "addr:street:sym_ul": 20421,
                "phone": "+48 825763065",
                "ref:regon": "110723348",
                "operator": "Powiat Krasnostawski",
                "operator:type": "government",
                "amenity": "school",
                "note": "Parent RSPO: 14375"
            }
        },
        {
            "id": 107720,
            "type": "Feature",
            "geometry": {
                "type": "Point",
                "coordinates": [
                    23.16043,
                    50.98353
                ]
            },
            "properties": {
                "isced:level": "3",
                "ref:rspo": 107720,
                "official_name": "Liceum \nOg\u00f3lnokszta\u0142c\u0105ce \nDla Doros\u0142ych",
                "name": "Liceum \nOg\u00f3lnokszta\u0142c\u0105ce \nDla Doros\u0142ych",
                "addr:postcode": "22-300",
                "addr:city": "Krasnystaw",
                "addr:street": "Sobieskiego",
                "addr:housenumber": "5",
                "addr:city:simc": 930070,
                "addr:street:sym_ul": 20421,
                "phone": "+48 825763065",
                "ref:regon": "061513551",
                "operator": "Powiat Krasnostawski",
                "operator:type": "government",
                "amenity": "school",
                "note": "Parent RSPO: 14375"
            }
        },
        {
            "id": 129480,
            "type": "Feature",
            "geometry": {
                "type": "Point",
                "coordinates": [
                    23.16043,
                    50.9835
                ]
            },
            "properties": {
                "ref:rspo": 129480,
                "official_name": "Publiczne Centrum Kszta\u0142cenia Zawodowego",
                "name": "Publiczne Centrum Kszta\u0142cenia Zawodowego",
                "addr:postcode": "22-300",
                "addr:city": "Krasnystaw",
                "addr:street": "Sobieskiego",
                "addr:housenumber": "5",
                "addr:city:simc": 930070,
                "addr:street:sym_ul": 20421,
                "phone": "+48 825763065",
                "ref:regon": "362625573",
                "operator": "Powiat Krasnostawski",
                "operator:type": "government",
                "fixme": "w zale\u017cno\u015bci od przedmiotu dzia\u0142alno\u015bci (np. amenity=training + training=*, amenity=dancing_school, amenity=language_school, amenity=music_school) albo amenity=school, amenity=college, albo landuse=education w zale\u017cno\u015bci od tego, jakie plac\u00f3wki wchodz\u0105 w sk\u0142ad zespo\u0142u. Sprawd\u017a, kiedy stosowa\u0107 amenity=* a kiedy landuse=education.",
                "note": "Parent RSPO: 14375"
            }
        },
        {
            "id": 276817,
            "type": "Feature",
            "geometry": {
                "type": "Point",
                "coordinates": [
                    23.16043,
                    50.98347
                ]
            },
            "properties": {
                "isced:level": "3",
                "ref:rspo": 276817,
                "official_name": "Bran\u017cowa Szko\u0142a I Stopnia Nr 2 w Krasnystaw",
                "name": "Bran\u017cowa Szko\u0142a I Stopnia Nr 2 w Krasnystaw",
                "addr:postcode": "22-300",
                "addr:city": "Krasnystaw",
                "addr:street": "Sobieskiego",
                "addr:housenumber": "5",
                "addr:city:simc": 930070,
                "addr:street:sym_ul": 20421,
                "phone": "+48 825763065",
                "email": "sekretariat@zs2krasnystaw.edu.pl",
                "ref:regon": "110675939",
                "operator": "Powiat Krasnostawski",
                "operator:type": "government",
                "amenity": "school",
                "note": "Parent RSPO: 14375"
            }
        },
        {
            "id": 267900,
            "type": "Feature",
            "geometry": {
                "type": "Point",
                "coordinates": [
                    23.17151,
                    50.98442
                ]
            },
            "properties": {
                "ref:rspo": 267900,
                "official_name": "Akcent-O\u015brodek Kszta\u0142cenia",
                "name": "Akcent-O\u015brodek Kszta\u0142cenia",
                "addr:postcode": "22-300",
                "addr:city": "Krasnystaw",
                "addr:street": "Poniatowskiego",
                "addr:housenumber": "1a",
                "addr:city:simc": 930070,
                "addr:street:sym_ul": 17100,
                "ref:regon": "380736643",
                "operator": "Anna Marz\u0119ta",
                "operator:type": "private",
                "fixme": "w zale\u017cno\u015bci od przedmiotu dzia\u0142alno\u015bci (np. amenity=training + training=*, amenity=dancing_school, amenity=language_school, amenity=music_school)"
            }
        },
        {
            "id": 84115,
            "type": "Feature",
            "geometry": {
                "type": "Point",
                "coordinates": [
                    23.15478,
                    50.98491
                ]
            },
            "properties": {
                "ref:rspo": 84115,
                "official_name": "Przedszkole Nr 8 im. Teatralna \u00d3semka w Krasnymstawie",
                "name": "Przedszkole Nr 8",
                "addr:postcode": "22-300",
                "addr:city": "Krasnystaw",
                "addr:street": "Tokarzewskiego",
                "addr:housenumber": "49",
                "addr:city:simc": 930070,
                "addr:street:sym_ul": 28749,
                "phone": "+48 825764469",
                "email": "teatralnaosemka@wp.pl",
                "website": "http:\/\/www.teatralnaosemka.pl.tl",
                "ref:regon": "110200372",
                "operator": "Miasto Krasnystaw",
                "operator:type": "government",
                "amenity": "kindergarten"
            }
        },
        {
            "id": 15430,
            "type": "Feature",
            "geometry": {
                "type": "Point",
                "coordinates": [
                    23.17264,
                    50.98512
                ]
            },
            "properties": {
                "ref:rspo": 15430,
                "official_name": "Perfekt Centrum Nauki J\u0119zyka Angielskiego",
                "name": "Perfekt Centrum Nauki J\u0119zyka Angielskiego",
                "addr:postcode": "22-300",
                "addr:city": "Krasnystaw",
                "addr:street": "Tadeusza Ko\u015bciuszki",
                "addr:housenumber": "3",
                "addr:city:simc": 930070,
                "addr:street:sym_ul": 9572,
                "phone": "+48 604213092",
                "ref:regon": "061460040",
                "ref:vatin": "PL5641721204",
                "operator": "Arben Dega",
                "operator:type": "private",
                "fixme": "w zale\u017cno\u015bci od przedmiotu dzia\u0142alno\u015bci (np. amenity=training + training=*, amenity=dancing_school, amenity=language_school, amenity=music_school)"
            }
        },
        {
            "id": 108700,
            "type": "Feature",
            "geometry": {
                "type": "Point",
                "coordinates": [
                    23.17967,
                    50.98519
                ]
            },
            "properties": {
                "isced:level": "1;2",
                "ref:rspo": 108700,
                "official_name": "Publiczna Szko\u0142a Podstawowa Nr 5 im. Orl\u0105t Lwowskich w Krasnymstawie",
                "name": "Publiczna Szko\u0142a Podstawowa Nr 5",
                "addr:postcode": "22-300",
                "addr:city": "Krasnystaw",
                "addr:street": "Mostowa",
                "addr:housenumber": "14",
                "addr:city:simc": 930070,
                "addr:street:sym_ul": 13379,
                "phone": "+48 825762891",
                "ref:regon": "000269096",
                "operator": "Miasto Krasnystaw",
                "operator:type": "government",
                "amenity": "school"
            }
        },
        {
            "id": 111396,
            "type": "Feature",
            "geometry": {
                "type": "Point",
                "coordinates": [
                    23.17967,
                    50.98516
                ]
            },
            "properties": {
                "ref:rspo": 111396,
                "official_name": "Oddzia\u0142 Przedszkolny Przy Publicznej Szkole Podstawowej Nr 5 im. Orl\u0105t Lwowskich w Krasnymstawie",
                "name": "Oddzia\u0142 Przedszkolny Przy Publicznej Szkole Podstawowej Nr 5",
                "addr:postcode": "22-300",
                "addr:city": "Krasnystaw",
                "addr:street": "Mostowa",
                "addr:housenumber": "14",
                "addr:city:simc": 930070,
                "addr:street:sym_ul": 13379,
                "phone": "+48 825762891",
                "email": "zespolszkolnr5@wp.pl",
                "website": "http:\/\/www.szkola5.krasnystaw.pl",
                "ref:regon": "061530325",
                "operator": "Miasto Krasnystaw",
                "operator:type": "government",
                "amenity": "kindergarten"
            }
        },
        {
            "id": 17325,
            "type": "Feature",
            "geometry": {
                "type": "Point",
                "coordinates": [
                    23.1615499,
                    50.9852599
                ]
            },
            "properties": {
                "isced:level": "4",
                "ref:rspo": 17325,
                "official_name": "Policealna Szko\u0142a Stowarzyszenia Szansa w Krasnymstawie",
                "name": "Policealna Szko\u0142a Stowarzyszenia Szansa w Krasnymstawie",
                "addr:postcode": "22-300",
                "addr:city": "Krasnystaw",
                "addr:street": "Okrzei",
                "addr:housenumber": "25",
                "addr:city:simc": 930070,
                "addr:street:sym_ul": 14909,
                "phone": "+48 607369895",
                "ref:regon": "061463907",
                "operator": "Stowarzyszenie \"Szansa\"",
                "operator:type": "ngo",
                "amenity": "college"
            }
        },
        {
            "id": 88958,
            "type": "Feature",
            "geometry": {
                "type": "Point",
                "coordinates": [
                    23.1615499,
                    50.9852299
                ]
            },
            "properties": {
                "isced:level": "3",
                "ref:rspo": 88958,
                "official_name": "Czteroletnie Zaoczne Liceum Og\u00f3lnokszta\u0142cace Stowarzyszenia Szansa w Krasnymstawie",
                "name": "Czteroletnie Zaoczne Liceum Og\u00f3lnokszta\u0142cace Stowarzyszenia Szansa w Krasnymstawie",
                "addr:postcode": "22-300",
                "addr:city": "Krasnystaw",
                "addr:street": "Okrzei",
                "addr:housenumber": "25",
                "addr:city:simc": 930070,
                "addr:street:sym_ul": 14909,
                "phone": "+48 607369895",
                "ref:regon": "061490940",
                "operator": "Stowarzyszenie \"Szansa\"",
                "operator:type": "ngo",
                "amenity": "school"
            }
        },
        {
            "id": 272922,
            "type": "Feature",
            "geometry": {
                "type": "Point",
                "coordinates": [
                    23.1615499,
                    50.985199900000005
                ]
            },
            "properties": {
                "isced:level": "1;2",
                "ref:rspo": 272922,
                "official_name": "Szko\u0142a Podstawowa dla Doros\u0142ych Stowarzyszenia \"Szansa\" w Krasnymstawie",
                "name": "Szko\u0142a Podstawowa dla Doros\u0142ych Stowarzyszenia \"Szansa\" w Krasnymstawie",
                "addr:postcode": "22-300",
                "addr:city": "Krasnystaw",
                "addr:street": "Okrzei",
                "addr:housenumber": "25",
                "addr:city:simc": 930070,
                "addr:street:sym_ul": 14909,
                "phone": "+48 815322128",
                "email": "szansa.krasnystaw@wp.pl",
                "ref:regon": "384320394",
                "ref:vatin": "PL9462275233",
                "operator": "Stowarzyszenie \"Szansa\"",
                "operator:type": "ngo",
                "amenity": "school"
            }
        },
        {
            "id": 14365,
            "type": "Feature",
            "geometry": {
                "type": "Point",
                "coordinates": [
                    23.17351,
                    50.98553
                ]
            },
            "properties": {
                "ref:rspo": 14365,
                "official_name": "Zesp\u00f3\u0142 Szk\u00f3\u0142 Nr 1 im. T. Ko\u015bciuszki w Krasnymstawie",
                "name": "Zesp\u00f3\u0142 Szk\u00f3\u0142 Nr 1",
                "addr:postcode": "22-300",
                "addr:city": "Krasnystaw",
                "addr:street": "Zamkowa",
                "addr:housenumber": "1",
                "addr:city:simc": 930070,
                "addr:street:sym_ul": 25547,
                "phone": "+48 825763755",
                "ref:regon": "000185650",
                "ref:vatin": "PL5641288233",
                "operator": "Powiat Krasnostawski",
                "operator:type": "government",
                "landuse": "education",
                "fixme": "amenity=school, amenity=college albo landuse=education w zale\u017cno\u015bci od tego, jakie plac\u00f3wki wchodz\u0105 w sk\u0142ad zespo\u0142u. Sprawd\u017a, kiedy stosowa\u0107 amenity=* a kiedy landuse=education.",
                "note": "Children RSPO: 17696;18013;131707"
            }
        },
        {
            "id": 17696,
            "type": "Feature",
            "geometry": {
                "type": "Point",
                "coordinates": [
                    23.17351,
                    50.985499999999995
                ]
            },
            "properties": {
                "isced:level": "3",
                "ref:rspo": 17696,
                "official_name": "Technikum Nr 1 w Zespole Szk\u00f3\u0142 Nr 1 im.t.kosciuszki w Krasnymstawie",
                "name": "Technikum Nr 1 w Zespole Szk\u00f3\u0142 Nr 1 im.t.kosciuszki w Krasnymstawie",
                "addr:postcode": "22-300",
                "addr:city": "Krasnystaw",
                "addr:street": "Zamkowa",
                "addr:housenumber": "1",
                "addr:city:simc": 930070,
                "addr:street:sym_ul": 25547,
                "phone": "+48 825763755",
                "ref:regon": "110723667",
                "operator": "Powiat Krasnostawski",
                "operator:type": "government",
                "amenity": "school",
                "note": "Parent RSPO: 14365"
            }
        },
        {
            "id": 18013,
            "type": "Feature",
            "geometry": {
                "type": "Point",
                "coordinates": [
                    23.17351,
                    50.98547
                ]
            },
            "properties": {
                "isced:level": "3",
                "ref:rspo": 18013,
                "official_name": "Bran\u017cowa Szko\u0142a I Stopnia Nr 1 w Zespole Szk\u00f3\u0142 Nr 1 w Krasnymstawie",
                "name": "Bran\u017cowa Szko\u0142a I Stopnia Nr 1 w Zespole Szk\u00f3\u0142 Nr 1 w Krasnymstawie",
                "addr:postcode": "22-300",
                "addr:city": "Krasnystaw",
                "addr:street": "Zamkowa",
                "addr:housenumber": "1",
                "addr:city:simc": 930070,
                "addr:street:sym_ul": 25547,
                "phone": "+48 825763755",
                "ref:regon": "110723680",
                "operator": "Powiat Krasnostawski",
                "operator:type": "government",
                "amenity": "school",
                "note": "Parent RSPO: 14365"
            }
        },
        {
            "id": 131707,
            "type": "Feature",
            "geometry": {
                "type": "Point",
                "coordinates": [
                    23.17351,
                    50.98544
                ]
            },
            "properties": {
                "isced:level": "3",
                "ref:rspo": 131707,
                "official_name": "Liceum Og\u00f3lnokszta\u0142c\u0105ce dla Doros\u0142ych",
                "name": "Liceum Og\u00f3lnokszta\u0142c\u0105ce dla Doros\u0142ych",
                "addr:postcode": "22-300",
                "addr:city": "Krasnystaw",
                "addr:street": "Zamkowa",
                "addr:housenumber": "1",
                "addr:city:simc": 930070,
                "addr:street:sym_ul": 25547,
                "phone": "+48 825763755",
                "ref:regon": "365335960",
                "operator": "Powiat Krasnostawski",
                "operator:type": "government",
                "amenity": "school",
                "note": "Parent RSPO: 14365"
            }
        },
        {
            "id": 84113,
            "type": "Feature",
            "geometry": {
                "type": "Point",
                "coordinates": [
                    23.16967,
                    50.98567
                ]
            },
            "properties": {
                "ref:rspo": 84113,
                "official_name": "Przedszkole Nr 5 im. Bajeczka w Krasnymstawie",
                "name": "Przedszkole Nr 5",
                "addr:postcode": "22-300",
                "addr:city": "Krasnystaw",
                "addr:street": "Poniatowskiego",
                "addr:housenumber": "13",
                "addr:city:simc": 930070,
                "addr:street:sym_ul": 17100,
                "phone": "+48 825763791",
                "email": "przedszkolenr5wkrasnymstawie@poczta.onet.pl",
                "website": "http:\/\/www.bajeczka5.eu",
                "ref:regon": "110200366",
                "operator": "Miasto Krasnystaw",
                "operator:type": "government",
                "amenity": "kindergarten"
            }
        },
        {
            "id": 84112,
            "type": "Feature",
            "geometry": {
                "type": "Point",
                "coordinates": [
                    23.16491,
                    50.98718
                ]
            },
            "properties": {
                "ref:rspo": 84112,
                "official_name": "Przekszkole Nr 4 im. Kubusia Puchatka w Krasnymstawie",
                "name": "Przekszkole Nr 4",
                "addr:postcode": "22-300",
                "addr:city": "Krasnystaw",
                "addr:street": "Adama Mickiewicza",
                "addr:housenumber": "12",
                "addr:city:simc": 930070,
                "addr:street:sym_ul": 12734,
                "phone": "+48 825762408",
                "email": "przedszkole_kubusia_puchatka@interia.pl",
                "website": "http:\/\/www.kubus.krasnystaw.pl",
                "ref:regon": "110200395",
                "operator": "Miasto Krasnystaw",
                "operator:type": "government",
                "amenity": "kindergarten"
            }
        },
        {
            "id": 107735,
            "type": "Feature",
            "geometry": {
                "type": "Point",
                "coordinates": [
                    23.16359,
                    50.98747
                ]
            },
            "properties": {
                "isced:level": "1;2",
                "ref:rspo": 107735,
                "official_name": "Publiczna Szko\u0142a Podstawowa Nr 1 im. Adama Mickiewicza w Krasnymstawie",
                "name": "Publiczna Szko\u0142a Podstawowa Nr 1",
                "addr:postcode": "22-300",
                "addr:city": "Krasnystaw",
                "addr:street": "Poniatowskiego",
                "addr:housenumber": "37",
                "addr:city:simc": 930070,
                "addr:street:sym_ul": 17100,
                "phone": "+48 825763731",
                "email": "sekretariat@jedynka.futurehost.pl",
                "website": "http:\/\/www.jedynka.futurehost.pl",
                "ref:regon": "110599196",
                "operator": "Miasto Krasnystaw",
                "operator:type": "government",
                "amenity": "school"
            }
        },
        {
            "id": 84114,
            "type": "Feature",
            "geometry": {
                "type": "Point",
                "coordinates": [
                    23.16244,
                    50.98887
                ]
            },
            "properties": {
                "ref:rspo": 84114,
                "official_name": "Przedszkole Nr 6 \"Za \u017bywop\u0142otem\" im. Marii Kownackiej w Krasnymstawie,",
                "name": "Przedszkole Nr 6 \"Za \u017bywop\u0142otem\"",
                "addr:postcode": "22-300",
                "addr:city": "Krasnystaw",
                "addr:street": "Poniatowskiego",
                "addr:housenumber": "42",
                "addr:city:simc": 930070,
                "addr:street:sym_ul": 17100,
                "phone": "+48 825762134",
                "email": "przedszkolen6integ@vp.pl",
                "ref:regon": "110200389",
                "operator": "Miasto Krasnystaw",
                "operator:type": "government",
                "amenity": "kindergarten"
            }
        },
        {
            "id": 14975,
            "type": "Feature",
            "geometry": {
                "type": "Point",
                "coordinates": [
                    23.14962,
                    50.98905
                ]
            },
            "properties": {
                "isced:level": "3",
                "ref:rspo": 14975,
                "official_name": "Spo\u0142eczne Liceum Og\u00f3lnokszta\u0142cace im.hetmana Jana Zamoyskiego Towarzystwa Wiedzy Powszechnej w Krasnymstawie",
                "name": "Spo\u0142eczne Liceum Og\u00f3lnokszta\u0142cace im.hetmana Jana Zamoyskiego Towarzystwa Wiedzy Powszechnej w Krasnymstawie",
                "addr:postcode": "22-300",
                "addr:city": "Krasnystaw",
                "addr:street": "Odrodzenia",
                "addr:housenumber": "45",
                "addr:city:simc": 930070,
                "addr:street:sym_ul": 14755,
                "phone": "+48 825764505",
                "email": "slokstaw@ch.onet.pl",
                "ref:regon": "061459952",
                "operator": "Towarzystwo Wiedzy Powszechnej Oddzia\u0142 Regionalny W Lublinie",
                "operator:type": "ngo",
                "amenity": "school"
            }
        },
        {
            "id": 15200,
            "type": "Feature",
            "geometry": {
                "type": "Point",
                "coordinates": [
                    23.14962,
                    50.98902
                ]
            },
            "properties": {
                "ref:rspo": 15200,
                "official_name": "Niepubliczna Specjalistyczna Poradnia Psychologiczno-Pedagogiczna Twp",
                "name": "Niepubliczna Specjalistyczna Poradnia Psychologiczno-Pedagogiczna Twp",
                "addr:postcode": "22-300",
                "addr:city": "Krasnystaw",
                "addr:street": "Odrodzenia",
                "addr:housenumber": "45",
                "addr:city:simc": 930070,
                "addr:street:sym_ul": 14755,
                "phone": "+48 825764505",
                "ref:regon": "061462894",
                "operator": "Dane Do Uzupe\u0142nienia",
                "operator:type": "private",
                "healthcare": "counselling",
                "counselling_type": "education",
                "fixme": "w zale\u017cno\u015bci od przedmiotu dzia\u0142alno\u015bci (np. healthcare=counselling + counselling_type=education albo healthcare=psychotherapist)"
            }
        },
        {
            "id": 91379,
            "type": "Feature",
            "geometry": {
                "type": "Point",
                "coordinates": [
                    23.19295,
                    50.9905199
                ]
            },
            "properties": {
                "ref:rspo": 91379,
                "official_name": "Niepubliczne Przedszkole Specjalne dla Dzieci Niepe\u0142nosprawnych, Ul. Kwiatowa 2, 22-300 Krasnystaw",
                "name": "Niepubliczne Przedszkole Specjalne dla Dzieci Niepe\u0142nosprawnych, Ul. Kwiatowa 2, 22-300 Krasnystaw",
                "addr:postcode": "22-300",
                "addr:city": "Krasnystaw",
                "addr:street": "Kwiatowa",
                "addr:housenumber": "2",
                "addr:city:simc": 930070,
                "addr:street:sym_ul": 10562,
                "phone": "+48 825763227",
                "email": "nzozort@interia.pl",
                "website": "http:\/\/www.magnumbonum.pl",
                "ref:regon": "061498449",
                "operator": "Stowarzyszenie Integracyjne \"Magnum Bonum\"",
                "operator:type": "ngo",
                "amenity": "kindergarten"
            }
        }
    ]
}