{
    "type": "FeatureCollection",
    "features": [
        {
            "id": 104898,
            "type": "Feature",
            "geometry": {
                "type": "Point",
                "coordinates": [
                    16.43996,
                    50.70302
                ]
            },
            "properties": {
                "isced:level": "1;2",
                "ref:rspo": 104898,
                "official_name": "Publiczna Szko\u0142a Podstawowa",
                "name": "Publiczna Szko\u0142a Podstawowa",
                "addr:country": "PL",
                "addr:postcode": "58-320",
                "addr:city": "Walim",
                "addr:street": "ul. Boczna",
                "addr:housenumber": "8",
                "addr:teryt:simc": 1528,
                "addr:teryt:sym_ul": 856474,
                "contact:phone": "+48 748457350",
                "contact:email": "pspwalim@wp.pl",
                "ref:regon": "000595418",
                "ref:vatin": "PL8862895482",
                "operator": "Gmina Walim",
                "operator:type": "government",
                "amenity": "school"
            }
        },
        {
            "id": 73121,
            "type": "Feature",
            "geometry": {
                "type": "Point",
                "coordinates": [
                    16.44755,
                    50.70329
                ]
            },
            "properties": {
                "ref:rspo": 73121,
                "official_name": "M\u0142odzie\u017cowy O\u015brodek Socjoterapii im. Unicef w Walimiu",
                "name": "M\u0142odzie\u017cowy O\u015brodek Socjoterapii",
                "addr:country": "PL",
                "addr:postcode": "58-320",
                "addr:city": "Walim",
                "addr:street": "ul. Nowa Kolonia",
                "addr:housenumber": "9",
                "addr:teryt:simc": 14332,
                "addr:teryt:sym_ul": 856474,
                "contact:phone": "+48 748457513",
                "contact:email": "osw.walim@wp.pl",
                "ref:regon": "000595401",
                "ref:vatin": "PL8861136780",
                "operator": "Powiat Wa\u0142brzyski",
                "operator:type": "government",
                "fixme": "amenity=social_facility + social_facility=group_home + social_facility:for=juvenile",
                "note": "Children RSPO: 128510;263498"
            }
        },
        {
            "id": 92128,
            "type": "Feature",
            "geometry": {
                "type": "Point",
                "coordinates": [
                    16.44755,
                    50.70326
                ]
            },
            "properties": {
                "ref:rspo": 92128,
                "official_name": "Powiatowa Poradnia Psychologiczno-Pedagogiczna",
                "name": "Powiatowa Poradnia Psychologiczno-Pedagogiczna",
                "addr:country": "PL",
                "addr:postcode": "58-320",
                "addr:city": "Walim",
                "addr:street": "ul. Nowa Kolonia",
                "addr:housenumber": "9",
                "addr:teryt:simc": 14332,
                "addr:teryt:sym_ul": 856474,
                "contact:phone": "+48 748460563",
                "contact:email": "sekretariat@pppp.walbrzych.pl",
                "contact:website": "http:\/\/pppp.walbrzych.pl",
                "ref:regon": "022022480",
                "operator": "Powiat Wa\u0142brzyski",
                "operator:type": "government",
                "healthcare": "counselling",
                "counselling_type": "education",
                "fixme": "w zale\u017cno\u015bci od przedmiotu dzia\u0142alno\u015bci (np. healthcare=counselling + counselling_type=education albo healthcare=psychotherapist)"
            }
        },
        {
            "id": 128510,
            "type": "Feature",
            "geometry": {
                "type": "Point",
                "coordinates": [
                    16.44755,
                    50.703230000000005
                ]
            },
            "properties": {
                "isced:level": "3",
                "ref:rspo": 128510,
                "official_name": "Bran\u017cowa Szko\u0142a I Stopnia Specjalna w Walimiu",
                "name": "Bran\u017cowa Szko\u0142a I Stopnia Specjalna w Walimiu",
                "addr:country": "PL",
                "addr:postcode": "58-320",
                "addr:city": "Walim",
                "addr:street": "ul. Nowa Kolonia",
                "addr:housenumber": "9",
                "addr:teryt:simc": 14332,
                "addr:teryt:sym_ul": 856474,
                "contact:phone": "+48 748457513",
                "contact:email": "osw.walim@wp.pl",
                "contact:website": "http:\/\/www.zpr.edu.pl",
                "ref:regon": "362302485",
                "operator": "Powiat Wa\u0142brzyski",
                "operator:type": "government",
                "amenity": "school",
                "note": "Parent RSPO: 73121"
            }
        },
        {
            "id": 263498,
            "type": "Feature",
            "geometry": {
                "type": "Point",
                "coordinates": [
                    16.44755,
                    50.7032
                ]
            },
            "properties": {
                "isced:level": "1;2",
                "ref:rspo": 263498,
                "official_name": "Szko\u0142a Podstawowa Specjalna",
                "name": "Szko\u0142a Podstawowa Specjalna",
                "addr:country": "PL",
                "addr:postcode": "58-320",
                "addr:city": "Walim",
                "addr:street": "ul. Nowa Kolonia",
                "addr:housenumber": "9",
                "addr:teryt:simc": 14332,
                "addr:teryt:sym_ul": 856474,
                "contact:phone": "+48 748457513",
                "contact:email": "osw.walim@wp.pl",
                "contact:website": "http:\/\/www.zpr.edu.pl",
                "ref:regon": "368195458",
                "operator": "Powiat Wa\u0142brzyski",
                "operator:type": "government",
                "amenity": "school",
                "note": "Parent RSPO: 73121"
            }
        },
        {
            "id": 84166,
            "type": "Feature",
            "geometry": {
                "type": "Point",
                "coordinates": [
                    16.4051,
                    50.73888
                ]
            },
            "properties": {
                "isced:level": "1;2",
                "ref:rspo": 84166,
                "official_name": "Publiczna Szko\u0142a Podstawowa im.janusza Korczaka w Jugowicach",
                "name": "Publiczna Szko\u0142a Podstawowa im.janusza Korczaka w Jugowicach",
                "addr:country": "PL",
                "addr:postcode": "58-321",
                "addr:city": "Jugowice",
                "addr:street": "ul. G\u0142\u00f3wna",
                "addr:housenumber": "34",
                "addr:teryt:simc": 5635,
                "addr:teryt:sym_ul": 856400,
                "contact:phone": "+48 748453385",
                "contact:email": "pspjug@poczta.onet.pl",
                "ref:regon": "001193975",
                "ref:vatin": "PL8862535660",
                "operator": "Gmina Walim",
                "operator:type": "government",
                "amenity": "school"
            }
        }
    ]
}