{
    "type": "FeatureCollection",
    "features": [
        {
            "id": 126259,
            "type": "Feature",
            "geometry": {
                "type": "Point",
                "coordinates": [
                    16.02966,
                    51.36518
                ]
            },
            "properties": {
                "ref:rspo": 126259,
                "official_name": "Punkt Przedszkolny w \u017babicach",
                "name": "Punkt Przedszkolny w \u017babicach",
                "addr:postcode": "59-140",
                "addr:place": "\u017babice",
                "addr:housenumber": "21a",
                "addr:teryt:simc": 363286,
                "phone": "+48 768174106",
                "email": "trzebnicesp@wp.pl",
                "ref:regon": "360199681",
                "operator": "Gmina Chocian\u00f3w",
                "operator:type": "government",
                "amenity": "kindergarten"
            }
        },
        {
            "id": 40085,
            "type": "Feature",
            "geometry": {
                "type": "Point",
                "coordinates": [
                    16.01029,
                    51.38117
                ]
            },
            "properties": {
                "isced:level": "1;2",
                "ref:rspo": 40085,
                "official_name": "Szko\u0142a Podstawowa im. W\u0142adys\u0142awa St.reymonta w Trzebnicach",
                "name": "Szko\u0142a Podstawowa",
                "addr:postcode": "59-140",
                "addr:place": "Trzebnice",
                "addr:housenumber": "113a",
                "addr:teryt:simc": 363257,
                "phone": "+48 768174106",
                "email": "sekretariat@sptrzebnice.pl",
                "website": "https:\/\/sptrzebnice.pl\/",
                "ref:regon": "001240019",
                "ref:vatin": "PL6921121026",
                "operator": "Gmina Chocian\u00f3w",
                "operator:type": "government",
                "amenity": "school"
            }
        },
        {
            "id": 126261,
            "type": "Feature",
            "geometry": {
                "type": "Point",
                "coordinates": [
                    16.01029,
                    51.381139999999995
                ]
            },
            "properties": {
                "ref:rspo": 126261,
                "official_name": "Punkt Przedszkolny w Trzebnicach",
                "name": "Punkt Przedszkolny w Trzebnicach",
                "addr:postcode": "59-140",
                "addr:place": "Trzebnice",
                "addr:housenumber": "113a",
                "addr:teryt:simc": 363257,
                "phone": "+48 768174106",
                "email": "trzebnicesp@wp.pl",
                "ref:regon": "360199126",
                "operator": "Gmina Chocian\u00f3w",
                "operator:type": "government",
                "amenity": "kindergarten"
            }
        },
        {
            "id": 40084,
            "type": "Feature",
            "geometry": {
                "type": "Point",
                "coordinates": [
                    15.90981,
                    51.41279
                ]
            },
            "properties": {
                "isced:level": "1;2",
                "ref:rspo": 40084,
                "official_name": "Szko\u0142a Podstawowa im. Odkrywc\u00f3w Polskiej Miedzi w Chocianowie",
                "name": "Szko\u0142a Podstawowa",
                "addr:postcode": "59-140",
                "addr:city": "Chocian\u00f3w",
                "addr:street": "Weso\u0142a",
                "addr:housenumber": "16",
                "addr:teryt:simc": 954060,
                "addr:teryt:sym_ul": 23884,
                "phone": "+48 768185171",
                "email": "sekretariat@spchocianow.lap.pl",
                "website": "http:\/\/spchocianow.pl",
                "ref:regon": "001321730",
                "ref:vatin": "PL6921102543",
                "operator": "Gmina Chocian\u00f3w",
                "operator:type": "government",
                "amenity": "school"
            }
        },
        {
            "id": 63453,
            "type": "Feature",
            "geometry": {
                "type": "Point",
                "coordinates": [
                    15.9096,
                    51.41323
                ]
            },
            "properties": {
                "ref:rspo": 63453,
                "official_name": "Przedszkole Miejskie w Chocianowie",
                "name": "Przedszkole Miejskie w Chocianowie",
                "addr:postcode": "59-140",
                "addr:city": "Chocian\u00f3w",
                "addr:street": "Weso\u0142a",
                "addr:housenumber": "14",
                "addr:teryt:simc": 954060,
                "addr:teryt:sym_ul": 23884,
                "phone": "+48 768185643",
                "email": "przedszkolechocianow@wp.pl",
                "website": "http:\/\/pmchocianow.szkolnastron.pl",
                "ref:regon": "001023144",
                "ref:vatin": "PL6921130456",
                "operator": "Gmina Chocian\u00f3w",
                "operator:type": "government",
                "amenity": "kindergarten"
            }
        },
        {
            "id": 23575,
            "type": "Feature",
            "geometry": {
                "type": "Point",
                "coordinates": [
                    15.89753,
                    51.42262
                ]
            },
            "properties": {
                "ref:rspo": 23575,
                "official_name": "Zesp\u00f3\u0142 Szk\u00f3\u0142 w Chocianowie",
                "name": "Zesp\u00f3\u0142 Szk\u00f3\u0142 w Chocianowie",
                "addr:postcode": "59-140",
                "addr:city": "Chocian\u00f3w",
                "addr:street": "Kolonialna",
                "addr:housenumber": "13",
                "addr:teryt:simc": 954060,
                "addr:teryt:sym_ul": 8968,
                "phone": "+48 768185166",
                "email": "chzs@poczta.onet.pl",
                "website": "http:\/\/www.zschocianow.pl",
                "ref:regon": "000032514",
                "ref:vatin": "PL6921142382",
                "operator": "Powiat Polkowicki",
                "operator:type": "government",
                "landuse": "education",
                "fixme": "amenity=school, amenity=college albo landuse=education w zale\u017cno\u015bci od tego, jakie plac\u00f3wki wchodz\u0105 w sk\u0142ad zespo\u0142u. Sprawd\u017a, kiedy stosowa\u0107 amenity=* a kiedy landuse=education.",
                "note": "Children RSPO: 34920;34922"
            }
        },
        {
            "id": 34920,
            "type": "Feature",
            "geometry": {
                "type": "Point",
                "coordinates": [
                    15.89753,
                    51.42259
                ]
            },
            "properties": {
                "isced:level": "3",
                "ref:rspo": 34920,
                "official_name": "Bran\u017cowa Szko\u0142a I Stopnia",
                "name": "Bran\u017cowa Szko\u0142a I Stopnia",
                "addr:postcode": "59-140",
                "addr:city": "Chocian\u00f3w",
                "addr:street": "Kolonialna",
                "addr:housenumber": "13",
                "addr:teryt:simc": 954060,
                "addr:teryt:sym_ul": 8968,
                "phone": "+48 768185166",
                "email": "chzs@poczta.onet.pl",
                "website": "http:\/\/www.chzs.hg.pl",
                "ref:regon": "391009038",
                "ref:vatin": "PL6921142382",
                "operator": "Powiat Polkowicki",
                "operator:type": "government",
                "amenity": "school",
                "note": "Parent RSPO: 23575"
            }
        },
        {
            "id": 34922,
            "type": "Feature",
            "geometry": {
                "type": "Point",
                "coordinates": [
                    15.89753,
                    51.422560000000004
                ]
            },
            "properties": {
                "isced:level": "3",
                "ref:rspo": 34922,
                "official_name": "Technikum",
                "name": "Technikum",
                "addr:postcode": "59-140",
                "addr:city": "Chocian\u00f3w",
                "addr:street": "Kolonialna",
                "addr:housenumber": "13",
                "addr:teryt:simc": 954060,
                "addr:teryt:sym_ul": 8968,
                "phone": "+48 768185166",
                "email": "chzs@poczta.onet.pl",
                "website": "http:\/\/www.zschocianow.pl",
                "ref:regon": "391009073",
                "ref:vatin": "PL6921142382",
                "operator": "Powiat Polkowicki",
                "operator:type": "government",
                "amenity": "school",
                "note": "Parent RSPO: 23575"
            }
        },
        {
            "id": 132551,
            "type": "Feature",
            "geometry": {
                "type": "Point",
                "coordinates": [
                    15.88411,
                    51.42503
                ]
            },
            "properties": {
                "ref:rspo": 132551,
                "official_name": "Przedszkole Z Oddzia\u0142ami Integracyjnymi w Chocianowie",
                "name": "Przedszkole Z Oddzia\u0142ami Integracyjnymi w Chocianowie",
                "addr:postcode": "59-140",
                "addr:city": "Chocian\u00f3w",
                "addr:street": "\u015arodkowa",
                "addr:housenumber": "3a",
                "addr:teryt:simc": 954060,
                "addr:teryt:sym_ul": 22419,
                "phone": "+48 767538747",
                "email": "przedszkole@pi-chocianow.pl",
                "website": "http:\/\/www.pi-chocianow.pl",
                "ref:regon": "365765814",
                "operator": "Gmina Chocian\u00f3w",
                "operator:type": "government",
                "amenity": "kindergarten"
            }
        },
        {
            "id": 40087,
            "type": "Feature",
            "geometry": {
                "type": "Point",
                "coordinates": [
                    16.04056,
                    51.42594
                ]
            },
            "properties": {
                "isced:level": "1;2",
                "ref:rspo": 40087,
                "official_name": "Szko\u0142a im. Jana Paw\u0142a II w Szklarach Dolnych",
                "name": "Szko\u0142a",
                "addr:postcode": "59-140",
                "addr:place": "Szklary Dolne",
                "addr:housenumber": "48",
                "addr:teryt:simc": 363240,
                "phone": "+48 768171667",
                "email": "sp.sz.dolne48@gazeta.pl",
                "ref:regon": "001240002",
                "ref:vatin": "PL6922215775",
                "operator": "Gmina Chocian\u00f3w",
                "operator:type": "government",
                "amenity": "school"
            }
        },
        {
            "id": 129880,
            "type": "Feature",
            "geometry": {
                "type": "Point",
                "coordinates": [
                    16.04056,
                    51.425909999999995
                ]
            },
            "properties": {
                "ref:rspo": 129880,
                "official_name": "Punkt Przedszkolny w Szklarach Dolnych",
                "name": "Punkt Przedszkolny w Szklarach Dolnych",
                "addr:postcode": "59-140",
                "addr:city": "Szklary Dolne",
                "addr:street": "Ksi\u0119dza Kardyna\u0142a Stefana Wyszy\u0144skiego",
                "addr:housenumber": "48",
                "addr:teryt:simc": 363234,
                "addr:teryt:sym_ul": 40976,
                "phone": "+48 768171667",
                "email": "sp.sz.dolne48@gazeta.pl",
                "ref:regon": "363052270",
                "operator": "Gmina Chocian\u00f3w",
                "operator:type": "government",
                "amenity": "kindergarten"
            }
        },
        {
            "id": 40086,
            "type": "Feature",
            "geometry": {
                "type": "Point",
                "coordinates": [
                    15.94973,
                    51.48375
                ]
            },
            "properties": {
                "isced:level": "1;2",
                "ref:rspo": 40086,
                "official_name": "Szko\u0142a Podstawowa w Parchowie",
                "name": "Szko\u0142a Podstawowa w Parchowie",
                "addr:postcode": "59-140",
                "addr:place": "Parch\u00f3w",
                "addr:housenumber": "29",
                "addr:teryt:simc": 363197,
                "phone": "+48 768171110",
                "email": "sekretariat@spparchow.pl",
                "website": "http:\/\/www.spparchow.szkolnastrona.pl",
                "ref:regon": "001239849",
                "ref:vatin": "PL6922213894",
                "operator": "Gmina Chocian\u00f3w",
                "operator:type": "government",
                "amenity": "school"
            }
        },
        {
            "id": 129887,
            "type": "Feature",
            "geometry": {
                "type": "Point",
                "coordinates": [
                    15.94973,
                    51.48372
                ]
            },
            "properties": {
                "ref:rspo": 129887,
                "official_name": "Punkt Przedszkolny w Parchowie",
                "name": "Punkt Przedszkolny w Parchowie",
                "addr:postcode": "59-140",
                "addr:place": "Parch\u00f3w",
                "addr:housenumber": "29",
                "addr:teryt:simc": 363197,
                "phone": "+48 768171110",
                "email": "szkolaparchow@op.pl",
                "ref:regon": "363051967",
                "operator": "Gmina Chocian\u00f3w",
                "operator:type": "government",
                "amenity": "kindergarten"
            }
        }
    ]
}