{
    "type": "FeatureCollection",
    "features": [
        {
            "id": 91072,
            "type": "Feature",
            "geometry": {
                "type": "Point",
                "coordinates": [
                    15.84178,
                    51.48107
                ]
            },
            "properties": {
                "isced:level": "1;2",
                "ref:rspo": 91072,
                "official_name": "Publiczna Szko\u0142a Podstawowa im. W\u0142adys\u0142awa Reymonta w Wysokiej",
                "name": "Publiczna Szko\u0142a Podstawowa",
                "addr:postcode": "59-170",
                "addr:place": "Wysoka",
                "addr:housenumber": "16A",
                "addr:city:simc": 366913,
                "phone": "+48 768320504",
                "email": "wysokaszkola@op.pl",
                "website": "http:\/\/pspwysoka.szkolnastrona.pl\/",
                "ref:regon": "001239890",
                "ref:vatin": "PL5020082512",
                "operator": "Gmina Przemk\u00f3w",
                "operator:type": "government",
                "amenity": "school"
            }
        },
        {
            "id": 23652,
            "type": "Feature",
            "geometry": {
                "type": "Point",
                "coordinates": [
                    15.78011,
                    51.52097
                ]
            },
            "properties": {
                "ref:rspo": 23652,
                "official_name": "Dom Wczas\u00f3w Dzieci\u0119cych w Przemkowie",
                "name": "Dom Wczas\u00f3w Dzieci\u0119cych w Przemkowie",
                "addr:postcode": "59-170",
                "addr:city": "Przemk\u00f3w",
                "addr:street": "Le\u015bna G\u00f3ra",
                "addr:housenumber": "1a",
                "addr:city:simc": 954194,
                "addr:street:sym_ul": 10901,
                "phone": "+48 768320613",
                "email": "sekretariat@dwdzprzemkow.eu",
                "website": "http:\/\/www.zielonaszkolaprzemkow.pl",
                "ref:regon": "000191945",
                "ref:vatin": "PL6931068641",
                "operator": "Powiat Polkowicki",
                "operator:type": "government",
                "leisure": "resort"
            }
        },
        {
            "id": 91071,
            "type": "Feature",
            "geometry": {
                "type": "Point",
                "coordinates": [
                    15.78154,
                    51.52254
                ]
            },
            "properties": {
                "ref:rspo": 91071,
                "official_name": "Zesp\u00f3\u0142 Szk\u00f3\u0142 w Przemkowie",
                "name": "Zesp\u00f3\u0142 Szk\u00f3\u0142 w Przemkowie",
                "addr:postcode": "59-170",
                "addr:city": "Przemk\u00f3w",
                "addr:street": "Le\u015bna G\u00f3ra",
                "addr:housenumber": "3",
                "addr:city:simc": 954194,
                "addr:street:sym_ul": 10901,
                "phone": "+48 768320666",
                "email": "gim_przemkow@poczta.onet.pl",
                "website": "http:\/\/www.zsprzemkow.pl",
                "ref:regon": "391032623",
                "ref:vatin": "PL6922348855",
                "operator": "Gmina Przemk\u00f3w",
                "operator:type": "government",
                "landuse": "education",
                "fixme": "amenity=school, amenity=college albo landuse=education w zale\u017cno\u015bci od tego, jakie plac\u00f3wki wchodz\u0105 w sk\u0142ad zespo\u0142u. Sprawd\u017a, kiedy stosowa\u0107 amenity=* a kiedy landuse=education.",
                "note": "Children RSPO: 91073;106261;106263"
            }
        },
        {
            "id": 91073,
            "type": "Feature",
            "geometry": {
                "type": "Point",
                "coordinates": [
                    15.78154,
                    51.52251
                ]
            },
            "properties": {
                "isced:level": "1;2",
                "ref:rspo": 91073,
                "official_name": "Szko\u0142a Podstawowa Nr 1 im. Janusza Korczaka",
                "name": "Szko\u0142a Podstawowa Nr 1",
                "addr:postcode": "59-170",
                "addr:city": "Przemk\u00f3w",
                "addr:street": "Le\u015bna G\u00f3ra",
                "addr:housenumber": "3",
                "addr:city:simc": 954194,
                "addr:street:sym_ul": 10901,
                "phone": "+48 768320666",
                "email": "gim_przemkow@poczta.onet.p",
                "ref:regon": "000263136",
                "ref:vatin": "PL6922348855",
                "operator": "Gmina Przemk\u00f3w",
                "operator:type": "government",
                "amenity": "school",
                "note": "Parent RSPO: 91071"
            }
        },
        {
            "id": 106261,
            "type": "Feature",
            "geometry": {
                "type": "Point",
                "coordinates": [
                    15.78154,
                    51.52248
                ]
            },
            "properties": {
                "isced:level": "3",
                "ref:rspo": 106261,
                "official_name": "Bran\u017cowa Szko\u0142a I Stopnia",
                "name": "Bran\u017cowa Szko\u0142a I Stopnia",
                "addr:postcode": "59-170",
                "addr:city": "Przemk\u00f3w",
                "addr:street": "Le\u015bna G\u00f3ra",
                "addr:housenumber": "3",
                "addr:city:simc": 954194,
                "addr:street:sym_ul": 10901,
                "phone": "+48 768320666",
                "email": "gim_przemkow@poczta.onet.pl",
                "ref:regon": "391032630",
                "operator": "Gmina Przemk\u00f3w",
                "operator:type": "government",
                "amenity": "school",
                "note": "Parent RSPO: 91071"
            }
        },
        {
            "id": 106263,
            "type": "Feature",
            "geometry": {
                "type": "Point",
                "coordinates": [
                    15.78154,
                    51.52245
                ]
            },
            "properties": {
                "isced:level": "3",
                "ref:rspo": 106263,
                "official_name": "Liceum Og\u00f3lnokszta\u0142c\u0105ce w Przemkowie",
                "name": "Liceum Og\u00f3lnokszta\u0142c\u0105ce w Przemkowie",
                "addr:postcode": "59-170",
                "addr:city": "Przemk\u00f3w",
                "addr:street": "Le\u015bna G\u00f3ra",
                "addr:housenumber": "3",
                "addr:city:simc": 954194,
                "addr:street:sym_ul": 10901,
                "phone": "+48 768320666",
                "email": "gim_przemkow@poczta.onet.pl",
                "website": "http:\/\/www.zsprzemkow.internetdsl.pl",
                "ref:regon": "391032652",
                "operator": "Gmina Przemk\u00f3w",
                "operator:type": "government",
                "amenity": "school",
                "note": "Parent RSPO: 91071"
            }
        },
        {
            "id": 91091,
            "type": "Feature",
            "geometry": {
                "type": "Point",
                "coordinates": [
                    15.79448,
                    51.5254
                ]
            },
            "properties": {
                "ref:rspo": 91091,
                "official_name": "Publiczne Przedszkole Nr 1 w Przemkowie",
                "name": "Publiczne Przedszkole Nr 1 w Przemkowie",
                "addr:postcode": "59-170",
                "addr:city": "Przemk\u00f3w",
                "addr:street": "S\u0142oneczna",
                "addr:housenumber": "23",
                "addr:city:simc": 954194,
                "addr:street:sym_ul": 20254,
                "phone": "+48 768319553",
                "email": "pp1przemkow@wp.pl",
                "website": "http:\/\/pp1przemkow.szkolnastrona.pl",
                "ref:regon": "390244814",
                "ref:vatin": "PL5020093154",
                "operator": "Gmina Przemk\u00f3w",
                "operator:type": "government",
                "amenity": "kindergarten"
            }
        },
        {
            "id": 91074,
            "type": "Feature",
            "geometry": {
                "type": "Point",
                "coordinates": [
                    15.75962,
                    51.5417
                ]
            },
            "properties": {
                "isced:level": "1;2",
                "ref:rspo": 91074,
                "official_name": "Szko\u0142a Podstawowa Nr 2 im. Wojska Polskiego w Przemkowie",
                "name": "Szko\u0142a Podstawowa Nr 2",
                "addr:postcode": "59-170",
                "addr:city": "Przemk\u00f3w",
                "addr:street": "Rybna",
                "addr:housenumber": "3A",
                "addr:city:simc": 954194,
                "addr:street:sym_ul": 19178,
                "phone": "+48 768310420",
                "email": "sp2przemkow@wp.pl",
                "ref:regon": "001168919",
                "ref:vatin": "PL6931040921",
                "operator": "Gmina Przemk\u00f3w",
                "operator:type": "government",
                "amenity": "school"
            }
        },
        {
            "id": 91093,
            "type": "Feature",
            "geometry": {
                "type": "Point",
                "coordinates": [
                    15.76141,
                    51.54188
                ]
            },
            "properties": {
                "ref:rspo": 91093,
                "official_name": "Publiczne Przedszkole Nr 2 w Przemkowie",
                "name": "Publiczne Przedszkole Nr 2 w Przemkowie",
                "addr:postcode": "59-170",
                "addr:city": "Przemk\u00f3w",
                "addr:street": "Szkolna",
                "addr:housenumber": "6",
                "addr:city:simc": 954194,
                "addr:street:sym_ul": 21970,
                "phone": "+48 768310438",
                "email": "ppnr2przemkow@wp.pl",
                "ref:regon": "001020750",
                "ref:vatin": "PL6931132899",
                "operator": "Gmina Przemk\u00f3w",
                "operator:type": "government",
                "amenity": "kindergarten"
            }
        }
    ]
}