{"type":"FeatureCollection","features":[{"id":86207,"type":"Feature","geometry":{"type":"Point","coordinates":[16.03046,51.45742]},"properties":{"isced:level":"1;2","ref:rspo":86207,"official_name":"Szko\u0142a Podstawowa Z Oddzia\u0142ami Integracyjnymi I Specjalnymi im. Tw\u00f3rc\u00f3w Polskiej Miedzi w J\u0119drzychowie","name":"Szko\u0142a Podstawowa Z Oddzia\u0142ami Integracyjnymi I Specjalnymi","addr:country":"PL","addr:postcode":"59-101","addr:place":"J\u0119drzych\u00f3w","addr:housenumber":"24A","addr:teryt:sym_ul":366511,"contact:phone":"+48 768459852","contact:email":"sekretariat@sp.jedrzychow.pl","contact:website":"http:\/\/www.jedrzychow.pl","ref:regon":"001239648","ref:vatin":"PL6921745301","operator":"Gmina Polkowice","operator:type":"government","amenity":"school"}},{"id":262365,"type":"Feature","geometry":{"type":"Point","coordinates":[16.07301,51.50051]},"properties":{"isced:level":"1;2","ref:rspo":262365,"official_name":"Szko\u0142a Podstawowa Nr 4 im. Marii Sk\u0142odowskiej-Curie w Polkowicach","name":"Szko\u0142a Podstawowa Nr 4","addr:country":"PL","addr:postcode":"59-100","addr:city":"Polkowice","addr:street":"ul. mjr. Hubala","addr:housenumber":"3","addr:teryt:simc":6771,"addr:teryt:sym_ul":954165,"contact:phone":"+48 767465370","contact:email":"sekretariat@sp4.polkowice.pl","contact:website":"http:\/\/www.sp4.polkowice.pl","ref:regon":"367990538","operator":"Gmina Polkowice","operator:type":"government","amenity":"school"}},{"id":268536,"type":"Feature","geometry":{"type":"Point","coordinates":[16.07301,51.500479999999996]},"properties":{"ref:rspo":268536,"official_name":"Punkt Przedszkolny \"\u017buczki\" w Polkowicach","name":"Punkt Przedszkolny \"\u017buczki\" w Polkowicach","addr:country":"PL","addr:postcode":"59-100","addr:city":"Polkowice","addr:street":"ul. mjr. Hubala","addr:housenumber":"3","addr:teryt:simc":6771,"addr:teryt:sym_ul":954165,"contact:phone":"+48 767454016","contact:email":"sekretariat@pm6.polkowice.pl","contact:website":"http:\/\/www.pm6.polkowice.pl","ref:regon":"381199733","operator":"Gmina Polkowice","operator:type":"government","amenity":"kindergarten"}},{"id":126887,"type":"Feature","geometry":{"type":"Point","coordinates":[16.06819,51.50217]},"properties":{"ref:rspo":126887,"official_name":"Przedszkole Niepubliczne \"Galileo - Przestrze\u0144 Kreatywnych Maluch\u00f3w\" w Polkowicach","name":"Przedszkole Niepubliczne \"Galileo - Przestrze\u0144 Kreatywnych Maluch\u00f3w\" w Polkowicach","addr:country":"PL","addr:postcode":"59-100","addr:city":"Polkowice","addr:street":"ul. G\u00f3rna","addr:housenumber":"5","addr:teryt:simc":5948,"addr:teryt:sym_ul":954165,"contact:phone":"+48 607378487","contact:email":"rood.best@wp.pl","ref:regon":"360861128","operator":"Rados\u0142aw Kotowicz","operator:type":"private","amenity":"kindergarten"}},{"id":114344,"type":"Feature","geometry":{"type":"Point","coordinates":[16.06676,51.50231]},"properties":{"isced:level":"3","ref:rspo":114344,"official_name":"Niepubliczne Liceum Og\u00f3lnokszta\u0142c\u0105ce dla Doros\u0142ych w Polkowicach","name":"Niepubliczne Liceum Og\u00f3lnokszta\u0142c\u0105ce dla Doros\u0142ych w Polkowicach","addr:country":"PL","addr:postcode":"59-101","addr:city":"Polkowice","addr:street":"pl. Plac Ko\u015bcielny","addr:housenumber":"2","addr:teryt:simc":31111,"addr:teryt:sym_ul":954165,"contact:phone":"+48 683278617","contact:email":"pawe.dzioba@neostrada.pl","contact:website":"http:\/\/www.moje-liceum.pl","ref:regon":"022129640","ref:vatin":"PL9291227485","operator":"Pawe\u0142 Dzioba","operator:type":"private","amenity":"school"}},{"id":125946,"type":"Feature","geometry":{"type":"Point","coordinates":[16.06676,51.50228]},"properties":{"ref:rspo":125946,"official_name":"Katolickie Publiczne Przedszkole","name":"Katolickie Publiczne Przedszkole","addr:country":"PL","addr:postcode":"59-100","addr:city":"Polkowice","addr:street":"pl. Ko\u015bcielny","addr:housenumber":"2","addr:teryt:simc":9552,"addr:teryt:sym_ul":954165,"contact:phone":"+48 518048743","contact:email":"przedszkole.polkowice@gmail.com","ref:regon":"360125010","operator":"Fundacja \u015aw. Micha\u0142a","operator:type":"ngo","amenity":"kindergarten"}},{"id":262643,"type":"Feature","geometry":{"type":"Point","coordinates":[16.06676,51.502250000000004]},"properties":{"isced:level":"1;2","ref:rspo":262643,"official_name":"Katolicka Publiczna Szko\u0142a Podstawowa w Polkowicach","name":"Katolicka Publiczna Szko\u0142a Podstawowa w Polkowicach","addr:country":"PL","addr:postcode":"59-100","addr:city":"Polkowice","addr:street":"pl. Ko\u015bcielny","addr:housenumber":"2","addr:teryt:simc":9552,"addr:teryt:sym_ul":954165,"contact:phone":"+48 767422732","contact:email":"spkatolicka.polkowice@gmail.com","ref:regon":"368043837","operator":"Fundacja \u015aw. Micha\u0142a","operator:type":"ngo","amenity":"school"}},{"id":266522,"type":"Feature","geometry":{"type":"Point","coordinates":[16.06676,51.50222]},"properties":{"isced:level":"3","ref:rspo":266522,"official_name":"Katolickie Liceum Og\u00f3lnokszta\u0142c\u0105ce w Polkowicach","name":"Katolickie Liceum Og\u00f3lnokszta\u0142c\u0105ce w Polkowicach","addr:country":"PL","addr:postcode":"59-100","addr:city":"Polkowice","addr:street":"pl. Ko\u015bcielny","addr:housenumber":"2","addr:teryt:simc":9552,"addr:teryt:sym_ul":954165,"contact:phone":"+48 767422732","contact:email":"fundacja.polkowice@gmail.com","ref:regon":"369537820","ref:vatin":"PL5020110740","operator":"Fundacja \u015aw. Micha\u0142a","operator:type":"ngo","amenity":"school"}},{"id":274658,"type":"Feature","geometry":{"type":"Point","coordinates":[16.06949,51.50252]},"properties":{"ref:rspo":274658,"official_name":"Przedszkole Plac Zabaw","name":"Przedszkole Plac Zabaw","addr:country":"PL","addr:postcode":"59-100","addr:city":"Polkowice","addr:street":"ul. S\u0142owia\u0144ska","addr:housenumber":"3 - 4","addr:teryt:simc":20294,"addr:teryt:sym_ul":954165,"contact:phone":"+48 577000586","contact:email":"biuro.placzabaw@wp.pl","ref:regon":"386166862","operator":"Zbigniew Lemiesz","operator:type":"private","amenity":"kindergarten"}},{"id":53204,"type":"Feature","geometry":{"type":"Point","coordinates":[16.07191,51.50315]},"properties":{"isced:level":"1;2","ref:rspo":53204,"official_name":"Szko\u0142a Podstawowa Nr 2 im. Kornela Makuszy\u0144skiego w Polkowicach","name":"Szko\u0142a Podstawowa Nr 2","addr:country":"PL","addr:postcode":"59-100","addr:city":"Polkowice","addr:street":"ul. Henryka D\u0105browskiego","addr:housenumber":"1a","addr:teryt:simc":3678,"addr:teryt:sym_ul":954165,"contact:phone":"+48 768451414","contact:email":"sekretariat@sp2.polkowice.pl","contact:website":"http:\/\/www.sp2.polkowice.pl","ref:regon":"000268346","ref:vatin":"PL6921216548","operator":"Gmina Polkowice","operator:type":"government","amenity":"school"}},{"id":86212,"type":"Feature","geometry":{"type":"Point","coordinates":[16.07191,51.503119999999996]},"properties":{"ref:rspo":86212,"official_name":"Punkt Przedszkolny \"Motylki\" w Polkowicach","name":"Punkt Przedszkolny \"Motylki\" w Polkowicach","addr:country":"PL","addr:postcode":"59-100","addr:city":"Polkowice","addr:street":"ul. Henryka D\u0105browskiego","addr:housenumber":"1A","addr:teryt:simc":3678,"addr:teryt:sym_ul":954165,"contact:phone":"+48 768451414","contact:email":"sekretariat@sp2.polkowice.pl","contact:website":"http:\/\/www.sp2.polkowice.pl","ref:regon":"022011699","ref:vatin":"PL6921216548","operator":"Gmina Polkowice","operator:type":"government","amenity":"kindergarten"}},{"id":52345,"type":"Feature","geometry":{"type":"Point","coordinates":[16.07797,51.5042]},"properties":{"ref:rspo":52345,"official_name":"Niepubliczne Angloj\u0119zyczne Przedszkole \"Magic Nursery\"","name":"Niepubliczne Angloj\u0119zyczne Przedszkole \"Magic Nursery\"","addr:country":"PL","addr:postcode":"59-100","addr:city":"Polkowice","addr:street":"ul. Kolejowa","addr:housenumber":"22","addr:teryt:simc":8828,"addr:teryt:sym_ul":954165,"contact:phone":"+48 693333133","contact:email":"magicschool@op.pl","contact:website":"http:\/\/www.magicschool.pl","ref:regon":"021993536","ref:vatin":"PL8992861903","operator":"Magic School Sp\u00f3\u0142ka Z Ograniczon\u0105 Odpowiedzialno\u015bci\u0105","operator:type":"private","amenity":"kindergarten"}},{"id":23576,"type":"Feature","geometry":{"type":"Point","coordinates":[16.06852,51.50472]},"properties":{"ref:rspo":23576,"official_name":"Powiatowy O\u015brodek Poradnictwa Psychologiczno Pedagogicznego I Doradztwa Metodycznego w Polkowicach","name":"Powiatowy O\u015brodek Poradnictwa Psychologiczno Pedagogicznego I Doradztwa Metodycznego w Polkowicach","addr:country":"PL","addr:postcode":"59-100","addr:city":"Polkowice","addr:street":"ul. Targowa","addr:housenumber":"1","addr:teryt:simc":22659,"addr:teryt:sym_ul":954165,"contact:phone":"+48 767461570","contact:email":"popppidm@polkowice.edu.pl","contact:website":"http:\/\/www.polkowice.edu.pl","ref:regon":"391002272","ref:vatin":"PL6921745318","operator":"Powiat Polkowicki","operator:type":"government","landuse":"education","fixme":"amenity=school, amenity=college albo landuse=education w zale\u017cno\u015bci od tego, jakie plac\u00f3wki wchodz\u0105 w sk\u0142ad zespo\u0142u. Sprawd\u017a, kiedy stosowa\u0107 amenity=* a kiedy landuse=education.","note":"Children RSPO: 111806;111828"}},{"id":111806,"type":"Feature","geometry":{"type":"Point","coordinates":[16.06852,51.50469]},"properties":{"ref:rspo":111806,"official_name":"Poradnia Psychologiczno - Pedagogiczna w Polkowicach","name":"Poradnia Psychologiczno - Pedagogiczna w Polkowicach","addr:country":"PL","addr:postcode":"59-100","addr:city":"Polkowice","addr:street":"ul. Targowa","addr:housenumber":"1","addr:teryt:simc":22659,"addr:teryt:sym_ul":954165,"contact:phone":"+48 767461570","contact:email":"popppidm@polkowice.edu.pl","contact:website":"http:\/\/www.polkowice.edu.pl","ref:regon":"022097933","operator":"Powiat Polkowicki","operator:type":"government","healthcare":"councelling","counselling_type":"education","fixme":"w zale\u017cno\u015bci od przedmiotu dzia\u0142alno\u015bci (np. healthcare=councelling + counselling_type=education albo healthcare=psychotherapist)","note":"Parent RSPO: 23576"}},{"id":111828,"type":"Feature","geometry":{"type":"Point","coordinates":[16.06852,51.50466]},"properties":{"ref:rspo":111828,"official_name":"Powiatowy O\u015brodek Doradztwa Metodycznego w Polkowicach","name":"Powiatowy O\u015brodek Doradztwa Metodycznego w Polkowicach","addr:country":"PL","addr:postcode":"59-100","addr:city":"Polkowice","addr:street":"ul. Targowa","addr:housenumber":"1","addr:teryt:simc":22659,"addr:teryt:sym_ul":954165,"contact:phone":"+48 767461570","contact:email":"popppidm@polkowice.edu.pl","contact:website":"http:\/\/www.polkowice.edu.pl","ref:regon":"022098542","operator":"Powiat Polkowicki","operator:type":"government","amenity":"training","note":"Parent RSPO: 23576"}},{"id":276302,"type":"Feature","geometry":{"type":"Point","coordinates":[16.05758,51.50494]},"properties":{"ref:rspo":276302,"official_name":"Niepubliczne Przedszkole \"Koliberek\"","name":"Niepubliczne Przedszkole \"Koliberek\"","addr:country":"PL","addr:postcode":"59-100","addr:city":"Polkowice","addr:street":"ul. \u017barska","addr:housenumber":"18a","addr:teryt:simc":26409,"addr:teryt:sym_ul":954165,"contact:phone":"+48 572062068","contact:email":"zlobekkoliberek@gmail.com","ref:regon":"387083049","operator":"Fundacja Przedsi\u0119biorczo\u015bci Spo\u0142ecznej","operator:type":"ngo","amenity":"kindergarten"}},{"id":52324,"type":"Feature","geometry":{"type":"Point","coordinates":[16.07693,51.50578]},"properties":{"ref:rspo":52324,"official_name":"Przedszkole Miejskie Nr 5 w Polkowicach","name":"Przedszkole Miejskie Nr 5 w Polkowicach","addr:country":"PL","addr:postcode":"59-100","addr:city":"Polkowice","addr:street":"ul. Kolejowa","addr:housenumber":"14","addr:teryt:simc":8828,"addr:teryt:sym_ul":954165,"contact:phone":"+48 768451255","contact:email":"pm5polkowice@wp.pl","contact:website":"http:\/\/www.pm5.polkowice.pl","ref:regon":"390505580","ref:vatin":"PL6921063062","operator":"Gmina Polkowice","operator:type":"government","amenity":"kindergarten"}},{"id":52314,"type":"Feature","geometry":{"type":"Point","coordinates":[16.07347,51.50689]},"properties":{"ref:rspo":52314,"official_name":"Przedszkole Miejskie Nr 4 im. Misia Uszatka","name":"Przedszkole Miejskie Nr 4","addr:country":"PL","addr:postcode":"59-100","addr:city":"Polkowice","addr:street":"ul. Lipowa","addr:housenumber":"11","addr:teryt:simc":11139,"addr:teryt:sym_ul":954165,"contact:phone":"+48 763070700","contact:email":"sekretariat@pm4.polkowice.pl","contact:website":"http:\/\/www.pm4.polkowice.pl","ref:regon":"390505597","ref:vatin":"PL6921063116","operator":"Gmina Polkowice","operator:type":"government","amenity":"kindergarten"}},{"id":86206,"type":"Feature","geometry":{"type":"Point","coordinates":[16.07414,51.50827]},"properties":{"isced:level":"1;2","ref:rspo":86206,"official_name":"Szko\u0142a Podstawowa Nr 3 im. Arkadego Fiedlera w Polkowicach","name":"Szko\u0142a Podstawowa Nr 3","addr:country":"PL","addr:postcode":"59-100","addr:city":"Polkowice","addr:street":"ul. Kardyna\u0142a Boles\u0142awa Kominka","addr:housenumber":"1","addr:teryt:simc":39972,"addr:teryt:sym_ul":954165,"contact:phone":"+48 768451642","contact:email":"sp3@sp3.polkowice.pl","contact:website":"http:\/\/www.sp3.polkowice.pl","ref:regon":"000712516","ref:vatin":"PL6921641033","operator":"Gmina Polkowice","operator:type":"government","amenity":"school"}},{"id":53211,"type":"Feature","geometry":{"type":"Point","coordinates":[16.0698,51.50865]},"properties":{"ref:rspo":53211,"official_name":"Przedszkole Miejskie Nr 3","name":"Przedszkole Miejskie Nr 3","addr:country":"PL","addr:postcode":"59-101","addr:city":"Polkowice","addr:street":"ul. Skrzetuskiego","addr:housenumber":"37","addr:teryt:simc":20155,"addr:teryt:sym_ul":954165,"contact:phone":"+48 767498860","contact:email":"sekretariat@pm3.polkowice.pl","contact:website":"http:\/\/www.pm3.polkowice.pl","ref:regon":"390505574","ref:vatin":"PL6921063168","operator":"Gmina Polkowice","operator:type":"government","amenity":"kindergarten"}},{"id":53210,"type":"Feature","geometry":{"type":"Point","coordinates":[16.06878,51.50887]},"properties":{"isced:level":"1;2","ref:rspo":53210,"official_name":"Szko\u0142a Podstawowa Nr 1 im. Jana Wy\u017cykowskiego w Polkowicach","name":"Szko\u0142a Podstawowa Nr 1","addr:country":"PL","addr:postcode":"59-101","addr:city":"Polkowice","addr:street":"ul. Kmicica","addr:housenumber":"23","addr:teryt:simc":8643,"addr:teryt:sym_ul":954165,"contact:phone":"+48 767463500","contact:email":"sekretariatsp1@sp1.polkowice.pl","contact:website":"http:\/\/www.sp1.polkowice.pl","ref:regon":"000712500","ref:vatin":"PL6921121090","operator":"Gmina Polkowice","operator:type":"government","amenity":"school"}},{"id":23574,"type":"Feature","geometry":{"type":"Point","coordinates":[16.07528,51.51005]},"properties":{"ref:rspo":23574,"official_name":"Zesp\u00f3\u0142 Szk\u00f3\u0142 im. Narod\u00f3w Zjednoczonej Europy w Polkowicach","name":"Zesp\u00f3\u0142 Szk\u00f3\u0142","addr:country":"PL","addr:postcode":"59-101","addr:city":"Polkowice","addr:street":"ul. Skalnik\u00f3w","addr:housenumber":"6","addr:teryt:simc":19974,"addr:teryt:sym_ul":954165,"contact:phone":"+48 767465101","contact:email":"zs@zs.polkowice.pl","contact:website":"http:\/\/zs.polkowice.pl\/","ref:regon":"390557996","ref:vatin":"PL6921706761","operator":"Powiat Polkowicki","operator:type":"government","landuse":"education","fixme":"amenity=school, amenity=college albo landuse=education w zale\u017cno\u015bci od tego, jakie plac\u00f3wki wchodz\u0105 w sk\u0142ad zespo\u0142u. Sprawd\u017a, kiedy stosowa\u0107 amenity=* a kiedy landuse=education.","note":"Children RSPO: 34913;34916;40806"}},{"id":40808,"type":"Feature","geometry":{"type":"Point","coordinates":[16.07528,51.51002]},"properties":{"ref:rspo":40808,"official_name":"Polkowickie Towarzystwo Muzyczne","name":"Polkowickie Towarzystwo Muzyczne","addr:country":"PL","addr:postcode":"59-101","addr:city":"Polkowice","addr:street":"ul. Skalnik\u00f3w","addr:housenumber":"6","addr:teryt:simc":19974,"addr:teryt:sym_ul":954165,"contact:phone":"+48 606138331","contact:email":"annaskupin@o2.pl","ref:regon":"021990532","operator":"Polkowickie Towarzystwo Muzyczne","operator:type":"ngo","fixme":"w zale\u017cno\u015bci od przedmiotu dzia\u0142alno\u015bci (np. amenity=community_centre + community_centre:for=child;juvenile, amenity=training + training=*, amenity=dancing_school, amenity=music_school),"}},{"id":34913,"type":"Feature","geometry":{"type":"Point","coordinates":[16.07528,51.50999]},"properties":{"isced:level":"3","ref:rspo":34913,"official_name":"Liceum Og\u00f3lnokszta\u0142c\u0105ce","name":"Liceum Og\u00f3lnokszta\u0142c\u0105ce","addr:country":"PL","addr:postcode":"59-101","addr:city":"Polkowice","addr:street":"ul. Skalnik\u00f3w","addr:housenumber":"6","addr:teryt:simc":19974,"addr:teryt:sym_ul":954165,"contact:phone":"+48 767465101","contact:email":"zs@zs.polkowice.pl","contact:website":"http:\/\/zs.polkowice.pl","ref:regon":"391009481","operator":"Powiat Polkowicki","operator:type":"government","amenity":"school","note":"Parent RSPO: 23574"}},{"id":34916,"type":"Feature","geometry":{"type":"Point","coordinates":[16.07528,51.50996]},"properties":{"isced:level":"3","ref:rspo":34916,"official_name":"Technikum","name":"Technikum","addr:country":"PL","addr:postcode":"59-101","addr:city":"Polkowice","addr:street":"ul. Skalnik\u00f3w","addr:housenumber":"6","addr:teryt:simc":19974,"addr:teryt:sym_ul":954165,"contact:phone":"+48 767465101","contact:email":"zs@zs.polkowice.pl","contact:website":"http:\/\/zs.polkowice.pl","ref:regon":"391009430","operator":"Powiat Polkowicki","operator:type":"government","amenity":"school","note":"Parent RSPO: 23574"}},{"id":40806,"type":"Feature","geometry":{"type":"Point","coordinates":[16.07528,51.50993]},"properties":{"isced:level":"3","ref:rspo":40806,"official_name":"Bran\u017cowa Szko\u0142a I Stopnia","name":"Bran\u017cowa Szko\u0142a I Stopnia","addr:country":"PL","addr:postcode":"59-101","addr:city":"Polkowice","addr:street":"ul. Skalnik\u00f3w","addr:housenumber":"6","addr:teryt:simc":19974,"addr:teryt:sym_ul":954165,"contact:phone":"+48 767465101","contact:email":"zs@zs.polkowice.pl","contact:website":"http:\/\/zs.polkowice.pl","ref:regon":"391009475","operator":"Powiat Polkowicki","operator:type":"government","amenity":"school","note":"Parent RSPO: 23574"}},{"id":26658,"type":"Feature","geometry":{"type":"Point","coordinates":[16.07857,51.5107]},"properties":{"ref:rspo":26658,"official_name":"O\u015brodek Szkolenia I Doskonalenia Zawodowego Eko-Car w Polkowicach","name":"O\u015brodek Szkolenia I Doskonalenia Zawodowego Eko-Car w Polkowicach","addr:country":"PL","addr:postcode":"59-100","addr:city":"Polkowice","addr:street":"ul. Ociosowa","addr:housenumber":"70","addr:door":"4","addr:teryt:simc":14707,"addr:teryt:sym_ul":954165,"contact:phone":"+48 767492435","contact:email":"eko-car@wp.pl","ref:regon":"021984968","ref:vatin":"PL7531037465","operator":"Jacek Pietraszko","operator:type":"private","fixme":"w zale\u017cno\u015bci od przedmiotu dzia\u0142alno\u015bci (np. amenity=training + training=*, amenity=dancing_school, amenity=language_school, amenity=music_school)"}},{"id":52334,"type":"Feature","geometry":{"type":"Point","coordinates":[16.06921,51.51109]},"properties":{"ref:rspo":52334,"official_name":"Przedszkole Miejskie Nr 2 \"S\u0142oneczko\" w Polkowicach","name":"Przedszkole Miejskie Nr 2 \"S\u0142oneczko\" w Polkowicach","addr:country":"PL","addr:postcode":"59-101","addr:city":"Polkowice","addr:street":"ul. 11 Lutego","addr:housenumber":"18","addr:teryt:simc":11431,"addr:teryt:sym_ul":954165,"contact:phone":"+48 767497373","contact:email":"pm2polkowice@wp.pl","contact:website":"http:\/\/www.pm2.polkowice.pl","ref:regon":"390505568","ref:vatin":"PL6921063205","operator":"Gmina Polkowice","operator:type":"government","amenity":"kindergarten"}},{"id":53212,"type":"Feature","geometry":{"type":"Point","coordinates":[16.07687,51.51178]},"properties":{"ref:rspo":53212,"official_name":"Punkt Przedszkolny \"Biedronki\" w Polkowicach","name":"Punkt Przedszkolny \"Biedronki\" w Polkowicach","addr:country":"PL","addr:postcode":"59-101","addr:city":"Polkowice","addr:street":"ul. Ociosowa","addr:housenumber":"3","addr:teryt:simc":14707,"addr:teryt:sym_ul":954165,"contact:phone":"+48 767498860","contact:email":"sekretariat@pm3.polkowice.pl","contact:website":"http:\/\/www.pm3.polkowice.pl","ref:regon":"022001904","ref:vatin":"PL6921063168","operator":"Gmina Polkowice","operator:type":"government","amenity":"kindergarten"}},{"id":52332,"type":"Feature","geometry":{"type":"Point","coordinates":[16.068473815918,51.522048950195]},"properties":{"ref:rspo":52332,"official_name":"Przedszkole Miejskie Nr 6 Z Oddzia\u0142ami Integracyjnymi I Oddzia\u0142ami Specjalnymi w Polkowicach","name":"Przedszkole Miejskie Nr 6 Z Oddzia\u0142ami Integracyjnymi I Oddzia\u0142ami Specjalnymi w Polkowicach","addr:country":"PL","addr:postcode":"59-100","addr:city":"Polkowice","addr:street":"ul. mjr. Hubala","addr:housenumber":"1A","addr:teryt:simc":6771,"addr:teryt:sym_ul":954165,"contact:phone":"+48 767454016","contact:email":"sekretariat@pm6.polkowice.pl","contact:website":"http:\/\/www.pm6.polkowice.pl","ref:regon":"021501177","ref:vatin":"PL5020103496","operator":"Gmina Polkowice","operator:type":"government","amenity":"kindergarten"}}]}