{"type":"FeatureCollection","features":[{"id":21737,"type":"Feature","geometry":{"type":"Point","coordinates":[19.01892,50.08708]},"properties":{"ref:rspo":21737,"official_name":"Zesp\u00f3\u0142 Szkolno-Przedszkolny Nr 2","name":"Zesp\u00f3\u0142 Szkolno-Przedszkolny Nr 2","addr:country":"PL","addr:postcode":"43-100","addr:city":"Tychy","addr:street":"ul. Jedno\u015bci","addr:housenumber":"51","addr:teryt:simc":7431,"addr:teryt:sym_ul":944534,"contact:phone":"+48 322196033","contact:email":"zsp2@oswiata.tychy.pl","contact:website":"http:\/\/zsp2.tychy.edu.pl","ref:regon":"278282891","ref:vatin":"PL6462651137","operator":"Gmina Miasta Tychy","operator:type":"government","landuse":"education","fixme":"amenity=school, amenity=college albo landuse=education w zale\u017cno\u015bci od tego, jakie plac\u00f3wki wchodz\u0105 w sk\u0142ad zespo\u0142u. Sprawd\u017a, kiedy stosowa\u0107 amenity=* a kiedy landuse=education.","note":"Children RSPO: 38529;38530"}},{"id":38529,"type":"Feature","geometry":{"type":"Point","coordinates":[19.01892,50.08705]},"properties":{"ref:rspo":38529,"official_name":"Przedszkole Nr 23","name":"Przedszkole Nr 23","addr:country":"PL","addr:postcode":"43-100","addr:city":"Tychy","addr:street":"ul. Jedno\u015bci","addr:housenumber":"51","addr:teryt:simc":7431,"addr:teryt:sym_ul":944534,"contact:phone":"+48 322196033","contact:email":"zsp2@oswiata.tychy.pl","contact:website":"http:\/\/zsp2.tychy.edu.pl","ref:regon":"271510260","ref:vatin":"PL6462651137","operator":"Gmina Miasta Tychy","operator:type":"government","amenity":"kindergarten","note":"Parent RSPO: 21737"}},{"id":38530,"type":"Feature","geometry":{"type":"Point","coordinates":[19.01892,50.08702]},"properties":{"isced:level":"1;2","ref:rspo":38530,"official_name":"Szko\u0142a Podstawowa Nr 23","name":"Szko\u0142a Podstawowa Nr 23","addr:country":"PL","addr:postcode":"43-100","addr:city":"Tychy","addr:street":"ul. Jedno\u015bci","addr:housenumber":"51","addr:teryt:simc":7431,"addr:teryt:sym_ul":944534,"contact:phone":"+48 322196033","contact:email":"zsp2@oswiata.tychy.pl","contact:website":"http:\/\/zsp2.tychy.edu.pl","ref:regon":"000725826","ref:vatin":"PL6462651137","operator":"Gmina Miasta Tychy","operator:type":"government","amenity":"school","note":"Parent RSPO: 21737"}},{"id":119196,"type":"Feature","geometry":{"type":"Point","coordinates":[18.99772,50.08861]},"properties":{"ref:rspo":119196,"official_name":"Niepubliczne Przedszkole Mali Odkrywcy","name":"Niepubliczne Przedszkole Mali Odkrywcy","addr:country":"PL","addr:postcode":"43-100","addr:city":"Tychy","addr:street":"ul. W\u0142adys\u0142awa Sikorskiego","addr:housenumber":"147","addr:teryt:simc":19914,"addr:teryt:sym_ul":944534,"contact:phone":"+48 608508833","contact:email":"maliodkrywcy.tychy@gmail.com","ref:regon":"243352050","ref:vatin":"PL6462120440","operator":"Agnieszka Mrzyg\u0142\u00f3d","operator:type":"private","amenity":"kindergarten"}},{"id":75929,"type":"Feature","geometry":{"type":"Point","coordinates":[19.0046312,50.0892843]},"properties":{"ref:rspo":75929,"official_name":"Edu-Tech-Spaw-O\u015brodek Szkoleniowy","name":"Edu-Tech-Spaw-O\u015brodek Szkoleniowy","addr:country":"PL","addr:postcode":"43-100","addr:city":"Tychy","addr:street":"ul. Stanis\u0142awa \u017b\u00f3\u0142kiewskiego","addr:housenumber":"45","addr:teryt:simc":26529,"addr:teryt:sym_ul":944534,"contact:email":"andrzej.jedryka@gimail.com","ref:regon":"243089262","ref:vatin":"PL6460014142","operator":"Andrzej J\u0119dryka","operator:type":"private","fixme":"w zale\u017cno\u015bci od przedmiotu dzia\u0142alno\u015bci (np. amenity=training + training=*, amenity=dancing_school, amenity=language_school, amenity=music_school)"}},{"id":21488,"type":"Feature","geometry":{"type":"Point","coordinates":[19.00008,50.08955]},"properties":{"ref:rspo":21488,"official_name":"Przedszkole Nr 21 im. Janusza Korczaka w Tychach","name":"Przedszkole Nr 21","addr:country":"PL","addr:postcode":"43-100","addr:city":"Tychy","addr:street":"ul. Aleksandra Zelwerowicza","addr:housenumber":"21","addr:teryt:simc":25996,"addr:teryt:sym_ul":944534,"contact:phone":"+48 322196313","contact:email":"p21@oswiata.tychy.pl","contact:website":"http:\/\/przedszkole21.tychy.edu.pl","ref:regon":"271510248","ref:vatin":"PL6462712531","operator":"Gmina Miasta Tychy","operator:type":"government","amenity":"kindergarten"}},{"id":6040,"type":"Feature","geometry":{"type":"Point","coordinates":[19.00321,50.09095]},"properties":{"isced:level":"1;2","ref:rspo":6040,"official_name":"Szko\u0142a Podstawowa Nr 40 Z Oddzia\u0142ami Integracyjnymi im. Gen. Jerzego Zi\u0119tka","name":"Szko\u0142a Podstawowa Nr 40 Z Oddzia\u0142ami Integracyjnymi","addr:country":"PL","addr:postcode":"43-100","addr:city":"Tychy","addr:street":"ul. Alfonsa Zgrzebnioka","addr:housenumber":"45","addr:teryt:simc":26039,"addr:teryt:sym_ul":944534,"contact:phone":"+48 322196658","contact:email":"sp40@oswiata.tychy.pl","contact:website":"http:\/\/sp40.tychy.edu.pl","ref:regon":"271070938","ref:vatin":"PL6462483941","operator":"Gmina Miasta Tychy","operator:type":"government","amenity":"school"}},{"id":114606,"type":"Feature","geometry":{"type":"Point","coordinates":[18.99905,50.09096]},"properties":{"ref:rspo":114606,"official_name":"Broadway Academy Ii","name":"Broadway Academy Ii","addr:country":"PL","addr:postcode":"43-100","addr:city":"Tychy","addr:street":"ul. Rudolfa Zar\u0119by","addr:housenumber":"7","addr:teryt:simc":25663,"addr:teryt:sym_ul":944534,"contact:phone":"+48 322170999","contact:email":"stanislawskabeata@wp.pl","ref:regon":"243264067","ref:vatin":"PL6461087433","operator":"Beata Stanis\u0142awska","operator:type":"private","fixme":"w zale\u017cno\u015bci od przedmiotu dzia\u0142alno\u015bci (np. amenity=training + training=*, amenity=dancing_school, amenity=language_school, amenity=music_school)"}},{"id":277530,"type":"Feature","geometry":{"type":"Point","coordinates":[18.99905,50.09093]},"properties":{"isced:level":"3","ref:rspo":277530,"official_name":"Europejskie Liceum Og\u00f3lnokszta\u0142c\u0105ce dla Doros\u0142ych","name":"Europejskie Liceum Og\u00f3lnokszta\u0142c\u0105ce dla Doros\u0142ych","addr:country":"PL","addr:postcode":"43-100","addr:city":"Tychy","addr:street":"ul. Rudolfa Zar\u0119by","addr:housenumber":"7","addr:teryt:simc":25663,"addr:teryt:sym_ul":944534,"contact:email":"stanislawskabeata@wp.pl","ref:regon":"389046420","operator":"Beata Stanis\u0142awska","operator:type":"private","amenity":"school"}},{"id":277533,"type":"Feature","geometry":{"type":"Point","coordinates":[18.99905,50.090900000000005]},"properties":{"isced:level":"4","ref:rspo":277533,"official_name":"Szko\u0142a Policealna w \u015aL\u0105skim Centrum Kszta\u0142cenia Ustawicznego I Zawodowego","name":"Szko\u0142a Policealna w \u015aL\u0105skim Centrum Kszta\u0142cenia Ustawicznego I Zawodowego","addr:country":"PL","addr:postcode":"43-100","addr:city":"Tychy","addr:street":"ul. Rudolfa Zar\u0119by","addr:housenumber":"7","addr:teryt:simc":25663,"addr:teryt:sym_ul":944534,"contact:email":"stanislawskabeata@wp.pl","ref:regon":"389052113","operator":"Fundacja Spo\u0142eczno-Rozwojowa New Time","operator:type":"ngo","amenity":"college"}},{"id":277535,"type":"Feature","geometry":{"type":"Point","coordinates":[18.99905,50.09087]},"properties":{"isced:level":"4","ref:rspo":277535,"official_name":"Szko\u0142a Policealna Collegium Medica","name":"Szko\u0142a Policealna Collegium Medica","addr:country":"PL","addr:postcode":"43-100","addr:city":"Tychy","addr:street":"ul. Rudolfa Zar\u0119by","addr:housenumber":"7","addr:teryt:simc":25663,"addr:teryt:sym_ul":944534,"contact:email":"stanislawskabeata@wp.pl","ref:regon":"389052231","operator":"Fundacja Spo\u0142eczno-Rozwojowa New Time","operator:type":"ngo","amenity":"college"}},{"id":278947,"type":"Feature","geometry":{"type":"Point","coordinates":[18.99905,50.09084]},"properties":{"ref:rspo":278947,"official_name":"Niepubliczna Plac\u00f3wka Kszta\u0142cenia Ustawicznego New Time","name":"Niepubliczna Plac\u00f3wka Kszta\u0142cenia Ustawicznego New Time","addr:country":"PL","addr:postcode":"43-100","addr:city":"Tychy","addr:street":"ul. Rudolfa Zar\u0119by","addr:housenumber":"7","addr:teryt:simc":25663,"addr:teryt:sym_ul":944534,"contact:phone":"+48 322170999","contact:email":"kontakt@kosmetycznelasery.pl","ref:regon":"520271481","operator":"Fundacja Spo\u0142eczno-Rozwojowa New Time","operator:type":"ngo","fixme":"w zale\u017cno\u015bci od przedmiotu dzia\u0142alno\u015bci (np. amenity=training + training=*, amenity=dancing_school, amenity=language_school, amenity=music_school)"}},{"id":264456,"type":"Feature","geometry":{"type":"Point","coordinates":[18.99871,50.0911]},"properties":{"ref:rspo":264456,"official_name":"Tyskie Przedszkole Montessori","name":"Tyskie Przedszkole Montessori","addr:country":"PL","addr:postcode":"43-100","addr:city":"Tychy","addr:street":"ul. Rudolfa Zar\u0119by","addr:housenumber":"3","addr:teryt:simc":25663,"addr:teryt:sym_ul":944534,"contact:email":"kontakt@montessoritychy.pl","contact:website":"http:\/\/www.montessoritychy.pl","ref:regon":"368354968","operator":"Ho\u0142da&Nogas  Sp\u00f3\u0142ka Z Ograniczon\u0105 Odpowiedzialno\u015bci\u0105","operator:type":"private","amenity":"kindergarten"}},{"id":125287,"type":"Feature","geometry":{"type":"Point","coordinates":[18.99464,50.09926]},"properties":{"ref:rspo":125287,"official_name":"Przedszkole Specjalne \"Zaczarowany Ogr\u00f3d\"","name":"Przedszkole Specjalne \"Zaczarowany Ogr\u00f3d\"","addr:country":"PL","addr:postcode":"43-100","addr:city":"Tychy","addr:street":"ul. Na Grobli","addr:housenumber":"19","addr:teryt:simc":13600,"addr:teryt:sym_ul":944534,"contact:phone":"+48 322177004","contact:email":"przedszkoleterapeutyczne_tychy@onet.pl","contact:website":"http:\/\/www.zaczarowanyogrod.tychy.pl","ref:regon":"243677119","operator":"Rozw\u00f3j I Edukacja Bik-Art Buchta I Wsp\u00f3lnicy Sp\u00f3\u0142ka Jawna","operator:type":"consortium","amenity":"kindergarten"}},{"id":17535,"type":"Feature","geometry":{"type":"Point","coordinates":[18.9956,50.09983]},"properties":{"ref:rspo":17535,"official_name":"Przedszkole Nr 3","name":"Przedszkole Nr 3","addr:country":"PL","addr:postcode":"43-100","addr:city":"Tychy","addr:street":"ul. Paproca\u0144ska","addr:housenumber":"156","addr:teryt:simc":15661,"addr:teryt:sym_ul":944534,"contact:phone":"+48 322174321","contact:email":"p3@oswiata.tychy.pl","contact:website":"http:\/\/przedszkole3.tychy.edu.pl","ref:regon":"271510107","ref:vatin":"PL6462712548","operator":"Gmina Miasta Tychy","operator:type":"government","amenity":"kindergarten"}},{"id":5322,"type":"Feature","geometry":{"type":"Point","coordinates":[18.99156,50.1005899]},"properties":{"isced:level":"1;2","ref:rspo":5322,"official_name":"Szko\u0142a Podstawowa Nr 7 im. Powsta\u0144c\u00f3w \u015aL\u0105skich","name":"Szko\u0142a Podstawowa Nr 7","addr:country":"PL","addr:postcode":"43-100","addr:city":"Tychy","addr:street":"ul. Lwa To\u0142stoja","addr:housenumber":"1","addr:teryt:simc":22837,"addr:teryt:sym_ul":944534,"contact:phone":"+48 322174133","contact:email":"sp7@oswiata.tychy.pl","contact:website":"http:\/\/sp7.tychy.edu.pl","ref:regon":"000725648","ref:vatin":"PL6462484076","operator":"Gmina Miasta Tychy","operator:type":"government","amenity":"school"}},{"id":21481,"type":"Feature","geometry":{"type":"Point","coordinates":[18.99006,50.10099]},"properties":{"ref:rspo":21481,"official_name":"Przedszkole Nr 17","name":"Przedszkole Nr 17","addr:country":"PL","addr:postcode":"43-100","addr:city":"Tychy","addr:street":"ul. Lwa To\u0142stoja","addr:housenumber":"5","addr:teryt:simc":22837,"addr:teryt:sym_ul":944534,"contact:phone":"+48 322171013","contact:email":"p17@oswiata.tychy.pl","contact:website":"http:\/\/przedszkole17.tychy.edu.pl","ref:regon":"271510395","ref:vatin":"PL6462711632","operator":"Gmina Miasta Tychy","operator:type":"government","amenity":"kindergarten"}},{"id":75919,"type":"Feature","geometry":{"type":"Point","coordinates":[18.99429,50.10242]},"properties":{"ref:rspo":75919,"official_name":"O\u015brodek Szkoleniowy Centrum Nauki I Biznesu \"\u017bak\" w Tychach","name":"O\u015brodek Szkoleniowy Centrum Nauki I Biznesu \"\u017bak\" w Tychach","addr:country":"PL","addr:postcode":"43-100","addr:city":"Tychy","addr:street":"ul. Armii Krajowej","addr:housenumber":"29","addr:teryt:simc":432,"addr:teryt:sym_ul":944534,"contact:phone":"+48 322190497","ref:regon":"243088920","operator":"Centrum Nauki I Biznesu \"\u017bak\" Sp\u00f3\u0142ka Z Ograniczon\u0105 Odpowiedzialno\u015bci\u0105","operator:type":"private","fixme":"w zale\u017cno\u015bci od przedmiotu dzia\u0142alno\u015bci (np. amenity=training + training=*, amenity=dancing_school, amenity=language_school, amenity=music_school)"}},{"id":127338,"type":"Feature","geometry":{"type":"Point","coordinates":[19.01882,50.10367]},"properties":{"ref:rspo":127338,"official_name":"Centrum Kszta\u0142cenia Mbm Tychy","name":"Centrum Kszta\u0142cenia Mbm Tychy","addr:country":"PL","addr:postcode":"43-100","addr:city":"Tychy","addr:street":"ul. Metalowa","addr:housenumber":"3","addr:teryt:simc":12627,"addr:teryt:sym_ul":944534,"contact:phone":"+48 696003157","contact:email":"biuro@mbmtychy.pl","contact:website":"http:\/\/www.mbmtychy.pl","ref:regon":"361385612","operator":"Mbm Tychy Bo\u017cena Czajka","operator:type":"consortium","fixme":"w zale\u017cno\u015bci od przedmiotu dzia\u0142alno\u015bci (np. amenity=training + training=*, amenity=dancing_school, amenity=language_school, amenity=music_school)"}},{"id":58406,"type":"Feature","geometry":{"type":"Point","coordinates":[18.97962,50.10399]},"properties":{"ref:rspo":58406,"official_name":"Niepubliczne Przedszkole Muzyczne","name":"Niepubliczne Przedszkole Muzyczne","addr:country":"PL","addr:postcode":"43-100","addr:city":"Tychy","addr:street":"ul. Kornela Ujejskiego","addr:housenumber":"20","addr:teryt:simc":23317,"addr:teryt:sym_ul":944534,"contact:phone":"+48 728913071","contact:email":"przedszkolemuzyczne@interia.pl","contact:website":"http:\/\/www.przedszkolemuzyczne.com.pl","ref:regon":"243079720","operator":"Jaros\u0142aw Kwas","operator:type":"private","amenity":"kindergarten"}},{"id":124157,"type":"Feature","geometry":{"type":"Point","coordinates":[19.0005343,50.1044796]},"properties":{"ref:rspo":124157,"official_name":"Niepubliczne Przedszkole \"Otwarte Okno\" Z Oddzia\u0142ami Integracyjnymi I Specjalnymi w Tychach","name":"Niepubliczne Przedszkole \"Otwarte Okno\" Z Oddzia\u0142ami Integracyjnymi I Specjalnymi w Tychach","addr:country":"PL","addr:postcode":"43-100","addr:city":"Tychy","addr:street":"ul. Paproca\u0144ska","addr:housenumber":"84","addr:teryt:simc":15661,"addr:teryt:sym_ul":944534,"contact:phone":"+48 603155686","contact:email":"przedszkole@otwarteokno.edu.pl","contact:website":"http:\/\/www.otwarteokno.edu.pl","ref:regon":"243644640","operator":"Paxel Sp\u00f3\u0142ka Z Ograniczon\u0105 Odpowiedzialno\u015bci\u0105","operator:type":"private","amenity":"kindergarten"}},{"id":124920,"type":"Feature","geometry":{"type":"Point","coordinates":[19.0005343,50.104449599999995]},"properties":{"isced:level":"1;2","ref:rspo":124920,"official_name":"Niepubliczna Szko\u0142a Podstawowa \"Otwarte Okno\" Z Oddzia\u0142ami Integracyjnymi I Specjalnymi w Tychach","name":"Niepubliczna Szko\u0142a Podstawowa \"Otwarte Okno\" Z Oddzia\u0142ami Integracyjnymi I Specjalnymi w Tychach","addr:country":"PL","addr:postcode":"43-100","addr:city":"Tychy","addr:street":"ul. Paproca\u0144ska","addr:housenumber":"84","addr:teryt:simc":15661,"addr:teryt:sym_ul":944534,"contact:phone":"+48 324947370","contact:email":"szkola@otwarteokno.edu.pl","contact:website":"http:\/\/www.otwarteokno.edu.pl","ref:regon":"243667492","operator":"Paxel Sp\u00f3\u0142ka Z Ograniczon\u0105 Odpowiedzialno\u015bci\u0105","operator:type":"private","amenity":"school"}},{"id":264565,"type":"Feature","geometry":{"type":"Point","coordinates":[19.0005343,50.1044196]},"properties":{"ref:rspo":264565,"official_name":"Niepubliczna Szko\u0142a Specjalna Przysposabiaj\u0105ca Do Pracy \"Otwarte Okno' w Tychach","name":"Niepubliczna Szko\u0142a Specjalna Przysposabiaj\u0105ca Do Pracy \"Otwarte Okno' w Tychach","addr:country":"PL","addr:postcode":"43-100","addr:city":"Tychy","addr:street":"ul. Paproca\u0144ska","addr:housenumber":"84","addr:door":"84A","addr:teryt:simc":15661,"addr:teryt:sym_ul":944534,"contact:phone":"+48 324947370","contact:email":"spdp@otwarteokno.edu.pl","contact:website":"http:\/\/www.otwarteokno.pl","ref:regon":"368379046","operator":"Paxel Sp\u00f3\u0142ka Z Ograniczon\u0105 Odpowiedzialno\u015bci\u0105","operator:type":"private","amenity":"school"}},{"id":129549,"type":"Feature","geometry":{"type":"Point","coordinates":[18.97602,50.10558]},"properties":{"ref:rspo":129549,"official_name":"Przedszkole Niepubliczne \"Abc\"","name":"Przedszkole Niepubliczne \"Abc\"","addr:country":"PL","addr:postcode":"43-100","addr:city":"Tychy","addr:street":"ul. Romana Dmowskiego","addr:housenumber":"108-112","addr:teryt:simc":3868,"addr:teryt:sym_ul":944534,"contact:phone":"+48 533303405","contact:email":"przedszkoleabc.tychy@wp.pl","ref:regon":"362680201","operator":"Ewa Stec-Dobrzy\u0144ska","operator:type":"private","amenity":"kindergarten"}},{"id":17546,"type":"Feature","geometry":{"type":"Point","coordinates":[18.99628,50.10589]},"properties":{"ref:rspo":17546,"official_name":"Przedszkole Nr 5","name":"Przedszkole Nr 5","addr:country":"PL","addr:postcode":"43-100","addr:city":"Tychy","addr:street":"ul. Elizy Orzeszkowej","addr:housenumber":"56","addr:teryt:simc":15211,"addr:teryt:sym_ul":944534,"contact:phone":"+48 322162201","contact:email":"p5@oswiata.tychy.pl","contact:website":"http:\/\/przedszkole5.tychy.edu.pl","ref:regon":"271510350","ref:vatin":"PL6462713269","operator":"Gmina Miasta Tychy","operator:type":"government","amenity":"kindergarten"}},{"id":132261,"type":"Feature","geometry":{"type":"Point","coordinates":[19.02849,50.10601]},"properties":{"ref:rspo":132261,"official_name":"Niepubliczna Poradnia Psychologiczno-Pedagogiczna Fizjo-Family","name":"Niepubliczna Poradnia Psychologiczno-Pedagogiczna Fizjo-Family","addr:country":"PL","addr:postcode":"43-100","addr:city":"Tychy","addr:street":"ul. Przemys\u0142owa","addr:housenumber":"55","addr:teryt:simc":17742,"addr:teryt:sym_ul":944534,"contact:phone":"+48 795118728","contact:email":"biuro@fizjo-family.pl","contact:website":"http:\/\/www.fizjo-family.pl","ref:regon":"365523241","operator":"Rafa\u0142 Andrzejczak Fizjo-Family","operator:type":"consortium","healthcare":"councelling","counselling_type":"education","fixme":"w zale\u017cno\u015bci od przedmiotu dzia\u0142alno\u015bci (np. healthcare=councelling + counselling_type=education albo healthcare=psychotherapist)"}},{"id":278969,"type":"Feature","geometry":{"type":"Point","coordinates":[19.00135,50.10667]},"properties":{"ref:rspo":278969,"official_name":"Przedszkole Niepubliczne ,,\u0141\u0105czka B\u0105czka\"","name":"Przedszkole Niepubliczne ,,\u0141\u0105czka B\u0105czka\"","addr:country":"PL","addr:postcode":"43-100","addr:city":"Tychy","addr:street":"ul. Paproca\u0144ska","addr:housenumber":"43","addr:teryt:simc":15661,"addr:teryt:sym_ul":944534,"contact:phone":"+48 506013390","contact:email":"przedszkole.tychy@op.pl","contact:website":"http:\/\/www.laczkabaczka.tychy.pl","ref:regon":"520319510","operator":"Ewelina Juchci\u0144ska","operator:type":"private","amenity":"kindergarten"}},{"id":129551,"type":"Feature","geometry":{"type":"Point","coordinates":[18.9864749,50.1070305]},"properties":{"ref:rspo":129551,"official_name":"Educo Niepubliczna Poradnia Psychologiczno-Pedagogiczna","name":"Educo Niepubliczna Poradnia Psychologiczno-Pedagogiczna","addr:country":"PL","addr:postcode":"43-100","addr:city":"Tychy","addr:street":"al. Marsza\u0142ka Pi\u0142sudskiego","addr:housenumber":"16","addr:teryt:simc":37721,"addr:teryt:sym_ul":944534,"contact:phone":"+48 693649991","contact:email":"dziuba79@gazeta.pl","ref:regon":"362680260","operator":"Monika Bujnowicz","operator:type":"private","healthcare":"councelling","counselling_type":"education","fixme":"w zale\u017cno\u015bci od przedmiotu dzia\u0142alno\u015bci (np. healthcare=councelling + counselling_type=education albo healthcare=psychotherapist)"}},{"id":276760,"type":"Feature","geometry":{"type":"Point","coordinates":[18.9864749,50.1070005]},"properties":{"ref:rspo":276760,"official_name":"Educo Niepubliczna Poradnia Psychologiczni-Pedagogiczna","name":"Educo Niepubliczna Poradnia Psychologiczni-Pedagogiczna","addr:country":"PL","addr:postcode":"43-100","addr:city":"Tychy","addr:street":"al. Marsza\u0142ka Pi\u0142sudskiego","addr:housenumber":"16","addr:teryt:simc":37721,"addr:teryt:sym_ul":944534,"contact:email":"irena.mic56@gmail.com","ref:regon":"387506952","operator":"Irena Micura","operator:type":"private","healthcare":"councelling","counselling_type":"education","fixme":"w zale\u017cno\u015bci od przedmiotu dzia\u0142alno\u015bci (np. healthcare=councelling + counselling_type=education albo healthcare=psychotherapist)"}},{"id":72474,"type":"Feature","geometry":{"type":"Point","coordinates":[18.96569,50.10732]},"properties":{"ref:rspo":72474,"official_name":"Niepubliczne Przedszkole \"Bajkolandia\" Z Oddzia\u0142ami Integracyjnymi","name":"Niepubliczne Przedszkole \"Bajkolandia\" Z Oddzia\u0142ami Integracyjnymi","addr:country":"PL","addr:postcode":"43-100","addr:city":"Tychy","addr:street":"ul. My\u015bliwska","addr:housenumber":"8-10","addr:teryt:simc":13563,"addr:teryt:sym_ul":944534,"contact:phone":"+48 510173986","contact:email":"przedszkolebajkolandia@gmail.com","contact:website":"http:\/\/www.bajkolandia-przedszkole.pl","ref:regon":"243083176","operator":"Krystyna Furmaniak","operator:type":"private","amenity":"kindergarten"}},{"id":23044,"type":"Feature","geometry":{"type":"Point","coordinates":[18.98171,50.10742]},"properties":{"ref:rspo":23044,"official_name":"Zesp\u00f3\u0142 Szk\u00f3\u0142 Nr 6 w Tychach","name":"Zesp\u00f3\u0142 Szk\u00f3\u0142 Nr 6 w Tychach","addr:country":"PL","addr:postcode":"43-100","addr:city":"Tychy","addr:street":"al. Marsza\u0142ka Pi\u0142sudskiego","addr:housenumber":"10","addr:teryt:simc":37721,"addr:teryt:sym_ul":944534,"contact:phone":"+48 322170091","contact:email":"zs6@oswiata.tychy.pl","contact:website":"http:\/\/zs6.tychy.edu.pl","ref:regon":"000036280","ref:vatin":"PL6461010778","operator":"Gmina Miasta Tychy","operator:type":"government","landuse":"education","fixme":"amenity=school, amenity=college albo landuse=education w zale\u017cno\u015bci od tego, jakie plac\u00f3wki wchodz\u0105 w sk\u0142ad zespo\u0142u. Sprawd\u017a, kiedy stosowa\u0107 amenity=* a kiedy landuse=education.","note":"Children RSPO: 48330;48331"}},{"id":48330,"type":"Feature","geometry":{"type":"Point","coordinates":[18.98171,50.107389999999995]},"properties":{"isced:level":"3","ref:rspo":48330,"official_name":"Technikum Nr 5","name":"Technikum Nr 5","addr:country":"PL","addr:postcode":"43-100","addr:city":"Tychy","addr:street":"al. Marsza\u0142ka Pi\u0142sudskiego","addr:housenumber":"10","addr:teryt:simc":37721,"addr:teryt:sym_ul":944534,"contact:phone":"+48 322170091","contact:email":"zs6@oswiata.tychy.pl","contact:website":"http:\/\/zs6.tychy.edu.pl","ref:regon":"272039899","ref:vatin":"PL6461010778","operator":"Gmina Miasta Tychy","operator:type":"government","amenity":"school","note":"Parent RSPO: 23044"}},{"id":48331,"type":"Feature","geometry":{"type":"Point","coordinates":[18.98171,50.10736]},"properties":{"isced:level":"3","ref:rspo":48331,"official_name":"Bran\u017cowa Szko\u0142a I Stopnia Nr 3 w Zespole Szk\u00f3\u0142 Nr 6","name":"Bran\u017cowa Szko\u0142a I Stopnia Nr 3 w Zespole Szk\u00f3\u0142 Nr 6","addr:country":"PL","addr:postcode":"43-100","addr:city":"Tychy","addr:street":"al. Marsza\u0142ka Pi\u0142sudskiego","addr:housenumber":"10","addr:teryt:simc":37721,"addr:teryt:sym_ul":944534,"contact:phone":"+48 322170091","contact:email":"zs6@oswiata.tychy.pl","contact:website":"http:\/\/zs6.tychy.edu.pl","ref:regon":"272039942","ref:vatin":"PL6461010778","operator":"Gmina Miasta Tychy","operator:type":"government","amenity":"school","note":"Parent RSPO: 23044"}},{"id":121250,"type":"Feature","geometry":{"type":"Point","coordinates":[18.97974,50.10756]},"properties":{"ref:rspo":121250,"official_name":"Niepubliczne Przedszkole \"Akademia Radosnego Malucha\"","name":"Niepubliczne Przedszkole \"Akademia Radosnego Malucha\"","addr:country":"PL","addr:postcode":"43-100","addr:city":"Tychy","addr:street":"ul. Romana Dmowskiego","addr:housenumber":"33","addr:teryt:simc":3868,"addr:teryt:sym_ul":944534,"contact:phone":"+48 504279629","contact:email":"biuro@radosnymaluch.com","contact:website":"http:\/\/www.radosnymaluch.com","ref:regon":"243441894","operator":"Monika Magdziorz","operator:type":"private","amenity":"kindergarten"}},{"id":132265,"type":"Feature","geometry":{"type":"Point","coordinates":[18.96833,50.10797]},"properties":{"ref:rspo":132265,"official_name":"Niepubliczne Przedszkole \"Wyspa Skarb\u00f3w\"","name":"Niepubliczne Przedszkole \"Wyspa Skarb\u00f3w\"","addr:country":"PL","addr:postcode":"43-100","addr:city":"Tychy","addr:street":"ul. Legion\u00f3w Polskich","addr:housenumber":"34","addr:door":"14","addr:teryt:simc":10775,"addr:teryt:sym_ul":944534,"contact:phone":"+48 533845044","contact:email":"wyspaskarbow.przedszkole@gmail.com","contact:website":"http:\/\/wyspaskarbowtychy.eprzedszkola.pl","ref:regon":"365523301","operator":"Magdalena Kotlorz","operator:type":"private","amenity":"kindergarten"}},{"id":132267,"type":"Feature","geometry":{"type":"Point","coordinates":[18.9684,50.10808]},"properties":{"ref:rspo":132267,"official_name":"Specjalistyczny Punkt Przedszkolny \"Pracownia Edukacyjna\"","name":"Specjalistyczny Punkt Przedszkolny \"Pracownia Edukacyjna\"","addr:country":"PL","addr:postcode":"43-100","addr:city":"Tychy","addr:street":"ul. Legion\u00f3w Polskich","addr:housenumber":"36b","addr:teryt:simc":10775,"addr:teryt:sym_ul":944534,"contact:phone":"+48 698035035","contact:email":"pracowniaedukacyjna@onet.pl","contact:website":"http:\/\/www.pracownia-edukacyjna.pl","ref:regon":"365523353","operator":"Ewa Poci\u0119giel","operator:type":"private","amenity":"kindergarten"}},{"id":5992,"type":"Feature","geometry":{"type":"Point","coordinates":[18.9720799,50.10827]},"properties":{"isced:level":"1;2","ref:rspo":5992,"official_name":"Szko\u0142a Podstawowa Nr 37 Z Oddzia\u0142ami Dwuj\u0119zycznymi im. Kornela Makuszy\u0144skiego w Tychach","name":"Szko\u0142a Podstawowa Nr 37 Z Oddzia\u0142ami Dwuj\u0119zycznymi","addr:country":"PL","addr:postcode":"43-100","addr:city":"Tychy","addr:street":"ul. Feliksa Konecznego","addr:housenumber":"1","addr:teryt:simc":27651,"addr:teryt:sym_ul":944534,"contact:phone":"+48 322194437","contact:email":"sp37@oswiata.tychy.pl","contact:website":"http:\/\/sp37.tychy.edu.pl","ref:regon":"271518712","ref:vatin":"PL6462494867","operator":"Gmina Miasta Tychy","operator:type":"government","amenity":"school"}},{"id":17578,"type":"Feature","geometry":{"type":"Point","coordinates":[18.9720799,50.108239999999995]},"properties":{"ref:rspo":17578,"official_name":"Przedszkole Nr 6","name":"Przedszkole Nr 6","addr:country":"PL","addr:postcode":"43-100","addr:city":"Tychy","addr:street":"ul. Feliksa Konecznego","addr:housenumber":"1","addr:teryt:simc":27651,"addr:teryt:sym_ul":944534,"contact:phone":"+48 322195486","contact:email":"p6@oswiata.tychy.pl","contact:website":"http:\/\/przedszkole6.tychy.edu.pl","ref:regon":"271510366","ref:vatin":"PL6462711980","operator":"Gmina Miasta Tychy","operator:type":"government","amenity":"kindergarten"}},{"id":5910,"type":"Feature","geometry":{"type":"Point","coordinates":[18.98638,50.10856]},"properties":{"isced:level":"1;2","ref:rspo":5910,"official_name":"Szko\u0142a Podstawowa Nr 35 Z Oddzia\u0142ami Integracyjnymi im. Matki Teresy Z Kalkuty","name":"Szko\u0142a Podstawowa Nr 35 Z Oddzia\u0142ami Integracyjnymi","addr:country":"PL","addr:postcode":"43-100","addr:city":"Tychy","addr:street":"al. Marsza\u0142ka Pi\u0142sudskiego","addr:housenumber":"21","addr:teryt:simc":37721,"addr:teryt:sym_ul":944534,"contact:phone":"+48 322177026","contact:email":"sp35@oswiata.tychy.pl","contact:website":"http:\/\/sp35.tychy.edu.pl","ref:regon":"000835800","ref:vatin":"PL6462487554","operator":"Gmina Miasta Tychy","operator:type":"government","amenity":"school"}},{"id":267651,"type":"Feature","geometry":{"type":"Point","coordinates":[18.98583,50.10906]},"properties":{"ref:rspo":267651,"official_name":"Cukiereczek Niepubliczne Przedszkole","name":"Cukiereczek Niepubliczne Przedszkole","addr:country":"PL","addr:postcode":"43-100","addr:city":"Tychy","addr:street":"al. Marsza\u0142ka Pi\u0142sudskiego","addr:housenumber":"19F","addr:teryt:simc":37721,"addr:teryt:sym_ul":944534,"contact:email":"przedszkole.cukiereczek@gmail.com","ref:regon":"380470694","operator":"Cukiereczek Niepubliczne Przedszkole Sp\u00f3\u0142ka Z Ograniczon\u0105 Odpowiedzialno\u015bci\u0105","operator:type":"private","amenity":"kindergarten"}},{"id":17506,"type":"Feature","geometry":{"type":"Point","coordinates":[18.96176,50.10911]},"properties":{"ref:rspo":17506,"official_name":"Przedszkole Nr 1","name":"Przedszkole Nr 1","addr:country":"PL","addr:postcode":"43-100","addr:city":"Tychy","addr:street":"ul. My\u015bliwska","addr:housenumber":"102","addr:teryt:simc":13563,"addr:teryt:sym_ul":944534,"contact:phone":"+48 322194628","contact:email":"p1@oswiata.tychy.pl","contact:website":"http:\/\/przedszkole1.tychy.edu.pl","ref:regon":"271510082","ref:vatin":"PL6462711974","operator":"Gmina Miasta Tychy","operator:type":"government","amenity":"kindergarten"}},{"id":131561,"type":"Feature","geometry":{"type":"Point","coordinates":[19.0043599,50.10978]},"properties":{"ref:rspo":131561,"official_name":"Niepubliczne Przedszkole \"Kawa\u0142ek T\u0119czy\"","name":"Niepubliczne Przedszkole \"Kawa\u0142ek T\u0119czy\"","addr:country":"PL","addr:postcode":"43-100","addr:city":"Tychy","addr:street":"al. Niepodleg\u0142o\u015bci","addr:housenumber":"214","addr:teryt:simc":14199,"addr:teryt:sym_ul":944534,"contact:phone":"+48 792650602","contact:email":"ewa_mar@interia.pl","ref:regon":"365226595","operator":"Ewa \u017bak","operator:type":"private","amenity":"kindergarten"}},{"id":4821,"type":"Feature","geometry":{"type":"Point","coordinates":[18.99897,50.11]},"properties":{"ref:rspo":4821,"official_name":"Przedszkole Nr 22","name":"Przedszkole Nr 22","addr:country":"PL","addr:postcode":"43-100","addr:city":"Tychy","addr:street":"ul. Henryka D\u0105browskiego","addr:housenumber":"85","addr:teryt:simc":3678,"addr:teryt:sym_ul":944534,"contact:phone":"+48 322276928","contact:email":"p22@oswiata.tychy.pl","contact:website":"http:\/\/przedszkole22.tychy.edu.pl","ref:regon":"271510254","ref:vatin":"PL6462713200","operator":"Gmina Miasta Tychy","operator:type":"government","amenity":"kindergarten"}},{"id":58392,"type":"Feature","geometry":{"type":"Point","coordinates":[18.98624,50.11013]},"properties":{"ref:rspo":58392,"official_name":"Przedszkole Niepubliczne Jedynka","name":"Przedszkole Niepubliczne Jedynka","addr:country":"PL","addr:postcode":"43-100","addr:city":"Tychy","addr:street":"ul. Zofii Na\u0142kowskiej","addr:housenumber":"6","addr:teryt:simc":13967,"addr:teryt:sym_ul":944534,"contact:phone":"+48 322171491","contact:email":"jedynka1@poczta.onet.pl","contact:website":"http:\/\/www.przedszkole-jedynka.com.pl","ref:regon":"243077744","operator":"Henryka J\u00f3zwowska","operator:type":"private","amenity":"kindergarten"}},{"id":34548,"type":"Feature","geometry":{"type":"Point","coordinates":[19.00277,50.11042]},"properties":{"isced:level":"3","ref:rspo":34548,"official_name":"Bran\u017cowa Szko\u0142a I Stopnia Fryzjerstwa I Kosmetyki Da Vinci w Tychach","name":"Bran\u017cowa Szko\u0142a I Stopnia Fryzjerstwa I Kosmetyki Da Vinci w Tychach","addr:country":"PL","addr:postcode":"43-100","addr:city":"Tychy","addr:street":"ul. Kardyna\u0142a Stefana Wyszy\u0144skiego","addr:housenumber":"27","addr:teryt:simc":35421,"addr:teryt:sym_ul":944534,"contact:phone":"+48 323496516","contact:email":"dyrektor@ssnu.pl","contact:website":"http:\/\/www.ssnu.pl","ref:regon":"243069093","operator":"Marczuk Sp\u00f3\u0142ka Z Ograniczon\u0105 Odpowiedzialno\u015bci\u0105","operator:type":"private","amenity":"school"}},{"id":275751,"type":"Feature","geometry":{"type":"Point","coordinates":[19.00277,50.110389999999995]},"properties":{"isced:level":"3","ref:rspo":275751,"official_name":"Bran\u017cowa Szko\u0142a II Stopnia Fryzjerstwa I Kosmetyki Da Vinci","name":"Bran\u017cowa Szko\u0142a II Stopnia Fryzjerstwa I Kosmetyki Da Vinci","addr:country":"PL","addr:postcode":"43-100","addr:city":"Tychy","addr:street":"ul. Kardyna\u0142a Stefana Wyszy\u0144skiego","addr:housenumber":"27","addr:teryt:simc":35421,"addr:teryt:sym_ul":944534,"contact:phone":"+48 323496516","contact:email":"romandrozd@o2.pl","contact:website":"http:\/\/www.ssnu.pl","ref:regon":"386933646","operator":"Marczuk Sp\u00f3\u0142ka Z Ograniczon\u0105 Odpowiedzialno\u015bci\u0105","operator:type":"private","amenity":"school"}},{"id":21499,"type":"Feature","geometry":{"type":"Point","coordinates":[18.98154,50.11059]},"properties":{"ref:rspo":21499,"official_name":"Przedszkole Nr 26","name":"Przedszkole Nr 26","addr:country":"PL","addr:postcode":"43-100","addr:city":"Tychy","addr:street":"ul. M\u0142odzie\u017cowa","addr:housenumber":"5","addr:teryt:simc":13096,"addr:teryt:sym_ul":944534,"contact:phone":"+48 322170846","contact:email":"p26@oswiata.tychy.pl","contact:website":"http:\/\/przedszkole26.tychy.edu.pl","ref:regon":"271510290","ref:vatin":"PL6462713217","operator":"Gmina Miasta Tychy","operator:type":"government","amenity":"kindergarten"}},{"id":23197,"type":"Feature","geometry":{"type":"Point","coordinates":[19.00105,50.1106399]},"properties":{"isced:level":"1;2","ref:rspo":23197,"official_name":"Sportowa Szko\u0142a Podstawowa Nr 19 im. Miko\u0142aja Kopernika","name":"Sportowa Szko\u0142a Podstawowa Nr 19","addr:country":"PL","addr:postcode":"43-100","addr:city":"Tychy","addr:street":"al. Niepodleg\u0142o\u015bci","addr:housenumber":"190","addr:teryt:simc":14199,"addr:teryt:sym_ul":944534,"contact:phone":"+48 322276825","contact:email":"sp19@oswiata.tychy.pl","contact:website":"http:\/\/ssp19tychy.pl","ref:regon":"000725766","ref:vatin":"PL6462573331","operator":"Gmina Miasta Tychy","operator:type":"government","amenity":"school"}},{"id":270378,"type":"Feature","geometry":{"type":"Point","coordinates":[18.98077,50.11066]},"properties":{"isced:level":"1;2","ref:rspo":270378,"official_name":"Szko\u0142a Podstawowa Nr 21 w Tychach","name":"Szko\u0142a Podstawowa Nr 21 w Tychach","addr:country":"PL","addr:postcode":"43-100","addr:city":"Tychy","addr:street":"ul. M\u0142odzie\u017cowa","addr:housenumber":"7","addr:teryt:simc":13096,"addr:teryt:sym_ul":944534,"contact:phone":"+48 327186080","contact:email":"sp21@oswiata.tychy.pl","contact:website":"http:\/\/sp21.tychy.edu.pl","ref:regon":"382479251","operator":"Gmina Miasta Tychy","operator:type":"government","amenity":"school"}},{"id":268836,"type":"Feature","geometry":{"type":"Point","coordinates":[18.99664,50.11109]},"properties":{"ref:rspo":268836,"official_name":"Niepubliczna Poradnia Psychologiczno - Pedagogiczna Fizjogo","name":"Niepubliczna Poradnia Psychologiczno - Pedagogiczna Fizjogo","addr:country":"PL","addr:postcode":"43-100","addr:city":"Tychy","addr:street":"ul. Henryka D\u0105browskiego","addr:housenumber":"41","addr:teryt:simc":3678,"addr:teryt:sym_ul":944534,"contact:phone":"+48 575900290","contact:email":"kontakt@fizjogo.pl","contact:website":"http:\/\/www.fizjogo.pl","ref:regon":"381257420","operator":"Agata Pucha\u0142a","operator:type":"private","healthcare":"councelling","counselling_type":"education","fixme":"w zale\u017cno\u015bci od przedmiotu dzia\u0142alno\u015bci (np. healthcare=councelling + counselling_type=education albo healthcare=psychotherapist)"}},{"id":267019,"type":"Feature","geometry":{"type":"Point","coordinates":[18.96477,50.1111999]},"properties":{"ref:rspo":267019,"official_name":"T\u0119czowe Przedszkole","name":"T\u0119czowe Przedszkole","addr:country":"PL","addr:postcode":"43-100","addr:city":"Tychy","addr:street":"ul. Ja\u015bkowicka","addr:housenumber":"17","addr:teryt:simc":7377,"addr:teryt:sym_ul":944534,"contact:email":"info@teczoweprzedszkole.org","contact:website":"http:\/\/teczoweprzedszkole.org\/tychy\/","ref:regon":"369806390","operator":"Milena Budzynowska","operator:type":"private","amenity":"kindergarten"}},{"id":72519,"type":"Feature","geometry":{"type":"Point","coordinates":[18.98905,50.11123]},"properties":{"isced:level":"4","ref:rspo":72519,"official_name":"Niepubliczna Szko\u0142a Policealna Teb Edukacja w Tychach","name":"Niepubliczna Szko\u0142a Policealna Teb Edukacja w Tychach","addr:country":"PL","addr:postcode":"43-100","addr:city":"Tychy","addr:street":"al. Aleja Jana Paw\u0142a II","addr:housenumber":"24","addr:teryt:simc":37675,"addr:teryt:sym_ul":944534,"contact:phone":"+48 323275655","contact:email":"tychy@teb-edukacja.pl","contact:website":"http:\/\/www.teb.pl","ref:regon":"243086192","operator":"Teb Edukacja Sp\u00f3\u0142ka Z Ograniczon\u0105 Odpowiedzialno\u015bci\u0105","operator:type":"private","amenity":"college"}},{"id":75918,"type":"Feature","geometry":{"type":"Point","coordinates":[18.98905,50.1112]},"properties":{"ref:rspo":75918,"official_name":"Teb Edukacja Plac\u00f3wka Kszta\u0142cenia Ustawicznego w Tychach","name":"Teb Edukacja Plac\u00f3wka Kszta\u0142cenia Ustawicznego w Tychach","addr:country":"PL","addr:postcode":"43-100","addr:city":"Tychy","addr:street":"al. Aleja Jana Paw\u0142a II","addr:housenumber":"24","addr:teryt:simc":37675,"addr:teryt:sym_ul":944534,"contact:phone":"+48 323275655","contact:email":"tychy@teb-edukacja.pl","ref:regon":"243088972","ref:vatin":"PL7810064722","operator":"Teb Edukacja Sp\u00f3\u0142ka Z Ograniczon\u0105 Odpowiedzialno\u015bci\u0105","operator:type":"private","fixme":"w zale\u017cno\u015bci od przedmiotu dzia\u0142alno\u015bci (np. amenity=training + training=*, amenity=dancing_school, amenity=language_school, amenity=music_school)"}},{"id":92903,"type":"Feature","geometry":{"type":"Point","coordinates":[18.98905,50.11117]},"properties":{"isced:level":"3","ref:rspo":92903,"official_name":"Technikum Teb Edukacja w Tychach","name":"Technikum Teb Edukacja w Tychach","addr:country":"PL","addr:postcode":"43-100","addr:city":"Tychy","addr:street":"al. Aleja Jana Paw\u0142a II","addr:housenumber":"24","addr:teryt:simc":37675,"addr:teryt:sym_ul":944534,"contact:phone":"+48 323275655","contact:email":"tychy@teb-edukacja.pl","contact:website":"http:\/\/www.teb.pl","ref:regon":"243118644","operator":"Teb Edukacja Sp\u00f3\u0142ka Z Ograniczon\u0105 Odpowiedzialno\u015bci\u0105","operator:type":"private","amenity":"school"}},{"id":119198,"type":"Feature","geometry":{"type":"Point","coordinates":[18.98905,50.11114]},"properties":{"isced:level":"3","ref:rspo":119198,"official_name":"Liceum Og\u00f3lnokszta\u0142c\u0105ce Teb Edukacja","name":"Liceum Og\u00f3lnokszta\u0142c\u0105ce Teb Edukacja","addr:country":"PL","addr:postcode":"43-100","addr:city":"Tychy","addr:street":"al. Aleja Jana Paw\u0142a II","addr:housenumber":"24","addr:teryt:simc":37675,"addr:teryt:sym_ul":944534,"contact:phone":"+48 323275655","contact:email":"tychy@teb-edukacja.pl","contact:website":"http:\/\/www.teb.pl","ref:regon":"243353262","ref:vatin":"PL7781456499","operator":"Teb Edukacja Sp\u00f3\u0142ka Z Ograniczon\u0105 Odpowiedzialno\u015bci\u0105","operator:type":"private","amenity":"school"}},{"id":276396,"type":"Feature","geometry":{"type":"Point","coordinates":[18.99524,50.11133]},"properties":{"ref:rspo":276396,"official_name":"Niepubliczna Poradnia Psychologiczno-Pedagogiczna Evoluo","name":"Niepubliczna Poradnia Psychologiczno-Pedagogiczna Evoluo","addr:country":"PL","addr:postcode":"43-100","addr:city":"Tychy","addr:street":"ul. K. Darwina","addr:housenumber":"25B","addr:teryt:simc":47973,"addr:teryt:sym_ul":944534,"contact:phone":"+48 603095737","contact:email":"evoluoporadnia@gmail.com","contact:website":"http:\/\/evoluoporadnia.pl","ref:regon":"387118492","operator":"Karina Zieli\u0144ska","operator:type":"private","healthcare":"councelling","counselling_type":"education","fixme":"w zale\u017cno\u015bci od przedmiotu dzia\u0142alno\u015bci (np. healthcare=councelling + counselling_type=education albo healthcare=psychotherapist)"}},{"id":21486,"type":"Feature","geometry":{"type":"Point","coordinates":[18.99697,50.112]},"properties":{"ref:rspo":21486,"official_name":"Przedszkole Nr 19","name":"Przedszkole Nr 19","addr:country":"PL","addr:postcode":"43-100","addr:city":"Tychy","addr:street":"al. Niepodleg\u0142o\u015bci","addr:housenumber":"154","addr:teryt:simc":14199,"addr:teryt:sym_ul":944534,"contact:phone":"+48 322274264","contact:email":"p19@oswiata.tychy.pl","contact:website":"http:\/\/przedszkole19.tychy.edu.pl","ref:regon":"271510231","ref:vatin":"PL6462713252","operator":"Gmina Miasta Tychy","operator:type":"government","amenity":"kindergarten"}},{"id":5386,"type":"Feature","geometry":{"type":"Point","coordinates":[18.96375,50.11315]},"properties":{"isced:level":"1;2","ref:rspo":5386,"official_name":"Szko\u0142a Podstawowa Nr 10 im. Gustawa Morcinka","name":"Szko\u0142a Podstawowa Nr 10","addr:country":"PL","addr:postcode":"43-100","addr:city":"Tychy","addr:street":"ul. Borowa","addr:housenumber":"123","addr:teryt:simc":1842,"addr:teryt:sym_ul":944534,"contact:phone":"+48 322183612","contact:email":"sp10@oswiata.tychy.pl","contact:website":"http:\/\/sp10.tychy.edu.pl","ref:regon":"000725677","ref:vatin":"PL6462488714","operator":"Gmina Miasta Tychy","operator:type":"government","amenity":"school"}},{"id":5505,"type":"Feature","geometry":{"type":"Point","coordinates":[19.00065,50.1135499]},"properties":{"isced:level":"1;2","ref:rspo":5505,"official_name":"Szko\u0142a Podstawowa Nr 18 im. W\u0142adys\u0142awa Jagie\u0142\u0142y","name":"Szko\u0142a Podstawowa Nr 18","addr:country":"PL","addr:postcode":"43-100","addr:city":"Tychy","addr:street":"ul. Grzegorza Fitelberga","addr:housenumber":"8","addr:teryt:simc":5048,"addr:teryt:sym_ul":944534,"contact:phone":"+48 322273485","contact:email":"sp18@oswiata.tychy.pl","contact:website":"http:\/\/sp18.tychy.edu.pl","ref:regon":"000725750","ref:vatin":"PL6462495111","operator":"Gmina Miasta Tychy","operator:type":"government","amenity":"school"}},{"id":21484,"type":"Feature","geometry":{"type":"Point","coordinates":[19.00065,50.1135199]},"properties":{"ref:rspo":21484,"official_name":"Przedszkole Nr 18 im. Juliana Tuwima","name":"Przedszkole Nr 18","addr:country":"PL","addr:postcode":"43-100","addr:city":"Tychy","addr:street":"ul. Grzegorza Fitelberga","addr:housenumber":"31","addr:teryt:simc":5048,"addr:teryt:sym_ul":944534,"contact:phone":"+48 322272682","contact:email":"p18@oswiata.tychy.pl","contact:website":"http:\/\/przedszkole18.tychy.edu.pl","ref:regon":"271510225","ref:vatin":"PL6462713163","operator":"Gmina Miasta Tychy","operator:type":"government","amenity":"kindergarten"}},{"id":133584,"type":"Feature","geometry":{"type":"Point","coordinates":[18.9943,50.11365]},"properties":{"isced:level":"1;2","ref:rspo":133584,"official_name":"Szko\u0142a Podstawowa Nr 13 Z Oddzia\u0142ami Dwuj\u0119zycznymi im. Jana III Sobieskiego w Tychach","name":"Szko\u0142a Podstawowa Nr 13 Z Oddzia\u0142ami Dwuj\u0119zycznymi","addr:country":"PL","addr:postcode":"43-100","addr:city":"Tychy","addr:street":"al. Niepodleg\u0142o\u015bci","addr:housenumber":"108","addr:teryt:simc":14199,"addr:teryt:sym_ul":944534,"contact:phone":"+48 322272749","contact:email":"sp13@oswiata.tychy.pl","contact:website":"http:\/\/sp13.tychy.edu.pl","ref:regon":"367437830","operator":"Gmina Miasta Tychy","operator:type":"government","amenity":"school"}},{"id":58405,"type":"Feature","geometry":{"type":"Point","coordinates":[18.97636,50.11391]},"properties":{"ref:rspo":58405,"official_name":"Niepubliczne Przedszkole Angloj\u0119zyczne Chatka Ma\u0142olatka","name":"Niepubliczne Przedszkole Angloj\u0119zyczne Chatka Ma\u0142olatka","addr:country":"PL","addr:postcode":"43-100","addr:city":"Tychy","addr:street":"ul. Zdzis\u0142awa Hierowskiego","addr:housenumber":"15","addr:teryt:simc":6658,"addr:teryt:sym_ul":944534,"contact:phone":"+48 724967977","contact:email":"chatkamalolatka2020@wp.pl","contact:website":"http:\/\/www.chatkamalolatka.edupage.org","ref:regon":"243077780","operator":"El\u017cbieta Gog\u00f3\u0142","operator:type":"private","amenity":"kindergarten"}},{"id":30604,"type":"Feature","geometry":{"type":"Point","coordinates":[18.99832,50.11417]},"properties":{"ref:rspo":30604,"official_name":"Zesp\u00f3\u0142 Szk\u00f3\u0142 Muzycznych im. Feliksa Rybickiego w Tychach","name":"Zesp\u00f3\u0142 Szk\u00f3\u0142 Muzycznych","addr:country":"PL","addr:postcode":"43-100","addr:city":"Tychy","addr:street":"al. Niepodleg\u0142o\u015bci","addr:housenumber":"53","addr:teryt:simc":14199,"addr:teryt:sym_ul":944534,"contact:phone":"+48 322276929","contact:email":"zsm@oswiata.tychy.pl","contact:website":"http:\/\/zsm.tychy.edu.pl","ref:regon":"277822902","ref:vatin":"PL6462371739","operator":"Gmina Miasta Tychy","operator:type":"government","landuse":"education","fixme":"amenity=school, amenity=college albo landuse=education w zale\u017cno\u015bci od tego, jakie plac\u00f3wki wchodz\u0105 w sk\u0142ad zespo\u0142u. Sprawd\u017a, kiedy stosowa\u0107 amenity=* a kiedy landuse=education.","note":"Children RSPO: 38534;75909"}},{"id":38534,"type":"Feature","geometry":{"type":"Point","coordinates":[18.99832,50.11414]},"properties":{"isced:level":"1;2","ref:rspo":38534,"official_name":"Og\u00f3lnokszta\u0142c\u0105ca Szko\u0142a Muzyczna I Stopnia w Zespole Szk\u00f3\u0142 Muzycznych im. Feliksa Rybickiego w Tychach","name":"Og\u00f3lnokszta\u0142c\u0105ca Szko\u0142a Muzyczna I Stopnia w Zespole Szk\u00f3\u0142 Muzycznych","addr:country":"PL","addr:postcode":"43-100","addr:city":"Tychy","addr:street":"al. Niepodleg\u0142o\u015bci","addr:housenumber":"53","addr:teryt:simc":14199,"addr:teryt:sym_ul":944534,"contact:phone":"+48 322276929","contact:email":"zsm@oswiata.tychy.pl","contact:website":"http:\/\/zsm.tychy.edu.pl","ref:regon":"277822919","ref:vatin":"PL6462371739","operator":"Gmina Miasta Tychy","operator:type":"government","amenity":"school","note":"Parent RSPO: 30604"}},{"id":75909,"type":"Feature","geometry":{"type":"Point","coordinates":[18.99832,50.114110000000004]},"properties":{"ref:rspo":75909,"official_name":"Pa\u0144stwowa Szko\u0142a Muzyczna I Stopnia im. Feliksa Rybickiego w Zespole Szk\u00f3\u0142 Muzycznych im. Feliksa Rybickiego w Tychach","name":"Pa\u0144stwowa Szko\u0142a Muzyczna I Stopnia","addr:country":"PL","addr:postcode":"43-100","addr:city":"Tychy","addr:street":"al. Niepodleg\u0142o\u015bci","addr:housenumber":"53","addr:teryt:simc":14199,"addr:teryt:sym_ul":944534,"contact:phone":"+48 322276929","contact:email":"zsm@oswiata.tychy.pl","contact:website":"http:\/\/zsm.tychy.edu.pl","ref:regon":"000739076","ref:vatin":"PL6462371739","operator":"Gmina Miasta Tychy","operator:type":"government","amenity":"music_school","note":"Parent RSPO: 30604"}},{"id":72649,"type":"Feature","geometry":{"type":"Point","coordinates":[18.99269,50.11421]},"properties":{"ref:rspo":72649,"official_name":"O\u015brodek Rehabilitacyjno-Edukacyjno-Wychowawczy","name":"O\u015brodek Rehabilitacyjno-Edukacyjno-Wychowawczy","addr:country":"PL","addr:postcode":"43-100","addr:city":"Tychy","addr:street":"al. Niepodleg\u0142o\u015bci","addr:housenumber":"90","addr:teryt:simc":14199,"addr:teryt:sym_ul":944534,"contact:phone":"+48 322273300","contact:email":"osrodek@orew.tychy.pl","contact:website":"http:\/\/www.osrodek.tychy.pl","ref:regon":"243086401","operator":"Polskie Stowarzyszenie Na Rzecz Os\u00f3b Z Niepe\u0142nosprawno\u015bci\u0105 Intelektualn\u0105 Ko\u0142o W Tychach","operator:type":"ngo","amenity":"school"}},{"id":130200,"type":"Feature","geometry":{"type":"Point","coordinates":[19.04401,50.1142899]},"properties":{"ref:rspo":130200,"official_name":"Zesp\u00f3\u0142 Szkolno-Przedszkolny Nr 4 w Tychach","name":"Zesp\u00f3\u0142 Szkolno-Przedszkolny Nr 4 w Tychach","addr:country":"PL","addr:postcode":"43-100","addr:city":"Tychy","addr:street":"ul. Pogodna","addr:housenumber":"37","addr:teryt:simc":16900,"addr:teryt:sym_ul":944534,"contact:phone":"+48 324384652","contact:email":"zsp4@oswiata.tychy.pl","contact:website":"http:\/\/zsp4.tychy.edu.pl","ref:regon":"363626066","operator":"Gmina Miasta Tychy","operator:type":"government","landuse":"education","fixme":"amenity=school, amenity=college albo landuse=education w zale\u017cno\u015bci od tego, jakie plac\u00f3wki wchodz\u0105 w sk\u0142ad zespo\u0142u. Sprawd\u017a, kiedy stosowa\u0107 amenity=* a kiedy landuse=education.","note":"Children RSPO: 130205;130206"}},{"id":130205,"type":"Feature","geometry":{"type":"Point","coordinates":[19.04401,50.1142599]},"properties":{"isced:level":"1;2","ref:rspo":130205,"official_name":"Szko\u0142a Podstawowa Nr 24 im. Himalaist\u00f3w Polskich","name":"Szko\u0142a Podstawowa Nr 24","addr:country":"PL","addr:postcode":"43-100","addr:city":"Tychy","addr:street":"ul. Pogodna","addr:housenumber":"37","addr:teryt:simc":16900,"addr:teryt:sym_ul":944534,"contact:phone":"+48 324384652","contact:email":"zsp4@oswiata.tychy.pl","contact:website":"http:\/\/zsp4.tychy.edu.pl","ref:regon":"363646347","operator":"Gmina Miasta Tychy","operator:type":"government","amenity":"school","note":"Parent RSPO: 130200"}},{"id":130206,"type":"Feature","geometry":{"type":"Point","coordinates":[19.04401,50.114229900000005]},"properties":{"ref:rspo":130206,"official_name":"Przedszkole Nr 30 w Tychach","name":"Przedszkole Nr 30 w Tychach","addr:country":"PL","addr:postcode":"43-100","addr:city":"Tychy","addr:street":"ul. Pogodna","addr:housenumber":"37","addr:teryt:simc":16900,"addr:teryt:sym_ul":944534,"contact:phone":"+48 324384652","contact:email":"zsp4@oswiata.tychy.pl","contact:website":"http:\/\/zsp4.tychy.edu.pl","ref:regon":"363646376","operator":"Gmina Miasta Tychy","operator:type":"government","amenity":"kindergarten","note":"Parent RSPO: 130200"}},{"id":23042,"type":"Feature","geometry":{"type":"Point","coordinates":[18.97994,50.11439]},"properties":{"ref:rspo":23042,"official_name":"Zesp\u00f3\u0142 Szk\u00f3\u0142 Nr 4 im. Janusza Groszkowskiego w Tychach","name":"Zesp\u00f3\u0142 Szk\u00f3\u0142 Nr 4","addr:country":"PL","addr:postcode":"43-100","addr:city":"Tychy","addr:street":"al. Aleja Bielska","addr:housenumber":"100","addr:teryt:simc":53282,"addr:teryt:sym_ul":944534,"contact:phone":"+48 322173822","contact:email":"zs4@oswiata.tychy.pl","contact:website":"http:\/\/zs4.tychy.edu.pl","ref:regon":"000023691","ref:vatin":"PL6462369889","operator":"Gmina Miasta Tychy","operator:type":"government","landuse":"education","fixme":"amenity=school, amenity=college albo landuse=education w zale\u017cno\u015bci od tego, jakie plac\u00f3wki wchodz\u0105 w sk\u0142ad zespo\u0142u. Sprawd\u017a, kiedy stosowa\u0107 amenity=* a kiedy landuse=education.","note":"Children RSPO: 43841;43842;43843"}},{"id":43841,"type":"Feature","geometry":{"type":"Point","coordinates":[18.97994,50.11436]},"properties":{"isced:level":"3","ref:rspo":43841,"official_name":"Technikum Nr 3","name":"Technikum Nr 3","addr:country":"PL","addr:postcode":"43-100","addr:city":"Tychy","addr:street":"al. Aleja Bielska","addr:housenumber":"100","addr:teryt:simc":53282,"addr:teryt:sym_ul":944534,"contact:phone":"+48 322173822","contact:email":"zs4@oswiata.tychy.pl","contact:website":"http:\/\/zs4.tychy.edu.pl","ref:regon":"272039333","ref:vatin":"PL6462369889","operator":"Gmina Miasta Tychy","operator:type":"government","amenity":"school","note":"Parent RSPO: 23042"}},{"id":43842,"type":"Feature","geometry":{"type":"Point","coordinates":[18.97994,50.11433]},"properties":{"isced:level":"4","ref:rspo":43842,"official_name":"Szko\u0142a Policealna Nr 2 w Zespole Szk\u00f3\u0142 Nr 4 im. Janusza Groszkowskiego","name":"Szko\u0142a Policealna Nr 2 w Zespole Szk\u00f3\u0142 Nr 4","addr:country":"PL","addr:postcode":"43-100","addr:city":"Tychy","addr:street":"al. Aleja Bielska","addr:housenumber":"100","addr:teryt:simc":53282,"addr:teryt:sym_ul":944534,"contact:phone":"+48 322173822","contact:email":"zs4@oswiata.tychy.pl","contact:website":"http:\/\/zs4.tychy.edu.pl","ref:regon":"272039400","ref:vatin":"PL6462369889","operator":"Gmina Miasta Tychy","operator:type":"government","amenity":"college","note":"Parent RSPO: 23042"}},{"id":43843,"type":"Feature","geometry":{"type":"Point","coordinates":[18.97994,50.1143]},"properties":{"isced:level":"3","ref:rspo":43843,"official_name":"Bran\u017cowa Szko\u0142a I Stopnia Nr 1 w Zespole Szk\u00f3\u0142 Nr 4 im. Janusza Groszkowskiego","name":"Bran\u017cowa Szko\u0142a I Stopnia Nr 1 w Zespole Szk\u00f3\u0142 Nr 4","addr:country":"PL","addr:postcode":"43-100","addr:city":"Tychy","addr:street":"al. Aleja Bielska","addr:housenumber":"100","addr:teryt:simc":53282,"addr:teryt:sym_ul":944534,"contact:phone":"+48 322173822","contact:email":"zs4@oswiata.tychy.pl","contact:website":"http:\/\/zs4.tychy.edu.pl","ref:regon":"272039327","ref:vatin":"PL6462369889","operator":"Gmina Miasta Tychy","operator:type":"government","amenity":"school","note":"Parent RSPO: 23042"}},{"id":131564,"type":"Feature","geometry":{"type":"Point","coordinates":[18.98997,50.1154]},"properties":{"isced:level":"4","ref:rspo":131564,"official_name":"Policealna Szko\u0142a Ad Rem","name":"Policealna Szko\u0142a Ad Rem","addr:country":"PL","addr:postcode":"43-100","addr:city":"Tychy","addr:street":"ul. D\u0119bowa","addr:housenumber":"12","addr:teryt:simc":3811,"addr:teryt:sym_ul":944534,"contact:phone":"+48 323089900","contact:email":"tychy@ce7.pl","ref:regon":"365226655","operator":"Edo Sp\u00f3\u0142ka Z Ograniczon\u0105 Odpowiedzialno\u015bci\u0105","operator:type":"private","amenity":"college"}},{"id":276849,"type":"Feature","geometry":{"type":"Point","coordinates":[18.98997,50.11537]},"properties":{"isced:level":"4","ref:rspo":276849,"official_name":"Policealna Szko\u0142a Medus","name":"Policealna Szko\u0142a Medus","addr:country":"PL","addr:postcode":"43-100","addr:city":"Tychy","addr:street":"ul. D\u0119bowa","addr:housenumber":"12","addr:teryt:simc":3811,"addr:teryt:sym_ul":944534,"contact:phone":"+48 323071333","contact:email":"for3szkola@gmail.com","ref:regon":"387713059","operator":"For3 Sp\u00f3\u0142ka Z Ograniczon\u0105 Odpowiedzialno\u015bci\u0105","operator:type":"private","amenity":"college"}},{"id":23046,"type":"Feature","geometry":{"type":"Point","coordinates":[19.00303,50.11603]},"properties":{"ref:rspo":23046,"official_name":"Zesp\u00f3\u0142 Szk\u00f3\u0142 Specjalnych Nr 8 w Tychach","name":"Zesp\u00f3\u0142 Szk\u00f3\u0142 Specjalnych Nr 8 w Tychach","addr:country":"PL","addr:postcode":"43-100","addr:city":"Tychy","addr:street":"ul. Edukacji","addr:housenumber":"21","addr:teryt:simc":4731,"addr:teryt:sym_ul":944534,"contact:phone":"+48 322180050","contact:email":"zs8@oswiata.tychy.pl","contact:website":"http:\/\/zs8.tychy.edu.pl","ref:regon":"241975321","ref:vatin":"PL6462917641","operator":"Gmina Miasta Tychy","operator:type":"government","landuse":"education","fixme":"amenity=school, amenity=college albo landuse=education w zale\u017cno\u015bci od tego, jakie plac\u00f3wki wchodz\u0105 w sk\u0142ad zespo\u0142u. Sprawd\u017a, kiedy stosowa\u0107 amenity=* a kiedy landuse=education.","note":"Children RSPO: 48334;48336;48337"}},{"id":48334,"type":"Feature","geometry":{"type":"Point","coordinates":[19.00303,50.116]},"properties":{"isced:level":"1;2","ref:rspo":48334,"official_name":"Szko\u0142a Podstawowa Specjalna Nr 12","name":"Szko\u0142a Podstawowa Specjalna Nr 12","addr:country":"PL","addr:postcode":"43-100","addr:city":"Tychy","addr:street":"ul. Edukacji","addr:housenumber":"21","addr:teryt:simc":4731,"addr:teryt:sym_ul":944534,"contact:phone":"+48 322180050","contact:email":"zs8@oswiata.tychy.pl","contact:website":"http:\/\/zss8.edu.pl","ref:regon":"000725737","ref:vatin":"PL6462917641","operator":"Gmina Miasta Tychy","operator:type":"government","amenity":"school","note":"Parent RSPO: 23046"}},{"id":48336,"type":"Feature","geometry":{"type":"Point","coordinates":[19.00303,50.115970000000004]},"properties":{"isced:level":"3","ref:rspo":48336,"official_name":"Bran\u017cowa Szko\u0142a I Stopnia Specjalna Nr 5 w Zespole Szk\u00f3\u0142 Specjalnych Nr 8","name":"Bran\u017cowa Szko\u0142a I Stopnia Specjalna Nr 5 w Zespole Szk\u00f3\u0142 Specjalnych Nr 8","addr:country":"PL","addr:postcode":"43-100","addr:city":"Tychy","addr:street":"ul. Edukacji","addr:housenumber":"21","addr:teryt:simc":4731,"addr:teryt:sym_ul":944534,"contact:phone":"+48 322180050","contact:email":"zs8@oswiata.tychy.pl","contact:website":"http:\/\/zss8.edu.pl","ref:regon":"272039592","ref:vatin":"PL6462917641","operator":"Gmina Miasta Tychy","operator:type":"government","amenity":"school","note":"Parent RSPO: 23046"}},{"id":48337,"type":"Feature","geometry":{"type":"Point","coordinates":[19.00303,50.11594]},"properties":{"ref:rspo":48337,"official_name":"Szko\u0142a Specjalna Przysposabiaj\u0105ca Do Pracy","name":"Szko\u0142a Specjalna Przysposabiaj\u0105ca Do Pracy","addr:country":"PL","addr:postcode":"43-100","addr:city":"Tychy","addr:street":"ul. Edukacji","addr:housenumber":"21","addr:teryt:simc":4731,"addr:teryt:sym_ul":944534,"contact:phone":"+48 322180050","contact:email":"zs8@oswiata.tychy.pl","contact:website":"http:\/\/zss8.edu.pl","ref:regon":"242629160","ref:vatin":"PL6462917641","operator":"Gmina Miasta Tychy","operator:type":"government","amenity":"school","note":"Parent RSPO: 23046"}},{"id":75118,"type":"Feature","geometry":{"type":"Point","coordinates":[18.98979,50.11639]},"properties":{"ref:rspo":75118,"official_name":"Okr\u0119gowa Izba Przemys\u0142owo-Handlowa w Tychach","name":"Okr\u0119gowa Izba Przemys\u0142owo-Handlowa w Tychach","addr:country":"PL","addr:postcode":"43-100","addr:city":"Tychy","addr:street":"ul. Stefana Grota-Roweckiego","addr:housenumber":"42","addr:teryt:simc":6192,"addr:teryt:sym_ul":944534,"contact:phone":"+48 323277277","contact:email":"izba@izba.tychy.pl","contact:website":"http:\/\/www.izba.tychy.pl","ref:regon":"243088133","ref:vatin":"PL6462129955","operator":"Okr\u0119gowa Izba Przemys\u0142owo - Handlowa W Tychach","operator:type":"cooperative","fixme":"w zale\u017cno\u015bci od przedmiotu dzia\u0142alno\u015bci (np. amenity=training + training=*, amenity=dancing_school, amenity=language_school, amenity=music_school)"}},{"id":24866,"type":"Feature","geometry":{"type":"Point","coordinates":[18.99584,50.11651]},"properties":{"ref:rspo":24866,"official_name":"M\u0142odzie\u017cowy Dom Kultury Nr 2","name":"M\u0142odzie\u017cowy Dom Kultury Nr 2","addr:country":"PL","addr:postcode":"43-100","addr:city":"Tychy","addr:street":"ul. Elf\u00f3w","addr:housenumber":"56","addr:teryt:simc":4781,"addr:teryt:sym_ul":944534,"contact:phone":"+48 322273110","contact:email":"mdk2@oswiata.tychy.pl","contact:website":"http:\/\/mdk2.tychy.edu.pl","ref:regon":"000726033","ref:vatin":"PL6462553587","operator":"Gmina Miasta Tychy","operator:type":"government","amenity":"community_centre","community_centre:for":"juvenile"}},{"id":75926,"type":"Feature","geometry":{"type":"Point","coordinates":[19.00592,50.11658]},"properties":{"ref:rspo":75926,"official_name":"O\u015brodek Szkole\u0144 Bhp \"Sepra\"","name":"O\u015brodek Szkole\u0144 Bhp \"Sepra\"","addr:country":"PL","addr:postcode":"43-100","addr:city":"Tychy","addr:street":"ul. Filaret\u00f3w","addr:housenumber":"21","addr:teryt:simc":4994,"addr:teryt:sym_ul":944534,"contact:phone":"+48 322270562","contact:email":"sepra@bhpsepra.edu.pl","ref:regon":"243089049","ref:vatin":"PL6461146354","operator":"Artur Przyby\u0142a Fhu Sepra Doradztwo Szkolenia Us\u0142ugi","operator:type":"private","fixme":"w zale\u017cno\u015bci od przedmiotu dzia\u0142alno\u015bci (np. amenity=training + training=*, amenity=dancing_school, amenity=language_school, amenity=music_school)"}},{"id":58138,"type":"Feature","geometry":{"type":"Point","coordinates":[19.00409,50.11674]},"properties":{"ref:rspo":58138,"official_name":"Przedszkole Niepubliczne \"Maluszkowo\"","name":"Przedszkole Niepubliczne \"Maluszkowo\"","addr:country":"PL","addr:postcode":"43-100","addr:city":"Tychy","addr:street":"ul. Filaret\u00f3w","addr:housenumber":"5","addr:teryt:simc":4994,"addr:teryt:sym_ul":944534,"contact:phone":"+48 322270222","contact:email":"kacpero54@wp.pl","contact:website":"http:\/\/www.maluszkowo.tychy.pl","ref:regon":"243077230","operator":"Magdalena Kielesz","operator:type":"private","amenity":"kindergarten"}},{"id":58139,"type":"Feature","geometry":{"type":"Point","coordinates":[19.00409,50.11671]},"properties":{"ref:rspo":58139,"official_name":"Niepubliczne Przedszkole Bajeczka","name":"Niepubliczne Przedszkole Bajeczka","addr:country":"PL","addr:postcode":"43-100","addr:city":"Tychy","addr:street":"ul. Filaret\u00f3w","addr:housenumber":"5","addr:teryt:simc":4994,"addr:teryt:sym_ul":944534,"contact:phone":"+48 323273030","contact:email":"tychybajeczka@wp.pl","contact:website":"http:\/\/www.bajeczka-tychy.pl","ref:regon":"243077276","operator":"Bajeczka B.j.m\u0119drak, M.robak Sp\u00f3\u0142ka Jawna","operator:type":"private","amenity":"kindergarten"}},{"id":269235,"type":"Feature","geometry":{"type":"Point","coordinates":[18.96397,50.11694]},"properties":{"ref:rspo":269235,"official_name":"Przedszkole Niepubliczne \"Okidoki\" Z Oddzia\u0142ami Integracyjnymi","name":"Przedszkole Niepubliczne \"Okidoki\" Z Oddzia\u0142ami Integracyjnymi","addr:country":"PL","addr:postcode":"43-100","addr:city":"Tychy","addr:street":"ul. Borowa","addr:housenumber":"84","addr:teryt:simc":1842,"addr:teryt:sym_ul":944534,"contact:email":"kontakt@przedszkoleokidoki.pl","contact:website":"http:\/\/www.przedszkoleokidoki.pl","ref:regon":"381408243","operator":"Okidoki Sp\u00f3\u0142ka Z Ograniczon\u0105 Odpowiedzialno\u015bci\u0105","operator:type":"private","amenity":"kindergarten"}},{"id":5407,"type":"Feature","geometry":{"type":"Point","coordinates":[18.98535,50.11694]},"properties":{"isced:level":"1;2","ref:rspo":5407,"official_name":"Szko\u0142a Podstawowa Nr 11 im. Marii Curie-Sk\u0142odowskiej","name":"Szko\u0142a Podstawowa Nr 11","addr:country":"PL","addr:postcode":"43-100","addr:city":"Tychy","addr:street":"ul. M. Curie-Sk\u0142odowskiej","addr:housenumber":"4","addr:teryt:simc":42841,"addr:teryt:sym_ul":944534,"contact:phone":"+48 322273464","contact:email":"sp11@oswiata.tychy.pl","contact:website":"http:\/\/sp11.tychy.edu.pl","ref:regon":"000725683","ref:vatin":"PL6462484024","operator":"Gmina Miasta Tychy","operator:type":"government","amenity":"school"}},{"id":23040,"type":"Feature","geometry":{"type":"Point","coordinates":[19.00739,50.11694]},"properties":{"ref:rspo":23040,"official_name":"Zesp\u00f3\u0142 Szk\u00f3\u0142 Nr 1 im. Gustawa Morcinka w Tychach","name":"Zesp\u00f3\u0142 Szk\u00f3\u0142 Nr 1","addr:country":"PL","addr:postcode":"43-100","addr:city":"Tychy","addr:street":"ul. Hanny i Kazimierza Wejchert\u00f3w","addr:housenumber":"20","addr:teryt:simc":28967,"addr:teryt:sym_ul":944534,"contact:phone":"+48 322271799","contact:email":"zs1@oswiata.tychy.pl","contact:website":"http:\/\/zs1.tychy.edu.pl","ref:regon":"271072481","ref:vatin":"PL6461033963","operator":"Gmina Miasta Tychy","operator:type":"government","landuse":"education","fixme":"amenity=school, amenity=college albo landuse=education w zale\u017cno\u015bci od tego, jakie plac\u00f3wki wchodz\u0105 w sk\u0142ad zespo\u0142u. Sprawd\u017a, kiedy stosowa\u0107 amenity=* a kiedy landuse=education.","note":"Children RSPO: 38536;38538"}},{"id":38536,"type":"Feature","geometry":{"type":"Point","coordinates":[19.00739,50.11691]},"properties":{"isced:level":"3","ref:rspo":38536,"official_name":"Iv Liceum Og\u00f3lnokszta\u0142c\u0105ce","name":"Iv Liceum Og\u00f3lnokszta\u0142c\u0105ce","addr:country":"PL","addr:postcode":"43-100","addr:city":"Tychy","addr:street":"ul. Hanny i Kazimierza Wejchert\u00f3w","addr:housenumber":"20","addr:teryt:simc":28967,"addr:teryt:sym_ul":944534,"contact:phone":"+48 322271799","contact:email":"zs1@oswiata.tychy.pl","contact:website":"http:\/\/zs1.tychy.edu.pl","ref:regon":"271072498","ref:vatin":"PL6461033963","operator":"Gmina Miasta Tychy","operator:type":"government","amenity":"school","note":"Parent RSPO: 23040"}},{"id":38538,"type":"Feature","geometry":{"type":"Point","coordinates":[19.00739,50.11688]},"properties":{"isced:level":"3","ref:rspo":38538,"official_name":"Technikum Nr 1","name":"Technikum Nr 1","addr:country":"PL","addr:postcode":"43-100","addr:city":"Tychy","addr:street":"ul. Hanny i Kazimierza Wejchert\u00f3w","addr:housenumber":"20","addr:teryt:simc":28967,"addr:teryt:sym_ul":944534,"contact:phone":"+48 322271799","contact:email":"zs1@oswiata.tychy.pl","contact:website":"http:\/\/zs1.tychy.edu.pl","ref:regon":"272039267","ref:vatin":"PL6461033963","operator":"Gmina Miasta Tychy","operator:type":"government","amenity":"school","note":"Parent RSPO: 23040"}},{"id":21480,"type":"Feature","geometry":{"type":"Point","coordinates":[18.98854,50.117]},"properties":{"ref:rspo":21480,"official_name":"Przedszkole Nr 14 im. Marii Montessori","name":"Przedszkole Nr 14","addr:country":"PL","addr:postcode":"43-100","addr:city":"Tychy","addr:street":"ul. Cyganerii","addr:housenumber":"33","addr:teryt:simc":3167,"addr:teryt:sym_ul":944534,"contact:phone":"+48 322273856","contact:email":"p14@oswiata.tychy.pl","contact:website":"http:\/\/przedszkole14.tychy.edu.pl","ref:regon":"271510188","ref:vatin":"PL6462712577","operator":"Gmina Miasta Tychy","operator:type":"government","amenity":"kindergarten"}},{"id":75923,"type":"Feature","geometry":{"type":"Point","coordinates":[18.98106,50.11707]},"properties":{"ref:rspo":75923,"official_name":"Centrum J\u0119zyk\u00f3w Obcych \"Best\"","name":"Centrum J\u0119zyk\u00f3w Obcych \"Best\"","addr:country":"PL","addr:postcode":"43-100","addr:city":"Tychy","addr:street":"ul. Miko\u0142aja Kopernika","addr:housenumber":"1b","addr:teryt:simc":9282,"addr:teryt:sym_ul":944534,"contact:phone":"+48 322177801","contact:email":"tychy@bestcentrum.pl","contact:website":"http:\/\/www.bestcentrum.pl","ref:regon":"243089635","ref:vatin":"PL6461821212","operator":"Dariusz Wi\u015bniewski","operator:type":"private","fixme":"w zale\u017cno\u015bci od przedmiotu dzia\u0142alno\u015bci (np. amenity=training + training=*, amenity=dancing_school, amenity=language_school, amenity=music_school)"}},{"id":58141,"type":"Feature","geometry":{"type":"Point","coordinates":[18.97484,50.11746]},"properties":{"ref:rspo":58141,"official_name":"Przedszkole Niepubliczne \"Kubusia Puchatka\"","name":"Przedszkole Niepubliczne \"Kubusia Puchatka\"","addr:country":"PL","addr:postcode":"43-100","addr:city":"Tychy","addr:street":"ul. Hetma\u0144ska","addr:housenumber":"1","addr:teryt:simc":6637,"addr:teryt:sym_ul":944534,"contact:phone":"+48 322182116","contact:email":"baar.maria@wp.pl","contact:website":"http:\/\/www.krainapuchatka.pl","ref:regon":"243077247","operator":"Maria Baar","operator:type":"private","amenity":"kindergarten"}},{"id":23039,"type":"Feature","geometry":{"type":"Point","coordinates":[18.99782,50.11751]},"properties":{"isced:level":"3","ref:rspo":23039,"official_name":"Iii Liceum Og\u00f3lnokszta\u0142c\u0105ce im. Stanis\u0142awa Wyspia\u0144skiego","name":"Iii Liceum Og\u00f3lnokszta\u0142c\u0105ce","addr:country":"PL","addr:postcode":"43-100","addr:city":"Tychy","addr:street":"ul. Elf\u00f3w","addr:housenumber":"62","addr:teryt:simc":4781,"addr:teryt:sym_ul":944534,"contact:phone":"+48 322273633","contact:email":"3lo@oswiata.tychy.pl","contact:website":"https:\/\/wyspianski.tychy.pl\/","ref:regon":"271077828","ref:vatin":"PL6462371308","operator":"Gmina Miasta Tychy","operator:type":"government","amenity":"school"}},{"id":124160,"type":"Feature","geometry":{"type":"Point","coordinates":[18.99229,50.11756]},"properties":{"isced:level":"3","ref:rspo":124160,"official_name":"Liceum Og\u00f3lnokszta\u0142c\u0105ce dla Doros\u0142ych \"\u017bak\" w Tychach","name":"Liceum Og\u00f3lnokszta\u0142c\u0105ce dla Doros\u0142ych \"\u017bak\" w Tychach","addr:country":"PL","addr:postcode":"43-100","addr:city":"Tychy","addr:street":"ul. Stefana Grota-Roweckiego","addr:housenumber":"45","addr:teryt:simc":6192,"addr:teryt:sym_ul":944534,"contact:phone":"+48 322190497","contact:email":"tychy@zak.edu.pl","contact:website":"http:\/\/www.zak.edu.pl","ref:regon":"243645728","operator":"Centrum Nauki I Biznesu \"\u017bak\" Sp\u00f3\u0142ka Z Ograniczon\u0105 Odpowiedzialno\u015bci\u0105","operator:type":"private","amenity":"school"}},{"id":125622,"type":"Feature","geometry":{"type":"Point","coordinates":[18.99229,50.117529999999995]},"properties":{"isced:level":"4","ref:rspo":125622,"official_name":"Szko\u0142a Policealna Aktywizacji Zawodowej \"\u017bak\" w Tychach","name":"Szko\u0142a Policealna Aktywizacji Zawodowej \"\u017bak\" w Tychach","addr:country":"PL","addr:postcode":"43-100","addr:city":"Tychy","addr:street":"ul. Stefana Grota-Roweckiego","addr:housenumber":"45","addr:teryt:simc":6192,"addr:teryt:sym_ul":944534,"contact:phone":"+48 322190497","contact:email":"tychy@zak.edu.pl","contact:website":"http:\/\/www.zak.edu.pl","ref:regon":"243690976","operator":"Centrum Nauki I Biznesu \"\u017bak\" Sp\u00f3\u0142ka Z Ograniczon\u0105 Odpowiedzialno\u015bci\u0105","operator:type":"private","amenity":"college"}},{"id":127291,"type":"Feature","geometry":{"type":"Point","coordinates":[18.99229,50.1175]},"properties":{"isced:level":"4","ref:rspo":127291,"official_name":"Szko\u0142a Policealna Opieki Medycznej \"\u017bak\" w Tychach","name":"Szko\u0142a Policealna Opieki Medycznej \"\u017bak\" w Tychach","addr:country":"PL","addr:postcode":"43-100","addr:city":"Tychy","addr:street":"ul. Stefana Grota-Roweckiego","addr:housenumber":"45","addr:teryt:simc":6192,"addr:teryt:sym_ul":944534,"contact:phone":"+48 322190497","contact:email":"tychy@zak.edu.pl","contact:website":"http:\/\/www.zak.edu.pl","ref:regon":"361328927","operator":"Centrum Nauki I Biznesu \"\u017bak\" Sp\u00f3\u0142ka Z Ograniczon\u0105 Odpowiedzialno\u015bci\u0105","operator:type":"private","amenity":"college"}},{"id":58136,"type":"Feature","geometry":{"type":"Point","coordinates":[18.99713,50.11762]},"properties":{"ref:rspo":58136,"official_name":"Przedszkole Niepubliczne \"Akademia Przedszkolaka\"","name":"Przedszkole Niepubliczne \"Akademia Przedszkolaka\"","addr:country":"PL","addr:postcode":"43-100","addr:city":"Tychy","addr:street":"ul. Elf\u00f3w","addr:housenumber":"67","addr:teryt:simc":4781,"addr:teryt:sym_ul":944534,"contact:phone":"+48 322273960","contact:email":"boguslawamazur@interia.pl","ref:regon":"243077135","operator":"Bogus\u0142awa Mazur","operator:type":"private","amenity":"kindergarten"}},{"id":5846,"type":"Feature","geometry":{"type":"Point","coordinates":[18.97403,50.11849]},"properties":{"isced:level":"1;2","ref:rspo":5846,"official_name":"Szko\u0142a Podstawowa Nr 22 Z Oddzia\u0142ami Integracyjnymi im. Rafa\u0142a Pomorskiego","name":"Szko\u0142a Podstawowa Nr 22 Z Oddzia\u0142ami Integracyjnymi","addr:country":"PL","addr:postcode":"43-100","addr:city":"Tychy","addr:street":"ul. Harcerska","addr:housenumber":"25","addr:teryt:simc":6523,"addr:teryt:sym_ul":944534,"contact:phone":"+48 322182851","contact:email":"sp22@oswiata.tychy.pl","contact:website":"http:\/\/sp22.tychy.edu.pl","ref:regon":"000725795","ref:vatin":"PL6462495157","operator":"Gmina Miasta Tychy","operator:type":"government","amenity":"school"}},{"id":131562,"type":"Feature","geometry":{"type":"Point","coordinates":[18.98758,50.11913]},"properties":{"isced:level":"3","ref:rspo":131562,"official_name":"Niepubliczne Technikum Kolejowe w Tychach im. Kpt. Jana Rybczy\u0144skiego I Za\u0142ogi Poci\u0105gu \"Gro\u017any\"","name":"Niepubliczne Technikum Kolejowe w Tychach","addr:country":"PL","addr:postcode":"43-100","addr:city":"Tychy","addr:street":"al. Niepodleg\u0142o\u015bci","addr:housenumber":"32","addr:teryt:simc":14199,"addr:teryt:sym_ul":944534,"contact:phone":"+48 323220099","contact:email":"szkola@edukacja.tychy.pl","contact:website":"http:\/\/www.szkoly-kolejowe.pl","ref:regon":"365226626","operator":"Ludmi\u0142a \u0141ogiewa-Fierla","operator:type":"private","amenity":"school"}},{"id":43838,"type":"Feature","geometry":{"type":"Point","coordinates":[18.99128,50.11948]},"properties":{"isced:level":"3","ref:rspo":43838,"official_name":"Technikum Nr 2","name":"Technikum Nr 2","addr:country":"PL","addr:postcode":"43-100","addr:city":"Tychy","addr:street":"ul. Elf\u00f3w","addr:housenumber":"9","addr:teryt:simc":4781,"addr:teryt:sym_ul":944534,"contact:phone":"+48 322274185","contact:email":"t2@oswiata.tychy.pl","contact:website":"http:\/\/t2.tychy.edu.pl","ref:regon":"272039988","ref:vatin":"PL6462291839","operator":"Gmina Miasta Tychy","operator:type":"government","amenity":"school"}},{"id":23195,"type":"Feature","geometry":{"type":"Point","coordinates":[18.98163,50.12013]},"properties":{"isced:level":"1;2","ref:rspo":23195,"official_name":"Szko\u0142a Podstawowa Nr 5 Z Oddzia\u0142ami Integracyjnymi w Tychach","name":"Szko\u0142a Podstawowa Nr 5 Z Oddzia\u0142ami Integracyjnymi w Tychach","addr:country":"PL","addr:postcode":"43-100","addr:city":"Tychy","addr:street":"ul. Stefana Czarnieckiego","addr:housenumber":"22","addr:teryt:simc":3283,"addr:teryt:sym_ul":944534,"contact:phone":"+48 322273793","contact:email":"sp5@oswiata.tychy.pl","contact:website":"http:\/\/sp5.tychy.edu.pl","ref:regon":"000725625","ref:vatin":"PL6462573294","operator":"Gmina Miasta Tychy","operator:type":"government","amenity":"school"}},{"id":23037,"type":"Feature","geometry":{"type":"Point","coordinates":[18.99977,50.12022]},"properties":{"isced:level":"3","ref:rspo":23037,"official_name":"I Liceum Og\u00f3lnokszta\u0142c\u0105ce im. Leona Kruczkowskiego","name":"I Liceum Og\u00f3lnokszta\u0142c\u0105ce","addr:country":"PL","addr:postcode":"43-100","addr:city":"Tychy","addr:street":"ul. Janusza Korczaka","addr:housenumber":"6","addr:teryt:simc":9329,"addr:teryt:sym_ul":944534,"contact:phone":"+48 322273634","contact:email":"1lo@oswiata.tychy.pl","contact:website":"http:\/\/kruczek.edu.pl","ref:regon":"000725967","ref:vatin":"PL6461033992","operator":"Gmina Miasta Tychy","operator:type":"government","amenity":"school"}},{"id":23043,"type":"Feature","geometry":{"type":"Point","coordinates":[18.99369,50.12044]},"properties":{"ref:rspo":23043,"official_name":"Zesp\u00f3\u0142 Szk\u00f3\u0142 Nr 5 w Tychach","name":"Zesp\u00f3\u0142 Szk\u00f3\u0142 Nr 5 w Tychach","addr:country":"PL","addr:postcode":"43-100","addr:city":"Tychy","addr:street":"ul. Edukacji","addr:housenumber":"11","addr:teryt:simc":4731,"addr:teryt:sym_ul":944534,"contact:phone":"+48 322273733","contact:email":"zs5@oswiata.tychy.pl","contact:website":"http:\/\/zs5.tychy.pl","ref:regon":"000201187","ref:vatin":"PL6461032780","operator":"Gmina Miasta Tychy","operator:type":"government","landuse":"education","fixme":"amenity=school, amenity=college albo landuse=education w zale\u017cno\u015bci od tego, jakie plac\u00f3wki wchodz\u0105 w sk\u0142ad zespo\u0142u. Sprawd\u017a, kiedy stosowa\u0107 amenity=* a kiedy landuse=education.","note":"Children RSPO: 48328;48329;262432"}},{"id":58133,"type":"Feature","geometry":{"type":"Point","coordinates":[18.99369,50.12041]},"properties":{"ref:rspo":58133,"official_name":"Niepubliczne Przedszkole J\u0119zykowe \"Smyki\"","name":"Niepubliczne Przedszkole J\u0119zykowe \"Smyki\"","addr:country":"PL","addr:postcode":"43-100","addr:city":"Tychy","addr:street":"ul. Edukacji","addr:housenumber":"11a","addr:teryt:simc":4731,"addr:teryt:sym_ul":944534,"contact:phone":"+48 323220479","contact:email":"smyki.tychy@gmail.com","contact:website":"http:\/\/www.smyki.tychy.pl","ref:regon":"243077098","operator":"Katarzyna Nowicka","operator:type":"private","amenity":"kindergarten"}},{"id":73472,"type":"Feature","geometry":{"type":"Point","coordinates":[18.99369,50.120380000000004]},"properties":{"isced:level":"1;2","ref:rspo":73472,"official_name":"Szko\u0142a Podstawowa im. Josepha Conrada-Korzeniowskiego Spo\u0142ecznego Towarzystwa O\u015bwiatowego w Tychach","name":"Szko\u0142a Podstawowa","addr:country":"PL","addr:postcode":"43-100","addr:city":"Tychy","addr:street":"ul. Edukacji","addr:housenumber":"11A","addr:teryt:simc":4731,"addr:teryt:sym_ul":944534,"contact:phone":"+48 322190240","contact:email":"szkola@sto.tychy.pl","contact:website":"http:\/\/sto-tychy.edupage.org","ref:regon":"243090785","operator":"Spo\u0142eczne Towarzyswto O\u015bwiatowe Samodzielne Ko\u0142o Terenowe Nr 30 W Tychach","operator:type":"ngo","amenity":"school"}},{"id":48328,"type":"Feature","geometry":{"type":"Point","coordinates":[18.99369,50.12035]},"properties":{"isced:level":"3","ref:rspo":48328,"official_name":"Technikum Nr 4 im. Hanny I Kazimierza Wejchert\u00f3w","name":"Technikum Nr 4","addr:country":"PL","addr:postcode":"43-100","addr:city":"Tychy","addr:street":"ul. Edukacji","addr:housenumber":"11","addr:teryt:simc":4731,"addr:teryt:sym_ul":944534,"contact:phone":"+48 322273733","contact:email":"zs5@oswiata.tychy.pl","contact:website":"http:\/\/zs5.tychy.pl","ref:regon":"272039681","ref:vatin":"PL6461032780","operator":"Gmina Miasta Tychy","operator:type":"government","amenity":"school","note":"Parent RSPO: 23043"}},{"id":48329,"type":"Feature","geometry":{"type":"Point","coordinates":[18.99369,50.12032]},"properties":{"isced:level":"3","ref:rspo":48329,"official_name":"Bran\u017cowa Szko\u0142a I Stopnia Nr 2 w Zespole Szk\u00f3\u0142 Nr 5","name":"Bran\u017cowa Szko\u0142a I Stopnia Nr 2 w Zespole Szk\u00f3\u0142 Nr 5","addr:country":"PL","addr:postcode":"43-100","addr:city":"Tychy","addr:street":"ul. Edukacji","addr:housenumber":"11","addr:teryt:simc":4731,"addr:teryt:sym_ul":944534,"contact:phone":"+48 322273481","contact:email":"zs5@oswiata.tychy.pl","contact:website":"http:\/\/zs5.tychy.pl","ref:regon":"272039669","ref:vatin":"PL6461032780","operator":"Gmina Miasta Tychy","operator:type":"government","amenity":"school","note":"Parent RSPO: 23043"}},{"id":262432,"type":"Feature","geometry":{"type":"Point","coordinates":[18.99369,50.120290000000004]},"properties":{"isced:level":"1;2","ref:rspo":262432,"official_name":"Szko\u0142a Podstawowa dla Doros\u0142ych w Tychach","name":"Szko\u0142a Podstawowa dla Doros\u0142ych w Tychach","addr:country":"PL","addr:postcode":"43-100","addr:city":"Tychy","addr:street":"ul. Edukacji","addr:housenumber":"11","addr:teryt:simc":4731,"addr:teryt:sym_ul":944534,"contact:phone":"+48 322273733","contact:email":"zs5@oswiata.tychy.pl","contact:website":"http:\/\/zs5.tychy.pl","ref:regon":"368009326","operator":"Gmina Miasta Tychy","operator:type":"government","amenity":"school","note":"Parent RSPO: 23043"}},{"id":58137,"type":"Feature","geometry":{"type":"Point","coordinates":[18.99086,50.12066]},"properties":{"ref:rspo":58137,"official_name":"Ekologiczno-Artystyczne Przedszkole Niepubliczne \"Promyk\"","name":"Ekologiczno-Artystyczne Przedszkole Niepubliczne \"Promyk\"","addr:country":"PL","addr:postcode":"43-100","addr:city":"Tychy","addr:street":"ul. Elf\u00f3w","addr:housenumber":"7","addr:teryt:simc":4781,"addr:teryt:sym_ul":944534,"contact:phone":"+48 322272441","contact:email":"przedszkole@ekoart-promyk.pl","contact:website":"http:\/\/www.ekoart-promyk.pl","ref:regon":"243077193","operator":"El\u017cbieta Michulec","operator:type":"private","amenity":"kindergarten"}},{"id":23038,"type":"Feature","geometry":{"type":"Point","coordinates":[18.99275970459,50.121520996094]},"properties":{"isced:level":"3","ref:rspo":23038,"official_name":"Ii Liceum Og\u00f3lnokszta\u0142c\u0105ce Z Oddzia\u0142ami Integracyjnymi im. Cypriana Kamila Norwida","name":"Ii Liceum Og\u00f3lnokszta\u0142c\u0105ce Z Oddzia\u0142ami Integracyjnymi","addr:country":"PL","addr:postcode":"43-100","addr:city":"Tychy","addr:street":"ul. Cypriana Norwida","addr:housenumber":"40","addr:teryt:simc":27930,"addr:teryt:sym_ul":944534,"contact:phone":"+48 322274165","contact:email":"2lo@oswiata.tychy.pl","contact:website":"http:\/\/2lo.tychy.edu.pl","ref:regon":"000784326","ref:vatin":"PL6462369317","operator":"Gmina Miasta Tychy","operator:type":"government","amenity":"school"}},{"id":124481,"type":"Feature","geometry":{"type":"Point","coordinates":[18.99275970459,50.121490996093996]},"properties":{"ref:rspo":124481,"official_name":"Przedszkole Niepubliczne Eureka","name":"Przedszkole Niepubliczne Eureka","addr:country":"PL","addr:postcode":"43-100","addr:city":"Tychy","addr:street":"ul. Bacha","addr:housenumber":"3B","addr:teryt:simc":32208,"addr:teryt:sym_ul":944534,"contact:phone":"+48 600974182","contact:email":"gosia.eureka@gmail.com","contact:website":"http:\/\/www.eureka-tychy.pl","ref:regon":"243657246","operator":"Ma\u0142gorzata Goli\u0144ska","operator:type":"private","amenity":"kindergarten"}},{"id":21477,"type":"Feature","geometry":{"type":"Point","coordinates":[18.98264,50.12165]},"properties":{"ref:rspo":21477,"official_name":"Przedszkole Nr 12 Z Oddzia\u0142ami Integracyjnymi I Specjalnymi","name":"Przedszkole Nr 12 Z Oddzia\u0142ami Integracyjnymi I Specjalnymi","addr:country":"PL","addr:postcode":"43-100","addr:city":"Tychy","addr:street":"ul. Stefana Czarnieckiego","addr:housenumber":"5","addr:teryt:simc":3283,"addr:teryt:sym_ul":944534,"contact:phone":"+48 322273548","contact:email":"p12@oswiata.tychy.pl","contact:website":"http:\/\/przedszkole12.tychy.edu.pl","ref:regon":"271510171","ref:vatin":"PL6462712620","operator":"Gmina Miasta Tychy","operator:type":"government","amenity":"kindergarten"}},{"id":5453,"type":"Feature","geometry":{"type":"Point","coordinates":[18.98069,50.12374]},"properties":{"isced:level":"1;2","ref:rspo":5453,"official_name":"Szko\u0142a Podstawowa Nr 17","name":"Szko\u0142a Podstawowa Nr 17","addr:country":"PL","addr:postcode":"43-100","addr:city":"Tychy","addr:street":"ul. Begonii","addr:housenumber":"5","addr:teryt:simc":970,"addr:teryt:sym_ul":944534,"contact:phone":"+48 322273210","contact:email":"sp17@oswiata.tychy.pl","contact:website":"http:\/\/sp17.tychy.edu.pl","ref:regon":"000725743","ref:vatin":"PL6462488565","operator":"Gmina Miasta Tychy","operator:type":"government","amenity":"school"}},{"id":75916,"type":"Feature","geometry":{"type":"Point","coordinates":[18.97821,50.1240499]},"properties":{"ref:rspo":75916,"official_name":"Mi\u0119dzynarodowa Akademia Kosmetyki I Biznesu Cosmobelle","name":"Mi\u0119dzynarodowa Akademia Kosmetyki I Biznesu Cosmobelle","addr:country":"PL","addr:postcode":"43-100","addr:city":"Tychy","addr:street":"ul. Jana Barona","addr:housenumber":"30","addr:teryt:simc":774,"addr:teryt:sym_ul":944534,"contact:phone":"+48 327881603","contact:email":"biuro@cosmobelle.pl","ref:regon":"243088989","operator":"Lady's Concept Clinic Sp\u00f3\u0142ka Z Ograniczon\u0105 Odpowiedzialno\u015bci\u0105","operator:type":"private","fixme":"w zale\u017cno\u015bci od przedmiotu dzia\u0142alno\u015bci (np. amenity=training + training=*, amenity=dancing_school, amenity=language_school, amenity=music_school)"}},{"id":126475,"type":"Feature","geometry":{"type":"Point","coordinates":[18.97821,50.1240199]},"properties":{"ref:rspo":126475,"official_name":"Akademia Cosmobelle","name":"Akademia Cosmobelle","addr:country":"PL","addr:postcode":"43-100","addr:city":"Tychy","addr:street":"ul. Jana Barona","addr:housenumber":"30","addr:teryt:simc":774,"addr:teryt:sym_ul":944534,"contact:phone":"+48 512709106","contact:email":"biuro@cosmobelle.pl","contact:website":"http:\/\/www.cosmobelle.pl","ref:regon":"360361242","operator":"Lady's Concept Clinic Sp\u00f3\u0142ka Z Ograniczon\u0105 Odpowiedzialno\u015bci\u0105","operator:type":"private","fixme":"w zale\u017cno\u015bci od przedmiotu dzia\u0142alno\u015bci (np. amenity=training + training=*, amenity=dancing_school, amenity=language_school, amenity=music_school)"}},{"id":21739,"type":"Feature","geometry":{"type":"Point","coordinates":[19.02111,50.12467]},"properties":{"ref:rspo":21739,"official_name":"Zesp\u00f3\u0142 Szkolno-Przedszkolny Nr 3","name":"Zesp\u00f3\u0142 Szkolno-Przedszkolny Nr 3","addr:country":"PL","addr:postcode":"43-100","addr:city":"Tychy","addr:street":"ul. Cmentarna","addr:housenumber":"54","addr:teryt:simc":3114,"addr:teryt:sym_ul":944534,"contact:phone":"+48 322272552","contact:email":"zsp3@oswiata.tychy.pl","contact:website":"http:\/\/zsp3.tychy.edu.pl","ref:regon":"241689549","ref:vatin":"PL6462894621","operator":"Gmina Miasta Tychy","operator:type":"government","landuse":"education","fixme":"amenity=school, amenity=college albo landuse=education w zale\u017cno\u015bci od tego, jakie plac\u00f3wki wchodz\u0105 w sk\u0142ad zespo\u0142u. Sprawd\u017a, kiedy stosowa\u0107 amenity=* a kiedy landuse=education.","note":"Children RSPO: 38532;38533"}},{"id":38532,"type":"Feature","geometry":{"type":"Point","coordinates":[19.02111,50.12464]},"properties":{"ref:rspo":38532,"official_name":"Przedszkole Nr 4","name":"Przedszkole Nr 4","addr:country":"PL","addr:postcode":"43-100","addr:city":"Tychy","addr:street":"ul. Cmentarna","addr:housenumber":"54","addr:teryt:simc":3114,"addr:teryt:sym_ul":944534,"contact:phone":"+48 322272552","contact:email":"zsp3@oswiata.tychy.pl","contact:website":"http:\/\/zsp3.tychy.edu.pl","ref:regon":"241689555","ref:vatin":"PL6462894621","operator":"Gmina Miasta Tychy","operator:type":"government","amenity":"kindergarten","note":"Parent RSPO: 21739"}},{"id":38533,"type":"Feature","geometry":{"type":"Point","coordinates":[19.02111,50.124610000000004]},"properties":{"isced:level":"1;2","ref:rspo":38533,"official_name":"Szko\u0142a Podstawowa Nr 8","name":"Szko\u0142a Podstawowa Nr 8","addr:country":"PL","addr:postcode":"43-100","addr:city":"Tychy","addr:street":"ul. Cmentarna","addr:housenumber":"54","addr:teryt:simc":3114,"addr:teryt:sym_ul":944534,"contact:phone":"+48 322272552","contact:email":"zsp3@oswiata.tychy.pl","contact:website":"http:\/\/zsp3.tychy.edu.pl","ref:regon":"000725654","ref:vatin":"PL6462498670","operator":"Gmina Miasta Tychy","operator:type":"government","amenity":"school","note":"Parent RSPO: 21739"}},{"id":75123,"type":"Feature","geometry":{"type":"Point","coordinates":[18.98142,50.12476]},"properties":{"ref:rspo":75123,"official_name":"O\u015brodek Szkolenia Agent\u00f3w Ochrony I Zabezpieczania Mienia Agencji Ochrony Mienia I Us\u0142ug Detektywistycznych \"Alan\"","name":"O\u015brodek Szkolenia Agent\u00f3w Ochrony I Zabezpieczania Mienia Agencji Ochrony Mienia I Us\u0142ug Detektywistycznych \"Alan\"","addr:country":"PL","addr:postcode":"43-100","addr:city":"Tychy","addr:street":"ul. Budowlanych","addr:housenumber":"35","addr:teryt:simc":2337,"addr:teryt:sym_ul":944534,"contact:phone":"+48 322192557","ref:regon":"243087850","operator":"Aleksandra Szynczewska","operator:type":"private","fixme":"w zale\u017cno\u015bci od przedmiotu dzia\u0142alno\u015bci (np. amenity=training + training=*, amenity=dancing_school, amenity=language_school, amenity=music_school)"}},{"id":130035,"type":"Feature","geometry":{"type":"Point","coordinates":[18.98011,50.12478]},"properties":{"ref:rspo":130035,"official_name":"Niepubliczne Przedszkole \"Angielska Chatka\"","name":"Niepubliczne Przedszkole \"Angielska Chatka\"","addr:country":"PL","addr:postcode":"43-100","addr:city":"Tychy","addr:street":"ul. Begonii","addr:housenumber":"4","addr:teryt:simc":970,"addr:teryt:sym_ul":944534,"contact:phone":"+48 601895741","contact:email":"gogolroman@o2.pl","ref:regon":"363335819","operator":"Roman Gog\u00f3\u0142","operator:type":"private","amenity":"kindergarten"}},{"id":21482,"type":"Feature","geometry":{"type":"Point","coordinates":[18.98533,50.12558]},"properties":{"ref:rspo":21482,"official_name":"Przedszkole Nr 11 im. Jana Brzechwy","name":"Przedszkole Nr 11","addr:country":"PL","addr:postcode":"43-100","addr:city":"Tychy","addr:street":"ul. Bukowa","addr:housenumber":"29","addr:teryt:simc":2387,"addr:teryt:sym_ul":944534,"contact:phone":"+48 322273855","contact:email":"p11@oswiata.tychy.pl","contact:website":"http:\/\/przedszkole11.tychy.edu.pl","ref:regon":"271510165","ref:vatin":"PL6462712554","operator":"Gmina Miasta Tychy","operator:type":"government","amenity":"kindergarten"}},{"id":16654,"type":"Feature","geometry":{"type":"Point","coordinates":[18.98462,50.12615]},"properties":{"ref:rspo":16654,"official_name":"Niepubliczna Plac\u00f3wka Doskonalenia Nauczycieli Redicus","name":"Niepubliczna Plac\u00f3wka Doskonalenia Nauczycieli Redicus","addr:country":"PL","addr:postcode":"43-100","addr:city":"Tychy","addr:street":"ul. Stefana Batorego","addr:housenumber":"18","addr:teryt:simc":891,"addr:teryt:sym_ul":944534,"contact:phone":"+48 327802999","contact:email":"tychy@redicus.pl","contact:website":"http:\/\/www.redicus.pl","ref:regon":"243045282","ref:vatin":"PL7792105415","operator":"Dane Do Uzupe\u0142nienia","operator:type":"private","amenity":"training"}},{"id":21475,"type":"Feature","geometry":{"type":"Point","coordinates":[18.97844,50.12746]},"properties":{"ref:rspo":21475,"official_name":"Przedszkole Nr 10 Z Oddzia\u0142ami Integracyjnymi","name":"Przedszkole Nr 10 Z Oddzia\u0142ami Integracyjnymi","addr:country":"PL","addr:postcode":"43-100","addr:city":"Tychy","addr:street":"ul. Braterska","addr:housenumber":"7","addr:teryt:simc":2048,"addr:teryt:sym_ul":944534,"contact:phone":"+48 322274237","contact:email":"p10@oswiata.tychy.pl","contact:website":"http:\/\/przedszkole10.tychy.edu.pl","ref:regon":"271510159","ref:vatin":"PL6462712608","operator":"Gmina Miasta Tychy","operator:type":"government","amenity":"kindergarten"}},{"id":75911,"type":"Feature","geometry":{"type":"Point","coordinates":[18.9843,50.12808]},"properties":{"ref:rspo":75911,"official_name":"Cad Consult Andrzej Ku\u015b","name":"Cad Consult Andrzej Ku\u015b","addr:country":"PL","addr:postcode":"43-100","addr:city":"Tychy","addr:street":"ul. Sienkiewicza","addr:housenumber":"15","addr:teryt:simc":19830,"addr:teryt:sym_ul":944534,"contact:phone":"+48 322190216","contact:email":"andrzejk@cad-consult.com.pl","ref:regon":"243089517","operator":"Andrzej Ku\u015b","operator:type":"private","fixme":"w zale\u017cno\u015bci od przedmiotu dzia\u0142alno\u015bci (np. amenity=training + training=*, amenity=dancing_school, amenity=language_school, amenity=music_school)"}},{"id":24867,"type":"Feature","geometry":{"type":"Point","coordinates":[18.98074,50.12826]},"properties":{"ref:rspo":24867,"official_name":"M\u0142odzie\u017cowy Dom Kultury Nr 1 im. Artyst\u00f3w Rodu Kossak\u00f3w","name":"M\u0142odzie\u017cowy Dom Kultury Nr 1","addr:country":"PL","addr:postcode":"43-100","addr:city":"Tychy","addr:street":"ul. Ksi\u0119dza Kardyna\u0142a Augusta Hlonda","addr:housenumber":"1","addr:teryt:simc":47952,"addr:teryt:sym_ul":944534,"contact:phone":"+48 322273059","contact:email":"mdk1@oswiata.tychy.pl","contact:website":"http:\/\/mdk1.tychy.pl","ref:regon":"000726027","ref:vatin":"PL6462483970","operator":"Gmina Miasta Tychy","operator:type":"government","amenity":"community_centre","community_centre:for":"juvenile"}},{"id":128022,"type":"Feature","geometry":{"type":"Point","coordinates":[18.98417,50.12882]},"properties":{"ref:rspo":128022,"official_name":"Isp Pku","name":"Isp Pku","addr:country":"PL","addr:postcode":"43-100","addr:city":"Tychy","addr:street":"ul. Sienkiewicza","addr:housenumber":"1","addr:teryt:simc":19830,"addr:teryt:sym_ul":944534,"contact:phone":"+48 327875747","ref:regon":"362026157","operator":"Krafc Consulting Sp\u00f3\u0142ka Z Ograniczon\u0105 Odpowiedzialno\u015bci\u0105","operator:type":"private","fixme":"w zale\u017cno\u015bci od przedmiotu dzia\u0142alno\u015bci (np. amenity=training + training=*, amenity=dancing_school, amenity=language_school, amenity=music_school)"}},{"id":275206,"type":"Feature","geometry":{"type":"Point","coordinates":[18.98417,50.128789999999995]},"properties":{"isced:level":"1;2","ref:rspo":275206,"official_name":"Prywatna Szko\u0142a Podstawowa Sztuk Wizualnych Z Oddzia\u0142ami Dwuj\u0119zycznymi im. \u015aw. Alberta Chmielowskiego w Tychach","name":"Prywatna Szko\u0142a Podstawowa Sztuk Wizualnych Z Oddzia\u0142ami Dwuj\u0119zycznymi","addr:country":"PL","addr:postcode":"43-100","addr:city":"Tychy","addr:street":"ul. Sienkiewicza","addr:housenumber":"1","addr:teryt:simc":19830,"addr:teryt:sym_ul":944534,"contact:phone":"+48 327875747","ref:regon":"386691083","operator":"Krafc Consulting Sp\u00f3\u0142ka Z Ograniczon\u0105 Odpowiedzialno\u015bci\u0105","operator:type":"private","amenity":"school"}},{"id":276724,"type":"Feature","geometry":{"type":"Point","coordinates":[18.98417,50.12876]},"properties":{"ref:rspo":276724,"official_name":"Isp Pdn","name":"Isp Pdn","addr:country":"PL","addr:postcode":"43-100","addr:city":"Tychy","addr:street":"ul. Sienkiewicza","addr:housenumber":"1","addr:teryt:simc":19830,"addr:teryt:sym_ul":944534,"contact:phone":"+48 327875747","contact:email":"isp@podyplomowka.edu.pl","ref:regon":"387440029","operator":"Krafc Consulting Sp\u00f3\u0142ka Z Ograniczon\u0105 Odpowiedzialno\u015bci\u0105","operator:type":"private","amenity":"training"}},{"id":78948,"type":"Feature","geometry":{"type":"Point","coordinates":[18.98372,50.12889]},"properties":{"ref:rspo":78948,"official_name":"Lander's-Education & Services","name":"Lander's-Education & Services","addr:country":"PL","addr:postcode":"43-100","addr:city":"Tychy","addr:street":"ul. Sienkiewicza","addr:housenumber":"7","addr:teryt:simc":19830,"addr:teryt:sym_ul":944534,"contact:phone":"+48 322271346","contact:email":"biuro@landers.pl","contact:website":"http:\/\/www.landers.pl","ref:regon":"243091023","ref:vatin":"PL6831683855","operator":"Wojciech Kostecki","operator:type":"private","fixme":"w zale\u017cno\u015bci od przedmiotu dzia\u0142alno\u015bci (np. amenity=training + training=*, amenity=dancing_school, amenity=language_school, amenity=music_school)"}},{"id":133199,"type":"Feature","geometry":{"type":"Point","coordinates":[19.00055,50.12898]},"properties":{"isced:level":"1;2","ref:rspo":133199,"official_name":"Szko\u0142a Mistrzostwa Sportowego Tychy","name":"Szko\u0142a Mistrzostwa Sportowego Tychy","addr:country":"PL","addr:postcode":"43-100","addr:city":"Tychy","addr:street":"ul. O\u015bwi\u0119cimska","addr:housenumber":"51","addr:teryt:simc":15440,"addr:teryt:sym_ul":944534,"contact:email":"biuro@smstychy.pl","contact:website":"http:\/\/www.smstychy.pl","ref:regon":"366800435","operator":"Akademia Pi\u0142ki No\u017cnej Sms Tychy","operator:type":"ngo","amenity":"school"}},{"id":277044,"type":"Feature","geometry":{"type":"Point","coordinates":[19.00055,50.128949999999996]},"properties":{"isced:level":"3","ref:rspo":277044,"official_name":"Liceum Mistrzostwa Sportowego Tychy","name":"Liceum Mistrzostwa Sportowego Tychy","addr:country":"PL","addr:postcode":"43-100","addr:city":"Tychy","addr:street":"ul. O\u015bwi\u0119cimska","addr:housenumber":"51","addr:teryt:simc":15440,"addr:teryt:sym_ul":944534,"contact:email":"liceum@smstychy.pl","contact:website":"http:\/\/www.smstychy.pl","ref:regon":"388086044","operator":"Akademia Pi\u0142ki No\u017cnej Sms Tychy","operator:type":"ngo","amenity":"school"}},{"id":277045,"type":"Feature","geometry":{"type":"Point","coordinates":[19.00055,50.12892]},"properties":{"ref:rspo":277045,"official_name":"Bursa Sms Tychy","name":"Bursa Sms Tychy","addr:country":"PL","addr:postcode":"43-100","addr:city":"Tychy","addr:street":"ul. O\u015bwi\u0119cimska","addr:housenumber":"51","addr:teryt:simc":15440,"addr:teryt:sym_ul":944534,"contact:email":"liceum@smstychy.pl","contact:website":"http:\/\/www.smstychy.pl","ref:regon":"388086080","operator":"Akademia Pi\u0142ki No\u017cnej Sms Tychy","operator:type":"ngo","building":"dormitory"}},{"id":17635,"type":"Feature","geometry":{"type":"Point","coordinates":[18.97201,50.12907]},"properties":{"ref:rspo":17635,"official_name":"Przedszkole Nr 9 im. Pluszowego Misia","name":"Przedszkole Nr 9","addr:country":"PL","addr:postcode":"43-100","addr:city":"Tychy","addr:street":"ul. Brzozowa","addr:housenumber":"41","addr:teryt:simc":2276,"addr:teryt:sym_ul":944534,"contact:phone":"+48 322274169","contact:email":"p9@oswiata.tychy.pl","contact:website":"http:\/\/przedszkole9.tychy.edu.pl","ref:regon":"271510142","ref:vatin":"PL6462712614","operator":"Gmina Miasta Tychy","operator:type":"government","amenity":"kindergarten"}},{"id":273085,"type":"Feature","geometry":{"type":"Point","coordinates":[18.98418,50.1295]},"properties":{"ref:rspo":273085,"official_name":"Niepubliczne Przedszkole Dobry Start","name":"Niepubliczne Przedszkole Dobry Start","addr:country":"PL","addr:postcode":"43-100","addr:city":"Tychy","addr:street":"ul. Ko\u015bciuszki","addr:housenumber":"36A","addr:teryt:simc":9572,"addr:teryt:sym_ul":944534,"contact:email":"dobrystart.tychy@gmail.com","contact:website":"http:\/\/dobrystart.tychy.pl","ref:regon":"384370475","operator":"Paulina Gamrat","operator:type":"private","amenity":"kindergarten"}},{"id":133583,"type":"Feature","geometry":{"type":"Point","coordinates":[18.9723599,50.1297]},"properties":{"isced:level":"1;2","ref:rspo":133583,"official_name":"Szko\u0142a Podstawowa Nr 14 Z Oddzia\u0142ami Dwuj\u0119zycznymi im. Armii Krajowej w Tychach","name":"Szko\u0142a Podstawowa Nr 14 Z Oddzia\u0142ami Dwuj\u0119zycznymi","addr:country":"PL","addr:postcode":"43-100","addr:city":"Tychy","addr:street":"ul. Brzozowa","addr:housenumber":"24","addr:teryt:simc":2276,"addr:teryt:sym_ul":944534,"contact:phone":"+48 322273949","contact:email":"sp14@oswiata.tychy.pl","contact:website":"http:\/\/sp14.tychy.edu.pl","ref:regon":"367437818","operator":"Gmina Miasta Tychy","operator:type":"government","amenity":"school"}},{"id":75914,"type":"Feature","geometry":{"type":"Point","coordinates":[18.96622,50.13002]},"properties":{"ref:rspo":75914,"official_name":"O\u015brodek Szkolenia \"Carboautomatyka\"","name":"O\u015brodek Szkolenia \"Carboautomatyka\"","addr:country":"PL","addr:postcode":"43-100","addr:city":"Tychy","addr:street":"ul. Budowlanych","addr:housenumber":"168","addr:teryt:simc":2337,"addr:teryt:sym_ul":944534,"contact:phone":"+48 323234259","contact:email":"szkolenia@carbo.com.pl","ref:regon":"243089569","ref:vatin":"PL6460009129","operator":"Przedsi\u0119biorstwo Kompletacji I Monta\u017cu System\u00f3w Automatyki \"Carboautomatyka\" Sp\u00f3\u0142ka Akcyjna","operator:type":"private","fixme":"w zale\u017cno\u015bci od przedmiotu dzia\u0142alno\u015bci (np. amenity=training + training=*, amenity=dancing_school, amenity=language_school, amenity=music_school)"}},{"id":126552,"type":"Feature","geometry":{"type":"Point","coordinates":[18.98031,50.13054]},"properties":{"ref:rspo":126552,"official_name":"Niepubliczne Przedszkole Frajda","name":"Niepubliczne Przedszkole Frajda","addr:country":"PL","addr:postcode":"43-100","addr:city":"Tychy","addr:street":"ul. Damrota","addr:housenumber":"66","addr:teryt:simc":3579,"addr:teryt:sym_ul":944534,"contact:email":"biuro@przedszkolefrajda.pl","contact:website":"http:\/\/www.przedszkolefrajda.pl","ref:regon":"360521622","operator":"Beata Jankowska","operator:type":"private","amenity":"kindergarten"}},{"id":58407,"type":"Feature","geometry":{"type":"Point","coordinates":[18.96542,50.13114]},"properties":{"ref:rspo":58407,"official_name":"Zesp\u00f3\u0142 Szk\u00f3\u0142 im. Orl\u0105t Lwowskich w Tychach Zak\u0142adu Doskonalenia Zawodowego w Katowicach","name":"Zesp\u00f3\u0142 Szk\u00f3\u0142","addr:country":"PL","addr:postcode":"43-100","addr:city":"Tychy","addr:street":"ul. Budowlanych","addr:housenumber":"156","addr:teryt:simc":2337,"addr:teryt:sym_ul":944534,"contact:phone":"+48 323270880","contact:email":"s-tychy@zdz.katowice.pl","contact:website":"http:\/\/www.szkoly.tychy.zdz.pl","ref:regon":"243079750","ref:vatin":"PL6340135558","operator":"Zak\u0142ad Doskonalenia Zawodowego W Katowicach","operator:type":"ngo","landuse":"education","fixme":"amenity=school, amenity=college albo landuse=education w zale\u017cno\u015bci od tego, jakie plac\u00f3wki wchodz\u0105 w sk\u0142ad zespo\u0142u. Sprawd\u017a, kiedy stosowa\u0107 amenity=* a kiedy landuse=education.","note":"Children RSPO: 73468;74129;263351"}},{"id":89224,"type":"Feature","geometry":{"type":"Point","coordinates":[18.96542,50.13111]},"properties":{"ref:rspo":89224,"official_name":"Zak\u0142ad Doskonalenia Zawodowego w Katowicach Centrum Kszta\u0142cenia Zawodowego w Tychach","name":"Zak\u0142ad Doskonalenia Zawodowego w Katowicach Centrum Kszta\u0142cenia Zawodowego w Tychach","addr:country":"PL","addr:postcode":"43-100","addr:city":"Tychy","addr:street":"ul. Budowlanych","addr:housenumber":"156","addr:teryt:simc":2337,"addr:teryt:sym_ul":944534,"contact:phone":"+48 322271746","contact:email":"tychy@zdz.katowice.pl","contact:website":"http:\/\/www.kursy.tychy.zdz.pl","ref:regon":"243102815","ref:vatin":"PL6340135558","operator":"Zak\u0142ad Doskonalenia Zawodowego W Katowicach","operator:type":"ngo","fixme":"w zale\u017cno\u015bci od przedmiotu dzia\u0142alno\u015bci (np. amenity=training + training=*, amenity=dancing_school, amenity=language_school, amenity=music_school)"}},{"id":275682,"type":"Feature","geometry":{"type":"Point","coordinates":[18.96542,50.131080000000004]},"properties":{"isced:level":"3","ref:rspo":275682,"official_name":"Niepubliczne Liceum Sztuk Plastycznych im. Orl\u0105t Lwowskich w Tychach Zak\u0142adu Doskonalenia Zawodowego w Katowicach","name":"Niepubliczne Liceum Sztuk Plastycznych","addr:country":"PL","addr:postcode":"43-100","addr:city":"Tychy","addr:street":"ul. Budowlanych","addr:housenumber":"156","addr:teryt:simc":2337,"addr:teryt:sym_ul":944534,"contact:phone":"+48 323270880","contact:email":"s-tychy@zdz.katowice.pl","contact:website":"http:\/\/www.szkoly.tychy.zdz.pl","ref:regon":"386931720","operator":"Zak\u0142ad Doskonalenia Zawodowego W Katowicach","operator:type":"ngo","amenity":"school"}},{"id":73468,"type":"Feature","geometry":{"type":"Point","coordinates":[18.96542,50.13105]},"properties":{"isced:level":"3","ref:rspo":73468,"official_name":"Bran\u017cowa Szko\u0142a I Stopnia im. Orl\u0105t Lwowskich w Tychach Zak\u0142adu Doskonalenia Zawodowego w Katowicach","name":"Bran\u017cowa Szko\u0142a I Stopnia","addr:country":"PL","addr:postcode":"43-100","addr:city":"Tychy","addr:street":"ul. Budowlanych","addr:housenumber":"156","addr:teryt:simc":2337,"addr:teryt:sym_ul":944534,"contact:phone":"+48 323270880","contact:email":"s-tychy@zdz.katowice.pl","ref:regon":"243086418","operator":"Zak\u0142ad Doskonalenia Zawodowego W Katowicach","operator:type":"ngo","amenity":"school","note":"Parent RSPO: 58407"}},{"id":74129,"type":"Feature","geometry":{"type":"Point","coordinates":[18.96542,50.13102]},"properties":{"isced:level":"3","ref:rspo":74129,"official_name":"Liceum Og\u00f3lnokszta\u0142c\u0105ce im. Orl\u0105t Lwowskich w Tychach Zak\u0142adu Doskonalenia Zawodowego w Katowicach","name":"Liceum Og\u00f3lnokszta\u0142c\u0105ce","addr:country":"PL","addr:postcode":"43-100","addr:city":"Tychy","addr:street":"ul. Budowlanych","addr:housenumber":"156","addr:teryt:simc":2337,"addr:teryt:sym_ul":944534,"contact:phone":"+48 323270880","contact:email":"s-tychy@zdz.katowice.pl","contact:website":"http:\/\/www.tychy.zdz.pl","ref:regon":"243085583","operator":"Zak\u0142ad Doskonalenia Zawodowego W Katowicach","operator:type":"ngo","amenity":"school","note":"Parent RSPO: 58407"}},{"id":263351,"type":"Feature","geometry":{"type":"Point","coordinates":[18.96542,50.130990000000004]},"properties":{"isced:level":"3","ref:rspo":263351,"official_name":"Technikum im. Orl\u0105t Lwowskich w Tychach Zak\u0142adu Doskonalenia Zawodowego w Katowicach","name":"Technikum","addr:country":"PL","addr:postcode":"43-100","addr:city":"Tychy","addr:street":"ul. Budowlanych","addr:housenumber":"156","addr:teryt:simc":2337,"addr:teryt:sym_ul":944534,"contact:phone":"+48 323270880","contact:email":"s-tychy@zdz.katowice.pl","contact:website":"http:\/\/www.szkoly.tychy.zdz.pl","ref:regon":"368181918","operator":"Zak\u0142ad Doskonalenia Zawodowego W Katowicach","operator:type":"ngo","amenity":"school","note":"Parent RSPO: 58407"}},{"id":58409,"type":"Feature","geometry":{"type":"Point","coordinates":[18.97922,50.1313]},"properties":{"isced:level":"1;2","ref:rspo":58409,"official_name":"Prywatna Szko\u0142a Podstawowa \"Art\"","name":"Prywatna Szko\u0142a Podstawowa \"Art\"","addr:country":"PL","addr:postcode":"43-100","addr:city":"Tychy","addr:street":"pl. Plac Wolno\u015bci","addr:housenumber":"3","addr:teryt:simc":16414,"addr:teryt:sym_ul":944534,"contact:phone":"+48 322277482","contact:email":"szkolaart@wp.pl","contact:website":"http:\/\/www.art.tychy.pl","ref:regon":"243083868","operator":"Andrzej Rauszer","operator:type":"private","amenity":"school"}},{"id":58370,"type":"Feature","geometry":{"type":"Point","coordinates":[18.98199,50.13139]},"properties":{"ref:rspo":58370,"official_name":"Przedszkole Niepubliczne Kolorowe Kredki","name":"Przedszkole Niepubliczne Kolorowe Kredki","addr:country":"PL","addr:postcode":"43-100","addr:city":"Tychy","addr:street":"ul. Nowoko\u015bcielna","addr:housenumber":"58","addr:teryt:simc":14436,"addr:teryt:sym_ul":944534,"contact:phone":"+48 533886668","contact:email":"info@kolorowekredki.net","contact:website":"http:\/\/www.kolorowekredki.net","ref:regon":"243077388","operator":"Przedszkole Niepubliczne Kolorowe Kredki Rauer Sp\u00f3\u0142ka Jawna","operator:type":"private","amenity":"kindergarten"}},{"id":17603,"type":"Feature","geometry":{"type":"Point","coordinates":[18.9704,50.13189]},"properties":{"ref:rspo":17603,"official_name":"Przedszkole Nr 8 \"Zielony Ogr\u00f3d\" Z Oddzia\u0142ami Integracyjnymi","name":"Przedszkole Nr 8 \"Zielony Ogr\u00f3d\" Z Oddzia\u0142ami Integracyjnymi","addr:country":"PL","addr:postcode":"43-100","addr:city":"Tychy","addr:street":"ul. Wojska Polskiego","addr:housenumber":"2","addr:teryt:simc":24628,"addr:teryt:sym_ul":944534,"contact:phone":"+48 322273892","contact:email":"p8@oswiata.tychy.pl","contact:website":"http:\/\/przedszkole8.tychy.edu.pl","ref:regon":"271510136","ref:vatin":"PL6462712560","operator":"Gmina Miasta Tychy","operator:type":"government","amenity":"kindergarten"}},{"id":21548,"type":"Feature","geometry":{"type":"Point","coordinates":[18.97792,50.13214]},"properties":{"isced:level":"1;2","ref:rspo":21548,"official_name":"Szko\u0142a Podstawowa Nr 1 im. Rudolfa Zar\u0119by","name":"Szko\u0142a Podstawowa Nr 1","addr:country":"PL","addr:postcode":"43-100","addr:city":"Tychy","addr:street":"pl. Plac Wolno\u015bci","addr:housenumber":"4","addr:teryt:simc":16414,"addr:teryt:sym_ul":944534,"contact:phone":"+48 322272212","contact:email":"sp1@oswiata.tychy.pl","contact:website":"http:\/\/sp1.tychy.edu.pl","ref:regon":"000725602","ref:vatin":"PL6462483964","operator":"Gmina Miasta Tychy","operator:type":"government","amenity":"school"}},{"id":58130,"type":"Feature","geometry":{"type":"Point","coordinates":[18.97296,50.13243]},"properties":{"ref:rspo":58130,"official_name":"Niepubliczne Przedszkole Artystyczno-Sportowe Sportart","name":"Niepubliczne Przedszkole Artystyczno-Sportowe Sportart","addr:country":"PL","addr:postcode":"43-100","addr:city":"Tychy","addr:street":"ul. Arctowskiego","addr:housenumber":"1D","addr:teryt:simc":397,"addr:teryt:sym_ul":944534,"contact:phone":"+48 327497333","contact:email":"przedszkoleart@gmail.com","ref:regon":"243077046","operator":"Pawe\u0142 Janas","operator:type":"private","amenity":"kindergarten"}},{"id":75117,"type":"Feature","geometry":{"type":"Point","coordinates":[18.97306,50.13288]},"properties":{"ref:rspo":75117,"official_name":"Centrum Edukacji Zawodowej im. Witolda Pluty","name":"Centrum Edukacji Zawodowej","addr:country":"PL","addr:postcode":"43-100","addr:city":"Tychy","addr:street":"ul. Arctowskiego","addr:housenumber":"1","addr:teryt:simc":397,"addr:teryt:sym_ul":944534,"contact:phone":"+48 322273484","contact:email":"cez@cez.com.pl","ref:regon":"243087955","ref:vatin":"PL6461111717","operator":"Katarzyna Pluta","operator:type":"private","fixme":"w zale\u017cno\u015bci od przedmiotu dzia\u0142alno\u015bci (np. amenity=training + training=*, amenity=dancing_school, amenity=language_school, amenity=music_school)"}},{"id":4968,"type":"Feature","geometry":{"type":"Point","coordinates":[18.96751,50.13305]},"properties":{"isced:level":"1;2","ref:rspo":4968,"official_name":"Szko\u0142a Podstawowa Nr 3 im. Jana Kochanowskiego","name":"Szko\u0142a Podstawowa Nr 3","addr:country":"PL","addr:postcode":"43-100","addr:city":"Tychy","addr:street":"ul. Wojska Polskiego","addr:housenumber":"10","addr:teryt:simc":24628,"addr:teryt:sym_ul":944534,"contact:phone":"+48 322273286","contact:email":"sp3@oswiata.tychy.pl","contact:website":"http:\/\/sp3.tychy.edu.pl","ref:regon":"000725619","ref:vatin":"PL6462483987","operator":"Gmina Miasta Tychy","operator:type":"government","amenity":"school"}},{"id":38564,"type":"Feature","geometry":{"type":"Point","coordinates":[18.97101,50.13339]},"properties":{"ref:rspo":38564,"official_name":"Pedagogiczna Biblioteka Wojew\u00f3dzka im. J. Lompy w Katowicach Filia w Tychach","name":"Pedagogiczna Biblioteka Wojew\u00f3dzka","addr:country":"PL","addr:postcode":"43-100","addr:city":"Tychy","addr:street":"ul. gen. Andersa","addr:housenumber":"6a","addr:teryt:simc":282,"addr:teryt:sym_ul":944534,"contact:phone":"+48 322274703","contact:email":"tychy@pbw.katowice.pl","contact:website":"http:\/\/www.tychy.pbw.katowice.pl","ref:regon":"195400001","ref:vatin":"PL6341759249","operator":"Wojew\u00f3dztwo \u015al\u0105skie","operator:type":"government","amenity":"library","note":"Parent RSPO: 25643"}},{"id":277960,"type":"Feature","geometry":{"type":"Point","coordinates":[18.97581,50.13463]},"properties":{"ref:rspo":277960,"official_name":"Niepubliczne Przedszkole Montessori \"R\u00f3\u017cowa Wie\u017ca\"","name":"Niepubliczne Przedszkole Montessori \"R\u00f3\u017cowa Wie\u017ca\"","addr:country":"PL","addr:postcode":"43-100","addr:city":"Tychy","addr:street":"ul. Nowoko\u015bcielna","addr:housenumber":"21","addr:door":"1","addr:teryt:simc":14436,"addr:teryt:sym_ul":944534,"contact:email":"rozowawieza.tychy@gmail.com","contact:website":"http:\/\/www.rozowawieza.tychy.pl","ref:regon":"389708246","operator":"Katarzyna Szymula","operator:type":"private","amenity":"kindergarten"}},{"id":24868,"type":"Feature","geometry":{"type":"Point","coordinates":[18.9673,50.13471]},"properties":{"ref:rspo":24868,"official_name":"Poradnia Psychologiczno-Pedagogiczna","name":"Poradnia Psychologiczno-Pedagogiczna","addr:country":"PL","addr:postcode":"43-100","addr:city":"Tychy","addr:street":"ul. Genera\u0142a Andersa","addr:housenumber":"16","addr:teryt:simc":34141,"addr:teryt:sym_ul":944534,"contact:phone":"+48 322272392","contact:email":"ppp@oswiata.tychy.pl","contact:website":"http:\/\/ppp.tychy.edu.pl","ref:regon":"000726056","ref:vatin":"PL6461034388","operator":"Gmina Miasta Tychy","operator:type":"government","healthcare":"councelling","counselling_type":"education","fixme":"w zale\u017cno\u015bci od przedmiotu dzia\u0142alno\u015bci (np. healthcare=councelling + counselling_type=education albo healthcare=psychotherapist)"}},{"id":5929,"type":"Feature","geometry":{"type":"Point","coordinates":[18.965040206909,50.136211395264]},"properties":{"isced:level":"1;2","ref:rspo":5929,"official_name":"Szko\u0142a Podstawowa Nr 36 im. Narod\u00f3w Zjednoczonej Europy","name":"Szko\u0142a Podstawowa Nr 36","addr:country":"PL","addr:postcode":"43-100","addr:city":"Tychy","addr:street":"ul. Genera\u0142a Ch. de Gaulle'a","addr:housenumber":"18","addr:teryt:simc":47960,"addr:teryt:sym_ul":944534,"contact:phone":"+48 322278270","contact:email":"sp36@oswiata.tychy.pl","contact:website":"http:\/\/sp36tychy.pl","ref:regon":"001015676","ref:vatin":"PL6462480888","operator":"Gmina Miasta Tychy","operator:type":"government","amenity":"school"}},{"id":21500,"type":"Feature","geometry":{"type":"Point","coordinates":[18.965040206909,50.136181395263996]},"properties":{"ref:rspo":21500,"official_name":"Przedszkole Nr 29 Z Oddzia\u0142ami Integracyjnymi","name":"Przedszkole Nr 29 Z Oddzia\u0142ami Integracyjnymi","addr:country":"PL","addr:postcode":"43-100","addr:city":"Tychy","addr:street":"ul. Majora Hubala","addr:housenumber":"7","addr:teryt:simc":40303,"addr:teryt:sym_ul":944534,"contact:phone":"+48 322175526","contact:email":"p29@oswiata.tychy.pl","contact:website":"http:\/\/przedszkole29.tychy.edu.pl","ref:regon":"271510337","ref:vatin":"PL6462712583","operator":"Gmina Miasta Tychy","operator:type":"government","amenity":"kindergarten"}},{"id":23045,"type":"Feature","geometry":{"type":"Point","coordinates":[18.96144,50.13649]},"properties":{"ref:rspo":23045,"official_name":"Zesp\u00f3\u0142 Szk\u00f3\u0142 Nr 7 w Tychach","name":"Zesp\u00f3\u0142 Szk\u00f3\u0142 Nr 7 w Tychach","addr:country":"PL","addr:postcode":"43-100","addr:city":"Tychy","addr:street":"ul. Browarowa","addr:housenumber":"1a","addr:teryt:simc":2153,"addr:teryt:sym_ul":944534,"contact:phone":"+48 322273632","contact:email":"zs7@oswiata.tychy.pl","contact:website":"http:\/\/zs7.tychy.edu.pl","ref:regon":"000201218","ref:vatin":"PL6462369168","operator":"Gmina Miasta Tychy","operator:type":"government","landuse":"education","fixme":"amenity=school, amenity=college albo landuse=education w zale\u017cno\u015bci od tego, jakie plac\u00f3wki wchodz\u0105 w sk\u0142ad zespo\u0142u. Sprawd\u017a, kiedy stosowa\u0107 amenity=* a kiedy landuse=education.","note":"Children RSPO: 46973;47328"}},{"id":46973,"type":"Feature","geometry":{"type":"Point","coordinates":[18.96144,50.13646]},"properties":{"isced:level":"3","ref:rspo":46973,"official_name":"Bran\u017cowa Szko\u0142a I Stopnia Nr 4 w Zespole Szk\u00f3\u0142 Nr 7","name":"Bran\u017cowa Szko\u0142a I Stopnia Nr 4 w Zespole Szk\u00f3\u0142 Nr 7","addr:country":"PL","addr:postcode":"43-100","addr:city":"Tychy","addr:street":"ul. Browarowa","addr:housenumber":"1A","addr:teryt:simc":2153,"addr:teryt:sym_ul":944534,"contact:phone":"+48 322273632","contact:email":"zs7@oswiata.tychy.pl","contact:website":"http:\/\/zs7.tychy.edu.pl","ref:regon":"272039600","ref:vatin":"PL6462369168","operator":"Gmina Miasta Tychy","operator:type":"government","amenity":"school","note":"Parent RSPO: 23045"}},{"id":47328,"type":"Feature","geometry":{"type":"Point","coordinates":[18.96144,50.136430000000004]},"properties":{"isced:level":"3","ref:rspo":47328,"official_name":"Technikum Nr 6","name":"Technikum Nr 6","addr:country":"PL","addr:postcode":"43-100","addr:city":"Tychy","addr:street":"ul. Browarowa","addr:housenumber":"1A","addr:teryt:simc":2153,"addr:teryt:sym_ul":944534,"contact:phone":"+48 322273632","contact:email":"zs7@oswiata.tychy.pl","contact:website":"http:\/\/zs7.tychy.edu.pl","ref:regon":"272039617","ref:vatin":"PL6462369168","operator":"Gmina Miasta Tychy","operator:type":"government","amenity":"school","note":"Parent RSPO: 23045"}},{"id":21738,"type":"Feature","geometry":{"type":"Point","coordinates":[18.95038,50.14287]},"properties":{"ref:rspo":21738,"official_name":"Zesp\u00f3\u0142 Szkolno-Przedszkolny Nr 1","name":"Zesp\u00f3\u0142 Szkolno-Przedszkolny Nr 1","addr:country":"PL","addr:postcode":"43-100","addr:city":"Tychy","addr:street":"ul. Le\u015bna","addr:housenumber":"66","addr:teryt:simc":10898,"addr:teryt:sym_ul":944534,"contact:phone":"+48 322272240","contact:email":"zsp1@oswiata.tychy.pl","contact:website":"http:\/\/zsp1.tychy.edu.pl","ref:regon":"278282827","ref:vatin":"PL6462651120","operator":"Gmina Miasta Tychy","operator:type":"government","landuse":"education","fixme":"amenity=school, amenity=college albo landuse=education w zale\u017cno\u015bci od tego, jakie plac\u00f3wki wchodz\u0105 w sk\u0142ad zespo\u0142u. Sprawd\u017a, kiedy stosowa\u0107 amenity=* a kiedy landuse=education.","note":"Children RSPO: 43844;43845"}},{"id":43844,"type":"Feature","geometry":{"type":"Point","coordinates":[18.95038,50.14284]},"properties":{"ref:rspo":43844,"official_name":"Przedszkole Nr 2","name":"Przedszkole Nr 2","addr:country":"PL","addr:postcode":"43-100","addr:city":"Tychy","addr:street":"ul. Le\u015bna","addr:housenumber":"66","addr:teryt:simc":10898,"addr:teryt:sym_ul":944534,"contact:phone":"+48 322272240","contact:email":"zsp1@oswiata.tychy.pl","contact:website":"http:\/\/zsp1.tychy.edu.pl","ref:regon":"271510099","ref:vatin":"PL6462651120","operator":"Gmina Miasta Tychy","operator:type":"government","amenity":"kindergarten","note":"Parent RSPO: 21738"}},{"id":43845,"type":"Feature","geometry":{"type":"Point","coordinates":[18.95038,50.142810000000004]},"properties":{"isced:level":"1;2","ref:rspo":43845,"official_name":"Szko\u0142a Podstawowa Nr 9","name":"Szko\u0142a Podstawowa Nr 9","addr:country":"PL","addr:postcode":"43-100","addr:city":"Tychy","addr:street":"ul. Le\u015bna","addr:housenumber":"66","addr:teryt:simc":10898,"addr:teryt:sym_ul":944534,"contact:phone":"+48 322272240","contact:email":"zsp1@oswiata.tychy.pl","contact:website":"http:\/\/zsp1.tychy.edu.pl","ref:regon":"000725660","ref:vatin":"PL6462651120","operator":"Gmina Miasta Tychy","operator:type":"government","amenity":"school","note":"Parent RSPO: 21738"}},{"id":132654,"type":"Feature","geometry":{"type":"Point","coordinates":[18.9904699,50.14352]},"properties":{"ref:rspo":132654,"official_name":"Niepubliczne Przedszkole Specjalne \"Iskierka\"","name":"Niepubliczne Przedszkole Specjalne \"Iskierka\"","addr:country":"PL","addr:postcode":"43-100","addr:city":"Tychy","addr:street":"ul. \u015aliwowa","addr:housenumber":"4","addr:teryt:simc":22343,"addr:teryt:sym_ul":944534,"contact:phone":"+48 797001401","contact:email":"iskierka.tychy@wp.pl","contact:website":"http:\/\/www.przedszkole-iskierka.com.pl","ref:regon":"365982486","operator":"Niepubliczne Przedszkole Specjalne \"Iskierka\" Sp\u00f3\u0142ka Z Ograniczon\u0105 Odpowiedzialno\u015bci\u0105","operator:type":"private","amenity":"kindergarten"}},{"id":5209,"type":"Feature","geometry":{"type":"Point","coordinates":[18.9991,50.1457]},"properties":{"isced:level":"1;2","ref:rspo":5209,"official_name":"Szko\u0142a Podstawowa Nr 6 im. Ks. Karola Palicy","name":"Szko\u0142a Podstawowa Nr 6","addr:country":"PL","addr:postcode":"43-100","addr:city":"Tychy","addr:street":"ul. Katowicka","addr:housenumber":"102","addr:teryt:simc":8206,"addr:teryt:sym_ul":944534,"contact:phone":"+48 322198812","contact:email":"sp6@oswiata.tychy.pl","contact:website":"http:\/\/sp6.tychy.edu.pl","ref:regon":"000725631","ref:vatin":"PL6462483958","operator":"Gmina Miasta Tychy","operator:type":"government","amenity":"school"}},{"id":21487,"type":"Feature","geometry":{"type":"Point","coordinates":[18.9991,50.145669999999996]},"properties":{"ref:rspo":21487,"official_name":"Przedszkole Nr 20 im. Karlika I Karolinki","name":"Przedszkole Nr 20","addr:country":"PL","addr:postcode":"43-100","addr:city":"Tychy","addr:street":"ul. Katowicka","addr:housenumber":"102a","addr:teryt:simc":8206,"addr:teryt:sym_ul":944534,"contact:phone":"+48 322198002","contact:email":"p20@oswiata.tychy.pl","contact:website":"http:\/\/przedszkole20.tychy.edu.pl","ref:regon":"271510403","ref:vatin":"PL6462711649","operator":"Gmina Miasta Tychy","operator:type":"government","amenity":"kindergarten"}}]}