{
    "type": "FeatureCollection",
    "features": [
        {
            "id": 273590,
            "type": "Feature",
            "geometry": {
                "type": "Point",
                "coordinates": [
                    20.6489626,
                    49.6037466
                ]
            },
            "properties": {
                "ref:rspo": 273590,
                "official_name": "Niepubliczne Przedszkole \"Dworek\"",
                "name": "Niepubliczne Przedszkole \"Dworek\"",
                "addr:postcode": "33-395",
                "addr:place": "\u015awiniarsko",
                "addr:housenumber": "455",
                "addr:city:simc": 421078,
                "phone": "+48 505690114",
                "email": "beata.stachon@onet.pl",
                "ref:regon": "384506259",
                "operator": "Beata Stacho\u0144",
                "operator:type": "private",
                "amenity": "kindergarten"
            }
        },
        {
            "id": 8885,
            "type": "Feature",
            "geometry": {
                "type": "Point",
                "coordinates": [
                    20.6602985,
                    49.6082115
                ]
            },
            "properties": {
                "isced:level": "1;2",
                "ref:rspo": 8885,
                "official_name": "Szko\u0142a Podstawowa im. B\u0142. Ks. Jerzego Popie\u0142uszki w \u015awiniarsku",
                "name": "Szko\u0142a Podstawowa",
                "addr:postcode": "33-395",
                "addr:place": "\u015awiniarsko",
                "addr:housenumber": "132",
                "addr:city:simc": 421078,
                "phone": "+48 185480480",
                "email": "plabuda@chelmiec.pl",
                "website": "http:\/\/www.zsswiniarsko.chelmiec.iap.pl",
                "ref:regon": "490670382",
                "ref:vatin": "PL7343051302",
                "operator": "Gmina Che\u0142miec",
                "operator:type": "government",
                "amenity": "school"
            }
        },
        {
            "id": 274419,
            "type": "Feature",
            "geometry": {
                "type": "Point",
                "coordinates": [
                    20.629020540702,
                    49.617090744527
                ]
            },
            "properties": {
                "ref:rspo": 274419,
                "official_name": "Przedszkole Niepubliczne \"Wojtu\u015b Stra\u017cak\"",
                "name": "Przedszkole Niepubliczne \"Wojtu\u015b Stra\u017cak\"",
                "addr:postcode": "33-395",
                "addr:place": "Niskowa",
                "addr:housenumber": "140",
                "addr:city:simc": 420541,
                "phone": "+48 792568062",
                "email": "wojtusstrazak@op.pl",
                "ref:regon": "385751587",
                "operator": "Jolanta Da\u0144ko-Stanaszek",
                "operator:type": "private",
                "amenity": "kindergarten"
            }
        },
        {
            "id": 9921,
            "type": "Feature",
            "geometry": {
                "type": "Point",
                "coordinates": [
                    20.76818,
                    49.61793
                ]
            },
            "properties": {
                "isced:level": "1;2",
                "ref:rspo": 9921,
                "official_name": "Szko\u0142a Podstawowa im. Stanis\u0142awa Wyspia\u0144skiego w Paszynie",
                "name": "Szko\u0142a Podstawowa",
                "addr:postcode": "33-326",
                "addr:place": "Paszyn",
                "addr:housenumber": "410",
                "addr:city:simc": 420647,
                "phone": "+48 185480450",
                "email": "sppaszyn@poczta.onet.pl",
                "website": "http:\/\/zspaszyn.chelmiec.pl",
                "ref:regon": "490670258",
                "ref:vatin": "PL7343048777",
                "operator": "Gmina Che\u0142miec",
                "operator:type": "government",
                "amenity": "school"
            }
        },
        {
            "id": 262985,
            "type": "Feature",
            "geometry": {
                "type": "Point",
                "coordinates": [
                    20.76818,
                    49.6179
                ]
            },
            "properties": {
                "ref:rspo": 262985,
                "official_name": "Niepubliczny Integracyjny Punkt Przedszkolny \"U\u015bmiech Dziecka\"",
                "name": "Niepubliczny Integracyjny Punkt Przedszkolny \"U\u015bmiech Dziecka\"",
                "addr:postcode": "33-326",
                "addr:place": "Paszyn",
                "addr:housenumber": "475",
                "addr:city:simc": 420647,
                "phone": "+48 570671946",
                "email": "przedszkoleusmiechdziecka@gmail.com",
                "ref:regon": "368084055",
                "operator": "Iwona Reinfuss-Bulanda",
                "operator:type": "private",
                "amenity": "kindergarten"
            }
        },
        {
            "id": 269438,
            "type": "Feature",
            "geometry": {
                "type": "Point",
                "coordinates": [
                    20.76818,
                    49.61787
                ]
            },
            "properties": {
                "ref:rspo": 269438,
                "official_name": "Przedszkole Integracyjne \"Kraina Przyg\u00f3d\"",
                "name": "Przedszkole Integracyjne \"Kraina Przyg\u00f3d\"",
                "addr:postcode": "33-326",
                "addr:place": "Paszyn",
                "addr:housenumber": "410a",
                "addr:city:simc": 420647,
                "phone": "+48 184149008",
                "email": "stowarzyszenie@lgdkoronasadecka.pl",
                "website": "http:\/\/www.lgdkoronasadecka.pl",
                "ref:regon": "381486763",
                "operator": "Lgd \"Korona S\u0105decka\"",
                "operator:type": "ngo",
                "amenity": "kindergarten"
            }
        },
        {
            "id": 60089,
            "type": "Feature",
            "geometry": {
                "type": "Point",
                "coordinates": [
                    20.75083,
                    49.62128
                ]
            },
            "properties": {
                "isced:level": "1;2",
                "ref:rspo": 60089,
                "official_name": "Szko\u0142a Podstawowa im. Franciszka Paw\u0142owskiego w Pi\u0105tkowej",
                "name": "Szko\u0142a Podstawowa",
                "addr:postcode": "33-300",
                "addr:place": "Pi\u0105tkowa",
                "addr:housenumber": "1",
                "addr:city:simc": 420883,
                "phone": "+48 185480460",
                "email": "sekretariat_piatkowa@op.pl",
                "website": "http:\/\/www.zspiatkowa.chelmiec.pl",
                "ref:regon": "492823068",
                "ref:vatin": "PL7342572849",
                "operator": "Gmina Che\u0142miec",
                "operator:type": "government",
                "amenity": "school"
            }
        },
        {
            "id": 120050,
            "type": "Feature",
            "geometry": {
                "type": "Point",
                "coordinates": [
                    20.75083,
                    49.621249999999996
                ]
            },
            "properties": {
                "ref:rspo": 120050,
                "official_name": "Niepubliczne Przedszkole \"Przyjazne Przedszkole\" w Pi\u0105tkowej",
                "name": "Niepubliczne Przedszkole \"Przyjazne Przedszkole\" w Pi\u0105tkowej",
                "addr:postcode": "33-300",
                "addr:place": "Pi\u0105tkowa",
                "addr:housenumber": "1",
                "addr:city:simc": 420883,
                "phone": "+48 796784777",
                "email": "zarzad.orbe@gmail.com",
                "website": "http:\/\/www.przyjazneprzedszkola.pl",
                "ref:regon": "122948718",
                "operator": "Orbe Sp\u00f3\u0142ka Z Ograniczon\u0105 Odpowiedzialno\u015bci\u0105",
                "operator:type": "private",
                "amenity": "kindergarten"
            }
        },
        {
            "id": 270462,
            "type": "Feature",
            "geometry": {
                "type": "Point",
                "coordinates": [
                    20.6675149,
                    49.6236448
                ]
            },
            "properties": {
                "ref:rspo": 270462,
                "official_name": "Niepubliczne Przedszkole \"Bajkolandia\"",
                "name": "Niepubliczne Przedszkole \"Bajkolandia\"",
                "addr:postcode": "33-395",
                "addr:city": "Ma\u0142a Wie\u015b",
                "addr:street": "Papieska",
                "addr:housenumber": "35",
                "addr:city:simc": 1063037,
                "addr:street:sym_ul": 32594,
                "phone": "+48 515845746",
                "email": "mariuszantosz@interia.pl",
                "ref:regon": "382606324",
                "operator": "Mariusz Antosz",
                "operator:type": "private",
                "amenity": "kindergarten"
            }
        },
        {
            "id": 131286,
            "type": "Feature",
            "geometry": {
                "type": "Point",
                "coordinates": [
                    20.63524,
                    49.62558
                ]
            },
            "properties": {
                "ref:rspo": 131286,
                "official_name": "Zesp\u00f3\u0142 Szkolno-Przedszkolny w Niskowej",
                "name": "Zesp\u00f3\u0142 Szkolno-Przedszkolny w Niskowej",
                "addr:postcode": "33-395",
                "addr:place": "Niskowa",
                "addr:housenumber": "62",
                "addr:city:simc": 420541,
                "phone": "+48 184430062",
                "email": "sp.niskowa@op.pl",
                "website": "http:\/\/spniskowa.edu.pl",
                "ref:regon": "365087685",
                "ref:vatin": "PL7343541911",
                "operator": "Stowarzyszenie Rozwoju Wsi Niskowa",
                "operator:type": "ngo",
                "landuse": "education",
                "fixme": "amenity=school, amenity=college albo landuse=education w zale\u017cno\u015bci od tego, jakie plac\u00f3wki wchodz\u0105 w sk\u0142ad zespo\u0142u. Sprawd\u017a, kiedy stosowa\u0107 amenity=* a kiedy landuse=education.",
                "note": "Children RSPO: 8042;131308"
            }
        },
        {
            "id": 8042,
            "type": "Feature",
            "geometry": {
                "type": "Point",
                "coordinates": [
                    20.63524,
                    49.62555
                ]
            },
            "properties": {
                "isced:level": "1;2",
                "ref:rspo": 8042,
                "official_name": "Szko\u0142a Podstawowa w Niskowej",
                "name": "Szko\u0142a Podstawowa w Niskowej",
                "addr:postcode": "33-395",
                "addr:place": "Niskowa",
                "addr:housenumber": "62",
                "addr:city:simc": 420541,
                "phone": "+48 184430062",
                "email": "sp.niskowa@op.pl",
                "website": "http:\/\/spniskowa.edu.pl",
                "ref:regon": "122649499",
                "ref:vatin": "PL7343518674",
                "operator": "Stowarzyszenie Rozwoju Wsi Niskowa",
                "operator:type": "ngo",
                "amenity": "school",
                "note": "Parent RSPO: 131286"
            }
        },
        {
            "id": 131308,
            "type": "Feature",
            "geometry": {
                "type": "Point",
                "coordinates": [
                    20.63524,
                    49.62552
                ]
            },
            "properties": {
                "ref:rspo": 131308,
                "official_name": "Przedszkole w Niskowej",
                "name": "Przedszkole w Niskowej",
                "addr:postcode": "33-395",
                "addr:place": "Niskowa",
                "addr:housenumber": "62",
                "addr:city:simc": 420541,
                "phone": "+48 184430062",
                "email": "sp.niskowa@op.pl",
                "website": "http:\/\/spniskowa.edu.pl",
                "ref:regon": "365107471",
                "operator": "Stowarzyszenie Rozwoju Wsi Niskowa",
                "operator:type": "ngo",
                "amenity": "kindergarten",
                "note": "Parent RSPO: 131286"
            }
        },
        {
            "id": 276604,
            "type": "Feature",
            "geometry": {
                "type": "Point",
                "coordinates": [
                    20.64112,
                    49.6309
                ]
            },
            "properties": {
                "ref:rspo": 276604,
                "official_name": "Niepubliczne Przedszkole Integracyjne \"Chatka Ma\u0142ego Skrzatka\"",
                "name": "Niepubliczne Przedszkole Integracyjne \"Chatka Ma\u0142ego Skrzatka\"",
                "addr:postcode": "33-395",
                "addr:place": "Biczyce Dolne",
                "addr:housenumber": "262",
                "addr:city:simc": 419822,
                "phone": "+48 602280814",
                "email": "boguslawadar@interia.pl",
                "website": "http:\/\/skrzatek.eu",
                "ref:regon": "387273465",
                "operator": "Bogus\u0142awa Darowska",
                "operator:type": "private",
                "amenity": "kindergarten"
            }
        },
        {
            "id": 12251,
            "type": "Feature",
            "geometry": {
                "type": "Point",
                "coordinates": [
                    20.66649,
                    49.63215
                ]
            },
            "properties": {
                "isced:level": "1;2",
                "ref:rspo": 12251,
                "official_name": "Szko\u0142a Podstawowa z Oddzia\u0142ami Specjalnymi im. Miko\u0142aja Kopernika w Che\u0142mcu",
                "name": "Szko\u0142a Podstawowa z Oddzia\u0142ami Specjalnymi",
                "addr:postcode": "33-395",
                "addr:city": "Che\u0142miec",
                "addr:street": "Marcinkowicka",
                "addr:housenumber": "9",
                "addr:city:simc": 419905,
                "addr:street:sym_ul": 12290,
                "phone": "+48 185480350",
                "email": "spchszkola@poczta.onet.pl",
                "website": "http:\/\/zs.chelmiec.pl",
                "ref:regon": "492892388",
                "ref:vatin": "PL7342700106",
                "operator": "Gmina Che\u0142miec",
                "operator:type": "government",
                "amenity": "school"
            }
        },
        {
            "id": 71265,
            "type": "Feature",
            "geometry": {
                "type": "Point",
                "coordinates": [
                    20.66649,
                    49.63212
                ]
            },
            "properties": {
                "isced:level": "3",
                "ref:rspo": 71265,
                "official_name": "Bran\u017cowa Szko\u0142a I Stopnia \"Praktyk\" w Che\u0142mcu",
                "name": "Bran\u017cowa Szko\u0142a I Stopnia \"Praktyk\" w Che\u0142mcu",
                "addr:postcode": "33-395",
                "addr:city": "Che\u0142miec",
                "addr:street": "Marcinkowicka",
                "addr:housenumber": "9",
                "addr:city:simc": 419905,
                "addr:street:sym_ul": 12290,
                "phone": "+48 184431966",
                "email": "chelmiec@szkolapraktyk.pl",
                "ref:regon": "122694198",
                "operator": "Tadeusz Wi\u015bniowski",
                "operator:type": "private",
                "amenity": "school"
            }
        },
        {
            "id": 273453,
            "type": "Feature",
            "geometry": {
                "type": "Point",
                "coordinates": [
                    20.66649,
                    49.632090000000005
                ]
            },
            "properties": {
                "ref:rspo": 273453,
                "official_name": "Niepubliczny Punkt Przedszkolny \"Przyjazne Przedszkole\" w Che\u0142mcu",
                "name": "Niepubliczny Punkt Przedszkolny \"Przyjazne Przedszkole\" w Che\u0142mcu",
                "addr:postcode": "33-395",
                "addr:city": "Che\u0142miec",
                "addr:street": "Marcinkowicka",
                "addr:housenumber": "9",
                "addr:city:simc": 419905,
                "addr:street:sym_ul": 12290,
                "phone": "+48 123767448",
                "email": "zarzad.orbe@gmail.com",
                "website": "http:\/\/www.przyjazneprzedszkole.pl",
                "ref:regon": "384472649",
                "operator": "Orbe Sp\u00f3\u0142ka Z Ograniczon\u0105 Odpowiedzialno\u015bci\u0105",
                "operator:type": "private",
                "amenity": "kindergarten"
            }
        },
        {
            "id": 122441,
            "type": "Feature",
            "geometry": {
                "type": "Point",
                "coordinates": [
                    20.64744,
                    49.63252
                ]
            },
            "properties": {
                "ref:rspo": 122441,
                "official_name": "Niepubliczne Integracyjne Przedszkole \u015awi\u0119tego J\u00f3zefa w Biczycach Dolnych",
                "name": "Niepubliczne Integracyjne Przedszkole \u015awi\u0119tego J\u00f3zefa w Biczycach Dolnych",
                "addr:postcode": "33-395",
                "addr:place": "Biczyce Dolne",
                "addr:housenumber": "6",
                "addr:city:simc": 419822,
                "phone": "+48 184731226",
                "email": "przedszkolebiczyce@gmail.pl",
                "ref:regon": "123065926",
                "operator": "Fds Micha\u0142 Krempa",
                "operator:type": "consortium",
                "amenity": "kindergarten"
            }
        },
        {
            "id": 6987,
            "type": "Feature",
            "geometry": {
                "type": "Point",
                "coordinates": [
                    20.6445392,
                    49.6327617
                ]
            },
            "properties": {
                "isced:level": "1;2",
                "ref:rspo": 6987,
                "official_name": "Szko\u0142a Podstawowa im. S. Czes\u0142awy Lorek w Biczycach Dolnych",
                "name": "Szko\u0142a Podstawowa",
                "addr:postcode": "33-395",
                "addr:place": "Biczyce Dolne",
                "addr:housenumber": "30",
                "addr:city:simc": 419822,
                "phone": "+48 185480380",
                "email": "spbiczyce@wp.pl",
                "website": "http:\/\/www.spbiczyce.chelmiec.pl",
                "ref:regon": "490670330",
                "ref:vatin": "PL7343518071",
                "operator": "Gmina Che\u0142miec",
                "operator:type": "government",
                "amenity": "school"
            }
        },
        {
            "id": 114643,
            "type": "Feature",
            "geometry": {
                "type": "Point",
                "coordinates": [
                    20.6445392,
                    49.6327317
                ]
            },
            "properties": {
                "ref:rspo": 114643,
                "official_name": "Przedszkole Integracyjne \"Bajkowa Kraina\" w Biczycach Dolnych",
                "name": "Przedszkole Integracyjne \"Bajkowa Kraina\" w Biczycach Dolnych",
                "addr:postcode": "33-395",
                "addr:place": "Biczyce Dolne",
                "addr:housenumber": "30",
                "addr:city:simc": 419822,
                "phone": "+48 185479406",
                "email": "przedszkolebiczycedolne@gmail.com",
                "website": "http:\/\/www.przedszkolebiczyce.pl",
                "ref:regon": "122856525",
                "operator": "Sp\u00f3\u0142dzielnia Socjalna \"Przedszkolaki To My\"",
                "operator:type": "cooperative",
                "amenity": "kindergarten"
            }
        },
        {
            "id": 44468,
            "type": "Feature",
            "geometry": {
                "type": "Point",
                "coordinates": [
                    20.7262099,
                    49.6481
                ]
            },
            "properties": {
                "isced:level": "1;2",
                "ref:rspo": 44468,
                "official_name": "Szko\u0142a Podstawowa w Januszowej",
                "name": "Szko\u0142a Podstawowa w Januszowej",
                "addr:postcode": "33-300",
                "addr:place": "Januszowa",
                "addr:housenumber": "5",
                "addr:city:simc": 420021,
                "phone": "+48 185480400",
                "email": "spjanuszowa@poczta.onet.pl",
                "website": "https:\/\/szkola-januszowa.pl",
                "ref:regon": "490670152",
                "ref:vatin": "PL7342761071",
                "operator": "Gmina Che\u0142miec",
                "operator:type": "government",
                "amenity": "school"
            }
        },
        {
            "id": 13350,
            "type": "Feature",
            "geometry": {
                "type": "Point",
                "coordinates": [
                    20.61178,
                    49.65069
                ]
            },
            "properties": {
                "isced:level": "1;2",
                "ref:rspo": 13350,
                "official_name": "Szko\u0142a Podstawowa im. Gen. Micha\u0142a Ga\u0142\u0105zki w Trzetrzewinie",
                "name": "Szko\u0142a Podstawowa",
                "addr:postcode": "33-395",
                "addr:place": "Trzetrzewina",
                "addr:housenumber": "193",
                "addr:city:simc": 421167,
                "phone": "+48 185480490",
                "email": "sp_trzetrzewina@chelmiec.pl",
                "website": "http:\/\/sptrzetrzewina.chelmiec.pl",
                "ref:regon": "490670413",
                "ref:vatin": "PL7343110890",
                "operator": "Gmina Che\u0142miec",
                "operator:type": "government",
                "amenity": "school"
            }
        },
        {
            "id": 48857,
            "type": "Feature",
            "geometry": {
                "type": "Point",
                "coordinates": [
                    20.76461,
                    49.65666
                ]
            },
            "properties": {
                "isced:level": "1;2",
                "ref:rspo": 48857,
                "official_name": "Szko\u0142a Podstawowa im. J\u00f3zefa Bie\u0144ka w Librantowej",
                "name": "Szko\u0142a Podstawowa",
                "addr:postcode": "33-300",
                "addr:place": "Librantowa",
                "addr:housenumber": "86",
                "addr:city:simc": 420251,
                "phone": "+48 185480440",
                "email": "zslibrantowa@op.pl",
                "website": "http:\/\/www.szkolawlibrantowej.pl",
                "ref:regon": "490670198",
                "ref:vatin": "PL7343109734",
                "operator": "Gmina Che\u0142miec",
                "operator:type": "government",
                "amenity": "school"
            }
        },
        {
            "id": 7564,
            "type": "Feature",
            "geometry": {
                "type": "Point",
                "coordinates": [
                    20.66777,
                    49.65784
                ]
            },
            "properties": {
                "isced:level": "1;2",
                "ref:rspo": 7564,
                "official_name": "Szko\u0142a Podstawowa im. Stanis\u0142awa I Jana Potoczk\u00f3w w Rdziostowie",
                "name": "Szko\u0142a Podstawowa",
                "addr:postcode": "33-393",
                "addr:place": "Rdziost\u00f3w",
                "addr:housenumber": "55",
                "addr:city:simc": 421032,
                "phone": "+48 185480470",
                "email": "sp_rdziostow@chelmiec.pl",
                "website": "http:\/\/www.sprdziostow.chelmiec.pl",
                "ref:regon": "490670318",
                "ref:vatin": "PL7342759789",
                "operator": "Gmina Che\u0142miec",
                "operator:type": "government",
                "amenity": "school"
            }
        },
        {
            "id": 32100,
            "type": "Feature",
            "geometry": {
                "type": "Point",
                "coordinates": [
                    20.65853,
                    49.66126
                ]
            },
            "properties": {
                "ref:rspo": 32100,
                "official_name": "Zesp\u00f3\u0142 Szk\u00f3\u0142 im. W\u0142adys\u0142awa Orkana w Marcinkowicach",
                "name": "Zesp\u00f3\u0142 Szk\u00f3\u0142",
                "addr:postcode": "33-393",
                "addr:place": "Marcinkowice",
                "addr:housenumber": "1",
                "addr:city:simc": 420452,
                "phone": "+48 184433185",
                "email": "sekretariat@zsmarcinkowice.edu.pl",
                "ref:regon": "000097761",
                "ref:vatin": "PL7342483301",
                "operator": "Powiat Nowos\u0105decki",
                "operator:type": "government",
                "landuse": "education",
                "fixme": "amenity=school, amenity=college albo landuse=education w zale\u017cno\u015bci od tego, jakie plac\u00f3wki wchodz\u0105 w sk\u0142ad zespo\u0142u. Sprawd\u017a, kiedy stosowa\u0107 amenity=* a kiedy landuse=education.",
                "note": "Children RSPO: 55476;55479;263119"
            }
        },
        {
            "id": 55476,
            "type": "Feature",
            "geometry": {
                "type": "Point",
                "coordinates": [
                    20.65853,
                    49.661229999999996
                ]
            },
            "properties": {
                "isced:level": "3",
                "ref:rspo": 55476,
                "official_name": "Technikum w Marcinkowicach",
                "name": "Technikum w Marcinkowicach",
                "addr:postcode": "33-393",
                "addr:place": "Marcinkowice",
                "addr:housenumber": "1",
                "addr:city:simc": 420452,
                "phone": "+48 184433185",
                "email": "sekretariat@zsmarcinkowice.edu.pl",
                "website": "http:\/\/www.zsmarcinkowice.eduppage.org",
                "ref:regon": "492903904",
                "ref:vatin": "PL7342483301",
                "operator": "Powiat Nowos\u0105decki",
                "operator:type": "government",
                "amenity": "school",
                "note": "Parent RSPO: 32100"
            }
        },
        {
            "id": 55479,
            "type": "Feature",
            "geometry": {
                "type": "Point",
                "coordinates": [
                    20.65853,
                    49.6612
                ]
            },
            "properties": {
                "isced:level": "3",
                "ref:rspo": 55479,
                "official_name": "Liceum Og\u00f3lnokszta\u0142c\u0105ce w Marcinkowicach",
                "name": "Liceum Og\u00f3lnokszta\u0142c\u0105ce w Marcinkowicach",
                "addr:postcode": "33-393",
                "addr:place": "Marcinkowice",
                "addr:housenumber": "1",
                "addr:city:simc": 420452,
                "phone": "+48 184433185",
                "email": "sekretariat@zsmarcinkowice.edu.pl",
                "website": "http:\/\/www.zsmarcinkowice.edu.pl",
                "ref:regon": "492952647",
                "ref:vatin": "PL7342483301",
                "operator": "Powiat Nowos\u0105decki",
                "operator:type": "government",
                "amenity": "school",
                "note": "Parent RSPO: 32100"
            }
        },
        {
            "id": 263119,
            "type": "Feature",
            "geometry": {
                "type": "Point",
                "coordinates": [
                    20.65853,
                    49.66117
                ]
            },
            "properties": {
                "isced:level": "3",
                "ref:rspo": 263119,
                "official_name": "Szko\u0142a Bran\u017cowa I Stopnia w Marcinkowicach",
                "name": "Szko\u0142a Bran\u017cowa I Stopnia w Marcinkowicach",
                "addr:postcode": "33-393",
                "addr:place": "Marcinkowice",
                "addr:housenumber": "1",
                "addr:city:simc": 420452,
                "phone": "+48 184433185",
                "email": "sekretariat@zsmarcinkowice.edu.pl",
                "website": "http:\/\/www.zsmarcinkowice.edu.pl",
                "ref:regon": "368108643",
                "operator": "Powiat Nowos\u0105decki",
                "operator:type": "government",
                "amenity": "school",
                "note": "Parent RSPO: 32100"
            }
        },
        {
            "id": 120048,
            "type": "Feature",
            "geometry": {
                "type": "Point",
                "coordinates": [
                    20.6218479,
                    49.667547
                ]
            },
            "properties": {
                "ref:rspo": 120048,
                "official_name": "Niepubliczny Punkt Przedszkolny \"Przyjazne Przedszkole\" w Kl\u0119czanach",
                "name": "Niepubliczny Punkt Przedszkolny \"Przyjazne Przedszkole\" w Kl\u0119czanach",
                "addr:postcode": "33-394",
                "addr:place": "Kl\u0119czany",
                "addr:housenumber": "1b",
                "addr:city:simc": 420050,
                "phone": "+48 794762777",
                "email": "zarzad.orbe@gmail.com",
                "website": "http:\/\/www.przyjazneprzedszkola.pl",
                "ref:regon": "122948658",
                "operator": "Orbe Sp\u00f3\u0142ka Z Ograniczon\u0105 Odpowiedzialno\u015bci\u0105",
                "operator:type": "private",
                "amenity": "kindergarten"
            }
        },
        {
            "id": 8389,
            "type": "Feature",
            "geometry": {
                "type": "Point",
                "coordinates": [
                    20.62179,
                    49.66778
                ]
            },
            "properties": {
                "isced:level": "1;2",
                "ref:rspo": 8389,
                "official_name": "Szko\u0142a Podstawowa im. W\u0142adys\u0142awa Broniewskiego w Kl\u0119czanach",
                "name": "Szko\u0142a Podstawowa",
                "addr:postcode": "33-394",
                "addr:place": "Kl\u0119czany",
                "addr:housenumber": "1a",
                "addr:city:simc": 420050,
                "phone": "+48 185480410",
                "email": "dyr06@spkleczany.chelmiec.pl",
                "website": "http:\/\/www.spkleczany.chelmiec.pl",
                "ref:regon": "492891064",
                "ref:vatin": "PL7342982458",
                "operator": "Gmina Che\u0142miec",
                "operator:type": "government",
                "amenity": "school"
            }
        },
        {
            "id": 7134,
            "type": "Feature",
            "geometry": {
                "type": "Point",
                "coordinates": [
                    20.64985,
                    49.66854
                ]
            },
            "properties": {
                "isced:level": "1;2",
                "ref:rspo": 7134,
                "official_name": "Szko\u0142a Podstawowa im. Marsza\u0142ka J\u00f3zefa Pi\u0142sudskiego w Marcinkowicach",
                "name": "Szko\u0142a Podstawowa",
                "addr:postcode": "33-393",
                "addr:place": "Marcinkowice",
                "addr:housenumber": "132",
                "addr:city:simc": 420452,
                "phone": "+48 185480430",
                "email": "spmar@wp.pl",
                "website": "http:\/\/www.spmarcinkowice.chelmiec.pl",
                "ref:regon": "490670229",
                "ref:vatin": "PL7342751807",
                "operator": "Gmina Che\u0142miec",
                "operator:type": "government",
                "amenity": "school"
            }
        },
        {
            "id": 6988,
            "type": "Feature",
            "geometry": {
                "type": "Point",
                "coordinates": [
                    20.68944,
                    49.67171
                ]
            },
            "properties": {
                "isced:level": "1;2",
                "ref:rspo": 6988,
                "official_name": "Szko\u0142a Podstawowa im. Gen. J\u00f3zefa Gizy w Wielog\u0142owach",
                "name": "Szko\u0142a Podstawowa",
                "addr:postcode": "33-311",
                "addr:place": "Wielog\u0142owy",
                "addr:housenumber": "56",
                "addr:city:simc": 421345,
                "phone": "+48 185480370",
                "email": "zswiel@zswiel.neska.pl",
                "website": "http:\/\/www.zswiel.neska.pl",
                "ref:regon": "492891130",
                "ref:vatin": "PL7342700069",
                "operator": "Gmina Che\u0142miec",
                "operator:type": "government",
                "amenity": "school"
            }
        },
        {
            "id": 71263,
            "type": "Feature",
            "geometry": {
                "type": "Point",
                "coordinates": [
                    20.68944,
                    49.671679999999995
                ]
            },
            "properties": {
                "isced:level": "3",
                "ref:rspo": 71263,
                "official_name": "Bran\u017cowa Szko\u0142a I Stopnia \"Praktyk\" w Wielog\u0142owach",
                "name": "Bran\u017cowa Szko\u0142a I Stopnia \"Praktyk\" w Wielog\u0142owach",
                "addr:postcode": "33-311",
                "addr:place": "Wielog\u0142owy",
                "addr:housenumber": "56",
                "addr:city:simc": 421345,
                "phone": "+48 185480370",
                "email": "sekretariat@szkolapraktyk.pl",
                "website": "http:\/\/szkolapraktyk.pl",
                "ref:regon": "122694181",
                "ref:vatin": "PL7343520754",
                "operator": "Tadeusz Wi\u015bniowski",
                "operator:type": "private",
                "amenity": "school"
            }
        },
        {
            "id": 266961,
            "type": "Feature",
            "geometry": {
                "type": "Point",
                "coordinates": [
                    20.5692211,
                    49.6727654
                ]
            },
            "properties": {
                "ref:rspo": 266961,
                "official_name": "Punkt Przedszkolny \"Przydomowy\"",
                "name": "Punkt Przedszkolny \"Przydomowy\"",
                "addr:postcode": "33-394",
                "addr:place": "Krasne Potockie",
                "addr:housenumber": "156",
                "addr:city:simc": 420140,
                "phone": "+48 724488819",
                "email": "aga.wojcik@interia.eu",
                "ref:regon": "369764160",
                "operator": "Agnieszka W\u00f3jcik",
                "operator:type": "private",
                "amenity": "kindergarten"
            }
        },
        {
            "id": 7689,
            "type": "Feature",
            "geometry": {
                "type": "Point",
                "coordinates": [
                    20.5690826,
                    49.673193
                ]
            },
            "properties": {
                "isced:level": "1;2",
                "ref:rspo": 7689,
                "official_name": "Szko\u0142a Podstawowa w Krasnem Potockiem",
                "name": "Szko\u0142a Podstawowa w Krasnem Potockiem",
                "addr:postcode": "33-394",
                "addr:place": "Krasne Potockie",
                "addr:housenumber": "118",
                "addr:city:simc": 420140,
                "phone": "+48 185480420",
                "email": "spkrasnepotockie@op.pl",
                "website": "http:\/\/www.spkrasnepotockie.chelmiec.pl",
                "ref:regon": "490670181",
                "ref:vatin": "PL7342754881",
                "operator": "Gmina Che\u0142miec",
                "operator:type": "government",
                "amenity": "school"
            }
        },
        {
            "id": 7031,
            "type": "Feature",
            "geometry": {
                "type": "Point",
                "coordinates": [
                    20.60803,
                    49.67415
                ]
            },
            "properties": {
                "isced:level": "1;2",
                "ref:rspo": 7031,
                "official_name": "Szko\u0142a Podstawowa im. \u015aw. Jana Paw\u0142a II w Chomranicach",
                "name": "Szko\u0142a Podstawowa",
                "addr:postcode": "33-394",
                "addr:place": "Chomranice",
                "addr:housenumber": "12",
                "addr:city:simc": 419940,
                "phone": "+48 185480390",
                "email": "zschomranice@chelmiec.pl",
                "website": "http:\/\/www.zschomranice.chelmiec.pl",
                "ref:regon": "490670146",
                "ref:vatin": "PL7342980809",
                "operator": "Gmina Che\u0142miec",
                "operator:type": "government",
                "amenity": "school"
            }
        },
        {
            "id": 124377,
            "type": "Feature",
            "geometry": {
                "type": "Point",
                "coordinates": [
                    20.69464,
                    49.67429
                ]
            },
            "properties": {
                "ref:rspo": 124377,
                "official_name": "Niepubliczne Przedszkole Dzieci\u0105tka Jezus",
                "name": "Niepubliczne Przedszkole Dzieci\u0105tka Jezus",
                "addr:postcode": "33-311",
                "addr:place": "Wielog\u0142owy",
                "addr:housenumber": "270 A",
                "addr:city:simc": 421345,
                "phone": "+48 694418732",
                "email": "karmelwiel@gmail.com",
                "ref:regon": "123196752",
                "operator": "Zgromadzenie Si\u00f3str Karmelitanek Dzieci\u0105tka Jezus  Prowincja Krakowska",
                "operator:type": "religious",
                "amenity": "kindergarten"
            }
        },
        {
            "id": 14867,
            "type": "Feature",
            "geometry": {
                "type": "Point",
                "coordinates": [
                    20.6802549,
                    49.6820775
                ]
            },
            "properties": {
                "ref:rspo": 14867,
                "official_name": "Niepubliczne Przedszkole \"T\u0119cza\"",
                "name": "Niepubliczne Przedszkole \"T\u0119cza\"",
                "addr:postcode": "33-311",
                "addr:place": "D\u0105browa",
                "addr:housenumber": "109",
                "addr:city:simc": 419986,
                "phone": "+48 182620818",
                "email": "teczab@onet.pl",
                "ref:regon": "122660816",
                "ref:vatin": "PL7343239164",
                "operator": "Agnieszka Bugajska",
                "operator:type": "private",
                "amenity": "kindergarten"
            }
        }
    ]
}