{
    "type": "FeatureCollection",
    "features": [
        {
            "id": 23233,
            "type": "Feature",
            "geometry": {
                "type": "Point",
                "coordinates": [
                    20.90942,
                    49.33292
                ]
            },
            "properties": {
                "isced:level": "1;2",
                "ref:rspo": 23233,
                "official_name": "Szko\u0142a Podstawowa Nr 2 im. Jana Paw\u0142a II w Muszynie",
                "name": "Szko\u0142a Podstawowa Nr 2",
                "addr:postcode": "33-370",
                "addr:city": "Muszyna",
                "addr:street": "Tadeusza Ko\u015bciuszki",
                "addr:housenumber": "54",
                "addr:city:simc": 961283,
                "addr:street:sym_ul": 9572,
                "phone": "+48 184714001",
                "email": "sp2muszyna@op.pl",
                "ref:regon": "122676504",
                "ref:vatin": "PL7343500674",
                "operator": "Stowarzyszenie Na Rzecz Edukacji I Rozwoju Doliny Popradu",
                "operator:type": "ngo",
                "amenity": "school"
            }
        },
        {
            "id": 23231,
            "type": "Feature",
            "geometry": {
                "type": "Point",
                "coordinates": [
                    20.82404,
                    49.34222
                ]
            },
            "properties": {
                "isced:level": "1;2",
                "ref:rspo": 23231,
                "official_name": "Szko\u0142a Podstawowa w Andrzej\u00f3wce",
                "name": "Szko\u0142a Podstawowa w Andrzej\u00f3wce",
                "addr:postcode": "33-370",
                "addr:place": "Andrzej\u00f3wka",
                "addr:housenumber": "13",
                "addr:city:simc": 454741,
                "phone": "+48 184714520",
                "email": "tmurzynek@interia.pl",
                "ref:regon": "122676480",
                "ref:vatin": "PL7341650004",
                "operator": "Teresa Jurzynek",
                "operator:type": "private",
                "amenity": "school"
            }
        },
        {
            "id": 126419,
            "type": "Feature",
            "geometry": {
                "type": "Point",
                "coordinates": [
                    20.89232,
                    49.34543
                ]
            },
            "properties": {
                "ref:rspo": 126419,
                "official_name": "Niepubliczne J\u0119zykowe Przedszkole \"Pszcz\u00f3\u0142ka Maja\"",
                "name": "Niepubliczne J\u0119zykowe Przedszkole \"Pszcz\u00f3\u0142ka Maja\"",
                "addr:postcode": "33-370",
                "addr:city": "Muszyna",
                "addr:street": "J\u00f3zefa Pi\u0142sudskiego",
                "addr:housenumber": "119",
                "addr:city:simc": 961283,
                "addr:street:sym_ul": 16252,
                "email": "przedszkole.maja@op.pl",
                "ref:regon": "360295054",
                "ref:vatin": "PL7352384078",
                "operator": "Bo\u017cena Szwala",
                "operator:type": "private",
                "amenity": "kindergarten"
            }
        },
        {
            "id": 38512,
            "type": "Feature",
            "geometry": {
                "type": "Point",
                "coordinates": [
                    20.89469,
                    49.35006
                ]
            },
            "properties": {
                "ref:rspo": 38512,
                "official_name": "Przedszkole w Muszynie",
                "name": "Przedszkole w Muszynie",
                "addr:postcode": "33-370",
                "addr:city": "Muszyna",
                "addr:street": "J\u00f3zefa Pi\u0142sudskiego",
                "addr:housenumber": "89",
                "addr:city:simc": 961283,
                "addr:street:sym_ul": 16252,
                "phone": "+48 184714553",
                "ref:regon": "492891147",
                "ref:vatin": "PL7341704177",
                "operator": "Miasto I Gmina Uzdrowiskowa Muszyna",
                "operator:type": "government",
                "amenity": "kindergarten",
                "note": "Parent RSPO: 23225"
            }
        },
        {
            "id": 262648,
            "type": "Feature",
            "geometry": {
                "type": "Point",
                "coordinates": [
                    20.89443,
                    49.35104
                ]
            },
            "properties": {
                "ref:rspo": 262648,
                "official_name": "Niepubliczne Przedszkole J\u0119zykowo-Artystyczne Bajka",
                "name": "Niepubliczne Przedszkole J\u0119zykowo-Artystyczne Bajka",
                "addr:postcode": "33-370",
                "addr:city": "Muszyna",
                "addr:street": "J\u00f3zefa Pi\u0142sudskiego",
                "addr:housenumber": "75",
                "addr:city:simc": 961283,
                "addr:street:sym_ul": 16252,
                "email": "przedszkolebajka@onet.pl",
                "website": "http:\/\/www.bajka-online.pl",
                "ref:regon": "368049024",
                "operator": "Fundacja Rodzice Dzieciom",
                "operator:type": "ngo",
                "amenity": "kindergarten"
            }
        },
        {
            "id": 23225,
            "type": "Feature",
            "geometry": {
                "type": "Point",
                "coordinates": [
                    20.89736,
                    49.35626
                ]
            },
            "properties": {
                "ref:rspo": 23225,
                "official_name": "Zesp\u00f3\u0142 Szkolno-Przedszkolny w Muszynie",
                "name": "Zesp\u00f3\u0142 Szkolno-Przedszkolny w Muszynie",
                "addr:postcode": "33-370",
                "addr:city": "Muszyna",
                "addr:street": "Rynek",
                "addr:housenumber": "13",
                "addr:city:simc": 961283,
                "addr:street:sym_ul": 19253,
                "phone": "+48 184714058",
                "email": "sekretariat_zso_muszyna@poczta.onet.pl",
                "ref:regon": "004423737",
                "ref:vatin": "PL7341704177",
                "operator": "Miasto I Gmina Uzdrowiskowa Muszyna",
                "operator:type": "government",
                "landuse": "education",
                "fixme": "amenity=school, amenity=college albo landuse=education w zale\u017cno\u015bci od tego, jakie plac\u00f3wki wchodz\u0105 w sk\u0142ad zespo\u0142u. Sprawd\u017a, kiedy stosowa\u0107 amenity=* a kiedy landuse=education.",
                "note": "Children RSPO: 38512;38513"
            }
        },
        {
            "id": 118472,
            "type": "Feature",
            "geometry": {
                "type": "Point",
                "coordinates": [
                    20.89736,
                    49.35623
                ]
            },
            "properties": {
                "ref:rspo": 118472,
                "official_name": "Powiatowy Zesp\u00f3\u0142 Szk\u00f3\u0142 w Muszynie",
                "name": "Powiatowy Zesp\u00f3\u0142 Szk\u00f3\u0142 w Muszynie",
                "addr:postcode": "33-370",
                "addr:city": "Muszyna",
                "addr:street": "Rynek",
                "addr:housenumber": "13",
                "addr:city:simc": 961283,
                "addr:street:sym_ul": 19253,
                "phone": "+48 184719180",
                "email": "sekretariatlomuszyna@poczta.onet.pl",
                "website": "http:\/\/www.szkola.muszyna.pl",
                "ref:regon": "122913269",
                "operator": "Powiat Nowos\u0105decki",
                "operator:type": "government",
                "landuse": "education",
                "fixme": "amenity=school, amenity=college albo landuse=education w zale\u017cno\u015bci od tego, jakie plac\u00f3wki wchodz\u0105 w sk\u0142ad zespo\u0142u. Sprawd\u017a, kiedy stosowa\u0107 amenity=* a kiedy landuse=education.",
                "note": "Children RSPO: 16011;18168;49218"
            }
        },
        {
            "id": 38513,
            "type": "Feature",
            "geometry": {
                "type": "Point",
                "coordinates": [
                    20.89736,
                    49.3562
                ]
            },
            "properties": {
                "isced:level": "1;2",
                "ref:rspo": 38513,
                "official_name": "Szko\u0142a Podstawowa Nr 1 im. Kurier\u00f3w S\u0105deckich w Muszynie",
                "name": "Szko\u0142a Podstawowa Nr 1",
                "addr:postcode": "33-370",
                "addr:city": "Muszyna",
                "addr:street": "Rynek",
                "addr:housenumber": "13",
                "addr:city:simc": 961283,
                "addr:street:sym_ul": 19253,
                "phone": "+48 184714058",
                "email": "sekretariat_zso_muszyna@poczta.onet.pl",
                "ref:regon": "492907492",
                "ref:vatin": "PL7341704177",
                "operator": "Miasto I Gmina Uzdrowiskowa Muszyna",
                "operator:type": "government",
                "amenity": "school",
                "note": "Parent RSPO: 23225"
            }
        },
        {
            "id": 16011,
            "type": "Feature",
            "geometry": {
                "type": "Point",
                "coordinates": [
                    20.89736,
                    49.35617
                ]
            },
            "properties": {
                "ref:rspo": 16011,
                "official_name": "Ognisko Pracy Pozaszkolnej w Muszynie",
                "name": "Ognisko Pracy Pozaszkolnej w Muszynie",
                "addr:postcode": "33-370",
                "addr:city": "Muszyna",
                "addr:street": "Rynek",
                "addr:housenumber": "13",
                "addr:city:simc": 961283,
                "addr:street:sym_ul": 19253,
                "phone": "+48 184777940",
                "email": "oppmuszyna@poczta.onet.pl",
                "ref:regon": "492027503",
                "ref:vatin": "PL7343521305",
                "operator": "Powiat Nowos\u0105decki",
                "operator:type": "government",
                "amenity": "community_centre",
                "community_centre:for": "child;juvenile",
                "note": "Parent RSPO: 118472"
            }
        },
        {
            "id": 18168,
            "type": "Feature",
            "geometry": {
                "type": "Point",
                "coordinates": [
                    20.89736,
                    49.356139999999996
                ]
            },
            "properties": {
                "isced:level": "3",
                "ref:rspo": 18168,
                "official_name": "Liceum Og\u00f3lnokszta\u0142c\u0105ce im. Jana Kochanowskiego w Muszynie",
                "name": "Liceum Og\u00f3lnokszta\u0142c\u0105ce",
                "addr:postcode": "33-370",
                "addr:city": "Muszyna",
                "addr:street": "Rynek",
                "addr:housenumber": "13",
                "addr:city:simc": 961283,
                "addr:street:sym_ul": 19253,
                "phone": "+48 184719180",
                "email": "sekretariatlomuszyna@poczta.onet.pl",
                "ref:regon": "492907530",
                "ref:vatin": "PL7343521305",
                "operator": "Powiat Nowos\u0105decki",
                "operator:type": "government",
                "amenity": "school",
                "note": "Parent RSPO: 118472"
            }
        },
        {
            "id": 49218,
            "type": "Feature",
            "geometry": {
                "type": "Point",
                "coordinates": [
                    20.89736,
                    49.35611
                ]
            },
            "properties": {
                "isced:level": "3",
                "ref:rspo": 49218,
                "official_name": "Technikum w Muszynie",
                "name": "Technikum w Muszynie",
                "addr:postcode": "33-370",
                "addr:city": "Muszyna",
                "addr:street": "Rynek",
                "addr:housenumber": "13",
                "addr:city:simc": 961283,
                "addr:street:sym_ul": 19253,
                "phone": "+48 184719180",
                "email": "sekretariatlomuszyna@poczta.onet.pl",
                "ref:regon": "492930433",
                "ref:vatin": "PL7343521305",
                "operator": "Powiat Nowos\u0105decki",
                "operator:type": "government",
                "amenity": "school",
                "note": "Parent RSPO: 118472"
            }
        },
        {
            "id": 23232,
            "type": "Feature",
            "geometry": {
                "type": "Point",
                "coordinates": [
                    20.85381,
                    49.35741
                ]
            },
            "properties": {
                "isced:level": "1;2",
                "ref:rspo": 23232,
                "official_name": "Szko\u0142a Podstawowa w Miliku",
                "name": "Szko\u0142a Podstawowa w Miliku",
                "addr:postcode": "33-370",
                "addr:place": "Milik",
                "addr:housenumber": "28",
                "addr:city:simc": 454818,
                "phone": "+48 184714040",
                "email": "rtadra@poczta.onet.pl",
                "ref:regon": "122675605",
                "ref:vatin": "PL8661255528",
                "operator": "Renata Tadra-Dzidzik",
                "operator:type": "private",
                "amenity": "school"
            }
        },
        {
            "id": 23234,
            "type": "Feature",
            "geometry": {
                "type": "Point",
                "coordinates": [
                    20.85381,
                    49.35738
                ]
            },
            "properties": {
                "ref:rspo": 23234,
                "official_name": "Niepubliczne Przedszkole w Miliku",
                "name": "Niepubliczne Przedszkole w Miliku",
                "addr:postcode": "33-370",
                "addr:place": "Milik",
                "addr:housenumber": "28",
                "addr:city:simc": 454818,
                "phone": "+48 184714040",
                "email": "rtadra@poczta.onet.pl",
                "ref:regon": "122676349",
                "ref:vatin": "PL8661255528",
                "operator": "Renata Tadra-Dzidzik",
                "operator:type": "private",
                "amenity": "kindergarten"
            }
        },
        {
            "id": 38519,
            "type": "Feature",
            "geometry": {
                "type": "Point",
                "coordinates": [
                    20.94752,
                    49.37009
                ]
            },
            "properties": {
                "ref:rspo": 38519,
                "official_name": "Przedszkole w Powro\u017aniku",
                "name": "Przedszkole w Powro\u017aniku",
                "addr:postcode": "33-370",
                "addr:place": "Powro\u017anik",
                "addr:housenumber": "38",
                "addr:city:simc": 454853,
                "phone": "+48 185349293",
                "email": "zsp_powr@poczta.onet.pl",
                "website": "http:\/\/www.szkolapowroznik",
                "ref:regon": "492830878",
                "ref:vatin": "PL7342372702",
                "operator": "Miasto I Gmina Uzdrowiskowa Muszyna",
                "operator:type": "government",
                "amenity": "kindergarten",
                "note": "Parent RSPO: 23227"
            }
        },
        {
            "id": 23227,
            "type": "Feature",
            "geometry": {
                "type": "Point",
                "coordinates": [
                    20.94539,
                    49.37111
                ]
            },
            "properties": {
                "ref:rspo": 23227,
                "official_name": "Zesp\u00f3\u0142 Szkolno-Przedszkolny w Powro\u017aniku",
                "name": "Zesp\u00f3\u0142 Szkolno-Przedszkolny w Powro\u017aniku",
                "addr:postcode": "33-370",
                "addr:place": "Powro\u017anik",
                "addr:housenumber": "42",
                "addr:city:simc": 454853,
                "phone": "+48 185349193",
                "email": "zsp_powr@poczta.onet.pl",
                "ref:regon": "492725236",
                "ref:vatin": "PL7342372702",
                "operator": "Miasto I Gmina Uzdrowiskowa Muszyna",
                "operator:type": "government",
                "landuse": "education",
                "fixme": "amenity=school, amenity=college albo landuse=education w zale\u017cno\u015bci od tego, jakie plac\u00f3wki wchodz\u0105 w sk\u0142ad zespo\u0142u. Sprawd\u017a, kiedy stosowa\u0107 amenity=* a kiedy landuse=education.",
                "note": "Children RSPO: 38519;38520"
            }
        },
        {
            "id": 38520,
            "type": "Feature",
            "geometry": {
                "type": "Point",
                "coordinates": [
                    20.94539,
                    49.37108
                ]
            },
            "properties": {
                "isced:level": "1;2",
                "ref:rspo": 38520,
                "official_name": "Szko\u0142a Podstawowa w Powro\u017aniku",
                "name": "Szko\u0142a Podstawowa w Powro\u017aniku",
                "addr:postcode": "33-370",
                "addr:place": "Powro\u017anik",
                "addr:housenumber": "42",
                "addr:city:simc": 454853,
                "phone": "+48 185349193",
                "email": "zsp_powr@poczta.onet.pl",
                "ref:regon": "490674345",
                "ref:vatin": "PL7342372702",
                "operator": "Miasto I Gmina Uzdrowiskowa Muszyna",
                "operator:type": "government",
                "amenity": "school",
                "note": "Parent RSPO: 23227"
            }
        },
        {
            "id": 23226,
            "type": "Feature",
            "geometry": {
                "type": "Point",
                "coordinates": [
                    20.87948,
                    49.37372
                ]
            },
            "properties": {
                "ref:rspo": 23226,
                "official_name": "Zesp\u00f3\u0142 Szkolno-Przedszkolny w Z\u0142ockiem",
                "name": "Zesp\u00f3\u0142 Szkolno-Przedszkolny w Z\u0142ockiem",
                "addr:postcode": "33-370",
                "addr:place": "Z\u0142ockie",
                "addr:housenumber": "69",
                "addr:city:simc": 454899,
                "phone": "+48 184714210",
                "email": "zlockie_szkola@poczta.onet.pl",
                "ref:regon": "492725271",
                "ref:vatin": "PL7342372671",
                "operator": "Miasto I Gmina Uzdrowiskowa Muszyna",
                "operator:type": "government",
                "landuse": "education",
                "fixme": "amenity=school, amenity=college albo landuse=education w zale\u017cno\u015bci od tego, jakie plac\u00f3wki wchodz\u0105 w sk\u0142ad zespo\u0142u. Sprawd\u017a, kiedy stosowa\u0107 amenity=* a kiedy landuse=education.",
                "note": "Children RSPO: 38516;38517"
            }
        },
        {
            "id": 71262,
            "type": "Feature",
            "geometry": {
                "type": "Point",
                "coordinates": [
                    20.87948,
                    49.373689999999996
                ]
            },
            "properties": {
                "isced:level": "3",
                "ref:rspo": 71262,
                "official_name": "Rzemie\u015blnicza Bran\u017cowa Szko\u0142a I Stopnia w Z\u0142ockiem Cechu Rzemios\u0142 R\u00f3\u017cnych I Przedsi\u0119biorczo\u015bci w Nowym S\u0105czu",
                "name": "Rzemie\u015blnicza Bran\u017cowa Szko\u0142a I Stopnia w Z\u0142ockiem Cechu Rzemios\u0142 R\u00f3\u017cnych I Przedsi\u0119biorczo\u015bci w Nowym S\u0105czu",
                "addr:postcode": "33-370",
                "addr:place": "Z\u0142ockie",
                "addr:housenumber": "69",
                "addr:city:simc": 454899,
                "phone": "+48 184714210",
                "email": "zlockie_szkola@poczta.onet.pl",
                "ref:regon": "122703744",
                "ref:vatin": "PL7340006933",
                "operator": "Cech Rzemios\u0142 R\u00f3\u017cnych I Przedsi\u0119biorczo\u015bci W Nowym S\u0105czu",
                "operator:type": "cooperative",
                "amenity": "school"
            }
        },
        {
            "id": 273110,
            "type": "Feature",
            "geometry": {
                "type": "Point",
                "coordinates": [
                    20.87948,
                    49.37366
                ]
            },
            "properties": {
                "ref:rspo": 273110,
                "official_name": "Niepubliczna Plac\u00f3wka O\u015bwiatowo-Wychowawcza \"Akademia Efektywnej Edukacji\"",
                "name": "Niepubliczna Plac\u00f3wka O\u015bwiatowo-Wychowawcza \"Akademia Efektywnej Edukacji\"",
                "addr:postcode": "33-370",
                "addr:place": "Z\u0142ockie",
                "addr:housenumber": "69",
                "addr:city:simc": 454899,
                "phone": "+48 608341318",
                "email": "edukacja@f-rr.org",
                "ref:regon": "384378583",
                "operator": "Fundacja Rozwoju Region\u00f3w",
                "operator:type": "ngo",
                "fixme": "w zale\u017cno\u015bci od przedmiotu dzia\u0142alno\u015bci (np. amenity=training + training=*, amenity=dancing_school, amenity=language_school, amenity=music_school)"
            }
        },
        {
            "id": 273112,
            "type": "Feature",
            "geometry": {
                "type": "Point",
                "coordinates": [
                    20.87948,
                    49.37363
                ]
            },
            "properties": {
                "ref:rspo": 273112,
                "official_name": "Niepubliczna Plac\u00f3wka Kszta\u0142cenia Ustawicznego \"Akademia Kreowania Przysz\u0142o\u015bci\"",
                "name": "Niepubliczna Plac\u00f3wka Kszta\u0142cenia Ustawicznego \"Akademia Kreowania Przysz\u0142o\u015bci\"",
                "addr:postcode": "33-370",
                "addr:place": "Z\u0142ockie",
                "addr:housenumber": "69",
                "addr:city:simc": 454899,
                "phone": "+48 608341318",
                "email": "edukacja@f-rr.org",
                "ref:regon": "384378590",
                "operator": "Fundacja Rozwoju Region\u00f3w",
                "operator:type": "ngo",
                "fixme": "w zale\u017cno\u015bci od przedmiotu dzia\u0142alno\u015bci (np. amenity=training + training=*, amenity=dancing_school, amenity=language_school, amenity=music_school)"
            }
        },
        {
            "id": 38517,
            "type": "Feature",
            "geometry": {
                "type": "Point",
                "coordinates": [
                    20.87948,
                    49.373599999999996
                ]
            },
            "properties": {
                "isced:level": "1;2",
                "ref:rspo": 38517,
                "official_name": "Szko\u0142a Podstawowa w Z\u0142ockiem",
                "name": "Szko\u0142a Podstawowa w Z\u0142ockiem",
                "addr:postcode": "33-370",
                "addr:place": "Z\u0142ockie",
                "addr:housenumber": "69",
                "addr:city:simc": 454899,
                "phone": "+48 184714210",
                "email": "zlockie_szkola@poczta.onet.pl",
                "ref:regon": "490674322",
                "ref:vatin": "PL7342372671",
                "operator": "Miasto I Gmina Uzdrowiskowa Muszyna",
                "operator:type": "government",
                "amenity": "school",
                "note": "Parent RSPO: 23226"
            }
        },
        {
            "id": 128095,
            "type": "Feature",
            "geometry": {
                "type": "Point",
                "coordinates": [
                    20.79613,
                    49.37721
                ]
            },
            "properties": {
                "ref:rspo": 128095,
                "official_name": "Przedszkole w \u017begiestowie",
                "name": "Przedszkole w \u017begiestowie",
                "addr:postcode": "33-370",
                "addr:place": "\u017begiest\u00f3w",
                "addr:housenumber": "77A",
                "addr:city:simc": 454913,
                "phone": "+48 184717281",
                "email": "spzegiestow@gmail.com",
                "ref:regon": "362087940",
                "operator": "Lidia \u0141ukasik",
                "operator:type": "private",
                "amenity": "kindergarten"
            }
        },
        {
            "id": 128096,
            "type": "Feature",
            "geometry": {
                "type": "Point",
                "coordinates": [
                    20.79613,
                    49.377179999999996
                ]
            },
            "properties": {
                "isced:level": "1;2",
                "ref:rspo": 128096,
                "official_name": "Szko\u0142a Podstawowa w \u017begiestowie",
                "name": "Szko\u0142a Podstawowa w \u017begiestowie",
                "addr:postcode": "33-370",
                "addr:place": "\u017begiest\u00f3w",
                "addr:housenumber": "77A",
                "addr:city:simc": 454913,
                "phone": "+48 184717281",
                "email": "spzegiestow@gmail.com",
                "ref:regon": "362088075",
                "operator": "Lidia \u0141ukasik",
                "operator:type": "private",
                "amenity": "school"
            }
        },
        {
            "id": 38516,
            "type": "Feature",
            "geometry": {
                "type": "Point",
                "coordinates": [
                    20.86604,
                    49.38267
                ]
            },
            "properties": {
                "ref:rspo": 38516,
                "official_name": "Przedszkole w Szczawniku",
                "name": "Przedszkole w Szczawniku",
                "addr:postcode": "33-370",
                "addr:place": "Szczawnik",
                "addr:housenumber": "18",
                "addr:city:simc": 454876,
                "phone": "+48 184714320",
                "ref:regon": "492730355",
                "ref:vatin": "PL7342372671",
                "operator": "Miasto I Gmina Uzdrowiskowa Muszyna",
                "operator:type": "government",
                "amenity": "kindergarten",
                "note": "Parent RSPO: 23226"
            }
        },
        {
            "id": 23229,
            "type": "Feature",
            "geometry": {
                "type": "Point",
                "coordinates": [
                    20.91207,
                    49.38787
                ]
            },
            "properties": {
                "isced:level": "1;2",
                "ref:rspo": 23229,
                "official_name": "Szko\u0142a Podstawowa w Jastrz\u0119biku",
                "name": "Szko\u0142a Podstawowa w Jastrz\u0119biku",
                "addr:postcode": "33-370",
                "addr:place": "Jastrz\u0119bik",
                "addr:housenumber": "25",
                "addr:city:simc": 454793,
                "phone": "+48 184714041",
                "email": "ulalesnik@o2.pl",
                "ref:regon": "122676438",
                "ref:vatin": "PL7341637966",
                "operator": "Urszula Le\u015bnik",
                "operator:type": "private",
                "amenity": "school"
            }
        }
    ]
}