{
    "type": "FeatureCollection",
    "features": [
        {
            "id": 127647,
            "type": "Feature",
            "geometry": {
                "type": "Point",
                "coordinates": [
                    21.07167,
                    49.38205
                ]
            },
            "properties": {
                "ref:rspo": 127647,
                "official_name": "Zesp\u00f3\u0142 Szkolno-Przedszkolny w Muszynce",
                "name": "Zesp\u00f3\u0142 Szkolno-Przedszkolny w Muszynce",
                "addr:postcode": "33-383",
                "addr:place": "Muszynka",
                "addr:housenumber": "16",
                "addr:city:simc": 437240,
                "phone": "+48 184711361",
                "email": "malaszkolawmuszynce@wp.pl",
                "ref:regon": "361804760",
                "ref:vatin": "PL7361217380",
                "operator": "Renata Bodziony",
                "operator:type": "private",
                "landuse": "education",
                "fixme": "amenity=school, amenity=college albo landuse=education w zale\u017cno\u015bci od tego, jakie plac\u00f3wki wchodz\u0105 w sk\u0142ad zespo\u0142u. Sprawd\u017a, kiedy stosowa\u0107 amenity=* a kiedy landuse=education.",
                "note": "Children RSPO: 28522;28523"
            }
        },
        {
            "id": 28522,
            "type": "Feature",
            "geometry": {
                "type": "Point",
                "coordinates": [
                    21.07167,
                    49.38202
                ]
            },
            "properties": {
                "ref:rspo": 28522,
                "official_name": "Niepubliczne Przedszkole w Muszynce",
                "name": "Niepubliczne Przedszkole w Muszynce",
                "addr:postcode": "33-383",
                "addr:place": "Muszynka",
                "addr:housenumber": "16",
                "addr:city:simc": 437240,
                "phone": "+48 184711361",
                "email": "malaszkolawmuszynce@wp.pl",
                "ref:regon": "122683361",
                "operator": "Renata Bodziony",
                "operator:type": "private",
                "amenity": "kindergarten",
                "note": "Parent RSPO: 127647"
            }
        },
        {
            "id": 28523,
            "type": "Feature",
            "geometry": {
                "type": "Point",
                "coordinates": [
                    21.07167,
                    49.38199
                ]
            },
            "properties": {
                "isced:level": "1;2",
                "ref:rspo": 28523,
                "official_name": "Szko\u0142a Podstawowa w Muszynce",
                "name": "Szko\u0142a Podstawowa w Muszynce",
                "addr:postcode": "33-383",
                "addr:place": "Muszynka",
                "addr:housenumber": "16",
                "addr:city:simc": 437240,
                "phone": "+48 184711361",
                "email": "malaszkolawmuszynce@wp.pl",
                "ref:regon": "122683332",
                "operator": "Renata Bodziony",
                "operator:type": "private",
                "amenity": "school",
                "note": "Parent RSPO: 127647"
            }
        },
        {
            "id": 15191,
            "type": "Feature",
            "geometry": {
                "type": "Point",
                "coordinates": [
                    20.9563099,
                    49.39766
                ]
            },
            "properties": {
                "isced:level": "1;2",
                "ref:rspo": 15191,
                "official_name": "Szko\u0142a Podstawowa Nr 2 im. Polskich Olimpijczyk\u00f3w w Krynicy-Zdroju",
                "name": "Szko\u0142a Podstawowa Nr 2",
                "addr:postcode": "33-380",
                "addr:city": "Krynica-Zdr\u00f3j",
                "addr:street": "J\u00f3zefa Ignacego Kraszewskiego",
                "addr:housenumber": "158",
                "addr:city:simc": 960390,
                "addr:street:sym_ul": 9871,
                "phone": "+48 184715442",
                "email": "sp2krynicadyrektor@edukrynica.pl",
                "ref:regon": "492920191",
                "ref:vatin": "PL7343051868",
                "operator": "Gmina Krynica -Zdr\u00f3j",
                "operator:type": "government",
                "amenity": "school"
            }
        },
        {
            "id": 26546,
            "type": "Feature",
            "geometry": {
                "type": "Point",
                "coordinates": [
                    21.02419,
                    49.39816
                ]
            },
            "properties": {
                "ref:rspo": 26546,
                "official_name": "Niepubliczne Przedszkole Ss. Nmp Np Pw. \u015aw J\u00f3zefa w Tyliczu",
                "name": "Niepubliczne Przedszkole Ss. Nmp Np Pw. \u015aw J\u00f3zefa w Tyliczu",
                "addr:postcode": "33-383",
                "addr:city": "Tylicz",
                "addr:street": "Rynek",
                "addr:housenumber": "14A",
                "addr:city:simc": 437300,
                "addr:street:sym_ul": 19253,
                "phone": "+48 184711137",
                "email": "ochronka.tylicz@wp.pl",
                "ref:regon": "122680718",
                "operator": "Zgromadzenie Si\u00f3str S\u0142u\u017cebniczek Naj\u015bwi\u0119tszej Maryi Panny Niepokalanie Pocz\u0119tej Prowincja Tarnowska",
                "operator:type": "religious",
                "amenity": "kindergarten"
            }
        },
        {
            "id": 15190,
            "type": "Feature",
            "geometry": {
                "type": "Point",
                "coordinates": [
                    20.95444,
                    49.39865
                ]
            },
            "properties": {
                "ref:rspo": 15190,
                "official_name": "Gminne Przedszkole Nr 2 \"Mali Odkrywcy\" w Krynicy-Zdroju",
                "name": "Gminne Przedszkole Nr 2 \"Mali Odkrywcy\" w Krynicy-Zdroju",
                "addr:postcode": "33-380",
                "addr:city": "Krynica-Zdr\u00f3j",
                "addr:street": "W\u0142adys\u0142awa Reymonta",
                "addr:housenumber": "10",
                "addr:city:simc": 960390,
                "addr:street:sym_ul": 18648,
                "phone": "+48 184715634",
                "email": "gp2.krynica@edukrynica.pl",
                "ref:regon": "492920185",
                "ref:vatin": "PL7343051319",
                "operator": "Gmina Krynica -Zdr\u00f3j",
                "operator:type": "government",
                "amenity": "kindergarten"
            }
        },
        {
            "id": 15516,
            "type": "Feature",
            "geometry": {
                "type": "Point",
                "coordinates": [
                    21.0272,
                    49.40063
                ]
            },
            "properties": {
                "ref:rspo": 15516,
                "official_name": "Samorz\u0105dowe Centrum Edukacji Szkolnej w Tyliczu",
                "name": "Samorz\u0105dowe Centrum Edukacji Szkolnej w Tyliczu",
                "addr:postcode": "33-383",
                "addr:city": "Tylicz",
                "addr:street": "Kazimierza Wielkiego",
                "addr:housenumber": "9",
                "addr:city:simc": 437300,
                "addr:street:sym_ul": 8265,
                "phone": "+48 184711391",
                "email": "sptylicz@edukrynica.pl",
                "website": "http:\/\/www.scesz.tylicz.com.pl",
                "ref:regon": "492041377",
                "ref:vatin": "PL7342834060",
                "operator": "Gmina Krynica -Zdr\u00f3j",
                "operator:type": "government",
                "landuse": "education",
                "fixme": "amenity=school, amenity=college albo landuse=education w zale\u017cno\u015bci od tego, jakie plac\u00f3wki wchodz\u0105 w sk\u0142ad zespo\u0142u. Sprawd\u017a, kiedy stosowa\u0107 amenity=* a kiedy landuse=education.",
                "note": "Children RSPO: 24188;24189"
            }
        },
        {
            "id": 24188,
            "type": "Feature",
            "geometry": {
                "type": "Point",
                "coordinates": [
                    21.0272,
                    49.4006
                ]
            },
            "properties": {
                "ref:rspo": 24188,
                "official_name": "Gminne Przedszkole w Tyliczu",
                "name": "Gminne Przedszkole w Tyliczu",
                "addr:postcode": "33-383",
                "addr:city": "Tylicz",
                "addr:street": "Kazimierza Wielkiego",
                "addr:housenumber": "9",
                "addr:city:simc": 437300,
                "addr:street:sym_ul": 8265,
                "phone": "+48 184711383",
                "ref:regon": "492910241",
                "operator": "Gmina Krynica -Zdr\u00f3j",
                "operator:type": "government",
                "amenity": "kindergarten",
                "note": "Parent RSPO: 15516"
            }
        },
        {
            "id": 24189,
            "type": "Feature",
            "geometry": {
                "type": "Point",
                "coordinates": [
                    21.0272,
                    49.40057
                ]
            },
            "properties": {
                "isced:level": "1;2",
                "ref:rspo": 24189,
                "official_name": "Szko\u0142a Podstawowa im. Kazimierza Pu\u0142askiego w Tyliczu",
                "name": "Szko\u0142a Podstawowa",
                "addr:postcode": "33-383",
                "addr:city": "Tylicz",
                "addr:street": "Kazimierza Wielkiego",
                "addr:housenumber": "9",
                "addr:city:simc": 437300,
                "addr:street:sym_ul": 8265,
                "phone": "+48 184711391",
                "email": "sptylicz@edukrynica.pl",
                "ref:regon": "492910212",
                "operator": "Gmina Krynica -Zdr\u00f3j",
                "operator:type": "government",
                "amenity": "school",
                "note": "Parent RSPO: 15516"
            }
        },
        {
            "id": 26030,
            "type": "Feature",
            "geometry": {
                "type": "Point",
                "coordinates": [
                    20.95077,
                    49.40074
                ]
            },
            "properties": {
                "ref:rspo": 26030,
                "official_name": "Niepubliczne Przedszkole \"Przysta\u0144\" Z Oddzia\u0142ami Integracyjnymi w Krynicy-Zdroju",
                "name": "Niepubliczne Przedszkole \"Przysta\u0144\" Z Oddzia\u0142ami Integracyjnymi w Krynicy-Zdroju",
                "addr:postcode": "33-380",
                "addr:city": "Krynica-Zdr\u00f3j",
                "addr:street": "Czarny Potok",
                "addr:housenumber": "10",
                "addr:door": "1",
                "addr:city:simc": 960390,
                "addr:street:sym_ul": 3312,
                "phone": "+48 795541701",
                "email": "krprzystan@poczta.fm",
                "website": "http:\/\/przystan.krynica.com.pl",
                "ref:regon": "122679460",
                "operator": "Fundacja Krynicka Przysta\u0144",
                "operator:type": "ngo",
                "amenity": "kindergarten"
            }
        },
        {
            "id": 22844,
            "type": "Feature",
            "geometry": {
                "type": "Point",
                "coordinates": [
                    20.95487,
                    49.40328
                ]
            },
            "properties": {
                "ref:rspo": 22844,
                "official_name": "Zesp\u00f3\u0142 Szk\u00f3\u0142 Ponadpodstawowych im. Jana Paw\u0142a II w Krynicy Zdroju",
                "name": "Zesp\u00f3\u0142 Szk\u00f3\u0142 Ponadpodstawowych",
                "addr:postcode": "33-380",
                "addr:city": "Krynica-Zdr\u00f3j",
                "addr:street": "Nadbrze\u017cna",
                "addr:housenumber": "3",
                "addr:city:simc": 960390,
                "addr:street:sym_ul": 13861,
                "phone": "+48 184715443",
                "email": "sekretariat@krynica.szkola.pl",
                "website": "http:\/\/www.krynica.szkola.pl",
                "ref:regon": "000206983",
                "ref:vatin": "PL7342372688",
                "operator": "Powiat Nowos\u0105decki",
                "operator:type": "government",
                "landuse": "education",
                "fixme": "amenity=school, amenity=college albo landuse=education w zale\u017cno\u015bci od tego, jakie plac\u00f3wki wchodz\u0105 w sk\u0142ad zespo\u0142u. Sprawd\u017a, kiedy stosowa\u0107 amenity=* a kiedy landuse=education.",
                "note": "Children RSPO: 49847;49957;55485;60782;131716"
            }
        },
        {
            "id": 106697,
            "type": "Feature",
            "geometry": {
                "type": "Point",
                "coordinates": [
                    20.95487,
                    49.40325
                ]
            },
            "properties": {
                "ref:rspo": 106697,
                "official_name": "Powiatowa Poradnia Psychologiczno-Pedagogiczna w Nowym S\u0105czu Filia w Krynicy Zdroju",
                "name": "Powiatowa Poradnia Psychologiczno-Pedagogiczna w Nowym S\u0105czu Filia w Krynicy Zdroju",
                "addr:postcode": "33-380",
                "addr:city": "Krynica-Zdr\u00f3j",
                "addr:street": "Nadbrze\u017cna",
                "addr:housenumber": "3",
                "addr:city:simc": 960390,
                "addr:street:sym_ul": 13861,
                "phone": "+48 184715534",
                "email": "poradnia@krynica.net.pl",
                "ref:regon": "122580796",
                "operator": "Powiat Nowos\u0105decki",
                "operator:type": "government",
                "healthcare": "counselling",
                "counselling_type": "education",
                "fixme": "w zale\u017cno\u015bci od przedmiotu dzia\u0142alno\u015bci (np. healthcare=counselling + counselling_type=education albo healthcare=psychotherapist)",
                "note": "Parent RSPO: 15994"
            }
        },
        {
            "id": 49847,
            "type": "Feature",
            "geometry": {
                "type": "Point",
                "coordinates": [
                    20.95487,
                    49.403220000000005
                ]
            },
            "properties": {
                "isced:level": "3",
                "ref:rspo": 49847,
                "official_name": "Technikum w Krynicy Zdroju",
                "name": "Technikum w Krynicy Zdroju",
                "addr:postcode": "33-380",
                "addr:city": "Krynica-Zdr\u00f3j",
                "addr:street": "Nadbrze\u017cna",
                "addr:housenumber": "3",
                "addr:city:simc": 960390,
                "addr:street:sym_ul": 13861,
                "phone": "+48 184715443",
                "email": "sekretariat@krynica.szkola.pl",
                "website": "http:\/\/krynica.szkola.pl",
                "ref:regon": "120122210",
                "ref:vatin": "PL7342372688",
                "operator": "Powiat Nowos\u0105decki",
                "operator:type": "government",
                "amenity": "school",
                "note": "Parent RSPO: 22844"
            }
        },
        {
            "id": 49957,
            "type": "Feature",
            "geometry": {
                "type": "Point",
                "coordinates": [
                    20.95487,
                    49.40319
                ]
            },
            "properties": {
                "isced:level": "3",
                "ref:rspo": 49957,
                "official_name": "Liceum Og\u00f3lnokszta\u0142c\u0105ce w Krynicy Zdroju",
                "name": "Liceum Og\u00f3lnokszta\u0142c\u0105ce w Krynicy Zdroju",
                "addr:postcode": "33-380",
                "addr:city": "Krynica-Zdr\u00f3j",
                "addr:street": "Nadbrze\u017cna",
                "addr:housenumber": "3",
                "addr:city:simc": 960390,
                "addr:street:sym_ul": 13861,
                "phone": "+48 184715443",
                "email": "sekretariat@krynica.szkola.pl",
                "website": "http:\/\/krynica.szkola.pl",
                "ref:regon": "492914233",
                "ref:vatin": "PL7342372688",
                "operator": "Powiat Nowos\u0105decki",
                "operator:type": "government",
                "amenity": "school",
                "note": "Parent RSPO: 22844"
            }
        },
        {
            "id": 55485,
            "type": "Feature",
            "geometry": {
                "type": "Point",
                "coordinates": [
                    20.95487,
                    49.40316
                ]
            },
            "properties": {
                "isced:level": "3",
                "ref:rspo": 55485,
                "official_name": "Szko\u0142a Bran\u017cowa I Stopnia w Krynicy Zdroju",
                "name": "Szko\u0142a Bran\u017cowa I Stopnia w Krynicy Zdroju",
                "addr:postcode": "33-380",
                "addr:city": "Krynica-Zdr\u00f3j",
                "addr:street": "Nadbrze\u017cna",
                "addr:housenumber": "3",
                "addr:city:simc": 960390,
                "addr:street:sym_ul": 13861,
                "phone": "+48 184715443",
                "email": "sekretariat@krynica.szkola.pl",
                "website": "http:\/\/krynica.szkola.pl",
                "ref:regon": "492914196",
                "ref:vatin": "PL7342372688",
                "operator": "Powiat Nowos\u0105decki",
                "operator:type": "government",
                "amenity": "school",
                "note": "Parent RSPO: 22844"
            }
        },
        {
            "id": 60782,
            "type": "Feature",
            "geometry": {
                "type": "Point",
                "coordinates": [
                    20.95487,
                    49.403130000000004
                ]
            },
            "properties": {
                "isced:level": "3",
                "ref:rspo": 60782,
                "official_name": "Liceum Og\u00f3lnokszta\u0142c\u0105ce dla Doros\u0142ych w Krynicy Zdroju",
                "name": "Liceum Og\u00f3lnokszta\u0142c\u0105ce dla Doros\u0142ych w Krynicy Zdroju",
                "addr:postcode": "33-380",
                "addr:city": "Krynica-Zdr\u00f3j",
                "addr:street": "Nadbrze\u017cna",
                "addr:housenumber": "3",
                "addr:city:simc": 960390,
                "addr:street:sym_ul": 13861,
                "phone": "+48 184715443",
                "email": "sekretariat@krynica.szkola.pl",
                "website": "http:\/\/krynica.szkola.pl",
                "ref:regon": "122694011",
                "ref:vatin": "PL7342372688",
                "operator": "Powiat Nowos\u0105decki",
                "operator:type": "government",
                "amenity": "school",
                "note": "Parent RSPO: 22844"
            }
        },
        {
            "id": 131716,
            "type": "Feature",
            "geometry": {
                "type": "Point",
                "coordinates": [
                    20.95487,
                    49.4031
                ]
            },
            "properties": {
                "ref:rspo": 131716,
                "official_name": "Centrum Kszta\u0142cenia Ustawicznego w Krynicy Zdroju",
                "name": "Centrum Kszta\u0142cenia Ustawicznego w Krynicy Zdroju",
                "addr:postcode": "33-380",
                "addr:city": "Krynica-Zdr\u00f3j",
                "addr:street": "Nadbrze\u017cna",
                "addr:housenumber": "3",
                "addr:city:simc": 960390,
                "addr:street:sym_ul": 13861,
                "phone": "+48 184715443",
                "email": "sekretariat@krynica.szkola.pl",
                "website": "http:\/\/krynica.szkola.pl",
                "ref:regon": "365334818",
                "operator": "Powiat Nowos\u0105decki",
                "operator:type": "government",
                "fixme": "w zale\u017cno\u015bci od przedmiotu dzia\u0142alno\u015bci (np. amenity=training + training=*, amenity=dancing_school, amenity=language_school, amenity=music_school)",
                "note": "Parent RSPO: 22844"
            }
        },
        {
            "id": 118521,
            "type": "Feature",
            "geometry": {
                "type": "Point",
                "coordinates": [
                    20.9627899,
                    49.40447
                ]
            },
            "properties": {
                "ref:rspo": 118521,
                "official_name": "Niepubliczne Przedszkole Z Oddzia\u0142ami Integracyjnymi",
                "name": "Niepubliczne Przedszkole Z Oddzia\u0142ami Integracyjnymi",
                "addr:postcode": "33-380",
                "addr:city": "Krynica-Zdr\u00f3j",
                "addr:street": "\u0179r\u00f3dlana",
                "addr:housenumber": "59",
                "addr:city:simc": 960390,
                "addr:street:sym_ul": 26359,
                "phone": "+48 608898121",
                "email": "przedszkolekrynica@gmail.com",
                "ref:regon": "122915222",
                "operator": "Renata Bodziony",
                "operator:type": "private",
                "amenity": "kindergarten"
            }
        },
        {
            "id": 68711,
            "type": "Feature",
            "geometry": {
                "type": "Point",
                "coordinates": [
                    20.95371,
                    49.41687
                ]
            },
            "properties": {
                "isced:level": "3",
                "ref:rspo": 68711,
                "official_name": "Bran\u017cowa Szko\u0142a I Stopnia w Krynicy Zdroju Izby Rzemios\u0142a I Przedsi\u0119biorczo\u015bci w Nowym S\u0105czu",
                "name": "Bran\u017cowa Szko\u0142a I Stopnia w Krynicy Zdroju Izby Rzemios\u0142a I Przedsi\u0119biorczo\u015bci w Nowym S\u0105czu",
                "addr:postcode": "33-380",
                "addr:city": "Krynica-Zdr\u00f3j",
                "addr:street": "Szkolna",
                "addr:housenumber": "3",
                "addr:city:simc": 960390,
                "addr:street:sym_ul": 21970,
                "phone": "+48 695772477",
                "email": "zsziripkrynica@wp.pl",
                "website": "http:\/\/zszkrynica.com",
                "ref:regon": "122699103",
                "ref:vatin": "PL7341011221",
                "operator": "Izba Rzemios\u0142a I Przedsi\u0119biorczo\u015bci W Nowym S\u0105czu",
                "operator:type": "cooperative",
                "amenity": "school"
            }
        },
        {
            "id": 112040,
            "type": "Feature",
            "geometry": {
                "type": "Point",
                "coordinates": [
                    20.95646,
                    49.41911
                ]
            },
            "properties": {
                "ref:rspo": 112040,
                "official_name": "Pa\u0144stwowa Szko\u0142a Muzyczna I St. w Nowym S\u0105czu Filia w Krynicy-Zdr\u00f3j",
                "name": "Pa\u0144stwowa Szko\u0142a Muzyczna I St. w Nowym S\u0105czu Filia w Krynicy-Zdr\u00f3j",
                "addr:postcode": "33-380",
                "addr:city": "Krynica-Zdr\u00f3j",
                "addr:street": "Bulwary Dietla",
                "addr:housenumber": "15",
                "addr:city:simc": 960390,
                "addr:street:sym_ul": 2432,
                "phone": "+48 184712923",
                "ref:regon": "120027322",
                "operator": "Ministerstwo Kultury I Dziedzictwa Narodowego",
                "operator:type": "public",
                "amenity": "music_school",
                "note": "Parent RSPO: 103589"
            }
        },
        {
            "id": 26545,
            "type": "Feature",
            "geometry": {
                "type": "Point",
                "coordinates": [
                    20.95567,
                    49.4244
                ]
            },
            "properties": {
                "ref:rspo": 26545,
                "official_name": "Niepubliczne Przedszkole Ochronka Si\u00f3str S\u0142u\u017cebniczek Nmp Np w Krynicy-Zdroju",
                "name": "Niepubliczne Przedszkole Ochronka Si\u00f3str S\u0142u\u017cebniczek Nmp Np w Krynicy-Zdroju",
                "addr:postcode": "33-380",
                "addr:city": "Krynica-Zdr\u00f3j",
                "addr:street": "Jaros\u0142awa D\u0105browskiego",
                "addr:housenumber": "5",
                "addr:city:simc": 960390,
                "addr:street:sym_ul": 3687,
                "phone": "+48 508530558",
                "email": "o.przedszkole@wp.pl",
                "website": "http:\/\/www.przedszkole-krynica.pl",
                "ref:regon": "122680799",
                "operator": "Zgromadzenie Si\u00f3str S\u0142u\u017cebniczek Naj\u015bwi\u0119tszej Maryi Panny Niepokalanie Pocz\u0119tej Prowincja Tarnowska",
                "operator:type": "religious",
                "amenity": "kindergarten"
            }
        },
        {
            "id": 15192,
            "type": "Feature",
            "geometry": {
                "type": "Point",
                "coordinates": [
                    20.9545299,
                    49.42711
                ]
            },
            "properties": {
                "ref:rspo": 15192,
                "official_name": "Zesp\u00f3\u0142 Szkolno-Przedszkolny Nr 1 w Krynicy-Zdroju",
                "name": "Zesp\u00f3\u0142 Szkolno-Przedszkolny Nr 1 w Krynicy-Zdroju",
                "addr:postcode": "33-380",
                "addr:city": "Krynica-Zdr\u00f3j",
                "addr:street": "Marsza\u0142ka J\u00f3zefa Pi\u0142sudskiego",
                "addr:housenumber": "91",
                "addr:city:simc": 960390,
                "addr:street:sym_ul": 36029,
                "phone": "+48 184715538",
                "email": "zsp1krynica@edukrynica.pl",
                "ref:regon": "121398285",
                "ref:vatin": "PL7343472386",
                "operator": "Gmina Krynica -Zdr\u00f3j",
                "operator:type": "government",
                "landuse": "education",
                "fixme": "amenity=school, amenity=college albo landuse=education w zale\u017cno\u015bci od tego, jakie plac\u00f3wki wchodz\u0105 w sk\u0142ad zespo\u0142u. Sprawd\u017a, kiedy stosowa\u0107 amenity=* a kiedy landuse=education.",
                "note": "Children RSPO: 24186;24187"
            }
        },
        {
            "id": 24186,
            "type": "Feature",
            "geometry": {
                "type": "Point",
                "coordinates": [
                    20.9545299,
                    49.42708
                ]
            },
            "properties": {
                "ref:rspo": 24186,
                "official_name": "Gminne Przedszkole Nr 1 w Kryynicy-Zdroju",
                "name": "Gminne Przedszkole Nr 1 w Kryynicy-Zdroju",
                "addr:postcode": "33-380",
                "addr:city": "Krynica-Zdr\u00f3j",
                "addr:street": "Marsza\u0142ka J\u00f3zefa Pi\u0142sudskiego",
                "addr:housenumber": "91",
                "addr:city:simc": 960390,
                "addr:street:sym_ul": 36029,
                "phone": "+48 184715538",
                "ref:regon": "121387815",
                "operator": "Gmina Krynica -Zdr\u00f3j",
                "operator:type": "government",
                "amenity": "kindergarten",
                "note": "Parent RSPO: 15192"
            }
        },
        {
            "id": 24187,
            "type": "Feature",
            "geometry": {
                "type": "Point",
                "coordinates": [
                    20.9545299,
                    49.42705
                ]
            },
            "properties": {
                "isced:level": "1;2",
                "ref:rspo": 24187,
                "official_name": "Szko\u0142a Podstawowa Nr 1 im. Ratownik\u00f3w G\u00f3rskich w Krynicy-Zdroju",
                "name": "Szko\u0142a Podstawowa Nr 1",
                "addr:postcode": "33-380",
                "addr:city": "Krynica-Zdr\u00f3j",
                "addr:street": "Marsza\u0142ka J\u00f3zefa Pi\u0142sudskiego",
                "addr:housenumber": "91",
                "addr:city:simc": 960390,
                "addr:street:sym_ul": 36029,
                "phone": "+48 184715538",
                "email": "zsp1krynica@edukrynica.pl",
                "ref:regon": "490667055",
                "operator": "Gmina Krynica -Zdr\u00f3j",
                "operator:type": "government",
                "amenity": "school",
                "note": "Parent RSPO: 15192"
            }
        },
        {
            "id": 275397,
            "type": "Feature",
            "geometry": {
                "type": "Point",
                "coordinates": [
                    21.01469,
                    49.4323932
                ]
            },
            "properties": {
                "ref:rspo": 275397,
                "official_name": "Niepubliczne Przedszkole J\u0119zykowo-Artystyczne \"Mali Arty\u015bci\" w Mochnaczce Ni\u017cnej",
                "name": "Niepubliczne Przedszkole J\u0119zykowo-Artystyczne \"Mali Arty\u015bci\" w Mochnaczce Ni\u017cnej",
                "addr:postcode": "33-383",
                "addr:place": "Mochnaczka Ni\u017cna",
                "addr:housenumber": "44",
                "addr:city:simc": 437228,
                "email": "katarzyna89k@wp.pl",
                "ref:regon": "386914838",
                "operator": "Katarzyna Kuras",
                "operator:type": "private",
                "amenity": "kindergarten"
            }
        },
        {
            "id": 278113,
            "type": "Feature",
            "geometry": {
                "type": "Point",
                "coordinates": [
                    21.01469,
                    49.4323632
                ]
            },
            "properties": {
                "isced:level": "1;2",
                "ref:rspo": 278113,
                "official_name": "Szko\u0142a Podstawowa w Mochnaczce Ni\u017cnej",
                "name": "Szko\u0142a Podstawowa w Mochnaczce Ni\u017cnej",
                "addr:postcode": "33-383",
                "addr:place": "Mochnaczka Ni\u017cna",
                "addr:housenumber": "44",
                "addr:city:simc": 437228,
                "email": "szkola.nizna@gmail.com",
                "ref:regon": "389845233",
                "operator": "Katarzyna Kuras",
                "operator:type": "private",
                "amenity": "school"
            }
        },
        {
            "id": 26543,
            "type": "Feature",
            "geometry": {
                "type": "Point",
                "coordinates": [
                    20.98066,
                    49.45127
                ]
            },
            "properties": {
                "ref:rspo": 26543,
                "official_name": "Niepubliczne Przedszkole w Mochnaczce Wy\u017cnej",
                "name": "Niepubliczne Przedszkole w Mochnaczce Wy\u017cnej",
                "addr:postcode": "33-383",
                "addr:place": "Mochnaczka Wy\u017cna",
                "addr:housenumber": "103",
                "addr:city:simc": 437234,
                "phone": "+48 184711990",
                "email": "klementynabies@gmail.com",
                "website": "http:\/\/mochnaczka.com.pl",
                "ref:regon": "122680760",
                "operator": "Klementyna Bajorek-Bie\u015b",
                "operator:type": "private",
                "amenity": "kindergarten",
                "note": "Parent RSPO: 127624"
            }
        },
        {
            "id": 26544,
            "type": "Feature",
            "geometry": {
                "type": "Point",
                "coordinates": [
                    20.98066,
                    49.45124
                ]
            },
            "properties": {
                "isced:level": "1;2",
                "ref:rspo": 26544,
                "official_name": "Szko\u0142a Podstawowa w Mochnaczce Wy\u017cnej",
                "name": "Szko\u0142a Podstawowa w Mochnaczce Wy\u017cnej",
                "addr:postcode": "33-383",
                "addr:place": "Mochnaczka Wy\u017cna",
                "addr:housenumber": "103",
                "addr:city:simc": 437234,
                "phone": "+48 184711990",
                "email": "klementynabies@gmail.com",
                "website": "http:\/\/mochnaczka.com.pl",
                "ref:regon": "122680670",
                "operator": "Klementyna Bajorek-Bie\u015b",
                "operator:type": "private",
                "amenity": "school",
                "note": "Parent RSPO: 127624"
            }
        },
        {
            "id": 127624,
            "type": "Feature",
            "geometry": {
                "type": "Point",
                "coordinates": [
                    20.96167,
                    49.45151
                ]
            },
            "properties": {
                "ref:rspo": 127624,
                "official_name": "Zesp\u00f3\u0142 Szkolno-Przedszkolny w Mochnaczce Wy\u017cnej",
                "name": "Zesp\u00f3\u0142 Szkolno-Przedszkolny w Mochnaczce Wy\u017cnej",
                "addr:postcode": "33-383",
                "addr:place": "Mochnaczka Wy\u017cna",
                "addr:housenumber": "b\/n",
                "addr:city:simc": 437234,
                "phone": "+48 184711990",
                "email": "klementynabies@gmail.com",
                "website": "http:\/\/www.mochnaczka.com.pl",
                "ref:regon": "361778599",
                "ref:vatin": "PL7341238427",
                "operator": "Klementyna Bajorek-Bie\u015b",
                "operator:type": "private",
                "landuse": "education",
                "fixme": "amenity=school, amenity=college albo landuse=education w zale\u017cno\u015bci od tego, jakie plac\u00f3wki wchodz\u0105 w sk\u0142ad zespo\u0142u. Sprawd\u017a, kiedy stosowa\u0107 amenity=* a kiedy landuse=education.",
                "note": "Children RSPO: 26543;26544"
            }
        },
        {
            "id": 127991,
            "type": "Feature",
            "geometry": {
                "type": "Point",
                "coordinates": [
                    21.02052,
                    49.48119
                ]
            },
            "properties": {
                "ref:rspo": 127991,
                "official_name": "Zesp\u00f3\u0142 Szkolno-Przedszkolny w Czyrnej",
                "name": "Zesp\u00f3\u0142 Szkolno-Przedszkolny w Czyrnej",
                "addr:postcode": "33-380",
                "addr:place": "Czyrna",
                "addr:housenumber": "36",
                "addr:city:simc": 437205,
                "phone": "+48 184711723",
                "ref:regon": "362013203",
                "ref:vatin": "PL7343533159",
                "operator": "Stowarzyszenie Na Rzecz Rozwoju Wsi Czyrna Z Siedzib\u0105 W Czyrnej",
                "operator:type": "ngo",
                "landuse": "education",
                "fixme": "amenity=school, amenity=college albo landuse=education w zale\u017cno\u015bci od tego, jakie plac\u00f3wki wchodz\u0105 w sk\u0142ad zespo\u0142u. Sprawd\u017a, kiedy stosowa\u0107 amenity=* a kiedy landuse=education.",
                "note": "Children RSPO: 25322;25324"
            }
        },
        {
            "id": 25322,
            "type": "Feature",
            "geometry": {
                "type": "Point",
                "coordinates": [
                    21.02052,
                    49.481159999999996
                ]
            },
            "properties": {
                "isced:level": "1;2",
                "ref:rspo": 25322,
                "official_name": "Szko\u0142a Podstawowa w Czyrnej",
                "name": "Szko\u0142a Podstawowa w Czyrnej",
                "addr:postcode": "33-380",
                "addr:place": "Czyrna",
                "addr:housenumber": "36",
                "addr:city:simc": 437205,
                "phone": "+48 184711723",
                "ref:regon": "122678489",
                "operator": "Stowarzyszenie Na Rzecz Rozwoju Wsi Czyrna Z Siedzib\u0105 W Czyrnej",
                "operator:type": "ngo",
                "amenity": "school",
                "note": "Parent RSPO: 127991"
            }
        },
        {
            "id": 25324,
            "type": "Feature",
            "geometry": {
                "type": "Point",
                "coordinates": [
                    21.02052,
                    49.48113
                ]
            },
            "properties": {
                "ref:rspo": 25324,
                "official_name": "Niepubliczne Przedszkole w Czyrnej",
                "name": "Niepubliczne Przedszkole w Czyrnej",
                "addr:postcode": "33-380",
                "addr:place": "Czyrna",
                "addr:housenumber": "36",
                "addr:city:simc": 437205,
                "phone": "+48 184711723",
                "ref:regon": "122679253",
                "operator": "Stowarzyszenie Na Rzecz Rozwoju Wsi Czyrna Z Siedzib\u0105 W Czyrnej",
                "operator:type": "ngo",
                "amenity": "kindergarten",
                "note": "Parent RSPO: 127991"
            }
        },
        {
            "id": 262662,
            "type": "Feature",
            "geometry": {
                "type": "Point",
                "coordinates": [
                    20.99057,
                    49.48996
                ]
            },
            "properties": {
                "isced:level": "1;2",
                "ref:rspo": 262662,
                "official_name": "Szko\u0142a Podstawowa im. Zbigniewa Wodeckiego w Piorunce",
                "name": "Szko\u0142a Podstawowa",
                "addr:postcode": "33-380",
                "addr:place": "Piorunka",
                "addr:housenumber": "20",
                "addr:city:simc": 437257,
                "phone": "+48 184711777",
                "email": "sp.piorunka@edukrynica.pl",
                "website": "http:\/\/piorunka.edu.pl",
                "ref:regon": "368049768",
                "ref:vatin": "PL7343551714",
                "operator": "Gmina Krynica -Zdr\u00f3j",
                "operator:type": "government",
                "amenity": "school"
            }
        },
        {
            "id": 15514,
            "type": "Feature",
            "geometry": {
                "type": "Point",
                "coordinates": [
                    20.97439,
                    49.50179
                ]
            },
            "properties": {
                "ref:rspo": 15514,
                "official_name": "Samorz\u0105dowe Centrum Edukacji Szkolnej w Bere\u015bcie",
                "name": "Samorz\u0105dowe Centrum Edukacji Szkolnej w Bere\u015bcie",
                "addr:postcode": "33-380",
                "addr:place": "Berest",
                "addr:housenumber": "14",
                "addr:city:simc": 437168,
                "phone": "+48 184711793",
                "email": "spberest@edukrynica.pl",
                "ref:regon": "492041450",
                "ref:vatin": "PL7342818434",
                "operator": "Gmina Krynica -Zdr\u00f3j",
                "operator:type": "government",
                "landuse": "education",
                "fixme": "amenity=school, amenity=college albo landuse=education w zale\u017cno\u015bci od tego, jakie plac\u00f3wki wchodz\u0105 w sk\u0142ad zespo\u0142u. Sprawd\u017a, kiedy stosowa\u0107 amenity=* a kiedy landuse=education.",
                "note": "Children RSPO: 25144;25146"
            }
        },
        {
            "id": 25146,
            "type": "Feature",
            "geometry": {
                "type": "Point",
                "coordinates": [
                    20.97439,
                    49.50176
                ]
            },
            "properties": {
                "isced:level": "1;2",
                "ref:rspo": 25146,
                "official_name": "Szko\u0142a Podstawowa w Bere\u015bcie",
                "name": "Szko\u0142a Podstawowa w Bere\u015bcie",
                "addr:postcode": "33-380",
                "addr:place": "Berest",
                "addr:housenumber": "14",
                "addr:city:simc": 437168,
                "phone": "+48 184711793",
                "email": "spberest@edukrynica.pl",
                "ref:regon": "492909090",
                "operator": "Gmina Krynica -Zdr\u00f3j",
                "operator:type": "government",
                "amenity": "school",
                "note": "Parent RSPO: 15514"
            }
        },
        {
            "id": 25144,
            "type": "Feature",
            "geometry": {
                "type": "Point",
                "coordinates": [
                    20.97043,
                    49.50209
                ]
            },
            "properties": {
                "ref:rspo": 25144,
                "official_name": "Gminne Przedszkole Bere\u015bcia\u0144skie Smyki w Bere\u015bcie",
                "name": "Gminne Przedszkole Bere\u015bcia\u0144skie Smyki w Bere\u015bcie",
                "addr:postcode": "33-380",
                "addr:place": "Berest",
                "addr:housenumber": "26",
                "addr:city:simc": 437168,
                "phone": "+48 184711726",
                "email": "spberest@op.pl",
                "ref:regon": "492909054",
                "operator": "Gmina Krynica -Zdr\u00f3j",
                "operator:type": "government",
                "amenity": "kindergarten",
                "note": "Parent RSPO: 15514"
            }
        },
        {
            "id": 271038,
            "type": "Feature",
            "geometry": {
                "type": "Point",
                "coordinates": [
                    20.98716,
                    49.51945
                ]
            },
            "properties": {
                "isced:level": "1;2",
                "ref:rspo": 271038,
                "official_name": "Szko\u0142a Podstawowa w Polanach",
                "name": "Szko\u0142a Podstawowa w Polanach",
                "addr:postcode": "33-380",
                "addr:place": "Polany",
                "addr:housenumber": "1",
                "addr:city:simc": 437286,
                "phone": "+48 184711792",
                "email": "polanysp@edukrynica.pl",
                "website": "http:\/\/www.sppolany.pl",
                "ref:regon": "383059226",
                "ref:vatin": "PL7343574661",
                "operator": "Gmina Krynica -Zdr\u00f3j",
                "operator:type": "government",
                "amenity": "school"
            }
        }
    ]
}