{
    "type": "FeatureCollection",
    "features": [
        {
            "id": 68681,
            "type": "Feature",
            "geometry": {
                "type": "Point",
                "coordinates": [
                    20.9855899,
                    49.55331
                ]
            },
            "properties": {
                "ref:rspo": 68681,
                "official_name": "Przedszkole Niepubliczne Si\u00f3str \u015aw. J\u00f3zefa",
                "name": "Przedszkole Niepubliczne Si\u00f3str \u015aw. J\u00f3zefa",
                "addr:country": "PL",
                "addr:postcode": "33-332",
                "addr:place": "Florynka",
                "addr:housenumber": "70",
                "addr:teryt:sym_ul": 427187,
                "contact:phone": "+48 184471611",
                "contact:email": "przedszkoleflorynka@op.pl",
                "ref:regon": "122702510",
                "ref:vatin": "PL7342664764",
                "operator": "Zg.ss.\u015bwi\u0119tego J\u00f3zefa, Prowincja Tarnowska",
                "operator:type": "religious",
                "amenity": "kindergarten"
            }
        },
        {
            "id": 53329,
            "type": "Feature",
            "geometry": {
                "type": "Point",
                "coordinates": [
                    20.98513,
                    49.55575
                ]
            },
            "properties": {
                "isced:level": "1;2",
                "ref:rspo": 53329,
                "official_name": "Szko\u0142a Podstawowa im. Jana Paw\u0142a II we Florynce",
                "name": "Szko\u0142a Podstawowa",
                "addr:country": "PL",
                "addr:postcode": "33-332",
                "addr:place": "Florynka",
                "addr:housenumber": "64",
                "addr:teryt:sym_ul": 427187,
                "contact:phone": "+48 184471622",
                "contact:email": "zs.florynka@interia.pl",
                "contact:website": "http:\/\/www.spflorynka.pl",
                "ref:regon": "490671252",
                "operator": "Gmina Gryb\u00f3w",
                "operator:type": "government",
                "amenity": "school"
            }
        },
        {
            "id": 22442,
            "type": "Feature",
            "geometry": {
                "type": "Point",
                "coordinates": [
                    20.9439,
                    49.56292
                ]
            },
            "properties": {
                "isced:level": "1;2",
                "ref:rspo": 22442,
                "official_name": "Szko\u0142a Podstawowa im. Adama Mickiewicza w Binczarowej",
                "name": "Szko\u0142a Podstawowa",
                "addr:country": "PL",
                "addr:postcode": "33-332",
                "addr:place": "Binczarowa",
                "addr:housenumber": "26",
                "addr:teryt:sym_ul": 426822,
                "contact:phone": "+48 184471858",
                "contact:email": "sekretariat@binczarowa.szkolnastrona.pl",
                "ref:regon": "490671298",
                "ref:vatin": "PL7342786208",
                "operator": "Gmina Gryb\u00f3w",
                "operator:type": "government",
                "amenity": "school"
            }
        },
        {
            "id": 15876,
            "type": "Feature",
            "geometry": {
                "type": "Point",
                "coordinates": [
                    21.00619,
                    49.57162
                ]
            },
            "properties": {
                "isced:level": "1;2",
                "ref:rspo": 15876,
                "official_name": "Szko\u0142a Podstawowa w Wawrzce",
                "name": "Szko\u0142a Podstawowa w Wawrzce",
                "addr:country": "PL",
                "addr:postcode": "33-332",
                "addr:place": "Wawrzka",
                "addr:housenumber": "61",
                "addr:teryt:sym_ul": 428838,
                "contact:phone": "+48 184471667",
                "contact:email": "wawrzka1@interia.pl",
                "ref:regon": "490671393",
                "ref:vatin": "PL7342786220",
                "operator": "Gmina Gryb\u00f3w",
                "operator:type": "government",
                "amenity": "school"
            }
        },
        {
            "id": 14466,
            "type": "Feature",
            "geometry": {
                "type": "Point",
                "coordinates": [
                    20.9647,
                    49.58899
                ]
            },
            "properties": {
                "ref:rspo": 14466,
                "official_name": "Zesp\u00f3\u0142 Szkolno-Przedszkolny w K\u0105clowej",
                "name": "Zesp\u00f3\u0142 Szkolno-Przedszkolny w K\u0105clowej",
                "addr:country": "PL",
                "addr:postcode": "33-330",
                "addr:place": "K\u0105clowa",
                "addr:housenumber": "280",
                "addr:teryt:sym_ul": 427520,
                "contact:phone": "+48 184472361",
                "contact:email": "zsp.kaclowa@interia.pl",
                "ref:regon": "492898072",
                "ref:vatin": "PL7342786036",
                "operator": "Gmina Gryb\u00f3w",
                "operator:type": "government",
                "landuse": "education",
                "fixme": "amenity=school, amenity=college albo landuse=education w zale\u017cno\u015bci od tego, jakie plac\u00f3wki wchodz\u0105 w sk\u0142ad zespo\u0142u. Sprawd\u017a, kiedy stosowa\u0107 amenity=* a kiedy landuse=education.",
                "note": "Children RSPO: 48719;54443"
            }
        },
        {
            "id": 54443,
            "type": "Feature",
            "geometry": {
                "type": "Point",
                "coordinates": [
                    20.9647,
                    49.58896
                ]
            },
            "properties": {
                "isced:level": "1;2",
                "ref:rspo": 54443,
                "official_name": "Szko\u0142a Podstawowa im. St. Leszczyc-Przywary w K\u0105clowej",
                "name": "Szko\u0142a Podstawowa",
                "addr:country": "PL",
                "addr:postcode": "33-330",
                "addr:place": "K\u0105clowa",
                "addr:housenumber": "280",
                "addr:teryt:sym_ul": 427520,
                "contact:phone": "+48 184472361",
                "contact:email": "zsp.kaclowa@interia.pl",
                "contact:website": "http:\/\/zsp-kaclowa.pl",
                "ref:regon": "490671074",
                "operator": "Gmina Gryb\u00f3w",
                "operator:type": "government",
                "amenity": "school",
                "note": "Parent RSPO: 14466"
            }
        },
        {
            "id": 48719,
            "type": "Feature",
            "geometry": {
                "type": "Point",
                "coordinates": [
                    20.95213,
                    49.59751
                ]
            },
            "properties": {
                "ref:rspo": 48719,
                "official_name": "Przedszkole Samorz\u0105dowe w K\u0105clowej",
                "name": "Przedszkole Samorz\u0105dowe w K\u0105clowej",
                "addr:country": "PL",
                "addr:postcode": "33-330",
                "addr:place": "K\u0105clowa",
                "addr:housenumber": "15",
                "addr:teryt:sym_ul": 427520,
                "contact:phone": "+48 694413802",
                "ref:regon": "492898095",
                "operator": "Gmina Gryb\u00f3w",
                "operator:type": "government",
                "amenity": "kindergarten",
                "note": "Parent RSPO: 14466"
            }
        },
        {
            "id": 14556,
            "type": "Feature",
            "geometry": {
                "type": "Point",
                "coordinates": [
                    20.90289,
                    49.60167
                ]
            },
            "properties": {
                "ref:rspo": 14556,
                "official_name": "Zesp\u00f3\u0142 Szkolno-Przedszkolny w Ptaszkowej",
                "name": "Zesp\u00f3\u0142 Szkolno-Przedszkolny w Ptaszkowej",
                "addr:country": "PL",
                "addr:postcode": "33-333",
                "addr:place": "Ptaszkowa",
                "addr:housenumber": "495",
                "addr:teryt:sym_ul": 428100,
                "contact:phone": "+48 184451777",
                "contact:email": "szkola2@poczta.onet.pl",
                "ref:regon": "120501723",
                "ref:vatin": "PL7343252526",
                "operator": "Gmina Gryb\u00f3w",
                "operator:type": "government",
                "landuse": "education",
                "fixme": "amenity=school, amenity=college albo landuse=education w zale\u017cno\u015bci od tego, jakie plac\u00f3wki wchodz\u0105 w sk\u0142ad zespo\u0142u. Sprawd\u017a, kiedy stosowa\u0107 amenity=* a kiedy landuse=education.",
                "note": "Children RSPO: 48865;56107"
            }
        },
        {
            "id": 48865,
            "type": "Feature",
            "geometry": {
                "type": "Point",
                "coordinates": [
                    20.90289,
                    49.601639999999996
                ]
            },
            "properties": {
                "ref:rspo": 48865,
                "official_name": "Publiczne Przedszkole Samorz\u0105dowe w Ptaszkowej",
                "name": "Publiczne Przedszkole Samorz\u0105dowe w Ptaszkowej",
                "addr:country": "PL",
                "addr:postcode": "33-333",
                "addr:place": "Ptaszkowa",
                "addr:housenumber": "495",
                "addr:teryt:sym_ul": 428100,
                "contact:phone": "+48 184451777",
                "ref:regon": "120501746",
                "operator": "Gmina Gryb\u00f3w",
                "operator:type": "government",
                "amenity": "kindergarten",
                "note": "Parent RSPO: 14556"
            }
        },
        {
            "id": 56107,
            "type": "Feature",
            "geometry": {
                "type": "Point",
                "coordinates": [
                    20.90289,
                    49.60161
                ]
            },
            "properties": {
                "isced:level": "1;2",
                "ref:rspo": 56107,
                "official_name": "Szko\u0142a Podstawowa Nr 2 im. Kr\u00f3lowej Jadwigii w Ptaszkowej",
                "name": "Szko\u0142a Podstawowa Nr 2",
                "addr:country": "PL",
                "addr:postcode": "33-333",
                "addr:place": "Ptaszkowa",
                "addr:housenumber": "495",
                "addr:teryt:sym_ul": 428100,
                "contact:phone": "+48 184451777",
                "contact:email": "szkola2@poczta.onet.pl",
                "ref:regon": "490671186",
                "operator": "Gmina Gryb\u00f3w",
                "operator:type": "government",
                "amenity": "school",
                "note": "Parent RSPO: 14556"
            }
        },
        {
            "id": 118991,
            "type": "Feature",
            "geometry": {
                "type": "Point",
                "coordinates": [
                    20.88032,
                    49.60272
                ]
            },
            "properties": {
                "ref:rspo": 118991,
                "official_name": "Zesp\u00f3\u0142 Szkolno- Przedszkolny Nr 1 w Ptaszkowej",
                "name": "Zesp\u00f3\u0142 Szkolno- Przedszkolny Nr 1 w Ptaszkowej",
                "addr:country": "PL",
                "addr:postcode": "33-333",
                "addr:place": "Ptaszkowa",
                "addr:housenumber": "406",
                "addr:teryt:sym_ul": 428100,
                "contact:phone": "+48 184451728",
                "contact:email": "sp1ptaszkowa@op.pl",
                "ref:regon": "122928383",
                "operator": "Gmina Gryb\u00f3w",
                "operator:type": "government",
                "landuse": "education",
                "fixme": "amenity=school, amenity=college albo landuse=education w zale\u017cno\u015bci od tego, jakie plac\u00f3wki wchodz\u0105 w sk\u0142ad zespo\u0142u. Sprawd\u017a, kiedy stosowa\u0107 amenity=* a kiedy landuse=education.",
                "note": "Children RSPO: 55645;119709"
            }
        },
        {
            "id": 55645,
            "type": "Feature",
            "geometry": {
                "type": "Point",
                "coordinates": [
                    20.88032,
                    49.602689999999996
                ]
            },
            "properties": {
                "isced:level": "1;2",
                "ref:rspo": 55645,
                "official_name": "Szko\u0142a Podstawowa Nr 1 im. W\u0142adys\u0142awa Jagie\u0142\u0142y w Ptaszkowej",
                "name": "Szko\u0142a Podstawowa Nr 1",
                "addr:country": "PL",
                "addr:postcode": "33-333",
                "addr:place": "Ptaszkowa",
                "addr:housenumber": "406",
                "addr:teryt:sym_ul": 428100,
                "contact:phone": "+48 184451728",
                "contact:email": "sp1ptaszkowa@op.pl",
                "ref:regon": "490671105",
                "ref:vatin": "PL7342786154",
                "operator": "Gmina Gryb\u00f3w",
                "operator:type": "government",
                "amenity": "school",
                "note": "Parent RSPO: 118991"
            }
        },
        {
            "id": 119709,
            "type": "Feature",
            "geometry": {
                "type": "Point",
                "coordinates": [
                    20.88032,
                    49.60266
                ]
            },
            "properties": {
                "ref:rspo": 119709,
                "official_name": "Przedszkole Samorz\u0105dowe Nr 1 w Ptaszkowej",
                "name": "Przedszkole Samorz\u0105dowe Nr 1 w Ptaszkowej",
                "addr:country": "PL",
                "addr:postcode": "33-333",
                "addr:place": "Ptaszkowa",
                "addr:housenumber": "406",
                "addr:teryt:sym_ul": 428100,
                "contact:phone": "+48 184451728",
                "ref:regon": "122940326",
                "operator": "Gmina Gryb\u00f3w",
                "operator:type": "government",
                "amenity": "kindergarten",
                "note": "Parent RSPO: 118991"
            }
        },
        {
            "id": 18462,
            "type": "Feature",
            "geometry": {
                "type": "Point",
                "coordinates": [
                    20.8589948,
                    49.6125913
                ]
            },
            "properties": {
                "isced:level": "1;2",
                "ref:rspo": 18462,
                "official_name": "Szko\u0142a Podstawowa im. Kornela Makuszy\u0144skiego w Cieniawie",
                "name": "Szko\u0142a Podstawowa",
                "addr:country": "PL",
                "addr:postcode": "33-333",
                "addr:place": "Cieniawa",
                "addr:housenumber": "140",
                "addr:teryt:sym_ul": 426897,
                "contact:phone": "+48 184453145",
                "contact:email": "spcieniawa@planty.pl",
                "contact:website": "http:\/\/www.spcieniawa@szkolnastrona.pl",
                "ref:regon": "490671275",
                "ref:vatin": "PL7342786042",
                "operator": "Gmina Gryb\u00f3w",
                "operator:type": "government",
                "amenity": "school"
            }
        },
        {
            "id": 263037,
            "type": "Feature",
            "geometry": {
                "type": "Point",
                "coordinates": [
                    20.85128,
                    49.62074
                ]
            },
            "properties": {
                "ref:rspo": 263037,
                "official_name": "Katolickie Niepubliczne Przedszkole Lolek",
                "name": "Katolickie Niepubliczne Przedszkole Lolek",
                "addr:country": "PL",
                "addr:postcode": "33-333",
                "addr:place": "Cieniawa",
                "addr:housenumber": "402",
                "addr:teryt:sym_ul": 426897,
                "ref:regon": "368094088",
                "ref:vatin": "PL7343333242",
                "operator": "Kazimierz Michalik",
                "operator:type": "private",
                "amenity": "kindergarten"
            }
        },
        {
            "id": 18229,
            "type": "Feature",
            "geometry": {
                "type": "Point",
                "coordinates": [
                    21.01047,
                    49.63001
                ]
            },
            "properties": {
                "isced:level": "1;2",
                "ref:rspo": 18229,
                "official_name": "Szko\u0142a Podstawowa im. Armii Krajowej w Gr\u00f3dku",
                "name": "Szko\u0142a Podstawowa",
                "addr:country": "PL",
                "addr:postcode": "33-331",
                "addr:place": "Gr\u00f3dek",
                "addr:housenumber": "38",
                "addr:teryt:sym_ul": 427299,
                "contact:phone": "+48 184474211",
                "contact:email": "sp_grodek@interia.pl",
                "ref:regon": "490671223",
                "ref:vatin": "PL7342786237",
                "operator": "Gmina Gryb\u00f3w",
                "operator:type": "government",
                "amenity": "school"
            }
        },
        {
            "id": 18319,
            "type": "Feature",
            "geometry": {
                "type": "Point",
                "coordinates": [
                    20.88615,
                    49.63354
                ]
            },
            "properties": {
                "isced:level": "1;2",
                "ref:rspo": 18319,
                "official_name": "Szko\u0142a Podstawowa im. Prymasa Tysi\u0105clecia Stefana Kardyna\u0142a Wyszy\u0144skiego w Starej Wsi",
                "name": "Szko\u0142a Podstawowa",
                "addr:country": "PL",
                "addr:postcode": "33-325",
                "addr:place": "Stara Wie\u015b",
                "addr:housenumber": "162",
                "addr:teryt:sym_ul": 428689,
                "contact:phone": "+48 844519255",
                "contact:email": "sp_starawies@op.pl",
                "ref:regon": "490671128",
                "ref:vatin": "PL7342786177",
                "operator": "Gmina Gryb\u00f3w",
                "operator:type": "government",
                "amenity": "school"
            }
        },
        {
            "id": 48815,
            "type": "Feature",
            "geometry": {
                "type": "Point",
                "coordinates": [
                    20.93771,
                    49.63383
                ]
            },
            "properties": {
                "ref:rspo": 48815,
                "official_name": "Przedszkole Samorz\u0105dowe w Sio\u0142kowej",
                "name": "Przedszkole Samorz\u0105dowe w Sio\u0142kowej",
                "addr:country": "PL",
                "addr:postcode": "33-330",
                "addr:place": "Sio\u0142kowa",
                "addr:housenumber": "31",
                "addr:teryt:sym_ul": 428554,
                "contact:phone": "+48 184453665",
                "ref:regon": "492738380",
                "operator": "Gmina Gryb\u00f3w",
                "operator:type": "government",
                "amenity": "kindergarten",
                "note": "Parent RSPO: 14510"
            }
        },
        {
            "id": 14510,
            "type": "Feature",
            "geometry": {
                "type": "Point",
                "coordinates": [
                    20.93524,
                    49.63875
                ]
            },
            "properties": {
                "ref:rspo": 14510,
                "official_name": "Zesp\u00f3\u0142 Szkolno-Przedszkolny w Sio\u0142kowej",
                "name": "Zesp\u00f3\u0142 Szkolno-Przedszkolny w Sio\u0142kowej",
                "addr:country": "PL",
                "addr:postcode": "33-330",
                "addr:place": "Sio\u0142kowa",
                "addr:housenumber": "300",
                "addr:teryt:sym_ul": 428554,
                "contact:phone": "+48 184450163",
                "contact:email": "siolkowa@poczta.onet.pl",
                "contact:website": "http:\/\/zsp.siolkowa.pl",
                "ref:regon": "492725288",
                "ref:vatin": "PL7343301437",
                "operator": "Gmina Gryb\u00f3w",
                "operator:type": "government",
                "landuse": "education",
                "fixme": "amenity=school, amenity=college albo landuse=education w zale\u017cno\u015bci od tego, jakie plac\u00f3wki wchodz\u0105 w sk\u0142ad zespo\u0142u. Sprawd\u017a, kiedy stosowa\u0107 amenity=* a kiedy landuse=education.",
                "note": "Children RSPO: 48815;53545"
            }
        },
        {
            "id": 53545,
            "type": "Feature",
            "geometry": {
                "type": "Point",
                "coordinates": [
                    20.93524,
                    49.63872
                ]
            },
            "properties": {
                "isced:level": "1;2",
                "ref:rspo": 53545,
                "official_name": "Szko\u0142a Podstawowa im. Tadeusza Ko\u015bciuszki w Sio\u0142kowej",
                "name": "Szko\u0142a Podstawowa",
                "addr:country": "PL",
                "addr:postcode": "33-330",
                "addr:place": "Sio\u0142kowa",
                "addr:housenumber": "300",
                "addr:teryt:sym_ul": 428554,
                "contact:phone": "+48 184450163",
                "contact:email": "siolkowa@poczta.onet.pl",
                "ref:regon": "490671163",
                "operator": "Gmina Gryb\u00f3w",
                "operator:type": "government",
                "amenity": "school",
                "note": "Parent RSPO: 14510"
            }
        },
        {
            "id": 14450,
            "type": "Feature",
            "geometry": {
                "type": "Point",
                "coordinates": [
                    20.9732999,
                    49.64108
                ]
            },
            "properties": {
                "ref:rspo": 14450,
                "official_name": "Zesp\u00f3\u0142 Szkolno-Przedszkolny w Bia\u0142ej Ni\u017cnej",
                "name": "Zesp\u00f3\u0142 Szkolno-Przedszkolny w Bia\u0142ej Ni\u017cnej",
                "addr:country": "PL",
                "addr:postcode": "33-330",
                "addr:place": "Bia\u0142a Ni\u017cna",
                "addr:housenumber": "495",
                "addr:teryt:sym_ul": 426710,
                "contact:phone": "+48 184473659",
                "contact:email": "szkola.biala@wp.pl",
                "ref:regon": "492738428",
                "ref:vatin": "PL7342786326",
                "operator": "Gmina Gryb\u00f3w",
                "operator:type": "government",
                "landuse": "education",
                "fixme": "amenity=school, amenity=college albo landuse=education w zale\u017cno\u015bci od tego, jakie plac\u00f3wki wchodz\u0105 w sk\u0142ad zespo\u0142u. Sprawd\u017a, kiedy stosowa\u0107 amenity=* a kiedy landuse=education.",
                "note": "Children RSPO: 48657;49287"
            }
        },
        {
            "id": 48657,
            "type": "Feature",
            "geometry": {
                "type": "Point",
                "coordinates": [
                    20.9732999,
                    49.64105
                ]
            },
            "properties": {
                "ref:rspo": 48657,
                "official_name": "Przedszkole Samorz\u0105dowe w Bia\u0142ej Ni\u017cnej",
                "name": "Przedszkole Samorz\u0105dowe w Bia\u0142ej Ni\u017cnej",
                "addr:country": "PL",
                "addr:postcode": "33-330",
                "addr:place": "Bia\u0142a Ni\u017cna",
                "addr:housenumber": "495",
                "addr:teryt:sym_ul": 426710,
                "contact:phone": "+48 184473659",
                "ref:regon": "492738397",
                "operator": "Gmina Gryb\u00f3w",
                "operator:type": "government",
                "amenity": "kindergarten",
                "note": "Parent RSPO: 14450"
            }
        },
        {
            "id": 49287,
            "type": "Feature",
            "geometry": {
                "type": "Point",
                "coordinates": [
                    20.9732999,
                    49.641020000000005
                ]
            },
            "properties": {
                "isced:level": "1;2",
                "ref:rspo": 49287,
                "official_name": "Szko\u0142a Podstawowa im. \u015aw. Jana Kantego w Bia\u0142ej Ni\u017cnej",
                "name": "Szko\u0142a Podstawowa",
                "addr:country": "PL",
                "addr:postcode": "33-330",
                "addr:place": "Bia\u0142a Ni\u017cna",
                "addr:housenumber": "495",
                "addr:teryt:sym_ul": 426710,
                "contact:phone": "+48 184473659",
                "contact:email": "szkola.biala@wp.pl",
                "ref:regon": "490671306",
                "operator": "Gmina Gryb\u00f3w",
                "operator:type": "government",
                "amenity": "school",
                "note": "Parent RSPO: 14450"
            }
        },
        {
            "id": 118999,
            "type": "Feature",
            "geometry": {
                "type": "Point",
                "coordinates": [
                    20.88466,
                    49.6498
                ]
            },
            "properties": {
                "ref:rspo": 118999,
                "official_name": "Zesp\u00f3\u0142 Szkolno-Przedszkolny w Kru\u017clowej Wy\u017cnej",
                "name": "Zesp\u00f3\u0142 Szkolno-Przedszkolny w Kru\u017clowej Wy\u017cnej",
                "addr:country": "PL",
                "addr:postcode": "33-325",
                "addr:place": "Kru\u017clowa Wy\u017cna",
                "addr:housenumber": "205",
                "addr:teryt:sym_ul": 427951,
                "contact:phone": "+48 184451923",
                "contact:email": "spkruzlowa@poczta.onet.pl",
                "ref:regon": "122928437",
                "operator": "Gmina Gryb\u00f3w",
                "operator:type": "government",
                "landuse": "education",
                "fixme": "amenity=school, amenity=college albo landuse=education w zale\u017cno\u015bci od tego, jakie plac\u00f3wki wchodz\u0105 w sk\u0142ad zespo\u0142u. Sprawd\u017a, kiedy stosowa\u0107 amenity=* a kiedy landuse=education.",
                "note": "Children RSPO: 18615;119708"
            }
        },
        {
            "id": 18615,
            "type": "Feature",
            "geometry": {
                "type": "Point",
                "coordinates": [
                    20.88466,
                    49.64977
                ]
            },
            "properties": {
                "isced:level": "1;2",
                "ref:rspo": 18615,
                "official_name": "Szko\u0142a Podstawowa im. Ks. Jana Twardowskiego w Kru\u017clowej Wy\u017cnej",
                "name": "Szko\u0142a Podstawowa",
                "addr:country": "PL",
                "addr:postcode": "33-325",
                "addr:place": "Kru\u017clowa Wy\u017cna",
                "addr:housenumber": "205",
                "addr:teryt:sym_ul": 427951,
                "contact:phone": "+48 184451923",
                "contact:email": "spkruzlowa@poczta.onet.pl",
                "ref:regon": "490671045",
                "ref:vatin": "PL7342786013",
                "operator": "Gmina Gryb\u00f3w",
                "operator:type": "government",
                "amenity": "school",
                "note": "Parent RSPO: 118999"
            }
        },
        {
            "id": 119708,
            "type": "Feature",
            "geometry": {
                "type": "Point",
                "coordinates": [
                    20.88466,
                    49.64974
                ]
            },
            "properties": {
                "ref:rspo": 119708,
                "official_name": "Przedszkole Samorz\u0105dowe w Kru\u017clowej Wy\u017cnej",
                "name": "Przedszkole Samorz\u0105dowe w Kru\u017clowej Wy\u017cnej",
                "addr:country": "PL",
                "addr:postcode": "33-325",
                "addr:place": "Kru\u017clowa Wy\u017cna",
                "addr:housenumber": "205",
                "addr:teryt:sym_ul": 427951,
                "contact:phone": "+48 184451923",
                "ref:regon": "122940310",
                "operator": "Gmina Gryb\u00f3w",
                "operator:type": "government",
                "amenity": "kindergarten",
                "note": "Parent RSPO: 118999"
            }
        },
        {
            "id": 77998,
            "type": "Feature",
            "geometry": {
                "type": "Point",
                "coordinates": [
                    20.88387,
                    49.65137
                ]
            },
            "properties": {
                "ref:rspo": 77998,
                "official_name": "Przedszkole Niepubliczne Prowadzone Przez Zgromadzenie Si\u00f3str \u015aw. Dominika Przy Parafii Nnmp im. B\u0142. Jana Paw\u0142a Ii",
                "name": "Przedszkole Niepubliczne Prowadzone Przez Zgromadzenie Si\u00f3str \u015aw. Dominika Przy Parafii Nnmp",
                "addr:country": "PL",
                "addr:postcode": "33-325",
                "addr:place": "Kru\u017clowa Wy\u017cna",
                "addr:housenumber": "39A",
                "addr:teryt:sym_ul": 427951,
                "contact:phone": "+48 184451372",
                "contact:email": "przedszkolekrozlowa@vp.pl",
                "ref:regon": "122708687",
                "ref:vatin": "PL7343170739",
                "operator": "Zgromadzenie Si\u00f3str \u015aw. Dominika",
                "operator:type": "religious",
                "amenity": "kindergarten"
            }
        },
        {
            "id": 124496,
            "type": "Feature",
            "geometry": {
                "type": "Point",
                "coordinates": [
                    20.97858,
                    49.65628
                ]
            },
            "properties": {
                "ref:rspo": 124496,
                "official_name": "Niepubliczny Rehabilitacyjny Punkt Przedszkolny \"Iskierka\"",
                "name": "Niepubliczny Rehabilitacyjny Punkt Przedszkolny \"Iskierka\"",
                "addr:country": "PL",
                "addr:postcode": "33-331",
                "addr:place": "Str\u00f3\u017ce",
                "addr:housenumber": "579",
                "addr:teryt:sym_ul": 428778,
                "contact:email": "malgorzatanebelska@poczta.onet.pl",
                "ref:regon": "123198805",
                "ref:vatin": "PL7722145326",
                "operator": "Ma\u0142gorzata Niebelska-Krawczyk",
                "operator:type": "private",
                "amenity": "kindergarten"
            }
        },
        {
            "id": 19357,
            "type": "Feature",
            "geometry": {
                "type": "Point",
                "coordinates": [
                    20.9988472,
                    49.656422
                ]
            },
            "properties": {
                "isced:level": "1;2",
                "ref:rspo": 19357,
                "official_name": "Szko\u0142a Podstawowa im. Marii Konopnickiej w Wyskitnej",
                "name": "Szko\u0142a Podstawowa",
                "addr:country": "PL",
                "addr:postcode": "33-331",
                "addr:place": "Wyskitna",
                "addr:housenumber": "44",
                "addr:teryt:sym_ul": 428867,
                "contact:phone": "+48 184472780",
                "contact:email": "sp_wyskitna@interia.pl",
                "ref:regon": "490671370",
                "ref:vatin": "PL7342786243",
                "operator": "Gmina Gryb\u00f3w",
                "operator:type": "government",
                "amenity": "school"
            }
        },
        {
            "id": 60509,
            "type": "Feature",
            "geometry": {
                "type": "Point",
                "coordinates": [
                    20.97232,
                    49.65687
                ]
            },
            "properties": {
                "ref:rspo": 60509,
                "official_name": "Niepubliczne Przedszkole Integracyjne Przy Fundacji Pomocy Osobom Niepe\u0142nosprawnym w Str\u00f3\u017cach",
                "name": "Niepubliczne Przedszkole Integracyjne Przy Fundacji Pomocy Osobom Niepe\u0142nosprawnym w Str\u00f3\u017cach",
                "addr:country": "PL",
                "addr:postcode": "33-331",
                "addr:place": "Str\u00f3\u017ce",
                "addr:housenumber": "51",
                "addr:teryt:sym_ul": 428778,
                "contact:phone": "+48 185351761",
                "contact:email": "przedszkole@fpon.org",
                "ref:regon": "122697050",
                "ref:vatin": "PL7381778443",
                "operator": "Fundacja Pomocy Osobom Niepe\u0142nosprawnym",
                "operator:type": "ngo",
                "amenity": "kindergarten"
            }
        },
        {
            "id": 14575,
            "type": "Feature",
            "geometry": {
                "type": "Point",
                "coordinates": [
                    20.97154,
                    49.66729
                ]
            },
            "properties": {
                "ref:rspo": 14575,
                "official_name": "Zesp\u00f3\u0142 Szkolno-Przedszkolny w Str\u00f3\u017cach",
                "name": "Zesp\u00f3\u0142 Szkolno-Przedszkolny w Str\u00f3\u017cach",
                "addr:country": "PL",
                "addr:postcode": "33-331",
                "addr:place": "Str\u00f3\u017ce",
                "addr:housenumber": "363",
                "addr:teryt:sym_ul": 428778,
                "contact:phone": "+48 184451823",
                "contact:email": "strozesp@poczta.onet.pl",
                "contact:website": "http:\/\/spchrobry.stroze.com\/",
                "ref:regon": "492907629",
                "ref:vatin": "PL7342786349",
                "operator": "Gmina Gryb\u00f3w",
                "operator:type": "government",
                "landuse": "education",
                "fixme": "amenity=school, amenity=college albo landuse=education w zale\u017cno\u015bci od tego, jakie plac\u00f3wki wchodz\u0105 w sk\u0142ad zespo\u0142u. Sprawd\u017a, kiedy stosowa\u0107 amenity=* a kiedy landuse=education.",
                "note": "Children RSPO: 48931;53150"
            }
        },
        {
            "id": 48931,
            "type": "Feature",
            "geometry": {
                "type": "Point",
                "coordinates": [
                    20.97154,
                    49.66726
                ]
            },
            "properties": {
                "ref:rspo": 48931,
                "official_name": "Przedszkole Samorz\u0105dowe w Str\u00f3\u017cach",
                "name": "Przedszkole Samorz\u0105dowe w Str\u00f3\u017cach",
                "addr:country": "PL",
                "addr:postcode": "33-331",
                "addr:place": "Str\u00f3\u017ce",
                "addr:housenumber": "363",
                "addr:teryt:sym_ul": 428778,
                "contact:phone": "+48 184451823",
                "ref:regon": "492907658",
                "operator": "Gmina Gryb\u00f3w",
                "operator:type": "government",
                "amenity": "kindergarten",
                "note": "Parent RSPO: 14575"
            }
        },
        {
            "id": 53150,
            "type": "Feature",
            "geometry": {
                "type": "Point",
                "coordinates": [
                    20.97154,
                    49.66723
                ]
            },
            "properties": {
                "isced:level": "1;2",
                "ref:rspo": 53150,
                "official_name": "Szko\u0142a Podstawowa im. B. Chrobrego w Str\u00f3\u017cach",
                "name": "Szko\u0142a Podstawowa",
                "addr:country": "PL",
                "addr:postcode": "33-331",
                "addr:place": "Str\u00f3\u017ce",
                "addr:housenumber": "363",
                "addr:teryt:sym_ul": 428778,
                "contact:phone": "+48 184451823",
                "contact:email": "strozesp@poczta.onet.pl",
                "ref:regon": "490671341",
                "operator": "Gmina Gryb\u00f3w",
                "operator:type": "government",
                "amenity": "school",
                "note": "Parent RSPO: 14575"
            }
        },
        {
            "id": 19229,
            "type": "Feature",
            "geometry": {
                "type": "Point",
                "coordinates": [
                    20.98974,
                    49.6734099
                ]
            },
            "properties": {
                "isced:level": "1;2",
                "ref:rspo": 19229,
                "official_name": "Szko\u0142a Podstawowa im. B\u0142. Ks. Jana Balickiego w Polnej",
                "name": "Szko\u0142a Podstawowa",
                "addr:country": "PL",
                "addr:postcode": "33-331",
                "addr:place": "Polna",
                "addr:housenumber": "30",
                "addr:teryt:sym_ul": 428057,
                "contact:phone": "+48 184472781",
                "contact:email": "sp_polna@poczta.fm",
                "contact:website": "http:\/\/sppolna.gminagrybow.pl\/",
                "ref:regon": "490671200",
                "ref:vatin": "PL7342786183",
                "operator": "Gmina Gryb\u00f3w",
                "operator:type": "government",
                "amenity": "school"
            }
        }
    ]
}