{
    "type": "FeatureCollection",
    "features": [
        {
            "id": 119717,
            "type": "Feature",
            "geometry": {
                "type": "Point",
                "coordinates": [
                    20.76615,
                    49.4060599
                ]
            },
            "properties": {
                "isced:level": "1;2",
                "ref:rspo": 119717,
                "official_name": "Szko\u0142a Podstawowa w Wierchomli Wielkiej",
                "name": "Szko\u0142a Podstawowa w Wierchomli Wielkiej",
                "addr:country": "PL",
                "addr:postcode": "33-350",
                "addr:place": "Wierchomla Wielka",
                "addr:teryt:sym_ul": 459840,
                "contact:phone": "+48 184468228",
                "contact:email": "dyrektomar1@poczta.onet.pl",
                "ref:regon": "122940852",
                "operator": "Stowarzyszenie Na Rzecz Rozwoju Dzieci I M\u0142odzie\u017cy",
                "operator:type": "ngo",
                "amenity": "school"
            }
        },
        {
            "id": 119719,
            "type": "Feature",
            "geometry": {
                "type": "Point",
                "coordinates": [
                    20.76615,
                    49.4060299
                ]
            },
            "properties": {
                "ref:rspo": 119719,
                "official_name": "Punkt Przedszkolny Przy Szkole w Wierchomli Wielkiej",
                "name": "Punkt Przedszkolny Przy Szkole w Wierchomli Wielkiej",
                "addr:country": "PL",
                "addr:postcode": "33-350",
                "addr:place": "Wierchomla Wielka",
                "addr:teryt:sym_ul": 459840,
                "contact:phone": "+48 184468228",
                "contact:email": "dyrektomar1@poczta.onet.pl",
                "ref:regon": "122940898",
                "operator": "Stowarzyszenie Na Rzecz Rozwoju Dzieci I M\u0142odzie\u017cy",
                "operator:type": "ngo",
                "amenity": "kindergarten"
            }
        },
        {
            "id": 49609,
            "type": "Feature",
            "geometry": {
                "type": "Point",
                "coordinates": [
                    20.7331619,
                    49.4225267
                ]
            },
            "properties": {
                "isced:level": "1;2",
                "ref:rspo": 49609,
                "official_name": "Szko\u0142a Podstawowa w \u0141omnicy Zdroju",
                "name": "Szko\u0142a Podstawowa w \u0141omnicy Zdroju",
                "addr:country": "PL",
                "addr:postcode": "33-350",
                "addr:place": "\u0141omnica-Zdr\u00f3j",
                "addr:housenumber": "336",
                "addr:teryt:sym_ul": 459023,
                "contact:phone": "+48 184468014",
                "contact:email": "splomnica@gmail.com",
                "contact:website": "http:\/\/www.splomnica.iap.pl",
                "ref:regon": "490674799",
                "ref:vatin": "PL7343521386",
                "operator": "Miasto I Gmina Piwniczna-Zdr\u00f3j",
                "operator:type": "government",
                "amenity": "school"
            }
        },
        {
            "id": 130544,
            "type": "Feature",
            "geometry": {
                "type": "Point",
                "coordinates": [
                    20.7331619,
                    49.422496699999996
                ]
            },
            "properties": {
                "ref:rspo": 130544,
                "official_name": "Punkt Przedszkolny w Szkole Podstawowej w \u0141omnicy Zdroju",
                "name": "Punkt Przedszkolny w Szkole Podstawowej w \u0141omnicy Zdroju",
                "addr:country": "PL",
                "addr:postcode": "33-351",
                "addr:place": "\u0141omnica-Zdr\u00f3j",
                "addr:housenumber": "336",
                "addr:teryt:sym_ul": 459023,
                "contact:phone": "+48 184468014",
                "contact:email": "splomnica@gmail.com",
                "contact:website": "http:\/\/www.splomnica.iap.pl",
                "ref:regon": "364170071",
                "operator": "Miasto I Gmina Piwniczna-Zdr\u00f3j",
                "operator:type": "government",
                "amenity": "kindergarten"
            }
        },
        {
            "id": 41830,
            "type": "Feature",
            "geometry": {
                "type": "Point",
                "coordinates": [
                    20.6670345,
                    49.4282048
                ]
            },
            "properties": {
                "isced:level": "1;2",
                "ref:rspo": 41830,
                "official_name": "Szko\u0142a Podstawowa Nr 2 w Piwnicznej Zdroju",
                "name": "Szko\u0142a Podstawowa Nr 2 w Piwnicznej Zdroju",
                "addr:country": "PL",
                "addr:postcode": "33-350",
                "addr:city": "Piwniczna-Zdr\u00f3j",
                "addr:street": "inne Kosarzyska",
                "addr:housenumber": "23",
                "addr:teryt:simc": 27117,
                "addr:teryt:sym_ul": 961768,
                "contact:phone": "+48 184464082",
                "contact:email": "spkosarzyska@o2.pl",
                "contact:website": "http:\/\/www.sp-kosarzyska.piwniczna.pl",
                "ref:regon": "490669597",
                "ref:vatin": "PL7341804683",
                "operator": "Miasto I Gmina Piwniczna-Zdr\u00f3j",
                "operator:type": "government",
                "amenity": "school"
            }
        },
        {
            "id": 130546,
            "type": "Feature",
            "geometry": {
                "type": "Point",
                "coordinates": [
                    20.6670345,
                    49.4281748
                ]
            },
            "properties": {
                "ref:rspo": 130546,
                "official_name": "Punkt Przedszkolny w Szkole Podstawowej Nr 2 w Piwnicznej-Zdroju",
                "name": "Punkt Przedszkolny w Szkole Podstawowej Nr 2 w Piwnicznej-Zdroju",
                "addr:country": "PL",
                "addr:postcode": "33-350",
                "addr:city": "Piwniczna-Zdr\u00f3j",
                "addr:street": "inne Kosarzyska",
                "addr:housenumber": "23",
                "addr:teryt:simc": 27117,
                "addr:teryt:sym_ul": 961768,
                "contact:phone": "+48 184464082",
                "contact:email": "spkosarzyska@o2.pl",
                "ref:regon": "364170183",
                "operator": "Miasto I Gmina Piwniczna-Zdr\u00f3j",
                "operator:type": "government",
                "amenity": "kindergarten"
            }
        },
        {
            "id": 41835,
            "type": "Feature",
            "geometry": {
                "type": "Point",
                "coordinates": [
                    20.71737,
                    49.43098
                ]
            },
            "properties": {
                "ref:rspo": 41835,
                "official_name": "Przedszkole Nr 3 w Piwnicznej-Zdroju",
                "name": "Przedszkole Nr 3 w Piwnicznej-Zdroju",
                "addr:country": "PL",
                "addr:postcode": "33-350",
                "addr:city": "Piwniczna-Zdr\u00f3j",
                "addr:street": "ul. W\u0119gierska",
                "addr:housenumber": "118",
                "addr:teryt:simc": 23923,
                "addr:teryt:sym_ul": 961768,
                "contact:phone": "+48 184464318",
                "contact:email": "p3hanuszow@interia.pl",
                "ref:regon": "120189450",
                "ref:vatin": "PL7343149604",
                "operator": "Miasto I Gmina Piwniczna-Zdr\u00f3j",
                "operator:type": "government",
                "amenity": "kindergarten"
            }
        },
        {
            "id": 275811,
            "type": "Feature",
            "geometry": {
                "type": "Point",
                "coordinates": [
                    20.71106,
                    49.43493
                ]
            },
            "properties": {
                "ref:rspo": 275811,
                "official_name": "Zesp\u00f3\u0142 Szkolno-Przedszkolny Nr 1 w Piwnicznej-Zdroju",
                "name": "Zesp\u00f3\u0142 Szkolno-Przedszkolny Nr 1 w Piwnicznej-Zdroju",
                "addr:country": "PL",
                "addr:postcode": "33-350",
                "addr:city": "Piwniczna-Zdr\u00f3j",
                "addr:street": "ul. Krynicka",
                "addr:housenumber": "2",
                "addr:teryt:simc": 10062,
                "addr:teryt:sym_ul": 961768,
                "contact:phone": "+48 184464040",
                "contact:email": "sp_piwniczna@poczta.onet.pl",
                "contact:website": "http:\/\/sp1piwniczna.iap.pl",
                "ref:regon": "386938187",
                "operator": "Miasto I Gmina Piwniczna-Zdr\u00f3j",
                "operator:type": "government",
                "landuse": "education",
                "fixme": "amenity=school, amenity=college albo landuse=education w zale\u017cno\u015bci od tego, jakie plac\u00f3wki wchodz\u0105 w sk\u0142ad zespo\u0142u. Sprawd\u017a, kiedy stosowa\u0107 amenity=* a kiedy landuse=education.",
                "note": "Children RSPO: 41828;275845"
            }
        },
        {
            "id": 41828,
            "type": "Feature",
            "geometry": {
                "type": "Point",
                "coordinates": [
                    20.71106,
                    49.4349
                ]
            },
            "properties": {
                "isced:level": "1;2",
                "ref:rspo": 41828,
                "official_name": "Szko\u0142a Podstawowa Nr 1 w Piwnicznej - Zdroju",
                "name": "Szko\u0142a Podstawowa Nr 1 w Piwnicznej - Zdroju",
                "addr:country": "PL",
                "addr:postcode": "33-350",
                "addr:city": "Piwniczna-Zdr\u00f3j",
                "addr:street": "ul. Krynicka",
                "addr:housenumber": "2",
                "addr:teryt:simc": 10062,
                "addr:teryt:sym_ul": 961768,
                "contact:phone": "+48 184464040",
                "contact:email": "sp_piwniczna@poczta.onet.pl",
                "contact:website": "http:\/\/sp1piwniczna.iap.pl",
                "ref:regon": "490669580",
                "ref:vatin": "PL7343521392",
                "operator": "Miasto I Gmina Piwniczna-Zdr\u00f3j",
                "operator:type": "government",
                "amenity": "school",
                "note": "Parent RSPO: 275811"
            }
        },
        {
            "id": 275845,
            "type": "Feature",
            "geometry": {
                "type": "Point",
                "coordinates": [
                    20.71106,
                    49.434870000000004
                ]
            },
            "properties": {
                "ref:rspo": 275845,
                "official_name": "Publiczne Przedszkole Nr 1 w Piwnicznej-Zdroju",
                "name": "Publiczne Przedszkole Nr 1 w Piwnicznej-Zdroju",
                "addr:country": "PL",
                "addr:postcode": "33-350",
                "addr:city": "Piwniczna-Zdr\u00f3j",
                "addr:street": "ul. Krynicka",
                "addr:housenumber": "2",
                "addr:teryt:simc": 10062,
                "addr:teryt:sym_ul": 961768,
                "contact:phone": "+48 184464040",
                "contact:email": "sp_piwniczna@poczta.onet.pl",
                "contact:website": "http:\/\/sp1piwniczna.iap.pl",
                "ref:regon": "386941887",
                "operator": "Miasto I Gmina Piwniczna-Zdr\u00f3j",
                "operator:type": "government",
                "amenity": "kindergarten",
                "note": "Parent RSPO: 275811"
            }
        },
        {
            "id": 34736,
            "type": "Feature",
            "geometry": {
                "type": "Point",
                "coordinates": [
                    20.71949,
                    49.44277
                ]
            },
            "properties": {
                "ref:rspo": 34736,
                "official_name": "Zesp\u00f3\u0142 Szk\u00f3\u0142 I Plac\u00f3wek w Piwnicznej Zdroju",
                "name": "Zesp\u00f3\u0142 Szk\u00f3\u0142 I Plac\u00f3wek w Piwnicznej Zdroju",
                "addr:country": "PL",
                "addr:postcode": "33-350",
                "addr:city": "Piwniczna-Zdr\u00f3j",
                "addr:street": "ul. Zdrojowa",
                "addr:housenumber": "1",
                "addr:teryt:simc": 25944,
                "addr:teryt:sym_ul": 961768,
                "contact:phone": "+48 184464012",
                "contact:email": "piwnicznadwdz@poczta.onet.pl",
                "ref:regon": "492827296",
                "ref:vatin": "PL7342929139",
                "operator": "Powiat Nowos\u0105decki",
                "operator:type": "government",
                "landuse": "education",
                "fixme": "amenity=school, amenity=college albo landuse=education w zale\u017cno\u015bci od tego, jakie plac\u00f3wki wchodz\u0105 w sk\u0142ad zespo\u0142u. Sprawd\u017a, kiedy stosowa\u0107 amenity=* a kiedy landuse=education.",
                "note": "Children RSPO: 60100;81357"
            }
        },
        {
            "id": 60100,
            "type": "Feature",
            "geometry": {
                "type": "Point",
                "coordinates": [
                    20.71949,
                    49.44274
                ]
            },
            "properties": {
                "ref:rspo": 60100,
                "official_name": "Mi\u0119dzyszkolny O\u015brodek Sportowy w Piwnicznej Zdroju",
                "name": "Mi\u0119dzyszkolny O\u015brodek Sportowy w Piwnicznej Zdroju",
                "addr:country": "PL",
                "addr:postcode": "33-350",
                "addr:city": "Piwniczna-Zdr\u00f3j",
                "addr:street": "ul. Zdrojowa",
                "addr:housenumber": "1",
                "addr:teryt:simc": 25944,
                "addr:teryt:sym_ul": 961768,
                "contact:phone": "+48 184464012",
                "contact:email": "pmosns@poczta.onet.pl",
                "ref:regon": "492005743",
                "ref:vatin": "PL7342929139",
                "operator": "Powiat Nowos\u0105decki",
                "operator:type": "government",
                "leisure": "sports_centre",
                "note": "Parent RSPO: 34736"
            }
        },
        {
            "id": 81357,
            "type": "Feature",
            "geometry": {
                "type": "Point",
                "coordinates": [
                    20.71949,
                    49.442710000000005
                ]
            },
            "properties": {
                "ref:rspo": 81357,
                "official_name": "Dom Wczas\u00f3w Dzieci\u0119cych w Piwnicznej Zdroju",
                "name": "Dom Wczas\u00f3w Dzieci\u0119cych w Piwnicznej Zdroju",
                "addr:country": "PL",
                "addr:postcode": "33-350",
                "addr:city": "Piwniczna-Zdr\u00f3j",
                "addr:street": "ul. Zdrojowa",
                "addr:housenumber": "1",
                "addr:teryt:simc": 25944,
                "addr:teryt:sym_ul": 961768,
                "contact:phone": "+48 184464012",
                "contact:email": "piwnicznadwdz@poczta.onet.pl",
                "ref:regon": "000197238",
                "ref:vatin": "PL7342929139",
                "operator": "Powiat Nowos\u0105decki",
                "operator:type": "government",
                "leisure": "resort",
                "note": "Parent RSPO: 34736"
            }
        },
        {
            "id": 41833,
            "type": "Feature",
            "geometry": {
                "type": "Point",
                "coordinates": [
                    20.6992699,
                    49.46382
                ]
            },
            "properties": {
                "isced:level": "1;2",
                "ref:rspo": 41833,
                "official_name": "Szko\u0142a Podstawowa w G\u0142\u0119bokiem",
                "name": "Szko\u0142a Podstawowa w G\u0142\u0119bokiem",
                "addr:country": "PL",
                "addr:postcode": "33-350",
                "addr:place": "G\u0142\u0119bokie",
                "addr:housenumber": "6",
                "addr:teryt:sym_ul": 458779,
                "contact:phone": "+48 184464085",
                "contact:email": "szkola.glebokie@wp.pl",
                "contact:website": "http:\/\/sp-glebokie.piwniczna.pl\/",
                "ref:regon": "490674820",
                "ref:vatin": "PL7341804186",
                "operator": "Miasto I Gmina Piwniczna-Zdr\u00f3j",
                "operator:type": "government",
                "amenity": "school"
            }
        },
        {
            "id": 41836,
            "type": "Feature",
            "geometry": {
                "type": "Point",
                "coordinates": [
                    20.69479,
                    49.46858
                ]
            },
            "properties": {
                "ref:rspo": 41836,
                "official_name": "Przedszkole Nr 4 w M\u0142odowie",
                "name": "Przedszkole Nr 4 w M\u0142odowie",
                "addr:country": "PL",
                "addr:postcode": "33-343",
                "addr:place": "M\u0142od\u00f3w",
                "addr:housenumber": "83",
                "addr:teryt:sym_ul": 459371,
                "contact:phone": "+48 184464219",
                "contact:email": "przedszkolemlodow@onet.pl",
                "contact:website": "http:\/\/mlodow.eprzedszkola.pl\/",
                "ref:regon": "120189467",
                "ref:vatin": "PL7343149610",
                "operator": "Miasto I Gmina Piwniczna-Zdr\u00f3j",
                "operator:type": "government",
                "amenity": "kindergarten"
            }
        },
        {
            "id": 119718,
            "type": "Feature",
            "geometry": {
                "type": "Point",
                "coordinates": [
                    20.72903,
                    49.48358
                ]
            },
            "properties": {
                "isced:level": "1;2",
                "ref:rspo": 119718,
                "official_name": "Szko\u0142a Podstawowa w Kokuszce",
                "name": "Szko\u0142a Podstawowa w Kokuszce",
                "addr:country": "PL",
                "addr:postcode": "33-350",
                "addr:place": "Kokuszka",
                "addr:teryt:sym_ul": 458785,
                "contact:phone": "+48 184464065",
                "contact:email": "dyrektomar1@poczta.onet.pl",
                "ref:regon": "122940881",
                "operator": "Stowarzyszenie Na Rzecz Rozwoju Dzieci I M\u0142odzie\u017cy",
                "operator:type": "ngo",
                "amenity": "school"
            }
        }
    ]
}