{
    "type": "FeatureCollection",
    "features": [
        {
            "id": 13304,
            "type": "Feature",
            "geometry": {
                "type": "Point",
                "coordinates": [
                    20.94905,
                    49.6123
                ]
            },
            "properties": {
                "isced:level": "1;2",
                "ref:rspo": 13304,
                "official_name": "Szko\u0142a Podstawowa Nr2",
                "name": "Szko\u0142a Podstawowa Nr2",
                "addr:postcode": "33-330",
                "addr:city": "Gryb\u00f3w",
                "addr:street": "Osiedle Bia\u0142a Wy\u017cna",
                "addr:housenumber": "48",
                "addr:city:simc": 960042,
                "addr:street:sym_ul": 30475,
                "phone": "+48 184450660",
                "email": "sp2grybow@gmail.com",
                "ref:regon": "490669433",
                "ref:vatin": "PL7342776457",
                "operator": "Miasto Gryb\u00f3w",
                "operator:type": "government",
                "amenity": "school"
            }
        },
        {
            "id": 126779,
            "type": "Feature",
            "geometry": {
                "type": "Point",
                "coordinates": [
                    20.93873,
                    49.61989
                ]
            },
            "properties": {
                "ref:rspo": 126779,
                "official_name": "Akademia Przedszkolaka w Grybowie",
                "name": "Akademia Przedszkolaka w Grybowie",
                "addr:postcode": "33-330",
                "addr:city": "Gryb\u00f3w",
                "addr:street": "Stanis\u0142awa Moniuszki",
                "addr:housenumber": "17",
                "addr:city:simc": 960042,
                "addr:street:sym_ul": 13242,
                "phone": "+48 601327599",
                "email": "olenka56g@onet.eu",
                "ref:regon": "360739143",
                "ref:vatin": "PL7341095169",
                "operator": "Aleksandra Jurek- Szewczyk",
                "operator:type": "private",
                "amenity": "kindergarten"
            }
        },
        {
            "id": 14831,
            "type": "Feature",
            "geometry": {
                "type": "Point",
                "coordinates": [
                    20.94912,
                    49.62303
                ]
            },
            "properties": {
                "isced:level": "3",
                "ref:rspo": 14831,
                "official_name": "Liceum Og\u00f3lnokszta\u0142c\u0105ce im. Artura Grottgera w Grybowie",
                "name": "Liceum Og\u00f3lnokszta\u0142c\u0105ce",
                "addr:postcode": "33-330",
                "addr:city": "Gryb\u00f3w",
                "addr:street": "Tadeusza Ko\u015bciuszki",
                "addr:housenumber": "18",
                "addr:city:simc": 960042,
                "addr:street:sym_ul": 9572,
                "phone": "+48 184450324",
                "email": "logrybow@op.pl",
                "ref:regon": "000205239",
                "ref:vatin": "PL7381012824",
                "operator": "Powiat Nowos\u0105decki",
                "operator:type": "government",
                "amenity": "school"
            }
        },
        {
            "id": 125787,
            "type": "Feature",
            "geometry": {
                "type": "Point",
                "coordinates": [
                    20.94295,
                    49.62508
                ]
            },
            "properties": {
                "ref:rspo": 125787,
                "official_name": "Centrum Edukacyjno - Terapeutyczne \"Iskierka\" - O\u015brodek Rewalidacyjno-Wychowawczy",
                "name": "Centrum Edukacyjno - Terapeutyczne \"Iskierka\" - O\u015brodek Rewalidacyjno-Wychowawczy",
                "addr:postcode": "33-330",
                "addr:city": "Gryb\u00f3w",
                "addr:street": "Ogrodowa",
                "addr:housenumber": "19",
                "addr:city:simc": 960042,
                "addr:street:sym_ul": 14834,
                "phone": "+48 505389315",
                "email": "malgorzataniebelska@poczta.onet.pl",
                "ref:regon": "123238321",
                "operator": "Ma\u0142gorzata Niebelska-Krawczyk",
                "operator:type": "private",
                "amenity": "school"
            }
        },
        {
            "id": 21979,
            "type": "Feature",
            "geometry": {
                "type": "Point",
                "coordinates": [
                    20.95189,
                    49.62605
                ]
            },
            "properties": {
                "ref:rspo": 21979,
                "official_name": "Zesp\u00f3\u0142 Szk\u00f3\u0142 Zawodowych im. Stanis\u0142awa Staszica w Grybowie",
                "name": "Zesp\u00f3\u0142 Szk\u00f3\u0142 Zawodowych",
                "addr:postcode": "33-330",
                "addr:city": "Gryb\u00f3w",
                "addr:street": "Armii Krajowej",
                "addr:housenumber": "19",
                "addr:city:simc": 960042,
                "addr:street:sym_ul": 432,
                "phone": "+48 184450356",
                "email": "zszgrybow@poczta.onet.pl",
                "ref:regon": "000199183",
                "ref:vatin": "PL7381012818",
                "operator": "Powiat Nowos\u0105decki",
                "operator:type": "government",
                "landuse": "education",
                "fixme": "amenity=school, amenity=college albo landuse=education w zale\u017cno\u015bci od tego, jakie plac\u00f3wki wchodz\u0105 w sk\u0142ad zespo\u0142u. Sprawd\u017a, kiedy stosowa\u0107 amenity=* a kiedy landuse=education.",
                "note": "Children RSPO: 23396;23761;23783;131715"
            }
        },
        {
            "id": 106705,
            "type": "Feature",
            "geometry": {
                "type": "Point",
                "coordinates": [
                    20.95189,
                    49.62602
                ]
            },
            "properties": {
                "ref:rspo": 106705,
                "official_name": "Powiatowa Poradnia Psychologiczno-Pedagogiczna w Nowym S\u0105czu Filia w Grybowie",
                "name": "Powiatowa Poradnia Psychologiczno-Pedagogiczna w Nowym S\u0105czu Filia w Grybowie",
                "addr:postcode": "33-330",
                "addr:city": "Gryb\u00f3w",
                "addr:street": "Armii Krajowej",
                "addr:housenumber": "19",
                "addr:city:simc": 960042,
                "addr:street:sym_ul": 432,
                "phone": "+48 184450325",
                "email": "pppgrybow@op.pl",
                "ref:regon": "122580796",
                "operator": "Powiat Nowos\u0105decki",
                "operator:type": "government",
                "healthcare": "counselling",
                "counselling_type": "education",
                "fixme": "w zale\u017cno\u015bci od przedmiotu dzia\u0142alno\u015bci (np. healthcare=counselling + counselling_type=education albo healthcare=psychotherapist)",
                "note": "Parent RSPO: 15994"
            }
        },
        {
            "id": 23396,
            "type": "Feature",
            "geometry": {
                "type": "Point",
                "coordinates": [
                    20.95189,
                    49.62599
                ]
            },
            "properties": {
                "isced:level": "3",
                "ref:rspo": 23396,
                "official_name": "Technikum w Grybowie",
                "name": "Technikum w Grybowie",
                "addr:postcode": "33-330",
                "addr:city": "Gryb\u00f3w",
                "addr:street": "Armii Krajowej",
                "addr:housenumber": "19",
                "addr:city:simc": 960042,
                "addr:street:sym_ul": 432,
                "phone": "+48 184450356",
                "email": "zszgrybow@poczta.onet.pl",
                "website": "http:\/\/zszgrybow.pl",
                "ref:regon": "492907322",
                "ref:vatin": "PL7381012818",
                "operator": "Powiat Nowos\u0105decki",
                "operator:type": "government",
                "amenity": "school",
                "note": "Parent RSPO: 21979"
            }
        },
        {
            "id": 23761,
            "type": "Feature",
            "geometry": {
                "type": "Point",
                "coordinates": [
                    20.95189,
                    49.62596
                ]
            },
            "properties": {
                "isced:level": "3",
                "ref:rspo": 23761,
                "official_name": "Szko\u0142a Bran\u017cowa I Stopnia w Grybowie",
                "name": "Szko\u0142a Bran\u017cowa I Stopnia w Grybowie",
                "addr:postcode": "33-330",
                "addr:city": "Gryb\u00f3w",
                "addr:street": "Armii Krajowej",
                "addr:housenumber": "19",
                "addr:city:simc": 960042,
                "addr:street:sym_ul": 432,
                "phone": "+48 184450356",
                "email": "zszgrybow@poczta.onet.pl",
                "website": "http:\/\/zszgrybow.pl",
                "ref:regon": "492907345",
                "ref:vatin": "PL7381012818",
                "operator": "Powiat Nowos\u0105decki",
                "operator:type": "government",
                "amenity": "school",
                "note": "Parent RSPO: 21979"
            }
        },
        {
            "id": 23783,
            "type": "Feature",
            "geometry": {
                "type": "Point",
                "coordinates": [
                    20.95189,
                    49.62593
                ]
            },
            "properties": {
                "isced:level": "3",
                "ref:rspo": 23783,
                "official_name": "Liceum Og\u00f3lnokszta\u0142c\u0105ce dla Doros\u0142ych w Grybowie",
                "name": "Liceum Og\u00f3lnokszta\u0142c\u0105ce dla Doros\u0142ych w Grybowie",
                "addr:postcode": "33-330",
                "addr:city": "Gryb\u00f3w",
                "addr:street": "Armii Krajowej",
                "addr:housenumber": "19",
                "addr:city:simc": 960042,
                "addr:street:sym_ul": 432,
                "phone": "+48 184450356",
                "email": "zszgrybow@poczta.onet.pl",
                "website": "http:\/\/zszgrybow.pl",
                "ref:regon": "120762040",
                "ref:vatin": "PL7381012818",
                "operator": "Powiat Nowos\u0105decki",
                "operator:type": "government",
                "amenity": "school",
                "note": "Parent RSPO: 21979"
            }
        },
        {
            "id": 131715,
            "type": "Feature",
            "geometry": {
                "type": "Point",
                "coordinates": [
                    20.95189,
                    49.6259
                ]
            },
            "properties": {
                "ref:rspo": 131715,
                "official_name": "Centrum Kszta\u0142cenia Ustawicznego w Grybowie",
                "name": "Centrum Kszta\u0142cenia Ustawicznego w Grybowie",
                "addr:postcode": "33-330",
                "addr:city": "Gryb\u00f3w",
                "addr:street": "Armii Krajowej",
                "addr:housenumber": "19",
                "addr:city:simc": 960042,
                "addr:street:sym_ul": 432,
                "phone": "+48 184450356",
                "ref:regon": "365334824",
                "operator": "Powiat Nowos\u0105decki",
                "operator:type": "government",
                "fixme": "w zale\u017cno\u015bci od przedmiotu dzia\u0142alno\u015bci (np. amenity=training + training=*, amenity=dancing_school, amenity=language_school, amenity=music_school)",
                "note": "Parent RSPO: 21979"
            }
        },
        {
            "id": 22507,
            "type": "Feature",
            "geometry": {
                "type": "Point",
                "coordinates": [
                    20.94204,
                    49.62674
                ]
            },
            "properties": {
                "isced:level": "1;2",
                "ref:rspo": 22507,
                "official_name": "Szko\u0142a Podstawowa nr 1 im. Kazimierza Wielkiego w Grybowie",
                "name": "Szko\u0142a Podstawowa nr 1",
                "addr:postcode": "33-330",
                "addr:city": "Gryb\u00f3w",
                "addr:street": "Szkolna",
                "addr:housenumber": "1",
                "addr:city:simc": 960042,
                "addr:street:sym_ul": 21970,
                "phone": "+48 184450331",
                "email": "sp1@grybow.pl",
                "ref:regon": "490669380",
                "ref:vatin": "PL7342776428",
                "operator": "Miasto Gryb\u00f3w",
                "operator:type": "government",
                "amenity": "school"
            }
        },
        {
            "id": 22403,
            "type": "Feature",
            "geometry": {
                "type": "Point",
                "coordinates": [
                    20.94972,
                    49.627
                ]
            },
            "properties": {
                "ref:rspo": 22403,
                "official_name": "Przedszkole Samorz\u0105dowe \"Pod Topol\u0105\" w Grybowie",
                "name": "Przedszkole Samorz\u0105dowe \"Pod Topol\u0105\" w Grybowie",
                "addr:postcode": "33-330",
                "addr:city": "Gryb\u00f3w",
                "addr:street": "Leszczynowa",
                "addr:housenumber": "1",
                "addr:city:simc": 960042,
                "addr:street:sym_ul": 10870,
                "phone": "+48 184450101",
                "email": "psgrybow@op.pl",
                "ref:regon": "121279273",
                "ref:vatin": "PL7343456766",
                "operator": "Miasto Gryb\u00f3w",
                "operator:type": "government",
                "amenity": "kindergarten"
            }
        },
        {
            "id": 268245,
            "type": "Feature",
            "geometry": {
                "type": "Point",
                "coordinates": [
                    20.94735,
                    49.62707
                ]
            },
            "properties": {
                "ref:rspo": 268245,
                "official_name": "Niepubliczne Przedszkole Parafialne z Oddzia\u0142em Integracyjnym im. \u015aw. Dzieci Fatimskich w Grybowie",
                "name": "Niepubliczne Przedszkole Parafialne z Oddzia\u0142em Integracyjnym",
                "addr:postcode": "33-330",
                "addr:city": "Gryb\u00f3w",
                "addr:street": "D\u0119bowa",
                "addr:housenumber": "11",
                "addr:city:simc": 960042,
                "addr:street:sym_ul": 3811,
                "phone": "+48 184450262",
                "email": "grybow_par@diecezja.tarnow.pl",
                "website": "http:\/\/www.grybow.diecezja.tarnow.pl",
                "ref:regon": "381037210",
                "ref:vatin": "PL7381035185",
                "operator": "Parafia Rzym.-Kat. Pw. \u015awi\u0119tej Katarzyny",
                "operator:type": "religious",
                "amenity": "kindergarten"
            }
        }
    ]
}