{"type":"FeatureCollection","features":[{"id":264769,"type":"Feature","geometry":{"type":"Point","coordinates":[20.768823623657,49.553775787354]},"properties":{"ref:rspo":264769,"official_name":"Niepubliczne Przedszkole J\u0119zykowe Bajka 2","name":"Niepubliczne Przedszkole J\u0119zykowe Bajka 2","addr:country":"PL","addr:postcode":"33-322","addr:place":"Korzenna","addr:housenumber":"537","addr:teryt:sym_ul":435880,"contact:phone":"+48 537661744","contact:email":"przedszkole.bajka@onet.pl","ref:regon":"368450086","operator":"Joanna Boche\u0144ska-\u0141a\u015b","operator:type":"private","amenity":"kindergarten"}},{"id":48362,"type":"Feature","geometry":{"type":"Point","coordinates":[20.84372,49.64849]},"properties":{"isced:level":"1;2","ref:rspo":48362,"official_name":"Szko\u0142a Podstawowa w Posadowej Mogilskiej","name":"Szko\u0142a Podstawowa w Posadowej Mogilskiej","addr:country":"PL","addr:postcode":"33-326","addr:place":"Posadowa Mogilska","addr:housenumber":"131","addr:teryt:sym_ul":436298,"contact:phone":"+48 184405404","contact:email":"sp_posadowa@korzenna.pl","contact:website":"http:\/\/spposadowa.korzenna.pl","ref:regon":"490672270","ref:vatin":"PL7342773200","operator":"Gmina Korzenna","operator:type":"government","amenity":"school"}},{"id":64452,"type":"Feature","geometry":{"type":"Point","coordinates":[20.82011,49.65651]},"properties":{"isced:level":"1;2","ref:rspo":64452,"official_name":"Szko\u0142a Podstawowa im. Wojska Polskiego w Mogilnie","name":"Szko\u0142a Podstawowa","addr:country":"PL","addr:postcode":"33-326","addr:place":"Mogilno","addr:housenumber":"14","addr:teryt:sym_ul":436200,"contact:phone":"+48 184405403","contact:email":"sp_mogilno@korzenna.pl","contact:website":"http:\/\/www.sp-mogilno.edupage.org","ref:regon":"492820868","ref:vatin":"PL7342773157","operator":"Gmina Korzenna","operator:type":"government","amenity":"school"}},{"id":48273,"type":"Feature","geometry":{"type":"Point","coordinates":[20.77008,49.66668]},"properties":{"isced:level":"1;2","ref:rspo":48273,"official_name":"Szko\u0142a Podstawowa w \u0141\u0119ce","name":"Szko\u0142a Podstawowa w \u0141\u0119ce","addr:country":"PL","addr:postcode":"33-322","addr:place":"\u0141\u0119ka","addr:housenumber":"1","addr:teryt:sym_ul":436074,"contact:phone":"+48 184417501","contact:email":"sp_leca@korzenna.pl","ref:regon":"490672197","ref:vatin":"PL7342773128","operator":"Gmina Korzenna","operator:type":"government","amenity":"school"}},{"id":61582,"type":"Feature","geometry":{"type":"Point","coordinates":[20.8160163,49.6676669]},"properties":{"isced:level":"1;2","ref:rspo":61582,"official_name":"Szko\u0142a Podstawowa Imienia Genera\u0142a Franciszka G\u0105gora w Koniuszowej","name":"Szko\u0142a Podstawowa Imienia Genera\u0142a Franciszka G\u0105gora w Koniuszowej","addr:country":"PL","addr:postcode":"33-326","addr:place":"Koniuszowa","addr:housenumber":"203","addr:teryt:sym_ul":435809,"contact:phone":"+48 184405103","contact:email":"sp_koniuszowa@korzenna.pl","contact:website":"http:\/\/www.koniuszowa.korzenna.pl","ref:regon":"490672100","ref:vatin":"PL7343113078","operator":"Gmina Korzenna","operator:type":"government","amenity":"school"}},{"id":48481,"type":"Feature","geometry":{"type":"Point","coordinates":[20.90905,49.67282]},"properties":{"isced:level":"1;2","ref:rspo":48481,"official_name":"Szko\u0142a Podstawowa w Wojnarowej","name":"Szko\u0142a Podstawowa w Wojnarowej","addr:country":"PL","addr:postcode":"33-322","addr:place":"Wojnarowa","addr:housenumber":"278","addr:teryt:sym_ul":436460,"contact:phone":"+48 184417073","contact:email":"sp_wojnarowa@korzenna.pl","contact:website":"http:\/\/spwojnarowa.edu.pl","ref:regon":"490672317","ref:vatin":"PL7342773387","operator":"Gmina Korzenna","operator:type":"government","amenity":"school"}},{"id":124188,"type":"Feature","geometry":{"type":"Point","coordinates":[20.84455,49.67751]},"properties":{"ref:rspo":124188,"official_name":"Niepubliczne Przedszkole J\u0119zykowe \"Bajka\"","name":"Niepubliczne Przedszkole J\u0119zykowe \"Bajka\"","addr:country":"PL","addr:postcode":"33-322","addr:place":"Korzenna","addr:housenumber":"254","addr:teryt:sym_ul":435880,"contact:phone":"+48 570930828","contact:email":"przedszkole.bajka@onet.pl","ref:regon":"123189166","operator":"Joanna Boche\u0144ska-\u0141a\u015b","operator:type":"private","amenity":"kindergarten"}},{"id":48480,"type":"Feature","geometry":{"type":"Point","coordinates":[20.80508,49.67758]},"properties":{"isced:level":"1;2","ref:rspo":48480,"official_name":"Szko\u0142a Podstawowa w Trzycierzu","name":"Szko\u0142a Podstawowa w Trzycierzu","addr:country":"PL","addr:postcode":"33-322","addr:place":"Trzycierz","addr:housenumber":"68","addr:teryt:sym_ul":436447,"contact:phone":"+48 184419918","contact:email":"sp_trzycierz@korzenna.pl","ref:regon":"490672033","ref:vatin":"PL7342773269","operator":"Gmina Korzenna","operator:type":"government","amenity":"school"}},{"id":53195,"type":"Feature","geometry":{"type":"Point","coordinates":[20.8436999,49.67831]},"properties":{"ref:rspo":53195,"official_name":"Przedszkole w Korzennej","name":"Przedszkole w Korzennej","addr:country":"PL","addr:postcode":"33-322","addr:place":"Korzenna","addr:housenumber":"324","addr:teryt:sym_ul":435880,"contact:phone":"+48 184419912","contact:email":"przedszkole@korzenna.pl","contact:website":"http:\/\/www.korzenna.przedszkolna.net","ref:regon":"120763699","ref:vatin":"PL7343329341","operator":"Gmina Korzenna","operator:type":"government","amenity":"kindergarten"}},{"id":61391,"type":"Feature","geometry":{"type":"Point","coordinates":[20.8436999,49.67828]},"properties":{"isced:level":"1;2","ref:rspo":61391,"official_name":"Szko\u0142a Podstawowa Imienia Jana Paw\u0142a II w Korzennej","name":"Szko\u0142a Podstawowa Imienia Jana Paw\u0142a II w Korzennej","addr:country":"PL","addr:postcode":"33-322","addr:place":"Korzenna","addr:housenumber":"324","addr:teryt:sym_ul":435880,"contact:phone":"+48 184417008","contact:email":"sp_korzenna@korzenna.pl","contact:website":"http:\/\/www.spkorzenna.szkolna.net","ref:regon":"490672139","ref:vatin":"PL7343253365","operator":"Gmina Korzenna","operator:type":"government","amenity":"school"}},{"id":119104,"type":"Feature","geometry":{"type":"Point","coordinates":[20.8436999,49.678250000000006]},"properties":{"ref:rspo":119104,"official_name":"Szko\u0142a Muzyczna I Stopnia w Korzennej","name":"Szko\u0142a Muzyczna I Stopnia w Korzennej","addr:country":"PL","addr:postcode":"33-322","addr:place":"Korzenna","addr:housenumber":"324","addr:teryt:sym_ul":435880,"contact:phone":"+48 185333444","contact:email":"smkorzenna@korzenna.pl","contact:website":"http:\/\/www.smkorzenna.pl","ref:regon":"122929773","ref:vatin":"PL7343521481","operator":"Gmina Korzenna","operator:type":"government","amenity":"music_school"}},{"id":71542,"type":"Feature","geometry":{"type":"Point","coordinates":[20.77646,49.68773]},"properties":{"isced:level":"1;2","ref:rspo":71542,"official_name":"Szko\u0142a Podstawowa im. Ksi\u0119dza Kardyna\u0142a Stefana Wyszy\u0144skiego w Siedlcach","name":"Szko\u0142a Podstawowa","addr:country":"PL","addr:postcode":"33-322","addr:place":"Siedlce","addr:housenumber":"162","addr:teryt:sym_ul":436341,"contact:phone":"+48 184417509","contact:email":"sp_siedlce@korzenna.pl","contact:website":"http:\/\/www.zssiedlce.korzenna.iap.pl","ref:regon":"492830453","ref:vatin":"PL7342773252","operator":"Gmina Korzenna","operator:type":"government","amenity":"school"}},{"id":53046,"type":"Feature","geometry":{"type":"Point","coordinates":[20.78206,49.70104]},"properties":{"isced:level":"1;2","ref:rspo":53046,"official_name":"Szko\u0142a Podstawowa Imienia \u015awi\u0119tej Kingi w Janczowej","name":"Szko\u0142a Podstawowa Imienia \u015awi\u0119tej Kingi w Janczowej","addr:country":"PL","addr:postcode":"33-322","addr:place":"Janczowa","addr:housenumber":"104","addr:teryt:sym_ul":435666,"contact:phone":"+48 184409955","contact:email":"sp_janczowa@korzenna.pl","contact:website":"http:\/\/janczowa.korzenna.pl","ref:regon":"490672062","ref:vatin":"PL7342773105","operator":"Gmina Korzenna","operator:type":"government","amenity":"school"}},{"id":53089,"type":"Feature","geometry":{"type":"Point","coordinates":[20.76537,49.7068]},"properties":{"isced:level":"1;2","ref:rspo":53089,"official_name":"Szko\u0142a Podstawowa Imienia Marii Konopnickiej w Mi\u0142kowej","name":"Szko\u0142a Podstawowa Imienia Marii Konopnickiej w Mi\u0142kowej","addr:country":"PL","addr:postcode":"33-322","addr:place":"Mi\u0142kowa","addr:housenumber":"114","addr:teryt:sym_ul":436140,"contact:phone":"+48 184409934","contact:email":"sp_milkowa@korzenna.pl","ref:regon":"490672257","ref:vatin":"PL7342773111","operator":"Gmina Korzenna","operator:type":"government","amenity":"school"}},{"id":64527,"type":"Feature","geometry":{"type":"Point","coordinates":[20.86522,49.70766]},"properties":{"isced:level":"1;2","ref:rspo":64527,"official_name":"Szko\u0142a Podstawowa im. Jana Paw\u0142a II w Lipnicy Wielkiej","name":"Szko\u0142a Podstawowa","addr:country":"PL","addr:postcode":"33-323","addr:place":"Lipnica Wielka","addr:housenumber":"25","addr:teryt:sym_ul":435962,"contact:phone":"+48 184417085","contact:email":"sp_lipnicawielka@korzenna.pl","contact:website":"http:\/\/www.splipnica.edu.pl","ref:regon":"490672168","ref:vatin":"PL7342773341","operator":"Gmina Korzenna","operator:type":"government","amenity":"school"}},{"id":53056,"type":"Feature","geometry":{"type":"Point","coordinates":[20.82266,49.71769]},"properties":{"isced:level":"1;2","ref:rspo":53056,"official_name":"Szko\u0142a Podstawowa Imienia Miko\u0142aja Kopernika w Jasiennej","name":"Szko\u0142a Podstawowa Imienia Miko\u0142aja Kopernika w Jasiennej","addr:country":"PL","addr:postcode":"33-322","addr:place":"Jasienna","addr:housenumber":"207","addr:teryt:sym_ul":435710,"contact:phone":"+48 184417030","contact:email":"sp_jasienna@korzenna.pl","contact:website":"http:\/\/www.spjasienna.iap.pl","ref:regon":"490672085","ref:vatin":"PL7342773074","operator":"Gmina Korzenna","operator:type":"government","amenity":"school"}}]}