{
    "type": "FeatureCollection",
    "features": [
        {
            "id": 25940,
            "type": "Feature",
            "geometry": {
                "type": "Point",
                "coordinates": [
                    20.88821,
                    49.56711
                ]
            },
            "properties": {
                "isced:level": "1;2",
                "ref:rspo": 25940,
                "official_name": "Szko\u0142a Podstawowa w Boguszy",
                "name": "Szko\u0142a Podstawowa w Boguszy",
                "addr:postcode": "33-334",
                "addr:place": "Bogusza",
                "addr:housenumber": "13",
                "addr:teryt:simc": 434307,
                "phone": "+48 184456618",
                "email": "sp-bogusza@o2.pl",
                "website": "http:\/\/www.szkola.bogusza.pl",
                "ref:regon": "490672027",
                "ref:vatin": "PL7341704148",
                "operator": "Gmina Kamionka Wielka",
                "operator:type": "government",
                "amenity": "school"
            }
        },
        {
            "id": 27820,
            "type": "Feature",
            "geometry": {
                "type": "Point",
                "coordinates": [
                    20.82873,
                    49.56732
                ]
            },
            "properties": {
                "isced:level": "1;2",
                "ref:rspo": 27820,
                "official_name": "Szko\u0142a Podstawowa Nr 2 im. \u015aw.kingi w Kamionce Wielkiej",
                "name": "Szko\u0142a Podstawowa Nr 2",
                "addr:postcode": "33-334",
                "addr:place": "Kamionka Wielka",
                "addr:housenumber": "162",
                "addr:teryt:simc": 434371,
                "phone": "+48 184456026",
                "email": "sp2kamionkawielka@gmail.com",
                "website": "https:\/\/kamionkawielka.szkola.pl",
                "ref:regon": "490671967",
                "ref:vatin": "PL7343452797",
                "operator": "Gmina Kamionka Wielka",
                "operator:type": "government",
                "amenity": "school"
            }
        },
        {
            "id": 59769,
            "type": "Feature",
            "geometry": {
                "type": "Point",
                "coordinates": [
                    20.82873,
                    49.56729
                ]
            },
            "properties": {
                "ref:rspo": 59769,
                "official_name": "Niepubliczne Przedszkole \"Akademia U\u015bmiechu\"",
                "name": "Niepubliczne Przedszkole \"Akademia U\u015bmiechu\"",
                "addr:postcode": "33-334",
                "addr:place": "Kamionka Wielka",
                "addr:housenumber": "162",
                "addr:teryt:simc": 434371,
                "phone": "+48 600101045",
                "email": "niepubliczne.akademia@gmail.com",
                "website": "http:\/\/www.stowarzyszenie-snw.pl",
                "ref:regon": "122691194",
                "ref:vatin": "PL7343338305",
                "operator": "Stowarzyszenie Nowos\u0105decka Wsp\u00f3lnota",
                "operator:type": "ngo",
                "amenity": "kindergarten"
            }
        },
        {
            "id": 124697,
            "type": "Feature",
            "geometry": {
                "type": "Point",
                "coordinates": [
                    20.7584,
                    49.57449
                ]
            },
            "properties": {
                "ref:rspo": 124697,
                "official_name": "Publiczne Przedszkole w Kamionce Wielkiej",
                "name": "Publiczne Przedszkole w Kamionce Wielkiej",
                "addr:postcode": "33-334",
                "addr:place": "Kamionka Ma\u0142a",
                "addr:housenumber": "73",
                "addr:teryt:simc": 434365,
                "phone": "+48 184456066",
                "email": "sp1kamionka@onet.pl",
                "ref:regon": "123202576",
                "operator": "Gmina Kamionka Wielka",
                "operator:type": "government",
                "amenity": "kindergarten",
                "note": "Parent RSPO: 25600"
            }
        },
        {
            "id": 25600,
            "type": "Feature",
            "geometry": {
                "type": "Point",
                "coordinates": [
                    20.78878,
                    49.57862
                ]
            },
            "properties": {
                "ref:rspo": 25600,
                "official_name": "Zesp\u00f3\u0142 Szkolno-Przedszkolny w Kamionce Wielkiej",
                "name": "Zesp\u00f3\u0142 Szkolno-Przedszkolny w Kamionce Wielkiej",
                "addr:postcode": "33-334",
                "addr:place": "Kamionka Wielka",
                "addr:housenumber": "154",
                "addr:teryt:simc": 434371,
                "phone": "+48 184456066",
                "email": "sp1kamionka@onet.pl",
                "website": "http:\/\/www.szkolakamionka.pl",
                "ref:regon": "120995760",
                "ref:vatin": "PL7343393988",
                "operator": "Gmina Kamionka Wielka",
                "operator:type": "government",
                "landuse": "education",
                "fixme": "amenity=school, amenity=college albo landuse=education w zale\u017cno\u015bci od tego, jakie plac\u00f3wki wchodz\u0105 w sk\u0142ad zespo\u0142u. Sprawd\u017a, kiedy stosowa\u0107 amenity=* a kiedy landuse=education.",
                "note": "Children RSPO: 41121;124697"
            }
        },
        {
            "id": 41121,
            "type": "Feature",
            "geometry": {
                "type": "Point",
                "coordinates": [
                    20.78878,
                    49.57859
                ]
            },
            "properties": {
                "isced:level": "1;2",
                "ref:rspo": 41121,
                "official_name": "Szko\u0142a Podstawowa Nr 1 im. W\u0142adys\u0142awa Jagie\u0142\u0142y w Kamionce Wielkiej",
                "name": "Szko\u0142a Podstawowa Nr 1",
                "addr:postcode": "33-334",
                "addr:place": "Kamionka Wielka",
                "addr:housenumber": "154",
                "addr:teryt:simc": 434371,
                "phone": "+48 184456066",
                "email": "sp1kamionka@onet.pl",
                "website": "http:\/\/www.szkolakamionka.pl",
                "ref:regon": "490671921",
                "ref:vatin": "PL7341787944",
                "operator": "Gmina Kamionka Wielka",
                "operator:type": "government",
                "amenity": "school",
                "note": "Parent RSPO: 25600"
            }
        },
        {
            "id": 55540,
            "type": "Feature",
            "geometry": {
                "type": "Point",
                "coordinates": [
                    20.748642,
                    49.5811464
                ]
            },
            "properties": {
                "isced:level": "1;2",
                "ref:rspo": 55540,
                "official_name": "Szko\u0142a Podstawowa im. Marii Sk\u0142odowskiej-Curie w Jamnicy",
                "name": "Szko\u0142a Podstawowa",
                "addr:postcode": "33-300",
                "addr:place": "Jamnica",
                "addr:housenumber": "182",
                "addr:teryt:simc": 434342,
                "phone": "+48 184439561",
                "email": "spjamnica@op.pl",
                "website": "http:\/\/www.spjamnica.edu.pl",
                "ref:regon": "490671944",
                "ref:vatin": "PL7341788168",
                "operator": "Gmina Kamionka Wielka",
                "operator:type": "government",
                "amenity": "school"
            }
        },
        {
            "id": 55542,
            "type": "Feature",
            "geometry": {
                "type": "Point",
                "coordinates": [
                    20.844116,
                    49.5855257
                ]
            },
            "properties": {
                "isced:level": "1;2",
                "ref:rspo": 55542,
                "official_name": "Szko\u0142a Podstawowa im. Wincentego Witosa w Kr\u00f3lowej G\u00f3rnej",
                "name": "Szko\u0142a Podstawowa",
                "addr:postcode": "33-334",
                "addr:place": "Kr\u00f3lowa G\u00f3rna",
                "addr:housenumber": "16",
                "addr:teryt:simc": 434945,
                "phone": "+48 184456023",
                "email": "gimnkg@szkola.wp.pl",
                "website": "http:\/\/www.spkrolowagorna.edupage.org",
                "ref:regon": "490672004",
                "ref:vatin": "PL7342930705",
                "operator": "Gmina Kamionka Wielka",
                "operator:type": "government",
                "amenity": "school"
            }
        },
        {
            "id": 80714,
            "type": "Feature",
            "geometry": {
                "type": "Point",
                "coordinates": [
                    20.844116,
                    49.585495699999996
                ]
            },
            "properties": {
                "ref:rspo": 80714,
                "official_name": "Punkt Przedszkolny",
                "name": "Punkt Przedszkolny",
                "addr:postcode": "33-334",
                "addr:place": "Kr\u00f3lowa G\u00f3rna",
                "addr:housenumber": "16",
                "addr:teryt:simc": 434945,
                "phone": "+48 184456023",
                "email": "gimnkg@szkola.wp.pl",
                "website": "http:\/\/www.zskg.pl",
                "ref:regon": "122703922",
                "operator": "Gmina Kamionka Wielka",
                "operator:type": "government",
                "amenity": "kindergarten"
            }
        },
        {
            "id": 25958,
            "type": "Feature",
            "geometry": {
                "type": "Point",
                "coordinates": [
                    20.82149,
                    49.58766
                ]
            },
            "properties": {
                "isced:level": "1;2",
                "ref:rspo": 25958,
                "official_name": "Szko\u0142a Podstawowa w Kr\u00f3lowej Polskiej",
                "name": "Szko\u0142a Podstawowa w Kr\u00f3lowej Polskiej",
                "addr:postcode": "33-334",
                "addr:place": "Kr\u00f3lowa Polska",
                "addr:housenumber": "1",
                "addr:teryt:simc": 435011,
                "phone": "+48 184456012",
                "email": "sp.krolowapolska@vp.pl",
                "website": "http:\/\/www.spkrolowapolska.wixsite.com\/szkola",
                "ref:regon": "490672010",
                "ref:vatin": "PL7341788085",
                "operator": "Gmina Kamionka Wielka",
                "operator:type": "government",
                "amenity": "school"
            }
        },
        {
            "id": 29572,
            "type": "Feature",
            "geometry": {
                "type": "Point",
                "coordinates": [
                    20.77772,
                    49.60309
                ]
            },
            "properties": {
                "isced:level": "1;2",
                "ref:rspo": 29572,
                "official_name": "Szko\u0142a Podstawowa im.ks.prof.piotra Por\u0119by w Mystkowie",
                "name": "Szko\u0142a Podstawowa im.ks.prof.piotra Por\u0119by w Mystkowie",
                "addr:postcode": "33-334",
                "addr:place": "Mystk\u00f3w",
                "addr:housenumber": "208",
                "addr:teryt:simc": 435413,
                "phone": "+48 184456766",
                "email": "spmystkow@gmail.com",
                "website": "http:\/\/spmystkow.edupage.org",
                "ref:regon": "490671973",
                "ref:vatin": "PL7342931656",
                "operator": "Gmina Kamionka Wielka",
                "operator:type": "government",
                "amenity": "school"
            }
        },
        {
            "id": 31100,
            "type": "Feature",
            "geometry": {
                "type": "Point",
                "coordinates": [
                    20.7894933,
                    49.6049603
                ]
            },
            "properties": {
                "ref:rspo": 31100,
                "official_name": "Niepubliczne Przedszkole\"Faustynka\"",
                "name": "Niepubliczne Przedszkole\"Faustynka\"",
                "addr:postcode": "33-334",
                "addr:place": "Mystk\u00f3w",
                "addr:housenumber": "9",
                "addr:teryt:simc": 435413,
                "phone": "+48 575070620",
                "email": "dyrekcja@faustynka.pl",
                "website": "http:\/\/www.faustynka.pl",
                "ref:regon": "122683792",
                "ref:vatin": "PL7342829975",
                "operator": "Parafia Rzymsko-Katolicka P.w. \u015aw. Ap. Filipa I Jakuba W Mystkowie",
                "operator:type": "religious",
                "amenity": "kindergarten"
            }
        },
        {
            "id": 29115,
            "type": "Feature",
            "geometry": {
                "type": "Point",
                "coordinates": [
                    20.81415,
                    49.60931
                ]
            },
            "properties": {
                "isced:level": "1;2",
                "ref:rspo": 29115,
                "official_name": "Szko\u0142a Podstawowa w Mszalnicy im.b\u0142.karoliny K\u00f3zk\u00f3wny",
                "name": "Szko\u0142a Podstawowa w Mszalnicy im.b\u0142.karoliny K\u00f3zk\u00f3wny",
                "addr:postcode": "33-334",
                "addr:place": "Mszalnica",
                "addr:housenumber": "127",
                "addr:teryt:simc": 435152,
                "phone": "+48 184456248",
                "email": "spmszalnica@kamionkawielka.pl",
                "website": "http:\/\/www.szkolamszalnica.pl",
                "ref:regon": "490671980",
                "ref:vatin": "PL7343449134",
                "operator": "Gmina Kamionka Wielka",
                "operator:type": "government",
                "amenity": "school"
            }
        }
    ]
}