{"type":"FeatureCollection","features":[{"id":57815,"type":"Feature","geometry":{"type":"Point","coordinates":[20.49566,49.5044899]},"properties":{"isced:level":"1;2","ref:rspo":57815,"official_name":"Szko\u0142a Podstawowa Nr 1 im. Prof. Kazimierza Sosnowskiego w Obidzy","name":"Szko\u0142a Podstawowa Nr 1","addr:country":"PL","addr:postcode":"33-389","addr:place":"Obidza","addr:housenumber":"206","addr:teryt:sym_ul":445742,"contact:phone":"+48 184447004","contact:email":"obidza1@wp.pl","contact:website":"http:\/\/www.spobidza.lacko.pl","ref:regon":"490673883","ref:vatin":"PL7342792634","operator":"Gmina \u0141\u0105cko","operator:type":"government","amenity":"school"}},{"id":27320,"type":"Feature","geometry":{"type":"Point","coordinates":[20.51728,49.5323]},"properties":{"ref:rspo":27320,"official_name":"Przedszkole Samorz\u0105dowe w Jazowsku","name":"Przedszkole Samorz\u0105dowe w Jazowsku","addr:country":"PL","addr:postcode":"33-389","addr:place":"Jazowsko","addr:housenumber":"171","addr:teryt:sym_ul":444286,"contact:phone":"+48 184447012","contact:email":"przedszkole.jazowsko@lacko.pl","contact:website":"http:\/\/jazowsko.przedszkolna.net","ref:regon":"492692933","ref:vatin":"PL7342851851","operator":"Gmina \u0141\u0105cko","operator:type":"government","amenity":"kindergarten"}},{"id":56473,"type":"Feature","geometry":{"type":"Point","coordinates":[20.51728,49.53227]},"properties":{"isced:level":"1;2","ref:rspo":56473,"official_name":"Szko\u0142a Podstawowa w Jazowsku","name":"Szko\u0142a Podstawowa w Jazowsku","addr:country":"PL","addr:postcode":"33-389","addr:place":"Jazowsko","addr:housenumber":"171","addr:teryt:sym_ul":444286,"contact:phone":"+48 184447012","contact:email":"sp.jazowsko@lacko.pl","contact:website":"http:\/\/www.spjazowsko.lacko.pl","ref:regon":"490673831","ref:vatin":"PL7342885465","operator":"Gmina \u0141\u0105cko","operator:type":"government","amenity":"school"}},{"id":59821,"type":"Feature","geometry":{"type":"Point","coordinates":[20.390522,49.5390799]},"properties":{"isced:level":"1;2","ref:rspo":59821,"official_name":"Szko\u0142a Podstawowa im. B\u0142ogos\u0142awionej Celestyny Faron w Zabrze\u017cy","name":"Szko\u0142a Podstawowa","addr:country":"PL","addr:postcode":"33-390","addr:place":"Zabrze\u017c","addr:housenumber":"117","addr:teryt:sym_ul":446925,"contact:phone":"+48 184446068","contact:email":"sp.zabrzez@lacko.pl","contact:website":"http:\/\/www.sp.zabrzez.lacko.pl","ref:regon":"490673765","ref:vatin":"PL7342550747","operator":"Gmina \u0141\u0105cko","operator:type":"government","amenity":"school"}},{"id":22706,"type":"Feature","geometry":{"type":"Point","coordinates":[20.5448269,49.5430997]},"properties":{"ref:rspo":22706,"official_name":"Zesp\u00f3\u0142 Szkolno-Przedszkolny w Kadczy","name":"Zesp\u00f3\u0142 Szkolno-Przedszkolny w Kadczy","addr:country":"PL","addr:postcode":"33-389","addr:place":"Kadcza","addr:housenumber":"89","addr:teryt:sym_ul":444671,"contact:phone":"+48 184447015","contact:email":"zspkadcza@op.pl","contact:website":"http:\/\/www.zspkadcza.lacko.pl","ref:regon":"492889506","ref:vatin":"PL7342792545","operator":"Gmina \u0141\u0105cko","operator:type":"government","landuse":"education","fixme":"amenity=school, amenity=college albo landuse=education w zale\u017cno\u015bci od tego, jakie plac\u00f3wki wchodz\u0105 w sk\u0142ad zespo\u0142u. Sprawd\u017a, kiedy stosowa\u0107 amenity=* a kiedy landuse=education.","note":"Children RSPO: 48470;48765"}},{"id":48470,"type":"Feature","geometry":{"type":"Point","coordinates":[20.5448269,49.5430697]},"properties":{"isced:level":"1;2","ref:rspo":48470,"official_name":"Szko\u0142a Podstawowa im. Ks. Kard. Stefana Wyszy\u0144skiego w Kadczy","name":"Szko\u0142a Podstawowa","addr:country":"PL","addr:postcode":"33-389","addr:place":"Kadcza","addr:housenumber":"89","addr:teryt:sym_ul":444671,"contact:phone":"+48 184447015","contact:email":"zspkadcza@op.pl","contact:website":"http:\/\/www.zspkadcza.lacko.pl","ref:regon":"490673848","operator":"Gmina \u0141\u0105cko","operator:type":"government","amenity":"school","note":"Parent RSPO: 22706"}},{"id":48765,"type":"Feature","geometry":{"type":"Point","coordinates":[20.5448269,49.5430397]},"properties":{"ref:rspo":48765,"official_name":"Przedszkole Samorz\u0105dowe im. Ks. Kard. Stefana Wyszy\u0144skiego w Kadczy","name":"Przedszkole Samorz\u0105dowe","addr:country":"PL","addr:postcode":"33-389","addr:place":"Kadcza","addr:housenumber":"89","addr:teryt:sym_ul":444671,"contact:phone":"+48 184447015","contact:email":"zspkadcza@op.pl","contact:website":"http:\/\/www.zspkadcza.lacko.pl","ref:regon":"492889529","operator":"Gmina \u0141\u0105cko","operator:type":"government","amenity":"kindergarten","note":"Parent RSPO: 22706"}},{"id":133851,"type":"Feature","geometry":{"type":"Point","coordinates":[20.4154113,49.5443957]},"properties":{"isced:level":"1;2","ref:rspo":133851,"official_name":"Szko\u0142a Podstawowa w Zarzeczu","name":"Szko\u0142a Podstawowa w Zarzeczu","addr:country":"PL","addr:postcode":"33-390","addr:place":"Zarzecze","addr:housenumber":"106","addr:teryt:sym_ul":447451,"contact:phone":"+48 184446012","contact:email":"sp.zarzecze@lacko.pl","contact:website":"http:\/\/www.zarzecze.lacko.pl","ref:regon":"367706260","operator":"Gmina \u0141\u0105cko","operator:type":"government","amenity":"school"}},{"id":42417,"type":"Feature","geometry":{"type":"Point","coordinates":[20.51745,49.54942]},"properties":{"ref:rspo":42417,"official_name":"Niepubliczne Przedszkole S\u0142owiczek","name":"Niepubliczne Przedszkole S\u0142owiczek","addr:country":"PL","addr:postcode":"33-389","addr:place":"Jazowsko","addr:housenumber":"410","addr:teryt:sym_ul":444286,"contact:email":"przedszkole@slowiczek.eu","contact:website":"http:\/\/www.slowiczek.eu","ref:regon":"122686916","ref:vatin":"PL7343115344","operator":"Jolanta S\u0142owik","operator:type":"private","amenity":"kindergarten"}},{"id":56532,"type":"Feature","geometry":{"type":"Point","coordinates":[20.4649122,49.5512929]},"properties":{"isced:level":"1;2","ref:rspo":56532,"official_name":"Szko\u0142a Podstawowa w Maszkowicach","name":"Szko\u0142a Podstawowa w Maszkowicach","addr:country":"PL","addr:postcode":"33-390","addr:place":"Maszkowice","addr:housenumber":"27","addr:teryt:sym_ul":445452,"contact:phone":"+48 184446046","contact:email":"sp.maszkowice@lacko.pl","contact:website":"http:\/\/www.maszkowice.pl","ref:regon":"490673860","ref:vatin":"PL7342550641","operator":"Gmina \u0141\u0105cko","operator:type":"government","amenity":"school"}},{"id":271915,"type":"Feature","geometry":{"type":"Point","coordinates":[20.768823623657,49.553775787354]},"properties":{"ref:rspo":271915,"official_name":"Regionalne Przedszkole Ma\u0142y Baca","name":"Regionalne Przedszkole Ma\u0142y Baca","addr:country":"PL","addr:postcode":"33-390","addr:place":"\u0141\u0105cko","addr:housenumber":"977","addr:teryt:sym_ul":445104,"contact:email":"golap@onet.pl","contact:website":"http:\/\/malybaca.pl","ref:regon":"383780047","ref:vatin":"PL7340032385","operator":"Ma\u0142gorzata Plechta","operator:type":"private","amenity":"kindergarten"}},{"id":119038,"type":"Feature","geometry":{"type":"Point","coordinates":[20.4222066,49.555428]},"properties":{"ref:rspo":119038,"official_name":"Przedszkole Niepubliczne \"Smerfiki\"","name":"Przedszkole Niepubliczne \"Smerfiki\"","addr:country":"PL","addr:postcode":"33-390","addr:place":"Czerniec","addr:housenumber":"160","addr:teryt:sym_ul":444139,"contact:phone":"+48 184471321","contact:email":"smerfiki@onet.eu","contact:website":"http:\/\/www.smerfiki.eu","ref:regon":"122928503","ref:vatin":"PL7371986737","operator":"Tomasz Gierczyk","operator:type":"private","amenity":"kindergarten"}},{"id":24677,"type":"Feature","geometry":{"type":"Point","coordinates":[20.43762,49.55692]},"properties":{"ref:rspo":24677,"official_name":"Samorz\u0105dowe Przedszkole w \u0141\u0105cku","name":"Samorz\u0105dowe Przedszkole w \u0141\u0105cku","addr:country":"PL","addr:postcode":"33-390","addr:place":"\u0141\u0105cko","addr:housenumber":"445","addr:teryt:sym_ul":445104,"contact:phone":"+48 184446083","contact:email":"przedszkole.lacko@lacko.pl","contact:website":"http:\/\/www.przedszkole.elacko.pl","ref:regon":"492692940","ref:vatin":"PL7342849274","operator":"Gmina \u0141\u0105cko","operator:type":"government","amenity":"kindergarten"}},{"id":121927,"type":"Feature","geometry":{"type":"Point","coordinates":[20.43749,49.55746]},"properties":{"ref:rspo":121927,"official_name":"Przedszkole Niepubliczne Promyczek","name":"Przedszkole Niepubliczne Promyczek","addr:country":"PL","addr:postcode":"33-390","addr:place":"\u0141\u0105cko","addr:housenumber":"319A","addr:teryt:sym_ul":445104,"contact:phone":"+48 600585114","contact:email":"ewa_cidylo@op.pl","contact:website":"http:\/\/www.przedszkole-promyczek.edu.pl","ref:regon":"122683800","ref:vatin":"PL7341694220","operator":"Ewa Cidy\u0142o","operator:type":"private","amenity":"kindergarten"}},{"id":133349,"type":"Feature","geometry":{"type":"Point","coordinates":[20.43508,49.5585]},"properties":{"ref:rspo":133349,"official_name":"Niepubliczne J\u0119zykowo-Sportowe Przedszkole \"Kraina U\u015bmiechu\"","name":"Niepubliczne J\u0119zykowo-Sportowe Przedszkole \"Kraina U\u015bmiechu\"","addr:country":"PL","addr:postcode":"33-390","addr:place":"\u0141\u0105cko","addr:housenumber":"45","addr:teryt:sym_ul":445104,"contact:phone":"+48 794749851","contact:email":"przedszkole-kraina-usmiechu@wp.pl","ref:regon":"367086626","ref:vatin":"PL7340032899","operator":"Kazimierz Franczyk","operator:type":"private","amenity":"kindergarten"}},{"id":262999,"type":"Feature","geometry":{"type":"Point","coordinates":[20.43574,49.55995]},"properties":{"ref:rspo":262999,"official_name":"Zesp\u00f3\u0142 Szkolno-Przedszkolny w \u0141\u0105cku","name":"Zesp\u00f3\u0142 Szkolno-Przedszkolny w \u0141\u0105cku","addr:country":"PL","addr:postcode":"33-390","addr:place":"\u0141\u0105cko","addr:housenumber":"284","addr:teryt:sym_ul":445104,"contact:phone":"+48 184446011","contact:email":"zsp.lacko@lacko.pl","contact:website":"http:\/\/www.zsp.lacko.pl","ref:regon":"368087148","ref:vatin":"PL7343551631","operator":"Gmina \u0141\u0105cko","operator:type":"government","landuse":"education","fixme":"amenity=school, amenity=college albo landuse=education w zale\u017cno\u015bci od tego, jakie plac\u00f3wki wchodz\u0105 w sk\u0142ad zespo\u0142u. Sprawd\u017a, kiedy stosowa\u0107 amenity=* a kiedy landuse=education.","note":"Children RSPO: 60862;264198"}},{"id":60862,"type":"Feature","geometry":{"type":"Point","coordinates":[20.43574,49.55992]},"properties":{"isced:level":"1;2","ref:rspo":60862,"official_name":"Szko\u0142a Podstawowa w \u0141\u0105cku","name":"Szko\u0142a Podstawowa w \u0141\u0105cku","addr:country":"PL","addr:postcode":"33-390","addr:place":"\u0141\u0105cko","addr:housenumber":"284","addr:teryt:sym_ul":445104,"contact:phone":"+48 184446011","contact:email":"zsp.lacko@lacko.pl","contact:website":"http:\/\/www.zsp.lacko.pl","ref:regon":"492889452","operator":"Gmina \u0141\u0105cko","operator:type":"government","amenity":"school","note":"Parent RSPO: 262999"}},{"id":264198,"type":"Feature","geometry":{"type":"Point","coordinates":[20.43574,49.55989]},"properties":{"ref:rspo":264198,"official_name":"Samorz\u0105dowe Przedszkole Nr 1 w \u0141\u0105cku","name":"Samorz\u0105dowe Przedszkole Nr 1 w \u0141\u0105cku","addr:country":"PL","addr:postcode":"33-390","addr:place":"\u0141\u0105cko","addr:housenumber":"284","addr:teryt:sym_ul":445104,"contact:phone":"+48 184446011","contact:email":"zsp.lacko@lacko.pl","contact:website":"http:\/\/www.zsp.lacko.pl","ref:regon":"368286362","operator":"Gmina \u0141\u0105cko","operator:type":"government","amenity":"kindergarten","note":"Parent RSPO: 262999"}},{"id":24414,"type":"Feature","geometry":{"type":"Point","coordinates":[20.43208,49.56107]},"properties":{"ref:rspo":24414,"official_name":"Szko\u0142a Muzyczna I Stopnia w \u0141\u0105cku","name":"Szko\u0142a Muzyczna I Stopnia w \u0141\u0105cku","addr:country":"PL","addr:postcode":"33-390","addr:place":"\u0141\u0105cko","addr:housenumber":"23","addr:teryt:sym_ul":445104,"contact:phone":"+48 184446053","contact:email":"szkola.muzyczna.lacko@poczta.onet.pl","contact:website":"http:\/\/www.smlacko.pl","ref:regon":"120503640","ref:vatin":"PL7343246879","operator":"Gmina \u0141\u0105cko","operator:type":"government","amenity":"music_school"}},{"id":43626,"type":"Feature","geometry":{"type":"Point","coordinates":[20.4326599,49.5623999]},"properties":{"ref:rspo":43626,"official_name":"Zesp\u00f3\u0142 Szk\u00f3\u0142 im. \u015aw. Kingi w \u0141\u0105cku","name":"Zesp\u00f3\u0142 Szk\u00f3\u0142","addr:country":"PL","addr:postcode":"33-390","addr:place":"\u0141\u0105cko","addr:housenumber":"26","addr:teryt:sym_ul":445104,"contact:phone":"+48 184446023","contact:email":"zslacko@zslacko.pl","ref:regon":"000706125","ref:vatin":"PL7341954773","operator":"Powiat Nowos\u0105decki","operator:type":"government","landuse":"education","fixme":"amenity=school, amenity=college albo landuse=education w zale\u017cno\u015bci od tego, jakie plac\u00f3wki wchodz\u0105 w sk\u0142ad zespo\u0142u. Sprawd\u017a, kiedy stosowa\u0107 amenity=* a kiedy landuse=education.","note":"Children RSPO: 60773;60824;61671;132218"}},{"id":60773,"type":"Feature","geometry":{"type":"Point","coordinates":[20.4326599,49.5623699]},"properties":{"isced:level":"3","ref:rspo":60773,"official_name":"Liceum Og\u00f3lnokszta\u0142c\u0105ce w \u0141\u0105cku","name":"Liceum Og\u00f3lnokszta\u0142c\u0105ce w \u0141\u0105cku","addr:country":"PL","addr:postcode":"33-390","addr:place":"\u0141\u0105cko","addr:housenumber":"26","addr:teryt:sym_ul":445104,"contact:phone":"+48 184446023","contact:email":"zslacko@poczta.onet.pl","ref:regon":"492902626","ref:vatin":"PL7341954773","operator":"Powiat Nowos\u0105decki","operator:type":"government","amenity":"school","note":"Parent RSPO: 43626"}},{"id":60824,"type":"Feature","geometry":{"type":"Point","coordinates":[20.4326599,49.562339900000005]},"properties":{"isced:level":"3","ref:rspo":60824,"official_name":"Technikum w \u0141\u0105cku","name":"Technikum w \u0141\u0105cku","addr:country":"PL","addr:postcode":"33-390","addr:place":"\u0141\u0105cko","addr:housenumber":"26","addr:teryt:sym_ul":445104,"contact:phone":"+48 184446023","contact:email":"zslacko@zslacko.pl","ref:regon":"492902684","ref:vatin":"PL7341954773","operator":"Powiat Nowos\u0105decki","operator:type":"government","amenity":"school","note":"Parent RSPO: 43626"}},{"id":61671,"type":"Feature","geometry":{"type":"Point","coordinates":[20.4326599,49.5623099]},"properties":{"isced:level":"3","ref:rspo":61671,"official_name":"Bran\u017cowa Szko\u0142a I Stopnia w \u0141\u0105cku","name":"Bran\u017cowa Szko\u0142a I Stopnia w \u0141\u0105cku","addr:country":"PL","addr:postcode":"33-390","addr:place":"\u0141\u0105cko","addr:housenumber":"26","addr:teryt:sym_ul":445104,"contact:phone":"+48 184446023","contact:email":"zslacko@zslacko.pl","ref:regon":"492902690","ref:vatin":"PL7341954773","operator":"Powiat Nowos\u0105decki","operator:type":"government","amenity":"school","note":"Parent RSPO: 43626"}},{"id":132218,"type":"Feature","geometry":{"type":"Point","coordinates":[20.4326599,49.5622799]},"properties":{"ref:rspo":132218,"official_name":"Centrum Kszta\u0142cenia Ustawicznego w \u0141\u0105cku","name":"Centrum Kszta\u0142cenia Ustawicznego w \u0141\u0105cku","addr:country":"PL","addr:postcode":"33-390","addr:place":"\u0141\u0105cko","addr:housenumber":"26","addr:teryt:sym_ul":445104,"contact:phone":"+48 184446023","contact:email":"zslacko@zslacko.pl","ref:regon":"365527782","operator":"Powiat Nowos\u0105decki","operator:type":"government","fixme":"w zale\u017cno\u015bci od przedmiotu dzia\u0142alno\u015bci (np. amenity=training + training=*, amenity=dancing_school, amenity=language_school, amenity=music_school)","note":"Parent RSPO: 43626"}},{"id":62311,"type":"Feature","geometry":{"type":"Point","coordinates":[20.5069871,49.5645845]},"properties":{"isced:level":"1;2","ref:rspo":62311,"official_name":"Szko\u0142a Podstawowa w Szczere\u017cu","name":"Szko\u0142a Podstawowa w Szczere\u017cu","addr:country":"PL","addr:postcode":"33-390","addr:place":"Szczere\u017c","addr:housenumber":"69","addr:teryt:sym_ul":446530,"contact:phone":"+48 184446336","contact:email":"sp.szczerez@lacko.pl","contact:website":"http:\/\/www.spszczerez.lacko.iap.pl","ref:regon":"490673908","ref:vatin":"PL7342550664","operator":"Gmina \u0141\u0105cko","operator:type":"government","amenity":"school"}},{"id":22860,"type":"Feature","geometry":{"type":"Point","coordinates":[20.4851738,49.5785445]},"properties":{"ref:rspo":22860,"official_name":"Zesp\u00f3\u0142 Szkolno Przedszkolny w Czarnym Potoku","name":"Zesp\u00f3\u0142 Szkolno Przedszkolny w Czarnym Potoku","addr:country":"PL","addr:postcode":"33-390","addr:place":"Czarny Potok","addr:housenumber":"111","addr:teryt:sym_ul":444040,"contact:phone":"+48 184479115","contact:email":"zsp.czarnypotok@lacko.pl","contact:website":"http:\/\/www.zspczarnypotok.iap.pl","ref:regon":"492945950","ref:vatin":"PL7343052307","operator":"Gmina \u0141\u0105cko","operator:type":"government","landuse":"education","fixme":"amenity=school, amenity=college albo landuse=education w zale\u017cno\u015bci od tego, jakie plac\u00f3wki wchodz\u0105 w sk\u0142ad zespo\u0142u. Sprawd\u017a, kiedy stosowa\u0107 amenity=* a kiedy landuse=education.","note":"Children RSPO: 49667;52235"}},{"id":49667,"type":"Feature","geometry":{"type":"Point","coordinates":[20.4851738,49.5785145]},"properties":{"ref:rspo":49667,"official_name":"Przedszkole Samorz\u0105dowe w Czarnym Potoku","name":"Przedszkole Samorz\u0105dowe w Czarnym Potoku","addr:country":"PL","addr:postcode":"33-390","addr:place":"Czarny Potok","addr:housenumber":"111","addr:teryt:sym_ul":444040,"contact:phone":"+48 184479115","contact:email":"cz.potok@interia.pl","contact:website":"http:\/\/www.zspczarnypotok.iap.pl","ref:regon":"492692956","operator":"Gmina \u0141\u0105cko","operator:type":"government","amenity":"kindergarten","note":"Parent RSPO: 22860"}},{"id":52235,"type":"Feature","geometry":{"type":"Point","coordinates":[20.4851738,49.5784845]},"properties":{"isced:level":"1;2","ref:rspo":52235,"official_name":"Szko\u0142a Podstawowa w Czarnym Potoku","name":"Szko\u0142a Podstawowa w Czarnym Potoku","addr:country":"PL","addr:postcode":"33-390","addr:place":"Czarny Potok","addr:housenumber":"111","addr:teryt:sym_ul":444040,"contact:phone":"+48 184479115","contact:email":"cz.potok@interia.pl","contact:website":"http:\/\/www.zspczarnypotok.iap.pl","ref:regon":"490673825","operator":"Gmina \u0141\u0105cko","operator:type":"government","amenity":"school","note":"Parent RSPO: 22860"}},{"id":48469,"type":"Feature","geometry":{"type":"Point","coordinates":[20.39188,49.58143]},"properties":{"isced:level":"1;2","ref:rspo":48469,"official_name":"Szko\u0142a Podstawowa w Zagorzynie","name":"Szko\u0142a Podstawowa w Zagorzynie","addr:country":"PL","addr:postcode":"33-390","addr:place":"Zagorzyn","addr:housenumber":"172","addr:teryt:sym_ul":447190,"contact:phone":"+48 184446085","contact:email":"sp.zagorzyn@lacko.pl","contact:website":"http:\/\/www.zsgzagorzyn.lacko.pl","ref:regon":"490673771","operator":"Gmina \u0141\u0105cko","operator:type":"government","amenity":"school"}},{"id":55755,"type":"Feature","geometry":{"type":"Point","coordinates":[20.42299,49.59339]},"properties":{"isced:level":"1;2","ref:rspo":55755,"official_name":"Szko\u0142a Podstawowa w Kiczni","name":"Szko\u0142a Podstawowa w Kiczni","addr:country":"PL","addr:postcode":"33-390","addr:place":"Kicznia","addr:housenumber":"121","addr:teryt:sym_ul":444719,"contact:phone":"+48 184446017","contact:email":"sp.kicznia@lacko.pl","contact:website":"http:\/\/www.spkicznia.lacko.pl","ref:regon":"490673854","ref:vatin":"PL7342550635","operator":"Gmina \u0141\u0105cko","operator:type":"government","amenity":"school"}},{"id":270013,"type":"Feature","geometry":{"type":"Point","coordinates":[20.704961776733,49.606922149658]},"properties":{"ref:rspo":270013,"official_name":"Niepubliczna Plac\u00f3wka Kszta\u0142cenia Ustawicznego O\u015brodek Szkoleniowy Vip System Sp. Z O.o.","name":"Niepubliczna Plac\u00f3wka Kszta\u0142cenia Ustawicznego O\u015brodek Szkoleniowy Vip System Sp. Z O.o.","addr:country":"PL","addr:postcode":"33-390","addr:place":"\u0141\u0105cko","addr:housenumber":"936","addr:teryt:sym_ul":445104,"contact:phone":"+48 537098955","contact:email":"szkolenia.vipsystem@onet.pl","ref:regon":"381983409","operator":"Vip System Sp\u00f3\u0142ka Z Ograniczon\u0105 Odpowiedzialno\u015bci\u0105","operator:type":"private","fixme":"w zale\u017cno\u015bci od przedmiotu dzia\u0142alno\u015bci (np. amenity=training + training=*, amenity=dancing_school, amenity=language_school, amenity=music_school)"}}]}