{"type":"FeatureCollection","features":[{"id":89788,"type":"Feature","geometry":{"type":"Point","coordinates":[20.72667,49.70115]},"properties":{"isced:level":"1;2","ref:rspo":89788,"official_name":"Szko\u0142a Podstawowa im.b\u0142.ks.jerzego Popie\u0142uszki w Jelnej","name":"Szko\u0142a Podstawowa im.b\u0142.ks.jerzego Popie\u0142uszki w Jelnej","addr:country":"PL","addr:postcode":"33-318","addr:place":"Jelna","addr:housenumber":"95","addr:teryt:sym_ul":426199,"contact:phone":"+48 184417827","contact:email":"zsjelna@gminagrodek.pl","contact:website":"http:\/\/www.spjelna.gminagrodek.pl","ref:regon":"490670962","ref:vatin":"PL7342980815","operator":"Gmina Gr\u00f3dek Nad Dunajcem","operator:type":"government","amenity":"school"}},{"id":64483,"type":"Feature","geometry":{"type":"Point","coordinates":[20.69909,49.71455]},"properties":{"isced:level":"1;2","ref:rspo":64483,"official_name":"Szko\u0142a Podstawowa w Siennej","name":"Szko\u0142a Podstawowa w Siennej","addr:country":"PL","addr:postcode":"33-318","addr:place":"Sienna","addr:housenumber":"27","addr:teryt:sym_ul":426615,"contact:phone":"+48 184417986","contact:email":"sp_sienna1@wp.pl","ref:regon":"490670910","ref:vatin":"PL7342773329","operator":"Gmina Gr\u00f3dek Nad Dunajcem","operator:type":"government","amenity":"school"}},{"id":64482,"type":"Feature","geometry":{"type":"Point","coordinates":[20.72939,49.72231]},"properties":{"isced:level":"1;2","ref:rspo":64482,"official_name":"Szko\u0142a Podstawowa w Lipiu","name":"Szko\u0142a Podstawowa w Lipiu","addr:country":"PL","addr:postcode":"33-318","addr:place":"Lipie","addr:housenumber":"11","addr:teryt:sym_ul":426288,"contact:phone":"+48 184401051","contact:email":"splipie@o2.pl","contact:website":"http:\/\/www.sp-lipie.pl","ref:regon":"490670985","ref:vatin":"PL7342773335","operator":"Gmina Gr\u00f3dek Nad Dunajcem","operator:type":"government","amenity":"school"}},{"id":89907,"type":"Feature","geometry":{"type":"Point","coordinates":[20.77439,49.73556]},"properties":{"isced:level":"1;2","ref:rspo":89907,"official_name":"Szko\u0142a Podstawowa w Przydonicy","name":"Szko\u0142a Podstawowa w Przydonicy","addr:country":"PL","addr:postcode":"33-318","addr:place":"Przydonica","addr:housenumber":"24","addr:teryt:sym_ul":426360,"contact:phone":"+48 184401082","contact:email":"zsprzydonica@wp.pl","ref:regon":"490671000","ref:vatin":"PL7342980867","operator":"Gmina Gr\u00f3dek Nad Dunajcem","operator:type":"government","amenity":"school"}},{"id":57608,"type":"Feature","geometry":{"type":"Point","coordinates":[20.73285,49.7472]},"properties":{"ref:rspo":57608,"official_name":"Zesp\u00f3\u0142 Szk\u00f3\u0142 w Gr\u00f3dku Nad Dunajcem","name":"Zesp\u00f3\u0142 Szk\u00f3\u0142 w Gr\u00f3dku Nad Dunajcem","addr:country":"PL","addr:postcode":"33-318","addr:place":"Gr\u00f3dek nad Dunajcem","addr:housenumber":"195","addr:teryt:sym_ul":426124,"contact:phone":"+48 184401023","contact:email":"zsgrodek@gminagrodek.pl","contact:website":"http:\/\/www.zsgrodek.com.pl","ref:regon":"492911460","ref:vatin":"PL7342980927","operator":"Gmina Gr\u00f3dek Nad Dunajcem","operator:type":"government","landuse":"education","fixme":"amenity=school, amenity=college albo landuse=education w zale\u017cno\u015bci od tego, jakie plac\u00f3wki wchodz\u0105 w sk\u0142ad zespo\u0142u. Sprawd\u017a, kiedy stosowa\u0107 amenity=* a kiedy landuse=education.","note":"Children RSPO: 71923;114464"}},{"id":71923,"type":"Feature","geometry":{"type":"Point","coordinates":[20.73285,49.74717]},"properties":{"isced:level":"1;2","ref:rspo":71923,"official_name":"Szko\u0142a Podstawowa im. Kard. Stefana Wyszy\u0144skiego w Gr\u00f3dku Nad Dunajcem","name":"Szko\u0142a Podstawowa","addr:country":"PL","addr:postcode":"33-318","addr:place":"Gr\u00f3dek nad Dunajcem","addr:housenumber":"195","addr:teryt:sym_ul":426124,"contact:phone":"+48 184401023","contact:email":"zsgrodek@gminagrodek.pl","contact:website":"http:\/\/www.zsgrodek.com.pl","ref:regon":"490670991","operator":"Gmina Gr\u00f3dek Nad Dunajcem","operator:type":"government","amenity":"school","note":"Parent RSPO: 57608"}},{"id":114464,"type":"Feature","geometry":{"type":"Point","coordinates":[20.73285,49.74714]},"properties":{"ref:rspo":114464,"official_name":"Punkt Przedszkolny w Gr\u00f3dku Nad Dunajcem \"Bajkowa Kraina\"","name":"Punkt Przedszkolny w Gr\u00f3dku Nad Dunajcem \"Bajkowa Kraina\"","addr:country":"PL","addr:postcode":"33-318","addr:place":"Gr\u00f3dek nad Dunajcem","addr:housenumber":"195","addr:teryt:sym_ul":426124,"contact:phone":"+48 184401023","contact:email":"spgrodek@pro.onet.pl","ref:regon":"122851628","operator":"Gmina Gr\u00f3dek Nad Dunajcem","operator:type":"government","amenity":"kindergarten","note":"Parent RSPO: 57608"}},{"id":89903,"type":"Feature","geometry":{"type":"Point","coordinates":[20.77503,49.75533]},"properties":{"isced:level":"1;2","ref:rspo":89903,"official_name":"Szko\u0142a Podstawowa im.jana Paw\u0142a II w Podolu-G\u00f3rowej","name":"Szko\u0142a Podstawowa im.jana Paw\u0142a II w Podolu-G\u00f3rowej","addr:country":"PL","addr:postcode":"33-318","addr:place":"Podole-G\u00f3rowa","addr:housenumber":"158","addr:teryt:sym_ul":426319,"contact:phone":"+48 184401030","contact:email":"sppodole@gminagrodek.pl","contact:website":"http:\/\/www.zspodolegorowa.pl","ref:regon":"490670880","ref:vatin":"PL7342979083","operator":"Gmina Gr\u00f3dek Nad Dunajcem","operator:type":"government","amenity":"school"}},{"id":89905,"type":"Feature","geometry":{"type":"Point","coordinates":[20.7250324,49.7629735]},"properties":{"isced:level":"1;2","ref:rspo":89905,"official_name":"Szko\u0142a Podstawowa w Ro\u017cnowie","name":"Szko\u0142a Podstawowa w Ro\u017cnowie","addr:country":"PL","addr:postcode":"33-316","addr:place":"Ro\u017cn\u00f3w","addr:housenumber":"269","addr:teryt:sym_ul":426526,"contact:phone":"+48 184403032","contact:email":"sproznow@wp.pl","ref:regon":"490670940","ref:vatin":"PL7342980873","operator":"Gmina Gr\u00f3dek Nad Dunajcem","operator:type":"government","amenity":"school"}},{"id":64485,"type":"Feature","geometry":{"type":"Point","coordinates":[20.69341,49.77066]},"properties":{"ref:rspo":64485,"official_name":"Szko\u0142a Muzyczna I Stopnia w Ro\u017cnowie","name":"Szko\u0142a Muzyczna I Stopnia w Ro\u017cnowie","addr:country":"PL","addr:postcode":"33-316","addr:place":"Ro\u017cn\u00f3w","addr:housenumber":"638","addr:teryt:sym_ul":426526,"contact:phone":"+48 182638123","contact:email":"s.muz.roznow@wp.pl","contact:website":"https:\/\/www.smroznow.edu.pl\/","ref:regon":"121301676","ref:vatin":"PL7343450798","operator":"Gmina Gr\u00f3dek Nad Dunajcem","operator:type":"government","amenity":"music_school"}},{"id":131431,"type":"Feature","geometry":{"type":"Point","coordinates":[20.72626,49.77803]},"properties":{"ref:rspo":131431,"official_name":"Niepubliczne Przedszkole Weso\u0142e Krasnoludki Barbara Dudek","name":"Niepubliczne Przedszkole Weso\u0142e Krasnoludki Barbara Dudek","addr:country":"PL","addr:postcode":"33-316","addr:place":"Ro\u017cn\u00f3w","addr:housenumber":"718","addr:teryt:sym_ul":426526,"contact:phone":"+48 608252332","ref:regon":"365172190","operator":"Barbara Dudek","operator:type":"private","amenity":"kindergarten"}},{"id":64484,"type":"Feature","geometry":{"type":"Point","coordinates":[20.71387,49.7893]},"properties":{"isced:level":"1;2","ref:rspo":64484,"official_name":"Szko\u0142a Podstawowa im. Janusza Korczaka w Roztoce-Brzezinach","name":"Szko\u0142a Podstawowa","addr:country":"PL","addr:postcode":"33-316","addr:place":"Roztoka-Brzeziny","addr:housenumber":"211","addr:teryt:sym_ul":426466,"contact:phone":"+48 184403004","contact:email":"dyrekcja.sproztoka@poczta.fm","ref:regon":"490670933","ref:vatin":"PL7342773097","operator":"Gmina Gr\u00f3dek Nad Dunajcem","operator:type":"government","amenity":"school"}}]}