{
    "type": "FeatureCollection",
    "features": [
        {
            "id": 13637,
            "type": "Feature",
            "geometry": {
                "type": "Point",
                "coordinates": [
                    20.5373258,
                    49.5534635
                ]
            },
            "properties": {
                "isced:level": "1;2",
                "ref:rspo": 13637,
                "official_name": "Szko\u0142a Postawowa",
                "name": "Szko\u0142a Postawowa",
                "addr:postcode": "33-386",
                "addr:place": "Olszanka",
                "addr:housenumber": "24",
                "addr:city:simc": 460859,
                "phone": "+48 184479191",
                "email": "sp_olszanka@iap.pl",
                "website": "http:\/\/www.spolszanka.pl",
                "ref:regon": "490674954",
                "ref:vatin": "PL7342773039",
                "operator": "Gmina Podegrodzie",
                "operator:type": "government",
                "amenity": "school"
            }
        },
        {
            "id": 13641,
            "type": "Feature",
            "geometry": {
                "type": "Point",
                "coordinates": [
                    20.768823623657,
                    49.553775787354
                ]
            },
            "properties": {
                "ref:rspo": 13641,
                "official_name": "Gminne Przdeszkole",
                "name": "Gminne Przdeszkole",
                "addr:postcode": "33-386",
                "addr:place": "Podegrodzie",
                "addr:housenumber": "525",
                "addr:city:simc": 460925,
                "phone": "+48 184459067",
                "email": "barbarabodziony@op.pl",
                "website": "http:\/\/www.gp.podegrodzie.pl",
                "ref:regon": "000971212",
                "ref:vatin": "PL7342776753",
                "operator": "Gmina Podegrodzie",
                "operator:type": "government",
                "amenity": "kindergarten"
            }
        },
        {
            "id": 13636,
            "type": "Feature",
            "geometry": {
                "type": "Point",
                "coordinates": [
                    20.51925,
                    49.57106
                ]
            },
            "properties": {
                "isced:level": "1;2",
                "ref:rspo": 13636,
                "official_name": "Szko\u0142a Podstawowa",
                "name": "Szko\u0142a Podstawowa",
                "addr:postcode": "33-386",
                "addr:place": "Olszana",
                "addr:housenumber": "127",
                "addr:city:simc": 460693,
                "phone": "+48 184479181",
                "email": "kancelaria@spolszana.pl",
                "ref:regon": "490674990",
                "ref:vatin": "PL7342773223",
                "operator": "Gmina Podegrodzie",
                "operator:type": "government",
                "amenity": "school"
            }
        },
        {
            "id": 132117,
            "type": "Feature",
            "geometry": {
                "type": "Point",
                "coordinates": [
                    20.51925,
                    49.57103
                ]
            },
            "properties": {
                "ref:rspo": 132117,
                "official_name": "Niepubliczne Przedszkole Ma\u0142y Artysta",
                "name": "Niepubliczne Przedszkole Ma\u0142y Artysta",
                "addr:postcode": "33-386",
                "addr:place": "Olszana",
                "addr:housenumber": "127",
                "addr:city:simc": 460693,
                "phone": "+48 501460867",
                "ref:regon": "365469487",
                "ref:vatin": "PL7343142418",
                "operator": "Anna Ko\u0142bon",
                "operator:type": "private",
                "amenity": "kindergarten"
            }
        },
        {
            "id": 13638,
            "type": "Feature",
            "geometry": {
                "type": "Point",
                "coordinates": [
                    20.5431084,
                    49.5750852
                ]
            },
            "properties": {
                "isced:level": "1;2",
                "ref:rspo": 13638,
                "official_name": "Szko\u0142a Podstawowa",
                "name": "Szko\u0142a Podstawowa",
                "addr:postcode": "33-386",
                "addr:place": "Rogi",
                "addr:housenumber": "53",
                "addr:city:simc": 461132,
                "phone": "+48 184459202",
                "email": "szkolarogibch@o2.pl",
                "website": "http:\/\/www.sprogi.podegrodzie.pl",
                "ref:regon": "490675008",
                "ref:vatin": "PL7342773476",
                "operator": "Gmina Podegrodzie",
                "operator:type": "government",
                "amenity": "school"
            }
        },
        {
            "id": 19077,
            "type": "Feature",
            "geometry": {
                "type": "Point",
                "coordinates": [
                    20.5889648,
                    49.5770499
                ]
            },
            "properties": {
                "isced:level": "1;2",
                "ref:rspo": 19077,
                "official_name": "Szko\u0142a Podstawowa",
                "name": "Szko\u0142a Podstawowa",
                "addr:postcode": "33-386",
                "addr:place": "Podegrodzie",
                "addr:housenumber": "6",
                "addr:city:simc": 460925,
                "phone": "+48 184459011",
                "email": "sp_podegrodzie@iap.pl",
                "website": "http:\/\/www.zespol.podegrodzie.iap.pl\/",
                "ref:regon": "490674859",
                "ref:vatin": "PL7343324177",
                "operator": "Gmina Podegrodzie",
                "operator:type": "government",
                "amenity": "school"
            }
        },
        {
            "id": 19047,
            "type": "Feature",
            "geometry": {
                "type": "Point",
                "coordinates": [
                    20.48477,
                    49.5772
                ]
            },
            "properties": {
                "ref:rspo": 19047,
                "official_name": "Ochronka \u015aw.j\u00f3zefa",
                "name": "Ochronka \u015aw.j\u00f3zefa",
                "addr:postcode": "33-386",
                "addr:place": "Olszana",
                "addr:housenumber": "114",
                "addr:city:simc": 460693,
                "email": "siostryolszana114@interia.pl",
                "ref:regon": "122670737",
                "ref:vatin": "PL7343183765",
                "operator": "Zgromadzenie Si\u00f3str S\u0142u\u017cebniczek Naj\u015bwi\u0119tszej Maryi Panny Niepokalanie Pocz\u0119tej Prowincja Tarnowska",
                "operator:type": "religious",
                "amenity": "kindergarten"
            }
        },
        {
            "id": 13644,
            "type": "Feature",
            "geometry": {
                "type": "Point",
                "coordinates": [
                    20.5988137,
                    49.5780392
                ]
            },
            "properties": {
                "ref:rspo": 13644,
                "official_name": "Przedszkole Niepubliczne",
                "name": "Przedszkole Niepubliczne",
                "addr:postcode": "33-386",
                "addr:place": "Podegrodzie",
                "addr:housenumber": "399",
                "addr:city:simc": 460925,
                "phone": "+48 185331203",
                "email": "amaciuszek@krainabajek.net",
                "website": "http:\/\/www.krainabajek.net",
                "ref:regon": "122659629",
                "ref:vatin": "PL7342764158",
                "operator": "Agnieszka Maciuszek",
                "operator:type": "private",
                "amenity": "kindergarten"
            }
        },
        {
            "id": 13639,
            "type": "Feature",
            "geometry": {
                "type": "Point",
                "coordinates": [
                    20.61189,
                    49.58573
                ]
            },
            "properties": {
                "isced:level": "1;2",
                "ref:rspo": 13639,
                "official_name": "Szko\u0142a Podstawowa",
                "name": "Szko\u0142a Podstawowa",
                "addr:postcode": "33-386",
                "addr:place": "Stad\u0142a",
                "addr:housenumber": "30",
                "addr:city:simc": 461178,
                "phone": "+48 184459115",
                "email": "stadla@interia.pl",
                "ref:regon": "490438024",
                "ref:vatin": "PL7342768819",
                "operator": "Gmina Podegrodzie",
                "operator:type": "government",
                "amenity": "school"
            }
        },
        {
            "id": 13634,
            "type": "Feature",
            "geometry": {
                "type": "Point",
                "coordinates": [
                    20.58961,
                    49.59566
                ]
            },
            "properties": {
                "isced:level": "1;2",
                "ref:rspo": 13634,
                "official_name": "Szko\u0142a Podstawowa",
                "name": "Szko\u0142a Podstawowa",
                "addr:postcode": "33-386",
                "addr:place": "Gostwica",
                "addr:housenumber": "27",
                "addr:city:simc": 460227,
                "phone": "+48 184458508",
                "email": "spgostwica@wp.pl",
                "website": "http:\/\/www.spgostwica.iap.pl",
                "ref:regon": "490674977",
                "ref:vatin": "PL7342772873",
                "operator": "Gmina Podegrodzie",
                "operator:type": "government",
                "amenity": "school"
            }
        },
        {
            "id": 13635,
            "type": "Feature",
            "geometry": {
                "type": "Point",
                "coordinates": [
                    20.56383,
                    49.59669
                ]
            },
            "properties": {
                "isced:level": "1;2",
                "ref:rspo": 13635,
                "official_name": "Szko\u0142a Podstawowa",
                "name": "Szko\u0142a Podstawowa",
                "addr:postcode": "33-386",
                "addr:place": "Mokra Wie\u015b",
                "addr:housenumber": "141",
                "addr:city:simc": 460463,
                "phone": "+48 184459084",
                "email": "sp.mokrawies@op.pl",
                "website": "http:\/\/www.spmokrawies.neostrada.pl",
                "ref:regon": "490674983",
                "ref:vatin": "PL7342773186",
                "operator": "Gmina Podegrodzie",
                "operator:type": "government",
                "amenity": "school"
            }
        },
        {
            "id": 13631,
            "type": "Feature",
            "geometry": {
                "type": "Point",
                "coordinates": [
                    20.6298022,
                    49.597518
                ]
            },
            "properties": {
                "isced:level": "1;2",
                "ref:rspo": 13631,
                "official_name": "Szko\u0142a Podstawowa",
                "name": "Szko\u0142a Podstawowa",
                "addr:postcode": "33-386",
                "addr:place": "Brzezna",
                "addr:housenumber": "447",
                "addr:city:simc": 459891,
                "phone": "+48 184458837",
                "email": "spbrzezna@op.pl",
                "website": "http:\/\/www.spbrzezna.edupage.org",
                "ref:regon": "490674865",
                "ref:vatin": "PL7342779898",
                "operator": "Gmina Podegrodzie",
                "operator:type": "government",
                "amenity": "school"
            }
        },
        {
            "id": 13645,
            "type": "Feature",
            "geometry": {
                "type": "Point",
                "coordinates": [
                    20.57718,
                    49.59937
                ]
            },
            "properties": {
                "ref:rspo": 13645,
                "official_name": "Przedszkole Niepubliczne",
                "name": "Przedszkole Niepubliczne",
                "addr:postcode": "33-386",
                "addr:place": "Gostwica",
                "addr:housenumber": "220",
                "addr:city:simc": 460227,
                "phone": "+48 500547397",
                "email": "przedszkole_madzialenka@wp.pl",
                "ref:regon": "122659546",
                "ref:vatin": "PL7342947338",
                "operator": "Grzegorz Bulzak",
                "operator:type": "private",
                "amenity": "kindergarten"
            }
        },
        {
            "id": 13640,
            "type": "Feature",
            "geometry": {
                "type": "Point",
                "coordinates": [
                    20.6161337,
                    49.6007413
                ]
            },
            "properties": {
                "ref:rspo": 13640,
                "official_name": "Gminne Przedszkole",
                "name": "Gminne Przedszkole",
                "addr:postcode": "33-386",
                "addr:place": "Brzezna",
                "addr:housenumber": "245",
                "addr:city:simc": 459891,
                "phone": "+48 184458204",
                "email": "przedszkole.brzezna@op.pl",
                "website": "http:\/\/www.przedszkole-brzezna.pl",
                "ref:regon": "492704079",
                "ref:vatin": "PL7342773393",
                "operator": "Gmina Podegrodzie",
                "operator:type": "government",
                "amenity": "kindergarten"
            }
        },
        {
            "id": 13633,
            "type": "Feature",
            "geometry": {
                "type": "Point",
                "coordinates": [
                    20.560695,
                    49.6117824
                ]
            },
            "properties": {
                "isced:level": "1;2",
                "ref:rspo": 13633,
                "official_name": "Szko\u0142a Podstawowa",
                "name": "Szko\u0142a Podstawowa",
                "addr:postcode": "33-386",
                "addr:place": "D\u0142ugo\u0142\u0119ka-\u015awierkla",
                "addr:housenumber": "64",
                "addr:city:simc": 460115,
                "phone": "+48 184458564",
                "email": "dlugoleka@onet.pl",
                "website": "http:\/\/www.spdlugoleka.podegrodzie.pl",
                "ref:regon": "490674871",
                "ref:vatin": "PL7342772962",
                "operator": "Gmina Podegrodzie",
                "operator:type": "government",
                "amenity": "school"
            }
        },
        {
            "id": 13632,
            "type": "Feature",
            "geometry": {
                "type": "Point",
                "coordinates": [
                    20.5799,
                    49.62092
                ]
            },
            "properties": {
                "isced:level": "1;2",
                "ref:rspo": 13632,
                "official_name": "Szko\u0142a Podstawowa",
                "name": "Szko\u0142a Podstawowa",
                "addr:postcode": "33-386",
                "addr:place": "Brzezna",
                "addr:housenumber": "255",
                "addr:city:simc": 459891,
                "phone": "+48 184458503",
                "email": "splitacz@poczta.onet.pl",
                "website": "http:\/\/www.splitacz.edupage.org",
                "ref:regon": "490674960",
                "ref:vatin": "PL7342773275",
                "operator": "Gmina Podegrodzie",
                "operator:type": "government",
                "amenity": "school"
            }
        }
    ]
}