{
    "type": "FeatureCollection",
    "features": [
        {
            "id": 53694,
            "type": "Feature",
            "geometry": {
                "type": "Point",
                "coordinates": [
                    20.6180649,
                    49.5114801
                ]
            },
            "properties": {
                "isced:level": "1;2",
                "ref:rspo": 53694,
                "official_name": "Szko\u0142a Podstawowa im. Kardyna\u0142a Stefana Wyszy\u0144skiego w Przysietnicy",
                "name": "Szko\u0142a Podstawowa",
                "addr:postcode": "33-342",
                "addr:place": "Przysietnica",
                "addr:housenumber": "152",
                "addr:city:simc": 465963,
                "phone": "+48 184480066",
                "email": "spprzysietnica@op.pl",
                "ref:regon": "490634541",
                "ref:vatin": "PL7343056311",
                "operator": "Gmina Stary S\u0105cz",
                "operator:type": "government",
                "amenity": "school"
            }
        },
        {
            "id": 39064,
            "type": "Feature",
            "geometry": {
                "type": "Point",
                "coordinates": [
                    20.57994,
                    49.51988
                ]
            },
            "properties": {
                "isced:level": "1;2",
                "ref:rspo": 39064,
                "official_name": "Szko\u0142a Podstawowa im. Jana Brzechwy w Skrudzinie",
                "name": "Szko\u0142a Podstawowa",
                "addr:postcode": "33-388",
                "addr:place": "Skrudzina",
                "addr:housenumber": "42",
                "addr:city:simc": 466201,
                "phone": "+48 184463685",
                "email": "sp_skrudzina@stary.sacz.pl",
                "ref:regon": "490615762",
                "ref:vatin": "PL7341914288",
                "operator": "Gmina Stary S\u0105cz",
                "operator:type": "government",
                "amenity": "school"
            }
        },
        {
            "id": 58620,
            "type": "Feature",
            "geometry": {
                "type": "Point",
                "coordinates": [
                    20.65265,
                    49.5256
                ]
            },
            "properties": {
                "isced:level": "1;2",
                "ref:rspo": 58620,
                "official_name": "Szko\u0142a Podstawowa im. Franciszka \u015awiebockiego w Barcicach",
                "name": "Szko\u0142a Podstawowa",
                "addr:postcode": "33-342",
                "addr:place": "Barcice",
                "addr:housenumber": "66",
                "addr:city:simc": 465288,
                "phone": "+48 184466660",
                "email": "barcicegim@szkola.wp.pl",
                "website": "http:\/\/www.spbarcice.eu",
                "ref:regon": "490634512",
                "ref:vatin": "PL7343180376",
                "operator": "Gmina Stary S\u0105cz",
                "operator:type": "government",
                "amenity": "school"
            }
        },
        {
            "id": 21659,
            "type": "Feature",
            "geometry": {
                "type": "Point",
                "coordinates": [
                    20.6510613,
                    49.5278024
                ]
            },
            "properties": {
                "ref:rspo": 21659,
                "official_name": "Niepubliczne Przedszkole Si\u00f3str Karmelitanek Dzieci\u0105tka Jezus w Barcicach",
                "name": "Niepubliczne Przedszkole Si\u00f3str Karmelitanek Dzieci\u0105tka Jezus w Barcicach",
                "addr:postcode": "33-342",
                "addr:place": "Barcice",
                "addr:housenumber": "28",
                "addr:city:simc": 465288,
                "phone": "+48 184466001",
                "email": "wiktorynkakdzj@gmail.com",
                "ref:regon": "122672446",
                "ref:vatin": "PL7342751339",
                "operator": "Zgromadzenie Si\u00f3str Karmelitanek Dzieci\u0105tka Jezus  Prowincja Krakowska",
                "operator:type": "religious",
                "amenity": "kindergarten"
            }
        },
        {
            "id": 40188,
            "type": "Feature",
            "geometry": {
                "type": "Point",
                "coordinates": [
                    20.6508096,
                    49.5299099
                ]
            },
            "properties": {
                "ref:rspo": 40188,
                "official_name": "Przedszkole Prywatne \"S\u0142oneczko\" w Barcicach",
                "name": "Przedszkole Prywatne \"S\u0142oneczko\" w Barcicach",
                "addr:postcode": "33-342",
                "addr:place": "Barcice",
                "addr:housenumber": "208",
                "addr:city:simc": 465288,
                "phone": "+48 184466010",
                "email": "dorota.drozdz@vp.pl",
                "ref:regon": "122686448",
                "ref:vatin": "PL7340022576",
                "operator": "Dorota Dro\u017cd\u017c",
                "operator:type": "private",
                "amenity": "kindergarten"
            }
        },
        {
            "id": 34903,
            "type": "Feature",
            "geometry": {
                "type": "Point",
                "coordinates": [
                    20.62867,
                    49.53071
                ]
            },
            "properties": {
                "isced:level": "1;2",
                "ref:rspo": 34903,
                "official_name": "Szko\u0142a Podstawowa im. Ks. Pra\u0142ata P\u0142k. Tadeusza D\u0142ubacza w Moszczenicy",
                "name": "Szko\u0142a Podstawowa",
                "addr:postcode": "33-340",
                "addr:place": "Moszczenica Ni\u017cna",
                "addr:housenumber": "64",
                "addr:city:simc": 465710,
                "phone": "+48 184460296",
                "email": "spmoszczenica@interia.pl",
                "ref:regon": "490612479",
                "ref:vatin": "PL7341376684",
                "operator": "Gmina Stary S\u0105cz",
                "operator:type": "government",
                "amenity": "school"
            }
        },
        {
            "id": 21660,
            "type": "Feature",
            "geometry": {
                "type": "Point",
                "coordinates": [
                    20.56041,
                    49.53195
                ]
            },
            "properties": {
                "isced:level": "1;2",
                "ref:rspo": 21660,
                "official_name": "Szko\u0142a Podstawowa im. 1 Pu\u0142ku Strzelc\u00f3w Podhala\u0144skich Armii Krajowej w Gaboniu",
                "name": "Szko\u0142a Podstawowa",
                "addr:postcode": "33-388",
                "addr:place": "Gabo\u0144",
                "addr:housenumber": "67",
                "addr:city:simc": 465443,
                "phone": "+48 184463260",
                "email": "sp_gabon@stary.sacz.pl",
                "website": "http:\/\/spgabonstarysacz.edupage.org\/",
                "ref:regon": "490615740",
                "ref:vatin": "PL7341888154",
                "operator": "Gmina Stary S\u0105cz",
                "operator:type": "government",
                "amenity": "school"
            }
        },
        {
            "id": 21662,
            "type": "Feature",
            "geometry": {
                "type": "Point",
                "coordinates": [
                    20.5768109,
                    49.5419095
                ]
            },
            "properties": {
                "isced:level": "1;2",
                "ref:rspo": 21662,
                "official_name": "Szko\u0142a Podstawowa im. Jana Paw\u0142a II w Go\u0142kowicach",
                "name": "Szko\u0142a Podstawowa",
                "addr:postcode": "33-388",
                "addr:place": "Go\u0142kowice G\u00f3rne",
                "addr:housenumber": "65",
                "addr:city:simc": 465621,
                "phone": "+48 184463489",
                "email": "zsgg@wp.pl",
                "website": "http:\/\/www.sp-golkowice.iaw.pl",
                "ref:regon": "490615756",
                "ref:vatin": "PL7343525467",
                "operator": "Gmina Stary S\u0105cz",
                "operator:type": "government",
                "amenity": "school"
            }
        },
        {
            "id": 115007,
            "type": "Feature",
            "geometry": {
                "type": "Point",
                "coordinates": [
                    20.57789,
                    49.54214
                ]
            },
            "properties": {
                "ref:rspo": 115007,
                "official_name": "Niepubliczne Przedszkole Muzyczne \"Bajkowy Dom\" w Go\u0142kowicach",
                "name": "Niepubliczne Przedszkole Muzyczne \"Bajkowy Dom\" w Go\u0142kowicach",
                "addr:postcode": "33-388",
                "addr:place": "Go\u0142kowice G\u00f3rne",
                "addr:housenumber": "231",
                "addr:city:simc": 465621,
                "phone": "+48 513432904",
                "email": "gocha.kurzeja@op.pl",
                "ref:regon": "122877332",
                "operator": "Ma\u0142gorzata Banach",
                "operator:type": "private",
                "amenity": "kindergarten"
            }
        },
        {
            "id": 43898,
            "type": "Feature",
            "geometry": {
                "type": "Point",
                "coordinates": [
                    20.5776,
                    49.54271
                ]
            },
            "properties": {
                "ref:rspo": 43898,
                "official_name": "Przedszkole Niepubliczne Si\u00f3str Karmelitanek Dzieci\u0105tka Jezus w Go\u0142kowicach",
                "name": "Przedszkole Niepubliczne Si\u00f3str Karmelitanek Dzieci\u0105tka Jezus w Go\u0142kowicach",
                "addr:postcode": "33-388",
                "addr:place": "Go\u0142kowice G\u00f3rne",
                "addr:housenumber": "83",
                "addr:city:simc": 465621,
                "phone": "+48 184463416",
                "email": "pnsk@vp.pl",
                "ref:regon": "122688080",
                "ref:vatin": "PL7342735949",
                "operator": "Zgromadzenie Si\u00f3str Karmelitanek Dzieci\u0105tka Jezus  Prowincja Krakowska",
                "operator:type": "religious",
                "amenity": "kindergarten"
            }
        },
        {
            "id": 262730,
            "type": "Feature",
            "geometry": {
                "type": "Point",
                "coordinates": [
                    20.5759809,
                    49.5427711
                ]
            },
            "properties": {
                "ref:rspo": 262730,
                "official_name": "Centrum M\u0142odzie\u017cy im. Dr. Henryka Jordana w Krakowie - Filia nr 2 w Go\u0142kowicach G\u00f3rnych",
                "name": "Centrum M\u0142odzie\u017cy",
                "addr:postcode": "33-388",
                "addr:place": "Go\u0142kowice G\u00f3rne",
                "addr:housenumber": "163",
                "addr:city:simc": 465621,
                "phone": "+48 184463321",
                "email": "sekretariat@cmjordan.krakow.pl",
                "website": "http:\/\/cmjordan.krakow.pl",
                "ref:regon": "191916000",
                "operator": "Gmina Miejska Krak\u00f3w-Miasto Na Prawach Powiatu",
                "operator:type": "government",
                "fixme": "amenity=community_centre + community_centre:for=juvenile albo amenity=training + training=*",
                "note": "Parent RSPO: 28093"
            }
        },
        {
            "id": 21663,
            "type": "Feature",
            "geometry": {
                "type": "Point",
                "coordinates": [
                    20.65928,
                    49.54588
                ]
            },
            "properties": {
                "isced:level": "1;2",
                "ref:rspo": 21663,
                "official_name": "Szko\u0142a Podstawowa im. \u015aw. Kingi w Popowicach",
                "name": "Szko\u0142a Podstawowa",
                "addr:postcode": "33-340",
                "addr:place": "Popowice",
                "addr:housenumber": "165",
                "addr:city:simc": 465911,
                "phone": "+48 185476280",
                "email": "popowice@vp.pl",
                "ref:regon": "490612440",
                "ref:vatin": "PL7341376603",
                "operator": "Gmina Stary S\u0105cz",
                "operator:type": "government",
                "amenity": "school"
            }
        },
        {
            "id": 40132,
            "type": "Feature",
            "geometry": {
                "type": "Point",
                "coordinates": [
                    20.625114,
                    49.5473838
                ]
            },
            "properties": {
                "ref:rspo": 40132,
                "official_name": "Niepubliczne Przedszkole w Moszczenicy",
                "name": "Niepubliczne Przedszkole w Moszczenicy",
                "addr:postcode": "33-340",
                "addr:place": "Moszczenica Ni\u017cna",
                "addr:housenumber": "165",
                "addr:city:simc": 465710,
                "phone": "+48 184460494",
                "email": "niepubliczneprzedszkole@onet.pl",
                "ref:regon": "122686490",
                "ref:vatin": "PL7341889627",
                "operator": "Dorota Daniel-Ko\u017cuch",
                "operator:type": "private",
                "amenity": "kindergarten"
            }
        },
        {
            "id": 38991,
            "type": "Feature",
            "geometry": {
                "type": "Point",
                "coordinates": [
                    20.5888199,
                    49.54987
                ]
            },
            "properties": {
                "ref:rspo": 38991,
                "official_name": "Prywatny Punkt Przedszkolny Ma\u0142y Artysta w Go\u0142kowicach",
                "name": "Prywatny Punkt Przedszkolny Ma\u0142y Artysta w Go\u0142kowicach",
                "addr:postcode": "33-388",
                "addr:place": "Go\u0142kowice Dolne",
                "addr:housenumber": "194",
                "addr:city:simc": 465590,
                "phone": "+48 501460867",
                "email": "annakolbon@poczta.onet.pl",
                "ref:regon": "122686342",
                "ref:vatin": "PL7343142418",
                "operator": "Anna Ko\u0142bon",
                "operator:type": "private",
                "amenity": "kindergarten"
            }
        },
        {
            "id": 24582,
            "type": "Feature",
            "geometry": {
                "type": "Point",
                "coordinates": [
                    20.63692,
                    49.55731
                ]
            },
            "properties": {
                "isced:level": "1;2",
                "ref:rspo": 24582,
                "official_name": "Szko\u0142a Podstawowa nr 1 im. Ks. Prof. J\u00f3zefa Tischnera w Starym S\u0105czu",
                "name": "Szko\u0142a Podstawowa nr 1",
                "addr:postcode": "33-340",
                "addr:city": "Stary S\u0105cz",
                "addr:street": "Adama Mickiewicza",
                "addr:housenumber": "59",
                "addr:city:simc": 963359,
                "addr:street:sym_ul": 12734,
                "phone": "+48 184460480",
                "email": "sp1starysacz@interia.pl",
                "ref:regon": "490612427",
                "ref:vatin": "PL7341376655",
                "operator": "Gmina Stary S\u0105cz",
                "operator:type": "government",
                "amenity": "school"
            }
        },
        {
            "id": 15241,
            "type": "Feature",
            "geometry": {
                "type": "Point",
                "coordinates": [
                    20.63322,
                    49.55786
                ]
            },
            "properties": {
                "isced:level": "3",
                "ref:rspo": 15241,
                "official_name": "Liceum Og\u00f3lnokszta\u0142c\u0105ce im. Marii Sk\u0142odowskiej-Curie w Starym S\u0105czu",
                "name": "Liceum Og\u00f3lnokszta\u0142c\u0105ce",
                "addr:postcode": "33-340",
                "addr:city": "Stary S\u0105cz",
                "addr:street": "Partyzant\u00f3w",
                "addr:housenumber": "15",
                "addr:city:simc": 963359,
                "addr:street:sym_ul": 15733,
                "phone": "+48 184460583",
                "email": "lostarysacz@poczta.internetdsl.pl",
                "ref:regon": "000204429",
                "ref:vatin": "PL7341518368",
                "operator": "Powiat Nowos\u0105decki",
                "operator:type": "government",
                "amenity": "school"
            }
        },
        {
            "id": 18667,
            "type": "Feature",
            "geometry": {
                "type": "Point",
                "coordinates": [
                    20.63322,
                    49.557829999999996
                ]
            },
            "properties": {
                "ref:rspo": 18667,
                "official_name": "Powiatowy M\u0142odzie\u017cowy Dom Kultury w Starym S\u0105czu",
                "name": "Powiatowy M\u0142odzie\u017cowy Dom Kultury w Starym S\u0105czu",
                "addr:postcode": "33-340",
                "addr:city": "Stary S\u0105cz",
                "addr:street": "Partyzant\u00f3w",
                "addr:housenumber": "15",
                "addr:city:simc": 963359,
                "addr:street:sym_ul": 15733,
                "phone": "+48 184462255",
                "email": "pmdk@pro.onet.pl",
                "ref:regon": "491884300",
                "ref:vatin": "PL7342623216",
                "operator": "Powiat Nowos\u0105decki",
                "operator:type": "government",
                "amenity": "community_centre",
                "community_centre:for": "juvenile"
            }
        },
        {
            "id": 106696,
            "type": "Feature",
            "geometry": {
                "type": "Point",
                "coordinates": [
                    20.63322,
                    49.5578
                ]
            },
            "properties": {
                "ref:rspo": 106696,
                "official_name": "Powiatowa Poradnia Psychologiczno-Pedagogiczna w Nowym S\u0105czu Filia w Starym S\u0105czu",
                "name": "Powiatowa Poradnia Psychologiczno-Pedagogiczna w Nowym S\u0105czu Filia w Starym S\u0105czu",
                "addr:postcode": "33-340",
                "addr:city": "Stary S\u0105cz",
                "addr:street": "Partyzant\u00f3w",
                "addr:housenumber": "15",
                "addr:city:simc": 963359,
                "addr:street:sym_ul": 15733,
                "phone": "+48 184461360",
                "email": "poradniasts@poczta.onet.pl",
                "ref:regon": "122580796",
                "operator": "Powiat Nowos\u0105decki",
                "operator:type": "government",
                "healthcare": "counselling",
                "counselling_type": "education",
                "fixme": "w zale\u017cno\u015bci od przedmiotu dzia\u0142alno\u015bci (np. healthcare=counselling + counselling_type=education albo healthcare=psychotherapist)",
                "note": "Parent RSPO: 15994"
            }
        },
        {
            "id": 24580,
            "type": "Feature",
            "geometry": {
                "type": "Point",
                "coordinates": [
                    20.63599,
                    49.56172
                ]
            },
            "properties": {
                "ref:rspo": 24580,
                "official_name": "Szko\u0142a Muzyczna I Stopnia w Starym S\u0105czu",
                "name": "Szko\u0142a Muzyczna I Stopnia w Starym S\u0105czu",
                "addr:postcode": "33-340",
                "addr:city": "Stary S\u0105cz",
                "addr:street": "Kazimierza Wielkiego",
                "addr:housenumber": "14",
                "addr:city:simc": 963359,
                "addr:street:sym_ul": 8265,
                "phone": "+48 183000193",
                "email": "sm.ss@wp.pl",
                "ref:regon": "120519545",
                "ref:vatin": "PL7343263398",
                "operator": "Gmina Stary S\u0105cz",
                "operator:type": "government",
                "amenity": "music_school"
            }
        },
        {
            "id": 24583,
            "type": "Feature",
            "geometry": {
                "type": "Point",
                "coordinates": [
                    20.6342399,
                    49.56277
                ]
            },
            "properties": {
                "ref:rspo": 24583,
                "official_name": "Niepubliczne Przedszkole Pszcz\u00f3\u0142ka Maja w Starym S\u0105czu",
                "name": "Niepubliczne Przedszkole Pszcz\u00f3\u0142ka Maja w Starym S\u0105czu",
                "addr:postcode": "33-340",
                "addr:city": "Stary S\u0105cz",
                "addr:street": "Stanis\u0142awa Staszica",
                "addr:housenumber": "7",
                "addr:city:simc": 963359,
                "addr:street:sym_ul": 21065,
                "phone": "+48 184460485",
                "email": "pszczolkamaja1@op.pl",
                "ref:regon": "122677372",
                "ref:vatin": "PL7341937160",
                "operator": "Maria Tokarczyk",
                "operator:type": "private",
                "amenity": "kindergarten"
            }
        },
        {
            "id": 262739,
            "type": "Feature",
            "geometry": {
                "type": "Point",
                "coordinates": [
                    20.63707,
                    49.56516
                ]
            },
            "properties": {
                "isced:level": "1;2",
                "ref:rspo": 262739,
                "official_name": "Szko\u0142a Podstawowa nr 2 im. Juliusza S\u0142owackiego w Starym S\u0105czu",
                "name": "Szko\u0142a Podstawowa nr 2",
                "addr:postcode": "33-340",
                "addr:city": "Stary S\u0105cz",
                "addr:street": "Ignacego Daszy\u0144skiego",
                "addr:housenumber": "23",
                "addr:city:simc": 963359,
                "addr:street:sym_ul": 3635,
                "phone": "+48 184460481",
                "email": "wnowak@sp2.starysacz.org.pl",
                "website": "http:\/\/www.sp2.stary.sacz.pl",
                "ref:regon": "368054189",
                "ref:vatin": "PL7343551832",
                "operator": "Gmina Stary S\u0105cz",
                "operator:type": "government",
                "amenity": "school"
            }
        },
        {
            "id": 21953,
            "type": "Feature",
            "geometry": {
                "type": "Point",
                "coordinates": [
                    20.63665,
                    49.5659
                ]
            },
            "properties": {
                "ref:rspo": 21953,
                "official_name": "Bursa Szkolna w Starym S\u0105czu",
                "name": "Bursa Szkolna w Starym S\u0105czu",
                "addr:postcode": "33-340",
                "addr:city": "Stary S\u0105cz",
                "addr:street": "Ignacego Daszy\u0144skiego",
                "addr:housenumber": "19",
                "addr:city:simc": 963359,
                "addr:street:sym_ul": 3635,
                "phone": "+48 184460581",
                "email": "bursastarysacz@wp.pl",
                "ref:regon": "492911217",
                "ref:vatin": "PL7342981370",
                "operator": "Powiat Nowos\u0105decki",
                "operator:type": "government",
                "building": "dormitory"
            }
        },
        {
            "id": 22879,
            "type": "Feature",
            "geometry": {
                "type": "Point",
                "coordinates": [
                    20.63665,
                    49.56587
                ]
            },
            "properties": {
                "ref:rspo": 22879,
                "official_name": "Zesp\u00f3\u0142 Szk\u00f3\u0142 im. Ks. Prof. J\u00f3zefa Tischnera w Starym S\u0105czu",
                "name": "Zesp\u00f3\u0142 Szk\u00f3\u0142",
                "addr:postcode": "33-340",
                "addr:city": "Stary S\u0105cz",
                "addr:street": "Ignacego Daszy\u0144skiego",
                "addr:housenumber": "15",
                "addr:city:simc": 963359,
                "addr:street:sym_ul": 3635,
                "phone": "+48 184460580",
                "email": "sekretariat@zs-starysacz.pl",
                "ref:regon": "121716130",
                "ref:vatin": "PL7343502437",
                "operator": "Powiat Nowos\u0105decki",
                "operator:type": "government",
                "landuse": "education",
                "fixme": "amenity=school, amenity=college albo landuse=education w zale\u017cno\u015bci od tego, jakie plac\u00f3wki wchodz\u0105 w sk\u0142ad zespo\u0142u. Sprawd\u017a, kiedy stosowa\u0107 amenity=* a kiedy landuse=education.",
                "note": "Children RSPO: 29449;29531"
            }
        },
        {
            "id": 29449,
            "type": "Feature",
            "geometry": {
                "type": "Point",
                "coordinates": [
                    20.63665,
                    49.56584
                ]
            },
            "properties": {
                "isced:level": "3",
                "ref:rspo": 29449,
                "official_name": "Technikum w Starym S\u0105czu",
                "name": "Technikum w Starym S\u0105czu",
                "addr:postcode": "33-340",
                "addr:city": "Stary S\u0105cz",
                "addr:street": "Ignacego Daszy\u0144skiego",
                "addr:housenumber": "15",
                "addr:city:simc": 963359,
                "addr:street:sym_ul": 3635,
                "phone": "+48 184460580",
                "email": "sekretariat@zs-starysacz.pl",
                "ref:regon": "121717052",
                "ref:vatin": "PL7343502437",
                "operator": "Powiat Nowos\u0105decki",
                "operator:type": "government",
                "amenity": "school",
                "note": "Parent RSPO: 22879"
            }
        },
        {
            "id": 29531,
            "type": "Feature",
            "geometry": {
                "type": "Point",
                "coordinates": [
                    20.63665,
                    49.56581
                ]
            },
            "properties": {
                "isced:level": "3",
                "ref:rspo": 29531,
                "official_name": "Bran\u017cowa Szko\u0142a I Stopnia w Starym S\u0105czu",
                "name": "Bran\u017cowa Szko\u0142a I Stopnia w Starym S\u0105czu",
                "addr:postcode": "33-340",
                "addr:city": "Stary S\u0105cz",
                "addr:street": "Ignacego Daszy\u0144skiego",
                "addr:housenumber": "15",
                "addr:city:simc": 963359,
                "addr:street:sym_ul": 3635,
                "phone": "+48 184460580",
                "email": "sekretariat@zs-starysacz.pl",
                "ref:regon": "121716667",
                "ref:vatin": "PL7343502437",
                "operator": "Powiat Nowos\u0105decki",
                "operator:type": "government",
                "amenity": "school",
                "note": "Parent RSPO: 22879"
            }
        },
        {
            "id": 21665,
            "type": "Feature",
            "geometry": {
                "type": "Point",
                "coordinates": [
                    20.62719,
                    49.56682
                ]
            },
            "properties": {
                "ref:rspo": 21665,
                "official_name": "Gminne Przedszkole z Oddzia\u0142ami Integracyjnymi w Starym S\u0105czu",
                "name": "Gminne Przedszkole z Oddzia\u0142ami Integracyjnymi w Starym S\u0105czu",
                "addr:postcode": "33-340",
                "addr:city": "Stary S\u0105cz",
                "addr:street": "Podegrodzka",
                "addr:housenumber": "2A",
                "addr:city:simc": 963359,
                "addr:street:sym_ul": 16728,
                "phone": "+48 184460486",
                "email": "gminneprzedszkole@gmail.com",
                "website": "http:\/\/www.gpstarysacz.szkolnastrona.pl",
                "ref:regon": "121422434",
                "ref:vatin": "PL7342550718",
                "operator": "Gmina Stary S\u0105cz",
                "operator:type": "government",
                "amenity": "kindergarten"
            }
        },
        {
            "id": 128295,
            "type": "Feature",
            "geometry": {
                "type": "Point",
                "coordinates": [
                    20.6331,
                    49.56823
                ]
            },
            "properties": {
                "isced:level": "1;2",
                "ref:rspo": 128295,
                "official_name": "Niepubliczna Szko\u0142a Podstawowa w Starym S\u0105czu",
                "name": "Niepubliczna Szko\u0142a Podstawowa w Starym S\u0105czu",
                "addr:postcode": "33-340",
                "addr:city": "Stary S\u0105cz",
                "addr:street": "Romana Cesarczyka",
                "addr:housenumber": "2",
                "addr:city:simc": 963359,
                "addr:street:sym_ul": 2640,
                "phone": "+48 182225000",
                "email": "nsp.starysacz@wp.pl",
                "website": "http:\/\/www.nsp.stary.sacz.pl",
                "ref:regon": "362224839",
                "ref:vatin": "PL7341599711",
                "operator": "Iwona Rams",
                "operator:type": "private",
                "amenity": "school"
            }
        },
        {
            "id": 120113,
            "type": "Feature",
            "geometry": {
                "type": "Point",
                "coordinates": [
                    20.63501,
                    49.57095
                ]
            },
            "properties": {
                "ref:rspo": 120113,
                "official_name": "Niepubliczne Przedszkole Muzyczno-Taneczne \"Weso\u0142e Nutki\" w Starym S\u0105czu",
                "name": "Niepubliczne Przedszkole Muzyczno-Taneczne \"Weso\u0142e Nutki\" w Starym S\u0105czu",
                "addr:postcode": "33-340",
                "addr:city": "Stary S\u0105cz",
                "addr:street": "Wiktora Bazielicha",
                "addr:housenumber": "10",
                "addr:city:simc": 963359,
                "addr:street:sym_ul": 30880,
                "phone": "+48 601931559",
                "email": "rams21@op.pl",
                "ref:regon": "122950320",
                "ref:vatin": "PL7341599711",
                "operator": "Iwona Rams",
                "operator:type": "private",
                "amenity": "kindergarten"
            }
        }
    ]
}