{
    "type": "FeatureCollection",
    "features": [
        {
            "id": 40665,
            "type": "Feature",
            "geometry": {
                "type": "Point",
                "coordinates": [
                    20.76241,
                    49.5193299
                ]
            },
            "properties": {
                "isced:level": "1;2",
                "ref:rspo": 40665,
                "official_name": "Szko\u0142a Podstawowa w Homrzyskach",
                "name": "Szko\u0142a Podstawowa w Homrzyskach",
                "addr:country": "PL",
                "addr:postcode": "33-335",
                "addr:place": "Homrzyska",
                "addr:housenumber": "41",
                "addr:teryt:sym_ul": 455261,
                "contact:phone": "+48 184467114",
                "contact:email": "sphom@poczta.onet.pl",
                "contact:website": "http:\/\/www..szkolahomrzyska2.yoyo.pl",
                "ref:regon": "490674463",
                "ref:vatin": "PL7342773051",
                "operator": "Gmina Nawojowa",
                "operator:type": "government",
                "amenity": "school"
            }
        },
        {
            "id": 40664,
            "type": "Feature",
            "geometry": {
                "type": "Point",
                "coordinates": [
                    20.74302,
                    49.53599
                ]
            },
            "properties": {
                "isced:level": "1;2",
                "ref:rspo": 40664,
                "official_name": "Szko\u0142a Podstawowa im. \u017bo\u0142nierzy Niez\u0142omnych w B\u0105czej-Kuninie",
                "name": "Szko\u0142a Podstawowa",
                "addr:country": "PL",
                "addr:postcode": "33-335",
                "addr:place": "B\u0105cza-Kunina",
                "addr:housenumber": "37",
                "addr:teryt:sym_ul": 991261,
                "contact:phone": "+48 184457459",
                "contact:email": "nawbacza@op.pl",
                "contact:website": "http:\/\/www.spbacza-kunina.szkolnastrona.pl",
                "ref:regon": "490674486",
                "ref:vatin": "PL7342772991",
                "operator": "Gmina Nawojowa",
                "operator:type": "government",
                "amenity": "school"
            }
        },
        {
            "id": 40663,
            "type": "Feature",
            "geometry": {
                "type": "Point",
                "coordinates": [
                    20.7209499,
                    49.53637
                ]
            },
            "properties": {
                "isced:level": "1;2",
                "ref:rspo": 40663,
                "official_name": "Szko\u0142a Podstawowa w \u017bele\u017anikowej Ma\u0142ej",
                "name": "Szko\u0142a Podstawowa w \u017bele\u017anikowej Ma\u0142ej",
                "addr:country": "PL",
                "addr:postcode": "33-335",
                "addr:place": "\u017bele\u017anikowa Ma\u0142a",
                "addr:housenumber": "38",
                "addr:teryt:sym_ul": 455798,
                "contact:phone": "+48 184457023",
                "contact:email": "sp.zelmala@op.pl",
                "ref:regon": "490674457",
                "ref:vatin": "PL7342772904",
                "operator": "Gmina Nawojowa",
                "operator:type": "government",
                "amenity": "school"
            }
        },
        {
            "id": 40660,
            "type": "Feature",
            "geometry": {
                "type": "Point",
                "coordinates": [
                    20.74159,
                    49.54318
                ]
            },
            "properties": {
                "ref:rspo": 40660,
                "official_name": "Gminne Przedszkole Publiczne w Nawojowej",
                "name": "Gminne Przedszkole Publiczne w Nawojowej",
                "addr:country": "PL",
                "addr:postcode": "33-335",
                "addr:city": "Nawojowa",
                "addr:street": "Ogrodowa",
                "addr:housenumber": "14",
                "addr:teryt:simc": 14834,
                "addr:teryt:sym_ul": 455462,
                "contact:phone": "+48 184457018",
                "contact:email": "nawojowa.przedszkole@op.pl",
                "ref:regon": "492730496",
                "ref:vatin": "PL7342773312",
                "operator": "Gmina Nawojowa",
                "operator:type": "government",
                "amenity": "kindergarten"
            }
        },
        {
            "id": 40662,
            "type": "Feature",
            "geometry": {
                "type": "Point",
                "coordinates": [
                    20.6870152,
                    49.5481153
                ]
            },
            "properties": {
                "isced:level": "1;2",
                "ref:rspo": 40662,
                "official_name": "Szko\u0142a Podstawowa im. Marii Konopnickiej w \u017bele\u017anikowej Wielkiej",
                "name": "Szko\u0142a Podstawowa",
                "addr:country": "PL",
                "addr:postcode": "33-335",
                "addr:city": "\u017bele\u017anikowa Wielka",
                "addr:street": "\u015bw. Jana Paw\u0142a II",
                "addr:housenumber": "93",
                "addr:teryt:simc": 46615,
                "addr:teryt:sym_ul": 455864,
                "contact:phone": "+48 184429182",
                "contact:email": "szkolazeleznikowaw@poczta.onet.pl",
                "contact:website": "http:\/\/www.spzw.eu.pl",
                "ref:regon": "490674440",
                "ref:vatin": "PL7342773016",
                "operator": "Gmina Nawojowa",
                "operator:type": "government",
                "amenity": "school"
            }
        },
        {
            "id": 40661,
            "type": "Feature",
            "geometry": {
                "type": "Point",
                "coordinates": [
                    20.7724,
                    49.5486999
                ]
            },
            "properties": {
                "isced:level": "1;2",
                "ref:rspo": 40661,
                "official_name": "Szko\u0142a Podstawowa im.\u015bw.jadwigi Kr\u00f3lowej we Frycowej",
                "name": "Szko\u0142a Podstawowa im.\u015bw.jadwigi Kr\u00f3lowej we Frycowej",
                "addr:country": "PL",
                "addr:postcode": "33-335",
                "addr:place": "Frycowa",
                "addr:housenumber": "177",
                "addr:teryt:sym_ul": 454994,
                "contact:phone": "+48 184467082",
                "contact:email": "spfrycowa@poczta.neostrada.pl",
                "contact:website": "http:\/\/www.spfrycowa.neostrada.pl",
                "ref:regon": "490674434",
                "ref:vatin": "PL7342643414",
                "operator": "Gmina Nawojowa",
                "operator:type": "government",
                "amenity": "school"
            }
        },
        {
            "id": 34737,
            "type": "Feature",
            "geometry": {
                "type": "Point",
                "coordinates": [
                    20.72665,
                    49.54987
                ]
            },
            "properties": {
                "ref:rspo": 34737,
                "official_name": "Zesp\u00f3\u0142 Szk\u00f3\u0142 Ponadpodstawowych im. Wincentego Witosa w Nawojowej",
                "name": "Zesp\u00f3\u0142 Szk\u00f3\u0142 Ponadpodstawowych",
                "addr:country": "PL",
                "addr:postcode": "33-335",
                "addr:city": "Nawojowa",
                "addr:street": "Podkamienne",
                "addr:housenumber": "8",
                "addr:teryt:simc": 50405,
                "addr:teryt:sym_ul": 455462,
                "contact:phone": "+48 184457076",
                "contact:email": "sekretariat@nawojowa.edu.pl",
                "ref:regon": "000097554",
                "ref:vatin": "PL7341013042",
                "operator": "Powiat Nowos\u0105decki",
                "operator:type": "government",
                "landuse": "education",
                "fixme": "amenity=school, amenity=college albo landuse=education w zale\u017cno\u015bci od tego, jakie plac\u00f3wki wchodz\u0105 w sk\u0142ad zespo\u0142u. Sprawd\u017a, kiedy stosowa\u0107 amenity=* a kiedy landuse=education.",
                "note": "Children RSPO: 49545;49670;86038;87262;126271;128865"
            }
        },
        {
            "id": 49545,
            "type": "Feature",
            "geometry": {
                "type": "Point",
                "coordinates": [
                    20.72665,
                    49.549839999999996
                ]
            },
            "properties": {
                "isced:level": "3",
                "ref:rspo": 49545,
                "official_name": "Szko\u0142a Bran\u017cowa I Stopnia w Nawojowej",
                "name": "Szko\u0142a Bran\u017cowa I Stopnia w Nawojowej",
                "addr:country": "PL",
                "addr:postcode": "33-335",
                "addr:city": "Nawojowa",
                "addr:street": "Podkamienne",
                "addr:housenumber": "8",
                "addr:teryt:simc": 50405,
                "addr:teryt:sym_ul": 455462,
                "contact:phone": "+48 184457076",
                "contact:email": "sekretariat@nawojowa.edu.pl",
                "ref:regon": "120528024",
                "ref:vatin": "PL7341013042",
                "operator": "Powiat Nowos\u0105decki",
                "operator:type": "government",
                "amenity": "school",
                "note": "Parent RSPO: 34737"
            }
        },
        {
            "id": 49670,
            "type": "Feature",
            "geometry": {
                "type": "Point",
                "coordinates": [
                    20.72665,
                    49.54981
                ]
            },
            "properties": {
                "isced:level": "3",
                "ref:rspo": 49670,
                "official_name": "Technikum w Nawojowej",
                "name": "Technikum w Nawojowej",
                "addr:country": "PL",
                "addr:postcode": "33-335",
                "addr:city": "Nawojowa",
                "addr:street": "Podkamienne",
                "addr:housenumber": "8",
                "addr:teryt:simc": 50405,
                "addr:teryt:sym_ul": 455462,
                "contact:phone": "+48 184457076",
                "contact:email": "sekretariat@nawojowa.edu.pl",
                "ref:regon": "492907931",
                "ref:vatin": "PL7341013042",
                "operator": "Powiat Nowos\u0105decki",
                "operator:type": "government",
                "amenity": "school",
                "note": "Parent RSPO: 34737"
            }
        },
        {
            "id": 86038,
            "type": "Feature",
            "geometry": {
                "type": "Point",
                "coordinates": [
                    20.72665,
                    49.54978
                ]
            },
            "properties": {
                "isced:level": "3",
                "ref:rspo": 86038,
                "official_name": "Liceum Og\u00f3lnokszta\u0142c\u0105ce dla Doros\u0142ych w Nawojowej",
                "name": "Liceum Og\u00f3lnokszta\u0142c\u0105ce dla Doros\u0142ych w Nawojowej",
                "addr:country": "PL",
                "addr:postcode": "33-335",
                "addr:city": "Nawojowa",
                "addr:street": "Podkamienne",
                "addr:housenumber": "8",
                "addr:teryt:simc": 50405,
                "addr:teryt:sym_ul": 455462,
                "contact:phone": "+48 184457076",
                "contact:email": "sekretariat@nawojowa.edu.pl",
                "ref:regon": "122709592",
                "ref:vatin": "PL7343502035",
                "operator": "Powiat Nowos\u0105decki",
                "operator:type": "government",
                "amenity": "school",
                "note": "Parent RSPO: 34737"
            }
        },
        {
            "id": 87262,
            "type": "Feature",
            "geometry": {
                "type": "Point",
                "coordinates": [
                    20.72665,
                    49.549749999999996
                ]
            },
            "properties": {
                "isced:level": "4",
                "ref:rspo": 87262,
                "official_name": "Szko\u0142a Policealna w Nawojowej",
                "name": "Szko\u0142a Policealna w Nawojowej",
                "addr:country": "PL",
                "addr:postcode": "33-335",
                "addr:city": "Nawojowa",
                "addr:street": "Podkamienne",
                "addr:housenumber": "8",
                "addr:teryt:simc": 50405,
                "addr:teryt:sym_ul": 455462,
                "contact:phone": "+48 184457076",
                "contact:email": "sekretariat@nawojowa.edu.pl",
                "ref:regon": "120765669",
                "ref:vatin": "PL7343502035",
                "operator": "Powiat Nowos\u0105decki",
                "operator:type": "government",
                "amenity": "college",
                "note": "Parent RSPO: 34737"
            }
        },
        {
            "id": 126271,
            "type": "Feature",
            "geometry": {
                "type": "Point",
                "coordinates": [
                    20.72665,
                    49.54972
                ]
            },
            "properties": {
                "ref:rspo": 126271,
                "official_name": "Centrum Kszta\u0142cenia Zawodowego w Nawojowej",
                "name": "Centrum Kszta\u0142cenia Zawodowego w Nawojowej",
                "addr:country": "PL",
                "addr:postcode": "33-335",
                "addr:city": "Nawojowa",
                "addr:street": "Podkamienne",
                "addr:housenumber": "8",
                "addr:teryt:simc": 50405,
                "addr:teryt:sym_ul": 455462,
                "contact:phone": "+48 184450069",
                "contact:email": "sekretariat@nawojowa.edu.pl",
                "ref:regon": "360186187",
                "operator": "Powiat Nowos\u0105decki",
                "operator:type": "government",
                "fixme": "w zale\u017cno\u015bci od przedmiotu dzia\u0142alno\u015bci (np. amenity=training + training=*, amenity=dancing_school, amenity=language_school, amenity=music_school) albo amenity=school, amenity=college, albo landuse=education w zale\u017cno\u015bci od tego, jakie plac\u00f3wki wchodz\u0105 w sk\u0142ad zespo\u0142u. Sprawd\u017a, kiedy stosowa\u0107 amenity=* a kiedy landuse=education.",
                "note": "Parent RSPO: 34737"
            }
        },
        {
            "id": 128865,
            "type": "Feature",
            "geometry": {
                "type": "Point",
                "coordinates": [
                    20.72665,
                    49.54969
                ]
            },
            "properties": {
                "ref:rspo": 128865,
                "official_name": "Centrum Kszta\u0142cenia Ustawicznego w Nawojowej",
                "name": "Centrum Kszta\u0142cenia Ustawicznego w Nawojowej",
                "addr:country": "PL",
                "addr:postcode": "33-335",
                "addr:city": "Nawojowa",
                "addr:street": "Podkamienne",
                "addr:housenumber": "8",
                "addr:teryt:simc": 50405,
                "addr:teryt:sym_ul": 455462,
                "contact:phone": "+48 184457076",
                "contact:email": "sekretariat@nawojowa.edu.pl",
                "ref:regon": "362407362",
                "operator": "Powiat Nowos\u0105decki",
                "operator:type": "government",
                "fixme": "w zale\u017cno\u015bci od przedmiotu dzia\u0142alno\u015bci (np. amenity=training + training=*, amenity=dancing_school, amenity=language_school, amenity=music_school)",
                "note": "Parent RSPO: 34737"
            }
        },
        {
            "id": 40666,
            "type": "Feature",
            "geometry": {
                "type": "Point",
                "coordinates": [
                    20.74543,
                    49.5591
                ]
            },
            "properties": {
                "isced:level": "1;2",
                "ref:rspo": 40666,
                "official_name": "Szko\u0142a Podstawowa im. B\u0142. Julii Rodzi\u0144skiej w Nawojowej",
                "name": "Szko\u0142a Podstawowa",
                "addr:country": "PL",
                "addr:postcode": "33-335",
                "addr:city": "Nawojowa",
                "addr:street": "Parkowa",
                "addr:housenumber": "1",
                "addr:teryt:simc": 15710,
                "addr:teryt:sym_ul": 455462,
                "contact:phone": "+48 184457016",
                "contact:email": "spnawojowa@gmail.com",
                "contact:website": "http:\/\/www.sp.nawojowa.pl",
                "ref:regon": "490674428",
                "ref:vatin": "PL7342772985",
                "operator": "Gmina Nawojowa",
                "operator:type": "government",
                "amenity": "school"
            }
        },
        {
            "id": 129698,
            "type": "Feature",
            "geometry": {
                "type": "Point",
                "coordinates": [
                    20.745029449463,
                    49.560138702393
                ]
            },
            "properties": {
                "ref:rspo": 129698,
                "official_name": "Niepubliczne Przedszkole Oxfordzik",
                "name": "Niepubliczne Przedszkole Oxfordzik",
                "addr:country": "PL",
                "addr:postcode": "33-335",
                "addr:city": "Nawojowa",
                "addr:street": "Staros\u0105decka",
                "addr:housenumber": "53",
                "addr:teryt:simc": 49425,
                "addr:teryt:sym_ul": 455462,
                "contact:email": "przedszkoleoxfordzik@onet.pl",
                "ref:regon": "362772788",
                "operator": "Katarzyna Mirek",
                "operator:type": "private",
                "amenity": "kindergarten"
            }
        }
    ]
}