{"type":"FeatureCollection","features":[{"id":87109,"type":"Feature","geometry":{"type":"Point","coordinates":[20.92866,49.46743]},"properties":{"isced:level":"1;2","ref:rspo":87109,"official_name":"Szkola Filialna","name":"Szkola Filialna","addr:country":"PL","addr:postcode":"33-336","addr:place":"Roztoka Wielka","addr:housenumber":"20","addr:teryt:sym_ul":442956,"contact:phone":"+48 184711029","ref:regon":"490667434","operator":"Gmina \u0141abowa","operator:type":"government","amenity":"school","note":"Parent RSPO: 58347"}},{"id":58347,"type":"Feature","geometry":{"type":"Point","coordinates":[20.90872,49.49494]},"properties":{"isced:level":"1;2","ref:rspo":58347,"official_name":"Szko\u0142a Podstawowa im. Ks. Kardyna\u0142a Stefana Wyszy\u0144skiego w Nowej Wsi","name":"Szko\u0142a Podstawowa","addr:country":"PL","addr:postcode":"33-336","addr:place":"Nowa Wie\u015b","addr:housenumber":"96","addr:teryt:sym_ul":442927,"contact:phone":"+48 184711029","contact:email":"spnowawies@labowa.pl","contact:website":"http:\/\/www.nowawies.wex.pl","ref:regon":"490667434","ref:vatin":"PL7342776196","operator":"Gmina \u0141abowa","operator:type":"government","amenity":"school","note":"Children RSPO: 87109"}},{"id":58346,"type":"Feature","geometry":{"type":"Point","coordinates":[20.79093,49.52339]},"properties":{"isced:level":"1;2","ref:rspo":58346,"official_name":"Szko\u0142a Podstawowa im. Marii Konopnickiej w Czaczowie","name":"Szko\u0142a Podstawowa","addr:country":"PL","addr:postcode":"33-336","addr:place":"Czacz\u00f3w","addr:housenumber":"67","addr:teryt:sym_ul":442608,"contact:phone":"+48 184711290","contact:email":"spczaczow@labowa.pl","contact:website":"http:\/\/www.szkola-czaczow.net","ref:regon":"490667517","ref:vatin":"PL7342772910","operator":"Gmina \u0141abowa","operator:type":"government","amenity":"school"}},{"id":84184,"type":"Feature","geometry":{"type":"Point","coordinates":[20.85583,49.52809]},"properties":{"isced:level":"1;2","ref:rspo":84184,"official_name":"Szko\u0142a Podstawowa im. \u015awietego Franciszka Z Asy\u017cu w \u0141abowej","name":"Szko\u0142a Podstawowa","addr:country":"PL","addr:postcode":"33-336","addr:place":"\u0141abowa","addr:housenumber":"22","addr:teryt:sym_ul":442809,"contact:phone":"+48 182622532","contact:email":"splabowa@labowa.pl","contact:website":"http:\/\/www.sp.labowa.edu.pl","ref:regon":"490673707","ref:vatin":"PL7343279241","operator":"Gmina \u0141abowa","operator:type":"government","amenity":"school"}},{"id":21887,"type":"Feature","geometry":{"type":"Point","coordinates":[20.82103,49.52982]},"properties":{"isced:level":"1;2","ref:rspo":21887,"official_name":"Szko\u0142a Podstawowa im. \u015awi\u0119tej Kingi w Maciejowej","name":"Szko\u0142a Podstawowa","addr:country":"PL","addr:postcode":"33-336","addr:place":"Maciejowa","addr:housenumber":"83","addr:teryt:sym_ul":442896,"contact:phone":"+48 182622301","contact:email":"dyrektor.spmaciejowa@labowa.pl","contact:website":"http:\/\/www.maciejowaszkola.net","ref:regon":"490667411","ref:vatin":"PL7342776285","operator":"Gmina \u0141abowa","operator:type":"government","amenity":"school"}}]}