{
    "type": "FeatureCollection",
    "features": [
        {
            "id": 30697,
            "type": "Feature",
            "geometry": {
                "type": "Point",
                "coordinates": [
                    20.6055556,
                    49.7096658
                ]
            },
            "properties": {
                "isced:level": "1;2",
                "ref:rspo": 30697,
                "official_name": "Szko\u0142a Podstawowa w Roj\u00f3wce",
                "name": "Szko\u0142a Podstawowa w Roj\u00f3wce",
                "addr:country": "PL",
                "addr:postcode": "33-312",
                "addr:place": "Skrz\u0119tla-Roj\u00f3wka",
                "addr:housenumber": "66",
                "addr:teryt:sym_ul": 448108,
                "contact:phone": "+48 184449026",
                "contact:email": "sprojowka@wp.pl",
                "ref:regon": "490674032",
                "ref:vatin": "PL7342779740",
                "operator": "Gmina \u0141ososina Dolna",
                "operator:type": "government",
                "amenity": "school"
            }
        },
        {
            "id": 30912,
            "type": "Feature",
            "geometry": {
                "type": "Point",
                "coordinates": [
                    20.643909454346,
                    49.709758758545
                ]
            },
            "properties": {
                "isced:level": "1;2",
                "ref:rspo": 30912,
                "official_name": "Szko\u0142a Podstawowa im. Mjr Pil. Jerzego Iszkowskiego w T\u0119goborzy",
                "name": "Szko\u0142a Podstawowa",
                "addr:country": "PL",
                "addr:postcode": "33-312",
                "addr:city": "T\u0119goborze",
                "addr:street": "\u015awi\u0119tego Floriana",
                "addr:housenumber": "18 i 20",
                "addr:teryt:simc": 5083,
                "addr:teryt:sym_ul": 448404,
                "contact:phone": "+48 184140520",
                "contact:email": "szkolateg@gmail.com",
                "contact:website": "http:\/\/www.sptegoborze.iap.pl",
                "ref:regon": "490673920",
                "ref:vatin": "PL7342776641",
                "operator": "Gmina \u0141ososina Dolna",
                "operator:type": "government",
                "amenity": "school"
            }
        },
        {
            "id": 31349,
            "type": "Feature",
            "geometry": {
                "type": "Point",
                "coordinates": [
                    20.64551,
                    49.7186499
                ]
            },
            "properties": {
                "ref:rspo": 31349,
                "official_name": "Przedszkole \"Bajka\"\nAnna Za\u0142ubska\nT\u0119goborze",
                "name": "Przedszkole \"Bajka\"\nAnna Za\u0142ubska\nT\u0119goborze",
                "addr:country": "PL",
                "addr:postcode": "33-312",
                "addr:city": "T\u0119goborze",
                "addr:street": "Sportowa",
                "addr:housenumber": "3",
                "addr:teryt:simc": 20683,
                "addr:teryt:sym_ul": 448404,
                "contact:phone": "+48 184449018",
                "contact:email": "bajka_tegoborze@interia.pl",
                "ref:regon": "122683757",
                "ref:vatin": "PL7341060834",
                "operator": "Anna Za\u0142ubska",
                "operator:type": "private",
                "amenity": "kindergarten"
            }
        },
        {
            "id": 30186,
            "type": "Feature",
            "geometry": {
                "type": "Point",
                "coordinates": [
                    20.574356,
                    49.7351944
                ]
            },
            "properties": {
                "isced:level": "1;2",
                "ref:rspo": 30186,
                "official_name": "Szko\u0142a Podstawowa w Sta\u0144kowej",
                "name": "Szko\u0142a Podstawowa w Sta\u0144kowej",
                "addr:country": "PL",
                "addr:postcode": "33-314",
                "addr:place": "Sta\u0144kowa",
                "addr:housenumber": "101",
                "addr:teryt:sym_ul": 448150,
                "contact:phone": "+48 184448023",
                "contact:email": "sp.stankowa@lososina.pl",
                "contact:website": "http:\/\/www.stankowa.to-nestor.pl",
                "ref:regon": "490674003",
                "ref:vatin": "PL7342790552",
                "operator": "Gmina \u0141ososina Dolna",
                "operator:type": "government",
                "amenity": "school"
            }
        },
        {
            "id": 30047,
            "type": "Feature",
            "geometry": {
                "type": "Point",
                "coordinates": [
                    20.66572,
                    49.7376999
                ]
            },
            "properties": {
                "isced:level": "1;2",
                "ref:rspo": 30047,
                "official_name": "Szko\u0142a Podstawowa w R\u0105bkowej",
                "name": "Szko\u0142a Podstawowa w R\u0105bkowej",
                "addr:country": "PL",
                "addr:postcode": "33-312",
                "addr:place": "R\u0105bkowa",
                "addr:housenumber": "59",
                "addr:teryt:sym_ul": 448054,
                "contact:phone": "+48 184449058",
                "contact:email": "sprabkowa@op.pl",
                "ref:regon": "490674055",
                "ref:vatin": "PL7342785628",
                "operator": "Gmina \u0141ososina Dolna",
                "operator:type": "government",
                "amenity": "school"
            }
        },
        {
            "id": 30797,
            "type": "Feature",
            "geometry": {
                "type": "Point",
                "coordinates": [
                    20.58348,
                    49.73852
                ]
            },
            "properties": {
                "isced:level": "1;2",
                "ref:rspo": 30797,
                "official_name": "Szko\u0142a Podstawowa im. Mjra Henryka Sucharskiego w \u017bbikowicach",
                "name": "Szko\u0142a Podstawowa",
                "addr:country": "PL",
                "addr:postcode": "33-314",
                "addr:place": "\u017bbikowice",
                "addr:housenumber": "55",
                "addr:teryt:sym_ul": 448806,
                "contact:phone": "+48 184448020",
                "contact:email": "spzbikowice55@wp.pl",
                "ref:regon": "490674010",
                "ref:vatin": "PL7342785717",
                "operator": "Gmina \u0141ososina Dolna",
                "operator:type": "government",
                "amenity": "school"
            }
        },
        {
            "id": 127042,
            "type": "Feature",
            "geometry": {
                "type": "Point",
                "coordinates": [
                    20.62081,
                    49.7407899
                ]
            },
            "properties": {
                "ref:rspo": 127042,
                "official_name": "Niepubliczne Przedszkole \" Bajkowa Kraina \"",
                "name": "Niepubliczne Przedszkole \" Bajkowa Kraina \"",
                "addr:country": "PL",
                "addr:postcode": "33-314",
                "addr:place": "\u0141ososina Dolna",
                "addr:housenumber": "314",
                "addr:teryt:sym_ul": 447882,
                "contact:phone": "+48 510918205",
                "contact:email": "bajkowa314@gmail.com",
                "contact:website": "http:\/\/przedszkolebajkowakraina.com.pl",
                "ref:regon": "361055168",
                "operator": "Eugeniusz Paw\u0142owski",
                "operator:type": "private",
                "amenity": "kindergarten"
            }
        },
        {
            "id": 127041,
            "type": "Feature",
            "geometry": {
                "type": "Point",
                "coordinates": [
                    20.623910903931,
                    49.742290496826
                ]
            },
            "properties": {
                "ref:rspo": 127041,
                "official_name": "Niepubliczne Przedszkole \"T\u0119cza\" Agnieszka Bugajska Anna Che\u0142mecka S.c.",
                "name": "Niepubliczne Przedszkole \"T\u0119cza\" Agnieszka Bugajska Anna Che\u0142mecka S.c.",
                "addr:country": "PL",
                "addr:postcode": "33-314",
                "addr:place": "\u0141ososina Dolna",
                "addr:housenumber": "399",
                "addr:teryt:sym_ul": 447882,
                "contact:phone": "+48 183070442",
                "contact:email": "nptecza@autograf.pl",
                "contact:website": "http:\/\/lososina.ziptecza.pl",
                "ref:regon": "361050716",
                "operator": "Agnieszka Bugajska",
                "operator:type": "private",
                "amenity": "kindergarten"
            }
        },
        {
            "id": 40634,
            "type": "Feature",
            "geometry": {
                "type": "Point",
                "coordinates": [
                    20.6300972,
                    49.7552853
                ]
            },
            "properties": {
                "isced:level": "1;2",
                "ref:rspo": 40634,
                "official_name": "Szko\u0142a Podstawowa im. Jana Paw\u0142a II w \u0141ososinie Dolnej",
                "name": "Szko\u0142a Podstawowa",
                "addr:country": "PL",
                "addr:postcode": "33-314",
                "addr:place": "\u0141ososina Dolna",
                "addr:housenumber": "82",
                "addr:teryt:sym_ul": 447882,
                "contact:phone": "+48 184448402",
                "contact:email": "gimlos@szkola.wp.pl",
                "contact:website": "http:\/\/www.zs.lososina.pl",
                "ref:regon": "490673972",
                "ref:vatin": "PL7342923384",
                "operator": "Gmina \u0141ososina Dolna",
                "operator:type": "government",
                "amenity": "school"
            }
        },
        {
            "id": 30048,
            "type": "Feature",
            "geometry": {
                "type": "Point",
                "coordinates": [
                    20.6099794,
                    49.7705803
                ]
            },
            "properties": {
                "isced:level": "1;2",
                "ref:rspo": 30048,
                "official_name": "Szko\u0142a Podstawowa im. Kardyna\u0142a Stefana Wyszy\u0144skiego w Michalczowej",
                "name": "Szko\u0142a Podstawowa",
                "addr:country": "PL",
                "addr:postcode": "33-314",
                "addr:place": "Michalczowa",
                "addr:housenumber": "87",
                "addr:teryt:sym_ul": 448002,
                "contact:phone": "+48 184448006",
                "contact:email": "szelek74@wp.pl",
                "contact:website": "http:\/\/www.spmichalczowa.szkolnastrona.pl\/",
                "ref:regon": "490673995",
                "ref:vatin": "PL7342773418",
                "operator": "Gmina \u0141ososina Dolna",
                "operator:type": "government",
                "amenity": "school"
            }
        },
        {
            "id": 272505,
            "type": "Feature",
            "geometry": {
                "type": "Point",
                "coordinates": [
                    20.6160564,
                    49.7730238
                ]
            },
            "properties": {
                "ref:rspo": 272505,
                "official_name": "\"T\u0119cza\" Niepubliczne Przedszkole",
                "name": "\"T\u0119cza\" Niepubliczne Przedszkole",
                "addr:country": "PL",
                "addr:postcode": "33-314",
                "addr:place": "\u0141\u0119ki",
                "addr:housenumber": "25",
                "addr:teryt:sym_ul": 447847,
                "contact:phone": "+48 884328777",
                "contact:email": "tecza.filia@interia.pl",
                "ref:regon": "384261390",
                "operator": "Agnieszka Bugajska",
                "operator:type": "private",
                "amenity": "kindergarten"
            }
        },
        {
            "id": 30849,
            "type": "Feature",
            "geometry": {
                "type": "Point",
                "coordinates": [
                    20.64106,
                    49.77958
                ]
            },
            "properties": {
                "isced:level": "1;2",
                "ref:rspo": 30849,
                "official_name": "Szko\u0142a Podstawowa im. \u015aw.\u015bwierada w Witowicach Dolnych",
                "name": "Szko\u0142a Podstawowa",
                "addr:country": "PL",
                "addr:postcode": "33-314",
                "addr:place": "Witowice Dolne",
                "addr:housenumber": "95",
                "addr:teryt:sym_ul": 448539,
                "contact:phone": "+48 184448032",
                "contact:email": "spwitowice@wp.pl",
                "contact:website": "http:\/\/www.spwitowice.cba.pl",
                "ref:regon": "490673989",
                "ref:vatin": "PL7342782073",
                "operator": "Gmina \u0141ososina Dolna",
                "operator:type": "government",
                "amenity": "school"
            }
        }
    ]
}