{
    "type": "FeatureCollection",
    "features": [
        {
            "id": 20993,
            "type": "Feature",
            "geometry": {
                "type": "Point",
                "coordinates": [
                    14.659178,
                    52.590246
                ]
            },
            "properties": {
                "isced:level": "1;2",
                "ref:rspo": 20993,
                "official_name": "Szko\u0142a Podstawowa w D\u0105broszynie",
                "name": "Szko\u0142a Podstawowa w D\u0105broszynie",
                "addr:country": "PL",
                "addr:postcode": "66-460",
                "addr:place": "D\u0105broszyn",
                "addr:housenumber": "22",
                "addr:teryt:sym_ul": 188251,
                "contact:phone": "+48 957216475",
                "contact:email": "spdabroszyn@wp.pl",
                "contact:website": "http:\/\/www.dabroszynsp.edupage.org",
                "ref:regon": "210308327",
                "ref:vatin": "PL5991132454",
                "operator": "Gmina Witnica",
                "operator:type": "government",
                "amenity": "school"
            }
        },
        {
            "id": 107027,
            "type": "Feature",
            "geometry": {
                "type": "Point",
                "coordinates": [
                    14.659178,
                    52.590216
                ]
            },
            "properties": {
                "ref:rspo": 107027,
                "official_name": "Punkt Przedszkolny ,,S\u0142oneczko'' w D\u0105broszynie",
                "name": "Punkt Przedszkolny ,,S\u0142oneczko'' w D\u0105broszynie",
                "addr:country": "PL",
                "addr:postcode": "66-460",
                "addr:place": "D\u0105broszyn",
                "addr:housenumber": "22a",
                "addr:teryt:sym_ul": 188251,
                "contact:phone": "+48 691682938",
                "contact:email": "punkt.przedszkolny@o2.pl",
                "contact:website": "http:\/\/www.punkty-przedszkolne.eu",
                "ref:regon": "081106244",
                "operator": "Aneta Lipi\u0144ska",
                "operator:type": "private",
                "amenity": "kindergarten"
            }
        },
        {
            "id": 268253,
            "type": "Feature",
            "geometry": {
                "type": "Point",
                "coordinates": [
                    14.77434,
                    52.66384
                ]
            },
            "properties": {
                "isced:level": "1;2",
                "ref:rspo": 268253,
                "official_name": "Szko\u0142a Podstawowa im. Or\u0142a Bia\u0142ego w Kamieniu Wielkim",
                "name": "Szko\u0142a Podstawowa",
                "addr:country": "PL",
                "addr:postcode": "66-460",
                "addr:city": "Kamie\u0144 Wielki",
                "addr:street": "ul. Ko\u015bcielna",
                "addr:housenumber": "1",
                "addr:teryt:simc": 9546,
                "addr:teryt:sym_ul": 188274,
                "contact:phone": "+48 957515894",
                "contact:email": "spkamienwielki@gmail.com",
                "contact:website": "http:\/\/www.spkamienwielki.edupage.org",
                "ref:regon": "381039886",
                "operator": "Gmina Witnica",
                "operator:type": "government",
                "amenity": "school"
            }
        },
        {
            "id": 31457,
            "type": "Feature",
            "geometry": {
                "type": "Point",
                "coordinates": [
                    14.7761077,
                    52.6640827
                ]
            },
            "properties": {
                "ref:rspo": 31457,
                "official_name": "Zesp\u00f3\u0142 Szk\u00f3\u0142 Centrum Kszta\u0142cenia Rolniczego w Kamieniu Ma\u0142ym",
                "name": "Zesp\u00f3\u0142 Szk\u00f3\u0142 Centrum Kszta\u0142cenia Rolniczego w Kamieniu Ma\u0142ym",
                "addr:country": "PL",
                "addr:postcode": "66-460",
                "addr:place": "Kamie\u0144 Ma\u0142y",
                "addr:housenumber": "89",
                "addr:teryt:sym_ul": 188268,
                "contact:phone": "+48 957515826",
                "contact:email": "sekretariat@zsrkm.pl",
                "contact:website": "http:\/\/www.zsrkm.pl",
                "ref:regon": "000788353",
                "ref:vatin": "PL5991746191",
                "operator": "Ministerstwo Rolnictwa I Rozwoju Wsi",
                "operator:type": "public",
                "landuse": "education",
                "fixme": "amenity=school, amenity=college albo landuse=education w zale\u017cno\u015bci od tego, jakie plac\u00f3wki wchodz\u0105 w sk\u0142ad zespo\u0142u. Sprawd\u017a, kiedy stosowa\u0107 amenity=* a kiedy landuse=education.",
                "note": "Children RSPO: 104073;104075;106047;109721"
            }
        },
        {
            "id": 104073,
            "type": "Feature",
            "geometry": {
                "type": "Point",
                "coordinates": [
                    14.7761077,
                    52.6640527
                ]
            },
            "properties": {
                "isced:level": "3",
                "ref:rspo": 104073,
                "official_name": "Technikum im. Dezyderego Ch\u0142apowskiego w Kamieniu Ma\u0142ym",
                "name": "Technikum",
                "addr:country": "PL",
                "addr:postcode": "66-460",
                "addr:place": "Kamie\u0144 Ma\u0142y",
                "addr:housenumber": "89",
                "addr:teryt:sym_ul": 188268,
                "contact:phone": "+48 957515826",
                "contact:email": "sekretariat@zsrkm.pl",
                "contact:website": "http:\/\/www.zsrkm.pl",
                "ref:regon": "211264276",
                "operator": "Ministerstwo Rolnictwa I Rozwoju Wsi",
                "operator:type": "public",
                "amenity": "school",
                "note": "Parent RSPO: 31457"
            }
        },
        {
            "id": 104075,
            "type": "Feature",
            "geometry": {
                "type": "Point",
                "coordinates": [
                    14.7761077,
                    52.664022700000004
                ]
            },
            "properties": {
                "isced:level": "4",
                "ref:rspo": 104075,
                "official_name": "Szko\u0142a Policealna w Kamieniu Ma\u0142ym",
                "name": "Szko\u0142a Policealna w Kamieniu Ma\u0142ym",
                "addr:country": "PL",
                "addr:postcode": "66-460",
                "addr:place": "Kamie\u0144 Ma\u0142y",
                "addr:housenumber": "89",
                "addr:teryt:sym_ul": 188268,
                "contact:phone": "+48 957515826",
                "contact:email": "sekretariat@zsrkm.pl",
                "contact:website": "http:\/\/www.zsrkm.pl",
                "ref:regon": "080123453",
                "operator": "Ministerstwo Rolnictwa I Rozwoju Wsi",
                "operator:type": "public",
                "amenity": "college",
                "note": "Parent RSPO: 31457"
            }
        },
        {
            "id": 106047,
            "type": "Feature",
            "geometry": {
                "type": "Point",
                "coordinates": [
                    14.7761077,
                    52.6639927
                ]
            },
            "properties": {
                "ref:rspo": 106047,
                "official_name": "Centrum Kszta\u0142cenia Ustawicznego w Kamieniu Ma\u0142ym",
                "name": "Centrum Kszta\u0142cenia Ustawicznego w Kamieniu Ma\u0142ym",
                "addr:country": "PL",
                "addr:postcode": "66-460",
                "addr:place": "Kamie\u0144 Ma\u0142y",
                "addr:housenumber": "89",
                "addr:teryt:sym_ul": 188268,
                "contact:phone": "+48 957515826",
                "contact:email": "sekretariat@zsrkm.pl",
                "contact:website": "http:\/\/www.zsrkm.pl",
                "ref:regon": "081102594",
                "operator": "Ministerstwo Rolnictwa I Rozwoju Wsi",
                "operator:type": "public",
                "fixme": "w zale\u017cno\u015bci od przedmiotu dzia\u0142alno\u015bci (np. amenity=training + training=*, amenity=dancing_school, amenity=language_school, amenity=music_school)",
                "note": "Parent RSPO: 31457"
            }
        },
        {
            "id": 109721,
            "type": "Feature",
            "geometry": {
                "type": "Point",
                "coordinates": [
                    14.7761077,
                    52.6639627
                ]
            },
            "properties": {
                "isced:level": "3",
                "ref:rspo": 109721,
                "official_name": "Bran\u017cowa Szko\u0142a I Stopnia im. Dezyderego Ch\u0142apowskiego w Kamieniu Ma\u0142ym",
                "name": "Bran\u017cowa Szko\u0142a I Stopnia",
                "addr:country": "PL",
                "addr:postcode": "66-460",
                "addr:place": "Kamie\u0144 Ma\u0142y",
                "addr:housenumber": "89",
                "addr:teryt:sym_ul": 188268,
                "contact:phone": "+48 957515826",
                "contact:email": "sekretariat@zsrkm.pl",
                "contact:website": "http:\/\/www.zsrkm.pl",
                "ref:regon": "211264253",
                "operator": "Ministerstwo Rolnictwa I Rozwoju Wsi",
                "operator:type": "public",
                "amenity": "school",
                "note": "Parent RSPO: 31457"
            }
        },
        {
            "id": 109638,
            "type": "Feature",
            "geometry": {
                "type": "Point",
                "coordinates": [
                    15.01007,
                    52.66903
                ]
            },
            "properties": {
                "ref:rspo": 109638,
                "official_name": "Przedszkole Gminne ,,Na \u015arodku \u015awiata'' w Nowinach Wielkich",
                "name": "Przedszkole Gminne ,,Na \u015arodku \u015awiata'' w Nowinach Wielkich",
                "addr:country": "PL",
                "addr:postcode": "66-460",
                "addr:city": "Nowiny Wielkie",
                "addr:street": "ul. Wiejska",
                "addr:housenumber": "15",
                "addr:teryt:simc": 24048,
                "addr:teryt:sym_ul": 188363,
                "contact:phone": "+48 957511926",
                "contact:email": "spsekretarka@op.pl",
                "contact:website": "http:\/\/spnowinywielkie.edupage.org",
                "ref:regon": "210526768",
                "ref:vatin": "PL5992041624",
                "operator": "Gmina Witnica",
                "operator:type": "government",
                "amenity": "kindergarten",
                "note": "Parent RSPO: 84326"
            }
        },
        {
            "id": 84326,
            "type": "Feature",
            "geometry": {
                "type": "Point",
                "coordinates": [
                    15.01469,
                    52.6704
                ]
            },
            "properties": {
                "ref:rspo": 84326,
                "official_name": "Zesp\u00f3\u0142 Edukacyjny w Nowinach Wielkich",
                "name": "Zesp\u00f3\u0142 Edukacyjny w Nowinach Wielkich",
                "addr:country": "PL",
                "addr:postcode": "66-460",
                "addr:city": "Nowiny Wielkie",
                "addr:street": "ul. Wiejska",
                "addr:housenumber": "26",
                "addr:teryt:simc": 24048,
                "addr:teryt:sym_ul": 188363,
                "contact:phone": "+48 957216479",
                "contact:email": "spsekretarka@op.pl",
                "contact:website": "http:\/\/www.spnowiny.edupage.org",
                "ref:regon": "080033649",
                "ref:vatin": "PL5992927428",
                "operator": "Gmina Witnica",
                "operator:type": "government",
                "landuse": "education",
                "fixme": "amenity=school, amenity=college albo landuse=education w zale\u017cno\u015bci od tego, jakie plac\u00f3wki wchodz\u0105 w sk\u0142ad zespo\u0142u. Sprawd\u017a, kiedy stosowa\u0107 amenity=* a kiedy landuse=education.",
                "note": "Children RSPO: 109637;109638"
            }
        },
        {
            "id": 109637,
            "type": "Feature",
            "geometry": {
                "type": "Point",
                "coordinates": [
                    15.01469,
                    52.67037
                ]
            },
            "properties": {
                "isced:level": "1;2",
                "ref:rspo": 109637,
                "official_name": "Szko\u0142a Podstawowa w Nowinach Wielkich",
                "name": "Szko\u0142a Podstawowa w Nowinach Wielkich",
                "addr:country": "PL",
                "addr:postcode": "66-460",
                "addr:city": "Nowiny Wielkie",
                "addr:street": "ul. Wiejska",
                "addr:housenumber": "26",
                "addr:teryt:simc": 24048,
                "addr:teryt:sym_ul": 188363,
                "contact:phone": "+48 957216479",
                "contact:email": "spsekretarka@op.pl",
                "contact:website": "http:\/\/www.spnowinywielkie.pl",
                "ref:regon": "210308304",
                "ref:vatin": "PL5991146775",
                "operator": "Gmina Witnica",
                "operator:type": "government",
                "amenity": "school",
                "note": "Parent RSPO: 84326"
            }
        },
        {
            "id": 262345,
            "type": "Feature",
            "geometry": {
                "type": "Point",
                "coordinates": [
                    14.90061,
                    52.67284
                ]
            },
            "properties": {
                "isced:level": "1;2",
                "ref:rspo": 262345,
                "official_name": "Szko\u0142a Podstawowa Nr 1 im. Ludzi Pojednania",
                "name": "Szko\u0142a Podstawowa Nr 1",
                "addr:country": "PL",
                "addr:postcode": "66-460",
                "addr:city": "Witnica",
                "addr:street": "ul. Plac Wolno\u015bci",
                "addr:housenumber": "7",
                "addr:teryt:simc": 16415,
                "addr:teryt:sym_ul": 935794,
                "contact:phone": "+48 957515220",
                "contact:email": "zsswitnica@gmail.com",
                "contact:website": "http:\/\/www.zsswitnica.pl",
                "ref:regon": "367986488",
                "operator": "Gmina Witnica",
                "operator:type": "government",
                "amenity": "school",
                "note": "Parent RSPO: 128209"
            }
        },
        {
            "id": 128209,
            "type": "Feature",
            "geometry": {
                "type": "Point",
                "coordinates": [
                    14.88915,
                    52.67539
                ]
            },
            "properties": {
                "ref:rspo": 128209,
                "official_name": "Zesp\u00f3\u0142 Szk\u00f3\u0142 Samorz\u0105dowych w Witnicy",
                "name": "Zesp\u00f3\u0142 Szk\u00f3\u0142 Samorz\u0105dowych w Witnicy",
                "addr:country": "PL",
                "addr:postcode": "66-460",
                "addr:city": "Witnica",
                "addr:street": "ul. Traugutta",
                "addr:housenumber": "1",
                "addr:teryt:simc": 22961,
                "addr:teryt:sym_ul": 935794,
                "contact:phone": "+48 957515180",
                "contact:email": "zsswitnica@gmail.com",
                "contact:website": "http:\/\/www.zsswitnica.pl",
                "ref:regon": "362177063",
                "operator": "Gmina Witnica",
                "operator:type": "government",
                "landuse": "education",
                "fixme": "amenity=school, amenity=college albo landuse=education w zale\u017cno\u015bci od tego, jakie plac\u00f3wki wchodz\u0105 w sk\u0142ad zespo\u0142u. Sprawd\u017a, kiedy stosowa\u0107 amenity=* a kiedy landuse=education.",
                "note": "Children RSPO: 31998;43320;44709;262345"
            }
        },
        {
            "id": 31998,
            "type": "Feature",
            "geometry": {
                "type": "Point",
                "coordinates": [
                    14.88915,
                    52.67536
                ]
            },
            "properties": {
                "isced:level": "3",
                "ref:rspo": 31998,
                "official_name": "Technikum w Witnicy",
                "name": "Technikum w Witnicy",
                "addr:country": "PL",
                "addr:postcode": "66-460",
                "addr:city": "Witnica",
                "addr:street": "ul. Traugutta",
                "addr:housenumber": "1",
                "addr:teryt:simc": 22961,
                "addr:teryt:sym_ul": 935794,
                "contact:phone": "+48 957515180",
                "contact:email": "zsswitnica@gmail.com",
                "contact:website": "http:\/\/www.zsswitnica.pl",
                "ref:regon": "080124062",
                "operator": "Gmina Witnica",
                "operator:type": "government",
                "amenity": "school",
                "note": "Parent RSPO: 128209"
            }
        },
        {
            "id": 43320,
            "type": "Feature",
            "geometry": {
                "type": "Point",
                "coordinates": [
                    14.88915,
                    52.67533
                ]
            },
            "properties": {
                "isced:level": "3",
                "ref:rspo": 43320,
                "official_name": "Bran\u017cowa Szko\u0142a I Stopnia",
                "name": "Bran\u017cowa Szko\u0142a I Stopnia",
                "addr:country": "PL",
                "addr:postcode": "66-460",
                "addr:city": "Witnica",
                "addr:street": "ul. Traugutta",
                "addr:housenumber": "1",
                "addr:teryt:simc": 22961,
                "addr:teryt:sym_ul": 935794,
                "contact:phone": "+48 957515180",
                "contact:email": "zsswitnica@gmail.com",
                "contact:website": "http:\/\/www.zsswitnica.pl",
                "ref:regon": "080201791",
                "operator": "Gmina Witnica",
                "operator:type": "government",
                "amenity": "school",
                "note": "Parent RSPO: 128209"
            }
        },
        {
            "id": 44709,
            "type": "Feature",
            "geometry": {
                "type": "Point",
                "coordinates": [
                    14.88915,
                    52.6753
                ]
            },
            "properties": {
                "isced:level": "3",
                "ref:rspo": 44709,
                "official_name": "Liceum Og\u00f3lnokszta\u0142c\u0105ce im. Miko\u0142aja Kopernika w Witnicy",
                "name": "Liceum Og\u00f3lnokszta\u0142c\u0105ce",
                "addr:country": "PL",
                "addr:postcode": "66-460",
                "addr:city": "Witnica",
                "addr:street": "ul. Traugutta",
                "addr:housenumber": "1",
                "addr:teryt:simc": 22961,
                "addr:teryt:sym_ul": 935794,
                "contact:phone": "+48 957515180",
                "contact:email": "zsswitnica@gmail.com",
                "contact:website": "http:\/\/www.zsswitnica.pl",
                "ref:regon": "211054449",
                "operator": "Gmina Witnica",
                "operator:type": "government",
                "amenity": "school",
                "note": "Parent RSPO: 128209"
            }
        },
        {
            "id": 18578,
            "type": "Feature",
            "geometry": {
                "type": "Point",
                "coordinates": [
                    14.89425,
                    52.67967
                ]
            },
            "properties": {
                "ref:rspo": 18578,
                "official_name": "Przedszkole Miejskie ,,Bajka'' w Witnicy",
                "name": "Przedszkole Miejskie ,,Bajka'' w Witnicy",
                "addr:country": "PL",
                "addr:postcode": "66-460",
                "addr:city": "Witnica",
                "addr:street": "ul. Wiosny Lud\u00f3w",
                "addr:housenumber": "4",
                "addr:teryt:simc": 24369,
                "addr:teryt:sym_ul": 935794,
                "contact:phone": "+48 957515020",
                "contact:email": "zspwitnica@wp.pl",
                "contact:website": "http:\/\/zspwitnica.edupage.org\/",
                "ref:regon": "210526751",
                "ref:vatin": "PL5993116413",
                "operator": "Gmina Witnica",
                "operator:type": "government",
                "amenity": "kindergarten",
                "note": "Parent RSPO: 114953"
            }
        },
        {
            "id": 114953,
            "type": "Feature",
            "geometry": {
                "type": "Point",
                "coordinates": [
                    14.89317,
                    52.68099
                ]
            },
            "properties": {
                "ref:rspo": 114953,
                "official_name": "Zesp\u00f3\u0142 Szkolno - Przedszkolny w Witnicy",
                "name": "Zesp\u00f3\u0142 Szkolno - Przedszkolny w Witnicy",
                "addr:country": "PL",
                "addr:postcode": "66-460",
                "addr:city": "Witnica",
                "addr:street": "ul. Wiosny Lud\u00f3w",
                "addr:housenumber": "14",
                "addr:teryt:simc": 24369,
                "addr:teryt:sym_ul": 935794,
                "contact:phone": "+48 957515020",
                "contact:email": "zspwitnica@wp.pl",
                "contact:website": "http:\/\/www.zspwitnica.edupage.org",
                "ref:regon": "081140436",
                "operator": "Gmina Witnica",
                "operator:type": "government",
                "landuse": "education",
                "fixme": "amenity=school, amenity=college albo landuse=education w zale\u017cno\u015bci od tego, jakie plac\u00f3wki wchodz\u0105 w sk\u0142ad zespo\u0142u. Sprawd\u017a, kiedy stosowa\u0107 amenity=* a kiedy landuse=education.",
                "note": "Children RSPO: 17081;18578"
            }
        },
        {
            "id": 17081,
            "type": "Feature",
            "geometry": {
                "type": "Point",
                "coordinates": [
                    14.89317,
                    52.68096
                ]
            },
            "properties": {
                "isced:level": "1;2",
                "ref:rspo": 17081,
                "official_name": "Szko\u0142a Podstawowa Nr 2 im. J\u00f3zefa Wybickiego w Witnicy",
                "name": "Szko\u0142a Podstawowa Nr 2",
                "addr:country": "PL",
                "addr:postcode": "66-460",
                "addr:city": "Witnica",
                "addr:street": "ul. Wiosny Lud\u00f3w",
                "addr:housenumber": "14",
                "addr:teryt:simc": 24369,
                "addr:teryt:sym_ul": 935794,
                "contact:phone": "+48 957515020",
                "contact:email": "zspwitnica@wp.pl",
                "contact:website": "http:\/\/zspwitnica.edupage.org",
                "ref:regon": "210308296",
                "ref:vatin": "PL5991031925",
                "operator": "Gmina Witnica",
                "operator:type": "government",
                "amenity": "school",
                "note": "Parent RSPO: 114953"
            }
        },
        {
            "id": 18630,
            "type": "Feature",
            "geometry": {
                "type": "Point",
                "coordinates": [
                    14.9562145,
                    52.7188651
                ]
            },
            "properties": {
                "isced:level": "1;2",
                "ref:rspo": 18630,
                "official_name": "Niepubliczna Szko\u0142a Podstawowa w Sosnach",
                "name": "Niepubliczna Szko\u0142a Podstawowa w Sosnach",
                "addr:country": "PL",
                "addr:postcode": "66-460",
                "addr:place": "Sosny",
                "addr:housenumber": "14",
                "addr:teryt:sym_ul": 188392,
                "contact:phone": "+48 957216478",
                "contact:email": "nsp.sosny@wp.pl",
                "ref:regon": "081075590",
                "ref:vatin": "PL5992920277",
                "operator": "Stowarzyszenie Edukacyjno-Kulturalne Dzieduszyc I Sosen",
                "operator:type": "ngo",
                "amenity": "school"
            }
        },
        {
            "id": 273277,
            "type": "Feature",
            "geometry": {
                "type": "Point",
                "coordinates": [
                    14.9562145,
                    52.7188351
                ]
            },
            "properties": {
                "ref:rspo": 273277,
                "official_name": "Niepubliczny Punkt Przedszkolny \"Sosenki\"",
                "name": "Niepubliczny Punkt Przedszkolny \"Sosenki\"",
                "addr:country": "PL",
                "addr:postcode": "66-460",
                "addr:place": "Sosny",
                "addr:housenumber": "14",
                "addr:teryt:sym_ul": 188392,
                "contact:phone": "+48 957515524",
                "contact:email": "nsp.sosny@wp.pl",
                "ref:regon": "384432414",
                "operator": "Stowarzyszenie Edukacyjno-Kulturalne Dzieduszyc I Sosen",
                "operator:type": "ngo",
                "amenity": "kindergarten"
            }
        }
    ]
}