{
    "type": "FeatureCollection",
    "features": [
        {
            "id": 115551,
            "type": "Feature",
            "geometry": {
                "type": "Point",
                "coordinates": [
                    15.42656,
                    52.72051
                ]
            },
            "properties": {
                "isced:level": "1;2",
                "ref:rspo": 115551,
                "official_name": "Szko\u0142a Podstawowa w Santoku Szko\u0142a Filialna w Starym Polichnie",
                "name": "Szko\u0142a Podstawowa w Santoku Szko\u0142a Filialna w Starym Polichnie",
                "addr:postcode": "66-431",
                "addr:city": "Stare Polichno",
                "addr:street": "Szkolna",
                "addr:housenumber": "1",
                "addr:teryt:simc": 186714,
                "addr:teryt:sym_ul": 21970,
                "phone": "+48 957287528",
                "ref:regon": "272603000",
                "operator": "Gmina Santok",
                "operator:type": "government",
                "amenity": "school",
                "note": "Parent RSPO: 103970"
            }
        },
        {
            "id": 13607,
            "type": "Feature",
            "geometry": {
                "type": "Point",
                "coordinates": [
                    15.52375,
                    52.72313
                ]
            },
            "properties": {
                "ref:rspo": 13607,
                "official_name": "Specjalny O\u015brodek Szkolno-Wychowawczy w Lipkach Wielkich",
                "name": "Specjalny O\u015brodek Szkolno-Wychowawczy w Lipkach Wielkich",
                "addr:postcode": "66-431",
                "addr:city": "Lipki Wielkie",
                "addr:street": "Szosowa",
                "addr:housenumber": "109",
                "addr:teryt:simc": 186654,
                "addr:teryt:sym_ul": 22050,
                "phone": "+48 957312378",
                "email": "soswlw@wp.pl",
                "website": "http:\/\/www.soswlw.pl",
                "ref:regon": "211194430",
                "ref:vatin": "PL5992753690",
                "operator": "Powiat Gorzowski",
                "operator:type": "government",
                "amenity": "school",
                "note": "Children RSPO: 28006;28531;28623"
            }
        },
        {
            "id": 28006,
            "type": "Feature",
            "geometry": {
                "type": "Point",
                "coordinates": [
                    15.52375,
                    52.723099999999995
                ]
            },
            "properties": {
                "isced:level": "3",
                "ref:rspo": 28006,
                "official_name": "Bran\u017cowa Szko\u0142a Specjalna I Stopnia w Lipkach Wielkich",
                "name": "Bran\u017cowa Szko\u0142a Specjalna I Stopnia w Lipkach Wielkich",
                "addr:postcode": "66-431",
                "addr:city": "Lipki Wielkie",
                "addr:street": "Szosowa",
                "addr:housenumber": "109",
                "addr:teryt:simc": 186654,
                "addr:teryt:sym_ul": 22050,
                "phone": "+48 957312378",
                "email": "soswlw@wp.pl",
                "website": "http:\/\/www.soswlw.pl",
                "ref:regon": "211194452",
                "operator": "Powiat Gorzowski",
                "operator:type": "government",
                "amenity": "school",
                "note": "Parent RSPO: 13607"
            }
        },
        {
            "id": 28531,
            "type": "Feature",
            "geometry": {
                "type": "Point",
                "coordinates": [
                    15.52375,
                    52.72307
                ]
            },
            "properties": {
                "ref:rspo": 28531,
                "official_name": "Szko\u0142a Specjalna Przysposabiaj\u0105ca Do Pracy w Lipkach Wielkich",
                "name": "Szko\u0142a Specjalna Przysposabiaj\u0105ca Do Pracy w Lipkach Wielkich",
                "addr:postcode": "66-431",
                "addr:city": "Lipki Wielkie",
                "addr:street": "Szosowa",
                "addr:housenumber": "109",
                "addr:teryt:simc": 186654,
                "addr:teryt:sym_ul": 22050,
                "phone": "+48 957312378",
                "email": "soswlw@wp.pl",
                "website": "http:\/\/www.soswlw.pl",
                "ref:regon": "080277417",
                "operator": "Powiat Gorzowski",
                "operator:type": "government",
                "amenity": "school",
                "note": "Parent RSPO: 13607"
            }
        },
        {
            "id": 28623,
            "type": "Feature",
            "geometry": {
                "type": "Point",
                "coordinates": [
                    15.52375,
                    52.72304
                ]
            },
            "properties": {
                "isced:level": "1;2",
                "ref:rspo": 28623,
                "official_name": "Specjalna Szko\u0142a Podstawowa w Lipkach Wielkich",
                "name": "Specjalna Szko\u0142a Podstawowa w Lipkach Wielkich",
                "addr:postcode": "66-431",
                "addr:city": "Lipki Wielkie",
                "addr:street": "Szosowa",
                "addr:housenumber": "109",
                "addr:teryt:simc": 186654,
                "addr:teryt:sym_ul": 22050,
                "phone": "+48 957312378",
                "email": "soswlw@wp.pl",
                "website": "http:\/\/www.soswlw.pl",
                "ref:regon": "211194446",
                "operator": "Powiat Gorzowski",
                "operator:type": "government",
                "amenity": "school",
                "note": "Parent RSPO: 13607"
            }
        },
        {
            "id": 56189,
            "type": "Feature",
            "geometry": {
                "type": "Point",
                "coordinates": [
                    15.52658,
                    52.72396
                ]
            },
            "properties": {
                "ref:rspo": 56189,
                "official_name": "Gminne Przedszkole w Lipkach Wielkich",
                "name": "Gminne Przedszkole w Lipkach Wielkich",
                "addr:postcode": "66-431",
                "addr:city": "Lipki Wielkie",
                "addr:street": "Szosowa",
                "addr:housenumber": "90",
                "addr:teryt:simc": 186654,
                "addr:teryt:sym_ul": 22050,
                "phone": "+48 957287535",
                "email": "przedszkolelipki@vp.pl",
                "website": "http:\/\/www.przedszkolelipki.przedszkolowo.pl",
                "ref:regon": "210521794",
                "operator": "Gmina Santok",
                "operator:type": "government",
                "amenity": "kindergarten"
            }
        },
        {
            "id": 74115,
            "type": "Feature",
            "geometry": {
                "type": "Point",
                "coordinates": [
                    15.52868,
                    52.72515
                ]
            },
            "properties": {
                "isced:level": "1;2",
                "ref:rspo": 74115,
                "official_name": "Szko\u0142a Podstawowa w Lipkach Wielkich",
                "name": "Szko\u0142a Podstawowa w Lipkach Wielkich",
                "addr:postcode": "66-431",
                "addr:city": "Lipki Wielkie",
                "addr:street": "Nowa",
                "addr:housenumber": "16",
                "addr:teryt:simc": 186654,
                "addr:teryt:sym_ul": 14330,
                "phone": "+48 957287529",
                "email": "splipki@santok.pl",
                "website": "http:\/\/zslw.edupage.org",
                "ref:regon": "001253826",
                "ref:vatin": "PL5993183102",
                "operator": "Gmina Santok",
                "operator:type": "government",
                "amenity": "school"
            }
        },
        {
            "id": 58617,
            "type": "Feature",
            "geometry": {
                "type": "Point",
                "coordinates": [
                    15.41336,
                    52.74067
                ]
            },
            "properties": {
                "ref:rspo": 58617,
                "official_name": "Gminne Przedszkole w Santoku",
                "name": "Gminne Przedszkole w Santoku",
                "addr:postcode": "66-431",
                "addr:city": "Santok",
                "addr:street": "Gorzowska",
                "addr:housenumber": "19",
                "addr:teryt:simc": 186708,
                "addr:teryt:sym_ul": 5839,
                "phone": "+48 957287534",
                "email": "przedszkolesantok@interia.pl",
                "website": "http:\/\/www.przedszkolesantok.pl\/",
                "ref:regon": "210521771",
                "operator": "Gmina Santok",
                "operator:type": "government",
                "amenity": "kindergarten"
            }
        },
        {
            "id": 103970,
            "type": "Feature",
            "geometry": {
                "type": "Point",
                "coordinates": [
                    15.39908,
                    52.74437
                ]
            },
            "properties": {
                "isced:level": "1;2",
                "ref:rspo": 103970,
                "official_name": "Szko\u0142a Podstawowa im. Gen. Bryg. Prof. El\u017cbiety Zawackiej w Santoku",
                "name": "Szko\u0142a Podstawowa",
                "addr:postcode": "66-431",
                "addr:city": "Santok",
                "addr:street": "Gralewska",
                "addr:housenumber": "9",
                "addr:teryt:simc": 186708,
                "addr:teryt:sym_ul": 6065,
                "phone": "+48 957287528",
                "email": "spsantok@santok.pl",
                "ref:regon": "000272603",
                "ref:vatin": "PL5993183378",
                "operator": "Gmina Santok",
                "operator:type": "government",
                "amenity": "school",
                "note": "Children RSPO: 115551"
            }
        },
        {
            "id": 103386,
            "type": "Feature",
            "geometry": {
                "type": "Point",
                "coordinates": [
                    15.29469,
                    52.74891
                ]
            },
            "properties": {
                "isced:level": "1;2",
                "ref:rspo": 103386,
                "official_name": "Szko\u0142a Podstawowa w Wawrowie im. Sybirak\u00f3w",
                "name": "Szko\u0142a Podstawowa w Wawrowie",
                "addr:postcode": "66-400",
                "addr:place": "Wawr\u00f3w",
                "addr:housenumber": "47b",
                "addr:teryt:simc": 186720,
                "phone": "+48 957287531",
                "email": "spwawrow@santok.pl",
                "ref:regon": "001253803",
                "ref:vatin": "PL5993183384",
                "operator": "Gmina Santok",
                "operator:type": "government",
                "amenity": "school"
            }
        },
        {
            "id": 71627,
            "type": "Feature",
            "geometry": {
                "type": "Point",
                "coordinates": [
                    15.38584,
                    52.75085
                ]
            },
            "properties": {
                "ref:rspo": 71627,
                "official_name": "Niepubliczne Radosne Przedszkole w Gralewie",
                "name": "Niepubliczne Radosne Przedszkole w Gralewie",
                "addr:postcode": "66-431",
                "addr:city": "Gralewo",
                "addr:street": "Kr\u00f3tka",
                "addr:housenumber": "90",
                "addr:teryt:simc": 186619,
                "addr:teryt:sym_ul": 10009,
                "phone": "+48 957227291",
                "ref:regon": "081085140",
                "operator": "Dane Do Uzupe\u0142nienia",
                "operator:type": "private",
                "amenity": "kindergarten"
            }
        },
        {
            "id": 56167,
            "type": "Feature",
            "geometry": {
                "type": "Point",
                "coordinates": [
                    15.33884,
                    52.75514
                ]
            },
            "properties": {
                "isced:level": "1;2",
                "ref:rspo": 56167,
                "official_name": "Szko\u0142a Podstawowa w Janczewie",
                "name": "Szko\u0142a Podstawowa w Janczewie",
                "addr:postcode": "66-431",
                "addr:city": "Janczewo",
                "addr:street": "G\u0142\u00f3wna",
                "addr:housenumber": "59",
                "addr:teryt:simc": 186625,
                "addr:teryt:sym_ul": 5635,
                "phone": "+48 957287530",
                "email": "spjanczewo@wp.pl",
                "website": "http:\/\/www.szkolajaczewo.pl",
                "ref:regon": "001253810",
                "operator": "Gmina Santok",
                "operator:type": "government",
                "amenity": "school"
            }
        },
        {
            "id": 103384,
            "type": "Feature",
            "geometry": {
                "type": "Point",
                "coordinates": [
                    15.3295485,
                    52.7962296
                ]
            },
            "properties": {
                "ref:rspo": 103384,
                "official_name": "Przedszkole Gminne w Wawrowie",
                "name": "Przedszkole Gminne w Wawrowie",
                "addr:postcode": "66-400",
                "addr:place": "Wawr\u00f3w",
                "addr:housenumber": "46",
                "addr:teryt:simc": 186720,
                "phone": "+48 957287532",
                "email": "przedszkolewawrow@o2.pl",
                "website": "http:\/\/www.przedszkolewawrow.pl",
                "ref:regon": "210521802",
                "operator": "Gmina Santok",
                "operator:type": "government",
                "amenity": "kindergarten"
            }
        }
    ]
}