{"type":"FeatureCollection","features":[{"id":124362,"type":"Feature","geometry":{"type":"Point","coordinates":[14.63511,52.58173]},"properties":{"ref:rspo":124362,"official_name":"Prywatne Przedszkole \"Euregio\" w Kostrzynie Nad Odr\u0105","name":"Prywatne Przedszkole \"Euregio\" w Kostrzynie Nad Odr\u0105","addr:country":"PL","addr:postcode":"66-470","addr:city":"Kostrzyn nad Odr\u0105","addr:street":"ul. Graniczna","addr:housenumber":"6 i 8","addr:teryt:simc":6075,"addr:teryt:sym_ul":935452,"contact:email":"euregio.kostrzyn@gmail.com","ref:regon":"081232405","operator":"Fundacja \"Euregio\"","operator:type":"ngo","amenity":"kindergarten"}},{"id":132922,"type":"Feature","geometry":{"type":"Point","coordinates":[14.65298,52.58589]},"properties":{"ref:rspo":132922,"official_name":"Niepubliczne Przedszkole Z Oddzia\u0142ami Integracyjnymi I Specjalnymi","name":"Niepubliczne Przedszkole Z Oddzia\u0142ami Integracyjnymi I Specjalnymi","addr:country":"PL","addr:postcode":"66-470","addr:city":"Kostrzyn nad Odr\u0105","addr:street":"ul. \u017beglarska","addr:housenumber":"30","addr:teryt:simc":26420,"addr:teryt:sym_ul":935452,"contact:phone":"+48 783905212","contact:email":"joanna.wozniak83@vp.pl","ref:regon":"366329630","ref:vatin":"PL4290008703","operator":"Joanna Jaworska","operator:type":"private","amenity":"kindergarten"}},{"id":266142,"type":"Feature","geometry":{"type":"Point","coordinates":[14.6568689,52.5878827]},"properties":{"ref:rspo":266142,"official_name":"Przedszkole Niepubliczne \"Stonoga\"","name":"Przedszkole Niepubliczne \"Stonoga\"","addr:country":"PL","addr:postcode":"66-470","addr:city":"Kostrzyn nad Odr\u0105","addr:street":"ul. Wodna","addr:housenumber":"3D","addr:teryt:simc":24550,"addr:teryt:sym_ul":935452,"contact:email":"kontakt@przedszkole-stonoga.pl","contact:website":"http:\/\/www.przedszkole-stonoga.pl","ref:regon":"369303619","operator":"Barbara Derewlana","operator:type":"private","amenity":"kindergarten"}},{"id":79151,"type":"Feature","geometry":{"type":"Point","coordinates":[14.65426,52.5885]},"properties":{"isced:level":"4","ref:rspo":79151,"official_name":"Szko\u0142a Policealna dla Doros\u0142ych w Kostrzynie Nad Odr\u0105","name":"Szko\u0142a Policealna dla Doros\u0142ych w Kostrzynie Nad Odr\u0105","addr:country":"PL","addr:postcode":"66-470","addr:city":"Kostrzyn nad Odr\u0105","addr:street":"ul. Miko\u0142aja Kopernika","addr:housenumber":"4a","addr:teryt:simc":9282,"addr:teryt:sym_ul":935452,"contact:phone":"+48 957279668","contact:email":"okz.kostrzyn@onet.pl","contact:website":"http:\/\/www.zdz.gorzow.pl","ref:regon":"081087883","operator":"Wojew\u00f3dzki Zak\u0142ad Doskonalenia Zawodowego W Gorzowie Wlkp.","operator:type":"ngo","amenity":"college"}},{"id":275424,"type":"Feature","geometry":{"type":"Point","coordinates":[14.65426,52.58847]},"properties":{"isced:level":"3","ref:rspo":275424,"official_name":"Liceum Og\u00f3lnokszat\u0142c\u0105ce dla Doros\u0142ych Wzdz w Kostrzynie Nad Odr\u0105","name":"Liceum Og\u00f3lnokszat\u0142c\u0105ce dla Doros\u0142ych Wzdz w Kostrzynie Nad Odr\u0105","addr:country":"PL","addr:postcode":"66-470","addr:city":"Kostrzyn nad Odr\u0105","addr:street":"ul. Miko\u0142aja Kopernika","addr:housenumber":"4A","addr:teryt:simc":9282,"addr:teryt:sym_ul":935452,"contact:phone":"+48 957279668","contact:email":"okz.kostrzyn@onet.pl","contact:website":"http:\/\/www.zdz.gorzow.pl","ref:regon":"386916406","operator":"Wojew\u00f3dzki Zak\u0142ad Doskonalenia Zawodowego W Gorzowie Wlkp.","operator:type":"ngo","amenity":"school"}},{"id":48917,"type":"Feature","geometry":{"type":"Point","coordinates":[14.65568,52.58988]},"properties":{"ref:rspo":48917,"official_name":"Przedszkole Miejskie Nr 4 \"Bajka\"","name":"Przedszkole Miejskie Nr 4 \"Bajka\"","addr:country":"PL","addr:postcode":"66-470","addr:city":"Kostrzyn nad Odr\u0105","addr:street":"ul. Osiedlowa","addr:housenumber":"8","addr:teryt:simc":15300,"addr:teryt:sym_ul":935452,"contact:phone":"+48 957523327","contact:email":"p4bajka@op.pl","ref:regon":"080484754","ref:vatin":"PL5993138917","operator":"Miasto Kostrzyn Nad Odr\u0105","operator:type":"government","amenity":"kindergarten"}},{"id":133967,"type":"Feature","geometry":{"type":"Point","coordinates":[14.67213,52.58997]},"properties":{"ref:rspo":133967,"official_name":"Niepubliczny Punkt Przedszkolny \"Cztery Pory Roku\"","name":"Niepubliczny Punkt Przedszkolny \"Cztery Pory Roku\"","addr:country":"PL","addr:postcode":"66-470","addr:city":"Kostrzyn nad Odr\u0105","addr:street":"ul. Klonowa","addr:housenumber":"24","addr:teryt:simc":8574,"addr:teryt:sym_ul":935452,"contact:phone":"+48 957523042","contact:email":"d.strychalska@gmail.com","ref:regon":"367753778","ref:vatin":"PL5981054451","operator":"Dorota Strychalska","operator:type":"private","amenity":"kindergarten"}},{"id":48914,"type":"Feature","geometry":{"type":"Point","coordinates":[14.65336,52.59046]},"properties":{"ref:rspo":48914,"official_name":"Przedszkole Miejskie Nr 1 Pod Topol\u0105","name":"Przedszkole Miejskie Nr 1 Pod Topol\u0105","addr:country":"PL","addr:postcode":"66-470","addr:city":"Kostrzyn nad Odr\u0105","addr:street":"ul. Osiedlowa","addr:housenumber":"4","addr:teryt:simc":15300,"addr:teryt:sym_ul":935452,"contact:phone":"+48 957523476","contact:email":"pm1@onet.pl","contact:website":"http:\/\/www.pm1kostrzyn.dlaprzedszkoli.eu\/","ref:regon":"080484748","ref:vatin":"PL5993138923","operator":"Miasto Kostrzyn Nad Odr\u0105","operator:type":"government","amenity":"kindergarten"}},{"id":48919,"type":"Feature","geometry":{"type":"Point","coordinates":[14.66239,52.59058]},"properties":{"isced:level":"1;2","ref:rspo":48919,"official_name":"Szko\u0142a Podstawowa Nr 4 im. Konstytucji 3 Maja w Kostrzynie Nad Odr\u0105","name":"Szko\u0142a Podstawowa Nr 4","addr:country":"PL","addr:postcode":"66-470","addr:city":"Kostrzyn nad Odr\u0105","addr:street":"ul. Henryka Sienkiewicza","addr:housenumber":"6","addr:teryt:simc":19834,"addr:teryt:sym_ul":935452,"contact:phone":"+48 957523021","contact:email":"sp4kostrzyn@gmail.com","contact:website":"http:\/\/www.sp4kostrzyn.edupage.org","ref:regon":"210310169","ref:vatin":"PL5981050074","operator":"Miasto Kostrzyn Nad Odr\u0105","operator:type":"government","amenity":"school"}},{"id":262302,"type":"Feature","geometry":{"type":"Point","coordinates":[14.65958,52.5908299]},"properties":{"isced:level":"1;2","ref:rspo":262302,"official_name":"Szko\u0142a Podstawowa Nr 3 im. Integracji Europejskiej","name":"Szko\u0142a Podstawowa Nr 3","addr:country":"PL","addr:postcode":"66-470","addr:city":"Kostrzyn nad Odr\u0105","addr:street":"ul. Miko\u0142aja Reja","addr:housenumber":"32A","addr:teryt:simc":18565,"addr:teryt:sym_ul":935452,"contact:phone":"+48 957523739","contact:email":"kadrygim2@op.pl","contact:website":"http:\/\/www.sp3kostrzyn.pl","ref:regon":"367993206","operator":"Miasto Kostrzyn Nad Odr\u0105","operator:type":"government","amenity":"school"}},{"id":262305,"type":"Feature","geometry":{"type":"Point","coordinates":[14.65457,52.59163]},"properties":{"isced:level":"1;2","ref:rspo":262305,"official_name":"Szko\u0142a Podstawowa Nr 1 im. Przyjaci\u00f3\u0142 Kostrzyna Nad Odr\u0105","name":"Szko\u0142a Podstawowa Nr 1","addr:country":"PL","addr:postcode":"66-470","addr:city":"Kostrzyn nad Odr\u0105","addr:street":"ul. Tadeusza Ko\u015bciuszki","addr:housenumber":"7","addr:teryt:simc":9582,"addr:teryt:sym_ul":935452,"contact:phone":"+48 957289813","contact:email":"gim1kostrzyn@op.pl","contact:website":"http:\/\/www.sp1kostrzyn.pl\/","ref:regon":"367993353","ref:vatin":"PL5993207185","operator":"Miasto Kostrzyn Nad Odr\u0105","operator:type":"government","amenity":"school"}},{"id":48916,"type":"Feature","geometry":{"type":"Point","coordinates":[14.64068,52.5917]},"properties":{"ref:rspo":48916,"official_name":"Przedszkole Miesjkie Nr 3 \"Ekoludki\"","name":"Przedszkole Miesjkie Nr 3 \"Ekoludki\"","addr:country":"PL","addr:postcode":"66-470","addr:city":"Kostrzyn nad Odr\u0105","addr:street":"ul. Niepodleg\u0142o\u015bci","addr:housenumber":"19","addr:teryt:simc":14203,"addr:teryt:sym_ul":935452,"contact:phone":"+48 957522184","contact:email":"pm3kostrzyn@wp.pl","contact:website":"http:\/\/www.pm3kostrzyn.pl","ref:regon":"080485080","ref:vatin":"PL5993138662","operator":"Miasto Kostrzyn Nad Odr\u0105","operator:type":"government","amenity":"kindergarten"}},{"id":127344,"type":"Feature","geometry":{"type":"Point","coordinates":[14.6297,52.5944]},"properties":{"ref:rspo":127344,"official_name":"Niepubliczna Poradnia Psychologiczno-Pedagogiczna Cbpip Dr Joanna Wichli\u0144ska-Pakirska w Kostrzynie Nad Odr\u0105","name":"Niepubliczna Poradnia Psychologiczno-Pedagogiczna Cbpip Dr Joanna Wichli\u0144ska-Pakirska w Kostrzynie Nad Odr\u0105","addr:country":"PL","addr:postcode":"66-470","addr:city":"Kostrzyn nad Odr\u0105","addr:street":"ul. Fabryczna","addr:housenumber":"1","addr:teryt:simc":4863,"addr:teryt:sym_ul":935452,"contact:phone":"+48 513858882","contact:email":"cbpipkostrzyn@gmail.com","ref:regon":"361393149","operator":"Joanna Wichli\u0144ska-Pakirska","operator:type":"private","healthcare":"councelling","counselling_type":"education","fixme":"w zale\u017cno\u015bci od przedmiotu dzia\u0142alno\u015bci (np. healthcare=councelling + counselling_type=education albo healthcare=psychotherapist)"}},{"id":48918,"type":"Feature","geometry":{"type":"Point","coordinates":[14.64169,52.59668]},"properties":{"isced:level":"1;2","ref:rspo":48918,"official_name":"Szko\u0142a Podstawowa Nr 2 im. Przyjaci\u00f3\u0142 Ziemi","name":"Szko\u0142a Podstawowa Nr 2","addr:country":"PL","addr:postcode":"66-470","addr:city":"Kostrzyn nad Odr\u0105","addr:street":"ul. Ludwika Banaszaka","addr:housenumber":"1","addr:teryt:simc":672,"addr:teryt:sym_ul":935452,"contact:phone":"+48 957523385","contact:email":"poczta@sp2.kostrzyn.pl","contact:website":"http:\/\/www.sp2kostrzyn.home.pl","ref:regon":"210310130","ref:vatin":"PL5981052601","operator":"Miasto Kostrzyn Nad Odr\u0105","operator:type":"government","amenity":"school"}},{"id":73774,"type":"Feature","geometry":{"type":"Point","coordinates":[14.64169,52.59665]},"properties":{"ref:rspo":73774,"official_name":"Niepubliczna Plac\u00f3wka O\u015bwiatowa Bhp Edukacja w Kostrzynie Nad Odr\u0105","name":"Niepubliczna Plac\u00f3wka O\u015bwiatowa Bhp Edukacja w Kostrzynie Nad Odr\u0105","addr:country":"PL","addr:postcode":"66-470","addr:city":"Kostrzyn nad Odr\u0105","addr:street":"ul. Ludwika Banaszaka","addr:housenumber":"1","addr:teryt:simc":672,"addr:teryt:sym_ul":935452,"contact:phone":"+48 668949620","contact:email":"bhpe@interia.pl","contact:website":"http:\/\/www.bhpe.eu","ref:regon":"081085192","operator":"Ryszard Urba\u0144ski","operator:type":"private","fixme":"w zale\u017cno\u015bci od przedmiotu dzia\u0142alno\u015bci (np. amenity=training + training=*, amenity=dancing_school, amenity=language_school, amenity=music_school)"}},{"id":27228,"type":"Feature","geometry":{"type":"Point","coordinates":[14.64601,52.59859]},"properties":{"ref:rspo":27228,"official_name":"Przedszkole Niepubliczne Nr 1 \"Mali Europejczycy\"","name":"Przedszkole Niepubliczne Nr 1 \"Mali Europejczycy\"","addr:country":"PL","addr:postcode":"66-470","addr:city":"Kostrzyn nad Odr\u0105","addr:street":"ul. Ja\u015bminowa","addr:housenumber":"3","addr:teryt:simc":7380,"addr:teryt:sym_ul":935452,"contact:phone":"+48 660860332","contact:email":"j.bojanowska@op.pl","contact:website":"http:\/\/wwww.przedszkole-kostrzyn.edu.pl","ref:regon":"081080214","ref:vatin":"PL8522212283","operator":"Joanna Bojanowska","operator:type":"private","amenity":"kindergarten"}},{"id":26937,"type":"Feature","geometry":{"type":"Point","coordinates":[14.6535504,52.6002124]},"properties":{"ref:rspo":26937,"official_name":"Poradnia Psychologiczno-Pedagogiczna w Kostrzynie Nad Odr\u0105","name":"Poradnia Psychologiczno-Pedagogiczna w Kostrzynie Nad Odr\u0105","addr:country":"PL","addr:postcode":"66-470","addr:city":"Kostrzyn nad Odr\u0105","addr:street":"os. Osiedle Le\u015bne","addr:housenumber":"5","addr:teryt:simc":15261,"addr:teryt:sym_ul":935452,"contact:phone":"+48 957522638","contact:email":"kontakt@pppkostrzyn.pl","contact:website":"http:\/\/ppp2.powiatgorzowski.pl","ref:regon":"210203404","ref:vatin":"PL5981309052","operator":"Powiat Gorzowski","operator:type":"government","healthcare":"councelling","counselling_type":"education","fixme":"w zale\u017cno\u015bci od przedmiotu dzia\u0142alno\u015bci (np. healthcare=councelling + counselling_type=education albo healthcare=psychotherapist)"}},{"id":48915,"type":"Feature","geometry":{"type":"Point","coordinates":[14.63828,52.6009699]},"properties":{"ref:rspo":48915,"official_name":"Przedszkole Miesjkie Nr 2 im. Kostrzy\u0144skich Papiernik\u00f3w","name":"Przedszkole Miesjkie Nr 2","addr:country":"PL","addr:postcode":"66-470","addr:city":"Kostrzyn nad Odr\u0105","addr:street":"ul. Czere\u015bniowa","addr:housenumber":"1","addr:teryt:simc":3376,"addr:teryt:sym_ul":935452,"contact:phone":"+48 957522648","contact:email":"pm2kostrzyn@interia.pl","contact:website":"http:\/\/www.pm2kostrzyn.dlaprzedszkoli.eu","ref:regon":"080485759","ref:vatin":"PL5993138656","operator":"Miasto Kostrzyn Nad Odr\u0105","operator:type":"government","amenity":"kindergarten"}},{"id":13129,"type":"Feature","geometry":{"type":"Point","coordinates":[15.120797157288,52.731113433838]},"properties":{"ref:rspo":13129,"official_name":"Zesp\u00f3\u0142 Szk\u00f3\u0142 im. M. Sk\u0142odowskiej-Curie w Kostrzynie Nad Odr\u0105","name":"Zesp\u00f3\u0142 Szk\u00f3\u0142","addr:country":"PL","addr:postcode":"66-470","addr:city":"Kostrzyn nad Odr\u0105","addr:street":"ul. Komisji Edukacji Narodowej","addr:housenumber":"2","addr:teryt:simc":9066,"addr:teryt:sym_ul":935452,"contact:phone":"+48 957277700","contact:email":"administrator@liceum-kostrzyn.com","contact:website":"http:\/\/www.liceum-kostrzyn.com","ref:regon":"211058602","ref:vatin":"PL5981045848","operator":"Powiat Gorzowski","operator:type":"government","landuse":"education","fixme":"amenity=school, amenity=college albo landuse=education w zale\u017cno\u015bci od tego, jakie plac\u00f3wki wchodz\u0105 w sk\u0142ad zespo\u0142u. Sprawd\u017a, kiedy stosowa\u0107 amenity=* a kiedy landuse=education.","note":"Children RSPO: 27955;46561;54425;54426"}},{"id":27955,"type":"Feature","geometry":{"type":"Point","coordinates":[15.120797157288,52.731083433837995]},"properties":{"isced:level":"3","ref:rspo":27955,"official_name":"Liceum Og\u00f3lnokszta\u0142c\u0105ce dla Doros\u0142ych","name":"Liceum Og\u00f3lnokszta\u0142c\u0105ce dla Doros\u0142ych","addr:country":"PL","addr:postcode":"66-470","addr:city":"Kostrzyn nad Odr\u0105","addr:street":"ul. Komisji Edukacji Narodowej","addr:housenumber":"2","addr:teryt:simc":9066,"addr:teryt:sym_ul":935452,"contact:phone":"+48 957277700","contact:email":"administrator@liceum-kostrzyn.com","contact:website":"http:\/\/www.liceum-kostrzyn.com","ref:regon":"081080272","operator":"Powiat Gorzowski","operator:type":"government","amenity":"school","note":"Parent RSPO: 13129"}},{"id":46561,"type":"Feature","geometry":{"type":"Point","coordinates":[15.120797157288,52.731053433838]},"properties":{"isced:level":"3","ref:rspo":46561,"official_name":"Bran\u017cowa Szko\u0142a I Stopnia w Kostrzynie Nad Odr\u0105","name":"Bran\u017cowa Szko\u0142a I Stopnia w Kostrzynie Nad Odr\u0105","addr:country":"PL","addr:postcode":"66-470","addr:city":"Kostrzyn nad Odr\u0105","addr:street":"ul. Komisji Edukacji Narodowej","addr:housenumber":"2","addr:teryt:simc":9066,"addr:teryt:sym_ul":935452,"contact:phone":"+48 957277700","contact:email":"administrator@liceum-kostrzyn.com","contact:website":"http:\/\/www.liceum-kostrzyn.com","ref:regon":"211059174","operator":"Powiat Gorzowski","operator:type":"government","amenity":"school","note":"Parent RSPO: 13129"}},{"id":54425,"type":"Feature","geometry":{"type":"Point","coordinates":[15.120797157288,52.731023433838]},"properties":{"isced:level":"3","ref:rspo":54425,"official_name":"Liceum Og\u00f3lnokszta\u0142c\u0105ce w Kostrzynie Nad Odr\u0105","name":"Liceum Og\u00f3lnokszta\u0142c\u0105ce w Kostrzynie Nad Odr\u0105","addr:country":"PL","addr:postcode":"66-470","addr:city":"Kostrzyn nad Odr\u0105","addr:street":"ul. Komisji Edukacji Narodowej","addr:housenumber":"2","addr:teryt:simc":9066,"addr:teryt:sym_ul":935452,"contact:phone":"+48 957277700","contact:email":"administrator@liceum-kostrzyn.com","contact:website":"http:\/\/www.liceum-kostrzyn.com","ref:regon":"211059139","operator":"Powiat Gorzowski","operator:type":"government","amenity":"school","note":"Parent RSPO: 13129"}},{"id":54426,"type":"Feature","geometry":{"type":"Point","coordinates":[15.120797157288,52.730993433837995]},"properties":{"isced:level":"3","ref:rspo":54426,"official_name":"Technikum w Kostrzynie Nad Odr\u0105","name":"Technikum w Kostrzynie Nad Odr\u0105","addr:country":"PL","addr:postcode":"66-470","addr:city":"Kostrzyn nad Odr\u0105","addr:street":"ul. Komisji Edukacji Narodowej","addr:housenumber":"2","addr:teryt:simc":9066,"addr:teryt:sym_ul":935452,"contact:phone":"+48 957277700","contact:email":"administrator@liceum-kostrzyn.com","contact:website":"http:\/\/www.liceum-kostrzyn.com","ref:regon":"211059145","operator":"Powiat Gorzowski","operator:type":"government","amenity":"school","note":"Parent RSPO: 13129"}}]}