{
    "type": "FeatureCollection",
    "features": [
        {
            "id": 9102,
            "type": "Feature",
            "geometry": {
                "type": "Point",
                "coordinates": [
                    15.02678,
                    52.74265
                ]
            },
            "properties": {
                "isced:level": "1;2",
                "ref:rspo": 9102,
                "official_name": "Szko\u0142a Podstawowa w Lubnie im. Kombatant\u00f3w II Wojny \u015awiatowej",
                "name": "Szko\u0142a Podstawowa w Lubnie",
                "addr:postcode": "66-450",
                "addr:city": "Lubno",
                "addr:street": "Plac Wyzwolenia",
                "addr:housenumber": "8",
                "addr:teryt:simc": 182679,
                "addr:teryt:sym_ul": 34510,
                "phone": "+48 957314709",
                "email": "sppromyk@wp.pl",
                "website": "http:\/\/sppromyk.edupage.org",
                "ref:regon": "081069336",
                "operator": "Stowarzyszenie Przyjaci\u00f3\u0142 Szko\u0142y Podstawowej W Lubnie \"Promyk\"",
                "operator:type": "ngo",
                "amenity": "school"
            }
        },
        {
            "id": 9193,
            "type": "Feature",
            "geometry": {
                "type": "Point",
                "coordinates": [
                    15.02678,
                    52.742619999999995
                ]
            },
            "properties": {
                "ref:rspo": 9193,
                "official_name": "Niepubliczne Przedszkole w Lubnie",
                "name": "Niepubliczne Przedszkole w Lubnie",
                "addr:postcode": "66-450",
                "addr:city": "Lubno",
                "addr:street": "Plac Wyzwolenia",
                "addr:housenumber": "8",
                "addr:teryt:simc": 182679,
                "addr:teryt:sym_ul": 34510,
                "phone": "+48 957314709",
                "email": "sppromyk@wp.pl",
                "website": "http:\/\/sppromyk.edupage.org",
                "ref:regon": "081069320",
                "operator": "Stowarzyszenie Przyjaci\u00f3\u0142 Szko\u0142y Podstawowej W Lubnie \"Promyk\"",
                "operator:type": "ngo",
                "amenity": "kindergarten"
            }
        },
        {
            "id": 22200,
            "type": "Feature",
            "geometry": {
                "type": "Point",
                "coordinates": [
                    15.1144,
                    52.75699
                ]
            },
            "properties": {
                "isced:level": "1;2",
                "ref:rspo": 22200,
                "official_name": "Szko\u0142a Podstawowa im. Polskich Olimpijczyk\u00f3w w Baczynie",
                "name": "Szko\u0142a Podstawowa",
                "addr:postcode": "66-432",
                "addr:city": "Baczyna",
                "addr:street": "Szkolna",
                "addr:housenumber": "1",
                "addr:teryt:simc": 182567,
                "addr:teryt:sym_ul": 21970,
                "phone": "+48 957314220",
                "email": "szkolabaczyna@op.pl",
                "website": "http:\/\/szkolabaczyna.edupage.org",
                "ref:regon": "210039614",
                "ref:vatin": "PL5991133459",
                "operator": "Gmina Lubiszyn",
                "operator:type": "government",
                "amenity": "school"
            }
        },
        {
            "id": 7569,
            "type": "Feature",
            "geometry": {
                "type": "Point",
                "coordinates": [
                    14.94817,
                    52.7776
                ]
            },
            "properties": {
                "isced:level": "1;2",
                "ref:rspo": 7569,
                "official_name": "Szko\u0142a Podstawowa im. Jana Paw\u0142a II w Lubiszynie",
                "name": "Szko\u0142a Podstawowa",
                "addr:postcode": "66-433",
                "addr:city": "Lubiszyn",
                "addr:street": "Polna",
                "addr:housenumber": "6",
                "addr:teryt:simc": 182662,
                "addr:teryt:sym_ul": 17011,
                "phone": "+48 519513150",
                "email": "szkpodstlubiszyn@interia.pl",
                "website": "http:\/\/www.sp.lubiszyn.pl",
                "ref:regon": "210039620",
                "ref:vatin": "PL5991170236",
                "operator": "Gmina Lubiszyn",
                "operator:type": "government",
                "amenity": "school"
            }
        },
        {
            "id": 132634,
            "type": "Feature",
            "geometry": {
                "type": "Point",
                "coordinates": [
                    14.94817,
                    52.77757
                ]
            },
            "properties": {
                "ref:rspo": 132634,
                "official_name": "O\u015brodek Szkoleniowy Klubu Strzelecko Kolekcjonerskiego Pretor Sp. Z O.o.",
                "name": "O\u015brodek Szkoleniowy Klubu Strzelecko Kolekcjonerskiego Pretor Sp. Z O.o.",
                "addr:postcode": "66-433",
                "addr:city": "Lubiszyn",
                "addr:street": "Polna",
                "addr:housenumber": "6",
                "addr:teryt:simc": 182662,
                "addr:teryt:sym_ul": 17011,
                "email": "info@kskpretor.pl",
                "ref:regon": "365952999",
                "operator": "Klub Strzelecko Kolekcjonerski Pretor Sp\u00f3\u0142ka Z Ograniczon\u0105 Odpowiedzialno\u015bci\u0105",
                "operator:type": "consortium",
                "fixme": "w zale\u017cno\u015bci od przedmiotu dzia\u0142alno\u015bci (np. amenity=training + training=*, amenity=dancing_school, amenity=language_school, amenity=music_school)"
            }
        },
        {
            "id": 8888,
            "type": "Feature",
            "geometry": {
                "type": "Point",
                "coordinates": [
                    14.94172,
                    52.78249
                ]
            },
            "properties": {
                "ref:rspo": 8888,
                "official_name": "Przedszkole w Lubiszynie",
                "name": "Przedszkole w Lubiszynie",
                "addr:postcode": "66-433",
                "addr:city": "Lubiszyn",
                "addr:street": "My\u015bliborska",
                "addr:housenumber": "18",
                "addr:teryt:simc": 182662,
                "addr:teryt:sym_ul": 13554,
                "phone": "+48 957277143",
                "email": "pgminlub@vp.pl",
                "website": "http:\/\/www.przedszkole.lubiszyn.pl",
                "ref:regon": "080315260",
                "ref:vatin": "PL5993078084",
                "operator": "Gmina Lubiszyn",
                "operator:type": "government",
                "amenity": "kindergarten"
            }
        },
        {
            "id": 22212,
            "type": "Feature",
            "geometry": {
                "type": "Point",
                "coordinates": [
                    14.990233,
                    52.8128539
                ]
            },
            "properties": {
                "isced:level": "1;2",
                "ref:rspo": 22212,
                "official_name": "Szko\u0142a Podstawowa im. Tadeusza Ko\u015bciuszki w \u015aciechowie",
                "name": "Szko\u0142a Podstawowa",
                "addr:postcode": "66-433",
                "addr:place": "\u015aciech\u00f3w",
                "addr:housenumber": "84",
                "addr:teryt:simc": 182797,
                "phone": "+48 957319798",
                "email": "sekretariat@gimsciechow.internetdsl.pl",
                "website": "http:\/\/www.gimsciechow.internetdsl.pl",
                "ref:regon": "210039548",
                "ref:vatin": "PL5992849711",
                "operator": "Gmina Lubiszyn",
                "operator:type": "government",
                "amenity": "school"
            }
        },
        {
            "id": 7540,
            "type": "Feature",
            "geometry": {
                "type": "Point",
                "coordinates": [
                    14.924419,
                    52.868179
                ]
            },
            "properties": {
                "isced:level": "1;2",
                "ref:rspo": 7540,
                "official_name": "Szko\u0142a Podstawowa w Stawie",
                "name": "Szko\u0142a Podstawowa w Stawie",
                "addr:postcode": "66-433",
                "addr:place": "Staw",
                "addr:housenumber": "2",
                "addr:teryt:simc": 182768,
                "phone": "+48 957319020",
                "email": "spstaw@gmail.com",
                "website": "http:\/\/www.spstaw.szkolnastrona.pl",
                "ref:regon": "210039531",
                "ref:vatin": "PL5992851375",
                "operator": "Gmina Lubiszyn",
                "operator:type": "government",
                "amenity": "school"
            }
        }
    ]
}