{
    "type": "FeatureCollection",
    "features": [
        {
            "id": 71308,
            "type": "Feature",
            "geometry": {
                "type": "Point",
                "coordinates": [
                    15.2519659,
                    52.6424719
                ]
            },
            "properties": {
                "isced:level": "1;2",
                "ref:rspo": 71308,
                "official_name": "Szko\u0142a Podstawowa im. Janusza Korczaka w Boleminie",
                "name": "Szko\u0142a Podstawowa",
                "addr:country": "PL",
                "addr:postcode": "66-446",
                "addr:place": "Bolemin",
                "addr:housenumber": "102",
                "addr:teryt:sym_ul": 179482,
                "contact:phone": "+48 957287668",
                "contact:email": "spbolemin@deszczno.pl",
                "contact:website": "http:\/\/spbolemin.com.pl",
                "ref:regon": "210306529",
                "ref:vatin": "PL5993106024",
                "operator": "Gmina Deszczno",
                "operator:type": "government",
                "amenity": "school"
            }
        },
        {
            "id": 30543,
            "type": "Feature",
            "geometry": {
                "type": "Point",
                "coordinates": [
                    15.30493,
                    52.65799
                ]
            },
            "properties": {
                "ref:rspo": 30543,
                "official_name": "Przedszkole w Maszewie",
                "name": "Przedszkole w Maszewie",
                "addr:country": "PL",
                "addr:postcode": "66-446",
                "addr:city": "Maszewo",
                "addr:street": "Kr\u0119ta",
                "addr:housenumber": "1A",
                "addr:teryt:simc": 9925,
                "addr:teryt:sym_ul": 179625,
                "contact:phone": "+48 570322782",
                "contact:email": "dyrektor.przedszkole@deszczno.pl",
                "ref:regon": "080482732",
                "ref:vatin": "PL5993136396",
                "operator": "Gmina Deszczno",
                "operator:type": "government",
                "amenity": "kindergarten"
            }
        },
        {
            "id": 92221,
            "type": "Feature",
            "geometry": {
                "type": "Point",
                "coordinates": [
                    15.3062,
                    52.6751
                ]
            },
            "properties": {
                "isced:level": "1;2",
                "ref:rspo": 92221,
                "official_name": "Szko\u0142a Podstawowa im. Noblist\u00f3w Polskich w Deszcznie",
                "name": "Szko\u0142a Podstawowa",
                "addr:country": "PL",
                "addr:postcode": "66-446",
                "addr:city": "Deszczno",
                "addr:street": "Lubuska",
                "addr:housenumber": "61",
                "addr:teryt:simc": 11365,
                "addr:teryt:sym_ul": 179520,
                "contact:phone": "+48 957287666",
                "contact:email": "szkola@spdeszczno.pl",
                "contact:website": "http:\/\/www.spdeszczno.pl",
                "ref:regon": "210306498",
                "ref:vatin": "PL5993107153",
                "operator": "Gmina Deszczno",
                "operator:type": "government",
                "amenity": "school"
            }
        },
        {
            "id": 277879,
            "type": "Feature",
            "geometry": {
                "type": "Point",
                "coordinates": [
                    15.22312,
                    52.68283
                ]
            },
            "properties": {
                "ref:rspo": 277879,
                "official_name": "Przedszkole w Ulimiu",
                "name": "Przedszkole w Ulimiu",
                "addr:country": "PL",
                "addr:postcode": "66-446",
                "addr:city": "Ulim",
                "addr:street": "G\u0142\u00f3wna",
                "addr:housenumber": "1A",
                "addr:teryt:simc": 5635,
                "addr:teryt:sym_ul": 179683,
                "contact:email": "przedszkole.ulim@deszczno.pl",
                "contact:website": "http:\/\/www.przedszkoleulim.szkolnastrona.pl",
                "ref:regon": "389617070",
                "ref:vatin": "PL5993258739",
                "operator": "Gmina Deszczno",
                "operator:type": "government",
                "amenity": "kindergarten"
            }
        },
        {
            "id": 30542,
            "type": "Feature",
            "geometry": {
                "type": "Point",
                "coordinates": [
                    15.35608,
                    52.70356
                ]
            },
            "properties": {
                "isced:level": "1;2",
                "ref:rspo": 30542,
                "official_name": "Szko\u0142a Podstawowa w Ciecierzycach",
                "name": "Szko\u0142a Podstawowa w Ciecierzycach",
                "addr:country": "PL",
                "addr:postcode": "66-446",
                "addr:city": "Ciecierzyce",
                "addr:street": "Borkowska",
                "addr:housenumber": "2",
                "addr:teryt:simc": 1835,
                "addr:teryt:sym_ul": 179513,
                "contact:phone": "+48 957287669",
                "contact:email": "spciecierzyce@deszczno.pl",
                "ref:regon": "210306558",
                "ref:vatin": "PL5993107383",
                "operator": "Gmina Deszczno",
                "operator:type": "government",
                "amenity": "school"
            }
        },
        {
            "id": 71307,
            "type": "Feature",
            "geometry": {
                "type": "Point",
                "coordinates": [
                    15.23747,
                    52.76395
                ]
            },
            "properties": {
                "isced:level": "1;2",
                "ref:rspo": 71307,
                "official_name": "Szko\u0142a Podstawowa w Ulimiu",
                "name": "Szko\u0142a Podstawowa w Ulimiu",
                "addr:country": "PL",
                "addr:postcode": "66-446",
                "addr:city": "Ulim",
                "addr:street": "Rubinowa",
                "addr:housenumber": "5",
                "addr:teryt:simc": 19033,
                "addr:teryt:sym_ul": 179683,
                "contact:phone": "+48 957287667",
                "contact:email": "spulim@deszczno.pl",
                "contact:website": "http:\/\/www.spulim.pl",
                "ref:regon": "210306506",
                "ref:vatin": "PL5993106030",
                "operator": "Gmina Deszczno",
                "operator:type": "government",
                "amenity": "school"
            }
        }
    ]
}