{
    "type": "FeatureCollection",
    "features": [
        {
            "id": 61881,
            "type": "Feature",
            "geometry": {
                "type": "Point",
                "coordinates": [
                    19.15446,
                    50.10589
                ]
            },
            "properties": {
                "isced:level": "1;2",
                "ref:rspo": 61881,
                "official_name": "Szko\u0142a Podstawowa Nr 4 im. \u015aw. Barbary w L\u0119dzinach",
                "name": "Szko\u0142a Podstawowa Nr 4",
                "addr:country": "PL",
                "addr:postcode": "43-144",
                "addr:city": "L\u0119dziny",
                "addr:street": "Go\u0142awiecka",
                "addr:housenumber": "36",
                "addr:teryt:simc": 5754,
                "addr:teryt:sym_ul": 940890,
                "contact:phone": "+48 322167435",
                "contact:email": "sp4lego@poczta.onet.pl",
                "contact:website": "http:\/\/www.zsgolawiec.edupage.org",
                "ref:regon": "000725944",
                "ref:vatin": "PL6462741403",
                "operator": "Miasto L\u0119dziny",
                "operator:type": "government",
                "amenity": "school"
            }
        },
        {
            "id": 75533,
            "type": "Feature",
            "geometry": {
                "type": "Point",
                "coordinates": [
                    19.12408,
                    50.12244
                ]
            },
            "properties": {
                "ref:rspo": 75533,
                "official_name": "Powiatowy Zesp\u00f3\u0142 Szk\u00f3\u0142 w L\u0119dzinach",
                "name": "Powiatowy Zesp\u00f3\u0142 Szk\u00f3\u0142 w L\u0119dzinach",
                "addr:country": "PL",
                "addr:postcode": "43-140",
                "addr:city": "L\u0119dziny",
                "addr:street": "Pokoju",
                "addr:housenumber": "4",
                "addr:teryt:simc": 16942,
                "addr:teryt:sym_ul": 940890,
                "contact:phone": "+48 322167322",
                "contact:email": "sekretariat_pzs@op.pl",
                "contact:website": "http:\/\/www.pzsledziny.org",
                "ref:regon": "272219928",
                "operator": "Powiat Bieru\u0144sko-L\u0119dzi\u0144ski",
                "operator:type": "government",
                "landuse": "education",
                "fixme": "amenity=school, amenity=college albo landuse=education w zale\u017cno\u015bci od tego, jakie plac\u00f3wki wchodz\u0105 w sk\u0142ad zespo\u0142u. Sprawd\u017a, kiedy stosowa\u0107 amenity=* a kiedy landuse=education.",
                "note": "Children RSPO: 86197;87064;87067;87069;124840"
            }
        },
        {
            "id": 86197,
            "type": "Feature",
            "geometry": {
                "type": "Point",
                "coordinates": [
                    19.12408,
                    50.122409999999995
                ]
            },
            "properties": {
                "isced:level": "3",
                "ref:rspo": 86197,
                "official_name": "Bran\u017cowa Szko\u0142a I Stopnia w L\u0119dzinach",
                "name": "Bran\u017cowa Szko\u0142a I Stopnia w L\u0119dzinach",
                "addr:country": "PL",
                "addr:postcode": "43-140",
                "addr:city": "L\u0119dziny",
                "addr:street": "Pokoju",
                "addr:housenumber": "4",
                "addr:teryt:simc": 16942,
                "addr:teryt:sym_ul": 940890,
                "contact:phone": "+48 322167322",
                "contact:email": "sekretariat_pzs@op.pl",
                "contact:website": "http:\/\/www.pzsledziny.org",
                "ref:regon": "271294112",
                "operator": "Powiat Bieru\u0144sko-L\u0119dzi\u0144ski",
                "operator:type": "government",
                "amenity": "school",
                "note": "Parent RSPO: 75533"
            }
        },
        {
            "id": 87064,
            "type": "Feature",
            "geometry": {
                "type": "Point",
                "coordinates": [
                    19.12408,
                    50.12238
                ]
            },
            "properties": {
                "isced:level": "3",
                "ref:rspo": 87064,
                "official_name": "Liceum Og\u00f3lnokszta\u0142c\u0105ce w L\u0119dzinach",
                "name": "Liceum Og\u00f3lnokszta\u0142c\u0105ce w L\u0119dzinach",
                "addr:country": "PL",
                "addr:postcode": "43-140",
                "addr:city": "L\u0119dziny",
                "addr:street": "Pokoju",
                "addr:housenumber": "4",
                "addr:teryt:simc": 16942,
                "addr:teryt:sym_ul": 940890,
                "contact:phone": "+48 322167322",
                "contact:email": "sekretariat_pzs@op.pl",
                "contact:website": "http:\/\/www.pzsledziny.org",
                "ref:regon": "276929822",
                "operator": "Powiat Bieru\u0144sko-L\u0119dzi\u0144ski",
                "operator:type": "government",
                "amenity": "school",
                "note": "Parent RSPO: 75533"
            }
        },
        {
            "id": 87067,
            "type": "Feature",
            "geometry": {
                "type": "Point",
                "coordinates": [
                    19.12408,
                    50.12235
                ]
            },
            "properties": {
                "isced:level": "3",
                "ref:rspo": 87067,
                "official_name": "Technikum im. Anielina Fabery w L\u0119dzinach",
                "name": "Technikum",
                "addr:country": "PL",
                "addr:postcode": "43-140",
                "addr:city": "L\u0119dziny",
                "addr:street": "Pokoju",
                "addr:housenumber": "4",
                "addr:teryt:simc": 16942,
                "addr:teryt:sym_ul": 940890,
                "contact:phone": "+48 322167322",
                "contact:email": "sekretariat_pzs@op.pl",
                "contact:website": "http:\/\/www.pzsledziny.org",
                "ref:regon": "277866213",
                "operator": "Powiat Bieru\u0144sko-L\u0119dzi\u0144ski",
                "operator:type": "government",
                "amenity": "school",
                "note": "Parent RSPO: 75533"
            }
        },
        {
            "id": 87069,
            "type": "Feature",
            "geometry": {
                "type": "Point",
                "coordinates": [
                    19.12408,
                    50.122319999999995
                ]
            },
            "properties": {
                "isced:level": "4",
                "ref:rspo": 87069,
                "official_name": "Szko\u0142a Policealna w L\u0119dzinach",
                "name": "Szko\u0142a Policealna w L\u0119dzinach",
                "addr:country": "PL",
                "addr:postcode": "43-140",
                "addr:city": "L\u0119dziny",
                "addr:street": "Pokoju",
                "addr:housenumber": "4",
                "addr:teryt:simc": 16942,
                "addr:teryt:sym_ul": 940890,
                "contact:phone": "+48 322167322",
                "contact:email": "sekretariat_pzs@op.pl",
                "contact:website": "http:\/\/www.pzsledziny.org",
                "ref:regon": "240159884",
                "operator": "Powiat Bieru\u0144sko-L\u0119dzi\u0144ski",
                "operator:type": "government",
                "amenity": "college",
                "note": "Parent RSPO: 75533"
            }
        },
        {
            "id": 124840,
            "type": "Feature",
            "geometry": {
                "type": "Point",
                "coordinates": [
                    19.12408,
                    50.12229
                ]
            },
            "properties": {
                "isced:level": "3",
                "ref:rspo": 124840,
                "official_name": "Liceum Og\u00f3lnokszta\u0142c\u0105ce dla Doros\u0142ych w L\u0119dzinach",
                "name": "Liceum Og\u00f3lnokszta\u0142c\u0105ce dla Doros\u0142ych w L\u0119dzinach",
                "addr:country": "PL",
                "addr:postcode": "43-140",
                "addr:city": "L\u0119dziny",
                "addr:street": "Pokoju",
                "addr:housenumber": "4",
                "addr:teryt:simc": 16942,
                "addr:teryt:sym_ul": 940890,
                "contact:phone": "+48 322167322",
                "contact:email": "sekretariat_pzs@op.pl",
                "contact:website": "http:\/\/pzsledziny.org",
                "ref:regon": "243664163",
                "operator": "Powiat Bieru\u0144sko-L\u0119dzi\u0144ski",
                "operator:type": "government",
                "amenity": "school",
                "note": "Parent RSPO: 75533"
            }
        },
        {
            "id": 272015,
            "type": "Feature",
            "geometry": {
                "type": "Point",
                "coordinates": [
                    19.11958,
                    50.12346
                ]
            },
            "properties": {
                "ref:rspo": 272015,
                "official_name": "Miejskie Przedszkole Nr 3 w L\u0119dzinach",
                "name": "Miejskie Przedszkole Nr 3 w L\u0119dzinach",
                "addr:country": "PL",
                "addr:postcode": "43-140",
                "addr:city": "L\u0119dziny",
                "addr:street": "Ignacego Paderewskiego",
                "addr:housenumber": "17",
                "addr:teryt:simc": 15524,
                "addr:teryt:sym_ul": 940890,
                "contact:phone": "+48 609577707",
                "contact:email": "sekretariat@mp3ledziny.pl",
                "contact:website": "http:\/\/www.mp3ledziny.pl",
                "ref:regon": "383875782",
                "ref:vatin": "PL6462978163",
                "operator": "Miasto L\u0119dziny",
                "operator:type": "government",
                "amenity": "kindergarten"
            }
        },
        {
            "id": 13237,
            "type": "Feature",
            "geometry": {
                "type": "Point",
                "coordinates": [
                    19.1126,
                    50.12753
                ]
            },
            "properties": {
                "isced:level": "1;2",
                "ref:rspo": 13237,
                "official_name": "Szko\u0142a Podstawowa Z Oddzia\u0142ami Integracyjnymi Nr 1 im. Karola Miarki",
                "name": "Szko\u0142a Podstawowa Z Oddzia\u0142ami Integracyjnymi Nr 1",
                "addr:country": "PL",
                "addr:postcode": "43-140",
                "addr:city": "L\u0119dziny",
                "addr:street": "Ignacego Paderewskiego",
                "addr:housenumber": "5",
                "addr:teryt:simc": 15524,
                "addr:teryt:sym_ul": 940890,
                "contact:phone": "+48 322167363",
                "contact:email": "spoi1@ledziny.pl",
                "contact:website": "http:\/\/sp1ledziny.edu.pl",
                "ref:regon": "000725878",
                "ref:vatin": "PL6462485851",
                "operator": "Miasto L\u0119dziny",
                "operator:type": "government",
                "amenity": "school"
            }
        },
        {
            "id": 62045,
            "type": "Feature",
            "geometry": {
                "type": "Point",
                "coordinates": [
                    19.12077,
                    50.13494
                ]
            },
            "properties": {
                "ref:rspo": 62045,
                "official_name": "Miejskie Przedszkole Z Oddzia\u0142ami Integracyjnymi Nr 1",
                "name": "Miejskie Przedszkole Z Oddzia\u0142ami Integracyjnymi Nr 1",
                "addr:country": "PL",
                "addr:postcode": "43-140",
                "addr:city": "L\u0119dziny",
                "addr:street": "Stadionowa",
                "addr:housenumber": "1",
                "addr:teryt:simc": 20793,
                "addr:teryt:sym_ul": 940890,
                "contact:phone": "+48 661539777",
                "contact:email": "sekretariat@mp1ledziny.pl",
                "contact:website": "http:\/\/mp1ledziny.edupage.org\/",
                "ref:regon": "277626584",
                "ref:vatin": "PL6462485897",
                "operator": "Miasto L\u0119dziny",
                "operator:type": "government",
                "amenity": "kindergarten"
            }
        },
        {
            "id": 83562,
            "type": "Feature",
            "geometry": {
                "type": "Point",
                "coordinates": [
                    19.12566,
                    50.141
                ]
            },
            "properties": {
                "ref:rspo": 83562,
                "official_name": "Centrum Bada\u0144 I Dozoru G\u00f3rnictwa Podziemnego Sp. Z O.o. O\u015brodek Kszta\u0142cenia I Doskonalenia Kadr",
                "name": "Centrum Bada\u0144 I Dozoru G\u00f3rnictwa Podziemnego Sp. Z O.o. O\u015brodek Kszta\u0142cenia I Doskonalenia Kadr",
                "addr:country": "PL",
                "addr:postcode": "43-143",
                "addr:city": "L\u0119dziny",
                "addr:street": "L\u0119dzi\u0144ska",
                "addr:housenumber": "8",
                "addr:teryt:simc": 11010,
                "addr:teryt:sym_ul": 940890,
                "contact:phone": "+48 323242261",
                "contact:email": "j.salwierak@cbidgp.pl",
                "ref:regon": "243093944",
                "operator": "Centrum Bada\u0144 I Dozoru G\u00f3rnictwa Podziemnego Sp\u00f3\u0142ka Z Ograniczon\u0105 Odpowiedzialno\u015bci\u0105",
                "operator:type": "private",
                "fixme": "w zale\u017cno\u015bci od przedmiotu dzia\u0142alno\u015bci (np. amenity=training + training=*, amenity=dancing_school, amenity=language_school, amenity=music_school)"
            }
        },
        {
            "id": 61522,
            "type": "Feature",
            "geometry": {
                "type": "Point",
                "coordinates": [
                    19.13213,
                    50.14284
                ]
            },
            "properties": {
                "ref:rspo": 61522,
                "official_name": "Miejskie Przedszkole Z Oddzia\u0142ami Integracyjnymi Nr 2",
                "name": "Miejskie Przedszkole Z Oddzia\u0142ami Integracyjnymi Nr 2",
                "addr:country": "PL",
                "addr:postcode": "43-143",
                "addr:city": "L\u0119dziny",
                "addr:street": "Ho\u0142dunowska",
                "addr:housenumber": "20",
                "addr:teryt:simc": 6706,
                "addr:teryt:sym_ul": 940890,
                "contact:phone": "+48 322166060",
                "contact:email": "mp2ledziny@onet.eu",
                "contact:website": "http:\/\/www.mp2ledziny.edupage.org",
                "ref:regon": "277626621",
                "ref:vatin": "PL6462485880",
                "operator": "Miasto L\u0119dziny",
                "operator:type": "government",
                "amenity": "kindergarten"
            }
        },
        {
            "id": 13238,
            "type": "Feature",
            "geometry": {
                "type": "Point",
                "coordinates": [
                    19.13128,
                    50.14327
                ]
            },
            "properties": {
                "isced:level": "1;2",
                "ref:rspo": 13238,
                "official_name": "Szko\u0142a Podstawowa Nr 3 im.jana Chrystiana Ruberga",
                "name": "Szko\u0142a Podstawowa Nr 3 im.jana Chrystiana Ruberga",
                "addr:country": "PL",
                "addr:postcode": "43-143",
                "addr:city": "L\u0119dziny",
                "addr:street": "Ho\u0142dunowska",
                "addr:housenumber": "13",
                "addr:teryt:simc": 6706,
                "addr:teryt:sym_ul": 940890,
                "contact:phone": "+48 322167524",
                "contact:email": "sp3ruberga@op.pl",
                "contact:website": "http:\/\/sp3ruberga.edu.pl\/",
                "ref:regon": "000725890",
                "ref:vatin": "PL6462485845",
                "operator": "Miasto L\u0119dziny",
                "operator:type": "government",
                "amenity": "school"
            }
        },
        {
            "id": 263250,
            "type": "Feature",
            "geometry": {
                "type": "Point",
                "coordinates": [
                    19.13524,
                    50.15064
                ]
            },
            "properties": {
                "isced:level": "1;2",
                "ref:rspo": 263250,
                "official_name": "Szko\u0142a Podstawowa Z Oddzia\u0142ami Integracyjnymi Nr 2 im. Gustawa Morcinka w L\u0119dzinach",
                "name": "Szko\u0142a Podstawowa Z Oddzia\u0142ami Integracyjnymi Nr 2",
                "addr:country": "PL",
                "addr:postcode": "43-143",
                "addr:city": "L\u0119dziny",
                "addr:street": "Ho\u0142dunowska",
                "addr:housenumber": "72",
                "addr:teryt:simc": 6706,
                "addr:teryt:sym_ul": 940890,
                "contact:phone": "+48 323267416",
                "contact:email": "sp2@ledziny.pl",
                "contact:website": "http:\/\/www.sp2ledziny.edupage.org",
                "ref:regon": "368176350",
                "ref:vatin": "PL6462959355",
                "operator": "Miasto L\u0119dziny",
                "operator:type": "government",
                "amenity": "school"
            }
        }
    ]
}