{
    "type": "FeatureCollection",
    "features": [
        {
            "id": 65212,
            "type": "Feature",
            "geometry": {
                "type": "Point",
                "coordinates": [
                    19.06575,
                    50.02411
                ]
            },
            "properties": {
                "isced:level": "1;2",
                "ref:rspo": 65212,
                "official_name": "Szko\u0142a Podstawowa im. J\u00f3zefa Kassolika w Mi\u0119dzyrzeczu",
                "name": "Szko\u0142a Podstawowa",
                "addr:postcode": "43-220",
                "addr:city": "Mi\u0119dzyrzecze",
                "addr:street": "\u017bubr\u00f3w",
                "addr:housenumber": "13",
                "addr:teryt:simc": 212720,
                "addr:teryt:sym_ul": 26550,
                "phone": "+48 322189200",
                "email": "sekretariat@spkassolik.pl",
                "website": "http:\/\/www.spkassolik.pl",
                "ref:regon": "000725938",
                "ref:vatin": "PL6462484159",
                "operator": "Gmina Bojszowy",
                "operator:type": "government",
                "amenity": "school"
            }
        },
        {
            "id": 65218,
            "type": "Feature",
            "geometry": {
                "type": "Point",
                "coordinates": [
                    19.100500106811,
                    50.057949066162
                ]
            },
            "properties": {
                "isced:level": "1;2",
                "ref:rspo": 65218,
                "official_name": "Szko\u0142a Podstawowa Im Wilhelma Gawlikowicza w Bojszowach",
                "name": "Szko\u0142a Podstawowa Im Wilhelma Gawlikowicza w Bojszowach",
                "addr:postcode": "43-220",
                "addr:city": "Bojszowy",
                "addr:street": "\u015awi\u0119tego Jana",
                "addr:housenumber": "33",
                "addr:teryt:simc": 212707,
                "addr:teryt:sym_ul": 33209,
                "phone": "+48 322189122",
                "email": "sp_bojszowy@poczta.onet.pl",
                "website": "http:\/\/www.spbojszowy.pl",
                "ref:regon": "000725915",
                "ref:vatin": "PL6462484171",
                "operator": "Gmina Bojszowy",
                "operator:type": "government",
                "amenity": "school"
            }
        },
        {
            "id": 92269,
            "type": "Feature",
            "geometry": {
                "type": "Point",
                "coordinates": [
                    19.05069,
                    50.06065
                ]
            },
            "properties": {
                "isced:level": "1;2",
                "ref:rspo": 92269,
                "official_name": "Gminna Szko\u0142a Podstawowa Z Oddzia\u0142ami Integracyjnymi im. Ks. Jerzego Popie\u0142uszki w \u015awierczy\u0144cu",
                "name": "Gminna Szko\u0142a Podstawowa Z Oddzia\u0142ami Integracyjnymi",
                "addr:postcode": "43-220",
                "addr:city": "\u015awierczyniec",
                "addr:street": "Sierpowa",
                "addr:housenumber": "38",
                "addr:teryt:simc": 212736,
                "addr:teryt:sym_ul": 19885,
                "phone": "+48 322189586",
                "email": "gsp_swierczyniec@wp.pl",
                "website": "http:\/\/www.gsp-swierczyniec.pl",
                "ref:regon": "001385077",
                "ref:vatin": "PL6462484165",
                "operator": "Gmina Bojszowy",
                "operator:type": "government",
                "amenity": "school"
            }
        },
        {
            "id": 64625,
            "type": "Feature",
            "geometry": {
                "type": "Point",
                "coordinates": [
                    19.09277,
                    50.06088
                ]
            },
            "properties": {
                "ref:rspo": 64625,
                "official_name": "Gminne Przedszkole w Bojszowach",
                "name": "Gminne Przedszkole w Bojszowach",
                "addr:postcode": "43-220",
                "addr:city": "Bojszowy",
                "addr:street": "Gaikowa",
                "addr:housenumber": "64",
                "addr:teryt:simc": 212707,
                "addr:teryt:sym_ul": 5243,
                "phone": "+48 322189255",
                "email": "sekretariat@bojszowyprzedszkole.pl",
                "website": "http:\/\/www.przedszkole-bojszowy.szkolnastrona.pl",
                "ref:regon": "271511756",
                "ref:vatin": "PL6461030752",
                "operator": "Gmina Bojszowy",
                "operator:type": "government",
                "amenity": "kindergarten"
            }
        }
    ]
}