{
    "type": "FeatureCollection",
    "features": [
        {
            "id": 120001,
            "type": "Feature",
            "geometry": {
                "type": "Point",
                "coordinates": [
                    19.57882,
                    51.26773
                ]
            },
            "properties": {
                "ref:rspo": 120001,
                "official_name": "Prywatne Przedszkole \"Zielony Zak\u0105tek\"",
                "name": "Prywatne Przedszkole \"Zielony Zak\u0105tek\"",
                "addr:country": "PL",
                "addr:postcode": "97-330",
                "addr:city": "Poniat\u00f3w",
                "addr:street": "ul. Jesionowa",
                "addr:housenumber": "10A",
                "addr:teryt:simc": 7506,
                "addr:teryt:sym_ul": 552461,
                "contact:phone": "+48 508386567",
                "ref:regon": "101665661",
                "operator": "Marianna Czarnucha",
                "operator:type": "private",
                "amenity": "kindergarten"
            }
        },
        {
            "id": 6545,
            "type": "Feature",
            "geometry": {
                "type": "Point",
                "coordinates": [
                    19.8567,
                    51.28731
                ]
            },
            "properties": {
                "isced:level": "1;2",
                "ref:rspo": 6545,
                "official_name": "Szko\u0142a Podstawowa Stowarzyszenia Przyjaci\u00f3\u0142 Szk\u00f3\u0142 Katolickich w Klementynowie",
                "name": "Szko\u0142a Podstawowa Stowarzyszenia Przyjaci\u00f3\u0142 Szk\u00f3\u0142 Katolickich w Klementynowie",
                "addr:country": "PL",
                "addr:postcode": "97-330",
                "addr:place": "Klementyn\u00f3w",
                "addr:housenumber": "1",
                "addr:teryt:sym_ul": 552290,
                "contact:phone": "+48 446162136",
                "contact:email": "spsk.klementynow@wp.pl",
                "ref:regon": "101459996",
                "operator": "Stowarzyszenie Przyjaci\u00f3\u0142 Szk\u00f3\u0142 Katolickich",
                "operator:type": "ngo",
                "amenity": "school"
            }
        },
        {
            "id": 17512,
            "type": "Feature",
            "geometry": {
                "type": "Point",
                "coordinates": [
                    19.84963,
                    51.326
                ]
            },
            "properties": {
                "isced:level": "1;2",
                "ref:rspo": 17512,
                "official_name": "Szko\u0142a Podstawowa w \u0141\u0119cznie",
                "name": "Szko\u0142a Podstawowa w \u0141\u0119cznie",
                "addr:country": "PL",
                "addr:postcode": "97-330",
                "addr:place": "\u0141\u0119czno",
                "addr:housenumber": "12",
                "addr:teryt:sym_ul": 552426,
                "contact:phone": "+48 446162668",
                "contact:email": "spl@poczta.onet.pl",
                "contact:website": "http:\/\/www.spleczno.superszkolna.pl",
                "ref:regon": "001229756",
                "ref:vatin": "PL7712506604",
                "operator": "Gmina Sulej\u00f3w",
                "operator:type": "government",
                "amenity": "school"
            }
        },
        {
            "id": 279015,
            "type": "Feature",
            "geometry": {
                "type": "Point",
                "coordinates": [
                    19.88629,
                    51.3452
                ]
            },
            "properties": {
                "ref:rspo": 279015,
                "official_name": "Polskie Centrum Szkoleniowe",
                "name": "Polskie Centrum Szkoleniowe",
                "addr:country": "PL",
                "addr:postcode": "97-330",
                "addr:city": "Sulej\u00f3w",
                "addr:street": "ul. Taraszczy\u0144ska",
                "addr:housenumber": "73",
                "addr:teryt:simc": 22640,
                "addr:teryt:sym_ul": 968233,
                "ref:regon": "520432613",
                "operator": "Polskie Centrum Szkoleniowe Sp\u00f3\u0142ka Z Ograniczon\u0105 Odpowiedzialno\u015bci\u0105",
                "operator:type": "private",
                "fixme": "w zale\u017cno\u015bci od przedmiotu dzia\u0142alno\u015bci (np. amenity=training + training=*, amenity=dancing_school, amenity=language_school, amenity=music_school)"
            }
        },
        {
            "id": 17340,
            "type": "Feature",
            "geometry": {
                "type": "Point",
                "coordinates": [
                    19.89394,
                    51.3525
                ]
            },
            "properties": {
                "isced:level": "1;2",
                "ref:rspo": 17340,
                "official_name": "Szko\u0142a Podstawowa Nr 1 im. Jana Paw\u0142a II w Sulejowie",
                "name": "Szko\u0142a Podstawowa Nr 1",
                "addr:country": "PL",
                "addr:postcode": "97-330",
                "addr:city": "Sulej\u00f3w",
                "addr:street": "ul. Konecka",
                "addr:housenumber": "45",
                "addr:teryt:simc": 9126,
                "addr:teryt:sym_ul": 968233,
                "contact:phone": "+48 446162532",
                "contact:email": "sp1sulejow@poczta.onet.pl",
                "contact:website": "http:\/\/sp1.sulejow.pl",
                "ref:regon": "001229733",
                "ref:vatin": "PL7712506596",
                "operator": "Gmina Sulej\u00f3w",
                "operator:type": "government",
                "amenity": "school"
            }
        },
        {
            "id": 17723,
            "type": "Feature",
            "geometry": {
                "type": "Point",
                "coordinates": [
                    19.88967,
                    51.35287
                ]
            },
            "properties": {
                "ref:rspo": 17723,
                "official_name": "Samorz\u0105dowe Przedszkole w Sulejowie",
                "name": "Samorz\u0105dowe Przedszkole w Sulejowie",
                "addr:country": "PL",
                "addr:postcode": "97-330",
                "addr:city": "Sulej\u00f3w",
                "addr:street": "ul. Konecka",
                "addr:housenumber": "29",
                "addr:teryt:simc": 9126,
                "addr:teryt:sym_ul": 968233,
                "contact:phone": "+48 446162097",
                "contact:email": "przedszsul@op.pl",
                "ref:regon": "590758369",
                "ref:vatin": "PL7711961039",
                "operator": "Gmina Sulej\u00f3w",
                "operator:type": "government",
                "amenity": "kindergarten"
            }
        },
        {
            "id": 34812,
            "type": "Feature",
            "geometry": {
                "type": "Point",
                "coordinates": [
                    19.87616,
                    51.35464
                ]
            },
            "properties": {
                "ref:rspo": 34812,
                "official_name": "Zesp\u00f3\u0142 Szk\u00f3\u0142 Centrum Kszta\u0142cenia Ustawicznego w Sulejowie",
                "name": "Zesp\u00f3\u0142 Szk\u00f3\u0142 Centrum Kszta\u0142cenia Ustawicznego w Sulejowie",
                "addr:country": "PL",
                "addr:postcode": "97-330",
                "addr:city": "Sulej\u00f3w",
                "addr:street": "ul. Milejowska",
                "addr:housenumber": "21",
                "addr:teryt:simc": 12924,
                "addr:teryt:sym_ul": 968233,
                "contact:phone": "+48 446162199",
                "contact:email": "sekretariat@zsckuwsulejowie.pl",
                "contact:website": "http:\/\/www.zsckuwsulejowie.pl",
                "ref:regon": "592190163",
                "ref:vatin": "PL7712578354",
                "operator": "Powiat Piotrkowski",
                "operator:type": "government",
                "landuse": "education",
                "fixme": "amenity=school, amenity=college albo landuse=education w zale\u017cno\u015bci od tego, jakie plac\u00f3wki wchodz\u0105 w sk\u0142ad zespo\u0142u. Sprawd\u017a, kiedy stosowa\u0107 amenity=* a kiedy landuse=education.",
                "note": "Children RSPO: 90050;90051;90052;90054;263295"
            }
        },
        {
            "id": 90050,
            "type": "Feature",
            "geometry": {
                "type": "Point",
                "coordinates": [
                    19.87616,
                    51.35461
                ]
            },
            "properties": {
                "isced:level": "3",
                "ref:rspo": 90050,
                "official_name": "Technikum w Sulejowie",
                "name": "Technikum w Sulejowie",
                "addr:country": "PL",
                "addr:postcode": "97-330",
                "addr:city": "Sulej\u00f3w",
                "addr:street": "ul. Milejowska",
                "addr:housenumber": "21",
                "addr:teryt:simc": 12924,
                "addr:teryt:sym_ul": 968233,
                "contact:phone": "+48 446162199",
                "contact:email": "sekretariat@zsckuwsulejowie.pl",
                "contact:website": "http:\/\/www.zsckuwsulejowie.pl",
                "ref:regon": "100562663",
                "operator": "Powiat Piotrkowski",
                "operator:type": "government",
                "amenity": "school",
                "note": "Parent RSPO: 34812"
            }
        },
        {
            "id": 90051,
            "type": "Feature",
            "geometry": {
                "type": "Point",
                "coordinates": [
                    19.87616,
                    51.354580000000006
                ]
            },
            "properties": {
                "isced:level": "3",
                "ref:rspo": 90051,
                "official_name": "Bran\u017cowa Szko\u0142a I Stopnia w Sulejowie",
                "name": "Bran\u017cowa Szko\u0142a I Stopnia w Sulejowie",
                "addr:country": "PL",
                "addr:postcode": "97-330",
                "addr:city": "Sulej\u00f3w",
                "addr:street": "ul. Milejowska",
                "addr:housenumber": "21",
                "addr:teryt:simc": 12924,
                "addr:teryt:sym_ul": 968233,
                "contact:phone": "+48 446162199",
                "contact:email": "sekretariat@zsckuwsulejowie.pl",
                "contact:website": "http:\/\/www.zsckuwsulejowie.pl",
                "ref:regon": "100847207",
                "operator": "Powiat Piotrkowski",
                "operator:type": "government",
                "amenity": "school",
                "note": "Parent RSPO: 34812"
            }
        },
        {
            "id": 90052,
            "type": "Feature",
            "geometry": {
                "type": "Point",
                "coordinates": [
                    19.87616,
                    51.35455
                ]
            },
            "properties": {
                "isced:level": "3",
                "ref:rspo": 90052,
                "official_name": "Liceum Og\u00f3lnokszta\u0142c\u0105ce dla Doros\u0142ych w Sulejowie",
                "name": "Liceum Og\u00f3lnokszta\u0142c\u0105ce dla Doros\u0142ych w Sulejowie",
                "addr:country": "PL",
                "addr:postcode": "97-330",
                "addr:city": "Sulej\u00f3w",
                "addr:street": "ul. Milejowska",
                "addr:housenumber": "21",
                "addr:teryt:simc": 12924,
                "addr:teryt:sym_ul": 968233,
                "contact:phone": "+48 446162199",
                "contact:email": "sekretariat@zsckuwsulejowie.pl",
                "contact:website": "http:\/\/www.zsckuwsulejowie.pl",
                "ref:regon": "592155474",
                "operator": "Powiat Piotrkowski",
                "operator:type": "government",
                "amenity": "school",
                "note": "Parent RSPO: 34812"
            }
        },
        {
            "id": 90054,
            "type": "Feature",
            "geometry": {
                "type": "Point",
                "coordinates": [
                    19.87616,
                    51.35452
                ]
            },
            "properties": {
                "isced:level": "4",
                "ref:rspo": 90054,
                "official_name": "Szko\u0142a Policealna w Sulejowie",
                "name": "Szko\u0142a Policealna w Sulejowie",
                "addr:country": "PL",
                "addr:postcode": "97-330",
                "addr:city": "Sulej\u00f3w",
                "addr:street": "ul. Milejowska",
                "addr:housenumber": "21",
                "addr:teryt:simc": 12924,
                "addr:teryt:sym_ul": 968233,
                "contact:phone": "+48 446162199",
                "contact:email": "sekretariat@zsckuwsulejowie.pl",
                "contact:website": "http:\/\/www.zsckuwsulejowie.pl",
                "ref:regon": "100735388",
                "operator": "Powiat Piotrkowski",
                "operator:type": "government",
                "amenity": "college",
                "note": "Parent RSPO: 34812"
            }
        },
        {
            "id": 263295,
            "type": "Feature",
            "geometry": {
                "type": "Point",
                "coordinates": [
                    19.87616,
                    51.354490000000006
                ]
            },
            "properties": {
                "ref:rspo": 263295,
                "official_name": "Centrum Kszta\u0142cenia Ustawicznego w Sulejowie",
                "name": "Centrum Kszta\u0142cenia Ustawicznego w Sulejowie",
                "addr:country": "PL",
                "addr:postcode": "97-330",
                "addr:city": "Sulej\u00f3w",
                "addr:street": "ul. Milejowska",
                "addr:housenumber": "21",
                "addr:teryt:simc": 12924,
                "addr:teryt:sym_ul": 968233,
                "contact:phone": "+48 446162199",
                "contact:email": "sekretariat@zsckuwsulejowie.pl",
                "contact:website": "http:\/\/www.zsckuwsulejowie.pl",
                "ref:regon": "368179057",
                "operator": "Powiat Piotrkowski",
                "operator:type": "government",
                "fixme": "w zale\u017cno\u015bci od przedmiotu dzia\u0142alno\u015bci (np. amenity=training + training=*, amenity=dancing_school, amenity=language_school, amenity=music_school)",
                "note": "Parent RSPO: 34812"
            }
        },
        {
            "id": 17511,
            "type": "Feature",
            "geometry": {
                "type": "Point",
                "coordinates": [
                    19.87665,
                    51.36929
                ]
            },
            "properties": {
                "isced:level": "1;2",
                "ref:rspo": 17511,
                "official_name": "Szko\u0142a Podstawowa Nr 2 im. Kr\u00f3lowej Jadwigi w Sulejowie",
                "name": "Szko\u0142a Podstawowa Nr 2",
                "addr:country": "PL",
                "addr:postcode": "97-330",
                "addr:city": "Sulej\u00f3w",
                "addr:street": "ul. Rycerska",
                "addr:housenumber": "10",
                "addr:teryt:simc": 19186,
                "addr:teryt:sym_ul": 968233,
                "contact:phone": "+48 446162098",
                "contact:email": "sppodklasztorze@wp.pl",
                "contact:website": "http:\/\/www.sppodklasztorze.superszkolna.pl",
                "ref:regon": "001230216",
                "ref:vatin": "PL7712506573",
                "operator": "Gmina Sulej\u00f3w",
                "operator:type": "government",
                "amenity": "school"
            }
        },
        {
            "id": 119167,
            "type": "Feature",
            "geometry": {
                "type": "Point",
                "coordinates": [
                    19.82209,
                    51.36994
                ]
            },
            "properties": {
                "ref:rspo": 119167,
                "official_name": "Przedszkole Niepubliczne \"U\u015bmiech Dziecka\"",
                "name": "Przedszkole Niepubliczne \"U\u015bmiech Dziecka\"",
                "addr:country": "PL",
                "addr:postcode": "97-330",
                "addr:city": "W\u0142odzimierz\u00f3w",
                "addr:street": "ul. \u0141\u0119czy\u0144ska",
                "addr:housenumber": "20",
                "addr:teryt:simc": 11608,
                "addr:teryt:sym_ul": 552538,
                "contact:phone": "+48 512011303",
                "contact:email": "noweprzedszkole@op.pl",
                "contact:website": "http:\/\/www.usmiechdziecka.edu.pl",
                "ref:regon": "101655065",
                "operator": "\u0141ukasz Komar",
                "operator:type": "private",
                "amenity": "kindergarten"
            }
        },
        {
            "id": 17513,
            "type": "Feature",
            "geometry": {
                "type": "Point",
                "coordinates": [
                    19.82106,
                    51.37218
                ]
            },
            "properties": {
                "isced:level": "1;2",
                "ref:rspo": 17513,
                "official_name": "Szko\u0142a Podstawowa im. Przyjaci\u00f3\u0142 Przyrody we W\u0142odzimierzowie",
                "name": "Szko\u0142a Podstawowa",
                "addr:country": "PL",
                "addr:postcode": "97-330",
                "addr:city": "W\u0142odzimierz\u00f3w",
                "addr:street": "ul. \u0141\u0119czy\u0144ska",
                "addr:housenumber": "8",
                "addr:teryt:simc": 11608,
                "addr:teryt:sym_ul": 552538,
                "contact:phone": "+48 446162177",
                "contact:email": "sp_przyglow@op.pl",
                "contact:website": "http:\/\/www.spprzyglow.eu",
                "ref:regon": "001229740",
                "ref:vatin": "PL7712508218",
                "operator": "Gmina Sulej\u00f3w",
                "operator:type": "government",
                "amenity": "school"
            }
        },
        {
            "id": 17515,
            "type": "Feature",
            "geometry": {
                "type": "Point",
                "coordinates": [
                    19.7601,
                    51.37413
                ]
            },
            "properties": {
                "isced:level": "1;2",
                "ref:rspo": 17515,
                "official_name": "Szko\u0142a Podstawowa im. Jana Paw\u0142a II w Witowie-Kolonii",
                "name": "Szko\u0142a Podstawowa",
                "addr:country": "PL",
                "addr:postcode": "97-330",
                "addr:place": "Wit\u00f3w-Kolonia",
                "addr:housenumber": "47",
                "addr:teryt:sym_ul": 552521,
                "contact:phone": "+48 446102101",
                "contact:email": "witow@poczta.onet.pl",
                "contact:website": "http:\/\/www.spwitow.edupage.org",
                "ref:regon": "001229584",
                "ref:vatin": "PL7712509703",
                "operator": "Gmina Sulej\u00f3w",
                "operator:type": "government",
                "amenity": "school"
            }
        },
        {
            "id": 17724,
            "type": "Feature",
            "geometry": {
                "type": "Point",
                "coordinates": [
                    19.81615,
                    51.37791
                ]
            },
            "properties": {
                "ref:rspo": 17724,
                "official_name": "Samorz\u0105dowe Przedszkole w Przyg\u0142owie",
                "name": "Samorz\u0105dowe Przedszkole w Przyg\u0142owie",
                "addr:country": "PL",
                "addr:postcode": "97-330",
                "addr:city": "Przyg\u0142\u00f3w",
                "addr:street": "ul. S\u0142oneczna",
                "addr:housenumber": "20",
                "addr:teryt:simc": 20254,
                "addr:teryt:sym_ul": 552478,
                "contact:phone": "+48 446162691",
                "contact:email": "przedszkolewprzyglowie@interia.pl",
                "ref:regon": "590778917",
                "ref:vatin": "PL7711209927",
                "operator": "Gmina Sulej\u00f3w",
                "operator:type": "government",
                "amenity": "kindergarten"
            }
        },
        {
            "id": 17725,
            "type": "Feature",
            "geometry": {
                "type": "Point",
                "coordinates": [
                    19.76914,
                    51.39363
                ]
            },
            "properties": {
                "ref:rspo": 17725,
                "official_name": "Samorz\u0105dowe Przedszkole w Poniatowie",
                "name": "Samorz\u0105dowe Przedszkole w Poniatowie",
                "addr:country": "PL",
                "addr:postcode": "97-330",
                "addr:city": "Poniat\u00f3w",
                "addr:street": "ul. Piotrkowska",
                "addr:housenumber": "11",
                "addr:teryt:simc": 16308,
                "addr:teryt:sym_ul": 552461,
                "contact:phone": "+48 446161213",
                "contact:email": "przedszkolewponiatowie@neostrada.pl",
                "contact:website": "http:\/\/www.przedszkoleponiatow.biposwiata.pl",
                "ref:regon": "592136867",
                "ref:vatin": "PL7712515158",
                "operator": "Gmina Sulej\u00f3w",
                "operator:type": "government",
                "amenity": "kindergarten",
                "note": "Parent RSPO: 272006"
            }
        },
        {
            "id": 272006,
            "type": "Feature",
            "geometry": {
                "type": "Point",
                "coordinates": [
                    19.77098,
                    51.39716
                ]
            },
            "properties": {
                "ref:rspo": 272006,
                "official_name": "Zesp\u00f3\u0142 Szkolno-Przedszkolny w Uszczynie",
                "name": "Zesp\u00f3\u0142 Szkolno-Przedszkolny w Uszczynie",
                "addr:country": "PL",
                "addr:postcode": "97-330",
                "addr:city": "Uszczyn",
                "addr:street": "ul. Szkolna",
                "addr:housenumber": "12",
                "addr:teryt:simc": 21970,
                "addr:teryt:sym_ul": 552509,
                "contact:phone": "+48 446463837",
                "contact:email": "spuszczyn@op.pl",
                "contact:website": "http:\/\/www.spuszczyn.superszkolna.pl",
                "ref:regon": "383866932",
                "ref:vatin": "PL7712907154",
                "operator": "Gmina Sulej\u00f3w",
                "operator:type": "government",
                "landuse": "education",
                "fixme": "amenity=school, amenity=college albo landuse=education w zale\u017cno\u015bci od tego, jakie plac\u00f3wki wchodz\u0105 w sk\u0142ad zespo\u0142u. Sprawd\u017a, kiedy stosowa\u0107 amenity=* a kiedy landuse=education.",
                "note": "Children RSPO: 17514;17725"
            }
        },
        {
            "id": 17514,
            "type": "Feature",
            "geometry": {
                "type": "Point",
                "coordinates": [
                    19.77098,
                    51.39713
                ]
            },
            "properties": {
                "isced:level": "1;2",
                "ref:rspo": 17514,
                "official_name": "Szko\u0142a Podstawowa w Uszczynie",
                "name": "Szko\u0142a Podstawowa w Uszczynie",
                "addr:country": "PL",
                "addr:postcode": "97-330",
                "addr:city": "Uszczyn",
                "addr:street": "ul. Szkolna",
                "addr:housenumber": "12",
                "addr:teryt:simc": 21970,
                "addr:teryt:sym_ul": 552509,
                "contact:phone": "+48 446463837",
                "contact:email": "spuszczyn@op.pl",
                "contact:website": "http:\/\/www.spuszczyn.superszkolna.pl",
                "ref:regon": "001229727",
                "ref:vatin": "PL7712506550",
                "operator": "Gmina Sulej\u00f3w",
                "operator:type": "government",
                "amenity": "school",
                "note": "Parent RSPO: 272006"
            }
        }
    ]
}