{
    "type": "FeatureCollection",
    "features": [
        {
            "id": 55694,
            "type": "Feature",
            "geometry": {
                "type": "Point",
                "coordinates": [
                    19.86917,
                    51.13957
                ]
            },
            "properties": {
                "ref:rspo": 55694,
                "official_name": "Niepubliczne Przedszkole",
                "name": "Niepubliczne Przedszkole",
                "addr:postcode": "97-510",
                "addr:place": "B\u0105kowa G\u00f3ra",
                "addr:housenumber": "43",
                "addr:teryt:simc": 549625,
                "phone": "+48 447813122",
                "ref:regon": "101488733",
                "operator": "Dane Do Uzupe\u0142nienia",
                "operator:type": "private",
                "amenity": "kindergarten"
            }
        },
        {
            "id": 86183,
            "type": "Feature",
            "geometry": {
                "type": "Point",
                "coordinates": [
                    19.85448,
                    51.18973
                ]
            },
            "properties": {
                "isced:level": "1;2",
                "ref:rspo": 86183,
                "official_name": "Szko\u0142a Podstawowa w R\u0119cznie",
                "name": "Szko\u0142a Podstawowa w R\u0119cznie",
                "addr:postcode": "97-510",
                "addr:city": "R\u0119czno",
                "addr:street": "G\u0142\u00f3wna",
                "addr:housenumber": "21",
                "addr:teryt:simc": 549884,
                "addr:teryt:sym_ul": 5635,
                "phone": "+48 447813013",
                "email": "recznosp@wp.pl",
                "website": "http:\/\/www.spreczno.pl",
                "ref:regon": "000636933",
                "ref:vatin": "PL7712650057",
                "operator": "Gmina R\u0119czno",
                "operator:type": "government",
                "amenity": "school"
            }
        },
        {
            "id": 119804,
            "type": "Feature",
            "geometry": {
                "type": "Point",
                "coordinates": [
                    19.85448,
                    51.189699999999995
                ]
            },
            "properties": {
                "ref:rspo": 119804,
                "official_name": "Punkt Przedszkolny Przy Szkole Podstawowej w R\u0119cznie",
                "name": "Punkt Przedszkolny Przy Szkole Podstawowej w R\u0119cznie",
                "addr:postcode": "97-510",
                "addr:city": "R\u0119czno",
                "addr:street": "G\u0142\u00f3wna",
                "addr:housenumber": "21",
                "addr:teryt:simc": 549884,
                "addr:teryt:sym_ul": 5635,
                "phone": "+48 447813013",
                "email": "recznosp@wp.pl",
                "website": "http:\/\/www.spreczno.pl",
                "ref:regon": "101662148",
                "operator": "Gmina R\u0119czno",
                "operator:type": "government",
                "amenity": "kindergarten"
            }
        },
        {
            "id": 277448,
            "type": "Feature",
            "geometry": {
                "type": "Point",
                "coordinates": [
                    19.85448,
                    51.18967
                ]
            },
            "properties": {
                "isced:level": "3",
                "ref:rspo": 277448,
                "official_name": "Mi\u0119dzynarodowa Szko\u0142a Mistrzostwa Sportowego Liceum Og\u00f3lnokszta\u0142c\u0105ce \"Edukacja I Sport\" w R\u0119cznie",
                "name": "Mi\u0119dzynarodowa Szko\u0142a Mistrzostwa Sportowego Liceum Og\u00f3lnokszta\u0142c\u0105ce \"Edukacja I Sport\" w R\u0119cznie",
                "addr:postcode": "97-510",
                "addr:city": "R\u0119czno",
                "addr:street": "G\u0142\u00f3wna",
                "addr:housenumber": "21",
                "addr:teryt:simc": 549884,
                "addr:teryt:sym_ul": 5635,
                "email": "reczno@msms.eu",
                "website": "http:\/\/msms.eu",
                "ref:regon": "388947470",
                "operator": "Fundacja \"Edukacja I Sport\"",
                "operator:type": "ngo",
                "amenity": "school"
            }
        },
        {
            "id": 268731,
            "type": "Feature",
            "geometry": {
                "type": "Point",
                "coordinates": [
                    19.85628,
                    51.19081
                ]
            },
            "properties": {
                "ref:rspo": 268731,
                "official_name": "Przedszkole Niepubliczne Akademia Myszki Miki w R\u0119cznie",
                "name": "Przedszkole Niepubliczne Akademia Myszki Miki w R\u0119cznie",
                "addr:postcode": "97-510",
                "addr:city": "R\u0119czno",
                "addr:street": "G\u0142\u00f3wna",
                "addr:housenumber": "36",
                "addr:teryt:simc": 549884,
                "addr:teryt:sym_ul": 5635,
                "email": "akademiamyszkamiki@gmail.com",
                "ref:regon": "381236977",
                "ref:vatin": "PL7722415381",
                "operator": "Akademia Edukacji I Rozwoju Sp\u00f3\u0142ka Z Ograniczon\u0105 Odpowiedzialno\u015bci\u0105",
                "operator:type": "private",
                "amenity": "kindergarten"
            }
        },
        {
            "id": 55185,
            "type": "Feature",
            "geometry": {
                "type": "Point",
                "coordinates": [
                    19.8755,
                    51.24711
                ]
            },
            "properties": {
                "isced:level": "1;2",
                "ref:rspo": 55185,
                "official_name": "Szko\u0142a Podstawowa w Stobnicy",
                "name": "Szko\u0142a Podstawowa w Stobnicy",
                "addr:postcode": "97-510",
                "addr:place": "Stobnica",
                "addr:housenumber": "51 A",
                "addr:teryt:simc": 549938,
                "phone": "+48 447813279",
                "email": "spstobnica@interia.pl",
                "website": "http:\/\/www.spstobnica.szkolnastrona.pl",
                "ref:regon": "001161231",
                "ref:vatin": "PL7711085052",
                "operator": "Gmina R\u0119czno",
                "operator:type": "government",
                "amenity": "school"
            }
        }
    ]
}