{
    "type": "FeatureCollection",
    "features": [
        {
            "id": 43633,
            "type": "Feature",
            "geometry": {
                "type": "Point",
                "coordinates": [
                    19.64229,
                    51.5762799
                ]
            },
            "properties": {
                "isced:level": "1;2",
                "ref:rspo": 43633,
                "official_name": "Szko\u0142a Podstawowa w Szynczycach",
                "name": "Szko\u0142a Podstawowa w Szynczycach",
                "addr:country": "PL",
                "addr:postcode": "97-318",
                "addr:place": "Szynczyce",
                "addr:housenumber": "8",
                "addr:teryt:sym_ul": 537183,
                "contact:phone": "+48 446165190",
                "contact:email": "spszynczyce@poczta.onet.pl",
                "contact:website": "http:\/\/spszynczyce.edupage.org",
                "ref:regon": "001140571",
                "ref:vatin": "PL7712539147",
                "operator": "Gmina Czarnocin",
                "operator:type": "government",
                "amenity": "school"
            }
        },
        {
            "id": 17621,
            "type": "Feature",
            "geometry": {
                "type": "Point",
                "coordinates": [
                    19.68225,
                    51.5903
                ]
            },
            "properties": {
                "ref:rspo": 17621,
                "official_name": "Zesp\u00f3\u0142 Szkolno-Przedszkolny w Czarnocinie",
                "name": "Zesp\u00f3\u0142 Szkolno-Przedszkolny w Czarnocinie",
                "addr:country": "PL",
                "addr:postcode": "97-318",
                "addr:city": "Czarnocin",
                "addr:street": "G\u0142\u00f3wna",
                "addr:housenumber": "134",
                "addr:teryt:simc": 5635,
                "addr:teryt:sym_ul": 537059,
                "contact:phone": "+48 446165116",
                "contact:email": "zszgczarnocin@poczta.onet.pl",
                "contact:website": "http:\/\/zsgczarnocin.edupage.org",
                "ref:regon": "590724695",
                "ref:vatin": "PL7712775362",
                "operator": "Gmina Czarnocin",
                "operator:type": "government",
                "landuse": "education",
                "fixme": "amenity=school, amenity=college albo landuse=education w zale\u017cno\u015bci od tego, jakie plac\u00f3wki wchodz\u0105 w sk\u0142ad zespo\u0142u. Sprawd\u017a, kiedy stosowa\u0107 amenity=* a kiedy landuse=education.",
                "note": "Children RSPO: 23457;23458"
            }
        },
        {
            "id": 23457,
            "type": "Feature",
            "geometry": {
                "type": "Point",
                "coordinates": [
                    19.68225,
                    51.59027
                ]
            },
            "properties": {
                "isced:level": "1;2",
                "ref:rspo": 23457,
                "official_name": "Szko\u0142a Podstawowa Imienia Szarych Szereg\u00f3w w Czarnocinie w Zespole Szkolno- Przedszkolnym w Czarnocinie",
                "name": "Szko\u0142a Podstawowa Imienia Szarych Szereg\u00f3w w Czarnocinie w Zespole Szkolno- Przedszkolnym w Czarnocinie",
                "addr:country": "PL",
                "addr:postcode": "97-318",
                "addr:city": "Czarnocin",
                "addr:street": "G\u0142\u00f3wna",
                "addr:housenumber": "134",
                "addr:teryt:simc": 5635,
                "addr:teryt:sym_ul": 537059,
                "contact:phone": "+48 446165116",
                "contact:email": "zsgczarnocin@poczta.onet.pl",
                "contact:website": "http:\/\/zsgczarnocin.edupage.org",
                "ref:regon": "000684903",
                "operator": "Gmina Czarnocin",
                "operator:type": "government",
                "amenity": "school",
                "note": "Parent RSPO: 17621"
            }
        },
        {
            "id": 23458,
            "type": "Feature",
            "geometry": {
                "type": "Point",
                "coordinates": [
                    19.68225,
                    51.59024
                ]
            },
            "properties": {
                "ref:rspo": 23458,
                "official_name": "Przedszkole Samorz\u0105du Gminy w Zespole Szkolno-Przedszkolnym w Czarnocinie",
                "name": "Przedszkole Samorz\u0105du Gminy w Zespole Szkolno-Przedszkolnym w Czarnocinie",
                "addr:country": "PL",
                "addr:postcode": "97-318",
                "addr:city": "Czarnocin",
                "addr:street": "G\u0142\u00f3wna",
                "addr:housenumber": "134",
                "addr:teryt:simc": 5635,
                "addr:teryt:sym_ul": 537059,
                "contact:phone": "+48 446165116",
                "contact:email": "zsgczarnocin@poczta.onet.pl",
                "contact:website": "http:\/\/zsgczarnocin.edupage.org",
                "ref:regon": "590787690",
                "operator": "Gmina Czarnocin",
                "operator:type": "government",
                "amenity": "kindergarten",
                "note": "Parent RSPO: 17621"
            }
        },
        {
            "id": 89415,
            "type": "Feature",
            "geometry": {
                "type": "Point",
                "coordinates": [
                    19.6862,
                    51.59185
                ]
            },
            "properties": {
                "ref:rspo": 89415,
                "official_name": "Zesp\u00f3\u0142 Szk\u00f3\u0142 Centrum Kszta\u0142cenia Ustawicznego im. Juliusza Poniatowskiego w Czarnocinie",
                "name": "Zesp\u00f3\u0142 Szk\u00f3\u0142 Centrum Kszta\u0142cenia Ustawicznego",
                "addr:country": "PL",
                "addr:postcode": "97-318",
                "addr:city": "Czarnocin",
                "addr:street": "Juliusza Poniatowskiego",
                "addr:housenumber": "5",
                "addr:teryt:simc": 28569,
                "addr:teryt:sym_ul": 537059,
                "contact:phone": "+48 446165123",
                "contact:email": "zscku@czarnocin.edu.pl",
                "contact:website": "http:\/\/www.zscku.czarnocin.edu.pl",
                "ref:regon": "000783574",
                "ref:vatin": "PL7711003114",
                "operator": "Powiat Piotrkowski",
                "operator:type": "government",
                "landuse": "education",
                "fixme": "amenity=school, amenity=college albo landuse=education w zale\u017cno\u015bci od tego, jakie plac\u00f3wki wchodz\u0105 w sk\u0142ad zespo\u0142u. Sprawd\u017a, kiedy stosowa\u0107 amenity=* a kiedy landuse=education.",
                "note": "Children RSPO: 90404;90407;90409;263290;273420"
            }
        },
        {
            "id": 90404,
            "type": "Feature",
            "geometry": {
                "type": "Point",
                "coordinates": [
                    19.6862,
                    51.59182
                ]
            },
            "properties": {
                "isced:level": "3",
                "ref:rspo": 90404,
                "official_name": "Technikum w Czarnocinie",
                "name": "Technikum w Czarnocinie",
                "addr:country": "PL",
                "addr:postcode": "97-318",
                "addr:city": "Czarnocin",
                "addr:street": "Juliusza Poniatowskiego",
                "addr:housenumber": "5",
                "addr:teryt:simc": 28569,
                "addr:teryt:sym_ul": 537059,
                "contact:phone": "+48 446165123",
                "contact:email": "zscku@czarnocin.edu.pl",
                "contact:website": "http:\/\/www.zscku.czarnocin.edu.pl",
                "ref:regon": "100073496",
                "operator": "Powiat Piotrkowski",
                "operator:type": "government",
                "amenity": "school",
                "note": "Parent RSPO: 89415"
            }
        },
        {
            "id": 90407,
            "type": "Feature",
            "geometry": {
                "type": "Point",
                "coordinates": [
                    19.6862,
                    51.59179
                ]
            },
            "properties": {
                "isced:level": "3",
                "ref:rspo": 90407,
                "official_name": "Liceum Og\u00f3lnokszta\u0142c\u0105ce w Czarnocinie",
                "name": "Liceum Og\u00f3lnokszta\u0142c\u0105ce w Czarnocinie",
                "addr:country": "PL",
                "addr:postcode": "97-318",
                "addr:city": "Czarnocin",
                "addr:street": "Juliusza Poniatowskiego",
                "addr:housenumber": "5",
                "addr:teryt:simc": 28569,
                "addr:teryt:sym_ul": 537059,
                "contact:phone": "+48 446165123",
                "contact:email": "zscku@czarnocin.edu.pl",
                "contact:website": "http:\/\/www.zscku.czarnocin.edu.pl",
                "ref:regon": "100849502",
                "operator": "Powiat Piotrkowski",
                "operator:type": "government",
                "amenity": "school",
                "note": "Parent RSPO: 89415"
            }
        },
        {
            "id": 90409,
            "type": "Feature",
            "geometry": {
                "type": "Point",
                "coordinates": [
                    19.6862,
                    51.59176
                ]
            },
            "properties": {
                "isced:level": "3",
                "ref:rspo": 90409,
                "official_name": "Bran\u017cowa Szko\u0142a I Stopnia w Czarnocinie",
                "name": "Bran\u017cowa Szko\u0142a I Stopnia w Czarnocinie",
                "addr:country": "PL",
                "addr:postcode": "97-318",
                "addr:city": "Czarnocin",
                "addr:street": "Juliusza Poniatowskiego",
                "addr:housenumber": "5",
                "addr:teryt:simc": 28569,
                "addr:teryt:sym_ul": 537059,
                "contact:phone": "+48 446165123",
                "contact:email": "zscku@czarnocin.edu.pl",
                "contact:website": "http:\/\/www.zscku.czarnocin.edu.pl",
                "ref:regon": "100849519",
                "operator": "Powiat Piotrkowski",
                "operator:type": "government",
                "amenity": "school",
                "note": "Parent RSPO: 89415"
            }
        },
        {
            "id": 263290,
            "type": "Feature",
            "geometry": {
                "type": "Point",
                "coordinates": [
                    19.6862,
                    51.59173
                ]
            },
            "properties": {
                "ref:rspo": 263290,
                "official_name": "Centrum Kszta\u0142cenia Ustawicznego w Czarnocinie",
                "name": "Centrum Kszta\u0142cenia Ustawicznego w Czarnocinie",
                "addr:country": "PL",
                "addr:postcode": "97-318",
                "addr:city": "Czarnocin",
                "addr:street": "Juliusza Poniatowskiego",
                "addr:housenumber": "5",
                "addr:teryt:simc": 28569,
                "addr:teryt:sym_ul": 537059,
                "contact:phone": "+48 446165123",
                "contact:email": "zscku@czarnocin.edu.pl",
                "contact:website": "http:\/\/www.zscku.czarnocin.edu.pl",
                "ref:regon": "368179028",
                "operator": "Powiat Piotrkowski",
                "operator:type": "government",
                "amenity": "school",
                "fixme": "amenity=school lub amenity=college",
                "note": "Children RSPO: 90406;119798Parent RSPO: 89415"
            }
        },
        {
            "id": 273420,
            "type": "Feature",
            "geometry": {
                "type": "Point",
                "coordinates": [
                    19.6862,
                    51.5917
                ]
            },
            "properties": {
                "ref:rspo": 273420,
                "official_name": "Centrum Kszta\u0142cenia Zawodowego w Czarnocinie",
                "name": "Centrum Kszta\u0142cenia Zawodowego w Czarnocinie",
                "addr:country": "PL",
                "addr:postcode": "97-318",
                "addr:city": "Czarnocin",
                "addr:street": "Juliusza Poniatowskiego",
                "addr:housenumber": "5",
                "addr:teryt:simc": 28569,
                "addr:teryt:sym_ul": 537059,
                "contact:phone": "+48 446165123",
                "contact:email": "zscku@czarnocin.edu.pl",
                "contact:website": "http:\/\/www.zscku.czarnocin.edu.pl",
                "ref:regon": "384470113",
                "operator": "Powiat Piotrkowski",
                "operator:type": "government",
                "fixme": "w zale\u017cno\u015bci od przedmiotu dzia\u0142alno\u015bci (np. amenity=training + training=*, amenity=dancing_school, amenity=language_school, amenity=music_school) albo amenity=school, amenity=college, albo landuse=education w zale\u017cno\u015bci od tego, jakie plac\u00f3wki wchodz\u0105 w sk\u0142ad zespo\u0142u. Sprawd\u017a, kiedy stosowa\u0107 amenity=* a kiedy landuse=education.",
                "note": "Parent RSPO: 89415"
            }
        },
        {
            "id": 90406,
            "type": "Feature",
            "geometry": {
                "type": "Point",
                "coordinates": [
                    19.6862,
                    51.59167
                ]
            },
            "properties": {
                "isced:level": "4",
                "ref:rspo": 90406,
                "official_name": "Szko\u0142a Policealna w Czarnocinie",
                "name": "Szko\u0142a Policealna w Czarnocinie",
                "addr:country": "PL",
                "addr:postcode": "97-318",
                "addr:city": "Czarnocin",
                "addr:street": "Juliusza Poniatowskiego",
                "addr:housenumber": "5",
                "addr:teryt:simc": 28569,
                "addr:teryt:sym_ul": 537059,
                "contact:phone": "+48 446165123",
                "contact:email": "zscku@czarnocin.edu.pl",
                "contact:website": "http:\/\/www.zscku.czarnocin.edu.pl",
                "ref:regon": "100076810",
                "operator": "Powiat Piotrkowski",
                "operator:type": "government",
                "amenity": "college",
                "note": "Parent RSPO: 263290"
            }
        },
        {
            "id": 119798,
            "type": "Feature",
            "geometry": {
                "type": "Point",
                "coordinates": [
                    19.6862,
                    51.59164
                ]
            },
            "properties": {
                "isced:level": "3",
                "ref:rspo": 119798,
                "official_name": "Liceum Og\u00f3lnokszta\u0142c\u0105ce dla Doros\u0142ych w Czarnocinie",
                "name": "Liceum Og\u00f3lnokszta\u0142c\u0105ce dla Doros\u0142ych w Czarnocinie",
                "addr:country": "PL",
                "addr:postcode": "97-318",
                "addr:city": "Czarnocin",
                "addr:street": "Juliusza Poniatowskiego",
                "addr:housenumber": "5",
                "addr:teryt:simc": 28569,
                "addr:teryt:sym_ul": 537059,
                "contact:phone": "+48 446165123",
                "contact:email": "zscku@czarnocin.edu.pl",
                "contact:website": "http:\/\/www.zscku.czarnocin.edu.pl",
                "ref:regon": "101662131",
                "operator": "Powiat Piotrkowski",
                "operator:type": "government",
                "amenity": "school",
                "note": "Parent RSPO: 263290"
            }
        }
    ]
}