{
    "type": "FeatureCollection",
    "features": [
        {
            "id": 8267,
            "type": "Feature",
            "geometry": {
                "type": "Point",
                "coordinates": [
                    19.64808,
                    51.17666
                ]
            },
            "properties": {
                "isced:level": "1;2",
                "ref:rspo": 8267,
                "official_name": "Szko\u0142a Podstawowa im. Marii Konopnickiej w Krzemieniewicach",
                "name": "Szko\u0142a Podstawowa",
                "addr:country": "PL",
                "addr:postcode": "97-350",
                "addr:place": "Krzemieniewice",
                "addr:housenumber": "59",
                "addr:teryt:sym_ul": 539963,
                "contact:phone": "+48 446818035",
                "contact:email": "szpkrzemieniewice@wp.pl",
                "contact:website": "http:\/\/szpkrzemieniewice.superszkolna.pl",
                "ref:regon": "001160421",
                "ref:vatin": "PL7712527115",
                "operator": "Gmina Gorzkowice",
                "operator:type": "government",
                "amenity": "school"
            }
        },
        {
            "id": 8266,
            "type": "Feature",
            "geometry": {
                "type": "Point",
                "coordinates": [
                    19.59861,
                    51.21728
                ]
            },
            "properties": {
                "ref:rspo": 8266,
                "official_name": "Przedszkole Samorz\u0105dowe w Gorzkowicach",
                "name": "Przedszkole Samorz\u0105dowe w Gorzkowicach",
                "addr:country": "PL",
                "addr:postcode": "97-350",
                "addr:city": "Gorzkowice",
                "addr:street": "Kwiatowa",
                "addr:housenumber": "7a",
                "addr:teryt:simc": 10562,
                "addr:teryt:sym_ul": 539800,
                "contact:phone": "+48 446818124",
                "contact:email": "ps@gorzkowice.pl",
                "contact:website": "http:\/\/przedszkole.gorzkowice.pl",
                "ref:regon": "590748891",
                "ref:vatin": "PL7711354902",
                "operator": "Gmina Gorzkowice",
                "operator:type": "government",
                "amenity": "kindergarten"
            }
        },
        {
            "id": 132121,
            "type": "Feature",
            "geometry": {
                "type": "Point",
                "coordinates": [
                    19.60103,
                    51.21784
                ]
            },
            "properties": {
                "ref:rspo": 132121,
                "official_name": "Przedszkole Niepubliczne Akademia Myszki Miki",
                "name": "Przedszkole Niepubliczne Akademia Myszki Miki",
                "addr:country": "PL",
                "addr:postcode": "97-350",
                "addr:city": "Gorzkowice",
                "addr:street": "Szkolna",
                "addr:housenumber": "1A",
                "addr:teryt:simc": 21970,
                "addr:teryt:sym_ul": 539800,
                "contact:phone": "+48 519141825",
                "contact:email": "akademiamyszkimiki@gmail.com",
                "ref:regon": "365473780",
                "operator": "Akademia Edukacji I Rozwoju Sp\u00f3\u0142ka Z Ograniczon\u0105 Odpowiedzialno\u015bci\u0105",
                "operator:type": "private",
                "amenity": "kindergarten"
            }
        },
        {
            "id": 131943,
            "type": "Feature",
            "geometry": {
                "type": "Point",
                "coordinates": [
                    19.60482,
                    51.21871
                ]
            },
            "properties": {
                "ref:rspo": 131943,
                "official_name": "Niepubliczne Przedszkole Artystyczne ,, \u015awiat Bajek\"",
                "name": "Niepubliczne Przedszkole Artystyczne ,, \u015awiat Bajek\"",
                "addr:country": "PL",
                "addr:postcode": "97-350",
                "addr:city": "Gorzkowice",
                "addr:street": "Warszawska",
                "addr:housenumber": "22A",
                "addr:teryt:simc": 23682,
                "addr:teryt:sym_ul": 539800,
                "contact:phone": "+48 446818437",
                "contact:email": "przedszkoleswiatbajek@op.pl",
                "ref:regon": "365387298",
                "operator": "Jola Pechta",
                "operator:type": "private",
                "amenity": "kindergarten"
            }
        },
        {
            "id": 274890,
            "type": "Feature",
            "geometry": {
                "type": "Point",
                "coordinates": [
                    19.60482,
                    51.21868
                ]
            },
            "properties": {
                "ref:rspo": 274890,
                "official_name": "O\u015brodek Kurs\u00f3w I Szkole\u0144 w Gorzkowicach",
                "name": "O\u015brodek Kurs\u00f3w I Szkole\u0144 w Gorzkowicach",
                "addr:country": "PL",
                "addr:postcode": "97-350",
                "addr:city": "Gorzkowice",
                "addr:street": "Warszawska",
                "addr:housenumber": "22A",
                "addr:teryt:simc": 23682,
                "addr:teryt:sym_ul": 539800,
                "contact:phone": "+48 604416195",
                "ref:regon": "386365870",
                "operator": "Jola Pechta",
                "operator:type": "private",
                "fixme": "w zale\u017cno\u015bci od przedmiotu dzia\u0142alno\u015bci (np. amenity=training + training=*, amenity=dancing_school, amenity=language_school, amenity=music_school)"
            }
        },
        {
            "id": 276752,
            "type": "Feature",
            "geometry": {
                "type": "Point",
                "coordinates": [
                    19.60482,
                    51.218650000000004
                ]
            },
            "properties": {
                "isced:level": "3",
                "ref:rspo": 276752,
                "official_name": "Publiczne Zaoczne Liceum Og\u00f3lnokszta\u0142c\u0105ce dla Doros\u0142ych w Gorzkowicach",
                "name": "Publiczne Zaoczne Liceum Og\u00f3lnokszta\u0142c\u0105ce dla Doros\u0142ych w Gorzkowicach",
                "addr:country": "PL",
                "addr:postcode": "97-350",
                "addr:city": "Gorzkowice",
                "addr:street": "Warszawska",
                "addr:housenumber": "22a",
                "addr:teryt:simc": 23682,
                "addr:teryt:sym_ul": 539800,
                "contact:email": "jolapechta@wp.pl",
                "ref:regon": "387493936",
                "operator": "Jola Pechta",
                "operator:type": "private",
                "amenity": "school"
            }
        },
        {
            "id": 276753,
            "type": "Feature",
            "geometry": {
                "type": "Point",
                "coordinates": [
                    19.60482,
                    51.21862
                ]
            },
            "properties": {
                "isced:level": "4",
                "ref:rspo": 276753,
                "official_name": "Publiczna Szko\u0142a Policealna w Gorzkowicach",
                "name": "Publiczna Szko\u0142a Policealna w Gorzkowicach",
                "addr:country": "PL",
                "addr:postcode": "97-350",
                "addr:city": "Gorzkowice",
                "addr:street": "Warszawska",
                "addr:housenumber": "22a",
                "addr:teryt:simc": 23682,
                "addr:teryt:sym_ul": 539800,
                "contact:email": "jolapechta@wp.pl",
                "ref:regon": "387493959",
                "operator": "Jola Pechta",
                "operator:type": "private",
                "amenity": "college"
            }
        },
        {
            "id": 272151,
            "type": "Feature",
            "geometry": {
                "type": "Point",
                "coordinates": [
                    19.60232,
                    51.21897
                ]
            },
            "properties": {
                "ref:rspo": 272151,
                "official_name": "Przedszkole Niepubliczne Chatka Puchatka",
                "name": "Przedszkole Niepubliczne Chatka Puchatka",
                "addr:country": "PL",
                "addr:postcode": "97-350",
                "addr:city": "Gorzkowice",
                "addr:street": "Juliusza S\u0142owackiego",
                "addr:housenumber": "2B",
                "addr:teryt:simc": 20286,
                "addr:teryt:sym_ul": 539800,
                "contact:email": "chatkipuchatka@gmail.com",
                "contact:website": "http:\/\/www.chatkapuchatka.info.pl",
                "ref:regon": "383967432",
                "operator": "Bo\u017cena Grobelniak",
                "operator:type": "private",
                "amenity": "kindergarten"
            }
        },
        {
            "id": 10577,
            "type": "Feature",
            "geometry": {
                "type": "Point",
                "coordinates": [
                    19.59841,
                    51.22129
                ]
            },
            "properties": {
                "isced:level": "1;2",
                "ref:rspo": 10577,
                "official_name": "Szko\u0142a Podstawowa im. Henryka Sienkiewicza w Gorzkowicach",
                "name": "Szko\u0142a Podstawowa",
                "addr:country": "PL",
                "addr:postcode": "97-350",
                "addr:city": "Gorzkowice",
                "addr:street": "Ko\u015bcielna",
                "addr:housenumber": "26",
                "addr:teryt:simc": 9546,
                "addr:teryt:sym_ul": 539800,
                "contact:phone": "+48 446818004",
                "contact:email": "spgorzkowice@wp.pl",
                "contact:website": "http:\/\/spgorzkowice.pl",
                "ref:regon": "000636927",
                "ref:vatin": "PL7712527109",
                "operator": "Gmina Gorzkowice",
                "operator:type": "government",
                "amenity": "school"
            }
        },
        {
            "id": 11129,
            "type": "Feature",
            "geometry": {
                "type": "Point",
                "coordinates": [
                    19.62404,
                    51.24726
                ]
            },
            "properties": {
                "isced:level": "1;2",
                "ref:rspo": 11129,
                "official_name": "Szko\u0142a Podstawowa w Go\u015bcinnej",
                "name": "Szko\u0142a Podstawowa w Go\u015bcinnej",
                "addr:country": "PL",
                "addr:postcode": "97-350",
                "addr:place": "Go\u015bcinna",
                "addr:housenumber": "29B",
                "addr:teryt:sym_ul": 539874,
                "contact:phone": "+48 446818099",
                "contact:email": "sp_goscinna@op.pl",
                "contact:website": "http:\/\/spgoscinna.prv.pl",
                "ref:regon": "001160438",
                "ref:vatin": "PL7712527121",
                "operator": "Gmina Gorzkowice",
                "operator:type": "government",
                "amenity": "school"
            }
        }
    ]
}