{
    "type": "FeatureCollection",
    "features": [
        {
            "id": 24076,
            "type": "Feature",
            "geometry": {
                "type": "Point",
                "coordinates": [
                    19.6892042,
                    51.4563087
                ]
            },
            "properties": {
                "isced:level": "1;2",
                "ref:rspo": 24076,
                "official_name": "Szko\u0142a Podstawowa im. Margarethy Kamprad w Jarostach",
                "name": "Szko\u0142a Podstawowa",
                "addr:postcode": "97-310",
                "addr:city": "Jarosty",
                "addr:street": "Le\u015bna",
                "addr:housenumber": "14",
                "addr:city:simc": 546549,
                "addr:street:sym_ul": 10898,
                "phone": "+48 447421213",
                "email": "jar_sp@wp.pl",
                "website": "http:\/\/spjarosty.moszczenica.eu\/",
                "ref:regon": "001161060",
                "ref:vatin": "PL7712280117",
                "operator": "Gmina Moszczenica",
                "operator:type": "government",
                "amenity": "school"
            }
        },
        {
            "id": 121322,
            "type": "Feature",
            "geometry": {
                "type": "Point",
                "coordinates": [
                    19.68317,
                    51.46246
                ]
            },
            "properties": {
                "ref:rspo": 121322,
                "official_name": "Przedszkole Niepubliczne \"Promyk\"",
                "name": "Przedszkole Niepubliczne \"Promyk\"",
                "addr:postcode": "97-310",
                "addr:city": "Jarosty",
                "addr:street": "Nowa",
                "addr:housenumber": "93",
                "addr:city:simc": 546549,
                "addr:street:sym_ul": 14330,
                "phone": "+48 502349579",
                "email": "przedszkole.promyk.ema@gmail.com",
                "ref:regon": "101711651",
                "operator": "Przedszkole Niepubliczne \"Promyk\" Sp\u00f3\u0142ka Cywilna Aneta Grochala, Ewa Kolbus, Marzanna Mierzejewska",
                "operator:type": "consortium",
                "amenity": "kindergarten"
            }
        },
        {
            "id": 273273,
            "type": "Feature",
            "geometry": {
                "type": "Point",
                "coordinates": [
                    19.68317,
                    51.46243
                ]
            },
            "properties": {
                "ref:rspo": 273273,
                "official_name": "Przedszkole Niepubliczne \"Promyk\"",
                "name": "Przedszkole Niepubliczne \"Promyk\"",
                "addr:postcode": "97-310",
                "addr:city": "Jarosty",
                "addr:street": "Nowa",
                "addr:housenumber": "93",
                "addr:city:simc": 546549,
                "addr:street:sym_ul": 14330,
                "email": "ewakolbus@gmail.com",
                "ref:regon": "384426974",
                "operator": "Przedszkole Niepubliczne \"Promyk\" Sp\u00f3\u0142ka Cywilna Aneta Grochala, Ewa Kolbus, Marzanna Mierzejewska",
                "operator:type": "consortium",
                "amenity": "kindergarten"
            }
        },
        {
            "id": 8713,
            "type": "Feature",
            "geometry": {
                "type": "Point",
                "coordinates": [
                    19.71506,
                    51.49484
                ]
            },
            "properties": {
                "ref:rspo": 8713,
                "official_name": "Przedszkole Niepubliczne \"Stokrotka\"",
                "name": "Przedszkole Niepubliczne \"Stokrotka\"",
                "addr:postcode": "97-310",
                "addr:city": "Wola Moszczenicka",
                "addr:street": "Prosze\u0144ska",
                "addr:housenumber": "12d",
                "addr:city:simc": 546874,
                "addr:street:sym_ul": 17550,
                "phone": "+48 509763880",
                "ref:regon": "101461680",
                "operator": "Karolina Podlecka",
                "operator:type": "private",
                "amenity": "kindergarten"
            }
        },
        {
            "id": 24075,
            "type": "Feature",
            "geometry": {
                "type": "Point",
                "coordinates": [
                    19.74211,
                    51.49789
                ]
            },
            "properties": {
                "isced:level": "1;2",
                "ref:rspo": 24075,
                "official_name": "Szko\u0142a Podstawowa im. \u015aw. Jana Paw\u0142a II w Gazomi",
                "name": "Szko\u0142a Podstawowa",
                "addr:postcode": "97-310",
                "addr:place": "Gazomia Stara",
                "addr:housenumber": "29",
                "addr:city:simc": 546868,
                "phone": "+48 446169581",
                "email": "gazomia@interia.pl",
                "ref:regon": "001161024",
                "ref:vatin": "PL7712384377",
                "operator": "Gmina Moszczenica",
                "operator:type": "government",
                "amenity": "school"
            }
        },
        {
            "id": 28121,
            "type": "Feature",
            "geometry": {
                "type": "Point",
                "coordinates": [
                    19.7098799,
                    51.50016
                ]
            },
            "properties": {
                "ref:rspo": 28121,
                "official_name": "Przedszkole Niepubliczne \"Krasnal\" Ewa Marci\u0144czak - Pisarek",
                "name": "Przedszkole Niepubliczne \"Krasnal\" Ewa Marci\u0144czak - Pisarek",
                "addr:postcode": "97-310",
                "addr:city": "Moszczenica",
                "addr:street": "Dworcowa",
                "addr:housenumber": "1",
                "addr:city:simc": 546621,
                "addr:street:sym_ul": 4434,
                "phone": "+48 446169629",
                "email": "ewa.marcinczak@gmail.com",
                "ref:regon": "101481553",
                "ref:vatin": "PL7712642075",
                "operator": "Ewa Marci\u0144czak - Pisarek",
                "operator:type": "private",
                "amenity": "kindergarten"
            }
        },
        {
            "id": 28119,
            "type": "Feature",
            "geometry": {
                "type": "Point",
                "coordinates": [
                    19.70091,
                    51.5020499
                ]
            },
            "properties": {
                "isced:level": "1;2",
                "ref:rspo": 28119,
                "official_name": "Szko\u0142a Podstawowa im. \u015aw. Stanis\u0142awa Kostki w Moszczenicy",
                "name": "Szko\u0142a Podstawowa",
                "addr:postcode": "97-310",
                "addr:city": "Moszczenica",
                "addr:street": "Dworcowa",
                "addr:housenumber": "9",
                "addr:city:simc": 546621,
                "addr:street:sym_ul": 4434,
                "phone": "+48 446169500",
                "email": "sekretariat@sp.moszczenica.eu",
                "website": "http:\/\/www.sp.moszczenica.eu",
                "ref:regon": "001161076",
                "ref:vatin": "PL7712171397",
                "operator": "Gmina Moszczenica",
                "operator:type": "government",
                "amenity": "school"
            }
        },
        {
            "id": 28122,
            "type": "Feature",
            "geometry": {
                "type": "Point",
                "coordinates": [
                    19.71278,
                    51.50409
                ]
            },
            "properties": {
                "ref:rspo": 28122,
                "official_name": "Przedszkole \"Bogu\u015b\"",
                "name": "Przedszkole \"Bogu\u015b\"",
                "addr:postcode": "97-310",
                "addr:city": "Moszczenica",
                "addr:street": "Cmentarna",
                "addr:housenumber": "6",
                "addr:city:simc": 546621,
                "addr:street:sym_ul": 3114,
                "phone": "+48 509800061",
                "email": "kontakt@przedszkole-bogus.pl",
                "ref:regon": "101481576",
                "ref:vatin": "PL7711561707",
                "operator": "Bogumi\u0142 Nurkowski",
                "operator:type": "private",
                "amenity": "kindergarten"
            }
        },
        {
            "id": 278783,
            "type": "Feature",
            "geometry": {
                "type": "Point",
                "coordinates": [
                    19.71278,
                    51.504059999999996
                ]
            },
            "properties": {
                "ref:rspo": 278783,
                "official_name": "Niepubliczne Przedszkole Katolickie im. B\u0142. Kard. Stefana Wyszy\u0144skiego Przy Parafii Pw. Podwy\u017cszenia \u015awi\u0119tego Krzy\u017ca w Moszczenicy",
                "name": "Niepubliczne Przedszkole Katolickie",
                "addr:postcode": "97-310",
                "addr:city": "Moszczenica",
                "addr:street": "Cmentarna",
                "addr:housenumber": "6",
                "addr:city:simc": 546621,
                "addr:street:sym_ul": 3114,
                "phone": "+48 446169476",
                "ref:regon": "520067208",
                "operator": "Rzymskokatolicka Parafia Podwy\u017cszenia \u015aw.krzy\u017ca",
                "operator:type": "religious",
                "amenity": "kindergarten"
            }
        },
        {
            "id": 110278,
            "type": "Feature",
            "geometry": {
                "type": "Point",
                "coordinates": [
                    19.63665,
                    51.51054
                ]
            },
            "properties": {
                "ref:rspo": 110278,
                "official_name": "Punkt Przedszkolny \"Tiku\u015b\"",
                "name": "Punkt Przedszkolny \"Tiku\u015b\"",
                "addr:postcode": "97-310",
                "addr:place": "R\u0119koraj",
                "addr:housenumber": "52",
                "addr:city:simc": 546785,
                "phone": "+48 446160310",
                "email": "rekoraj52@wp.pl",
                "ref:regon": "101560821",
                "operator": "Stowarzyszenie Tw\u00f3rcza Inicjatywa Kulturalno-O\u015bwiatowa",
                "operator:type": "ngo",
                "amenity": "kindergarten"
            }
        },
        {
            "id": 119887,
            "type": "Feature",
            "geometry": {
                "type": "Point",
                "coordinates": [
                    19.63665,
                    51.51051
                ]
            },
            "properties": {
                "isced:level": "1;2",
                "ref:rspo": 119887,
                "official_name": "Szko\u0142a Podstawowa w R\u0119koraju",
                "name": "Szko\u0142a Podstawowa w R\u0119koraju",
                "addr:postcode": "97-310",
                "addr:place": "R\u0119koraj",
                "addr:housenumber": "52",
                "addr:city:simc": 546785,
                "phone": "+48 446160310",
                "email": "rekoraj52@wp.pl",
                "ref:regon": "101664199",
                "operator": "Stowarzyszenie Tw\u00f3rcza Inicjatywa Kulturalno-O\u015bwiatowa",
                "operator:type": "ngo",
                "amenity": "school"
            }
        },
        {
            "id": 31890,
            "type": "Feature",
            "geometry": {
                "type": "Point",
                "coordinates": [
                    19.62725,
                    51.53272
                ]
            },
            "properties": {
                "isced:level": "1;2",
                "ref:rspo": 31890,
                "official_name": "Szko\u0142a Podstawowa w Srocku",
                "name": "Szko\u0142a Podstawowa w Srocku",
                "addr:postcode": "97-310",
                "addr:city": "Srock",
                "addr:street": "\u0141\u00f3dzka",
                "addr:housenumber": "5",
                "addr:city:simc": 546839,
                "addr:street:sym_ul": 11710,
                "phone": "+48 446160366",
                "email": "spsrock@interia.pl",
                "ref:regon": "001161047",
                "ref:vatin": "PL7712773682",
                "operator": "Gmina Moszczenica",
                "operator:type": "government",
                "amenity": "school"
            }
        },
        {
            "id": 24073,
            "type": "Feature",
            "geometry": {
                "type": "Point",
                "coordinates": [
                    19.71237,
                    51.53588
                ]
            },
            "properties": {
                "isced:level": "1;2",
                "ref:rspo": 24073,
                "official_name": "Szko\u0142a Podstawowa im. Janusza Korczaka w Babach",
                "name": "Szko\u0142a Podstawowa",
                "addr:postcode": "97-310",
                "addr:city": "Baby",
                "addr:street": "Piotrkowska",
                "addr:housenumber": "20",
                "addr:city:simc": 546383,
                "addr:street:sym_ul": 16308,
                "phone": "+48 446169618",
                "email": "sekretariat@spbaby.moszczenica.eu",
                "ref:regon": "001161018",
                "ref:vatin": "PL7711989931",
                "operator": "Gmina Moszczenica",
                "operator:type": "government",
                "amenity": "school"
            }
        }
    ]
}