{"type":"FeatureCollection","features":[{"id":79856,"type":"Feature","geometry":{"type":"Point","coordinates":[19.67902,51.25672]},"properties":{"isced:level":"1;2","ref:rspo":79856,"official_name":"Szko\u0142a Podstawowa im. \u015aw. Miko\u0142aja w Mierzynie","name":"Szko\u0142a Podstawowa","addr:country":"PL","addr:postcode":"97-340","addr:place":"Mierzyn","addr:housenumber":"134","addr:teryt:sym_ul":550539,"contact:phone":"+48 446158123","contact:email":"spmierzyn@op.pl","contact:website":"http:\/\/www.spmierzyn.szkolnastrona.pl","ref:regon":"001160651","ref:vatin":"PL7712536752","operator":"Gmina Rozprza","operator:type":"government","amenity":"school"}},{"id":88891,"type":"Feature","geometry":{"type":"Point","coordinates":[19.58137,51.26671]},"properties":{"isced:level":"1;2","ref:rspo":88891,"official_name":"Szko\u0142a Podstawowa im. Marii Konopnickiej w Niechcicach","name":"Szko\u0142a Podstawowa","addr:country":"PL","addr:postcode":"97-340","addr:city":"Niechcice","addr:street":"ul. Cz\u0119stochowska","addr:housenumber":"27","addr:teryt:simc":3458,"addr:teryt:sym_ul":550628,"contact:phone":"+48 446150685","contact:email":"spniechcice@rozprza.pl","ref:regon":"001160622","ref:vatin":"PL7712539093","operator":"Gmina Rozprza","operator:type":"government","amenity":"school"}},{"id":85212,"type":"Feature","geometry":{"type":"Point","coordinates":[19.57971,51.2669799]},"properties":{"isced:level":"1;2","ref:rspo":85212,"official_name":"Szko\u0142a Podstawowa im. J. Pawlikowskiego w Rozprzy","name":"Szko\u0142a Podstawowa","addr:country":"PL","addr:postcode":"97-340","addr:city":"Rozprza","addr:street":"ul. Szkolna","addr:housenumber":"1","addr:teryt:simc":21970,"addr:teryt:sym_ul":550717,"contact:phone":"+48 446154136","contact:email":"szkolaporozprza@wp.pl","contact:website":"http:\/\/www.sprozprza.om.pl","ref:regon":"000273034","ref:vatin":"PL7712654285","operator":"Gmina Rozprza","operator:type":"government","amenity":"school"}},{"id":269007,"type":"Feature","geometry":{"type":"Point","coordinates":[19.57746,51.26734]},"properties":{"ref:rspo":269007,"official_name":"Przedszkole Niepubliczne \"Akademia Malucha\" w Rozprzy","name":"Przedszkole Niepubliczne \"Akademia Malucha\" w Rozprzy","addr:country":"PL","addr:postcode":"97-340","addr:city":"Rozprza","addr:street":"ul. Szkolna","addr:housenumber":"2","addr:teryt:simc":21970,"addr:teryt:sym_ul":550717,"contact:phone":"+48 664423553","contact:email":"aladkz@o2.pl","ref:regon":"381329650","operator":"Przedszkola Niepubliczne Akademia Malucha Sp\u00f3\u0142ka Z Ograniczon\u0105 Odpowiedzialno\u015bci\u0105","operator:type":"private","amenity":"kindergarten"}},{"id":85263,"type":"Feature","geometry":{"type":"Point","coordinates":[19.5891,51.26924]},"properties":{"ref:rspo":85263,"official_name":"Przedszkole w Niechcicach","name":"Przedszkole w Niechcicach","addr:country":"PL","addr:postcode":"97-340","addr:city":"Niechcice","addr:street":"os. Osiedle Przylesie","addr:housenumber":"24","addr:teryt:simc":39468,"addr:teryt:sym_ul":550628,"contact:phone":"+48 446103623","contact:email":"przedszkole.niechcice@gmail.com","contact:website":"http:\/\/www.pniechcice.szkolnastrona.pl","ref:regon":"590748508","ref:vatin":"PL7711957724","operator":"Gmina Rozprza","operator:type":"government","amenity":"kindergarten"}},{"id":114586,"type":"Feature","geometry":{"type":"Point","coordinates":[19.7906799,51.27406]},"properties":{"ref:rspo":114586,"official_name":"Punkt Przedszkolny Stowarzyszenia Przyjaci\u00f3\u0142 Szk\u00f3\u0142 Katolickich","name":"Punkt Przedszkolny Stowarzyszenia Przyjaci\u00f3\u0142 Szk\u00f3\u0142 Katolickich","addr:country":"PL","addr:postcode":"97-340","addr:place":"Lubie\u0144","addr:housenumber":"76","addr:teryt:sym_ul":550485,"contact:phone":"+48 508681949","contact:email":"spsk.klementynow@wp.pl","ref:regon":"101603447","operator":"Stowarzyszenie Przyjaci\u00f3\u0142 Szk\u00f3\u0142 Katolickich","operator:type":"ngo","amenity":"kindergarten"}},{"id":79055,"type":"Feature","geometry":{"type":"Point","coordinates":[19.63622,51.2815]},"properties":{"isced:level":"1;2","ref:rspo":79055,"official_name":"Szko\u0142a Podstawowa w Nowej Wsi","name":"Szko\u0142a Podstawowa w Nowej Wsi","addr:country":"PL","addr:postcode":"97-340","addr:place":"Nowa Wie\u015b","addr:housenumber":"84","addr:teryt:sym_ul":1040160,"contact:phone":"+48 446158142","contact:email":"spnw@op.pl","contact:website":"http:\/\/www.spnowawies.szkolnastrona.pl","ref:regon":"001160645","ref:vatin":"PL7712539070","operator":"Gmina Rozprza","operator:type":"government","amenity":"school"}},{"id":86391,"type":"Feature","geometry":{"type":"Point","coordinates":[19.69738,51.29393]},"properties":{"isced:level":"1;2","ref:rspo":86391,"official_name":"Szko\u0142a Podstawowa im. Zofii Grzybowskiej w Straszowie","name":"Szko\u0142a Podstawowa","addr:country":"PL","addr:postcode":"97-340","addr:place":"Strasz\u00f3w","addr:housenumber":"70","addr:teryt:sym_ul":550769,"contact:phone":"+48 446158014","contact:email":"sp.straszow@wp.pl","contact:website":"http:\/\/www.spstraszow.szkolnastrona.pl","ref:regon":"001160674","ref:vatin":"PL7711965066","operator":"Gmina Rozprza","operator:type":"government","amenity":"school"}},{"id":269578,"type":"Feature","geometry":{"type":"Point","coordinates":[19.63963,51.29659]},"properties":{"ref:rspo":269578,"official_name":"Centrum Kszta\u0142cenia \"Expertis\" w Rozprzy","name":"Centrum Kszta\u0142cenia \"Expertis\" w Rozprzy","addr:country":"PL","addr:postcode":"97-340","addr:city":"Rozprza","addr:street":"ul. Legion\u00f3w Polskich","addr:housenumber":"46A","addr:teryt:simc":10775,"addr:teryt:sym_ul":550717,"contact:email":"sekretariat@ck-edukat.pl","contact:website":"http:\/\/www.ck-edukat.pl","ref:regon":"381563707","operator":"Dominika Kraso\u0144-Paw\u0142owska","operator:type":"private","fixme":"w zale\u017cno\u015bci od przedmiotu dzia\u0142alno\u015bci (np. amenity=training + training=*, amenity=dancing_school, amenity=language_school, amenity=music_school)"}},{"id":88460,"type":"Feature","geometry":{"type":"Point","coordinates":[19.63655,51.3042]},"properties":{"ref:rspo":88460,"official_name":"Przedszkole w Rozprzy","name":"Przedszkole w Rozprzy","addr:country":"PL","addr:postcode":"97-340","addr:city":"Rozprza","addr:street":"ul. Ko\u015bciuszki","addr:housenumber":"45B","addr:teryt:simc":9572,"addr:teryt:sym_ul":550717,"contact:phone":"+48 516172199","contact:email":"przedszkole_sekretariat@wp.pl","ref:regon":"590747354","ref:vatin":"PL7711164449","operator":"Gmina Rozprza","operator:type":"government","amenity":"kindergarten"}},{"id":263062,"type":"Feature","geometry":{"type":"Point","coordinates":[19.64499,51.30674]},"properties":{"ref:rspo":263062,"official_name":"Przedszkole Niepubliczne Dwuj\u0119zyczno-Ekologiczne \"Bajkowo\" w Rozprzy","name":"Przedszkole Niepubliczne Dwuj\u0119zyczno-Ekologiczne \"Bajkowo\" w Rozprzy","addr:country":"PL","addr:postcode":"97-340","addr:city":"Rozprza","addr:street":"ul. Sportowa","addr:housenumber":"30C","addr:teryt:simc":20683,"addr:teryt:sym_ul":550717,"contact:phone":"+48 729360446","contact:email":"biuro@bajkowo-rozprza.pl","ref:regon":"368097796","operator":"\u0141ukasz Bieli\u0144ski","operator:type":"private","amenity":"kindergarten"}},{"id":87726,"type":"Feature","geometry":{"type":"Point","coordinates":[19.7093247,51.3491415]},"properties":{"isced:level":"1;2","ref:rspo":87726,"official_name":"Szko\u0142a Podstawowa im. Pp\u0142k. Stanis\u0142awa Sienkiewicza w Milejowie","name":"Szko\u0142a Podstawowa","addr:country":"PL","addr:postcode":"97-340","addr:city":"Milej\u00f3w","addr:street":"ul. Szkolna","addr:housenumber":"12","addr:teryt:simc":21970,"addr:teryt:sym_ul":550605,"contact:phone":"+48 446161723","contact:email":"spmilejow@tlen.pl","contact:website":"http:\/\/www.spmilejow.hekko.pl","ref:regon":"001160639","ref:vatin":"PL7712536812","operator":"Gmina Rozprza","operator:type":"government","amenity":"school"}}]}