{
    "type": "FeatureCollection",
    "features": [
        {
            "id": 6225,
            "type": "Feature",
            "geometry": {
                "type": "Point",
                "coordinates": [
                    19.59668,
                    51.44349
                ]
            },
            "properties": {
                "ref:rspo": 6225,
                "official_name": "Zesp\u00f3\u0142 Szk\u00f3\u0142 Ponadpodstawowych Centrum Kszta\u0142cenia Ustawicznego im. W\u0142adys\u0142awa Stanis\u0142awa Reymonta w Szyd\u0142owie",
                "name": "Zesp\u00f3\u0142 Szk\u00f3\u0142 Ponadpodstawowych Centrum Kszta\u0142cenia Ustawicznego",
                "addr:postcode": "97-306",
                "addr:place": "Szyd\u0142\u00f3w",
                "addr:housenumber": "57",
                "addr:city:simc": 540794,
                "phone": "+48 446171401",
                "email": "zspszydlow@op.pl",
                "website": "http:\/\/www.zspckuszydlow.pl",
                "ref:regon": "000981216",
                "ref:vatin": "PL7711633714",
                "operator": "Gmina Grabica",
                "operator:type": "government",
                "landuse": "education",
                "fixme": "amenity=school, amenity=college albo landuse=education w zale\u017cno\u015bci od tego, jakie plac\u00f3wki wchodz\u0105 w sk\u0142ad zespo\u0142u. Sprawd\u017a, kiedy stosowa\u0107 amenity=* a kiedy landuse=education.",
                "note": "Children RSPO: 10408;40097;89621;89627;263302"
            }
        },
        {
            "id": 10408,
            "type": "Feature",
            "geometry": {
                "type": "Point",
                "coordinates": [
                    19.59668,
                    51.443459999999995
                ]
            },
            "properties": {
                "isced:level": "3",
                "ref:rspo": 10408,
                "official_name": "Liceum Og\u00f3lnokszta\u0142c\u0105ce dla Doros\u0142ych w Szyd\u0142owie",
                "name": "Liceum Og\u00f3lnokszta\u0142c\u0105ce dla Doros\u0142ych w Szyd\u0142owie",
                "addr:postcode": "97-306",
                "addr:place": "Szyd\u0142\u00f3w",
                "addr:housenumber": "57",
                "addr:city:simc": 540794,
                "phone": "+48 446171401",
                "email": "zspszydlow@op.pl",
                "website": "http:\/\/www.zspszydlow.pl",
                "ref:regon": "101462277",
                "operator": "Gmina Grabica",
                "operator:type": "government",
                "amenity": "school",
                "note": "Parent RSPO: 6225"
            }
        },
        {
            "id": 40097,
            "type": "Feature",
            "geometry": {
                "type": "Point",
                "coordinates": [
                    19.59668,
                    51.44343
                ]
            },
            "properties": {
                "isced:level": "3",
                "ref:rspo": 40097,
                "official_name": "Technikum w Szyd\u0142owie",
                "name": "Technikum w Szyd\u0142owie",
                "addr:postcode": "97-306",
                "addr:place": "Szyd\u0142\u00f3w",
                "addr:housenumber": "57",
                "addr:city:simc": 540794,
                "phone": "+48 446171401",
                "email": "zspszydlow@op.pl",
                "website": "http:\/\/www.zspckuszydlow.pl",
                "ref:regon": "100247625",
                "operator": "Gmina Grabica",
                "operator:type": "government",
                "amenity": "school",
                "note": "Parent RSPO: 6225"
            }
        },
        {
            "id": 89621,
            "type": "Feature",
            "geometry": {
                "type": "Point",
                "coordinates": [
                    19.59668,
                    51.4434
                ]
            },
            "properties": {
                "isced:level": "3",
                "ref:rspo": 89621,
                "official_name": "Bran\u017cowa Szko\u0142a I Stopnia w Szyd\u0142owie",
                "name": "Bran\u017cowa Szko\u0142a I Stopnia w Szyd\u0142owie",
                "addr:postcode": "97-306",
                "addr:place": "Szyd\u0142\u00f3w",
                "addr:housenumber": "57",
                "addr:city:simc": 540794,
                "phone": "+48 446171401",
                "email": "zspszydlow@op.pl",
                "website": "http:\/\/www.zspszydlow.pl",
                "ref:regon": "592264016",
                "operator": "Gmina Grabica",
                "operator:type": "government",
                "amenity": "school",
                "note": "Parent RSPO: 6225"
            }
        },
        {
            "id": 89627,
            "type": "Feature",
            "geometry": {
                "type": "Point",
                "coordinates": [
                    19.59668,
                    51.443369999999994
                ]
            },
            "properties": {
                "isced:level": "4",
                "ref:rspo": 89627,
                "official_name": "Szko\u0142a Policealna w Szyd\u0142owie",
                "name": "Szko\u0142a Policealna w Szyd\u0142owie",
                "addr:postcode": "97-306",
                "addr:place": "Szyd\u0142\u00f3w",
                "addr:housenumber": "57",
                "addr:city:simc": 540794,
                "phone": "+48 446171401",
                "email": "zspszydlow@op.pl",
                "website": "http:\/\/www.zspszydlow.pl",
                "ref:regon": "592264855",
                "operator": "Gmina Grabica",
                "operator:type": "government",
                "amenity": "college",
                "note": "Parent RSPO: 6225"
            }
        },
        {
            "id": 263302,
            "type": "Feature",
            "geometry": {
                "type": "Point",
                "coordinates": [
                    19.59668,
                    51.44334
                ]
            },
            "properties": {
                "ref:rspo": 263302,
                "official_name": "Centrum Kszta\u0142cenia Ustawicznego w Szyd\u0142owie",
                "name": "Centrum Kszta\u0142cenia Ustawicznego w Szyd\u0142owie",
                "addr:postcode": "97-306",
                "addr:place": "Szyd\u0142\u00f3w",
                "addr:housenumber": "57",
                "addr:city:simc": 540794,
                "phone": "+48 446171401",
                "email": "zspszydlow@op.pl",
                "website": "http:\/\/zspszydlow.pl",
                "ref:regon": "368179063",
                "operator": "Gmina Grabica",
                "operator:type": "government",
                "fixme": "w zale\u017cno\u015bci od przedmiotu dzia\u0142alno\u015bci (np. amenity=training + training=*, amenity=dancing_school, amenity=language_school, amenity=music_school)",
                "note": "Parent RSPO: 6225"
            }
        },
        {
            "id": 47739,
            "type": "Feature",
            "geometry": {
                "type": "Point",
                "coordinates": [
                    19.58274,
                    51.45732
                ]
            },
            "properties": {
                "isced:level": "1;2",
                "ref:rspo": 47739,
                "official_name": "Szko\u0142a Podstawowa im. Wincentego Witosa w Szyd\u0142owie",
                "name": "Szko\u0142a Podstawowa",
                "addr:postcode": "97-306",
                "addr:place": "Szyd\u0142\u00f3w-Kolonia",
                "addr:housenumber": "47",
                "addr:city:simc": 540802,
                "phone": "+48 446171026",
                "email": "spwitos@op.pl",
                "website": "http:\/\/spwitos.edupage.org",
                "ref:regon": "001160480",
                "ref:vatin": "PL7712554709",
                "operator": "Gmina Grabica",
                "operator:type": "government",
                "amenity": "school"
            }
        },
        {
            "id": 46846,
            "type": "Feature",
            "geometry": {
                "type": "Point",
                "coordinates": [
                    19.6402,
                    51.47225
                ]
            },
            "properties": {
                "isced:level": "1;2",
                "ref:rspo": 46846,
                "official_name": "Szko\u0142a Podstawowa im. Adama Mickiewicza w Brzozie",
                "name": "Szko\u0142a Podstawowa",
                "addr:postcode": "97-306",
                "addr:place": "Brzoza",
                "addr:housenumber": "18",
                "addr:city:simc": 540297,
                "phone": "+48 446462013",
                "email": "spbrzoza@op.pl",
                "website": "http:\/\/spbrzoza.edupage.org",
                "ref:regon": "001160473",
                "ref:vatin": "PL7712530258",
                "operator": "Gmina Grabica",
                "operator:type": "government",
                "amenity": "school"
            }
        },
        {
            "id": 131919,
            "type": "Feature",
            "geometry": {
                "type": "Point",
                "coordinates": [
                    19.6402,
                    51.47222
                ]
            },
            "properties": {
                "ref:rspo": 131919,
                "official_name": "Niepubliczny Punkt Przedszkolny \"Akademia Maluszka\"",
                "name": "Niepubliczny Punkt Przedszkolny \"Akademia Maluszka\"",
                "addr:postcode": "97-306",
                "addr:place": "Brzoza",
                "addr:housenumber": "18",
                "addr:city:simc": 540297,
                "phone": "+48 446161991",
                "email": "przedszkolebrzoza@op.pl",
                "ref:regon": "365380586",
                "operator": "Stowarzyszenie Rozwoju Wsi Brzoza I Okolice",
                "operator:type": "ngo",
                "amenity": "kindergarten"
            }
        },
        {
            "id": 49690,
            "type": "Feature",
            "geometry": {
                "type": "Point",
                "coordinates": [
                    19.51453,
                    51.47778
                ]
            },
            "properties": {
                "isced:level": "1;2",
                "ref:rspo": 49690,
                "official_name": "Szko\u0142a Podstawowa im. Janiny Porazi\u0144skiej w Boryszowie",
                "name": "Szko\u0142a Podstawowa",
                "addr:postcode": "97-306",
                "addr:place": "Borysz\u00f3w",
                "addr:housenumber": "2",
                "addr:city:simc": 540245,
                "phone": "+48 446161118",
                "email": "spboryszow@wp.pl",
                "website": "http:\/\/www.spboryszow.2be.pl",
                "ref:regon": "000756548",
                "ref:vatin": "PL7712531364",
                "operator": "Gmina Grabica",
                "operator:type": "government",
                "amenity": "school"
            }
        },
        {
            "id": 49971,
            "type": "Feature",
            "geometry": {
                "type": "Point",
                "coordinates": [
                    19.53039,
                    51.47964
                ]
            },
            "properties": {
                "ref:rspo": 49971,
                "official_name": "Punkt Przedszkolny \"Poziomka\"",
                "name": "Punkt Przedszkolny \"Poziomka\"",
                "addr:postcode": "97-306",
                "addr:place": "Grabica",
                "addr:housenumber": "66",
                "addr:city:simc": 540386,
                "phone": "+48 519140400",
                "ref:regon": "101488354",
                "ref:vatin": "PL7712599646",
                "operator": "Szyd\u0142owskie Stowarzyszenie Pomocy Dzieciom \"Przyjazny K\u0105t\"",
                "operator:type": "ngo",
                "amenity": "kindergarten"
            }
        },
        {
            "id": 47952,
            "type": "Feature",
            "geometry": {
                "type": "Point",
                "coordinates": [
                    19.56337,
                    51.48362
                ]
            },
            "properties": {
                "isced:level": "1;2",
                "ref:rspo": 47952,
                "official_name": "Szko\u0142a Podstawowa im. Henryka Sienkiewicza w Woli Kamockiej",
                "name": "Szko\u0142a Podstawowa",
                "addr:postcode": "97-306",
                "addr:place": "Wola Kamocka",
                "addr:housenumber": "30",
                "addr:city:simc": 540854,
                "phone": "+48 446161110",
                "email": "spwolka@op.pl",
                "website": "https:\/\/sp-wolakamocka.edupage.org\/",
                "ref:regon": "001160496",
                "ref:vatin": "PL7712554678",
                "operator": "Gmina Grabica",
                "operator:type": "government",
                "amenity": "school"
            }
        }
    ]
}