{
    "type": "FeatureCollection",
    "features": [
        {
            "id": 49240,
            "type": "Feature",
            "geometry": {
                "type": "Point",
                "coordinates": [
                    17.89671,
                    50.40729
                ]
            },
            "properties": {
                "ref:rspo": 49240,
                "official_name": "Zesp\u00f3\u0142 Szkolno-Przedszkolny w K\u00f3rnicy",
                "name": "Zesp\u00f3\u0142 Szkolno-Przedszkolny w K\u00f3rnicy",
                "addr:postcode": "47-300",
                "addr:city": "K\u00f3rnica",
                "addr:street": "G\u0142\u00f3wna",
                "addr:housenumber": "2",
                "addr:teryt:simc": 497242,
                "addr:teryt:sym_ul": 5635,
                "phone": "+48 774673108",
                "email": "zspkornica@krapkowice.pl",
                "website": "http:\/\/www.kornica.pl",
                "ref:regon": "160259308",
                "ref:vatin": "PL1990087548",
                "operator": "Gmina Krapkowice",
                "operator:type": "government",
                "landuse": "education",
                "fixme": "amenity=school, amenity=college albo landuse=education w zale\u017cno\u015bci od tego, jakie plac\u00f3wki wchodz\u0105 w sk\u0142ad zespo\u0142u. Sprawd\u017a, kiedy stosowa\u0107 amenity=* a kiedy landuse=education.",
                "note": "Children RSPO: 110001;111987"
            }
        },
        {
            "id": 110001,
            "type": "Feature",
            "geometry": {
                "type": "Point",
                "coordinates": [
                    17.89671,
                    50.40726
                ]
            },
            "properties": {
                "isced:level": "1;2",
                "ref:rspo": 110001,
                "official_name": "Zesp\u00f3\u0142 Szkolno-Przedszkolny w K\u00f3rnicy Publiczna Szko\u0142a Podstawowa w K\u00f3rnicy",
                "name": "Zesp\u00f3\u0142 Szkolno-Przedszkolny w K\u00f3rnicy Publiczna Szko\u0142a Podstawowa w K\u00f3rnicy",
                "addr:postcode": "47-300",
                "addr:city": "K\u00f3rnica",
                "addr:street": "G\u0142\u00f3wna",
                "addr:housenumber": "2",
                "addr:teryt:simc": 497242,
                "addr:teryt:sym_ul": 5635,
                "phone": "+48 744673108",
                "email": "zspkornica@krapkowice.pl",
                "website": "http:\/\/www.spkornica.wodip.opole.pl",
                "ref:regon": "000769462",
                "ref:vatin": "PL7551763163",
                "operator": "Gmina Krapkowice",
                "operator:type": "government",
                "amenity": "school",
                "note": "Parent RSPO: 49240"
            }
        },
        {
            "id": 111987,
            "type": "Feature",
            "geometry": {
                "type": "Point",
                "coordinates": [
                    17.89671,
                    50.407230000000006
                ]
            },
            "properties": {
                "ref:rspo": 111987,
                "official_name": "Zesp\u00f3\u0142 Szkolno-Przedszkolny w K\u00f3rnicy Przedszkole Publiczne w K\u00f3rnicy",
                "name": "Zesp\u00f3\u0142 Szkolno-Przedszkolny w K\u00f3rnicy Przedszkole Publiczne w K\u00f3rnicy",
                "addr:postcode": "47-300",
                "addr:city": "K\u00f3rnica",
                "addr:street": "G\u0142\u00f3wna",
                "addr:housenumber": "2",
                "addr:teryt:simc": 497242,
                "addr:teryt:sym_ul": 5635,
                "phone": "+48 774673108",
                "email": "zspkornica@krapkowice.pl",
                "website": "http:\/\/www.spkornica.wodip.opole.pl",
                "ref:regon": "530579840",
                "ref:vatin": "PL7551695958",
                "operator": "Gmina Krapkowice",
                "operator:type": "government",
                "amenity": "kindergarten",
                "note": "Parent RSPO: 49240"
            }
        },
        {
            "id": 85036,
            "type": "Feature",
            "geometry": {
                "type": "Point",
                "coordinates": [
                    17.93433,
                    50.45653
                ]
            },
            "properties": {
                "isced:level": "1;2",
                "ref:rspo": 85036,
                "official_name": "Stowarzyszeniowa Publiczna Szko\u0142a Podstawowa w Steblowie",
                "name": "Stowarzyszeniowa Publiczna Szko\u0142a Podstawowa w Steblowie",
                "addr:postcode": "47-300",
                "addr:city": "Stebl\u00f3w",
                "addr:street": "Szkolna",
                "addr:housenumber": "2",
                "addr:teryt:simc": 497331,
                "addr:teryt:sym_ul": 21970,
                "phone": "+48 774661521",
                "email": "srwsteblow@interia.pl",
                "website": "http:\/\/spspsteblow.edupage.org",
                "ref:regon": "161494572",
                "ref:vatin": "PL7551811034",
                "operator": "Stowarzyszenie Rozwoju Wsi Stebl\u00f3w",
                "operator:type": "ngo",
                "amenity": "school"
            }
        },
        {
            "id": 48190,
            "type": "Feature",
            "geometry": {
                "type": "Point",
                "coordinates": [
                    17.97034,
                    50.45876
                ]
            },
            "properties": {
                "isced:level": "1;2",
                "ref:rspo": 48190,
                "official_name": "Publiczna Szko\u0142a Podstawowa im. Jana Paw\u0142a II w \u017bywocicach",
                "name": "Publiczna Szko\u0142a Podstawowa",
                "addr:postcode": "47-300",
                "addr:city": "\u017bywocice",
                "addr:street": "\u015arednia",
                "addr:housenumber": "48",
                "addr:teryt:simc": 497408,
                "addr:teryt:sym_ul": 22409,
                "phone": "+48 774661733",
                "email": "pspzywocice@krapkowice.pl",
                "website": "http:\/\/www.pspzywocice.krapkowice.pl",
                "ref:regon": "000769456",
                "ref:vatin": "PL7551763157",
                "operator": "Gmina Krapkowice",
                "operator:type": "government",
                "amenity": "school"
            }
        },
        {
            "id": 84573,
            "type": "Feature",
            "geometry": {
                "type": "Point",
                "coordinates": [
                    17.96734,
                    50.46136
                ]
            },
            "properties": {
                "ref:rspo": 84573,
                "official_name": "Przedszkole Publiczne w \u017bywocicach",
                "name": "Przedszkole Publiczne w \u017bywocicach",
                "addr:postcode": "47-300",
                "addr:city": "\u017bywocice",
                "addr:street": "\u015arednia",
                "addr:housenumber": "19",
                "addr:teryt:simc": 497408,
                "addr:teryt:sym_ul": 22409,
                "phone": "+48 774661318",
                "email": "ppzywocice@krapkowice.pl",
                "website": "http:\/\/www.ppzywocice.krapkowice.pl",
                "ref:regon": "530579863",
                "ref:vatin": "PL7551695941",
                "operator": "Gmina Krapkowice",
                "operator:type": "government",
                "amenity": "kindergarten"
            }
        },
        {
            "id": 84574,
            "type": "Feature",
            "geometry": {
                "type": "Point",
                "coordinates": [
                    17.96506,
                    50.46241
                ]
            },
            "properties": {
                "ref:rspo": 84574,
                "official_name": "Przedszkole Publiczne Nr 6. im. T\u0119czowa Sz\u00f3steczka w Krapkowicach",
                "name": "Przedszkole Publiczne Nr 6.",
                "addr:postcode": "47-303",
                "addr:city": "Krapkowice",
                "addr:street": "Tomasza Baty",
                "addr:housenumber": "11",
                "addr:teryt:simc": 965677,
                "addr:teryt:sym_ul": 900,
                "phone": "+48 774665281",
                "email": "pp6@krapkowice.pl",
                "website": "http:\/\/www.pp6.krapkowice.pl",
                "ref:regon": "530579774",
                "ref:vatin": "PL7551696024",
                "operator": "Gmina Krapkowice",
                "operator:type": "government",
                "amenity": "kindergarten"
            }
        },
        {
            "id": 53167,
            "type": "Feature",
            "geometry": {
                "type": "Point",
                "coordinates": [
                    17.96525,
                    50.46305
                ]
            },
            "properties": {
                "ref:rspo": 53167,
                "official_name": "Zesp\u00f3\u0142 Szk\u00f3\u0142 im. Jana Kili\u0144skiego w Krapkowicach",
                "name": "Zesp\u00f3\u0142 Szk\u00f3\u0142",
                "addr:postcode": "47-303",
                "addr:city": "Krapkowice",
                "addr:street": "Ksi\u0119dza Duszy",
                "addr:housenumber": "7",
                "addr:teryt:simc": 965677,
                "addr:teryt:sym_ul": 43418,
                "phone": "+48 774663202",
                "email": "zskilinski@powiatkrapkowicki.pl",
                "website": "http:\/\/www.lo.krapkowice.pl",
                "ref:regon": "000193795",
                "ref:vatin": "PL7561533281",
                "operator": "Powiat Krapkowicki",
                "operator:type": "government",
                "landuse": "education",
                "fixme": "amenity=school, amenity=college albo landuse=education w zale\u017cno\u015bci od tego, jakie plac\u00f3wki wchodz\u0105 w sk\u0142ad zespo\u0142u. Sprawd\u017a, kiedy stosowa\u0107 amenity=* a kiedy landuse=education.",
                "note": "Children RSPO: 80619;80620"
            }
        },
        {
            "id": 80619,
            "type": "Feature",
            "geometry": {
                "type": "Point",
                "coordinates": [
                    17.96525,
                    50.46302
                ]
            },
            "properties": {
                "isced:level": "3",
                "ref:rspo": 80619,
                "official_name": "Liceum Og\u00f3lnokszta\u0142c\u0105ce w Krapkowicach",
                "name": "Liceum Og\u00f3lnokszta\u0142c\u0105ce w Krapkowicach",
                "addr:postcode": "47-303",
                "addr:city": "Krapkowice",
                "addr:street": "Ksi\u0119dza Duszy",
                "addr:housenumber": "7",
                "addr:teryt:simc": 965677,
                "addr:teryt:sym_ul": 43418,
                "phone": "+48 774663202",
                "email": "zskilinski@powiatkrapkowicki.pl",
                "website": "http:\/\/www.lo.krapkowice.pl",
                "ref:regon": "532382136",
                "operator": "Powiat Krapkowicki",
                "operator:type": "government",
                "amenity": "school",
                "note": "Parent RSPO: 53167"
            }
        },
        {
            "id": 80620,
            "type": "Feature",
            "geometry": {
                "type": "Point",
                "coordinates": [
                    17.96525,
                    50.462990000000005
                ]
            },
            "properties": {
                "isced:level": "3",
                "ref:rspo": 80620,
                "official_name": "Liceum Og\u00f3lnokszta\u0142c\u0105ce dla Doros\u0142ych w Krapkowicach",
                "name": "Liceum Og\u00f3lnokszta\u0142c\u0105ce dla Doros\u0142ych w Krapkowicach",
                "addr:postcode": "47-303",
                "addr:city": "Krapkowice",
                "addr:street": "Ksi\u0119dza Duszy",
                "addr:housenumber": "7",
                "addr:teryt:simc": 965677,
                "addr:teryt:sym_ul": 43418,
                "phone": "+48 774663202",
                "email": "zskilinski@powiatkrapkowicki.pl",
                "website": "http:\/\/www.lo.krapkowice.pl",
                "ref:regon": "160272438",
                "operator": "Powiat Krapkowicki",
                "operator:type": "government",
                "amenity": "school",
                "note": "Parent RSPO: 53167"
            }
        },
        {
            "id": 53472,
            "type": "Feature",
            "geometry": {
                "type": "Point",
                "coordinates": [
                    17.96818,
                    50.47429
                ]
            },
            "properties": {
                "ref:rspo": 53472,
                "official_name": "Zesp\u00f3\u0142 Szk\u00f3\u0142 Specjalnych im. Juliana Tuwima w Krapkowicach",
                "name": "Zesp\u00f3\u0142 Szk\u00f3\u0142 Specjalnych",
                "addr:postcode": "47-300",
                "addr:city": "Krapkowice",
                "addr:street": "Ko\u015bcielna",
                "addr:housenumber": "10",
                "addr:teryt:simc": 965677,
                "addr:teryt:sym_ul": 9546,
                "phone": "+48 774661417",
                "email": "zss.sekretariat@powiatkrapkowicki.pl",
                "website": "http:\/\/www.zss.powiatkrapkowicki.pl",
                "ref:regon": "000703836",
                "ref:vatin": "PL7551733239",
                "operator": "Powiat Krapkowicki",
                "operator:type": "government",
                "landuse": "education",
                "fixme": "amenity=school, amenity=college albo landuse=education w zale\u017cno\u015bci od tego, jakie plac\u00f3wki wchodz\u0105 w sk\u0142ad zespo\u0142u. Sprawd\u017a, kiedy stosowa\u0107 amenity=* a kiedy landuse=education.",
                "note": "Children RSPO: 80627;80629"
            }
        },
        {
            "id": 80627,
            "type": "Feature",
            "geometry": {
                "type": "Point",
                "coordinates": [
                    17.96818,
                    50.47426
                ]
            },
            "properties": {
                "isced:level": "1;2",
                "ref:rspo": 80627,
                "official_name": "Szko\u0142a Podstawowa Specjalna w Krapkowicach",
                "name": "Szko\u0142a Podstawowa Specjalna w Krapkowicach",
                "addr:postcode": "47-300",
                "addr:city": "Krapkowice",
                "addr:street": "Ko\u015bcielna",
                "addr:housenumber": "10",
                "addr:teryt:simc": 965677,
                "addr:teryt:sym_ul": 9546,
                "phone": "+48 774661417",
                "email": "zss.sekretariat@powiatkrapkowicki.pl",
                "website": "http:\/\/www.zss.powiatkrapkowicki.pl",
                "ref:regon": "532213971",
                "operator": "Powiat Krapkowicki",
                "operator:type": "government",
                "amenity": "school",
                "note": "Parent RSPO: 53472"
            }
        },
        {
            "id": 80629,
            "type": "Feature",
            "geometry": {
                "type": "Point",
                "coordinates": [
                    17.96818,
                    50.474230000000006
                ]
            },
            "properties": {
                "ref:rspo": 80629,
                "official_name": "Szko\u0142a Specjalna Przysposabiaj\u0105ca Do Pracy w Krapkowicach",
                "name": "Szko\u0142a Specjalna Przysposabiaj\u0105ca Do Pracy w Krapkowicach",
                "addr:postcode": "47-300",
                "addr:city": "Krapkowice",
                "addr:street": "Ko\u015bcielna",
                "addr:housenumber": "10",
                "addr:teryt:simc": 965677,
                "addr:teryt:sym_ul": 9546,
                "phone": "+48 774661417",
                "email": "zss.sekretariat@powiatkrapkowicki.pl",
                "website": "http:\/\/www.zss.powiatkrapkowicki.pl",
                "ref:regon": "160089510",
                "operator": "Powiat Krapkowicki",
                "operator:type": "government",
                "amenity": "school",
                "note": "Parent RSPO: 53472"
            }
        },
        {
            "id": 53165,
            "type": "Feature",
            "geometry": {
                "type": "Point",
                "coordinates": [
                    17.9687384,
                    50.4745656
                ]
            },
            "properties": {
                "ref:rspo": 53165,
                "official_name": "Zesp\u00f3\u0142 Szk\u00f3\u0142 Zawodowych im. Piast\u00f3w Opolskich w Krapkowicach",
                "name": "Zesp\u00f3\u0142 Szk\u00f3\u0142 Zawodowych",
                "addr:postcode": "47-300",
                "addr:city": "Krapkowice",
                "addr:street": "Zamkowa",
                "addr:housenumber": "5",
                "addr:teryt:simc": 965677,
                "addr:teryt:sym_ul": 25547,
                "phone": "+48 774661338",
                "email": "sekretariat@zamek.krapkowice.pl",
                "website": "http:\/\/www.zamek.krapkowice.pl",
                "ref:regon": "000743184",
                "ref:vatin": "PL7561026555",
                "operator": "Powiat Krapkowicki",
                "operator:type": "government",
                "landuse": "education",
                "fixme": "amenity=school, amenity=college albo landuse=education w zale\u017cno\u015bci od tego, jakie plac\u00f3wki wchodz\u0105 w sk\u0142ad zespo\u0142u. Sprawd\u017a, kiedy stosowa\u0107 amenity=* a kiedy landuse=education.",
                "note": "Children RSPO: 80447;80616;80617;80646"
            }
        },
        {
            "id": 80447,
            "type": "Feature",
            "geometry": {
                "type": "Point",
                "coordinates": [
                    17.9687384,
                    50.474535599999996
                ]
            },
            "properties": {
                "isced:level": "4",
                "ref:rspo": 80447,
                "official_name": "Szko\u0142a Policealna w Krapkowicach",
                "name": "Szko\u0142a Policealna w Krapkowicach",
                "addr:postcode": "47-300",
                "addr:city": "Krapkowice",
                "addr:street": "Zamkowa",
                "addr:housenumber": "5",
                "addr:teryt:simc": 965677,
                "addr:teryt:sym_ul": 25547,
                "phone": "+48 774661338",
                "email": "sekretariat@zamek.krapkowice.pl",
                "website": "http:\/\/www.zamek.krapkowice.pl",
                "ref:regon": "532313030",
                "operator": "Powiat Krapkowicki",
                "operator:type": "government",
                "amenity": "college",
                "note": "Parent RSPO: 53165"
            }
        },
        {
            "id": 80616,
            "type": "Feature",
            "geometry": {
                "type": "Point",
                "coordinates": [
                    17.9687384,
                    50.4745056
                ]
            },
            "properties": {
                "isced:level": "3",
                "ref:rspo": 80616,
                "official_name": "Technikum w Krapkowicach",
                "name": "Technikum w Krapkowicach",
                "addr:postcode": "47-300",
                "addr:city": "Krapkowice",
                "addr:street": "Zamkowa",
                "addr:housenumber": "5",
                "addr:teryt:simc": 965677,
                "addr:teryt:sym_ul": 25547,
                "phone": "+48 774661338",
                "email": "sekretariat@zamek.krapkowice.pl",
                "website": "http:\/\/www.zamek.krapkowice.pl",
                "ref:regon": "160001998",
                "operator": "Powiat Krapkowicki",
                "operator:type": "government",
                "amenity": "school",
                "note": "Parent RSPO: 53165"
            }
        },
        {
            "id": 80617,
            "type": "Feature",
            "geometry": {
                "type": "Point",
                "coordinates": [
                    17.9687384,
                    50.4744756
                ]
            },
            "properties": {
                "isced:level": "3",
                "ref:rspo": 80617,
                "official_name": "Liceum Og\u00f3lnokszta\u0142c\u0105ce dla Doros\u0142ych w Krapkowicach",
                "name": "Liceum Og\u00f3lnokszta\u0142c\u0105ce dla Doros\u0142ych w Krapkowicach",
                "addr:postcode": "47-300",
                "addr:city": "Krapkowice",
                "addr:street": "Zamkowa",
                "addr:housenumber": "5",
                "addr:teryt:simc": 965677,
                "addr:teryt:sym_ul": 25547,
                "phone": "+48 774661338",
                "email": "sekretariat@zamek.krapkowice.pl",
                "website": "http:\/\/www.zamek.krapkowice.pl",
                "ref:regon": "160186130",
                "operator": "Powiat Krapkowicki",
                "operator:type": "government",
                "amenity": "school",
                "note": "Parent RSPO: 53165"
            }
        },
        {
            "id": 80646,
            "type": "Feature",
            "geometry": {
                "type": "Point",
                "coordinates": [
                    17.9687384,
                    50.474445599999996
                ]
            },
            "properties": {
                "isced:level": "3",
                "ref:rspo": 80646,
                "official_name": "Bran\u017cowa Szko\u0142a I Stopnia w Krapkowicach",
                "name": "Bran\u017cowa Szko\u0142a I Stopnia w Krapkowicach",
                "addr:postcode": "47-300",
                "addr:city": "Krapkowice",
                "addr:street": "Zamkowa",
                "addr:housenumber": "5",
                "addr:teryt:simc": 965677,
                "addr:teryt:sym_ul": 25547,
                "phone": "+48 774661338",
                "email": "sekretariat@zamek.krapkowice.pl",
                "website": "http:\/\/www.zamek.krapkowice.pl",
                "ref:regon": "532384017",
                "operator": "Powiat Krapkowicki",
                "operator:type": "government",
                "amenity": "school",
                "note": "Parent RSPO: 53165"
            }
        },
        {
            "id": 75575,
            "type": "Feature",
            "geometry": {
                "type": "Point",
                "coordinates": [
                    17.96839,
                    50.4746499
                ]
            },
            "properties": {
                "ref:rspo": 75575,
                "official_name": "Pa\u0144stwowa Szko\u0142a Muzyczna I St. im. Piotra \u015awierca w Krapkowicach",
                "name": "Pa\u0144stwowa Szko\u0142a Muzyczna I St.",
                "addr:postcode": "47-300",
                "addr:city": "Krapkowice",
                "addr:street": "Krawiecka",
                "addr:housenumber": "1",
                "addr:teryt:simc": 965677,
                "addr:teryt:sym_ul": 9894,
                "phone": "+48 774079690",
                "email": "krapkowice.psm@gmail.com",
                "website": "http:\/\/psmkrapkowice.pl",
                "ref:regon": "000280672",
                "operator": "Ministerstwo Kultury I Dziedzictwa Narodowego",
                "operator:type": "public",
                "amenity": "music_school"
            }
        },
        {
            "id": 51254,
            "type": "Feature",
            "geometry": {
                "type": "Point",
                "coordinates": [
                    17.96278,
                    50.47481
                ]
            },
            "properties": {
                "ref:rspo": 51254,
                "official_name": "Przedszkole Publiczne Nr 2 Z Oddzia\u0142ami Integracyjnymi w Krapkowicach",
                "name": "Przedszkole Publiczne Nr 2 Z Oddzia\u0142ami Integracyjnymi w Krapkowicach",
                "addr:postcode": "47-300",
                "addr:city": "Krapkowice",
                "addr:street": "Stanis\u0142awa Moniuszki",
                "addr:housenumber": "6",
                "addr:teryt:simc": 965677,
                "addr:teryt:sym_ul": 13242,
                "phone": "+48 774460333",
                "email": "pp2@krapkowice.pl",
                "website": "http:\/\/www.pp2.krapkowice.pl",
                "ref:regon": "530579739",
                "ref:vatin": "PL7551696082",
                "operator": "Gmina Krapkowice",
                "operator:type": "government",
                "amenity": "kindergarten"
            }
        },
        {
            "id": 48192,
            "type": "Feature",
            "geometry": {
                "type": "Point",
                "coordinates": [
                    17.96193,
                    50.47545
                ]
            },
            "properties": {
                "ref:rspo": 48192,
                "official_name": "Przedszkole Publiczne Nr 1 w Krapkowicach",
                "name": "Przedszkole Publiczne Nr 1 w Krapkowicach",
                "addr:postcode": "47-300",
                "addr:city": "Krapkowice",
                "addr:street": "Stanis\u0142awa Moniuszki",
                "addr:housenumber": "12",
                "addr:teryt:simc": 965677,
                "addr:teryt:sym_ul": 13242,
                "phone": "+48 774460384",
                "email": "pp1@krapkowice.pl",
                "website": "http:\/\/www.pp1.krapkowice.pl",
                "ref:regon": "530579722",
                "ref:vatin": "PL7551696001",
                "operator": "Gmina Krapkowice",
                "operator:type": "government",
                "amenity": "kindergarten"
            }
        },
        {
            "id": 66120,
            "type": "Feature",
            "geometry": {
                "type": "Point",
                "coordinates": [
                    17.96452,
                    50.47565
                ]
            },
            "properties": {
                "isced:level": "1;2",
                "ref:rspo": 66120,
                "official_name": "Publiczna Szko\u0142a Podstawowa Nr 1 im. Juliusza S\u0142owackiego w Krapkowicach",
                "name": "Publiczna Szko\u0142a Podstawowa Nr 1",
                "addr:postcode": "47-300",
                "addr:city": "Krapkowice",
                "addr:street": "Szkolna",
                "addr:housenumber": "3",
                "addr:teryt:simc": 965677,
                "addr:teryt:sym_ul": 21970,
                "phone": "+48 774460395",
                "email": "psp1@krapkowice.pl",
                "website": "http:\/\/www.psp1.krapkowice.pl",
                "ref:regon": "000769491",
                "ref:vatin": "PL7551763186",
                "operator": "Gmina Krapkowice",
                "operator:type": "government",
                "amenity": "school"
            }
        },
        {
            "id": 3918,
            "type": "Feature",
            "geometry": {
                "type": "Point",
                "coordinates": [
                    17.98272,
                    50.48153
                ]
            },
            "properties": {
                "ref:rspo": 3918,
                "official_name": "Zesp\u00f3\u0142 Szkolno-Przedszkolny Nr 4 w Krapkowicach",
                "name": "Zesp\u00f3\u0142 Szkolno-Przedszkolny Nr 4 w Krapkowicach",
                "addr:postcode": "47-303",
                "addr:city": "Krapkowice",
                "addr:street": "Stefana \u017beromskiego",
                "addr:housenumber": "34",
                "addr:teryt:simc": 965677,
                "addr:teryt:sym_ul": 26464,
                "phone": "+48 774661433",
                "email": "zsp4@krapkowice.pl",
                "website": "http:\/\/www.zsp4krapkowice.pl",
                "ref:regon": "161475652",
                "ref:vatin": "PL1990110282",
                "operator": "Gmina Krapkowice",
                "operator:type": "government",
                "landuse": "education",
                "fixme": "amenity=school, amenity=college albo landuse=education w zale\u017cno\u015bci od tego, jakie plac\u00f3wki wchodz\u0105 w sk\u0142ad zespo\u0142u. Sprawd\u017a, kiedy stosowa\u0107 amenity=* a kiedy landuse=education.",
                "note": "Children RSPO: 48069;48070"
            }
        },
        {
            "id": 48069,
            "type": "Feature",
            "geometry": {
                "type": "Point",
                "coordinates": [
                    17.98272,
                    50.4815
                ]
            },
            "properties": {
                "ref:rspo": 48069,
                "official_name": "Zesp\u00f3\u0142 Szkolno-Przedszkolny Nr 4 w Krapkowicach Przedszkole Publiczne Nr 4 w Krapkowicach",
                "name": "Zesp\u00f3\u0142 Szkolno-Przedszkolny Nr 4 w Krapkowicach Przedszkole Publiczne Nr 4 w Krapkowicach",
                "addr:postcode": "47-303",
                "addr:city": "Krapkowice",
                "addr:street": "Stefana \u017beromskiego",
                "addr:housenumber": "34",
                "addr:teryt:simc": 965677,
                "addr:teryt:sym_ul": 26464,
                "phone": "+48 774661433",
                "email": "zsp4@krapkowice.pl",
                "website": "http:\/\/www.zsp4krapkowice.pl",
                "ref:regon": "530579751",
                "ref:vatin": "PL7551696053",
                "operator": "Gmina Krapkowice",
                "operator:type": "government",
                "amenity": "kindergarten",
                "note": "Parent RSPO: 3918"
            }
        },
        {
            "id": 48070,
            "type": "Feature",
            "geometry": {
                "type": "Point",
                "coordinates": [
                    17.98272,
                    50.48147
                ]
            },
            "properties": {
                "isced:level": "1;2",
                "ref:rspo": 48070,
                "official_name": "Zesp\u00f3\u0142 Szkolno-Przedszkolny Nr 4 w Krapkowicach Publiczna Szko\u0142a Podstawowa Nr 4 im. Jana Brzechwy w Krapkowicach",
                "name": "Zesp\u00f3\u0142 Szkolno-Przedszkolny Nr 4 w Krapkowicach Publiczna Szko\u0142a Podstawowa Nr 4",
                "addr:postcode": "47-303",
                "addr:city": "Krapkowice",
                "addr:street": "Stefana \u017beromskiego",
                "addr:housenumber": "34",
                "addr:teryt:simc": 965677,
                "addr:teryt:sym_ul": 26464,
                "phone": "+48 774661433",
                "email": "zsp4@krapkowice.pl",
                "website": "http:\/\/www.zsp4krapkowice.pl",
                "ref:regon": "000769479",
                "operator": "Gmina Krapkowice",
                "operator:type": "government",
                "amenity": "school",
                "note": "Parent RSPO: 3918"
            }
        },
        {
            "id": 53473,
            "type": "Feature",
            "geometry": {
                "type": "Point",
                "coordinates": [
                    17.95694,
                    50.49028
                ]
            },
            "properties": {
                "ref:rspo": 53473,
                "official_name": "Poradnia Psychologiczno - Pedagogiczna w Krapkowicach",
                "name": "Poradnia Psychologiczno - Pedagogiczna w Krapkowicach",
                "addr:postcode": "47-303",
                "addr:city": "Krapkowice",
                "addr:street": "Jana Kili\u0144skiego",
                "addr:housenumber": "1",
                "addr:teryt:simc": 965677,
                "addr:teryt:sym_ul": 8431,
                "phone": "+48 774661263",
                "email": "poradnia@powiatkrapkowicki.pl",
                "website": "http:\/\/www.poradnia.powiatkrapkowicki.pl",
                "ref:regon": "000742960",
                "ref:vatin": "PL7561053871",
                "operator": "Powiat Krapkowicki",
                "operator:type": "government",
                "healthcare": "counselling",
                "counselling_type": "education",
                "fixme": "w zale\u017cno\u015bci od przedmiotu dzia\u0142alno\u015bci (np. healthcare=counselling + counselling_type=education albo healthcare=psychotherapist)"
            }
        },
        {
            "id": 69267,
            "type": "Feature",
            "geometry": {
                "type": "Point",
                "coordinates": [
                    17.9747,
                    50.49344
                ]
            },
            "properties": {
                "isced:level": "1;2",
                "ref:rspo": 69267,
                "official_name": "Publiczna Sportowa Szko\u0142a Podstawowa Nr 5 im. Janusza Korczaka w Krapkowicach",
                "name": "Publiczna Sportowa Szko\u0142a Podstawowa Nr 5",
                "addr:postcode": "47-303",
                "addr:city": "Krapkowice",
                "addr:street": "Osiedle Osiedle XXX Lecia",
                "addr:housenumber": "24",
                "addr:teryt:simc": 965677,
                "addr:teryt:sym_ul": 52201,
                "phone": "+48 774466605",
                "email": "pssp5@krapkowice.pl",
                "website": "http:\/\/www.pssp5.krapkowice.pl",
                "ref:regon": "532212256",
                "ref:vatin": "PL7551691848",
                "operator": "Gmina Krapkowice",
                "operator:type": "government",
                "amenity": "school"
            }
        },
        {
            "id": 60166,
            "type": "Feature",
            "geometry": {
                "type": "Point",
                "coordinates": [
                    17.97339,
                    50.49487
                ]
            },
            "properties": {
                "ref:rspo": 60166,
                "official_name": "Przedszkole Publiczne Nr 8 w Krapkowicach",
                "name": "Przedszkole Publiczne Nr 8 w Krapkowicach",
                "addr:postcode": "47-303",
                "addr:city": "Krapkowice",
                "addr:street": "Osiedle Osiedle XXX Lecia",
                "addr:housenumber": "18",
                "addr:teryt:simc": 965677,
                "addr:teryt:sym_ul": 52201,
                "phone": "+48 774662980",
                "email": "pp8@krapkowice.pl",
                "ref:regon": "530579780",
                "ref:vatin": "PL7551696076",
                "operator": "Gmina Krapkowice",
                "operator:type": "government",
                "amenity": "kindergarten"
            }
        },
        {
            "id": 277862,
            "type": "Feature",
            "geometry": {
                "type": "Point",
                "coordinates": [
                    17.96777,
                    50.49664
                ]
            },
            "properties": {
                "ref:rspo": 277862,
                "official_name": "Niepubliczny Punkt Przedszkolny \"Kraina Przyg\u00f3d Montessori\"",
                "name": "Niepubliczny Punkt Przedszkolny \"Kraina Przyg\u00f3d Montessori\"",
                "addr:postcode": "47-303",
                "addr:city": "Krapkowice",
                "addr:street": "Osiedle Osiedle Sady",
                "addr:housenumber": "1",
                "addr:teryt:simc": 965677,
                "addr:teryt:sym_ul": 52411,
                "email": "fundacjaedu40@gmail.com",
                "ref:regon": "389602536",
                "operator": "Fundacja Edu 4.0",
                "operator:type": "ngo",
                "amenity": "kindergarten"
            }
        },
        {
            "id": 48181,
            "type": "Feature",
            "geometry": {
                "type": "Point",
                "coordinates": [
                    17.94192,
                    50.51854
                ]
            },
            "properties": {
                "ref:rspo": 48181,
                "official_name": "Zesp\u00f3\u0142 Szkolno-Przedszkolny Nr 3 w Rogowie Opolskim",
                "name": "Zesp\u00f3\u0142 Szkolno-Przedszkolny Nr 3 w Rogowie Opolskim",
                "addr:postcode": "47-300",
                "addr:city": "Rog\u00f3w Opolski",
                "addr:street": "Boles\u0142awa Chrobrego",
                "addr:housenumber": "15",
                "addr:teryt:simc": 497302,
                "addr:teryt:sym_ul": 1742,
                "phone": "+48 774672114",
                "email": "zsprogowop@krapkowice.pl",
                "website": "http:\/\/www.zsp3rogowopolski.krapkowice.pl",
                "ref:regon": "000769440",
                "ref:vatin": "PL7551763134",
                "operator": "Gmina Krapkowice",
                "operator:type": "government",
                "landuse": "education",
                "fixme": "amenity=school, amenity=college albo landuse=education w zale\u017cno\u015bci od tego, jakie plac\u00f3wki wchodz\u0105 w sk\u0142ad zespo\u0142u. Sprawd\u017a, kiedy stosowa\u0107 amenity=* a kiedy landuse=education.",
                "note": "Children RSPO: 63306;63499;110078"
            }
        },
        {
            "id": 110078,
            "type": "Feature",
            "geometry": {
                "type": "Point",
                "coordinates": [
                    17.94192,
                    50.51851
                ]
            },
            "properties": {
                "isced:level": "1;2",
                "ref:rspo": 110078,
                "official_name": "Zesp\u00f3\u0142 Szkolno-Przedszkolny Nr 3 w Rogowie Opolskim Publiczna Szko\u0142a Podstawowa im. Marii Konopnickiej w Rogowie Opolskim",
                "name": "Zesp\u00f3\u0142 Szkolno-Przedszkolny Nr 3 w Rogowie Opolskim Publiczna Szko\u0142a Podstawowa",
                "addr:postcode": "47-300",
                "addr:city": "Rog\u00f3w Opolski",
                "addr:street": "Boles\u0142awa Chrobrego",
                "addr:housenumber": "15",
                "addr:teryt:simc": 497302,
                "addr:teryt:sym_ul": 1742,
                "phone": "+48 774672114",
                "email": "zsprogowop@krapkowice.pl",
                "website": "http:\/\/www.zsp3rogowopolski.krapkowice.pl",
                "ref:regon": "532212279",
                "operator": "Gmina Krapkowice",
                "operator:type": "government",
                "amenity": "school",
                "note": "Parent RSPO: 48181"
            }
        },
        {
            "id": 63306,
            "type": "Feature",
            "geometry": {
                "type": "Point",
                "coordinates": [
                    17.92953,
                    50.53462
                ]
            },
            "properties": {
                "ref:rspo": 63306,
                "official_name": "Zesp\u00f3\u0142 Szkolno-Przedszkolny Nr 3 w Rogowie Opolskim Przedszkole Publiczne w D\u0105br\u00f3wce G\u00f3rnej",
                "name": "Zesp\u00f3\u0142 Szkolno-Przedszkolny Nr 3 w Rogowie Opolskim Przedszkole Publiczne w D\u0105br\u00f3wce G\u00f3rnej",
                "addr:postcode": "47-300",
                "addr:city": "D\u0105br\u00f3wka G\u00f3rna",
                "addr:street": "Opolska",
                "addr:housenumber": "64",
                "addr:teryt:simc": 497213,
                "addr:teryt:sym_ul": 15095,
                "phone": "+48 774672114",
                "email": "zsprogowop@krapkowice.pl",
                "website": "http:\/\/www.zsp3rogowopolski.krapkowice.pl",
                "ref:regon": "532212291",
                "operator": "Gmina Krapkowice",
                "operator:type": "government",
                "amenity": "kindergarten",
                "note": "Parent RSPO: 48181"
            }
        },
        {
            "id": 63499,
            "type": "Feature",
            "geometry": {
                "type": "Point",
                "coordinates": [
                    17.92953,
                    50.534589999999994
                ]
            },
            "properties": {
                "isced:level": "1;2",
                "ref:rspo": 63499,
                "official_name": "Zesp\u00f3\u0142 Szkolno-Przedszkolny Nr 3 w Rogowie Opolskim Publiczna Szko\u0142a Podstawowa w D\u0105br\u00f3wce G\u00f3rnej",
                "name": "Zesp\u00f3\u0142 Szkolno-Przedszkolny Nr 3 w Rogowie Opolskim Publiczna Szko\u0142a Podstawowa w D\u0105br\u00f3wce G\u00f3rnej",
                "addr:postcode": "47-300",
                "addr:city": "D\u0105br\u00f3wka G\u00f3rna",
                "addr:street": "Opolska",
                "addr:housenumber": "64",
                "addr:teryt:simc": 497213,
                "addr:teryt:sym_ul": 15095,
                "phone": "+48 774672114",
                "email": "zsprogowop@krapkowice.pl",
                "website": "http:\/\/www.zsp3rogowopolski.krapkowice.pl",
                "ref:regon": "532212285",
                "operator": "Gmina Krapkowice",
                "operator:type": "government",
                "amenity": "school",
                "note": "Parent RSPO: 48181"
            }
        }
    ]
}