{
    "type": "FeatureCollection",
    "features": [
        {
            "id": 72154,
            "type": "Feature",
            "geometry": {
                "type": "Point",
                "coordinates": [
                    18.0852253,
                    50.4825722
                ]
            },
            "properties": {
                "isced:level": "1;2",
                "ref:rspo": 72154,
                "official_name": "Publiczna Szko\u0142a Podstawowa Nr 3 im. Jana Brzechwy w Gogolinie Filia Z Oddz.szkolnymi I Oddz. Przedszkolnym w Zakrzowie",
                "name": "Publiczna Szko\u0142a Podstawowa Nr 3",
                "addr:country": "PL",
                "addr:postcode": "47-330",
                "addr:city": "Zakrz\u00f3w",
                "addr:street": "Adama Mickiewicza",
                "addr:housenumber": "3",
                "addr:teryt:simc": 495042,
                "addr:teryt:sym_ul": 12734,
                "contact:phone": "+48 774666218",
                "contact:email": "sekretariat@psp3gogolin.pl",
                "ref:regon": "116595000",
                "operator": "Gmina Gogolin",
                "operator:type": "government",
                "amenity": "school",
                "note": "Parent RSPO: 62574"
            }
        },
        {
            "id": 58328,
            "type": "Feature",
            "geometry": {
                "type": "Point",
                "coordinates": [
                    18.01311,
                    50.48867
                ]
            },
            "properties": {
                "isced:level": "3",
                "ref:rspo": 58328,
                "official_name": "Liceum Og\u00f3lnokszta\u0142c\u0105ce im. Komisji Edukacji Narodowej w Gogolinie",
                "name": "Liceum Og\u00f3lnokszta\u0142c\u0105ce",
                "addr:country": "PL",
                "addr:postcode": "47-320",
                "addr:city": "Gogolin",
                "addr:street": "Szkolna",
                "addr:housenumber": "27",
                "addr:teryt:simc": 965364,
                "addr:teryt:sym_ul": 21970,
                "contact:phone": "+48 774666235",
                "contact:email": "sekretariat@gogolin.com.pl",
                "contact:website": "http:\/\/www.lo.gogolin.com.pl",
                "ref:regon": "532399734",
                "ref:vatin": "PL1990110307",
                "operator": "Gmina Gogolin",
                "operator:type": "government",
                "amenity": "school"
            }
        },
        {
            "id": 64797,
            "type": "Feature",
            "geometry": {
                "type": "Point",
                "coordinates": [
                    18.02505,
                    50.48963
                ]
            },
            "properties": {
                "ref:rspo": 64797,
                "official_name": "Publiczne Przedszkole Nr 3 im. Karlika I Karolinki w Gogolinie",
                "name": "Publiczne Przedszkole Nr 3",
                "addr:country": "PL",
                "addr:postcode": "47-320",
                "addr:city": "Gogolin",
                "addr:street": "Strzelecka",
                "addr:housenumber": "34",
                "addr:teryt:simc": 965364,
                "addr:teryt:sym_ul": 21381,
                "contact:phone": "+48 774666297",
                "contact:email": "sekretariat@pp3gogolin.pl",
                "contact:website": "http:\/\/pp3gogolin.pl",
                "ref:regon": "530573688",
                "operator": "Gmina Gogolin",
                "operator:type": "government",
                "amenity": "kindergarten"
            }
        },
        {
            "id": 58329,
            "type": "Feature",
            "geometry": {
                "type": "Point",
                "coordinates": [
                    18.02597,
                    50.48982
                ]
            },
            "properties": {
                "isced:level": "1;2",
                "ref:rspo": 58329,
                "official_name": "Publiczna Szko\u0142a Podstawowa Nr 2 im. Kornela Makuszy\u0144skiego w Gogolinie",
                "name": "Publiczna Szko\u0142a Podstawowa Nr 2",
                "addr:country": "PL",
                "addr:postcode": "47-320",
                "addr:city": "Gogolin",
                "addr:street": "Strzelecka",
                "addr:housenumber": "39",
                "addr:teryt:simc": 965364,
                "addr:teryt:sym_ul": 21381,
                "contact:phone": "+48 774666224",
                "contact:email": "szkola@psp2gogolin.pl",
                "contact:website": "http:\/\/www.psp2gogolin.pl",
                "ref:regon": "001320340",
                "ref:vatin": "PL1990081936",
                "operator": "Gmina Gogolin",
                "operator:type": "government",
                "amenity": "school"
            }
        },
        {
            "id": 62574,
            "type": "Feature",
            "geometry": {
                "type": "Point",
                "coordinates": [
                    17.99443,
                    50.49092
                ]
            },
            "properties": {
                "isced:level": "1;2",
                "ref:rspo": 62574,
                "official_name": "Publiczna Szko\u0142a Podstawowa Nr 3 im. Jana Brzechwy w Gogolinie",
                "name": "Publiczna Szko\u0142a Podstawowa Nr 3",
                "addr:country": "PL",
                "addr:postcode": "47-320",
                "addr:city": "Gogolin",
                "addr:street": "Krapkowicka",
                "addr:housenumber": "141",
                "addr:teryt:simc": 965364,
                "addr:teryt:sym_ul": 9821,
                "contact:phone": "+48 774666217",
                "contact:email": "sekretariat@psp3gogolin.pl",
                "contact:website": "http:\/\/psp3gogolin.pl",
                "ref:regon": "001165950",
                "ref:vatin": "PL1990081959",
                "operator": "Gmina Gogolin",
                "operator:type": "government",
                "amenity": "school",
                "note": "Children RSPO: 72154"
            }
        },
        {
            "id": 68113,
            "type": "Feature",
            "geometry": {
                "type": "Point",
                "coordinates": [
                    18.02468,
                    50.49292
                ]
            },
            "properties": {
                "ref:rspo": 68113,
                "official_name": "Publiczne Przedszkole Nr 1 w Gogolinie",
                "name": "Publiczne Przedszkole Nr 1 w Gogolinie",
                "addr:country": "PL",
                "addr:postcode": "47-320",
                "addr:city": "Gogolin",
                "addr:street": "Szpitalna",
                "addr:housenumber": "4",
                "addr:teryt:simc": 965364,
                "addr:teryt:sym_ul": 22073,
                "contact:phone": "+48 774666377",
                "contact:email": "info@pp1gogolin.pl",
                "contact:website": "http:\/\/pp1gogolin.pl",
                "ref:regon": "530573702",
                "ref:vatin": "PL1990082189",
                "operator": "Gmina Gogolin",
                "operator:type": "government",
                "amenity": "kindergarten"
            }
        },
        {
            "id": 64343,
            "type": "Feature",
            "geometry": {
                "type": "Point",
                "coordinates": [
                    17.9697299,
                    50.51779
                ]
            },
            "properties": {
                "isced:level": "1;2",
                "ref:rspo": 64343,
                "official_name": "Publiczna Szko\u0142a Podstawowa im. Miko\u0142aja Kopernika w Malni",
                "name": "Publiczna Szko\u0142a Podstawowa",
                "addr:country": "PL",
                "addr:postcode": "47-316",
                "addr:city": "Malnia",
                "addr:street": "Podg\u00f3rna",
                "addr:housenumber": "3",
                "addr:teryt:simc": 494982,
                "addr:teryt:sym_ul": 16742,
                "contact:phone": "+48 774671948",
                "contact:email": "sekretariat@pspmalnia.pl",
                "contact:website": "http:\/\/www.pspmalnia.pl",
                "ref:regon": "001166240",
                "ref:vatin": "PL1990082143",
                "operator": "Gmina Gogolin",
                "operator:type": "government",
                "amenity": "school"
            }
        },
        {
            "id": 90542,
            "type": "Feature",
            "geometry": {
                "type": "Point",
                "coordinates": [
                    18.0649799,
                    50.5256
                ]
            },
            "properties": {
                "ref:rspo": 90542,
                "official_name": "Przedszkole w Ogrodzie",
                "name": "Przedszkole w Ogrodzie",
                "addr:country": "PL",
                "addr:postcode": "47-325",
                "addr:city": "Kamionek",
                "addr:street": "Ogrodowa",
                "addr:housenumber": "3",
                "addr:teryt:simc": 494960,
                "addr:teryt:sym_ul": 14834,
                "contact:phone": "+48 885311727",
                "contact:email": "abonkosch@wp.pl",
                "ref:regon": "161496022",
                "operator": "Stowarzyszenie Na Rzecz Rozwoju Wsi Kamionek",
                "operator:type": "ngo",
                "amenity": "kindergarten"
            }
        },
        {
            "id": 60829,
            "type": "Feature",
            "geometry": {
                "type": "Point",
                "coordinates": [
                    18.00156,
                    50.52908
                ]
            },
            "properties": {
                "isced:level": "1;2",
                "ref:rspo": 60829,
                "official_name": "Stowarzyszeniowa Publiczna Szko\u0142a Podstawowa im. Henryka Sienkiewicza w G\u00f3ra\u017cd\u017cach",
                "name": "Stowarzyszeniowa Publiczna Szko\u0142a Podstawowa",
                "addr:country": "PL",
                "addr:postcode": "47-316",
                "addr:city": "G\u00f3ra\u017cd\u017ce",
                "addr:street": "Chorulska",
                "addr:housenumber": "5",
                "addr:teryt:simc": 494930,
                "addr:teryt:sym_ul": 2858,
                "contact:phone": "+48 774671057",
                "contact:email": "spspgorazdze@onet.eu",
                "ref:regon": "161491645",
                "operator": "Stowarzyszenie Rozwoju Wsi G\u00f3ra\u017cd\u017ce",
                "operator:type": "ngo",
                "amenity": "school"
            }
        },
        {
            "id": 64344,
            "type": "Feature",
            "geometry": {
                "type": "Point",
                "coordinates": [
                    18.0751199,
                    50.54083
                ]
            },
            "properties": {
                "isced:level": "1;2",
                "ref:rspo": 64344,
                "official_name": "Publiczna Szko\u0142a Podstawowa im. Powsta\u0144c\u00f3w \u015aL\u0105skich w Kamieniu \u015aL\u0105skim",
                "name": "Publiczna Szko\u0142a Podstawowa",
                "addr:country": "PL",
                "addr:postcode": "47-325",
                "addr:city": "Kamie\u0144 \u015al\u0105ski",
                "addr:street": "Klasztorna",
                "addr:housenumber": "2",
                "addr:teryt:simc": 494947,
                "addr:teryt:sym_ul": 8485,
                "contact:phone": "+48 774671119",
                "contact:email": "sekretariatpspkn@vp.pl",
                "contact:website": "http:\/\/www.pspkamien.szkolniaki.pl",
                "ref:regon": "001165789",
                "ref:vatin": "PL1990081971",
                "operator": "Gmina Gogolin",
                "operator:type": "government",
                "amenity": "school"
            }
        }
    ]
}