{
    "type": "FeatureCollection",
    "features": [
        {
            "id": 66693,
            "type": "Feature",
            "geometry": {
                "type": "Point",
                "coordinates": [
                    18.13566,
                    50.38984
                ]
            },
            "properties": {
                "isced:level": "1;2",
                "ref:rspo": 66693,
                "official_name": "Publiczna Szko\u0142a Podstawowa im. Ksi\u0119dza Jana Twardowskiego w Januszkowicach",
                "name": "Publiczna Szko\u0142a Podstawowa",
                "addr:country": "PL",
                "addr:postcode": "47-330",
                "addr:city": "Januszkowice",
                "addr:street": "Lesia\u0144ska",
                "addr:housenumber": "6",
                "addr:teryt:simc": 10848,
                "addr:teryt:sym_ul": 505450,
                "contact:phone": "+48 774844214",
                "contact:email": "sekretariat@pspjanuszkowice.pl",
                "contact:website": "http:\/\/www.pspjanuszkowice.pl",
                "ref:regon": "001193662",
                "ref:vatin": "PL7491779521",
                "operator": "Gmina Zdzieszowice",
                "operator:type": "government",
                "amenity": "school"
            }
        },
        {
            "id": 60970,
            "type": "Feature",
            "geometry": {
                "type": "Point",
                "coordinates": [
                    18.11815,
                    50.42004
                ]
            },
            "properties": {
                "isced:level": "1;2",
                "ref:rspo": 60970,
                "official_name": "Publiczna Szko\u0142a Podstawowa Nr 1 im. Janusza Korczaka w Zdzieszowicach",
                "name": "Publiczna Szko\u0142a Podstawowa Nr 1",
                "addr:country": "PL",
                "addr:postcode": "47-330",
                "addr:city": "Zdzieszowice",
                "addr:street": "Boles\u0142awa Chrobrego",
                "addr:housenumber": "36",
                "addr:teryt:simc": 1742,
                "addr:teryt:sym_ul": 966040,
                "contact:phone": "+48 774844287",
                "contact:email": "sekretariat@psp1zdzieszowice.edu.pl",
                "contact:website": "http:\/\/www.psp1zdzieszowice.edu.pl",
                "ref:regon": "001193509",
                "ref:vatin": "PL7491779478",
                "operator": "Gmina Zdzieszowice",
                "operator:type": "government",
                "amenity": "school"
            }
        },
        {
            "id": 66264,
            "type": "Feature",
            "geometry": {
                "type": "Point",
                "coordinates": [
                    18.12379,
                    50.42282
                ]
            },
            "properties": {
                "ref:rspo": 66264,
                "official_name": "Katolickie Przedszkole Niepubliczne \"Ochronka\" im. B\u0142. Edmunda Bojanowskiego",
                "name": "Katolickie Przedszkole Niepubliczne \"Ochronka\"",
                "addr:country": "PL",
                "addr:postcode": "47-330",
                "addr:city": "Zdzieszowice",
                "addr:street": "Dworcowa",
                "addr:housenumber": "4a",
                "addr:teryt:simc": 4434,
                "addr:teryt:sym_ul": 966040,
                "contact:phone": "+48 518993901",
                "contact:email": "ebojanowski@op.pl",
                "ref:regon": "161490835",
                "ref:vatin": "PL1990102727",
                "operator": "Zgromadzenie Si\u00f3str S\u0142u\u017cebniczek Naj\u015bwi\u0119tszej Maryi Panny Niepokalanie Pocz\u0119tej, Prowincja Opolska",
                "operator:type": "religious",
                "amenity": "kindergarten"
            }
        },
        {
            "id": 60966,
            "type": "Feature",
            "geometry": {
                "type": "Point",
                "coordinates": [
                    18.12078,
                    50.42392
                ]
            },
            "properties": {
                "ref:rspo": 60966,
                "official_name": "Publiczne Przedszkole Nr 6 im. Jana Brzechwy w Zdzieszowicach",
                "name": "Publiczne Przedszkole Nr 6",
                "addr:country": "PL",
                "addr:postcode": "47-330",
                "addr:city": "Zdzieszowice",
                "addr:street": "Piast\u00f3w",
                "addr:housenumber": "6",
                "addr:teryt:simc": 16057,
                "addr:teryt:sym_ul": 966040,
                "contact:phone": "+48 774830370",
                "contact:email": "przedszkolepp6@wp.pl",
                "contact:website": "http:\/\/www.przedszkole6.szkolnastrona.pl",
                "ref:regon": "530580530",
                "ref:vatin": "PL7491750084",
                "operator": "Gmina Zdzieszowice",
                "operator:type": "government",
                "amenity": "kindergarten"
            }
        },
        {
            "id": 66301,
            "type": "Feature",
            "geometry": {
                "type": "Point",
                "coordinates": [
                    18.1301099,
                    50.42787
                ]
            },
            "properties": {
                "isced:level": "1;2",
                "ref:rspo": 66301,
                "official_name": "Publiczna Szko\u0142a Podstawowa Nr 3 im. W\u0142adys\u0142awa Sikorskiego w Zdzieszowicach",
                "name": "Publiczna Szko\u0142a Podstawowa Nr 3",
                "addr:country": "PL",
                "addr:postcode": "47-330",
                "addr:city": "Zdzieszowice",
                "addr:street": "Nowa",
                "addr:housenumber": "3",
                "addr:teryt:simc": 14330,
                "addr:teryt:sym_ul": 966040,
                "contact:phone": "+48 774845230",
                "contact:email": "psp3@zdzieszowice.pl",
                "contact:website": "http:\/\/psp3.zdzieszowice.pl",
                "ref:regon": "001193490",
                "ref:vatin": "PL7491779484",
                "operator": "Gmina Zdzieszowice",
                "operator:type": "government",
                "amenity": "school"
            }
        },
        {
            "id": 66306,
            "type": "Feature",
            "geometry": {
                "type": "Point",
                "coordinates": [
                    18.12634,
                    50.42909
                ]
            },
            "properties": {
                "ref:rspo": 66306,
                "official_name": "Publiczne Przedszkole Nr 5 w Zdzieszowicach im. T\u0119czowa Pi\u0105tka",
                "name": "Publiczne Przedszkole Nr 5 w Zdzieszowicach",
                "addr:country": "PL",
                "addr:postcode": "47-330",
                "addr:city": "Zdzieszowice",
                "addr:street": "Zielona",
                "addr:housenumber": "19",
                "addr:teryt:simc": 26081,
                "addr:teryt:sym_ul": 966040,
                "contact:phone": "+48 774844121",
                "contact:email": "przedszkole5@teczowapiatka.pl",
                "contact:website": "http:\/\/www.teczowapiatka.pl",
                "ref:regon": "530580524",
                "ref:vatin": "PL7491783505",
                "operator": "Gmina Zdzieszowice",
                "operator:type": "government",
                "amenity": "kindergarten"
            }
        },
        {
            "id": 60975,
            "type": "Feature",
            "geometry": {
                "type": "Point",
                "coordinates": [
                    18.12594,
                    50.42935
                ]
            },
            "properties": {
                "ref:rspo": 60975,
                "official_name": "Publiczne Przedszkole Nr 3 im. Pszcz\u00f3\u0142ki Mai w Zdzieszowicach",
                "name": "Publiczne Przedszkole Nr 3",
                "addr:country": "PL",
                "addr:postcode": "47-330",
                "addr:city": "Zdzieszowice",
                "addr:street": "Zielona",
                "addr:housenumber": "19a",
                "addr:teryt:simc": 26081,
                "addr:teryt:sym_ul": 966040,
                "contact:phone": "+48 774844229",
                "contact:email": "przedszkole3zdzieszowice@gmail.com",
                "contact:website": "http:\/\/www.przedszkole3zdzieszowice.pl",
                "ref:regon": "530580501",
                "ref:vatin": "PL7491783511",
                "operator": "Gmina Zdzieszowice",
                "operator:type": "government",
                "amenity": "kindergarten"
            }
        },
        {
            "id": 53471,
            "type": "Feature",
            "geometry": {
                "type": "Point",
                "coordinates": [
                    18.1039299,
                    50.43452
                ]
            },
            "properties": {
                "ref:rspo": 53471,
                "official_name": "Zesp\u00f3\u0142 Szk\u00f3\u0142 im. Jana Paw\u0142a II w Zdzieszowicach",
                "name": "Zesp\u00f3\u0142 Szk\u00f3\u0142",
                "addr:country": "PL",
                "addr:postcode": "47-330",
                "addr:city": "Zdzieszowice",
                "addr:street": "G\u00f3ry \u015awi\u0119tej Anny",
                "addr:housenumber": "21A",
                "addr:teryt:simc": 39051,
                "addr:teryt:sym_ul": 966040,
                "contact:phone": "+48 774844997",
                "contact:email": "sekretariat@zs.zdzieszowice.pl",
                "contact:website": "http:\/\/www.zs.zdzieszowice.pl",
                "ref:regon": "000026229",
                "ref:vatin": "PL7491509595",
                "operator": "Powiat Krapkowicki",
                "operator:type": "government",
                "landuse": "education",
                "fixme": "amenity=school, amenity=college albo landuse=education w zale\u017cno\u015bci od tego, jakie plac\u00f3wki wchodz\u0105 w sk\u0142ad zespo\u0142u. Sprawd\u017a, kiedy stosowa\u0107 amenity=* a kiedy landuse=education.",
                "note": "Children RSPO: 80444;80621;80623;80626;80634"
            }
        },
        {
            "id": 80444,
            "type": "Feature",
            "geometry": {
                "type": "Point",
                "coordinates": [
                    18.1039299,
                    50.43449
                ]
            },
            "properties": {
                "isced:level": "3",
                "ref:rspo": 80444,
                "official_name": "Technikum w Zdzieszowicach",
                "name": "Technikum w Zdzieszowicach",
                "addr:country": "PL",
                "addr:postcode": "47-330",
                "addr:city": "Zdzieszowice",
                "addr:street": "G\u00f3ry \u015awi\u0119tej Anny",
                "addr:housenumber": "21A",
                "addr:teryt:simc": 39051,
                "addr:teryt:sym_ul": 966040,
                "contact:phone": "+48 774844997",
                "contact:email": "sekretariat@zs.zdzieszowice.pl",
                "contact:website": "http:\/\/www.zs.zdzieszowice.pl",
                "ref:regon": "160095077",
                "operator": "Powiat Krapkowicki",
                "operator:type": "government",
                "amenity": "school",
                "note": "Parent RSPO: 53471"
            }
        },
        {
            "id": 80621,
            "type": "Feature",
            "geometry": {
                "type": "Point",
                "coordinates": [
                    18.1039299,
                    50.43446
                ]
            },
            "properties": {
                "isced:level": "3",
                "ref:rspo": 80621,
                "official_name": "Bran\u017cowa Szko\u0142a I Stopnia w Zdzieszowicach",
                "name": "Bran\u017cowa Szko\u0142a I Stopnia w Zdzieszowicach",
                "addr:country": "PL",
                "addr:postcode": "47-330",
                "addr:city": "Zdzieszowice",
                "addr:street": "G\u00f3ry \u015awi\u0119tej Anny",
                "addr:housenumber": "21A",
                "addr:teryt:simc": 39051,
                "addr:teryt:sym_ul": 966040,
                "contact:phone": "+48 774844997",
                "contact:email": "sekretariat@zs.zdzieszowice.pl",
                "contact:website": "http:\/\/www.zs.zdzieszowice.pl",
                "ref:regon": "532384230",
                "operator": "Powiat Krapkowicki",
                "operator:type": "government",
                "amenity": "school",
                "note": "Parent RSPO: 53471"
            }
        },
        {
            "id": 80623,
            "type": "Feature",
            "geometry": {
                "type": "Point",
                "coordinates": [
                    18.1039299,
                    50.43443
                ]
            },
            "properties": {
                "isced:level": "3",
                "ref:rspo": 80623,
                "official_name": "Liceum Og\u00f3lnokszta\u0142c\u0105ce dla Doros\u0142ych w Zdzieszowicach",
                "name": "Liceum Og\u00f3lnokszta\u0142c\u0105ce dla Doros\u0142ych w Zdzieszowicach",
                "addr:country": "PL",
                "addr:postcode": "47-330",
                "addr:city": "Zdzieszowice",
                "addr:street": "G\u00f3ry \u015awi\u0119tej Anny",
                "addr:housenumber": "21A",
                "addr:teryt:simc": 39051,
                "addr:teryt:sym_ul": 966040,
                "contact:phone": "+48 774844997",
                "contact:email": "sekretariat@zs.zdzieszowice.pl",
                "contact:website": "http:\/\/www.zs.zdzieszowice.pl",
                "ref:regon": "532405392",
                "operator": "Powiat Krapkowicki",
                "operator:type": "government",
                "amenity": "school",
                "note": "Parent RSPO: 53471"
            }
        },
        {
            "id": 80626,
            "type": "Feature",
            "geometry": {
                "type": "Point",
                "coordinates": [
                    18.1039299,
                    50.4344
                ]
            },
            "properties": {
                "isced:level": "4",
                "ref:rspo": 80626,
                "official_name": "Szko\u0142a Policealna w Zdzieszowicach",
                "name": "Szko\u0142a Policealna w Zdzieszowicach",
                "addr:country": "PL",
                "addr:postcode": "47-330",
                "addr:city": "Zdzieszowice",
                "addr:street": "G\u00f3ry \u015awi\u0119tej Anny",
                "addr:housenumber": "21A",
                "addr:teryt:simc": 39051,
                "addr:teryt:sym_ul": 966040,
                "contact:phone": "+48 774844997",
                "contact:email": "sekretariat@zs.zdzieszowice.pl",
                "contact:website": "http:\/\/www.zs.zdzieszowice.pl",
                "ref:regon": "160033780",
                "operator": "Powiat Krapkowicki",
                "operator:type": "government",
                "amenity": "college",
                "note": "Parent RSPO: 53471"
            }
        },
        {
            "id": 80634,
            "type": "Feature",
            "geometry": {
                "type": "Point",
                "coordinates": [
                    18.1039299,
                    50.43437
                ]
            },
            "properties": {
                "ref:rspo": 80634,
                "official_name": "Centrum Kszta\u0142cenia Ustawicznego w Zdzieszowicach",
                "name": "Centrum Kszta\u0142cenia Ustawicznego w Zdzieszowicach",
                "addr:country": "PL",
                "addr:postcode": "47-330",
                "addr:city": "Zdzieszowice",
                "addr:street": "G\u00f3ry \u015awi\u0119tej Anny",
                "addr:housenumber": "21A",
                "addr:teryt:simc": 39051,
                "addr:teryt:sym_ul": 966040,
                "contact:phone": "+48 774844997",
                "contact:email": "sekretariat@zs.zdzieszowice.pl",
                "contact:website": "http:\/\/www.zs.zdzieszowice.pl",
                "ref:regon": "160016712",
                "operator": "Powiat Krapkowicki",
                "operator:type": "government",
                "fixme": "w zale\u017cno\u015bci od przedmiotu dzia\u0142alno\u015bci (np. amenity=training + training=*, amenity=dancing_school, amenity=language_school, amenity=music_school)",
                "note": "Parent RSPO: 53471"
            }
        },
        {
            "id": 60967,
            "type": "Feature",
            "geometry": {
                "type": "Point",
                "coordinates": [
                    18.13179,
                    50.43616
                ]
            },
            "properties": {
                "ref:rspo": 60967,
                "official_name": "Publiczne Przedszkole Nr 2 im. Kubusia Puchatka w Zdzieszowicach",
                "name": "Publiczne Przedszkole Nr 2",
                "addr:country": "PL",
                "addr:postcode": "47-330",
                "addr:city": "Zdzieszowice",
                "addr:street": "Plac 1 Maja",
                "addr:housenumber": "11",
                "addr:teryt:simc": 33792,
                "addr:teryt:sym_ul": 966040,
                "contact:phone": "+48 774844445",
                "contact:email": "puchatkoweprzedszkole@wp.pl",
                "contact:website": "http:\/\/www.przedszkole2zdzieszowice.szkolnastrona.pl",
                "ref:regon": "530580493",
                "ref:vatin": "PL7491798866",
                "operator": "Gmina Zdzieszowice",
                "operator:type": "government",
                "amenity": "kindergarten"
            }
        },
        {
            "id": 66212,
            "type": "Feature",
            "geometry": {
                "type": "Point",
                "coordinates": [
                    18.13059,
                    50.43666
                ]
            },
            "properties": {
                "isced:level": "1;2",
                "ref:rspo": 66212,
                "official_name": "Publiczna Szko\u0142a Podstawowa Nr 2 im. Artura Gadzi\u0144skiego w Zdzieszowicach",
                "name": "Publiczna Szko\u0142a Podstawowa Nr 2",
                "addr:country": "PL",
                "addr:postcode": "47-330",
                "addr:city": "Zdzieszowice",
                "addr:street": "Plac 1 Maja",
                "addr:housenumber": "1",
                "addr:teryt:simc": 33792,
                "addr:teryt:sym_ul": 966040,
                "contact:phone": "+48 774844376",
                "contact:email": "sekretariat@psp2zdzieszowice.pl",
                "contact:website": "http:\/\/www.psp2zdzieszowice.pl",
                "ref:regon": "000264118",
                "ref:vatin": "PL7491791166",
                "operator": "Gmina Zdzieszowice",
                "operator:type": "government",
                "amenity": "school"
            }
        },
        {
            "id": 66211,
            "type": "Feature",
            "geometry": {
                "type": "Point",
                "coordinates": [
                    18.12912,
                    50.44968
                ]
            },
            "properties": {
                "ref:rspo": 66211,
                "official_name": "Publiczne Przedszkole w \u017byrowej",
                "name": "Publiczne Przedszkole w \u017byrowej",
                "addr:country": "PL",
                "addr:postcode": "47-330",
                "addr:city": "\u017byrowa",
                "addr:street": "Poprzeczna",
                "addr:housenumber": "7",
                "addr:teryt:simc": 17171,
                "addr:teryt:sym_ul": 505639,
                "contact:phone": "+48 774844421",
                "contact:email": "ppzyrowa@przedszkolezyrowa.pl",
                "contact:website": "http:\/\/www.przedszkole.zyrowa.pl",
                "ref:regon": "530580560",
                "ref:vatin": "PL7491787874",
                "operator": "Gmina Zdzieszowice",
                "operator:type": "government",
                "amenity": "kindergarten"
            }
        },
        {
            "id": 60974,
            "type": "Feature",
            "geometry": {
                "type": "Point",
                "coordinates": [
                    18.12698,
                    50.45186
                ]
            },
            "properties": {
                "isced:level": "1;2",
                "ref:rspo": 60974,
                "official_name": "Publiczna Szko\u0142a Podstawowa im. Stanis\u0142awa Rosponda w \u017byrowej",
                "name": "Publiczna Szko\u0142a Podstawowa",
                "addr:country": "PL",
                "addr:postcode": "47-330",
                "addr:city": "\u017byrowa",
                "addr:street": "Wojska Polskiego",
                "addr:housenumber": "4",
                "addr:teryt:simc": 24628,
                "addr:teryt:sym_ul": 505639,
                "contact:phone": "+48 774844241",
                "contact:email": "sekretariat@pspzyrowa.pl",
                "contact:website": "http:\/\/www.pspzyrowa.pl",
                "ref:regon": "001193484",
                "ref:vatin": "PL7491779509",
                "operator": "Gmina Zdzieszowice",
                "operator:type": "government",
                "amenity": "school"
            }
        }
    ]
}