{
    "type": "FeatureCollection",
    "features": [
        {
            "id": 42102,
            "type": "Feature",
            "geometry": {
                "type": "Point",
                "coordinates": [
                    35.873100280762,
                    -1.087970972061
                ]
            },
            "properties": {
                "ref:rspo": 42102,
                "official_name": "Publiczne Przedszkole im. \u015aw. Franciszka Z Asy\u017cu w Naroku",
                "name": "Publiczne Przedszkole",
                "addr:country": "PL",
                "addr:postcode": "49-120",
                "addr:place": "Narok",
                "addr:housenumber": "2",
                "addr:teryt:sym_ul": 493066,
                "contact:phone": "+48 774642017",
                "contact:email": "ekolubynarok@gmail.com",
                "contact:website": "http:\/\/www.przedszkolenarok.szkolnastrona.pl",
                "ref:regon": "530580270",
                "ref:vatin": "PL9910259254",
                "operator": "Gmina D\u0105browa",
                "operator:type": "government",
                "amenity": "kindergarten"
            }
        },
        {
            "id": 275363,
            "type": "Feature",
            "geometry": {
                "type": "Point",
                "coordinates": [
                    17.8396085,
                    50.6641822
                ]
            },
            "properties": {
                "ref:rspo": 275363,
                "official_name": "Muminkowa Chatka",
                "name": "Muminkowa Chatka",
                "addr:country": "PL",
                "addr:postcode": "46-076",
                "addr:city": "Mechnice",
                "addr:street": "Niemodli\u0144ska",
                "addr:housenumber": "36F",
                "addr:teryt:simc": 14186,
                "addr:teryt:sym_ul": 493043,
                "contact:email": "przedszkolemechnice@gmail.com",
                "ref:regon": "386826063",
                "operator": "Miros\u0142aw Dere\u0144",
                "operator:type": "private",
                "amenity": "kindergarten"
            }
        },
        {
            "id": 106352,
            "type": "Feature",
            "geometry": {
                "type": "Point",
                "coordinates": [
                    17.81802,
                    50.66673
                ]
            },
            "properties": {
                "isced:level": "1;2",
                "ref:rspo": 106352,
                "official_name": "Publiczna Szko\u0142a Podstawowa im. Gustawa Morcinka w Chr\u00f3\u015bcinie",
                "name": "Publiczna Szko\u0142a Podstawowa",
                "addr:country": "PL",
                "addr:postcode": "46-073",
                "addr:city": "Chr\u00f3\u015bcina",
                "addr:street": "Niemodli\u0144ska",
                "addr:housenumber": "8d",
                "addr:teryt:simc": 14186,
                "addr:teryt:sym_ul": 492960,
                "contact:phone": "+48 774640114",
                "contact:email": "pspchroscina@gminadabrowa.pl",
                "ref:regon": "001165944",
                "ref:vatin": "PL9910217439",
                "operator": "Gmina D\u0105browa",
                "operator:type": "government",
                "amenity": "school"
            }
        },
        {
            "id": 42099,
            "type": "Feature",
            "geometry": {
                "type": "Point",
                "coordinates": [
                    17.81657,
                    50.66782
                ]
            },
            "properties": {
                "ref:rspo": 42099,
                "official_name": "Publiczne Przedszkole w Chr\u00f3\u015bcinie",
                "name": "Publiczne Przedszkole w Chr\u00f3\u015bcinie",
                "addr:country": "PL",
                "addr:postcode": "46-073",
                "addr:city": "Chr\u00f3\u015bcina",
                "addr:street": "Ko\u015bcielna",
                "addr:housenumber": "19",
                "addr:teryt:simc": 9546,
                "addr:teryt:sym_ul": 492960,
                "contact:phone": "+48 774640202",
                "contact:email": "ppchroscina@gminadabrowa.pl",
                "contact:website": "http:\/\/przedszkolechroscina.szkolnastrona.pl\/",
                "ref:regon": "530580323",
                "ref:vatin": "PL9910212330",
                "operator": "Gmina D\u0105browa",
                "operator:type": "government",
                "amenity": "kindergarten"
            }
        },
        {
            "id": 42100,
            "type": "Feature",
            "geometry": {
                "type": "Point",
                "coordinates": [
                    17.75632,
                    50.68694
                ]
            },
            "properties": {
                "ref:rspo": 42100,
                "official_name": "Publiczne Przedszkole w D\u0105browie",
                "name": "Publiczne Przedszkole w D\u0105browie",
                "addr:country": "PL",
                "addr:postcode": "49-120",
                "addr:city": "D\u0105browa",
                "addr:street": "Karczowska",
                "addr:housenumber": "7",
                "addr:teryt:simc": 8030,
                "addr:teryt:sym_ul": 492983,
                "contact:phone": "+48 774641070",
                "contact:email": "ppdabrow@gminadabrowa.pl",
                "ref:regon": "530580234",
                "ref:vatin": "PL9910213938",
                "operator": "Gmina D\u0105browa",
                "operator:type": "government",
                "amenity": "kindergarten"
            }
        },
        {
            "id": 42101,
            "type": "Feature",
            "geometry": {
                "type": "Point",
                "coordinates": [
                    17.78147,
                    50.69955
                ]
            },
            "properties": {
                "ref:rspo": 42101,
                "official_name": "Publiczne Przedszkole w Karczowie",
                "name": "Publiczne Przedszkole w Karczowie",
                "addr:country": "PL",
                "addr:postcode": "49-120",
                "addr:city": "Karcz\u00f3w",
                "addr:street": "D\u0105browska",
                "addr:housenumber": "5",
                "addr:teryt:simc": 3664,
                "addr:teryt:sym_ul": 493008,
                "contact:phone": "+48 774641104",
                "contact:email": "ppkarczow@gminadabrowa.pl",
                "ref:regon": "530580317",
                "ref:vatin": "PL9910259248",
                "operator": "Gmina D\u0105browa",
                "operator:type": "government",
                "amenity": "kindergarten"
            }
        },
        {
            "id": 106354,
            "type": "Feature",
            "geometry": {
                "type": "Point",
                "coordinates": [
                    17.7848599,
                    50.70446
                ]
            },
            "properties": {
                "isced:level": "1;2",
                "ref:rspo": 106354,
                "official_name": "Publiczna Szko\u0142a Podstawowa im. Szarych Szereg\u00f3w w D\u0105browie",
                "name": "Publiczna Szko\u0142a Podstawowa",
                "addr:country": "PL",
                "addr:postcode": "49-120",
                "addr:city": "D\u0105browa",
                "addr:street": "Szkolna",
                "addr:housenumber": "9",
                "addr:teryt:simc": 21970,
                "addr:teryt:sym_ul": 492983,
                "contact:phone": "+48 774020435",
                "contact:email": "pspdabrowa@gminadabrowa.pl",
                "ref:regon": "000265543",
                "ref:vatin": "PL9910211566",
                "operator": "Gmina D\u0105browa",
                "operator:type": "government",
                "amenity": "school"
            }
        },
        {
            "id": 275463,
            "type": "Feature",
            "geometry": {
                "type": "Point",
                "coordinates": [
                    17.8508299,
                    50.7289699
                ]
            },
            "properties": {
                "ref:rspo": 275463,
                "official_name": "Punkt Przedszkolny Nr 1 w \u017belaznej",
                "name": "Punkt Przedszkolny Nr 1 w \u017belaznej",
                "addr:country": "PL",
                "addr:postcode": "49-120",
                "addr:city": "\u017belazna",
                "addr:street": "Opolska",
                "addr:housenumber": "37",
                "addr:teryt:simc": 15095,
                "addr:teryt:sym_ul": 493215,
                "contact:phone": "+48 774642123",
                "contact:email": "ppzelazna1@wp.pl",
                "contact:website": "http:\/\/www.przedszkolenarok.szkolnastrona.pl",
                "ref:regon": "386917920",
                "operator": "Gmina D\u0105browa",
                "operator:type": "government",
                "amenity": "kindergarten"
            }
        },
        {
            "id": 275467,
            "type": "Feature",
            "geometry": {
                "type": "Point",
                "coordinates": [
                    17.8508299,
                    50.7289399
                ]
            },
            "properties": {
                "ref:rspo": 275467,
                "official_name": "Punkt Przedszkolny Nr 2 w \u017belaznej",
                "name": "Punkt Przedszkolny Nr 2 w \u017belaznej",
                "addr:country": "PL",
                "addr:postcode": "49-120",
                "addr:city": "\u017belazna",
                "addr:street": "Opolska",
                "addr:housenumber": "37",
                "addr:teryt:simc": 15095,
                "addr:teryt:sym_ul": 493215,
                "contact:phone": "+48 774642123",
                "contact:email": "ppzelazna1@wp.pl",
                "contact:website": "http:\/\/www.przedszkolenarok.szkolnastrona.pl",
                "ref:regon": "386919445",
                "operator": "Gmina D\u0105browa",
                "operator:type": "government",
                "amenity": "kindergarten"
            }
        },
        {
            "id": 42096,
            "type": "Feature",
            "geometry": {
                "type": "Point",
                "coordinates": [
                    17.7886099,
                    50.74293
                ]
            },
            "properties": {
                "isced:level": "1;2",
                "ref:rspo": 42096,
                "official_name": "Publiczna Szko\u0142a Podstawowa im. Jana Paw\u0142a II w Naroku",
                "name": "Publiczna Szko\u0142a Podstawowa",
                "addr:country": "PL",
                "addr:postcode": "49-120",
                "addr:city": "Narok",
                "addr:street": "Szkolna",
                "addr:housenumber": "19",
                "addr:teryt:simc": 21970,
                "addr:teryt:sym_ul": 493066,
                "contact:phone": "+48 774642002",
                "contact:email": "pspnarok@gminadabrowa.pl",
                "contact:website": "http:\/\/www.sp_narok.wodip.opole.pl\/",
                "ref:regon": "001166530",
                "ref:vatin": "PL9910212413",
                "operator": "Gmina D\u0105browa",
                "operator:type": "government",
                "amenity": "school"
            }
        }
    ]
}