{"type":"FeatureCollection","features":[{"id":86523,"type":"Feature","geometry":{"type":"Point","coordinates":[17.8577475,50.7500125]},"properties":{"isced:level":"3","ref:rspo":86523,"official_name":"Bran\u017cowa Szko\u0142a I Stopnia w Dobrzeniu Wielkim","name":"Bran\u017cowa Szko\u0142a I Stopnia w Dobrzeniu Wielkim","addr:country":"PL","addr:postcode":"46-081","addr:city":"Dobrze\u0144 Ma\u0142y","addr:street":"ul. Opolska","addr:housenumber":"87","addr:teryt:simc":15095,"addr:teryt:sym_ul":493416,"contact:phone":"+48 774032570","contact:email":"zsz_dobrzen@op.pl","contact:website":"http:\/\/www.dobrzenmaly.hg.pl","ref:regon":"532400609","operator":"Gmina Dobrze\u0144 Wielki","operator:type":"government","amenity":"school","note":"Parent RSPO: 81635"}},{"id":90576,"type":"Feature","geometry":{"type":"Point","coordinates":[17.8577475,50.749982499999994]},"properties":{"isced:level":"3","ref:rspo":90576,"official_name":"Publiczne Liceum Og\u00f3lnokszta\u0142c\u0105ce dla Doros\u0142ych w Dobrzeniu Wielkim","name":"Publiczne Liceum Og\u00f3lnokszta\u0142c\u0105ce dla Doros\u0142ych w Dobrzeniu Wielkim","addr:country":"PL","addr:postcode":"46-081","addr:city":"Dobrze\u0144 Ma\u0142y","addr:street":"ul. Opolska","addr:housenumber":"87","addr:teryt:simc":15095,"addr:teryt:sym_ul":493416,"contact:phone":"+48 774032570","contact:email":"zsz_dobrzen@op.pl","contact:website":"http:\/\/www.dobrzenmaly.hg.pl","ref:regon":"160035649","operator":"Gmina Dobrze\u0144 Wielki","operator:type":"government","amenity":"school","note":"Parent RSPO: 81635"}},{"id":127219,"type":"Feature","geometry":{"type":"Point","coordinates":[17.8577475,50.7499525]},"properties":{"isced:level":"3","ref:rspo":127219,"official_name":"Publiczne Technikum w Dobrzeniu Wielkim","name":"Publiczne Technikum w Dobrzeniu Wielkim","addr:country":"PL","addr:postcode":"46-081","addr:city":"Dobrze\u0144 Ma\u0142y","addr:street":"ul. Opolska","addr:housenumber":"87","addr:teryt:simc":15095,"addr:teryt:sym_ul":493416,"contact:phone":"+48 774032570","contact:email":"zsz_dobrzen@op.pl","contact:website":"http:\/\/www.dobrzenmaly.hg.pl","ref:regon":"361217464","operator":"Gmina Dobrze\u0144 Wielki","operator:type":"government","amenity":"school","note":"Parent RSPO: 81635"}},{"id":87813,"type":"Feature","geometry":{"type":"Point","coordinates":[17.85537,50.7505]},"properties":{"ref:rspo":87813,"official_name":"Niepubliczne Przedszkole \u015aw. Franciszka Prowadzone Przez Siostry Franciszkanki","name":"Niepubliczne Przedszkole \u015aw. Franciszka Prowadzone Przez Siostry Franciszkanki","addr:country":"PL","addr:postcode":"46-081","addr:city":"Dobrze\u0144 Ma\u0142y","addr:street":"ul. Opolska","addr:housenumber":"76","addr:teryt:simc":15095,"addr:teryt:sym_ul":493416,"contact:phone":"+48 774695761","contact:email":"przedszkole_osf@wp.pl","contact:website":"http:\/\/www.przedszkoledobrzen.pl","ref:regon":"161495198","ref:vatin":"PL9910198268","operator":"Prowincja Polska Zgromadzenia Si\u00f3str Piel\u0119gniarek Trzeciego Zakonu Regularnego \u015aw. Franciszka","operator:type":"religious","amenity":"kindergarten"}},{"id":277724,"type":"Feature","geometry":{"type":"Point","coordinates":[17.84316,50.75938]},"properties":{"ref:rspo":277724,"official_name":"Niepubliczne Przedszkole \"Pod Rozbrykanym Kucykiem\"","name":"Niepubliczne Przedszkole \"Pod Rozbrykanym Kucykiem\"","addr:country":"PL","addr:postcode":"46-081","addr:city":"Dobrze\u0144 Wielki","addr:street":"ul. Opolska","addr:housenumber":"4","addr:teryt:simc":15095,"addr:teryt:sym_ul":493439,"contact:phone":"+48 789474415","contact:email":"dobrzenprzedszkole@gmail.com","contact:website":"http:\/\/www.dobrzenzlobek.pl\/","ref:regon":"389390790","operator":"Bogumi\u0142a Le\u015bniewska-Dziembek","operator:type":"private","amenity":"kindergarten"}},{"id":87807,"type":"Feature","geometry":{"type":"Point","coordinates":[17.8451,50.76115]},"properties":{"ref:rspo":87807,"official_name":"Publiczne Przedszkole w Dobrzeniu Wielkim","name":"Publiczne Przedszkole w Dobrzeniu Wielkim","addr:country":"PL","addr:postcode":"46-081","addr:city":"Dobrze\u0144 Wielki","addr:street":"ul. Ko\u015bcielna","addr:housenumber":"1","addr:teryt:simc":9546,"addr:teryt:sym_ul":493439,"contact:phone":"+48 774695222","contact:email":"przedszkole.dobrzenwielki@o2.pl","contact:website":"http:\/\/www.przedszkole.dobrzenwielki.dlaprzedszkoli.eu","ref:regon":"530580910","ref:vatin":"PL9910197151","operator":"Gmina Dobrze\u0144 Wielki","operator:type":"government","amenity":"kindergarten"}},{"id":81769,"type":"Feature","geometry":{"type":"Point","coordinates":[17.84523,50.76137]},"properties":{"isced:level":"1;2","ref:rspo":81769,"official_name":"Publiczna Szko\u0142a Podstawowa Z Oddzia\u0142ami Sportowymi w Dobrzeniu Wielkim","name":"Publiczna Szko\u0142a Podstawowa Z Oddzia\u0142ami Sportowymi w Dobrzeniu Wielkim","addr:country":"PL","addr:postcode":"46-081","addr:city":"Dobrze\u0144 Wielki","addr:street":"ul. Ko\u015bcielna","addr:housenumber":"3","addr:teryt:simc":9546,"addr:teryt:sym_ul":493439,"contact:phone":"+48 774695441","contact:email":"szkola@psp.dobrzenwielki.pl","contact:website":"http:\/\/www.psp.dobrzenwielki.pl","ref:regon":"000269280","ref:vatin":"PL9910199902","operator":"Gmina Dobrze\u0144 Wielki","operator:type":"government","amenity":"school"}},{"id":81635,"type":"Feature","geometry":{"type":"Point","coordinates":[17.85537,50.77314]},"properties":{"ref:rspo":81635,"official_name":"Zesp\u00f3\u0142 Szk\u00f3\u0142 w Dobrzeniu Wielkim","name":"Zesp\u00f3\u0142 Szk\u00f3\u0142 w Dobrzeniu Wielkim","addr:country":"PL","addr:postcode":"46-081","addr:city":"Dobrze\u0144 Wielki","addr:street":"ul. Namys\u0142owska","addr:housenumber":"94","addr:teryt:simc":13972,"addr:teryt:sym_ul":493439,"contact:phone":"+48 774032820","contact:email":"sekretariat@zsdobrzenwielki.pl","contact:website":"http:\/\/zsdobrzenwielki.pl","ref:regon":"000697751","ref:vatin":"PL9910199925","operator":"Gmina Dobrze\u0144 Wielki","operator:type":"government","landuse":"education","fixme":"amenity=school, amenity=college albo landuse=education w zale\u017cno\u015bci od tego, jakie plac\u00f3wki wchodz\u0105 w sk\u0142ad zespo\u0142u. Sprawd\u017a, kiedy stosowa\u0107 amenity=* a kiedy landuse=education.","note":"Children RSPO: 86523;86524;90576;127219;267085"}},{"id":86524,"type":"Feature","geometry":{"type":"Point","coordinates":[17.85537,50.773109999999996]},"properties":{"isced:level":"3","ref:rspo":86524,"official_name":"Zesp\u00f3\u0142 Szk\u00f3\u0142 w Dobrzeniu Wielkim Publiczne Liceum Og\u00f3lnokszta\u0142c\u0105ce Z Oddzia\u0142ami Dwuj\u0119zycznymi w Dobrzeniu Wielkim","name":"Zesp\u00f3\u0142 Szk\u00f3\u0142 w Dobrzeniu Wielkim Publiczne Liceum Og\u00f3lnokszta\u0142c\u0105ce Z Oddzia\u0142ami Dwuj\u0119zycznymi w Dobrzeniu Wielkim","addr:country":"PL","addr:postcode":"46-081","addr:city":"Dobrze\u0144 Wielki","addr:street":"ul. Namys\u0142owska","addr:housenumber":"94","addr:teryt:simc":13972,"addr:teryt:sym_ul":493439,"contact:phone":"+48 774032820","contact:email":"sekretariat@zsdobrzenwielki.pl","contact:website":"http:\/\/www.zsdobrzenwielki.pl","ref:regon":"532400615","operator":"Gmina Dobrze\u0144 Wielki","operator:type":"government","amenity":"school","note":"Parent RSPO: 81635"}},{"id":267085,"type":"Feature","geometry":{"type":"Point","coordinates":[17.85537,50.77308]},"properties":{"isced:level":"1;2","ref:rspo":267085,"official_name":"Publiczna Szko\u0142a Podstawowa Nr 3 w Dobrzeniu Wielkim","name":"Publiczna Szko\u0142a Podstawowa Nr 3 w Dobrzeniu Wielkim","addr:country":"PL","addr:postcode":"46-081","addr:city":"Dobrze\u0144 Wielki","addr:street":"ul. Namys\u0142owska","addr:housenumber":"94","addr:teryt:simc":13972,"addr:teryt:sym_ul":493439,"contact:phone":"+48 774032820","contact:email":"sekretariat@zsdobrzenwielki.pl","contact:website":"http:\/\/www.zsdobrzenwielki.pl","ref:regon":"369894419","operator":"Gmina Dobrze\u0144 Wielki","operator:type":"government","amenity":"school","note":"Parent RSPO: 81635"}},{"id":90571,"type":"Feature","geometry":{"type":"Point","coordinates":[17.8056899,50.78275]},"properties":{"isced:level":"1;2","ref:rspo":90571,"official_name":"Publiczna Szko\u0142a Podstawowa Im Marii Konopnickiej w Chr\u00f3\u015bcicach","name":"Publiczna Szko\u0142a Podstawowa Im Marii Konopnickiej w Chr\u00f3\u015bcicach","addr:country":"PL","addr:postcode":"46-080","addr:city":"Chr\u00f3\u015bcice","addr:street":"ul. Powsta\u0144c\u00f3w \u015al\u0105skich","addr:housenumber":"1","addr:teryt:simc":17366,"addr:teryt:sym_ul":493250,"contact:phone":"+48 774695334","contact:email":"sekretariat@szkolachroscice.pl","contact:website":"http:\/\/www.szkolachroscice.pl","ref:regon":"001165861","ref:vatin":"PL9910247357","operator":"Gmina Dobrze\u0144 Wielki","operator:type":"government","amenity":"school"}},{"id":87823,"type":"Feature","geometry":{"type":"Point","coordinates":[17.80301,50.78421]},"properties":{"ref:rspo":87823,"official_name":"Katolickie Przedszkole Niepubliczne im. B\u0142. Edmunda Bojanowskiego Prowadzone Przez Zgromadzenie Si\u00f3str S\u0142u\u017cebniczek Nmp","name":"Katolickie Przedszkole Niepubliczne","addr:country":"PL","addr:postcode":"46-080","addr:city":"Chr\u00f3\u015bcice","addr:street":"ul. D\u0105browa","addr:housenumber":"8","addr:teryt:simc":3660,"addr:teryt:sym_ul":493250,"contact:phone":"+48 774695645","contact:email":"ochronkachroscice@gmail.com","contact:website":"http:\/\/www.ochronkachroscice.pl","ref:regon":"161495086","ref:vatin":"PL9910307390","operator":"Zgromadzenie Si\u00f3str S\u0142u\u017cebniczek Naj\u015bwi\u0119tszej Maryi Panny Niepokalanie Pocz\u0119tej, Prowincja Opolska","operator:type":"religious","amenity":"kindergarten"}},{"id":85821,"type":"Feature","geometry":{"type":"Point","coordinates":[17.81571,50.78984]},"properties":{"ref:rspo":85821,"official_name":"Publiczne Przedszkole w Chr\u00f3\u015bcicach","name":"Publiczne Przedszkole w Chr\u00f3\u015bcicach","addr:country":"PL","addr:postcode":"46-080","addr:city":"Chr\u00f3\u015bcice","addr:street":"ul. Szkolna","addr:housenumber":"11","addr:teryt:simc":21970,"addr:teryt:sym_ul":493250,"contact:phone":"+48 774695417","contact:email":"pprzedszkole21@vp.pl","contact:website":"http:\/\/www.przedszkole-chroscice.pl","ref:regon":"530580961","ref:vatin":"PL9910198251","operator":"Gmina Dobrze\u0144 Wielki","operator:type":"government","amenity":"kindergarten"}},{"id":61407,"type":"Feature","geometry":{"type":"Point","coordinates":[17.88347,50.80347]},"properties":{"ref:rspo":61407,"official_name":"Zesp\u00f3\u0142 Szk\u00f3\u0142 Niepublicznych Specjalnych dla Uczni\u00f3w Ze Sprz\u0119\u017conymi Niepe\u0142nosprawno\u015bciami, Autyzmem im. \"Alicji Po Drugiej Stronie Lustra\" w Kup","name":"Zesp\u00f3\u0142 Szk\u00f3\u0142 Niepublicznych Specjalnych dla Uczni\u00f3w Ze Sprz\u0119\u017conymi Niepe\u0142nosprawno\u015bciami, Autyzmem","addr:country":"PL","addr:postcode":"46-082","addr:city":"Kup","addr:street":"ul. Miarki","addr:housenumber":"10","addr:teryt:simc":12672,"addr:teryt:sym_ul":493480,"contact:phone":"+48 774695668","contact:email":"autyzmopole@o2.pl","contact:website":"http:\/\/www.autyzmopole.pl","ref:regon":"161491674","ref:vatin":"PL7542750824","operator":"Stowarzyszenie Na Rzecz Autyzmu \"Uczymy Si\u0119 \u017by\u0107 Razem\"","operator:type":"ngo","landuse":"education","fixme":"amenity=school, amenity=college albo landuse=education w zale\u017cno\u015bci od tego, jakie plac\u00f3wki wchodz\u0105 w sk\u0142ad zespo\u0142u. Sprawd\u017a, kiedy stosowa\u0107 amenity=* a kiedy landuse=education.","note":"Children RSPO: 81291;81695;268203"}},{"id":84726,"type":"Feature","geometry":{"type":"Point","coordinates":[17.88347,50.803439999999995]},"properties":{"ref:rspo":84726,"official_name":"Niepubliczne Przedszkole Specjalne dla Dzieci Z Autyzmem w Kup","name":"Niepubliczne Przedszkole Specjalne dla Dzieci Z Autyzmem w Kup","addr:country":"PL","addr:postcode":"46-082","addr:city":"Kup","addr:street":"ul. Miarki","addr:housenumber":"10","addr:teryt:simc":12672,"addr:teryt:sym_ul":493480,"contact:phone":"+48 774695668","contact:email":"sobel8@wp.pl","contact:website":"http:\/\/www.autyzmopole.pl","ref:regon":"161494543","ref:vatin":"PL7542750824","operator":"Stowarzyszenie Na Rzecz Autyzmu \"Uczymy Si\u0119 \u017by\u0107 Razem\"","operator:type":"ngo","amenity":"kindergarten"}},{"id":81291,"type":"Feature","geometry":{"type":"Point","coordinates":[17.88347,50.80341]},"properties":{"isced:level":"1;2","ref:rspo":81291,"official_name":"Niepubliczna Szko\u0142a Podstawowa Specjalna dla Uczni\u00f3w Ze Sprz\u0119\u017conymi Niepe\u0142nosprawno\u015bciami, Atyzmem w Kup","name":"Niepubliczna Szko\u0142a Podstawowa Specjalna dla Uczni\u00f3w Ze Sprz\u0119\u017conymi Niepe\u0142nosprawno\u015bciami, Atyzmem w Kup","addr:country":"PL","addr:postcode":"46-082","addr:city":"Kup","addr:street":"ul. Miarki","addr:housenumber":"10","addr:teryt:simc":12672,"addr:teryt:sym_ul":493480,"contact:phone":"+48 774695668","contact:email":"autyzmopole@o2.pl","contact:website":"http:\/\/www.autyzmopole.pl","ref:regon":"161494023","ref:vatin":"PL7542750824","operator":"Stowarzyszenie Na Rzecz Autyzmu \"Uczymy Si\u0119 \u017by\u0107 Razem\"","operator:type":"ngo","amenity":"school","note":"Parent RSPO: 61407"}},{"id":81695,"type":"Feature","geometry":{"type":"Point","coordinates":[17.88347,50.80338]},"properties":{"ref:rspo":81695,"official_name":"Niepubliczna Szko\u0142a Przysposabiaj\u0105ca Do Pracy dla Uczni\u00f3w Ze Sprz\u0119\u017conymi Niepe\u0142nosprawno\u015bciami, Autyzmem w Kup","name":"Niepubliczna Szko\u0142a Przysposabiaj\u0105ca Do Pracy dla Uczni\u00f3w Ze Sprz\u0119\u017conymi Niepe\u0142nosprawno\u015bciami, Autyzmem w Kup","addr:country":"PL","addr:postcode":"46-082","addr:city":"Kup","addr:street":"ul. Miarki","addr:housenumber":"10-12","addr:teryt:simc":12672,"addr:teryt:sym_ul":493480,"contact:phone":"+48 774695668","contact:email":"autyzmopole@o2.pl","contact:website":"http:\/\/www.autyzmopole.pl","ref:regon":"161494069","ref:vatin":"PL7542750824","operator":"Stowarzyszenie Na Rzecz Autyzmu \"Uczymy Si\u0119 \u017by\u0107 Razem\"","operator:type":"ngo","amenity":"school","note":"Parent RSPO: 61407"}},{"id":268203,"type":"Feature","geometry":{"type":"Point","coordinates":[17.88347,50.803349999999995]},"properties":{"isced:level":"3","ref:rspo":268203,"official_name":"Niepubliczna Bran\u017cowa Szko\u0142a I Stopnia dla Uczni\u00f3w Z Autyzmem","name":"Niepubliczna Bran\u017cowa Szko\u0142a I Stopnia dla Uczni\u00f3w Z Autyzmem","addr:country":"PL","addr:postcode":"46-082","addr:city":"Kup","addr:street":"ul. Miarki","addr:housenumber":"10-12","addr:teryt:simc":12672,"addr:teryt:sym_ul":493480,"contact:phone":"+48 774695668","contact:email":"autyzmopole@o2.pl","contact:website":"http:\/\/www.autyzmopole.pl","ref:regon":"381015348","ref:vatin":"PL7542750824","operator":"Stowarzyszenie Na Rzecz Autyzmu \"Uczymy Si\u0119 \u017by\u0107 Razem\"","operator:type":"ngo","amenity":"school","note":"Parent RSPO: 61407"}},{"id":86108,"type":"Feature","geometry":{"type":"Point","coordinates":[17.89097,50.80526]},"properties":{"ref:rspo":86108,"official_name":"Publiczne Przedszkole w Kup","name":"Publiczne Przedszkole w Kup","addr:country":"PL","addr:postcode":"46-082","addr:city":"Kup","addr:street":"ul. Brynicka","addr:housenumber":"16","addr:teryt:simc":2215,"addr:teryt:sym_ul":493480,"contact:phone":"+48 774695308","contact:email":"sekret@zspkup.pl","contact:website":"http:\/\/www.zspkup.szkolnastrona.pl","ref:regon":"530580932","operator":"Gmina Dobrze\u0144 Wielki","operator:type":"government","amenity":"kindergarten","note":"Parent RSPO: 81523"}},{"id":81523,"type":"Feature","geometry":{"type":"Point","coordinates":[17.8825,50.80877]},"properties":{"ref:rspo":81523,"official_name":"Zesp\u00f3\u0142 Szkolno-Przedszkolny w Kup","name":"Zesp\u00f3\u0142 Szkolno-Przedszkolny w Kup","addr:country":"PL","addr:postcode":"46-082","addr:city":"Kup","addr:street":"ul. 1 Maja","addr:housenumber":"6a","addr:teryt:simc":11926,"addr:teryt:sym_ul":493480,"contact:phone":"+48 774695319","contact:email":"sekret@zspkup.pl","contact:website":"http:\/\/www.zspkup.szkolnastrona.pl","ref:regon":"532319209","ref:vatin":"PL9910243454","operator":"Gmina Dobrze\u0144 Wielki","operator:type":"government","landuse":"education","fixme":"amenity=school, amenity=college albo landuse=education w zale\u017cno\u015bci od tego, jakie plac\u00f3wki wchodz\u0105 w sk\u0142ad zespo\u0142u. Sprawd\u017a, kiedy stosowa\u0107 amenity=* a kiedy landuse=education.","note":"Children RSPO: 85983;86108"}},{"id":85983,"type":"Feature","geometry":{"type":"Point","coordinates":[17.8825,50.80874]},"properties":{"isced:level":"1;2","ref:rspo":85983,"official_name":"Publiczna Szko\u0142a Podstawowa w Kup","name":"Publiczna Szko\u0142a Podstawowa w Kup","addr:country":"PL","addr:postcode":"46-082","addr:city":"Kup","addr:street":"ul. 1 Maja","addr:housenumber":"6a","addr:teryt:simc":11926,"addr:teryt:sym_ul":493480,"contact:phone":"+48 774695319","contact:email":"sekret@zspkup.pl","contact:website":"http:\/\/www.zspkup.szkolnastrona.pl","ref:regon":"001165890","operator":"Gmina Dobrze\u0144 Wielki","operator:type":"government","amenity":"school","note":"Parent RSPO: 81523"}}]}