{
    "type": "FeatureCollection",
    "features": [
        {
            "id": 6631,
            "type": "Feature",
            "geometry": {
                "type": "Point",
                "coordinates": [
                    17.83397,
                    50.54825
                ]
            },
            "properties": {
                "isced:level": "1;2",
                "ref:rspo": 6631,
                "official_name": "Publiczna Szko\u0142a Podstawowa im. Bronis\u0142awa Koraszewskiego w Pr\u00f3szkowie",
                "name": "Publiczna Szko\u0142a Podstawowa",
                "addr:postcode": "46-060",
                "addr:city": "Pr\u00f3szk\u00f3w",
                "addr:street": "Szkolna",
                "addr:housenumber": "6",
                "addr:teryt:simc": 502523,
                "addr:teryt:sym_ul": 21970,
                "phone": "+48 774648083",
                "email": "pspproszkow@poczta.onet.pl",
                "website": "http:\/\/www.pspproszkow.pl",
                "ref:regon": "000273821",
                "ref:vatin": "PL9910058685",
                "operator": "Gmina Pr\u00f3szk\u00f3w",
                "operator:type": "government",
                "amenity": "school"
            }
        },
        {
            "id": 6634,
            "type": "Feature",
            "geometry": {
                "type": "Point",
                "coordinates": [
                    17.83433,
                    50.55017
                ]
            },
            "properties": {
                "ref:rspo": 6634,
                "official_name": "Przedszkole Publiczne w Ligocie Pr\u00f3szkowskiej",
                "name": "Przedszkole Publiczne w Ligocie Pr\u00f3szkowskiej",
                "addr:postcode": "46-060",
                "addr:city": "Ligota Pr\u00f3szkowska",
                "addr:street": "Szkolna",
                "addr:housenumber": "12",
                "addr:teryt:simc": 502500,
                "addr:teryt:sym_ul": 21970,
                "phone": "+48 774648648",
                "email": "ppligota1@gmail.com",
                "ref:regon": "530586372",
                "ref:vatin": "PL9910058774",
                "operator": "Gmina Pr\u00f3szk\u00f3w",
                "operator:type": "government",
                "amenity": "kindergarten"
            }
        },
        {
            "id": 11758,
            "type": "Feature",
            "geometry": {
                "type": "Point",
                "coordinates": [
                    17.8314999,
                    50.55342
                ]
            },
            "properties": {
                "isced:level": "1;2",
                "ref:rspo": 11758,
                "official_name": "Publiczna Szko\u0142a Podstawowa w Ligocie Pr\u00f3szkowskiej",
                "name": "Publiczna Szko\u0142a Podstawowa w Ligocie Pr\u00f3szkowskiej",
                "addr:postcode": "46-060",
                "addr:city": "Ligota Pr\u00f3szkowska",
                "addr:street": "Szkolna",
                "addr:housenumber": "25",
                "addr:teryt:simc": 502500,
                "addr:teryt:sym_ul": 21970,
                "phone": "+48 774648115",
                "email": "szkolaligota@vp.pl",
                "ref:regon": "001195632",
                "ref:vatin": "PL9910058739",
                "operator": "Gmina Pr\u00f3szk\u00f3w",
                "operator:type": "government",
                "amenity": "school"
            }
        },
        {
            "id": 6636,
            "type": "Feature",
            "geometry": {
                "type": "Point",
                "coordinates": [
                    17.93396,
                    50.55818
                ]
            },
            "properties": {
                "ref:rspo": 6636,
                "official_name": "Przedszkole Publiczne w Zimnicach Wielkich",
                "name": "Przedszkole Publiczne w Zimnicach Wielkich",
                "addr:postcode": "46-061",
                "addr:city": "Zimnice Wielkie",
                "addr:street": "Opolska",
                "addr:housenumber": "44",
                "addr:teryt:simc": 502581,
                "addr:teryt:sym_ul": 15095,
                "phone": "+48 774648620",
                "email": "ppzimnice@o2.pl",
                "ref:regon": "530586886",
                "ref:vatin": "PL9910058656",
                "operator": "Gmina Pr\u00f3szk\u00f3w",
                "operator:type": "government",
                "amenity": "kindergarten"
            }
        },
        {
            "id": 26942,
            "type": "Feature",
            "geometry": {
                "type": "Point",
                "coordinates": [
                    17.93618,
                    50.5597
                ]
            },
            "properties": {
                "isced:level": "1;2",
                "ref:rspo": 26942,
                "official_name": "Publiczna Szko\u0142a Podstawowa im. Ks. Karola Brommera w Zimnicach Wielkich",
                "name": "Publiczna Szko\u0142a Podstawowa",
                "addr:postcode": "46-061",
                "addr:city": "Zimnice Wielkie",
                "addr:street": "Szkolna",
                "addr:housenumber": "5",
                "addr:teryt:simc": 502581,
                "addr:teryt:sym_ul": 21970,
                "phone": "+48 774643137",
                "email": "zs_zimnice@wodip.opole.pl",
                "website": "http:\/\/www.psp-zimnicewielkie.pl\/",
                "ref:regon": "001195247",
                "ref:vatin": "PL9910359085",
                "operator": "Gmina Pr\u00f3szk\u00f3w",
                "operator:type": "government",
                "amenity": "school"
            }
        },
        {
            "id": 6633,
            "type": "Feature",
            "geometry": {
                "type": "Point",
                "coordinates": [
                    17.87097,
                    50.5764
                ]
            },
            "properties": {
                "ref:rspo": 6633,
                "official_name": "Przedszkole Publiczne w Pr\u00f3szkowie",
                "name": "Przedszkole Publiczne w Pr\u00f3szkowie",
                "addr:postcode": "46-060",
                "addr:city": "Pr\u00f3szk\u00f3w",
                "addr:street": "Ignacego Krasickiego",
                "addr:housenumber": "2",
                "addr:teryt:simc": 502523,
                "addr:teryt:sym_ul": 9830,
                "phone": "+48 774648072",
                "email": "przedszkoleproszkow@gmail.com",
                "website": "http:\/\/www.przedszkole.proszkow.pl",
                "ref:regon": "530586389",
                "ref:vatin": "PL9910058745",
                "operator": "Gmina Pr\u00f3szk\u00f3w",
                "operator:type": "government",
                "amenity": "kindergarten"
            }
        },
        {
            "id": 13343,
            "type": "Feature",
            "geometry": {
                "type": "Point",
                "coordinates": [
                    17.93267,
                    50.59174
                ]
            },
            "properties": {
                "ref:rspo": 13343,
                "official_name": "Zesp\u00f3\u0142 Szkolno-Przedszkolny im. Jana Paw\u0142a II w Boguszycach",
                "name": "Zesp\u00f3\u0142 Szkolno-Przedszkolny",
                "addr:postcode": "46-060",
                "addr:city": "Boguszyce",
                "addr:street": "Opolska",
                "addr:housenumber": "17",
                "addr:teryt:simc": 502440,
                "addr:teryt:sym_ul": 15095,
                "phone": "+48 774648578",
                "email": "pspboguszyce@wp.pl",
                "ref:regon": "160148342",
                "ref:vatin": "PL9910399831",
                "operator": "Gmina Pr\u00f3szk\u00f3w",
                "operator:type": "government",
                "landuse": "education",
                "fixme": "amenity=school, amenity=college albo landuse=education w zale\u017cno\u015bci od tego, jakie plac\u00f3wki wchodz\u0105 w sk\u0142ad zespo\u0142u. Sprawd\u017a, kiedy stosowa\u0107 amenity=* a kiedy landuse=education.",
                "note": "Children RSPO: 26945;27957"
            }
        },
        {
            "id": 26945,
            "type": "Feature",
            "geometry": {
                "type": "Point",
                "coordinates": [
                    17.93267,
                    50.59171
                ]
            },
            "properties": {
                "ref:rspo": 26945,
                "official_name": "Przedszkole Publiczne w Boguszycach",
                "name": "Przedszkole Publiczne w Boguszycach",
                "addr:postcode": "46-060",
                "addr:city": "Boguszyce",
                "addr:street": "Opolska",
                "addr:housenumber": "17",
                "addr:teryt:simc": 502440,
                "addr:teryt:sym_ul": 15095,
                "phone": "+48 774648578",
                "email": "pspboguszyce@wp.pl",
                "ref:regon": "530586432",
                "operator": "Gmina Pr\u00f3szk\u00f3w",
                "operator:type": "government",
                "amenity": "kindergarten",
                "note": "Parent RSPO: 13343"
            }
        },
        {
            "id": 27957,
            "type": "Feature",
            "geometry": {
                "type": "Point",
                "coordinates": [
                    17.93267,
                    50.591680000000004
                ]
            },
            "properties": {
                "isced:level": "1;2",
                "ref:rspo": 27957,
                "official_name": "Publiczna Szko\u0142a Podstawowa w Boguszycach",
                "name": "Publiczna Szko\u0142a Podstawowa w Boguszycach",
                "addr:postcode": "46-060",
                "addr:city": "Boguszyce",
                "addr:street": "Opolska",
                "addr:housenumber": "17",
                "addr:teryt:simc": 502440,
                "addr:teryt:sym_ul": 15095,
                "phone": "+48 774648578",
                "email": "pspboguszyce@wp.pl",
                "ref:regon": "001195626",
                "operator": "Gmina Pr\u00f3szk\u00f3w",
                "operator:type": "government",
                "amenity": "school",
                "note": "Parent RSPO: 13343"
            }
        },
        {
            "id": 61396,
            "type": "Feature",
            "geometry": {
                "type": "Point",
                "coordinates": [
                    17.8842,
                    50.594
                ]
            },
            "properties": {
                "ref:rspo": 61396,
                "official_name": "Zesp\u00f3\u0142 Szk\u00f3\u0142 im. J\u00f3zefa Warszewicza w Pr\u00f3szkowie",
                "name": "Zesp\u00f3\u0142 Szk\u00f3\u0142",
                "addr:postcode": "46-060",
                "addr:city": "Pr\u00f3szk\u00f3w",
                "addr:street": "Pomologia",
                "addr:housenumber": "11",
                "addr:teryt:simc": 502523,
                "addr:teryt:sym_ul": 37053,
                "phone": "+48 774648070",
                "email": "sekretariat@pomologia.pl",
                "website": "http:\/\/www.pomologia.pl",
                "ref:regon": "000095041",
                "ref:vatin": "PL7541091526",
                "operator": "Powiat Opolski",
                "operator:type": "government",
                "landuse": "education",
                "fixme": "amenity=school, amenity=college albo landuse=education w zale\u017cno\u015bci od tego, jakie plac\u00f3wki wchodz\u0105 w sk\u0142ad zespo\u0142u. Sprawd\u017a, kiedy stosowa\u0107 amenity=* a kiedy landuse=education.",
                "note": "Children RSPO: 73913;126443;270584;270585"
            }
        },
        {
            "id": 73913,
            "type": "Feature",
            "geometry": {
                "type": "Point",
                "coordinates": [
                    17.8842,
                    50.59397
                ]
            },
            "properties": {
                "isced:level": "3",
                "ref:rspo": 73913,
                "official_name": "Publiczne Liceum Og\u00f3lnokszta\u0142c\u0105ce w Zespole Szk\u00f3\u0142 im. J\u00f3zefa Warszewicza w Pr\u00f3szkowie",
                "name": "Publiczne Liceum Og\u00f3lnokszta\u0142c\u0105ce w Zespole Szk\u00f3\u0142",
                "addr:postcode": "46-060",
                "addr:city": "Pr\u00f3szk\u00f3w",
                "addr:street": "Pomologia",
                "addr:housenumber": "11",
                "addr:teryt:simc": 502523,
                "addr:teryt:sym_ul": 37053,
                "phone": "+48 774648070",
                "email": "sekretariat@pomologia.pl",
                "website": "http:\/\/www.pomologia.pl",
                "ref:regon": "532224839",
                "ref:vatin": "PL7541091526",
                "operator": "Powiat Opolski",
                "operator:type": "government",
                "amenity": "school",
                "note": "Parent RSPO: 61396"
            }
        },
        {
            "id": 126443,
            "type": "Feature",
            "geometry": {
                "type": "Point",
                "coordinates": [
                    17.8842,
                    50.59394
                ]
            },
            "properties": {
                "isced:level": "3",
                "ref:rspo": 126443,
                "official_name": "Publiczne Technikum Zespo\u0142u Szk\u00f3\u0142 im. J\u00f3zefa Warszewicza w Pr\u00f3szkowie",
                "name": "Publiczne Technikum Zespo\u0142u Szk\u00f3\u0142",
                "addr:postcode": "46-060",
                "addr:city": "Pr\u00f3szk\u00f3w",
                "addr:street": "Pomologia",
                "addr:housenumber": "11",
                "addr:teryt:simc": 502523,
                "addr:teryt:sym_ul": 37053,
                "phone": "+48 774648070",
                "email": "sekretariat@pomologia.pl",
                "website": "http:\/\/www.pomologia.pl",
                "ref:regon": "532327516",
                "ref:vatin": "PL7541091526",
                "operator": "Powiat Opolski",
                "operator:type": "government",
                "amenity": "school",
                "note": "Parent RSPO: 61396"
            }
        },
        {
            "id": 270584,
            "type": "Feature",
            "geometry": {
                "type": "Point",
                "coordinates": [
                    17.8842,
                    50.59391
                ]
            },
            "properties": {
                "isced:level": "4",
                "ref:rspo": 270584,
                "official_name": "Publiczna Szko\u0142a Policealna dla Doros\u0142ych",
                "name": "Publiczna Szko\u0142a Policealna dla Doros\u0142ych",
                "addr:postcode": "46-060",
                "addr:city": "Pr\u00f3szk\u00f3w",
                "addr:street": "Pomologia",
                "addr:housenumber": "11",
                "addr:teryt:simc": 502523,
                "addr:teryt:sym_ul": 37053,
                "phone": "+48 774648070",
                "email": "sekretariat@pomologia.pl",
                "website": "http:\/\/www.pomologia.pl",
                "ref:regon": "382783084",
                "operator": "Powiat Opolski",
                "operator:type": "government",
                "amenity": "college",
                "note": "Parent RSPO: 61396"
            }
        },
        {
            "id": 270585,
            "type": "Feature",
            "geometry": {
                "type": "Point",
                "coordinates": [
                    17.8842,
                    50.59388
                ]
            },
            "properties": {
                "isced:level": "3",
                "ref:rspo": 270585,
                "official_name": "Publiczne Liceum Og\u00f3lnokszta\u0142c\u0105ce dla Doros\u0142ych",
                "name": "Publiczne Liceum Og\u00f3lnokszta\u0142c\u0105ce dla Doros\u0142ych",
                "addr:postcode": "46-060",
                "addr:city": "Pr\u00f3szk\u00f3w",
                "addr:street": "Pomologia",
                "addr:housenumber": "11",
                "addr:teryt:simc": 502523,
                "addr:teryt:sym_ul": 37053,
                "phone": "+48 774648070",
                "email": "sekretariat@pomologia.pl",
                "website": "http:\/\/www.pomologia.pl",
                "ref:regon": "382783339",
                "operator": "Powiat Opolski",
                "operator:type": "government",
                "amenity": "school",
                "note": "Parent RSPO: 61396"
            }
        },
        {
            "id": 13341,
            "type": "Feature",
            "geometry": {
                "type": "Point",
                "coordinates": [
                    17.89236,
                    50.60154
                ]
            },
            "properties": {
                "ref:rspo": 13341,
                "official_name": "Zesp\u00f3L Szkolno-Przedszkolny im. Pisarzy \u015aL\u0105skich w Z\u0142otnikach",
                "name": "Zesp\u00f3L Szkolno-Przedszkolny",
                "addr:postcode": "46-060",
                "addr:city": "Z\u0142otniki",
                "addr:street": "Opolska",
                "addr:housenumber": "40",
                "addr:teryt:simc": 502598,
                "addr:teryt:sym_ul": 15095,
                "phone": "+48 774648017",
                "email": "sp_zlotniki@wodip.opole.pl",
                "ref:regon": "160145020",
                "ref:vatin": "PL9910398961",
                "operator": "Gmina Pr\u00f3szk\u00f3w",
                "operator:type": "government",
                "landuse": "education",
                "fixme": "amenity=school, amenity=college albo landuse=education w zale\u017cno\u015bci od tego, jakie plac\u00f3wki wchodz\u0105 w sk\u0142ad zespo\u0142u. Sprawd\u017a, kiedy stosowa\u0107 amenity=* a kiedy landuse=education.",
                "note": "Children RSPO: 26939;26941"
            }
        },
        {
            "id": 26939,
            "type": "Feature",
            "geometry": {
                "type": "Point",
                "coordinates": [
                    17.89236,
                    50.60151
                ]
            },
            "properties": {
                "isced:level": "1;2",
                "ref:rspo": 26939,
                "official_name": "Publiczna Szko\u0142a Podstawowa w Z\u0142otnikach",
                "name": "Publiczna Szko\u0142a Podstawowa w Z\u0142otnikach",
                "addr:postcode": "46-060",
                "addr:city": "Z\u0142otniki",
                "addr:street": "Opolska",
                "addr:housenumber": "40",
                "addr:teryt:simc": 502598,
                "addr:teryt:sym_ul": 15095,
                "phone": "+48 774648017",
                "email": "sp_zlotniki@wodip.opole.pl",
                "website": "http:\/\/sp-zlotniki.wodip.opole.pl",
                "ref:regon": "001195193",
                "operator": "Gmina Pr\u00f3szk\u00f3w",
                "operator:type": "government",
                "amenity": "school",
                "note": "Parent RSPO: 13341"
            }
        },
        {
            "id": 26941,
            "type": "Feature",
            "geometry": {
                "type": "Point",
                "coordinates": [
                    17.89236,
                    50.60148
                ]
            },
            "properties": {
                "ref:rspo": 26941,
                "official_name": "Przedszkole Publiczne w Z\u0142otnikach",
                "name": "Przedszkole Publiczne w Z\u0142otnikach",
                "addr:postcode": "46-060",
                "addr:city": "Z\u0142otniki",
                "addr:street": "Opolska",
                "addr:housenumber": "40",
                "addr:teryt:simc": 502598,
                "addr:teryt:sym_ul": 15095,
                "phone": "+48 774648017",
                "email": "sp_zlotniki@wodip.opole.pl",
                "website": "http:\/\/sp-zlotniki.wodip.opole.pl",
                "ref:regon": "530586426",
                "operator": "Gmina Pr\u00f3szk\u00f3w",
                "operator:type": "government",
                "amenity": "kindergarten",
                "note": "Parent RSPO: 13341"
            }
        },
        {
            "id": 119254,
            "type": "Feature",
            "geometry": {
                "type": "Point",
                "coordinates": [
                    17.9251,
                    50.62192
                ]
            },
            "properties": {
                "ref:rspo": 119254,
                "official_name": "Niepubliczne Przedszkole \"\u017babka\" w Przysieczy",
                "name": "Niepubliczne Przedszkole \"\u017babka\" w Przysieczy",
                "addr:postcode": "46-060",
                "addr:city": "Pr\u00f3szk\u00f3w",
                "addr:street": "Szkolna",
                "addr:housenumber": "14",
                "addr:teryt:simc": 502523,
                "addr:teryt:sym_ul": 21970,
                "phone": "+48 774145190",
                "email": "basiaosrodek@wp.pl",
                "ref:regon": "161548931",
                "operator": "Barbara Wla\u017alik",
                "operator:type": "private",
                "amenity": "kindergarten"
            }
        },
        {
            "id": 6635,
            "type": "Feature",
            "geometry": {
                "type": "Point",
                "coordinates": [
                    17.8989,
                    50.62564
                ]
            },
            "properties": {
                "ref:rspo": 6635,
                "official_name": "Przedszkole Publiczne w G\u00f3rkach",
                "name": "Przedszkole Publiczne w G\u00f3rkach",
                "addr:postcode": "46-060",
                "addr:city": "G\u00f3rki",
                "addr:street": "Opolska",
                "addr:housenumber": "13",
                "addr:teryt:simc": 502486,
                "addr:teryt:sym_ul": 15095,
                "phone": "+48 774748476",
                "email": "ppgorki@gmail.com",
                "website": "http:\/\/przedszkole-gorki.pl",
                "ref:regon": "530586403",
                "ref:vatin": "PL9910058691",
                "operator": "Gmina Pr\u00f3szk\u00f3w",
                "operator:type": "government",
                "amenity": "kindergarten"
            }
        }
    ]
}