{
    "type": "FeatureCollection",
    "features": [
        {
            "id": 10237,
            "type": "Feature",
            "geometry": {
                "type": "Point",
                "coordinates": [
                    18.13835,
                    50.61764
                ]
            },
            "properties": {
                "isced:level": "1;2",
                "ref:rspo": 10237,
                "official_name": "Publiczna Szko\u0142a Podstawowa Z Punktem Przedszkolnym w Da\u0144cu",
                "name": "Publiczna Szko\u0142a Podstawowa Z Punktem Przedszkolnym w Da\u0144cu",
                "addr:postcode": "46-053",
                "addr:city": "Daniec",
                "addr:street": "Utracka",
                "addr:housenumber": "8",
                "addr:teryt:simc": 492581,
                "addr:teryt:sym_ul": 23451,
                "phone": "+48 774219677",
                "email": "sekretariat@spdaniec.pl",
                "website": "http:\/\/www.spdaniec.pl",
                "ref:regon": "001165967",
                "operator": "Gmina Chrz\u0105stowice",
                "operator:type": "government",
                "amenity": "school"
            }
        },
        {
            "id": 11232,
            "type": "Feature",
            "geometry": {
                "type": "Point",
                "coordinates": [
                    18.08959,
                    50.63689
                ]
            },
            "properties": {
                "isced:level": "1;2",
                "ref:rspo": 11232,
                "official_name": "Publiczna Szko\u0142a Podstawowa Z Oddzia\u0142em Przedszkolnym w D\u0119biu",
                "name": "Publiczna Szko\u0142a Podstawowa Z Oddzia\u0142em Przedszkolnym w D\u0119biu",
                "addr:postcode": "46-053",
                "addr:city": "D\u0119bie",
                "addr:street": "Wiejska",
                "addr:housenumber": "18",
                "addr:teryt:simc": 492612,
                "addr:teryt:sym_ul": 24048,
                "phone": "+48 774219616",
                "email": "sekretariat@psp-debie.pl",
                "website": "http:\/\/www.psp-debie.pl",
                "ref:regon": "001166257",
                "ref:vatin": "PL9910409742",
                "operator": "Gmina Chrz\u0105stowice",
                "operator:type": "government",
                "amenity": "school"
            }
        },
        {
            "id": 10160,
            "type": "Feature",
            "geometry": {
                "type": "Point",
                "coordinates": [
                    18.04402,
                    50.65181
                ]
            },
            "properties": {
                "isced:level": "1;2",
                "ref:rspo": 10160,
                "official_name": "Publiczna Szko\u0142a Podstawowa w Chrz\u0105stowicach",
                "name": "Publiczna Szko\u0142a Podstawowa w Chrz\u0105stowicach",
                "addr:postcode": "46-053",
                "addr:city": "Chrz\u0105stowice",
                "addr:street": "Szkolna",
                "addr:housenumber": "1",
                "addr:teryt:simc": 492575,
                "addr:teryt:sym_ul": 21970,
                "phone": "+48 774219619",
                "email": "sekretariat@spstaszic.pl",
                "website": "https:\/\/szkola-chrzastowice.stronyzklasa.pl\/",
                "ref:regon": "000266867",
                "ref:vatin": "PL9910233898",
                "operator": "Gmina Chrz\u0105stowice",
                "operator:type": "government",
                "amenity": "school"
            }
        },
        {
            "id": 119442,
            "type": "Feature",
            "geometry": {
                "type": "Point",
                "coordinates": [
                    18.03149,
                    50.6539
                ]
            },
            "properties": {
                "ref:rspo": 119442,
                "official_name": "Niepubliczne Przedszkole Suchoborek",
                "name": "Niepubliczne Przedszkole Suchoborek",
                "addr:postcode": "46-053",
                "addr:city": "Suchy B\u00f3r",
                "addr:street": "Le\u015bna",
                "addr:housenumber": "9",
                "addr:teryt:simc": 492687,
                "addr:teryt:sym_ul": 10898,
                "phone": "+48 774592433",
                "email": "zlobek-suchoborek@wp.pl",
                "website": "http:\/\/suchoborek.szkolnastrona.pl",
                "ref:regon": "161549497",
                "operator": "Ewelina Kicia",
                "operator:type": "private",
                "amenity": "kindergarten"
            }
        },
        {
            "id": 11188,
            "type": "Feature",
            "geometry": {
                "type": "Point",
                "coordinates": [
                    18.09907,
                    50.65469
                ]
            },
            "properties": {
                "ref:rspo": 11188,
                "official_name": "Publiczne Przedszkole w D\u0119bskiej Ku\u017ani",
                "name": "Publiczne Przedszkole w D\u0119bskiej Ku\u017ani",
                "addr:postcode": "46-053",
                "addr:city": "D\u0119bska Ku\u017ania",
                "addr:street": "Ignacego Krasickiego",
                "addr:housenumber": "5",
                "addr:teryt:simc": 492629,
                "addr:teryt:sym_ul": 9830,
                "phone": "+48 774218146",
                "email": "sekretariat@debskakuznia.pl",
                "ref:regon": "530573553",
                "ref:vatin": "PL9910284039",
                "operator": "Gmina Chrz\u0105stowice",
                "operator:type": "government",
                "amenity": "kindergarten",
                "note": "Parent RSPO: 10165"
            }
        },
        {
            "id": 10165,
            "type": "Feature",
            "geometry": {
                "type": "Point",
                "coordinates": [
                    18.10732,
                    50.66264
                ]
            },
            "properties": {
                "ref:rspo": 10165,
                "official_name": "Zesp\u00f3\u0142 Szkolno-Przedszkolny Nr 3 w D\u0119bskiej Ku\u017ani",
                "name": "Zesp\u00f3\u0142 Szkolno-Przedszkolny Nr 3 w D\u0119bskiej Ku\u017ani",
                "addr:postcode": "46-053",
                "addr:city": "D\u0119bska Ku\u017ania",
                "addr:street": "Wiejska",
                "addr:housenumber": "53",
                "addr:teryt:simc": 492629,
                "addr:teryt:sym_ul": 24048,
                "phone": "+48 774218146",
                "email": "sekretariat@debskakuznia.pl",
                "website": "http:\/\/www.debskakuznia.pl",
                "ref:regon": "532454338",
                "ref:vatin": "PL9910298219",
                "operator": "Gmina Chrz\u0105stowice",
                "operator:type": "government",
                "landuse": "education",
                "fixme": "amenity=school, amenity=college albo landuse=education w zale\u017cno\u015bci od tego, jakie plac\u00f3wki wchodz\u0105 w sk\u0142ad zespo\u0142u. Sprawd\u017a, kiedy stosowa\u0107 amenity=* a kiedy landuse=education.",
                "note": "Children RSPO: 11164;11188"
            }
        },
        {
            "id": 11164,
            "type": "Feature",
            "geometry": {
                "type": "Point",
                "coordinates": [
                    18.10732,
                    50.66261
                ]
            },
            "properties": {
                "isced:level": "1;2",
                "ref:rspo": 11164,
                "official_name": "Publiczna Szko\u0142a Podstawowa w D\u0119bskiej Ku\u017ani",
                "name": "Publiczna Szko\u0142a Podstawowa w D\u0119bskiej Ku\u017ani",
                "addr:postcode": "46-053",
                "addr:city": "D\u0119bska Ku\u017ania",
                "addr:street": "Wiejska",
                "addr:housenumber": "53",
                "addr:teryt:simc": 492629,
                "addr:teryt:sym_ul": 24048,
                "phone": "+48 774218146",
                "email": "sekretariat@debskakuznia.pl",
                "website": "http:\/\/www.debskakuznia.pl",
                "ref:regon": "001166286",
                "ref:vatin": "PL9910233958",
                "operator": "Gmina Chrz\u0105stowice",
                "operator:type": "government",
                "amenity": "school",
                "note": "Parent RSPO: 10165"
            }
        },
        {
            "id": 12096,
            "type": "Feature",
            "geometry": {
                "type": "Point",
                "coordinates": [
                    18.10722,
                    50.66696
                ]
            },
            "properties": {
                "ref:rspo": 12096,
                "official_name": "Publiczne Przedszkole w Chrz\u0105stowicach",
                "name": "Publiczne Przedszkole w Chrz\u0105stowicach",
                "addr:postcode": "46-053",
                "addr:city": "Chrz\u0105stowice",
                "addr:street": "Ozimska",
                "addr:housenumber": "3A",
                "addr:teryt:simc": 492575,
                "addr:teryt:sym_ul": 15487,
                "phone": "+48 774219776",
                "email": "przedszkole.ch@interia.pl",
                "website": "http:\/\/www.przedszkole.ch.szkolnastrona.pl",
                "ref:regon": "530573464",
                "ref:vatin": "PL9910284016",
                "operator": "Gmina Chrz\u0105stowice",
                "operator:type": "government",
                "amenity": "kindergarten"
            }
        }
    ]
}