{
    "type": "FeatureCollection",
    "features": [
        {
            "id": 115430,
            "type": "Feature",
            "geometry": {
                "type": "Point",
                "coordinates": [
                    17.51946,
                    50.59574
                ]
            },
            "properties": {
                "isced:level": "1;2",
                "ref:rspo": 115430,
                "official_name": "Szko\u0142a Podstawowa Z Oddzia\u0142ami Przedszkolnymi Stowarzyszenia Przyjaci\u00f3\u0142 Szk\u00f3\u0142 Katolickich im. \u015aw. Jana Paw\u0142a II Z Siedzib\u0105 w Grabinie",
                "name": "Szko\u0142a Podstawowa Z Oddzia\u0142ami Przedszkolnymi Stowarzyszenia Przyjaci\u00f3\u0142 Szk\u00f3\u0142 Katolickich",
                "addr:postcode": "49-100",
                "addr:city": "Grabin",
                "addr:street": "Nyska",
                "addr:housenumber": "90",
                "addr:city:simc": 499985,
                "addr:street:sym_ul": 14559,
                "phone": "+48 774609194",
                "email": "pspgrabin@wp.pl",
                "website": "http:\/\/www.pspgrabin.szkolnastrona.pl",
                "ref:regon": "161539234",
                "operator": "Stowarzyszenie Przyjaci\u00f3\u0142 Szk\u00f3\u0142 Katolickich",
                "operator:type": "ngo",
                "amenity": "school"
            }
        },
        {
            "id": 279042,
            "type": "Feature",
            "geometry": {
                "type": "Point",
                "coordinates": [
                    17.62818,
                    50.63814
                ]
            },
            "properties": {
                "ref:rspo": 279042,
                "official_name": "Niepubliczny Punkt Przedszkolny Dinolandia",
                "name": "Niepubliczny Punkt Przedszkolny Dinolandia",
                "addr:postcode": "49-100",
                "addr:city": "Niemodlin",
                "addr:street": "Aleja Wolno\u015bci",
                "addr:housenumber": "7",
                "addr:city:simc": 965750,
                "addr:street:sym_ul": 207,
                "ref:regon": "520472535",
                "ref:vatin": "PL9910175540",
                "operator": "Przemys\u0142aw \u0141yszczarczyk",
                "operator:type": "private",
                "amenity": "kindergarten"
            }
        },
        {
            "id": 48744,
            "type": "Feature",
            "geometry": {
                "type": "Point",
                "coordinates": [
                    17.63173,
                    50.6382
                ]
            },
            "properties": {
                "isced:level": "1;2",
                "ref:rspo": 48744,
                "official_name": "Szko\u0142a Podstawowa Nr 1 im. Janusza Korczaka w Niemodlinie",
                "name": "Szko\u0142a Podstawowa Nr 1",
                "addr:postcode": "49-100",
                "addr:city": "Niemodlin",
                "addr:street": "W\u0142adys\u0142awa Reymonta",
                "addr:housenumber": "9",
                "addr:city:simc": 965750,
                "addr:street:sym_ul": 18645,
                "phone": "+48 774023370",
                "email": "dyrektor.sp1n@cuwniemodlin.pl",
                "website": "http:\/\/www.sp1niemodlin.pl",
                "ref:regon": "001182227",
                "ref:vatin": "PL9910193934",
                "operator": "Gmina Niemodlin",
                "operator:type": "government",
                "amenity": "school"
            }
        },
        {
            "id": 61403,
            "type": "Feature",
            "geometry": {
                "type": "Point",
                "coordinates": [
                    17.6254199,
                    50.64046
                ]
            },
            "properties": {
                "ref:rspo": 61403,
                "official_name": "Poradnia Psychologiczno-Pedagogiczna w Niemodlinie",
                "name": "Poradnia Psychologiczno-Pedagogiczna w Niemodlinie",
                "addr:postcode": "49-100",
                "addr:city": "Niemodlin",
                "addr:street": "Wojska Polskiego",
                "addr:housenumber": "5",
                "addr:city:simc": 965750,
                "addr:street:sym_ul": 24628,
                "phone": "+48 774606363",
                "email": "pppniemodlin@o2.pl",
                "ref:regon": "000743037",
                "ref:vatin": "PL9910059897",
                "operator": "Powiat Opolski",
                "operator:type": "government",
                "healthcare": "counselling",
                "counselling_type": "education",
                "fixme": "w zale\u017cno\u015bci od przedmiotu dzia\u0142alno\u015bci (np. healthcare=counselling + counselling_type=education albo healthcare=psychotherapist)"
            }
        },
        {
            "id": 55605,
            "type": "Feature",
            "geometry": {
                "type": "Point",
                "coordinates": [
                    17.63198,
                    50.6407
                ]
            },
            "properties": {
                "ref:rspo": 55605,
                "official_name": "Przedszkole Publiczne Nr 2 w Niemodlinie",
                "name": "Przedszkole Publiczne Nr 2 w Niemodlinie",
                "addr:postcode": "49-100",
                "addr:city": "Niemodlin",
                "addr:street": "Opolska",
                "addr:housenumber": "30A",
                "addr:city:simc": 965750,
                "addr:street:sym_ul": 15095,
                "phone": "+48 774606652",
                "email": "dyrektor.pp2n@cuwniemodlin.pl",
                "ref:regon": "530578190",
                "ref:vatin": "PL9910193845",
                "operator": "Gmina Niemodlin",
                "operator:type": "government",
                "amenity": "kindergarten"
            }
        },
        {
            "id": 61417,
            "type": "Feature",
            "geometry": {
                "type": "Point",
                "coordinates": [
                    17.63277,
                    50.64184
                ]
            },
            "properties": {
                "ref:rspo": 61417,
                "official_name": "Zesp\u00f3\u0142 Szk\u00f3\u0142 im. Boles\u0142awa Chrobrego w Niemodlinie",
                "name": "Zesp\u00f3\u0142 Szk\u00f3\u0142",
                "addr:postcode": "49-100",
                "addr:city": "Niemodlin",
                "addr:street": "Opolska",
                "addr:housenumber": "34",
                "addr:city:simc": 965750,
                "addr:street:sym_ul": 15095,
                "phone": "+48 774606222",
                "email": "zsniemodlin@wodip.opole.pl",
                "website": "http:\/\/www.zsniemodlin.pl",
                "ref:regon": "000195802",
                "ref:vatin": "PL7541816484",
                "operator": "Powiat Opolski",
                "operator:type": "government",
                "landuse": "education",
                "fixme": "amenity=school, amenity=college albo landuse=education w zale\u017cno\u015bci od tego, jakie plac\u00f3wki wchodz\u0105 w sk\u0142ad zespo\u0142u. Sprawd\u017a, kiedy stosowa\u0107 amenity=* a kiedy landuse=education.",
                "note": "Children RSPO: 73905;73906;275780;277320"
            }
        },
        {
            "id": 73905,
            "type": "Feature",
            "geometry": {
                "type": "Point",
                "coordinates": [
                    17.63277,
                    50.64181
                ]
            },
            "properties": {
                "isced:level": "3",
                "ref:rspo": 73905,
                "official_name": "Publiczne Liceum Og\u00f3lnokszta\u0142c\u0105ce Zespo\u0142u Szk\u00f3\u0142 im. Boles\u0142awa Chrobrego w Niemodlinie",
                "name": "Publiczne Liceum Og\u00f3lnokszta\u0142c\u0105ce Zespo\u0142u Szk\u00f3\u0142",
                "addr:postcode": "49-100",
                "addr:city": "Niemodlin",
                "addr:street": "Opolska",
                "addr:housenumber": "34",
                "addr:city:simc": 965750,
                "addr:street:sym_ul": 15095,
                "phone": "+48 774606222",
                "email": "zsniemodlin@wodip.opole.pl",
                "website": "http:\/\/www.zsniemodlin.pl",
                "ref:regon": "532327901",
                "ref:vatin": "PL7541816484",
                "operator": "Powiat Opolski",
                "operator:type": "government",
                "amenity": "school",
                "note": "Parent RSPO: 61417"
            }
        },
        {
            "id": 73906,
            "type": "Feature",
            "geometry": {
                "type": "Point",
                "coordinates": [
                    17.63277,
                    50.641780000000004
                ]
            },
            "properties": {
                "isced:level": "3",
                "ref:rspo": 73906,
                "official_name": "Publiczna Bran\u017cowa Szko\u0142a I Stopnia Zespo\u0142u Szk\u00f3\u0142 im. Boles\u0142awa Chrobrego w Niemodlinie",
                "name": "Publiczna Bran\u017cowa Szko\u0142a I Stopnia Zespo\u0142u Szk\u00f3\u0142",
                "addr:postcode": "49-100",
                "addr:city": "Niemodlin",
                "addr:street": "Opolska",
                "addr:housenumber": "34",
                "addr:city:simc": 965750,
                "addr:street:sym_ul": 15095,
                "phone": "+48 774606222",
                "email": "zsniemodlin@wodip.opole.pl",
                "website": "http:\/\/www.zsniemodlin.pl",
                "ref:regon": "532217029",
                "ref:vatin": "PL7541816484",
                "operator": "Powiat Opolski",
                "operator:type": "government",
                "amenity": "school",
                "note": "Parent RSPO: 61417"
            }
        },
        {
            "id": 275780,
            "type": "Feature",
            "geometry": {
                "type": "Point",
                "coordinates": [
                    17.63277,
                    50.64175
                ]
            },
            "properties": {
                "isced:level": "3",
                "ref:rspo": 275780,
                "official_name": "Bran\u017cowa Szko\u0142a II Stopnia Zespo\u0142u Szk\u00f3\u0142 im. Boles\u0142awa Chrobrego w Niemodlinie",
                "name": "Bran\u017cowa Szko\u0142a II Stopnia Zespo\u0142u Szk\u00f3\u0142",
                "addr:postcode": "49-100",
                "addr:city": "Niemodlin",
                "addr:street": "Opolska",
                "addr:housenumber": "34",
                "addr:city:simc": 965750,
                "addr:street:sym_ul": 15095,
                "phone": "+48 774606222",
                "email": "zsniemodlin@wodip.opole.pl",
                "website": "http:\/\/www.zsniemodlin.pl",
                "ref:regon": "386935384",
                "operator": "Powiat Opolski",
                "operator:type": "government",
                "amenity": "school",
                "note": "Parent RSPO: 61417"
            }
        },
        {
            "id": 277320,
            "type": "Feature",
            "geometry": {
                "type": "Point",
                "coordinates": [
                    17.63277,
                    50.64172
                ]
            },
            "properties": {
                "isced:level": "1;2",
                "ref:rspo": 277320,
                "official_name": "Szko\u0142a Podstawowa Zespo\u0142u Szk\u00f3\u0142 im. Boles\u0142awa Chrobrego w Niemodlinie",
                "name": "Szko\u0142a Podstawowa Zespo\u0142u Szk\u00f3\u0142",
                "addr:postcode": "49-100",
                "addr:city": "Niemodlin",
                "addr:street": "Opolska",
                "addr:housenumber": "34",
                "addr:city:simc": 965750,
                "addr:street:sym_ul": 15095,
                "phone": "+48 774606222",
                "email": "zsniemodlin@wodip.opole.pl",
                "website": "http:\/\/www.zsniemodlin.pl",
                "ref:regon": "388616105",
                "operator": "Powiat Opolski",
                "operator:type": "government",
                "amenity": "school",
                "note": "Parent RSPO: 61417"
            }
        },
        {
            "id": 279004,
            "type": "Feature",
            "geometry": {
                "type": "Point",
                "coordinates": [
                    17.62108,
                    50.64255
                ]
            },
            "properties": {
                "ref:rspo": 279004,
                "official_name": "Bb-Gabinet Kosmetologii Barbara Bartecka",
                "name": "Bb-Gabinet Kosmetologii Barbara Bartecka",
                "addr:postcode": "49-100",
                "addr:city": "Niemodlin",
                "addr:street": "Rynek",
                "addr:housenumber": "52",
                "addr:city:simc": 965750,
                "addr:street:sym_ul": 19253,
                "email": "gabinet@bbartecka.pl",
                "website": "http:\/\/www.bbartecka.pl",
                "ref:regon": "520382447",
                "operator": "Barbara Bartecka",
                "operator:type": "private",
                "fixme": "w zale\u017cno\u015bci od przedmiotu dzia\u0142alno\u015bci (np. amenity=training + training=*, amenity=dancing_school, amenity=language_school, amenity=music_school)"
            }
        },
        {
            "id": 55603,
            "type": "Feature",
            "geometry": {
                "type": "Point",
                "coordinates": [
                    17.62076,
                    50.64296
                ]
            },
            "properties": {
                "ref:rspo": 55603,
                "official_name": "Publiczne Przedszkole Nr 1 \"Bajka\" w Niemodlinie",
                "name": "Publiczne Przedszkole Nr 1 \"Bajka\" w Niemodlinie",
                "addr:postcode": "49-100",
                "addr:city": "Niemodlin",
                "addr:street": "Jana Kili\u0144skiego",
                "addr:housenumber": "31",
                "addr:city:simc": 965750,
                "addr:street:sym_ul": 8431,
                "phone": "+48 774606407",
                "email": "dyrektor.pp1n@cuwniemodlin.pl",
                "ref:regon": "530578183",
                "ref:vatin": "PL9910193851",
                "operator": "Gmina Niemodlin",
                "operator:type": "government",
                "amenity": "kindergarten"
            }
        },
        {
            "id": 56133,
            "type": "Feature",
            "geometry": {
                "type": "Point",
                "coordinates": [
                    17.64375,
                    50.64492
                ]
            },
            "properties": {
                "ref:rspo": 56133,
                "official_name": "Przedszkole Niepubliczne Artystyczno - J\u0119zykowe \"Dinolandia\" w Niemodlinie",
                "name": "Przedszkole Niepubliczne Artystyczno - J\u0119zykowe \"Dinolandia\" w Niemodlinie",
                "addr:postcode": "49-100",
                "addr:city": "Niemodlin",
                "addr:street": "Opolska",
                "addr:housenumber": "54",
                "addr:city:simc": 965750,
                "addr:street:sym_ul": 15095,
                "phone": "+48 774032208",
                "email": "plyszczarczyk@o2.pl",
                "ref:regon": "161489619",
                "ref:vatin": "PL9910175540",
                "operator": "Przemys\u0142aw \u0141yszczarczyk",
                "operator:type": "private",
                "amenity": "kindergarten"
            }
        },
        {
            "id": 132342,
            "type": "Feature",
            "geometry": {
                "type": "Point",
                "coordinates": [
                    17.60052,
                    50.64754
                ]
            },
            "properties": {
                "ref:rspo": 132342,
                "official_name": "Niepubliczne Tatusiowe Przedszkole",
                "name": "Niepubliczne Tatusiowe Przedszkole",
                "addr:postcode": "49-100",
                "addr:city": "Niemodlin",
                "addr:street": "Podg\u00f3rna",
                "addr:housenumber": "31",
                "addr:city:simc": 965750,
                "addr:street:sym_ul": 16742,
                "phone": "+48 604519730",
                "email": "krzyskow.g@gmail.com",
                "ref:regon": "365558311",
                "ref:vatin": "PL9910213683",
                "operator": "Grzegorz Krzy\u015bk\u00f3w",
                "operator:type": "private",
                "amenity": "kindergarten"
            }
        },
        {
            "id": 55553,
            "type": "Feature",
            "geometry": {
                "type": "Point",
                "coordinates": [
                    17.52413,
                    50.66031
                ]
            },
            "properties": {
                "isced:level": "1;2",
                "ref:rspo": 55553,
                "official_name": "Szko\u0142a Podstawowa im. Tadeusza Ko\u015bciuszki w Rogach",
                "name": "Szko\u0142a Podstawowa",
                "addr:postcode": "49-156",
                "addr:place": "Rogi",
                "addr:housenumber": "10A",
                "addr:city:simc": 500151,
                "phone": "+48 774609902",
                "email": "psprogi@gmail.com",
                "website": "http:\/\/sp-rogi.pl",
                "ref:regon": "001182180",
                "ref:vatin": "PL9910193911",
                "operator": "Gmina Niemodlin",
                "operator:type": "government",
                "amenity": "school"
            }
        },
        {
            "id": 55602,
            "type": "Feature",
            "geometry": {
                "type": "Point",
                "coordinates": [
                    17.5539,
                    50.69619
                ]
            },
            "properties": {
                "isced:level": "1;2",
                "ref:rspo": 55602,
                "official_name": "Szko\u0142a Podstawowa im. 27 Wo\u0142y\u0144skiej Dywizji Armii Krajowej w Graczach",
                "name": "Szko\u0142a Podstawowa",
                "addr:postcode": "49-156",
                "addr:city": "Gracze",
                "addr:street": "Niemodli\u0144ska",
                "addr:housenumber": "21",
                "addr:city:simc": 499991,
                "addr:street:sym_ul": 14186,
                "phone": "+48 774609823",
                "email": "graczeszkoly@wp.pl",
                "website": "http:\/\/spgracze.szkolnastrona.pl",
                "ref:regon": "001182204",
                "ref:vatin": "PL9910193928",
                "operator": "Gmina Niemodlin",
                "operator:type": "government",
                "amenity": "school"
            }
        },
        {
            "id": 55604,
            "type": "Feature",
            "geometry": {
                "type": "Point",
                "coordinates": [
                    17.5392699,
                    50.70944
                ]
            },
            "properties": {
                "ref:rspo": 55604,
                "official_name": "Publiczne Przedszkole im. Marii Kownackiej w Graczach",
                "name": "Publiczne Przedszkole",
                "addr:postcode": "49-156",
                "addr:city": "Gracze",
                "addr:street": "Kr\u0119ta",
                "addr:housenumber": "13",
                "addr:city:simc": 499991,
                "addr:street:sym_ul": 9925,
                "phone": "+48 774609895",
                "email": "dyrektor.ppg@cuwniemodlin.pl",
                "website": "http:\/\/www.przedszkolegracze.szkolnastrona.pl",
                "ref:regon": "530578250",
                "ref:vatin": "PL9910193868",
                "operator": "Gmina Niemodlin",
                "operator:type": "government",
                "amenity": "kindergarten"
            }
        }
    ]
}