{
    "type": "FeatureCollection",
    "features": [
        {
            "id": 12400,
            "type": "Feature",
            "geometry": {
                "type": "Point",
                "coordinates": [
                    17.80911,
                    50.60822
                ]
            },
            "properties": {
                "ref:rspo": 12400,
                "official_name": "Przedszkole Publiczne w Ochodzach",
                "name": "Przedszkole Publiczne w Ochodzach",
                "addr:country": "PL",
                "addr:postcode": "46-070",
                "addr:city": "Ochodze",
                "addr:street": "ul. Ogrodowa",
                "addr:housenumber": "2",
                "addr:teryt:simc": 14834,
                "addr:teryt:sym_ul": 496857,
                "contact:phone": "+48 774646251",
                "contact:email": "ppocho@interia.pl",
                "contact:website": "http:\/\/www.ppocho.szkolnastrona.pl",
                "ref:regon": "530574038",
                "ref:vatin": "PL9910460683",
                "operator": "Gmina Komprachcice",
                "operator:type": "government",
                "amenity": "kindergarten"
            }
        },
        {
            "id": 12398,
            "type": "Feature",
            "geometry": {
                "type": "Point",
                "coordinates": [
                    17.81145,
                    50.60992
                ]
            },
            "properties": {
                "isced:level": "1;2",
                "ref:rspo": 12398,
                "official_name": "Publiczna Stowarzyszeniowa Szko\u0142a Podstawowa w Ochodzach",
                "name": "Publiczna Stowarzyszeniowa Szko\u0142a Podstawowa w Ochodzach",
                "addr:country": "PL",
                "addr:postcode": "46-070",
                "addr:city": "Ochodze",
                "addr:street": "ul. Opolska",
                "addr:housenumber": "34",
                "addr:teryt:simc": 15095,
                "addr:teryt:sym_ul": 496857,
                "contact:phone": "+48 774647863",
                "contact:email": "poczta@szkolaochodze.pl",
                "contact:website": "http:\/\/www.szkolaochodze.pl",
                "ref:regon": "161481753",
                "ref:vatin": "PL9910327754",
                "operator": "Stowarzyszenie Na Rzecz Rozwoju Wsi Ochodze",
                "operator:type": "ngo",
                "amenity": "school"
            }
        },
        {
            "id": 12397,
            "type": "Feature",
            "geometry": {
                "type": "Point",
                "coordinates": [
                    17.86052,
                    50.61979
                ]
            },
            "properties": {
                "isced:level": "1;2",
                "ref:rspo": 12397,
                "official_name": "Publiczna Szko\u0142a Podstawowa w Domecku",
                "name": "Publiczna Szko\u0142a Podstawowa w Domecku",
                "addr:country": "PL",
                "addr:postcode": "46-070",
                "addr:city": "Domecko",
                "addr:street": "ul. Opolska",
                "addr:housenumber": "52",
                "addr:teryt:simc": 15095,
                "addr:teryt:sym_ul": 496797,
                "contact:phone": "+48 774646176",
                "contact:email": "pspdomecko@o2.pl",
                "contact:website": "http:\/\/www.szkola.domecko.pl",
                "ref:regon": "001182813",
                "ref:vatin": "PL9910170123",
                "operator": "Gmina Komprachcice",
                "operator:type": "government",
                "amenity": "school"
            }
        },
        {
            "id": 12396,
            "type": "Feature",
            "geometry": {
                "type": "Point",
                "coordinates": [
                    17.85695,
                    50.62992
                ]
            },
            "properties": {
                "ref:rspo": 12396,
                "official_name": "Przedszkole Publiczne w Komprachcicach",
                "name": "Przedszkole Publiczne w Komprachcicach",
                "addr:country": "PL",
                "addr:postcode": "46-070",
                "addr:city": "Komprachcice",
                "addr:street": "ul. Opolska",
                "addr:housenumber": "1",
                "addr:teryt:simc": 15095,
                "addr:teryt:sym_ul": 496840,
                "contact:phone": "+48 774646146",
                "contact:email": "ppkomprachcice@interia.pl",
                "ref:regon": "530574050",
                "ref:vatin": "PL9910170152",
                "operator": "Gmina Komprachcice",
                "operator:type": "government",
                "amenity": "kindergarten"
            }
        },
        {
            "id": 12426,
            "type": "Feature",
            "geometry": {
                "type": "Point",
                "coordinates": [
                    17.82368,
                    50.63721
                ]
            },
            "properties": {
                "isced:level": "1;2",
                "ref:rspo": 12426,
                "official_name": "Publiczna Szko\u0142a Podstawowa im. Ks. Jana Twardowskiego w Komprachcicach",
                "name": "Publiczna Szko\u0142a Podstawowa",
                "addr:country": "PL",
                "addr:postcode": "46-070",
                "addr:city": "Komprachcice",
                "addr:street": "ul. Szkolna",
                "addr:housenumber": "18",
                "addr:teryt:simc": 21970,
                "addr:teryt:sym_ul": 496840,
                "contact:phone": "+48 774647737",
                "contact:email": "sekretariat@psp.komprachcice.pl",
                "contact:website": "http:\/\/www.psp.komprachcice.pl",
                "ref:regon": "000270580",
                "ref:vatin": "PL9910170057",
                "operator": "Gmina Komprachcice",
                "operator:type": "government",
                "amenity": "school"
            }
        },
        {
            "id": 12412,
            "type": "Feature",
            "geometry": {
                "type": "Point",
                "coordinates": [
                    17.8029699,
                    50.63799
                ]
            },
            "properties": {
                "isced:level": "1;2",
                "ref:rspo": 12412,
                "official_name": "Publiczna Szko\u0142a Podstawowa im. Janusza Korczaka w Polskiej Nowej Wsi",
                "name": "Publiczna Szko\u0142a Podstawowa",
                "addr:country": "PL",
                "addr:postcode": "46-070",
                "addr:city": "Polska Nowa Wie\u015b",
                "addr:street": "ul. Lipowa",
                "addr:housenumber": "56",
                "addr:teryt:simc": 11139,
                "addr:teryt:sym_ul": 496886,
                "contact:phone": "+48 774646215",
                "contact:email": "psppnw@gmail.com",
                "contact:website": "http:\/\/www.psppnw.pl",
                "ref:regon": "001182799",
                "ref:vatin": "PL9910170146",
                "operator": "Gmina Komprachcice",
                "operator:type": "government",
                "amenity": "school"
            }
        },
        {
            "id": 12393,
            "type": "Feature",
            "geometry": {
                "type": "Point",
                "coordinates": [
                    17.79247,
                    50.64161
                ]
            },
            "properties": {
                "ref:rspo": 12393,
                "official_name": "Przedszkole Publiczne w Polskiej Nowej Wsi",
                "name": "Przedszkole Publiczne w Polskiej Nowej Wsi",
                "addr:country": "PL",
                "addr:postcode": "46-070",
                "addr:city": "Polska Nowa Wie\u015b",
                "addr:street": "ul. Lipowa",
                "addr:housenumber": "102",
                "addr:teryt:simc": 11139,
                "addr:teryt:sym_ul": 496886,
                "contact:phone": "+48 746464199",
                "contact:email": "przedszkole@pppnw.komprachcice.pl",
                "contact:website": "http:\/\/pppnw.komprachcice.pl",
                "ref:regon": "530574015",
                "ref:vatin": "PL9910170086",
                "operator": "Gmina Komprachcice",
                "operator:type": "government",
                "amenity": "kindergarten"
            }
        },
        {
            "id": 12395,
            "type": "Feature",
            "geometry": {
                "type": "Point",
                "coordinates": [
                    17.76185,
                    50.65537
                ]
            },
            "properties": {
                "isced:level": "1;2",
                "ref:rspo": 12395,
                "official_name": "Publiczna Szko\u0142a Podstawowa w Wawelnie",
                "name": "Publiczna Szko\u0142a Podstawowa w Wawelnie",
                "addr:country": "PL",
                "addr:postcode": "46-070",
                "addr:city": "Wawelno",
                "addr:street": "ul. Nowowiejska",
                "addr:housenumber": "14",
                "addr:teryt:simc": 14495,
                "addr:teryt:sym_ul": 496892,
                "contact:phone": "+48 774646138",
                "contact:email": "kontakt@pspwawelno.pl",
                "contact:website": "http:\/\/www.pspwawelno.pl",
                "ref:regon": "001182782",
                "ref:vatin": "PL9910170117",
                "operator": "Gmina Komprachcice",
                "operator:type": "government",
                "amenity": "school"
            }
        }
    ]
}