{
    "type": "FeatureCollection",
    "features": [
        {
            "id": 277158,
            "type": "Feature",
            "geometry": {
                "type": "Point",
                "coordinates": [
                    17.7669,
                    50.80151
                ]
            },
            "properties": {
                "ref:rspo": 277158,
                "official_name": "Niepubliczne Artystyczne Przedszkole Atti-Tude",
                "name": "Niepubliczne Artystyczne Przedszkole Atti-Tude",
                "addr:postcode": "46-083",
                "addr:city": "Stare Sio\u0142kowice",
                "addr:street": "Micha\u0142a",
                "addr:housenumber": "2",
                "addr:teryt:simc": 502405,
                "addr:teryt:sym_ul": 12695,
                "email": "dyrektorprzedszkola@atti-tude.pl",
                "website": "http:\/\/przedszkole.atti-tude.pl",
                "ref:regon": "388211288",
                "operator": "Ewelina Gorazdowska",
                "operator:type": "private",
                "amenity": "kindergarten"
            }
        },
        {
            "id": 46608,
            "type": "Feature",
            "geometry": {
                "type": "Point",
                "coordinates": [
                    17.75938,
                    50.80766
                ]
            },
            "properties": {
                "ref:rspo": 46608,
                "official_name": "Przedszkole Publiczne w Starych Sio\u0142kowicach",
                "name": "Przedszkole Publiczne w Starych Sio\u0142kowicach",
                "addr:postcode": "46-083",
                "addr:city": "Stare Sio\u0142kowice",
                "addr:street": "Piastowska",
                "addr:housenumber": "15",
                "addr:teryt:simc": 502405,
                "addr:teryt:sym_ul": 16046,
                "phone": "+48 774692149",
                "email": "pp.siolkowice@popielow.pl",
                "website": "http:\/\/www.ppsiolkowice.pl",
                "ref:regon": "530585728",
                "ref:vatin": "PL9910228348",
                "operator": "Gmina Popiel\u00f3w",
                "operator:type": "government",
                "amenity": "kindergarten"
            }
        },
        {
            "id": 47075,
            "type": "Feature",
            "geometry": {
                "type": "Point",
                "coordinates": [
                    17.76854,
                    50.8138
                ]
            },
            "properties": {
                "isced:level": "1;2",
                "ref:rspo": 47075,
                "official_name": "Publiczna Szko\u0142a Podstawowa w Starych Sio\u0142kowicach",
                "name": "Publiczna Szko\u0142a Podstawowa w Starych Sio\u0142kowicach",
                "addr:postcode": "46-083",
                "addr:city": "Stare Sio\u0142kowice",
                "addr:street": "Klapacz",
                "addr:housenumber": "62",
                "addr:teryt:simc": 502405,
                "addr:teryt:sym_ul": 8475,
                "phone": "+48 774694506",
                "email": "psp.siolkowice@popielow.pl",
                "ref:regon": "001195388",
                "ref:vatin": "PL9910228294",
                "operator": "Gmina Popiel\u00f3w",
                "operator:type": "government",
                "amenity": "school"
            }
        },
        {
            "id": 47074,
            "type": "Feature",
            "geometry": {
                "type": "Point",
                "coordinates": [
                    17.74077,
                    50.8252
                ]
            },
            "properties": {
                "isced:level": "1;2",
                "ref:rspo": 47074,
                "official_name": "Publiczna Szko\u0142a Podstawowa w Popielowie",
                "name": "Publiczna Szko\u0142a Podstawowa w Popielowie",
                "addr:postcode": "46-090",
                "addr:city": "Popiel\u00f3w",
                "addr:street": "Powsta\u0144c\u00f3w",
                "addr:housenumber": "14",
                "addr:teryt:simc": 502291,
                "addr:teryt:sym_ul": 17354,
                "phone": "+48 774692026",
                "email": "psp.popielow@popielow.pl",
                "ref:regon": "000273666",
                "ref:vatin": "PL9910228331",
                "operator": "Gmina Popiel\u00f3w",
                "operator:type": "government",
                "amenity": "school"
            }
        },
        {
            "id": 46606,
            "type": "Feature",
            "geometry": {
                "type": "Point",
                "coordinates": [
                    17.73846,
                    50.82629
                ]
            },
            "properties": {
                "ref:rspo": 46606,
                "official_name": "Przedszkole Publiczne w Popielowie",
                "name": "Przedszkole Publiczne w Popielowie",
                "addr:postcode": "46-090",
                "addr:city": "Popiel\u00f3w",
                "addr:street": "Powsta\u0144c\u00f3w",
                "addr:housenumber": "26",
                "addr:teryt:simc": 502291,
                "addr:teryt:sym_ul": 17354,
                "phone": "+48 774692133",
                "email": "pp.popielow@popielow.pl",
                "ref:regon": "530585830",
                "ref:vatin": "PL9910228319",
                "operator": "Gmina Popiel\u00f3w",
                "operator:type": "government",
                "amenity": "kindergarten"
            }
        },
        {
            "id": 124448,
            "type": "Feature",
            "geometry": {
                "type": "Point",
                "coordinates": [
                    17.63085,
                    50.84873
                ]
            },
            "properties": {
                "ref:rspo": 124448,
                "official_name": "Niepubliczny M\u0142odzie\u017cowy O\u015brodek Wychowawczy Towarzystawa Spo\u0142ecznych Dzia\u0142a\u0144 Na Rzecz Dzieci I M\u0142odzie\u017cy \"Razem w Przysz\u0142o\u015b\u0107\" w Stobrawie",
                "name": "Niepubliczny M\u0142odzie\u017cowy O\u015brodek Wychowawczy Towarzystawa Spo\u0142ecznych Dzia\u0142a\u0144 Na Rzecz Dzieci I M\u0142odzie\u017cy \"Razem w Przysz\u0142o\u015b\u0107\" w Stobrawie",
                "addr:postcode": "46-090",
                "addr:city": "Stobrawa",
                "addr:street": "Wincentego Witosa",
                "addr:housenumber": "30",
                "addr:teryt:simc": 502428,
                "addr:teryt:sym_ul": 24459,
                "phone": "+48 775400205",
                "email": "annagrognet@wp.pl",
                "ref:regon": "161604457",
                "operator": "Towarzystwo Spo\u0142ecznych Dzia\u0142a\u0144 Na Rzecz Dzieci I M\u0142odzie\u017cy \"Razem W Przysz\u0142o\u015b\u0107\"",
                "operator:type": "ngo",
                "fixme": "amenity=social_facility + social_facility=group_home + social_facility:for=juvenile",
                "note": "Children RSPO: 124690;268266"
            }
        },
        {
            "id": 124690,
            "type": "Feature",
            "geometry": {
                "type": "Point",
                "coordinates": [
                    17.63085,
                    50.8487
                ]
            },
            "properties": {
                "isced:level": "3",
                "ref:rspo": 124690,
                "official_name": "Niepubliczne Liceum Og\u00f3lnokszta\u0142c\u0105ce Specjalne dla Uczni\u00f3w Niedostosowanych Spo\u0142ecznie Towarzystwa Spo\u0142ecznych Dzia\u0142a\u0144 Na Rzecz Dzieci I M\u0142odzie\u017cy \"Razem w Przysz\u0142o\u015b\u0107\" w Stobrawie",
                "name": "Niepubliczne Liceum Og\u00f3lnokszta\u0142c\u0105ce Specjalne dla Uczni\u00f3w Niedostosowanych Spo\u0142ecznie Towarzystwa Spo\u0142ecznych Dzia\u0142a\u0144 Na Rzecz Dzieci I M\u0142odzie\u017cy \"Razem w Przysz\u0142o\u015b\u0107\" w Stobrawie",
                "addr:postcode": "46-090",
                "addr:city": "Stobrawa",
                "addr:street": "Wincentego Witosa",
                "addr:housenumber": "30",
                "addr:teryt:simc": 502428,
                "addr:teryt:sym_ul": 24459,
                "phone": "+48 509787454",
                "email": "annagrognet@gmail.com",
                "ref:regon": "161605623",
                "operator": "Towarzystwo Spo\u0142ecznych Dzia\u0142a\u0144 Na Rzecz Dzieci I M\u0142odzie\u017cy \"Razem W Przysz\u0142o\u015b\u0107\"",
                "operator:type": "ngo",
                "amenity": "school",
                "note": "Parent RSPO: 124448"
            }
        },
        {
            "id": 268266,
            "type": "Feature",
            "geometry": {
                "type": "Point",
                "coordinates": [
                    17.63085,
                    50.848670000000006
                ]
            },
            "properties": {
                "isced:level": "1;2",
                "ref:rspo": 268266,
                "official_name": "Niepubliczna Szko\u0142a Podstawowa dla Uczni\u00f3w Niedostosowanych Spo\u0142ecznie Towarzystwa \"Razem w Przysz\u0142o\u015b\u0107\" w Stobrawie",
                "name": "Niepubliczna Szko\u0142a Podstawowa dla Uczni\u00f3w Niedostosowanych Spo\u0142ecznie Towarzystwa \"Razem w Przysz\u0142o\u015b\u0107\" w Stobrawie",
                "addr:postcode": "46-090",
                "addr:city": "Stobrawa",
                "addr:street": "Wincentego Witosa",
                "addr:housenumber": "30",
                "addr:teryt:simc": 502428,
                "addr:teryt:sym_ul": 24459,
                "phone": "+48 775400205",
                "email": "annagrognet@gmail.com",
                "ref:regon": "381050735",
                "ref:vatin": "PL9910499426",
                "operator": "Towarzystwo Spo\u0142ecznych Dzia\u0142a\u0144 Na Rzecz Dzieci I M\u0142odzie\u017cy \"Razem W Przysz\u0142o\u015b\u0107\"",
                "operator:type": "ngo",
                "amenity": "school",
                "note": "Parent RSPO: 124448"
            }
        },
        {
            "id": 46607,
            "type": "Feature",
            "geometry": {
                "type": "Point",
                "coordinates": [
                    17.71218,
                    50.87464
                ]
            },
            "properties": {
                "ref:rspo": 46607,
                "official_name": "Przedszkole Publiczne w Kar\u0142owicach",
                "name": "Przedszkole Publiczne w Kar\u0142owicach",
                "addr:postcode": "46-037",
                "addr:city": "Kar\u0142owice",
                "addr:street": "M\u0142y\u0144ska",
                "addr:housenumber": "1",
                "addr:teryt:simc": 502210,
                "addr:teryt:sym_ul": 13132,
                "phone": "+48 774697167",
                "email": "pp.karlowice@popielow.pl",
                "ref:regon": "530585711",
                "ref:vatin": "PL9910228325",
                "operator": "Gmina Popiel\u00f3w",
                "operator:type": "government",
                "amenity": "kindergarten"
            }
        },
        {
            "id": 46602,
            "type": "Feature",
            "geometry": {
                "type": "Point",
                "coordinates": [
                    17.70385,
                    50.8775199
                ]
            },
            "properties": {
                "isced:level": "1;2",
                "ref:rspo": 46602,
                "official_name": "Publiczna Szko\u0142a Podstawowa im. Ks. Jana Dzier\u017cona w Kar\u0142owicach",
                "name": "Publiczna Szko\u0142a Podstawowa",
                "addr:postcode": "46-037",
                "addr:city": "Kar\u0142owice",
                "addr:street": "Kolejowa",
                "addr:housenumber": "9",
                "addr:teryt:simc": 502210,
                "addr:teryt:sym_ul": 8828,
                "phone": "+48 774697237",
                "email": "psp.karlowice@popielow.pl",
                "ref:regon": "001196809",
                "ref:vatin": "PL9910228271",
                "operator": "Gmina Popiel\u00f3w",
                "operator:type": "government",
                "amenity": "school"
            }
        }
    ]
}