{
    "type": "FeatureCollection",
    "features": [
        {
            "id": 48998,
            "type": "Feature",
            "geometry": {
                "type": "Point",
                "coordinates": [
                    17.94314,
                    50.70895
                ]
            },
            "properties": {
                "ref:rspo": 48998,
                "official_name": "Publiczne Przedszkole w K\u0119pie",
                "name": "Publiczne Przedszkole w K\u0119pie",
                "addr:postcode": "46-022",
                "addr:city": "K\u0119pa",
                "addr:street": "Zawadzka",
                "addr:housenumber": "5",
                "addr:city:simc": 499100,
                "addr:street:sym_ul": 25815,
                "phone": "+48 774568651",
                "email": "pp.kepa@lubniany.pl",
                "website": "http:\/\/www.ppkepa.szkolnastrona.pl",
                "ref:regon": "530588796",
                "ref:vatin": "PL9910153053",
                "operator": "Gmina \u0141ubniany",
                "operator:type": "government",
                "amenity": "kindergarten"
            }
        },
        {
            "id": 268633,
            "type": "Feature",
            "geometry": {
                "type": "Point",
                "coordinates": [
                    17.94492,
                    50.71619
                ]
            },
            "properties": {
                "ref:rspo": 268633,
                "official_name": "Niepubliczne Przedszkole \"T\u0119czowa Kraina Plus\"",
                "name": "Niepubliczne Przedszkole \"T\u0119czowa Kraina Plus\"",
                "addr:postcode": "46-022",
                "addr:city": "K\u0119pa",
                "addr:street": "Luboszycka",
                "addr:housenumber": "35",
                "addr:city:simc": 499100,
                "addr:street:sym_ul": 11355,
                "email": "biuro@teczowakraina.opole.pl",
                "website": "http:\/\/www.teczowakraina.opole.pl",
                "ref:regon": "381219306",
                "operator": "Emilia Szychowska",
                "operator:type": "private",
                "amenity": "kindergarten"
            }
        },
        {
            "id": 48995,
            "type": "Feature",
            "geometry": {
                "type": "Point",
                "coordinates": [
                    17.95978,
                    50.72883
                ]
            },
            "properties": {
                "isced:level": "1;2",
                "ref:rspo": 48995,
                "official_name": "Publiczna Szko\u0142a Podstawowa im. Ks. Jana Bosko w Luboszycach",
                "name": "Publiczna Szko\u0142a Podstawowa",
                "addr:postcode": "46-022",
                "addr:city": "Luboszyce",
                "addr:street": "Szkolna",
                "addr:housenumber": "4",
                "addr:city:simc": 499146,
                "addr:street:sym_ul": 21970,
                "phone": "+48 774215711",
                "email": "psp.luboszyce@lubniany.pl",
                "website": "http:\/\/www.pspluboszyce.pl",
                "ref:regon": "001183729",
                "ref:vatin": "PL9910153024",
                "operator": "Gmina \u0141ubniany",
                "operator:type": "government",
                "amenity": "school"
            }
        },
        {
            "id": 49000,
            "type": "Feature",
            "geometry": {
                "type": "Point",
                "coordinates": [
                    17.9591299,
                    50.72963
                ]
            },
            "properties": {
                "ref:rspo": 49000,
                "official_name": "Przedszkole im. Anio\u0142\u00f3w Str\u00f3\u017c\u00f3w",
                "name": "Przedszkole",
                "addr:postcode": "46-022",
                "addr:city": "Luboszyce",
                "addr:street": "Rolna",
                "addr:housenumber": "4",
                "addr:city:simc": 499146,
                "addr:street:sym_ul": 18819,
                "phone": "+48 774215830",
                "email": "anielskieprzedszkole90@gmail.com",
                "ref:regon": "161490611",
                "ref:vatin": "PL7542107293",
                "operator": "Zgromadzenie Si\u00f3str Franciszkanek Maryi Nieustaj\u0105cej Pomocy",
                "operator:type": "religious",
                "amenity": "kindergarten"
            }
        },
        {
            "id": 263464,
            "type": "Feature",
            "geometry": {
                "type": "Point",
                "coordinates": [
                    17.95909,
                    50.73666
                ]
            },
            "properties": {
                "ref:rspo": 263464,
                "official_name": "Publiczne Przedszkole Kolorowa Zebra",
                "name": "Publiczne Przedszkole Kolorowa Zebra",
                "addr:postcode": "46-022",
                "addr:city": "Biadacz",
                "addr:street": "Szeroka",
                "addr:housenumber": "9",
                "addr:city:simc": 498939,
                "addr:street:sym_ul": 21925,
                "phone": "+48 775560084",
                "email": "przedszkole@kolorowazebra.opole.pl",
                "website": "http:\/\/www.kolorowazebra.pl",
                "ref:regon": "368191555",
                "operator": "Tomasz Lisek",
                "operator:type": "private",
                "amenity": "kindergarten"
            }
        },
        {
            "id": 48999,
            "type": "Feature",
            "geometry": {
                "type": "Point",
                "coordinates": [
                    17.99925,
                    50.78004
                ]
            },
            "properties": {
                "ref:rspo": 48999,
                "official_name": "Publiczne Przedszkole w \u0141ubnianach",
                "name": "Publiczne Przedszkole w \u0141ubnianach",
                "addr:postcode": "46-024",
                "addr:city": "\u0141ubniany",
                "addr:street": "Opolska",
                "addr:housenumber": "69",
                "addr:city:simc": 499152,
                "addr:street:sym_ul": 15095,
                "phone": "+48 774215090",
                "email": "pp.lubniany@lubniany.pl",
                "website": "http:\/\/www.przedszkolalubniany.lh.pl",
                "ref:regon": "530588974",
                "ref:vatin": "PL9910153082",
                "operator": "Gmina \u0141ubniany",
                "operator:type": "government",
                "amenity": "kindergarten"
            }
        },
        {
            "id": 274595,
            "type": "Feature",
            "geometry": {
                "type": "Point",
                "coordinates": [
                    17.99888,
                    50.78074
                ]
            },
            "properties": {
                "ref:rspo": 274595,
                "official_name": "Punkt Przedszkolny \"Bajkowy Las\"",
                "name": "Punkt Przedszkolny \"Bajkowy Las\"",
                "addr:postcode": "46-024",
                "addr:city": "\u0141ubniany",
                "addr:street": "Opolska",
                "addr:housenumber": "74",
                "addr:city:simc": 499152,
                "addr:street:sym_ul": 15095,
                "phone": "+48 502037207",
                "email": "fundacja.bajkowylas@interia.pl",
                "website": "http:\/\/www.bajkowylas.com.pl",
                "ref:regon": "386013680",
                "operator": "Fundacja \"Bajkowy Las\"",
                "operator:type": "ngo",
                "amenity": "kindergarten"
            }
        },
        {
            "id": 48996,
            "type": "Feature",
            "geometry": {
                "type": "Point",
                "coordinates": [
                    18.00182,
                    50.78463
                ]
            },
            "properties": {
                "isced:level": "1;2",
                "ref:rspo": 48996,
                "official_name": "Publiczna Szko\u0142a Podstawowa im. Powsta\u0144c\u00f3w \u015aL\u0105skich w \u0141ubnianach",
                "name": "Publiczna Szko\u0142a Podstawowa",
                "addr:postcode": "46-024",
                "addr:city": "\u0141ubniany",
                "addr:street": "Opolska",
                "addr:housenumber": "51",
                "addr:city:simc": 499152,
                "addr:street:sym_ul": 15095,
                "phone": "+48 774215009",
                "email": "psp.lubniany@lubniany.pl",
                "website": "http:\/\/www.psplubniany.pl",
                "ref:regon": "000271733",
                "ref:vatin": "PL9910153018",
                "operator": "Gmina \u0141ubniany",
                "operator:type": "government",
                "amenity": "school"
            }
        },
        {
            "id": 49002,
            "type": "Feature",
            "geometry": {
                "type": "Point",
                "coordinates": [
                    18.07406,
                    50.79708
                ]
            },
            "properties": {
                "ref:rspo": 49002,
                "official_name": "Publiczne Przedszkole w Je\u0142owej",
                "name": "Publiczne Przedszkole w Je\u0142owej",
                "addr:postcode": "46-024",
                "addr:city": "Je\u0142owa",
                "addr:street": "Oleska",
                "addr:housenumber": "2",
                "addr:door": "b",
                "addr:city:simc": 499057,
                "addr:street:sym_ul": 14973,
                "phone": "+48 774211012",
                "email": "pp.jelowa@lubniany.pl",
                "website": "http:\/\/www.lubnianskie-przedszkola.http.pl",
                "ref:regon": "530588862",
                "ref:vatin": "PL9910153099",
                "operator": "Gmina \u0141ubniany",
                "operator:type": "government",
                "amenity": "kindergarten"
            }
        },
        {
            "id": 48994,
            "type": "Feature",
            "geometry": {
                "type": "Point",
                "coordinates": [
                    18.07245,
                    50.7992
                ]
            },
            "properties": {
                "isced:level": "1;2",
                "ref:rspo": 48994,
                "official_name": "Publiczna Szko\u0142a Podstawowa w Je\u0142owej",
                "name": "Publiczna Szko\u0142a Podstawowa w Je\u0142owej",
                "addr:postcode": "46-024",
                "addr:city": "Je\u0142owa",
                "addr:street": "Wolno\u015bci",
                "addr:housenumber": "15",
                "addr:city:simc": 499057,
                "addr:street:sym_ul": 24687,
                "phone": "+48 774211009",
                "email": "psp.jelowa@lubniany.pl",
                "website": "http:\/\/www.pspjelowa.edupage.org",
                "ref:regon": "001183698",
                "ref:vatin": "PL9910152993",
                "operator": "Gmina \u0141ubniany",
                "operator:type": "government",
                "amenity": "school"
            }
        },
        {
            "id": 132742,
            "type": "Feature",
            "geometry": {
                "type": "Point",
                "coordinates": [
                    18.07349,
                    50.7996399
                ]
            },
            "properties": {
                "ref:rspo": 132742,
                "official_name": "Niepubliczne Przedszkole Katolickie B\u0142. Karoliny w Je\u0142owej",
                "name": "Niepubliczne Przedszkole Katolickie B\u0142. Karoliny w Je\u0142owej",
                "addr:postcode": "46-024",
                "addr:city": "Je\u0142owa",
                "addr:street": "Wolno\u015bci",
                "addr:housenumber": "20",
                "addr:city:simc": 499057,
                "addr:street:sym_ul": 24687,
                "phone": "+48 774211034",
                "email": "przedszkole.karolina@interia.pl",
                "website": "http:\/\/przedszkole-blogoslawionakarolina.pl",
                "ref:regon": "366164360",
                "ref:vatin": "PL9910053185",
                "operator": "Rzymskokatolicka Parafia  P.w. \u015aw. Bart\u0142omieja Ap.",
                "operator:type": "religious",
                "amenity": "kindergarten"
            }
        },
        {
            "id": 48997,
            "type": "Feature",
            "geometry": {
                "type": "Point",
                "coordinates": [
                    17.93744,
                    50.80575
                ]
            },
            "properties": {
                "ref:rspo": 48997,
                "official_name": "Publiczne Przedszkole w Brynicy",
                "name": "Publiczne Przedszkole w Brynicy",
                "addr:postcode": "46-024",
                "addr:city": "Brynica",
                "addr:street": "Powsta\u0144c\u00f3w \u015al\u0105skich",
                "addr:housenumber": "67",
                "addr:city:simc": 498951,
                "addr:street:sym_ul": 17366,
                "phone": "+48 774215608",
                "email": "pp.brynica@lubniany.pl",
                "ref:regon": "530588827",
                "ref:vatin": "PL9910153047",
                "operator": "Gmina \u0141ubniany",
                "operator:type": "government",
                "amenity": "kindergarten"
            }
        },
        {
            "id": 48993,
            "type": "Feature",
            "geometry": {
                "type": "Point",
                "coordinates": [
                    17.93405,
                    50.80628
                ]
            },
            "properties": {
                "isced:level": "1;2",
                "ref:rspo": 48993,
                "official_name": "Publiczna Szko\u0142a Podstawowa w Brynicy",
                "name": "Publiczna Szko\u0142a Podstawowa w Brynicy",
                "addr:postcode": "46-024",
                "addr:city": "Brynica",
                "addr:street": "Powsta\u0144c\u00f3w \u015al\u0105skich",
                "addr:housenumber": "47",
                "addr:city:simc": 498951,
                "addr:street:sym_ul": 17366,
                "phone": "+48 508177239",
                "email": "psp.brynica@lubniany.pl",
                "website": "http:\/\/pspbrynica.pl",
                "ref:regon": "001183706",
                "ref:vatin": "PL9910153001",
                "operator": "Gmina \u0141ubniany",
                "operator:type": "government",
                "amenity": "school"
            }
        }
    ]
}