{
    "type": "FeatureCollection",
    "features": [
        {
            "id": 84974,
            "type": "Feature",
            "geometry": {
                "type": "Point",
                "coordinates": [
                    17.99253,
                    50.71256
                ]
            },
            "properties": {
                "ref:rspo": 84974,
                "official_name": "Publiczne Przedszkole w Zawadzie",
                "name": "Publiczne Przedszkole w Zawadzie",
                "addr:postcode": "46-022",
                "addr:city": "Zawada",
                "addr:street": "Oleska",
                "addr:housenumber": "26",
                "addr:city:simc": 504290,
                "addr:street:sym_ul": 14973,
                "phone": "+48 774212802",
                "email": "beniahadzicka@op.pl",
                "ref:regon": "530585935",
                "ref:vatin": "PL9910212442",
                "operator": "Gmina Turawa",
                "operator:type": "government",
                "amenity": "kindergarten"
            }
        },
        {
            "id": 84616,
            "type": "Feature",
            "geometry": {
                "type": "Point",
                "coordinates": [
                    17.9912,
                    50.71664
                ]
            },
            "properties": {
                "isced:level": "1;2",
                "ref:rspo": 84616,
                "official_name": "Publiczna Szko\u0142a Podstawowa w Zawadzie",
                "name": "Publiczna Szko\u0142a Podstawowa w Zawadzie",
                "addr:postcode": "46-022",
                "addr:city": "Zawada",
                "addr:street": "Kolanowska",
                "addr:housenumber": "4",
                "addr:city:simc": 504290,
                "addr:street:sym_ul": 8792,
                "phone": "+48 774212881",
                "email": "zapiorhenryk@interia.pl",
                "ref:regon": "001193768",
                "ref:vatin": "PL9910250336",
                "operator": "Gmina Turawa",
                "operator:type": "government",
                "amenity": "school"
            }
        },
        {
            "id": 84751,
            "type": "Feature",
            "geometry": {
                "type": "Point",
                "coordinates": [
                    18.05198,
                    50.72987
                ]
            },
            "properties": {
                "ref:rspo": 84751,
                "official_name": "Publiczne Przedszkole w Kot\u00f3rzu Ma\u0142ym",
                "name": "Publiczne Przedszkole w Kot\u00f3rzu Ma\u0142ym",
                "addr:postcode": "46-045",
                "addr:city": "Kot\u00f3rz Ma\u0142y",
                "addr:street": "1 Maja",
                "addr:housenumber": "1",
                "addr:city:simc": 504166,
                "addr:street:sym_ul": 11926,
                "phone": "+48 774212070",
                "email": "pp.kotorz@oswiata-turawa.pl",
                "ref:regon": "530586099",
                "ref:vatin": "PL9910212459",
                "operator": "Gmina Turawa",
                "operator:type": "government",
                "amenity": "kindergarten"
            }
        },
        {
            "id": 262430,
            "type": "Feature",
            "geometry": {
                "type": "Point",
                "coordinates": [
                    18.07619,
                    50.74054
                ]
            },
            "properties": {
                "isced:level": "1;2",
                "ref:rspo": 262430,
                "official_name": "Publiczna Szko\u0142a Podstawowa w Turawie",
                "name": "Publiczna Szko\u0142a Podstawowa w Turawie",
                "addr:postcode": "46-045",
                "addr:city": "Turawa",
                "addr:street": "Opolska",
                "addr:housenumber": "47",
                "addr:city:simc": 504255,
                "addr:street:sym_ul": 15095,
                "phone": "+48 774212029",
                "email": "g_turawa@wodip.opole.pl",
                "ref:regon": "368009332",
                "operator": "Gmina Turawa",
                "operator:type": "government",
                "amenity": "school"
            }
        },
        {
            "id": 84797,
            "type": "Feature",
            "geometry": {
                "type": "Point",
                "coordinates": [
                    18.07619,
                    50.74098
                ]
            },
            "properties": {
                "ref:rspo": 84797,
                "official_name": "Publiczne Przedszkole w Turawie",
                "name": "Publiczne Przedszkole w Turawie",
                "addr:postcode": "46-045",
                "addr:city": "Turawa",
                "addr:street": "Opolska",
                "addr:housenumber": "49",
                "addr:city:simc": 504255,
                "addr:street:sym_ul": 15095,
                "phone": "+48 774212566",
                "email": "pp.turawa@oswiata-turawa.pl",
                "website": "http:\/\/www.przedszkoleturawa.pl",
                "ref:regon": "530586082",
                "ref:vatin": "PL9910213192",
                "operator": "Gmina Turawa",
                "operator:type": "government",
                "amenity": "kindergarten"
            }
        },
        {
            "id": 86981,
            "type": "Feature",
            "geometry": {
                "type": "Point",
                "coordinates": [
                    18.0128999,
                    50.74461
                ]
            },
            "properties": {
                "isced:level": "1;2",
                "ref:rspo": 86981,
                "official_name": "Spo\u0142eczna Szko\u0142a Podstawowa w W\u0119grach",
                "name": "Spo\u0142eczna Szko\u0142a Podstawowa w W\u0119grach",
                "addr:postcode": "46-023",
                "addr:city": "W\u0119gry",
                "addr:street": "Szkolna",
                "addr:housenumber": "40",
                "addr:city:simc": 504261,
                "addr:street:sym_ul": 21970,
                "phone": "+48 692212501",
                "email": "szkola@przyjazna-szkola.pl",
                "website": "http:\/\/www.przyjazna-szkola.pl",
                "ref:regon": "161495011",
                "ref:vatin": "PL9910248345",
                "operator": "Stowarzyszenie Rodzic\u00f3w \"Przyjazna Szko\u0142a\"",
                "operator:type": "ngo",
                "amenity": "school"
            }
        },
        {
            "id": 269244,
            "type": "Feature",
            "geometry": {
                "type": "Point",
                "coordinates": [
                    18.14705,
                    50.74563
                ]
            },
            "properties": {
                "ref:rspo": 269244,
                "official_name": "Niepubliczne Przedszkole \"Kubusiowa Akademia\"",
                "name": "Niepubliczne Przedszkole \"Kubusiowa Akademia\"",
                "addr:postcode": "46-045",
                "addr:city": "Rz\u0119d\u00f3w",
                "addr:street": "Opolska",
                "addr:housenumber": "3",
                "addr:city:simc": 504249,
                "addr:street:sym_ul": 15095,
                "phone": "+48 695598887",
                "email": "kprzybys@poczta.onet.pl",
                "ref:regon": "381416679",
                "operator": "Przybyszewski Miros\u0142aw Prywatny O\u015brodek Szkolenia Kierowc\u00f3w \"\u015alad\"",
                "operator:type": "consortium",
                "amenity": "kindergarten"
            }
        },
        {
            "id": 84828,
            "type": "Feature",
            "geometry": {
                "type": "Point",
                "coordinates": [
                    18.01783,
                    50.74649
                ]
            },
            "properties": {
                "ref:rspo": 84828,
                "official_name": "Publiczne Przedszkole w W\u0119grach",
                "name": "Publiczne Przedszkole w W\u0119grach",
                "addr:postcode": "46-023",
                "addr:city": "W\u0119gry",
                "addr:street": "Opolska",
                "addr:housenumber": "14c",
                "addr:city:simc": 504261,
                "addr:street:sym_ul": 15095,
                "phone": "+48 774212467",
                "email": "agadyk17@op.pl",
                "ref:regon": "530585898",
                "ref:vatin": "PL9910213200",
                "operator": "Gmina Turawa",
                "operator:type": "government",
                "amenity": "kindergarten"
            }
        },
        {
            "id": 84618,
            "type": "Feature",
            "geometry": {
                "type": "Point",
                "coordinates": [
                    18.0234,
                    50.75332
                ]
            },
            "properties": {
                "isced:level": "1;2",
                "ref:rspo": 84618,
                "official_name": "Publiczna Szko\u0142a Podstawowa im. Jana Paw\u0142a II w Osowcu",
                "name": "Publiczna Szko\u0142a Podstawowa",
                "addr:postcode": "46-023",
                "addr:city": "Osowiec",
                "addr:street": "Lipowa",
                "addr:housenumber": "6",
                "addr:city:simc": 504210,
                "addr:street:sym_ul": 11139,
                "phone": "+48 774212413",
                "email": "szkola.osowiec@interia.pl",
                "website": "http:\/\/psposowiec.postgres.pl",
                "ref:regon": "001193685",
                "ref:vatin": "PL9910212382",
                "operator": "Gmina Turawa",
                "operator:type": "government",
                "amenity": "school"
            }
        },
        {
            "id": 89764,
            "type": "Feature",
            "geometry": {
                "type": "Point",
                "coordinates": [
                    18.19936,
                    50.76402
                ]
            },
            "properties": {
                "isced:level": "1;2",
                "ref:rspo": 89764,
                "official_name": "Spo\u0142eczna Szko\u0142a Podstawowa z Oddzia\u0142em Przedszkolnym w Kad\u0142ubie Turawskim",
                "name": "Spo\u0142eczna Szko\u0142a Podstawowa z Oddzia\u0142em Przedszkolnym w Kad\u0142ubie Turawskim",
                "addr:postcode": "46-046",
                "addr:city": "Kad\u0142ub Turawski",
                "addr:street": "G\u0142\u00f3wna",
                "addr:housenumber": "12",
                "addr:city:simc": 504143,
                "addr:street:sym_ul": 5635,
                "phone": "+48 774213003",
                "email": "naszaszkolakt@neostrada.pl",
                "website": "http:\/\/www.ssp_kadlub.wodip.opole.pl",
                "ref:regon": "161495525",
                "ref:vatin": "PL9910266455",
                "operator": "Stowarzyszenie Rodzic\u00f3w \"Nasza Szko\u0142a\"",
                "operator:type": "ngo",
                "amenity": "school"
            }
        },
        {
            "id": 84617,
            "type": "Feature",
            "geometry": {
                "type": "Point",
                "coordinates": [
                    18.17813,
                    50.78579
                ]
            },
            "properties": {
                "isced:level": "1;2",
                "ref:rspo": 84617,
                "official_name": "Publiczna Szko\u0142a Podstawowa w Ligocie Turawskiej",
                "name": "Publiczna Szko\u0142a Podstawowa w Ligocie Turawskiej",
                "addr:postcode": "46-046",
                "addr:city": "Ligota Turawska",
                "addr:street": "G\u0142\u00f3wna",
                "addr:housenumber": "32",
                "addr:city:simc": 504189,
                "addr:street:sym_ul": 5635,
                "phone": "+48 774213105",
                "email": "szkola.ligota@oswiata-turawa.pl",
                "website": "http:\/\/pspligotaturawska.pl",
                "ref:regon": "001193716",
                "ref:vatin": "PL9910230227",
                "operator": "Gmina Turawa",
                "operator:type": "government",
                "amenity": "school"
            }
        },
        {
            "id": 85022,
            "type": "Feature",
            "geometry": {
                "type": "Point",
                "coordinates": [
                    18.15829,
                    50.81769
                ]
            },
            "properties": {
                "ref:rspo": 85022,
                "official_name": "Publiczne Przedszkole w Bierdzanach",
                "name": "Publiczne Przedszkole w Bierdzanach",
                "addr:postcode": "46-046",
                "addr:city": "Bierdzany",
                "addr:street": "Szkolna",
                "addr:housenumber": "3a",
                "addr:city:simc": 504114,
                "addr:street:sym_ul": 21970,
                "phone": "+48 774213214",
                "email": "pp.bierdzany@oswiata-turawa.pl",
                "ref:regon": "530585906",
                "ref:vatin": "PL9910214470",
                "operator": "Gmina Turawa",
                "operator:type": "government",
                "amenity": "kindergarten"
            }
        },
        {
            "id": 84614,
            "type": "Feature",
            "geometry": {
                "type": "Point",
                "coordinates": [
                    18.15821,
                    50.81819
                ]
            },
            "properties": {
                "isced:level": "1;2",
                "ref:rspo": 84614,
                "official_name": "Publiczna Szko\u0142a Podstawowa w Bierdzanach",
                "name": "Publiczna Szko\u0142a Podstawowa w Bierdzanach",
                "addr:postcode": "46-046",
                "addr:city": "Bierdzany",
                "addr:street": "Szkolna",
                "addr:housenumber": "1",
                "addr:city:simc": 504114,
                "addr:street:sym_ul": 21970,
                "phone": "+48 774213122",
                "email": "psp.bierdzany@oswiata-turawa.pl",
                "website": "http:\/\/pspbierdzany.pl",
                "ref:regon": "001193691",
                "ref:vatin": "PL9910215133",
                "operator": "Gmina Turawa",
                "operator:type": "government",
                "amenity": "school"
            }
        }
    ]
}