{
    "type": "FeatureCollection",
    "features": [
        {
            "id": 18297,
            "type": "Feature",
            "geometry": {
                "type": "Point",
                "coordinates": [
                    19.87934,
                    53.83874
                ]
            },
            "properties": {
                "isced:level": "1;2",
                "ref:rspo": 18297,
                "official_name": "Szko\u0142a Podstawowa im. Heleny Poniewa\u017c w S\u0142oneczniku",
                "name": "Szko\u0142a Podstawowa",
                "addr:postcode": "14-300",
                "addr:place": "S\u0142onecznik",
                "addr:housenumber": "117",
                "addr:city:simc": 482772,
                "phone": "+48 897570010",
                "email": "sp.slonecznik@op.pl",
                "website": "http:\/\/www.spslonecznik@edupage. org",
                "ref:regon": "001209624",
                "ref:vatin": "PL7411486700",
                "operator": "Gmina Mor\u0105g",
                "operator:type": "government",
                "amenity": "school"
            }
        },
        {
            "id": 34301,
            "type": "Feature",
            "geometry": {
                "type": "Point",
                "coordinates": [
                    19.77136,
                    53.85987
                ]
            },
            "properties": {
                "ref:rspo": 34301,
                "official_name": "Specjalny O\u015brodek Szkolno-Wychowawczy w Szymanowie",
                "name": "Specjalny O\u015brodek Szkolno-Wychowawczy w Szymanowie",
                "addr:postcode": "14-300",
                "addr:place": "Szymanowo",
                "addr:housenumber": "2",
                "addr:city:simc": 482803,
                "phone": "+48 897574569",
                "email": "sosw@interia.pl",
                "website": "http:\/\/www.szymanowo.edu.pl",
                "ref:regon": "000239770",
                "ref:vatin": "PL7411653888",
                "operator": "Powiat Ostr\u00f3dzki",
                "operator:type": "government",
                "amenity": "school",
                "note": "Children RSPO: 85308;88861;119789"
            }
        },
        {
            "id": 85308,
            "type": "Feature",
            "geometry": {
                "type": "Point",
                "coordinates": [
                    19.77136,
                    53.85984
                ]
            },
            "properties": {
                "isced:level": "1;2",
                "ref:rspo": 85308,
                "official_name": "Szko\u0142a Podstawowa Specjalna w Szymanowie",
                "name": "Szko\u0142a Podstawowa Specjalna w Szymanowie",
                "addr:postcode": "14-300",
                "addr:place": "Szymanowo",
                "addr:housenumber": "2",
                "addr:city:simc": 482803,
                "phone": "+48 897574569",
                "email": "sosw@interia.pl",
                "website": "http:\/\/www.szymanowo.edu.pl",
                "ref:regon": "280069670",
                "operator": "Powiat Ostr\u00f3dzki",
                "operator:type": "government",
                "amenity": "school",
                "note": "Parent RSPO: 34301"
            }
        },
        {
            "id": 88861,
            "type": "Feature",
            "geometry": {
                "type": "Point",
                "coordinates": [
                    19.77136,
                    53.85981
                ]
            },
            "properties": {
                "ref:rspo": 88861,
                "official_name": "Szko\u0142a Specjalna Przysposabiaj\u0105ca Do Pracy w Szymanowie",
                "name": "Szko\u0142a Specjalna Przysposabiaj\u0105ca Do Pracy w Szymanowie",
                "addr:postcode": "14-300",
                "addr:place": "Szymanowo",
                "addr:housenumber": "2",
                "addr:city:simc": 482803,
                "phone": "+48 897574569",
                "email": "sosw@interia.pl",
                "website": "http:\/\/www.szymanowo.edu.pl",
                "ref:regon": "280069693",
                "operator": "Powiat Ostr\u00f3dzki",
                "operator:type": "government",
                "amenity": "school",
                "note": "Parent RSPO: 34301"
            }
        },
        {
            "id": 119789,
            "type": "Feature",
            "geometry": {
                "type": "Point",
                "coordinates": [
                    19.77136,
                    53.85978
                ]
            },
            "properties": {
                "ref:rspo": 119789,
                "official_name": "Przedszkole Specjalne w Szymanowie",
                "name": "Przedszkole Specjalne w Szymanowie",
                "addr:postcode": "14-300",
                "addr:place": "Szymanowo",
                "addr:housenumber": "2",
                "addr:city:simc": 482803,
                "phone": "+48 897574569",
                "email": "sosw@interia.pl",
                "website": "http:\/\/www.szymanowo.edu.pl",
                "ref:regon": "281529702",
                "operator": "Powiat Ostr\u00f3dzki",
                "operator:type": "government",
                "amenity": "kindergarten",
                "note": "Parent RSPO: 34301"
            }
        },
        {
            "id": 18295,
            "type": "Feature",
            "geometry": {
                "type": "Point",
                "coordinates": [
                    20.01454,
                    53.86904
                ]
            },
            "properties": {
                "isced:level": "1;2",
                "ref:rspo": 18295,
                "official_name": "Szko\u0142a Podstawowa im. Ireny Kwinto w \u017babim Rogu",
                "name": "Szko\u0142a Podstawowa",
                "addr:postcode": "14-300",
                "addr:place": "\u017babi R\u00f3g",
                "addr:housenumber": "115A",
                "addr:city:simc": 482938,
                "phone": "+48 897571688",
                "email": "spzabirog@morag.pl",
                "website": "http:\/\/www.spzabirog.edupage.org",
                "ref:regon": "001209630",
                "ref:vatin": "PL7411486634",
                "operator": "Gmina Mor\u0105g",
                "operator:type": "government",
                "amenity": "school",
                "note": "Children RSPO: 119644"
            }
        },
        {
            "id": 119644,
            "type": "Feature",
            "geometry": {
                "type": "Point",
                "coordinates": [
                    19.95762,
                    53.87777
                ]
            },
            "properties": {
                "isced:level": "1;2",
                "ref:rspo": 119644,
                "official_name": "Szko\u0142a Podstawowa im. Ireny Kwinto w \u017babim Rogu Szko\u0142a Filialna w Bramce",
                "name": "Szko\u0142a Podstawowa",
                "addr:postcode": "14-300",
                "addr:place": "Bramka",
                "addr:housenumber": "75",
                "addr:city:simc": 482418,
                "phone": "+48 897572887",
                "email": "spbramka@wp.pl",
                "website": "http:\/\/www.spbramka.pev.pl",
                "ref:regon": "120963000",
                "operator": "Gmina Mor\u0105g",
                "operator:type": "government",
                "amenity": "school",
                "note": "Parent RSPO: 18295"
            }
        },
        {
            "id": 18298,
            "type": "Feature",
            "geometry": {
                "type": "Point",
                "coordinates": [
                    19.9437,
                    53.90352
                ]
            },
            "properties": {
                "isced:level": "1;2",
                "ref:rspo": 18298,
                "official_name": "Szko\u0142a Podstawowa Nr 3 im. Jana Brzechwy w Mor\u0105gu",
                "name": "Szko\u0142a Podstawowa Nr 3",
                "addr:postcode": "14-300",
                "addr:city": "Mor\u0105g",
                "addr:street": "Zygmunta Wr\u00f3blewskiego",
                "addr:housenumber": "17",
                "addr:city:simc": 964850,
                "addr:street:sym_ul": 24840,
                "phone": "+48 897574208",
                "email": "sp3morag67@wp.pl",
                "website": "http:\/\/www.sp3.com.pl",
                "ref:regon": "001213910",
                "ref:vatin": "PL7411486611",
                "operator": "Gmina Mor\u0105g",
                "operator:type": "government",
                "amenity": "school"
            }
        },
        {
            "id": 18011,
            "type": "Feature",
            "geometry": {
                "type": "Point",
                "coordinates": [
                    19.93616,
                    53.90873
                ]
            },
            "properties": {
                "ref:rspo": 18011,
                "official_name": "Przedszkole Nr 6 \"Pod Zielonym Parasolem\" w Mor\u0105gu",
                "name": "Przedszkole Nr 6 \"Pod Zielonym Parasolem\" w Mor\u0105gu",
                "addr:postcode": "14-300",
                "addr:city": "Mor\u0105g",
                "addr:street": "Pomorska",
                "addr:housenumber": "23",
                "addr:city:simc": 964850,
                "addr:street:sym_ul": 17088,
                "phone": "+48 897572634",
                "email": "pod_zielonym@wp.pl",
                "website": "http:\/\/przedszkole6morag.edupage.org",
                "ref:regon": "511449291",
                "ref:vatin": "PL7411486775",
                "operator": "Gmina Mor\u0105g",
                "operator:type": "government",
                "amenity": "kindergarten"
            }
        },
        {
            "id": 18012,
            "type": "Feature",
            "geometry": {
                "type": "Point",
                "coordinates": [
                    19.93857,
                    53.91107
                ]
            },
            "properties": {
                "ref:rspo": 18012,
                "official_name": "Przedszkole Nr 2 w Mor\u0105gu",
                "name": "Przedszkole Nr 2 w Mor\u0105gu",
                "addr:postcode": "14-300",
                "addr:city": "Mor\u0105g",
                "addr:street": "Armii Krajowej",
                "addr:housenumber": "15",
                "addr:city:simc": 964850,
                "addr:street:sym_ul": 432,
                "phone": "+48 897572888",
                "email": "pl2morag@wp.pl",
                "website": "http:\/\/www.przedszkole2morag.pl",
                "ref:regon": "511449300",
                "ref:vatin": "PL7411486752",
                "operator": "Gmina Mor\u0105g",
                "operator:type": "government",
                "amenity": "kindergarten"
            }
        },
        {
            "id": 30753,
            "type": "Feature",
            "geometry": {
                "type": "Point",
                "coordinates": [
                    19.98734,
                    53.91242
                ]
            },
            "properties": {
                "isced:level": "1;2",
                "ref:rspo": 30753,
                "official_name": "Niepubliczna Szko\u0142a Podstawowa Z Oddzia\u0142ami Przedszkolnymi w Bogaczewie",
                "name": "Niepubliczna Szko\u0142a Podstawowa Z Oddzia\u0142ami Przedszkolnymi w Bogaczewie",
                "addr:postcode": "14-300",
                "addr:place": "Bogaczewo",
                "addr:housenumber": "83",
                "addr:city:simc": 482387,
                "phone": "+48 605850075",
                "email": "niepubliczna.bogaczewo@wp.pl",
                "ref:regon": "281439063",
                "ref:vatin": "PL7411992544",
                "operator": "Stowarzyszenie Narie",
                "operator:type": "ngo",
                "amenity": "school"
            }
        },
        {
            "id": 133594,
            "type": "Feature",
            "geometry": {
                "type": "Point",
                "coordinates": [
                    19.93019,
                    53.9127
                ]
            },
            "properties": {
                "isced:level": "1;2",
                "ref:rspo": 133594,
                "official_name": "Szko\u0142a Podstawowa Nr 1 im. Jana Paw\u0142a II w Mor\u0105gu",
                "name": "Szko\u0142a Podstawowa Nr 1",
                "addr:postcode": "14-300",
                "addr:city": "Mor\u0105g",
                "addr:street": "Adama Mickiewicza",
                "addr:housenumber": "25",
                "addr:city:simc": 964850,
                "addr:street:sym_ul": 12734,
                "phone": "+48 897572246",
                "email": "sekretariat@jedynka.hg.pl",
                "website": "http:\/\/www.jedynka.hg.pl",
                "ref:regon": "367460770",
                "ref:vatin": "PL7412142061",
                "operator": "Gmina Mor\u0105g",
                "operator:type": "government",
                "amenity": "school"
            }
        },
        {
            "id": 28590,
            "type": "Feature",
            "geometry": {
                "type": "Point",
                "coordinates": [
                    19.9354,
                    53.91378
                ]
            },
            "properties": {
                "ref:rspo": 28590,
                "official_name": "Zesp\u00f3\u0142 Szk\u00f3\u0142 Zawodowych I Og\u00f3lnokszta\u0142c\u0105cych im. 9 Drezde\u0144skiej Brygady Artylerii I Poradni Psychologiczno-Pedagogicznej w Mor\u0105gu",
                "name": "Zesp\u00f3\u0142 Szk\u00f3\u0142 Zawodowych I Og\u00f3lnokszta\u0142c\u0105cych",
                "addr:postcode": "14-300",
                "addr:city": "Mor\u0105g",
                "addr:street": "Kujawska",
                "addr:housenumber": "1",
                "addr:city:simc": 964850,
                "addr:street:sym_ul": 10344,
                "phone": "+48 897572670",
                "email": "mgzszio@poczta.onet.pl",
                "website": "http:\/\/www.moragzszio.com.pl",
                "ref:regon": "511340720",
                "ref:vatin": "PL7411443062",
                "operator": "Powiat Ostr\u00f3dzki",
                "operator:type": "government",
                "landuse": "education",
                "fixme": "amenity=school, amenity=college albo landuse=education w zale\u017cno\u015bci od tego, jakie plac\u00f3wki wchodz\u0105 w sk\u0142ad zespo\u0142u. Sprawd\u017a, kiedy stosowa\u0107 amenity=* a kiedy landuse=education.",
                "note": "Children RSPO: 31393;73949;79805;79807;79808;128632"
            }
        },
        {
            "id": 73949,
            "type": "Feature",
            "geometry": {
                "type": "Point",
                "coordinates": [
                    19.9354,
                    53.91375
                ]
            },
            "properties": {
                "isced:level": "3",
                "ref:rspo": 73949,
                "official_name": "Liceum Og\u00f3lnokszta\u0142c\u0105ce Nr I w Zespole Szk\u00f3\u0142 Zawodowych I Og\u00f3lnokszta\u0142c\u0105cych w Mor\u0105gu",
                "name": "Liceum Og\u00f3lnokszta\u0142c\u0105ce Nr I w Zespole Szk\u00f3\u0142 Zawodowych I Og\u00f3lnokszta\u0142c\u0105cych w Mor\u0105gu",
                "addr:postcode": "14-300",
                "addr:city": "Mor\u0105g",
                "addr:street": "Kujawska",
                "addr:housenumber": "1",
                "addr:city:simc": 964850,
                "addr:street:sym_ul": 10344,
                "phone": "+48 897572670",
                "email": "mgzszio@poczta.onet.pl",
                "website": "http:\/\/www.moragzszio.com.pl",
                "ref:regon": "519455960",
                "operator": "Powiat Ostr\u00f3dzki",
                "operator:type": "government",
                "amenity": "school",
                "note": "Parent RSPO: 28590"
            }
        },
        {
            "id": 79805,
            "type": "Feature",
            "geometry": {
                "type": "Point",
                "coordinates": [
                    19.9354,
                    53.913720000000005
                ]
            },
            "properties": {
                "isced:level": "4",
                "ref:rspo": 79805,
                "official_name": "Szko\u0142a Policealna w Zespole Szk\u00f3\u0142 Zawodowych I Og\u00f3lnokszta\u0142c\u0105cych w Mor\u0105gu",
                "name": "Szko\u0142a Policealna w Zespole Szk\u00f3\u0142 Zawodowych I Og\u00f3lnokszta\u0142c\u0105cych w Mor\u0105gu",
                "addr:postcode": "14-300",
                "addr:city": "Mor\u0105g",
                "addr:street": "Kujawska",
                "addr:housenumber": "1",
                "addr:city:simc": 964850,
                "addr:street:sym_ul": 10344,
                "phone": "+48 897572670",
                "email": "mgzszio@poczta.onet.pl",
                "website": "http:\/\/www.moragzszio.com.pl",
                "ref:regon": "281387739",
                "operator": "Powiat Ostr\u00f3dzki",
                "operator:type": "government",
                "amenity": "college",
                "note": "Parent RSPO: 28590"
            }
        },
        {
            "id": 79807,
            "type": "Feature",
            "geometry": {
                "type": "Point",
                "coordinates": [
                    19.9354,
                    53.91369
                ]
            },
            "properties": {
                "isced:level": "3",
                "ref:rspo": 79807,
                "official_name": "Technikum Nr 1 w Zespole Szk\u00f3\u0142 Zawodowych I Og\u00f3lnokszta\u0142c\u0105cych w Mor\u0105gu",
                "name": "Technikum Nr 1 w Zespole Szk\u00f3\u0142 Zawodowych I Og\u00f3lnokszta\u0142c\u0105cych w Mor\u0105gu",
                "addr:postcode": "14-300",
                "addr:city": "Mor\u0105g",
                "addr:street": "Kujawska",
                "addr:housenumber": "1",
                "addr:city:simc": 964850,
                "addr:street:sym_ul": 10344,
                "phone": "+48 897572670",
                "email": "mgzszio@poczta.onet.pl",
                "website": "http:\/\/www.moragzszio.com.pl",
                "ref:regon": "519455931",
                "operator": "Powiat Ostr\u00f3dzki",
                "operator:type": "government",
                "amenity": "school",
                "note": "Parent RSPO: 28590"
            }
        },
        {
            "id": 79808,
            "type": "Feature",
            "geometry": {
                "type": "Point",
                "coordinates": [
                    19.9354,
                    53.91366
                ]
            },
            "properties": {
                "isced:level": "3",
                "ref:rspo": 79808,
                "official_name": "Bran\u017cowa Szko\u0142a I Stopnia w Mor\u0105gu",
                "name": "Bran\u017cowa Szko\u0142a I Stopnia w Mor\u0105gu",
                "addr:postcode": "14-300",
                "addr:city": "Mor\u0105g",
                "addr:street": "Kujawska",
                "addr:housenumber": "1",
                "addr:city:simc": 964850,
                "addr:street:sym_ul": 10344,
                "phone": "+48 897572670",
                "email": "mgzszio@poczta.onet.pl",
                "website": "http:\/\/www.moragzszio.com.pl",
                "ref:regon": "519455902",
                "operator": "Powiat Ostr\u00f3dzki",
                "operator:type": "government",
                "amenity": "school",
                "note": "Parent RSPO: 28590"
            }
        },
        {
            "id": 128632,
            "type": "Feature",
            "geometry": {
                "type": "Point",
                "coordinates": [
                    19.9354,
                    53.913630000000005
                ]
            },
            "properties": {
                "isced:level": "3",
                "ref:rspo": 128632,
                "official_name": "Liceum Og\u00f3lnokszta\u0142c\u0105ce dla Doros\u0142ych Nr IV w Mor\u0105gu",
                "name": "Liceum Og\u00f3lnokszta\u0142c\u0105ce dla Doros\u0142ych Nr IV w Mor\u0105gu",
                "addr:postcode": "14-300",
                "addr:city": "Mor\u0105g",
                "addr:street": "Kujawska",
                "addr:housenumber": "1",
                "addr:city:simc": 964850,
                "addr:street:sym_ul": 10344,
                "phone": "+48 897572670",
                "email": "mgzszio@poczta.onet.pl",
                "website": "http:\/\/www.zsziomorag.internetdsl.pl",
                "ref:regon": "362335881",
                "operator": "Powiat Ostr\u00f3dzki",
                "operator:type": "government",
                "amenity": "school",
                "note": "Parent RSPO: 28590"
            }
        },
        {
            "id": 15828,
            "type": "Feature",
            "geometry": {
                "type": "Point",
                "coordinates": [
                    19.93354,
                    53.9138
                ]
            },
            "properties": {
                "ref:rspo": 15828,
                "official_name": "Zesp\u00f3\u0142 Szk\u00f3\u0142 Licealnych w Mor\u0105gu",
                "name": "Zesp\u00f3\u0142 Szk\u00f3\u0142 Licealnych w Mor\u0105gu",
                "addr:postcode": "14-300",
                "addr:city": "Mor\u0105g",
                "addr:street": "11 Listopada",
                "addr:housenumber": "7",
                "addr:city:simc": 964850,
                "addr:street:sym_ul": 11205,
                "phone": "+48 897574012",
                "email": "lomorag@poczta.fm",
                "website": "http:\/\/www.zsl-13.pl",
                "ref:regon": "511323236",
                "ref:vatin": "PL7411487119",
                "operator": "Powiat Ostr\u00f3dzki",
                "operator:type": "government",
                "landuse": "education",
                "fixme": "amenity=school, amenity=college albo landuse=education w zale\u017cno\u015bci od tego, jakie plac\u00f3wki wchodz\u0105 w sk\u0142ad zespo\u0142u. Sprawd\u017a, kiedy stosowa\u0107 amenity=* a kiedy landuse=education.",
                "note": "Children RSPO: 70042;71632;82602;82603"
            }
        },
        {
            "id": 70042,
            "type": "Feature",
            "geometry": {
                "type": "Point",
                "coordinates": [
                    19.93354,
                    53.91377
                ]
            },
            "properties": {
                "isced:level": "3",
                "ref:rspo": 70042,
                "official_name": "Technikum Nr 2 w Mor\u0105gu",
                "name": "Technikum Nr 2 w Mor\u0105gu",
                "addr:postcode": "14-300",
                "addr:city": "Mor\u0105g",
                "addr:street": "11 Listopada",
                "addr:housenumber": "7",
                "addr:city:simc": 964850,
                "addr:street:sym_ul": 11205,
                "phone": "+48 897574012",
                "email": "lomorag@poczta.fm",
                "website": "http:\/\/www.zsl-13.pl",
                "ref:regon": "280229234",
                "operator": "Powiat Ostr\u00f3dzki",
                "operator:type": "government",
                "amenity": "school",
                "note": "Parent RSPO: 15828"
            }
        },
        {
            "id": 71632,
            "type": "Feature",
            "geometry": {
                "type": "Point",
                "coordinates": [
                    19.93354,
                    53.913740000000004
                ]
            },
            "properties": {
                "isced:level": "4",
                "ref:rspo": 71632,
                "official_name": "Szko\u0142a Policealna Nr 2 w Mor\u0105gu",
                "name": "Szko\u0142a Policealna Nr 2 w Mor\u0105gu",
                "addr:postcode": "14-300",
                "addr:city": "Mor\u0105g",
                "addr:street": "11 Listopada",
                "addr:housenumber": "7",
                "addr:city:simc": 964850,
                "addr:street:sym_ul": 11205,
                "phone": "+48 897574012",
                "email": "lomorag@poczta.fm",
                "website": "http:\/\/www.zsl-13.pl",
                "ref:regon": "280143751",
                "operator": "Powiat Ostr\u00f3dzki",
                "operator:type": "government",
                "amenity": "college",
                "note": "Parent RSPO: 15828"
            }
        },
        {
            "id": 82602,
            "type": "Feature",
            "geometry": {
                "type": "Point",
                "coordinates": [
                    19.93354,
                    53.91371
                ]
            },
            "properties": {
                "isced:level": "3",
                "ref:rspo": 82602,
                "official_name": "Liceum Og\u00f3lnokszta\u0142c\u0105ce dla Doros\u0142ych Nr III w Mor\u0105gu",
                "name": "Liceum Og\u00f3lnokszta\u0142c\u0105ce dla Doros\u0142ych Nr III w Mor\u0105gu",
                "addr:postcode": "14-300",
                "addr:city": "Mor\u0105g",
                "addr:street": "11 Listopada",
                "addr:housenumber": "7",
                "addr:city:simc": 964850,
                "addr:street:sym_ul": 11205,
                "phone": "+48 897574012",
                "email": "lomorag@poczta.fm",
                "website": "http:\/\/www.zsl-13.pl",
                "ref:regon": "519497540",
                "operator": "Powiat Ostr\u00f3dzki",
                "operator:type": "government",
                "amenity": "school",
                "note": "Parent RSPO: 15828"
            }
        },
        {
            "id": 82603,
            "type": "Feature",
            "geometry": {
                "type": "Point",
                "coordinates": [
                    19.93354,
                    53.91368
                ]
            },
            "properties": {
                "isced:level": "3",
                "ref:rspo": 82603,
                "official_name": "Liceum Og\u00f3lnokszta\u0142c\u0105ce Nr II im. Leona Kruczkowskiego",
                "name": "Liceum Og\u00f3lnokszta\u0142c\u0105ce Nr II",
                "addr:postcode": "14-300",
                "addr:city": "Mor\u0105g",
                "addr:street": "11 Listopada",
                "addr:housenumber": "7",
                "addr:city:simc": 964850,
                "addr:street:sym_ul": 11205,
                "phone": "+48 897574012",
                "email": "lomorag@poczta.fm",
                "website": "http:\/\/www.zsl-13.pl",
                "ref:regon": "519497510",
                "operator": "Powiat Ostr\u00f3dzki",
                "operator:type": "government",
                "amenity": "school",
                "note": "Parent RSPO: 15828"
            }
        },
        {
            "id": 31393,
            "type": "Feature",
            "geometry": {
                "type": "Point",
                "coordinates": [
                    19.93671,
                    53.91396
                ]
            },
            "properties": {
                "ref:rspo": 31393,
                "official_name": "Poradnia Psychologiczno-Pedagogiczna w Mor\u0105gu",
                "name": "Poradnia Psychologiczno-Pedagogiczna w Mor\u0105gu",
                "addr:postcode": "14-300",
                "addr:city": "Mor\u0105g",
                "addr:street": "Le\u015bna",
                "addr:housenumber": "6",
                "addr:city:simc": 964850,
                "addr:street:sym_ul": 10898,
                "phone": "+48 897572011",
                "email": "pppmorag@poczta.fm",
                "website": "http:\/\/www.ppp-morag.edu.pl",
                "ref:regon": "000707610",
                "ref:vatin": "PL7411808919",
                "operator": "Powiat Ostr\u00f3dzki",
                "operator:type": "government",
                "healthcare": "counselling",
                "counselling_type": "education",
                "fixme": "w zale\u017cno\u015bci od przedmiotu dzia\u0142alno\u015bci (np. healthcare=counselling + counselling_type=education albo healthcare=psychotherapist)",
                "note": "Parent RSPO: 28590"
            }
        },
        {
            "id": 18010,
            "type": "Feature",
            "geometry": {
                "type": "Point",
                "coordinates": [
                    19.9344,
                    53.91464
                ]
            },
            "properties": {
                "ref:rspo": 18010,
                "official_name": "Przedszkole \"Jedyneczka\" w Mor\u0105gu",
                "name": "Przedszkole \"Jedyneczka\" w Mor\u0105gu",
                "addr:postcode": "14-300",
                "addr:city": "Mor\u0105g",
                "addr:street": "11 Listopada",
                "addr:housenumber": "11",
                "addr:city:simc": 964850,
                "addr:street:sym_ul": 11205,
                "phone": "+48 897574355",
                "email": "p1morag@neostrada.pl",
                "website": "http:\/\/www.przedszkolejedyneczka.edupage.org",
                "ref:regon": "511449316",
                "ref:vatin": "PL7411486746",
                "operator": "Gmina Mor\u0105g",
                "operator:type": "government",
                "amenity": "kindergarten"
            }
        },
        {
            "id": 18300,
            "type": "Feature",
            "geometry": {
                "type": "Point",
                "coordinates": [
                    19.92614,
                    53.91596
                ]
            },
            "properties": {
                "isced:level": "1;2",
                "ref:rspo": 18300,
                "official_name": "Szko\u0142a Podstawowa Nr 4 im. Stefana \u017beromskiego w Mor\u0105gu",
                "name": "Szko\u0142a Podstawowa Nr 4",
                "addr:postcode": "14-300",
                "addr:city": "Mor\u0105g",
                "addr:street": "Kajki",
                "addr:housenumber": "2",
                "addr:city:simc": 964850,
                "addr:street:sym_ul": 7780,
                "phone": "+48 897574743",
                "email": "spnr4@op.pl",
                "website": "http:\/\/www.spnr4morag.szkolnastrona.pl",
                "ref:regon": "000707627",
                "ref:vatin": "PL7411486628",
                "operator": "Gmina Mor\u0105g",
                "operator:type": "government",
                "amenity": "school"
            }
        },
        {
            "id": 18290,
            "type": "Feature",
            "geometry": {
                "type": "Point",
                "coordinates": [
                    19.92673,
                    53.92488
                ]
            },
            "properties": {
                "isced:level": "1;2",
                "ref:rspo": 18290,
                "official_name": "Szko\u0142a Podstawowa Nr 2 im. W\u0142adys\u0142awa Stanis\u0142awa Reymonta w Mor\u0105gu",
                "name": "Szko\u0142a Podstawowa Nr 2",
                "addr:postcode": "14-300",
                "addr:city": "Mor\u0105g",
                "addr:street": "Stefana \u017beromskiego",
                "addr:housenumber": "26",
                "addr:city:simc": 964850,
                "addr:street:sym_ul": 26464,
                "phone": "+48 897574777",
                "email": "sp2morag@poczta.onet.pl",
                "website": "http:\/\/www.sp2morag.szkolnastrona.pl",
                "ref:regon": "000707596",
                "ref:vatin": "PL7411486605",
                "operator": "Gmina Mor\u0105g",
                "operator:type": "government",
                "amenity": "school"
            }
        },
        {
            "id": 115094,
            "type": "Feature",
            "geometry": {
                "type": "Point",
                "coordinates": [
                    19.94767,
                    53.95096
                ]
            },
            "properties": {
                "isced:level": "1;2",
                "ref:rspo": 115094,
                "official_name": "Niepubliczna Szko\u0142a Podstawowa w Jurkach Z Oddzia\u0142em Przedszkolnym",
                "name": "Niepubliczna Szko\u0142a Podstawowa w Jurkach Z Oddzia\u0142em Przedszkolnym",
                "addr:postcode": "14-300",
                "addr:place": "Jurki",
                "addr:housenumber": "53",
                "addr:city:simc": 482507,
                "phone": "+48 897575184",
                "email": "sp.jurki53@wp.pl",
                "website": "http:\/\/www.szkolajurki.edupage.pl",
                "ref:regon": "281506865",
                "operator": "Stowarzyszenie Rodzic\u00f3w I Przyjaci\u00f3\u0142 Szko\u0142y W Jurkach",
                "operator:type": "ngo",
                "amenity": "school"
            }
        },
        {
            "id": 18294,
            "type": "Feature",
            "geometry": {
                "type": "Point",
                "coordinates": [
                    19.90555,
                    53.95384
                ]
            },
            "properties": {
                "isced:level": "1;2",
                "ref:rspo": 18294,
                "official_name": "Szko\u0142a Podstawowa im. Rtm. Witolda Pileckiego w \u0141\u0105cznie",
                "name": "Szko\u0142a Podstawowa",
                "addr:postcode": "14-300",
                "addr:place": "\u0141\u0105czno",
                "addr:housenumber": "48B",
                "addr:city:simc": 482654,
                "phone": "+48 897575010",
                "email": "sekretariat@splaczno.edu.pl",
                "website": "https:\/\/splaczno.edupage.org\/",
                "ref:regon": "001213815",
                "ref:vatin": "PL7411486692",
                "operator": "Gmina Mor\u0105g",
                "operator:type": "government",
                "amenity": "school"
            }
        },
        {
            "id": 30812,
            "type": "Feature",
            "geometry": {
                "type": "Point",
                "coordinates": [
                    19.83184,
                    53.99815
                ]
            },
            "properties": {
                "isced:level": "1;2",
                "ref:rspo": 30812,
                "official_name": "Niepubliczna Szko\u0142a Podstawowa Z Oddzia\u0142ami Przedszkolnymi w Kalniku",
                "name": "Niepubliczna Szko\u0142a Podstawowa Z Oddzia\u0142ami Przedszkolnymi w Kalniku",
                "addr:postcode": "14-300",
                "addr:place": "Kalnik",
                "addr:housenumber": "69",
                "addr:city:simc": 482536,
                "phone": "+48 897570516",
                "email": "niepubliczna.kalnik@wp.pl",
                "ref:regon": "281438514",
                "ref:vatin": "PL7411992544",
                "operator": "Stowarzyszenie Przyjaci\u00f3\u0142 Szko\u0142y W Kalniku",
                "operator:type": "ngo",
                "amenity": "school"
            }
        }
    ]
}