{
    "type": "FeatureCollection",
    "features": [
        {
            "id": 53171,
            "type": "Feature",
            "geometry": {
                "type": "Point",
                "coordinates": [
                    20.03403,
                    53.43614
                ]
            },
            "properties": {
                "isced:level": "1;2",
                "ref:rspo": 53171,
                "official_name": "Publiczna Szko\u0142a Podstawowa im.jaros\u0142awa Iwaszkiewicza w D\u0105br\u00f3wnie",
                "name": "Publiczna Szko\u0142a Podstawowa im.jaros\u0142awa Iwaszkiewicza w D\u0105br\u00f3wnie",
                "addr:postcode": "14-120",
                "addr:city": "D\u0105br\u00f3wno",
                "addr:street": "Ostr\u00f3dzka",
                "addr:housenumber": "12",
                "addr:teryt:simc": 472325,
                "addr:teryt:sym_ul": 15398,
                "phone": "+48 896474439",
                "email": "pspdabrowno@interia.pl",
                "website": "http:\/\/www.psp.dabrowno.pl",
                "ref:regon": "000675979",
                "ref:vatin": "PL7411969002",
                "operator": "Gmina D\u0105br\u00f3wno",
                "operator:type": "government",
                "amenity": "school"
            }
        },
        {
            "id": 53174,
            "type": "Feature",
            "geometry": {
                "type": "Point",
                "coordinates": [
                    19.95443,
                    53.45975
                ]
            },
            "properties": {
                "isced:level": "1;2",
                "ref:rspo": 53174,
                "official_name": "Publiczna Szko\u0142a Podstawowa im. Ignacego Krasickiego w Elgnowie",
                "name": "Publiczna Szko\u0142a Podstawowa",
                "addr:postcode": "14-120",
                "addr:place": "Elgnowo",
                "addr:housenumber": "6",
                "addr:teryt:simc": 472354,
                "phone": "+48 896474404",
                "email": "szkola.elgnowo@wp.pl",
                "ref:regon": "001250756",
                "ref:vatin": "PL7411949838",
                "operator": "Gmina D\u0105br\u00f3wno",
                "operator:type": "government",
                "amenity": "school"
            }
        },
        {
            "id": 53172,
            "type": "Feature",
            "geometry": {
                "type": "Point",
                "coordinates": [
                    19.97334,
                    53.49803
                ]
            },
            "properties": {
                "isced:level": "1;2",
                "ref:rspo": 53172,
                "official_name": "Publiczna Szko\u0142a Podstawowa w Marwa\u0142dzie",
                "name": "Publiczna Szko\u0142a Podstawowa w Marwa\u0142dzie",
                "addr:postcode": "14-120",
                "addr:place": "Marwa\u0142d",
                "addr:housenumber": "31",
                "addr:teryt:simc": 472489,
                "phone": "+48 896474345",
                "email": "szkola.marwald@interia.pl",
                "ref:regon": "001124661",
                "ref:vatin": "PL7411964594",
                "operator": "Gmina D\u0105br\u00f3wno",
                "operator:type": "government",
                "amenity": "school"
            }
        }
    ]
}