{
    "type": "FeatureCollection",
    "features": [
        {
            "id": 26577,
            "type": "Feature",
            "geometry": {
                "type": "Point",
                "coordinates": [
                    19.77683,
                    53.85948
                ]
            },
            "properties": {
                "isced:level": "1;2",
                "ref:rspo": 26577,
                "official_name": "Szko\u0142a Podstawowa im. Ireny Kwintowej w Szymonowie",
                "name": "Szko\u0142a Podstawowa",
                "addr:postcode": "14-330",
                "addr:place": "Szymonowo",
                "addr:housenumber": "15",
                "addr:city:simc": 481554,
                "phone": "+48 897586642",
                "email": "spszymonowo@tlen.pl",
                "website": "http:\/\/spszymonowo.szkolna.net",
                "ref:regon": "001209191",
                "ref:vatin": "PL7411872969",
                "operator": "Gmina Ma\u0142dyty",
                "operator:type": "government",
                "amenity": "school"
            }
        },
        {
            "id": 4401,
            "type": "Feature",
            "geometry": {
                "type": "Point",
                "coordinates": [
                    19.6107,
                    53.90792
                ]
            },
            "properties": {
                "isced:level": "1;2",
                "ref:rspo": 4401,
                "official_name": "Niepubliczna Szko\u0142a Podstawowa Z Oddzia\u0142em Przedszkolnym w Wielkim Dworze",
                "name": "Niepubliczna Szko\u0142a Podstawowa Z Oddzia\u0142em Przedszkolnym w Wielkim Dworze",
                "addr:postcode": "14-330",
                "addr:place": "Wielki Dw\u00f3r",
                "addr:housenumber": "9",
                "addr:door": "1",
                "addr:city:simc": 481560,
                "phone": "+48 897581007",
                "email": "amarchlewicz@o2.pl",
                "website": "http:\/\/nspwd.com.pl",
                "ref:regon": "281423725",
                "ref:vatin": "PL7412124608",
                "operator": "Stowarzyszenie Edukacyjno-Gospodarcze \"Nasza Szko\u0142a\"",
                "operator:type": "ngo",
                "amenity": "school"
            }
        },
        {
            "id": 29548,
            "type": "Feature",
            "geometry": {
                "type": "Point",
                "coordinates": [
                    19.82968,
                    53.90815
                ]
            },
            "properties": {
                "ref:rspo": 29548,
                "official_name": "Zesp\u00f3\u0142 Szk\u00f3\u0142 Centrum Kszta\u0142cenia Rolniczego w Dobrocinie",
                "name": "Zesp\u00f3\u0142 Szk\u00f3\u0142 Centrum Kszta\u0142cenia Rolniczego w Dobrocinie",
                "addr:postcode": "14-330",
                "addr:place": "Dobrocin",
                "addr:housenumber": "3",
                "addr:city:simc": 481206,
                "phone": "+48 897581715",
                "email": "sekret.dobrocin@interia.pl",
                "website": "http:\/\/www.zsckr.net",
                "ref:regon": "280262964",
                "ref:vatin": "PL7412055706",
                "operator": "Ministerstwo Rolnictwa I Rozwoju Wsi",
                "operator:type": "public",
                "landuse": "education",
                "fixme": "amenity=school, amenity=college albo landuse=education w zale\u017cno\u015bci od tego, jakie plac\u00f3wki wchodz\u0105 w sk\u0142ad zespo\u0142u. Sprawd\u017a, kiedy stosowa\u0107 amenity=* a kiedy landuse=education.",
                "note": "Children RSPO: 72041;72042;72044;72045"
            }
        },
        {
            "id": 72041,
            "type": "Feature",
            "geometry": {
                "type": "Point",
                "coordinates": [
                    19.82968,
                    53.90812
                ]
            },
            "properties": {
                "isced:level": "3",
                "ref:rspo": 72041,
                "official_name": "Technikum im. Gen. Jana Henryka D\u0105browskiego w Dobrocinie",
                "name": "Technikum",
                "addr:postcode": "14-330",
                "addr:place": "Dobrocin",
                "addr:housenumber": "3",
                "addr:city:simc": 481206,
                "phone": "+48 897581715",
                "email": "sekret.dobrocin@interia.pl",
                "website": "http:\/\/www.zsckr.net",
                "ref:regon": "280417355",
                "operator": "Ministerstwo Rolnictwa I Rozwoju Wsi",
                "operator:type": "public",
                "amenity": "school",
                "note": "Parent RSPO: 29548"
            }
        },
        {
            "id": 72042,
            "type": "Feature",
            "geometry": {
                "type": "Point",
                "coordinates": [
                    19.82968,
                    53.90809
                ]
            },
            "properties": {
                "isced:level": "3",
                "ref:rspo": 72042,
                "official_name": "Bran\u017cowa Szko\u0142a I Stopnia im. Gen. Jana Henryka D\u0105browskiego w Dobrocinie",
                "name": "Bran\u017cowa Szko\u0142a I Stopnia",
                "addr:postcode": "14-330",
                "addr:place": "Dobrocin",
                "addr:housenumber": "3",
                "addr:city:simc": 481206,
                "phone": "+48 867581715",
                "email": "sekret.dobrocin@interia.pl",
                "website": "http:\/\/www.zsckr.net",
                "ref:regon": "280417361",
                "operator": "Ministerstwo Rolnictwa I Rozwoju Wsi",
                "operator:type": "public",
                "amenity": "school",
                "note": "Parent RSPO: 29548"
            }
        },
        {
            "id": 72044,
            "type": "Feature",
            "geometry": {
                "type": "Point",
                "coordinates": [
                    19.82968,
                    53.90806
                ]
            },
            "properties": {
                "isced:level": "4",
                "ref:rspo": 72044,
                "official_name": "Szko\u0142a Policealna im. Gen. Jana Henryka D\u0105browskiego w Dobrocinie",
                "name": "Szko\u0142a Policealna",
                "addr:postcode": "14-330",
                "addr:place": "Dobrocin",
                "addr:housenumber": "3",
                "addr:city:simc": 481206,
                "phone": "+48 897581715",
                "email": "sekret.dobrocin@interia.pl",
                "website": "http:\/\/www.zsckr.net",
                "ref:regon": "280417310",
                "operator": "Ministerstwo Rolnictwa I Rozwoju Wsi",
                "operator:type": "public",
                "amenity": "college",
                "note": "Parent RSPO: 29548"
            }
        },
        {
            "id": 72045,
            "type": "Feature",
            "geometry": {
                "type": "Point",
                "coordinates": [
                    19.82968,
                    53.90803
                ]
            },
            "properties": {
                "ref:rspo": 72045,
                "official_name": "Centrum Kszta\u0142cenia Ustawicznego w Dobrocinie",
                "name": "Centrum Kszta\u0142cenia Ustawicznego w Dobrocinie",
                "addr:postcode": "14-330",
                "addr:place": "Dobrocin",
                "addr:housenumber": "3",
                "addr:city:simc": 481206,
                "phone": "+48 897581715",
                "email": "sekret.dobrocin@interia.pl",
                "website": "http:\/\/www.zsckr.net",
                "ref:regon": "281442533",
                "operator": "Ministerstwo Rolnictwa I Rozwoju Wsi",
                "operator:type": "public",
                "fixme": "w zale\u017cno\u015bci od przedmiotu dzia\u0142alno\u015bci (np. amenity=training + training=*, amenity=dancing_school, amenity=language_school, amenity=music_school)",
                "note": "Parent RSPO: 29548"
            }
        },
        {
            "id": 4414,
            "type": "Feature",
            "geometry": {
                "type": "Point",
                "coordinates": [
                    19.83912,
                    53.90945
                ]
            },
            "properties": {
                "ref:rspo": 4414,
                "official_name": "Przedszkole Samorz\u0105dowe w Dobrocinie",
                "name": "Przedszkole Samorz\u0105dowe w Dobrocinie",
                "addr:postcode": "14-330",
                "addr:place": "Dobrocin",
                "addr:housenumber": "49A",
                "addr:city:simc": 481206,
                "phone": "+48 897581789",
                "email": "ps.dobrocin@op.pl",
                "website": "http:\/\/ps.dobrocin.szkolnastrona.pl",
                "ref:regon": "511337793",
                "ref:vatin": "PL7411872900",
                "operator": "Gmina Ma\u0142dyty",
                "operator:type": "government",
                "amenity": "kindergarten"
            }
        },
        {
            "id": 4398,
            "type": "Feature",
            "geometry": {
                "type": "Point",
                "coordinates": [
                    19.74293,
                    53.92113
                ]
            },
            "properties": {
                "ref:rspo": 4398,
                "official_name": "Przedszkole Samorzadowe Nr 1 w Ma\u0142dytach",
                "name": "Przedszkole Samorzadowe Nr 1 w Ma\u0142dytach",
                "addr:postcode": "14-330",
                "addr:city": "Ma\u0142dyty",
                "addr:street": "Prusa",
                "addr:housenumber": "10",
                "addr:city:simc": 481407,
                "addr:street:sym_ul": 17574,
                "phone": "+48 897586065",
                "email": "przedszkolemaldyty@interia.pl",
                "ref:regon": "511337801",
                "ref:vatin": "PL7411872917",
                "operator": "Gmina Ma\u0142dyty",
                "operator:type": "government",
                "amenity": "kindergarten"
            }
        },
        {
            "id": 4751,
            "type": "Feature",
            "geometry": {
                "type": "Point",
                "coordinates": [
                    19.7455399,
                    53.92182
                ]
            },
            "properties": {
                "isced:level": "1;2",
                "ref:rspo": 4751,
                "official_name": "Szko\u0142a Podstawowa im. Miko\u0142aja Kopernika w Ma\u0142dytach",
                "name": "Szko\u0142a Podstawowa",
                "addr:postcode": "14-330",
                "addr:city": "Ma\u0142dyty",
                "addr:street": "Miko\u0142aja Kopernika",
                "addr:housenumber": "13C",
                "addr:city:simc": 481407,
                "addr:street:sym_ul": 9276,
                "phone": "+48 897586074",
                "email": "spmaldyty@wp.pl",
                "website": "http:\/\/www.spmaldyty.pl",
                "ref:regon": "000676720",
                "ref:vatin": "PL7411872952",
                "operator": "Gmina Ma\u0142dyty",
                "operator:type": "government",
                "amenity": "school"
            }
        }
    ]
}