{
    "type": "FeatureCollection",
    "features": [
        {
            "id": 16388,
            "type": "Feature",
            "geometry": {
                "type": "Point",
                "coordinates": [
                    19.82473,
                    53.72981
                ]
            },
            "properties": {
                "isced:level": "1;2",
                "ref:rspo": 16388,
                "official_name": "Publiczna Szko\u0142a Podstawowa im. Miko\u0142aja Kopernika",
                "name": "Publiczna Szko\u0142a Podstawowa",
                "addr:postcode": "14-140",
                "addr:city": "Liwa",
                "addr:street": "D\u0142uga",
                "addr:housenumber": "30",
                "addr:city:simc": 482140,
                "addr:street:sym_ul": 3839,
                "phone": "+48 896473019",
                "email": "szkolaliwa@spliwa.milomlyn.pl",
                "website": "https:\/\/spliwa.edupage.org\/",
                "ref:regon": "001209660",
                "ref:vatin": "PL7411912841",
                "operator": "Gmina Mi\u0142om\u0142yn",
                "operator:type": "government",
                "amenity": "school"
            }
        },
        {
            "id": 72938,
            "type": "Feature",
            "geometry": {
                "type": "Point",
                "coordinates": [
                    19.82528,
                    53.7299
                ]
            },
            "properties": {
                "ref:rspo": 72938,
                "official_name": "Ja\u015b I Ma\u0142gosia",
                "name": "Ja\u015b I Ma\u0142gosia",
                "addr:postcode": "14-140",
                "addr:city": "Liwa",
                "addr:street": "D\u0142uga",
                "addr:housenumber": "53",
                "addr:city:simc": 482140,
                "addr:street:sym_ul": 3839,
                "phone": "+48 896473019",
                "email": "szkolaliwa@spliwa.milomlyn.pl",
                "ref:regon": "281442740",
                "operator": "Gmina Mi\u0142om\u0142yn",
                "operator:type": "government",
                "amenity": "kindergarten"
            }
        },
        {
            "id": 16386,
            "type": "Feature",
            "geometry": {
                "type": "Point",
                "coordinates": [
                    19.8320599,
                    53.76368
                ]
            },
            "properties": {
                "isced:level": "1;2",
                "ref:rspo": 16386,
                "official_name": "Publiczna Szko\u0142a Podstawowa im. \u017bo\u0142nierzy I Dp im. Tadeusza Ko\u015bciuszki",
                "name": "Publiczna Szko\u0142a Podstawowa",
                "addr:postcode": "14-140",
                "addr:city": "Mi\u0142om\u0142yn",
                "addr:street": "Pas\u0142\u0119cka",
                "addr:housenumber": "15",
                "addr:city:simc": 482192,
                "addr:street:sym_ul": 15771,
                "phone": "+48 896413123",
                "email": "spmilomlyn@gmail.com",
                "website": "http:\/\/spmilomlyn.edupage.org",
                "ref:regon": "511403857",
                "ref:vatin": "PL7411901984",
                "operator": "Gmina Mi\u0142om\u0142yn",
                "operator:type": "government",
                "amenity": "school"
            }
        },
        {
            "id": 72939,
            "type": "Feature",
            "geometry": {
                "type": "Point",
                "coordinates": [
                    19.8320599,
                    53.76365
                ]
            },
            "properties": {
                "ref:rspo": 72939,
                "official_name": "Punkt Przedszkolny \"Ja\u015b I Ma\u0142gosia\"",
                "name": "Punkt Przedszkolny \"Ja\u015b I Ma\u0142gosia\"",
                "addr:postcode": "14-140",
                "addr:city": "Mi\u0142om\u0142yn",
                "addr:street": "Pas\u0142\u0119cka",
                "addr:housenumber": "15",
                "addr:door": "2",
                "addr:city:simc": 482192,
                "addr:street:sym_ul": 15771,
                "phone": "+48 896413123",
                "email": "spmilomlyn@gmail.com",
                "ref:regon": "281442763",
                "operator": "Gmina Mi\u0142om\u0142yn",
                "operator:type": "government",
                "amenity": "kindergarten"
            }
        },
        {
            "id": 264191,
            "type": "Feature",
            "geometry": {
                "type": "Point",
                "coordinates": [
                    19.8320599,
                    53.76362
                ]
            },
            "properties": {
                "ref:rspo": 264191,
                "official_name": "Punkt Przedszkolny \"Kubusiowo\"",
                "name": "Punkt Przedszkolny \"Kubusiowo\"",
                "addr:postcode": "14-140",
                "addr:city": "Mi\u0142om\u0142yn",
                "addr:street": "Pas\u0142\u0119cka",
                "addr:housenumber": "15",
                "addr:city:simc": 482192,
                "addr:street:sym_ul": 15771,
                "phone": "+48 896413123",
                "email": "spmilomlyn@gmail.com",
                "ref:regon": "368282192",
                "operator": "Gmina Mi\u0142om\u0142yn",
                "operator:type": "government",
                "amenity": "kindergarten"
            }
        },
        {
            "id": 16385,
            "type": "Feature",
            "geometry": {
                "type": "Point",
                "coordinates": [
                    19.78449,
                    53.76643
                ]
            },
            "properties": {
                "isced:level": "1;2",
                "ref:rspo": 16385,
                "official_name": "Publiczna Szko\u0142a Podstawowa im. Janusza Korczaka",
                "name": "Publiczna Szko\u0142a Podstawowa",
                "addr:postcode": "14-140",
                "addr:place": "Bynowo",
                "addr:housenumber": "7",
                "addr:city:simc": 482016,
                "phone": "+48 896473428",
                "email": "spbynowo@wp.pl",
                "ref:regon": "001209647",
                "ref:vatin": "PL7411908147",
                "operator": "Gmina Mi\u0142om\u0142yn",
                "operator:type": "government",
                "amenity": "school"
            }
        },
        {
            "id": 272990,
            "type": "Feature",
            "geometry": {
                "type": "Point",
                "coordinates": [
                    19.78449,
                    53.7664
                ]
            },
            "properties": {
                "ref:rspo": 272990,
                "official_name": "Punkt Przedszkolny \"Bajkowa Kraina\"",
                "name": "Punkt Przedszkolny \"Bajkowa Kraina\"",
                "addr:postcode": "14-140",
                "addr:place": "Bynowo",
                "addr:housenumber": "7",
                "addr:city:simc": 482016,
                "phone": "+48 896473428",
                "email": "spbynowo@wp.pl",
                "ref:regon": "384345721",
                "operator": "Gmina Mi\u0142om\u0142yn",
                "operator:type": "government",
                "amenity": "kindergarten"
            }
        }
    ]
}