{
    "type": "FeatureCollection",
    "features": [
        {
            "id": 16387,
            "type": "Feature",
            "geometry": {
                "type": "Point",
                "coordinates": [
                    19.96972,
                    53.68799
                ]
            },
            "properties": {
                "ref:rspo": 16387,
                "official_name": "Zesp\u00f3\u0142 Szk\u00f3\u0142 Rolniczych im. Wincentego Witosa w Ostr\u00f3dzie",
                "name": "Zesp\u00f3\u0142 Szk\u00f3\u0142 Rolniczych",
                "addr:postcode": "14-100",
                "addr:city": "Ostr\u00f3da",
                "addr:street": "Stefana Czarnieckiego",
                "addr:housenumber": "69",
                "addr:city:simc": 964927,
                "addr:street:sym_ul": 3283,
                "phone": "+48 896467227",
                "email": "sekretariat@rolnik.edu.pl",
                "website": "http:\/\/www.rolnik.edu.pl",
                "ref:regon": "000705410",
                "ref:vatin": "PL7411067831",
                "operator": "Powiat Ostr\u00f3dzki",
                "operator:type": "government",
                "landuse": "education",
                "fixme": "amenity=school, amenity=college albo landuse=education w zale\u017cno\u015bci od tego, jakie plac\u00f3wki wchodz\u0105 w sk\u0142ad zespo\u0142u. Sprawd\u017a, kiedy stosowa\u0107 amenity=* a kiedy landuse=education.",
                "note": "Children RSPO: 25691;25693;26844;28589;128631;275251"
            }
        },
        {
            "id": 25691,
            "type": "Feature",
            "geometry": {
                "type": "Point",
                "coordinates": [
                    19.96972,
                    53.68796
                ]
            },
            "properties": {
                "isced:level": "3",
                "ref:rspo": 25691,
                "official_name": "Bran\u017cowa Szko\u0142a I Stopnia Nr 3 w Ostr\u00f3dzie",
                "name": "Bran\u017cowa Szko\u0142a I Stopnia Nr 3 w Ostr\u00f3dzie",
                "addr:postcode": "14-100",
                "addr:city": "Ostr\u00f3da",
                "addr:street": "Stefana Czarnieckiego",
                "addr:housenumber": "69",
                "addr:city:simc": 964927,
                "addr:street:sym_ul": 3283,
                "phone": "+48 896467227",
                "email": "sekretariat@rolnik.edu.pl",
                "website": "http:\/\/www.rolnik.edu.pl",
                "ref:regon": "519454386",
                "operator": "Powiat Ostr\u00f3dzki",
                "operator:type": "government",
                "amenity": "school",
                "note": "Parent RSPO: 16387"
            }
        },
        {
            "id": 25693,
            "type": "Feature",
            "geometry": {
                "type": "Point",
                "coordinates": [
                    19.96972,
                    53.68793
                ]
            },
            "properties": {
                "isced:level": "3",
                "ref:rspo": 25693,
                "official_name": "Technikum Nr 3 w Zespole Szk\u00f3\u0142 Rolniczych im. W. Witosa w Ostr\u00f3dzie",
                "name": "Technikum Nr 3 w Zespole Szk\u00f3\u0142 Rolniczych",
                "addr:postcode": "14-100",
                "addr:city": "Ostr\u00f3da",
                "addr:street": "Stefana Czarnieckiego",
                "addr:housenumber": "69",
                "addr:city:simc": 964927,
                "addr:street:sym_ul": 3283,
                "phone": "+48 896467227",
                "email": "sekretariat@rolnik.edu.pl",
                "website": "http:\/\/www.rolnik.edu.pl",
                "ref:regon": "519454392",
                "operator": "Powiat Ostr\u00f3dzki",
                "operator:type": "government",
                "amenity": "school",
                "note": "Parent RSPO: 16387"
            }
        },
        {
            "id": 26844,
            "type": "Feature",
            "geometry": {
                "type": "Point",
                "coordinates": [
                    19.96972,
                    53.6879
                ]
            },
            "properties": {
                "isced:level": "4",
                "ref:rspo": 26844,
                "official_name": "Szko\u0142a Policealna Nr 3 w Zespole Szk\u00f3\u0142 Rolniczych im. W. Witosa w Ostr\u00f3dzie",
                "name": "Szko\u0142a Policealna Nr 3 w Zespole Szk\u00f3\u0142 Rolniczych",
                "addr:postcode": "14-100",
                "addr:city": "Ostr\u00f3da",
                "addr:street": "Stefana Czarnieckiego",
                "addr:housenumber": "69",
                "addr:city:simc": 964927,
                "addr:street:sym_ul": 3283,
                "phone": "+48 896467227",
                "email": "sekretariat@rolnik.edu.pl",
                "website": "http:\/\/www.rolnik.edu.pl",
                "ref:regon": "280082357",
                "operator": "Powiat Ostr\u00f3dzki",
                "operator:type": "government",
                "amenity": "college",
                "note": "Parent RSPO: 16387"
            }
        },
        {
            "id": 28589,
            "type": "Feature",
            "geometry": {
                "type": "Point",
                "coordinates": [
                    19.96972,
                    53.68787
                ]
            },
            "properties": {
                "isced:level": "3",
                "ref:rspo": 28589,
                "official_name": "Liceum Og\u00f3lnokszta\u0142c\u0105ce Nr III w Zespole Szk\u00f3\u0142 Rolniczych im. W. Witosa w Ostr\u00f3dzie",
                "name": "Liceum Og\u00f3lnokszta\u0142c\u0105ce Nr III w Zespole Szk\u00f3\u0142 Rolniczych",
                "addr:postcode": "14-100",
                "addr:city": "Ostr\u00f3da",
                "addr:street": "Stefana Czarnieckiego",
                "addr:housenumber": "69",
                "addr:city:simc": 964927,
                "addr:street:sym_ul": 3283,
                "phone": "+48 896467227",
                "email": "sekretariat@rolnik.edu.pl",
                "website": "http:\/\/www.rolnik.edu.pl",
                "ref:regon": "281435645",
                "operator": "Powiat Ostr\u00f3dzki",
                "operator:type": "government",
                "amenity": "school",
                "note": "Parent RSPO: 16387"
            }
        },
        {
            "id": 128631,
            "type": "Feature",
            "geometry": {
                "type": "Point",
                "coordinates": [
                    19.96972,
                    53.68784
                ]
            },
            "properties": {
                "isced:level": "3",
                "ref:rspo": 128631,
                "official_name": "Liceum Og\u00f3lnokszta\u0142c\u0105ce dla Doros\u0142ych Nr VI w Ostr\u00f3dzie",
                "name": "Liceum Og\u00f3lnokszta\u0142c\u0105ce dla Doros\u0142ych Nr VI w Ostr\u00f3dzie",
                "addr:postcode": "14-100",
                "addr:city": "Ostr\u00f3da",
                "addr:street": "Stefana Czarnieckiego",
                "addr:housenumber": "69",
                "addr:city:simc": 964927,
                "addr:street:sym_ul": 3283,
                "phone": "+48 896467227",
                "email": "sekretariat@rolnik.edu.pl",
                "website": "http:\/\/www.rolnik.edu.pl",
                "ref:regon": "362335898",
                "operator": "Powiat Ostr\u00f3dzki",
                "operator:type": "government",
                "amenity": "school",
                "note": "Parent RSPO: 16387"
            }
        },
        {
            "id": 275251,
            "type": "Feature",
            "geometry": {
                "type": "Point",
                "coordinates": [
                    19.96972,
                    53.68781
                ]
            },
            "properties": {
                "isced:level": "3",
                "ref:rspo": 275251,
                "official_name": "Bran\u017cowa Szko\u0142a II Stopnia",
                "name": "Bran\u017cowa Szko\u0142a II Stopnia",
                "addr:postcode": "14-100",
                "addr:city": "Ostr\u00f3da",
                "addr:street": "Stefana Czarnieckiego",
                "addr:housenumber": "69",
                "addr:city:simc": 964927,
                "addr:street:sym_ul": 3283,
                "phone": "+48 896467227",
                "email": "sekretariat@rolnik.edu.pl",
                "website": "http:\/\/www.rolnik.edu.pl",
                "ref:regon": "386732304",
                "operator": "Powiat Ostr\u00f3dzki",
                "operator:type": "government",
                "amenity": "school",
                "note": "Parent RSPO: 16387"
            }
        },
        {
            "id": 31409,
            "type": "Feature",
            "geometry": {
                "type": "Point",
                "coordinates": [
                    19.97135,
                    53.69001
                ]
            },
            "properties": {
                "isced:level": "1;2",
                "ref:rspo": 31409,
                "official_name": "Szko\u0142a Podstawowa Nr 3 im. Jana Paw\u0142a II w Ostr\u00f3dzie",
                "name": "Szko\u0142a Podstawowa Nr 3",
                "addr:postcode": "14-100",
                "addr:city": "Ostr\u00f3da",
                "addr:street": "Rycerska",
                "addr:housenumber": "5",
                "addr:city:simc": 964927,
                "addr:street:sym_ul": 19186,
                "phone": "+48 896467811",
                "email": "sekretariat@sp3.ostroda.pl",
                "ref:regon": "000716626",
                "ref:vatin": "PL7411480554",
                "operator": "Gmina Miejska  Ostr\u00f3da",
                "operator:type": "government",
                "amenity": "school"
            }
        },
        {
            "id": 40198,
            "type": "Feature",
            "geometry": {
                "type": "Point",
                "coordinates": [
                    19.94413,
                    53.69138
                ]
            },
            "properties": {
                "ref:rspo": 40198,
                "official_name": "Przedszkole Niepubliczne Mini Mini",
                "name": "Przedszkole Niepubliczne Mini Mini",
                "addr:postcode": "14-100",
                "addr:city": "Ostr\u00f3da",
                "addr:street": "Stefana Jaracza",
                "addr:housenumber": "38",
                "addr:city:simc": 964927,
                "addr:street:sym_ul": 7240,
                "phone": "+48 509963801",
                "email": "blm2@go2.pl",
                "ref:regon": "281437265",
                "ref:vatin": "PL7411334278",
                "operator": "Miros\u0142aw Bobel",
                "operator:type": "private",
                "amenity": "kindergarten"
            }
        },
        {
            "id": 31407,
            "type": "Feature",
            "geometry": {
                "type": "Point",
                "coordinates": [
                    19.96123,
                    53.69152
                ]
            },
            "properties": {
                "isced:level": "1;2",
                "ref:rspo": 31407,
                "official_name": "Szko\u0142a Podstawowa Nr 1 im. Armii Krajowej w Ostr\u00f3dzie",
                "name": "Szko\u0142a Podstawowa Nr 1",
                "addr:postcode": "14-100",
                "addr:city": "Ostr\u00f3da",
                "addr:street": "Seweryna Pieni\u0119\u017cnego",
                "addr:housenumber": "30A",
                "addr:city:simc": 964927,
                "addr:street:sym_ul": 16129,
                "phone": "+48 896465891",
                "email": "sekretariat@sp1.ostroda.pl",
                "ref:regon": "000716603",
                "ref:vatin": "PL7411480494",
                "operator": "Gmina Miejska  Ostr\u00f3da",
                "operator:type": "government",
                "amenity": "school"
            }
        },
        {
            "id": 49710,
            "type": "Feature",
            "geometry": {
                "type": "Point",
                "coordinates": [
                    19.96491,
                    53.69227
                ]
            },
            "properties": {
                "ref:rspo": 49710,
                "official_name": "Przedszkole Niepubliczne \"Promyczek\" w Ostr\u00f3dzie",
                "name": "Przedszkole Niepubliczne \"Promyczek\" w Ostr\u00f3dzie",
                "addr:postcode": "14-100",
                "addr:city": "Ostr\u00f3da",
                "addr:street": "Przedszkolna",
                "addr:housenumber": "1",
                "addr:city:simc": 964927,
                "addr:street:sym_ul": 17683,
                "phone": "+48 896466497",
                "email": "przedszkole@promyczek.ostroda.pl",
                "ref:regon": "281438164",
                "ref:vatin": "PL7411345342",
                "operator": "Dorota Czaplejewicz",
                "operator:type": "private",
                "amenity": "kindergarten"
            }
        },
        {
            "id": 40197,
            "type": "Feature",
            "geometry": {
                "type": "Point",
                "coordinates": [
                    19.96936,
                    53.69268
                ]
            },
            "properties": {
                "ref:rspo": 40197,
                "official_name": "Przedszkole Nr 1 w Ostr\u00f3dzie",
                "name": "Przedszkole Nr 1 w Ostr\u00f3dzie",
                "addr:postcode": "14-100",
                "addr:city": "Ostr\u00f3da",
                "addr:street": "Boles\u0142awa Chrobrego",
                "addr:housenumber": "3",
                "addr:city:simc": 964927,
                "addr:street:sym_ul": 1742,
                "phone": "+48 896465918",
                "email": "majababalska@wp.pl",
                "ref:regon": "510292663",
                "ref:vatin": "PL7411480548",
                "operator": "Gmina Miejska  Ostr\u00f3da",
                "operator:type": "government",
                "amenity": "kindergarten"
            }
        },
        {
            "id": 125462,
            "type": "Feature",
            "geometry": {
                "type": "Point",
                "coordinates": [
                    19.96613,
                    53.69317
                ]
            },
            "properties": {
                "ref:rspo": 125462,
                "official_name": "Szkolne Schronisko M\u0142odzie\u017cowe Sms",
                "name": "Szkolne Schronisko M\u0142odzie\u017cowe Sms",
                "addr:postcode": "14-100",
                "addr:city": "Ostr\u00f3da",
                "addr:street": "Stefana Czarnieckiego",
                "addr:housenumber": "32",
                "addr:city:simc": 964927,
                "addr:street:sym_ul": 3283,
                "phone": "+48 896709060",
                "email": "smsostroda@wp.pl",
                "website": "http:\/\/www.smsostroda.pl",
                "ref:regon": "281629384",
                "operator": "Zm Volley Ostr\u00f3da Sp\u00f3\u0142ka Z Ograniczon\u0105 Odpowiedzialno\u015bci\u0105",
                "operator:type": "private",
                "tourism": "hostel"
            }
        },
        {
            "id": 31411,
            "type": "Feature",
            "geometry": {
                "type": "Point",
                "coordinates": [
                    19.9438,
                    53.6936
                ]
            },
            "properties": {
                "isced:level": "1;2",
                "ref:rspo": 31411,
                "official_name": "Szko\u0142a Podstawowa Nr 6 im. Kornela Makuszy\u0144skiego w Ostr\u00f3dzie",
                "name": "Szko\u0142a Podstawowa Nr 6",
                "addr:postcode": "14-100",
                "addr:city": "Ostr\u00f3da",
                "addr:street": "Osiedle Osiedle M\u0142odych",
                "addr:housenumber": "8",
                "addr:city:simc": 964927,
                "addr:street:sym_ul": 32346,
                "phone": "+48 896466911",
                "email": "sp6_ostr@poczta.onet.pl",
                "website": "http:\/\/sp6ostroda.pl",
                "ref:regon": "001324472",
                "ref:vatin": "PL7411486829",
                "operator": "Gmina Miejska  Ostr\u00f3da",
                "operator:type": "government",
                "amenity": "school"
            }
        },
        {
            "id": 49709,
            "type": "Feature",
            "geometry": {
                "type": "Point",
                "coordinates": [
                    19.93993,
                    53.69391
                ]
            },
            "properties": {
                "ref:rspo": 49709,
                "official_name": "Przedszkole Niepubliczne \"Akademia Smyka\" w Ostr\u00f3dzie",
                "name": "Przedszkole Niepubliczne \"Akademia Smyka\" w Ostr\u00f3dzie",
                "addr:postcode": "14-100",
                "addr:city": "Ostr\u00f3da",
                "addr:street": "Stefana Jaracza",
                "addr:housenumber": "26c",
                "addr:city:simc": 964927,
                "addr:street:sym_ul": 7240,
                "email": "basiakleszczynska@wp.pl",
                "website": "http:\/\/www.akademiasmyka.ostroda.pl",
                "ref:regon": "281438141",
                "ref:vatin": "PL7411408982",
                "operator": "Barbara Kleszczy\u0144ska",
                "operator:type": "private",
                "amenity": "kindergarten"
            }
        },
        {
            "id": 49707,
            "type": "Feature",
            "geometry": {
                "type": "Point",
                "coordinates": [
                    19.94314,
                    53.69429
                ]
            },
            "properties": {
                "ref:rspo": 49707,
                "official_name": "Przedszkole Niepubliczne \"Remi\u015b\" w Ostrodzie",
                "name": "Przedszkole Niepubliczne \"Remi\u015b\" w Ostrodzie",
                "addr:postcode": "14-100",
                "addr:city": "Ostr\u00f3da",
                "addr:street": "Osiedle Osiedle M\u0142odych",
                "addr:housenumber": "7",
                "addr:city:simc": 964927,
                "addr:street:sym_ul": 32346,
                "phone": "+48 896466974",
                "email": "p.remis@poczta.fm",
                "ref:regon": "281438106",
                "ref:vatin": "PL5782576164",
                "operator": "Renata Jarema",
                "operator:type": "private",
                "amenity": "kindergarten"
            }
        },
        {
            "id": 42434,
            "type": "Feature",
            "geometry": {
                "type": "Point",
                "coordinates": [
                    19.97082,
                    53.69442
                ]
            },
            "properties": {
                "ref:rspo": 42434,
                "official_name": "Zesp\u00f3\u0142 Szk\u00f3\u0142 Zawodowych im. Sandora Pet\u00f6fi w Ostr\u00f3dzie",
                "name": "Zesp\u00f3\u0142 Szk\u00f3\u0142 Zawodowych",
                "addr:postcode": "14-100",
                "addr:city": "Ostr\u00f3da",
                "addr:street": "Sportowa",
                "addr:housenumber": "1",
                "addr:city:simc": 964927,
                "addr:street:sym_ul": 20683,
                "phone": "+48 896463753",
                "email": "zszostroda@poczta.onet.pl",
                "website": "http:\/\/www.ekonomik.webd.pl",
                "ref:regon": "000333285",
                "ref:vatin": "PL7411005362",
                "operator": "Powiat Ostr\u00f3dzki",
                "operator:type": "government",
                "landuse": "education",
                "fixme": "amenity=school, amenity=college albo landuse=education w zale\u017cno\u015bci od tego, jakie plac\u00f3wki wchodz\u0105 w sk\u0142ad zespo\u0142u. Sprawd\u017a, kiedy stosowa\u0107 amenity=* a kiedy landuse=education.",
                "note": "Children RSPO: 81594;81600;81602;82605;273900"
            }
        },
        {
            "id": 127829,
            "type": "Feature",
            "geometry": {
                "type": "Point",
                "coordinates": [
                    19.97082,
                    53.69439
                ]
            },
            "properties": {
                "ref:rspo": 127829,
                "official_name": "Zesp\u00f3\u0142 Plac\u00f3wek Pedagogicznych w Ostr\u00f3dzie",
                "name": "Zesp\u00f3\u0142 Plac\u00f3wek Pedagogicznych w Ostr\u00f3dzie",
                "addr:postcode": "14-100",
                "addr:city": "Ostr\u00f3da",
                "addr:street": "Sportowa",
                "addr:housenumber": "1",
                "addr:city:simc": 964927,
                "addr:street:sym_ul": 20683,
                "phone": "+48 896466598",
                "email": "sekretariat@poradnia.ostroda.pl",
                "website": "http:\/\/poradnia.ostroda.pl",
                "ref:regon": "361866240",
                "ref:vatin": "PL7412129563",
                "operator": "Powiat Ostr\u00f3dzki",
                "operator:type": "government",
                "landuse": "education",
                "fixme": "amenity=school, amenity=college albo landuse=education w zale\u017cno\u015bci od tego, jakie plac\u00f3wki wchodz\u0105 w sk\u0142ad zespo\u0142u. Sprawd\u017a, kiedy stosowa\u0107 amenity=* a kiedy landuse=education.",
                "note": "Children RSPO: 75329;124193"
            }
        },
        {
            "id": 81594,
            "type": "Feature",
            "geometry": {
                "type": "Point",
                "coordinates": [
                    19.97082,
                    53.69436
                ]
            },
            "properties": {
                "isced:level": "3",
                "ref:rspo": 81594,
                "official_name": "Technikum Nr 2 w Ostr\u00f3dzie",
                "name": "Technikum Nr 2 w Ostr\u00f3dzie",
                "addr:postcode": "14-100",
                "addr:city": "Ostr\u00f3da",
                "addr:street": "Sportowa",
                "addr:housenumber": "1",
                "addr:city:simc": 964927,
                "addr:street:sym_ul": 20683,
                "phone": "+48 896463753",
                "email": "zszostroda@poczta.onet.pl",
                "website": "http:\/\/www.ekonomik.webd.pl",
                "ref:regon": "519560237",
                "operator": "Powiat Ostr\u00f3dzki",
                "operator:type": "government",
                "amenity": "school",
                "note": "Parent RSPO: 42434"
            }
        },
        {
            "id": 81600,
            "type": "Feature",
            "geometry": {
                "type": "Point",
                "coordinates": [
                    19.97082,
                    53.69433
                ]
            },
            "properties": {
                "isced:level": "3",
                "ref:rspo": 81600,
                "official_name": "Bran\u017cowa Szko\u0142a I Stopnia Nr 2 w Ostr\u00f3dzie",
                "name": "Bran\u017cowa Szko\u0142a I Stopnia Nr 2 w Ostr\u00f3dzie",
                "addr:postcode": "14-100",
                "addr:city": "Ostr\u00f3da",
                "addr:street": "Sportowa",
                "addr:housenumber": "1",
                "addr:city:simc": 964927,
                "addr:street:sym_ul": 20683,
                "phone": "+48 896463753",
                "email": "zszostroda@poczta.onet.pl",
                "website": "http:\/\/www.ekonomik.webd.pl",
                "ref:regon": "519560272",
                "operator": "Powiat Ostr\u00f3dzki",
                "operator:type": "government",
                "amenity": "school",
                "note": "Parent RSPO: 42434"
            }
        },
        {
            "id": 81602,
            "type": "Feature",
            "geometry": {
                "type": "Point",
                "coordinates": [
                    19.97082,
                    53.6943
                ]
            },
            "properties": {
                "isced:level": "4",
                "ref:rspo": 81602,
                "official_name": "Szko\u0142a Policealna Nr 2 w Ostr\u00f3dzie",
                "name": "Szko\u0142a Policealna Nr 2 w Ostr\u00f3dzie",
                "addr:postcode": "14-100",
                "addr:city": "Ostr\u00f3da",
                "addr:street": "Sportowa",
                "addr:housenumber": "1",
                "addr:city:simc": 964927,
                "addr:street:sym_ul": 20683,
                "phone": "+48 896463753",
                "email": "zszostroda@poczta.onet.pl",
                "website": "http:\/\/www.ekonomik.webd.pl",
                "ref:regon": "281445460",
                "operator": "Powiat Ostr\u00f3dzki",
                "operator:type": "government",
                "amenity": "college",
                "note": "Parent RSPO: 42434"
            }
        },
        {
            "id": 82605,
            "type": "Feature",
            "geometry": {
                "type": "Point",
                "coordinates": [
                    19.97082,
                    53.69427
                ]
            },
            "properties": {
                "isced:level": "3",
                "ref:rspo": 82605,
                "official_name": "Liceum Og\u00f3lnokszta\u0142c\u0105ce Nr II w Ostr\u00f3dzie",
                "name": "Liceum Og\u00f3lnokszta\u0142c\u0105ce Nr II w Ostr\u00f3dzie",
                "addr:postcode": "14-100",
                "addr:city": "Ostr\u00f3da",
                "addr:street": "Sportowa",
                "addr:housenumber": "1",
                "addr:city:simc": 964927,
                "addr:street:sym_ul": 20683,
                "phone": "+48 896463753",
                "email": "zszostroda@poczta.onet.pl",
                "website": "http:\/\/www.ekonomik.webd.pl",
                "ref:regon": "519560250",
                "operator": "Powiat Ostr\u00f3dzki",
                "operator:type": "government",
                "amenity": "school",
                "note": "Parent RSPO: 42434"
            }
        },
        {
            "id": 273900,
            "type": "Feature",
            "geometry": {
                "type": "Point",
                "coordinates": [
                    19.97082,
                    53.69424
                ]
            },
            "properties": {
                "ref:rspo": 273900,
                "official_name": "Centrum Kszta\u0142cenia Zawodowego w Ostr\u00f3dzie",
                "name": "Centrum Kszta\u0142cenia Zawodowego w Ostr\u00f3dzie",
                "addr:postcode": "14-100",
                "addr:city": "Ostr\u00f3da",
                "addr:street": "Sportowa",
                "addr:housenumber": "1",
                "addr:city:simc": 964927,
                "addr:street:sym_ul": 20683,
                "phone": "+48 896463753",
                "email": "zszostroda@poczta.onet.pl",
                "website": "http:\/\/www.ekonomik.webd.pl",
                "ref:regon": "384834348",
                "operator": "Powiat Ostr\u00f3dzki",
                "operator:type": "government",
                "fixme": "w zale\u017cno\u015bci od przedmiotu dzia\u0142alno\u015bci (np. amenity=training + training=*, amenity=dancing_school, amenity=language_school, amenity=music_school) albo amenity=school, amenity=college, albo landuse=education w zale\u017cno\u015bci od tego, jakie plac\u00f3wki wchodz\u0105 w sk\u0142ad zespo\u0142u. Sprawd\u017a, kiedy stosowa\u0107 amenity=* a kiedy landuse=education.",
                "note": "Parent RSPO: 42434"
            }
        },
        {
            "id": 75329,
            "type": "Feature",
            "geometry": {
                "type": "Point",
                "coordinates": [
                    19.97082,
                    53.69421
                ]
            },
            "properties": {
                "ref:rspo": 75329,
                "official_name": "Poradnia Psychologiczno-Pedagogiczna w Ostr\u00f3dzie",
                "name": "Poradnia Psychologiczno-Pedagogiczna w Ostr\u00f3dzie",
                "addr:postcode": "14-100",
                "addr:city": "Ostr\u00f3da",
                "addr:street": "Sportowa",
                "addr:housenumber": "1",
                "addr:city:simc": 964927,
                "addr:street:sym_ul": 20683,
                "phone": "+48 896466598",
                "email": "pppostroda@poczta.onet.pl",
                "website": "http:\/\/www.poradnia.ostroda.pl",
                "ref:regon": "000716678",
                "ref:vatin": "PL7411769875",
                "operator": "Powiat Ostr\u00f3dzki",
                "operator:type": "government",
                "healthcare": "counselling",
                "counselling_type": "education",
                "fixme": "w zale\u017cno\u015bci od przedmiotu dzia\u0142alno\u015bci (np. healthcare=counselling + counselling_type=education albo healthcare=psychotherapist)",
                "note": "Parent RSPO: 127829"
            }
        },
        {
            "id": 124193,
            "type": "Feature",
            "geometry": {
                "type": "Point",
                "coordinates": [
                    19.97424,
                    53.69451
                ]
            },
            "properties": {
                "ref:rspo": 124193,
                "official_name": "Powiatowa Biblioteka Pedagogiczna w Ostr\u00f3dzie",
                "name": "Powiatowa Biblioteka Pedagogiczna w Ostr\u00f3dzie",
                "addr:postcode": "14-100",
                "addr:city": "Ostr\u00f3da",
                "addr:street": "Grunwaldzka",
                "addr:housenumber": "50",
                "addr:city:simc": 964927,
                "addr:street:sym_ul": 6260,
                "phone": "+48 896462581",
                "email": "wypozyczalnia.pbp.ostroda@gmail.pl",
                "website": "http:\/\/www.pedagogiczna.ostroda.pl",
                "ref:regon": "281616973",
                "operator": "Powiat Ostr\u00f3dzki",
                "operator:type": "government",
                "amenity": "library",
                "note": "Parent RSPO: 127829"
            }
        },
        {
            "id": 124372,
            "type": "Feature",
            "geometry": {
                "type": "Point",
                "coordinates": [
                    19.9759,
                    53.69462
                ]
            },
            "properties": {
                "ref:rspo": 124372,
                "official_name": "Przedszkole Niepubliczne Kraina Bajek",
                "name": "Przedszkole Niepubliczne Kraina Bajek",
                "addr:postcode": "14-100",
                "addr:city": "Ostr\u00f3da",
                "addr:street": "Ignacego Paderewskiego",
                "addr:housenumber": "1B",
                "addr:city:simc": 964927,
                "addr:street:sym_ul": 15529,
                "phone": "+48 600433050",
                "email": "krainabajek@onet.eu",
                "website": "http:\/\/www.krainabajek.eu",
                "ref:regon": "281619109",
                "operator": "Kraina Bajek  Sp\u00f3\u0142ka Z Ograniczon\u0105 Odpowiedzialno\u015bci\u0105",
                "operator:type": "consortium",
                "amenity": "kindergarten"
            }
        },
        {
            "id": 111548,
            "type": "Feature",
            "geometry": {
                "type": "Point",
                "coordinates": [
                    19.96268,
                    53.69488
                ]
            },
            "properties": {
                "ref:rspo": 111548,
                "official_name": "Centrum \"Okey\"",
                "name": "Centrum \"Okey\"",
                "addr:postcode": "14-100",
                "addr:city": "Ostr\u00f3da",
                "addr:street": "Jana III Sobieskiego",
                "addr:housenumber": "3",
                "addr:door": "3",
                "addr:city:simc": 964927,
                "addr:street:sym_ul": 20431,
                "phone": "+48 896158000",
                "email": "szkolenia@okey.ostroda.pl",
                "website": "http:\/\/www.okey.ostroda.pl",
                "ref:regon": "281478070",
                "operator": "Centrum \"Okey\" Sp\u00f3\u0142ka Z Ograniczon\u0105 Odpowiedzialno\u015bci\u0105 W Likwidacji",
                "operator:type": "private",
                "fixme": "w zale\u017cno\u015bci od przedmiotu dzia\u0142alno\u015bci (np. amenity=training + training=*, amenity=dancing_school, amenity=language_school, amenity=music_school)"
            }
        },
        {
            "id": 264809,
            "type": "Feature",
            "geometry": {
                "type": "Point",
                "coordinates": [
                    19.96566,
                    53.69551
                ]
            },
            "properties": {
                "ref:rspo": 264809,
                "official_name": "Przedszkole Niepubliczne \"Chatka w Kwiatki\"",
                "name": "Przedszkole Niepubliczne \"Chatka w Kwiatki\"",
                "addr:postcode": "14-100",
                "addr:city": "Ostr\u00f3da",
                "addr:street": "Miko\u0142aja Kopernika",
                "addr:housenumber": "4",
                "addr:door": "9",
                "addr:city:simc": 964927,
                "addr:street:sym_ul": 9282,
                "phone": "+48 798469334",
                "email": "chatkawkwiatki@wp.pl",
                "ref:regon": "368468956",
                "operator": "Szymon Mordzi\u0144ski",
                "operator:type": "private",
                "amenity": "kindergarten"
            }
        },
        {
            "id": 82601,
            "type": "Feature",
            "geometry": {
                "type": "Point",
                "coordinates": [
                    19.97314,
                    53.69558
                ]
            },
            "properties": {
                "ref:rspo": 82601,
                "official_name": "O\u015brodek Rehabilitacyjno-Edukacyjno-Wychowawczy",
                "name": "O\u015brodek Rehabilitacyjno-Edukacyjno-Wychowawczy",
                "addr:postcode": "14-100",
                "addr:city": "Ostr\u00f3da",
                "addr:street": "Grunwaldzka",
                "addr:housenumber": "19a",
                "addr:city:simc": 964927,
                "addr:street:sym_ul": 6260,
                "phone": "+48 896464929",
                "email": "orew.ostroda@psoni.org.pl",
                "website": "http:\/\/www.ostroda.psoni.org.pl",
                "ref:regon": "281447750",
                "operator": "Polskie Stowarzyszenie Na Rzecz Os\u00f3b Z Niepe\u0142nosprawno\u015bci\u0105 Intelektualn\u0105 Ko\u0142o W Ostr\u00f3dzie",
                "operator:type": "ngo",
                "amenity": "school"
            }
        },
        {
            "id": 118974,
            "type": "Feature",
            "geometry": {
                "type": "Point",
                "coordinates": [
                    19.97314,
                    53.69555
                ]
            },
            "properties": {
                "ref:rspo": 118974,
                "official_name": "Niepubliczne Przedszkole Specjalne \"Orewiaczek\"",
                "name": "Niepubliczne Przedszkole Specjalne \"Orewiaczek\"",
                "addr:postcode": "14-100",
                "addr:city": "Ostr\u00f3da",
                "addr:street": "Grunwaldzka",
                "addr:housenumber": "19 a",
                "addr:city:simc": 964927,
                "addr:street:sym_ul": 6260,
                "phone": "+48 896464929",
                "email": "orewiaczek@ostroda.psoni.org.pl",
                "website": "http:\/\/ostroda.psoni.org.pl\/orewiaczek.html",
                "ref:regon": "281525288",
                "operator": "Polskie Stowarzyszenie Na Rzecz Os\u00f3b Z Niepe\u0142nosprawno\u015bci\u0105 Intelektualn\u0105 Ko\u0142o W Ostr\u00f3dzie",
                "operator:type": "ngo",
                "amenity": "kindergarten"
            }
        },
        {
            "id": 274329,
            "type": "Feature",
            "geometry": {
                "type": "Point",
                "coordinates": [
                    19.97314,
                    53.69552
                ]
            },
            "properties": {
                "ref:rspo": 274329,
                "official_name": "Niepubliczna Szko\u0142a Specjalna Przysposabiaj\u0105ca Do Pracy Polskiego Stowarzyszenia Na Rzecz Os\u00f3b Z Niepe\u0142nosprawno\u015bci\u0105 Intelektualn\u0105 Ko\u0142o w Ostr\u00f3dzie",
                "name": "Niepubliczna Szko\u0142a Specjalna Przysposabiaj\u0105ca Do Pracy Polskiego Stowarzyszenia Na Rzecz Os\u00f3b Z Niepe\u0142nosprawno\u015bci\u0105 Intelektualn\u0105 Ko\u0142o w Ostr\u00f3dzie",
                "addr:postcode": "14-100",
                "addr:city": "Ostr\u00f3da",
                "addr:street": "Grunwaldzka",
                "addr:housenumber": "19A",
                "addr:city:simc": 964927,
                "addr:street:sym_ul": 6260,
                "phone": "+48 896464929",
                "email": "nsspdp@ostroda.psoni.org.pl",
                "website": "http:\/\/www.ostroda.psoni.org.pl",
                "ref:regon": "385577882",
                "operator": "Polskie Stowarzyszenie Na Rzecz Os\u00f3b Z Niepe\u0142nosprawno\u015bci\u0105 Intelektualn\u0105 Ko\u0142o W Ostr\u00f3dzie",
                "operator:type": "ngo",
                "amenity": "school"
            }
        },
        {
            "id": 123287,
            "type": "Feature",
            "geometry": {
                "type": "Point",
                "coordinates": [
                    19.96011,
                    53.69595
                ]
            },
            "properties": {
                "ref:rspo": 123287,
                "official_name": "Schronisko M\u0142odzie\u017cowe Przy Szkole Podstawowej Nr 4 w Ostr\u00f3dzie",
                "name": "Schronisko M\u0142odzie\u017cowe Przy Szkole Podstawowej Nr 4 w Ostr\u00f3dzie",
                "addr:postcode": "14-100",
                "addr:city": "Ostr\u00f3da",
                "addr:street": "Tadeusza Ko\u015bciuszki",
                "addr:housenumber": "14",
                "addr:city:simc": 964927,
                "addr:street:sym_ul": 9582,
                "phone": "+48 896465563",
                "email": "sp4ostroda@wp.pl",
                "ref:regon": "281600794",
                "operator": "Gmina Miejska  Ostr\u00f3da",
                "operator:type": "government",
                "tourism": "hostel"
            }
        },
        {
            "id": 131548,
            "type": "Feature",
            "geometry": {
                "type": "Point",
                "coordinates": [
                    19.96011,
                    53.69592
                ]
            },
            "properties": {
                "ref:rspo": 131548,
                "official_name": "Zesp\u00f3\u0142 Szkolno - Przedszkolny Nr 4 w Ostr\u00f3dzie",
                "name": "Zesp\u00f3\u0142 Szkolno - Przedszkolny Nr 4 w Ostr\u00f3dzie",
                "addr:postcode": "14-100",
                "addr:city": "Ostr\u00f3da",
                "addr:street": "Tadeusza Ko\u015bciuszki",
                "addr:housenumber": "14",
                "addr:city:simc": 964927,
                "addr:street:sym_ul": 9582,
                "phone": "+48 896465563",
                "email": "sp4ostroda@wp.pl",
                "ref:regon": "365218615",
                "ref:vatin": "PL7412133151",
                "operator": "Gmina Miejska  Ostr\u00f3da",
                "operator:type": "government",
                "landuse": "education",
                "fixme": "amenity=school, amenity=college albo landuse=education w zale\u017cno\u015bci od tego, jakie plac\u00f3wki wchodz\u0105 w sk\u0142ad zespo\u0142u. Sprawd\u017a, kiedy stosowa\u0107 amenity=* a kiedy landuse=education.",
                "note": "Children RSPO: 31410;40196"
            }
        },
        {
            "id": 31410,
            "type": "Feature",
            "geometry": {
                "type": "Point",
                "coordinates": [
                    19.96011,
                    53.695890000000006
                ]
            },
            "properties": {
                "isced:level": "1;2",
                "ref:rspo": 31410,
                "official_name": "Szko\u0142a Podstawowa Nr 4 w Ostr\u00f3dzie",
                "name": "Szko\u0142a Podstawowa Nr 4 w Ostr\u00f3dzie",
                "addr:postcode": "14-100",
                "addr:city": "Ostr\u00f3da",
                "addr:street": "Tadeusza Ko\u015bciuszki",
                "addr:housenumber": "14",
                "addr:city:simc": 964927,
                "addr:street:sym_ul": 9582,
                "phone": "+48 896465563",
                "email": "sp4ostroda@wp.pl",
                "website": "https:\/\/sp4ostroda.edupage.org",
                "ref:regon": "000256544",
                "ref:vatin": "PL7411486835",
                "operator": "Gmina Miejska  Ostr\u00f3da",
                "operator:type": "government",
                "amenity": "school",
                "note": "Parent RSPO: 131548"
            }
        },
        {
            "id": 40196,
            "type": "Feature",
            "geometry": {
                "type": "Point",
                "coordinates": [
                    19.9659799,
                    53.69639
                ]
            },
            "properties": {
                "ref:rspo": 40196,
                "official_name": "Przedszkole Nr 4 w Ostr\u00f3dzie",
                "name": "Przedszkole Nr 4 w Ostr\u00f3dzie",
                "addr:postcode": "14-100",
                "addr:city": "Ostr\u00f3da",
                "addr:street": "Miko\u0142aja Kopernika",
                "addr:housenumber": "21A",
                "addr:city:simc": 964927,
                "addr:street:sym_ul": 9282,
                "phone": "+48 896466170",
                "email": "przedszkole.miejskie.nr.4@neostrada.pl",
                "ref:regon": "510292597",
                "ref:vatin": "PL7411518699",
                "operator": "Gmina Miejska  Ostr\u00f3da",
                "operator:type": "government",
                "amenity": "kindergarten",
                "note": "Parent RSPO: 131548"
            }
        },
        {
            "id": 119790,
            "type": "Feature",
            "geometry": {
                "type": "Point",
                "coordinates": [
                    19.96728,
                    53.69752
                ]
            },
            "properties": {
                "ref:rspo": 119790,
                "official_name": "Zesp\u00f3\u0142 Plac\u00f3wek Szkolno-Wychowawczo-Rewalidacyjnych w Ostr\u00f3dzie",
                "name": "Zesp\u00f3\u0142 Plac\u00f3wek Szkolno-Wychowawczo-Rewalidacyjnych w Ostr\u00f3dzie",
                "addr:postcode": "14-100",
                "addr:city": "Ostr\u00f3da",
                "addr:street": "Grunwaldzka",
                "addr:housenumber": "14",
                "addr:city:simc": 964927,
                "addr:street:sym_ul": 6260,
                "phone": "+48 896463073",
                "email": "soswkonopnicka@friend.pl",
                "website": "http:\/\/www.oswostroda.edupage.org",
                "ref:regon": "281529719",
                "operator": "Powiat Ostr\u00f3dzki",
                "operator:type": "government",
                "landuse": "education",
                "fixme": "amenity=school, amenity=college albo landuse=education w zale\u017cno\u015bci od tego, jakie plac\u00f3wki wchodz\u0105 w sk\u0142ad zespo\u0142u. Sprawd\u017a, kiedy stosowa\u0107 amenity=* a kiedy landuse=education.",
                "note": "Children RSPO: 16435;119383;277598"
            }
        },
        {
            "id": 122814,
            "type": "Feature",
            "geometry": {
                "type": "Point",
                "coordinates": [
                    19.96728,
                    53.697489999999995
                ]
            },
            "properties": {
                "isced:level": "1;2",
                "ref:rspo": 122814,
                "official_name": "Szko\u0142a Podstawowa Specjalna w Ostr\u00f3dzie",
                "name": "Szko\u0142a Podstawowa Specjalna w Ostr\u00f3dzie",
                "addr:postcode": "14-100",
                "addr:city": "Ostr\u00f3da",
                "addr:street": "Grunwaldzka",
                "addr:housenumber": "14",
                "addr:city:simc": 964927,
                "addr:street:sym_ul": 6260,
                "phone": "+48 896463073",
                "email": "soswkonopnicka@friend.pl",
                "website": "http:\/\/www.oswostroda.edupage.org",
                "ref:regon": "280056911",
                "operator": "Powiat Ostr\u00f3dzki",
                "operator:type": "government",
                "amenity": "school",
                "note": "Parent RSPO: 16435"
            }
        },
        {
            "id": 122816,
            "type": "Feature",
            "geometry": {
                "type": "Point",
                "coordinates": [
                    19.96728,
                    53.69746
                ]
            },
            "properties": {
                "isced:level": "3",
                "ref:rspo": 122816,
                "official_name": "Bran\u017cowa Szko\u0142a Specjalna I Stopnia w Ostr\u00f3dzie",
                "name": "Bran\u017cowa Szko\u0142a Specjalna I Stopnia w Ostr\u00f3dzie",
                "addr:postcode": "14-100",
                "addr:city": "Ostr\u00f3da",
                "addr:street": "Grunwaldzka",
                "addr:housenumber": "14",
                "addr:city:simc": 964927,
                "addr:street:sym_ul": 6260,
                "phone": "+48 896463073",
                "email": "soswkonopnicka@friend.pl",
                "website": "http:\/\/www.oswostroda.edupage.org",
                "ref:regon": "280056897",
                "operator": "Powiat Ostr\u00f3dzki",
                "operator:type": "government",
                "amenity": "school",
                "note": "Parent RSPO: 16435"
            }
        },
        {
            "id": 122817,
            "type": "Feature",
            "geometry": {
                "type": "Point",
                "coordinates": [
                    19.96728,
                    53.69743
                ]
            },
            "properties": {
                "ref:rspo": 122817,
                "official_name": "Szko\u0142a Specjalna Przysposabiaj\u0105ca Do Pracy w Ostr\u00f3dzie",
                "name": "Szko\u0142a Specjalna Przysposabiaj\u0105ca Do Pracy w Ostr\u00f3dzie",
                "addr:postcode": "14-100",
                "addr:city": "Ostr\u00f3da",
                "addr:street": "Grunwaldzka",
                "addr:housenumber": "14",
                "addr:city:simc": 964927,
                "addr:street:sym_ul": 6260,
                "phone": "+48 896463073",
                "email": "soswkonopnicka@friend.pl",
                "website": "http:\/\/www.oswostroda.edupage.org",
                "ref:regon": "280147571",
                "operator": "Powiat Ostr\u00f3dzki",
                "operator:type": "government",
                "amenity": "school",
                "note": "Parent RSPO: 16435"
            }
        },
        {
            "id": 16435,
            "type": "Feature",
            "geometry": {
                "type": "Point",
                "coordinates": [
                    19.96728,
                    53.697399999999995
                ]
            },
            "properties": {
                "ref:rspo": 16435,
                "official_name": "Specjalny O\u015brodek Szkolno-Wychowawczy im. Marii Konopnickiej w Ostr\u00f3dzie",
                "name": "Specjalny O\u015brodek Szkolno-Wychowawczy",
                "addr:postcode": "14-100",
                "addr:city": "Ostr\u00f3da",
                "addr:street": "Grunwaldzka",
                "addr:housenumber": "14",
                "addr:city:simc": 964927,
                "addr:street:sym_ul": 6260,
                "phone": "+48 896463073",
                "email": "soswkonopnicka@friend.pl",
                "website": "http:\/\/www.oswostroda.edupage.org",
                "ref:regon": "000716661",
                "ref:vatin": "PL7411487935",
                "operator": "Powiat Ostr\u00f3dzki",
                "operator:type": "government",
                "amenity": "school",
                "note": "Children RSPO: 122814;122816;122817Parent RSPO: 119790"
            }
        },
        {
            "id": 119383,
            "type": "Feature",
            "geometry": {
                "type": "Point",
                "coordinates": [
                    19.96728,
                    53.69737
                ]
            },
            "properties": {
                "ref:rspo": 119383,
                "official_name": "O\u015brodek Rewalidacyjno-Wychowawczy w Ostr\u00f3dzie",
                "name": "O\u015brodek Rewalidacyjno-Wychowawczy w Ostr\u00f3dzie",
                "addr:postcode": "14-100",
                "addr:city": "Ostr\u00f3da",
                "addr:street": "Grunwaldzka",
                "addr:housenumber": "14",
                "addr:city:simc": 964927,
                "addr:street:sym_ul": 6260,
                "phone": "+48 896463073",
                "email": "soswkonopnicka@friend.pl",
                "website": "http:\/\/oswostroda.edupage.org",
                "ref:regon": "281527790",
                "operator": "Powiat Ostr\u00f3dzki",
                "operator:type": "government",
                "amenity": "school",
                "note": "Parent RSPO: 119790"
            }
        },
        {
            "id": 277598,
            "type": "Feature",
            "geometry": {
                "type": "Point",
                "coordinates": [
                    19.96728,
                    53.69734
                ]
            },
            "properties": {
                "ref:rspo": 277598,
                "official_name": "Przedszkole Specjalne w Ostr\u00f3dzie",
                "name": "Przedszkole Specjalne w Ostr\u00f3dzie",
                "addr:postcode": "14-100",
                "addr:city": "Ostr\u00f3da",
                "addr:street": "Grunwaldzka",
                "addr:housenumber": "14",
                "addr:city:simc": 964927,
                "addr:street:sym_ul": 6260,
                "phone": "+48 896463073",
                "email": "sosw-ostroda@wp.pl",
                "website": "https:\/\/oswostroda.edupage.org",
                "ref:regon": "389174023",
                "operator": "Powiat Ostr\u00f3dzki",
                "operator:type": "government",
                "amenity": "kindergarten",
                "note": "Parent RSPO: 119790"
            }
        },
        {
            "id": 273934,
            "type": "Feature",
            "geometry": {
                "type": "Point",
                "coordinates": [
                    19.95972,
                    53.69787
                ]
            },
            "properties": {
                "ref:rspo": 273934,
                "official_name": "Przedszkole Niepubliczne Mali Giganci - Little Giants",
                "name": "Przedszkole Niepubliczne Mali Giganci - Little Giants",
                "addr:postcode": "14-100",
                "addr:city": "Ostr\u00f3da",
                "addr:street": "Kardyna\u0142a Wyszy\u0144skiego",
                "addr:housenumber": "11A",
                "addr:city:simc": 964927,
                "addr:street:sym_ul": 33784,
                "email": "martyna@maligiganci.com.pl",
                "ref:regon": "384891091",
                "operator": "Martyna Bojarowska",
                "operator:type": "private",
                "amenity": "kindergarten"
            }
        },
        {
            "id": 83191,
            "type": "Feature",
            "geometry": {
                "type": "Point",
                "coordinates": [
                    19.9542499,
                    53.698
                ]
            },
            "properties": {
                "ref:rspo": 83191,
                "official_name": "Centrum Kszta\u0142cenia Kadr Centrum Kszta\u0142cenia Zawodowego w Ostr\u00f3dzie",
                "name": "Centrum Kszta\u0142cenia Kadr Centrum Kszta\u0142cenia Zawodowego w Ostr\u00f3dzie",
                "addr:postcode": "14-100",
                "addr:city": "Ostr\u00f3da",
                "addr:street": "Pionierska",
                "addr:housenumber": "1a",
                "addr:city:simc": 964927,
                "addr:street:sym_ul": 16297,
                "phone": "+48 896469742",
                "email": "ckk@ckk.edu.pl",
                "website": "http:\/\/www.ckk.edu.pl",
                "ref:regon": "281445508",
                "ref:vatin": "PL7411233778",
                "operator": "Anita Graczyk",
                "operator:type": "private",
                "fixme": "w zale\u017cno\u015bci od przedmiotu dzia\u0142alno\u015bci (np. amenity=training + training=*, amenity=dancing_school, amenity=language_school, amenity=music_school) albo amenity=school, amenity=college, albo landuse=education w zale\u017cno\u015bci od tego, jakie plac\u00f3wki wchodz\u0105 w sk\u0142ad zespo\u0142u. Sprawd\u017a, kiedy stosowa\u0107 amenity=* a kiedy landuse=education."
            }
        },
        {
            "id": 120281,
            "type": "Feature",
            "geometry": {
                "type": "Point",
                "coordinates": [
                    19.95576,
                    53.69822
                ]
            },
            "properties": {
                "ref:rspo": 120281,
                "official_name": "O\u015brodek Doskonalenia Nauczycieli Stowarzyszenia \"Wsp\u00f3lnota Polska\"",
                "name": "O\u015brodek Doskonalenia Nauczycieli Stowarzyszenia \"Wsp\u00f3lnota Polska\"",
                "addr:postcode": "14-100",
                "addr:city": "Ostr\u00f3da",
                "addr:street": "Seweryna Pieni\u0119\u017cnego",
                "addr:housenumber": "6",
                "addr:city:simc": 964927,
                "addr:street:sym_ul": 16129,
                "phone": "+48 895213620",
                "email": "odnswp@swp.org.pl",
                "website": "http:\/\/www.odnswp.pl",
                "ref:regon": "281534940",
                "operator": "Stowarzyszenie \"Wsp\u00f3lnota Polska\"",
                "operator:type": "ngo",
                "amenity": "training"
            }
        },
        {
            "id": 14476,
            "type": "Feature",
            "geometry": {
                "type": "Point",
                "coordinates": [
                    19.9681399,
                    53.69881
                ]
            },
            "properties": {
                "isced:level": "3",
                "ref:rspo": 14476,
                "official_name": "Liceum Og\u00f3lnokszta\u0142c\u0105ce Nr I im. Jana Ba\u017cy\u0144skiego w Ostr\u00f3dzie",
                "name": "Liceum Og\u00f3lnokszta\u0142c\u0105ce Nr I",
                "addr:postcode": "14-100",
                "addr:city": "Ostr\u00f3da",
                "addr:street": "Drw\u0119cka",
                "addr:housenumber": "2",
                "addr:city:simc": 964927,
                "addr:street:sym_ul": 4291,
                "phone": "+48 896464151",
                "email": "sekretariat@lo1.ostroda.pl",
                "website": "http:\/\/www.lo1.ostroda.pl",
                "ref:regon": "000716649",
                "ref:vatin": "PL7411068026",
                "operator": "Powiat Ostr\u00f3dzki",
                "operator:type": "government",
                "amenity": "school"
            }
        },
        {
            "id": 15967,
            "type": "Feature",
            "geometry": {
                "type": "Point",
                "coordinates": [
                    19.9566,
                    53.69893
                ]
            },
            "properties": {
                "ref:rspo": 15967,
                "official_name": "Zesp\u00f3\u0142 Szk\u00f3\u0142 Zawodowych im. Stanis\u0142awa Staszica I Centrum Kszta\u0142cenia Ustawicznego w Ostr\u00f3dzie",
                "name": "Zesp\u00f3\u0142 Szk\u00f3\u0142 Zawodowych",
                "addr:postcode": "14-100",
                "addr:city": "Ostr\u00f3da",
                "addr:street": "Kardyna\u0142a Wyszy\u0144skiego",
                "addr:housenumber": "2",
                "addr:city:simc": 964927,
                "addr:street:sym_ul": 33784,
                "phone": "+48 896465278",
                "email": "szkola@staszic.ostroda.pl",
                "website": "http:\/\/www.staszic.ostroda.pl",
                "ref:regon": "000190029",
                "ref:vatin": "PL7411068078",
                "operator": "Powiat Ostr\u00f3dzki",
                "operator:type": "government",
                "landuse": "education",
                "fixme": "amenity=school, amenity=college albo landuse=education w zale\u017cno\u015bci od tego, jakie plac\u00f3wki wchodz\u0105 w sk\u0142ad zespo\u0142u. Sprawd\u017a, kiedy stosowa\u0107 amenity=* a kiedy landuse=education.",
                "note": "Children RSPO: 30252;31394;42003;47166"
            }
        },
        {
            "id": 30252,
            "type": "Feature",
            "geometry": {
                "type": "Point",
                "coordinates": [
                    19.9566,
                    53.698899999999995
                ]
            },
            "properties": {
                "ref:rspo": 30252,
                "official_name": "Centrum Kszta\u0142cenia Ustawicznego w Zespole Szk\u00f3\u0142 Zawodowych im. Stanis\u0142awa Staszica I Centrum Kszta\u0142cenia Ustawicznego w Ostr\u00f3dzie",
                "name": "Centrum Kszta\u0142cenia Ustawicznego w Zespole Szk\u00f3\u0142 Zawodowych",
                "addr:postcode": "14-100",
                "addr:city": "Ostr\u00f3da",
                "addr:street": "Kardyna\u0142a Wyszy\u0144skiego",
                "addr:housenumber": "2",
                "addr:city:simc": 964927,
                "addr:street:sym_ul": 33784,
                "phone": "+48 896465278",
                "email": "szkola@staszic.ostroda.pl",
                "website": "http:\/\/www.staszic.ostroda.pl",
                "ref:regon": "000832166",
                "operator": "Powiat Ostr\u00f3dzki",
                "operator:type": "government",
                "amenity": "school",
                "fixme": "amenity=school lub amenity=college",
                "note": "Children RSPO: 83896;85152Parent RSPO: 15967"
            }
        },
        {
            "id": 31394,
            "type": "Feature",
            "geometry": {
                "type": "Point",
                "coordinates": [
                    19.9566,
                    53.69887
                ]
            },
            "properties": {
                "isced:level": "3",
                "ref:rspo": 31394,
                "official_name": "Bran\u017cowa Szko\u0142a I Stopnia Nr 1 w Ostr\u00f3dzie",
                "name": "Bran\u017cowa Szko\u0142a I Stopnia Nr 1 w Ostr\u00f3dzie",
                "addr:postcode": "14-100",
                "addr:city": "Ostr\u00f3da",
                "addr:street": "Kardyna\u0142a Wyszy\u0144skiego",
                "addr:housenumber": "2",
                "addr:city:simc": 964927,
                "addr:street:sym_ul": 33784,
                "phone": "+48 896465278",
                "email": "szkola@staszic.ostroda.pl",
                "website": "http:\/\/www.staszic.ostroda.pl",
                "ref:regon": "519454311",
                "operator": "Powiat Ostr\u00f3dzki",
                "operator:type": "government",
                "amenity": "school",
                "note": "Parent RSPO: 15967"
            }
        },
        {
            "id": 42003,
            "type": "Feature",
            "geometry": {
                "type": "Point",
                "coordinates": [
                    19.9566,
                    53.69884
                ]
            },
            "properties": {
                "isced:level": "3",
                "ref:rspo": 42003,
                "official_name": "Liceum Og\u00f3lnokszta\u0142c\u0105ce Nr IV w Zespole Szk\u00f3\u0142 Zawodowych im. Stanis\u0142awa Staszica I Centrum Kszta\u0142cenia Ustawicznego w Ostr\u00f3dzie",
                "name": "Liceum Og\u00f3lnokszta\u0142c\u0105ce Nr IV w Zespole Szk\u00f3\u0142 Zawodowych",
                "addr:postcode": "14-100",
                "addr:city": "Ostr\u00f3da",
                "addr:street": "Kardyna\u0142a Wyszy\u0144skiego",
                "addr:housenumber": "2",
                "addr:city:simc": 964927,
                "addr:street:sym_ul": 33784,
                "phone": "+48 896465278",
                "email": "szkola@staszic.ostroda.pl",
                "website": "http:\/\/www.staszic.ostroda.pl",
                "ref:regon": "280423309",
                "operator": "Powiat Ostr\u00f3dzki",
                "operator:type": "government",
                "amenity": "school",
                "note": "Parent RSPO: 15967"
            }
        },
        {
            "id": 47166,
            "type": "Feature",
            "geometry": {
                "type": "Point",
                "coordinates": [
                    19.9566,
                    53.698809999999995
                ]
            },
            "properties": {
                "isced:level": "3",
                "ref:rspo": 47166,
                "official_name": "Technikum Nr 1 w Zespole Szk\u00f3\u0142 Zawodowych im. Stanis\u0142awa Staszica I Centrum Kszta\u0142cenia Ustawicznego w Ostr\u00f3dzie",
                "name": "Technikum Nr 1 w Zespole Szk\u00f3\u0142 Zawodowych",
                "addr:postcode": "14-100",
                "addr:city": "Ostr\u00f3da",
                "addr:street": "Kardyna\u0142a Wyszy\u0144skiego",
                "addr:housenumber": "2",
                "addr:city:simc": 964927,
                "addr:street:sym_ul": 33784,
                "phone": "+48 896465278",
                "email": "szkola@staszic.ostroda.pl",
                "website": "http:\/\/www.staszic.ostroda.pl",
                "ref:regon": "519454297",
                "operator": "Powiat Ostr\u00f3dzki",
                "operator:type": "government",
                "amenity": "school",
                "note": "Parent RSPO: 15967"
            }
        },
        {
            "id": 83896,
            "type": "Feature",
            "geometry": {
                "type": "Point",
                "coordinates": [
                    19.9566,
                    53.69878
                ]
            },
            "properties": {
                "isced:level": "3",
                "ref:rspo": 83896,
                "official_name": "Liceum Og\u00f3lnokszta\u0142c\u0105ce Nr V dla Doros\u0142ych w Centrum Kszta\u0142cenia Ustawicznego w Ostr\u00f3dzie",
                "name": "Liceum Og\u00f3lnokszta\u0142c\u0105ce Nr V dla Doros\u0142ych w Centrum Kszta\u0142cenia Ustawicznego w Ostr\u00f3dzie",
                "addr:postcode": "14-100",
                "addr:city": "Ostr\u00f3da",
                "addr:street": "Kardyna\u0142a Wyszy\u0144skiego",
                "addr:housenumber": "2",
                "addr:city:simc": 964927,
                "addr:street:sym_ul": 33784,
                "phone": "+48 896465278",
                "email": "szkola@staszic.ostroda.pl",
                "website": "http:\/\/www.staszic.ostroda.pl",
                "ref:regon": "519574630",
                "operator": "Powiat Ostr\u00f3dzki",
                "operator:type": "government",
                "amenity": "school",
                "note": "Parent RSPO: 30252"
            }
        },
        {
            "id": 85152,
            "type": "Feature",
            "geometry": {
                "type": "Point",
                "coordinates": [
                    19.9566,
                    53.69875
                ]
            },
            "properties": {
                "isced:level": "4",
                "ref:rspo": 85152,
                "official_name": "Szko\u0142a Policealna w Centrum Kszta\u0142cenia Ustawicznego w Ostr\u00f3dzie",
                "name": "Szko\u0142a Policealna w Centrum Kszta\u0142cenia Ustawicznego w Ostr\u00f3dzie",
                "addr:postcode": "14-100",
                "addr:city": "Ostr\u00f3da",
                "addr:street": "Kardyna\u0142a Wyszy\u0144skiego",
                "addr:housenumber": "2",
                "addr:city:simc": 964927,
                "addr:street:sym_ul": 33784,
                "phone": "+48 896465278",
                "email": "szkola@staszic.ostroda.pl",
                "website": "http:\/\/www.staszic.ostroda.pl",
                "ref:regon": "519574653",
                "operator": "Powiat Ostr\u00f3dzki",
                "operator:type": "government",
                "amenity": "college",
                "note": "Parent RSPO: 30252"
            }
        },
        {
            "id": 49712,
            "type": "Feature",
            "geometry": {
                "type": "Point",
                "coordinates": [
                    19.96617,
                    53.69893
                ]
            },
            "properties": {
                "ref:rspo": 49712,
                "official_name": "Przedszkole Niepubliczne \"Rado\u015b\u0107\" w Ostr\u00f3dzie",
                "name": "Przedszkole Niepubliczne \"Rado\u015b\u0107\" w Ostr\u00f3dzie",
                "addr:postcode": "14-100",
                "addr:city": "Ostr\u00f3da",
                "addr:street": "Armii Krajowej",
                "addr:housenumber": "5",
                "addr:city:simc": 964927,
                "addr:street:sym_ul": 432,
                "phone": "+48 896463909",
                "email": "radosc@przedszkole.ostroda.pl",
                "ref:regon": "281438224",
                "ref:vatin": "PL7411315341",
                "operator": "Jadwiga Otremba",
                "operator:type": "private",
                "amenity": "kindergarten"
            }
        },
        {
            "id": 122748,
            "type": "Feature",
            "geometry": {
                "type": "Point",
                "coordinates": [
                    19.96088,
                    53.69923
                ]
            },
            "properties": {
                "ref:rspo": 122748,
                "official_name": "Zesp\u00f3\u0142 Szk\u00f3\u0142 Pascal w Ostr\u00f3dzie",
                "name": "Zesp\u00f3\u0142 Szk\u00f3\u0142 Pascal w Ostr\u00f3dzie",
                "addr:postcode": "14-100",
                "addr:city": "Ostr\u00f3da",
                "addr:street": "Stefana Czarnieckiego",
                "addr:housenumber": "11",
                "addr:city:simc": 964927,
                "addr:street:sym_ul": 3283,
                "phone": "+48 896521231",
                "email": "ostroda@pascal.edu.pl",
                "website": "http:\/\/www.pascal.edu.pl",
                "ref:regon": "281580040",
                "operator": "Grupa Pascal Sp\u00f3\u0142ka Z Ograniczon\u0105 Odpowiedzialno\u015bci\u0105",
                "operator:type": "private",
                "landuse": "education",
                "fixme": "amenity=school, amenity=college albo landuse=education w zale\u017cno\u015bci od tego, jakie plac\u00f3wki wchodz\u0105 w sk\u0142ad zespo\u0142u. Sprawd\u017a, kiedy stosowa\u0107 amenity=* a kiedy landuse=education.",
                "note": "Children RSPO: 80120;80188;126683;126684"
            }
        },
        {
            "id": 80120,
            "type": "Feature",
            "geometry": {
                "type": "Point",
                "coordinates": [
                    19.96088,
                    53.6992
                ]
            },
            "properties": {
                "isced:level": "3",
                "ref:rspo": 80120,
                "official_name": "Liceum Og\u00f3lnokszta\u0142c\u0105ce dla Doros\u0142ych \"Pascal\" w Ostr\u00f3dzie",
                "name": "Liceum Og\u00f3lnokszta\u0142c\u0105ce dla Doros\u0142ych \"Pascal\" w Ostr\u00f3dzie",
                "addr:postcode": "14-100",
                "addr:city": "Ostr\u00f3da",
                "addr:street": "Stefana Czarnieckiego",
                "addr:housenumber": "11",
                "addr:city:simc": 964927,
                "addr:street:sym_ul": 3283,
                "phone": "+48 896521231",
                "email": "ostroda@pascal.edu.pl",
                "website": "http:\/\/www.pascal.edu.pl",
                "ref:regon": "281445974",
                "operator": "Grupa Pascal Sp\u00f3\u0142ka Z Ograniczon\u0105 Odpowiedzialno\u015bci\u0105",
                "operator:type": "private",
                "amenity": "school",
                "note": "Parent RSPO: 122748"
            }
        },
        {
            "id": 80188,
            "type": "Feature",
            "geometry": {
                "type": "Point",
                "coordinates": [
                    19.96088,
                    53.69917
                ]
            },
            "properties": {
                "isced:level": "4",
                "ref:rspo": 80188,
                "official_name": "Policealna Szko\u0142a Zawodowa \"Pascal\" w Ostr\u00f3dzie",
                "name": "Policealna Szko\u0142a Zawodowa \"Pascal\" w Ostr\u00f3dzie",
                "addr:postcode": "14-100",
                "addr:city": "Ostr\u00f3da",
                "addr:street": "Stefana Czarnieckiego",
                "addr:housenumber": "11",
                "addr:city:simc": 964927,
                "addr:street:sym_ul": 3283,
                "phone": "+48 896521231",
                "email": "ostroda@pascal.edu.pl",
                "website": "http:\/\/www.pascal.edu.pl",
                "ref:regon": "281447460",
                "operator": "Grupa Pascal Sp\u00f3\u0142ka Z Ograniczon\u0105 Odpowiedzialno\u015bci\u0105",
                "operator:type": "private",
                "amenity": "college",
                "note": "Parent RSPO: 122748"
            }
        },
        {
            "id": 126683,
            "type": "Feature",
            "geometry": {
                "type": "Point",
                "coordinates": [
                    19.96088,
                    53.69914
                ]
            },
            "properties": {
                "isced:level": "4",
                "ref:rspo": 126683,
                "official_name": "Policealna Szko\u0142a Medyczna Pascal w Ostr\u00f3dzie",
                "name": "Policealna Szko\u0142a Medyczna Pascal w Ostr\u00f3dzie",
                "addr:postcode": "14-100",
                "addr:city": "Ostr\u00f3da",
                "addr:street": "Stefana Czarnieckiego",
                "addr:housenumber": "11",
                "addr:city:simc": 964927,
                "addr:street:sym_ul": 3283,
                "phone": "+48 896521231",
                "email": "ostroda@pascal.edu.pl",
                "website": "http:\/\/www.pascal.edu.pl",
                "ref:regon": "360607750",
                "operator": "Grupa Pascal Sp\u00f3\u0142ka Z Ograniczon\u0105 Odpowiedzialno\u015bci\u0105",
                "operator:type": "private",
                "amenity": "college",
                "note": "Parent RSPO: 122748"
            }
        },
        {
            "id": 126684,
            "type": "Feature",
            "geometry": {
                "type": "Point",
                "coordinates": [
                    19.96088,
                    53.69911
                ]
            },
            "properties": {
                "isced:level": "4",
                "ref:rspo": 126684,
                "official_name": "Stacjonarna Policealna Szko\u0142a Medyczna Pascal w Ostr\u00f3dzie",
                "name": "Stacjonarna Policealna Szko\u0142a Medyczna Pascal w Ostr\u00f3dzie",
                "addr:postcode": "14-100",
                "addr:city": "Ostr\u00f3da",
                "addr:street": "Stefana Czarnieckiego",
                "addr:housenumber": "11",
                "addr:city:simc": 964927,
                "addr:street:sym_ul": 3283,
                "phone": "+48 896521231",
                "email": "ostroda@pascal.edu.pl",
                "website": "http:\/\/www.pascal.edu.pl",
                "ref:regon": "360607803",
                "operator": "Grupa Pascal Sp\u00f3\u0142ka Z Ograniczon\u0105 Odpowiedzialno\u015bci\u0105",
                "operator:type": "private",
                "amenity": "college",
                "note": "Parent RSPO: 122748"
            }
        },
        {
            "id": 42009,
            "type": "Feature",
            "geometry": {
                "type": "Point",
                "coordinates": [
                    19.964939117432,
                    53.702598571777
                ]
            },
            "properties": {
                "ref:rspo": 42009,
                "official_name": "Zesp\u00f3\u0142 Szk\u00f3\u0142 Salezja\u0144skich w Ostr\u00f3dzie",
                "name": "Zesp\u00f3\u0142 Szk\u00f3\u0142 Salezja\u0144skich w Ostr\u00f3dzie",
                "addr:postcode": "14-100",
                "addr:city": "Ostr\u00f3da",
                "addr:street": "\u015awi\u0119tego Dominika Savio",
                "addr:housenumber": "1",
                "addr:city:simc": 964927,
                "addr:street:sym_ul": 36252,
                "phone": "+48 896464146",
                "email": "slo.ostroda2@wp.pl",
                "website": "http:\/\/www.ostroda.salezjanie.pl",
                "ref:regon": "280613004",
                "ref:vatin": "PL7412121834",
                "operator": "Towarzystwo Salezja\u0144skie - Inspektoria (Prowincja) \u015aw.stanis\u0142awa Kostki",
                "operator:type": "religious",
                "landuse": "education",
                "fixme": "amenity=school, amenity=college albo landuse=education w zale\u017cno\u015bci od tego, jakie plac\u00f3wki wchodz\u0105 w sk\u0142ad zespo\u0142u. Sprawd\u017a, kiedy stosowa\u0107 amenity=* a kiedy landuse=education.",
                "note": "Children RSPO: 130923;133765"
            }
        },
        {
            "id": 130923,
            "type": "Feature",
            "geometry": {
                "type": "Point",
                "coordinates": [
                    19.964939117432,
                    53.702568571777
                ]
            },
            "properties": {
                "isced:level": "3",
                "ref:rspo": 130923,
                "official_name": "Salezja\u0144skie Liceum Og\u00f3lnokszta\u0142c\u0105ce im. \u015aw. Dominika Savio w Ostr\u00f3dzie",
                "name": "Salezja\u0144skie Liceum Og\u00f3lnokszta\u0142c\u0105ce",
                "addr:postcode": "14-100",
                "addr:city": "Ostr\u00f3da",
                "addr:street": "\u015awi\u0119tego Dominika Savio",
                "addr:housenumber": "1",
                "addr:city:simc": 964927,
                "addr:street:sym_ul": 36252,
                "phone": "+48 896464146",
                "email": "slo.ostroda2@wp.pl",
                "website": "http:\/\/www.ostroda.salezjanie.pl",
                "ref:regon": "364718899",
                "operator": "Towarzystwo Salezja\u0144skie - Inspektoria (Prowincja) \u015aw.stanis\u0142awa Kostki",
                "operator:type": "religious",
                "amenity": "school",
                "note": "Parent RSPO: 42009"
            }
        },
        {
            "id": 133765,
            "type": "Feature",
            "geometry": {
                "type": "Point",
                "coordinates": [
                    19.964939117432,
                    53.702538571777005
                ]
            },
            "properties": {
                "isced:level": "1;2",
                "ref:rspo": 133765,
                "official_name": "Salezja\u0144ska Szko\u0142a Podstawowa im. \u015aw. Dominika Savio w Ostr\u00f3dzie",
                "name": "Salezja\u0144ska Szko\u0142a Podstawowa",
                "addr:postcode": "14-100",
                "addr:city": "Ostr\u00f3da",
                "addr:street": "\u015awi\u0119tego Dominika Savio",
                "addr:housenumber": "1",
                "addr:city:simc": 964927,
                "addr:street:sym_ul": 36252,
                "phone": "+48 896464146",
                "email": "slo.ostroda2@wp.pl",
                "website": "http:\/\/www.ostroda.salezjanie.pl\/pl",
                "ref:regon": "367600313",
                "operator": "Towarzystwo Salezja\u0144skie - Inspektoria (Prowincja) \u015aw.stanis\u0142awa Kostki",
                "operator:type": "religious",
                "amenity": "school",
                "note": "Parent RSPO: 42009"
            }
        },
        {
            "id": 68460,
            "type": "Feature",
            "geometry": {
                "type": "Point",
                "coordinates": [
                    19.96466,
                    53.70308
                ]
            },
            "properties": {
                "ref:rspo": 68460,
                "official_name": "Spo\u0142eczna Szko\u0142a Muzyczna I St. w Ostr\u00f3dzie",
                "name": "Spo\u0142eczna Szko\u0142a Muzyczna I St. w Ostr\u00f3dzie",
                "addr:postcode": "14-100",
                "addr:city": "Ostr\u00f3da",
                "addr:street": "Plac Tysi\u0105clecia Pa\u0144stwa Polskiego",
                "addr:housenumber": "3",
                "addr:city:simc": 964927,
                "addr:street:sym_ul": 39180,
                "phone": "+48 896462845",
                "email": "otm_ost@op.pl",
                "website": "http:\/\/ssm-ostroda.pl",
                "ref:regon": "281444673",
                "operator": "Ostr\u00f3dzkie Towarzystwo Muzyczne Im.maksymiliana Kubackiego W Ostr\u00f3dzie",
                "operator:type": "ngo",
                "amenity": "music_school"
            }
        },
        {
            "id": 82599,
            "type": "Feature",
            "geometry": {
                "type": "Point",
                "coordinates": [
                    19.96601,
                    53.70465
                ]
            },
            "properties": {
                "ref:rspo": 82599,
                "official_name": "Centrum Edukacji w Ostr\u00f3dzie",
                "name": "Centrum Edukacji w Ostr\u00f3dzie",
                "addr:postcode": "14-100",
                "addr:city": "Ostr\u00f3da",
                "addr:street": "Olszty\u0144ska",
                "addr:housenumber": "17",
                "addr:city:simc": 964927,
                "addr:street:sym_ul": 15016,
                "phone": "+48 896462510",
                "email": "ostroda@wmzdz.pl",
                "website": "http:\/\/www.wmzdz.pl",
                "ref:regon": "281447714",
                "operator": "Warmi\u0144sko - Mazurski Zak\u0142ad Doskonalenia Zawodowego W Olsztynie",
                "operator:type": "ngo",
                "fixme": "w zale\u017cno\u015bci od przedmiotu dzia\u0142alno\u015bci (np. amenity=training + training=*, amenity=dancing_school, amenity=language_school, amenity=music_school)"
            }
        },
        {
            "id": 31408,
            "type": "Feature",
            "geometry": {
                "type": "Point",
                "coordinates": [
                    19.96191,
                    53.70524
                ]
            },
            "properties": {
                "isced:level": "1;2",
                "ref:rspo": 31408,
                "official_name": "Szko\u0142a Podstawowa Nr 2 im. Gustawa Gizewiusza w Ostr\u00f3dzie",
                "name": "Szko\u0142a Podstawowa Nr 2",
                "addr:postcode": "14-100",
                "addr:city": "Ostr\u00f3da",
                "addr:street": "Olszty\u0144ska",
                "addr:housenumber": "7",
                "addr:city:simc": 964927,
                "addr:street:sym_ul": 15016,
                "phone": "+48 896462468",
                "email": "dyrektor.sp2ostroda@wp.pl",
                "website": "http:\/\/sp2ostroda.edupage.org",
                "ref:regon": "000716610",
                "ref:vatin": "PL7411480502",
                "operator": "Gmina Miejska  Ostr\u00f3da",
                "operator:type": "government",
                "amenity": "school"
            }
        },
        {
            "id": 124343,
            "type": "Feature",
            "geometry": {
                "type": "Point",
                "coordinates": [
                    19.95928,
                    53.70656
                ]
            },
            "properties": {
                "ref:rspo": 124343,
                "official_name": "Szko\u0142a Mistrzostwa Sportowego w Ostr\u00f3dzie",
                "name": "Szko\u0142a Mistrzostwa Sportowego w Ostr\u00f3dzie",
                "addr:postcode": "14-100",
                "addr:city": "Ostr\u00f3da",
                "addr:street": "Adama Mickiewicza",
                "addr:housenumber": "32",
                "addr:city:simc": 964927,
                "addr:street:sym_ul": 12740,
                "phone": "+48 896709060",
                "email": "smsostroda@wp.pl",
                "website": "http:\/\/www.smsostroda.pl",
                "ref:regon": "281618890",
                "operator": "Zm Volley Ostr\u00f3da Sp\u00f3\u0142ka Z Ograniczon\u0105 Odpowiedzialno\u015bci\u0105",
                "operator:type": "private",
                "landuse": "education",
                "fixme": "amenity=school, amenity=college albo landuse=education w zale\u017cno\u015bci od tego, jakie plac\u00f3wki wchodz\u0105 w sk\u0142ad zespo\u0142u. Sprawd\u017a, kiedy stosowa\u0107 amenity=* a kiedy landuse=education.",
                "note": "Children RSPO: 124207;128910"
            }
        },
        {
            "id": 124207,
            "type": "Feature",
            "geometry": {
                "type": "Point",
                "coordinates": [
                    19.95928,
                    53.70653
                ]
            },
            "properties": {
                "isced:level": "1;2",
                "ref:rspo": 124207,
                "official_name": "Szko\u0142a Mistrzostwa Sportowego Szko\u0142a Podstawowa w Ostr\u00f3dzie",
                "name": "Szko\u0142a Mistrzostwa Sportowego Szko\u0142a Podstawowa w Ostr\u00f3dzie",
                "addr:postcode": "14-100",
                "addr:city": "Ostr\u00f3da",
                "addr:street": "Adama Mickiewicza",
                "addr:housenumber": "32",
                "addr:city:simc": 964927,
                "addr:street:sym_ul": 12740,
                "phone": "+48 896709060",
                "email": "smsostroda@wp.pl",
                "website": "http:\/\/www.smsostroda.pl",
                "ref:regon": "281617116",
                "operator": "Zm Volley Ostr\u00f3da Sp\u00f3\u0142ka Z Ograniczon\u0105 Odpowiedzialno\u015bci\u0105",
                "operator:type": "private",
                "amenity": "school",
                "note": "Parent RSPO: 124343"
            }
        },
        {
            "id": 128910,
            "type": "Feature",
            "geometry": {
                "type": "Point",
                "coordinates": [
                    19.95928,
                    53.706500000000005
                ]
            },
            "properties": {
                "isced:level": "3",
                "ref:rspo": 128910,
                "official_name": "Szko\u0142a Mistrzostwa Sportowego Liceum Og\u00f3lnokszta\u0142c\u0105ce w Ostr\u00f3dzie",
                "name": "Szko\u0142a Mistrzostwa Sportowego Liceum Og\u00f3lnokszta\u0142c\u0105ce w Ostr\u00f3dzie",
                "addr:postcode": "14-100",
                "addr:city": "Ostr\u00f3da",
                "addr:street": "Adama Mickiewicza",
                "addr:housenumber": "32",
                "addr:city:simc": 964927,
                "addr:street:sym_ul": 12740,
                "phone": "+48 896709060",
                "email": "smsostroda@wp.pl",
                "website": "http:\/\/www.smsostroda.pl",
                "ref:regon": "362435996",
                "operator": "Zm Volley Ostr\u00f3da Sp\u00f3\u0142ka Z Ograniczon\u0105 Odpowiedzialno\u015bci\u0105",
                "operator:type": "private",
                "amenity": "school",
                "note": "Parent RSPO: 124343"
            }
        },
        {
            "id": 49711,
            "type": "Feature",
            "geometry": {
                "type": "Point",
                "coordinates": [
                    19.9532,
                    53.70749
                ]
            },
            "properties": {
                "ref:rspo": 49711,
                "official_name": "Przedszkole Niepubliczne \"Pod D\u0119bami\" w Ostr\u00f3dzie",
                "name": "Przedszkole Niepubliczne \"Pod D\u0119bami\" w Ostr\u00f3dzie",
                "addr:postcode": "14-100",
                "addr:city": "Ostr\u00f3da",
                "addr:street": "Konstytucji",
                "addr:housenumber": "14",
                "addr:city:simc": 964927,
                "addr:street:sym_ul": 9207,
                "phone": "+48 896462771",
                "email": "przedszkole.pod.debami@wp.pl",
                "ref:regon": "281438193",
                "ref:vatin": "PL7411441353",
                "operator": "Alina Dremo",
                "operator:type": "private",
                "amenity": "kindergarten"
            }
        },
        {
            "id": 31412,
            "type": "Feature",
            "geometry": {
                "type": "Point",
                "coordinates": [
                    19.98461,
                    53.71646
                ]
            },
            "properties": {
                "ref:rspo": 31412,
                "official_name": "Zesp\u00f3\u0142 Szkolno - Przedszkolny w Ostr\u00f3dzie",
                "name": "Zesp\u00f3\u0142 Szkolno - Przedszkolny w Ostr\u00f3dzie",
                "addr:postcode": "14-100",
                "addr:city": "Ostr\u00f3da",
                "addr:street": "Plebiscytowa",
                "addr:housenumber": "50",
                "addr:city:simc": 964927,
                "addr:street:sym_ul": 16466,
                "phone": "+48 896461046",
                "email": "sekretariat@zspostroda.pl",
                "website": "http:\/\/www.zspostroda.pl",
                "ref:regon": "519476005",
                "ref:vatin": "PL7411912806",
                "operator": "Gmina Miejska  Ostr\u00f3da",
                "operator:type": "government",
                "landuse": "education",
                "fixme": "amenity=school, amenity=college albo landuse=education w zale\u017cno\u015bci od tego, jakie plac\u00f3wki wchodz\u0105 w sk\u0142ad zespo\u0142u. Sprawd\u017a, kiedy stosowa\u0107 amenity=* a kiedy landuse=education.",
                "note": "Children RSPO: 40194;40195"
            }
        },
        {
            "id": 40194,
            "type": "Feature",
            "geometry": {
                "type": "Point",
                "coordinates": [
                    19.98461,
                    53.716429999999995
                ]
            },
            "properties": {
                "isced:level": "1;2",
                "ref:rspo": 40194,
                "official_name": "Szko\u0142a Podstawowa Nr 5 im. Janusza Korczaka w Ostr\u00f3dzie",
                "name": "Szko\u0142a Podstawowa Nr 5",
                "addr:postcode": "14-100",
                "addr:city": "Ostr\u00f3da",
                "addr:street": "Plebiscytowa",
                "addr:housenumber": "50",
                "addr:city:simc": 964927,
                "addr:street:sym_ul": 16466,
                "phone": "+48 896461046",
                "email": "sekretariat@zspostroda.pl",
                "website": "http:\/\/www.zspostroda.pl",
                "ref:regon": "000716632",
                "ref:vatin": "PL7411545242",
                "operator": "Gmina Miejska  Ostr\u00f3da",
                "operator:type": "government",
                "amenity": "school",
                "note": "Parent RSPO: 31412"
            }
        },
        {
            "id": 40195,
            "type": "Feature",
            "geometry": {
                "type": "Point",
                "coordinates": [
                    19.98461,
                    53.7164
                ]
            },
            "properties": {
                "ref:rspo": 40195,
                "official_name": "Przedszkole Nr 3 im. Janusza Korczaka w Ostr\u00f3dzie",
                "name": "Przedszkole Nr 3",
                "addr:postcode": "14-100",
                "addr:city": "Ostr\u00f3da",
                "addr:street": "Plebiscytowa",
                "addr:housenumber": "50",
                "addr:city:simc": 964927,
                "addr:street:sym_ul": 16466,
                "phone": "+48 896461046",
                "email": "sekretariat@zspostroda.pl",
                "website": "http:\/\/www.zspostroda.pl",
                "ref:regon": "510292640",
                "ref:vatin": "PL7411480525",
                "operator": "Gmina Miejska  Ostr\u00f3da",
                "operator:type": "government",
                "amenity": "kindergarten",
                "note": "Parent RSPO: 31412"
            }
        }
    ]
}