{
    "type": "FeatureCollection",
    "features": [
        {
            "id": 126642,
            "type": "Feature",
            "geometry": {
                "type": "Point",
                "coordinates": [
                    19.97703,
                    50.527623
                ]
            },
            "properties": {
                "ref:rspo": 126642,
                "official_name": "Niepubliczne Przedszkole \u201eZ U\u015bmiechem\u201d w Mstyczowie",
                "name": "Niepubliczne Przedszkole \u201eZ U\u015bmiechem\u201d w Mstyczowie",
                "addr:country": "PL",
                "addr:postcode": "28-340",
                "addr:place": "Mstycz\u00f3w",
                "addr:housenumber": "37",
                "addr:teryt:simc": 267140,
                "contact:phone": "+48 607502209",
                "contact:email": "szkolamstyczow@onet.pl",
                "contact:website": "http:\/\/www.mstyczow.pl",
                "ref:regon": "360580062",
                "operator": "Fundacja Na Rzecz Wspierania Rodziny Oraz Dzieci I M\u0142odzie\u017cy \"Fundacja Z U\u015bmiechem\"",
                "operator:type": "ngo",
                "amenity": "kindergarten"
            }
        },
        {
            "id": 272679,
            "type": "Feature",
            "geometry": {
                "type": "Point",
                "coordinates": [
                    19.97703,
                    50.527592999999996
                ]
            },
            "properties": {
                "isced:level": "1;2",
                "ref:rspo": 272679,
                "official_name": "Szko\u0142a Podstawowa im. \u015aw. Huberta w Mstyczowie",
                "name": "Szko\u0142a Podstawowa",
                "addr:country": "PL",
                "addr:postcode": "28-340",
                "addr:place": "Mstycz\u00f3w",
                "addr:housenumber": "37",
                "addr:teryt:simc": 267140,
                "contact:phone": "+48 607502209",
                "contact:email": "szkolamstyczow@onet.pl",
                "ref:regon": "384273973",
                "ref:vatin": "PL9591816613",
                "operator": "Fundacja Na Rzecz Wspierania Rodziny Oraz Dzieci I M\u0142odzie\u017cy \"Fundacja Z U\u015bmiechem\"",
                "operator:type": "ngo",
                "amenity": "school"
            }
        },
        {
            "id": 49092,
            "type": "Feature",
            "geometry": {
                "type": "Point",
                "coordinates": [
                    20.133128,
                    50.5454889
                ]
            },
            "properties": {
                "ref:rspo": 49092,
                "official_name": "O\u015brodek Rehabilitacyjno-Edukacyjno-Wychowawczy w Zielonkach",
                "name": "O\u015brodek Rehabilitacyjno-Edukacyjno-Wychowawczy w Zielonkach",
                "addr:country": "PL",
                "addr:postcode": "28-340",
                "addr:place": "Zielonki",
                "addr:housenumber": "17A",
                "addr:teryt:simc": 267393,
                "contact:phone": "+48 793440354",
                "contact:email": "pokonacbariery@wp.pl",
                "ref:regon": "260645385",
                "ref:vatin": "PL6562268627",
                "operator": "Fundacja Na Rzecz Os\u00f3b Niepe\u0142nosprawnych - Pokona\u0107 Bariery",
                "operator:type": "ngo",
                "amenity": "school"
            }
        },
        {
            "id": 48317,
            "type": "Feature",
            "geometry": {
                "type": "Point",
                "coordinates": [
                    19.990675,
                    50.554845
                ]
            },
            "properties": {
                "ref:rspo": 48317,
                "official_name": "Zesp\u00f3\u0142 Szk\u00f3\u0142 Centrum Kszta\u0142cenia Rolniczego im. Macieja Rataja w Krzelowie",
                "name": "Zesp\u00f3\u0142 Szk\u00f3\u0142 Centrum Kszta\u0142cenia Rolniczego",
                "addr:country": "PL",
                "addr:postcode": "28-340",
                "addr:place": "Krzel\u00f3w",
                "addr:housenumber": "39",
                "addr:teryt:simc": 267080,
                "contact:phone": "+48 413811029",
                "contact:email": "zsckpkrzelow@op.pl",
                "contact:website": "http:\/\/zsckpkrzelow.republika.pl",
                "ref:regon": "291175969",
                "ref:vatin": "PL6561539389",
                "operator": "Powiat J\u0119drzejowski",
                "operator:type": "government",
                "landuse": "education",
                "fixme": "amenity=school, amenity=college albo landuse=education w zale\u017cno\u015bci od tego, jakie plac\u00f3wki wchodz\u0105 w sk\u0142ad zespo\u0142u. Sprawd\u017a, kiedy stosowa\u0107 amenity=* a kiedy landuse=education.",
                "note": "Children RSPO: 70120;73022;73073;73074"
            }
        },
        {
            "id": 70120,
            "type": "Feature",
            "geometry": {
                "type": "Point",
                "coordinates": [
                    19.990675,
                    50.554815
                ]
            },
            "properties": {
                "ref:rspo": 70120,
                "official_name": "Centrum Kszta\u0142cenia Zawodowego w Krzelowie",
                "name": "Centrum Kszta\u0142cenia Zawodowego w Krzelowie",
                "addr:country": "PL",
                "addr:postcode": "28-340",
                "addr:place": "Krzel\u00f3w",
                "addr:housenumber": "39",
                "addr:teryt:simc": 267080,
                "contact:phone": "+48 413811029",
                "contact:email": "zsckpkrzelow@op.pl",
                "ref:regon": "260415432",
                "operator": "Powiat J\u0119drzejowski",
                "operator:type": "government",
                "fixme": "w zale\u017cno\u015bci od przedmiotu dzia\u0142alno\u015bci (np. amenity=training + training=*, amenity=dancing_school, amenity=language_school, amenity=music_school) albo amenity=school, amenity=college, albo landuse=education w zale\u017cno\u015bci od tego, jakie plac\u00f3wki wchodz\u0105 w sk\u0142ad zespo\u0142u. Sprawd\u017a, kiedy stosowa\u0107 amenity=* a kiedy landuse=education.",
                "note": "Parent RSPO: 48317"
            }
        },
        {
            "id": 73022,
            "type": "Feature",
            "geometry": {
                "type": "Point",
                "coordinates": [
                    19.990675,
                    50.554785
                ]
            },
            "properties": {
                "isced:level": "3",
                "ref:rspo": 73022,
                "official_name": "Technikum w Krzelowie",
                "name": "Technikum w Krzelowie",
                "addr:country": "PL",
                "addr:postcode": "28-340",
                "addr:place": "Krzel\u00f3w",
                "addr:housenumber": "39",
                "addr:teryt:simc": 267080,
                "contact:phone": "+48 413811029",
                "contact:email": "zsckpkrzelow@op.pl",
                "contact:website": "http:\/\/www.zsckpkrzelow.republika.pl",
                "ref:regon": "292450001",
                "operator": "Powiat J\u0119drzejowski",
                "operator:type": "government",
                "amenity": "school",
                "note": "Parent RSPO: 48317"
            }
        },
        {
            "id": 73074,
            "type": "Feature",
            "geometry": {
                "type": "Point",
                "coordinates": [
                    19.990675,
                    50.554755
                ]
            },
            "properties": {
                "isced:level": "3",
                "ref:rspo": 73074,
                "official_name": "Bran\u017cowa Szko\u0142a I Stopnia w Krzelowie",
                "name": "Bran\u017cowa Szko\u0142a I Stopnia w Krzelowie",
                "addr:country": "PL",
                "addr:postcode": "28-340",
                "addr:place": "Krzel\u00f3w",
                "addr:housenumber": "39",
                "addr:teryt:simc": 267080,
                "contact:phone": "+48 413811029",
                "contact:email": "zsckpkrzelow@op.pl",
                "ref:regon": "292449950",
                "operator": "Powiat J\u0119drzejowski",
                "operator:type": "government",
                "amenity": "school",
                "note": "Parent RSPO: 48317"
            }
        },
        {
            "id": 73073,
            "type": "Feature",
            "geometry": {
                "type": "Point",
                "coordinates": [
                    19.9905729,
                    50.555319
                ]
            },
            "properties": {
                "ref:rspo": 73073,
                "official_name": "Szkolne Schronisko M\u0142odzie\u017cowe w Krzelowie",
                "name": "Szkolne Schronisko M\u0142odzie\u017cowe w Krzelowie",
                "addr:country": "PL",
                "addr:postcode": "28-340",
                "addr:place": "Krzel\u00f3w",
                "addr:housenumber": "38",
                "addr:teryt:simc": 267080,
                "contact:phone": "+48 413811029",
                "contact:email": "zsckpkrzelow@op.pl",
                "ref:regon": "260357835",
                "operator": "Powiat J\u0119drzejowski",
                "operator:type": "government",
                "tourism": "hostel",
                "note": "Parent RSPO: 48317"
            }
        },
        {
            "id": 48315,
            "type": "Feature",
            "geometry": {
                "type": "Point",
                "coordinates": [
                    20.03644,
                    50.55909
                ]
            },
            "properties": {
                "ref:rspo": 48315,
                "official_name": "Zesp\u00f3\u0142 Szk\u00f3\u0142 w S\u0119dziszowie",
                "name": "Zesp\u00f3\u0142 Szk\u00f3\u0142 w S\u0119dziszowie",
                "addr:country": "PL",
                "addr:postcode": "28-340",
                "addr:city": "S\u0119dzisz\u00f3w",
                "addr:street": "Przemys\u0142owa",
                "addr:housenumber": "11",
                "addr:teryt:simc": 947610,
                "addr:teryt:sym_ul": 17742,
                "contact:phone": "+48 413811770",
                "contact:email": "zszsedz@2com.pl",
                "ref:regon": "000029268",
                "ref:vatin": "PL6561811064",
                "operator": "Powiat J\u0119drzejowski",
                "operator:type": "government",
                "landuse": "education",
                "fixme": "amenity=school, amenity=college albo landuse=education w zale\u017cno\u015bci od tego, jakie plac\u00f3wki wchodz\u0105 w sk\u0142ad zespo\u0142u. Sprawd\u017a, kiedy stosowa\u0107 amenity=* a kiedy landuse=education.",
                "note": "Children RSPO: 68631;69848"
            }
        },
        {
            "id": 68631,
            "type": "Feature",
            "geometry": {
                "type": "Point",
                "coordinates": [
                    20.03644,
                    50.559059999999995
                ]
            },
            "properties": {
                "isced:level": "3",
                "ref:rspo": 68631,
                "official_name": "Technikum w S\u0119dziszowie",
                "name": "Technikum w S\u0119dziszowie",
                "addr:country": "PL",
                "addr:postcode": "28-340",
                "addr:city": "S\u0119dzisz\u00f3w",
                "addr:street": "Przemys\u0142owa",
                "addr:housenumber": "11",
                "addr:teryt:simc": 947610,
                "addr:teryt:sym_ul": 17742,
                "contact:phone": "+48 413811770",
                "contact:email": "zszsedz@2com.pl",
                "ref:regon": "292437667",
                "operator": "Powiat J\u0119drzejowski",
                "operator:type": "government",
                "amenity": "school",
                "note": "Parent RSPO: 48315"
            }
        },
        {
            "id": 69848,
            "type": "Feature",
            "geometry": {
                "type": "Point",
                "coordinates": [
                    20.03644,
                    50.55903
                ]
            },
            "properties": {
                "isced:level": "3",
                "ref:rspo": 69848,
                "official_name": "Bran\u017cowa Szko\u0142a I Stopnia w S\u0119dziszowie",
                "name": "Bran\u017cowa Szko\u0142a I Stopnia w S\u0119dziszowie",
                "addr:country": "PL",
                "addr:postcode": "28-340",
                "addr:city": "S\u0119dzisz\u00f3w",
                "addr:street": "Przemys\u0142owa",
                "addr:housenumber": "11",
                "addr:teryt:simc": 947610,
                "addr:teryt:sym_ul": 17742,
                "contact:phone": "+48 413811770",
                "contact:email": "zszsedz@2com.pl",
                "ref:regon": "292437609",
                "operator": "Powiat J\u0119drzejowski",
                "operator:type": "government",
                "amenity": "school",
                "note": "Parent RSPO: 48315"
            }
        },
        {
            "id": 4992,
            "type": "Feature",
            "geometry": {
                "type": "Point",
                "coordinates": [
                    20.03737,
                    50.56009
                ]
            },
            "properties": {
                "isced:level": "1;2",
                "ref:rspo": 4992,
                "official_name": "Szko\u0142a Podstawowa Nr 2 im. \u015aw. Floriana w S\u0119dziszowie",
                "name": "Szko\u0142a Podstawowa Nr 2",
                "addr:country": "PL",
                "addr:postcode": "28-340",
                "addr:city": "S\u0119dzisz\u00f3w",
                "addr:street": "Przemys\u0142owa",
                "addr:housenumber": "8A",
                "addr:teryt:simc": 947610,
                "addr:teryt:sym_ul": 17742,
                "contact:phone": "+48 413811282",
                "contact:email": "szkola@sedziszowsp2.pl",
                "contact:website": "http:\/\/sp2sedziszow.szkolnastrona.pl",
                "ref:regon": "290419398",
                "ref:vatin": "PL6562070629",
                "operator": "Gmina S\u0119dzisz\u00f3w",
                "operator:type": "government",
                "amenity": "school"
            }
        },
        {
            "id": 38725,
            "type": "Feature",
            "geometry": {
                "type": "Point",
                "coordinates": [
                    20.05359,
                    50.56271
                ]
            },
            "properties": {
                "ref:rspo": 38725,
                "official_name": "Przedszkole Samorz\u0105dowe w S\u0119dziszowie",
                "name": "Przedszkole Samorz\u0105dowe w S\u0119dziszowie",
                "addr:country": "PL",
                "addr:postcode": "28-340",
                "addr:city": "S\u0119dzisz\u00f3w",
                "addr:street": "Osiedle Na Skarpie",
                "addr:housenumber": "8",
                "addr:teryt:simc": 947610,
                "addr:teryt:sym_ul": 13663,
                "contact:phone": "+48 413811205",
                "contact:email": "przedszkole@sedziszow.pl",
                "contact:website": "http:\/\/www.przedszkole.sedziszow.pl",
                "ref:regon": "290013199",
                "ref:vatin": "PL6562060393",
                "operator": "Gmina S\u0119dzisz\u00f3w",
                "operator:type": "government",
                "amenity": "kindergarten"
            }
        },
        {
            "id": 4364,
            "type": "Feature",
            "geometry": {
                "type": "Point",
                "coordinates": [
                    20.0564,
                    50.56377
                ]
            },
            "properties": {
                "ref:rspo": 4364,
                "official_name": "Zesp\u00f3\u0142 Szk\u00f3\u0142 Og\u00f3lnokszta\u0142c\u0105cych w S\u0119dziszowie",
                "name": "Zesp\u00f3\u0142 Szk\u00f3\u0142 Og\u00f3lnokszta\u0142c\u0105cych w S\u0119dziszowie",
                "addr:country": "PL",
                "addr:postcode": "28-340",
                "addr:city": "S\u0119dzisz\u00f3w",
                "addr:street": "Tadeusza Ko\u015bciuszki",
                "addr:housenumber": "7",
                "addr:teryt:simc": 947610,
                "addr:teryt:sym_ul": 9582,
                "contact:phone": "+48 413810120",
                "contact:email": "zso@sedziszow.pl",
                "ref:regon": "260510627",
                "ref:vatin": "PL6562326046",
                "operator": "Gmina S\u0119dzisz\u00f3w",
                "operator:type": "government",
                "landuse": "education",
                "fixme": "amenity=school, amenity=college albo landuse=education w zale\u017cno\u015bci od tego, jakie plac\u00f3wki wchodz\u0105 w sk\u0142ad zespo\u0142u. Sprawd\u017a, kiedy stosowa\u0107 amenity=* a kiedy landuse=education.",
                "note": "Children RSPO: 38711;48820"
            }
        },
        {
            "id": 38711,
            "type": "Feature",
            "geometry": {
                "type": "Point",
                "coordinates": [
                    20.0564,
                    50.563739999999996
                ]
            },
            "properties": {
                "isced:level": "3",
                "ref:rspo": 38711,
                "official_name": "Liceum Og\u00f3lnokszta\u0142c\u0105ce w Zespole Szk\u00f3\u0142 Og\u00f3lnokszta\u0142c\u0105cych w S\u0119dziszowie",
                "name": "Liceum Og\u00f3lnokszta\u0142c\u0105ce w Zespole Szk\u00f3\u0142 Og\u00f3lnokszta\u0142c\u0105cych w S\u0119dziszowie",
                "addr:country": "PL",
                "addr:postcode": "28-340",
                "addr:city": "S\u0119dzisz\u00f3w",
                "addr:street": "Tadeusza Ko\u015bciuszki",
                "addr:housenumber": "7",
                "addr:teryt:simc": 947610,
                "addr:teryt:sym_ul": 9582,
                "contact:phone": "+48 413810120",
                "contact:email": "lo_sedziszow@o2.pl",
                "contact:website": "http:\/\/www.lo.sedziszow.pl",
                "ref:regon": "290508788",
                "ref:vatin": "PL6562070635",
                "operator": "Gmina S\u0119dzisz\u00f3w",
                "operator:type": "government",
                "amenity": "school",
                "note": "Parent RSPO: 4364"
            }
        },
        {
            "id": 48820,
            "type": "Feature",
            "geometry": {
                "type": "Point",
                "coordinates": [
                    20.0564,
                    50.56371
                ]
            },
            "properties": {
                "isced:level": "1;2",
                "ref:rspo": 48820,
                "official_name": "Szko\u0142a Podstawowa Nr 1 im. Tadeusza Ko\u015bciuszki w Zespole Szk\u00f3\u0142 Og\u00f3lnokszta\u0142c\u0105cych w S\u0119dziszowie",
                "name": "Szko\u0142a Podstawowa Nr 1",
                "addr:country": "PL",
                "addr:postcode": "28-340",
                "addr:city": "S\u0119dzisz\u00f3w",
                "addr:street": "Tadeusza Ko\u015bciuszki",
                "addr:housenumber": "7",
                "addr:teryt:simc": 947610,
                "addr:teryt:sym_ul": 9582,
                "contact:phone": "+48 413810120",
                "contact:email": "losedziszow@o2.pl",
                "contact:website": "http:\/\/www.sp1sedziszow.pl",
                "ref:regon": "000558593",
                "ref:vatin": "PL6561993958",
                "operator": "Gmina S\u0119dzisz\u00f3w",
                "operator:type": "government",
                "amenity": "school",
                "note": "Parent RSPO: 4364"
            }
        },
        {
            "id": 125331,
            "type": "Feature",
            "geometry": {
                "type": "Point",
                "coordinates": [
                    20.0076109,
                    50.572399
                ]
            },
            "properties": {
                "ref:rspo": 125331,
                "official_name": "Niepubliczne Przedszkole \u201eZ U\u015bmiechem\u201d w Tarnawie",
                "name": "Niepubliczne Przedszkole \u201eZ U\u015bmiechem\u201d w Tarnawie",
                "addr:country": "PL",
                "addr:postcode": "28-340",
                "addr:place": "Tarnawa",
                "addr:housenumber": "119",
                "addr:teryt:simc": 267341,
                "contact:phone": "+48 726315629",
                "contact:email": "szkolapodsttarnawa@interia.pl",
                "contact:website": "http:\/\/www.mstyczow.pl",
                "ref:regon": "260796842",
                "operator": "Fundacja Na Rzecz Wspierania Rodziny Oraz Dzieci I M\u0142odzie\u017cy \"Fundacja Z U\u015bmiechem\"",
                "operator:type": "ngo",
                "amenity": "kindergarten"
            }
        },
        {
            "id": 126693,
            "type": "Feature",
            "geometry": {
                "type": "Point",
                "coordinates": [
                    20.0076109,
                    50.572368999999995
                ]
            },
            "properties": {
                "isced:level": "1;2",
                "ref:rspo": 126693,
                "official_name": "Szko\u0142a Podstawowa im. Bohater\u00f3w Armii Krajowej w Tarnawie",
                "name": "Szko\u0142a Podstawowa",
                "addr:country": "PL",
                "addr:postcode": "28-340",
                "addr:place": "Tarnawa",
                "addr:housenumber": "119",
                "addr:teryt:simc": 267341,
                "contact:phone": "+48 726315629",
                "contact:email": "szkolapodsttarnawa@interia.pl",
                "contact:website": "http:\/\/www.mstyczow.pl",
                "ref:regon": "360621849",
                "operator": "Fundacja Na Rzecz Wspierania Rodziny Oraz Dzieci I M\u0142odzie\u017cy \"Fundacja Z U\u015bmiechem\"",
                "operator:type": "ngo",
                "amenity": "school"
            }
        },
        {
            "id": 112029,
            "type": "Feature",
            "geometry": {
                "type": "Point",
                "coordinates": [
                    20.05697,
                    50.57654
                ]
            },
            "properties": {
                "ref:rspo": 112029,
                "official_name": "Us\u0142ugi Bhp I Ppo\u017c. Edyta Bry\u0142a Centrum Kszta\u0142cenia Zawodowego",
                "name": "Us\u0142ugi Bhp I Ppo\u017c. Edyta Bry\u0142a Centrum Kszta\u0142cenia Zawodowego",
                "addr:country": "PL",
                "addr:postcode": "28-340",
                "addr:city": "S\u0119dzisz\u00f3w",
                "addr:street": "Marianowska",
                "addr:housenumber": "14a",
                "addr:teryt:simc": 947610,
                "addr:teryt:sym_ul": 12333,
                "contact:phone": "+48 793403507",
                "contact:email": "edytab.k@gmail.com",
                "ref:regon": "260679473",
                "ref:vatin": "PL6562192290",
                "operator": "Edyta Bry\u0142a",
                "operator:type": "private",
                "fixme": "w zale\u017cno\u015bci od przedmiotu dzia\u0142alno\u015bci (np. amenity=training + training=*, amenity=dancing_school, amenity=language_school, amenity=music_school) albo amenity=school, amenity=college, albo landuse=education w zale\u017cno\u015bci od tego, jakie plac\u00f3wki wchodz\u0105 w sk\u0142ad zespo\u0142u. Sprawd\u017a, kiedy stosowa\u0107 amenity=* a kiedy landuse=education."
            }
        },
        {
            "id": 31859,
            "type": "Feature",
            "geometry": {
                "type": "Point",
                "coordinates": [
                    20.0804972,
                    50.5785371
                ]
            },
            "properties": {
                "ref:rspo": 31859,
                "official_name": "Niepubliczny Punkt Przedszkolny \u201eZ U\u015bmiechem\u201d",
                "name": "Niepubliczny Punkt Przedszkolny \u201eZ U\u015bmiechem\u201d",
                "addr:country": "PL",
                "addr:postcode": "28-340",
                "addr:place": "Bole\u015bcice",
                "addr:housenumber": "76",
                "addr:teryt:simc": 266815,
                "contact:phone": "+48 413667450",
                "contact:email": "zusmiechem@gmail.com",
                "ref:regon": "260641482",
                "ref:vatin": "PL9591816613",
                "operator": "Fundacja Na Rzecz Wspierania Rodziny Oraz Dzieci I M\u0142odzie\u017cy \"Fundacja Z U\u015bmiechem\"",
                "operator:type": "ngo",
                "amenity": "kindergarten"
            }
        },
        {
            "id": 4819,
            "type": "Feature",
            "geometry": {
                "type": "Point",
                "coordinates": [
                    20.0918273,
                    50.5828859
                ]
            },
            "properties": {
                "isced:level": "1;2",
                "ref:rspo": 4819,
                "official_name": "Szko\u0142a Podstawowa im. Gen. Leopolda Okulickiego Ps. Nied\u017awiadek w Paw\u0142owicach",
                "name": "Szko\u0142a Podstawowa",
                "addr:country": "PL",
                "addr:postcode": "28-340",
                "addr:place": "Paw\u0142owice",
                "addr:housenumber": "94",
                "addr:teryt:simc": 267157,
                "contact:phone": "+48 413811065",
                "contact:email": "sppawlowice@poczta.onet.pl",
                "ref:regon": "290419330",
                "ref:vatin": "PL6562067952",
                "operator": "Gmina S\u0119dzisz\u00f3w",
                "operator:type": "government",
                "amenity": "school"
            }
        },
        {
            "id": 126643,
            "type": "Feature",
            "geometry": {
                "type": "Point",
                "coordinates": [
                    20.176813,
                    50.584038
                ]
            },
            "properties": {
                "ref:rspo": 126643,
                "official_name": "Niepubliczne Przedszkole \u201eZ U\u015bmiechem\u201d w Krzci\u0119cicach",
                "name": "Niepubliczne Przedszkole \u201eZ U\u015bmiechem\u201d w Krzci\u0119cicach",
                "addr:country": "PL",
                "addr:postcode": "28-340",
                "addr:place": "Krzci\u0119cice",
                "addr:housenumber": "34",
                "addr:teryt:simc": 267074,
                "contact:phone": "+48 413817621",
                "contact:email": "sp_krzciecice@wp.pl",
                "contact:website": "http:\/\/www.mstyczow.pl",
                "ref:regon": "360580091",
                "operator": "Fundacja Na Rzecz Wspierania Rodziny Oraz Dzieci I M\u0142odzie\u017cy \"Fundacja Z U\u015bmiechem\"",
                "operator:type": "ngo",
                "amenity": "kindergarten"
            }
        },
        {
            "id": 126697,
            "type": "Feature",
            "geometry": {
                "type": "Point",
                "coordinates": [
                    20.176813,
                    50.584008
                ]
            },
            "properties": {
                "isced:level": "1;2",
                "ref:rspo": 126697,
                "official_name": "Szko\u0142a Podstawowa im. Jana Paw\u0142a II w Krzci\u0119cicach",
                "name": "Szko\u0142a Podstawowa",
                "addr:country": "PL",
                "addr:postcode": "28-340",
                "addr:place": "Krzci\u0119cice",
                "addr:housenumber": "34",
                "addr:teryt:simc": 267074,
                "contact:email": "sp_krzciecice@wp.pl",
                "contact:website": "http:\/\/www.mstyczow.pl",
                "ref:regon": "360631227",
                "operator": "Fundacja Na Rzecz Wspierania Rodziny Oraz Dzieci I M\u0142odzie\u017cy \"Fundacja Z U\u015bmiechem\"",
                "operator:type": "ngo",
                "amenity": "school"
            }
        }
    ]
}