{
    "type": "FeatureCollection",
    "features": [
        {
            "id": 115232,
            "type": "Feature",
            "geometry": {
                "type": "Point",
                "coordinates": [
                    19.912277,
                    50.560375
                ]
            },
            "properties": {
                "ref:rspo": 115232,
                "official_name": "Niepubliczny M\u0142odzie\u017cowy O\u015brodek Wychowawczy w W\u0119grzynowie",
                "name": "Niepubliczny M\u0142odzie\u017cowy O\u015brodek Wychowawczy w W\u0119grzynowie",
                "addr:postcode": "28-350",
                "addr:place": "Stary W\u0119grzyn\u00f3w",
                "addr:housenumber": "69",
                "addr:teryt:simc": 269386,
                "phone": "+48 413818321",
                "email": "mow@wegrzynow.pl",
                "ref:regon": "260703303",
                "operator": "Fundacja Centrum Edukacji, Przedsi\u0119biorczo\u015bci I Aktywno\u015bci Spo\u0142ecznej",
                "operator:type": "ngo",
                "fixme": "amenity=social_facility + social_facility=group_home + social_facility:for=juvenile",
                "note": "Children RSPO: 119259;120159"
            }
        },
        {
            "id": 130370,
            "type": "Feature",
            "geometry": {
                "type": "Point",
                "coordinates": [
                    19.912277,
                    50.560345
                ]
            },
            "properties": {
                "ref:rspo": 130370,
                "official_name": "Niepubliczny M\u0142odzie\u017cowy O\u015brodek Socjoterapii w W\u0119grzynowie",
                "name": "Niepubliczny M\u0142odzie\u017cowy O\u015brodek Socjoterapii w W\u0119grzynowie",
                "addr:postcode": "28-350",
                "addr:place": "Stary W\u0119grzyn\u00f3w",
                "addr:housenumber": "63,69",
                "addr:teryt:simc": 269386,
                "phone": "+48 413818321",
                "email": "fundacja@fundacjacentrumedukacji.pl",
                "ref:regon": "363926220",
                "operator": "Fundacja Centrum Edukacji, Przedsi\u0119biorczo\u015bci I Aktywno\u015bci Spo\u0142ecznej",
                "operator:type": "ngo",
                "fixme": "amenity=social_facility + social_facility=group_home + social_facility:for=juvenile",
                "note": "Children RSPO: 130392"
            }
        },
        {
            "id": 119259,
            "type": "Feature",
            "geometry": {
                "type": "Point",
                "coordinates": [
                    19.912277,
                    50.560315
                ]
            },
            "properties": {
                "isced:level": "1;2",
                "ref:rspo": 119259,
                "official_name": "Niepubliczna Szko\u0142a Podstawowa Specjalna w W\u0119grzynowie",
                "name": "Niepubliczna Szko\u0142a Podstawowa Specjalna w W\u0119grzynowie",
                "addr:postcode": "28-350",
                "addr:place": "Stary W\u0119grzyn\u00f3w",
                "addr:housenumber": "69",
                "addr:teryt:simc": 269386,
                "phone": "+48 413818321",
                "email": "mow@wegrzynow.pl",
                "ref:regon": "260717140",
                "operator": "Fundacja Centrum Edukacji, Przedsi\u0119biorczo\u015bci I Aktywno\u015bci Spo\u0142ecznej",
                "operator:type": "ngo",
                "amenity": "school",
                "note": "Parent RSPO: 115232"
            }
        },
        {
            "id": 120159,
            "type": "Feature",
            "geometry": {
                "type": "Point",
                "coordinates": [
                    19.912277,
                    50.560285
                ]
            },
            "properties": {
                "isced:level": "3",
                "ref:rspo": 120159,
                "official_name": "Niepubliczna Bran\u017cowa Szko\u0142a Specjalna I Stopnia w W\u0119grzynowie",
                "name": "Niepubliczna Bran\u017cowa Szko\u0142a Specjalna I Stopnia w W\u0119grzynowie",
                "addr:postcode": "28-350",
                "addr:place": "Stary W\u0119grzyn\u00f3w",
                "addr:housenumber": "69",
                "addr:teryt:simc": 269386,
                "phone": "+48 413818321",
                "email": "mow@wegrzynow.pl",
                "website": "http:\/\/www.wegrzynow.pl",
                "ref:regon": "260722163",
                "operator": "Fundacja Centrum Edukacji, Przedsi\u0119biorczo\u015bci I Aktywno\u015bci Spo\u0142ecznej",
                "operator:type": "ngo",
                "amenity": "school",
                "note": "Parent RSPO: 115232"
            }
        },
        {
            "id": 130392,
            "type": "Feature",
            "geometry": {
                "type": "Point",
                "coordinates": [
                    19.912277,
                    50.560255
                ]
            },
            "properties": {
                "isced:level": "1;2",
                "ref:rspo": 130392,
                "official_name": "Niepubliczna Szko\u0142a Podstawowa Specjalna w W\u0119grzynowie",
                "name": "Niepubliczna Szko\u0142a Podstawowa Specjalna w W\u0119grzynowie",
                "addr:postcode": "28-350",
                "addr:place": "Stary W\u0119grzyn\u00f3w",
                "addr:housenumber": "63,69",
                "addr:teryt:simc": 269386,
                "phone": "+48 413818321",
                "email": "mow@wegrzynow.pl",
                "ref:regon": "363949250",
                "operator": "Fundacja Centrum Edukacji, Przedsi\u0119biorczo\u015bci I Aktywno\u015bci Spo\u0142ecznej",
                "operator:type": "ngo",
                "amenity": "school",
                "note": "Parent RSPO: 130370"
            }
        },
        {
            "id": 44651,
            "type": "Feature",
            "geometry": {
                "type": "Point",
                "coordinates": [
                    19.8577322,
                    50.5711089
                ]
            },
            "properties": {
                "isced:level": "1;2",
                "ref:rspo": 44651,
                "official_name": "Szko\u0142a Podstawowa im. Bohater\u00f3w Armii Krajowej w Obiechowie",
                "name": "Szko\u0142a Podstawowa",
                "addr:postcode": "28-350",
                "addr:place": "Obiech\u00f3w",
                "addr:housenumber": "47",
                "addr:teryt:simc": 268910,
                "phone": "+48 413818002",
                "email": "spobiechow@slupia.pl",
                "website": "http:\/\/www.spobiechow.szkolnastrona.pl",
                "ref:regon": "001217233",
                "ref:vatin": "PL6562047576",
                "operator": "Gmina S\u0142upia",
                "operator:type": "government",
                "amenity": "school"
            }
        },
        {
            "id": 44650,
            "type": "Feature",
            "geometry": {
                "type": "Point",
                "coordinates": [
                    19.963223,
                    50.607672
                ]
            },
            "properties": {
                "ref:rspo": 44650,
                "official_name": "Zesp\u00f3\u0142 Plac\u00f3wek O\u015bwiatowych w S\u0142upi",
                "name": "Zesp\u00f3\u0142 Plac\u00f3wek O\u015bwiatowych w S\u0142upi",
                "addr:postcode": "28-350",
                "addr:place": "S\u0142upia",
                "addr:housenumber": "281",
                "addr:teryt:simc": 269274,
                "phone": "+48 413816394",
                "email": "spslupia@slupia.pl",
                "website": "http:\/\/www.spslupia.cal24.pl\/",
                "ref:regon": "260641619",
                "ref:vatin": "PL6562330510",
                "operator": "Gmina S\u0142upia",
                "operator:type": "government",
                "landuse": "education",
                "fixme": "amenity=school, amenity=college albo landuse=education w zale\u017cno\u015bci od tego, jakie plac\u00f3wki wchodz\u0105 w sk\u0142ad zespo\u0142u. Sprawd\u017a, kiedy stosowa\u0107 amenity=* a kiedy landuse=education.",
                "note": "Children RSPO: 74288;74289"
            }
        },
        {
            "id": 74288,
            "type": "Feature",
            "geometry": {
                "type": "Point",
                "coordinates": [
                    19.963223,
                    50.607642
                ]
            },
            "properties": {
                "isced:level": "1;2",
                "ref:rspo": 74288,
                "official_name": "Zesp\u00f3\u0142 Plac\u00f3wek O\u015bwiatowych w S\u0142upi - Szko\u0142a Podstawowa im. Zbigniewa Kopra",
                "name": "Zesp\u00f3\u0142 Plac\u00f3wek O\u015bwiatowych w S\u0142upi - Szko\u0142a Podstawowa",
                "addr:postcode": "28-350",
                "addr:place": "S\u0142upia",
                "addr:housenumber": "281",
                "addr:teryt:simc": 269274,
                "phone": "+48 413816394",
                "email": "spslupia@slupia.pl",
                "website": "http:\/\/www.spslupia.cal24.pl",
                "ref:regon": "000583697",
                "ref:vatin": "PL6561797944",
                "operator": "Gmina S\u0142upia",
                "operator:type": "government",
                "amenity": "school",
                "note": "Parent RSPO: 44650"
            }
        },
        {
            "id": 74289,
            "type": "Feature",
            "geometry": {
                "type": "Point",
                "coordinates": [
                    19.963223,
                    50.607612
                ]
            },
            "properties": {
                "ref:rspo": 74289,
                "official_name": "Zesp\u00f3\u0142 Plac\u00f3wek O\u015bwiatowych w S\u0142upi - Przedszkole Publiczne",
                "name": "Zesp\u00f3\u0142 Plac\u00f3wek O\u015bwiatowych w S\u0142upi - Przedszkole Publiczne",
                "addr:postcode": "28-350",
                "addr:place": "S\u0142upia",
                "addr:housenumber": "281",
                "addr:teryt:simc": 269274,
                "phone": "+48 413816394",
                "email": "spslupia@slupia.pl",
                "website": "http:\/\/www.spslupia.cal24.pl",
                "ref:regon": "290013130",
                "ref:vatin": "PL6561797849",
                "operator": "Gmina S\u0142upia",
                "operator:type": "government",
                "amenity": "kindergarten",
                "note": "Parent RSPO: 44650"
            }
        }
    ]
}