{
    "type": "FeatureCollection",
    "features": [
        {
            "id": 23797,
            "type": "Feature",
            "geometry": {
                "type": "Point",
                "coordinates": [
                    20.5144557,
                    50.6581286
                ]
            },
            "properties": {
                "ref:rspo": 23797,
                "official_name": "Zesp\u00f3\u0142 Plac\u00f3wek O\u015bwiatowych w Korytnicy",
                "name": "Zesp\u00f3\u0142 Plac\u00f3wek O\u015bwiatowych w Korytnicy",
                "addr:postcode": "28-305",
                "addr:place": "Korytnica",
                "addr:housenumber": "206",
                "addr:city:simc": 270337,
                "phone": "+48 413874016",
                "email": "zpo.korytnica@wp.pl",
                "ref:regon": "260016212",
                "ref:vatin": "PL6562287783",
                "operator": "Gmina Sobk\u00f3w",
                "operator:type": "government",
                "landuse": "education",
                "fixme": "amenity=school, amenity=college albo landuse=education w zale\u017cno\u015bci od tego, jakie plac\u00f3wki wchodz\u0105 w sk\u0142ad zespo\u0142u. Sprawd\u017a, kiedy stosowa\u0107 amenity=* a kiedy landuse=education.",
                "note": "Children RSPO: 105452;111709"
            }
        },
        {
            "id": 105452,
            "type": "Feature",
            "geometry": {
                "type": "Point",
                "coordinates": [
                    20.5144557,
                    50.658098599999995
                ]
            },
            "properties": {
                "isced:level": "1;2",
                "ref:rspo": 105452,
                "official_name": "Szko\u0142a Podstawowa w Korytnicy",
                "name": "Szko\u0142a Podstawowa w Korytnicy",
                "addr:postcode": "28-305",
                "addr:place": "Korytnica",
                "addr:housenumber": "206",
                "addr:city:simc": 270337,
                "phone": "+48 413874016",
                "email": "zpo.korytnica@wp.pl",
                "ref:regon": "001217026",
                "operator": "Gmina Sobk\u00f3w",
                "operator:type": "government",
                "amenity": "school",
                "note": "Parent RSPO: 23797"
            }
        },
        {
            "id": 111709,
            "type": "Feature",
            "geometry": {
                "type": "Point",
                "coordinates": [
                    20.5144557,
                    50.6580686
                ]
            },
            "properties": {
                "ref:rspo": 111709,
                "official_name": "Przedszkole Samorz\u0105dowe w Korytnicy",
                "name": "Przedszkole Samorz\u0105dowe w Korytnicy",
                "addr:postcode": "28-305",
                "addr:place": "Korytnica",
                "addr:housenumber": "206",
                "addr:city:simc": 270337,
                "phone": "+48 413874016",
                "email": "zpo.korytnica@wp.pl",
                "ref:regon": "290013087",
                "operator": "Gmina Sobk\u00f3w",
                "operator:type": "government",
                "amenity": "kindergarten",
                "note": "Parent RSPO: 23797"
            }
        },
        {
            "id": 23801,
            "type": "Feature",
            "geometry": {
                "type": "Point",
                "coordinates": [
                    20.5579979,
                    50.6657809
                ]
            },
            "properties": {
                "isced:level": "1;2",
                "ref:rspo": 23801,
                "official_name": "Szko\u0142a Podstawowa w Lipie",
                "name": "Szko\u0142a Podstawowa w Lipie",
                "addr:postcode": "28-305",
                "addr:place": "Lipa",
                "addr:housenumber": "6a",
                "addr:city:simc": 270389,
                "phone": "+48 413874059",
                "email": "szkola.lipa@wp.pl",
                "ref:regon": "001217049",
                "ref:vatin": "PL6562287814",
                "operator": "Gmina Sobk\u00f3w",
                "operator:type": "government",
                "amenity": "school"
            }
        },
        {
            "id": 23800,
            "type": "Feature",
            "geometry": {
                "type": "Point",
                "coordinates": [
                    20.533212,
                    50.680506
                ]
            },
            "properties": {
                "isced:level": "1;2",
                "ref:rspo": 23800,
                "official_name": "Szko\u0142a Podstawowa w Chomentowie",
                "name": "Szko\u0142a Podstawowa w Chomentowie",
                "addr:postcode": "28-305",
                "addr:place": "Choment\u00f3w",
                "addr:housenumber": "72",
                "addr:city:simc": 270254,
                "phone": "+48 413874203",
                "email": "szkolachomentow@poczta.onet.pl",
                "ref:regon": "001217003",
                "ref:vatin": "PL6562287843",
                "operator": "Gmina Sobk\u00f3w",
                "operator:type": "government",
                "amenity": "school"
            }
        },
        {
            "id": 23799,
            "type": "Feature",
            "geometry": {
                "type": "Point",
                "coordinates": [
                    20.4386589,
                    50.6830969
                ]
            },
            "properties": {
                "ref:rspo": 23799,
                "official_name": "Zesp\u00f3\u0142 Plac\u00f3wek O\u015bwiatowych w Mokrsku Dolnym",
                "name": "Zesp\u00f3\u0142 Plac\u00f3wek O\u015bwiatowych w Mokrsku Dolnym",
                "addr:postcode": "28-305",
                "addr:place": "Mokrsko Dolne",
                "addr:housenumber": "50A",
                "addr:city:simc": 270449,
                "phone": "+48 413871004",
                "email": "zpo-mokrsko@wp.pl",
                "ref:regon": "260016850",
                "ref:vatin": "PL6562287837",
                "operator": "Gmina Sobk\u00f3w",
                "operator:type": "government",
                "landuse": "education",
                "fixme": "amenity=school, amenity=college albo landuse=education w zale\u017cno\u015bci od tego, jakie plac\u00f3wki wchodz\u0105 w sk\u0142ad zespo\u0142u. Sprawd\u017a, kiedy stosowa\u0107 amenity=* a kiedy landuse=education.",
                "note": "Children RSPO: 105451;108886"
            }
        },
        {
            "id": 105451,
            "type": "Feature",
            "geometry": {
                "type": "Point",
                "coordinates": [
                    20.4386589,
                    50.6830669
                ]
            },
            "properties": {
                "isced:level": "1;2",
                "ref:rspo": 105451,
                "official_name": "Szko\u0142a Podstawowa w Mokrsku Dolnym",
                "name": "Szko\u0142a Podstawowa w Mokrsku Dolnym",
                "addr:postcode": "28-305",
                "addr:place": "Mokrsko Dolne",
                "addr:housenumber": "50A",
                "addr:city:simc": 270449,
                "phone": "+48 413871004",
                "email": "zpo-mokrsko@wp.pl",
                "ref:regon": "001216943",
                "operator": "Gmina Sobk\u00f3w",
                "operator:type": "government",
                "amenity": "school",
                "note": "Parent RSPO: 23799"
            }
        },
        {
            "id": 108886,
            "type": "Feature",
            "geometry": {
                "type": "Point",
                "coordinates": [
                    20.4386589,
                    50.683036900000005
                ]
            },
            "properties": {
                "ref:rspo": 108886,
                "official_name": "Przedszkole Samorz\u0105dowe w Mokrsku Dolnym",
                "name": "Przedszkole Samorz\u0105dowe w Mokrsku Dolnym",
                "addr:postcode": "28-305",
                "addr:place": "Mokrsko Dolne",
                "addr:housenumber": "50A",
                "addr:city:simc": 270449,
                "phone": "+48 413871004",
                "email": "zpo-mokrsko@wp.pl",
                "ref:regon": "290013093",
                "operator": "Gmina Sobk\u00f3w",
                "operator:type": "government",
                "amenity": "kindergarten",
                "note": "Parent RSPO: 23799"
            }
        },
        {
            "id": 23802,
            "type": "Feature",
            "geometry": {
                "type": "Point",
                "coordinates": [
                    20.45908,
                    50.69892
                ]
            },
            "properties": {
                "isced:level": "1;2",
                "ref:rspo": 23802,
                "official_name": "Szko\u0142a Podstawowa im. Jana Paw\u0142a II w Sobkowie",
                "name": "Szko\u0142a Podstawowa",
                "addr:postcode": "28-305",
                "addr:city": "Sobk\u00f3w",
                "addr:street": "\u0179r\u00f3d\u0142owa",
                "addr:housenumber": "4",
                "addr:city:simc": 270604,
                "addr:street:sym_ul": 26363,
                "phone": "+48 413871024",
                "email": "spsob@wp.pl",
                "ref:regon": "000272939",
                "ref:vatin": "PL6562287808",
                "operator": "Gmina Sobk\u00f3w",
                "operator:type": "government",
                "amenity": "school"
            }
        },
        {
            "id": 23803,
            "type": "Feature",
            "geometry": {
                "type": "Point",
                "coordinates": [
                    20.45908,
                    50.69889
                ]
            },
            "properties": {
                "ref:rspo": 23803,
                "official_name": "Przedszkole Samorz\u0105dowe w Sobkowie Z Oddzia\u0142em Zamiejscowym w Staniowicach",
                "name": "Przedszkole Samorz\u0105dowe w Sobkowie Z Oddzia\u0142em Zamiejscowym w Staniowicach",
                "addr:postcode": "28-305",
                "addr:city": "Sobk\u00f3w",
                "addr:street": "\u0179r\u00f3d\u0142owa",
                "addr:housenumber": "4",
                "addr:city:simc": 270604,
                "addr:street:sym_ul": 26363,
                "phone": "+48 413871090",
                "email": "baranteresa@wp.pl",
                "ref:regon": "290013070",
                "ref:vatin": "PL6562287820",
                "operator": "Gmina Sobk\u00f3w",
                "operator:type": "government",
                "amenity": "kindergarten"
            }
        },
        {
            "id": 11434,
            "type": "Feature",
            "geometry": {
                "type": "Point",
                "coordinates": [
                    20.375844,
                    50.7119779
                ]
            },
            "properties": {
                "ref:rspo": 11434,
                "official_name": "Przedszkole Samorz\u0105dowe w Mi\u0105sowej",
                "name": "Przedszkole Samorz\u0105dowe w Mi\u0105sowej",
                "addr:postcode": "28-305",
                "addr:place": "Mi\u0105sowa",
                "addr:housenumber": "5",
                "addr:city:simc": 270395,
                "phone": "+48 413873013",
                "email": "krystyna.cak@interia.pl",
                "ref:regon": "290013118",
                "ref:vatin": "PL6562287777",
                "operator": "Gmina Sobk\u00f3w",
                "operator:type": "government",
                "amenity": "kindergarten"
            }
        },
        {
            "id": 105472,
            "type": "Feature",
            "geometry": {
                "type": "Point",
                "coordinates": [
                    20.3816945,
                    50.7134935
                ]
            },
            "properties": {
                "isced:level": "1;2",
                "ref:rspo": 105472,
                "official_name": "Szko\u0142a Podstawowa w Mi\u0105sowej",
                "name": "Szko\u0142a Podstawowa w Mi\u0105sowej",
                "addr:postcode": "28-305",
                "addr:place": "Mi\u0105sowa",
                "addr:housenumber": "13B",
                "addr:city:simc": 270395,
                "phone": "+48 413873028",
                "email": "gimmiasowa@poczta.onet.pl",
                "website": "http:\/\/www.zpomiasowa.pl",
                "ref:regon": "001216972",
                "operator": "Gmina Sobk\u00f3w",
                "operator:type": "government",
                "amenity": "school"
            }
        },
        {
            "id": 22560,
            "type": "Feature",
            "geometry": {
                "type": "Point",
                "coordinates": [
                    20.4359116,
                    50.7274471
                ]
            },
            "properties": {
                "isced:level": "1;2",
                "ref:rspo": 22560,
                "official_name": "Szko\u0142a Podstawowa w Soko\u0142owie Dolnym",
                "name": "Szko\u0142a Podstawowa w Soko\u0142owie Dolnym",
                "addr:postcode": "28-305",
                "addr:place": "Soko\u0142\u00f3w Dolny",
                "addr:housenumber": "91",
                "addr:city:simc": 270610,
                "phone": "+48 413871033",
                "email": "spsokolow@wp.pl",
                "ref:regon": "001216966",
                "ref:vatin": "PL6562287872",
                "operator": "Gmina Sobk\u00f3w",
                "operator:type": "government",
                "amenity": "school"
            }
        },
        {
            "id": 23798,
            "type": "Feature",
            "geometry": {
                "type": "Point",
                "coordinates": [
                    20.401446,
                    50.7466419
                ]
            },
            "properties": {
                "ref:rspo": 23798,
                "official_name": "Zesp\u00f3\u0142 Plac\u00f3wek O\u015bwiatowych w Brzegach",
                "name": "Zesp\u00f3\u0142 Plac\u00f3wek O\u015bwiatowych w Brzegach",
                "addr:postcode": "28-305",
                "addr:place": "Brzegi",
                "addr:housenumber": "104",
                "addr:city:simc": 270194,
                "phone": "+48 413873016",
                "email": "zpobrzegi@wp.pl",
                "ref:regon": "260016896",
                "ref:vatin": "PL6562287760",
                "operator": "Gmina Sobk\u00f3w",
                "operator:type": "government",
                "landuse": "education",
                "fixme": "amenity=school, amenity=college albo landuse=education w zale\u017cno\u015bci od tego, jakie plac\u00f3wki wchodz\u0105 w sk\u0142ad zespo\u0142u. Sprawd\u017a, kiedy stosowa\u0107 amenity=* a kiedy landuse=education.",
                "note": "Children RSPO: 105590;111710"
            }
        },
        {
            "id": 105590,
            "type": "Feature",
            "geometry": {
                "type": "Point",
                "coordinates": [
                    20.401446,
                    50.7466119
                ]
            },
            "properties": {
                "isced:level": "1;2",
                "ref:rspo": 105590,
                "official_name": "Szko\u0142a Podstawowa w Zespole Plac\u00f3wek O\u015bwiatowych w Brzegach",
                "name": "Szko\u0142a Podstawowa w Zespole Plac\u00f3wek O\u015bwiatowych w Brzegach",
                "addr:postcode": "28-305",
                "addr:place": "Brzegi",
                "addr:housenumber": "104",
                "addr:city:simc": 270194,
                "phone": "+48 413873016",
                "email": "zpobrzegi@wp.pl",
                "ref:regon": "001217010",
                "operator": "Gmina Sobk\u00f3w",
                "operator:type": "government",
                "amenity": "school",
                "note": "Parent RSPO: 23798"
            }
        },
        {
            "id": 111710,
            "type": "Feature",
            "geometry": {
                "type": "Point",
                "coordinates": [
                    20.401446,
                    50.7465819
                ]
            },
            "properties": {
                "ref:rspo": 111710,
                "official_name": "Przedszkole Samorz\u0105dowe w Zespole Plac\u00f3wek O\u015bwiatowych w Brzegach",
                "name": "Przedszkole Samorz\u0105dowe w Zespole Plac\u00f3wek O\u015bwiatowych w Brzegach",
                "addr:postcode": "28-305",
                "addr:place": "Brzegi",
                "addr:housenumber": "104",
                "addr:city:simc": 270194,
                "phone": "+48 413873016",
                "email": "zpobrzegi@wp.pl",
                "ref:regon": "290013101",
                "operator": "Gmina Sobk\u00f3w",
                "operator:type": "government",
                "amenity": "kindergarten",
                "note": "Parent RSPO: 23798"
            }
        }
    ]
}