{
    "type": "FeatureCollection",
    "features": [
        {
            "id": 7974,
            "type": "Feature",
            "geometry": {
                "type": "Point",
                "coordinates": [
                    20.3297387,
                    50.4817779
                ]
            },
            "properties": {
                "isced:level": "1;2",
                "ref:rspo": 7974,
                "official_name": "Samorz\u0105dowa Szko\u0142a Podstawowa im. Adama Mickiewicza w Lubczy",
                "name": "Samorz\u0105dowa Szko\u0142a Podstawowa",
                "addr:postcode": "28-330",
                "addr:place": "Lubcza",
                "addr:housenumber": "83",
                "addr:city:simc": 279077,
                "phone": "+48 413805140",
                "email": "ssplubcza@interklasa.pl",
                "website": "http:\/\/www.ssplubcza.szkolnastrona.pl",
                "ref:regon": "001218190",
                "ref:vatin": "PL6562094104",
                "operator": "Gmina Wodzis\u0142aw",
                "operator:type": "government",
                "amenity": "school"
            }
        },
        {
            "id": 7973,
            "type": "Feature",
            "geometry": {
                "type": "Point",
                "coordinates": [
                    20.143652,
                    50.514854
                ]
            },
            "properties": {
                "isced:level": "1;2",
                "ref:rspo": 7973,
                "official_name": "Samorz\u0105dowa Szko\u0142a Podstawowa im. Jana Paw\u0142a II w Brze\u015bciu",
                "name": "Samorz\u0105dowa Szko\u0142a Podstawowa",
                "addr:postcode": "28-330",
                "addr:place": "Brze\u015bcie",
                "addr:housenumber": "1",
                "addr:city:simc": 278824,
                "phone": "+48 413806243",
                "email": "sspbrzescie@op.pl",
                "ref:regon": "001218209",
                "ref:vatin": "PL6562094110",
                "operator": "Gmina Wodzis\u0142aw",
                "operator:type": "government",
                "amenity": "school"
            }
        },
        {
            "id": 7977,
            "type": "Feature",
            "geometry": {
                "type": "Point",
                "coordinates": [
                    20.242434,
                    50.5176159
                ]
            },
            "properties": {
                "isced:level": "1;2",
                "ref:rspo": 7977,
                "official_name": "Szko\u0142a Podstawowa \u201ePomnik Tysi\u0105clecia\u201d im. Partyzant\u00f3w Ziemi Kieleckiej w Piotrkowicach",
                "name": "Szko\u0142a Podstawowa \u201ePomnik Tysi\u0105clecia\u201d",
                "addr:postcode": "28-330",
                "addr:place": "Piotrkowice",
                "addr:housenumber": "41",
                "addr:city:simc": 279396,
                "phone": "+48 413805122",
                "email": "sppiotrkowice@poczta.wp.pl",
                "website": "http:\/\/www.sppiotrkowice.civ.pl",
                "ref:regon": "260629104",
                "ref:vatin": "PL6562094096",
                "operator": "Stowarzyszenie \"Nasze Dzieci\" W Piotrkowicach",
                "operator:type": "ngo",
                "amenity": "school"
            }
        },
        {
            "id": 21029,
            "type": "Feature",
            "geometry": {
                "type": "Point",
                "coordinates": [
                    20.18919,
                    50.51804
                ]
            },
            "properties": {
                "isced:level": "1;2",
                "ref:rspo": 21029,
                "official_name": "Samorz\u0105dowa Szko\u0142a Podstawowa im. Wojska Polskiego w Wodzis\u0142awiu",
                "name": "Samorz\u0105dowa Szko\u0142a Podstawowa",
                "addr:postcode": "28-330",
                "addr:city": "Wodzis\u0142aw",
                "addr:street": "Szkolna",
                "addr:housenumber": "4",
                "addr:city:simc": 279686,
                "addr:street:sym_ul": 21970,
                "phone": "+48 413806039",
                "email": "sekretariat@spwodzislaw.pl",
                "website": "https:\/\/www.spwodzislaw.pl\/",
                "ref:regon": "000273293",
                "ref:vatin": "PL6562094127",
                "operator": "Gmina Wodzis\u0142aw",
                "operator:type": "government",
                "amenity": "school"
            }
        },
        {
            "id": 48314,
            "type": "Feature",
            "geometry": {
                "type": "Point",
                "coordinates": [
                    20.18919,
                    50.51801
                ]
            },
            "properties": {
                "ref:rspo": 48314,
                "official_name": "Zesp\u00f3\u0142 Szk\u00f3\u0142 w Wodzis\u0142awiu",
                "name": "Zesp\u00f3\u0142 Szk\u00f3\u0142 w Wodzis\u0142awiu",
                "addr:postcode": "28-330",
                "addr:city": "Wodzis\u0142aw",
                "addr:street": "Szkolna",
                "addr:housenumber": "4",
                "addr:city:simc": 279686,
                "addr:street:sym_ul": 21970,
                "phone": "+48 413806018",
                "email": "zspwodzislaw@poczta.onet.pl",
                "website": "http:\/\/www.liceumwodzislaw.pl",
                "ref:regon": "292444006",
                "ref:vatin": "PL6561857876",
                "operator": "Powiat J\u0119drzejowski",
                "operator:type": "government",
                "landuse": "education",
                "fixme": "amenity=school, amenity=college albo landuse=education w zale\u017cno\u015bci od tego, jakie plac\u00f3wki wchodz\u0105 w sk\u0142ad zespo\u0142u. Sprawd\u017a, kiedy stosowa\u0107 amenity=* a kiedy landuse=education.",
                "note": "Children RSPO: 69499;69836;123991"
            }
        },
        {
            "id": 69499,
            "type": "Feature",
            "geometry": {
                "type": "Point",
                "coordinates": [
                    20.18919,
                    50.51798
                ]
            },
            "properties": {
                "isced:level": "3",
                "ref:rspo": 69499,
                "official_name": "Liceum Og\u00f3lnokszta\u0142c\u0105ce im. Marii Konopnickiej w Wodzis\u0142awiu",
                "name": "Liceum Og\u00f3lnokszta\u0142c\u0105ce",
                "addr:postcode": "28-330",
                "addr:city": "Wodzis\u0142aw",
                "addr:street": "Szkolna",
                "addr:housenumber": "4",
                "addr:city:simc": 279686,
                "addr:street:sym_ul": 21970,
                "phone": "+48 413806018",
                "email": "zspwodzislaw@poczta.onet.pl",
                "website": "http:\/\/www.liceumwodzislaw.pl",
                "ref:regon": "000230993",
                "operator": "Powiat J\u0119drzejowski",
                "operator:type": "government",
                "amenity": "school",
                "note": "Parent RSPO: 48314"
            }
        },
        {
            "id": 123991,
            "type": "Feature",
            "geometry": {
                "type": "Point",
                "coordinates": [
                    20.18919,
                    50.51795
                ]
            },
            "properties": {
                "isced:level": "4",
                "ref:rspo": 123991,
                "official_name": "Szko\u0142a Policealna w Wodzis\u0142awiu",
                "name": "Szko\u0142a Policealna w Wodzis\u0142awiu",
                "addr:postcode": "28-330",
                "addr:city": "Wodzis\u0142aw",
                "addr:street": "Szkolna",
                "addr:housenumber": "4",
                "addr:city:simc": 279686,
                "addr:street:sym_ul": 21970,
                "phone": "+48 413806018",
                "email": "zspwodzislaw@poczta.onet.pl",
                "website": "http:\/\/www.liceumwodzislaw.pl",
                "ref:regon": "260787398",
                "operator": "Powiat J\u0119drzejowski",
                "operator:type": "government",
                "amenity": "college",
                "note": "Parent RSPO: 48314"
            }
        },
        {
            "id": 7865,
            "type": "Feature",
            "geometry": {
                "type": "Point",
                "coordinates": [
                    20.18869,
                    50.51871
                ]
            },
            "properties": {
                "ref:rspo": 7865,
                "official_name": "Przedszkole Samorz\u0105dowe w Wodzis\u0142awiu",
                "name": "Przedszkole Samorz\u0105dowe w Wodzis\u0142awiu",
                "addr:postcode": "28-330",
                "addr:city": "Wodzis\u0142aw",
                "addr:street": "Szkolna",
                "addr:housenumber": "3",
                "addr:city:simc": 279686,
                "addr:street:sym_ul": 21970,
                "phone": "+48 413806317",
                "email": "przedszkolesam@onet.eu",
                "ref:regon": "290012857",
                "ref:vatin": "PL6562094133",
                "operator": "Gmina Wodzis\u0142aw",
                "operator:type": "government",
                "amenity": "kindergarten"
            }
        },
        {
            "id": 69836,
            "type": "Feature",
            "geometry": {
                "type": "Point",
                "coordinates": [
                    20.18869,
                    50.518679999999996
                ]
            },
            "properties": {
                "ref:rspo": 69836,
                "official_name": "Szkolne Schronisko M\u0142odzie\u017cowe w Wodzis\u0142awiu",
                "name": "Szkolne Schronisko M\u0142odzie\u017cowe w Wodzis\u0142awiu",
                "addr:postcode": "28-330",
                "addr:city": "Wodzis\u0142aw",
                "addr:street": "Szkolna",
                "addr:housenumber": "3",
                "addr:city:simc": 279686,
                "addr:street:sym_ul": 21970,
                "phone": "+48 413806073",
                "email": "zspwodzislaw@poczta.onet.pl",
                "website": "http:\/\/www.liceumwodzislaw.pl",
                "ref:regon": "260407467",
                "operator": "Powiat J\u0119drzejowski",
                "operator:type": "government",
                "tourism": "hostel",
                "note": "Parent RSPO: 48314"
            }
        },
        {
            "id": 7976,
            "type": "Feature",
            "geometry": {
                "type": "Point",
                "coordinates": [
                    20.3114442,
                    50.5236064
                ]
            },
            "properties": {
                "isced:level": "1;2",
                "ref:rspo": 7976,
                "official_name": "Szko\u0142a Podstawowa w Niegos\u0142awicach",
                "name": "Szko\u0142a Podstawowa w Niegos\u0142awicach",
                "addr:postcode": "28-330",
                "addr:place": "Niegos\u0142awice",
                "addr:housenumber": "85",
                "addr:city:simc": 279290,
                "phone": "+48 413805101",
                "email": "spniegoslawice@op.pl",
                "ref:regon": "260629096",
                "ref:vatin": "PL6562094073",
                "operator": "Stowarzyszenie \"Rodzice - Dzieciom\"",
                "operator:type": "ngo",
                "amenity": "school"
            }
        },
        {
            "id": 7975,
            "type": "Feature",
            "geometry": {
                "type": "Point",
                "coordinates": [
                    20.2308589,
                    50.5696149
                ]
            },
            "properties": {
                "isced:level": "1;2",
                "ref:rspo": 7975,
                "official_name": "Szko\u0142a Podstawowa im. Jednostki Ziemi Kieleckiej w Mierzawie",
                "name": "Szko\u0142a Podstawowa",
                "addr:postcode": "28-330",
                "addr:place": "Mierzawa",
                "addr:housenumber": "21",
                "addr:city:simc": 279203,
                "phone": "+48 413807117",
                "email": "sspmierzawa@poczta.onet.pl",
                "ref:regon": "260629067",
                "ref:vatin": "PL6562094067",
                "operator": "Stowarzyszenie \"Radosna Szko\u0142a\"",
                "operator:type": "ngo",
                "amenity": "school"
            }
        }
    ]
}