{
    "type": "FeatureCollection",
    "features": [
        {
            "id": 60257,
            "type": "Feature",
            "geometry": {
                "type": "Point",
                "coordinates": [
                    20.245893,
                    50.7509469
                ]
            },
            "properties": {
                "ref:rspo": 60257,
                "official_name": "Zesp\u00f3\u0142 Plac\u00f3wek O\u015bwiatowych w Z\u0142otnikach",
                "name": "Zesp\u00f3\u0142 Plac\u00f3wek O\u015bwiatowych w Z\u0142otnikach",
                "addr:postcode": "28-366",
                "addr:place": "Z\u0142otniki",
                "addr:housenumber": "66A",
                "addr:city:simc": 249627,
                "phone": "+48 413853704",
                "email": "sekretariat@zpozlotniki.pl",
                "ref:regon": "260644598",
                "ref:vatin": "PL6562329487",
                "operator": "Gmina Ma\u0142ogoszcz",
                "operator:type": "government",
                "landuse": "education",
                "fixme": "amenity=school, amenity=college albo landuse=education w zale\u017cno\u015bci od tego, jakie plac\u00f3wki wchodz\u0105 w sk\u0142ad zespo\u0142u. Sprawd\u017a, kiedy stosowa\u0107 amenity=* a kiedy landuse=education.",
                "note": "Children RSPO: 90720;90923"
            }
        },
        {
            "id": 90720,
            "type": "Feature",
            "geometry": {
                "type": "Point",
                "coordinates": [
                    20.245893,
                    50.7509169
                ]
            },
            "properties": {
                "isced:level": "1;2",
                "ref:rspo": 90720,
                "official_name": "Szko\u0142a Podstawowa w Z\u0142otnikach",
                "name": "Szko\u0142a Podstawowa w Z\u0142otnikach",
                "addr:postcode": "28-366",
                "addr:place": "Z\u0142otniki",
                "addr:housenumber": "66 A",
                "addr:city:simc": 249627,
                "phone": "+48 413853704",
                "email": "sekretariat@zpozlotniki.pl",
                "ref:regon": "001217581",
                "ref:vatin": "PL6561857681",
                "operator": "Gmina Ma\u0142ogoszcz",
                "operator:type": "government",
                "amenity": "school",
                "note": "Parent RSPO: 60257"
            }
        },
        {
            "id": 90923,
            "type": "Feature",
            "geometry": {
                "type": "Point",
                "coordinates": [
                    20.245893,
                    50.750886900000005
                ]
            },
            "properties": {
                "ref:rspo": 90923,
                "official_name": "Przedszkole Publiczne w Z\u0142otnikach",
                "name": "Przedszkole Publiczne w Z\u0142otnikach",
                "addr:postcode": "28-366",
                "addr:place": "Z\u0142otniki",
                "addr:housenumber": "66 A",
                "addr:city:simc": 249627,
                "phone": "+48 413853704",
                "email": "sekretariat@zpozlotniki.pl",
                "ref:regon": "290013644",
                "ref:vatin": "PL6561599061",
                "operator": "Gmina Ma\u0142ogoszcz",
                "operator:type": "government",
                "amenity": "kindergarten",
                "note": "Parent RSPO: 60257"
            }
        },
        {
            "id": 90714,
            "type": "Feature",
            "geometry": {
                "type": "Point",
                "coordinates": [
                    20.2974189,
                    50.7606899
                ]
            },
            "properties": {
                "isced:level": "1;2",
                "ref:rspo": 90714,
                "official_name": "Szko\u0142a Podstawowa im. Bohater\u00f3w Monte Cassino w Rembieszycach",
                "name": "Szko\u0142a Podstawowa",
                "addr:postcode": "28-366",
                "addr:place": "Rembieszyce",
                "addr:housenumber": "10",
                "addr:city:simc": 249461,
                "phone": "+48 413853718",
                "email": "sprem1@wp.pl",
                "website": "https:\/\/sprembieszyce.superszkolna.pl\/",
                "ref:regon": "001217552",
                "ref:vatin": "PL6561542517",
                "operator": "Gmina Ma\u0142ogoszcz",
                "operator:type": "government",
                "amenity": "school"
            }
        },
        {
            "id": 56426,
            "type": "Feature",
            "geometry": {
                "type": "Point",
                "coordinates": [
                    20.215794,
                    50.7923629
                ]
            },
            "properties": {
                "ref:rspo": 56426,
                "official_name": "Zesp\u00f3\u0142 Plac\u00f3wek O\u015bwiatowych w \u017barczycach Du\u017cych",
                "name": "Zesp\u00f3\u0142 Plac\u00f3wek O\u015bwiatowych w \u017barczycach Du\u017cych",
                "addr:postcode": "28-366",
                "addr:place": "\u017barczyce Du\u017ce",
                "addr:housenumber": "29",
                "addr:city:simc": 249679,
                "phone": "+48 413855746",
                "email": "zarczycesp@interia.pl",
                "ref:regon": "260251663",
                "ref:vatin": "PL6562340193",
                "operator": "Gmina Ma\u0142ogoszcz",
                "operator:type": "government",
                "landuse": "education",
                "fixme": "amenity=school, amenity=college albo landuse=education w zale\u017cno\u015bci od tego, jakie plac\u00f3wki wchodz\u0105 w sk\u0142ad zespo\u0142u. Sprawd\u017a, kiedy stosowa\u0107 amenity=* a kiedy landuse=education.",
                "note": "Children RSPO: 56607;90945"
            }
        },
        {
            "id": 56607,
            "type": "Feature",
            "geometry": {
                "type": "Point",
                "coordinates": [
                    20.215794,
                    50.7923329
                ]
            },
            "properties": {
                "isced:level": "1;2",
                "ref:rspo": 56607,
                "official_name": "Szko\u0142a Podstawowa im. Ks. Stanis\u0142awa Hieronima Konarskiego w \u017barczycach Du\u017cych",
                "name": "Szko\u0142a Podstawowa",
                "addr:postcode": "28-366",
                "addr:place": "\u017barczyce Du\u017ce",
                "addr:housenumber": "29",
                "addr:city:simc": 249679,
                "phone": "+48 413855746",
                "email": "zarczycesp@interia.pl",
                "ref:regon": "001217836",
                "ref:vatin": "PL6561541498",
                "operator": "Gmina Ma\u0142ogoszcz",
                "operator:type": "government",
                "amenity": "school",
                "note": "Parent RSPO: 56426"
            }
        },
        {
            "id": 90945,
            "type": "Feature",
            "geometry": {
                "type": "Point",
                "coordinates": [
                    20.215794,
                    50.7923029
                ]
            },
            "properties": {
                "ref:rspo": 90945,
                "official_name": "Przedszkole Publiczne w \u017barczycach Du\u017cych",
                "name": "Przedszkole Publiczne w \u017barczycach Du\u017cych",
                "addr:postcode": "28-366",
                "addr:place": "\u017barczyce Du\u017ce",
                "addr:housenumber": "29",
                "addr:city:simc": 249679,
                "phone": "+48 413855720",
                "email": "zarczycesp@interia.pl",
                "website": "http:\/\/spzarczyce.szkolnastrona.pl",
                "ref:regon": "290013638",
                "ref:vatin": "PL6561855788",
                "operator": "Gmina Ma\u0142ogoszcz",
                "operator:type": "government",
                "amenity": "kindergarten",
                "note": "Parent RSPO: 56426"
            }
        },
        {
            "id": 57270,
            "type": "Feature",
            "geometry": {
                "type": "Point",
                "coordinates": [
                    20.27046,
                    50.80801
                ]
            },
            "properties": {
                "ref:rspo": 57270,
                "official_name": "Zesp\u00f3\u0142 Szk\u00f3\u0142 Og\u00f3lnokszta\u0142c\u0105cych w Ma\u0142ogoszczu",
                "name": "Zesp\u00f3\u0142 Szk\u00f3\u0142 Og\u00f3lnokszta\u0142c\u0105cych w Ma\u0142ogoszczu",
                "addr:postcode": "28-366",
                "addr:city": "Ma\u0142ogoszcz",
                "addr:street": "11 Listopada",
                "addr:housenumber": "14b",
                "addr:city:simc": 249343,
                "addr:street:sym_ul": 11205,
                "phone": "+48 413855376",
                "email": "spmalogoszcz@interia.pl",
                "ref:regon": "260042451",
                "ref:vatin": "PL6562289055",
                "operator": "Gmina Ma\u0142ogoszcz",
                "operator:type": "government",
                "landuse": "education",
                "fixme": "amenity=school, amenity=college albo landuse=education w zale\u017cno\u015bci od tego, jakie plac\u00f3wki wchodz\u0105 w sk\u0142ad zespo\u0142u. Sprawd\u017a, kiedy stosowa\u0107 amenity=* a kiedy landuse=education.",
                "note": "Children RSPO: 90748;90818;90880"
            }
        },
        {
            "id": 90748,
            "type": "Feature",
            "geometry": {
                "type": "Point",
                "coordinates": [
                    20.27046,
                    50.80798
                ]
            },
            "properties": {
                "isced:level": "1;2",
                "ref:rspo": 90748,
                "official_name": "Szko\u0142a Podstawowa im. 24 Lutego 1863 R. w Ma\u0142ogoszczu",
                "name": "Szko\u0142a Podstawowa",
                "addr:postcode": "28-366",
                "addr:city": "Ma\u0142ogoszcz",
                "addr:street": "11 Listopada",
                "addr:housenumber": "14b",
                "addr:city:simc": 249343,
                "addr:street:sym_ul": 11205,
                "phone": "+48 413855376",
                "email": "spmalogoszcz@interia.pl",
                "ref:regon": "000558601",
                "ref:vatin": "PL6561540091",
                "operator": "Gmina Ma\u0142ogoszcz",
                "operator:type": "government",
                "amenity": "school",
                "note": "Parent RSPO: 57270"
            }
        },
        {
            "id": 90818,
            "type": "Feature",
            "geometry": {
                "type": "Point",
                "coordinates": [
                    20.27046,
                    50.807950000000005
                ]
            },
            "properties": {
                "isced:level": "3",
                "ref:rspo": 90818,
                "official_name": "Liceum Og\u00f3lnokszta\u0142c\u0105ce im. Bohater\u00f3w Powstania Styczniowego w Ma\u0142ogoszczu",
                "name": "Liceum Og\u00f3lnokszta\u0142c\u0105ce",
                "addr:postcode": "28-366",
                "addr:city": "Ma\u0142ogoszcz",
                "addr:street": "11 Listopada",
                "addr:housenumber": "14b",
                "addr:city:simc": 249343,
                "addr:street:sym_ul": 11205,
                "phone": "+48 413855470",
                "email": "lomalogoszcz@poczta.onet.pl",
                "ref:regon": "290027793",
                "ref:vatin": "PL6561541601",
                "operator": "Gmina Ma\u0142ogoszcz",
                "operator:type": "government",
                "amenity": "school",
                "note": "Parent RSPO: 57270"
            }
        },
        {
            "id": 90880,
            "type": "Feature",
            "geometry": {
                "type": "Point",
                "coordinates": [
                    20.27046,
                    50.80792
                ]
            },
            "properties": {
                "isced:level": "3",
                "ref:rspo": 90880,
                "official_name": "Liceum Og\u00f3lnokszta\u0142c\u0105ce dla Doros\u0142ych w Ma\u0142ogoszczu",
                "name": "Liceum Og\u00f3lnokszta\u0142c\u0105ce dla Doros\u0142ych w Ma\u0142ogoszczu",
                "addr:postcode": "28-366",
                "addr:city": "Ma\u0142ogoszcz",
                "addr:street": "11 Listopada",
                "addr:housenumber": "14b",
                "addr:city:simc": 249343,
                "addr:street:sym_ul": 11205,
                "phone": "+48 413855470",
                "email": "lomalogoszcz@poczta.onet.pl",
                "ref:regon": "260252094",
                "operator": "Gmina Ma\u0142ogoszcz",
                "operator:type": "government",
                "amenity": "school",
                "note": "Parent RSPO: 57270"
            }
        },
        {
            "id": 55668,
            "type": "Feature",
            "geometry": {
                "type": "Point",
                "coordinates": [
                    20.26637,
                    50.80987
                ]
            },
            "properties": {
                "ref:rspo": 55668,
                "official_name": "Przedszkole Publiczne w Ma\u0142ogoszczu",
                "name": "Przedszkole Publiczne w Ma\u0142ogoszczu",
                "addr:postcode": "28-366",
                "addr:city": "Ma\u0142ogoszcz",
                "addr:street": "S\u0142oneczna",
                "addr:housenumber": "18",
                "addr:city:simc": 249343,
                "addr:street:sym_ul": 20254,
                "phone": "+48 413855442",
                "email": "przedszkolemalogoszcz@gmail.com",
                "ref:regon": "290013615",
                "ref:vatin": "PL6561542049",
                "operator": "Gmina Ma\u0142ogoszcz",
                "operator:type": "government",
                "amenity": "kindergarten"
            }
        },
        {
            "id": 17014,
            "type": "Feature",
            "geometry": {
                "type": "Point",
                "coordinates": [
                    20.26379,
                    50.81111
                ]
            },
            "properties": {
                "ref:rspo": 17014,
                "official_name": "Niepubliczne Przedszkole \u201eT\u0119cza\u201d",
                "name": "Niepubliczne Przedszkole \u201eT\u0119cza\u201d",
                "addr:postcode": "28-366",
                "addr:city": "Ma\u0142ogoszcz",
                "addr:street": "J\u0119drzejowska",
                "addr:housenumber": "15",
                "addr:city:simc": 249343,
                "addr:street:sym_ul": 7573,
                "phone": "+48 603516012",
                "email": "teczamalogoszcz@gmail.com",
                "ref:regon": "260634170",
                "operator": "Jadwiga \u015awierczy\u0144ska",
                "operator:type": "private",
                "amenity": "kindergarten"
            }
        },
        {
            "id": 277002,
            "type": "Feature",
            "geometry": {
                "type": "Point",
                "coordinates": [
                    20.26394,
                    50.81225
                ]
            },
            "properties": {
                "ref:rspo": 277002,
                "official_name": "Niepubliczna Poradnia Psychologiczno-Pedagogiczna w Ma\u0142ogoszczu",
                "name": "Niepubliczna Poradnia Psychologiczno-Pedagogiczna w Ma\u0142ogoszczu",
                "addr:postcode": "28-366",
                "addr:city": "Ma\u0142ogoszcz",
                "addr:street": "Plac Ko\u015bciuszki",
                "addr:housenumber": "16",
                "addr:city:simc": 249343,
                "addr:street:sym_ul": 33607,
                "phone": "+48 603305237",
                "email": "irenkas81@interia.pl",
                "website": "http:\/\/www.centrumterapiimowymalogoszcz.pl",
                "ref:regon": "387982813",
                "operator": "Irena St\u0119pie\u0144",
                "operator:type": "private",
                "healthcare": "counselling",
                "counselling_type": "education",
                "fixme": "w zale\u017cno\u015bci od przedmiotu dzia\u0142alno\u015bci (np. healthcare=counselling + counselling_type=education albo healthcare=psychotherapist)"
            }
        },
        {
            "id": 90699,
            "type": "Feature",
            "geometry": {
                "type": "Point",
                "coordinates": [
                    20.164158,
                    50.8254699
                ]
            },
            "properties": {
                "ref:rspo": 90699,
                "official_name": "Przedszkole Publiczne w Koz\u0142owie",
                "name": "Przedszkole Publiczne w Koz\u0142owie",
                "addr:postcode": "28-366",
                "addr:place": "Koz\u0142\u00f3w",
                "addr:housenumber": "1",
                "addr:city:simc": 249107,
                "phone": "+48 413876112",
                "email": "ppkozlow@op.pl",
                "website": "http:\/\/ppkozlow1.superszkolna.pl",
                "ref:regon": "290013621",
                "ref:vatin": "PL6561857652",
                "operator": "Gmina Ma\u0142ogoszcz",
                "operator:type": "government",
                "amenity": "kindergarten",
                "note": "Parent RSPO: 272583"
            }
        },
        {
            "id": 272583,
            "type": "Feature",
            "geometry": {
                "type": "Point",
                "coordinates": [
                    20.1641829,
                    50.825924
                ]
            },
            "properties": {
                "ref:rspo": 272583,
                "official_name": "Zesp\u00f3\u0142 Plac\u00f3wek O\u015bwiatowych w Koz\u0142owie",
                "name": "Zesp\u00f3\u0142 Plac\u00f3wek O\u015bwiatowych w Koz\u0142owie",
                "addr:postcode": "28-366",
                "addr:place": "Koz\u0142\u00f3w",
                "addr:housenumber": "182",
                "addr:city:simc": 249107,
                "phone": "+48 413876112",
                "email": "spkozlow182@op.pl",
                "ref:regon": "384266128",
                "ref:vatin": "PL6562339652",
                "operator": "Gmina Ma\u0142ogoszcz",
                "operator:type": "government",
                "landuse": "education",
                "fixme": "amenity=school, amenity=college albo landuse=education w zale\u017cno\u015bci od tego, jakie plac\u00f3wki wchodz\u0105 w sk\u0142ad zespo\u0142u. Sprawd\u017a, kiedy stosowa\u0107 amenity=* a kiedy landuse=education.",
                "note": "Children RSPO: 73312;90699"
            }
        },
        {
            "id": 73312,
            "type": "Feature",
            "geometry": {
                "type": "Point",
                "coordinates": [
                    20.1641829,
                    50.825894
                ]
            },
            "properties": {
                "isced:level": "1;2",
                "ref:rspo": 73312,
                "official_name": "Szko\u0142a Podstawowa w Koz\u0142owie",
                "name": "Szko\u0142a Podstawowa w Koz\u0142owie",
                "addr:postcode": "28-366",
                "addr:place": "Koz\u0142\u00f3w",
                "addr:housenumber": "182",
                "addr:city:simc": 249107,
                "phone": "+48 413876112",
                "email": "spkozlow182@op.pl",
                "website": "http:\/\/www.spkozlow.szkolna.net",
                "ref:regon": "001217575",
                "ref:vatin": "PL6561542339",
                "operator": "Gmina Ma\u0142ogoszcz",
                "operator:type": "government",
                "amenity": "school",
                "note": "Parent RSPO: 272583"
            }
        }
    ]
}