{
    "type": "FeatureCollection",
    "features": [
        {
            "id": 57101,
            "type": "Feature",
            "geometry": {
                "type": "Point",
                "coordinates": [
                    20.31186,
                    50.592855
                ]
            },
            "properties": {
                "isced:level": "1;2",
                "ref:rspo": 57101,
                "official_name": "Szko\u0142a Podstawowa w \u0141ysakowie",
                "name": "Szko\u0142a Podstawowa w \u0141ysakowie",
                "addr:country": "PL",
                "addr:postcode": "28-300",
                "addr:place": "\u0141ysak\u00f3w Drugi",
                "addr:housenumber": "44b",
                "addr:teryt:simc": 240425,
                "contact:phone": "+48 413857421",
                "contact:email": "splysakow@op.pl",
                "contact:website": "http:\/\/splysakow.edupage.org",
                "ref:regon": "000733406",
                "ref:vatin": "PL6561777367",
                "operator": "Gmina J\u0119drzej\u00f3w",
                "operator:type": "government",
                "amenity": "school"
            }
        },
        {
            "id": 57650,
            "type": "Feature",
            "geometry": {
                "type": "Point",
                "coordinates": [
                    20.229703,
                    50.6041679
                ]
            },
            "properties": {
                "isced:level": "1;2",
                "ref:rspo": 57650,
                "official_name": "Szko\u0142a Podstawowa w Potoku Wielkim",
                "name": "Szko\u0142a Podstawowa w Potoku Wielkim",
                "addr:country": "PL",
                "addr:postcode": "28-300",
                "addr:place": "Potok Wielki",
                "addr:housenumber": "9",
                "addr:teryt:simc": 240655,
                "contact:phone": "+48 413817799",
                "contact:email": "sppotokwielki@o2.pl",
                "contact:website": "http:\/\/www.sppotokwielki.szkolnastrona.pl",
                "ref:regon": "000733056",
                "ref:vatin": "PL6561777321",
                "operator": "Gmina J\u0119drzej\u00f3w",
                "operator:type": "government",
                "amenity": "school"
            }
        },
        {
            "id": 92949,
            "type": "Feature",
            "geometry": {
                "type": "Point",
                "coordinates": [
                    20.263136,
                    50.627918
                ]
            },
            "properties": {
                "ref:rspo": 92949,
                "official_name": "Zesp\u00f3\u0142 Plac\u00f3wek O\u015bwiatowych w Skroniowie",
                "name": "Zesp\u00f3\u0142 Plac\u00f3wek O\u015bwiatowych w Skroniowie",
                "addr:country": "PL",
                "addr:postcode": "28-300",
                "addr:place": "Skroni\u00f3w",
                "addr:housenumber": "75",
                "addr:teryt:simc": 240862,
                "contact:phone": "+48 413862222",
                "contact:email": "zposkroniow@wp.pl",
                "contact:website": "http:\/\/zposkroniow.edupage.org",
                "ref:regon": "260654102",
                "operator": "Gmina J\u0119drzej\u00f3w",
                "operator:type": "government",
                "landuse": "education",
                "fixme": "amenity=school, amenity=college albo landuse=education w zale\u017cno\u015bci od tego, jakie plac\u00f3wki wchodz\u0105 w sk\u0142ad zespo\u0142u. Sprawd\u017a, kiedy stosowa\u0107 amenity=* a kiedy landuse=education.",
                "note": "Children RSPO: 57656;57664"
            }
        },
        {
            "id": 57656,
            "type": "Feature",
            "geometry": {
                "type": "Point",
                "coordinates": [
                    20.263136,
                    50.627888
                ]
            },
            "properties": {
                "isced:level": "1;2",
                "ref:rspo": 57656,
                "official_name": "Szko\u0142a Podstawowa im. Roalda Amundsena w Skroniowie",
                "name": "Szko\u0142a Podstawowa",
                "addr:country": "PL",
                "addr:postcode": "28-300",
                "addr:place": "Skroni\u00f3w",
                "addr:housenumber": "75",
                "addr:teryt:simc": 240862,
                "contact:phone": "+48 413862222",
                "contact:email": "zposkroniow@wp.pl",
                "ref:regon": "000733091",
                "ref:vatin": "PL6561777290",
                "operator": "Gmina J\u0119drzej\u00f3w",
                "operator:type": "government",
                "amenity": "school",
                "note": "Parent RSPO: 92949"
            }
        },
        {
            "id": 57664,
            "type": "Feature",
            "geometry": {
                "type": "Point",
                "coordinates": [
                    20.263136,
                    50.627858
                ]
            },
            "properties": {
                "ref:rspo": 57664,
                "official_name": "Przedszkole w Skroniowie",
                "name": "Przedszkole w Skroniowie",
                "addr:country": "PL",
                "addr:postcode": "28-300",
                "addr:place": "Skroni\u00f3w",
                "addr:housenumber": "75",
                "addr:teryt:simc": 240862,
                "contact:phone": "+48 413862222",
                "contact:email": "zposkroniow@wp.pl",
                "ref:regon": "290015206",
                "ref:vatin": "PL6561777226",
                "operator": "Gmina J\u0119drzej\u00f3w",
                "operator:type": "government",
                "amenity": "kindergarten",
                "note": "Parent RSPO: 92949"
            }
        },
        {
            "id": 57099,
            "type": "Feature",
            "geometry": {
                "type": "Point",
                "coordinates": [
                    20.4032801,
                    50.629315
                ]
            },
            "properties": {
                "isced:level": "1;2",
                "ref:rspo": 57099,
                "official_name": "Szko\u0142a Podstawowa w Jasionnie",
                "name": "Szko\u0142a Podstawowa w Jasionnie",
                "addr:country": "PL",
                "addr:postcode": "28-300",
                "addr:place": "Jasionna",
                "addr:housenumber": "8",
                "addr:teryt:simc": 240260,
                "contact:phone": "+48 413851096",
                "contact:email": "jasionna@o2.pl",
                "ref:regon": "000733398",
                "ref:vatin": "PL6561777373",
                "operator": "Gmina J\u0119drzej\u00f3w",
                "operator:type": "government",
                "amenity": "school"
            }
        },
        {
            "id": 273805,
            "type": "Feature",
            "geometry": {
                "type": "Point",
                "coordinates": [
                    20.26315,
                    50.63464
                ]
            },
            "properties": {
                "ref:rspo": 273805,
                "official_name": "\"Zaczarowany Ogr\u00f3d Montessori\" Niepubliczne Przedszkole Zdzis\u0142awa Nyk",
                "name": "\"Zaczarowany Ogr\u00f3d Montessori\" Niepubliczne Przedszkole Zdzis\u0142awa Nyk",
                "addr:country": "PL",
                "addr:postcode": "28-300",
                "addr:city": "J\u0119drzej\u00f3w",
                "addr:street": "Adolfa Dygasi\u0144skiego",
                "addr:housenumber": "126",
                "addr:teryt:simc": 947030,
                "addr:teryt:sym_ul": 4493,
                "contact:phone": "+48 510220070",
                "contact:email": "kontakt@przedszkolejedrzejow.pl",
                "contact:website": "http:\/\/przedszkolejedrzejow.pl\/",
                "ref:regon": "384673187",
                "operator": "Zdzis\u0142awa Nyk",
                "operator:type": "private",
                "amenity": "kindergarten"
            }
        },
        {
            "id": 74428,
            "type": "Feature",
            "geometry": {
                "type": "Point",
                "coordinates": [
                    20.30158,
                    50.63888
                ]
            },
            "properties": {
                "isced:level": "1;2",
                "ref:rspo": 74428,
                "official_name": "Szko\u0142a Podstawowa Specjalna Nr 1 w J\u0119drzejowie",
                "name": "Szko\u0142a Podstawowa Specjalna Nr 1 w J\u0119drzejowie",
                "addr:country": "PL",
                "addr:postcode": "28-300",
                "addr:city": "J\u0119drzej\u00f3w",
                "addr:street": "Feliksa Przypkowskiego",
                "addr:housenumber": "5",
                "addr:teryt:simc": 947030,
                "addr:teryt:sym_ul": 17972,
                "contact:phone": "+48 413861978",
                "contact:email": "sekretariat@soswjedrzejow.pl",
                "contact:website": "http:\/\/www.soswjedrzejow.pl",
                "ref:regon": "292434440",
                "operator": "Powiat J\u0119drzejowski",
                "operator:type": "government",
                "amenity": "school",
                "note": "Parent RSPO: 48433"
            }
        },
        {
            "id": 74771,
            "type": "Feature",
            "geometry": {
                "type": "Point",
                "coordinates": [
                    20.30158,
                    50.63885
                ]
            },
            "properties": {
                "ref:rspo": 74771,
                "official_name": "Szko\u0142a Specjalna Przysposabiaj\u0105ca Do Pracy w J\u0119drzejowie",
                "name": "Szko\u0142a Specjalna Przysposabiaj\u0105ca Do Pracy w J\u0119drzejowie",
                "addr:country": "PL",
                "addr:postcode": "28-300",
                "addr:city": "J\u0119drzej\u00f3w",
                "addr:street": "Feliksa Przypkowskiego",
                "addr:housenumber": "5",
                "addr:teryt:simc": 947030,
                "addr:teryt:sym_ul": 17972,
                "contact:phone": "+48 413861978",
                "contact:email": "sekretariat@soswjedrzejow.pl",
                "ref:regon": "260033370",
                "operator": "Powiat J\u0119drzejowski",
                "operator:type": "government",
                "amenity": "school",
                "note": "Parent RSPO: 48433"
            }
        },
        {
            "id": 75644,
            "type": "Feature",
            "geometry": {
                "type": "Point",
                "coordinates": [
                    20.30158,
                    50.63882
                ]
            },
            "properties": {
                "isced:level": "3",
                "ref:rspo": 75644,
                "official_name": "Bran\u017cowa Szko\u0142a I Stopnia Specjalna Nr 1 w J\u0119drzejowie",
                "name": "Bran\u017cowa Szko\u0142a I Stopnia Specjalna Nr 1 w J\u0119drzejowie",
                "addr:country": "PL",
                "addr:postcode": "28-300",
                "addr:city": "J\u0119drzej\u00f3w",
                "addr:street": "Feliksa Przypkowskiego",
                "addr:housenumber": "5",
                "addr:teryt:simc": 947030,
                "addr:teryt:sym_ul": 17972,
                "contact:phone": "+48 413861978",
                "contact:email": "sekretariat@soswjedrzejow.pl",
                "contact:website": "http:\/\/www.soswjedrzejow.pl",
                "ref:regon": "292834990",
                "operator": "Powiat J\u0119drzejowski",
                "operator:type": "government",
                "amenity": "school",
                "note": "Parent RSPO: 48433"
            }
        },
        {
            "id": 56492,
            "type": "Feature",
            "geometry": {
                "type": "Point",
                "coordinates": [
                    20.30013,
                    50.6397
                ]
            },
            "properties": {
                "isced:level": "1;2",
                "ref:rspo": 56492,
                "official_name": "Szko\u0142a Podstawowa Nr 2 im. Komisji Edukacji Narodowej w J\u0119drzejowie",
                "name": "Szko\u0142a Podstawowa Nr 2",
                "addr:country": "PL",
                "addr:postcode": "28-300",
                "addr:city": "J\u0119drzej\u00f3w",
                "addr:street": "Feliksa Przypkowskiego",
                "addr:housenumber": "12",
                "addr:teryt:simc": 947030,
                "addr:teryt:sym_ul": 17972,
                "contact:phone": "+48 413861114",
                "contact:email": "spnr2jow@poczta.fm",
                "ref:regon": "000733369",
                "ref:vatin": "PL6561777404",
                "operator": "Gmina J\u0119drzej\u00f3w",
                "operator:type": "government",
                "amenity": "school"
            }
        },
        {
            "id": 276551,
            "type": "Feature",
            "geometry": {
                "type": "Point",
                "coordinates": [
                    20.2918,
                    50.63983
                ]
            },
            "properties": {
                "ref:rspo": 276551,
                "official_name": "Niepubliczne Naukowe Przedszkole Integracyjne Mini College",
                "name": "Niepubliczne Naukowe Przedszkole Integracyjne Mini College",
                "addr:country": "PL",
                "addr:postcode": "28-300",
                "addr:city": "J\u0119drzej\u00f3w",
                "addr:street": "Doktora Jana Karczewskiego",
                "addr:housenumber": "10",
                "addr:teryt:simc": 947030,
                "addr:teryt:sym_ul": 48624,
                "contact:phone": "+48 533144540",
                "contact:email": "przedszkole.jedrzejow@minicollege.pl",
                "contact:website": "http:\/\/www.minicollege.pl\/",
                "ref:regon": "387222373",
                "operator": "Fundacja Mini College",
                "operator:type": "ngo",
                "amenity": "kindergarten"
            }
        },
        {
            "id": 57654,
            "type": "Feature",
            "geometry": {
                "type": "Point",
                "coordinates": [
                    20.3746768,
                    50.6405539
                ]
            },
            "properties": {
                "isced:level": "1;2",
                "ref:rspo": 57654,
                "official_name": "Szko\u0142a Podstawowa w Rakowie",
                "name": "Szko\u0142a Podstawowa w Rakowie",
                "addr:country": "PL",
                "addr:postcode": "28-300",
                "addr:place": "Rak\u00f3w",
                "addr:housenumber": "45",
                "addr:teryt:simc": 240827,
                "contact:phone": "+48 413859007",
                "contact:email": "rakow45sp@op.pl",
                "contact:website": "http:\/\/sprakow.edupage.org",
                "ref:regon": "000733085",
                "ref:vatin": "PL6561777309",
                "operator": "Gmina J\u0119drzej\u00f3w",
                "operator:type": "government",
                "amenity": "school"
            }
        },
        {
            "id": 92931,
            "type": "Feature",
            "geometry": {
                "type": "Point",
                "coordinates": [
                    20.29162,
                    50.64068
                ]
            },
            "properties": {
                "ref:rspo": 92931,
                "official_name": "Domowe Przedszkole Karolinka",
                "name": "Domowe Przedszkole Karolinka",
                "addr:country": "PL",
                "addr:postcode": "28-300",
                "addr:city": "J\u0119drzej\u00f3w",
                "addr:street": "Szansa",
                "addr:housenumber": "12",
                "addr:teryt:simc": 947030,
                "addr:teryt:sym_ul": 30651,
                "contact:phone": "+48 514756740",
                "contact:email": "szansa.przedszkole@o2.pl",
                "ref:regon": "260654013",
                "operator": "Joanna Adamska",
                "operator:type": "private",
                "amenity": "kindergarten"
            }
        },
        {
            "id": 263378,
            "type": "Feature",
            "geometry": {
                "type": "Point",
                "coordinates": [
                    20.28441,
                    50.64078
                ]
            },
            "properties": {
                "ref:rspo": 263378,
                "official_name": "Magical World Dwuj\u0119zyczne Przedszkole Artystyczne",
                "name": "Magical World Dwuj\u0119zyczne Przedszkole Artystyczne",
                "addr:country": "PL",
                "addr:postcode": "28-300",
                "addr:city": "J\u0119drzej\u00f3w",
                "addr:street": "Batalion\u00f3w Ch\u0142opskich",
                "addr:housenumber": "3",
                "addr:teryt:simc": 947030,
                "addr:teryt:sym_ul": 868,
                "contact:phone": "+48 413667450",
                "contact:email": "zusmiechem@gmail.com",
                "ref:regon": "368185537",
                "operator": "Fundacja Na Rzecz Wspierania Rodziny Oraz Dzieci I M\u0142odzie\u017cy \"Fundacja Z U\u015bmiechem\"",
                "operator:type": "ngo",
                "amenity": "kindergarten"
            }
        },
        {
            "id": 57661,
            "type": "Feature",
            "geometry": {
                "type": "Point",
                "coordinates": [
                    20.30597,
                    50.6412
                ]
            },
            "properties": {
                "ref:rspo": 57661,
                "official_name": "Przedszkole Nr 3 w J\u0119drzejowie",
                "name": "Przedszkole Nr 3 w J\u0119drzejowie",
                "addr:country": "PL",
                "addr:postcode": "28-300",
                "addr:city": "J\u0119drzej\u00f3w",
                "addr:street": "Ko\u015bcielna",
                "addr:housenumber": "16",
                "addr:teryt:simc": 947030,
                "addr:teryt:sym_ul": 9546,
                "contact:phone": "+48 413862264",
                "contact:email": "marta.smorag@onet.pl",
                "ref:regon": "290015130",
                "ref:vatin": "PL6561777249",
                "operator": "Gmina J\u0119drzej\u00f3w",
                "operator:type": "government",
                "amenity": "kindergarten"
            }
        },
        {
            "id": 57094,
            "type": "Feature",
            "geometry": {
                "type": "Point",
                "coordinates": [
                    20.28402,
                    50.64178
                ]
            },
            "properties": {
                "isced:level": "1;2",
                "ref:rspo": 57094,
                "official_name": "Szko\u0142a Podstawowa Nr 4 w J\u0119drzejowie",
                "name": "Szko\u0142a Podstawowa Nr 4 w J\u0119drzejowie",
                "addr:country": "PL",
                "addr:postcode": "28-300",
                "addr:city": "J\u0119drzej\u00f3w",
                "addr:street": "Feliksa Przypkowskiego",
                "addr:housenumber": "43",
                "addr:teryt:simc": 947030,
                "addr:teryt:sym_ul": 17972,
                "contact:phone": "+48 413862401",
                "contact:email": "sekretariat@2plus4.edu.pl",
                "ref:regon": "290530150",
                "ref:vatin": "PL6561750629",
                "operator": "Gmina J\u0119drzej\u00f3w",
                "operator:type": "government",
                "amenity": "school"
            }
        },
        {
            "id": 34777,
            "type": "Feature",
            "geometry": {
                "type": "Point",
                "coordinates": [
                    20.29938,
                    50.64192
                ]
            },
            "properties": {
                "isced:level": "3",
                "ref:rspo": 34777,
                "official_name": "I Liceum Og\u00f3lnokszta\u0142c\u0105ce im. Miko\u0142aja Reja w J\u0119drzejowie",
                "name": "I Liceum Og\u00f3lnokszta\u0142c\u0105ce",
                "addr:country": "PL",
                "addr:postcode": "28-300",
                "addr:city": "J\u0119drzej\u00f3w",
                "addr:street": "11 Listopada",
                "addr:housenumber": "37",
                "addr:teryt:simc": 947030,
                "addr:teryt:sym_ul": 11205,
                "contact:phone": "+48 413862387",
                "contact:email": "loreyjedrzejow@wp.pl",
                "contact:website": "http:\/\/www.liceumreja.pl",
                "ref:regon": "000228424",
                "ref:vatin": "PL6561859496",
                "operator": "Powiat J\u0119drzejowski",
                "operator:type": "government",
                "amenity": "school"
            }
        },
        {
            "id": 13994,
            "type": "Feature",
            "geometry": {
                "type": "Point",
                "coordinates": [
                    20.29938,
                    50.64189
                ]
            },
            "properties": {
                "ref:rspo": 13994,
                "official_name": "Pedagogiczna Biblioteka Wojew\u00f3dzka w Kielcach Filia w J\u0119drzejowie",
                "name": "Pedagogiczna Biblioteka Wojew\u00f3dzka w Kielcach Filia w J\u0119drzejowie",
                "addr:country": "PL",
                "addr:postcode": "28-300",
                "addr:city": "J\u0119drzej\u00f3w",
                "addr:street": "11 Listopada",
                "addr:housenumber": "37",
                "addr:teryt:simc": 947030,
                "addr:teryt:sym_ul": 11205,
                "contact:email": "jedrzejow@pbw.kielce.pl",
                "contact:website": "http:\/\/www.pbw.kielce.pl",
                "ref:regon": "291170080",
                "operator": "Wojew\u00f3dztwo \u015awi\u0119tokrzyskie",
                "operator:type": "government",
                "amenity": "library",
                "note": "Parent RSPO: 6753"
            }
        },
        {
            "id": 35067,
            "type": "Feature",
            "geometry": {
                "type": "Point",
                "coordinates": [
                    20.27985,
                    50.64323
                ]
            },
            "properties": {
                "ref:rspo": 35067,
                "official_name": "Zesp\u00f3\u0142 Szk\u00f3\u0142 Nr 1 im. Ks. Stanis\u0142awa Konarskiego w J\u0119drzejowie",
                "name": "Zesp\u00f3\u0142 Szk\u00f3\u0142 Nr 1",
                "addr:country": "PL",
                "addr:postcode": "28-300",
                "addr:city": "J\u0119drzej\u00f3w",
                "addr:street": "Feliksa Przypkowskiego",
                "addr:housenumber": "49",
                "addr:teryt:simc": 947030,
                "addr:teryt:sym_ul": 17972,
                "contact:phone": "+48 413862211",
                "contact:email": "poczta@zsp1.jedrzejow.com.pl",
                "contact:website": "http:\/\/www.zsp1.jedrzejow.com.pl",
                "ref:regon": "290339216",
                "ref:vatin": "PL6561857698",
                "operator": "Powiat J\u0119drzejowski",
                "operator:type": "government",
                "landuse": "education",
                "fixme": "amenity=school, amenity=college albo landuse=education w zale\u017cno\u015bci od tego, jakie plac\u00f3wki wchodz\u0105 w sk\u0142ad zespo\u0142u. Sprawd\u017a, kiedy stosowa\u0107 amenity=* a kiedy landuse=education.",
                "note": "Children RSPO: 54394;55315;55551"
            }
        },
        {
            "id": 54394,
            "type": "Feature",
            "geometry": {
                "type": "Point",
                "coordinates": [
                    20.27985,
                    50.6432
                ]
            },
            "properties": {
                "isced:level": "3",
                "ref:rspo": 54394,
                "official_name": "Ii Liceum Og\u00f3lnokszta\u0142c\u0105ce w J\u0119drzejowie",
                "name": "Ii Liceum Og\u00f3lnokszta\u0142c\u0105ce w J\u0119drzejowie",
                "addr:country": "PL",
                "addr:postcode": "28-300",
                "addr:city": "J\u0119drzej\u00f3w",
                "addr:street": "Feliksa Przypkowskiego",
                "addr:housenumber": "49",
                "addr:teryt:simc": 947030,
                "addr:teryt:sym_ul": 17972,
                "contact:phone": "+48 413862211",
                "contact:email": "poczta@zsp1.jedrzejow.com.pl",
                "contact:website": "http:\/\/zsp1.jedrzejow.com.pl",
                "ref:regon": "292835830",
                "operator": "Powiat J\u0119drzejowski",
                "operator:type": "government",
                "amenity": "school",
                "note": "Parent RSPO: 35067"
            }
        },
        {
            "id": 55315,
            "type": "Feature",
            "geometry": {
                "type": "Point",
                "coordinates": [
                    20.27985,
                    50.643170000000005
                ]
            },
            "properties": {
                "isced:level": "3",
                "ref:rspo": 55315,
                "official_name": "Technikum Nr 1 w J\u0119drzejowie",
                "name": "Technikum Nr 1 w J\u0119drzejowie",
                "addr:country": "PL",
                "addr:postcode": "28-300",
                "addr:city": "J\u0119drzej\u00f3w",
                "addr:street": "Feliksa Przypkowskiego",
                "addr:housenumber": "49",
                "addr:teryt:simc": 947030,
                "addr:teryt:sym_ul": 17972,
                "contact:phone": "+48 413862211",
                "contact:email": "poczta@zsp1.jedrzejow.com.pl",
                "contact:website": "http:\/\/zsp1.jedrzejow.com.pl",
                "ref:regon": "292679471",
                "operator": "Powiat J\u0119drzejowski",
                "operator:type": "government",
                "amenity": "school",
                "note": "Parent RSPO: 35067"
            }
        },
        {
            "id": 55551,
            "type": "Feature",
            "geometry": {
                "type": "Point",
                "coordinates": [
                    20.27985,
                    50.64314
                ]
            },
            "properties": {
                "isced:level": "4",
                "ref:rspo": 55551,
                "official_name": "Szko\u0142a Policealna w J\u0119drzejowie",
                "name": "Szko\u0142a Policealna w J\u0119drzejowie",
                "addr:country": "PL",
                "addr:postcode": "28-300",
                "addr:city": "J\u0119drzej\u00f3w",
                "addr:street": "Feliksa Przypkowskiego",
                "addr:housenumber": "49",
                "addr:teryt:simc": 947030,
                "addr:teryt:sym_ul": 17972,
                "contact:phone": "+48 413862211",
                "contact:email": "poczta@zsp1.jedrzejow.com.pl",
                "ref:regon": "260039213",
                "operator": "Powiat J\u0119drzejowski",
                "operator:type": "government",
                "amenity": "college",
                "note": "Parent RSPO: 35067"
            }
        },
        {
            "id": 41861,
            "type": "Feature",
            "geometry": {
                "type": "Point",
                "coordinates": [
                    20.29583,
                    50.64334
                ]
            },
            "properties": {
                "isced:level": "3",
                "ref:rspo": 41861,
                "official_name": "Niepubliczne Technikum w J\u0119drzejowie Zak\u0142adu Doskonalenia Zawodowego w Kielcach",
                "name": "Niepubliczne Technikum w J\u0119drzejowie Zak\u0142adu Doskonalenia Zawodowego w Kielcach",
                "addr:country": "PL",
                "addr:postcode": "28-300",
                "addr:city": "J\u0119drzej\u00f3w",
                "addr:street": "Aleja J\u00f3zefa Pi\u0142sudskiego",
                "addr:housenumber": "6",
                "addr:teryt:simc": 947030,
                "addr:teryt:sym_ul": 43602,
                "contact:phone": "+48 413861257",
                "contact:email": "jedrzejow@zdz.kielce.pl",
                "contact:website": "http:\/\/www.zdz.kielce.pl",
                "ref:regon": "260645280",
                "operator": "Zak\u0142ad Doskonalenia Zawodowego W Kielcach",
                "operator:type": "ngo",
                "amenity": "school"
            }
        },
        {
            "id": 42247,
            "type": "Feature",
            "geometry": {
                "type": "Point",
                "coordinates": [
                    20.29583,
                    50.64331
                ]
            },
            "properties": {
                "isced:level": "4",
                "ref:rspo": 42247,
                "official_name": "Niepubliczna Szko\u0142a Policealna w J\u0119drzejowie Zak\u0142adu Doskonalenia Zawodowego w Kielcach",
                "name": "Niepubliczna Szko\u0142a Policealna w J\u0119drzejowie Zak\u0142adu Doskonalenia Zawodowego w Kielcach",
                "addr:country": "PL",
                "addr:postcode": "28-300",
                "addr:city": "J\u0119drzej\u00f3w",
                "addr:street": "Aleja J\u00f3zefa Pi\u0142sudskiego",
                "addr:housenumber": "6",
                "addr:teryt:simc": 947030,
                "addr:teryt:sym_ul": 43602,
                "contact:phone": "+48 413861257",
                "contact:email": "jedrzejow@zdz.kielce.pl",
                "contact:website": "http:\/\/www.zdz.kielce.pl",
                "ref:regon": "260645327",
                "operator": "Zak\u0142ad Doskonalenia Zawodowego W Kielcach",
                "operator:type": "ngo",
                "amenity": "college"
            }
        },
        {
            "id": 42533,
            "type": "Feature",
            "geometry": {
                "type": "Point",
                "coordinates": [
                    20.29583,
                    50.643280000000004
                ]
            },
            "properties": {
                "isced:level": "3",
                "ref:rspo": 42533,
                "official_name": "Niepubliczne Liceum Og\u00f3lnokszta\u0142c\u0105ce dla Doros\u0142ych w J\u0119drzejowie Zak\u0142adu Doskonalenia Zawodowego w Kielcach",
                "name": "Niepubliczne Liceum Og\u00f3lnokszta\u0142c\u0105ce dla Doros\u0142ych w J\u0119drzejowie Zak\u0142adu Doskonalenia Zawodowego w Kielcach",
                "addr:country": "PL",
                "addr:postcode": "28-300",
                "addr:city": "J\u0119drzej\u00f3w",
                "addr:street": "Aleja J\u00f3zefa Pi\u0142sudskiego",
                "addr:housenumber": "6",
                "addr:teryt:simc": 947030,
                "addr:teryt:sym_ul": 43602,
                "contact:phone": "+48 413861257",
                "contact:email": "jedrzejow@zdz.kielce.pl",
                "contact:website": "http:\/\/www.zdz.kielce.pl",
                "ref:regon": "260644612",
                "operator": "Zak\u0142ad Doskonalenia Zawodowego W Kielcach",
                "operator:type": "ngo",
                "amenity": "school"
            }
        },
        {
            "id": 48319,
            "type": "Feature",
            "geometry": {
                "type": "Point",
                "coordinates": [
                    20.29583,
                    50.64325
                ]
            },
            "properties": {
                "ref:rspo": 48319,
                "official_name": "Centrum Kszta\u0142cenia Zawodowego w J\u0119drzejowie Zak\u0142adu Doskonalenia Zawodowego w Kielcach",
                "name": "Centrum Kszta\u0142cenia Zawodowego w J\u0119drzejowie Zak\u0142adu Doskonalenia Zawodowego w Kielcach",
                "addr:country": "PL",
                "addr:postcode": "28-300",
                "addr:city": "J\u0119drzej\u00f3w",
                "addr:street": "Aleja J\u00f3zefa Pi\u0142sudskiego",
                "addr:housenumber": "6",
                "addr:teryt:simc": 947030,
                "addr:teryt:sym_ul": 43602,
                "contact:phone": "+48 413861257",
                "contact:email": "jedrzejow@zdz.kielce.pl",
                "contact:website": "http:\/\/www.zdz.kielce.pl",
                "ref:regon": "260642010",
                "ref:vatin": "PL6570008869",
                "operator": "Zak\u0142ad Doskonalenia Zawodowego W Kielcach",
                "operator:type": "ngo",
                "fixme": "w zale\u017cno\u015bci od przedmiotu dzia\u0142alno\u015bci (np. amenity=training + training=*, amenity=dancing_school, amenity=language_school, amenity=music_school)"
            }
        },
        {
            "id": 66169,
            "type": "Feature",
            "geometry": {
                "type": "Point",
                "coordinates": [
                    20.29583,
                    50.64322
                ]
            },
            "properties": {
                "isced:level": "3",
                "ref:rspo": 66169,
                "official_name": "Niepubliczna Bran\u017cowa Szko\u0142a I Stopnia w J\u0119drzejowie",
                "name": "Niepubliczna Bran\u017cowa Szko\u0142a I Stopnia w J\u0119drzejowie",
                "addr:country": "PL",
                "addr:postcode": "28-300",
                "addr:city": "J\u0119drzej\u00f3w",
                "addr:street": "Aleja J\u00f3zefa Pi\u0142sudskiego",
                "addr:housenumber": "6",
                "addr:teryt:simc": 947030,
                "addr:teryt:sym_ul": 43602,
                "contact:phone": "+48 413861257",
                "contact:email": "jedrzejow@zdz.kielce.pl",
                "ref:regon": "260645149",
                "operator": "Zak\u0142ad Doskonalenia Zawodowego W Kielcach",
                "operator:type": "ngo",
                "amenity": "school"
            }
        },
        {
            "id": 263360,
            "type": "Feature",
            "geometry": {
                "type": "Point",
                "coordinates": [
                    20.29583,
                    50.643190000000004
                ]
            },
            "properties": {
                "isced:level": "1;2",
                "ref:rspo": 263360,
                "official_name": "Niepubliczna Szko\u0142a Podstawowa w J\u0119drzejowie",
                "name": "Niepubliczna Szko\u0142a Podstawowa w J\u0119drzejowie",
                "addr:country": "PL",
                "addr:postcode": "28-300",
                "addr:city": "J\u0119drzej\u00f3w",
                "addr:street": "al. Aleja J\u00f3zefa Pi\u0142sudskiego",
                "addr:housenumber": "6",
                "addr:teryt:simc": 947030,
                "addr:teryt:sym_ul": 41904,
                "contact:phone": "+48 413861257",
                "contact:email": "jedrzejow@zdz.kielce.pl",
                "ref:regon": "368182846",
                "operator": "Zak\u0142ad Doskonalenia Zawodowego W Kielcach",
                "operator:type": "ngo",
                "amenity": "school"
            }
        },
        {
            "id": 274976,
            "type": "Feature",
            "geometry": {
                "type": "Point",
                "coordinates": [
                    20.29583,
                    50.64316
                ]
            },
            "properties": {
                "isced:level": "3",
                "ref:rspo": 274976,
                "official_name": "Niepubliczna Bran\u017cowa Szko\u0142a II Stopnia w J\u0119drzejowie",
                "name": "Niepubliczna Bran\u017cowa Szko\u0142a II Stopnia w J\u0119drzejowie",
                "addr:country": "PL",
                "addr:postcode": "28-300",
                "addr:city": "J\u0119drzej\u00f3w",
                "addr:street": "Aleja J\u00f3zefa Pi\u0142sudskiego",
                "addr:housenumber": "6",
                "addr:teryt:simc": 947030,
                "addr:teryt:sym_ul": 43602,
                "contact:phone": "+48 413861257",
                "contact:email": "jedrzejow@zdz.kielce.pl",
                "contact:website": "http:\/\/szkolyjedrzejow.zdz.kielce.pl",
                "ref:regon": "386457849",
                "operator": "Zak\u0142ad Doskonalenia Zawodowego W Kielcach A",
                "operator:type": "ngo",
                "amenity": "school"
            }
        },
        {
            "id": 263203,
            "type": "Feature",
            "geometry": {
                "type": "Point",
                "coordinates": [
                    20.30678,
                    50.6434799
                ]
            },
            "properties": {
                "isced:level": "1;2",
                "ref:rspo": 263203,
                "official_name": "Szko\u0142a Podstawowa Nr 5 w J\u0119drzejowie",
                "name": "Szko\u0142a Podstawowa Nr 5 w J\u0119drzejowie",
                "addr:country": "PL",
                "addr:postcode": "28-300",
                "addr:city": "J\u0119drzej\u00f3w",
                "addr:street": "Ogrodowa",
                "addr:housenumber": "10",
                "addr:teryt:simc": 947030,
                "addr:teryt:sym_ul": 14834,
                "contact:phone": "+48 413867300",
                "contact:email": "sp5.jedrzejow@wp.pl",
                "ref:regon": "368120064",
                "operator": "Gmina J\u0119drzej\u00f3w",
                "operator:type": "government",
                "amenity": "school"
            }
        },
        {
            "id": 57658,
            "type": "Feature",
            "geometry": {
                "type": "Point",
                "coordinates": [
                    20.2843,
                    50.64385
                ]
            },
            "properties": {
                "ref:rspo": 57658,
                "official_name": "Przedszkole Nr 1 w J\u0119drzejowie",
                "name": "Przedszkole Nr 1 w J\u0119drzejowie",
                "addr:country": "PL",
                "addr:postcode": "28-300",
                "addr:city": "J\u0119drzej\u00f3w",
                "addr:street": "Mieszka I",
                "addr:housenumber": "9",
                "addr:teryt:simc": 947030,
                "addr:teryt:sym_ul": 12832,
                "contact:phone": "+48 413861900",
                "contact:email": "przedszkole1.jedrzejow@gmail.com",
                "ref:regon": "290015152",
                "ref:vatin": "PL6561777261",
                "operator": "Gmina J\u0119drzej\u00f3w",
                "operator:type": "government",
                "amenity": "kindergarten"
            }
        },
        {
            "id": 48433,
            "type": "Feature",
            "geometry": {
                "type": "Point",
                "coordinates": [
                    20.2914,
                    50.6443
                ]
            },
            "properties": {
                "ref:rspo": 48433,
                "official_name": "Specjalny O\u015brodek Szkolno-Wychowawczy im. Marii Grzegorzewskiej w J\u0119drzejowie",
                "name": "Specjalny O\u015brodek Szkolno-Wychowawczy",
                "addr:country": "PL",
                "addr:postcode": "28-300",
                "addr:city": "J\u0119drzej\u00f3w",
                "addr:street": "Okrzei",
                "addr:housenumber": "49 B",
                "addr:teryt:simc": 947030,
                "addr:teryt:sym_ul": 14909,
                "contact:phone": "+48 413862278",
                "contact:email": "sekretariat@soswjedrzejow.pl",
                "ref:regon": "000195239",
                "ref:vatin": "PL6561812454",
                "operator": "Powiat J\u0119drzejowski",
                "operator:type": "government",
                "amenity": "school",
                "note": "Children RSPO: 74428;74771;75644"
            }
        },
        {
            "id": 128455,
            "type": "Feature",
            "geometry": {
                "type": "Point",
                "coordinates": [
                    20.2899299,
                    50.64556
                ]
            },
            "properties": {
                "ref:rspo": 128455,
                "official_name": "Szkolne Schronisko M\u0142odzie\u017cowe w J\u0119drzejowie",
                "name": "Szkolne Schronisko M\u0142odzie\u017cowe w J\u0119drzejowie",
                "addr:country": "PL",
                "addr:postcode": "28-300",
                "addr:city": "J\u0119drzej\u00f3w",
                "addr:street": "Armii Krajowej",
                "addr:housenumber": "9",
                "addr:teryt:simc": 947030,
                "addr:teryt:sym_ul": 432,
                "contact:phone": "+48 413861401",
                "contact:email": "sekretariat@zspgrot.edu.pl",
                "ref:regon": "362285752",
                "operator": "Powiat J\u0119drzejowski",
                "operator:type": "government",
                "tourism": "hostel",
                "note": "Parent RSPO: 48316"
            }
        },
        {
            "id": 35227,
            "type": "Feature",
            "geometry": {
                "type": "Point",
                "coordinates": [
                    20.28078,
                    50.6458299
                ]
            },
            "properties": {
                "ref:rspo": 35227,
                "official_name": "Poradnia Psychologiczno-Pedagogiczna w J\u0119drzejowie",
                "name": "Poradnia Psychologiczno-Pedagogiczna w J\u0119drzejowie",
                "addr:country": "PL",
                "addr:postcode": "28-300",
                "addr:city": "J\u0119drzej\u00f3w",
                "addr:street": "W\u0142adys\u0142awa Stanis\u0142awa Reymonta",
                "addr:housenumber": "1",
                "addr:teryt:simc": 947030,
                "addr:teryt:sym_ul": 18652,
                "contact:phone": "+48 413861722",
                "contact:email": "poradnia.jedrzejow@poczta.onet.pl",
                "contact:website": "http:\/\/www.pppjedrzejow.pl",
                "ref:regon": "001014406",
                "ref:vatin": "PL6561857706",
                "operator": "Powiat J\u0119drzejowski",
                "operator:type": "government",
                "healthcare": "counselling",
                "counselling_type": "education",
                "fixme": "w zale\u017cno\u015bci od przedmiotu dzia\u0142alno\u015bci (np. healthcare=counselling + counselling_type=education albo healthcare=psychotherapist)"
            }
        },
        {
            "id": 57093,
            "type": "Feature",
            "geometry": {
                "type": "Point",
                "coordinates": [
                    20.28078,
                    50.6457999
                ]
            },
            "properties": {
                "isced:level": "1;2",
                "ref:rspo": 57093,
                "official_name": "Szko\u0142a Podstawowa Nr 3 im. W\u0142adys\u0142awa Broniewskiego w J\u0119drzejowie",
                "name": "Szko\u0142a Podstawowa Nr 3",
                "addr:country": "PL",
                "addr:postcode": "28-300",
                "addr:city": "J\u0119drzej\u00f3w",
                "addr:street": "W\u0142adys\u0142awa Stanis\u0142awa Reymonta",
                "addr:housenumber": "1",
                "addr:teryt:simc": 947030,
                "addr:teryt:sym_ul": 18652,
                "contact:phone": "+48 413861251",
                "contact:email": "szkolapods3@poczta.onet.pl",
                "contact:website": "http:\/\/www.sp3 jedrzejow. edupage.org",
                "ref:regon": "000733375",
                "ref:vatin": "PL6561777396",
                "operator": "Gmina J\u0119drzej\u00f3w",
                "operator:type": "government",
                "amenity": "school"
            }
        },
        {
            "id": 48316,
            "type": "Feature",
            "geometry": {
                "type": "Point",
                "coordinates": [
                    20.29208,
                    50.64586
                ]
            },
            "properties": {
                "ref:rspo": 48316,
                "official_name": "Zesp\u00f3\u0142 Szk\u00f3\u0142 Nr 2 im. Gen. Stefana Roweckiego \u201eGrota\u201d w J\u0119drzejowie",
                "name": "Zesp\u00f3\u0142 Szk\u00f3\u0142 Nr 2",
                "addr:country": "PL",
                "addr:postcode": "28-300",
                "addr:city": "J\u0119drzej\u00f3w",
                "addr:street": "Okrzei",
                "addr:housenumber": "63",
                "addr:teryt:simc": 947030,
                "addr:teryt:sym_ul": 14909,
                "contact:phone": "+48 413861401",
                "contact:email": "sekretariat@zspgrot.edu.pl",
                "contact:website": "http:\/\/www.zsp.grot.edu.pl",
                "ref:regon": "000181036",
                "ref:vatin": "PL6561859504",
                "operator": "Powiat J\u0119drzejowski",
                "operator:type": "government",
                "landuse": "education",
                "fixme": "amenity=school, amenity=college albo landuse=education w zale\u017cno\u015bci od tego, jakie plac\u00f3wki wchodz\u0105 w sk\u0142ad zespo\u0142u. Sprawd\u017a, kiedy stosowa\u0107 amenity=* a kiedy landuse=education.",
                "note": "Children RSPO: 73491;73536;73711;119288;128455;275632"
            }
        },
        {
            "id": 278366,
            "type": "Feature",
            "geometry": {
                "type": "Point",
                "coordinates": [
                    20.29208,
                    50.64583
                ]
            },
            "properties": {
                "isced:level": "4",
                "ref:rspo": 278366,
                "official_name": "Policealna Szko\u0142a Zawodowa Sigma w J\u0119drzejowie",
                "name": "Policealna Szko\u0142a Zawodowa Sigma w J\u0119drzejowie",
                "addr:country": "PL",
                "addr:postcode": "28-300",
                "addr:city": "J\u0119drzej\u00f3w",
                "addr:street": "Okrzei",
                "addr:housenumber": "63",
                "addr:teryt:simc": 947030,
                "addr:teryt:sym_ul": 14909,
                "contact:phone": "+48 731390010",
                "contact:email": "jedrzejow@sigma.org.pl",
                "contact:website": "http:\/\/www.sigma.org.pl",
                "ref:regon": "389869104",
                "operator": "Centrum Edukacji Sigma Sp\u00f3\u0142ka Z Ograniczon\u0105 Odpowiedzialno\u015bci\u0105",
                "operator:type": "private",
                "amenity": "college"
            }
        },
        {
            "id": 73491,
            "type": "Feature",
            "geometry": {
                "type": "Point",
                "coordinates": [
                    20.29208,
                    50.6458
                ]
            },
            "properties": {
                "isced:level": "3",
                "ref:rspo": 73491,
                "official_name": "Technikum Nr 2 w J\u0119drzejowie",
                "name": "Technikum Nr 2 w J\u0119drzejowie",
                "addr:country": "PL",
                "addr:postcode": "28-300",
                "addr:city": "J\u0119drzej\u00f3w",
                "addr:street": "Okrzei",
                "addr:housenumber": "63",
                "addr:teryt:simc": 947030,
                "addr:teryt:sym_ul": 14909,
                "contact:phone": "+48 413861401",
                "contact:email": "sekretariat@zspgrot.edu.pl",
                "contact:website": "http:\/\/www.zspgrot.edu.pl",
                "ref:regon": "292447855",
                "operator": "Powiat J\u0119drzejowski",
                "operator:type": "government",
                "amenity": "school",
                "note": "Parent RSPO: 48316"
            }
        },
        {
            "id": 73536,
            "type": "Feature",
            "geometry": {
                "type": "Point",
                "coordinates": [
                    20.29208,
                    50.64577
                ]
            },
            "properties": {
                "ref:rspo": 73536,
                "official_name": "Centrum Kszta\u0142cenia Zawodowego w J\u0119drzejowie",
                "name": "Centrum Kszta\u0142cenia Zawodowego w J\u0119drzejowie",
                "addr:country": "PL",
                "addr:postcode": "28-300",
                "addr:city": "J\u0119drzej\u00f3w",
                "addr:street": "Okrzei",
                "addr:housenumber": "63",
                "addr:teryt:simc": 947030,
                "addr:teryt:sym_ul": 14909,
                "contact:phone": "+48 413861401",
                "contact:email": "sekretariat@zspgrot.edu.pl",
                "ref:regon": "260021696",
                "operator": "Powiat J\u0119drzejowski",
                "operator:type": "government",
                "fixme": "w zale\u017cno\u015bci od przedmiotu dzia\u0142alno\u015bci (np. amenity=training + training=*, amenity=dancing_school, amenity=language_school, amenity=music_school) albo amenity=school, amenity=college, albo landuse=education w zale\u017cno\u015bci od tego, jakie plac\u00f3wki wchodz\u0105 w sk\u0142ad zespo\u0142u. Sprawd\u017a, kiedy stosowa\u0107 amenity=* a kiedy landuse=education.",
                "note": "Parent RSPO: 48316"
            }
        },
        {
            "id": 73711,
            "type": "Feature",
            "geometry": {
                "type": "Point",
                "coordinates": [
                    20.29208,
                    50.645739999999996
                ]
            },
            "properties": {
                "isced:level": "3",
                "ref:rspo": 73711,
                "official_name": "Bran\u017cowa Szko\u0142a I Stopnia Nr 2 w J\u0119drzejowie",
                "name": "Bran\u017cowa Szko\u0142a I Stopnia Nr 2 w J\u0119drzejowie",
                "addr:country": "PL",
                "addr:postcode": "28-300",
                "addr:city": "J\u0119drzej\u00f3w",
                "addr:street": "Okrzei",
                "addr:housenumber": "63",
                "addr:teryt:simc": 947030,
                "addr:teryt:sym_ul": 14909,
                "contact:phone": "+48 413861401",
                "contact:email": "sekretariat@zspgrot.edu.pl",
                "ref:regon": "292447938",
                "operator": "Powiat J\u0119drzejowski",
                "operator:type": "government",
                "amenity": "school",
                "note": "Parent RSPO: 48316"
            }
        },
        {
            "id": 119288,
            "type": "Feature",
            "geometry": {
                "type": "Point",
                "coordinates": [
                    20.29208,
                    50.64571
                ]
            },
            "properties": {
                "isced:level": "3",
                "ref:rspo": 119288,
                "official_name": "Liceum Og\u00f3lnokszta\u0142c\u0105ce dla Doros\u0142ych w J\u0119drzejowie",
                "name": "Liceum Og\u00f3lnokszta\u0142c\u0105ce dla Doros\u0142ych w J\u0119drzejowie",
                "addr:country": "PL",
                "addr:postcode": "28-300",
                "addr:city": "J\u0119drzej\u00f3w",
                "addr:street": "Okrzei",
                "addr:housenumber": "63",
                "addr:teryt:simc": 947030,
                "addr:teryt:sym_ul": 14909,
                "contact:phone": "+48 413861401",
                "contact:email": "sekretariat@zspgrot.edu.pl",
                "ref:regon": "260717191",
                "operator": "Powiat J\u0119drzejowski",
                "operator:type": "government",
                "amenity": "school",
                "note": "Parent RSPO: 48316"
            }
        },
        {
            "id": 275632,
            "type": "Feature",
            "geometry": {
                "type": "Point",
                "coordinates": [
                    20.29208,
                    50.64568
                ]
            },
            "properties": {
                "isced:level": "3",
                "ref:rspo": 275632,
                "official_name": "Bran\u017cowa Szko\u0142a II Stopnia w J\u0119drzejowie",
                "name": "Bran\u017cowa Szko\u0142a II Stopnia w J\u0119drzejowie",
                "addr:country": "PL",
                "addr:postcode": "28-300",
                "addr:city": "J\u0119drzej\u00f3w",
                "addr:street": "Okrzei",
                "addr:housenumber": "63",
                "addr:teryt:simc": 947030,
                "addr:teryt:sym_ul": 14909,
                "contact:phone": "+48 413861401",
                "contact:email": "sekretariat@zspgrot.edu.pl",
                "ref:regon": "386937638",
                "operator": "Powiat J\u0119drzejowski",
                "operator:type": "government",
                "amenity": "school",
                "note": "Parent RSPO: 48316"
            }
        },
        {
            "id": 48311,
            "type": "Feature",
            "geometry": {
                "type": "Point",
                "coordinates": [
                    20.2850395,
                    50.6461742
                ]
            },
            "properties": {
                "isced:level": "3",
                "ref:rspo": 48311,
                "official_name": "Niepubliczna Bran\u017cowa Szko\u0142a I Stopnia w J\u0119drzejowie",
                "name": "Niepubliczna Bran\u017cowa Szko\u0142a I Stopnia w J\u0119drzejowie",
                "addr:country": "PL",
                "addr:postcode": "28-300",
                "addr:city": "J\u0119drzej\u00f3w",
                "addr:street": "Armii Krajowej",
                "addr:housenumber": "21c",
                "addr:teryt:simc": 947030,
                "addr:teryt:sym_ul": 432,
                "contact:phone": "+48 413863688",
                "contact:email": "jedrzejow@szkoly-kielce.pl",
                "contact:website": "http:\/\/www.awans-szkoly.pl",
                "ref:regon": "260645340",
                "ref:vatin": "PL9591468632",
                "operator": "\u015awi\u0119tokrzyskie Stowarzyszenie Na Rzecz Aktywizacji Zawodowej I Pomocy M\u0142odzie\u017cy",
                "operator:type": "ngo",
                "amenity": "school"
            }
        },
        {
            "id": 53052,
            "type": "Feature",
            "geometry": {
                "type": "Point",
                "coordinates": [
                    20.2850395,
                    50.646144199999995
                ]
            },
            "properties": {
                "isced:level": "3",
                "ref:rspo": 53052,
                "official_name": "Prywatne Liceum Og\u00f3lnokszta\u0142c\u0105ce dla Doros\u0142ych \u201eAwans\u201d w J\u0119drzejowie",
                "name": "Prywatne Liceum Og\u00f3lnokszta\u0142c\u0105ce dla Doros\u0142ych \u201eAwans\u201d w J\u0119drzejowie",
                "addr:country": "PL",
                "addr:postcode": "28-300",
                "addr:city": "J\u0119drzej\u00f3w",
                "addr:street": "Armii Krajowej",
                "addr:housenumber": "21c",
                "addr:teryt:simc": 947030,
                "addr:teryt:sym_ul": 432,
                "contact:phone": "+48 413863688",
                "contact:email": "jedrzejow@szkoly-kielce.pl",
                "contact:website": "http:\/\/www.awans-szkoly.pl",
                "ref:regon": "260646692",
                "operator": "Andrzej Miszczyk",
                "operator:type": "private",
                "amenity": "school"
            }
        },
        {
            "id": 53502,
            "type": "Feature",
            "geometry": {
                "type": "Point",
                "coordinates": [
                    20.2850395,
                    50.6461142
                ]
            },
            "properties": {
                "isced:level": "3",
                "ref:rspo": 53502,
                "official_name": "Prywatna Bran\u017cowa Szko\u0142a I Stopnia \u201eAwans\u201d w J\u0119drzejowie",
                "name": "Prywatna Bran\u017cowa Szko\u0142a I Stopnia \u201eAwans\u201d w J\u0119drzejowie",
                "addr:country": "PL",
                "addr:postcode": "28-300",
                "addr:city": "J\u0119drzej\u00f3w",
                "addr:street": "Armii Krajowej",
                "addr:housenumber": "21c",
                "addr:teryt:simc": 947030,
                "addr:teryt:sym_ul": 432,
                "contact:phone": "+48 413863688",
                "contact:email": "jedrzejow@szkoly-kielce.pl",
                "contact:website": "http:\/\/www.awans-szkoly.pl",
                "ref:regon": "260645534",
                "operator": "Andrzej Miszczyk",
                "operator:type": "private",
                "amenity": "school"
            }
        },
        {
            "id": 115154,
            "type": "Feature",
            "geometry": {
                "type": "Point",
                "coordinates": [
                    20.2850395,
                    50.6460842
                ]
            },
            "properties": {
                "isced:level": "3",
                "ref:rspo": 115154,
                "official_name": "Prywatne Technikum \u201eAwans\u201d w J\u0119drzejowie",
                "name": "Prywatne Technikum \u201eAwans\u201d w J\u0119drzejowie",
                "addr:country": "PL",
                "addr:postcode": "28-300",
                "addr:city": "J\u0119drzej\u00f3w",
                "addr:street": "Armii Krajowej",
                "addr:housenumber": "21c",
                "addr:teryt:simc": 947030,
                "addr:teryt:sym_ul": 432,
                "contact:phone": "+48 413863688",
                "contact:email": "jedrzejow@szkoly-kielce.pl",
                "contact:website": "http:\/\/www.awans-szkoly.pl",
                "ref:regon": "260702692",
                "operator": "Andrzej Miszczyk",
                "operator:type": "private",
                "amenity": "school"
            }
        },
        {
            "id": 263365,
            "type": "Feature",
            "geometry": {
                "type": "Point",
                "coordinates": [
                    20.2850395,
                    50.646054199999995
                ]
            },
            "properties": {
                "isced:level": "1;2",
                "ref:rspo": 263365,
                "official_name": "Niepubliczna O\u015bmioletnia Szko\u0142a Podstawowa w J\u0119drzejowie",
                "name": "Niepubliczna O\u015bmioletnia Szko\u0142a Podstawowa w J\u0119drzejowie",
                "addr:country": "PL",
                "addr:postcode": "28-300",
                "addr:city": "J\u0119drzej\u00f3w",
                "addr:street": "Armii Krajowej",
                "addr:housenumber": "21C",
                "addr:teryt:simc": 947030,
                "addr:teryt:sym_ul": 432,
                "contact:phone": "+48 413863688",
                "contact:email": "jedrzejow@szkoly-kielce.pl",
                "contact:website": "http:\/\/www.awans-szkoly.pl",
                "ref:regon": "368183082",
                "operator": "\u015awi\u0119tokrzyskie Stowarzyszenie Na Rzecz Aktywizacji Zawodowej I Pomocy M\u0142odzie\u017cy",
                "operator:type": "ngo",
                "amenity": "school"
            }
        },
        {
            "id": 57660,
            "type": "Feature",
            "geometry": {
                "type": "Point",
                "coordinates": [
                    20.29074,
                    50.64858
                ]
            },
            "properties": {
                "ref:rspo": 57660,
                "official_name": "Przedszkole Nr 2 Bajkowa Ciuchcia w J\u0119drzejowie",
                "name": "Przedszkole Nr 2 Bajkowa Ciuchcia w J\u0119drzejowie",
                "addr:country": "PL",
                "addr:postcode": "28-300",
                "addr:city": "J\u0119drzej\u00f3w",
                "addr:street": "11 Listopada",
                "addr:housenumber": "113A",
                "addr:teryt:simc": 947030,
                "addr:teryt:sym_ul": 11205,
                "contact:phone": "+48 413862369",
                "contact:email": "przedszkolenr2@poczta.onet.pl",
                "ref:regon": "290015123",
                "ref:vatin": "PL6561777255",
                "operator": "Gmina J\u0119drzej\u00f3w",
                "operator:type": "government",
                "amenity": "kindergarten"
            }
        },
        {
            "id": 92948,
            "type": "Feature",
            "geometry": {
                "type": "Point",
                "coordinates": [
                    20.2268318,
                    50.654969
                ]
            },
            "properties": {
                "ref:rspo": 92948,
                "official_name": "Zesp\u00f3\u0142 Plac\u00f3wek O\u015bwiatowych w Prz\u0105s\u0142awiu",
                "name": "Zesp\u00f3\u0142 Plac\u00f3wek O\u015bwiatowych w Prz\u0105s\u0142awiu",
                "addr:country": "PL",
                "addr:postcode": "28-300",
                "addr:place": "Prz\u0105s\u0142aw",
                "addr:housenumber": "55",
                "addr:teryt:simc": 240750,
                "contact:phone": "+48 413857395",
                "contact:email": "spprzaslaw@gmail.com",
                "contact:website": "http:\/\/www.zpoprzaslaw.superszkolna.pl",
                "ref:regon": "260654065",
                "operator": "Gmina J\u0119drzej\u00f3w",
                "operator:type": "government",
                "landuse": "education",
                "fixme": "amenity=school, amenity=college albo landuse=education w zale\u017cno\u015bci od tego, jakie plac\u00f3wki wchodz\u0105 w sk\u0142ad zespo\u0142u. Sprawd\u017a, kiedy stosowa\u0107 amenity=* a kiedy landuse=education.",
                "note": "Children RSPO: 57652;57662"
            }
        },
        {
            "id": 57652,
            "type": "Feature",
            "geometry": {
                "type": "Point",
                "coordinates": [
                    20.2268318,
                    50.654939
                ]
            },
            "properties": {
                "isced:level": "1;2",
                "ref:rspo": 57652,
                "official_name": "Szko\u0142a Podstawowa im. B\u0142. Wincentego Kad\u0142ubka w Prz\u0105s\u0142awiu",
                "name": "Szko\u0142a Podstawowa",
                "addr:country": "PL",
                "addr:postcode": "28-300",
                "addr:place": "Prz\u0105s\u0142aw",
                "addr:housenumber": "55",
                "addr:teryt:simc": 240750,
                "contact:phone": "+48 413857395",
                "contact:email": "spprzaslaw@gmail.com",
                "ref:regon": "000733062",
                "ref:vatin": "PL6561777315",
                "operator": "Gmina J\u0119drzej\u00f3w",
                "operator:type": "government",
                "amenity": "school",
                "note": "Parent RSPO: 92948"
            }
        },
        {
            "id": 57662,
            "type": "Feature",
            "geometry": {
                "type": "Point",
                "coordinates": [
                    20.2268318,
                    50.654909
                ]
            },
            "properties": {
                "ref:rspo": 57662,
                "official_name": "Przedszkole w Prz\u0105s\u0142awiu",
                "name": "Przedszkole w Prz\u0105s\u0142awiu",
                "addr:country": "PL",
                "addr:postcode": "28-300",
                "addr:place": "Prz\u0105s\u0142aw",
                "addr:housenumber": "55",
                "addr:teryt:simc": 240750,
                "contact:phone": "+48 413857395",
                "contact:email": "spprzaslaw@gmail.com",
                "ref:regon": "290015198",
                "ref:vatin": "PL6562053861",
                "operator": "Gmina J\u0119drzej\u00f3w",
                "operator:type": "government",
                "amenity": "kindergarten",
                "note": "Parent RSPO: 92948"
            }
        },
        {
            "id": 57649,
            "type": "Feature",
            "geometry": {
                "type": "Point",
                "coordinates": [
                    20.3192719,
                    50.6645509
                ]
            },
            "properties": {
                "isced:level": "1;2",
                "ref:rspo": 57649,
                "official_name": "Szko\u0142a Podstawowa w Podchojnach",
                "name": "Szko\u0142a Podstawowa w Podchojnach",
                "addr:country": "PL",
                "addr:postcode": "28-300",
                "addr:place": "Podchojny",
                "addr:housenumber": "106",
                "addr:teryt:simc": 240520,
                "contact:phone": "+48 413861291",
                "contact:email": "sp_podchojny@gazeta.pl",
                "ref:regon": "000733040",
                "ref:vatin": "PL6561777338",
                "operator": "Gmina J\u0119drzej\u00f3w",
                "operator:type": "government",
                "amenity": "school"
            }
        },
        {
            "id": 81044,
            "type": "Feature",
            "geometry": {
                "type": "Point",
                "coordinates": [
                    20.401881,
                    50.67812
                ]
            },
            "properties": {
                "isced:level": "1;2",
                "ref:rspo": 81044,
                "official_name": "Niepubliczna Szko\u0142a Podstawowa w Brusie",
                "name": "Niepubliczna Szko\u0142a Podstawowa w Brusie",
                "addr:country": "PL",
                "addr:postcode": "28-300",
                "addr:place": "Brus",
                "addr:housenumber": "59",
                "addr:teryt:simc": 240000,
                "contact:phone": "+48 413873192",
                "contact:email": "nspbrus@onet.eu",
                "ref:regon": "260650038",
                "ref:vatin": "PL6562223530",
                "operator": "Stowarzyszenie Rozwoju Wsi Brus Gozna Wygoda",
                "operator:type": "ngo",
                "amenity": "school"
            }
        },
        {
            "id": 103953,
            "type": "Feature",
            "geometry": {
                "type": "Point",
                "coordinates": [
                    20.3659825,
                    50.6978673
                ]
            },
            "properties": {
                "isced:level": "1;2",
                "ref:rspo": 103953,
                "official_name": "Szko\u0142a Podstawowa w Mnichowie",
                "name": "Szko\u0142a Podstawowa w Mnichowie",
                "addr:country": "PL",
                "addr:postcode": "28-300",
                "addr:place": "Mnich\u00f3w",
                "addr:housenumber": "72",
                "addr:teryt:simc": 240477,
                "contact:phone": "+48 413873116",
                "contact:email": "spmnichow@poczta.onet.pl",
                "contact:website": "http:\/\/www.spmnichow.szkolnastrona.pl",
                "ref:regon": "001216995",
                "ref:vatin": "PL6561777350",
                "operator": "Gmina J\u0119drzej\u00f3w",
                "operator:type": "government",
                "amenity": "school"
            }
        }
    ]
}