{
    "type": "FeatureCollection",
    "features": [
        {
            "id": 104763,
            "type": "Feature",
            "geometry": {
                "type": "Point",
                "coordinates": [
                    22.06401,
                    49.4799999
                ]
            },
            "properties": {
                "ref:rspo": 104763,
                "official_name": "Przedszkole Samorz\u0105dowe w Zespole Szk\u00f3\u0142 w Bukowsku",
                "name": "Przedszkole Samorz\u0105dowe w Zespole Szk\u00f3\u0142 w Bukowsku",
                "addr:postcode": "38-505",
                "addr:place": "Bukowsko",
                "addr:housenumber": "297",
                "addr:city:simc": 346543,
                "phone": "+48 134674044",
                "email": "przedszkolebukowsko@op.pl",
                "ref:regon": "000903067",
                "operator": "Gmina Bukowsko",
                "operator:type": "government",
                "amenity": "kindergarten",
                "note": "Parent RSPO: 104352"
            }
        },
        {
            "id": 104352,
            "type": "Feature",
            "geometry": {
                "type": "Point",
                "coordinates": [
                    22.06282,
                    49.48087
                ]
            },
            "properties": {
                "ref:rspo": 104352,
                "official_name": "Zesp\u00f3\u0142 Szk\u00f3\u0142 w Bukowsku",
                "name": "Zesp\u00f3\u0142 Szk\u00f3\u0142 w Bukowsku",
                "addr:postcode": "38-505",
                "addr:place": "Bukowsko",
                "addr:housenumber": "142",
                "addr:city:simc": 346543,
                "phone": "+48 134674028",
                "email": "zsbukowsko@op.pl",
                "website": "http:\/\/zsbukowsko.bukowsko.pl",
                "ref:regon": "180032339",
                "ref:vatin": "PL6871690494",
                "operator": "Gmina Bukowsko",
                "operator:type": "government",
                "landuse": "education",
                "fixme": "amenity=school, amenity=college albo landuse=education w zale\u017cno\u015bci od tego, jakie plac\u00f3wki wchodz\u0105 w sk\u0142ad zespo\u0142u. Sprawd\u017a, kiedy stosowa\u0107 amenity=* a kiedy landuse=education.",
                "note": "Children RSPO: 104763;104789"
            }
        },
        {
            "id": 104789,
            "type": "Feature",
            "geometry": {
                "type": "Point",
                "coordinates": [
                    22.06282,
                    49.48084
                ]
            },
            "properties": {
                "isced:level": "1;2",
                "ref:rspo": 104789,
                "official_name": "Szko\u0142a Podstawowa w Zespole Szk\u00f3\u0142 w Bukowsku",
                "name": "Szko\u0142a Podstawowa w Zespole Szk\u00f3\u0142 w Bukowsku",
                "addr:postcode": "38-505",
                "addr:place": "Bukowsko",
                "addr:housenumber": "142",
                "addr:city:simc": 346543,
                "phone": "+48 134674028",
                "email": "zsbukowsko@op.pl",
                "website": "http:\/\/www.zsbukowsko.bukowsko.pl",
                "ref:regon": "001197602",
                "operator": "Gmina Bukowsko",
                "operator:type": "government",
                "amenity": "school",
                "note": "Parent RSPO: 104352"
            }
        },
        {
            "id": 61809,
            "type": "Feature",
            "geometry": {
                "type": "Point",
                "coordinates": [
                    22.00118,
                    49.50069
                ]
            },
            "properties": {
                "ref:rspo": 61809,
                "official_name": "Uniwersytet Ludowy Rzemios\u0142a Artystycznego",
                "name": "Uniwersytet Ludowy Rzemios\u0142a Artystycznego",
                "addr:postcode": "38-505",
                "addr:place": "Wola S\u0119kowa",
                "addr:housenumber": "37",
                "addr:city:simc": 346773,
                "phone": "+48 662487667",
                "email": "uniwersytet.ludowy@gomil.com",
                "website": "http:\/\/www.uniwlud.pl",
                "ref:regon": "180907772",
                "operator": "Stowarzyszenie Uniwersytet Ludowy Rzemios\u0142a Artystycznego",
                "operator:type": "ngo",
                "fixme": "w zale\u017cno\u015bci od przedmiotu dzia\u0142alno\u015bci (np. amenity=training + training=*, amenity=dancing_school, amenity=language_school, amenity=music_school) albo amenity=school, amenity=college, albo landuse=education w zale\u017cno\u015bci od tego, jakie plac\u00f3wki wchodz\u0105 w sk\u0142ad zespo\u0142u. Sprawd\u017a, kiedy stosowa\u0107 amenity=* a kiedy landuse=education."
            }
        },
        {
            "id": 103531,
            "type": "Feature",
            "geometry": {
                "type": "Point",
                "coordinates": [
                    22.03114,
                    49.50775
                ]
            },
            "properties": {
                "ref:rspo": 103531,
                "official_name": "Zesp\u00f3\u0142 Szk\u00f3\u0142 w Nowota\u0144cu",
                "name": "Zesp\u00f3\u0142 Szk\u00f3\u0142 w Nowota\u0144cu",
                "addr:postcode": "38-505",
                "addr:place": "Nowotaniec",
                "addr:housenumber": "77",
                "addr:city:simc": 346709,
                "phone": "+48 134664158",
                "email": "nowotaniec@poczta.onet.pl",
                "website": "http:\/\/nowotaniec.cba.pl",
                "ref:regon": "180030620",
                "ref:vatin": "PL6871956756",
                "operator": "Gmina Bukowsko",
                "operator:type": "government",
                "landuse": "education",
                "fixme": "amenity=school, amenity=college albo landuse=education w zale\u017cno\u015bci od tego, jakie plac\u00f3wki wchodz\u0105 w sk\u0142ad zespo\u0142u. Sprawd\u017a, kiedy stosowa\u0107 amenity=* a kiedy landuse=education.",
                "note": "Children RSPO: 104862;104866"
            }
        },
        {
            "id": 104862,
            "type": "Feature",
            "geometry": {
                "type": "Point",
                "coordinates": [
                    22.03114,
                    49.50772
                ]
            },
            "properties": {
                "ref:rspo": 104862,
                "official_name": "Przedszkole Samorz\u0105dowe w Zespole Szk\u00f3\u0142 w Nowota\u0144cu",
                "name": "Przedszkole Samorz\u0105dowe w Zespole Szk\u00f3\u0142 w Nowota\u0144cu",
                "addr:postcode": "38-505",
                "addr:place": "Nowotaniec",
                "addr:housenumber": "77",
                "addr:city:simc": 346709,
                "phone": "+48 134664158",
                "email": "nowotaniec@poczta.onet.pl",
                "website": "http:\/\/www.nowotaniec.cba.pl",
                "ref:regon": "370997825",
                "operator": "Gmina Bukowsko",
                "operator:type": "government",
                "amenity": "kindergarten",
                "note": "Parent RSPO: 103531"
            }
        },
        {
            "id": 104866,
            "type": "Feature",
            "geometry": {
                "type": "Point",
                "coordinates": [
                    22.03114,
                    49.507690000000004
                ]
            },
            "properties": {
                "isced:level": "1;2",
                "ref:rspo": 104866,
                "official_name": "Szko\u0142a Podstawowa Imienia B\u0142. O. Anastazego Pankiewicza w Zespole Szk\u00f3\u0142 w Nowota\u0144cu",
                "name": "Szko\u0142a Podstawowa Imienia B\u0142. O. Anastazego Pankiewicza w Zespole Szk\u00f3\u0142 w Nowota\u0144cu",
                "addr:postcode": "38-505",
                "addr:place": "Nowotaniec",
                "addr:housenumber": "77",
                "addr:city:simc": 346709,
                "phone": "+48 134664158",
                "email": "nowotaniec@poczta.onet.pl",
                "website": "http:\/\/www.nowotaniec.cba.pl",
                "ref:regon": "001197619",
                "operator": "Gmina Bukowsko",
                "operator:type": "government",
                "amenity": "school",
                "note": "Parent RSPO: 103531"
            }
        },
        {
            "id": 104351,
            "type": "Feature",
            "geometry": {
                "type": "Point",
                "coordinates": [
                    22.10541,
                    49.52684
                ]
            },
            "properties": {
                "ref:rspo": 104351,
                "official_name": "Zesp\u00f3\u0142 Szk\u00f3\u0142 im.jana Paw\u0142a II w Pobiednie",
                "name": "Zesp\u00f3\u0142 Szk\u00f3\u0142 im.jana Paw\u0142a II w Pobiednie",
                "addr:postcode": "38-505",
                "addr:place": "Pobiedno",
                "addr:housenumber": "105",
                "addr:city:simc": 346738,
                "phone": "+48 134675300",
                "email": "zspobiedno@interia.pl",
                "website": "http:\/\/zspobiedno.pl",
                "ref:regon": "180030814",
                "ref:vatin": "PL6871887268",
                "operator": "Gmina Bukowsko",
                "operator:type": "government",
                "landuse": "education",
                "fixme": "amenity=school, amenity=college albo landuse=education w zale\u017cno\u015bci od tego, jakie plac\u00f3wki wchodz\u0105 w sk\u0142ad zespo\u0142u. Sprawd\u017a, kiedy stosowa\u0107 amenity=* a kiedy landuse=education.",
                "note": "Children RSPO: 104856;126112"
            }
        },
        {
            "id": 104856,
            "type": "Feature",
            "geometry": {
                "type": "Point",
                "coordinates": [
                    22.10541,
                    49.52681
                ]
            },
            "properties": {
                "isced:level": "1;2",
                "ref:rspo": 104856,
                "official_name": "Szko\u0142a Podstawowa w Zespole Szk\u00f3\u0142 im.jana Paw\u0142a II w Pobiednie",
                "name": "Szko\u0142a Podstawowa w Zespole Szk\u00f3\u0142 im.jana Paw\u0142a II w Pobiednie",
                "addr:postcode": "38-505",
                "addr:place": "Pobiedno",
                "addr:housenumber": "105",
                "addr:city:simc": 346738,
                "phone": "+48 134675300",
                "email": "zspobiedno@interia.pl",
                "website": "http:\/\/zspobiedno.pl",
                "ref:regon": "001197631",
                "operator": "Gmina Bukowsko",
                "operator:type": "government",
                "amenity": "school",
                "note": "Parent RSPO: 104351"
            }
        },
        {
            "id": 126112,
            "type": "Feature",
            "geometry": {
                "type": "Point",
                "coordinates": [
                    22.10541,
                    49.52678
                ]
            },
            "properties": {
                "ref:rspo": 126112,
                "official_name": "Przedszkole Samorz\u0105dowe w Zespole Szk\u00f3\u0142 im. Jana Paw\u0142a II w Pobiednie",
                "name": "Przedszkole Samorz\u0105dowe w Zespole Szk\u00f3\u0142",
                "addr:postcode": "38-505",
                "addr:place": "Pobiedno",
                "addr:housenumber": "105",
                "addr:city:simc": 346738,
                "phone": "+48 134675300",
                "email": "zspobiedno@interia.pl",
                "website": "http:\/\/zspobiedno.pl",
                "ref:regon": "360149269",
                "operator": "Gmina Bukowsko",
                "operator:type": "government",
                "amenity": "kindergarten",
                "note": "Parent RSPO: 104351"
            }
        }
    ]
}