{
    "type": "FeatureCollection",
    "features": [
        {
            "id": 31125,
            "type": "Feature",
            "geometry": {
                "type": "Point",
                "coordinates": [
                    22.05027,
                    49.53192
                ]
            },
            "properties": {
                "isced:level": "1;2",
                "ref:rspo": 31125,
                "official_name": "Szko\u0142a Podstawowa w Pielni",
                "name": "Szko\u0142a Podstawowa w Pielni",
                "addr:postcode": "38-530",
                "addr:city": "Pielnia",
                "addr:street": "D\u0119bowa",
                "addr:housenumber": "1",
                "addr:teryt:simc": 363004,
                "addr:teryt:sym_ul": 3811,
                "phone": "+48 134672015",
                "email": "sp.pielnia@zarszyn.pl",
                "website": "http:\/\/www.sppielnia.szkolnastrona.pl",
                "ref:regon": "001213956",
                "ref:vatin": "PL6871725212",
                "operator": "Gmina Zarszyn",
                "operator:type": "government",
                "amenity": "school"
            }
        },
        {
            "id": 31071,
            "type": "Feature",
            "geometry": {
                "type": "Point",
                "coordinates": [
                    21.97776,
                    49.5447
                ]
            },
            "properties": {
                "isced:level": "1;2",
                "ref:rspo": 31071,
                "official_name": "Szko\u0142a Podstawowa im. \u015aw. Jana Kantego w Odrzechowej",
                "name": "Szko\u0142a Podstawowa",
                "addr:postcode": "38-530",
                "addr:city": "Odrzechowa",
                "addr:street": "Szkolna",
                "addr:housenumber": "1",
                "addr:teryt:simc": 362915,
                "addr:teryt:sym_ul": 21970,
                "phone": "+48 134671173",
                "email": "sp.odrzechowa@zarszyn.pl",
                "website": "http:\/\/www.spodrzechowa.pl",
                "ref:regon": "001213962",
                "ref:vatin": "PL6871725235",
                "operator": "Gmina Zarszyn",
                "operator:type": "government",
                "amenity": "school"
            }
        },
        {
            "id": 46578,
            "type": "Feature",
            "geometry": {
                "type": "Point",
                "coordinates": [
                    22.08393,
                    49.56335
                ]
            },
            "properties": {
                "isced:level": "1;2",
                "ref:rspo": 46578,
                "official_name": "Szko\u0142a Podstawowa w Nowosielcach",
                "name": "Szko\u0142a Podstawowa w Nowosielcach",
                "addr:postcode": "38-530",
                "addr:city": "Nowosielce",
                "addr:street": "Szkolna",
                "addr:housenumber": "2",
                "addr:teryt:simc": 362909,
                "addr:teryt:sym_ul": 21970,
                "phone": "+48 134672012",
                "email": "nowosielce@poczta.onet.pl",
                "ref:regon": "001213940",
                "ref:vatin": "PL6871725241",
                "operator": "Gmina Zarszyn",
                "operator:type": "government",
                "amenity": "school"
            }
        },
        {
            "id": 27935,
            "type": "Feature",
            "geometry": {
                "type": "Point",
                "coordinates": [
                    22.06781,
                    49.56575
                ]
            },
            "properties": {
                "ref:rspo": 27935,
                "official_name": "Zesp\u00f3\u0142 Szk\u00f3\u0142 Centrum Kszta\u0142cenia Rolniczego im. II Czechos\u0142owackiej Brygady Spadochronowej w Nowosielcach",
                "name": "Zesp\u00f3\u0142 Szk\u00f3\u0142 Centrum Kszta\u0142cenia Rolniczego",
                "addr:postcode": "38-530",
                "addr:city": "Nowosielce",
                "addr:street": "Heleny Gniewosz",
                "addr:housenumber": "160",
                "addr:teryt:simc": 362909,
                "addr:teryt:sym_ul": 49804,
                "phone": "+48 134653980",
                "email": "sekretariat@zsckr-nowosielce.pl",
                "website": "http:\/\/www.zsckr-nowosielce.pl",
                "ref:regon": "180295866",
                "ref:vatin": "PL6871489220",
                "operator": "Ministerstwo Rolnictwa I Rozwoju Wsi",
                "operator:type": "public",
                "landuse": "education",
                "fixme": "amenity=school, amenity=college albo landuse=education w zale\u017cno\u015bci od tego, jakie plac\u00f3wki wchodz\u0105 w sk\u0142ad zespo\u0142u. Sprawd\u017a, kiedy stosowa\u0107 amenity=* a kiedy landuse=education.",
                "note": "Children RSPO: 56664;56665;56667;56668"
            }
        },
        {
            "id": 56664,
            "type": "Feature",
            "geometry": {
                "type": "Point",
                "coordinates": [
                    22.06781,
                    49.56572
                ]
            },
            "properties": {
                "isced:level": "3",
                "ref:rspo": 56664,
                "official_name": "Technikum w Nowosielcach",
                "name": "Technikum w Nowosielcach",
                "addr:postcode": "38-530",
                "addr:city": "Nowosielce",
                "addr:street": "Heleny Gniewosz",
                "addr:housenumber": "160",
                "addr:teryt:simc": 362909,
                "addr:teryt:sym_ul": 49804,
                "phone": "+48 134653981",
                "email": "sekretariat@zsckr-nowosielce.pl",
                "website": "http:\/\/www.zsckr-nowosielce.pl",
                "ref:regon": "180295895",
                "operator": "Ministerstwo Rolnictwa I Rozwoju Wsi",
                "operator:type": "public",
                "amenity": "school",
                "note": "Parent RSPO: 27935"
            }
        },
        {
            "id": 56665,
            "type": "Feature",
            "geometry": {
                "type": "Point",
                "coordinates": [
                    22.06781,
                    49.565690000000004
                ]
            },
            "properties": {
                "isced:level": "3",
                "ref:rspo": 56665,
                "official_name": "Bran\u017cowa Szko\u0142a I Stopnia w Nowosielcach",
                "name": "Bran\u017cowa Szko\u0142a I Stopnia w Nowosielcach",
                "addr:postcode": "38-530",
                "addr:city": "Nowosielce",
                "addr:street": "Heleny Gniewosz",
                "addr:housenumber": "160",
                "addr:teryt:simc": 362909,
                "addr:teryt:sym_ul": 49804,
                "phone": "+48 134653981",
                "email": "sekretariat@zsckr-nowosielce.pl",
                "website": "http:\/\/www.zsckr-nowosielce.pl",
                "ref:regon": "180295760",
                "operator": "Ministerstwo Rolnictwa I Rozwoju Wsi",
                "operator:type": "public",
                "amenity": "school",
                "note": "Parent RSPO: 27935"
            }
        },
        {
            "id": 56667,
            "type": "Feature",
            "geometry": {
                "type": "Point",
                "coordinates": [
                    22.06781,
                    49.56566
                ]
            },
            "properties": {
                "isced:level": "4",
                "ref:rspo": 56667,
                "official_name": "Szko\u0142a Policealna w Nowosielcach",
                "name": "Szko\u0142a Policealna w Nowosielcach",
                "addr:postcode": "38-530",
                "addr:city": "Nowosielce",
                "addr:street": "Heleny Gniewosz",
                "addr:housenumber": "160",
                "addr:teryt:simc": 362909,
                "addr:teryt:sym_ul": 49804,
                "phone": "+48 134653981",
                "email": "sekretariat@zsckr-nowosielce.pl",
                "website": "http:\/\/www.zsckr-nowosielce.pl",
                "ref:regon": "180295837",
                "operator": "Ministerstwo Rolnictwa I Rozwoju Wsi",
                "operator:type": "public",
                "amenity": "college",
                "note": "Parent RSPO: 27935"
            }
        },
        {
            "id": 56668,
            "type": "Feature",
            "geometry": {
                "type": "Point",
                "coordinates": [
                    22.06781,
                    49.56563
                ]
            },
            "properties": {
                "ref:rspo": 56668,
                "official_name": "Centrum Kszta\u0142cenia Ustawicznego w Nowosielcach",
                "name": "Centrum Kszta\u0142cenia Ustawicznego w Nowosielcach",
                "addr:postcode": "38-530",
                "addr:city": "Nowosielce",
                "addr:street": "Heleny Gniewosz",
                "addr:housenumber": "160",
                "addr:teryt:simc": 362909,
                "addr:teryt:sym_ul": 49804,
                "phone": "+48 134653981",
                "email": "sekretariat@zsckr-nowosielce.pl",
                "website": "http:\/\/www.zsckr-nowosielce.pl",
                "ref:regon": "180902148",
                "operator": "Ministerstwo Rolnictwa I Rozwoju Wsi",
                "operator:type": "public",
                "fixme": "w zale\u017cno\u015bci od przedmiotu dzia\u0142alno\u015bci (np. amenity=training + training=*, amenity=dancing_school, amenity=language_school, amenity=music_school)",
                "note": "Parent RSPO: 27935"
            }
        },
        {
            "id": 114907,
            "type": "Feature",
            "geometry": {
                "type": "Point",
                "coordinates": [
                    22.07089,
                    49.56952
                ]
            },
            "properties": {
                "ref:rspo": 114907,
                "official_name": "Przedszkole Niepubliczne \"T\u0119czowe Przedszkole\"",
                "name": "Przedszkole Niepubliczne \"T\u0119czowe Przedszkole\"",
                "addr:postcode": "38-530",
                "addr:city": "Nowosielce",
                "addr:street": "Nadbrze\u017cna",
                "addr:housenumber": "53",
                "addr:teryt:simc": 362909,
                "addr:teryt:sym_ul": 13861,
                "phone": "+48 696772036",
                "email": "megi110@onet.pl",
                "ref:regon": "180984270",
                "operator": "Sp\u00f3\u0142dzielnia Socjalna \"T\u0119cza\"",
                "operator:type": "cooperative",
                "amenity": "kindergarten"
            }
        },
        {
            "id": 130692,
            "type": "Feature",
            "geometry": {
                "type": "Point",
                "coordinates": [
                    22.01336,
                    49.57372
                ]
            },
            "properties": {
                "ref:rspo": 130692,
                "official_name": "Niepubliczne Przedszkole \"Bociek\" w Posadzie Zarszy\u0144skiej",
                "name": "Niepubliczne Przedszkole \"Bociek\" w Posadzie Zarszy\u0144skiej",
                "addr:postcode": "38-530",
                "addr:city": "Posada Zarszy\u0144ska",
                "addr:street": "Ogrodowa",
                "addr:housenumber": "31",
                "addr:teryt:simc": 363040,
                "addr:teryt:sym_ul": 14834,
                "phone": "+48 539073107",
                "email": "przedszkolebociek@interia.pl",
                "ref:regon": "364348899",
                "operator": "Beata Sza\u0142ankiewicz",
                "operator:type": "private",
                "amenity": "kindergarten"
            }
        },
        {
            "id": 43788,
            "type": "Feature",
            "geometry": {
                "type": "Point",
                "coordinates": [
                    22.03878,
                    49.5767
                ]
            },
            "properties": {
                "isced:level": "1;2",
                "ref:rspo": 43788,
                "official_name": "Szko\u0142a Podstawowa im. Jana Stapi\u0144skiego w D\u0142ugiem",
                "name": "Szko\u0142a Podstawowa",
                "addr:postcode": "38-530",
                "addr:city": "D\u0142ugie",
                "addr:street": "Sanocka",
                "addr:housenumber": "121",
                "addr:teryt:simc": 362855,
                "addr:teryt:sym_ul": 19502,
                "phone": "+48 134671036",
                "email": "sp.dlugie@zarszyn.pl",
                "website": "https:\/\/spdlugie.edupage.org",
                "ref:regon": "001213985",
                "ref:vatin": "PL6871595778",
                "operator": "Gmina Zarszyn",
                "operator:type": "government",
                "amenity": "school"
            }
        },
        {
            "id": 31167,
            "type": "Feature",
            "geometry": {
                "type": "Point",
                "coordinates": [
                    22.01481,
                    49.58271
                ]
            },
            "properties": {
                "isced:level": "1;2",
                "ref:rspo": 31167,
                "official_name": "Szko\u0142a Podstawowa w Zarszynie",
                "name": "Szko\u0142a Podstawowa w Zarszynie",
                "addr:postcode": "38-530",
                "addr:city": "Zarszyn",
                "addr:street": "Bieszczadzka",
                "addr:housenumber": "19",
                "addr:teryt:simc": 363062,
                "addr:teryt:sym_ul": 1326,
                "phone": "+48 134671016",
                "email": "spzarszyn@go2.pl",
                "website": "http:\/\/www.spzarszyn.pl",
                "ref:regon": "001213933",
                "ref:vatin": "PL6871446771",
                "operator": "Gmina Zarszyn",
                "operator:type": "government",
                "amenity": "school"
            }
        },
        {
            "id": 58505,
            "type": "Feature",
            "geometry": {
                "type": "Point",
                "coordinates": [
                    22.044476,
                    49.6009451
                ]
            },
            "properties": {
                "isced:level": "1;2",
                "ref:rspo": 58505,
                "official_name": "Szko\u0142a Podstawowa w Ba\u017can\u00f3wce",
                "name": "Szko\u0142a Podstawowa w Ba\u017can\u00f3wce",
                "addr:postcode": "38-530",
                "addr:city": "Ba\u017can\u00f3wka",
                "addr:street": "Dworska",
                "addr:housenumber": "21",
                "addr:teryt:simc": 362832,
                "addr:teryt:sym_ul": 4446,
                "phone": "+48 134671193",
                "email": "szkola.bazanowka@wp.pl",
                "website": "http:\/\/www.spbazanowka.szkolnastrona.pl",
                "ref:regon": "001213927",
                "ref:vatin": "PL6871725258",
                "operator": "Gmina Zarszyn",
                "operator:type": "government",
                "amenity": "school"
            }
        },
        {
            "id": 278076,
            "type": "Feature",
            "geometry": {
                "type": "Point",
                "coordinates": [
                    22.02163,
                    49.62038
                ]
            },
            "properties": {
                "ref:rspo": 278076,
                "official_name": "Zesp\u00f3\u0142 Szkolno-Przedszkolny w Ja\u0107mierzu",
                "name": "Zesp\u00f3\u0142 Szkolno-Przedszkolny w Ja\u0107mierzu",
                "addr:postcode": "38-530",
                "addr:city": "Ja\u0107mierz",
                "addr:street": "Szkolna",
                "addr:housenumber": "40",
                "addr:teryt:simc": 362884,
                "addr:teryt:sym_ul": 21970,
                "phone": "+48 134671306",
                "email": "sp.jacmierz@zarszyn.pl",
                "website": "http:\/\/spjacmierz.szkolnastrona.pl",
                "ref:regon": "389759568",
                "ref:vatin": "PL6871974518",
                "operator": "Gmina Zarszyn",
                "operator:type": "government",
                "landuse": "education",
                "fixme": "amenity=school, amenity=college albo landuse=education w zale\u017cno\u015bci od tego, jakie plac\u00f3wki wchodz\u0105 w sk\u0142ad zespo\u0142u. Sprawd\u017a, kiedy stosowa\u0107 amenity=* a kiedy landuse=education.",
                "note": "Children RSPO: 43787;278074"
            }
        },
        {
            "id": 43787,
            "type": "Feature",
            "geometry": {
                "type": "Point",
                "coordinates": [
                    22.02163,
                    49.620349999999995
                ]
            },
            "properties": {
                "isced:level": "1;2",
                "ref:rspo": 43787,
                "official_name": "Zesp\u00f3\u0142 Szkolno-Przedszkolny, Szko\u0142a Podstawowa im. Miko\u0142aja Kopernika w Ja\u0107mierzu",
                "name": "Zesp\u00f3\u0142 Szkolno-Przedszkolny, Szko\u0142a Podstawowa",
                "addr:postcode": "38-530",
                "addr:city": "Ja\u0107mierz",
                "addr:street": "Szkolna",
                "addr:housenumber": "40",
                "addr:teryt:simc": 362884,
                "addr:teryt:sym_ul": 21970,
                "phone": "+48 134671306",
                "email": "sp.jacmierz@zarszyn.pl",
                "website": "http:\/\/www.spjacmierz.szkolnastrona.pl",
                "ref:regon": "001213979",
                "ref:vatin": "PL6871725293",
                "operator": "Gmina Zarszyn",
                "operator:type": "government",
                "amenity": "school",
                "note": "Parent RSPO: 278076"
            }
        },
        {
            "id": 278074,
            "type": "Feature",
            "geometry": {
                "type": "Point",
                "coordinates": [
                    22.02163,
                    49.62032
                ]
            },
            "properties": {
                "ref:rspo": 278074,
                "official_name": "Zesp\u00f3\u0142 Szkolno-Przedszkolny, Przedszkole Publiczne w Ja\u0107mierzu",
                "name": "Zesp\u00f3\u0142 Szkolno-Przedszkolny, Przedszkole Publiczne w Ja\u0107mierzu",
                "addr:postcode": "38-530",
                "addr:city": "Ja\u0107mierz",
                "addr:street": "Szkolna",
                "addr:housenumber": "40",
                "addr:teryt:simc": 362884,
                "addr:teryt:sym_ul": 21970,
                "phone": "+48 134671306",
                "email": "sp.jacmierz@zarszyn.pl",
                "website": "http:\/\/spjacmierz.szkolnastrona.pl",
                "ref:regon": "389759545",
                "operator": "Gmina Zarszyn",
                "operator:type": "government",
                "amenity": "kindergarten",
                "note": "Parent RSPO: 278076"
            }
        }
    ]
}