{
    "type": "FeatureCollection",
    "features": [
        {
            "id": 6060,
            "type": "Feature",
            "geometry": {
                "type": "Point",
                "coordinates": [
                    22.23615,
                    49.42207
                ]
            },
            "properties": {
                "isced:level": "1;2",
                "ref:rspo": 6060,
                "official_name": "Szko\u0142a Podstawowa w \u0141ukowem",
                "name": "Szko\u0142a Podstawowa w \u0141ukowem",
                "addr:postcode": "38-516",
                "addr:place": "\u0141ukowe",
                "addr:housenumber": "64",
                "addr:city:simc": 362625,
                "phone": "+48 134662045",
                "email": "lukowe@poczta.onet.pl",
                "ref:regon": "001200824",
                "ref:vatin": "PL6871447434",
                "operator": "Gmina Zag\u00f3rz",
                "operator:type": "government",
                "amenity": "school"
            }
        },
        {
            "id": 4063,
            "type": "Feature",
            "geometry": {
                "type": "Point",
                "coordinates": [
                    22.16798,
                    49.45287
                ]
            },
            "properties": {
                "isced:level": "1;2",
                "ref:rspo": 4063,
                "official_name": "Niepubliczna Szko\u0142a Podstawowa w Mokrem",
                "name": "Niepubliczna Szko\u0142a Podstawowa w Mokrem",
                "addr:postcode": "38-542",
                "addr:place": "Mokre",
                "addr:housenumber": "32",
                "addr:city:simc": 362654,
                "phone": "+48 134629075",
                "email": "nspmokre@onet.pl",
                "ref:regon": "180877841",
                "operator": "Stowarzyszenie Baladhora",
                "operator:type": "ngo",
                "amenity": "school"
            }
        },
        {
            "id": 9161,
            "type": "Feature",
            "geometry": {
                "type": "Point",
                "coordinates": [
                    22.22098,
                    49.45644
                ]
            },
            "properties": {
                "ref:rspo": 9161,
                "official_name": "Spo\u0142eczne Przedszkole Rodzinne",
                "name": "Spo\u0142eczne Przedszkole Rodzinne",
                "addr:postcode": "38-516",
                "addr:place": "Czaszyn",
                "addr:housenumber": "191",
                "addr:city:simc": 362594,
                "phone": "+48 693820185",
                "email": "lucja.teresa@interia.pl",
                "ref:regon": "180883474",
                "ref:vatin": "PL6871185750",
                "operator": "Przedsi\u0119biorstwo Us\u0142ugowo Handlowo Produkcyjne \u0141ucja Szpara",
                "operator:type": "consortium",
                "amenity": "kindergarten"
            }
        },
        {
            "id": 6062,
            "type": "Feature",
            "geometry": {
                "type": "Point",
                "coordinates": [
                    22.25301,
                    49.4681799
                ]
            },
            "properties": {
                "isced:level": "1;2",
                "ref:rspo": 6062,
                "official_name": "Szko\u0142a Podstawowa im. Wincentego Witosa w Tarnawie Dolnej",
                "name": "Szko\u0142a Podstawowa",
                "addr:postcode": "38-516",
                "addr:place": "Tarnawa Dolna",
                "addr:housenumber": "28",
                "addr:city:simc": 362789,
                "phone": "+48 134620046",
                "email": "sptarnawa@wp.pl",
                "website": "http:\/\/www.sptarnawa.szkolnastrona.pl",
                "ref:regon": "001200770",
                "ref:vatin": "PL6871446920",
                "operator": "Gmina Zag\u00f3rz",
                "operator:type": "government",
                "amenity": "school"
            }
        },
        {
            "id": 9159,
            "type": "Feature",
            "geometry": {
                "type": "Point",
                "coordinates": [
                    22.25301,
                    49.4681499
                ]
            },
            "properties": {
                "ref:rspo": 9159,
                "official_name": "Przedszkole Niepubliczne im. Ksi\u0119dza J. Jakie\u0142y",
                "name": "Przedszkole Niepubliczne",
                "addr:postcode": "38-516",
                "addr:place": "Tarnawa Dolna",
                "addr:housenumber": "28c",
                "addr:city:simc": 362789,
                "phone": "+48 134930555",
                "email": "januszkrajnik@op.pl",
                "ref:regon": "180883468",
                "ref:vatin": "PL6871899283",
                "operator": "Nasza Przysz\u0142o\u015b\u0107 - Tarnawa",
                "operator:type": "ngo",
                "amenity": "kindergarten"
            }
        },
        {
            "id": 9160,
            "type": "Feature",
            "geometry": {
                "type": "Point",
                "coordinates": [
                    22.26267,
                    49.5024299
                ]
            },
            "properties": {
                "ref:rspo": 9160,
                "official_name": "Przedszkole Niepubliczne im. B\u0142. Edmunda Bojanowskiego Prowadzone Przez Zgromadzenie Si\u00f3str S\u0142u\u017cebni",
                "name": "Przedszkole Niepubliczne",
                "addr:postcode": "38-540",
                "addr:city": "Zag\u00f3rz",
                "addr:street": "J\u00f3zefa Pi\u0142sudskiego",
                "addr:housenumber": "139",
                "addr:city:simc": 953881,
                "addr:street:sym_ul": 16252,
                "phone": "+48 134622827",
                "email": "przedszkolezagorz@gmail.com",
                "ref:regon": "180886573",
                "ref:vatin": "PL6871259968",
                "operator": "Zg. Ss. S\u0142u\u017cebniczek Nmp Niepokalanie Pocz\u0119tej, Prowincja Przemyska",
                "operator:type": "religious",
                "amenity": "kindergarten"
            }
        },
        {
            "id": 6061,
            "type": "Feature",
            "geometry": {
                "type": "Point",
                "coordinates": [
                    22.25983,
                    49.50695
                ]
            },
            "properties": {
                "isced:level": "1;2",
                "ref:rspo": 6061,
                "official_name": "Szko\u0142a Podstawowa im. Janusza Korczaka w Pora\u017cu",
                "name": "Szko\u0142a Podstawowa",
                "addr:postcode": "38-540",
                "addr:city": "Pora\u017c",
                "addr:street": "Szkolna",
                "addr:housenumber": "2",
                "addr:city:simc": 362720,
                "addr:street:sym_ul": 21970,
                "phone": "+48 134628028",
                "email": "sporaz@poczta.onet.pl",
                "ref:regon": "001200818",
                "ref:vatin": "PL6871446908",
                "operator": "Gmina Zag\u00f3rz",
                "operator:type": "government",
                "amenity": "school"
            }
        },
        {
            "id": 120493,
            "type": "Feature",
            "geometry": {
                "type": "Point",
                "coordinates": [
                    22.25878,
                    49.50711
                ]
            },
            "properties": {
                "isced:level": "1;2",
                "ref:rspo": 120493,
                "official_name": "Szko\u0142a Podstawowa Nr 1 im. \u015aw. Kazimierza w Zag\u00f3rzu",
                "name": "Szko\u0142a Podstawowa Nr 1",
                "addr:postcode": "38-540",
                "addr:city": "Zag\u00f3rz",
                "addr:street": "J\u00f3zefa Pi\u0142sudskiego",
                "addr:housenumber": "70",
                "addr:city:simc": 953881,
                "addr:street:sym_ul": 16252,
                "phone": "+48 134622022",
                "email": "sp1_zagorz@op.pl",
                "ref:regon": "001200787",
                "ref:vatin": "PL6871447411",
                "operator": "Gmina Zag\u00f3rz",
                "operator:type": "government",
                "amenity": "school"
            }
        },
        {
            "id": 196230,
            "type": "Feature",
            "geometry": {
                "type": "Point",
                "coordinates": [
                    22.2633,
                    49.51761
                ]
            },
            "properties": {
                "ref:rspo": 196230,
                "official_name": "Przedszkole Samorz\u0105dowe w Zag\u00f3rzu",
                "name": "Przedszkole Samorz\u0105dowe w Zag\u00f3rzu",
                "addr:postcode": "38-540",
                "addr:city": "Zag\u00f3rz",
                "addr:street": "Wolno\u015bci",
                "addr:housenumber": "10",
                "addr:city:simc": 953881,
                "addr:street:sym_ul": 24687,
                "phone": "+48 134653902",
                "ref:regon": "367988560",
                "operator": "Gmina Zag\u00f3rz",
                "operator:type": "government",
                "amenity": "kindergarten"
            }
        },
        {
            "id": 266312,
            "type": "Feature",
            "geometry": {
                "type": "Point",
                "coordinates": [
                    22.2633,
                    49.517579999999995
                ]
            },
            "properties": {
                "isced:level": "1;2",
                "ref:rspo": 266312,
                "official_name": "Szko\u0142a Podstawowa Nr 2 w Zag\u00f3rzu",
                "name": "Szko\u0142a Podstawowa Nr 2 w Zag\u00f3rzu",
                "addr:postcode": "38-540",
                "addr:city": "Zag\u00f3rz",
                "addr:street": "Wolno\u015bci",
                "addr:housenumber": "10",
                "addr:city:simc": 953881,
                "addr:street:sym_ul": 24687,
                "phone": "+48 134653900",
                "email": "sprudy@op.pl",
                "ref:regon": "369415838",
                "operator": "Gmina Zag\u00f3rz",
                "operator:type": "government",
                "amenity": "school"
            }
        },
        {
            "id": 7934,
            "type": "Feature",
            "geometry": {
                "type": "Point",
                "coordinates": [
                    22.24133,
                    49.51862
                ]
            },
            "properties": {
                "isced:level": "1;2",
                "ref:rspo": 7934,
                "official_name": "Szko\u0142a Podstawowa w Zahutyniu im. W\u0142adys\u0142awa Beliny-Pra\u017cmowskiego",
                "name": "Szko\u0142a Podstawowa w Zahutyniu",
                "addr:postcode": "38-500",
                "addr:place": "Zahuty\u0144",
                "addr:housenumber": "111",
                "addr:city:simc": 362803,
                "phone": "+48 134642585",
                "email": "spzahutyn@interia.pl",
                "website": "http:\/\/spzahutyn.szkolnastrona.pl",
                "ref:regon": "001200830",
                "ref:vatin": "PL6871442218",
                "operator": "Gmina Zag\u00f3rz",
                "operator:type": "government",
                "amenity": "school"
            }
        },
        {
            "id": 6059,
            "type": "Feature",
            "geometry": {
                "type": "Point",
                "coordinates": [
                    21.95862,
                    49.58816
                ]
            },
            "properties": {
                "isced:level": "1;2",
                "ref:rspo": 6059,
                "official_name": "Szko\u0142a Podstawowa w Czaszynie",
                "name": "Szko\u0142a Podstawowa w Czaszynie",
                "addr:postcode": "38-516",
                "addr:city": "Czaszyn",
                "addr:street": "Starowiejska",
                "addr:housenumber": "14",
                "addr:city:simc": 362594,
                "addr:street:sym_ul": 20998,
                "phone": "+48 134661013",
                "email": "spczaszyn@interia.pl",
                "website": "http:\/\/www.spczaszyn.zagorz.info",
                "ref:regon": "001200801",
                "ref:vatin": "PL6871442224",
                "operator": "Gmina Zag\u00f3rz",
                "operator:type": "government",
                "amenity": "school"
            }
        }
    ]
}