{
    "type": "FeatureCollection",
    "features": [
        {
            "id": 103862,
            "type": "Feature",
            "geometry": {
                "type": "Point",
                "coordinates": [
                    22.15932,
                    49.50088
                ]
            },
            "properties": {
                "ref:rspo": 103862,
                "official_name": "Punkt Przedszkolny Przy Szkole Podstawowej w Niebieszczanach",
                "name": "Punkt Przedszkolny Przy Szkole Podstawowej w Niebieszczanach",
                "addr:country": "PL",
                "addr:postcode": "38-504",
                "addr:place": "Niebieszczany",
                "addr:housenumber": "492",
                "addr:teryt:sym_ul": 359439,
                "contact:phone": "+48 134675896",
                "contact:email": "spniebieszczany@gminasanok.pl",
                "ref:regon": "180921097",
                "operator": "Gmina Sanok",
                "operator:type": "government",
                "amenity": "kindergarten"
            }
        },
        {
            "id": 108690,
            "type": "Feature",
            "geometry": {
                "type": "Point",
                "coordinates": [
                    22.15932,
                    49.50085
                ]
            },
            "properties": {
                "isced:level": "1;2",
                "ref:rspo": 108690,
                "official_name": "Szko\u0142a Podstawowa w Niebieszczanach",
                "name": "Szko\u0142a Podstawowa w Niebieszczanach",
                "addr:country": "PL",
                "addr:postcode": "38-504",
                "addr:place": "Niebieszczany",
                "addr:housenumber": "492",
                "addr:teryt:sym_ul": 359439,
                "contact:phone": "+48 134675896",
                "contact:email": "spniebieszczany@gminasanok.pl",
                "contact:website": "http:\/\/www.spniebieszczany.szkolna.net",
                "ref:regon": "001214335",
                "ref:vatin": "PL6871702027",
                "operator": "Gmina Sanok",
                "operator:type": "government",
                "amenity": "school"
            }
        },
        {
            "id": 87781,
            "type": "Feature",
            "geometry": {
                "type": "Point",
                "coordinates": [
                    22.12745,
                    49.52728
                ]
            },
            "properties": {
                "isced:level": "1;2",
                "ref:rspo": 87781,
                "official_name": "Szko\u0142a Podstawowa w Prusieku",
                "name": "Szko\u0142a Podstawowa w Prusieku",
                "addr:country": "PL",
                "addr:postcode": "38-504",
                "addr:place": "Prusiek",
                "addr:housenumber": "157",
                "addr:teryt:sym_ul": 359540,
                "contact:phone": "+48 134675510",
                "contact:email": "spprusiek@gminasanok.pl",
                "contact:website": "http:\/\/spprusiek.szkolnastrona.pl\/",
                "ref:regon": "001214306",
                "ref:vatin": "PL6871702085",
                "operator": "Gmina Sanok",
                "operator:type": "government",
                "amenity": "school",
                "note": "Children RSPO: 91524"
            }
        },
        {
            "id": 103863,
            "type": "Feature",
            "geometry": {
                "type": "Point",
                "coordinates": [
                    22.12745,
                    49.527249999999995
                ]
            },
            "properties": {
                "ref:rspo": 103863,
                "official_name": "Punkt Przedszkolny Przy Szkole Podstawowej w Prusieku",
                "name": "Punkt Przedszkolny Przy Szkole Podstawowej w Prusieku",
                "addr:country": "PL",
                "addr:postcode": "38-504",
                "addr:place": "Prusiek",
                "addr:housenumber": "157",
                "addr:teryt:sym_ul": 359540,
                "contact:phone": "+48 134675510",
                "contact:email": "spprusiek@gminasanok.pl",
                "ref:regon": "180921111",
                "operator": "Gmina Sanok",
                "operator:type": "government",
                "amenity": "kindergarten"
            }
        },
        {
            "id": 91524,
            "type": "Feature",
            "geometry": {
                "type": "Point",
                "coordinates": [
                    22.14025,
                    49.54893
                ]
            },
            "properties": {
                "isced:level": "1;2",
                "ref:rspo": 91524,
                "official_name": "Filialna Szko\u0142a Podstawowa w Sanoczku",
                "name": "Filialna Szko\u0142a Podstawowa w Sanoczku",
                "addr:country": "PL",
                "addr:postcode": "38-500",
                "addr:place": "Sanoczek",
                "addr:housenumber": "208",
                "addr:teryt:sym_ul": 359617,
                "contact:phone": "+48 134632987",
                "contact:email": "spprusiek@gminasanok.pl",
                "contact:website": "http:\/\/spprusiek.szkolnastrona.pl\/",
                "ref:regon": "121430600",
                "ref:vatin": "PL6871702085",
                "operator": "Gmina Sanok",
                "operator:type": "government",
                "amenity": "school",
                "note": "Parent RSPO: 87781"
            }
        },
        {
            "id": 85371,
            "type": "Feature",
            "geometry": {
                "type": "Point",
                "coordinates": [
                    22.29088,
                    49.55618
                ]
            },
            "properties": {
                "isced:level": "1;2",
                "ref:rspo": 85371,
                "official_name": "Szko\u0142a Podstawowa w Za\u0142u\u017cu",
                "name": "Szko\u0142a Podstawowa w Za\u0142u\u017cu",
                "addr:country": "PL",
                "addr:postcode": "38-534",
                "addr:place": "Wujskie",
                "addr:housenumber": "1",
                "addr:teryt:sym_ul": 359793,
                "contact:phone": "+48 134622926",
                "contact:email": "spzaluz@gminasanok.pl",
                "contact:website": "http:\/\/spzaluz.szkolna.net",
                "ref:regon": "001214246",
                "ref:vatin": "PL6871702168",
                "operator": "Gmina Sanok",
                "operator:type": "government",
                "amenity": "school"
            }
        },
        {
            "id": 88453,
            "type": "Feature",
            "geometry": {
                "type": "Point",
                "coordinates": [
                    22.09849,
                    49.55652
                ]
            },
            "properties": {
                "isced:level": "1;2",
                "ref:rspo": 88453,
                "official_name": "Szko\u0142a Podstawowa im. Marii Konopnickiej w Pisarowcach",
                "name": "Szko\u0142a Podstawowa",
                "addr:country": "PL",
                "addr:postcode": "38-533",
                "addr:place": "Pisarowce",
                "addr:housenumber": "92",
                "addr:teryt:sym_ul": 359528,
                "contact:phone": "+48 134672013",
                "contact:email": "szkolapisarowce@gminasanok.pl",
                "ref:regon": "001214298",
                "ref:vatin": "PL6871702056",
                "operator": "Gmina Sanok",
                "operator:type": "government",
                "amenity": "school"
            }
        },
        {
            "id": 103864,
            "type": "Feature",
            "geometry": {
                "type": "Point",
                "coordinates": [
                    22.09849,
                    49.55649
                ]
            },
            "properties": {
                "ref:rspo": 103864,
                "official_name": "Punkt Przedszkolny Przy Szkole Podstawowej im. Marii Konopnickiej w Pisarowcach",
                "name": "Punkt Przedszkolny Przy Szkole Podstawowej",
                "addr:country": "PL",
                "addr:postcode": "38-533",
                "addr:place": "Pisarowce",
                "addr:housenumber": "92",
                "addr:teryt:sym_ul": 359528,
                "contact:phone": "+48 134672013",
                "contact:email": "sppisarowce@wp.pl",
                "ref:regon": "180920962",
                "operator": "Gmina Sanok",
                "operator:type": "government",
                "amenity": "kindergarten"
            }
        },
        {
            "id": 103870,
            "type": "Feature",
            "geometry": {
                "type": "Point",
                "coordinates": [
                    22.14833,
                    49.57508
                ]
            },
            "properties": {
                "ref:rspo": 103870,
                "official_name": "Zesp\u00f3\u0142 Wychowania Przedszkolnego Przy Szkole Podstawowej w Kostarowcach Filialna Szko\u0142a Podstawowa w Czerte\u017cu",
                "name": "Zesp\u00f3\u0142 Wychowania Przedszkolnego Przy Szkole Podstawowej w Kostarowcach Filialna Szko\u0142a Podstawowa w Czerte\u017cu",
                "addr:country": "PL",
                "addr:postcode": "38-500",
                "addr:place": "Czerte\u017c",
                "addr:housenumber": "133",
                "addr:teryt:sym_ul": 359132,
                "contact:phone": "+48 134631661",
                "contact:email": "spkostarowce@interia.pl",
                "ref:regon": "180921039",
                "operator": "Gmina Sanok",
                "operator:type": "government",
                "amenity": "kindergarten"
            }
        },
        {
            "id": 90814,
            "type": "Feature",
            "geometry": {
                "type": "Point",
                "coordinates": [
                    22.14833,
                    49.57505
                ]
            },
            "properties": {
                "isced:level": "1;2",
                "ref:rspo": 90814,
                "official_name": "Filialna Szko\u0142a Podstawowa w Czerte\u017cu",
                "name": "Filialna Szko\u0142a Podstawowa w Czerte\u017cu",
                "addr:country": "PL",
                "addr:postcode": "38-500",
                "addr:place": "Czerte\u017c",
                "addr:housenumber": "133",
                "addr:teryt:sym_ul": 359132,
                "contact:phone": "+48 134631661",
                "contact:email": "spkostarowce@gminasanok.pl",
                "contact:website": "http:\/\/www.spkostarowce.szkolnastrona.pl",
                "ref:regon": "121427500",
                "ref:vatin": "PL6871701967",
                "operator": "Gmina Sanok",
                "operator:type": "government",
                "amenity": "school",
                "note": "Parent RSPO: 87058"
            }
        },
        {
            "id": 90902,
            "type": "Feature",
            "geometry": {
                "type": "Point",
                "coordinates": [
                    22.18605,
                    49.58569
                ]
            },
            "properties": {
                "isced:level": "1;2",
                "ref:rspo": 90902,
                "official_name": "Szko\u0142a Podstawowa w Trepczy",
                "name": "Szko\u0142a Podstawowa w Trepczy",
                "addr:country": "PL",
                "addr:postcode": "38-500",
                "addr:city": "Trepcza",
                "addr:street": "ul. Sanocka",
                "addr:housenumber": "16",
                "addr:teryt:simc": 19502,
                "addr:teryt:sym_ul": 359712,
                "contact:phone": "+48 134644551",
                "contact:email": "sptrepcza@gminasanok.pl",
                "ref:regon": "001214269",
                "ref:vatin": "PL6871702145",
                "operator": "Gmina Sanok",
                "operator:type": "government",
                "amenity": "school"
            }
        },
        {
            "id": 103867,
            "type": "Feature",
            "geometry": {
                "type": "Point",
                "coordinates": [
                    22.18605,
                    49.58566
                ]
            },
            "properties": {
                "ref:rspo": 103867,
                "official_name": "Punkt Przedszkolny Przy Szkole Podstawowej w Trepczy",
                "name": "Punkt Przedszkolny Przy Szkole Podstawowej w Trepczy",
                "addr:country": "PL",
                "addr:postcode": "38-500",
                "addr:city": "Trepcza",
                "addr:street": "ul. Sanocka",
                "addr:housenumber": "16",
                "addr:teryt:simc": 19502,
                "addr:teryt:sym_ul": 359712,
                "contact:phone": "+48 134644551",
                "contact:email": "sptrepcza@gminasanok.pl",
                "ref:regon": "180921000",
                "operator": "Gmina Sanok",
                "operator:type": "government",
                "amenity": "kindergarten"
            }
        },
        {
            "id": 87058,
            "type": "Feature",
            "geometry": {
                "type": "Point",
                "coordinates": [
                    22.11337,
                    49.5877
                ]
            },
            "properties": {
                "isced:level": "1;2",
                "ref:rspo": 87058,
                "official_name": "Szko\u0142a Podstawowa im. \u015awi\u0119tego Andrzeja Boboli w Kostarowcach",
                "name": "Szko\u0142a Podstawowa",
                "addr:country": "PL",
                "addr:postcode": "38-507",
                "addr:place": "Kostarowce",
                "addr:housenumber": "79",
                "addr:teryt:sym_ul": 359296,
                "contact:phone": "+48 134626412",
                "contact:email": "spkostarowce@gminasanok.pl",
                "contact:website": "http:\/\/www.spkostarowce.szkolnastrona.pl",
                "ref:regon": "001214275",
                "ref:vatin": "PL6871701967",
                "operator": "Gmina Sanok",
                "operator:type": "government",
                "amenity": "school",
                "note": "Children RSPO: 90814"
            }
        },
        {
            "id": 103869,
            "type": "Feature",
            "geometry": {
                "type": "Point",
                "coordinates": [
                    22.11337,
                    49.587669999999996
                ]
            },
            "properties": {
                "ref:rspo": 103869,
                "official_name": "Zesp\u00f3\u0142 Wychowania Przedszkolnego Przy Szkole Podstawowej im. \u015aw. Andrzeja Boboli w Kostarowcach",
                "name": "Zesp\u00f3\u0142 Wychowania Przedszkolnego Przy Szkole Podstawowej",
                "addr:country": "PL",
                "addr:postcode": "38-500",
                "addr:place": "Kostarowce",
                "addr:housenumber": "79",
                "addr:teryt:sym_ul": 359296,
                "contact:phone": "+48 134626412",
                "contact:email": "spkostarowce@interia.pl",
                "ref:regon": "180921022",
                "operator": "Gmina Sanok",
                "operator:type": "government",
                "amenity": "kindergarten"
            }
        },
        {
            "id": 89047,
            "type": "Feature",
            "geometry": {
                "type": "Point",
                "coordinates": [
                    22.0921999,
                    49.60218
                ]
            },
            "properties": {
                "isced:level": "1;2",
                "ref:rspo": 89047,
                "official_name": "Szko\u0142a Podstawowa im. Ignacego \u0141ukasiewicza w Strachocinie",
                "name": "Szko\u0142a Podstawowa",
                "addr:country": "PL",
                "addr:postcode": "38-507",
                "addr:place": "Strachocina",
                "addr:housenumber": "341",
                "addr:teryt:sym_ul": 359675,
                "contact:phone": "+48 134625100",
                "contact:email": "spstrachocina@gminasanok.pl",
                "contact:website": "http:\/\/zsstrachocina.szkolnastrona.pl",
                "ref:regon": "180391860",
                "ref:vatin": "PL6871852229",
                "operator": "Gmina Sanok",
                "operator:type": "government",
                "amenity": "school"
            }
        },
        {
            "id": 103865,
            "type": "Feature",
            "geometry": {
                "type": "Point",
                "coordinates": [
                    22.0921999,
                    49.602149999999995
                ]
            },
            "properties": {
                "ref:rspo": 103865,
                "official_name": "Punkt Przedszkolny Przy Szkole Podstawowej im.ignacego \u0141ukasiewicza w Strachocinie",
                "name": "Punkt Przedszkolny Przy Szkole Podstawowej im.ignacego \u0141ukasiewicza w Strachocinie",
                "addr:country": "PL",
                "addr:postcode": "38-507",
                "addr:place": "Strachocina",
                "addr:housenumber": "341",
                "addr:teryt:sym_ul": 359675,
                "contact:phone": "+48 134625100",
                "contact:email": "spstrachocina@gminasanok.pl",
                "ref:regon": "180920985",
                "operator": "Gmina Sanok",
                "operator:type": "government",
                "amenity": "kindergarten"
            }
        },
        {
            "id": 87588,
            "type": "Feature",
            "geometry": {
                "type": "Point",
                "coordinates": [
                    22.14446,
                    49.60559
                ]
            },
            "properties": {
                "isced:level": "1;2",
                "ref:rspo": 87588,
                "official_name": "Szko\u0142a Podstawowa w Srogowie G\u00f3rnym",
                "name": "Szko\u0142a Podstawowa w Srogowie G\u00f3rnym",
                "addr:country": "PL",
                "addr:postcode": "38-507",
                "addr:place": "Srog\u00f3w G\u00f3rny",
                "addr:housenumber": "137",
                "addr:teryt:sym_ul": 359652,
                "contact:phone": "+48 134626411",
                "contact:email": "spsrogow@gminasanok.pl",
                "contact:website": "http:\/\/www.sp.srogow.szkolnastrona.pl",
                "ref:regon": "001213650",
                "ref:vatin": "PL6871702122",
                "operator": "Gmina Sanok",
                "operator:type": "government",
                "amenity": "school"
            }
        },
        {
            "id": 103866,
            "type": "Feature",
            "geometry": {
                "type": "Point",
                "coordinates": [
                    22.14446,
                    49.60556
                ]
            },
            "properties": {
                "ref:rspo": 103866,
                "official_name": "Punkt Przedszkolny Przy Szkole Podstawowej w Srogowie G\u00f3rnym",
                "name": "Punkt Przedszkolny Przy Szkole Podstawowej w Srogowie G\u00f3rnym",
                "addr:country": "PL",
                "addr:postcode": "38-507",
                "addr:place": "Srog\u00f3w G\u00f3rny",
                "addr:housenumber": "137",
                "addr:teryt:sym_ul": 359652,
                "contact:phone": "+48 134626411",
                "contact:email": "srogow.szkola@o2.pl",
                "ref:regon": "180920991",
                "operator": "Gmina Sanok",
                "operator:type": "government",
                "amenity": "kindergarten"
            }
        },
        {
            "id": 103868,
            "type": "Feature",
            "geometry": {
                "type": "Point",
                "coordinates": [
                    22.28197,
                    49.61004
                ]
            },
            "properties": {
                "ref:rspo": 103868,
                "official_name": "Punkt Przedszkolny Przy Szkole Podstawowej w Mrzyg\u0142odzie im. Kr\u00f3la W\u0142adys\u0142awa Jagie\u0142\u0142y Filialna Szko\u0142a Podstawowa w Tyrawie Solnej im. Marsza\u0142ka J\u00f3zefa Pi\u0142sudskiego",
                "name": "Punkt Przedszkolny Przy Szkole Podstawowej w Mrzyg\u0142odzie",
                "addr:country": "PL",
                "addr:postcode": "38-503",
                "addr:place": "Tyrawa Solna",
                "addr:housenumber": "11",
                "addr:teryt:sym_ul": 359764,
                "contact:phone": "+48 134627232",
                "contact:email": "spmrzyglod@onet.eu",
                "ref:regon": "180921016",
                "operator": "Gmina Sanok",
                "operator:type": "government",
                "amenity": "kindergarten"
            }
        },
        {
            "id": 92598,
            "type": "Feature",
            "geometry": {
                "type": "Point",
                "coordinates": [
                    22.28197,
                    49.610009999999996
                ]
            },
            "properties": {
                "isced:level": "1;2",
                "ref:rspo": 92598,
                "official_name": "Filialna Szko\u0142a Podstawowa w Tyrawie Solnej im.marsza\u0142ka J\u00f3zefa Pi\u0142sudskiego",
                "name": "Filialna Szko\u0142a Podstawowa w Tyrawie Solnej im.marsza\u0142ka J\u00f3zefa Pi\u0142sudskiego",
                "addr:country": "PL",
                "addr:postcode": "38-503",
                "addr:place": "Tyrawa Solna",
                "addr:housenumber": "11",
                "addr:teryt:sym_ul": 359764,
                "contact:phone": "+48 134627232",
                "contact:email": "spmrzyglod@onet.eu",
                "ref:regon": "121432900",
                "ref:vatin": "PL6871702010",
                "operator": "Gmina Sanok",
                "operator:type": "government",
                "amenity": "school",
                "note": "Parent RSPO: 88731"
            }
        },
        {
            "id": 88731,
            "type": "Feature",
            "geometry": {
                "type": "Point",
                "coordinates": [
                    22.27262,
                    49.61798
                ]
            },
            "properties": {
                "isced:level": "1;2",
                "ref:rspo": 88731,
                "official_name": "Szko\u0142a Podstawowa im. Kr\u00f3la W\u0142adys\u0142awa Jagie\u0142\u0142y w Mrzyg\u0142odzie",
                "name": "Szko\u0142a Podstawowa",
                "addr:country": "PL",
                "addr:postcode": "38-503",
                "addr:place": "Mrzyg\u0142\u00f3d",
                "addr:housenumber": "170",
                "addr:teryt:sym_ul": 359391,
                "contact:phone": "+48 134627217",
                "contact:email": "spmrzyglod@onet.eu",
                "ref:regon": "001214329",
                "ref:vatin": "PL6871702010",
                "operator": "Gmina Sanok",
                "operator:type": "government",
                "amenity": "school",
                "note": "Children RSPO: 92598"
            }
        },
        {
            "id": 84504,
            "type": "Feature",
            "geometry": {
                "type": "Point",
                "coordinates": [
                    22.11018,
                    49.61928
                ]
            },
            "properties": {
                "isced:level": "1;2",
                "ref:rspo": 84504,
                "official_name": "Szko\u0142a Podstawowa im.ignacego \u0141ukasiewicza w Pakosz\u00f3wce",
                "name": "Szko\u0142a Podstawowa im.ignacego \u0141ukasiewicza w Pakosz\u00f3wce",
                "addr:country": "PL",
                "addr:postcode": "38-507",
                "addr:place": "Pakosz\u00f3wka",
                "addr:housenumber": "222",
                "addr:teryt:sym_ul": 359474,
                "contact:phone": "+48 134626414",
                "contact:email": "sppakoszwka@gminasanok.pl",
                "ref:regon": "001214312",
                "ref:vatin": "PL6871702033",
                "operator": "Gmina Sanok",
                "operator:type": "government",
                "amenity": "school"
            }
        },
        {
            "id": 89852,
            "type": "Feature",
            "geometry": {
                "type": "Point",
                "coordinates": [
                    22.10527,
                    49.62263
                ]
            },
            "properties": {
                "ref:rspo": 89852,
                "official_name": "Niepubliczne Przedszkole w Pakosz\u00f3wce im. B\u0142ogos\u0142awionego J\u00f3zefa, J\u00f3zefata Kocy\u0142owskiego",
                "name": "Niepubliczne Przedszkole w Pakosz\u00f3wce",
                "addr:country": "PL",
                "addr:postcode": "38-500",
                "addr:place": "Pakosz\u00f3wka",
                "addr:housenumber": "221",
                "addr:teryt:sym_ul": 359474,
                "contact:phone": "+48 134626253",
                "contact:email": "npwp@poczta.onet.pl",
                "ref:regon": "180914329",
                "ref:vatin": "PL6871777798",
                "operator": "Stowarzyszenie Rozwoju Wsi Pakosz\u00f3wka",
                "operator:type": "ngo",
                "amenity": "kindergarten"
            }
        },
        {
            "id": 87586,
            "type": "Feature",
            "geometry": {
                "type": "Point",
                "coordinates": [
                    22.16777,
                    49.63303
                ]
            },
            "properties": {
                "isced:level": "1;2",
                "ref:rspo": 87586,
                "official_name": "Szko\u0142a Podstawowa w Falej\u00f3wce",
                "name": "Szko\u0142a Podstawowa w Falej\u00f3wce",
                "addr:country": "PL",
                "addr:postcode": "38-507",
                "addr:place": "Falej\u00f3wka",
                "addr:housenumber": "173",
                "addr:teryt:sym_ul": 359190,
                "contact:phone": "+48 134626403",
                "contact:email": "spfal@gminasanok.pl",
                "ref:regon": "001214252",
                "ref:vatin": "PL6871701950",
                "operator": "Gmina Sanok",
                "operator:type": "government",
                "amenity": "school"
            }
        },
        {
            "id": 103861,
            "type": "Feature",
            "geometry": {
                "type": "Point",
                "coordinates": [
                    22.16777,
                    49.632999999999996
                ]
            },
            "properties": {
                "ref:rspo": 103861,
                "official_name": "Punkt Przedszkolny Przy Szkole Podstawowej w Falej\u00f3wce",
                "name": "Punkt Przedszkolny Przy Szkole Podstawowej w Falej\u00f3wce",
                "addr:country": "PL",
                "addr:postcode": "38-507",
                "addr:place": "Falej\u00f3wka",
                "addr:housenumber": "173",
                "addr:teryt:sym_ul": 359190,
                "contact:phone": "+48 134626403",
                "contact:email": "szkola.fal@o2.pl",
                "ref:regon": "180921068",
                "operator": "Gmina Sanok",
                "operator:type": "government",
                "amenity": "kindergarten"
            }
        },
        {
            "id": 89851,
            "type": "Feature",
            "geometry": {
                "type": "Point",
                "coordinates": [
                    22.11925,
                    49.64062
                ]
            },
            "properties": {
                "isced:level": "1;2",
                "ref:rspo": 89851,
                "official_name": "Niepubliczna Szko\u0142a Podstawowa w Lalinie",
                "name": "Niepubliczna Szko\u0142a Podstawowa w Lalinie",
                "addr:country": "PL",
                "addr:postcode": "36-207",
                "addr:place": "Lalin",
                "addr:housenumber": "82",
                "addr:teryt:sym_ul": 359304,
                "contact:phone": "+48 516196804",
                "contact:email": "wpazdro@op.pl",
                "ref:regon": "180914341",
                "ref:vatin": "PL6871777309",
                "operator": "Stowarzyszenie Na Rzecz Rozwoju Wsi Lalin",
                "operator:type": "ngo",
                "amenity": "school"
            }
        },
        {
            "id": 103640,
            "type": "Feature",
            "geometry": {
                "type": "Point",
                "coordinates": [
                    22.3036299,
                    49.64538
                ]
            },
            "properties": {
                "isced:level": "1;2",
                "ref:rspo": 103640,
                "official_name": "Szko\u0142a Podstawowa im. Jana Paw\u0142a II w Dobrej",
                "name": "Szko\u0142a Podstawowa",
                "addr:country": "PL",
                "addr:postcode": "38-503",
                "addr:place": "Dobra",
                "addr:housenumber": "48",
                "addr:teryt:sym_ul": 359155,
                "contact:phone": "+48 134408104",
                "contact:email": "spdobra@gminasanok.pl",
                "ref:regon": "001214230",
                "ref:vatin": "PL6871701944",
                "operator": "Gmina Sanok",
                "operator:type": "government",
                "amenity": "school"
            }
        }
    ]
}