{"type":"FeatureCollection","features":[{"id":106131,"type":"Feature","geometry":{"type":"Point","coordinates":[22.36466,49.57676]},"properties":{"isced:level":"1;2","ref:rspo":106131,"official_name":"Szko\u0142a Podstawowa im. Marii Konopnickiej","name":"Szko\u0142a Podstawowa","addr:country":"PL","addr:postcode":"38-535","addr:place":"Tyrawa Wo\u0142oska","addr:housenumber":"138","addr:teryt:sym_ul":361420,"contact:phone":"+48 134621122","contact:email":"sptyrawa@poczta.onet.pl","contact:website":"http:\/\/serwer1708295.home.pl\/","ref:regon":"000741357","ref:vatin":"PL6871466911","operator":"Gmina Tyrawa Wo\u0142oska","operator:type":"government","amenity":"school"}},{"id":273428,"type":"Feature","geometry":{"type":"Point","coordinates":[22.39311,49.59411]},"properties":{"ref:rspo":273428,"official_name":"Przedszkole Nowych Szans","name":"Przedszkole Nowych Szans","addr:country":"PL","addr:postcode":"38-535","addr:place":"Rozpucie","addr:housenumber":"2","addr:teryt:sym_ul":361347,"contact:email":"jach.karolina@op.pl","ref:regon":"384469400","operator":"Stowarzyszenie Bieszczadzkie Dziedzictwo Kultury","operator:type":"ngo","amenity":"kindergarten"}}]}