{
    "type": "FeatureCollection",
    "features": [
        {
            "id": 56471,
            "type": "Feature",
            "geometry": {
                "type": "Point",
                "coordinates": [
                    22.21341,
                    49.5426
                ]
            },
            "properties": {
                "ref:rspo": 56471,
                "official_name": "Zesp\u00f3\u0142 Szk\u00f3\u0142 Nr 3 im. Walentego Lipi\u0144skiego I Mateusza Beksi\u0144skiego w Sanoku",
                "name": "Zesp\u00f3\u0142 Szk\u00f3\u0142 Nr 3",
                "addr:country": "PL",
                "addr:postcode": "38-500",
                "addr:city": "Sanok",
                "addr:street": "Str\u00f3\u017cowska",
                "addr:housenumber": "16",
                "addr:teryt:simc": 21303,
                "addr:teryt:sym_ul": 953510,
                "contact:phone": "+48 134630448",
                "contact:email": "zstsanok@pro.onet.pl",
                "contact:website": "http:\/\/www.zs3.sanok.pl",
                "ref:regon": "000036179",
                "operator": "Powiat Sanocki",
                "operator:type": "government",
                "landuse": "education",
                "fixme": "amenity=school, amenity=college albo landuse=education w zale\u017cno\u015bci od tego, jakie plac\u00f3wki wchodz\u0105 w sk\u0142ad zespo\u0142u. Sprawd\u017a, kiedy stosowa\u0107 amenity=* a kiedy landuse=education.",
                "note": "Children RSPO: 86613;86614"
            }
        },
        {
            "id": 61644,
            "type": "Feature",
            "geometry": {
                "type": "Point",
                "coordinates": [
                    22.21341,
                    49.54257
                ]
            },
            "properties": {
                "ref:rspo": 61644,
                "official_name": "Regionalne Centrum Rozwoju Edukacji w Sanoku",
                "name": "Regionalne Centrum Rozwoju Edukacji w Sanoku",
                "addr:country": "PL",
                "addr:postcode": "38-500",
                "addr:city": "Sanok",
                "addr:street": "Str\u00f3\u017cowska",
                "addr:housenumber": "16",
                "addr:teryt:simc": 21303,
                "addr:teryt:sym_ul": 953510,
                "contact:phone": "+48 134632698",
                "contact:email": "rcre@wp.pl",
                "contact:website": "http:\/\/www.rcre.pl",
                "ref:regon": "180466339",
                "operator": "Powiat Sanocki",
                "operator:type": "government",
                "landuse": "education",
                "fixme": "amenity=school, amenity=college albo landuse=education w zale\u017cno\u015bci od tego, jakie plac\u00f3wki wchodz\u0105 w sk\u0142ad zespo\u0142u. Sprawd\u017a, kiedy stosowa\u0107 amenity=* a kiedy landuse=education.",
                "note": "Children RSPO: 122661;122662;122716"
            }
        },
        {
            "id": 86613,
            "type": "Feature",
            "geometry": {
                "type": "Point",
                "coordinates": [
                    22.21341,
                    49.54254
                ]
            },
            "properties": {
                "isced:level": "3",
                "ref:rspo": 86613,
                "official_name": "Bran\u017cowa Szko\u0142a I Stopnia Nr 3 w Sanoku",
                "name": "Bran\u017cowa Szko\u0142a I Stopnia Nr 3 w Sanoku",
                "addr:country": "PL",
                "addr:postcode": "38-500",
                "addr:city": "Sanok",
                "addr:street": "Str\u00f3\u017cowska",
                "addr:housenumber": "16",
                "addr:teryt:simc": 21303,
                "addr:teryt:sym_ul": 953510,
                "contact:phone": "+48 134630448",
                "contact:email": "zstsanok@pro.onet.pl",
                "contact:website": "http:\/\/www.zs3.sanok.pl",
                "ref:regon": "371018283",
                "operator": "Powiat Sanocki",
                "operator:type": "government",
                "amenity": "school",
                "note": "Parent RSPO: 56471"
            }
        },
        {
            "id": 86614,
            "type": "Feature",
            "geometry": {
                "type": "Point",
                "coordinates": [
                    22.21341,
                    49.54251
                ]
            },
            "properties": {
                "isced:level": "3",
                "ref:rspo": 86614,
                "official_name": "Technikum Nr 3 w Sanoku",
                "name": "Technikum Nr 3 w Sanoku",
                "addr:country": "PL",
                "addr:postcode": "38-500",
                "addr:city": "Sanok",
                "addr:street": "Str\u00f3\u017cowska",
                "addr:housenumber": "16",
                "addr:teryt:simc": 21303,
                "addr:teryt:sym_ul": 953510,
                "contact:phone": "+48 134630448",
                "contact:email": "zstdyrektor@gmail.com",
                "contact:website": "http:\/\/www.zs3.sanok.pl",
                "ref:regon": "371018248",
                "operator": "Powiat Sanocki",
                "operator:type": "government",
                "amenity": "school",
                "note": "Parent RSPO: 56471"
            }
        },
        {
            "id": 122661,
            "type": "Feature",
            "geometry": {
                "type": "Point",
                "coordinates": [
                    22.21341,
                    49.54248
                ]
            },
            "properties": {
                "ref:rspo": 122661,
                "official_name": "Centrum Kszta\u0142caenia Ustawicznego w Sanoku",
                "name": "Centrum Kszta\u0142caenia Ustawicznego w Sanoku",
                "addr:country": "PL",
                "addr:postcode": "38-500",
                "addr:city": "Sanok",
                "addr:street": "Str\u00f3\u017cowska",
                "addr:housenumber": "16",
                "addr:teryt:simc": 21303,
                "addr:teryt:sym_ul": 953510,
                "contact:phone": "+48 134632698",
                "contact:email": "rcre@wp.pl",
                "contact:website": "http:\/\/www.rcre.pl",
                "ref:regon": "180456393",
                "operator": "Powiat Sanocki",
                "operator:type": "government",
                "amenity": "school",
                "fixme": "amenity=school lub amenity=college",
                "note": "Children RSPO: 275551Parent RSPO: 61644"
            }
        },
        {
            "id": 122662,
            "type": "Feature",
            "geometry": {
                "type": "Point",
                "coordinates": [
                    22.21341,
                    49.54245
                ]
            },
            "properties": {
                "ref:rspo": 122662,
                "official_name": "Centrum Kszta\u0142cenia Zawodowego Nr 1 w Sanoku",
                "name": "Centrum Kszta\u0142cenia Zawodowego Nr 1 w Sanoku",
                "addr:country": "PL",
                "addr:postcode": "38-500",
                "addr:city": "Sanok",
                "addr:street": "Str\u00f3\u017cowska",
                "addr:housenumber": "16",
                "addr:teryt:simc": 21303,
                "addr:teryt:sym_ul": 953510,
                "contact:phone": "+48 134632698",
                "contact:email": "rcre@wp.pl",
                "contact:website": "http:\/\/www.rcre.pl",
                "ref:regon": "371107236",
                "operator": "Powiat Sanocki",
                "operator:type": "government",
                "fixme": "w zale\u017cno\u015bci od przedmiotu dzia\u0142alno\u015bci (np. amenity=training + training=*, amenity=dancing_school, amenity=language_school, amenity=music_school) albo amenity=school, amenity=college, albo landuse=education w zale\u017cno\u015bci od tego, jakie plac\u00f3wki wchodz\u0105 w sk\u0142ad zespo\u0142u. Sprawd\u017a, kiedy stosowa\u0107 amenity=* a kiedy landuse=education.",
                "note": "Parent RSPO: 61644"
            }
        },
        {
            "id": 122716,
            "type": "Feature",
            "geometry": {
                "type": "Point",
                "coordinates": [
                    22.21341,
                    49.54242
                ]
            },
            "properties": {
                "isced:level": "3",
                "ref:rspo": 122716,
                "official_name": "I Liceum Og\u00f3lnokszta\u0142c\u0105ce dla Doros\u0142ych w Sanoku",
                "name": "I Liceum Og\u00f3lnokszta\u0142c\u0105ce dla Doros\u0142ych w Sanoku",
                "addr:country": "PL",
                "addr:postcode": "38-500",
                "addr:city": "Sanok",
                "addr:street": "Str\u00f3\u017cowska",
                "addr:housenumber": "16",
                "addr:teryt:simc": 21303,
                "addr:teryt:sym_ul": 953510,
                "contact:phone": "+48 134632698",
                "contact:email": "rcre@wp.pl",
                "contact:website": "http:\/\/www.rcre.pl",
                "ref:regon": "180609968",
                "operator": "Powiat Sanocki",
                "operator:type": "government",
                "amenity": "school",
                "note": "Parent RSPO: 61644"
            }
        },
        {
            "id": 275551,
            "type": "Feature",
            "geometry": {
                "type": "Point",
                "coordinates": [
                    22.21341,
                    49.54239
                ]
            },
            "properties": {
                "isced:level": "3",
                "ref:rspo": 275551,
                "official_name": "Regionalne Centrum Rozwoju Edukacji w Sanoku Bran\u017cowa Szko\u0142a II Stopnia Nr 1 w Sanoku",
                "name": "Regionalne Centrum Rozwoju Edukacji w Sanoku Bran\u017cowa Szko\u0142a II Stopnia Nr 1 w Sanoku",
                "addr:country": "PL",
                "addr:postcode": "38-500",
                "addr:city": "Sanok",
                "addr:street": "Str\u00f3\u017cowska",
                "addr:housenumber": "16",
                "addr:teryt:simc": 21303,
                "addr:teryt:sym_ul": 953510,
                "contact:phone": "+48 134632698",
                "contact:email": "rcre@wp.pl",
                "contact:website": "http:\/\/rcre.pl",
                "ref:regon": "386925374",
                "operator": "Powiat Sanocki",
                "operator:type": "government",
                "amenity": "school",
                "note": "Parent RSPO: 122661"
            }
        },
        {
            "id": 61415,
            "type": "Feature",
            "geometry": {
                "type": "Point",
                "coordinates": [
                    22.21571,
                    49.54553
                ]
            },
            "properties": {
                "ref:rspo": 61415,
                "official_name": "Zesp\u00f3\u0142 Szk\u00f3\u0142 Nr 2 im. Grzegorza Z Sanoka w Sanoku",
                "name": "Zesp\u00f3\u0142 Szk\u00f3\u0142 Nr 2",
                "addr:country": "PL",
                "addr:postcode": "38-500",
                "addr:city": "Sanok",
                "addr:street": "Str\u00f3\u017cowska",
                "addr:housenumber": "15",
                "addr:teryt:simc": 21303,
                "addr:teryt:sym_ul": 953510,
                "contact:phone": "+48 134653951",
                "contact:email": "zsmsanok@ks.onet.pl",
                "contact:website": "http:\/\/www.zs2sanok.pl",
                "ref:regon": "000195950",
                "operator": "Powiat Sanocki",
                "operator:type": "government",
                "landuse": "education",
                "fixme": "amenity=school, amenity=college albo landuse=education w zale\u017cno\u015bci od tego, jakie plac\u00f3wki wchodz\u0105 w sk\u0142ad zespo\u0142u. Sprawd\u017a, kiedy stosowa\u0107 amenity=* a kiedy landuse=education.",
                "note": "Children RSPO: 88428;88429;88431;275546"
            }
        },
        {
            "id": 61441,
            "type": "Feature",
            "geometry": {
                "type": "Point",
                "coordinates": [
                    22.21571,
                    49.5455
                ]
            },
            "properties": {
                "ref:rspo": 61441,
                "official_name": "Centrum Doskonalenia Nauczycieli w Sanoku",
                "name": "Centrum Doskonalenia Nauczycieli w Sanoku",
                "addr:country": "PL",
                "addr:postcode": "38-500",
                "addr:city": "Sanok",
                "addr:street": "Str\u00f3\u017cowska",
                "addr:housenumber": "15",
                "addr:teryt:simc": 21303,
                "addr:teryt:sym_ul": 953510,
                "contact:phone": "+48 134644838",
                "contact:email": "cdnsanok@gmail.com",
                "contact:website": "http:\/\/www.cdn.sanok.pl",
                "ref:regon": "371106716",
                "operator": "Powiat Sanocki",
                "operator:type": "government",
                "amenity": "training"
            }
        },
        {
            "id": 88428,
            "type": "Feature",
            "geometry": {
                "type": "Point",
                "coordinates": [
                    22.21571,
                    49.54547
                ]
            },
            "properties": {
                "isced:level": "3",
                "ref:rspo": 88428,
                "official_name": "Bran\u017cowa Szko\u0142a I Stopnia Nr 2 w Sanoku",
                "name": "Bran\u017cowa Szko\u0142a I Stopnia Nr 2 w Sanoku",
                "addr:country": "PL",
                "addr:postcode": "38-500",
                "addr:city": "Sanok",
                "addr:street": "Str\u00f3\u017cowska",
                "addr:housenumber": "15",
                "addr:teryt:simc": 21303,
                "addr:teryt:sym_ul": 953510,
                "contact:phone": "+48 134653951",
                "contact:email": "zsmsanok@ks.onet.pl",
                "contact:website": "http:\/\/www.zs2.sanok.pl",
                "ref:regon": "371016203",
                "operator": "Powiat Sanocki",
                "operator:type": "government",
                "amenity": "school",
                "note": "Parent RSPO: 61415"
            }
        },
        {
            "id": 88429,
            "type": "Feature",
            "geometry": {
                "type": "Point",
                "coordinates": [
                    22.21571,
                    49.54544
                ]
            },
            "properties": {
                "isced:level": "3",
                "ref:rspo": 88429,
                "official_name": "Technikum Nr 2 w Sanoku",
                "name": "Technikum Nr 2 w Sanoku",
                "addr:country": "PL",
                "addr:postcode": "38-500",
                "addr:city": "Sanok",
                "addr:street": "Str\u00f3\u017cowska",
                "addr:housenumber": "15",
                "addr:teryt:simc": 21303,
                "addr:teryt:sym_ul": 953510,
                "contact:phone": "+48 134653951",
                "contact:email": "zsmsanok@ks.onet.pl",
                "contact:website": "http:\/\/zs2.sanok.pl",
                "ref:regon": "371016189",
                "operator": "Powiat Sanocki",
                "operator:type": "government",
                "amenity": "school",
                "note": "Parent RSPO: 61415"
            }
        },
        {
            "id": 88431,
            "type": "Feature",
            "geometry": {
                "type": "Point",
                "coordinates": [
                    22.21571,
                    49.54541
                ]
            },
            "properties": {
                "isced:level": "3",
                "ref:rspo": 88431,
                "official_name": "Iii Liceum Og\u00f3lnokszta\u0142c\u0105ce w Sanoku",
                "name": "Iii Liceum Og\u00f3lnokszta\u0142c\u0105ce w Sanoku",
                "addr:country": "PL",
                "addr:postcode": "38-500",
                "addr:city": "Sanok",
                "addr:street": "Str\u00f3\u017cowska",
                "addr:housenumber": "15",
                "addr:teryt:simc": 21303,
                "addr:teryt:sym_ul": 953510,
                "contact:phone": "+48 134653951",
                "contact:email": "zsmsanok@ks.onet.pl",
                "contact:website": "http:\/\/www.zs2.sanok.pl",
                "ref:regon": "371016226",
                "operator": "Powiat Sanocki",
                "operator:type": "government",
                "amenity": "school",
                "note": "Parent RSPO: 61415"
            }
        },
        {
            "id": 275546,
            "type": "Feature",
            "geometry": {
                "type": "Point",
                "coordinates": [
                    22.21571,
                    49.54538
                ]
            },
            "properties": {
                "isced:level": "3",
                "ref:rspo": 275546,
                "official_name": "Zesp\u00f3\u0142 Szk\u00f3\u0142 Nr 2 im. Grzegorza Z Sanoka w Sanoku Bran\u017cowa Szko\u0142a II Stopnia Nr 2 w Sanoku",
                "name": "Zesp\u00f3\u0142 Szk\u00f3\u0142 Nr 2",
                "addr:country": "PL",
                "addr:postcode": "38-500",
                "addr:city": "Sanok",
                "addr:street": "Str\u00f3\u017cowska",
                "addr:housenumber": "15",
                "addr:teryt:simc": 21303,
                "addr:teryt:sym_ul": 953510,
                "contact:phone": "+48 134653951",
                "contact:email": "zsmsanok@ks.onet.pl",
                "contact:website": "http:\/\/zs2sanok.pl",
                "ref:regon": "386924475",
                "operator": "Powiat Sanocki",
                "operator:type": "government",
                "amenity": "school",
                "note": "Parent RSPO: 61415"
            }
        },
        {
            "id": 107197,
            "type": "Feature",
            "geometry": {
                "type": "Point",
                "coordinates": [
                    22.21512,
                    49.54719
                ]
            },
            "properties": {
                "isced:level": "1;2",
                "ref:rspo": 107197,
                "official_name": "Szko\u0142a Podstawowa Nr 3 im.tadeusza Ko\u015bciuszki",
                "name": "Szko\u0142a Podstawowa Nr 3 im.tadeusza Ko\u015bciuszki",
                "addr:country": "PL",
                "addr:postcode": "38-500",
                "addr:city": "Sanok",
                "addr:street": "Str\u00f3\u017cowska",
                "addr:housenumber": "4",
                "addr:teryt:simc": 21303,
                "addr:teryt:sym_ul": 953510,
                "contact:phone": "+48 134631071",
                "contact:email": "sp3.sanok@gmail.com",
                "contact:website": "http:\/\/www.sp3.sanok.pl",
                "ref:regon": "001231635",
                "ref:vatin": "PL6871259589",
                "operator": "Gmina Miasta Sanoka",
                "operator:type": "government",
                "amenity": "school"
            }
        },
        {
            "id": 107205,
            "type": "Feature",
            "geometry": {
                "type": "Point",
                "coordinates": [
                    22.21221,
                    49.54828
                ]
            },
            "properties": {
                "ref:rspo": 107205,
                "official_name": "Samorz\u0105dowe Przedszkole Publiczne Nr4",
                "name": "Samorz\u0105dowe Przedszkole Publiczne Nr4",
                "addr:country": "PL",
                "addr:postcode": "38-500",
                "addr:city": "Sanok",
                "addr:street": "Robotnicza",
                "addr:housenumber": "13a",
                "addr:teryt:simc": 18695,
                "addr:teryt:sym_ul": 953510,
                "contact:phone": "+48 134630090",
                "contact:email": "poczta@spp4.sanok.pl",
                "contact:website": "http:\/\/www.spp4.sanok.pl",
                "ref:regon": "371004298",
                "ref:vatin": "PL6871644815",
                "operator": "Gmina Miasta Sanoka",
                "operator:type": "government",
                "amenity": "kindergarten"
            }
        },
        {
            "id": 107200,
            "type": "Feature",
            "geometry": {
                "type": "Point",
                "coordinates": [
                    22.23833,
                    49.54865
                ]
            },
            "properties": {
                "isced:level": "1;2",
                "ref:rspo": 107200,
                "official_name": "Szko\u0142a Podstawowa Nr 6 im.jana Paw\u0142a Ii",
                "name": "Szko\u0142a Podstawowa Nr 6 im.jana Paw\u0142a Ii",
                "addr:country": "PL",
                "addr:postcode": "38-500",
                "addr:city": "Sanok",
                "addr:street": "Przemyska",
                "addr:housenumber": "80",
                "addr:teryt:simc": 17735,
                "addr:teryt:sym_ul": 953510,
                "contact:phone": "+48 134690996",
                "contact:email": "szostkasanok@interia.pl",
                "contact:website": "http:\/\/sp6.sanok.pl",
                "ref:regon": "001231612",
                "ref:vatin": "PL6871259684",
                "operator": "Gmina Miasta Sanoka",
                "operator:type": "government",
                "amenity": "school"
            }
        },
        {
            "id": 119710,
            "type": "Feature",
            "geometry": {
                "type": "Point",
                "coordinates": [
                    22.21057,
                    49.55163
                ]
            },
            "properties": {
                "isced:level": "1;2",
                "ref:rspo": 119710,
                "official_name": "Szko\u0142a Podstawowa Nr 5 Specjalna w Sanoku",
                "name": "Szko\u0142a Podstawowa Nr 5 Specjalna w Sanoku",
                "addr:country": "PL",
                "addr:postcode": "38-500",
                "addr:city": "Sanok",
                "addr:street": "Lipi\u0144skiego",
                "addr:housenumber": "34",
                "addr:teryt:simc": 11124,
                "addr:teryt:sym_ul": 953510,
                "contact:phone": "+48 134631980",
                "contact:email": "soswsanok@op.pl",
                "contact:website": "http:\/\/www.sosw.sanok.pl",
                "ref:regon": "000932241",
                "operator": "Powiat Sanocki",
                "operator:type": "government",
                "amenity": "school",
                "note": "Parent RSPO: 61476"
            }
        },
        {
            "id": 119712,
            "type": "Feature",
            "geometry": {
                "type": "Point",
                "coordinates": [
                    22.21057,
                    49.5516
                ]
            },
            "properties": {
                "ref:rspo": 119712,
                "official_name": "Szko\u0142a Specjalna Przysposabiaj\u0105ca Do Pracy w Sanoku",
                "name": "Szko\u0142a Specjalna Przysposabiaj\u0105ca Do Pracy w Sanoku",
                "addr:country": "PL",
                "addr:postcode": "38-500",
                "addr:city": "Sanok",
                "addr:street": "Lipi\u0144skiego",
                "addr:housenumber": "34",
                "addr:teryt:simc": 11124,
                "addr:teryt:sym_ul": 953510,
                "contact:phone": "+48 134630925",
                "contact:email": "soswsanok@op.pl",
                "contact:website": "http:\/\/www.sosw.sanok.pl",
                "ref:regon": "371181712",
                "operator": "Powiat Sanocki",
                "operator:type": "government",
                "amenity": "school",
                "note": "Parent RSPO: 61476"
            }
        },
        {
            "id": 57391,
            "type": "Feature",
            "geometry": {
                "type": "Point",
                "coordinates": [
                    22.20325,
                    49.55465
                ]
            },
            "properties": {
                "ref:rspo": 57391,
                "official_name": "Szkolne Schronisko M\u0142odziezowe w Sanoku",
                "name": "Szkolne Schronisko M\u0142odziezowe w Sanoku",
                "addr:country": "PL",
                "addr:postcode": "38-500",
                "addr:city": "Sanok",
                "addr:street": "Konarskiego",
                "addr:housenumber": "10",
                "addr:teryt:simc": 9106,
                "addr:teryt:sym_ul": 953510,
                "contact:phone": "+48 134630925",
                "contact:email": "soswsanok@op.pl",
                "ref:regon": "180906940",
                "operator": "Powiat Sanocki",
                "operator:type": "government",
                "tourism": "hostel"
            }
        },
        {
            "id": 61476,
            "type": "Feature",
            "geometry": {
                "type": "Point",
                "coordinates": [
                    22.20325,
                    49.55462
                ]
            },
            "properties": {
                "ref:rspo": 61476,
                "official_name": "Specjalny O\u015brodek Szkolno - Wychowawczy w Sanoku",
                "name": "Specjalny O\u015brodek Szkolno - Wychowawczy w Sanoku",
                "addr:country": "PL",
                "addr:postcode": "38-500",
                "addr:city": "Sanok",
                "addr:street": "Konarskiego",
                "addr:housenumber": "10",
                "addr:teryt:simc": 9106,
                "addr:teryt:sym_ul": 953510,
                "contact:phone": "+48 134630925",
                "contact:email": "soswsanok@op.pl",
                "contact:website": "http:\/\/www.sosw.sanok.pl",
                "ref:regon": "000196486",
                "operator": "Powiat Sanocki",
                "operator:type": "government",
                "amenity": "school",
                "note": "Children RSPO: 119710;119712"
            }
        },
        {
            "id": 49379,
            "type": "Feature",
            "geometry": {
                "type": "Point",
                "coordinates": [
                    22.20156,
                    49.55512
                ]
            },
            "properties": {
                "isced:level": "3",
                "ref:rspo": 49379,
                "official_name": "I Liceum Og\u00f3lnokszta\u0142c\u0105ce im. Komisji Edukacji Narodowej w Sanoku",
                "name": "I Liceum Og\u00f3lnokszta\u0142c\u0105ce",
                "addr:country": "PL",
                "addr:postcode": "38-500",
                "addr:city": "Sanok",
                "addr:street": "Zagrody",
                "addr:housenumber": "1",
                "addr:teryt:simc": 25393,
                "addr:teryt:sym_ul": 953510,
                "contact:phone": "+48 134632507",
                "contact:email": "dyrekcja@1losanok.pl",
                "ref:regon": "000242909",
                "operator": "Powiat Sanocki",
                "operator:type": "government",
                "amenity": "school"
            }
        },
        {
            "id": 123734,
            "type": "Feature",
            "geometry": {
                "type": "Point",
                "coordinates": [
                    22.20419,
                    49.5555499
                ]
            },
            "properties": {
                "ref:rspo": 123734,
                "official_name": "Medyczno-Spo\u0142eczne Centrum Kszta\u0142cenia Zawodowego I Ustawicznego w Sanoku",
                "name": "Medyczno-Spo\u0142eczne Centrum Kszta\u0142cenia Zawodowego I Ustawicznego w Sanoku",
                "addr:country": "PL",
                "addr:postcode": "38-500",
                "addr:city": "Sanok",
                "addr:street": "Konarskiego",
                "addr:housenumber": "3",
                "addr:teryt:simc": 9106,
                "addr:teryt:sym_ul": 953510,
                "contact:phone": "+48 134631242",
                "contact:email": "zsmsanok@wp.pl",
                "contact:website": "http:\/\/www.zsmsanok.pl",
                "ref:regon": "181135484",
                "operator": "Wojew\u00f3dztwo Podkarpackie",
                "operator:type": "government",
                "landuse": "education",
                "fixme": "amenity=school, amenity=college albo landuse=education w zale\u017cno\u015bci od tego, jakie plac\u00f3wki wchodz\u0105 w sk\u0142ad zespo\u0142u. Sprawd\u017a, kiedy stosowa\u0107 amenity=* a kiedy landuse=education.",
                "note": "Children RSPO: 91473;128379"
            }
        },
        {
            "id": 91473,
            "type": "Feature",
            "geometry": {
                "type": "Point",
                "coordinates": [
                    22.20419,
                    49.5555199
                ]
            },
            "properties": {
                "isced:level": "4",
                "ref:rspo": 91473,
                "official_name": "Medyczna Szko\u0142a Policealna im. Anny Jenke w Sanoku",
                "name": "Medyczna Szko\u0142a Policealna",
                "addr:country": "PL",
                "addr:postcode": "38-500",
                "addr:city": "Sanok",
                "addr:street": "Konarskiego",
                "addr:housenumber": "3",
                "addr:teryt:simc": 9106,
                "addr:teryt:sym_ul": 953510,
                "contact:phone": "+48 134631242",
                "contact:email": "zsmsanok@wp.pl",
                "contact:website": "http:\/\/www.zsmsanok@wp.pl",
                "ref:regon": "371016539",
                "ref:vatin": "PL6871460593",
                "operator": "Wojew\u00f3dztwo Podkarpackie",
                "operator:type": "government",
                "amenity": "college",
                "note": "Parent RSPO: 123734"
            }
        },
        {
            "id": 128379,
            "type": "Feature",
            "geometry": {
                "type": "Point",
                "coordinates": [
                    22.20419,
                    49.555489900000005
                ]
            },
            "properties": {
                "ref:rspo": 128379,
                "official_name": "Podkarpackie Centrum Kszta\u0142cenia Ustawicznego w Sanoku",
                "name": "Podkarpackie Centrum Kszta\u0142cenia Ustawicznego w Sanoku",
                "addr:country": "PL",
                "addr:postcode": "38-500",
                "addr:city": "Sanok",
                "addr:street": "Konarskiego",
                "addr:housenumber": "3",
                "addr:teryt:simc": 9106,
                "addr:teryt:sym_ul": 953510,
                "contact:phone": "+48 134631242",
                "contact:email": "zsmsanok@wp.pl",
                "ref:regon": "362259660",
                "operator": "Wojew\u00f3dztwo Podkarpackie",
                "operator:type": "government",
                "fixme": "w zale\u017cno\u015bci od przedmiotu dzia\u0142alno\u015bci (np. amenity=training + training=*, amenity=dancing_school, amenity=language_school, amenity=music_school)",
                "note": "Parent RSPO: 123734"
            }
        },
        {
            "id": 130066,
            "type": "Feature",
            "geometry": {
                "type": "Point",
                "coordinates": [
                    22.2027,
                    49.55679
                ]
            },
            "properties": {
                "ref:rspo": 130066,
                "official_name": "Niepubliczne Przedszkole \"Pomys\u0142owy Przedszkolak\"",
                "name": "Niepubliczne Przedszkole \"Pomys\u0142owy Przedszkolak\"",
                "addr:country": "PL",
                "addr:postcode": "38-500",
                "addr:city": "Sanok",
                "addr:street": "Jagiello\u0144ska",
                "addr:housenumber": "44",
                "addr:teryt:simc": 7029,
                "addr:teryt:sym_ul": 953510,
                "contact:phone": "+48 784637442",
                "contact:email": "przedszkolemim@gmail.com",
                "ref:regon": "363397418",
                "operator": "Ma\u0142gorzata Jabco\u0144",
                "operator:type": "private",
                "amenity": "kindergarten"
            }
        },
        {
            "id": 107204,
            "type": "Feature",
            "geometry": {
                "type": "Point",
                "coordinates": [
                    22.207187159297,
                    49.556859915092
                ]
            },
            "properties": {
                "ref:rspo": 107204,
                "official_name": "Samorzadowe Przedszkole Publiczne Nr3",
                "name": "Samorzadowe Przedszkole Publiczne Nr3",
                "addr:country": "PL",
                "addr:postcode": "38-500",
                "addr:city": "Sanok",
                "addr:street": "Kochanowskiego",
                "addr:housenumber": "3",
                "addr:teryt:simc": 8725,
                "addr:teryt:sym_ul": 953510,
                "contact:phone": "+48 134645340",
                "contact:email": "sekretariat@spp3.sanok.pl",
                "contact:website": "http:\/\/www.spp3.sanok.pl",
                "ref:regon": "371004281",
                "ref:vatin": "PL6871644809",
                "operator": "Gmina Miasta Sanoka",
                "operator:type": "government",
                "amenity": "kindergarten"
            }
        },
        {
            "id": 278348,
            "type": "Feature",
            "geometry": {
                "type": "Point",
                "coordinates": [
                    22.21065,
                    49.55809
                ]
            },
            "properties": {
                "ref:rspo": 278348,
                "official_name": "Niepubliczne Przedszkole \u201eLILI\u2019s Team\u201d",
                "name": "Niepubliczne Przedszkole \u201eLILI\u2019s Team\u201d",
                "addr:country": "PL",
                "addr:postcode": "38-500",
                "addr:city": "Sanok",
                "addr:street": "Kochanowskiego",
                "addr:housenumber": "25",
                "addr:teryt:simc": 8725,
                "addr:teryt:sym_ul": 953510,
                "contact:email": "lilis.team21@gmail.com",
                "ref:regon": "389865276",
                "operator": "Lili's Team Sp\u00f3\u0142ka Z Ograniczon\u0105 Odpowiedzialno\u015bci\u0105",
                "operator:type": "private",
                "amenity": "kindergarten"
            }
        },
        {
            "id": 72676,
            "type": "Feature",
            "geometry": {
                "type": "Point",
                "coordinates": [
                    22.2062,
                    49.55852
                ]
            },
            "properties": {
                "ref:rspo": 72676,
                "official_name": "Pa\u0144stwowa Szko\u0142a Muzyczna I I II St. im. Wandy Kossakowej w Sanoku",
                "name": "Pa\u0144stwowa Szko\u0142a Muzyczna I I II St.",
                "addr:country": "PL",
                "addr:postcode": "38-500",
                "addr:city": "Sanok",
                "addr:street": "Podg\u00f3rze",
                "addr:housenumber": "25",
                "addr:teryt:simc": 16745,
                "addr:teryt:sym_ul": 953510,
                "contact:phone": "+48 134645315",
                "contact:email": "muzyksanok@onet.pl",
                "contact:website": "http:\/\/psmsanok.pl",
                "ref:regon": "000282636",
                "operator": "Ministerstwo Kultury I Dziedzictwa Narodowego",
                "operator:type": "public",
                "landuse": "education",
                "fixme": "amenity=school, amenity=college albo landuse=education w zale\u017cno\u015bci od tego, jakie plac\u00f3wki wchodz\u0105 w sk\u0142ad zespo\u0142u. Sprawd\u017a, kiedy stosowa\u0107 amenity=* a kiedy landuse=education.",
                "note": "Children RSPO: 103682;103683"
            }
        },
        {
            "id": 114166,
            "type": "Feature",
            "geometry": {
                "type": "Point",
                "coordinates": [
                    22.2062,
                    49.55849
                ]
            },
            "properties": {
                "ref:rspo": 114166,
                "official_name": "Spo\u0142eczna Szko\u0142a Muzyczna II St. w Sanoku",
                "name": "Spo\u0142eczna Szko\u0142a Muzyczna II St. w Sanoku",
                "addr:country": "PL",
                "addr:postcode": "38-500",
                "addr:city": "Sanok",
                "addr:street": "Podg\u00f3rze",
                "addr:housenumber": "25",
                "addr:teryt:simc": 16745,
                "addr:teryt:sym_ul": 953510,
                "contact:phone": "+48 134645315",
                "ref:regon": "180967886",
                "operator": "Sierpeckie Towarzystwo Muzyczne",
                "operator:type": "ngo",
                "amenity": "music_school"
            }
        },
        {
            "id": 270412,
            "type": "Feature",
            "geometry": {
                "type": "Point",
                "coordinates": [
                    22.2062,
                    49.558460000000004
                ]
            },
            "properties": {
                "ref:rspo": 270412,
                "official_name": "Spo\u0142eczne Ognisko Muzyczne im. Miko\u0142aja Witalisa w Sanoku",
                "name": "Spo\u0142eczne Ognisko Muzyczne",
                "addr:country": "PL",
                "addr:postcode": "38-500",
                "addr:city": "Sanok",
                "addr:street": "Podg\u00f3rze",
                "addr:housenumber": "25",
                "addr:teryt:simc": 16745,
                "addr:teryt:sym_ul": 953510,
                "contact:phone": "+48 134645315",
                "contact:email": "som@somsanok.pl",
                "ref:regon": "382548390",
                "ref:vatin": "PL6871806755",
                "operator": "Sanockie Towarzystwo Muzyczne",
                "operator:type": "ngo",
                "fixme": "w zale\u017cno\u015bci od przedmiotu dzia\u0142alno\u015bci (np. amenity=training + training=*, amenity=dancing_school, amenity=language_school, amenity=music_school)"
            }
        },
        {
            "id": 103682,
            "type": "Feature",
            "geometry": {
                "type": "Point",
                "coordinates": [
                    22.2062,
                    49.55843
                ]
            },
            "properties": {
                "ref:rspo": 103682,
                "official_name": "Pa\u0144stwowa Szko\u0142a Muzyczna I St. w Sanoku",
                "name": "Pa\u0144stwowa Szko\u0142a Muzyczna I St. w Sanoku",
                "addr:country": "PL",
                "addr:postcode": "38-500",
                "addr:city": "Sanok",
                "addr:street": "Podg\u00f3rze",
                "addr:housenumber": "25",
                "addr:teryt:simc": 16745,
                "addr:teryt:sym_ul": 953510,
                "contact:phone": "+48 134645315",
                "contact:email": "muzyksanok@onet.pl",
                "contact:website": "http:\/\/www.psmsanok.pl",
                "ref:regon": "180028958",
                "operator": "Ministerstwo Kultury I Dziedzictwa Narodowego",
                "operator:type": "public",
                "amenity": "music_school",
                "note": "Parent RSPO: 72676"
            }
        },
        {
            "id": 103683,
            "type": "Feature",
            "geometry": {
                "type": "Point",
                "coordinates": [
                    22.2062,
                    49.5584
                ]
            },
            "properties": {
                "ref:rspo": 103683,
                "official_name": "Pa\u0144stwowa Szko\u0142a Muzyczna II St. w Sanoku",
                "name": "Pa\u0144stwowa Szko\u0142a Muzyczna II St. w Sanoku",
                "addr:country": "PL",
                "addr:postcode": "38-500",
                "addr:city": "Sanok",
                "addr:street": "Podg\u00f3rze",
                "addr:housenumber": "25",
                "addr:teryt:simc": 16745,
                "addr:teryt:sym_ul": 953510,
                "contact:phone": "+48 134645315",
                "ref:regon": "180028970",
                "operator": "Ministerstwo Kultury I Dziedzictwa Narodowego",
                "operator:type": "public",
                "amenity": "music_school",
                "note": "Parent RSPO: 72676"
            }
        },
        {
            "id": 107195,
            "type": "Feature",
            "geometry": {
                "type": "Point",
                "coordinates": [
                    22.2122,
                    49.55884
                ]
            },
            "properties": {
                "isced:level": "1;2",
                "ref:rspo": 107195,
                "official_name": "Szko\u0142a Podstawowa Nr1 im. Gen. Bronis\u0142awa Prugara-Ketlinga",
                "name": "Szko\u0142a Podstawowa Nr1",
                "addr:country": "PL",
                "addr:postcode": "38-500",
                "addr:city": "Sanok",
                "addr:street": "Aleja Szwajcarii",
                "addr:housenumber": "5",
                "addr:teryt:simc": 52045,
                "addr:teryt:sym_ul": 953510,
                "contact:phone": "+48 134633492",
                "contact:email": "sp1sanok@op.pl",
                "contact:website": "http:\/\/sp1sanok.avx.pl",
                "ref:regon": "370007366",
                "ref:vatin": "PL6871001537",
                "operator": "Gmina Miasta Sanoka",
                "operator:type": "government",
                "amenity": "school"
            }
        },
        {
            "id": 114097,
            "type": "Feature",
            "geometry": {
                "type": "Point",
                "coordinates": [
                    22.19795,
                    49.55905
                ]
            },
            "properties": {
                "ref:rspo": 114097,
                "official_name": "Ochronka im.dzieci\u0105tka Jezus",
                "name": "Ochronka im.dzieci\u0105tka Jezus",
                "addr:country": "PL",
                "addr:postcode": "38-500",
                "addr:city": "Sanok",
                "addr:street": "Juliusza S\u0142owackiego",
                "addr:housenumber": "24",
                "addr:teryt:simc": 20291,
                "addr:teryt:sym_ul": 953510,
                "contact:phone": "+48 134630656",
                "contact:email": "siostryslowackiego@op.pl",
                "ref:regon": "180967656",
                "ref:vatin": "PL6871105219",
                "operator": "Zg. Ss. S\u0142u\u017cebniczek Nmp Niepokalanie Pocz\u0119tej, Prowincja Przemyska",
                "operator:type": "religious",
                "amenity": "kindergarten"
            }
        },
        {
            "id": 61387,
            "type": "Feature",
            "geometry": {
                "type": "Point",
                "coordinates": [
                    22.2047996521,
                    49.559558868408
                ]
            },
            "properties": {
                "ref:rspo": 61387,
                "official_name": "Poradnia Psychologiczno - Pedagogiczna w Sanoku",
                "name": "Poradnia Psychologiczno - Pedagogiczna w Sanoku",
                "addr:country": "PL",
                "addr:postcode": "38-500",
                "addr:city": "Sanok",
                "addr:street": "Szopena",
                "addr:housenumber": "5",
                "addr:teryt:simc": 22022,
                "addr:teryt:sym_ul": 953510,
                "contact:phone": "+48 134631671",
                "contact:email": "poradniapp@sanok.com.pl",
                "contact:website": "http:\/\/www.poradniapp.sanok.com.pl",
                "ref:regon": "371000780",
                "operator": "Powiat Sanocki",
                "operator:type": "government",
                "healthcare": "counselling",
                "counselling_type": "education",
                "fixme": "w zale\u017cno\u015bci od przedmiotu dzia\u0142alno\u015bci (np. healthcare=counselling + counselling_type=education albo healthcare=psychotherapist)"
            }
        },
        {
            "id": 118772,
            "type": "Feature",
            "geometry": {
                "type": "Point",
                "coordinates": [
                    22.20534,
                    49.55993
                ]
            },
            "properties": {
                "ref:rspo": 118772,
                "official_name": "Narodowy Instytut Kszta\u0142cenia",
                "name": "Narodowy Instytut Kszta\u0142cenia",
                "addr:country": "PL",
                "addr:postcode": "38-500",
                "addr:city": "Sanok",
                "addr:street": "3 Maja",
                "addr:housenumber": "15",
                "addr:teryt:simc": 11937,
                "addr:teryt:sym_ul": 953510,
                "contact:phone": "+48 134640344",
                "contact:email": "instytut@nink.pl",
                "contact:website": "https:\/\/nink.pl\/",
                "ref:regon": "181007332",
                "operator": "Podkarpacka Fundacja Rozwoju Kultury",
                "operator:type": "ngo",
                "fixme": "w zale\u017cno\u015bci od przedmiotu dzia\u0142alno\u015bci (np. amenity=training + training=*, amenity=dancing_school, amenity=language_school, amenity=music_school) albo amenity=school, amenity=college, albo landuse=education w zale\u017cno\u015bci od tego, jakie plac\u00f3wki wchodz\u0105 w sk\u0142ad zespo\u0142u. Sprawd\u017a, kiedy stosowa\u0107 amenity=* a kiedy landuse=education."
            }
        },
        {
            "id": 49381,
            "type": "Feature",
            "geometry": {
                "type": "Point",
                "coordinates": [
                    22.20243,
                    49.56086
                ]
            },
            "properties": {
                "isced:level": "3",
                "ref:rspo": 49381,
                "official_name": "Ii Liceum Og\u00f3lnokszta\u0142c\u0105ce im. Marii Sk\u0142odowskiej Curie w Sanoku",
                "name": "Ii Liceum Og\u00f3lnokszta\u0142c\u0105ce",
                "addr:country": "PL",
                "addr:postcode": "38-500",
                "addr:city": "Sanok",
                "addr:street": "Adama Mickiewicza",
                "addr:housenumber": "11",
                "addr:teryt:simc": 12734,
                "addr:teryt:sym_ul": 953510,
                "contact:phone": "+48 134653930",
                "contact:email": "2losanok@gmail.com",
                "contact:website": "http:\/\/www.2losanok.biz",
                "ref:regon": "000242163",
                "operator": "Powiat Sanocki",
                "operator:type": "government",
                "amenity": "school"
            }
        },
        {
            "id": 268934,
            "type": "Feature",
            "geometry": {
                "type": "Point",
                "coordinates": [
                    22.20243,
                    49.560829999999996
                ]
            },
            "properties": {
                "ref:rspo": 268934,
                "official_name": "Niepubliczna Poradnia Psyogiczno-Pedagogiczna \"Edumed\"",
                "name": "Niepubliczna Poradnia Psyogiczno-Pedagogiczna \"Edumed\"",
                "addr:country": "PL",
                "addr:postcode": "38-500",
                "addr:city": "Sanok",
                "addr:street": "Adama Mickiewicza",
                "addr:housenumber": "11",
                "addr:teryt:simc": 12734,
                "addr:teryt:sym_ul": 953510,
                "contact:phone": "+48 660325940",
                "contact:email": "biuro@pcuedumed.pl",
                "ref:regon": "381295218",
                "operator": "Edumed Podkarpackie Centrum Us\u0142ug Edukacyjnych I Medycznych Kulawiuk, Rodzon Sp\u00f3\u0142ka Jawna",
                "operator:type": "private",
                "healthcare": "counselling",
                "counselling_type": "education",
                "fixme": "w zale\u017cno\u015bci od przedmiotu dzia\u0142alno\u015bci (np. healthcare=counselling + counselling_type=education albo healthcare=psychotherapist)"
            }
        },
        {
            "id": 52439,
            "type": "Feature",
            "geometry": {
                "type": "Point",
                "coordinates": [
                    22.20462,
                    49.56109
                ]
            },
            "properties": {
                "isced:level": "4",
                "ref:rspo": 52439,
                "official_name": "Podkarpacka Szko\u0142a Przedsi\u0119biorczo\u015bci w Sanoku",
                "name": "Podkarpacka Szko\u0142a Przedsi\u0119biorczo\u015bci w Sanoku",
                "addr:country": "PL",
                "addr:postcode": "38-500",
                "addr:city": "Sanok",
                "addr:street": "Marsza\u0142ka J\u00f3zefa Pi\u0142sudskiego",
                "addr:housenumber": "8",
                "addr:teryt:simc": 36029,
                "addr:teryt:sym_ul": 953510,
                "contact:phone": "+48 134645400",
                "contact:email": "sekretariat@pspsanok.pl",
                "contact:website": "http:\/\/www.pspsanok.pl",
                "ref:regon": "180907571",
                "operator": "Urszula Penar - Wo\u017aniak",
                "operator:type": "private",
                "amenity": "college"
            }
        },
        {
            "id": 130064,
            "type": "Feature",
            "geometry": {
                "type": "Point",
                "coordinates": [
                    22.19776,
                    49.56138
                ]
            },
            "properties": {
                "ref:rspo": 130064,
                "official_name": "Przedszkole Niepubliczne \"Akademia Ma\u0142ego Geniusza\"",
                "name": "Przedszkole Niepubliczne \"Akademia Ma\u0142ego Geniusza\"",
                "addr:country": "PL",
                "addr:postcode": "38-500",
                "addr:city": "Sanok",
                "addr:street": "Tadeusza Ko\u015bciuszki",
                "addr:housenumber": "58",
                "addr:teryt:simc": 9572,
                "addr:teryt:sym_ul": 953510,
                "contact:phone": "+48 511519076",
                "contact:email": "biuro.akademiageniusza@gmail.com",
                "contact:website": "http:\/\/www.akademiageniusza.pl",
                "ref:regon": "363395320",
                "operator": "Paula Ostrowska-Baran",
                "operator:type": "private",
                "amenity": "kindergarten"
            }
        },
        {
            "id": 107196,
            "type": "Feature",
            "geometry": {
                "type": "Point",
                "coordinates": [
                    22.19344,
                    49.5615
                ]
            },
            "properties": {
                "isced:level": "1;2",
                "ref:rspo": 107196,
                "official_name": "Szko\u0142a Podstawowa Nr 2 im.\u015bw. Kingi",
                "name": "Szko\u0142a Podstawowa Nr 2 im.\u015bw. Kingi",
                "addr:country": "PL",
                "addr:postcode": "38-500",
                "addr:city": "Sanok",
                "addr:street": "Rymanowska",
                "addr:housenumber": "17",
                "addr:teryt:simc": 19237,
                "addr:teryt:sym_ul": 953510,
                "contact:phone": "+48 134632756",
                "contact:email": "sekretariat@sp2sanok.pl",
                "contact:website": "http:\/\/www.sp2.sanok.pl",
                "ref:regon": "370004190",
                "ref:vatin": "PL6871091055",
                "operator": "Gmina Miasta Sanoka",
                "operator:type": "government",
                "amenity": "school"
            }
        },
        {
            "id": 107202,
            "type": "Feature",
            "geometry": {
                "type": "Point",
                "coordinates": [
                    22.19463,
                    49.56162
                ]
            },
            "properties": {
                "ref:rspo": 107202,
                "official_name": "Samorz\u0105dowe Przedszkole Publiczne Nr1",
                "name": "Samorz\u0105dowe Przedszkole Publiczne Nr1",
                "addr:country": "PL",
                "addr:postcode": "38-500",
                "addr:city": "Sanok",
                "addr:street": "Rymanowska",
                "addr:housenumber": "15",
                "addr:teryt:simc": 19237,
                "addr:teryt:sym_ul": 953510,
                "contact:phone": "+48 134631406",
                "ref:regon": "371004252",
                "ref:vatin": "PL6871644790",
                "operator": "Gmina Miasta Sanoka",
                "operator:type": "government",
                "amenity": "kindergarten"
            }
        },
        {
            "id": 114098,
            "type": "Feature",
            "geometry": {
                "type": "Point",
                "coordinates": [
                    22.2042499,
                    49.56169
                ]
            },
            "properties": {
                "ref:rspo": 114098,
                "official_name": "Ochronka B\u0142.e.bojanowskiego",
                "name": "Ochronka B\u0142.e.bojanowskiego",
                "addr:country": "PL",
                "addr:postcode": "38-500",
                "addr:city": "Sanok",
                "addr:street": "Jana III Sobieskiego",
                "addr:housenumber": "10",
                "addr:teryt:simc": 20431,
                "addr:teryt:sym_ul": 953510,
                "contact:phone": "+48 134637683",
                "contact:email": "siostrysluzebniczki@op.pl",
                "ref:regon": "180967640",
                "ref:vatin": "PL6871827065",
                "operator": "Zg. Ss. S\u0142u\u017cebniczek Nmp Niepokalanie Pocz\u0119tej, Prowincja Przemyska",
                "operator:type": "religious",
                "amenity": "kindergarten"
            }
        },
        {
            "id": 262765,
            "type": "Feature",
            "geometry": {
                "type": "Point",
                "coordinates": [
                    22.20372,
                    49.56172
                ]
            },
            "properties": {
                "isced:level": "1;2",
                "ref:rspo": 262765,
                "official_name": "Szko\u0142a Podstawowa Nr 8 w Sanoku",
                "name": "Szko\u0142a Podstawowa Nr 8 w Sanoku",
                "addr:country": "PL",
                "addr:postcode": "38-500",
                "addr:city": "Sanok",
                "addr:street": "Jana III Sobieskiego",
                "addr:housenumber": "5",
                "addr:teryt:simc": 20431,
                "addr:teryt:sym_ul": 953510,
                "contact:phone": "+48 134630538",
                "contact:email": "szkola@sp8sanok.pl",
                "contact:website": "http:\/\/www.sp8.sanok.pl",
                "ref:regon": "368055830",
                "ref:vatin": "PL6871964744",
                "operator": "Gmina Miasta Sanoka",
                "operator:type": "government",
                "amenity": "school"
            }
        },
        {
            "id": 57140,
            "type": "Feature",
            "geometry": {
                "type": "Point",
                "coordinates": [
                    22.19529,
                    49.56235
                ]
            },
            "properties": {
                "ref:rspo": 57140,
                "official_name": "Zak\u0142ad Doskonalenia Zawodowego w Rzeszowie O\u015brodek Kszta\u0142cenia Zawodowego w Sanoku",
                "name": "Zak\u0142ad Doskonalenia Zawodowego w Rzeszowie O\u015brodek Kszta\u0142cenia Zawodowego w Sanoku",
                "addr:country": "PL",
                "addr:postcode": "38-500",
                "addr:city": "Sanok",
                "addr:street": "Jana Matejki",
                "addr:housenumber": "7A",
                "addr:teryt:simc": 12485,
                "addr:teryt:sym_ul": 953510,
                "contact:phone": "+48 134642957",
                "contact:email": "sanok@zdz.rzeszow.pl",
                "contact:website": "http:\/\/www.zdz.rzeszow.pl",
                "ref:regon": "180902237",
                "operator": "Zak\u0142ad Doskonalenia Zawodowego W Rzeszowie",
                "operator:type": "ngo",
                "fixme": "w zale\u017cno\u015bci od przedmiotu dzia\u0142alno\u015bci (np. amenity=training + training=*, amenity=dancing_school, amenity=language_school, amenity=music_school) albo amenity=school, amenity=college, albo landuse=education w zale\u017cno\u015bci od tego, jakie plac\u00f3wki wchodz\u0105 w sk\u0142ad zespo\u0142u. Sprawd\u017a, kiedy stosowa\u0107 amenity=* a kiedy landuse=education."
            }
        },
        {
            "id": 56740,
            "type": "Feature",
            "geometry": {
                "type": "Point",
                "coordinates": [
                    22.20517,
                    49.56256
                ]
            },
            "properties": {
                "ref:rspo": 56740,
                "official_name": "Cech Rzemios\u0142 R\u00f3\u017cnych w Sanoku",
                "name": "Cech Rzemios\u0142 R\u00f3\u017cnych w Sanoku",
                "addr:country": "PL",
                "addr:postcode": "38-500",
                "addr:city": "Sanok",
                "addr:street": "Jana III Sobieskiego",
                "addr:housenumber": "16",
                "addr:teryt:simc": 20431,
                "addr:teryt:sym_ul": 953510,
                "contact:phone": "+48 134632085",
                "contact:email": "cech.sanok@wp.pl",
                "ref:regon": "180902065",
                "operator": "Cech  Rzemios\u0142 R\u00f3\u017cnych",
                "operator:type": "cooperative",
                "fixme": "w zale\u017cno\u015bci od przedmiotu dzia\u0142alno\u015bci (np. amenity=training + training=*, amenity=dancing_school, amenity=language_school, amenity=music_school) albo amenity=school, amenity=college, albo landuse=education w zale\u017cno\u015bci od tego, jakie plac\u00f3wki wchodz\u0105 w sk\u0142ad zespo\u0142u. Sprawd\u017a, kiedy stosowa\u0107 amenity=* a kiedy landuse=education."
            }
        },
        {
            "id": 49384,
            "type": "Feature",
            "geometry": {
                "type": "Point",
                "coordinates": [
                    22.20572,
                    49.56391
                ]
            },
            "properties": {
                "ref:rspo": 49384,
                "official_name": "Zesp\u00f3\u0142 Szk\u00f3\u0142 Nr 1 w Sanoku im. Karola Adamieckiego",
                "name": "Zesp\u00f3\u0142 Szk\u00f3\u0142 Nr 1 w Sanoku",
                "addr:country": "PL",
                "addr:postcode": "38-500",
                "addr:city": "Sanok",
                "addr:street": "Jana III Sobieskiego",
                "addr:housenumber": "23",
                "addr:teryt:simc": 20431,
                "addr:teryt:sym_ul": 953510,
                "contact:phone": "+48 134638010",
                "contact:email": "zsesanok@post.pl",
                "contact:website": "http:\/\/www.zs1sanok.pl",
                "ref:regon": "000241531",
                "operator": "Powiat Sanocki",
                "operator:type": "government",
                "landuse": "education",
                "fixme": "amenity=school, amenity=college albo landuse=education w zale\u017cno\u015bci od tego, jakie plac\u00f3wki wchodz\u0105 w sk\u0142ad zespo\u0142u. Sprawd\u017a, kiedy stosowa\u0107 amenity=* a kiedy landuse=education.",
                "note": "Children RSPO: 86610;86612;122789"
            }
        },
        {
            "id": 86610,
            "type": "Feature",
            "geometry": {
                "type": "Point",
                "coordinates": [
                    22.20572,
                    49.56388
                ]
            },
            "properties": {
                "isced:level": "3",
                "ref:rspo": 86610,
                "official_name": "Bran\u017cowa Szko\u0142a I Stopnia Nr 1 w Sanoku",
                "name": "Bran\u017cowa Szko\u0142a I Stopnia Nr 1 w Sanoku",
                "addr:country": "PL",
                "addr:postcode": "38-500",
                "addr:city": "Sanok",
                "addr:street": "Jana III Sobieskiego",
                "addr:housenumber": "23",
                "addr:teryt:simc": 20431,
                "addr:teryt:sym_ul": 953510,
                "contact:phone": "+48 134638010",
                "contact:email": "zsesanok@post.pl",
                "contact:website": "http:\/\/www.zs1sanok.pl",
                "ref:regon": "371016048",
                "operator": "Powiat Sanocki",
                "operator:type": "government",
                "amenity": "school",
                "note": "Parent RSPO: 49384"
            }
        },
        {
            "id": 86612,
            "type": "Feature",
            "geometry": {
                "type": "Point",
                "coordinates": [
                    22.20572,
                    49.56385
                ]
            },
            "properties": {
                "isced:level": "3",
                "ref:rspo": 86612,
                "official_name": "Technikum Nr 1 w Sanoku",
                "name": "Technikum Nr 1 w Sanoku",
                "addr:country": "PL",
                "addr:postcode": "38-500",
                "addr:city": "Sanok",
                "addr:street": "Jana III Sobieskiego",
                "addr:housenumber": "23",
                "addr:teryt:simc": 20431,
                "addr:teryt:sym_ul": 953510,
                "contact:phone": "+48 134638010",
                "contact:email": "zsesanok@post.pl",
                "contact:website": "http:\/\/www.zs1sanok.pl",
                "ref:regon": "371103617",
                "operator": "Powiat Sanocki",
                "operator:type": "government",
                "amenity": "school",
                "note": "Parent RSPO: 49384"
            }
        },
        {
            "id": 122789,
            "type": "Feature",
            "geometry": {
                "type": "Point",
                "coordinates": [
                    22.20572,
                    49.56382
                ]
            },
            "properties": {
                "isced:level": "3",
                "ref:rspo": 122789,
                "official_name": "Ii Liceum Og\u00f3lnokszta\u0142c\u0105ce dla Doros\u0142ych w Sanoku",
                "name": "Ii Liceum Og\u00f3lnokszta\u0142c\u0105ce dla Doros\u0142ych w Sanoku",
                "addr:country": "PL",
                "addr:postcode": "38-500",
                "addr:city": "Sanok",
                "addr:street": "Jana III Sobieskiego",
                "addr:housenumber": "23",
                "addr:teryt:simc": 20431,
                "addr:teryt:sym_ul": 953510,
                "contact:phone": "+48 134638010",
                "contact:email": "zsesanok@post.pl",
                "contact:website": "http:\/\/www.zs1sanok.pl",
                "ref:regon": "181096590",
                "operator": "Powiat Sanocki",
                "operator:type": "government",
                "amenity": "school",
                "note": "Parent RSPO: 49384"
            }
        },
        {
            "id": 264671,
            "type": "Feature",
            "geometry": {
                "type": "Point",
                "coordinates": [
                    22.1829027,
                    49.5642846
                ]
            },
            "properties": {
                "ref:rspo": 264671,
                "official_name": "Niepubliczne Przedszkole Specjalne dla Dzieci Z Zaburzeniami Ze Spektrum Autyzmu \"Strefa Smyka-Terapia I Edukacja\"",
                "name": "Niepubliczne Przedszkole Specjalne dla Dzieci Z Zaburzeniami Ze Spektrum Autyzmu \"Strefa Smyka-Terapia I Edukacja\"",
                "addr:country": "PL",
                "addr:postcode": "38-500",
                "addr:city": "Sanok",
                "addr:street": "Boles\u0142awa Le\u015bmiana",
                "addr:housenumber": "13",
                "addr:teryt:simc": 10895,
                "addr:teryt:sym_ul": 953510,
                "contact:email": "przedszkole.strefa.smyka@gmail.com",
                "ref:regon": "368417210",
                "operator": "Anna Drwi\u0119ga",
                "operator:type": "private",
                "amenity": "kindergarten"
            }
        },
        {
            "id": 123877,
            "type": "Feature",
            "geometry": {
                "type": "Point",
                "coordinates": [
                    22.20422,
                    49.56541
                ]
            },
            "properties": {
                "isced:level": "3",
                "ref:rspo": 123877,
                "official_name": "Liceum Og\u00f3lnokszta\u0142c\u0105ce w Sanoku",
                "name": "Liceum Og\u00f3lnokszta\u0142c\u0105ce w Sanoku",
                "addr:country": "PL",
                "addr:postcode": "38-500",
                "addr:city": "Sanok",
                "addr:street": "Adama Mickiewicza",
                "addr:housenumber": "29",
                "addr:teryt:simc": 12734,
                "addr:teryt:sym_ul": 953510,
                "contact:phone": "+48 134930954",
                "contact:email": "sanok@medyk.net.pl",
                "contact:website": "http:\/\/www.medyk.net.pl",
                "ref:regon": "181138614",
                "ref:vatin": "PL8652248687",
                "operator": "Medyk Szko\u0142a Sp\u00f3\u0142ka Z Ograniczon\u0105 Odpowiedzialno\u015bci\u0105",
                "operator:type": "private",
                "amenity": "school"
            }
        },
        {
            "id": 123878,
            "type": "Feature",
            "geometry": {
                "type": "Point",
                "coordinates": [
                    22.20422,
                    49.56538
                ]
            },
            "properties": {
                "isced:level": "4",
                "ref:rspo": 123878,
                "official_name": "Policealna Szko\u0142a w Sanoku",
                "name": "Policealna Szko\u0142a w Sanoku",
                "addr:country": "PL",
                "addr:postcode": "38-500",
                "addr:city": "Sanok",
                "addr:street": "Adama Mickiewicza",
                "addr:housenumber": "29",
                "addr:teryt:simc": 12734,
                "addr:teryt:sym_ul": 953510,
                "contact:phone": "+48 134930954",
                "contact:email": "sanok@medyk.net.pl",
                "contact:website": "http:\/\/www.medyk.net.pl",
                "ref:regon": "181138620",
                "ref:vatin": "PL8652248687",
                "operator": "Medyk Szko\u0142a Sp\u00f3\u0142ka Z Ograniczon\u0105 Odpowiedzialno\u015bci\u0105",
                "operator:type": "private",
                "amenity": "college"
            }
        },
        {
            "id": 128684,
            "type": "Feature",
            "geometry": {
                "type": "Point",
                "coordinates": [
                    22.20422,
                    49.56535
                ]
            },
            "properties": {
                "isced:level": "4",
                "ref:rspo": 128684,
                "official_name": "Medyczna Szko\u0142a Policealna w Sanoku",
                "name": "Medyczna Szko\u0142a Policealna w Sanoku",
                "addr:country": "PL",
                "addr:postcode": "38-500",
                "addr:city": "Sanok",
                "addr:street": "Adama Mickiewicza",
                "addr:housenumber": "29",
                "addr:teryt:simc": 12734,
                "addr:teryt:sym_ul": 953510,
                "contact:phone": "+48 134930954",
                "contact:email": "m.macyk@medyk.net.pl",
                "contact:website": "http:\/\/www.medyk.net.pl",
                "ref:regon": "362358072",
                "operator": "Medyk Szko\u0142a Sp\u00f3\u0142ka Z Ograniczon\u0105 Odpowiedzialno\u015bci\u0105",
                "operator:type": "private",
                "amenity": "college"
            }
        },
        {
            "id": 278747,
            "type": "Feature",
            "geometry": {
                "type": "Point",
                "coordinates": [
                    22.20422,
                    49.56532
                ]
            },
            "properties": {
                "isced:level": "4",
                "ref:rspo": 278747,
                "official_name": "Niepubliczna Medyczna Szko\u0142a Policealna w Sanoku",
                "name": "Niepubliczna Medyczna Szko\u0142a Policealna w Sanoku",
                "addr:country": "PL",
                "addr:postcode": "38-500",
                "addr:city": "Sanok",
                "addr:street": "Adama Mickiewicza",
                "addr:housenumber": "29",
                "addr:teryt:simc": 12734,
                "addr:teryt:sym_ul": 953510,
                "contact:phone": "+48 796810102",
                "contact:email": "sekretariat@studeo.szkola.pl",
                "contact:website": "http:\/\/studeo.szkola.pl",
                "ref:regon": "520052589",
                "operator": "Studeo Szko\u0142a Sp\u00f3\u0142ka Z Ograniczon\u0105 Odpowiedzialno\u015bci\u0105",
                "operator:type": "private",
                "amenity": "college"
            }
        },
        {
            "id": 52516,
            "type": "Feature",
            "geometry": {
                "type": "Point",
                "coordinates": [
                    22.18906,
                    49.56556
                ]
            },
            "properties": {
                "isced:level": "3",
                "ref:rspo": 52516,
                "official_name": "Niepubliczne Liceum Og\u00f3lnokszta\u0142c\u0105ce dla Doros\u0142ych w Sanoku",
                "name": "Niepubliczne Liceum Og\u00f3lnokszta\u0142c\u0105ce dla Doros\u0142ych w Sanoku",
                "addr:country": "PL",
                "addr:postcode": "38-500",
                "addr:city": "Sanok",
                "addr:street": "G\u0142ogowa",
                "addr:housenumber": "1",
                "addr:teryt:simc": 5610,
                "addr:teryt:sym_ul": 953510,
                "contact:phone": "+48 134648845",
                "contact:email": "nkj.sanok@interia.pl",
                "ref:regon": "180907594",
                "operator": "Andrzej Brygidyn",
                "operator:type": "private",
                "amenity": "school"
            }
        },
        {
            "id": 107201,
            "type": "Feature",
            "geometry": {
                "type": "Point",
                "coordinates": [
                    22.1611267,
                    49.5688202
                ]
            },
            "properties": {
                "isced:level": "1;2",
                "ref:rspo": 107201,
                "official_name": "Szko\u0142a Podstawowa Nr 7",
                "name": "Szko\u0142a Podstawowa Nr 7",
                "addr:country": "PL",
                "addr:postcode": "38-500",
                "addr:city": "Sanok",
                "addr:street": "Piastowska",
                "addr:housenumber": "73",
                "addr:teryt:simc": 16046,
                "addr:teryt:sym_ul": 953510,
                "contact:phone": "+48 134631566",
                "contact:email": "sp7ks@poczta.onet.pl",
                "ref:regon": "001231598",
                "ref:vatin": "PL6871423669",
                "operator": "Gmina Miasta Sanoka",
                "operator:type": "government",
                "amenity": "school"
            }
        },
        {
            "id": 262815,
            "type": "Feature",
            "geometry": {
                "type": "Point",
                "coordinates": [
                    22.19648,
                    49.56894
                ]
            },
            "properties": {
                "isced:level": "1;2",
                "ref:rspo": 262815,
                "official_name": "Szko\u0142a Podstawowa Nr 9 w Sanoku",
                "name": "Szko\u0142a Podstawowa Nr 9 w Sanoku",
                "addr:country": "PL",
                "addr:postcode": "38-500",
                "addr:city": "Sanok",
                "addr:street": "Jana Paw\u0142a II",
                "addr:housenumber": "25",
                "addr:teryt:simc": 7123,
                "addr:teryt:sym_ul": 953510,
                "contact:phone": "+48 134630579",
                "contact:email": "sp9sanok@gmail.com",
                "contact:website": "http:\/\/sp9sanok.biz",
                "ref:regon": "368061380",
                "ref:vatin": "PL6871964767",
                "operator": "Gmina Miasta Sanoka",
                "operator:type": "government",
                "amenity": "school"
            }
        },
        {
            "id": 107203,
            "type": "Feature",
            "geometry": {
                "type": "Point",
                "coordinates": [
                    22.19628,
                    49.57039
                ]
            },
            "properties": {
                "ref:rspo": 107203,
                "official_name": "Samorz\u0105dowe Przedszkole Publiczne Nr2",
                "name": "Samorz\u0105dowe Przedszkole Publiczne Nr2",
                "addr:country": "PL",
                "addr:postcode": "38-500",
                "addr:city": "Sanok",
                "addr:street": "Sadowa",
                "addr:housenumber": "11",
                "addr:teryt:simc": 19404,
                "addr:teryt:sym_ul": 953510,
                "contact:phone": "+48 134631002",
                "contact:email": "mbilas@spp2.sanok.pl",
                "contact:website": "http:\/\/spp2.sanok.pl",
                "ref:regon": "371004275",
                "ref:vatin": "PL6871644749",
                "operator": "Gmina Miasta Sanoka",
                "operator:type": "government",
                "amenity": "kindergarten"
            }
        },
        {
            "id": 61483,
            "type": "Feature",
            "geometry": {
                "type": "Point",
                "coordinates": [
                    22.1913339,
                    49.5705455
                ]
            },
            "properties": {
                "ref:rspo": 61483,
                "official_name": "Zesp\u00f3\u0142 Szk\u00f3\u0142 Nr 5 im. Ignacego \u0141ukasiewicza w Sanoku",
                "name": "Zesp\u00f3\u0142 Szk\u00f3\u0142 Nr 5",
                "addr:country": "PL",
                "addr:postcode": "38-500",
                "addr:city": "Sanok",
                "addr:street": "Sadowa",
                "addr:housenumber": "21",
                "addr:teryt:simc": 19404,
                "addr:teryt:sym_ul": 953510,
                "contact:phone": "+48 134632385",
                "contact:email": "zszsanok@pro.onet.pl",
                "contact:website": "http:\/\/www.zs5sanok.pl",
                "ref:regon": "000679523",
                "operator": "Powiat Sanocki",
                "operator:type": "government",
                "landuse": "education",
                "fixme": "amenity=school, amenity=college albo landuse=education w zale\u017cno\u015bci od tego, jakie plac\u00f3wki wchodz\u0105 w sk\u0142ad zespo\u0142u. Sprawd\u017a, kiedy stosowa\u0107 amenity=* a kiedy landuse=education.",
                "note": "Children RSPO: 88542;88543;88546;88549;275532"
            }
        },
        {
            "id": 88542,
            "type": "Feature",
            "geometry": {
                "type": "Point",
                "coordinates": [
                    22.1913339,
                    49.5705155
                ]
            },
            "properties": {
                "isced:level": "3",
                "ref:rspo": 88542,
                "official_name": "Bran\u017cowa Szko\u0142a I Stopnia Nr 5 w Sanoku",
                "name": "Bran\u017cowa Szko\u0142a I Stopnia Nr 5 w Sanoku",
                "addr:country": "PL",
                "addr:postcode": "38-500",
                "addr:city": "Sanok",
                "addr:street": "Sadowa",
                "addr:housenumber": "21",
                "addr:teryt:simc": 19404,
                "addr:teryt:sym_ul": 953510,
                "contact:phone": "+48 134632385",
                "contact:email": "zszsanok@pro.onet.pl",
                "contact:website": "http:\/\/www.zs5sanok.pl",
                "ref:regon": "371154721",
                "operator": "Powiat Sanocki",
                "operator:type": "government",
                "amenity": "school",
                "note": "Parent RSPO: 61483"
            }
        },
        {
            "id": 88543,
            "type": "Feature",
            "geometry": {
                "type": "Point",
                "coordinates": [
                    22.1913339,
                    49.570485500000004
                ]
            },
            "properties": {
                "isced:level": "3",
                "ref:rspo": 88543,
                "official_name": "Iii Liceum Og\u00f3lnokszta\u0142c\u0105ce dla Doros\u0142ych",
                "name": "Iii Liceum Og\u00f3lnokszta\u0142c\u0105ce dla Doros\u0142ych",
                "addr:country": "PL",
                "addr:postcode": "38-500",
                "addr:city": "Sanok",
                "addr:street": "Sadowa",
                "addr:housenumber": "21",
                "addr:teryt:simc": 19404,
                "addr:teryt:sym_ul": 953510,
                "contact:phone": "+48 134632385",
                "contact:email": "zszsanok@pro.onet.pl",
                "contact:website": "http:\/\/www.zs5sanok.pl",
                "ref:regon": "180912773",
                "operator": "Powiat Sanocki",
                "operator:type": "government",
                "amenity": "school",
                "note": "Parent RSPO: 61483"
            }
        },
        {
            "id": 88546,
            "type": "Feature",
            "geometry": {
                "type": "Point",
                "coordinates": [
                    22.1913339,
                    49.5704555
                ]
            },
            "properties": {
                "isced:level": "3",
                "ref:rspo": 88546,
                "official_name": "Technikum Nr 5 w Sanoku",
                "name": "Technikum Nr 5 w Sanoku",
                "addr:country": "PL",
                "addr:postcode": "38-500",
                "addr:city": "Sanok",
                "addr:street": "Sadowa",
                "addr:housenumber": "21",
                "addr:teryt:simc": 19404,
                "addr:teryt:sym_ul": 953510,
                "contact:phone": "+48 134632385",
                "contact:email": "zszsanok@pro.onet.pl",
                "contact:website": "http:\/\/www.zs5sanok.pl",
                "ref:regon": "371154744",
                "operator": "Powiat Sanocki",
                "operator:type": "government",
                "amenity": "school",
                "note": "Parent RSPO: 61483"
            }
        },
        {
            "id": 88549,
            "type": "Feature",
            "geometry": {
                "type": "Point",
                "coordinates": [
                    22.1913339,
                    49.5704255
                ]
            },
            "properties": {
                "ref:rspo": 88549,
                "official_name": "Centrum Kszta\u0142cenia Zawodowego Nr 2 w Sanoku",
                "name": "Centrum Kszta\u0142cenia Zawodowego Nr 2 w Sanoku",
                "addr:country": "PL",
                "addr:postcode": "38-500",
                "addr:city": "Sanok",
                "addr:street": "Sadowa",
                "addr:housenumber": "21",
                "addr:teryt:simc": 19404,
                "addr:teryt:sym_ul": 953510,
                "contact:phone": "+48 134632385",
                "contact:email": "zszsanok@pro.onet.pl",
                "contact:website": "http:\/\/www.zs5sanok.pl",
                "ref:regon": "180612054",
                "operator": "Powiat Sanocki",
                "operator:type": "government",
                "fixme": "w zale\u017cno\u015bci od przedmiotu dzia\u0142alno\u015bci (np. amenity=training + training=*, amenity=dancing_school, amenity=language_school, amenity=music_school) albo amenity=school, amenity=college, albo landuse=education w zale\u017cno\u015bci od tego, jakie plac\u00f3wki wchodz\u0105 w sk\u0142ad zespo\u0142u. Sprawd\u017a, kiedy stosowa\u0107 amenity=* a kiedy landuse=education.",
                "note": "Parent RSPO: 61483"
            }
        },
        {
            "id": 275532,
            "type": "Feature",
            "geometry": {
                "type": "Point",
                "coordinates": [
                    22.1913339,
                    49.570395500000004
                ]
            },
            "properties": {
                "isced:level": "3",
                "ref:rspo": 275532,
                "official_name": "Zesp\u00f3\u0142 Szk\u00f3\u0142 Nr 5 im. Ignacego \u0141ukasiewicza w Sanoku Bran\u017cowa Szko\u0142a II Stopnia Nr 3 w Sanoku",
                "name": "Zesp\u00f3\u0142 Szk\u00f3\u0142 Nr 5",
                "addr:country": "PL",
                "addr:postcode": "38-500",
                "addr:city": "Sanok",
                "addr:street": "Sadowa",
                "addr:housenumber": "21",
                "addr:teryt:simc": 19404,
                "addr:teryt:sym_ul": 953510,
                "contact:phone": "+48 134632385",
                "contact:email": "zszsanok@pro.onet.pl",
                "contact:website": "http:\/\/zs5sanok.pl",
                "ref:regon": "386924268",
                "operator": "Powiat Sanocki",
                "operator:type": "government",
                "amenity": "school",
                "note": "Parent RSPO: 61483"
            }
        },
        {
            "id": 107199,
            "type": "Feature",
            "geometry": {
                "type": "Point",
                "coordinates": [
                    22.19727,
                    49.57074
                ]
            },
            "properties": {
                "isced:level": "1;2",
                "ref:rspo": 107199,
                "official_name": "Szko\u0142a Podstawowa Nr 4 w Sanoku im.ksi\u0119dza Zdzis\u0142awa Jastrz\u0119biec Peszkowskiego",
                "name": "Szko\u0142a Podstawowa Nr 4 w Sanoku im.ksi\u0119dza Zdzis\u0142awa Jastrz\u0119biec Peszkowskiego",
                "addr:country": "PL",
                "addr:postcode": "38-500",
                "addr:city": "Sanok",
                "addr:street": "Sadowa",
                "addr:housenumber": "12",
                "addr:teryt:simc": 19404,
                "addr:teryt:sym_ul": 953510,
                "contact:phone": "+48 134632998",
                "contact:email": "sp4sanok@interia.pl",
                "contact:website": "http:\/\/www.sp4sanok.prox.pl",
                "ref:regon": "001252169",
                "ref:vatin": "PL6871243915",
                "operator": "Gmina Miasta Sanoka",
                "operator:type": "government",
                "amenity": "school"
            }
        },
        {
            "id": 128401,
            "type": "Feature",
            "geometry": {
                "type": "Point",
                "coordinates": [
                    22.19727,
                    49.57071
                ]
            },
            "properties": {
                "ref:rspo": 128401,
                "official_name": "Pedagogiczna Biblioteka Wojew\u00f3dzka w Kro\u015bnie Filia w Sanoku",
                "name": "Pedagogiczna Biblioteka Wojew\u00f3dzka w Kro\u015bnie Filia w Sanoku",
                "addr:country": "PL",
                "addr:postcode": "38-500",
                "addr:city": "Sanok",
                "addr:street": "Sadowa",
                "addr:housenumber": "12",
                "addr:teryt:simc": 19404,
                "addr:teryt:sym_ul": 953510,
                "contact:email": "sanok@pbw.org.pl",
                "ref:regon": "402045900",
                "operator": "Wojew\u00f3dztwo Podkarpackie",
                "operator:type": "government",
                "amenity": "library",
                "note": "Parent RSPO: 92374"
            }
        },
        {
            "id": 272155,
            "type": "Feature",
            "geometry": {
                "type": "Point",
                "coordinates": [
                    22.18968,
                    49.57106
                ]
            },
            "properties": {
                "ref:rspo": 272155,
                "official_name": "Centrum Kszta\u0142cenia Zawodowego Swojak",
                "name": "Centrum Kszta\u0142cenia Zawodowego Swojak",
                "addr:country": "PL",
                "addr:postcode": "38-500",
                "addr:city": "Sanok",
                "addr:street": "Sadowa",
                "addr:housenumber": "30",
                "addr:door": "9",
                "addr:teryt:simc": 19404,
                "addr:teryt:sym_ul": 953510,
                "contact:website": "http:\/\/www.swojak.org",
                "ref:regon": "383977666",
                "operator": "Stowarzyszenie Przedsi\u0119biorc\u00f3w I Rolnik\u00f3w Swojak",
                "operator:type": "ngo",
                "fixme": "w zale\u017cno\u015bci od przedmiotu dzia\u0142alno\u015bci (np. amenity=training + training=*, amenity=dancing_school, amenity=language_school, amenity=music_school) albo amenity=school, amenity=college, albo landuse=education w zale\u017cno\u015bci od tego, jakie plac\u00f3wki wchodz\u0105 w sk\u0142ad zespo\u0142u. Sprawd\u017a, kiedy stosowa\u0107 amenity=* a kiedy landuse=education."
            }
        }
    ]
}