{
    "type": "FeatureCollection",
    "features": [
        {
            "id": 74770,
            "type": "Feature",
            "geometry": {
                "type": "Point",
                "coordinates": [
                    19.34897,
                    50.48355
                ]
            },
            "properties": {
                "ref:rspo": 74770,
                "official_name": "Przedszkole Miejskie nr 1 im.misia Uszatka w Por\u0119bie",
                "name": "Przedszkole Miejskie nr 1 im.misia Uszatka w Por\u0119bie",
                "addr:postcode": "42-480",
                "addr:city": "Por\u0119ba",
                "addr:street": "Zak\u0142adowa",
                "addr:housenumber": "15",
                "addr:city:simc": 942216,
                "addr:street:sym_ul": 25449,
                "phone": "+48 326771233",
                "email": "przedszkolemiejskie1@onet.eu",
                "website": "http:\/\/www.przedszkoleporeba.pl",
                "ref:regon": "271043226",
                "ref:vatin": "PL6491993892",
                "operator": "Gmina Por\u0119ba",
                "operator:type": "government",
                "amenity": "kindergarten"
            }
        },
        {
            "id": 23400,
            "type": "Feature",
            "geometry": {
                "type": "Point",
                "coordinates": [
                    19.33868,
                    50.48576
                ]
            },
            "properties": {
                "ref:rspo": 23400,
                "official_name": "Zesp\u00f3\u0142 Szk\u00f3\u0142 w Por\u0119bie",
                "name": "Zesp\u00f3\u0142 Szk\u00f3\u0142 w Por\u0119bie",
                "addr:postcode": "24-480",
                "addr:city": "Por\u0119ba",
                "addr:street": "Zak\u0142adowa",
                "addr:housenumber": "1",
                "addr:city:simc": 942216,
                "addr:street:sym_ul": 25449,
                "phone": "+48 326771064",
                "email": "zsporeba@gmail.com",
                "website": "http:\/\/www.zsporeba.pl",
                "ref:regon": "000032425",
                "ref:vatin": "PL6491474815",
                "operator": "Powiat Zawiercia\u0144ski",
                "operator:type": "government",
                "landuse": "education",
                "fixme": "amenity=school, amenity=college albo landuse=education w zale\u017cno\u015bci od tego, jakie plac\u00f3wki wchodz\u0105 w sk\u0142ad zespo\u0142u. Sprawd\u017a, kiedy stosowa\u0107 amenity=* a kiedy landuse=education.",
                "note": "Children RSPO: 30500;30640;30862;31062;31166"
            }
        },
        {
            "id": 30500,
            "type": "Feature",
            "geometry": {
                "type": "Point",
                "coordinates": [
                    19.33868,
                    50.48573
                ]
            },
            "properties": {
                "isced:level": "3",
                "ref:rspo": 30500,
                "official_name": "Liceum Og\u00f3lnokszta\u0142c\u0105ce im. Miko\u0142aja Kopernika w Por\u0119bie",
                "name": "Liceum Og\u00f3lnokszta\u0142c\u0105ce",
                "addr:postcode": "42-480",
                "addr:city": "Por\u0119ba",
                "addr:street": "Zak\u0142adowa",
                "addr:housenumber": "1",
                "addr:city:simc": 942216,
                "addr:street:sym_ul": 25449,
                "phone": "+48 326771064",
                "email": "zsporeba@gmail.com",
                "website": "http:\/\/www.zsporeba.pl",
                "ref:regon": "276113457",
                "ref:vatin": "PL6491474815",
                "operator": "Powiat Zawiercia\u0144ski",
                "operator:type": "government",
                "amenity": "school",
                "note": "Parent RSPO: 23400"
            }
        },
        {
            "id": 30640,
            "type": "Feature",
            "geometry": {
                "type": "Point",
                "coordinates": [
                    19.33868,
                    50.4857
                ]
            },
            "properties": {
                "isced:level": "3",
                "ref:rspo": 30640,
                "official_name": "Liceum Og\u00f3lnokszta\u0142c\u0105ce dla Doros\u0142ych w Por\u0119bie",
                "name": "Liceum Og\u00f3lnokszta\u0142c\u0105ce dla Doros\u0142ych w Por\u0119bie",
                "addr:postcode": "42-480",
                "addr:city": "Por\u0119ba",
                "addr:street": "Zak\u0142adowa",
                "addr:housenumber": "1",
                "addr:city:simc": 942216,
                "addr:street:sym_ul": 25449,
                "phone": "+48 326771064",
                "email": "zsporeba@gmail.com",
                "website": "http:\/\/www.zsporeba.pl",
                "ref:regon": "241310024",
                "ref:vatin": "PL6491474815",
                "operator": "Powiat Zawiercia\u0144ski",
                "operator:type": "government",
                "amenity": "school",
                "note": "Parent RSPO: 23400"
            }
        },
        {
            "id": 30862,
            "type": "Feature",
            "geometry": {
                "type": "Point",
                "coordinates": [
                    19.33868,
                    50.48567
                ]
            },
            "properties": {
                "isced:level": "3",
                "ref:rspo": 30862,
                "official_name": "Bran\u017cowa Szko\u0142a I Stopnia im. Miko\u0142aja Kopernika w Por\u0119bie",
                "name": "Bran\u017cowa Szko\u0142a I Stopnia",
                "addr:postcode": "42-480",
                "addr:city": "Por\u0119ba",
                "addr:street": "Zak\u0142adowa",
                "addr:housenumber": "1",
                "addr:city:simc": 942216,
                "addr:street:sym_ul": 25449,
                "phone": "+48 326771064",
                "email": "zsporeba@gmail.com",
                "website": "http:\/\/www.zsporeba.pl",
                "ref:regon": "240467137",
                "ref:vatin": "PL6491474815",
                "operator": "Powiat Zawiercia\u0144ski",
                "operator:type": "government",
                "amenity": "school",
                "note": "Parent RSPO: 23400"
            }
        },
        {
            "id": 31062,
            "type": "Feature",
            "geometry": {
                "type": "Point",
                "coordinates": [
                    19.33868,
                    50.48564
                ]
            },
            "properties": {
                "isced:level": "3",
                "ref:rspo": 31062,
                "official_name": "Technikum im.miko\u0142aja Kopernika w Por\u0119bie",
                "name": "Technikum im.miko\u0142aja Kopernika w Por\u0119bie",
                "addr:postcode": "42-480",
                "addr:city": "Por\u0119ba",
                "addr:street": "Zak\u0142adowa",
                "addr:housenumber": "1",
                "addr:city:simc": 942216,
                "addr:street:sym_ul": 25449,
                "phone": "+48 326771064",
                "email": "zsporeba@gmail.com",
                "website": "http:\/\/www.zsporeba.pl",
                "ref:regon": "272127557",
                "ref:vatin": "PL6491474815",
                "operator": "Powiat Zawiercia\u0144ski",
                "operator:type": "government",
                "amenity": "school",
                "note": "Parent RSPO: 23400"
            }
        },
        {
            "id": 31166,
            "type": "Feature",
            "geometry": {
                "type": "Point",
                "coordinates": [
                    19.33868,
                    50.48561
                ]
            },
            "properties": {
                "isced:level": "4",
                "ref:rspo": 31166,
                "official_name": "Szko\u0142a Policealna w Por\u0119bie",
                "name": "Szko\u0142a Policealna w Por\u0119bie",
                "addr:postcode": "42-480",
                "addr:city": "Por\u0119ba",
                "addr:street": "Zak\u0142adowa",
                "addr:housenumber": "1",
                "addr:city:simc": 942216,
                "addr:street:sym_ul": 25449,
                "phone": "+48 326771064",
                "email": "zsporeba@gmail.com",
                "website": "http:\/\/www.zsporeba.pl",
                "ref:regon": "240144931",
                "ref:vatin": "PL6491474815",
                "operator": "Powiat Zawiercia\u0144ski",
                "operator:type": "government",
                "amenity": "college",
                "note": "Parent RSPO: 23400"
            }
        },
        {
            "id": 79096,
            "type": "Feature",
            "geometry": {
                "type": "Point",
                "coordinates": [
                    19.33453,
                    50.48672
                ]
            },
            "properties": {
                "isced:level": "1;2",
                "ref:rspo": 79096,
                "official_name": "Szko\u0142a Podstawowa nr 1 im. Wojska Polskiego w Por\u0119bie",
                "name": "Szko\u0142a Podstawowa nr 1",
                "addr:postcode": "42-480",
                "addr:city": "Por\u0119ba",
                "addr:street": "Wojska Polskiego",
                "addr:housenumber": "4",
                "addr:city:simc": 942216,
                "addr:street:sym_ul": 24628,
                "phone": "+48 326771101",
                "email": "sekretariat@sp1poreba.pl",
                "ref:regon": "000730030",
                "ref:vatin": "PL6492015883",
                "operator": "Gmina Por\u0119ba",
                "operator:type": "government",
                "amenity": "school"
            }
        },
        {
            "id": 74880,
            "type": "Feature",
            "geometry": {
                "type": "Point",
                "coordinates": [
                    19.3615299,
                    50.48926
                ]
            },
            "properties": {
                "isced:level": "1;2",
                "ref:rspo": 74880,
                "official_name": "Szko\u0142a Podstawowa nr 2 im. Jana Paw\u0142a II w Por\u0119bie",
                "name": "Szko\u0142a Podstawowa nr 2",
                "addr:postcode": "42-480",
                "addr:city": "Por\u0119ba",
                "addr:street": "Wiedzy",
                "addr:housenumber": "3",
                "addr:city:simc": 942216,
                "addr:street:sym_ul": 24045,
                "phone": "+48 326771074",
                "email": "podstawowa_2@op.pl",
                "ref:regon": "000730081",
                "ref:vatin": "PL6492015914",
                "operator": "Gmina Por\u0119ba",
                "operator:type": "government",
                "amenity": "school"
            }
        }
    ]
}