{
    "type": "FeatureCollection",
    "features": [
        {
            "id": 41951,
            "type": "Feature",
            "geometry": {
                "type": "Point",
                "coordinates": [
                    19.8492378,
                    50.4551824
                ]
            },
            "properties": {
                "isced:level": "1;2",
                "ref:rspo": 41951,
                "official_name": "Szko\u0142a Podstawowa im. H. Grabowskiej \"Zety\" w Chlinie",
                "name": "Szko\u0142a Podstawowa",
                "addr:postcode": "42-439",
                "addr:place": "Chlina",
                "addr:housenumber": "135A",
                "addr:city:simc": 225615,
                "phone": "+48 326449015",
                "email": "spchlina@poczta.onet.pl",
                "website": "http:\/\/spchlina.szkolnastrona.pl",
                "ref:regon": "240717982",
                "ref:vatin": "PL6492214950",
                "operator": "Gmina \u017barnowiec",
                "operator:type": "government",
                "amenity": "school"
            }
        },
        {
            "id": 23769,
            "type": "Feature",
            "geometry": {
                "type": "Point",
                "coordinates": [
                    19.8621739,
                    50.4823722
                ]
            },
            "properties": {
                "ref:rspo": 23769,
                "official_name": "Zesp\u00f3\u0142 Szk\u00f3\u0142 Centrum Kszta\u0142cenia Rolniczego w \u017barnowcu",
                "name": "Zesp\u00f3\u0142 Szk\u00f3\u0142 Centrum Kszta\u0142cenia Rolniczego w \u017barnowcu",
                "addr:postcode": "42-439",
                "addr:city": "\u017barnowiec",
                "addr:street": "Krakowska",
                "addr:housenumber": "25",
                "addr:city:simc": 226224,
                "addr:street:sym_ul": 9796,
                "phone": "+48 326449080",
                "email": "zsr.zarnowiec@poczta.fm",
                "website": "http:\/\/www.zsrzarnowiec.com.pl",
                "ref:regon": "273579646",
                "ref:vatin": "PL6371050018",
                "operator": "Ministerstwo Rolnictwa I Rozwoju Wsi",
                "operator:type": "government",
                "landuse": "education",
                "fixme": "amenity=school, amenity=college albo landuse=education w zale\u017cno\u015bci od tego, jakie plac\u00f3wki wchodz\u0105 w sk\u0142ad zespo\u0142u. Sprawd\u017a, kiedy stosowa\u0107 amenity=* a kiedy landuse=education.",
                "note": "Children RSPO: 42177;53942;73296;132834"
            }
        },
        {
            "id": 42177,
            "type": "Feature",
            "geometry": {
                "type": "Point",
                "coordinates": [
                    19.8621739,
                    50.4823422
                ]
            },
            "properties": {
                "isced:level": "4",
                "ref:rspo": 42177,
                "official_name": "Szko\u0142a Policealna dla Doros\u0142ych im. Jana Paw\u0142a II w \u017barnowcu",
                "name": "Szko\u0142a Policealna dla Doros\u0142ych",
                "addr:postcode": "42-439",
                "addr:city": "\u017barnowiec",
                "addr:street": "Krakowska",
                "addr:housenumber": "25",
                "addr:city:simc": 226224,
                "addr:street:sym_ul": 9796,
                "phone": "+48 326449080",
                "email": "zsr.zarnowiec@poczta.fm",
                "website": "http:\/\/www.zsrzarnowiec.com.pl",
                "ref:regon": "240716729",
                "ref:vatin": "PL6371050018",
                "operator": "Ministerstwo Rolnictwa I Rozwoju Wsi",
                "operator:type": "government",
                "amenity": "college",
                "note": "Parent RSPO: 23769"
            }
        },
        {
            "id": 53942,
            "type": "Feature",
            "geometry": {
                "type": "Point",
                "coordinates": [
                    19.8621739,
                    50.4823122
                ]
            },
            "properties": {
                "isced:level": "3",
                "ref:rspo": 53942,
                "official_name": "Bran\u017cowa Szko\u0142a I Stopnia im. Jana Paw\u0142a II w \u017barnowcu",
                "name": "Bran\u017cowa Szko\u0142a I Stopnia",
                "addr:postcode": "42-439",
                "addr:city": "\u017barnowiec",
                "addr:street": "Krakowska",
                "addr:housenumber": "25",
                "addr:city:simc": 226224,
                "addr:street:sym_ul": 9796,
                "phone": "+48 326449080",
                "email": "zsr.zarnowiec@poczta.fm",
                "website": "http:\/\/www.zsrzarnowiec.com.pl",
                "ref:regon": "240454821",
                "ref:vatin": "PL6371050018",
                "operator": "Ministerstwo Rolnictwa I Rozwoju Wsi",
                "operator:type": "government",
                "amenity": "school",
                "note": "Parent RSPO: 23769"
            }
        },
        {
            "id": 73296,
            "type": "Feature",
            "geometry": {
                "type": "Point",
                "coordinates": [
                    19.8621739,
                    50.4822822
                ]
            },
            "properties": {
                "isced:level": "3",
                "ref:rspo": 73296,
                "official_name": "Techikum im. Jana Paw\u0142a II w \u017barnowcu",
                "name": "Techikum",
                "addr:postcode": "42-439",
                "addr:city": "\u017barnowiec",
                "addr:street": "Krakowska",
                "addr:housenumber": "25",
                "addr:city:simc": 226224,
                "addr:street:sym_ul": 9796,
                "phone": "+48 326449080",
                "email": "zsr.zarnowiec@poczta.fm",
                "website": "http:\/\/www.zsrzarnowiec.com.pl",
                "ref:regon": "273579706",
                "ref:vatin": "PL6371050018",
                "operator": "Ministerstwo Rolnictwa I Rozwoju Wsi",
                "operator:type": "government",
                "amenity": "school",
                "note": "Parent RSPO: 23769"
            }
        },
        {
            "id": 132834,
            "type": "Feature",
            "geometry": {
                "type": "Point",
                "coordinates": [
                    19.8621739,
                    50.4822522
                ]
            },
            "properties": {
                "ref:rspo": 132834,
                "official_name": "Centrum Kszta\u0142cenia Ustawicznego w \u017barnowcu",
                "name": "Centrum Kszta\u0142cenia Ustawicznego w \u017barnowcu",
                "addr:postcode": "42-439",
                "addr:city": "\u017barnowiec",
                "addr:street": "Krakowska",
                "addr:housenumber": "25",
                "addr:city:simc": 226224,
                "addr:street:sym_ul": 9796,
                "phone": "+48 326449080",
                "email": "zsr.zarnowiec@poczta.fm",
                "website": "http:\/\/www.zsrzarnowiec.com.pl",
                "ref:regon": "366248541",
                "operator": "Ministerstwo Rolnictwa I Rozwoju Wsi",
                "operator:type": "government",
                "fixme": "w zale\u017cno\u015bci od przedmiotu dzia\u0142alno\u015bci (np. amenity=training + training=*, amenity=dancing_school, amenity=language_school, amenity=music_school)",
                "note": "Parent RSPO: 23769"
            }
        },
        {
            "id": 47304,
            "type": "Feature",
            "geometry": {
                "type": "Point",
                "coordinates": [
                    19.8620649,
                    50.482771
                ]
            },
            "properties": {
                "isced:level": "1;2",
                "ref:rspo": 47304,
                "official_name": "Szko\u0142a Podstawowa im. Jana Paw\u0142a II w \u017barnowcu",
                "name": "Szko\u0142a Podstawowa",
                "addr:postcode": "42-439",
                "addr:city": "\u017barnowiec",
                "addr:street": "Krakowska",
                "addr:housenumber": "23",
                "addr:city:simc": 226224,
                "addr:street:sym_ul": 9796,
                "phone": "+48 326473420",
                "email": "spzarnowiec@poczta.onet.pl",
                "website": "http:\/\/www.spzarnowiec.pl",
                "ref:regon": "000629637",
                "ref:vatin": "PL6492016575",
                "operator": "Gmina \u017barnowiec",
                "operator:type": "government",
                "amenity": "school",
                "note": "Children RSPO: 68314"
            }
        },
        {
            "id": 44048,
            "type": "Feature",
            "geometry": {
                "type": "Point",
                "coordinates": [
                    19.86455,
                    50.48438
                ]
            },
            "properties": {
                "ref:rspo": 44048,
                "official_name": "Przedszkole Publiczne \nW \u017barnowcu",
                "name": "Przedszkole Publiczne \nW \u017barnowcu",
                "addr:postcode": "42-439",
                "addr:city": "\u017barnowiec",
                "addr:street": "Ko\u015bcielna",
                "addr:housenumber": "5",
                "addr:city:simc": 226224,
                "addr:street:sym_ul": 9546,
                "phone": "+48 327241130",
                "email": "przedszkole_zarnowiec@op.pl",
                "website": "http:\/\/www.przedszkolezarnowiec.pl",
                "ref:regon": "241687987",
                "ref:vatin": "PL6492276230",
                "operator": "Gmina \u017barnowiec",
                "operator:type": "government",
                "amenity": "kindergarten"
            }
        },
        {
            "id": 68314,
            "type": "Feature",
            "geometry": {
                "type": "Point",
                "coordinates": [
                    19.8241257,
                    50.5404996
                ]
            },
            "properties": {
                "isced:level": "1;2",
                "ref:rspo": 68314,
                "official_name": "Szko\u0142a Podstawowa w \u017barnowcu Filia w Ma\u0142oszycach",
                "name": "Szko\u0142a Podstawowa w \u017barnowcu Filia w Ma\u0142oszycach",
                "addr:postcode": "42-439",
                "addr:place": "Ma\u0142oszyce",
                "addr:housenumber": "84",
                "addr:city:simc": 225934,
                "phone": "+48 326449051",
                "email": "spmaloszyce@onet.pl",
                "ref:regon": "629637000",
                "operator": "Gmina \u017barnowiec",
                "operator:type": "government",
                "amenity": "school",
                "note": "Parent RSPO: 47304"
            }
        }
    ]
}