{
    "type": "FeatureCollection",
    "features": [
        {
            "id": 71650,
            "type": "Feature",
            "geometry": {
                "type": "Point",
                "coordinates": [
                    19.4259099,
                    50.38743
                ]
            },
            "properties": {
                "isced:level": "1;2",
                "ref:rspo": 71650,
                "official_name": "Szko\u0142a Podstawowa im. Ks. Stefana Joniaka w Niegowonicach",
                "name": "Szko\u0142a Podstawowa",
                "addr:country": "PL",
                "addr:postcode": "42-450",
                "addr:city": "Niegowonice",
                "addr:street": "Szkolna",
                "addr:housenumber": "11",
                "addr:teryt:simc": 216763,
                "addr:teryt:sym_ul": 21970,
                "contact:phone": "+48 326729526",
                "contact:email": "niego@onet.pl",
                "contact:website": "http:\/\/www.niego.jur.pl",
                "ref:regon": "001205951",
                "ref:vatin": "PL6492117661",
                "operator": "Gmina \u0141azy",
                "operator:type": "government",
                "amenity": "school"
            }
        },
        {
            "id": 59017,
            "type": "Feature",
            "geometry": {
                "type": "Point",
                "coordinates": [
                    19.42409,
                    50.38783
                ]
            },
            "properties": {
                "isced:level": "1;2",
                "ref:rspo": 59017,
                "official_name": "Szko\u0142a Podstawowa Nr 1 im. Stanis\u0142awa Konarskiego w \u0141azach",
                "name": "Szko\u0142a Podstawowa Nr 1",
                "addr:country": "PL",
                "addr:postcode": "42-450",
                "addr:city": "\u0141azy",
                "addr:street": "Szkolna",
                "addr:housenumber": "2",
                "addr:teryt:simc": 941197,
                "addr:teryt:sym_ul": 21970,
                "contact:phone": "+48 326733907",
                "contact:email": "zs.lazy@lazy.pl",
                "contact:website": "http:\/\/www.sp1lazy.jur.pl",
                "ref:regon": "000261516",
                "ref:vatin": "PL6492117649",
                "operator": "Gmina \u0141azy",
                "operator:type": "government",
                "amenity": "school"
            }
        },
        {
            "id": 3197,
            "type": "Feature",
            "geometry": {
                "type": "Point",
                "coordinates": [
                    19.46056,
                    50.38897
                ]
            },
            "properties": {
                "isced:level": "1;2",
                "ref:rspo": 3197,
                "official_name": "Niepubliczna Szko\u0142a Podstawowa im. Stanis\u0142awa B\u0119dkowskiego w Grabowej",
                "name": "Niepubliczna Szko\u0142a Podstawowa",
                "addr:country": "PL",
                "addr:postcode": "42-450",
                "addr:city": "Grabowa",
                "addr:street": "Szkolna",
                "addr:housenumber": "37",
                "addr:teryt:simc": 216668,
                "addr:teryt:sym_ul": 21970,
                "contact:phone": "+48 326729543",
                "contact:email": "nsp.grabowa@gmail.com",
                "contact:website": "http:\/\/nsp-grabowa.edupage.org",
                "ref:regon": "243008016",
                "operator": "Stowarzyszenie \"Ma\u0142a Szko\u0142a W Rokitnie Szlacheckim\"",
                "operator:type": "ngo",
                "amenity": "school"
            }
        },
        {
            "id": 59770,
            "type": "Feature",
            "geometry": {
                "type": "Point",
                "coordinates": [
                    19.31218,
                    50.41542
                ]
            },
            "properties": {
                "isced:level": "1;2",
                "ref:rspo": 59770,
                "official_name": "Szko\u0142a Podstawowa im. Gabriela Taszyckiego w Chruszczobrodzie",
                "name": "Szko\u0142a Podstawowa",
                "addr:country": "PL",
                "addr:postcode": "42-450",
                "addr:city": "Chruszczobr\u00f3d",
                "addr:street": "Adama Mickiewicza",
                "addr:housenumber": "113",
                "addr:teryt:simc": 216579,
                "addr:teryt:sym_ul": 12740,
                "contact:phone": "+48 326729804",
                "contact:email": "zs.chruszczobrod@lazy.pl",
                "contact:website": "http:\/\/www.chruszczobrod.szkolnastrona.pl",
                "ref:regon": "001206005",
                "ref:vatin": "PL6492117684",
                "operator": "Gmina \u0141azy",
                "operator:type": "government",
                "amenity": "school"
            }
        },
        {
            "id": 50277,
            "type": "Feature",
            "geometry": {
                "type": "Point",
                "coordinates": [
                    19.35577,
                    50.42437
                ]
            },
            "properties": {
                "isced:level": "1;2",
                "ref:rspo": 50277,
                "official_name": "Szko\u0142a Podstawowa im. J\u00f3zefy Jabczy\u0144skiej w Wysokiej",
                "name": "Szko\u0142a Podstawowa",
                "addr:country": "PL",
                "addr:postcode": "42-450",
                "addr:city": "Wysoka",
                "addr:street": "Adama Mickiewicza",
                "addr:housenumber": "8",
                "addr:teryt:simc": 216929,
                "addr:teryt:sym_ul": 12740,
                "contact:phone": "+48 326729332",
                "contact:email": "spwysoka@vp.pl",
                "contact:website": "http:\/\/www.spwysoka.edu.pl",
                "ref:regon": "001205980",
                "ref:vatin": "PL6491786360",
                "operator": "Gmina \u0141azy",
                "operator:type": "government",
                "amenity": "school"
            }
        },
        {
            "id": 53734,
            "type": "Feature",
            "geometry": {
                "type": "Point",
                "coordinates": [
                    19.39716,
                    50.42602
                ]
            },
            "properties": {
                "ref:rspo": 53734,
                "official_name": "Publiczne Przedszkole Nr 1 im. Jana Brzechwy w \u0141azach",
                "name": "Publiczne Przedszkole Nr 1",
                "addr:country": "PL",
                "addr:postcode": "42-450",
                "addr:city": "\u0141azy",
                "addr:street": "Topolowa",
                "addr:housenumber": "9",
                "addr:teryt:simc": 941197,
                "addr:teryt:sym_ul": 22880,
                "contact:phone": "+48 326729459",
                "contact:email": "pp1_lazy@wp.pl",
                "contact:website": "http:\/\/www.przedszkolelazy.pl",
                "ref:regon": "272001603",
                "ref:vatin": "PL6492016581",
                "operator": "Gmina \u0141azy",
                "operator:type": "government",
                "amenity": "kindergarten"
            }
        },
        {
            "id": 23659,
            "type": "Feature",
            "geometry": {
                "type": "Point",
                "coordinates": [
                    19.38512,
                    50.42757
                ]
            },
            "properties": {
                "ref:rspo": 23659,
                "official_name": "Zesp\u00f3\u0142 Szk\u00f3\u0142 im. Prof. Romana Gostkowskiego w \u0141azach",
                "name": "Zesp\u00f3\u0142 Szk\u00f3\u0142",
                "addr:country": "PL",
                "addr:postcode": "42-450",
                "addr:city": "\u0141azy",
                "addr:street": "Fabryczna",
                "addr:housenumber": "1a",
                "addr:teryt:simc": 941197,
                "addr:teryt:sym_ul": 4863,
                "contact:phone": "+48 323309731",
                "contact:email": "rglazy@gmail.com",
                "contact:website": "http:\/\/www.gostek.eu",
                "ref:regon": "000127166",
                "ref:vatin": "PL6491924253",
                "operator": "Powiat Zawiercia\u0144ski",
                "operator:type": "government",
                "landuse": "education",
                "fixme": "amenity=school, amenity=college albo landuse=education w zale\u017cno\u015bci od tego, jakie plac\u00f3wki wchodz\u0105 w sk\u0142ad zespo\u0142u. Sprawd\u017a, kiedy stosowa\u0107 amenity=* a kiedy landuse=education.",
                "note": "Children RSPO: 29217;29408;29517;29638;133266"
            }
        },
        {
            "id": 29217,
            "type": "Feature",
            "geometry": {
                "type": "Point",
                "coordinates": [
                    19.38512,
                    50.42754
                ]
            },
            "properties": {
                "isced:level": "3",
                "ref:rspo": 29217,
                "official_name": "Liceum Og\u00f3lnokszta\u0142c\u0105ce",
                "name": "Liceum Og\u00f3lnokszta\u0142c\u0105ce",
                "addr:country": "PL",
                "addr:postcode": "42-450",
                "addr:city": "\u0141azy",
                "addr:street": "Fabryczna",
                "addr:housenumber": "1A",
                "addr:teryt:simc": 941197,
                "addr:teryt:sym_ul": 4863,
                "contact:phone": "+48 323309731",
                "contact:email": "rglazy@gmail.com",
                "contact:website": "http:\/\/www.gostek.eu",
                "ref:regon": "272177466",
                "ref:vatin": "PL6491924253",
                "operator": "Powiat Zawiercia\u0144ski",
                "operator:type": "government",
                "amenity": "school",
                "note": "Parent RSPO: 23659"
            }
        },
        {
            "id": 29408,
            "type": "Feature",
            "geometry": {
                "type": "Point",
                "coordinates": [
                    19.38512,
                    50.427510000000005
                ]
            },
            "properties": {
                "isced:level": "3",
                "ref:rspo": 29408,
                "official_name": "Liceum Og\u00f3lnokszta\u0142c\u0105ce dla Doros\u0142ych w \u0141azach",
                "name": "Liceum Og\u00f3lnokszta\u0142c\u0105ce dla Doros\u0142ych w \u0141azach",
                "addr:country": "PL",
                "addr:postcode": "42-450",
                "addr:city": "\u0141azy",
                "addr:street": "Fabryczna",
                "addr:housenumber": "1A",
                "addr:teryt:simc": 941197,
                "addr:teryt:sym_ul": 4863,
                "contact:phone": "+48 326729321",
                "contact:email": "sekretariat@zslazy.zawiercie.powiat.pl",
                "contact:website": "http:\/\/www.gostek.eu",
                "ref:regon": "277512260",
                "ref:vatin": "PL6491924253",
                "operator": "Powiat Zawiercia\u0144ski",
                "operator:type": "government",
                "amenity": "school",
                "note": "Parent RSPO: 23659"
            }
        },
        {
            "id": 29517,
            "type": "Feature",
            "geometry": {
                "type": "Point",
                "coordinates": [
                    19.38512,
                    50.42748
                ]
            },
            "properties": {
                "isced:level": "3",
                "ref:rspo": 29517,
                "official_name": "Technikum",
                "name": "Technikum",
                "addr:country": "PL",
                "addr:postcode": "42-450",
                "addr:city": "\u0141azy",
                "addr:street": "Fabryczna",
                "addr:housenumber": "1A",
                "addr:teryt:simc": 941197,
                "addr:teryt:sym_ul": 4863,
                "contact:phone": "+48 323309731",
                "contact:email": "rglazy@gmail.com",
                "contact:website": "http:\/\/www.gostek.eu",
                "ref:regon": "272177414",
                "ref:vatin": "PL6491924253",
                "operator": "Powiat Zawiercia\u0144ski",
                "operator:type": "government",
                "amenity": "school",
                "note": "Parent RSPO: 23659"
            }
        },
        {
            "id": 29638,
            "type": "Feature",
            "geometry": {
                "type": "Point",
                "coordinates": [
                    19.38512,
                    50.42745
                ]
            },
            "properties": {
                "isced:level": "4",
                "ref:rspo": 29638,
                "official_name": "Szko\u0142a Policealna w \u0141azach",
                "name": "Szko\u0142a Policealna w \u0141azach",
                "addr:country": "PL",
                "addr:postcode": "42-400",
                "addr:city": "\u0141azy",
                "addr:street": "Fabryczna",
                "addr:housenumber": "1A",
                "addr:teryt:simc": 941197,
                "addr:teryt:sym_ul": 4863,
                "contact:phone": "+48 326729321",
                "contact:email": "sekretariat@zslazy.zawiercie.powiat.pl",
                "contact:website": "http:\/\/www.gostek.eu",
                "ref:regon": "278095723",
                "ref:vatin": "PL6491924253",
                "operator": "Powiat Zawiercia\u0144ski",
                "operator:type": "government",
                "amenity": "college",
                "note": "Parent RSPO: 23659"
            }
        },
        {
            "id": 133266,
            "type": "Feature",
            "geometry": {
                "type": "Point",
                "coordinates": [
                    19.38512,
                    50.427420000000005
                ]
            },
            "properties": {
                "isced:level": "3",
                "ref:rspo": 133266,
                "official_name": "Bran\u017cowa Szko\u0142a I Stopnia",
                "name": "Bran\u017cowa Szko\u0142a I Stopnia",
                "addr:country": "PL",
                "addr:postcode": "42-450",
                "addr:city": "\u0141azy",
                "addr:street": "Fabryczna",
                "addr:housenumber": "1a",
                "addr:teryt:simc": 941197,
                "addr:teryt:sym_ul": 4863,
                "contact:phone": "+48 326729321",
                "contact:email": "sekretariat@zslazy.zawiercie.powiat.pl",
                "ref:regon": "272177390",
                "operator": "Powiat Zawiercia\u0144ski",
                "operator:type": "government",
                "amenity": "school",
                "note": "Parent RSPO: 23659"
            }
        },
        {
            "id": 196403,
            "type": "Feature",
            "geometry": {
                "type": "Point",
                "coordinates": [
                    19.38583,
                    50.42831
                ]
            },
            "properties": {
                "ref:rspo": 196403,
                "official_name": "Niepubliczne Przedszkole \"Biedroneczki\" w \u0141azach",
                "name": "Niepubliczne Przedszkole \"Biedroneczki\" w \u0141azach",
                "addr:country": "PL",
                "addr:postcode": "42-450",
                "addr:city": "\u0141azy",
                "addr:street": "Kolejowa",
                "addr:housenumber": "8",
                "addr:teryt:simc": 941197,
                "addr:teryt:sym_ul": 8828,
                "contact:phone": "+48 326466175",
                "contact:email": "przedszkole_lazy@op.pl",
                "ref:regon": "367991680",
                "operator": "Stowarzyszenie \"Ma\u0142a Szko\u0142a W Rokitnie Szlacheckim\"",
                "operator:type": "ngo",
                "amenity": "kindergarten"
            }
        },
        {
            "id": 53733,
            "type": "Feature",
            "geometry": {
                "type": "Point",
                "coordinates": [
                    19.40792,
                    50.43022
                ]
            },
            "properties": {
                "isced:level": "1;2",
                "ref:rspo": 53733,
                "official_name": "Szko\u0142a Podstawowa Nr 3 w \u0141azach",
                "name": "Szko\u0142a Podstawowa Nr 3 w \u0141azach",
                "addr:country": "PL",
                "addr:postcode": "42-450",
                "addr:city": "\u0141azy",
                "addr:street": "Rotmistrza Witolda Pileckiego",
                "addr:housenumber": "14",
                "addr:teryt:simc": 941197,
                "addr:teryt:sym_ul": 16225,
                "contact:phone": "+48 326729642",
                "contact:email": "sp3lazy@wp.pl",
                "contact:website": "http:\/\/www.sp3lazy.edupage.org",
                "ref:regon": "272257410",
                "ref:vatin": "PL6491638694",
                "operator": "Gmina \u0141azy",
                "operator:type": "government",
                "amenity": "school"
            }
        },
        {
            "id": 3193,
            "type": "Feature",
            "geometry": {
                "type": "Point",
                "coordinates": [
                    19.4331299,
                    50.43246
                ]
            },
            "properties": {
                "isced:level": "1;2",
                "ref:rspo": 3193,
                "official_name": "Niepubliczna Szko\u0142a Podstawowa im. Micha\u0142a Poleskiego w Rokitnie Szlacheckim",
                "name": "Niepubliczna Szko\u0142a Podstawowa",
                "addr:country": "PL",
                "addr:postcode": "42-450",
                "addr:city": "Rokitno Szlacheckie",
                "addr:street": "Szkolna",
                "addr:housenumber": "2",
                "addr:teryt:simc": 216846,
                "addr:teryt:sym_ul": 21970,
                "contact:phone": "+48 326729234",
                "contact:email": "sp_rokitno_szlacheckie@op.pl",
                "contact:website": "https:\/\/nsp-rokitno-szlacheckie.edupage.org\/",
                "ref:regon": "243007979",
                "operator": "Stowarzyszenie \"Ma\u0142a Szko\u0142a W Rokitnie Szlacheckim\"",
                "operator:type": "ngo",
                "amenity": "school"
            }
        },
        {
            "id": 3046,
            "type": "Feature",
            "geometry": {
                "type": "Point",
                "coordinates": [
                    19.3668,
                    50.44822
                ]
            },
            "properties": {
                "isced:level": "1;2",
                "ref:rspo": 3046,
                "official_name": "Niepubliczna Szko\u0142a Podstawowa w Ci\u0105gowicach",
                "name": "Niepubliczna Szko\u0142a Podstawowa w Ci\u0105gowicach",
                "addr:country": "PL",
                "addr:postcode": "42-450",
                "addr:city": "Ci\u0105gowice",
                "addr:street": "Zwyci\u0119stwa",
                "addr:housenumber": "72",
                "addr:teryt:simc": 216622,
                "addr:teryt:sym_ul": 26326,
                "contact:phone": "+48 326729347",
                "contact:email": "sp.ciagowice@lazy.pl",
                "ref:regon": "243007070",
                "ref:vatin": "PL6492297692",
                "operator": "Stowarzyszenie \"Przyjazna Szko\u0142a W Ci\u0105gowicach\"",
                "operator:type": "ngo",
                "amenity": "school"
            }
        }
    ]
}