{
    "type": "FeatureCollection",
    "features": [
        {
            "id": 129924,
            "type": "Feature",
            "geometry": {
                "type": "Point",
                "coordinates": [
                    19.781868,
                    50.583068
                ]
            },
            "properties": {
                "ref:rspo": 129924,
                "official_name": "Zesp\u00f3\u0142 Szk\u00f3\u0142 Spo\u0142ecznych im. Jana Paw\u0142a II w Rokitnie",
                "name": "Zesp\u00f3\u0142 Szk\u00f3\u0142 Spo\u0142ecznych",
                "addr:postcode": "42-445",
                "addr:place": "Rokitno",
                "addr:housenumber": "34",
                "addr:city:simc": 146407,
                "phone": "+48 343559403",
                "email": "zsrokitno@poczta.fm",
                "website": "http:\/\/www.zss-rokitno.edu.pl",
                "ref:regon": "363101777",
                "ref:vatin": "PL6492305598",
                "operator": "Stowarzyszenie Na Rzecz Rozwoju Edukacji \"Razem Dla Szko\u0142y\" Im. Jana Paw\u0142a Ii W Rokitnie",
                "operator:type": "ngo",
                "landuse": "education",
                "fixme": "amenity=school, amenity=college albo landuse=education w zale\u017cno\u015bci od tego, jakie plac\u00f3wki wchodz\u0105 w sk\u0142ad zespo\u0142u. Sprawd\u017a, kiedy stosowa\u0107 amenity=* a kiedy landuse=education.",
                "note": "Children RSPO: 129926;129943"
            }
        },
        {
            "id": 129926,
            "type": "Feature",
            "geometry": {
                "type": "Point",
                "coordinates": [
                    19.781868,
                    50.583037999999995
                ]
            },
            "properties": {
                "isced:level": "1;2",
                "ref:rspo": 129926,
                "official_name": "Spo\u0142eczna Szko\u0142a Podstawowa im. Jana Paw\u0142a II w Rokitnie",
                "name": "Spo\u0142eczna Szko\u0142a Podstawowa",
                "addr:postcode": "42-445",
                "addr:place": "Rokitno",
                "addr:housenumber": "34",
                "addr:city:simc": 146407,
                "phone": "+48 343559403",
                "email": "zsrokitno@poczta.fm",
                "website": "http:\/\/www.zss-rokitno.edu.pl",
                "ref:regon": "363112485",
                "operator": "Stowarzyszenie Na Rzecz Rozwoju Edukacji \"Razem Dla Szko\u0142y\" Im. Jana Paw\u0142a Ii W Rokitnie",
                "operator:type": "ngo",
                "amenity": "school",
                "note": "Parent RSPO: 129924"
            }
        },
        {
            "id": 129943,
            "type": "Feature",
            "geometry": {
                "type": "Point",
                "coordinates": [
                    19.781868,
                    50.583008
                ]
            },
            "properties": {
                "ref:rspo": 129943,
                "official_name": "Spo\u0142eczne Przedszkole im. Jana Paw\u0142a II w Rokitnie",
                "name": "Spo\u0142eczne Przedszkole",
                "addr:postcode": "42-445",
                "addr:place": "Rokitno",
                "addr:housenumber": "34",
                "addr:city:simc": 146407,
                "phone": "+48 343559403",
                "email": "zsrokitno@poczta.fm",
                "website": "http:\/\/www.zss-rokitno.edu.pl",
                "ref:regon": "363150847",
                "operator": "Stowarzyszenie Na Rzecz Rozwoju Edukacji \"Razem Dla Szko\u0142y\" Im. Jana Paw\u0142a Ii W Rokitnie",
                "operator:type": "ngo",
                "amenity": "kindergarten",
                "note": "Parent RSPO: 129924"
            }
        },
        {
            "id": 23740,
            "type": "Feature",
            "geometry": {
                "type": "Point",
                "coordinates": [
                    19.82328,
                    50.61921
                ]
            },
            "properties": {
                "ref:rspo": 23740,
                "official_name": "Zesp\u00f3\u0142 Szk\u00f3\u0142 w Szczekocinach",
                "name": "Zesp\u00f3\u0142 Szk\u00f3\u0142 w Szczekocinach",
                "addr:postcode": "42-445",
                "addr:city": "Szczekociny",
                "addr:street": "Spacerowa",
                "addr:housenumber": "12",
                "addr:city:simc": 932413,
                "addr:street:sym_ul": 20641,
                "phone": "+48 343557476",
                "email": "zs_szczekociny@poczta.onet.pl",
                "website": "http:\/\/www.zs_szczekociny.edu.pl",
                "ref:regon": "000771737",
                "ref:vatin": "PL5771346791",
                "operator": "Gmina Szczekociny",
                "operator:type": "government",
                "landuse": "education",
                "fixme": "amenity=school, amenity=college albo landuse=education w zale\u017cno\u015bci od tego, jakie plac\u00f3wki wchodz\u0105 w sk\u0142ad zespo\u0142u. Sprawd\u017a, kiedy stosowa\u0107 amenity=* a kiedy landuse=education.",
                "note": "Children RSPO: 48633;73298;126320"
            }
        },
        {
            "id": 48633,
            "type": "Feature",
            "geometry": {
                "type": "Point",
                "coordinates": [
                    19.82328,
                    50.61918
                ]
            },
            "properties": {
                "isced:level": "3",
                "ref:rspo": 48633,
                "official_name": "Liceum Og\u00f3lnokszta\u0142c\u0105ce im. Romana Czerneckiego",
                "name": "Liceum Og\u00f3lnokszta\u0142c\u0105ce",
                "addr:postcode": "42-445",
                "addr:city": "Szczekociny",
                "addr:street": "Spacerowa",
                "addr:housenumber": "12",
                "addr:city:simc": 932413,
                "addr:street:sym_ul": 20641,
                "phone": "+48 343557476",
                "email": "zs_szczekociny@poczta.onet.pl",
                "website": "http:\/\/www.zs_szczekociny.edu.pl",
                "ref:regon": "000231030",
                "ref:vatin": "PL5771346791",
                "operator": "Gmina Szczekociny",
                "operator:type": "government",
                "amenity": "school",
                "note": "Parent RSPO: 23740"
            }
        },
        {
            "id": 73298,
            "type": "Feature",
            "geometry": {
                "type": "Point",
                "coordinates": [
                    19.82328,
                    50.619150000000005
                ]
            },
            "properties": {
                "isced:level": "3",
                "ref:rspo": 73298,
                "official_name": "Bran\u017cowa Szko\u0142a I Stopnia im. Romana Czerneckiego",
                "name": "Bran\u017cowa Szko\u0142a I Stopnia",
                "addr:postcode": "42-445",
                "addr:city": "Szczekociny",
                "addr:street": "Spacerowa",
                "addr:housenumber": "12",
                "addr:city:simc": 932413,
                "addr:street:sym_ul": 20641,
                "phone": "+48 343557476",
                "email": "zs_szczekociny@poczta.onet.pl",
                "website": "http:\/\/www.zs_szczekociny.edu.pl",
                "ref:regon": "000654121",
                "ref:vatin": "PL5771346791",
                "operator": "Gmina Szczekociny",
                "operator:type": "government",
                "amenity": "school",
                "note": "Parent RSPO: 23740"
            }
        },
        {
            "id": 126320,
            "type": "Feature",
            "geometry": {
                "type": "Point",
                "coordinates": [
                    19.82328,
                    50.61912
                ]
            },
            "properties": {
                "isced:level": "3",
                "ref:rspo": 126320,
                "official_name": "Technikum",
                "name": "Technikum",
                "addr:postcode": "42-445",
                "addr:city": "Szczekociny",
                "addr:street": "Spacerowa",
                "addr:housenumber": "12",
                "addr:city:simc": 932413,
                "addr:street:sym_ul": 20641,
                "phone": "+48 343557476",
                "email": "sekretariat@zsszczekociny.zawiercie.powiat.pl",
                "ref:regon": "151402135",
                "operator": "Gmina Szczekociny",
                "operator:type": "government",
                "amenity": "school",
                "note": "Parent RSPO: 23740"
            }
        },
        {
            "id": 4655,
            "type": "Feature",
            "geometry": {
                "type": "Point",
                "coordinates": [
                    19.82126,
                    50.62453
                ]
            },
            "properties": {
                "ref:rspo": 4655,
                "official_name": "Przedszkole",
                "name": "Przedszkole",
                "addr:postcode": "42-445",
                "addr:city": "Szczekociny",
                "addr:street": "Jana Paw\u0142a II",
                "addr:housenumber": "3",
                "addr:city:simc": 932413,
                "addr:street:sym_ul": 7123,
                "phone": "+48 343557192",
                "email": "przedszczek@interia.pl",
                "website": "http:\/\/www.przedszkole.szczekociny.pl",
                "ref:regon": "150538312",
                "ref:vatin": "PL6492196407",
                "operator": "Gmina Szczekociny",
                "operator:type": "government",
                "amenity": "kindergarten"
            }
        },
        {
            "id": 5462,
            "type": "Feature",
            "geometry": {
                "type": "Point",
                "coordinates": [
                    19.82359,
                    50.62516
                ]
            },
            "properties": {
                "isced:level": "1;2",
                "ref:rspo": 5462,
                "official_name": "Szko\u0142a Podstawowa Nr 1 im. Tadeusza Ko\u015bciuszki",
                "name": "Szko\u0142a Podstawowa Nr 1",
                "addr:postcode": "42-445",
                "addr:city": "Szczekociny",
                "addr:street": "Senatorska",
                "addr:housenumber": "22",
                "addr:city:simc": 932413,
                "addr:street:sym_ul": 19677,
                "phone": "+48 343557085",
                "email": "sp1szczekociny@interia.pl",
                "website": "http:\/\/www.sp1.szczekociny.pl",
                "ref:regon": "000262786",
                "ref:vatin": "PL6492016813",
                "operator": "Gmina Szczekociny",
                "operator:type": "government",
                "amenity": "school"
            }
        },
        {
            "id": 2890,
            "type": "Feature",
            "geometry": {
                "type": "Point",
                "coordinates": [
                    19.80749,
                    50.62699
                ]
            },
            "properties": {
                "isced:level": "1;2",
                "ref:rspo": 2890,
                "official_name": "Spo\u0142eczna Szko\u0142a Podstawowa im. 8 Pu\u0142ku U\u0142an\u00f3w Ks. J\u00f3zefa Poniatowskiego",
                "name": "Spo\u0142eczna Szko\u0142a Podstawowa",
                "addr:postcode": "42-445",
                "addr:city": "Szczekociny",
                "addr:street": "\u015al\u0105ska",
                "addr:housenumber": "86",
                "addr:city:simc": 932413,
                "addr:street:sym_ul": 22308,
                "phone": "+48 343140104",
                "email": "ssp1szczeko@wp.pl",
                "website": "http:\/\/www.spolecznaszczekociny.szkolnastrona.pl",
                "ref:regon": "243002479",
                "ref:vatin": "PL6492297657",
                "operator": "Stowarzyszenie Na Rzecz Rozwoju Edukacji W Szczekocinach \"Nasza Szko\u0142a\"",
                "operator:type": "ngo",
                "amenity": "school"
            }
        },
        {
            "id": 129571,
            "type": "Feature",
            "geometry": {
                "type": "Point",
                "coordinates": [
                    19.875194,
                    50.630925
                ]
            },
            "properties": {
                "ref:rspo": 129571,
                "official_name": "Zesp\u00f3\u0142 Szk\u00f3\u0142 w Goleniowach",
                "name": "Zesp\u00f3\u0142 Szk\u00f3\u0142 w Goleniowach",
                "addr:postcode": "42-445",
                "addr:city": "Goleniowy",
                "addr:street": "Tadeusza Ko\u015bciuszki",
                "addr:housenumber": "20",
                "addr:city:simc": 146258,
                "addr:street:sym_ul": 9572,
                "phone": "+48 343557036",
                "email": "zsgoleniow@wp.pl",
                "website": "http:\/\/www.zsgoleniowy.superszkolna.pl",
                "ref:regon": "362669145",
                "ref:vatin": "PL6492305718",
                "operator": "Stowarzyszenie Na Rzecz Rozwoju Edukacji W Goleniowach \"Szko\u0142a Marze\u0144\" Im. Wespazjana Kochowskiego",
                "operator:type": "ngo",
                "landuse": "education",
                "fixme": "amenity=school, amenity=college albo landuse=education w zale\u017cno\u015bci od tego, jakie plac\u00f3wki wchodz\u0105 w sk\u0142ad zespo\u0142u. Sprawd\u017a, kiedy stosowa\u0107 amenity=* a kiedy landuse=education.",
                "note": "Children RSPO: 129619;129621"
            }
        },
        {
            "id": 129619,
            "type": "Feature",
            "geometry": {
                "type": "Point",
                "coordinates": [
                    19.875194,
                    50.630894999999995
                ]
            },
            "properties": {
                "ref:rspo": 129619,
                "official_name": "Przedszkole w Goleniowach",
                "name": "Przedszkole w Goleniowach",
                "addr:postcode": "42-445",
                "addr:city": "Goleniowy",
                "addr:street": "Tadeusza Ko\u015bciuszki",
                "addr:housenumber": "20",
                "addr:city:simc": 146258,
                "addr:street:sym_ul": 9572,
                "phone": "+48 343557036",
                "email": "zsgoleniowy@wp.pl",
                "website": "http:\/\/www.zsgoleniowy.superszkolna.pl",
                "ref:regon": "362691156",
                "operator": "Stowarzyszenie Na Rzecz Rozwoju Edukacji W Goleniowach \"Szko\u0142a Marze\u0144\" Im. Wespazjana Kochowskiego",
                "operator:type": "ngo",
                "amenity": "kindergarten",
                "note": "Parent RSPO: 129571"
            }
        },
        {
            "id": 129621,
            "type": "Feature",
            "geometry": {
                "type": "Point",
                "coordinates": [
                    19.875194,
                    50.630865
                ]
            },
            "properties": {
                "isced:level": "1;2",
                "ref:rspo": 129621,
                "official_name": "Szko\u0142a Podstawowa w Goleniowach",
                "name": "Szko\u0142a Podstawowa w Goleniowach",
                "addr:postcode": "42-445",
                "addr:city": "Goleniowy",
                "addr:street": "Tadeusza Ko\u015bciuszki",
                "addr:housenumber": "20",
                "addr:city:simc": 146258,
                "addr:street:sym_ul": 9572,
                "phone": "+48 343557036",
                "email": "zsgoleniowy@wp.pl",
                "website": "http:\/\/www.zsgoleniowy.superszkolna.pl",
                "ref:regon": "362691245",
                "operator": "Stowarzyszenie Na Rzecz Rozwoju Edukacji W Goleniowach \"Szko\u0142a Marze\u0144\" Im. Wespazjana Kochowskiego",
                "operator:type": "ngo",
                "amenity": "school",
                "note": "Parent RSPO: 129571"
            }
        }
    ]
}