{
    "type": "FeatureCollection",
    "features": [
        {
            "id": 30407,
            "type": "Feature",
            "geometry": {
                "type": "Point",
                "coordinates": [
                    19.41145,
                    50.47603
                ]
            },
            "properties": {
                "ref:rspo": 30407,
                "official_name": "Niepubliczne Przedszkole J\u0119zykowo Artystyczne \"Bajkowa Kraina\"",
                "name": "Niepubliczne Przedszkole J\u0119zykowo Artystyczne \"Bajkowa Kraina\"",
                "addr:country": "PL",
                "addr:postcode": "42-400",
                "addr:city": "Zawiercie",
                "addr:street": "Obro\u0144c\u00f3w Poczty Gda\u0144skiej",
                "addr:housenumber": "99",
                "addr:teryt:simc": 945491,
                "addr:teryt:sym_ul": 14637,
                "contact:phone": "+48 609487888",
                "contact:email": "bajkowa-kraina-zawiercie@wp.pl",
                "contact:website": "http:\/\/www.bajkowa-kraina.net\/",
                "ref:regon": "243071724",
                "ref:vatin": "PL6490009803",
                "operator": "Tadeusz Rak",
                "operator:type": "private",
                "amenity": "kindergarten"
            }
        },
        {
            "id": 5296,
            "type": "Feature",
            "geometry": {
                "type": "Point",
                "coordinates": [
                    19.5076629,
                    50.477543
                ]
            },
            "properties": {
                "isced:level": "1;2",
                "ref:rspo": 5296,
                "official_name": "Szko\u0142a Podstawowa Nr 14 Fundacji \"Elementarz\" w Zawierciu",
                "name": "Szko\u0142a Podstawowa Nr 14 Fundacji \"Elementarz\" w Zawierciu",
                "addr:country": "PL",
                "addr:postcode": "42-400",
                "addr:city": "Zawiercie",
                "addr:street": "Harcerska",
                "addr:housenumber": "67",
                "addr:teryt:simc": 945491,
                "addr:teryt:sym_ul": 6523,
                "contact:phone": "+48 326722445",
                "contact:email": "sp.zawiercie@elementarz.edu.pl",
                "ref:regon": "243019089",
                "operator": "Fundacja Ekologiczna - Wychowanie I Sztuka \"Elementarz\"",
                "operator:type": "ngo",
                "amenity": "school"
            }
        },
        {
            "id": 196434,
            "type": "Feature",
            "geometry": {
                "type": "Point",
                "coordinates": [
                    19.43468,
                    50.47956
                ]
            },
            "properties": {
                "isced:level": "1;2",
                "ref:rspo": 196434,
                "official_name": "Szko\u0142a Podstawowa Nr 3 w Zawierciu",
                "name": "Szko\u0142a Podstawowa Nr 3 w Zawierciu",
                "addr:country": "PL",
                "addr:postcode": "42-400",
                "addr:city": "Zawiercie",
                "addr:street": "Marii Sk\u0142odowskiej-Curie",
                "addr:housenumber": "16",
                "addr:teryt:simc": 945491,
                "addr:teryt:sym_ul": 20068,
                "contact:phone": "+48 326724383",
                "contact:email": "sp3zawiercie@zawiercie.eu",
                "contact:website": "http:\/\/www.sp3zawiercie.pl\/",
                "ref:regon": "367991992",
                "operator": "Gmina Zawiercie",
                "operator:type": "government",
                "amenity": "school"
            }
        },
        {
            "id": 17062,
            "type": "Feature",
            "geometry": {
                "type": "Point",
                "coordinates": [
                    19.44523,
                    50.47985
                ]
            },
            "properties": {
                "ref:rspo": 17062,
                "official_name": "Przedszkole Nr 1 w Zawierciu",
                "name": "Przedszkole Nr 1 w Zawierciu",
                "addr:country": "PL",
                "addr:postcode": "42-400",
                "addr:city": "Zawiercie",
                "addr:street": "Ignacego Paderewskiego",
                "addr:housenumber": "57",
                "addr:teryt:simc": 945491,
                "addr:teryt:sym_ul": 15529,
                "contact:phone": "+48 326715679",
                "contact:email": "p1zawiercie@zawiercie.eu",
                "ref:regon": "271511354",
                "ref:vatin": "PL6492020329",
                "operator": "Gmina Zawiercie",
                "operator:type": "government",
                "amenity": "kindergarten"
            }
        },
        {
            "id": 20654,
            "type": "Feature",
            "geometry": {
                "type": "Point",
                "coordinates": [
                    19.44144,
                    50.48072
                ]
            },
            "properties": {
                "isced:level": "1;2",
                "ref:rspo": 20654,
                "official_name": "Szko\u0142a Podstawowa Nr 5 im. Adama Mickiewicza w Zawierciu",
                "name": "Szko\u0142a Podstawowa Nr 5",
                "addr:country": "PL",
                "addr:postcode": "42-400",
                "addr:city": "Zawiercie",
                "addr:street": "Ignacego Paderewskiego",
                "addr:housenumber": "49",
                "addr:teryt:simc": 945491,
                "addr:teryt:sym_ul": 15529,
                "contact:phone": "+48 326722865",
                "contact:email": "sp5zawiercie@zawiercie.eu",
                "contact:website": "http:\/\/www.msp5.jur.pl\/",
                "ref:regon": "000730052",
                "ref:vatin": "PL6492020482",
                "operator": "Gmina Zawiercie",
                "operator:type": "government",
                "amenity": "school"
            }
        },
        {
            "id": 104034,
            "type": "Feature",
            "geometry": {
                "type": "Point",
                "coordinates": [
                    19.44144,
                    50.480689999999996
                ]
            },
            "properties": {
                "ref:rspo": 104034,
                "official_name": "O\u015brodek Szkolenia Bezpiecze\u0144stwa I Higieny Pracy",
                "name": "O\u015brodek Szkolenia Bezpiecze\u0144stwa I Higieny Pracy",
                "addr:country": "PL",
                "addr:postcode": "42-400",
                "addr:city": "Zawiercie",
                "addr:street": "Ignacego Paderewskiego",
                "addr:housenumber": "49",
                "addr:teryt:simc": 945491,
                "addr:teryt:sym_ul": 15529,
                "contact:phone": "+48 507192009",
                "contact:email": "kdziechciarekbhp@gmail.com",
                "ref:regon": "243125762",
                "ref:vatin": "PL6491312395",
                "operator": "Katarzyna Dziechciarek",
                "operator:type": "private",
                "fixme": "w zale\u017cno\u015bci od przedmiotu dzia\u0142alno\u015bci (np. amenity=training + training=*, amenity=dancing_school, amenity=language_school, amenity=music_school) albo amenity=school, amenity=college, albo landuse=education w zale\u017cno\u015bci od tego, jakie plac\u00f3wki wchodz\u0105 w sk\u0142ad zespo\u0142u. Sprawd\u017a, kiedy stosowa\u0107 amenity=* a kiedy landuse=education."
            }
        },
        {
            "id": 133638,
            "type": "Feature",
            "geometry": {
                "type": "Point",
                "coordinates": [
                    19.43389,
                    50.48099
                ]
            },
            "properties": {
                "ref:rspo": 133638,
                "official_name": "Niepubliczna Poradnia Psychologiczno-Pedagogiczna w Zawierciu",
                "name": "Niepubliczna Poradnia Psychologiczno-Pedagogiczna w Zawierciu",
                "addr:country": "PL",
                "addr:postcode": "42-400",
                "addr:city": "Zawiercie",
                "addr:street": "W\u0142adys\u0142awa Stanis\u0142awa Reymonta",
                "addr:housenumber": "4",
                "addr:door": "2",
                "addr:teryt:simc": 945491,
                "addr:teryt:sym_ul": 18652,
                "contact:phone": "+48 609091223",
                "contact:email": "kontakt@psychologzawiercie.eu",
                "contact:website": "http:\/\/psychologzawiercie.eu\/",
                "ref:regon": "367508228",
                "operator": "Maria Sochacka",
                "operator:type": "private",
                "healthcare": "counselling",
                "counselling_type": "education",
                "fixme": "w zale\u017cno\u015bci od przedmiotu dzia\u0142alno\u015bci (np. healthcare=counselling + counselling_type=education albo healthcare=psychotherapist)"
            }
        },
        {
            "id": 22830,
            "type": "Feature",
            "geometry": {
                "type": "Point",
                "coordinates": [
                    19.42986,
                    50.48122
                ]
            },
            "properties": {
                "isced:level": "3",
                "ref:rspo": 22830,
                "official_name": "Ii Liceum im. Heleny Malczewskiej w Zawierciu",
                "name": "Ii Liceum",
                "addr:country": "PL",
                "addr:postcode": "42-400",
                "addr:city": "Zawiercie",
                "addr:street": "Ignacego Daszy\u0144skiego",
                "addr:housenumber": "2",
                "addr:teryt:simc": 945491,
                "addr:teryt:sym_ul": 3639,
                "contact:phone": "+48 326722746",
                "contact:email": "sekretariat@malczewska.zawiercie.powiat.pl",
                "contact:website": "http:\/\/www.malczewska.com",
                "ref:regon": "000730170",
                "ref:vatin": "PL6491606607",
                "operator": "Powiat Zawiercia\u0144ski",
                "operator:type": "government",
                "amenity": "school"
            }
        },
        {
            "id": 79058,
            "type": "Feature",
            "geometry": {
                "type": "Point",
                "coordinates": [
                    19.41255,
                    50.48201
                ]
            },
            "properties": {
                "ref:rspo": 79058,
                "official_name": "Centrum Kszta\u0142cenia Zawodowego I Ustawicznego w Zawierciu",
                "name": "Centrum Kszta\u0142cenia Zawodowego I Ustawicznego w Zawierciu",
                "addr:country": "PL",
                "addr:postcode": "42-400",
                "addr:city": "Zawiercie",
                "addr:street": "Obro\u0144c\u00f3w Poczty Gda\u0144skiej",
                "addr:housenumber": "24",
                "addr:teryt:simc": 945491,
                "addr:teryt:sym_ul": 14637,
                "contact:phone": "+48 326722547",
                "contact:email": "sekretariat@pckz-zawiercie.pl",
                "contact:website": "http:\/\/www.pckz-zawiercie.pl",
                "ref:regon": "241293225",
                "ref:vatin": "PL6492258539",
                "operator": "Powiat Zawiercia\u0144ski",
                "operator:type": "government",
                "landuse": "education",
                "fixme": "amenity=school, amenity=college albo landuse=education w zale\u017cno\u015bci od tego, jakie plac\u00f3wki wchodz\u0105 w sk\u0142ad zespo\u0142u. Sprawd\u017a, kiedy stosowa\u0107 amenity=* a kiedy landuse=education.",
                "note": "Children RSPO: 89715;90203;92620"
            }
        },
        {
            "id": 89715,
            "type": "Feature",
            "geometry": {
                "type": "Point",
                "coordinates": [
                    19.41255,
                    50.48198
                ]
            },
            "properties": {
                "ref:rspo": 89715,
                "official_name": "Centrum Kszta\u0142cenia Zawodowego w Zawierciu",
                "name": "Centrum Kszta\u0142cenia Zawodowego w Zawierciu",
                "addr:country": "PL",
                "addr:postcode": "42-400",
                "addr:city": "Zawiercie",
                "addr:street": "Obro\u0144c\u00f3w Poczty Gda\u0144skiej",
                "addr:housenumber": "24",
                "addr:teryt:simc": 945491,
                "addr:teryt:sym_ul": 14637,
                "contact:phone": "+48 326722547",
                "contact:email": "sekretariat@pckz-zawiercie.pl",
                "ref:regon": "276793535",
                "ref:vatin": "PL6492003816",
                "operator": "Powiat Zawiercia\u0144ski",
                "operator:type": "government",
                "fixme": "w zale\u017cno\u015bci od przedmiotu dzia\u0142alno\u015bci (np. amenity=training + training=*, amenity=dancing_school, amenity=language_school, amenity=music_school) albo amenity=school, amenity=college, albo landuse=education w zale\u017cno\u015bci od tego, jakie plac\u00f3wki wchodz\u0105 w sk\u0142ad zespo\u0142u. Sprawd\u017a, kiedy stosowa\u0107 amenity=* a kiedy landuse=education.",
                "note": "Parent RSPO: 79058"
            }
        },
        {
            "id": 90203,
            "type": "Feature",
            "geometry": {
                "type": "Point",
                "coordinates": [
                    19.41255,
                    50.481950000000005
                ]
            },
            "properties": {
                "ref:rspo": 90203,
                "official_name": "Centrum Kszta\u0142cenia Ustawicznego w Zawierciu",
                "name": "Centrum Kszta\u0142cenia Ustawicznego w Zawierciu",
                "addr:country": "PL",
                "addr:postcode": "42-400",
                "addr:city": "Zawiercie",
                "addr:street": "Obro\u0144c\u00f3w Poczty Gda\u0144skiej",
                "addr:housenumber": "24",
                "addr:teryt:simc": 945491,
                "addr:teryt:sym_ul": 14637,
                "contact:phone": "+48 326722547",
                "contact:email": "sekretariat@pckz-zawiercie.pl",
                "ref:regon": "241293248",
                "ref:vatin": "PL6492258545",
                "operator": "Powiat Zawiercia\u0144ski",
                "operator:type": "government",
                "amenity": "school",
                "fixme": "amenity=school lub amenity=college",
                "note": "Parent RSPO: 79058"
            }
        },
        {
            "id": 92620,
            "type": "Feature",
            "geometry": {
                "type": "Point",
                "coordinates": [
                    19.41255,
                    50.48192
                ]
            },
            "properties": {
                "isced:level": "4",
                "ref:rspo": 92620,
                "official_name": "Szko\u0142a Policealna Nr 5 w Zawierciu",
                "name": "Szko\u0142a Policealna Nr 5 w Zawierciu",
                "addr:country": "PL",
                "addr:postcode": "42-400",
                "addr:city": "Zawiercie",
                "addr:street": "Obro\u0144c\u00f3w Poczty Gda\u0144skiej",
                "addr:housenumber": "24",
                "addr:teryt:simc": 945491,
                "addr:teryt:sym_ul": 14637,
                "contact:phone": "+48 326722547",
                "contact:email": "sekretariat@pckz-zawiercie.pl",
                "ref:regon": "243116912",
                "ref:vatin": "PL6492258545",
                "operator": "Powiat Zawiercia\u0144ski",
                "operator:type": "government",
                "amenity": "college",
                "note": "Parent RSPO: 79058"
            }
        },
        {
            "id": 132047,
            "type": "Feature",
            "geometry": {
                "type": "Point",
                "coordinates": [
                    19.42951,
                    50.48233
                ]
            },
            "properties": {
                "isced:level": "4",
                "ref:rspo": 132047,
                "official_name": "Policealna Szko\u0142a w Zawierciu",
                "name": "Policealna Szko\u0142a w Zawierciu",
                "addr:country": "PL",
                "addr:postcode": "42-400",
                "addr:city": "Zawiercie",
                "addr:street": "Aleja Genera\u0142a W\u0142adys\u0142awa Sikorskiego",
                "addr:housenumber": "20",
                "addr:teryt:simc": 945491,
                "addr:teryt:sym_ul": 19904,
                "contact:phone": "+48 323078432",
                "contact:email": "zawiercie@medyk.net.pl",
                "contact:website": "http:\/\/www.medyk.net.pl",
                "ref:regon": "365435940",
                "ref:vatin": "PL7272847062",
                "operator": "Medyk Szko\u0142a Sp\u00f3\u0142ka Z Ograniczon\u0105 Odpowiedzialno\u015bci\u0105",
                "operator:type": "private",
                "amenity": "college"
            }
        },
        {
            "id": 132053,
            "type": "Feature",
            "geometry": {
                "type": "Point",
                "coordinates": [
                    19.42951,
                    50.482299999999995
                ]
            },
            "properties": {
                "isced:level": "4",
                "ref:rspo": 132053,
                "official_name": "Medyczna Szko\u0142a Policealna w Zawierciu",
                "name": "Medyczna Szko\u0142a Policealna w Zawierciu",
                "addr:country": "PL",
                "addr:postcode": "42-400",
                "addr:city": "Zawiercie",
                "addr:street": "Aleja Genera\u0142a W\u0142adys\u0142awa Sikorskiego",
                "addr:housenumber": "20",
                "addr:teryt:simc": 945491,
                "addr:teryt:sym_ul": 19904,
                "contact:phone": "+48 323078432",
                "contact:email": "zawiercie@medyk.net.pl",
                "contact:website": "http:\/\/www.medyk.net.pl",
                "ref:regon": "365436890",
                "ref:vatin": "PL7272847062",
                "operator": "Medyk Szko\u0142a Sp\u00f3\u0142ka Z Ograniczon\u0105 Odpowiedzialno\u015bci\u0105",
                "operator:type": "private",
                "amenity": "college"
            }
        },
        {
            "id": 276857,
            "type": "Feature",
            "geometry": {
                "type": "Point",
                "coordinates": [
                    19.42951,
                    50.48227
                ]
            },
            "properties": {
                "isced:level": "4",
                "ref:rspo": 276857,
                "official_name": "Publiczna Szko\u0142a Policealna \"Pascal\" w Zawierciu",
                "name": "Publiczna Szko\u0142a Policealna \"Pascal\" w Zawierciu",
                "addr:country": "PL",
                "addr:postcode": "42-400",
                "addr:city": "Zawiercie",
                "addr:street": "Aleja Genera\u0142a W\u0142adys\u0142awa Sikorskiego",
                "addr:housenumber": "20",
                "addr:teryt:simc": 945491,
                "addr:teryt:sym_ul": 19904,
                "contact:phone": "+48 535004657",
                "contact:email": "zawiercie@pascal.edu.pl",
                "contact:website": "http:\/\/www.pascal.edu.pl",
                "ref:regon": "387727558",
                "ref:vatin": "PL7262651222",
                "operator": "Grupa Pascal Sp\u00f3\u0142ka Z Ograniczon\u0105 Odpowiedzialno\u015bci\u0105",
                "operator:type": "private",
                "amenity": "college"
            }
        },
        {
            "id": 17112,
            "type": "Feature",
            "geometry": {
                "type": "Point",
                "coordinates": [
                    19.42602,
                    50.48288
                ]
            },
            "properties": {
                "ref:rspo": 17112,
                "official_name": "Przedszkole Integracyjne Nr 3 w Zawierciu",
                "name": "Przedszkole Integracyjne Nr 3 w Zawierciu",
                "addr:country": "PL",
                "addr:postcode": "42-400",
                "addr:city": "Zawiercie",
                "addr:street": "ks. kard. Stefana Wyszy\u0144skiego",
                "addr:housenumber": "5A",
                "addr:teryt:simc": 945491,
                "addr:teryt:sym_ul": 25114,
                "contact:phone": "+48 326722553",
                "contact:email": "p3zawiercie@zawiercie.eu",
                "contact:website": "http:\/\/p3zawiercie.jur.pl",
                "ref:regon": "271511377",
                "ref:vatin": "PL6492020298",
                "operator": "Gmina Zawiercie",
                "operator:type": "government",
                "amenity": "kindergarten"
            }
        },
        {
            "id": 17231,
            "type": "Feature",
            "geometry": {
                "type": "Point",
                "coordinates": [
                    19.441,
                    50.48313
                ]
            },
            "properties": {
                "ref:rspo": 17231,
                "official_name": "Przedszkole Nr 7 w Zawierciu",
                "name": "Przedszkole Nr 7 w Zawierciu",
                "addr:country": "PL",
                "addr:postcode": "42-400",
                "addr:city": "Zawiercie",
                "addr:street": "Henryka Sienkiewicza",
                "addr:housenumber": "60",
                "addr:teryt:simc": 945491,
                "addr:teryt:sym_ul": 19834,
                "contact:phone": "+48 326710599",
                "contact:email": "p7zawiercie@zawiercie.eu",
                "ref:regon": "271511414",
                "ref:vatin": "PL6492020364",
                "operator": "Gmina Zawiercie",
                "operator:type": "government",
                "amenity": "kindergarten"
            }
        },
        {
            "id": 83153,
            "type": "Feature",
            "geometry": {
                "type": "Point",
                "coordinates": [
                    19.441,
                    50.4831
                ]
            },
            "properties": {
                "isced:level": "3",
                "ref:rspo": 83153,
                "official_name": "Katolickie Liceum Og\u00f3lnokszta\u0142c\u0105ce Spsk im. Kard. Stefana Wyszy\u0144skiego",
                "name": "Katolickie Liceum Og\u00f3lnokszta\u0142c\u0105ce Spsk",
                "addr:country": "PL",
                "addr:postcode": "42-400",
                "addr:city": "Zawiercie",
                "addr:street": "Henryka Sienkiewicza",
                "addr:housenumber": "60",
                "addr:teryt:simc": 945491,
                "addr:teryt:sym_ul": 19834,
                "contact:phone": "+48 326710547",
                "contact:email": "klozawiercie1@tlen.pl",
                "contact:website": "http:\/\/www.katolikzawiercie.pl",
                "ref:regon": "243097221",
                "ref:vatin": "PL6491667106",
                "operator": "Stowarzyszenie Przyjaci\u00f3\u0142 Szk\u00f3\u0142 Katolickich",
                "operator:type": "ngo",
                "amenity": "school"
            }
        },
        {
            "id": 83181,
            "type": "Feature",
            "geometry": {
                "type": "Point",
                "coordinates": [
                    19.441,
                    50.483070000000005
                ]
            },
            "properties": {
                "isced:level": "4",
                "ref:rspo": 83181,
                "official_name": "Szko\u0142a Policealna \"Sokrates\"",
                "name": "Szko\u0142a Policealna \"Sokrates\"",
                "addr:country": "PL",
                "addr:postcode": "42-400",
                "addr:city": "Zawiercie",
                "addr:street": "Henryka Sienkiewicza",
                "addr:housenumber": "60",
                "addr:teryt:simc": 945491,
                "addr:teryt:sym_ul": 19834,
                "contact:phone": "+48 326700330",
                "contact:email": "zawiercie@szkola-sokrates.pl",
                "contact:website": "http:\/\/www.szkola-sokrates.pl",
                "ref:regon": "243097089",
                "ref:vatin": "PL9491450779",
                "operator": "Adam Zjawiony",
                "operator:type": "private",
                "amenity": "college"
            }
        },
        {
            "id": 83195,
            "type": "Feature",
            "geometry": {
                "type": "Point",
                "coordinates": [
                    19.441,
                    50.48304
                ]
            },
            "properties": {
                "isced:level": "3",
                "ref:rspo": 83195,
                "official_name": "Liceum Og\u00f3lnokszta\u0142c\u0105ce dla Doros\u0142ych \"Sokrates\"",
                "name": "Liceum Og\u00f3lnokszta\u0142c\u0105ce dla Doros\u0142ych \"Sokrates\"",
                "addr:country": "PL",
                "addr:postcode": "42-400",
                "addr:city": "Zawiercie",
                "addr:street": "Henryka Sienkiewicza",
                "addr:housenumber": "60",
                "addr:teryt:simc": 945491,
                "addr:teryt:sym_ul": 19834,
                "contact:phone": "+48 326700330",
                "contact:email": "zawiercie@szkola-sokrates.pl",
                "contact:website": "http:\/\/www.szkola-sokrates.pl",
                "ref:regon": "243097066",
                "ref:vatin": "PL9491450779",
                "operator": "Adam Zjawiony",
                "operator:type": "private",
                "amenity": "school"
            }
        },
        {
            "id": 263946,
            "type": "Feature",
            "geometry": {
                "type": "Point",
                "coordinates": [
                    19.441,
                    50.48301
                ]
            },
            "properties": {
                "isced:level": "1;2",
                "ref:rspo": 263946,
                "official_name": "Katolicka Szko\u0142a Podstawowa Stowarzyszenia Przyjaci\u00f3\u0142 Szk\u00f3\u0142 Katolickich im. Jana Paw\u0142a II w Zawierciu",
                "name": "Katolicka Szko\u0142a Podstawowa Stowarzyszenia Przyjaci\u00f3\u0142 Szk\u00f3\u0142 Katolickich",
                "addr:country": "PL",
                "addr:postcode": "42-400",
                "addr:city": "Zawiercie",
                "addr:street": "Henryka Sienkiewicza",
                "addr:housenumber": "60",
                "addr:teryt:simc": 945491,
                "addr:teryt:sym_ul": 19834,
                "contact:phone": "+48 326710547",
                "contact:email": "klozawiercie1@tlen.pl",
                "contact:website": "http:\/\/katolikzawiercie.pl\/",
                "ref:regon": "368244270",
                "operator": "Stowarzyszenie Przyjaci\u00f3\u0142 Szk\u00f3\u0142 Katolickich",
                "operator:type": "ngo",
                "amenity": "school"
            }
        },
        {
            "id": 23316,
            "type": "Feature",
            "geometry": {
                "type": "Point",
                "coordinates": [
                    19.44421,
                    50.48322
                ]
            },
            "properties": {
                "ref:rspo": 23316,
                "official_name": "Zesp\u00f3\u0142 Szk\u00f3\u0142 Ekonomicznych w Zawierciu",
                "name": "Zesp\u00f3\u0142 Szk\u00f3\u0142 Ekonomicznych w Zawierciu",
                "addr:country": "PL",
                "addr:postcode": "42-400",
                "addr:city": "Zawiercie",
                "addr:street": "Macieja Rataja",
                "addr:housenumber": "30",
                "addr:teryt:simc": 945491,
                "addr:teryt:sym_ul": 18469,
                "contact:phone": "+48 326722415",
                "contact:email": "sekretariat@zsekonomik.zawiercie.powiat.pl",
                "contact:website": "http:\/\/www.ekonomik-zawiercie.pl",
                "ref:regon": "000201744",
                "ref:vatin": "PL6491348401",
                "operator": "Powiat Zawiercia\u0144ski",
                "operator:type": "government",
                "landuse": "education",
                "fixme": "amenity=school, amenity=college albo landuse=education w zale\u017cno\u015bci od tego, jakie plac\u00f3wki wchodz\u0105 w sk\u0142ad zespo\u0142u. Sprawd\u017a, kiedy stosowa\u0107 amenity=* a kiedy landuse=education.",
                "note": "Children RSPO: 27874;73281"
            }
        },
        {
            "id": 103482,
            "type": "Feature",
            "geometry": {
                "type": "Point",
                "coordinates": [
                    19.44421,
                    50.48319
                ]
            },
            "properties": {
                "ref:rspo": 103482,
                "official_name": "Centrum Szkolenia Zawodowego Plac\u00f3wka Kszta\u0142cenia Ustawicznego",
                "name": "Centrum Szkolenia Zawodowego Plac\u00f3wka Kszta\u0142cenia Ustawicznego",
                "addr:country": "PL",
                "addr:postcode": "42-400",
                "addr:city": "Zawiercie",
                "addr:street": "Macieja Rataja",
                "addr:housenumber": "30",
                "addr:teryt:simc": 945491,
                "addr:teryt:sym_ul": 18469,
                "contact:phone": "+48 326711820",
                "contact:email": "censzko@wp.pl",
                "contact:website": "https:\/\/www.szkolenia.zawiercie24.pl\/",
                "ref:regon": "243123148",
                "ref:vatin": "PL6491348720",
                "operator": "Bogus\u0142aw Szczygie\u0142",
                "operator:type": "private",
                "fixme": "w zale\u017cno\u015bci od przedmiotu dzia\u0142alno\u015bci (np. amenity=training + training=*, amenity=dancing_school, amenity=language_school, amenity=music_school) albo amenity=school, amenity=college, albo landuse=education w zale\u017cno\u015bci od tego, jakie plac\u00f3wki wchodz\u0105 w sk\u0142ad zespo\u0142u. Sprawd\u017a, kiedy stosowa\u0107 amenity=* a kiedy landuse=education."
            }
        },
        {
            "id": 27874,
            "type": "Feature",
            "geometry": {
                "type": "Point",
                "coordinates": [
                    19.44421,
                    50.483160000000005
                ]
            },
            "properties": {
                "isced:level": "3",
                "ref:rspo": 27874,
                "official_name": "Technikum Nr 3",
                "name": "Technikum Nr 3",
                "addr:country": "PL",
                "addr:postcode": "42-400",
                "addr:city": "Zawiercie",
                "addr:street": "Macieja Rataja",
                "addr:housenumber": "30",
                "addr:teryt:simc": 945491,
                "addr:teryt:sym_ul": 18469,
                "contact:phone": "+48 326722415",
                "contact:email": "sekretariat@zsekonomik.zawiercie.powiat.pl",
                "contact:website": "http:\/\/www.ekonomik-zawiercie.pl",
                "ref:regon": "272160365",
                "ref:vatin": "PL6491348401",
                "operator": "Powiat Zawiercia\u0144ski",
                "operator:type": "government",
                "amenity": "school",
                "note": "Parent RSPO: 23316"
            }
        },
        {
            "id": 73281,
            "type": "Feature",
            "geometry": {
                "type": "Point",
                "coordinates": [
                    19.44421,
                    50.48313
                ]
            },
            "properties": {
                "isced:level": "4",
                "ref:rspo": 73281,
                "official_name": "Szko\u0142a Policealna Nr 2 w Zawierciu",
                "name": "Szko\u0142a Policealna Nr 2 w Zawierciu",
                "addr:country": "PL",
                "addr:postcode": "42-400",
                "addr:city": "Zawiercie",
                "addr:street": "Macieja Rataja",
                "addr:housenumber": "30",
                "addr:teryt:simc": 945491,
                "addr:teryt:sym_ul": 18469,
                "contact:phone": "+48 326722415",
                "contact:email": "sekretariat@zsekonomik.zawiercie.powiat.pl",
                "contact:website": "http:\/\/www.zsezawiercie.republika.pl",
                "ref:regon": "276902881",
                "ref:vatin": "PL6491348401",
                "operator": "Powiat Zawiercia\u0144ski",
                "operator:type": "government",
                "amenity": "college",
                "note": "Parent RSPO: 23316"
            }
        },
        {
            "id": 20280,
            "type": "Feature",
            "geometry": {
                "type": "Point",
                "coordinates": [
                    19.42698,
                    50.48369
                ]
            },
            "properties": {
                "isced:level": "1;2",
                "ref:rspo": 20280,
                "official_name": "Szko\u0142a Podstawowa Nr 4 im. Miko\u0142aja Kopernika w Zawierciu",
                "name": "Szko\u0142a Podstawowa Nr 4",
                "addr:country": "PL",
                "addr:postcode": "42-400",
                "addr:city": "Zawiercie",
                "addr:street": "Powsta\u0144c\u00f3w \u015al\u0105skich",
                "addr:housenumber": "18",
                "addr:teryt:simc": 945491,
                "addr:teryt:sym_ul": 17366,
                "contact:phone": "+48 326721357",
                "contact:email": "sp4zawiercie@zawiercie.eu",
                "contact:website": "http:\/\/sp4zawiercie.szkolnastrona.pl\/",
                "ref:regon": "000730046",
                "ref:vatin": "PL6492020476",
                "operator": "Gmina Zawiercie",
                "operator:type": "government",
                "amenity": "school"
            }
        },
        {
            "id": 12425,
            "type": "Feature",
            "geometry": {
                "type": "Point",
                "coordinates": [
                    19.44468,
                    50.4839399
                ]
            },
            "properties": {
                "ref:rspo": 12425,
                "official_name": "Zesp\u00f3\u0142 Szk\u00f3\u0142 Specjalnych im. Marii Grzegorzewskiej I Poradni Psychologiczno - Pedagogicznej Nr 2W Zawierciu",
                "name": "Zesp\u00f3\u0142 Szk\u00f3\u0142 Specjalnych",
                "addr:country": "PL",
                "addr:postcode": "42-400",
                "addr:city": "Zawiercie",
                "addr:street": "Macieja Rataja",
                "addr:housenumber": "29",
                "addr:door": "a",
                "addr:teryt:simc": 945491,
                "addr:teryt:sym_ul": 18469,
                "contact:phone": "+48 326721517",
                "contact:email": "sekretariat@zss-zawiercie.pl",
                "contact:website": "http:\/\/www.zss-zawiercie.pl",
                "ref:regon": "273648287",
                "ref:vatin": "PL6491923176",
                "operator": "Powiat Zawiercia\u0144ski",
                "operator:type": "government",
                "landuse": "education",
                "fixme": "amenity=school, amenity=college albo landuse=education w zale\u017cno\u015bci od tego, jakie plac\u00f3wki wchodz\u0105 w sk\u0142ad zespo\u0142u. Sprawd\u017a, kiedy stosowa\u0107 amenity=* a kiedy landuse=education.",
                "note": "Children RSPO: 24487;24489;24496;277818"
            }
        },
        {
            "id": 23273,
            "type": "Feature",
            "geometry": {
                "type": "Point",
                "coordinates": [
                    19.44468,
                    50.4839099
                ]
            },
            "properties": {
                "ref:rspo": 23273,
                "official_name": "Zesp\u00f3\u0142 Szk\u00f3\u0142 im. Stanis\u0142awa Staszica w Zawierciu",
                "name": "Zesp\u00f3\u0142 Szk\u00f3\u0142",
                "addr:country": "PL",
                "addr:postcode": "42-400",
                "addr:city": "Zawiercie",
                "addr:street": "Macieja Rataja",
                "addr:housenumber": "29",
                "addr:teryt:simc": 945491,
                "addr:teryt:sym_ul": 18469,
                "contact:phone": "+48 326723882",
                "contact:email": "sekretariat@zsstaszic.zawiercie.powiat.pl",
                "contact:website": "http:\/\/www.zsstaszic.zawiercie.powiat.pl",
                "ref:regon": "000201767",
                "ref:vatin": "PL6491464024",
                "operator": "Powiat Zawiercia\u0144ski",
                "operator:type": "government",
                "landuse": "education",
                "fixme": "amenity=school, amenity=college albo landuse=education w zale\u017cno\u015bci od tego, jakie plac\u00f3wki wchodz\u0105 w sk\u0142ad zespo\u0142u. Sprawd\u017a, kiedy stosowa\u0107 amenity=* a kiedy landuse=education.",
                "note": "Children RSPO: 26622;26749"
            }
        },
        {
            "id": 26622,
            "type": "Feature",
            "geometry": {
                "type": "Point",
                "coordinates": [
                    19.44468,
                    50.483879900000005
                ]
            },
            "properties": {
                "isced:level": "3",
                "ref:rspo": 26622,
                "official_name": "Technikum Nr 4",
                "name": "Technikum Nr 4",
                "addr:country": "PL",
                "addr:postcode": "42-400",
                "addr:city": "Zawiercie",
                "addr:street": "Macieja Rataja",
                "addr:housenumber": "29",
                "addr:teryt:simc": 945491,
                "addr:teryt:sym_ul": 18469,
                "contact:phone": "+48 326723882",
                "contact:email": "sekretariat@zsstaszic.zawiercie.powiat.pl",
                "contact:website": "http:\/\/www.zsstaszic.zawiercie.powiat.pl",
                "ref:regon": "272126061",
                "ref:vatin": "PL6491464024",
                "operator": "Powiat Zawiercia\u0144ski",
                "operator:type": "government",
                "amenity": "school",
                "note": "Parent RSPO: 23273"
            }
        },
        {
            "id": 26749,
            "type": "Feature",
            "geometry": {
                "type": "Point",
                "coordinates": [
                    19.44468,
                    50.4838499
                ]
            },
            "properties": {
                "isced:level": "4",
                "ref:rspo": 26749,
                "official_name": "Szko\u0142a Policealna Nr 7 w Zawierciu",
                "name": "Szko\u0142a Policealna Nr 7 w Zawierciu",
                "addr:country": "PL",
                "addr:postcode": "42-400",
                "addr:city": "Zawiercie",
                "addr:street": "Macieja Rataja",
                "addr:housenumber": "29",
                "addr:teryt:simc": 945491,
                "addr:teryt:sym_ul": 18469,
                "contact:phone": "+48 326723882",
                "contact:email": "sekretariat@zsstaszic.zawiercie.powiat.pl",
                "contact:website": "http:\/\/www.zsstaszic.zawiercie.powiat.pl",
                "ref:regon": "240142636",
                "ref:vatin": "PL6491464024",
                "operator": "Powiat Zawiercia\u0144ski",
                "operator:type": "government",
                "amenity": "college",
                "note": "Parent RSPO: 23273"
            }
        },
        {
            "id": 264536,
            "type": "Feature",
            "geometry": {
                "type": "Point",
                "coordinates": [
                    19.42358,
                    50.4841
                ]
            },
            "properties": {
                "ref:rspo": 264536,
                "official_name": "Zesp\u00f3\u0142 Szk\u00f3\u0142 Pascal w Zawierciu",
                "name": "Zesp\u00f3\u0142 Szk\u00f3\u0142 Pascal w Zawierciu",
                "addr:country": "PL",
                "addr:postcode": "42-400",
                "addr:city": "Zawiercie",
                "addr:street": "3 Maja",
                "addr:housenumber": "13",
                "addr:teryt:simc": 945491,
                "addr:teryt:sym_ul": 11937,
                "contact:phone": "+48 535004657",
                "contact:email": "zawiercie@pascal.edu.pl",
                "contact:website": "http:\/\/www.pascal.edu.pl",
                "ref:regon": "368373931",
                "operator": "Grupa Pascal Sp\u00f3\u0142ka Z Ograniczon\u0105 Odpowiedzialno\u015bci\u0105",
                "operator:type": "private",
                "landuse": "education",
                "fixme": "amenity=school, amenity=college albo landuse=education w zale\u017cno\u015bci od tego, jakie plac\u00f3wki wchodz\u0105 w sk\u0142ad zespo\u0142u. Sprawd\u017a, kiedy stosowa\u0107 amenity=* a kiedy landuse=education.",
                "note": "Children RSPO: 120284;120286;132346;132347"
            }
        },
        {
            "id": 120284,
            "type": "Feature",
            "geometry": {
                "type": "Point",
                "coordinates": [
                    19.42358,
                    50.484069999999996
                ]
            },
            "properties": {
                "isced:level": "3",
                "ref:rspo": 120284,
                "official_name": "Liceum Og\u00f3lnokszta\u0142c\u0105ce dla Doros\u0142ych \"Pascal\" w Zawierciu Z Siedzib\u0105 w Zawierciu.",
                "name": "Liceum Og\u00f3lnokszta\u0142c\u0105ce dla Doros\u0142ych \"Pascal\" w Zawierciu Z Siedzib\u0105 w Zawierciu.",
                "addr:country": "PL",
                "addr:postcode": "42-400",
                "addr:city": "Zawiercie",
                "addr:street": "3 Maja",
                "addr:housenumber": "13",
                "addr:teryt:simc": 945491,
                "addr:teryt:sym_ul": 11937,
                "contact:phone": "+48 535004657",
                "contact:email": "zawiercie@pascal.edu.pl",
                "contact:website": "http:\/\/www.pascal.edu.pl",
                "ref:regon": "243377096",
                "operator": "Grupa Pascal Sp\u00f3\u0142ka Z Ograniczon\u0105 Odpowiedzialno\u015bci\u0105",
                "operator:type": "private",
                "amenity": "school",
                "note": "Parent RSPO: 264536"
            }
        },
        {
            "id": 120286,
            "type": "Feature",
            "geometry": {
                "type": "Point",
                "coordinates": [
                    19.42358,
                    50.48404
                ]
            },
            "properties": {
                "isced:level": "4",
                "ref:rspo": 120286,
                "official_name": "Zaoczna Policealna Szko\u0142a Zawodowa \"Pascal\" w Zawierciu Z Siedzib\u0105 w Zawierciu.",
                "name": "Zaoczna Policealna Szko\u0142a Zawodowa \"Pascal\" w Zawierciu Z Siedzib\u0105 w Zawierciu.",
                "addr:country": "PL",
                "addr:postcode": "42-400",
                "addr:city": "Zawiercie",
                "addr:street": "3 Maja",
                "addr:housenumber": "13",
                "addr:teryt:simc": 945491,
                "addr:teryt:sym_ul": 11937,
                "contact:phone": "+48 535004657",
                "contact:email": "zawiercie@pascal.edu.pl",
                "contact:website": "http:\/\/www.pascal.edu.pl",
                "ref:regon": "243377067",
                "operator": "Grupa Pascal Sp\u00f3\u0142ka Z Ograniczon\u0105 Odpowiedzialno\u015bci\u0105",
                "operator:type": "private",
                "amenity": "college",
                "note": "Parent RSPO: 264536"
            }
        },
        {
            "id": 132346,
            "type": "Feature",
            "geometry": {
                "type": "Point",
                "coordinates": [
                    19.42358,
                    50.48401
                ]
            },
            "properties": {
                "isced:level": "4",
                "ref:rspo": 132346,
                "official_name": "Policealna Szko\u0142a Medyczna \"Pascal\" w Zawierciu",
                "name": "Policealna Szko\u0142a Medyczna \"Pascal\" w Zawierciu",
                "addr:country": "PL",
                "addr:postcode": "42-450",
                "addr:city": "Zawiercie",
                "addr:street": "3 Maja",
                "addr:housenumber": "13",
                "addr:teryt:simc": 945491,
                "addr:teryt:sym_ul": 11937,
                "contact:phone": "+48 535004657",
                "contact:email": "zawiercie@pascal.edu.pl",
                "contact:website": "http:\/\/www.pascal.edu.pl",
                "ref:regon": "365564234",
                "ref:vatin": "PL7262651222",
                "operator": "Grupa Pascal Sp\u00f3\u0142ka Z Ograniczon\u0105 Odpowiedzialno\u015bci\u0105",
                "operator:type": "private",
                "amenity": "college",
                "note": "Parent RSPO: 264536"
            }
        },
        {
            "id": 132347,
            "type": "Feature",
            "geometry": {
                "type": "Point",
                "coordinates": [
                    19.42358,
                    50.483979999999995
                ]
            },
            "properties": {
                "isced:level": "4",
                "ref:rspo": 132347,
                "official_name": "Stacjonarna Policealna Szko\u0142a Medyczna \"Pascal\" w Zawierciu",
                "name": "Stacjonarna Policealna Szko\u0142a Medyczna \"Pascal\" w Zawierciu",
                "addr:country": "PL",
                "addr:postcode": "42-400",
                "addr:city": "Zawiercie",
                "addr:street": "3 Maja",
                "addr:housenumber": "13",
                "addr:teryt:simc": 945491,
                "addr:teryt:sym_ul": 11937,
                "contact:phone": "+48 535004657",
                "contact:email": "zawiercie@pascal.edu.pl",
                "contact:website": "http:\/\/www.pascal.edu.pl",
                "ref:regon": "365565096",
                "ref:vatin": "PL7262651222",
                "operator": "Grupa Pascal Sp\u00f3\u0142ka Z Ograniczon\u0105 Odpowiedzialno\u015bci\u0105",
                "operator:type": "private",
                "amenity": "college",
                "note": "Parent RSPO: 264536"
            }
        },
        {
            "id": 24487,
            "type": "Feature",
            "geometry": {
                "type": "Point",
                "coordinates": [
                    19.4444,
                    50.4848
                ]
            },
            "properties": {
                "isced:level": "1;2",
                "ref:rspo": 24487,
                "official_name": "Szko\u0142a Podstawowa Nr 15 Specjalna",
                "name": "Szko\u0142a Podstawowa Nr 15 Specjalna",
                "addr:country": "PL",
                "addr:postcode": "42-400",
                "addr:city": "Zawiercie",
                "addr:street": "Macieja Rataja",
                "addr:housenumber": "29a",
                "addr:teryt:simc": 945491,
                "addr:teryt:sym_ul": 18469,
                "contact:phone": "+48 326721517",
                "contact:email": "sekretariat@zss.zawiercie.powiat.pl",
                "contact:website": "http:\/\/zss-zawiercie.pl",
                "ref:regon": "000730112",
                "ref:vatin": "PL6491923176",
                "operator": "Powiat Zawiercia\u0144ski",
                "operator:type": "government",
                "amenity": "school",
                "note": "Parent RSPO: 12425"
            }
        },
        {
            "id": 24489,
            "type": "Feature",
            "geometry": {
                "type": "Point",
                "coordinates": [
                    19.4444,
                    50.48477
                ]
            },
            "properties": {
                "isced:level": "3",
                "ref:rspo": 24489,
                "official_name": "Bran\u017cowa Szko\u0142a I Stopnia Nr 3 Specjalna",
                "name": "Bran\u017cowa Szko\u0142a I Stopnia Nr 3 Specjalna",
                "addr:country": "PL",
                "addr:postcode": "42-400",
                "addr:city": "Zawiercie",
                "addr:street": "Macieja Rataja",
                "addr:housenumber": "29a",
                "addr:teryt:simc": 945491,
                "addr:teryt:sym_ul": 18469,
                "contact:phone": "+48 326721517",
                "contact:email": "sekretariat@zss.zawiercie.powiat.pl",
                "contact:website": "http:\/\/www.zsswzawierciu.pl.tl",
                "ref:regon": "273648318",
                "ref:vatin": "PL6491923176",
                "operator": "Powiat Zawiercia\u0144ski",
                "operator:type": "government",
                "amenity": "school",
                "note": "Parent RSPO: 12425"
            }
        },
        {
            "id": 24496,
            "type": "Feature",
            "geometry": {
                "type": "Point",
                "coordinates": [
                    19.4444,
                    50.48474
                ]
            },
            "properties": {
                "ref:rspo": 24496,
                "official_name": "Szko\u0142a Przysposabiaj\u0105ca Do Pracy - Specjalna w Zawierciu",
                "name": "Szko\u0142a Przysposabiaj\u0105ca Do Pracy - Specjalna w Zawierciu",
                "addr:country": "PL",
                "addr:postcode": "42-400",
                "addr:city": "Zawiercie",
                "addr:street": "Macieja Rataja",
                "addr:housenumber": "29a",
                "addr:teryt:simc": 945491,
                "addr:teryt:sym_ul": 18469,
                "contact:phone": "+48 326721517",
                "contact:email": "sekretariat@zss.zawiercie.powiat.pl",
                "contact:website": "http:\/\/www.zsswzawierciu.pl.tl",
                "ref:regon": "240715693",
                "ref:vatin": "PL6491923176",
                "operator": "Powiat Zawiercia\u0144ski",
                "operator:type": "government",
                "amenity": "school",
                "note": "Parent RSPO: 12425"
            }
        },
        {
            "id": 277818,
            "type": "Feature",
            "geometry": {
                "type": "Point",
                "coordinates": [
                    19.4444,
                    50.48471
                ]
            },
            "properties": {
                "ref:rspo": 277818,
                "official_name": "Poradnia Psychologiczno - Pedagogiczna Nr 2 w Zawierciu",
                "name": "Poradnia Psychologiczno - Pedagogiczna Nr 2 w Zawierciu",
                "addr:country": "PL",
                "addr:postcode": "42-400",
                "addr:city": "Zawiercie",
                "addr:street": "Macieja Rataja",
                "addr:housenumber": "29A",
                "addr:teryt:simc": 945491,
                "addr:teryt:sym_ul": 18469,
                "contact:phone": "+48 324941500",
                "contact:email": "sekretariatppp2@zss.zawiercie.powiat.pl",
                "contact:website": "http:\/\/www.zss-zawiercie.pl",
                "ref:regon": "389545815",
                "operator": "Powiat Zawiercia\u0144ski",
                "operator:type": "government",
                "healthcare": "counselling",
                "counselling_type": "education",
                "fixme": "w zale\u017cno\u015bci od przedmiotu dzia\u0142alno\u015bci (np. healthcare=counselling + counselling_type=education albo healthcare=psychotherapist)",
                "note": "Parent RSPO: 12425"
            }
        },
        {
            "id": 17209,
            "type": "Feature",
            "geometry": {
                "type": "Point",
                "coordinates": [
                    19.43364,
                    50.48493
                ]
            },
            "properties": {
                "ref:rspo": 17209,
                "official_name": "Przedszkole Nr 6 w Zawierciu",
                "name": "Przedszkole Nr 6 w Zawierciu",
                "addr:country": "PL",
                "addr:postcode": "42-400",
                "addr:city": "Zawiercie",
                "addr:street": "Henryka Sienkiewicza",
                "addr:housenumber": "32",
                "addr:teryt:simc": 945491,
                "addr:teryt:sym_ul": 19834,
                "contact:phone": "+48 326721530",
                "contact:email": "p6zawiercie@zawiercie.eu",
                "ref:regon": "271511408",
                "ref:vatin": "PL6492020358",
                "operator": "Gmina Zawiercie",
                "operator:type": "government",
                "amenity": "kindergarten"
            }
        },
        {
            "id": 22948,
            "type": "Feature",
            "geometry": {
                "type": "Point",
                "coordinates": [
                    19.43986,
                    50.48579
                ]
            },
            "properties": {
                "ref:rspo": 22948,
                "official_name": "Zesp\u00f3\u0142 Szk\u00f3\u0142 im. Xawerego Dunikowskiego w Zawierciu",
                "name": "Zesp\u00f3\u0142 Szk\u00f3\u0142",
                "addr:country": "PL",
                "addr:postcode": "42-400",
                "addr:city": "Zawiercie",
                "addr:street": "Macieja Rataja",
                "addr:housenumber": "7",
                "addr:teryt:simc": 945491,
                "addr:teryt:sym_ul": 18469,
                "contact:phone": "+48 326722583",
                "contact:email": "sekretariat@dunikowski.zawiercie.powiat.pl",
                "contact:website": "http:\/\/www.dunikowskizawiercie.pl",
                "ref:regon": "271514648",
                "ref:vatin": "PL6491606636",
                "operator": "Powiat Zawiercia\u0144ski",
                "operator:type": "government",
                "landuse": "education",
                "fixme": "amenity=school, amenity=college albo landuse=education w zale\u017cno\u015bci od tego, jakie plac\u00f3wki wchodz\u0105 w sk\u0142ad zespo\u0142u. Sprawd\u017a, kiedy stosowa\u0107 amenity=* a kiedy landuse=education.",
                "note": "Children RSPO: 25370;25437;25541;25569"
            }
        },
        {
            "id": 25370,
            "type": "Feature",
            "geometry": {
                "type": "Point",
                "coordinates": [
                    19.43986,
                    50.48576
                ]
            },
            "properties": {
                "isced:level": "3",
                "ref:rspo": 25370,
                "official_name": "Iii Liceum Og\u00f3lnokszta\u0142c\u0105ce",
                "name": "Iii Liceum Og\u00f3lnokszta\u0142c\u0105ce",
                "addr:country": "PL",
                "addr:postcode": "42-400",
                "addr:city": "Zawiercie",
                "addr:street": "Macieja Rataja",
                "addr:housenumber": "7",
                "addr:teryt:simc": 945491,
                "addr:teryt:sym_ul": 18469,
                "contact:phone": "+48 326722583",
                "contact:email": "sekretariat@dunikowski.zawiercie.powiat.pl",
                "contact:website": "http:\/\/www.dunikowski.zawiercie.powiat.pl",
                "ref:regon": "271514654",
                "ref:vatin": "PL6491606636",
                "operator": "Powiat Zawiercia\u0144ski",
                "operator:type": "government",
                "amenity": "school",
                "note": "Parent RSPO: 22948"
            }
        },
        {
            "id": 25437,
            "type": "Feature",
            "geometry": {
                "type": "Point",
                "coordinates": [
                    19.43986,
                    50.485730000000004
                ]
            },
            "properties": {
                "isced:level": "3",
                "ref:rspo": 25437,
                "official_name": "Technikum Nr 1",
                "name": "Technikum Nr 1",
                "addr:country": "PL",
                "addr:postcode": "42-400",
                "addr:city": "Zawiercie",
                "addr:street": "Macieja Rataja",
                "addr:housenumber": "7",
                "addr:teryt:simc": 945491,
                "addr:teryt:sym_ul": 18469,
                "contact:phone": "+48 326722583",
                "contact:email": "sekretariat@dunikowski.zawiercie.powiat.pl",
                "contact:website": "http:\/\/www.dunikowskizawiercie.pl",
                "ref:regon": "272226851",
                "ref:vatin": "PL6491606636",
                "operator": "Powiat Zawiercia\u0144ski",
                "operator:type": "government",
                "amenity": "school",
                "note": "Parent RSPO: 22948"
            }
        },
        {
            "id": 25541,
            "type": "Feature",
            "geometry": {
                "type": "Point",
                "coordinates": [
                    19.43986,
                    50.4857
                ]
            },
            "properties": {
                "isced:level": "4",
                "ref:rspo": 25541,
                "official_name": "Szko\u0142a Policealna Nr 4 w Zawierciu",
                "name": "Szko\u0142a Policealna Nr 4 w Zawierciu",
                "addr:country": "PL",
                "addr:postcode": "42-400",
                "addr:city": "Zawiercie",
                "addr:street": "Macieja Rataja",
                "addr:housenumber": "7",
                "addr:teryt:simc": 945491,
                "addr:teryt:sym_ul": 18469,
                "contact:phone": "+48 326722583",
                "contact:email": "sekretariat@dunikowski.zawiercie.powiat.pl",
                "contact:website": "http:\/\/www.dunikowski.zawiercie.powiat.pl",
                "ref:regon": "242872468",
                "ref:vatin": "PL6491606636",
                "operator": "Powiat Zawiercia\u0144ski",
                "operator:type": "government",
                "amenity": "college",
                "note": "Parent RSPO: 22948"
            }
        },
        {
            "id": 25569,
            "type": "Feature",
            "geometry": {
                "type": "Point",
                "coordinates": [
                    19.43986,
                    50.48567
                ]
            },
            "properties": {
                "isced:level": "3",
                "ref:rspo": 25569,
                "official_name": "Bran\u017cowa Szko\u0142a I Stopnia Nr 4 w Zawierciu",
                "name": "Bran\u017cowa Szko\u0142a I Stopnia Nr 4 w Zawierciu",
                "addr:country": "PL",
                "addr:postcode": "42-400",
                "addr:city": "Zawiercie",
                "addr:street": "Macieja Rataja",
                "addr:housenumber": "7",
                "addr:teryt:simc": 945491,
                "addr:teryt:sym_ul": 18469,
                "contact:phone": "+48 326722583",
                "contact:email": "sekretariat@dunikowski.zawiercie.powiat.pl",
                "contact:website": "http:\/\/www.dunikowski.zawiercie.powiat.pl",
                "ref:regon": "242872445",
                "ref:vatin": "PL6491606636",
                "operator": "Powiat Zawiercia\u0144ski",
                "operator:type": "government",
                "amenity": "school",
                "note": "Parent RSPO: 22948"
            }
        },
        {
            "id": 22993,
            "type": "Feature",
            "geometry": {
                "type": "Point",
                "coordinates": [
                    19.4103299,
                    50.48649
                ]
            },
            "properties": {
                "ref:rspo": 22993,
                "official_name": "Zesp\u00f3\u0142 Szk\u00f3\u0142 im. Hugona Ko\u0142\u0142\u0105taja w Zawierciu",
                "name": "Zesp\u00f3\u0142 Szk\u00f3\u0142",
                "addr:country": "PL",
                "addr:postcode": "42-400",
                "addr:city": "Zawiercie",
                "addr:street": "Miodowa",
                "addr:housenumber": "1",
                "addr:teryt:simc": 945491,
                "addr:teryt:sym_ul": 12991,
                "contact:phone": "+48 326723803",
                "contact:email": "sekretariat@zskollataj.zawiercie.powiat.pl",
                "contact:website": "http:\/\/www.kollataj.edu.pl",
                "ref:regon": "000201827",
                "ref:vatin": "PL6491463467",
                "operator": "Powiat Zawiercia\u0144ski",
                "operator:type": "government",
                "landuse": "education",
                "fixme": "amenity=school, amenity=college albo landuse=education w zale\u017cno\u015bci od tego, jakie plac\u00f3wki wchodz\u0105 w sk\u0142ad zespo\u0142u. Sprawd\u017a, kiedy stosowa\u0107 amenity=* a kiedy landuse=education.",
                "note": "Children RSPO: 25749;26064;26117;26187"
            }
        },
        {
            "id": 25749,
            "type": "Feature",
            "geometry": {
                "type": "Point",
                "coordinates": [
                    19.4103299,
                    50.48646
                ]
            },
            "properties": {
                "isced:level": "3",
                "ref:rspo": 25749,
                "official_name": "Bran\u017cowa Szko\u0142a I Stopnia Nr 1",
                "name": "Bran\u017cowa Szko\u0142a I Stopnia Nr 1",
                "addr:country": "PL",
                "addr:postcode": "42-400",
                "addr:city": "Zawiercie",
                "addr:street": "Miodowa",
                "addr:housenumber": "1",
                "addr:teryt:simc": 945491,
                "addr:teryt:sym_ul": 12991,
                "contact:phone": "+48 326723803",
                "contact:email": "sekretariat@zskollataj.zawiercie.powiat.pl",
                "contact:website": "http:\/\/www.zskollataj.zawiercie.powiat.pl",
                "ref:regon": "272126285",
                "ref:vatin": "PL6491463467",
                "operator": "Powiat Zawiercia\u0144ski",
                "operator:type": "government",
                "amenity": "school",
                "note": "Parent RSPO: 22993"
            }
        },
        {
            "id": 26064,
            "type": "Feature",
            "geometry": {
                "type": "Point",
                "coordinates": [
                    19.4103299,
                    50.486430000000006
                ]
            },
            "properties": {
                "isced:level": "3",
                "ref:rspo": 26064,
                "official_name": "Iv Liceum Og\u00f3lnokszta\u0142c\u0105ce",
                "name": "Iv Liceum Og\u00f3lnokszta\u0142c\u0105ce",
                "addr:country": "PL",
                "addr:postcode": "42-400",
                "addr:city": "Zawiercie",
                "addr:street": "Miodowa",
                "addr:housenumber": "1",
                "addr:teryt:simc": 945491,
                "addr:teryt:sym_ul": 12991,
                "contact:phone": "+48 326723803",
                "contact:email": "sekretariat@zskollataj.zawiercie.powiat.pl",
                "contact:website": "http:\/\/www.zskollataj.zawiercie.powiat.pl",
                "ref:regon": "276582287",
                "ref:vatin": "PL6491463467",
                "operator": "Powiat Zawiercia\u0144ski",
                "operator:type": "government",
                "amenity": "school",
                "note": "Parent RSPO: 22993"
            }
        },
        {
            "id": 26117,
            "type": "Feature",
            "geometry": {
                "type": "Point",
                "coordinates": [
                    19.4103299,
                    50.4864
                ]
            },
            "properties": {
                "isced:level": "3",
                "ref:rspo": 26117,
                "official_name": "Technikum Nr 2",
                "name": "Technikum Nr 2",
                "addr:country": "PL",
                "addr:postcode": "42-400",
                "addr:city": "Zawiercie",
                "addr:street": "Miodowa",
                "addr:housenumber": "1",
                "addr:teryt:simc": 945491,
                "addr:teryt:sym_ul": 12991,
                "contact:phone": "+48 326723803",
                "contact:email": "sekretariat@zskollataj.zawiercie.powiat.pl",
                "contact:website": "http:\/\/www.zskollataj.zawiercie.powiat.pl",
                "ref:regon": "272126300",
                "ref:vatin": "PL6491463467",
                "operator": "Powiat Zawiercia\u0144ski",
                "operator:type": "government",
                "amenity": "school",
                "note": "Parent RSPO: 22993"
            }
        },
        {
            "id": 26187,
            "type": "Feature",
            "geometry": {
                "type": "Point",
                "coordinates": [
                    19.4103299,
                    50.48637
                ]
            },
            "properties": {
                "isced:level": "4",
                "ref:rspo": 26187,
                "official_name": "Szko\u0142a Policealna Nr 6 w Zawierciu",
                "name": "Szko\u0142a Policealna Nr 6 w Zawierciu",
                "addr:country": "PL",
                "addr:postcode": "42-400",
                "addr:city": "Zawiercie",
                "addr:street": "Miodowa",
                "addr:housenumber": "1",
                "addr:teryt:simc": 945491,
                "addr:teryt:sym_ul": 12991,
                "contact:phone": "+48 326723803",
                "contact:email": "sekretariat@zskollataj.zawiercie.powiat.pl",
                "contact:website": "http:\/\/www.zskollataj.zawiercie.powiat.pl",
                "ref:regon": "152176110",
                "ref:vatin": "PL6491463467",
                "operator": "Powiat Zawiercia\u0144ski",
                "operator:type": "government",
                "amenity": "college",
                "note": "Parent RSPO: 22993"
            }
        },
        {
            "id": 25332,
            "type": "Feature",
            "geometry": {
                "type": "Point",
                "coordinates": [
                    19.40922,
                    50.48657
                ]
            },
            "properties": {
                "isced:level": "1;2",
                "ref:rspo": 25332,
                "official_name": "Szko\u0142a Podstawowa Nr 8 w Zawierciu",
                "name": "Szko\u0142a Podstawowa Nr 8 w Zawierciu",
                "addr:country": "PL",
                "addr:postcode": "42-400",
                "addr:city": "Zawiercie",
                "addr:street": "Wojska Polskiego",
                "addr:housenumber": "55",
                "addr:teryt:simc": 945491,
                "addr:teryt:sym_ul": 24628,
                "contact:phone": "+48 326721961",
                "contact:email": "sp8zawiercie@zawiercie.eu",
                "contact:website": "https:\/\/sp8-zawiercie.edupage.org\/",
                "ref:regon": "271502757",
                "ref:vatin": "PL6492020513",
                "operator": "Gmina Zawiercie",
                "operator:type": "government",
                "amenity": "school"
            }
        },
        {
            "id": 49749,
            "type": "Feature",
            "geometry": {
                "type": "Point",
                "coordinates": [
                    19.40922,
                    50.48654
                ]
            },
            "properties": {
                "ref:rspo": 49749,
                "official_name": "Zesp\u00f3\u0142 Szk\u00f3\u0142 Og\u00f3lnokszta\u0142c\u0105cych w Zawierciu",
                "name": "Zesp\u00f3\u0142 Szk\u00f3\u0142 Og\u00f3lnokszta\u0142c\u0105cych w Zawierciu",
                "addr:country": "PL",
                "addr:postcode": "42-400",
                "addr:city": "Zawiercie",
                "addr:street": "Wojska Polskiego",
                "addr:housenumber": "55",
                "addr:teryt:simc": 945491,
                "addr:teryt:sym_ul": 24628,
                "contact:phone": "+48 326722927",
                "contact:email": "sekretariat@zeromski.zawiercie.powiat.pl",
                "contact:website": "http:\/\/www.zeromski.szkola.pl",
                "ref:regon": "277897685",
                "ref:vatin": "PL6491629011",
                "operator": "Powiat Zawiercia\u0144ski",
                "operator:type": "government",
                "landuse": "education",
                "fixme": "amenity=school, amenity=college albo landuse=education w zale\u017cno\u015bci od tego, jakie plac\u00f3wki wchodz\u0105 w sk\u0142ad zespo\u0142u. Sprawd\u017a, kiedy stosowa\u0107 amenity=* a kiedy landuse=education.",
                "note": "Children RSPO: 60177;73299"
            }
        },
        {
            "id": 60177,
            "type": "Feature",
            "geometry": {
                "type": "Point",
                "coordinates": [
                    19.40922,
                    50.48651
                ]
            },
            "properties": {
                "isced:level": "3",
                "ref:rspo": 60177,
                "official_name": "Liceum Og\u00f3lnokszta\u0142c\u0105ce dla Doros\u0142ych w Zawierciu",
                "name": "Liceum Og\u00f3lnokszta\u0142c\u0105ce dla Doros\u0142ych w Zawierciu",
                "addr:country": "PL",
                "addr:postcode": "42-400",
                "addr:city": "Zawiercie",
                "addr:street": "Wojska Polskiego",
                "addr:housenumber": "55",
                "addr:teryt:simc": 945491,
                "addr:teryt:sym_ul": 24628,
                "contact:phone": "+48 326722927",
                "contact:email": "sekretariat@zeromski.zawiercie.powiat.pl",
                "contact:website": "http:\/\/www.zeromski.zawiercie.powiat.pl",
                "ref:regon": "272141221",
                "ref:vatin": "PL6491954449",
                "operator": "Powiat Zawiercia\u0144ski",
                "operator:type": "government",
                "amenity": "school",
                "note": "Parent RSPO: 49749"
            }
        },
        {
            "id": 73299,
            "type": "Feature",
            "geometry": {
                "type": "Point",
                "coordinates": [
                    19.40922,
                    50.48648
                ]
            },
            "properties": {
                "isced:level": "3",
                "ref:rspo": 73299,
                "official_name": "I Liceum Og\u00f3lnokszta\u0142c\u0105ce Z Oddzia\u0142ami Dwuj\u0119zycznymi im. Stefana \u017beromskiego w Zawierciu",
                "name": "I Liceum Og\u00f3lnokszta\u0142c\u0105ce Z Oddzia\u0142ami Dwuj\u0119zycznymi",
                "addr:country": "PL",
                "addr:postcode": "42-400",
                "addr:city": "Zawiercie",
                "addr:street": "Wojska Polskiego",
                "addr:housenumber": "55",
                "addr:teryt:simc": 945491,
                "addr:teryt:sym_ul": 24628,
                "contact:phone": "+48 326722927",
                "contact:email": "sekretariat@zeromski.zawiercie.powiat.pl",
                "contact:website": "http:\/\/www.zeromski.zawiercie.powiat.pl",
                "ref:regon": "000815498",
                "operator": "Powiat Zawiercia\u0144ski",
                "operator:type": "government",
                "amenity": "school",
                "note": "Parent RSPO: 49749"
            }
        },
        {
            "id": 18344,
            "type": "Feature",
            "geometry": {
                "type": "Point",
                "coordinates": [
                    19.43427,
                    50.48716
                ]
            },
            "properties": {
                "ref:rspo": 18344,
                "official_name": "O\u015brodek Doskonalenia Nauczycieli \"Lider\" w Zawierciu",
                "name": "O\u015brodek Doskonalenia Nauczycieli \"Lider\" w Zawierciu",
                "addr:country": "PL",
                "addr:postcode": "42-400",
                "addr:city": "Zawiercie",
                "addr:street": "Le\u015bna",
                "addr:housenumber": "10",
                "addr:teryt:simc": 945491,
                "addr:teryt:sym_ul": 10898,
                "contact:phone": "+48 326710304",
                "contact:email": "biuro@odnzawiercie.com.pl",
                "contact:website": "http:\/\/www.odnzawiercie.com.pl",
                "ref:regon": "243048820",
                "ref:vatin": "PL6492257155",
                "operator": "Dane Do Uzupe\u0142nienia",
                "operator:type": "private",
                "amenity": "training"
            }
        },
        {
            "id": 278713,
            "type": "Feature",
            "geometry": {
                "type": "Point",
                "coordinates": [
                    19.41134,
                    50.48786
                ]
            },
            "properties": {
                "ref:rspo": 278713,
                "official_name": "Przedszkole Niepubliczne Akademia Przedszkolaka",
                "name": "Przedszkole Niepubliczne Akademia Przedszkolaka",
                "addr:country": "PL",
                "addr:postcode": "42-400",
                "addr:city": "Zawiercie",
                "addr:street": "Miko\u0142aja Kopernika",
                "addr:housenumber": "28",
                "addr:teryt:simc": 945491,
                "addr:teryt:sym_ul": 9282,
                "contact:phone": "+48 500254867",
                "contact:email": "akademiaprzedszkolaka-siewierz@wp.pl",
                "contact:website": "http:\/\/akademiaprzedszkolakasiewierz.pl",
                "ref:regon": "520053577",
                "operator": "Klaudia Nowakiewicz",
                "operator:type": "private",
                "amenity": "kindergarten"
            }
        },
        {
            "id": 17085,
            "type": "Feature",
            "geometry": {
                "type": "Point",
                "coordinates": [
                    19.42072,
                    50.48913
                ]
            },
            "properties": {
                "ref:rspo": 17085,
                "official_name": "Przedszkole Nr 2 im. Misia Uszatka w Zawierciu",
                "name": "Przedszkole Nr 2",
                "addr:country": "PL",
                "addr:postcode": "42-400",
                "addr:city": "Zawiercie",
                "addr:street": "Marsza\u0142kowska",
                "addr:housenumber": "28",
                "addr:teryt:simc": 945491,
                "addr:teryt:sym_ul": 12400,
                "contact:phone": "+48 326722610",
                "contact:email": "p2zawiercie@zawiercie.eu",
                "ref:regon": "271511360",
                "ref:vatin": "PL6492020312",
                "operator": "Gmina Zawiercie",
                "operator:type": "government",
                "amenity": "kindergarten"
            }
        },
        {
            "id": 132480,
            "type": "Feature",
            "geometry": {
                "type": "Point",
                "coordinates": [
                    19.49162,
                    50.48922
                ]
            },
            "properties": {
                "ref:rspo": 132480,
                "official_name": "Dwuj\u0119zyczne Niepubliczne Przedszkole \"Katilandia\"",
                "name": "Dwuj\u0119zyczne Niepubliczne Przedszkole \"Katilandia\"",
                "addr:country": "PL",
                "addr:postcode": "42-400",
                "addr:city": "Zawiercie",
                "addr:street": "Siewierska",
                "addr:housenumber": "74",
                "addr:teryt:simc": 945491,
                "addr:teryt:sym_ul": 19890,
                "contact:phone": "+48 501448780",
                "contact:email": "biuro@katilandia.pl",
                "contact:website": "http:\/\/www.katilandia.pl",
                "ref:regon": "365658768",
                "ref:vatin": "PL6492159085",
                "operator": "Katarzyna Tylko",
                "operator:type": "private",
                "amenity": "kindergarten"
            }
        },
        {
            "id": 17190,
            "type": "Feature",
            "geometry": {
                "type": "Point",
                "coordinates": [
                    19.43451,
                    50.4895
                ]
            },
            "properties": {
                "ref:rspo": 17190,
                "official_name": "Przedszkole Nr 5 w Zawierciu",
                "name": "Przedszkole Nr 5 w Zawierciu",
                "addr:country": "PL",
                "addr:postcode": "42-400",
                "addr:city": "Zawiercie",
                "addr:street": "Stanis\u0142awa Moniuszki",
                "addr:housenumber": "9",
                "addr:teryt:simc": 945491,
                "addr:teryt:sym_ul": 13246,
                "contact:phone": "+48 326721540",
                "contact:email": "p5zawiercie@zawiercie.eu",
                "ref:regon": "271511390",
                "ref:vatin": "PL6492020341",
                "operator": "Gmina Zawiercie",
                "operator:type": "government",
                "amenity": "kindergarten"
            }
        },
        {
            "id": 262404,
            "type": "Feature",
            "geometry": {
                "type": "Point",
                "coordinates": [
                    19.43073,
                    50.48982
                ]
            },
            "properties": {
                "isced:level": "1;2",
                "ref:rspo": 262404,
                "official_name": "Szko\u0142a Podstawowa Nr 2 im. Stanis\u0142awa Szyma\u0144skiego w Zawierciu",
                "name": "Szko\u0142a Podstawowa Nr 2",
                "addr:country": "PL",
                "addr:postcode": "42-400",
                "addr:city": "Zawiercie",
                "addr:street": "Mieczys\u0142awa Niedzia\u0142kowskiego",
                "addr:housenumber": "21",
                "addr:teryt:simc": 945491,
                "addr:teryt:sym_ul": 14140,
                "contact:phone": "+48 326722375",
                "contact:email": "sp2zawiercie@zawiercie.eu",
                "ref:regon": "367998706",
                "operator": "Gmina Zawiercie",
                "operator:type": "government",
                "amenity": "school"
            }
        },
        {
            "id": 38567,
            "type": "Feature",
            "geometry": {
                "type": "Point",
                "coordinates": [
                    19.44736,
                    50.4902299
                ]
            },
            "properties": {
                "ref:rspo": 38567,
                "official_name": "Pedagogiczna Biblioteka Wojew\u00f3dzka im. J. Lompy w Katowicach Filia w Zawierciu",
                "name": "Pedagogiczna Biblioteka Wojew\u00f3dzka",
                "addr:country": "PL",
                "addr:postcode": "42-400",
                "addr:city": "Zawiercie",
                "addr:street": "Polska",
                "addr:housenumber": "35",
                "addr:teryt:simc": 945491,
                "addr:teryt:sym_ul": 17030,
                "contact:phone": "+48 326723536",
                "contact:email": "zawiercie@pbw.katowice.pl",
                "contact:website": "http:\/\/www.zawiercie.pbw.katowice.pl",
                "ref:regon": "195400002",
                "ref:vatin": "PL6341759249",
                "operator": "Wojew\u00f3dztwo \u015al\u0105skie",
                "operator:type": "government",
                "amenity": "library",
                "note": "Parent RSPO: 25643"
            }
        },
        {
            "id": 73302,
            "type": "Feature",
            "geometry": {
                "type": "Point",
                "coordinates": [
                    19.43446,
                    50.49217
                ]
            },
            "properties": {
                "ref:rspo": 73302,
                "official_name": "Poradnia Psychologiczno-Pedagogiczna Nr 1 w Zawierciu",
                "name": "Poradnia Psychologiczno-Pedagogiczna Nr 1 w Zawierciu",
                "addr:country": "PL",
                "addr:postcode": "42-400",
                "addr:city": "Zawiercie",
                "addr:street": "Parkowa",
                "addr:housenumber": "2",
                "addr:teryt:simc": 945491,
                "addr:teryt:sym_ul": 15710,
                "contact:phone": "+48 326722383",
                "contact:email": "poradniapsychped@wp.pl",
                "contact:website": "http:\/\/www.poradnia-zawiercie.pl",
                "ref:regon": "000730201",
                "ref:vatin": "PL6491630132",
                "operator": "Powiat Zawiercia\u0144ski",
                "operator:type": "government",
                "healthcare": "counselling",
                "counselling_type": "education",
                "fixme": "w zale\u017cno\u015bci od przedmiotu dzia\u0142alno\u015bci (np. healthcare=counselling + counselling_type=education albo healthcare=psychotherapist)"
            }
        },
        {
            "id": 83899,
            "type": "Feature",
            "geometry": {
                "type": "Point",
                "coordinates": [
                    19.44099,
                    50.49239
                ]
            },
            "properties": {
                "isced:level": "1;2",
                "ref:rspo": 83899,
                "official_name": "Szko\u0142a Podstawowa Nr 9 im. Marii D\u0105browskiej w Zawierciu",
                "name": "Szko\u0142a Podstawowa Nr 9",
                "addr:country": "PL",
                "addr:postcode": "42-400",
                "addr:city": "Zawiercie",
                "addr:street": "J\u00f3zefa Pi\u0142sudskiego",
                "addr:housenumber": "117",
                "addr:teryt:simc": 945491,
                "addr:teryt:sym_ul": 16264,
                "contact:phone": "+48 326721314",
                "contact:email": "sp9zawiercie@zawiercie.eu",
                "contact:website": "http:\/\/www.sp9zawiercie.pl",
                "ref:regon": "000730098",
                "ref:vatin": "PL6492020536",
                "operator": "Gmina Zawiercie",
                "operator:type": "government",
                "amenity": "school"
            }
        },
        {
            "id": 23578,
            "type": "Feature",
            "geometry": {
                "type": "Point",
                "coordinates": [
                    19.43395,
                    50.49294
                ]
            },
            "properties": {
                "ref:rspo": 23578,
                "official_name": "Zesp\u00f3\u0142 Szk\u00f3\u0142 im. Genera\u0142a J\u00f3zefa Bema w Zawierciu",
                "name": "Zesp\u00f3\u0142 Szk\u00f3\u0142",
                "addr:country": "PL",
                "addr:postcode": "42-400",
                "addr:city": "Zawiercie",
                "addr:street": "Parkowa",
                "addr:housenumber": "7",
                "addr:teryt:simc": 945491,
                "addr:teryt:sym_ul": 15710,
                "contact:phone": "+48 326722917",
                "contact:email": "sekretariat@zsbema.zawiercie.powiat.pl",
                "contact:website": "http:\/\/www.zsbema.zawiercie.powiat.pl",
                "ref:regon": "000201715",
                "ref:vatin": "PL6491612660",
                "operator": "Powiat Zawiercia\u0144ski",
                "operator:type": "government",
                "landuse": "education",
                "fixme": "amenity=school, amenity=college albo landuse=education w zale\u017cno\u015bci od tego, jakie plac\u00f3wki wchodz\u0105 w sk\u0142ad zespo\u0142u. Sprawd\u017a, kiedy stosowa\u0107 amenity=* a kiedy landuse=education.",
                "note": "Children RSPO: 26308;26473;26500;73268;275675"
            }
        },
        {
            "id": 26308,
            "type": "Feature",
            "geometry": {
                "type": "Point",
                "coordinates": [
                    19.43395,
                    50.492909999999995
                ]
            },
            "properties": {
                "isced:level": "3",
                "ref:rspo": 26308,
                "official_name": "Technikum Nr 5",
                "name": "Technikum Nr 5",
                "addr:country": "PL",
                "addr:postcode": "42-400",
                "addr:city": "Zawiercie",
                "addr:street": "Parkowa",
                "addr:housenumber": "7",
                "addr:teryt:simc": 945491,
                "addr:teryt:sym_ul": 15710,
                "contact:phone": "+48 326722917",
                "contact:email": "sekretariat@zsbema.zawiercie.powiat.pl",
                "contact:website": "http:\/\/www.zsbema.zawiercie.powiat.pl",
                "ref:regon": "272126434",
                "ref:vatin": "PL6491612660",
                "operator": "Powiat Zawiercia\u0144ski",
                "operator:type": "government",
                "amenity": "school",
                "note": "Parent RSPO: 23578"
            }
        },
        {
            "id": 26473,
            "type": "Feature",
            "geometry": {
                "type": "Point",
                "coordinates": [
                    19.43395,
                    50.49288
                ]
            },
            "properties": {
                "isced:level": "4",
                "ref:rspo": 26473,
                "official_name": "Szko\u0142a Policealna Nr3 w Zawierciu",
                "name": "Szko\u0142a Policealna Nr3 w Zawierciu",
                "addr:country": "PL",
                "addr:postcode": "42-400",
                "addr:city": "Zawiercie",
                "addr:street": "Parkowa",
                "addr:housenumber": "7",
                "addr:teryt:simc": 945491,
                "addr:teryt:sym_ul": 15710,
                "contact:phone": "+48 326722917",
                "contact:email": "sekretariat@zsbema.zawiercie.powiat.pl",
                "contact:website": "http:\/\/www.zsbema.zawiercie.powiat.pl",
                "ref:regon": "241002920",
                "ref:vatin": "PL6491612660",
                "operator": "Powiat Zawiercia\u0144ski",
                "operator:type": "government",
                "amenity": "college",
                "note": "Parent RSPO: 23578"
            }
        },
        {
            "id": 26500,
            "type": "Feature",
            "geometry": {
                "type": "Point",
                "coordinates": [
                    19.43395,
                    50.49285
                ]
            },
            "properties": {
                "isced:level": "4",
                "ref:rspo": 26500,
                "official_name": "Szko\u0142a Policealna Nr 1 w Zawierciu",
                "name": "Szko\u0142a Policealna Nr 1 w Zawierciu",
                "addr:country": "PL",
                "addr:postcode": "42-400",
                "addr:city": "Zawiercie",
                "addr:street": "Parkowa",
                "addr:housenumber": "7",
                "addr:teryt:simc": 945491,
                "addr:teryt:sym_ul": 15710,
                "contact:phone": "+48 326722917",
                "contact:email": "sekretariat@zsbema.zawiercie.powiat.pl",
                "contact:website": "http:\/\/www.zsbema.zawiercie.powiat.pl",
                "ref:regon": "272126457",
                "ref:vatin": "PL6491612660",
                "operator": "Powiat Zawiercia\u0144ski",
                "operator:type": "government",
                "amenity": "college",
                "note": "Parent RSPO: 23578"
            }
        },
        {
            "id": 73268,
            "type": "Feature",
            "geometry": {
                "type": "Point",
                "coordinates": [
                    19.43395,
                    50.492819999999995
                ]
            },
            "properties": {
                "isced:level": "3",
                "ref:rspo": 73268,
                "official_name": "Bran\u017cowa Szko\u0142a I Stopnia Nr 2",
                "name": "Bran\u017cowa Szko\u0142a I Stopnia Nr 2",
                "addr:country": "PL",
                "addr:postcode": "42-400",
                "addr:city": "Zawiercie",
                "addr:street": "Parkowa",
                "addr:housenumber": "7",
                "addr:teryt:simc": 945491,
                "addr:teryt:sym_ul": 15710,
                "contact:phone": "+48 326722917",
                "contact:email": "sekretariat@zsbema.zawiercie.powiat.pl",
                "contact:website": "http:\/\/www.zsbema.zawiercie.powiat.pl",
                "ref:regon": "272126463",
                "ref:vatin": "PL6491612660",
                "operator": "Powiat Zawiercia\u0144ski",
                "operator:type": "government",
                "amenity": "school",
                "note": "Parent RSPO: 23578"
            }
        },
        {
            "id": 275675,
            "type": "Feature",
            "geometry": {
                "type": "Point",
                "coordinates": [
                    19.43395,
                    50.49279
                ]
            },
            "properties": {
                "isced:level": "3",
                "ref:rspo": 275675,
                "official_name": "Bran\u017cowa Szko\u0142a II Stopnia w Zawierciu",
                "name": "Bran\u017cowa Szko\u0142a II Stopnia w Zawierciu",
                "addr:country": "PL",
                "addr:postcode": "42-400",
                "addr:city": "Zawiercie",
                "addr:street": "Parkowa",
                "addr:housenumber": "7",
                "addr:teryt:simc": 945491,
                "addr:teryt:sym_ul": 15710,
                "contact:phone": "+48 326722917",
                "contact:email": "sekretariat@zsbema.zawiercie.powiat.pl",
                "ref:regon": "386931682",
                "operator": "Powiat Zawiercia\u0144ski",
                "operator:type": "government",
                "amenity": "school",
                "note": "Parent RSPO: 23578"
            }
        },
        {
            "id": 17157,
            "type": "Feature",
            "geometry": {
                "type": "Point",
                "coordinates": [
                    19.43828,
                    50.49301
                ]
            },
            "properties": {
                "ref:rspo": 17157,
                "official_name": "Przedszkole Nr 4 w Zawierciu",
                "name": "Przedszkole Nr 4 w Zawierciu",
                "addr:country": "PL",
                "addr:postcode": "42-400",
                "addr:city": "Zawiercie",
                "addr:street": "Konstantego Ildefonsa Ga\u0142czy\u0144skiego",
                "addr:housenumber": "3",
                "addr:teryt:simc": 945491,
                "addr:teryt:sym_ul": 5300,
                "contact:phone": "+48 326722762",
                "contact:email": "p4zawiercie@zawiercie.eu",
                "ref:regon": "271511383",
                "ref:vatin": "PL6492020335",
                "operator": "Gmina Zawiercie",
                "operator:type": "government",
                "amenity": "kindergarten"
            }
        },
        {
            "id": 21203,
            "type": "Feature",
            "geometry": {
                "type": "Point",
                "coordinates": [
                    19.4911,
                    50.49358
                ]
            },
            "properties": {
                "isced:level": "1;2",
                "ref:rspo": 21203,
                "official_name": "Szko\u0142a Podstawowa Nr 13 w Zawierciu",
                "name": "Szko\u0142a Podstawowa Nr 13 w Zawierciu",
                "addr:country": "PL",
                "addr:postcode": "42-400",
                "addr:city": "Zawiercie",
                "addr:street": "Filaret\u00f3w",
                "addr:housenumber": "9",
                "addr:teryt:simc": 945491,
                "addr:teryt:sym_ul": 4994,
                "contact:phone": "+48 326724361",
                "contact:email": "sp13zawiercie@zawiercie.eu",
                "contact:website": "http:\/\/www.gim13zawiercie.pl\/",
                "ref:regon": "000730135",
                "operator": "Gmina Zawiercie",
                "operator:type": "government",
                "amenity": "school"
            }
        },
        {
            "id": 17252,
            "type": "Feature",
            "geometry": {
                "type": "Point",
                "coordinates": [
                    19.43042,
                    50.49379
                ]
            },
            "properties": {
                "ref:rspo": 17252,
                "official_name": "Przedszkole Nr 8 w Zawierciu",
                "name": "Przedszkole Nr 8 w Zawierciu",
                "addr:country": "PL",
                "addr:postcode": "42-400",
                "addr:city": "Zawiercie",
                "addr:street": "Wierzbowa",
                "addr:housenumber": "8",
                "addr:teryt:simc": 945491,
                "addr:teryt:sym_ul": 24170,
                "contact:phone": "+48 326722335",
                "contact:email": "p8zawiercie@zawiercie.eu",
                "contact:website": "http:\/\/www.bajkoludki.edu.pl\/",
                "ref:regon": "271511420",
                "ref:vatin": "PL6492020370",
                "operator": "Gmina Zawiercie",
                "operator:type": "government",
                "amenity": "kindergarten"
            }
        },
        {
            "id": 21086,
            "type": "Feature",
            "geometry": {
                "type": "Point",
                "coordinates": [
                    19.42782,
                    50.49413
                ]
            },
            "properties": {
                "isced:level": "1;2",
                "ref:rspo": 21086,
                "official_name": "Szko\u0142a Podstawowa Nr 6 im. Janusza Korczaka w Zawierciu",
                "name": "Szko\u0142a Podstawowa Nr 6",
                "addr:country": "PL",
                "addr:postcode": "42-400",
                "addr:city": "Zawiercie",
                "addr:street": "Wierzbowa",
                "addr:housenumber": "4",
                "addr:teryt:simc": 945491,
                "addr:teryt:sym_ul": 24170,
                "contact:phone": "+48 326721372",
                "contact:email": "sp6zawiercie@zawiercie.eu",
                "contact:website": "http:\/\/www.sp6zawiercie.pl",
                "ref:regon": "000730069",
                "ref:vatin": "PL6492020499",
                "operator": "Gmina Zawiercie",
                "operator:type": "government",
                "amenity": "school"
            }
        },
        {
            "id": 131887,
            "type": "Feature",
            "geometry": {
                "type": "Point",
                "coordinates": [
                    19.4232799,
                    50.49429
                ]
            },
            "properties": {
                "ref:rspo": 131887,
                "official_name": "Niepubliczne Przedszkole \"Nibylandia\"",
                "name": "Niepubliczne Przedszkole \"Nibylandia\"",
                "addr:country": "PL",
                "addr:postcode": "42-400",
                "addr:city": "Zawiercie",
                "addr:street": "Szeroka",
                "addr:housenumber": "20",
                "addr:teryt:simc": 945491,
                "addr:teryt:sym_ul": 21925,
                "contact:phone": "+48 605081528",
                "contact:email": "info@szkola-sokrates.pl",
                "contact:website": "http:\/\/www.nibylandia-zawiercie",
                "ref:regon": "365371630",
                "ref:vatin": "PL9491450779",
                "operator": "Adam Zjawiony",
                "operator:type": "private",
                "amenity": "kindergarten"
            }
        },
        {
            "id": 17314,
            "type": "Feature",
            "geometry": {
                "type": "Point",
                "coordinates": [
                    19.43157,
                    50.49471
                ]
            },
            "properties": {
                "ref:rspo": 17314,
                "official_name": "Przedszkole Nr 15 w Zawierciu",
                "name": "Przedszkole Nr 15 w Zawierciu",
                "addr:country": "PL",
                "addr:postcode": "42-400",
                "addr:city": "Zawiercie",
                "addr:street": "Wierzbowa",
                "addr:housenumber": "27",
                "addr:teryt:simc": 945491,
                "addr:teryt:sym_ul": 24170,
                "contact:phone": "+48 326724395",
                "contact:email": "p15zawiercie@zawiercie.eu",
                "contact:website": "http:\/\/www.ekolaczki.pl",
                "ref:regon": "271511489",
                "ref:vatin": "PL6492020424",
                "operator": "Gmina Zawiercie",
                "operator:type": "government",
                "amenity": "kindergarten"
            }
        },
        {
            "id": 263960,
            "type": "Feature",
            "geometry": {
                "type": "Point",
                "coordinates": [
                    19.4154248,
                    50.4953655
                ]
            },
            "properties": {
                "ref:rspo": 263960,
                "official_name": "Niepubliczne Przedszkole Ene Due Rabe",
                "name": "Niepubliczne Przedszkole Ene Due Rabe",
                "addr:country": "PL",
                "addr:postcode": "42-400",
                "addr:city": "Zawiercie",
                "addr:street": "11 Listopada",
                "addr:housenumber": "6c",
                "addr:teryt:simc": 945491,
                "addr:teryt:sym_ul": 11205,
                "contact:email": "eneduerab@gmail.com",
                "contact:website": "http:\/\/eneduerabezawiercie.pl",
                "ref:regon": "368247675",
                "operator": "Fundacja Auxilio",
                "operator:type": "ngo",
                "amenity": "kindergarten"
            }
        },
        {
            "id": 266198,
            "type": "Feature",
            "geometry": {
                "type": "Point",
                "coordinates": [
                    19.43518,
                    50.49555
                ]
            },
            "properties": {
                "ref:rspo": 266198,
                "official_name": "O\u015brodek Szkole\u0144 Zawodowych I Doradczych Centrum Rozwoju Lokalnego",
                "name": "O\u015brodek Szkole\u0144 Zawodowych I Doradczych Centrum Rozwoju Lokalnego",
                "addr:country": "PL",
                "addr:postcode": "42-400",
                "addr:city": "Zawiercie",
                "addr:street": "Zaparkowa",
                "addr:housenumber": "23",
                "addr:teryt:simc": 945491,
                "addr:teryt:sym_ul": 25614,
                "contact:phone": "+48 324941319",
                "contact:email": "crl@crl.org.pl",
                "contact:website": "http:\/\/www.crl.org.pl",
                "ref:regon": "369356395",
                "operator": "Centrum Rozwoju Lokalnego",
                "operator:type": "ngo",
                "fixme": "w zale\u017cno\u015bci od przedmiotu dzia\u0142alno\u015bci (np. amenity=training + training=*, amenity=dancing_school, amenity=language_school, amenity=music_school) albo amenity=school, amenity=college, albo landuse=education w zale\u017cno\u015bci od tego, jakie plac\u00f3wki wchodz\u0105 w sk\u0142ad zespo\u0142u. Sprawd\u017a, kiedy stosowa\u0107 amenity=* a kiedy landuse=education."
            }
        },
        {
            "id": 93128,
            "type": "Feature",
            "geometry": {
                "type": "Point",
                "coordinates": [
                    19.44162,
                    50.49561
                ]
            },
            "properties": {
                "ref:rspo": 93128,
                "official_name": "Szko\u0142a J\u0119zykowa \"Progress\"",
                "name": "Szko\u0142a J\u0119zykowa \"Progress\"",
                "addr:country": "PL",
                "addr:postcode": "42-400",
                "addr:city": "Zawiercie",
                "addr:street": "Przyjaci\u00f3\u0142",
                "addr:housenumber": "9",
                "addr:teryt:simc": 945491,
                "addr:teryt:sym_ul": 17918,
                "contact:phone": "+48 326712002",
                "contact:email": "biuro@progresschool.com.pl",
                "ref:regon": "243120820",
                "ref:vatin": "PL6491606180",
                "operator": "Celina Kurkowska",
                "operator:type": "private",
                "fixme": "w zale\u017cno\u015bci od przedmiotu dzia\u0142alno\u015bci (np. amenity=training + training=*, amenity=dancing_school, amenity=language_school, amenity=music_school)"
            }
        },
        {
            "id": 196432,
            "type": "Feature",
            "geometry": {
                "type": "Point",
                "coordinates": [
                    19.4134,
                    50.4974599
                ]
            },
            "properties": {
                "isced:level": "1;2",
                "ref:rspo": 196432,
                "official_name": "Szko\u0142a Podstawowa Nr 1 im. Tadeusza Ko\u015bciuszki w Zawierciu",
                "name": "Szko\u0142a Podstawowa Nr 1",
                "addr:country": "PL",
                "addr:postcode": "42-400",
                "addr:city": "Zawiercie",
                "addr:street": "11 Listopada",
                "addr:housenumber": "22",
                "addr:teryt:simc": 945491,
                "addr:teryt:sym_ul": 11205,
                "contact:phone": "+48 326722562",
                "contact:email": "sp1zawiercie@zawiercie.eu",
                "ref:regon": "367991762",
                "ref:vatin": "PL6492309774",
                "operator": "Gmina Zawiercie",
                "operator:type": "government",
                "amenity": "school"
            }
        },
        {
            "id": 105128,
            "type": "Feature",
            "geometry": {
                "type": "Point",
                "coordinates": [
                    19.40501,
                    50.49965
                ]
            },
            "properties": {
                "ref:rspo": 105128,
                "official_name": "Zak\u0142ad Poprawczy I Schronisko dla Nieletnich w Zawierciu",
                "name": "Zak\u0142ad Poprawczy I Schronisko dla Nieletnich w Zawierciu",
                "addr:country": "PL",
                "addr:postcode": "42-400",
                "addr:city": "Zawiercie",
                "addr:street": "Mrzyg\u0142odzka",
                "addr:housenumber": "35",
                "addr:teryt:simc": 945491,
                "addr:teryt:sym_ul": 13450,
                "contact:phone": "+48 326722496",
                "contact:email": "sekretariat@zawiercie.zpisdn.gov.pl",
                "contact:website": "http:\/\/www.zpisdnzawiercie.home.pl",
                "ref:regon": "000571607",
                "operator": "Ministerstwo Sprawiedliwo\u015bci",
                "operator:type": "public",
                "note": "Children RSPO: 124754;124761"
            }
        },
        {
            "id": 124754,
            "type": "Feature",
            "geometry": {
                "type": "Point",
                "coordinates": [
                    19.40501,
                    50.49962
                ]
            },
            "properties": {
                "isced:level": "1;2",
                "ref:rspo": 124754,
                "official_name": "Szko\u0142a Podstawowa Nr 12 w Zak\u0142adzie Poprawczym I Schronisku dla Nieletnich w Zawierciu",
                "name": "Szko\u0142a Podstawowa Nr 12 w Zak\u0142adzie Poprawczym I Schronisku dla Nieletnich w Zawierciu",
                "addr:country": "PL",
                "addr:postcode": "42-400",
                "addr:city": "Zawiercie",
                "addr:street": "Mrzyg\u0142odzka",
                "addr:housenumber": "35",
                "addr:teryt:simc": 945491,
                "addr:teryt:sym_ul": 13450,
                "contact:phone": "+48 326721365",
                "contact:email": "sekretariat@zawiercie.zpisdn.gov.pl",
                "contact:website": "http:\/\/www.zawiercie.zpisdn.gov.pl",
                "ref:regon": "243662566",
                "operator": "Ministerstwo Sprawiedliwo\u015bci",
                "operator:type": "public",
                "amenity": "school",
                "note": "Parent RSPO: 105128"
            }
        },
        {
            "id": 124761,
            "type": "Feature",
            "geometry": {
                "type": "Point",
                "coordinates": [
                    19.40501,
                    50.499590000000005
                ]
            },
            "properties": {
                "isced:level": "3",
                "ref:rspo": 124761,
                "official_name": "Bran\u017cowa Szko\u0142a I Stopnia Nr 5 w Zak\u0142adzie Poprawczym I Schronisku dla Nieletnich w Zawierciu",
                "name": "Bran\u017cowa Szko\u0142a I Stopnia Nr 5 w Zak\u0142adzie Poprawczym I Schronisku dla Nieletnich w Zawierciu",
                "addr:country": "PL",
                "addr:postcode": "42-400",
                "addr:city": "Zawiercie",
                "addr:street": "Mrzyg\u0142odzka",
                "addr:housenumber": "35",
                "addr:teryt:simc": 945491,
                "addr:teryt:sym_ul": 13450,
                "contact:phone": "+48 326721365",
                "contact:email": "sekretariat@zawiercie.zpisdn.gov.pl",
                "contact:website": "http:\/\/www.zawiercie.zpisdn.gov.pl",
                "ref:regon": "243662589",
                "operator": "Ministerstwo Sprawiedliwo\u015bci",
                "operator:type": "public",
                "amenity": "school",
                "note": "Parent RSPO: 105128"
            }
        },
        {
            "id": 4497,
            "type": "Feature",
            "geometry": {
                "type": "Point",
                "coordinates": [
                    19.43027,
                    50.50306
                ]
            },
            "properties": {
                "ref:rspo": 4497,
                "official_name": "Akademia Malucha",
                "name": "Akademia Malucha",
                "addr:country": "PL",
                "addr:postcode": "42-400",
                "addr:city": "Zawiercie",
                "addr:street": "Miejska",
                "addr:housenumber": "24",
                "addr:teryt:simc": 945491,
                "addr:teryt:sym_ul": 12772,
                "contact:phone": "+48 530152040",
                "contact:email": "biuro@akademiamalucha.net.pl",
                "contact:website": "http:\/\/www.akademiamalucha.net.pl",
                "ref:regon": "243015039",
                "ref:vatin": "PL6492109650",
                "operator": "Magdalena Rodak",
                "operator:type": "private",
                "amenity": "kindergarten"
            }
        },
        {
            "id": 25634,
            "type": "Feature",
            "geometry": {
                "type": "Point",
                "coordinates": [
                    19.39458,
                    50.50471
                ]
            },
            "properties": {
                "isced:level": "1;2",
                "ref:rspo": 25634,
                "official_name": "Szko\u0142a Podstawowa Nr 11 w Zawierciu",
                "name": "Szko\u0142a Podstawowa Nr 11 w Zawierciu",
                "addr:country": "PL",
                "addr:postcode": "42-400",
                "addr:city": "Zawiercie",
                "addr:street": "Zarzecze",
                "addr:housenumber": "2",
                "addr:teryt:simc": 945491,
                "addr:teryt:sym_ul": 25687,
                "contact:phone": "+48 326722752",
                "contact:email": "sp11zawiercie@zawiercie.eu",
                "contact:website": "http:\/\/sp11zawiercie.pl\/",
                "ref:regon": "000730106",
                "ref:vatin": "PL6492020542",
                "operator": "Gmina Zawiercie",
                "operator:type": "government",
                "amenity": "school"
            }
        },
        {
            "id": 24266,
            "type": "Feature",
            "geometry": {
                "type": "Point",
                "coordinates": [
                    19.41368,
                    50.50824
                ]
            },
            "properties": {
                "isced:level": "1;2",
                "ref:rspo": 24266,
                "official_name": "Szko\u0142a Podstawowa Nr 7 im. Marii Konopnickiej w Zawierciu",
                "name": "Szko\u0142a Podstawowa Nr 7",
                "addr:country": "PL",
                "addr:postcode": "42-400",
                "addr:city": "Zawiercie",
                "addr:street": "O\u015bwiatowa",
                "addr:housenumber": "55",
                "addr:teryt:simc": 945491,
                "addr:teryt:sym_ul": 15436,
                "contact:phone": "+48 326723872",
                "contact:email": "sp7zawiercie@zawiercie.eu",
                "contact:website": "http:\/\/www.msp7zawiercie.pl",
                "ref:regon": "000730075",
                "ref:vatin": "PL6492020507",
                "operator": "Gmina Zawiercie",
                "operator:type": "government",
                "amenity": "school"
            }
        },
        {
            "id": 30839,
            "type": "Feature",
            "geometry": {
                "type": "Point",
                "coordinates": [
                    19.41353,
                    50.50916
                ]
            },
            "properties": {
                "ref:rspo": 30839,
                "official_name": "Niepubliczne Przedszkole Przy Parafii Katolickiej P.w. \u015aw. Maksymiliana Marii Kolbego w Zawierciu",
                "name": "Niepubliczne Przedszkole Przy Parafii Katolickiej P.w. \u015aw. Maksymiliana Marii Kolbego w Zawierciu",
                "addr:country": "PL",
                "addr:postcode": "42-404",
                "addr:city": "Zawiercie",
                "addr:street": "Lwowska",
                "addr:housenumber": "1",
                "addr:teryt:simc": 945491,
                "addr:teryt:sym_ul": 11467,
                "contact:phone": "+48 326705020",
                "contact:email": "przedszkole.parafialne@gmail.com",
                "contact:website": "http:\/\/www.przedszkoleparafialne.com.pl\/",
                "ref:regon": "243074941",
                "ref:vatin": "PL6492290690",
                "operator": "Parafia Katolicka P.w. \u015aw. Maksymiliana Marii Kolbego",
                "operator:type": "religious",
                "amenity": "kindergarten"
            }
        }
    ]
}