{
    "type": "FeatureCollection",
    "features": [
        {
            "id": 86218,
            "type": "Feature",
            "geometry": {
                "type": "Point",
                "coordinates": [
                    19.58829,
                    50.51827
                ]
            },
            "properties": {
                "isced:level": "1;2",
                "ref:rspo": 86218,
                "official_name": "Szko\u0142a Podstawowa Fundacji \"Elementarz\" Z Oddzia\u0142em Przedszkolnym w Siamoszycach",
                "name": "Szko\u0142a Podstawowa Fundacji \"Elementarz\" Z Oddzia\u0142em Przedszkolnym w Siamoszycach",
                "addr:country": "PL",
                "addr:postcode": "42-425",
                "addr:city": "Siamoszyce",
                "addr:street": "ul. Edukacyjna",
                "addr:housenumber": "22",
                "addr:teryt:simc": 4733,
                "addr:teryt:sym_ul": 136691,
                "contact:phone": "+48 343411791",
                "contact:email": "sp.siamoszyce@elementarz.edu.pl",
                "ref:regon": "243099220",
                "ref:vatin": "PL6492294073",
                "operator": "Fundacja Ekologiczna - Wychowanie I Sztuka \"Elementarz\"",
                "operator:type": "ngo",
                "amenity": "school"
            }
        },
        {
            "id": 91479,
            "type": "Feature",
            "geometry": {
                "type": "Point",
                "coordinates": [
                    19.58829,
                    50.51824
                ]
            },
            "properties": {
                "ref:rspo": 91479,
                "official_name": "Niepubliczne Przedszkole Fundacji \"Elementarz\"",
                "name": "Niepubliczne Przedszkole Fundacji \"Elementarz\"",
                "addr:country": "PL",
                "addr:postcode": "42-425",
                "addr:city": "Siamoszyce",
                "addr:street": "ul. Edukacyjna",
                "addr:housenumber": "22",
                "addr:teryt:simc": 4733,
                "addr:teryt:sym_ul": 136691,
                "contact:phone": "+48 343411791",
                "contact:email": "sp_siamoszyce@o2.pl",
                "ref:regon": "243111116",
                "operator": "Fundacja Ekologiczna - Wychowanie I Sztuka \"Elementarz\"",
                "operator:type": "ngo",
                "amenity": "kindergarten"
            }
        },
        {
            "id": 127860,
            "type": "Feature",
            "geometry": {
                "type": "Point",
                "coordinates": [
                    19.5988599,
                    50.53015
                ]
            },
            "properties": {
                "ref:rspo": 127860,
                "official_name": "\"Bajkowa Kraina\" Przedszkole Niepubliczne Klaudia Galas",
                "name": "\"Bajkowa Kraina\" Przedszkole Niepubliczne Klaudia Galas",
                "addr:country": "PL",
                "addr:postcode": "42-425",
                "addr:city": "Przy\u0142ubsko",
                "addr:street": "ul. Jurajska",
                "addr:housenumber": "2",
                "addr:teryt:simc": 7668,
                "addr:teryt:sym_ul": 136685,
                "contact:phone": "+48 663623572",
                "contact:email": "galassclaudia@gmail.com",
                "ref:regon": "361923950",
                "ref:vatin": "PL6492176853",
                "operator": "Klaudia Galas",
                "operator:type": "private",
                "amenity": "kindergarten"
            }
        },
        {
            "id": 84211,
            "type": "Feature",
            "geometry": {
                "type": "Point",
                "coordinates": [
                    19.57704,
                    50.5618
                ]
            },
            "properties": {
                "isced:level": "1;2",
                "ref:rspo": 84211,
                "official_name": "Szko\u0142a Podstawowa w Kroczycach",
                "name": "Szko\u0142a Podstawowa w Kroczycach",
                "addr:country": "PL",
                "addr:postcode": "42-425",
                "addr:city": "Kroczyce",
                "addr:street": "ul. Sienkiewicza",
                "addr:housenumber": "7",
                "addr:teryt:simc": 19830,
                "addr:teryt:sym_ul": 136509,
                "contact:phone": "+48 343153189",
                "contact:email": "spkroczyce@gazeta.pl",
                "contact:website": "http:\/\/www.spkroczyce.szkolnastrona.pl",
                "ref:regon": "000715354",
                "ref:vatin": "PL6492016670",
                "operator": "Gmina Kroczyce",
                "operator:type": "government",
                "amenity": "school",
                "note": "Children RSPO: 276042"
            }
        },
        {
            "id": 84432,
            "type": "Feature",
            "geometry": {
                "type": "Point",
                "coordinates": [
                    19.57615,
                    50.56243
                ]
            },
            "properties": {
                "ref:rspo": 84432,
                "official_name": "Przedszkole Publiczne w Kroczycach",
                "name": "Przedszkole Publiczne w Kroczycach",
                "addr:country": "PL",
                "addr:postcode": "42-425",
                "addr:city": "Kroczyce",
                "addr:street": "ul. Sienkiewicza",
                "addr:housenumber": "5",
                "addr:teryt:simc": 19830,
                "addr:teryt:sym_ul": 136509,
                "contact:phone": "+48 343152050",
                "contact:email": "przedszkole@kroczyce.pl",
                "ref:regon": "150603529",
                "ref:vatin": "PL6492016701",
                "operator": "Gmina Kroczyce",
                "operator:type": "government",
                "amenity": "kindergarten"
            }
        },
        {
            "id": 11618,
            "type": "Feature",
            "geometry": {
                "type": "Point",
                "coordinates": [
                    19.64442,
                    50.57496
                ]
            },
            "properties": {
                "isced:level": "1;2",
                "ref:rspo": 11618,
                "official_name": "Szko\u0142a Podstawowa im. Batalion\u00f3w Ch\u0142opskich w Prad\u0142ach",
                "name": "Szko\u0142a Podstawowa",
                "addr:country": "PL",
                "addr:postcode": "42-425",
                "addr:city": "Prad\u0142a",
                "addr:street": "ul. Batalion\u00f3w Ch\u0142opskich",
                "addr:housenumber": "14",
                "addr:teryt:simc": 868,
                "addr:teryt:sym_ul": 136640,
                "contact:phone": "+48 343152107",
                "contact:email": "sppradla@gazeta.pl",
                "contact:website": "http:\/\/www.sppradla.szkolnastrona.pl",
                "ref:regon": "001203001",
                "ref:vatin": "PL6492016664",
                "operator": "Gmina Kroczyce",
                "operator:type": "government",
                "amenity": "school"
            }
        },
        {
            "id": 276042,
            "type": "Feature",
            "geometry": {
                "type": "Point",
                "coordinates": [
                    19.587511,
                    50.606043
                ]
            },
            "properties": {
                "isced:level": "1;2",
                "ref:rspo": 276042,
                "official_name": "Szko\u0142a Filialna w Dzibicach Szko\u0142y Podstawowej w Kroczycach",
                "name": "Szko\u0142a Filialna w Dzibicach Szko\u0142y Podstawowej w Kroczycach",
                "addr:country": "PL",
                "addr:postcode": "42-425",
                "addr:place": "Dzibice",
                "addr:housenumber": "62",
                "addr:teryt:sym_ul": 136455,
                "contact:phone": "+48 343153189",
                "contact:email": "spkroczyce@gazeta.pl",
                "contact:website": "http:\/\/www.spkroczyce.szkolnastrona.pl",
                "ref:regon": "715354000",
                "operator": "Gmina Kroczyce",
                "operator:type": "government",
                "amenity": "school",
                "note": "Parent RSPO: 84211"
            }
        }
    ]
}