{
    "type": "FeatureCollection",
    "features": [
        {
            "id": 29748,
            "type": "Feature",
            "geometry": {
                "type": "Point",
                "coordinates": [
                    23.12205,
                    52.02033
                ]
            },
            "properties": {
                "ref:rspo": 29748,
                "official_name": "Przedszkole Samorz\u0105dowe Nr 6",
                "name": "Przedszkole Samorz\u0105dowe Nr 6",
                "addr:country": "PL",
                "addr:postcode": "21-500",
                "addr:city": "Bia\u0142a Podlaska",
                "addr:street": "\u0141omaska",
                "addr:housenumber": "21",
                "addr:teryt:simc": 29158,
                "addr:teryt:sym_ul": 922018,
                "contact:phone": "+48 833416462",
                "contact:email": "przed6@poczta.onet.pl",
                "contact:website": "http:\/\/www.przedszkole6bp.pl",
                "ref:regon": "030002381",
                "ref:vatin": "PL5371963238",
                "operator": "Gmina Miejska Bia\u0142a Podlaska",
                "operator:type": "government",
                "amenity": "kindergarten"
            }
        },
        {
            "id": 54445,
            "type": "Feature",
            "geometry": {
                "type": "Point",
                "coordinates": [
                    23.12548,
                    52.022
                ]
            },
            "properties": {
                "ref:rspo": 54445,
                "official_name": "Przedszkole Niepubliczne im. Przyjaci\u00f3\u0142 Kubusia Puchatka",
                "name": "Przedszkole Niepubliczne",
                "addr:country": "PL",
                "addr:postcode": "21-500",
                "addr:city": "Bia\u0142a Podlaska",
                "addr:street": "Kolejowa",
                "addr:housenumber": "19",
                "addr:teryt:simc": 8828,
                "addr:teryt:sym_ul": 922018,
                "contact:phone": "+48 833423848",
                "contact:email": "stokma@wp.pl",
                "contact:website": "http:\/\/www.kubusioweprzedszkole.pl",
                "ref:regon": "061477789",
                "ref:vatin": "PL5371262027",
                "operator": "Beata Rychlik",
                "operator:type": "private",
                "amenity": "kindergarten"
            }
        },
        {
            "id": 32049,
            "type": "Feature",
            "geometry": {
                "type": "Point",
                "coordinates": [
                    23.1188499,
                    52.0222
                ]
            },
            "properties": {
                "isced:level": "1;2",
                "ref:rspo": 32049,
                "official_name": "Szko\u0142a Podstawowa Nr 3 im. Marii Konopnickiej",
                "name": "Szko\u0142a Podstawowa Nr 3",
                "addr:country": "PL",
                "addr:postcode": "21-500",
                "addr:city": "Bia\u0142a Podlaska",
                "addr:street": "Sportowa",
                "addr:housenumber": "7",
                "addr:teryt:simc": 20683,
                "addr:teryt:sym_ul": 922018,
                "contact:phone": "+48 833416795",
                "contact:email": "sekretariat@sp3-bialapodlaska.pl",
                "contact:website": "http:\/\/sp3-bialapodlaska.pl",
                "ref:regon": "000713579",
                "ref:vatin": "PL5371677969",
                "operator": "Gmina Miejska Bia\u0142a Podlaska",
                "operator:type": "government",
                "amenity": "school"
            }
        },
        {
            "id": 42061,
            "type": "Feature",
            "geometry": {
                "type": "Point",
                "coordinates": [
                    23.12221,
                    52.02353
                ]
            },
            "properties": {
                "ref:rspo": 42061,
                "official_name": "Biblioteka Pedagogiczna w Bia\u0142ej Podlaskiej",
                "name": "Biblioteka Pedagogiczna w Bia\u0142ej Podlaskiej",
                "addr:country": "PL",
                "addr:postcode": "21-500",
                "addr:city": "Bia\u0142a Podlaska",
                "addr:street": "Kolejowa",
                "addr:housenumber": "8",
                "addr:teryt:simc": 8828,
                "addr:teryt:sym_ul": 922018,
                "contact:phone": "+48 833420616",
                "contact:email": "sekretariat@bialabp.edu.pl",
                "ref:regon": "030289916",
                "ref:vatin": "PL5372053550",
                "operator": "Wojew\u00f3dztwo Lubelskie",
                "operator:type": "government",
                "amenity": "library",
                "note": "Children RSPO: 125738;125739"
            }
        },
        {
            "id": 78212,
            "type": "Feature",
            "geometry": {
                "type": "Point",
                "coordinates": [
                    23.15891,
                    52.02362
                ]
            },
            "properties": {
                "isced:level": "3",
                "ref:rspo": 78212,
                "official_name": "Akademickie Liceum Og\u00f3lnokszta\u0142c\u0105ce Pa\u0144stwowej Szko\u0142y Wy\u017cszej im. Papie\u017ca Jana Paw\u0142a II w Bia\u0142ej Podlaskiej",
                "name": "Akademickie Liceum Og\u00f3lnokszta\u0142c\u0105ce Pa\u0144stwowej Szko\u0142y Wy\u017cszej",
                "addr:country": "PL",
                "addr:postcode": "21-500",
                "addr:city": "Bia\u0142a Podlaska",
                "addr:street": "Sidorska",
                "addr:housenumber": "95\/97",
                "addr:teryt:simc": 19756,
                "addr:teryt:sym_ul": 922018,
                "contact:phone": "+48 833449939",
                "contact:email": "alo@pswbp.pl",
                "contact:website": "https:\/\/www.alo.pswbp.pl\/",
                "ref:regon": "061491938",
                "ref:vatin": "PL5372377637",
                "operator": "Pa\u0144stwowa Szko\u0142a Wy\u017csza Im.papie\u017ca Jana Paw\u0142a Ii W Bia\u0142ej Podlaskiej",
                "operator:type": "public",
                "amenity": "school"
            }
        },
        {
            "id": 120632,
            "type": "Feature",
            "geometry": {
                "type": "Point",
                "coordinates": [
                    23.15891,
                    52.02359
                ]
            },
            "properties": {
                "ref:rspo": 120632,
                "official_name": "O\u015brodek Kszta\u0142cenia Praktycznego",
                "name": "O\u015brodek Kszta\u0142cenia Praktycznego",
                "addr:country": "PL",
                "addr:postcode": "21-500",
                "addr:city": "Bia\u0142a Podlaska",
                "addr:street": "Sidorska",
                "addr:housenumber": "95\/97",
                "addr:teryt:simc": 19756,
                "addr:teryt:sym_ul": 922018,
                "contact:phone": "+48 833449900",
                "contact:email": "psw@pswbp.pl",
                "contact:website": "http:\/\/www.pswbp.pl",
                "ref:regon": "061611800",
                "operator": "Pa\u0144stwowa Szko\u0142a Wy\u017csza Im.papie\u017ca Jana Paw\u0142a Ii W Bia\u0142ej Podlaskiej",
                "operator:type": "public",
                "fixme": "w zale\u017cno\u015bci od przedmiotu dzia\u0142alno\u015bci (np. amenity=training + training=*, amenity=dancing_school, amenity=language_school, amenity=music_school)"
            }
        },
        {
            "id": 129364,
            "type": "Feature",
            "geometry": {
                "type": "Point",
                "coordinates": [
                    23.15891,
                    52.02356
                ]
            },
            "properties": {
                "isced:level": "4",
                "ref:rspo": 129364,
                "official_name": "Szko\u0142a Policealna Pa\u0144stwowej Szko\u0142y Wy\u017cszej im. Papie\u017ca Jana Paw\u0142a II w Bia\u0142ej Podlaskiej",
                "name": "Szko\u0142a Policealna Pa\u0144stwowej Szko\u0142y Wy\u017cszej",
                "addr:country": "PL",
                "addr:postcode": "21-500",
                "addr:city": "Bia\u0142a Podlaska",
                "addr:street": "Sidorska",
                "addr:housenumber": "95\/97",
                "addr:teryt:simc": 19756,
                "addr:teryt:sym_ul": 922018,
                "contact:phone": "+48 833449939",
                "contact:email": "psw@pswbp.pl",
                "contact:website": "http:\/\/www.pswbp.pl",
                "ref:regon": "362574692",
                "operator": "Pa\u0144stwowa Szko\u0142a Wy\u017csza Im.papie\u017ca Jana Paw\u0142a Ii W Bia\u0142ej Podlaskiej",
                "operator:type": "public",
                "amenity": "college"
            }
        },
        {
            "id": 34689,
            "type": "Feature",
            "geometry": {
                "type": "Point",
                "coordinates": [
                    23.13307,
                    52.02431
                ]
            },
            "properties": {
                "ref:rspo": 34689,
                "official_name": "Zesp\u00f3\u0142 Szk\u00f3\u0142 Z Oddzia\u0142ami Integracyjnymi w Bia\u0142ej Podlaskiej",
                "name": "Zesp\u00f3\u0142 Szk\u00f3\u0142 Z Oddzia\u0142ami Integracyjnymi w Bia\u0142ej Podlaskiej",
                "addr:country": "PL",
                "addr:postcode": "21-500",
                "addr:city": "Bia\u0142a Podlaska",
                "addr:street": "Sidorska",
                "addr:housenumber": "30",
                "addr:teryt:simc": 19756,
                "addr:teryt:sym_ul": 922018,
                "contact:phone": "+48 833433767",
                "contact:email": "szkolapodstawowa.nr5bp@gmail.com",
                "contact:website": "http:\/\/www.szp5.pl",
                "ref:regon": "061090889",
                "ref:vatin": "PL5372618213",
                "operator": "Gmina Miejska Bia\u0142a Podlaska",
                "operator:type": "government",
                "landuse": "education",
                "fixme": "amenity=school, amenity=college albo landuse=education w zale\u017cno\u015bci od tego, jakie plac\u00f3wki wchodz\u0105 w sk\u0142ad zespo\u0142u. Sprawd\u017a, kiedy stosowa\u0107 amenity=* a kiedy landuse=education.",
                "note": "Children RSPO: 29749;61025"
            }
        },
        {
            "id": 61025,
            "type": "Feature",
            "geometry": {
                "type": "Point",
                "coordinates": [
                    23.13307,
                    52.02428
                ]
            },
            "properties": {
                "isced:level": "1;2",
                "ref:rspo": 61025,
                "official_name": "Szko\u0142a Podstawowa Nr 5 im. Jana Kochanowskiego",
                "name": "Szko\u0142a Podstawowa Nr 5",
                "addr:country": "PL",
                "addr:postcode": "21-500",
                "addr:city": "Bia\u0142a Podlaska",
                "addr:street": "Sidorska",
                "addr:housenumber": "30",
                "addr:teryt:simc": 19756,
                "addr:teryt:sym_ul": 922018,
                "contact:phone": "+48 833416491",
                "contact:email": "szkolapodstawowa.nr5bp@gmail.com",
                "contact:website": "http:\/\/www.szp5.pl",
                "ref:regon": "000713591",
                "operator": "Gmina Miejska Bia\u0142a Podlaska",
                "operator:type": "government",
                "amenity": "school",
                "note": "Parent RSPO: 34689"
            }
        },
        {
            "id": 29751,
            "type": "Feature",
            "geometry": {
                "type": "Point",
                "coordinates": [
                    23.12802,
                    52.0243899
                ]
            },
            "properties": {
                "ref:rspo": 29751,
                "official_name": "Przedszkole Samorz\u0105dowe Nr 11",
                "name": "Przedszkole Samorz\u0105dowe Nr 11",
                "addr:country": "PL",
                "addr:postcode": "21-500",
                "addr:city": "Bia\u0142a Podlaska",
                "addr:street": "Sidorska",
                "addr:housenumber": "20",
                "addr:teryt:simc": 19756,
                "addr:teryt:sym_ul": 922018,
                "contact:phone": "+48 833416735",
                "contact:email": "przedsz11_bialapodlaska@op.pl",
                "contact:website": "http:\/\/przedszkole11.info.pl",
                "ref:regon": "030002435",
                "ref:vatin": "PL5371963356",
                "operator": "Gmina Miejska Bia\u0142a Podlaska",
                "operator:type": "government",
                "amenity": "kindergarten"
            }
        },
        {
            "id": 29749,
            "type": "Feature",
            "geometry": {
                "type": "Point",
                "coordinates": [
                    23.13262,
                    52.02464
                ]
            },
            "properties": {
                "ref:rspo": 29749,
                "official_name": "Przedszkole Samorz\u0105dowe Nr 7",
                "name": "Przedszkole Samorz\u0105dowe Nr 7",
                "addr:country": "PL",
                "addr:postcode": "21-500",
                "addr:city": "Bia\u0142a Podlaska",
                "addr:street": "Ludwika Wary\u0144skiego",
                "addr:housenumber": "1",
                "addr:teryt:simc": 23707,
                "addr:teryt:sym_ul": 922018,
                "contact:phone": "+48 833416432",
                "contact:email": "przedsam7@wp.pl",
                "ref:regon": "030002398",
                "ref:vatin": "PL5371963008",
                "operator": "Gmina Miejska Bia\u0142a Podlaska",
                "operator:type": "government",
                "amenity": "kindergarten",
                "note": "Parent RSPO: 34689"
            }
        },
        {
            "id": 34687,
            "type": "Feature",
            "geometry": {
                "type": "Point",
                "coordinates": [
                    23.13248,
                    52.02512
                ]
            },
            "properties": {
                "ref:rspo": 34687,
                "official_name": "Poradnia Psychologiczno-Pedagogiczna w Bia\u0142ej Podlaskiej",
                "name": "Poradnia Psychologiczno-Pedagogiczna w Bia\u0142ej Podlaskiej",
                "addr:country": "PL",
                "addr:postcode": "21-500",
                "addr:city": "Bia\u0142a Podlaska",
                "addr:street": "Ludwika Wary\u0144skiego",
                "addr:housenumber": "3",
                "addr:teryt:simc": 23707,
                "addr:teryt:sym_ul": 922018,
                "contact:phone": "+48 833416437",
                "contact:email": "pppbp@op.pl",
                "contact:website": "http:\/\/www.pppbialapodlaska.pl",
                "ref:regon": "000744232",
                "ref:vatin": "PL5371967199",
                "operator": "Gmina Miejska Bia\u0142a Podlaska",
                "operator:type": "government",
                "healthcare": "counselling",
                "counselling_type": "education",
                "fixme": "w zale\u017cno\u015bci od przedmiotu dzia\u0142alno\u015bci (np. healthcare=counselling + counselling_type=education albo healthcare=psychotherapist)"
            }
        },
        {
            "id": 279007,
            "type": "Feature",
            "geometry": {
                "type": "Point",
                "coordinates": [
                    23.1242,
                    52.0252
                ]
            },
            "properties": {
                "ref:rspo": 279007,
                "official_name": "Niepubliczne Przedszkole \"Jag\u00f3dka\"",
                "name": "Niepubliczne Przedszkole \"Jag\u00f3dka\"",
                "addr:country": "PL",
                "addr:postcode": "21-500",
                "addr:city": "Bia\u0142a Podlaska",
                "addr:street": "Sidorska",
                "addr:housenumber": "2",
                "addr:teryt:simc": 19756,
                "addr:teryt:sym_ul": 922018,
                "contact:phone": "+48 794422922",
                "ref:regon": "520392658",
                "ref:vatin": "PL5371259002",
                "operator": "Krystyna Gdela",
                "operator:type": "private",
                "amenity": "kindergarten"
            }
        },
        {
            "id": 132321,
            "type": "Feature",
            "geometry": {
                "type": "Point",
                "coordinates": [
                    23.14739,
                    52.02602
                ]
            },
            "properties": {
                "isced:level": "1;2",
                "ref:rspo": 132321,
                "official_name": "Katolicka Szko\u0142a Podstawowa im. Cypriana Norwida",
                "name": "Katolicka Szko\u0142a Podstawowa",
                "addr:country": "PL",
                "addr:postcode": "21-500",
                "addr:city": "Bia\u0142a Podlaska",
                "addr:street": "Kardyna\u0142a Stefana Wyszy\u0144skiego",
                "addr:housenumber": "53\/55",
                "addr:teryt:simc": 25107,
                "addr:teryt:sym_ul": 922018,
                "contact:phone": "+48 833440369",
                "contact:email": "sekretariat@kspbp.pl",
                "contact:website": "http:\/\/kspbp.pl",
                "ref:regon": "365551160",
                "operator": "Diecezja Siedlecka Kuria Diecezjalna W Siedlcach",
                "operator:type": "religious",
                "amenity": "school"
            }
        },
        {
            "id": 56087,
            "type": "Feature",
            "geometry": {
                "type": "Point",
                "coordinates": [
                    23.15389,
                    52.02671
                ]
            },
            "properties": {
                "ref:rspo": 56087,
                "official_name": "Niepubliczne Przedszkole Akademia Przedszkolaka",
                "name": "Niepubliczne Przedszkole Akademia Przedszkolaka",
                "addr:country": "PL",
                "addr:postcode": "21-500",
                "addr:city": "Bia\u0142a Podlaska",
                "addr:street": "Piaskowa",
                "addr:housenumber": "16",
                "addr:teryt:simc": 16033,
                "addr:teryt:sym_ul": 922018,
                "contact:phone": "+48 833440636",
                "contact:email": "pawelkorniluk@wp.pl",
                "contact:website": "http:\/\/www.akademiap.pl",
                "ref:regon": "061478688",
                "ref:vatin": "PL5372017821",
                "operator": "Pawe\u0142 Korniluk",
                "operator:type": "private",
                "amenity": "kindergarten"
            }
        },
        {
            "id": 126569,
            "type": "Feature",
            "geometry": {
                "type": "Point",
                "coordinates": [
                    23.13663,
                    52.02707
                ]
            },
            "properties": {
                "ref:rspo": 126569,
                "official_name": "Niepubliczne Przedszkole \"Kraina U\u015bmiechu\"",
                "name": "Niepubliczne Przedszkole \"Kraina U\u015bmiechu\"",
                "addr:country": "PL",
                "addr:postcode": "21-500",
                "addr:city": "Bia\u0142a Podlaska",
                "addr:street": "Aleja Jana Paw\u0142a II",
                "addr:housenumber": "162",
                "addr:teryt:simc": 33262,
                "addr:teryt:sym_ul": 922018,
                "contact:phone": "+48 793118242",
                "contact:email": "agamala.bp@gmail.com",
                "ref:regon": "360498231",
                "operator": "Agnieszka Borejsza",
                "operator:type": "private",
                "amenity": "kindergarten"
            }
        },
        {
            "id": 29756,
            "type": "Feature",
            "geometry": {
                "type": "Point",
                "coordinates": [
                    23.1410932,
                    52.0272414
                ]
            },
            "properties": {
                "ref:rspo": 29756,
                "official_name": "Samorz\u0105dowe Przedszkole Integracyjne Nr 16 im. J. Brzechwy",
                "name": "Samorz\u0105dowe Przedszkole Integracyjne Nr 16",
                "addr:country": "PL",
                "addr:postcode": "21-500",
                "addr:city": "Bia\u0142a Podlaska",
                "addr:street": "Weso\u0142a",
                "addr:housenumber": "21\/23",
                "addr:teryt:simc": 23884,
                "addr:teryt:sym_ul": 922018,
                "contact:phone": "+48 833416470",
                "contact:email": "p16bp@o2.pl",
                "contact:website": "http:\/\/www.p16bp.edu.pl",
                "ref:regon": "030002487",
                "ref:vatin": "PL5371963250",
                "operator": "Gmina Miejska Bia\u0142a Podlaska",
                "operator:type": "government",
                "amenity": "kindergarten",
                "note": "Parent RSPO: 34691"
            }
        },
        {
            "id": 34691,
            "type": "Feature",
            "geometry": {
                "type": "Point",
                "coordinates": [
                    23.14838,
                    52.02782
                ]
            },
            "properties": {
                "ref:rspo": 34691,
                "official_name": "Zesp\u00f3\u0142 Szk\u00f3\u0142 Og\u00f3lnokszta\u0142c\u0105cych Nr 2 im. Adama Mickiewicza w Bia\u0142ej Podlaskiej",
                "name": "Zesp\u00f3\u0142 Szk\u00f3\u0142 Og\u00f3lnokszta\u0142c\u0105cych Nr 2",
                "addr:country": "PL",
                "addr:postcode": "21-500",
                "addr:city": "Bia\u0142a Podlaska",
                "addr:street": "Leszczynowa",
                "addr:housenumber": "16",
                "addr:teryt:simc": 10870,
                "addr:teryt:sym_ul": 922018,
                "contact:phone": "+48 833416748",
                "contact:email": "zso2bp@poczta.onet.pl",
                "ref:regon": "030135981",
                "ref:vatin": "PL5371684343",
                "operator": "Gmina Miejska Bia\u0142a Podlaska",
                "operator:type": "government",
                "landuse": "education",
                "fixme": "amenity=school, amenity=college albo landuse=education w zale\u017cno\u015bci od tego, jakie plac\u00f3wki wchodz\u0105 w sk\u0142ad zespo\u0142u. Sprawd\u017a, kiedy stosowa\u0107 amenity=* a kiedy landuse=education.",
                "note": "Children RSPO: 29756;60998;61000;125784"
            }
        },
        {
            "id": 60998,
            "type": "Feature",
            "geometry": {
                "type": "Point",
                "coordinates": [
                    23.14838,
                    52.027789999999996
                ]
            },
            "properties": {
                "isced:level": "3",
                "ref:rspo": 60998,
                "official_name": "Iii Liceum Og\u00f3lnokszta\u0142c\u0105ce",
                "name": "Iii Liceum Og\u00f3lnokszta\u0142c\u0105ce",
                "addr:country": "PL",
                "addr:postcode": "21-500",
                "addr:city": "Bia\u0142a Podlaska",
                "addr:street": "Leszczynowa",
                "addr:housenumber": "16",
                "addr:teryt:simc": 10870,
                "addr:teryt:sym_ul": 922018,
                "contact:phone": "+48 833416748",
                "contact:email": "zso2bp@poczta.onet.pl",
                "ref:regon": "002302461",
                "operator": "Gmina Miejska Bia\u0142a Podlaska",
                "operator:type": "government",
                "amenity": "school",
                "note": "Parent RSPO: 34691"
            }
        },
        {
            "id": 61000,
            "type": "Feature",
            "geometry": {
                "type": "Point",
                "coordinates": [
                    23.14838,
                    52.02776
                ]
            },
            "properties": {
                "isced:level": "1;2",
                "ref:rspo": 61000,
                "official_name": "Szko\u0142a Podstawowa Nr 6",
                "name": "Szko\u0142a Podstawowa Nr 6",
                "addr:country": "PL",
                "addr:postcode": "21-500",
                "addr:city": "Bia\u0142a Podlaska",
                "addr:street": "Leszczynowa",
                "addr:housenumber": "16",
                "addr:teryt:simc": 10870,
                "addr:teryt:sym_ul": 922018,
                "contact:phone": "+48 833416748",
                "contact:email": "zso2bp@poczta.onet.pl",
                "contact:website": "http:\/\/www.sp6bp.cba.pl",
                "ref:regon": "000713600",
                "operator": "Gmina Miejska Bia\u0142a Podlaska",
                "operator:type": "government",
                "amenity": "school",
                "note": "Parent RSPO: 34691"
            }
        },
        {
            "id": 125784,
            "type": "Feature",
            "geometry": {
                "type": "Point",
                "coordinates": [
                    23.14838,
                    52.02773
                ]
            },
            "properties": {
                "isced:level": "3",
                "ref:rspo": 125784,
                "official_name": "Ii Liceum Og\u00f3lnokszta\u0142c\u0105ce dla Doros\u0142ych",
                "name": "Ii Liceum Og\u00f3lnokszta\u0142c\u0105ce dla Doros\u0142ych",
                "addr:country": "PL",
                "addr:postcode": "21-500",
                "addr:city": "Bia\u0142a Podlaska",
                "addr:street": "Leszczynowa",
                "addr:housenumber": "16",
                "addr:teryt:simc": 10870,
                "addr:teryt:sym_ul": 922018,
                "contact:phone": "+48 833426951",
                "contact:email": "zso2bp@poczta.onet.pl",
                "contact:website": "http:\/\/mickiewicz.bialap.pl",
                "ref:regon": "061743251",
                "operator": "Gmina Miejska Bia\u0142a Podlaska",
                "operator:type": "government",
                "amenity": "school",
                "note": "Parent RSPO: 34691"
            }
        },
        {
            "id": 4976,
            "type": "Feature",
            "geometry": {
                "type": "Point",
                "coordinates": [
                    23.18555,
                    52.02827
                ]
            },
            "properties": {
                "isced:level": "1;2",
                "ref:rspo": 4976,
                "official_name": "Spo\u0142eczna Szko\u0142a Podstawowa im. Henryka Sienkiewicza",
                "name": "Spo\u0142eczna Szko\u0142a Podstawowa",
                "addr:country": "PL",
                "addr:postcode": "21-500",
                "addr:city": "Bia\u0142a Podlaska",
                "addr:street": "Mariana Langiewicza",
                "addr:housenumber": "44",
                "addr:teryt:simc": 10636,
                "addr:teryt:sym_ul": 922018,
                "contact:phone": "+48 696136616",
                "contact:email": "spolecznaszkolabp@interia.pl",
                "ref:regon": "061449920",
                "operator": "Podlaskie Stowarzyszenie - Dobra Szko\u0142a",
                "operator:type": "ngo",
                "amenity": "school"
            }
        },
        {
            "id": 57242,
            "type": "Feature",
            "geometry": {
                "type": "Point",
                "coordinates": [
                    23.18555,
                    52.02824
                ]
            },
            "properties": {
                "ref:rspo": 57242,
                "official_name": "Spo\u0142eczne Przedszkole",
                "name": "Spo\u0142eczne Przedszkole",
                "addr:country": "PL",
                "addr:postcode": "21-500",
                "addr:city": "Bia\u0142a Podlaska",
                "addr:street": "Mariana Langiewicza",
                "addr:housenumber": "44",
                "addr:teryt:simc": 10636,
                "addr:teryt:sym_ul": 922018,
                "contact:phone": "+48 696136616",
                "contact:email": "spolecznaszkolabp@interia.pl",
                "contact:website": "http:\/\/www.szkolaspoleczna.org\/",
                "ref:regon": "061478659",
                "operator": "Podlaskie Stowarzyszenie - Dobra Szko\u0142a",
                "operator:type": "ngo",
                "amenity": "kindergarten"
            }
        },
        {
            "id": 34688,
            "type": "Feature",
            "geometry": {
                "type": "Point",
                "coordinates": [
                    23.15546,
                    52.02903
                ]
            },
            "properties": {
                "ref:rspo": 34688,
                "official_name": "Zesp\u00f3\u0142 Szk\u00f3\u0142 Specjalnych w Bia\u0142ej Podlaskiej",
                "name": "Zesp\u00f3\u0142 Szk\u00f3\u0142 Specjalnych w Bia\u0142ej Podlaskiej",
                "addr:country": "PL",
                "addr:postcode": "21-500",
                "addr:city": "Bia\u0142a Podlaska",
                "addr:street": "Orzechowa",
                "addr:housenumber": "58",
                "addr:teryt:simc": 15202,
                "addr:teryt:sym_ul": 922018,
                "contact:phone": "+48 833416434",
                "contact:email": "szkolaspecjalna@bialapodl.pl",
                "contact:website": "http:\/\/www.szkolaspecjalna.bialapodl.pl",
                "ref:regon": "001033071",
                "ref:vatin": "PL5372038415",
                "operator": "Gmina Miejska Bia\u0142a Podlaska",
                "operator:type": "government",
                "landuse": "education",
                "fixme": "amenity=school, amenity=college albo landuse=education w zale\u017cno\u015bci od tego, jakie plac\u00f3wki wchodz\u0105 w sk\u0142ad zespo\u0142u. Sprawd\u017a, kiedy stosowa\u0107 amenity=* a kiedy landuse=education.",
                "note": "Children RSPO: 75441;75443"
            }
        },
        {
            "id": 75441,
            "type": "Feature",
            "geometry": {
                "type": "Point",
                "coordinates": [
                    23.15546,
                    52.028999999999996
                ]
            },
            "properties": {
                "isced:level": "1;2",
                "ref:rspo": 75441,
                "official_name": "Szko\u0142a Podstawowa Specjalna",
                "name": "Szko\u0142a Podstawowa Specjalna",
                "addr:country": "PL",
                "addr:postcode": "21-500",
                "addr:city": "Bia\u0142a Podlaska",
                "addr:street": "Orzechowa",
                "addr:housenumber": "58",
                "addr:teryt:simc": 15202,
                "addr:teryt:sym_ul": 922018,
                "contact:phone": "+48 833416434",
                "contact:email": "szkolaspecjalna@bialapodl.pl",
                "contact:website": "http:\/\/zssorzechowa.pl",
                "ref:regon": "030309079",
                "operator": "Gmina Miejska Bia\u0142a Podlaska",
                "operator:type": "government",
                "amenity": "school",
                "note": "Parent RSPO: 34688"
            }
        },
        {
            "id": 75443,
            "type": "Feature",
            "geometry": {
                "type": "Point",
                "coordinates": [
                    23.15546,
                    52.02897
                ]
            },
            "properties": {
                "ref:rspo": 75443,
                "official_name": "Szko\u0142a Specjalna Przysposabiaj\u0105ca Do Pracy",
                "name": "Szko\u0142a Specjalna Przysposabiaj\u0105ca Do Pracy",
                "addr:country": "PL",
                "addr:postcode": "21-500",
                "addr:city": "Bia\u0142a Podlaska",
                "addr:street": "Orzechowa",
                "addr:housenumber": "58",
                "addr:teryt:simc": 15202,
                "addr:teryt:sym_ul": 922018,
                "contact:phone": "+48 833416434",
                "contact:email": "szkolaspecjalna@bialapodl.pl",
                "contact:website": "http:\/\/zssorzechowa.pl",
                "ref:regon": "060057105",
                "operator": "Gmina Miejska Bia\u0142a Podlaska",
                "operator:type": "government",
                "amenity": "school",
                "note": "Parent RSPO: 34688"
            }
        },
        {
            "id": 29753,
            "type": "Feature",
            "geometry": {
                "type": "Point",
                "coordinates": [
                    23.15184,
                    52.03072
                ]
            },
            "properties": {
                "ref:rspo": 29753,
                "official_name": "Przedszkole Samorz\u0105dowe Nr 14",
                "name": "Przedszkole Samorz\u0105dowe Nr 14",
                "addr:country": "PL",
                "addr:postcode": "21-500",
                "addr:city": "Bia\u0142a Podlaska",
                "addr:street": "\u0141ukaszy\u0144ska",
                "addr:housenumber": "34",
                "addr:teryt:simc": 11765,
                "addr:teryt:sym_ul": 922018,
                "contact:phone": "+48 833416467",
                "contact:email": "nasza.czternastka@interia.pl",
                "contact:website": "http:\/\/p14.yum.pl",
                "ref:regon": "030002464",
                "ref:vatin": "PL5371963221",
                "operator": "Gmina Miejska Bia\u0142a Podlaska",
                "operator:type": "government",
                "amenity": "kindergarten"
            }
        },
        {
            "id": 92584,
            "type": "Feature",
            "geometry": {
                "type": "Point",
                "coordinates": [
                    23.14405,
                    52.03089
                ]
            },
            "properties": {
                "ref:rspo": 92584,
                "official_name": "Przedszkole Niepubliczne U Cioci Marchewki",
                "name": "Przedszkole Niepubliczne U Cioci Marchewki",
                "addr:country": "PL",
                "addr:postcode": "21-500",
                "addr:city": "Bia\u0142a Podlaska",
                "addr:street": "K\u0105pielowa",
                "addr:housenumber": "18",
                "addr:teryt:simc": 8294,
                "addr:teryt:sym_ul": 922018,
                "contact:phone": "+48 504060357",
                "contact:email": "uciocimarchewki@wp.pl",
                "contact:website": "http:\/\/www.uciocimarchewki.pl",
                "ref:regon": "061500264",
                "operator": "Makron Sp\u00f3\u0142ka Z Ograniczon\u0105 Odpowiedzialno\u015bci\u0105",
                "operator:type": "private",
                "amenity": "kindergarten"
            }
        },
        {
            "id": 53305,
            "type": "Feature",
            "geometry": {
                "type": "Point",
                "coordinates": [
                    23.11086,
                    52.03114
                ]
            },
            "properties": {
                "isced:level": "3",
                "ref:rspo": 53305,
                "official_name": "Bran\u017cowa Szko\u0142a Rzemie\u015blnicza I Stopnia",
                "name": "Bran\u017cowa Szko\u0142a Rzemie\u015blnicza I Stopnia",
                "addr:country": "PL",
                "addr:postcode": "21-500",
                "addr:city": "Bia\u0142a Podlaska",
                "addr:street": "Warszawska",
                "addr:housenumber": "14",
                "addr:teryt:simc": 23682,
                "addr:teryt:sym_ul": 922018,
                "contact:phone": "+48 833423812",
                "contact:email": "rzszgr@o2.pl",
                "contact:website": "http:\/\/www.cechbialski.com.pl\/szkola\/",
                "ref:regon": "061477677",
                "operator": "Cech Rzemie\u015blnik\u00f3w I Przedsi\u0119biorc\u00f3w",
                "operator:type": "cooperative",
                "amenity": "school"
            }
        },
        {
            "id": 53307,
            "type": "Feature",
            "geometry": {
                "type": "Point",
                "coordinates": [
                    23.11086,
                    52.03111
                ]
            },
            "properties": {
                "isced:level": "3",
                "ref:rspo": 53307,
                "official_name": "Rzemie\u015blnicze Liceum Og\u00f3lnokszta\u0142c\u0105ce dla Doros\u0142ych",
                "name": "Rzemie\u015blnicze Liceum Og\u00f3lnokszta\u0142c\u0105ce dla Doros\u0142ych",
                "addr:country": "PL",
                "addr:postcode": "21-500",
                "addr:city": "Bia\u0142a Podlaska",
                "addr:street": "Warszawska",
                "addr:housenumber": "14",
                "addr:teryt:simc": 23682,
                "addr:teryt:sym_ul": 922018,
                "contact:phone": "+48 833423812",
                "contact:email": "rzszgr@o2.pl",
                "contact:website": "http:\/\/www.cechbialski.com.pl\/szkola\/",
                "ref:regon": "061477743",
                "operator": "Cech Rzemie\u015blnik\u00f3w I Przedsi\u0119biorc\u00f3w",
                "operator:type": "cooperative",
                "amenity": "school"
            }
        },
        {
            "id": 130479,
            "type": "Feature",
            "geometry": {
                "type": "Point",
                "coordinates": [
                    23.11086,
                    52.03108
                ]
            },
            "properties": {
                "isced:level": "3",
                "ref:rspo": 130479,
                "official_name": "Rzemie\u015blnicze Technikum Z Oddzia\u0142ami Integracyjnymi",
                "name": "Rzemie\u015blnicze Technikum Z Oddzia\u0142ami Integracyjnymi",
                "addr:country": "PL",
                "addr:postcode": "21-500",
                "addr:city": "Bia\u0142a Podlaska",
                "addr:street": "Warszawska",
                "addr:housenumber": "14",
                "addr:teryt:simc": 23682,
                "addr:teryt:sym_ul": 922018,
                "contact:phone": "+48 833423812",
                "contact:email": "rzszgr@o2.pl",
                "contact:website": "http:\/\/www.cechbialski.com.pl\/szkola\/",
                "ref:regon": "364074284",
                "operator": "Cech Rzemie\u015blnik\u00f3w I Przedsi\u0119biorc\u00f3w",
                "operator:type": "cooperative",
                "amenity": "school"
            }
        },
        {
            "id": 268082,
            "type": "Feature",
            "geometry": {
                "type": "Point",
                "coordinates": [
                    23.11086,
                    52.03105
                ]
            },
            "properties": {
                "isced:level": "3",
                "ref:rspo": 268082,
                "official_name": "Rzemie\u015blnicze Liceum Og\u00f3lnokszta\u0142c\u0105ce w Bia\u0142ej Podlaskiej",
                "name": "Rzemie\u015blnicze Liceum Og\u00f3lnokszta\u0142c\u0105ce w Bia\u0142ej Podlaskiej",
                "addr:country": "PL",
                "addr:postcode": "21-500",
                "addr:city": "Bia\u0142a Podlaska",
                "addr:street": "Warszawska",
                "addr:housenumber": "14",
                "addr:teryt:simc": 23682,
                "addr:teryt:sym_ul": 922018,
                "contact:phone": "+48 833433245",
                "contact:email": "rzszgr@o2.pl",
                "contact:website": "http:\/\/www.cechbialski.com.pl\/szkola\/",
                "ref:regon": "380929359",
                "operator": "Cech Rzemie\u015blnik\u00f3w I Przedsi\u0119biorc\u00f3w",
                "operator:type": "cooperative",
                "amenity": "school"
            }
        },
        {
            "id": 115561,
            "type": "Feature",
            "geometry": {
                "type": "Point",
                "coordinates": [
                    23.1134,
                    52.03132
                ]
            },
            "properties": {
                "ref:rspo": 115561,
                "official_name": "Powiatowa Poradnia Psychologiczno-Pedagogiczna w Bia\u0142ej Podlaskiej",
                "name": "Powiatowa Poradnia Psychologiczno-Pedagogiczna w Bia\u0142ej Podlaskiej",
                "addr:country": "PL",
                "addr:postcode": "21-500",
                "addr:city": "Bia\u0142a Podlaska",
                "addr:street": "Warszawska",
                "addr:housenumber": "12 c",
                "addr:teryt:simc": 23682,
                "addr:teryt:sym_ul": 922018,
                "contact:phone": "+48 833433123",
                "contact:email": "poradniapedagog@interia.pl",
                "contact:website": "http:\/\/powiatowa-poradniabp.pl",
                "ref:regon": "061578786",
                "operator": "Powiat Bialski",
                "operator:type": "government",
                "healthcare": "counselling",
                "counselling_type": "education",
                "fixme": "w zale\u017cno\u015bci od przedmiotu dzia\u0142alno\u015bci (np. healthcare=counselling + counselling_type=education albo healthcare=psychotherapist)",
                "note": "Children RSPO: 118877;118976;118977"
            }
        },
        {
            "id": 20804,
            "type": "Feature",
            "geometry": {
                "type": "Point",
                "coordinates": [
                    23.11377,
                    52.03137
                ]
            },
            "properties": {
                "ref:rspo": 20804,
                "official_name": "Zesp\u00f3\u0142 Pa\u0144stwowych Szk\u00f3\u0142 Muzycznych I I II St. im. Fryderyka Chopina w Bia\u0142ej Podlaskiej",
                "name": "Zesp\u00f3\u0142 Pa\u0144stwowych Szk\u00f3\u0142 Muzycznych I I II St.",
                "addr:country": "PL",
                "addr:postcode": "21-500",
                "addr:city": "Bia\u0142a Podlaska",
                "addr:street": "Warszawska",
                "addr:housenumber": "12b",
                "addr:teryt:simc": 23682,
                "addr:teryt:sym_ul": 922018,
                "contact:phone": "+48 833435436",
                "contact:email": "1204smbiala@wp.pl",
                "contact:website": "http:\/\/zsmbp.pl",
                "ref:regon": "060284692",
                "operator": "Ministerstwo Kultury I Dziedzictwa Narodowego",
                "operator:type": "public",
                "landuse": "education",
                "fixme": "amenity=school, amenity=college albo landuse=education w zale\u017cno\u015bci od tego, jakie plac\u00f3wki wchodz\u0105 w sk\u0142ad zespo\u0142u. Sprawd\u017a, kiedy stosowa\u0107 amenity=* a kiedy landuse=education.",
                "note": "Children RSPO: 85577;85578"
            }
        },
        {
            "id": 85577,
            "type": "Feature",
            "geometry": {
                "type": "Point",
                "coordinates": [
                    23.11377,
                    52.03134
                ]
            },
            "properties": {
                "ref:rspo": 85577,
                "official_name": "Pa\u0144stwowa Szko\u0142a Muzyczna II St. w Bia\u0142ej Podlaskiej",
                "name": "Pa\u0144stwowa Szko\u0142a Muzyczna II St. w Bia\u0142ej Podlaskiej",
                "addr:country": "PL",
                "addr:postcode": "21-500",
                "addr:city": "Bia\u0142a Podlaska",
                "addr:street": "Warszawska",
                "addr:housenumber": "12b",
                "addr:teryt:simc": 23682,
                "addr:teryt:sym_ul": 922018,
                "contact:phone": "+48 833435436",
                "ref:regon": "060284723",
                "operator": "Ministerstwo Kultury I Dziedzictwa Narodowego",
                "operator:type": "public",
                "amenity": "music_school",
                "note": "Parent RSPO: 20804"
            }
        },
        {
            "id": 85578,
            "type": "Feature",
            "geometry": {
                "type": "Point",
                "coordinates": [
                    23.11377,
                    52.031310000000005
                ]
            },
            "properties": {
                "ref:rspo": 85578,
                "official_name": "Pa\u0144stwowa Szko\u0142a Muzyczna I St. im. Fryderyka Chopina w Bia\u0142ej Podlaskiej",
                "name": "Pa\u0144stwowa Szko\u0142a Muzyczna I St.",
                "addr:country": "PL",
                "addr:postcode": "21-500",
                "addr:city": "Bia\u0142a Podlaska",
                "addr:street": "Warszawska",
                "addr:housenumber": "12b",
                "addr:teryt:simc": 23682,
                "addr:teryt:sym_ul": 922018,
                "contact:phone": "+48 833435436",
                "ref:regon": "000967430",
                "operator": "Ministerstwo Kultury I Dziedzictwa Narodowego",
                "operator:type": "public",
                "amenity": "music_school",
                "note": "Parent RSPO: 20804"
            }
        },
        {
            "id": 34692,
            "type": "Feature",
            "geometry": {
                "type": "Point",
                "coordinates": [
                    23.12104,
                    52.03184
                ]
            },
            "properties": {
                "ref:rspo": 34692,
                "official_name": "Zesp\u00f3\u0142 Szk\u00f3\u0142 Og\u00f3lnokszta\u0142c\u0105cych Nr 3 w Bia\u0142ej Podlaskiej",
                "name": "Zesp\u00f3\u0142 Szk\u00f3\u0142 Og\u00f3lnokszta\u0142c\u0105cych Nr 3 w Bia\u0142ej Podlaskiej",
                "addr:country": "PL",
                "addr:postcode": "21-500",
                "addr:city": "Bia\u0142a Podlaska",
                "addr:street": "Gabriela Narutowicza",
                "addr:housenumber": "39",
                "addr:teryt:simc": 14018,
                "addr:teryt:sym_ul": 922018,
                "contact:phone": "+48 833416494",
                "contact:email": "sekretariat@platerka.pl",
                "contact:website": "https:\/\/platerka.pl",
                "ref:regon": "000648149",
                "ref:vatin": "PL5372038384",
                "operator": "Gmina Miejska Bia\u0142a Podlaska",
                "operator:type": "government",
                "landuse": "education",
                "fixme": "amenity=school, amenity=college albo landuse=education w zale\u017cno\u015bci od tego, jakie plac\u00f3wki wchodz\u0105 w sk\u0142ad zespo\u0142u. Sprawd\u017a, kiedy stosowa\u0107 amenity=* a kiedy landuse=education.",
                "note": "Children RSPO: 60994;60996"
            }
        },
        {
            "id": 60994,
            "type": "Feature",
            "geometry": {
                "type": "Point",
                "coordinates": [
                    23.12104,
                    52.03181
                ]
            },
            "properties": {
                "isced:level": "3",
                "ref:rspo": 60994,
                "official_name": "Ii Liceum Og\u00f3lnokszta\u0142c\u0105ce im. Emilii Plater",
                "name": "Ii Liceum Og\u00f3lnokszta\u0142c\u0105ce",
                "addr:country": "PL",
                "addr:postcode": "21-500",
                "addr:city": "Bia\u0142a Podlaska",
                "addr:street": "Gabriela Narutowicza",
                "addr:housenumber": "39",
                "addr:teryt:simc": 14018,
                "addr:teryt:sym_ul": 922018,
                "contact:phone": "+48 833416494",
                "contact:email": "sekretariat@platerka.pl",
                "contact:website": "https:\/\/platerka.pl",
                "ref:regon": "030309211",
                "operator": "Gmina Miejska Bia\u0142a Podlaska",
                "operator:type": "government",
                "amenity": "school",
                "note": "Parent RSPO: 34692"
            }
        },
        {
            "id": 34690,
            "type": "Feature",
            "geometry": {
                "type": "Point",
                "coordinates": [
                    23.11786,
                    52.03221
                ]
            },
            "properties": {
                "ref:rspo": 34690,
                "official_name": "Zesp\u00f3\u0142 Szk\u00f3\u0142 Og\u00f3lnokszta\u0142c\u0105cych w Bia\u0142ej Podlaskiej",
                "name": "Zesp\u00f3\u0142 Szk\u00f3\u0142 Og\u00f3lnokszta\u0142c\u0105cych w Bia\u0142ej Podlaskiej",
                "addr:country": "PL",
                "addr:postcode": "21-500",
                "addr:city": "Bia\u0142a Podlaska",
                "addr:street": "J\u00f3zefa Ignacego Kraszewskiego",
                "addr:housenumber": "1",
                "addr:teryt:simc": 9871,
                "addr:teryt:sym_ul": 922018,
                "contact:phone": "+48 833416751",
                "contact:email": "kraszak@bialapodl.pl",
                "contact:website": "http:\/\/www.kraszak.pl",
                "ref:regon": "000712870",
                "ref:vatin": "PL5371675723",
                "operator": "Gmina Miejska Bia\u0142a Podlaska",
                "operator:type": "government",
                "landuse": "education",
                "fixme": "amenity=school, amenity=college albo landuse=education w zale\u017cno\u015bci od tego, jakie plac\u00f3wki wchodz\u0105 w sk\u0142ad zespo\u0142u. Sprawd\u017a, kiedy stosowa\u0107 amenity=* a kiedy landuse=education.",
                "note": "Children RSPO: 60988;60990"
            }
        },
        {
            "id": 60988,
            "type": "Feature",
            "geometry": {
                "type": "Point",
                "coordinates": [
                    23.11786,
                    52.03218
                ]
            },
            "properties": {
                "isced:level": "3",
                "ref:rspo": 60988,
                "official_name": "I Liceum Og\u00f3lnokszta\u0142c\u0105ce im. J.I. Kraszewskiego",
                "name": "I Liceum Og\u00f3lnokszta\u0142c\u0105ce",
                "addr:country": "PL",
                "addr:postcode": "21-500",
                "addr:city": "Bia\u0142a Podlaska",
                "addr:street": "J\u00f3zefa Ignacego Kraszewskiego",
                "addr:housenumber": "1",
                "addr:teryt:simc": 9871,
                "addr:teryt:sym_ul": 922018,
                "contact:phone": "+48 833416751",
                "contact:email": "kraszak@bialapodl.pl",
                "contact:website": "http:\/\/www.kraszak.bialapodl.pl",
                "ref:regon": "000713697",
                "operator": "Gmina Miejska Bia\u0142a Podlaska",
                "operator:type": "government",
                "amenity": "school",
                "note": "Parent RSPO: 34690"
            }
        },
        {
            "id": 60990,
            "type": "Feature",
            "geometry": {
                "type": "Point",
                "coordinates": [
                    23.11786,
                    52.03215
                ]
            },
            "properties": {
                "isced:level": "3",
                "ref:rspo": 60990,
                "official_name": "I Liceum Og\u00f3lnokszta\u0142c\u0105ce dla Doros\u0142ych",
                "name": "I Liceum Og\u00f3lnokszta\u0142c\u0105ce dla Doros\u0142ych",
                "addr:country": "PL",
                "addr:postcode": "21-500",
                "addr:city": "Bia\u0142a Podlaska",
                "addr:street": "J\u00f3zefa Ignacego Kraszewskiego",
                "addr:housenumber": "1",
                "addr:teryt:simc": 9871,
                "addr:teryt:sym_ul": 922018,
                "contact:phone": "+48 833416751",
                "contact:email": "kraszak@bialapodl.pl",
                "contact:website": "http:\/\/www.kraszak.bialapodl.pl",
                "ref:regon": "030932588",
                "operator": "Gmina Miejska Bia\u0142a Podlaska",
                "operator:type": "government",
                "amenity": "school",
                "note": "Parent RSPO: 34690"
            }
        },
        {
            "id": 60996,
            "type": "Feature",
            "geometry": {
                "type": "Point",
                "coordinates": [
                    23.12158,
                    52.03235
                ]
            },
            "properties": {
                "isced:level": "1;2",
                "ref:rspo": 60996,
                "official_name": "Szko\u0142a Podstawowa Nr 1 im. Ks. Stanis\u0142awa Brz\u00f3ski",
                "name": "Szko\u0142a Podstawowa Nr 1",
                "addr:country": "PL",
                "addr:postcode": "21-500",
                "addr:city": "Bia\u0142a Podlaska",
                "addr:street": "Gabriela Narutowicza",
                "addr:housenumber": "41",
                "addr:teryt:simc": 14018,
                "addr:teryt:sym_ul": 922018,
                "contact:phone": "+48 833416475",
                "contact:email": "sekretariat.sp1@platerka.pl",
                "contact:website": "https:\/\/platerka.pl\/sp",
                "ref:regon": "000713556",
                "operator": "Gmina Miejska Bia\u0142a Podlaska",
                "operator:type": "government",
                "amenity": "school",
                "note": "Parent RSPO: 34692"
            }
        },
        {
            "id": 29747,
            "type": "Feature",
            "geometry": {
                "type": "Point",
                "coordinates": [
                    23.10458,
                    52.03266
                ]
            },
            "properties": {
                "ref:rspo": 29747,
                "official_name": "Przedszkole Samorz\u0105dowe Nr 3 im. Marii Kownackiej",
                "name": "Przedszkole Samorz\u0105dowe Nr 3",
                "addr:country": "PL",
                "addr:postcode": "21-500",
                "addr:city": "Bia\u0142a Podlaska",
                "addr:street": "Warszawska",
                "addr:housenumber": "19C",
                "addr:teryt:simc": 23682,
                "addr:teryt:sym_ul": 922018,
                "contact:phone": "+48 833416416",
                "contact:email": "ps3@poczta.onet.pl",
                "ref:regon": "030002352",
                "ref:vatin": "PL5371963014",
                "operator": "Gmina Miejska Bia\u0142a Podlaska",
                "operator:type": "government",
                "amenity": "kindergarten"
            }
        },
        {
            "id": 54467,
            "type": "Feature",
            "geometry": {
                "type": "Point",
                "coordinates": [
                    23.1209,
                    52.0334999
                ]
            },
            "properties": {
                "isced:level": "4",
                "ref:rspo": 54467,
                "official_name": "Centrum Kszta\u0142cenia Plejada Szko\u0142a Policealna Novum",
                "name": "Centrum Kszta\u0142cenia Plejada Szko\u0142a Policealna Novum",
                "addr:country": "PL",
                "addr:postcode": "21-500",
                "addr:city": "Bia\u0142a Podlaska",
                "addr:street": "Jatkowa",
                "addr:housenumber": "4",
                "addr:teryt:simc": 7385,
                "addr:teryt:sym_ul": 922018,
                "contact:phone": "+48 669477677",
                "contact:email": "biala.plejada@op.pl",
                "contact:website": "http:\/\/www.plejada.edu.pl",
                "ref:regon": "061485406",
                "operator": "Bo\u017cena Sugalska",
                "operator:type": "private",
                "amenity": "college"
            }
        },
        {
            "id": 56254,
            "type": "Feature",
            "geometry": {
                "type": "Point",
                "coordinates": [
                    23.12035,
                    52.03362
                ]
            },
            "properties": {
                "isced:level": "3",
                "ref:rspo": 56254,
                "official_name": "Liceum Og\u00f3lnokszta\u0142c\u0105ce dla Doros\u0142ych \u017bak w Bia\u0142ej Podlaskiej",
                "name": "Liceum Og\u00f3lnokszta\u0142c\u0105ce dla Doros\u0142ych \u017bak w Bia\u0142ej Podlaskiej",
                "addr:country": "PL",
                "addr:postcode": "21-500",
                "addr:city": "Bia\u0142a Podlaska",
                "addr:street": "Plac Wolno\u015bci",
                "addr:housenumber": "20-22",
                "addr:teryt:simc": 16414,
                "addr:teryt:sym_ul": 922018,
                "contact:phone": "+48 833438118",
                "contact:email": "bialapodlaska@zak.edu.pl",
                "contact:website": "http:\/\/www.zak.edu.pl",
                "ref:regon": "061485843",
                "operator": "Centrum Nauki I Biznesu \"\u017bak\" Sp\u00f3\u0142ka Z Ograniczon\u0105 Odpowiedzialno\u015bci\u0105",
                "operator:type": "private",
                "amenity": "school"
            }
        },
        {
            "id": 56257,
            "type": "Feature",
            "geometry": {
                "type": "Point",
                "coordinates": [
                    23.12035,
                    52.03359
                ]
            },
            "properties": {
                "isced:level": "4",
                "ref:rspo": 56257,
                "official_name": "Szko\u0142a Policealna Centrum Nauki I Biznesu \u017bak w Bia\u0142ej Podlaskiej",
                "name": "Szko\u0142a Policealna Centrum Nauki I Biznesu \u017bak w Bia\u0142ej Podlaskiej",
                "addr:country": "PL",
                "addr:postcode": "21-500",
                "addr:city": "Bia\u0142a Podlaska",
                "addr:street": "Plac Wolno\u015bci",
                "addr:housenumber": "20-22",
                "addr:teryt:simc": 16414,
                "addr:teryt:sym_ul": 922018,
                "contact:phone": "+48 833438118",
                "contact:email": "bialapodlaska@zak.edu.pl",
                "contact:website": "http:\/\/www.zak.edu.pl",
                "ref:regon": "061485872",
                "operator": "Centrum Nauki I Biznesu \"\u017bak\" Sp\u00f3\u0142ka Z Ograniczon\u0105 Odpowiedzialno\u015bci\u0105",
                "operator:type": "private",
                "amenity": "college"
            }
        },
        {
            "id": 58596,
            "type": "Feature",
            "geometry": {
                "type": "Point",
                "coordinates": [
                    23.12035,
                    52.03356
                ]
            },
            "properties": {
                "ref:rspo": 58596,
                "official_name": "O\u015brodek Szkoleniowy Centrum Nauki I Biznesu \u017bak",
                "name": "O\u015brodek Szkoleniowy Centrum Nauki I Biznesu \u017bak",
                "addr:country": "PL",
                "addr:postcode": "21-500",
                "addr:city": "Bia\u0142a Podlaska",
                "addr:street": "Plac Wolno\u015bci",
                "addr:housenumber": "20-22",
                "addr:teryt:simc": 16414,
                "addr:teryt:sym_ul": 922018,
                "contact:phone": "+48 833438118",
                "contact:email": "bialapodlaska@zak.edu.pl",
                "contact:website": "http:\/\/www.zak.edu.pl",
                "ref:regon": "061486009",
                "operator": "Centrum Nauki I Biznesu \"\u017bak\" Sp\u00f3\u0142ka Z Ograniczon\u0105 Odpowiedzialno\u015bci\u0105",
                "operator:type": "private",
                "fixme": "w zale\u017cno\u015bci od przedmiotu dzia\u0142alno\u015bci (np. amenity=training + training=*, amenity=dancing_school, amenity=language_school, amenity=music_school)"
            }
        },
        {
            "id": 128490,
            "type": "Feature",
            "geometry": {
                "type": "Point",
                "coordinates": [
                    23.12035,
                    52.03353
                ]
            },
            "properties": {
                "isced:level": "4",
                "ref:rspo": 128490,
                "official_name": "Szko\u0142a Policealna Opieki Medycznej \u017bak w Bia\u0142ej Podlaskiej",
                "name": "Szko\u0142a Policealna Opieki Medycznej \u017bak w Bia\u0142ej Podlaskiej",
                "addr:country": "PL",
                "addr:postcode": "21-500",
                "addr:city": "Bia\u0142a Podlaska",
                "addr:street": "Plac Wolno\u015bci",
                "addr:housenumber": "20-22",
                "addr:teryt:simc": 16414,
                "addr:teryt:sym_ul": 922018,
                "contact:phone": "+48 833438118",
                "contact:email": "bialapodlaska@zak.edu.pl",
                "contact:website": "http:\/\/www.zak.edu.pl",
                "ref:regon": "362301818",
                "operator": "Centrum Nauki I Biznesu \"\u017bak\" Sp\u00f3\u0142ka Z Ograniczon\u0105 Odpowiedzialno\u015bci\u0105",
                "operator:type": "private",
                "amenity": "college"
            }
        },
        {
            "id": 128491,
            "type": "Feature",
            "geometry": {
                "type": "Point",
                "coordinates": [
                    23.12035,
                    52.0335
                ]
            },
            "properties": {
                "isced:level": "4",
                "ref:rspo": 128491,
                "official_name": "Szko\u0142a Policealna Medyczna \u017bak w Bia\u0142ej Podlaskiej",
                "name": "Szko\u0142a Policealna Medyczna \u017bak w Bia\u0142ej Podlaskiej",
                "addr:country": "PL",
                "addr:postcode": "21-500",
                "addr:city": "Bia\u0142a Podlaska",
                "addr:street": "Plac Wolno\u015bci",
                "addr:housenumber": "20-22",
                "addr:teryt:simc": 16414,
                "addr:teryt:sym_ul": 922018,
                "contact:phone": "+48 833438118",
                "contact:email": "bialapodlaska@zak.edu.pl",
                "contact:website": "http:\/\/www.zak.edu.pl",
                "ref:regon": "362301853",
                "operator": "Centrum Nauki I Biznesu \"\u017bak\" Sp\u00f3\u0142ka Z Ograniczon\u0105 Odpowiedzialno\u015bci\u0105",
                "operator:type": "private",
                "amenity": "college"
            }
        },
        {
            "id": 131682,
            "type": "Feature",
            "geometry": {
                "type": "Point",
                "coordinates": [
                    23.12035,
                    52.03347
                ]
            },
            "properties": {
                "isced:level": "4",
                "ref:rspo": 131682,
                "official_name": "Publiczna Szko\u0142a Policealna Kosmetyczna \u017bak w Bia\u0142ej Podlaskiej",
                "name": "Publiczna Szko\u0142a Policealna Kosmetyczna \u017bak w Bia\u0142ej Podlaskiej",
                "addr:country": "PL",
                "addr:postcode": "21-500",
                "addr:city": "Bia\u0142a Podlaska",
                "addr:street": "Plac Wolno\u015bci",
                "addr:housenumber": "20-22",
                "addr:teryt:simc": 16414,
                "addr:teryt:sym_ul": 922018,
                "contact:phone": "+48 833438118",
                "contact:email": "bialapodlaska@zak.edu.pl",
                "contact:website": "http:\/\/www.zak.edu.pl",
                "ref:regon": "365326807",
                "operator": "Centrum Nauki I Biznesu \"\u017bak\" Sp\u00f3\u0142ka Z Ograniczon\u0105 Odpowiedzialno\u015bci\u0105",
                "operator:type": "private",
                "amenity": "college"
            }
        },
        {
            "id": 277826,
            "type": "Feature",
            "geometry": {
                "type": "Point",
                "coordinates": [
                    23.12035,
                    52.03344
                ]
            },
            "properties": {
                "isced:level": "4",
                "ref:rspo": 277826,
                "official_name": "Szko\u0142a Policealna Stomatologiczna \"\u017bak\"",
                "name": "Szko\u0142a Policealna Stomatologiczna \"\u017bak\"",
                "addr:country": "PL",
                "addr:postcode": "21-500",
                "addr:city": "Bia\u0142a Podlaska",
                "addr:street": "Plac Wolno\u015bci",
                "addr:housenumber": "20-22",
                "addr:teryt:simc": 16414,
                "addr:teryt:sym_ul": 922018,
                "contact:phone": "+48 426770707",
                "contact:email": "bialapodlaska@zak.edu.pl",
                "ref:regon": "389566160",
                "operator": "Centrum Nauki I Biznesu \"\u017bak\" Sp\u00f3\u0142ka Z Ograniczon\u0105 Odpowiedzialno\u015bci\u0105",
                "operator:type": "private",
                "amenity": "college"
            }
        },
        {
            "id": 106407,
            "type": "Feature",
            "geometry": {
                "type": "Point",
                "coordinates": [
                    23.11774,
                    52.03379
                ]
            },
            "properties": {
                "ref:rspo": 106407,
                "official_name": "Prywatna Szko\u0142a Muzyczna I St. w Bia\u0142ej Podlaskiej",
                "name": "Prywatna Szko\u0142a Muzyczna I St. w Bia\u0142ej Podlaskiej",
                "addr:country": "PL",
                "addr:postcode": "21-500",
                "addr:city": "Bia\u0142a Podlaska",
                "addr:street": "Kr\u00f3tka",
                "addr:housenumber": "3",
                "addr:teryt:simc": 10009,
                "addr:teryt:sym_ul": 922018,
                "contact:phone": "+48 514987713",
                "contact:email": "psm.irenamiszula@gmail.com",
                "ref:regon": "061508432",
                "operator": "Irena Miszu\u0142a",
                "operator:type": "private",
                "amenity": "music_school"
            }
        },
        {
            "id": 109279,
            "type": "Feature",
            "geometry": {
                "type": "Point",
                "coordinates": [
                    23.11774,
                    52.03376
                ]
            },
            "properties": {
                "ref:rspo": 109279,
                "official_name": "Prywatna Szko\u0142a Muzyczna II St. w Bia\u0142ej Podlaskiej",
                "name": "Prywatna Szko\u0142a Muzyczna II St. w Bia\u0142ej Podlaskiej",
                "addr:country": "PL",
                "addr:postcode": "21-500",
                "addr:city": "Bia\u0142a Podlaska",
                "addr:street": "Kr\u00f3tka",
                "addr:housenumber": "3",
                "addr:teryt:simc": 10009,
                "addr:teryt:sym_ul": 922018,
                "contact:phone": "+48 514987713",
                "contact:email": "psm.irenamiszula@gmail.com",
                "ref:regon": "061517365",
                "operator": "Irena Miszu\u0142a",
                "operator:type": "private",
                "amenity": "music_school"
            }
        },
        {
            "id": 56086,
            "type": "Feature",
            "geometry": {
                "type": "Point",
                "coordinates": [
                    23.09739,
                    52.03505
                ]
            },
            "properties": {
                "isced:level": "1;2",
                "ref:rspo": 56086,
                "official_name": "Szko\u0142a Podstawowa Specjalna dla Dzieci Z Autyzmem I Niepe\u0142nosprawno\u015bciami Sprz\u0119\u017conymi",
                "name": "Szko\u0142a Podstawowa Specjalna dla Dzieci Z Autyzmem I Niepe\u0142nosprawno\u015bciami Sprz\u0119\u017conymi",
                "addr:country": "PL",
                "addr:postcode": "21-500",
                "addr:city": "Bia\u0142a Podlaska",
                "addr:street": "Pokoju",
                "addr:housenumber": "22",
                "addr:teryt:simc": 16942,
                "addr:teryt:sym_ul": 922018,
                "contact:phone": "+48 509846511",
                "contact:email": "sekretariat@wspolnyswiat.org",
                "contact:website": "http:\/\/www.wspolnyswiat.org",
                "ref:regon": "061484660",
                "operator": "Stowarzyszenie Pomocy M\u0142odzie\u017cy I Dzieciom Autystycznym Oraz M\u0142odzie\u017cy I Dzieciom O Pokrewnych Zaburzeniach \"Wsp\u00f3lny \u015awiat\"",
                "operator:type": "ngo",
                "amenity": "school"
            }
        },
        {
            "id": 54466,
            "type": "Feature",
            "geometry": {
                "type": "Point",
                "coordinates": [
                    23.12978,
                    52.03516
                ]
            },
            "properties": {
                "isced:level": "4",
                "ref:rspo": 54466,
                "official_name": "Szko\u0142a Policealna Kursor",
                "name": "Szko\u0142a Policealna Kursor",
                "addr:country": "PL",
                "addr:postcode": "21-500",
                "addr:city": "Bia\u0142a Podlaska",
                "addr:street": "Gabriela Narutowicza",
                "addr:housenumber": "66",
                "addr:teryt:simc": 14018,
                "addr:teryt:sym_ul": 922018,
                "contact:phone": "+48 833422578",
                "contact:email": "studium.bialapodlaska@kursor.edu.pl",
                "contact:website": "http:\/\/www.kursor.edu.pl",
                "ref:regon": "061485375",
                "operator": "Piotr Wasak",
                "operator:type": "private",
                "amenity": "college"
            }
        },
        {
            "id": 60467,
            "type": "Feature",
            "geometry": {
                "type": "Point",
                "coordinates": [
                    23.12978,
                    52.035129999999995
                ]
            },
            "properties": {
                "ref:rspo": 60467,
                "official_name": "O\u015brodek Szkolenia Dokszta\u0142cania I Doskonalenia Kadr Kursor",
                "name": "O\u015brodek Szkolenia Dokszta\u0142cania I Doskonalenia Kadr Kursor",
                "addr:country": "PL",
                "addr:postcode": "21-500",
                "addr:city": "Bia\u0142a Podlaska",
                "addr:street": "Gabriela Narutowicza",
                "addr:housenumber": "66",
                "addr:teryt:simc": 14018,
                "addr:teryt:sym_ul": 922018,
                "contact:phone": "+48 833422578",
                "contact:email": "szkolenia.bialapodlaska@kursor.edu.pl",
                "contact:website": "http:\/\/www.kursor.edu.pl",
                "ref:regon": "061485990",
                "operator": "Piotr Wasak",
                "operator:type": "private",
                "fixme": "w zale\u017cno\u015bci od przedmiotu dzia\u0142alno\u015bci (np. amenity=training + training=*, amenity=dancing_school, amenity=language_school, amenity=music_school)"
            }
        },
        {
            "id": 273619,
            "type": "Feature",
            "geometry": {
                "type": "Point",
                "coordinates": [
                    23.12299,
                    52.03608
                ]
            },
            "properties": {
                "ref:rspo": 273619,
                "official_name": "Niepubliczna Poradnia Psychologiczno-Pedagogiczna- Centrum Psychoterapii I Rozwoju \"Lustro\"",
                "name": "Niepubliczna Poradnia Psychologiczno-Pedagogiczna- Centrum Psychoterapii I Rozwoju \"Lustro\"",
                "addr:country": "PL",
                "addr:postcode": "21-500",
                "addr:city": "Bia\u0142a Podlaska",
                "addr:street": "Stanis\u0142awa Moniuszki",
                "addr:housenumber": "28",
                "addr:teryt:simc": 13246,
                "addr:teryt:sym_ul": 922018,
                "contact:phone": "+48 578604204",
                "contact:email": "biuro@psycholog-online.info",
                "contact:website": "http:\/\/www.psychologbialapodlaska.pl",
                "ref:regon": "384522940",
                "operator": "Jadwiga Hornowska",
                "operator:type": "private",
                "healthcare": "counselling",
                "counselling_type": "education",
                "fixme": "w zale\u017cno\u015bci od przedmiotu dzia\u0142alno\u015bci (np. healthcare=counselling + counselling_type=education albo healthcare=psychotherapist)"
            }
        },
        {
            "id": 34685,
            "type": "Feature",
            "geometry": {
                "type": "Point",
                "coordinates": [
                    23.12399,
                    52.03644
                ]
            },
            "properties": {
                "isced:level": "1;2",
                "ref:rspo": 34685,
                "official_name": "Szko\u0142a Podstawowa Nr 4 im. Kornela Makuszy\u0144skiego w Bia\u0142ej Podlaskiej",
                "name": "Szko\u0142a Podstawowa Nr 4",
                "addr:country": "PL",
                "addr:postcode": "21-500",
                "addr:city": "Bia\u0142a Podlaska",
                "addr:street": "Stanis\u0142awa Moniuszki",
                "addr:housenumber": "36",
                "addr:teryt:simc": 13246,
                "addr:teryt:sym_ul": 922018,
                "contact:phone": "+48 833416791",
                "contact:email": "sp4bp@interia.pl",
                "contact:website": "http:\/\/www.sp4bp.pl",
                "ref:regon": "000713585",
                "ref:vatin": "PL5371676616",
                "operator": "Gmina Miejska Bia\u0142a Podlaska",
                "operator:type": "government",
                "amenity": "school"
            }
        },
        {
            "id": 34694,
            "type": "Feature",
            "geometry": {
                "type": "Point",
                "coordinates": [
                    23.11249,
                    52.03702
                ]
            },
            "properties": {
                "ref:rspo": 34694,
                "official_name": "Zesp\u00f3\u0142 Szk\u00f3\u0142 Zawodowych Nr 1 im. Komisji Edukacji Narodowej w Bia\u0142ej Podlaskiej",
                "name": "Zesp\u00f3\u0142 Szk\u00f3\u0142 Zawodowych Nr 1",
                "addr:country": "PL",
                "addr:postcode": "21-500",
                "addr:city": "Bia\u0142a Podlaska",
                "addr:street": "Marsza\u0142ka J\u00f3zefa Pi\u0142sudskiego",
                "addr:housenumber": "36",
                "addr:teryt:simc": 36029,
                "addr:teryt:sym_ul": 922018,
                "contact:phone": "+48 833416787",
                "contact:email": "sekretariat@zsz1.edu.pl",
                "contact:website": "http:\/\/www.zsz1.edu.pl",
                "ref:regon": "000178933",
                "ref:vatin": "PL5371154467",
                "operator": "Gmina Miejska Bia\u0142a Podlaska",
                "operator:type": "government",
                "landuse": "education",
                "fixme": "amenity=school, amenity=college albo landuse=education w zale\u017cno\u015bci od tego, jakie plac\u00f3wki wchodz\u0105 w sk\u0142ad zespo\u0142u. Sprawd\u017a, kiedy stosowa\u0107 amenity=* a kiedy landuse=education.",
                "note": "Children RSPO: 61008;61010;61012;61013;128831"
            }
        },
        {
            "id": 61008,
            "type": "Feature",
            "geometry": {
                "type": "Point",
                "coordinates": [
                    23.11249,
                    52.036989999999996
                ]
            },
            "properties": {
                "isced:level": "3",
                "ref:rspo": 61008,
                "official_name": "Technikum Nr 1",
                "name": "Technikum Nr 1",
                "addr:country": "PL",
                "addr:postcode": "21-500",
                "addr:city": "Bia\u0142a Podlaska",
                "addr:street": "Marsza\u0142ka J\u00f3zefa Pi\u0142sudskiego",
                "addr:housenumber": "36",
                "addr:teryt:simc": 36029,
                "addr:teryt:sym_ul": 922018,
                "contact:phone": "+48 833416787",
                "contact:email": "sekretariat@zsz1.edu.pl",
                "contact:website": "http:\/\/www.zsz1.edu.pl",
                "ref:regon": "030888054",
                "operator": "Gmina Miejska Bia\u0142a Podlaska",
                "operator:type": "government",
                "amenity": "school",
                "note": "Parent RSPO: 34694"
            }
        },
        {
            "id": 61010,
            "type": "Feature",
            "geometry": {
                "type": "Point",
                "coordinates": [
                    23.11249,
                    52.03696
                ]
            },
            "properties": {
                "isced:level": "3",
                "ref:rspo": 61010,
                "official_name": "Bran\u017cowa Szko\u0142a I Stopnia Nr 1",
                "name": "Bran\u017cowa Szko\u0142a I Stopnia Nr 1",
                "addr:country": "PL",
                "addr:postcode": "21-500",
                "addr:city": "Bia\u0142a Podlaska",
                "addr:street": "Marsza\u0142ka J\u00f3zefa Pi\u0142sudskiego",
                "addr:housenumber": "36",
                "addr:teryt:simc": 36029,
                "addr:teryt:sym_ul": 922018,
                "contact:phone": "+48 833416787",
                "contact:email": "sekretariat@zsz1.edu.pl",
                "contact:website": "http:\/\/www.zsz1.edu.pl",
                "ref:regon": "030888077",
                "operator": "Gmina Miejska Bia\u0142a Podlaska",
                "operator:type": "government",
                "amenity": "school",
                "note": "Parent RSPO: 34694"
            }
        },
        {
            "id": 61012,
            "type": "Feature",
            "geometry": {
                "type": "Point",
                "coordinates": [
                    23.11249,
                    52.03693
                ]
            },
            "properties": {
                "isced:level": "4",
                "ref:rspo": 61012,
                "official_name": "Szko\u0142a Policealna Zaoczna",
                "name": "Szko\u0142a Policealna Zaoczna",
                "addr:country": "PL",
                "addr:postcode": "21-500",
                "addr:city": "Bia\u0142a Podlaska",
                "addr:street": "Marsza\u0142ka J\u00f3zefa Pi\u0142sudskiego",
                "addr:housenumber": "36",
                "addr:teryt:simc": 36029,
                "addr:teryt:sym_ul": 922018,
                "contact:phone": "+48 833416787",
                "contact:email": "sekretariat@zsz1.edu.pl",
                "contact:website": "http:\/\/www.zsz1.edu.pl",
                "ref:regon": "030309168",
                "operator": "Gmina Miejska Bia\u0142a Podlaska",
                "operator:type": "government",
                "amenity": "college",
                "note": "Parent RSPO: 34694"
            }
        },
        {
            "id": 61013,
            "type": "Feature",
            "geometry": {
                "type": "Point",
                "coordinates": [
                    23.11249,
                    52.036899999999996
                ]
            },
            "properties": {
                "ref:rspo": 61013,
                "official_name": "Centrum Kszta\u0142cenia Ustawicznego",
                "name": "Centrum Kszta\u0142cenia Ustawicznego",
                "addr:country": "PL",
                "addr:postcode": "21-500",
                "addr:city": "Bia\u0142a Podlaska",
                "addr:street": "Marsza\u0142ka J\u00f3zefa Pi\u0142sudskiego",
                "addr:housenumber": "36",
                "addr:teryt:simc": 36029,
                "addr:teryt:sym_ul": 922018,
                "contact:phone": "+48 833416787",
                "contact:email": "sekretariat@zsz1.edu.pl",
                "contact:website": "http:\/\/www.zsz1.edu.pl",
                "ref:regon": "061479311",
                "operator": "Gmina Miejska Bia\u0142a Podlaska",
                "operator:type": "government",
                "fixme": "w zale\u017cno\u015bci od przedmiotu dzia\u0142alno\u015bci (np. amenity=training + training=*, amenity=dancing_school, amenity=language_school, amenity=music_school)",
                "note": "Parent RSPO: 34694"
            }
        },
        {
            "id": 128831,
            "type": "Feature",
            "geometry": {
                "type": "Point",
                "coordinates": [
                    23.11249,
                    52.03687
                ]
            },
            "properties": {
                "isced:level": "3",
                "ref:rspo": 128831,
                "official_name": "Iii Liceum Og\u00f3lnokszta\u0142c\u0105ce dla Doros\u0142ych",
                "name": "Iii Liceum Og\u00f3lnokszta\u0142c\u0105ce dla Doros\u0142ych",
                "addr:country": "PL",
                "addr:postcode": "21-500",
                "addr:city": "Bia\u0142a Podlaska",
                "addr:street": "Marsza\u0142ka J\u00f3zefa Pi\u0142sudskiego",
                "addr:housenumber": "36",
                "addr:teryt:simc": 36029,
                "addr:teryt:sym_ul": 922018,
                "contact:phone": "+48 833416787",
                "contact:email": "sekretariat@zsz1.edu.pl",
                "contact:website": "http:\/\/www.zsz1.edu.pl",
                "ref:regon": "362407050",
                "operator": "Gmina Miejska Bia\u0142a Podlaska",
                "operator:type": "government",
                "amenity": "school",
                "note": "Parent RSPO: 34694"
            }
        },
        {
            "id": 34693,
            "type": "Feature",
            "geometry": {
                "type": "Point",
                "coordinates": [
                    23.10025,
                    52.0371
                ]
            },
            "properties": {
                "ref:rspo": 34693,
                "official_name": "Zesp\u00f3\u0142 Szk\u00f3\u0142 Og\u00f3lnokszta\u0142c\u0105cych Nr 4 w Bia\u0142ej Podlaskiej",
                "name": "Zesp\u00f3\u0142 Szk\u00f3\u0142 Og\u00f3lnokszta\u0142c\u0105cych Nr 4 w Bia\u0142ej Podlaskiej",
                "addr:country": "PL",
                "addr:postcode": "21-500",
                "addr:city": "Bia\u0142a Podlaska",
                "addr:street": "Akademicka",
                "addr:housenumber": "8",
                "addr:teryt:simc": 160,
                "addr:teryt:sym_ul": 922018,
                "contact:phone": "+48 833416781",
                "contact:email": "staszicbiala@wp.pl",
                "contact:website": "http:\/\/www.staszicbiala.pl",
                "ref:regon": "061113981",
                "ref:vatin": "PL5372616993",
                "operator": "Gmina Miejska Bia\u0142a Podlaska",
                "operator:type": "government",
                "landuse": "education",
                "fixme": "amenity=school, amenity=college albo landuse=education w zale\u017cno\u015bci od tego, jakie plac\u00f3wki wchodz\u0105 w sk\u0142ad zespo\u0142u. Sprawd\u017a, kiedy stosowa\u0107 amenity=* a kiedy landuse=education.",
                "note": "Children RSPO: 29754;32051;61001"
            }
        },
        {
            "id": 29754,
            "type": "Feature",
            "geometry": {
                "type": "Point",
                "coordinates": [
                    23.10025,
                    52.03707
                ]
            },
            "properties": {
                "ref:rspo": 29754,
                "official_name": "Przedszkole Samorz\u0105dowe Nr 15 im. Juliana Tuwima",
                "name": "Przedszkole Samorz\u0105dowe Nr 15",
                "addr:country": "PL",
                "addr:postcode": "21-500",
                "addr:city": "Bia\u0142a Podlaska",
                "addr:street": "Akademicka",
                "addr:housenumber": "8",
                "addr:teryt:simc": 160,
                "addr:teryt:sym_ul": 922018,
                "contact:phone": "+48 833416767",
                "contact:email": "przed15@poczta.onet.pl",
                "contact:website": "http:\/\/www.pietnastka.edu.pl",
                "ref:regon": "030002470",
                "ref:vatin": "PL5371963304",
                "operator": "Gmina Miejska Bia\u0142a Podlaska",
                "operator:type": "government",
                "amenity": "kindergarten",
                "note": "Parent RSPO: 34693"
            }
        },
        {
            "id": 32051,
            "type": "Feature",
            "geometry": {
                "type": "Point",
                "coordinates": [
                    23.10025,
                    52.037040000000005
                ]
            },
            "properties": {
                "isced:level": "1;2",
                "ref:rspo": 32051,
                "official_name": "Szko\u0142a Podstawowa Nr 2 im. Bohaterskich Lotnik\u00f3w Podlasia",
                "name": "Szko\u0142a Podstawowa Nr 2",
                "addr:country": "PL",
                "addr:postcode": "21-500",
                "addr:city": "Bia\u0142a Podlaska",
                "addr:street": "Akademicka",
                "addr:housenumber": "8",
                "addr:teryt:simc": 160,
                "addr:teryt:sym_ul": 922018,
                "contact:phone": "+48 833416765",
                "contact:email": "sp2bialapodlaska@wp.pl",
                "contact:website": "http:\/\/www.sp2-biala-podlaska.eu",
                "ref:regon": "000713562",
                "ref:vatin": "PL5371678093",
                "operator": "Gmina Miejska Bia\u0142a Podlaska",
                "operator:type": "government",
                "amenity": "school",
                "note": "Parent RSPO: 34693"
            }
        },
        {
            "id": 61001,
            "type": "Feature",
            "geometry": {
                "type": "Point",
                "coordinates": [
                    23.10025,
                    52.03701
                ]
            },
            "properties": {
                "isced:level": "3",
                "ref:rspo": 61001,
                "official_name": "Iv Liceum Og\u00f3lnokszta\u0142c\u0105ce im. Stanis\u0142awa Staszica",
                "name": "Iv Liceum Og\u00f3lnokszta\u0142c\u0105ce",
                "addr:country": "PL",
                "addr:postcode": "21-500",
                "addr:city": "Bia\u0142a Podlaska",
                "addr:street": "Akademicka",
                "addr:housenumber": "8",
                "addr:teryt:simc": 160,
                "addr:teryt:sym_ul": 922018,
                "contact:phone": "+48 833416781",
                "contact:email": "staszicbiala@wp.pl",
                "contact:website": "http:\/\/www.staszicbiala.pl",
                "ref:regon": "030005310",
                "operator": "Gmina Miejska Bia\u0142a Podlaska",
                "operator:type": "government",
                "amenity": "school",
                "note": "Parent RSPO: 34693"
            }
        },
        {
            "id": 34695,
            "type": "Feature",
            "geometry": {
                "type": "Point",
                "coordinates": [
                    23.13419,
                    52.03726
                ]
            },
            "properties": {
                "ref:rspo": 34695,
                "official_name": "Zesp\u00f3\u0142 Szk\u00f3\u0142 Zawodowych Nr 2 im. Franciszka \u017bwirki I Stanis\u0142awa Wigury w Bia\u0142ej Podlaskiej",
                "name": "Zesp\u00f3\u0142 Szk\u00f3\u0142 Zawodowych Nr 2",
                "addr:country": "PL",
                "addr:postcode": "21-500",
                "addr:city": "Bia\u0142a Podlaska",
                "addr:street": "Brzeska",
                "addr:housenumber": "71",
                "addr:teryt:simc": 2230,
                "addr:teryt:sym_ul": 922018,
                "contact:phone": "+48 833416773",
                "contact:email": "zsz2bp@o2.pl",
                "contact:website": "http:\/\/www.zsz2.bialapodlaska.pl",
                "ref:regon": "000179170",
                "ref:vatin": "PL5371675284",
                "operator": "Gmina Miejska Bia\u0142a Podlaska",
                "operator:type": "government",
                "landuse": "education",
                "fixme": "amenity=school, amenity=college albo landuse=education w zale\u017cno\u015bci od tego, jakie plac\u00f3wki wchodz\u0105 w sk\u0142ad zespo\u0142u. Sprawd\u017a, kiedy stosowa\u0107 amenity=* a kiedy landuse=education.",
                "note": "Children RSPO: 61014;61015;61017;61018;128833"
            }
        },
        {
            "id": 61014,
            "type": "Feature",
            "geometry": {
                "type": "Point",
                "coordinates": [
                    23.13419,
                    52.03723
                ]
            },
            "properties": {
                "isced:level": "3",
                "ref:rspo": 61014,
                "official_name": "Technikum Nr 2",
                "name": "Technikum Nr 2",
                "addr:country": "PL",
                "addr:postcode": "21-500",
                "addr:city": "Bia\u0142a Podlaska",
                "addr:street": "Brzeska",
                "addr:housenumber": "71",
                "addr:teryt:simc": 2230,
                "addr:teryt:sym_ul": 922018,
                "contact:phone": "+48 833416773",
                "contact:email": "zsz2bp@o2.pl",
                "contact:website": "http:\/\/www.zsz2.bialapodlaska.pl",
                "ref:regon": "030310846",
                "operator": "Gmina Miejska Bia\u0142a Podlaska",
                "operator:type": "government",
                "amenity": "school",
                "note": "Parent RSPO: 34695"
            }
        },
        {
            "id": 61015,
            "type": "Feature",
            "geometry": {
                "type": "Point",
                "coordinates": [
                    23.13419,
                    52.037200000000006
                ]
            },
            "properties": {
                "isced:level": "3",
                "ref:rspo": 61015,
                "official_name": "Bran\u017cowa Szko\u0142a I Stopnia Nr 2",
                "name": "Bran\u017cowa Szko\u0142a I Stopnia Nr 2",
                "addr:country": "PL",
                "addr:postcode": "21-500",
                "addr:city": "Bia\u0142a Podlaska",
                "addr:street": "Brzeska",
                "addr:housenumber": "71",
                "addr:teryt:simc": 2230,
                "addr:teryt:sym_ul": 922018,
                "contact:phone": "+48 833416773",
                "contact:email": "zsz2bp@o2.pl",
                "contact:website": "http:\/\/www.zsz2.bialapodlaska.pl",
                "ref:regon": "030310823",
                "operator": "Gmina Miejska Bia\u0142a Podlaska",
                "operator:type": "government",
                "amenity": "school",
                "note": "Parent RSPO: 34695"
            }
        },
        {
            "id": 61017,
            "type": "Feature",
            "geometry": {
                "type": "Point",
                "coordinates": [
                    23.13419,
                    52.03717
                ]
            },
            "properties": {
                "ref:rspo": 61017,
                "official_name": "O\u015brodek Dokszta\u0142cania I Doskonalenia Zawodowego",
                "name": "O\u015brodek Dokszta\u0142cania I Doskonalenia Zawodowego",
                "addr:country": "PL",
                "addr:postcode": "21-500",
                "addr:city": "Bia\u0142a Podlaska",
                "addr:street": "Brzeska",
                "addr:housenumber": "71",
                "addr:teryt:simc": 2230,
                "addr:teryt:sym_ul": 922018,
                "contact:phone": "+48 833416773",
                "contact:email": "zsz2bp@o2.pl",
                "contact:website": "http:\/\/www.zsz2.bialapodlaska.pl",
                "ref:regon": "061479334",
                "operator": "Gmina Miejska Bia\u0142a Podlaska",
                "operator:type": "government",
                "fixme": "w zale\u017cno\u015bci od przedmiotu dzia\u0142alno\u015bci (np. amenity=training + training=*, amenity=dancing_school, amenity=language_school, amenity=music_school) albo amenity=school, amenity=college, albo landuse=education w zale\u017cno\u015bci od tego, jakie plac\u00f3wki wchodz\u0105 w sk\u0142ad zespo\u0142u. Sprawd\u017a, kiedy stosowa\u0107 amenity=* a kiedy landuse=education.",
                "note": "Parent RSPO: 34695"
            }
        },
        {
            "id": 61018,
            "type": "Feature",
            "geometry": {
                "type": "Point",
                "coordinates": [
                    23.13419,
                    52.03714
                ]
            },
            "properties": {
                "isced:level": "4",
                "ref:rspo": 61018,
                "official_name": "Szko\u0142a Policealna Zawodowa",
                "name": "Szko\u0142a Policealna Zawodowa",
                "addr:country": "PL",
                "addr:postcode": "21-500",
                "addr:city": "Bia\u0142a Podlaska",
                "addr:street": "Brzeska",
                "addr:housenumber": "71",
                "addr:teryt:simc": 2230,
                "addr:teryt:sym_ul": 922018,
                "contact:phone": "+48 833416773",
                "contact:email": "zsz2bp@o2.pl",
                "contact:website": "http:\/\/www.zsz2.bialapodlaska.pl",
                "ref:regon": "061479357",
                "operator": "Gmina Miejska Bia\u0142a Podlaska",
                "operator:type": "government",
                "amenity": "college",
                "note": "Parent RSPO: 34695"
            }
        },
        {
            "id": 128833,
            "type": "Feature",
            "geometry": {
                "type": "Point",
                "coordinates": [
                    23.13419,
                    52.037110000000006
                ]
            },
            "properties": {
                "isced:level": "3",
                "ref:rspo": 128833,
                "official_name": "Iv Liceum Og\u00f3lnokszta\u0142c\u0105ce dla Doros\u0142ych",
                "name": "Iv Liceum Og\u00f3lnokszta\u0142c\u0105ce dla Doros\u0142ych",
                "addr:country": "PL",
                "addr:postcode": "21-500",
                "addr:city": "Bia\u0142a Podlaska",
                "addr:street": "Brzeska",
                "addr:housenumber": "71",
                "addr:teryt:simc": 2230,
                "addr:teryt:sym_ul": 922018,
                "contact:phone": "+48 833416773",
                "contact:email": "zsz2bp@o2.pl",
                "contact:website": "http:\/\/zsz2.bialapodlaska.pl",
                "ref:regon": "362407280",
                "operator": "Gmina Miejska Bia\u0142a Podlaska",
                "operator:type": "government",
                "amenity": "school",
                "note": "Parent RSPO: 34695"
            }
        },
        {
            "id": 29750,
            "type": "Feature",
            "geometry": {
                "type": "Point",
                "coordinates": [
                    23.1221,
                    52.03764
                ]
            },
            "properties": {
                "ref:rspo": 29750,
                "official_name": "Przedszkole Samorz\u0105dowe Nr 10",
                "name": "Przedszkole Samorz\u0105dowe Nr 10",
                "addr:country": "PL",
                "addr:postcode": "21-500",
                "addr:city": "Bia\u0142a Podlaska",
                "addr:street": "Nowa",
                "addr:housenumber": "20\/24",
                "addr:teryt:simc": 14330,
                "addr:teryt:sym_ul": 922018,
                "contact:phone": "+48 833416466",
                "contact:email": "przedszkole-10@o2.pl",
                "contact:website": "http:\/\/przedszkolenr10.bialapodlaska.pl",
                "ref:regon": "030002429",
                "ref:vatin": "PL5371963244",
                "operator": "Gmina Miejska Bia\u0142a Podlaska",
                "operator:type": "government",
                "amenity": "kindergarten"
            }
        },
        {
            "id": 80103,
            "type": "Feature",
            "geometry": {
                "type": "Point",
                "coordinates": [
                    23.13142,
                    52.03839
                ]
            },
            "properties": {
                "isced:level": "3",
                "ref:rspo": 80103,
                "official_name": "Liceum Og\u00f3lnokszta\u0142c\u0105ce dla Doros\u0142ych Zak\u0142adu Doskonalenia Zawodowego",
                "name": "Liceum Og\u00f3lnokszta\u0142c\u0105ce dla Doros\u0142ych Zak\u0142adu Doskonalenia Zawodowego",
                "addr:country": "PL",
                "addr:postcode": "21-500",
                "addr:city": "Bia\u0142a Podlaska",
                "addr:street": "Aleja Jana Paw\u0142a II",
                "addr:housenumber": "97",
                "addr:teryt:simc": 33262,
                "addr:teryt:sym_ul": 922018,
                "contact:phone": "+48 833425651",
                "contact:email": "zdz@bialapodl.pl",
                "contact:website": "http:\/\/www.zdz.bialapodl.pl",
                "ref:regon": "061492040",
                "operator": "Zak\u0142ad Doskonalenia Zawodowego W Lublinie",
                "operator:type": "ngo",
                "amenity": "school"
            }
        },
        {
            "id": 80106,
            "type": "Feature",
            "geometry": {
                "type": "Point",
                "coordinates": [
                    23.13142,
                    52.03836
                ]
            },
            "properties": {
                "isced:level": "4",
                "ref:rspo": 80106,
                "official_name": "Policealne Studium Zarz\u0105dzania I Marketingu Zak\u0142adu Doskonalenia Zawodowego",
                "name": "Policealne Studium Zarz\u0105dzania I Marketingu Zak\u0142adu Doskonalenia Zawodowego",
                "addr:country": "PL",
                "addr:postcode": "21-500",
                "addr:city": "Bia\u0142a Podlaska",
                "addr:street": "Aleja Jana Paw\u0142a II",
                "addr:housenumber": "97",
                "addr:teryt:simc": 33262,
                "addr:teryt:sym_ul": 922018,
                "contact:phone": "+48 833425651",
                "contact:email": "zdz@bialapodl.pl",
                "contact:website": "http:\/\/www.zdz.bialapodl.pl",
                "ref:regon": "061492470",
                "operator": "Zak\u0142ad Doskonalenia Zawodowego W Lublinie",
                "operator:type": "ngo",
                "amenity": "college"
            }
        },
        {
            "id": 91373,
            "type": "Feature",
            "geometry": {
                "type": "Point",
                "coordinates": [
                    23.13142,
                    52.03833
                ]
            },
            "properties": {
                "isced:level": "3",
                "ref:rspo": 91373,
                "official_name": "Technikum Zdz",
                "name": "Technikum Zdz",
                "addr:country": "PL",
                "addr:postcode": "21-500",
                "addr:city": "Bia\u0142a Podlaska",
                "addr:street": "Aleja Jana Paw\u0142a II",
                "addr:housenumber": "97",
                "addr:teryt:simc": 33262,
                "addr:teryt:sym_ul": 922018,
                "contact:phone": "+48 833425651",
                "contact:email": "zdz@bialapodl.pl",
                "contact:website": "http:\/\/www.zdz.bialapodl.pl",
                "ref:regon": "061500235",
                "operator": "Zak\u0142ad Doskonalenia Zawodowego W Lublinie",
                "operator:type": "ngo",
                "amenity": "school"
            }
        },
        {
            "id": 92581,
            "type": "Feature",
            "geometry": {
                "type": "Point",
                "coordinates": [
                    23.13142,
                    52.0383
                ]
            },
            "properties": {
                "isced:level": "3",
                "ref:rspo": 92581,
                "official_name": "Liceum Og\u00f3lnokszta\u0142c\u0105ce Zdz im. Krzysztofa Kamila Baczy\u0144skiego",
                "name": "Liceum Og\u00f3lnokszta\u0142c\u0105ce Zdz",
                "addr:country": "PL",
                "addr:postcode": "21-500",
                "addr:city": "Bia\u0142a Podlaska",
                "addr:street": "Aleja Jana Paw\u0142a II",
                "addr:housenumber": "97",
                "addr:teryt:simc": 33262,
                "addr:teryt:sym_ul": 922018,
                "contact:phone": "+48 833425651",
                "contact:email": "zdz@bialapodl.pl",
                "contact:website": "http:\/\/www.zdz.bialapodl.pl",
                "ref:regon": "061498426",
                "operator": "Zak\u0142ad Doskonalenia Zawodowego W Lublinie",
                "operator:type": "ngo",
                "amenity": "school"
            }
        },
        {
            "id": 92582,
            "type": "Feature",
            "geometry": {
                "type": "Point",
                "coordinates": [
                    23.13142,
                    52.03827
                ]
            },
            "properties": {
                "isced:level": "3",
                "ref:rspo": 92582,
                "official_name": "Bran\u017cowa Szko\u0142a I Stopnia im. K. K. Baczy\u0144skiego w Bia\u0142ej Podlaskiej Zdz w Lublinie",
                "name": "Bran\u017cowa Szko\u0142a I Stopnia",
                "addr:country": "PL",
                "addr:postcode": "21-500",
                "addr:city": "Bia\u0142a Podlaska",
                "addr:street": "Aleja Jana Paw\u0142a II",
                "addr:housenumber": "97",
                "addr:teryt:simc": 33262,
                "addr:teryt:sym_ul": 922018,
                "contact:phone": "+48 833425651",
                "contact:email": "zdz@bialapodl.pl",
                "contact:website": "http:\/\/www.zdz.bialapodl.pl",
                "ref:regon": "061500229",
                "operator": "Zak\u0142ad Doskonalenia Zawodowego W Lublinie",
                "operator:type": "ngo",
                "amenity": "school"
            }
        },
        {
            "id": 114079,
            "type": "Feature",
            "geometry": {
                "type": "Point",
                "coordinates": [
                    23.13142,
                    52.03824
                ]
            },
            "properties": {
                "ref:rspo": 114079,
                "official_name": "Centrum Kszta\u0142cenia Zdz w Lublinie Oddzia\u0142 w Bia\u0142ej Podlaskiej",
                "name": "Centrum Kszta\u0142cenia Zdz w Lublinie Oddzia\u0142 w Bia\u0142ej Podlaskiej",
                "addr:country": "PL",
                "addr:postcode": "21-500",
                "addr:city": "Bia\u0142a Podlaska",
                "addr:street": "Aleja Jana Paw\u0142a II",
                "addr:housenumber": "97",
                "addr:teryt:simc": 33262,
                "addr:teryt:sym_ul": 922018,
                "contact:phone": "+48 833245651",
                "contact:email": "zdz@bialapodl.pl",
                "contact:website": "http:\/\/www.zdz.bialapodl.pl",
                "ref:regon": "061547389",
                "operator": "Zak\u0142ad Doskonalenia Zawodowego W Lublinie",
                "operator:type": "ngo",
                "fixme": "w zale\u017cno\u015bci od przedmiotu dzia\u0142alno\u015bci (np. amenity=training + training=*, amenity=dancing_school, amenity=language_school, amenity=music_school)"
            }
        },
        {
            "id": 268565,
            "type": "Feature",
            "geometry": {
                "type": "Point",
                "coordinates": [
                    23.12679,
                    52.03925
                ]
            },
            "properties": {
                "ref:rspo": 268565,
                "official_name": "Przedszkole Niepubliczne Odkrywcy",
                "name": "Przedszkole Niepubliczne Odkrywcy",
                "addr:country": "PL",
                "addr:postcode": "21-500",
                "addr:city": "Bia\u0142a Podlaska",
                "addr:street": "Stefana \u017beromskiego",
                "addr:housenumber": "52\/u1",
                "addr:teryt:simc": 26469,
                "addr:teryt:sym_ul": 922018,
                "contact:phone": "+48 502385466",
                "contact:email": "bajbakolga@gmail.com",
                "contact:website": "http:\/\/www.explorers.edu.pl",
                "ref:regon": "381203156",
                "ref:vatin": "PL5372291019",
                "operator": "Olga Bajbak",
                "operator:type": "private",
                "amenity": "kindergarten"
            }
        },
        {
            "id": 269942,
            "type": "Feature",
            "geometry": {
                "type": "Point",
                "coordinates": [
                    23.17096,
                    52.04165
                ]
            },
            "properties": {
                "ref:rspo": 269942,
                "official_name": "Szko\u0142a Specjalna Przysposabiaj\u0105ca Do Pracy \"Wsp\u00f3lny \u015awiat\" w Bia\u0142ej Podlaskiej",
                "name": "Szko\u0142a Specjalna Przysposabiaj\u0105ca Do Pracy \"Wsp\u00f3lny \u015awiat\" w Bia\u0142ej Podlaskiej",
                "addr:country": "PL",
                "addr:postcode": "21-500",
                "addr:city": "Bia\u0142a Podlaska",
                "addr:street": "Powsta\u0144c\u00f3w",
                "addr:housenumber": "4 c\/ 3b",
                "addr:teryt:simc": 17354,
                "addr:teryt:sym_ul": 922018,
                "contact:phone": "+48 509844511",
                "contact:email": "sekretariat@wspolnyswiat.org",
                "ref:regon": "381876659",
                "operator": "Stowarzyszenie Pomocy M\u0142odzie\u017cy I Dzieciom Autystycznym Oraz M\u0142odzie\u017cy I Dzieciom O Pokrewnych Zaburzeniach \"Wsp\u00f3lny \u015awiat\"",
                "operator:type": "ngo",
                "amenity": "school"
            }
        },
        {
            "id": 131712,
            "type": "Feature",
            "geometry": {
                "type": "Point",
                "coordinates": [
                    23.12418,
                    52.04175
                ]
            },
            "properties": {
                "isced:level": "1;2",
                "ref:rspo": 131712,
                "official_name": "Niepubliczna Szko\u0142a Podstawowa im. Janusza Korczaka w Bia\u0142ej Podlaskiej",
                "name": "Niepubliczna Szko\u0142a Podstawowa",
                "addr:country": "PL",
                "addr:postcode": "21-500",
                "addr:city": "Bia\u0142a Podlaska",
                "addr:street": "Kasztanowa",
                "addr:housenumber": "6",
                "addr:teryt:simc": 8171,
                "addr:teryt:sym_ul": 922018,
                "contact:phone": "+48 731530830",
                "contact:email": "szkola@ananas.edu.pl",
                "contact:website": "http:\/\/ananas.edu.pl",
                "ref:regon": "365336013",
                "operator": "Edukacja Asp Sp\u00f3\u0142ka Z Ograniczon\u0105 Odpowiedzialno\u015bci\u0105",
                "operator:type": "private",
                "amenity": "school"
            }
        },
        {
            "id": 269941,
            "type": "Feature",
            "geometry": {
                "type": "Point",
                "coordinates": [
                    23.12418,
                    52.04172
                ]
            },
            "properties": {
                "ref:rspo": 269941,
                "official_name": "Niepubliczne Przedszkole \"Ananasek\"",
                "name": "Niepubliczne Przedszkole \"Ananasek\"",
                "addr:country": "PL",
                "addr:postcode": "21-500",
                "addr:city": "Bia\u0142a Podlaska",
                "addr:street": "Kasztanowa",
                "addr:housenumber": "6",
                "addr:teryt:simc": 8171,
                "addr:teryt:sym_ul": 922018,
                "contact:phone": "+48 570450140",
                "contact:email": "przedszkole.ananasek@gmail.com",
                "ref:regon": "381876464",
                "ref:vatin": "PL5372639882",
                "operator": "Modelina Sp\u00f3\u0142ka Z Ograniczon\u0105 Odpowiedzialno\u015bci\u0105",
                "operator:type": "private",
                "amenity": "kindergarten"
            }
        },
        {
            "id": 271346,
            "type": "Feature",
            "geometry": {
                "type": "Point",
                "coordinates": [
                    23.12418,
                    52.04169
                ]
            },
            "properties": {
                "ref:rspo": 271346,
                "official_name": "O\u015brodek Szkoleniowy Kasztanowa 6",
                "name": "O\u015brodek Szkoleniowy Kasztanowa 6",
                "addr:country": "PL",
                "addr:postcode": "21-500",
                "addr:city": "Bia\u0142a Podlaska",
                "addr:street": "Kasztanowa",
                "addr:housenumber": "6",
                "addr:teryt:simc": 8171,
                "addr:teryt:sym_ul": 922018,
                "contact:phone": "+48 731530830",
                "contact:email": "oskasztanowa6@gmail.com",
                "ref:regon": "383319928",
                "operator": "Marta Nowacka",
                "operator:type": "private",
                "fixme": "w zale\u017cno\u015bci od przedmiotu dzia\u0142alno\u015bci (np. amenity=training + training=*, amenity=dancing_school, amenity=language_school, amenity=music_school)"
            }
        },
        {
            "id": 272064,
            "type": "Feature",
            "geometry": {
                "type": "Point",
                "coordinates": [
                    23.12418,
                    52.04166
                ]
            },
            "properties": {
                "isced:level": "4",
                "ref:rspo": 272064,
                "official_name": "Publiczna Szko\u0142a Policealna \"Cosinus\"",
                "name": "Publiczna Szko\u0142a Policealna \"Cosinus\"",
                "addr:country": "PL",
                "addr:postcode": "21-500",
                "addr:city": "Bia\u0142a Podlaska",
                "addr:street": "Kasztanowa",
                "addr:housenumber": "6",
                "addr:teryt:simc": 8171,
                "addr:teryt:sym_ul": 922018,
                "contact:phone": "+48 833113477",
                "contact:email": "i.bedkowska@cosinus.pl",
                "ref:regon": "383904696",
                "operator": "\"Fundacja Cosinus Edukacja Rz\"",
                "operator:type": "ngo",
                "amenity": "college"
            }
        },
        {
            "id": 29752,
            "type": "Feature",
            "geometry": {
                "type": "Point",
                "coordinates": [
                    23.10789,
                    52.04218
                ]
            },
            "properties": {
                "ref:rspo": 29752,
                "official_name": "Przedszkole Samorz\u0105dowe Nr 13",
                "name": "Przedszkole Samorz\u0105dowe Nr 13",
                "addr:country": "PL",
                "addr:postcode": "21-500",
                "addr:city": "Bia\u0142a Podlaska",
                "addr:street": "Kazimierza Jagiello\u0144czyka",
                "addr:housenumber": "17",
                "addr:teryt:simc": 8259,
                "addr:teryt:sym_ul": 922018,
                "contact:phone": "+48 833416477",
                "contact:email": "przedszkole-13@o2.pl",
                "contact:website": "http:\/\/przedszkole13bp.pl",
                "ref:regon": "030002458",
                "ref:vatin": "PL5371963267",
                "operator": "Gmina Miejska Bia\u0142a Podlaska",
                "operator:type": "government",
                "amenity": "kindergarten"
            }
        },
        {
            "id": 56084,
            "type": "Feature",
            "geometry": {
                "type": "Point",
                "coordinates": [
                    23.16908,
                    52.04262
                ]
            },
            "properties": {
                "ref:rspo": 56084,
                "official_name": "Specjalne Przedszkole Niepubliczne Wsp\u00f3lny \u015awiat",
                "name": "Specjalne Przedszkole Niepubliczne Wsp\u00f3lny \u015awiat",
                "addr:country": "PL",
                "addr:postcode": "21-500",
                "addr:city": "Bia\u0142a Podlaska",
                "addr:street": "Powsta\u0144c\u00f3w",
                "addr:housenumber": "4 c",
                "addr:teryt:simc": 17354,
                "addr:teryt:sym_ul": 922018,
                "contact:phone": "+48 509846511",
                "contact:email": "sekretariat@wspolnyswiat.org",
                "contact:website": "http:\/\/www.wspolnyswiat.org",
                "ref:regon": "061484654",
                "operator": "Stowarzyszenie Pomocy M\u0142odzie\u017cy I Dzieciom Autystycznym Oraz M\u0142odzie\u017cy I Dzieciom O Pokrewnych Zaburzeniach \"Wsp\u00f3lny \u015awiat\"",
                "operator:type": "ngo",
                "amenity": "kindergarten"
            }
        },
        {
            "id": 53314,
            "type": "Feature",
            "geometry": {
                "type": "Point",
                "coordinates": [
                    23.11898,
                    52.04359
                ]
            },
            "properties": {
                "isced:level": "3",
                "ref:rspo": 53314,
                "official_name": "Katolickie Liceum Og\u00f3lnokszta\u0142c\u0105ce im. Cypriana Norwida",
                "name": "Katolickie Liceum Og\u00f3lnokszta\u0142c\u0105ce",
                "addr:country": "PL",
                "addr:postcode": "21-500",
                "addr:city": "Bia\u0142a Podlaska",
                "addr:street": "Janowska",
                "addr:housenumber": "55",
                "addr:teryt:simc": 7205,
                "addr:teryt:sym_ul": 922018,
                "contact:phone": "+48 833423488",
                "contact:email": "sekretariat@klobp.pl",
                "contact:website": "http:\/\/www.klobp.pl",
                "ref:regon": "061496692",
                "ref:vatin": "PL5371897317",
                "operator": "Diecezja Siedlecka Kuria Diecezjalna W Siedlcach",
                "operator:type": "religious",
                "amenity": "school"
            }
        },
        {
            "id": 128492,
            "type": "Feature",
            "geometry": {
                "type": "Point",
                "coordinates": [
                    23.11898,
                    52.04356
                ]
            },
            "properties": {
                "ref:rspo": 128492,
                "official_name": "Katolickie Przedszkole Niepubliczne im. B\u0142. Honorata Ko\u017ami\u0144skiego w Bia\u0142ej Podlaskiej",
                "name": "Katolickie Przedszkole Niepubliczne",
                "addr:country": "PL",
                "addr:postcode": "21-500",
                "addr:city": "Bia\u0142a Podlaska",
                "addr:street": "Janowska",
                "addr:housenumber": "55",
                "addr:teryt:simc": 7205,
                "addr:teryt:sym_ul": 922018,
                "contact:phone": "+48 730120005",
                "contact:email": "sekretariat@kpnbp.pl",
                "contact:website": "http:\/\/www.kpnbp.pl",
                "ref:regon": "362301942",
                "operator": "Diecezja Siedlecka Kuria Diecezjalna W Siedlcach",
                "operator:type": "religious",
                "amenity": "kindergarten"
            }
        },
        {
            "id": 130953,
            "type": "Feature",
            "geometry": {
                "type": "Point",
                "coordinates": [
                    23.10601,
                    52.04499
                ]
            },
            "properties": {
                "ref:rspo": 130953,
                "official_name": "Zesp\u00f3\u0142 Szk\u00f3\u0142 w Bia\u0142ej Podlaskiej",
                "name": "Zesp\u00f3\u0142 Szk\u00f3\u0142 w Bia\u0142ej Podlaskiej",
                "addr:country": "PL",
                "addr:postcode": "21-500",
                "addr:city": "Bia\u0142a Podlaska",
                "addr:street": "Zygmunta Augusta",
                "addr:housenumber": "2",
                "addr:teryt:simc": 26334,
                "addr:teryt:sym_ul": 922018,
                "contact:phone": "+48 833416710",
                "contact:email": "zeszbp@gmail.com",
                "contact:website": "http:\/\/szkpodst9.pl",
                "ref:regon": "364767099",
                "operator": "Gmina Miejska Bia\u0142a Podlaska",
                "operator:type": "government",
                "landuse": "education",
                "fixme": "amenity=school, amenity=college albo landuse=education w zale\u017cno\u015bci od tego, jakie plac\u00f3wki wchodz\u0105 w sk\u0142ad zespo\u0142u. Sprawd\u017a, kiedy stosowa\u0107 amenity=* a kiedy landuse=education.",
                "note": "Children RSPO: 29757;32043"
            }
        },
        {
            "id": 32043,
            "type": "Feature",
            "geometry": {
                "type": "Point",
                "coordinates": [
                    23.10601,
                    52.044959999999996
                ]
            },
            "properties": {
                "isced:level": "1;2",
                "ref:rspo": 32043,
                "official_name": "Szko\u0142a Podstawowa Nr 9 im. \u015awi\u0119tej Jadwigi Kr\u00f3lowej",
                "name": "Szko\u0142a Podstawowa Nr 9",
                "addr:country": "PL",
                "addr:postcode": "21-500",
                "addr:city": "Bia\u0142a Podlaska",
                "addr:street": "Zygmunta Augusta",
                "addr:housenumber": "2",
                "addr:teryt:simc": 26334,
                "addr:teryt:sym_ul": 922018,
                "contact:phone": "+48 833416710",
                "contact:email": "zeszbp@gmail.com",
                "contact:website": "http:\/\/www.szkpodst9.pl",
                "ref:regon": "001411254",
                "ref:vatin": "PL5371675870",
                "operator": "Gmina Miejska Bia\u0142a Podlaska",
                "operator:type": "government",
                "amenity": "school",
                "note": "Parent RSPO: 130953"
            }
        },
        {
            "id": 274065,
            "type": "Feature",
            "geometry": {
                "type": "Point",
                "coordinates": [
                    23.1108,
                    52.04512
                ]
            },
            "properties": {
                "ref:rspo": 274065,
                "official_name": "Niepubliczne Przedszkole Akademia Malucha",
                "name": "Niepubliczne Przedszkole Akademia Malucha",
                "addr:country": "PL",
                "addr:postcode": "21-500",
                "addr:city": "Bia\u0142a Podlaska",
                "addr:street": "Okopowa",
                "addr:housenumber": "40",
                "addr:teryt:simc": 14886,
                "addr:teryt:sym_ul": 922018,
                "contact:phone": "+48 537965775",
                "contact:email": "ft.akademia.malucha.bp@gmail.com",
                "ref:regon": "385139780",
                "operator": "Mt Sp\u00f3\u0142ka Z Ograniczon\u0105 Odpowiedzialno\u015bci\u0105",
                "operator:type": "private",
                "amenity": "kindergarten"
            }
        },
        {
            "id": 34686,
            "type": "Feature",
            "geometry": {
                "type": "Point",
                "coordinates": [
                    23.12683,
                    52.04528
                ]
            },
            "properties": {
                "ref:rspo": 34686,
                "official_name": "Bursa Szkolna w Bia\u0142ej Podlaskiej",
                "name": "Bursa Szkolna w Bia\u0142ej Podlaskiej",
                "addr:country": "PL",
                "addr:postcode": "21-500",
                "addr:city": "Bia\u0142a Podlaska",
                "addr:street": "Podmiejska",
                "addr:housenumber": "36",
                "addr:teryt:simc": 16816,
                "addr:teryt:sym_ul": 922018,
                "contact:phone": "+48 833416471",
                "contact:email": "bialskabursaszkolna@gmail.com",
                "contact:website": "http:\/\/www.bursabialapodlaska.pl",
                "ref:regon": "001271221",
                "ref:vatin": "PL5371052092",
                "operator": "Gmina Miejska Bia\u0142a Podlaska",
                "operator:type": "government",
                "building": "dormitory"
            }
        },
        {
            "id": 48721,
            "type": "Feature",
            "geometry": {
                "type": "Point",
                "coordinates": [
                    23.1151,
                    52.04621
                ]
            },
            "properties": {
                "isced:level": "4",
                "ref:rspo": 48721,
                "official_name": "Szko\u0142a Policealna - Medyczne Studium Zawodowe im. Danuty Siedzik\u00f3wny Ps. \"Inka\" w Bia\u0142ej Podlaskiej",
                "name": "Szko\u0142a Policealna - Medyczne Studium Zawodowe",
                "addr:country": "PL",
                "addr:postcode": "21-500",
                "addr:city": "Bia\u0142a Podlaska",
                "addr:street": "Okopowa",
                "addr:housenumber": "3",
                "addr:teryt:simc": 14886,
                "addr:teryt:sym_ul": 922018,
                "contact:phone": "+48 833436154",
                "contact:email": "medykbiala@pro.onet.pl",
                "contact:website": "http:\/\/www.studiummedycznebp.pl",
                "ref:regon": "000297490",
                "ref:vatin": "PL5371936460",
                "operator": "Wojew\u00f3dztwo Lubelskie",
                "operator:type": "government",
                "amenity": "college"
            }
        },
        {
            "id": 29757,
            "type": "Feature",
            "geometry": {
                "type": "Point",
                "coordinates": [
                    23.10704,
                    52.04719
                ]
            },
            "properties": {
                "ref:rspo": 29757,
                "official_name": "Przedszkole Samorz\u0105dowe Nr 17",
                "name": "Przedszkole Samorz\u0105dowe Nr 17",
                "addr:country": "PL",
                "addr:postcode": "21-500",
                "addr:city": "Bia\u0142a Podlaska",
                "addr:street": "Zygmunta Starego",
                "addr:housenumber": "4",
                "addr:teryt:simc": 26343,
                "addr:teryt:sym_ul": 922018,
                "contact:phone": "+48 833416438",
                "contact:email": "przed17@op.pl",
                "contact:website": "http:\/\/www.p17bp.pl",
                "ref:regon": "030002493",
                "ref:vatin": "PL5371963020",
                "operator": "Gmina Miejska Bia\u0142a Podlaska",
                "operator:type": "government",
                "amenity": "kindergarten",
                "note": "Parent RSPO: 130953"
            }
        },
        {
            "id": 278242,
            "type": "Feature",
            "geometry": {
                "type": "Point",
                "coordinates": [
                    23.12531,
                    52.04795
                ]
            },
            "properties": {
                "ref:rspo": 278242,
                "official_name": "Przedszkole Integracyjne \"Sasanka\"",
                "name": "Przedszkole Integracyjne \"Sasanka\"",
                "addr:country": "PL",
                "addr:postcode": "21-500",
                "addr:city": "Bia\u0142a Podlaska",
                "addr:street": "Witolda Pileckiego",
                "addr:housenumber": "34",
                "addr:teryt:simc": 37198,
                "addr:teryt:sym_ul": 922018,
                "contact:phone": "+48 695741024",
                "contact:email": "biuro@sasanka.edu.pl",
                "ref:regon": "389852397",
                "operator": "Rafa\u0142 Szpilewicz",
                "operator:type": "private",
                "amenity": "kindergarten"
            }
        },
        {
            "id": 126567,
            "type": "Feature",
            "geometry": {
                "type": "Point",
                "coordinates": [
                    23.1226999,
                    52.05052
                ]
            },
            "properties": {
                "ref:rspo": 126567,
                "official_name": "Niepubliczne Przedszkole Fiku-Miku",
                "name": "Niepubliczne Przedszkole Fiku-Miku",
                "addr:country": "PL",
                "addr:postcode": "21-500",
                "addr:city": "Bia\u0142a Podlaska",
                "addr:street": "Aliny Fedorowicz",
                "addr:housenumber": "25",
                "addr:door": "2,3,4",
                "addr:teryt:simc": 42028,
                "addr:teryt:sym_ul": 922018,
                "contact:phone": "+48 509588303",
                "contact:email": "sekretariat.fiku-miku@o2.pl",
                "contact:website": "http:\/\/www.fikumiku.edu.pl",
                "ref:regon": "360508455",
                "operator": "Monika Romaniuk",
                "operator:type": "private",
                "amenity": "kindergarten"
            }
        }
    ]
}