{
    "type": "FeatureCollection",
    "features": [
        {
            "id": 34878,
            "type": "Feature",
            "geometry": {
                "type": "Point",
                "coordinates": [
                    16.58961,
                    52.05758
                ]
            },
            "properties": {
                "isced:level": "1;2",
                "ref:rspo": 34878,
                "official_name": "Szko\u0142a Podstawowa Nr 4 im. Mariana Koszewskiego w Ko\u015bcianie",
                "name": "Szko\u0142a Podstawowa Nr 4",
                "addr:country": "PL",
                "addr:postcode": "64-000",
                "addr:city": "Ko\u015bcian",
                "addr:street": "abpa Antoniego Baraniaka",
                "addr:housenumber": "1",
                "addr:teryt:simc": 36972,
                "addr:teryt:sym_ul": 954484,
                "contact:phone": "+48 655122855",
                "contact:email": "z4koscian@gmail.com",
                "contact:website": "http:\/\/www.zs4koscian.pl",
                "ref:regon": "000562181",
                "ref:vatin": "PL6981605414",
                "operator": "Gmina Miejska Ko\u015bcian",
                "operator:type": "government",
                "amenity": "school"
            }
        },
        {
            "id": 25215,
            "type": "Feature",
            "geometry": {
                "type": "Point",
                "coordinates": [
                    16.63209,
                    52.07438
                ]
            },
            "properties": {
                "ref:rspo": 25215,
                "official_name": "Samorz\u0105dowe Przedszkole Nr 4 Misia Uszatka w Ko\u015bcianie",
                "name": "Samorz\u0105dowe Przedszkole Nr 4 Misia Uszatka w Ko\u015bcianie",
                "addr:country": "PL",
                "addr:postcode": "64-000",
                "addr:city": "Ko\u015bcian",
                "addr:street": "Wyzwolenia",
                "addr:housenumber": "24",
                "addr:teryt:simc": 25133,
                "addr:teryt:sym_ul": 954484,
                "contact:phone": "+48 655122805",
                "contact:email": "przedszkolenr4@koscian.eu",
                "contact:website": "http:\/\/www.naszeprzedszkole4.prv.pl",
                "ref:regon": "301620267",
                "ref:vatin": "PL6981825481",
                "operator": "Gmina Miejska Ko\u015bcian",
                "operator:type": "government",
                "amenity": "kindergarten"
            }
        },
        {
            "id": 34884,
            "type": "Feature",
            "geometry": {
                "type": "Point",
                "coordinates": [
                    16.63209,
                    52.074349999999995
                ]
            },
            "properties": {
                "isced:level": "1;2",
                "ref:rspo": 34884,
                "official_name": "Szko\u0142a Podstawowa Nr 3 Z Oddzia\u0142ami Integracyjnymi im. Feliksa Stamma w Ko\u015bcianie",
                "name": "Szko\u0142a Podstawowa Nr 3 Z Oddzia\u0142ami Integracyjnymi",
                "addr:country": "PL",
                "addr:postcode": "64-000",
                "addr:city": "Ko\u015bcian",
                "addr:street": "Wyzwolenia",
                "addr:housenumber": "24",
                "addr:teryt:simc": 25133,
                "addr:teryt:sym_ul": 954484,
                "contact:phone": "+48 655121234",
                "contact:email": "szkolanr3@koscian.eu",
                "contact:website": "http:\/\/www.zs3koscian.edupage.org",
                "ref:regon": "001229957",
                "ref:vatin": "PL6981605420",
                "operator": "Gmina Miejska Ko\u015bcian",
                "operator:type": "government",
                "amenity": "school"
            }
        },
        {
            "id": 47346,
            "type": "Feature",
            "geometry": {
                "type": "Point",
                "coordinates": [
                    16.63209,
                    52.07432
                ]
            },
            "properties": {
                "isced:level": "3",
                "ref:rspo": 47346,
                "official_name": "Liceum Og\u00f3lnokszta\u0142c\u0105ce dla Doros\u0142ych Przy Prywatnym Centrum Edukacji w Ko\u015bcianie",
                "name": "Liceum Og\u00f3lnokszta\u0142c\u0105ce dla Doros\u0142ych Przy Prywatnym Centrum Edukacji w Ko\u015bcianie",
                "addr:country": "PL",
                "addr:postcode": "64-000",
                "addr:city": "Ko\u015bcian",
                "addr:street": "Wyzwolenia",
                "addr:housenumber": "24",
                "addr:teryt:simc": 25133,
                "addr:teryt:sym_ul": 954484,
                "contact:phone": "+48 608582521",
                "contact:email": "pcekoscian@gazeta.pl",
                "contact:website": "http:\/\/www.pce.koscian.pl",
                "ref:regon": "302260316",
                "ref:vatin": "PL6981645046",
                "operator": "Barbara Kl\u00f3skowska",
                "operator:type": "private",
                "amenity": "school"
            }
        },
        {
            "id": 48906,
            "type": "Feature",
            "geometry": {
                "type": "Point",
                "coordinates": [
                    16.63209,
                    52.07429
                ]
            },
            "properties": {
                "isced:level": "4",
                "ref:rspo": 48906,
                "official_name": "Szko\u0142a Policealna Przy Prywatnym Centrum Edukacji w Ko\u015bcianie",
                "name": "Szko\u0142a Policealna Przy Prywatnym Centrum Edukacji w Ko\u015bcianie",
                "addr:country": "PL",
                "addr:postcode": "64-000",
                "addr:city": "Ko\u015bcian",
                "addr:street": "Wyzwolenia",
                "addr:housenumber": "24",
                "addr:teryt:simc": 25133,
                "addr:teryt:sym_ul": 954484,
                "contact:phone": "+48 608582521",
                "contact:email": "pcekoscian@gazeta.pl",
                "contact:website": "http:\/\/www.pce.koscian.pl",
                "ref:regon": "302261936",
                "ref:vatin": "PL6981645046",
                "operator": "Barbara Kl\u00f3skowska",
                "operator:type": "private",
                "amenity": "college"
            }
        },
        {
            "id": 269712,
            "type": "Feature",
            "geometry": {
                "type": "Point",
                "coordinates": [
                    16.63209,
                    52.074259999999995
                ]
            },
            "properties": {
                "ref:rspo": 269712,
                "official_name": "Studium Biznesu dla Doros\u0142ych Przy Prywatnym Centrum Edukacji w Ko\u015bcianie",
                "name": "Studium Biznesu dla Doros\u0142ych Przy Prywatnym Centrum Edukacji w Ko\u015bcianie",
                "addr:country": "PL",
                "addr:postcode": "64-000",
                "addr:city": "Ko\u015bcian",
                "addr:street": "Wyzwolenia",
                "addr:housenumber": "24",
                "addr:teryt:simc": 25133,
                "addr:teryt:sym_ul": 954484,
                "contact:phone": "+48 655110236",
                "contact:email": "pcekoscian@gazeta.pl",
                "contact:website": "http:\/\/pce.koscian.pl",
                "ref:regon": "381694473",
                "operator": "Barbara Kl\u00f3skowska",
                "operator:type": "private",
                "fixme": "w zale\u017cno\u015bci od przedmiotu dzia\u0142alno\u015bci (np. amenity=training + training=*, amenity=dancing_school, amenity=language_school, amenity=music_school)"
            }
        },
        {
            "id": 121299,
            "type": "Feature",
            "geometry": {
                "type": "Point",
                "coordinates": [
                    16.63265,
                    52.07936
                ]
            },
            "properties": {
                "ref:rspo": 121299,
                "official_name": "Przedszkole Niepubliczne \"Beniaminek\"",
                "name": "Przedszkole Niepubliczne \"Beniaminek\"",
                "addr:country": "PL",
                "addr:postcode": "64-000",
                "addr:city": "Ko\u015bcian",
                "addr:street": "Kwiatowa",
                "addr:housenumber": "7",
                "addr:teryt:simc": 10562,
                "addr:teryt:sym_ul": 954484,
                "contact:phone": "+48 609671983",
                "contact:email": "kontakt@przedszkole-beniaminek.pl",
                "contact:website": "http:\/\/www.przedszkole-beniaminek.pl",
                "ref:regon": "302612092",
                "ref:vatin": "PL6981691738",
                "operator": "Karolina Witkiewicz",
                "operator:type": "private",
                "amenity": "kindergarten"
            }
        },
        {
            "id": 109712,
            "type": "Feature",
            "geometry": {
                "type": "Point",
                "coordinates": [
                    16.64242,
                    52.0805999
                ]
            },
            "properties": {
                "ref:rspo": 109712,
                "official_name": "Pa\u0144stwowa Szko\u0142a Muzyczna I St. im. Ks. Dr J\u00f3zefa Surzy\u0144skiego w Ko\u015bcianie",
                "name": "Pa\u0144stwowa Szko\u0142a Muzyczna I St.",
                "addr:country": "PL",
                "addr:postcode": "64-000",
                "addr:city": "Ko\u015bcian",
                "addr:street": "Karola Kurpi\u0144skiego",
                "addr:housenumber": "3",
                "addr:teryt:simc": 10465,
                "addr:teryt:sym_ul": 954484,
                "contact:phone": "+48 655122498",
                "contact:email": "psm_koscian@wp.pl",
                "contact:website": "http:\/\/www.psmkoscian.com",
                "ref:regon": "004104200",
                "operator": "Ministerstwo Kultury I Dziedzictwa Narodowego",
                "operator:type": "public",
                "amenity": "music_school"
            }
        },
        {
            "id": 19423,
            "type": "Feature",
            "geometry": {
                "type": "Point",
                "coordinates": [
                    16.64089,
                    52.08079
                ]
            },
            "properties": {
                "isced:level": "3",
                "ref:rspo": 19423,
                "official_name": "Bran\u017cowa Szko\u0142a I Stopnia Zdz w Ko\u015bcianie",
                "name": "Bran\u017cowa Szko\u0142a I Stopnia Zdz w Ko\u015bcianie",
                "addr:country": "PL",
                "addr:postcode": "64-000",
                "addr:city": "Ko\u015bcian",
                "addr:street": "Dworcowa",
                "addr:housenumber": "2",
                "addr:teryt:simc": 4434,
                "addr:teryt:sym_ul": 954484,
                "contact:phone": "+48 655124681",
                "contact:email": "katarzyna.szlapka@zdz.leszno.pl",
                "contact:website": "http:\/\/www.koscian.zdz.leszno.pl",
                "ref:regon": "302224869",
                "operator": "Zak\u0142ad Doskonalenia Zawodowego",
                "operator:type": "ngo",
                "amenity": "school"
            }
        },
        {
            "id": 272810,
            "type": "Feature",
            "geometry": {
                "type": "Point",
                "coordinates": [
                    16.64089,
                    52.08076
                ]
            },
            "properties": {
                "isced:level": "1;2",
                "ref:rspo": 272810,
                "official_name": "Szko\u0142a Podstawowa Zdz dla Doros\u0142ych w Ko\u015bcianie",
                "name": "Szko\u0142a Podstawowa Zdz dla Doros\u0142ych w Ko\u015bcianie",
                "addr:country": "PL",
                "addr:postcode": "64-000",
                "addr:city": "Ko\u015bcian",
                "addr:street": "Dworcowa",
                "addr:housenumber": "2",
                "addr:teryt:simc": 4434,
                "addr:teryt:sym_ul": 954484,
                "contact:phone": "+48 655124681",
                "contact:email": "katarzyna.szlapka@zdz.leszno.pl",
                "contact:website": "http:\/\/www.zdz.leszno.pl",
                "ref:regon": "384296320",
                "operator": "Zak\u0142ad Doskonalenia Zawodowego",
                "operator:type": "ngo",
                "amenity": "school"
            }
        },
        {
            "id": 34520,
            "type": "Feature",
            "geometry": {
                "type": "Point",
                "coordinates": [
                    16.6284,
                    52.08082
                ]
            },
            "properties": {
                "ref:rspo": 34520,
                "official_name": "Zesp\u00f3\u0142 Szk\u00f3\u0142 Ponadpodstawowych im. Franciszka Ratajczaka w Ko\u015bcianie",
                "name": "Zesp\u00f3\u0142 Szk\u00f3\u0142 Ponadpodstawowych",
                "addr:country": "PL",
                "addr:postcode": "64-000",
                "addr:city": "Ko\u015bcian",
                "addr:street": "Wielichowska",
                "addr:housenumber": "43A",
                "addr:teryt:simc": 24062,
                "addr:teryt:sym_ul": 954484,
                "contact:phone": "+48 655114135",
                "contact:email": "sekretariat@zsp-koscian.pl",
                "contact:website": "http:\/\/www.zsp-koscian.pl",
                "ref:regon": "000195475",
                "ref:vatin": "PL6981388081",
                "operator": "Powiat Ko\u015bcia\u0144ski",
                "operator:type": "government",
                "landuse": "education",
                "fixme": "amenity=school, amenity=college albo landuse=education w zale\u017cno\u015bci od tego, jakie plac\u00f3wki wchodz\u0105 w sk\u0142ad zespo\u0142u. Sprawd\u017a, kiedy stosowa\u0107 amenity=* a kiedy landuse=education.",
                "note": "Children RSPO: 49717;50275;50276;127858;275452"
            }
        },
        {
            "id": 49717,
            "type": "Feature",
            "geometry": {
                "type": "Point",
                "coordinates": [
                    16.6284,
                    52.08079
                ]
            },
            "properties": {
                "isced:level": "3",
                "ref:rspo": 49717,
                "official_name": "Bran\u017cowa Szko\u0142a I Stopnia w Ko\u015bcianie",
                "name": "Bran\u017cowa Szko\u0142a I Stopnia w Ko\u015bcianie",
                "addr:country": "PL",
                "addr:postcode": "64-000",
                "addr:city": "Ko\u015bcian",
                "addr:street": "Wielichowska",
                "addr:housenumber": "43A",
                "addr:teryt:simc": 24062,
                "addr:teryt:sym_ul": 954484,
                "contact:phone": "+48 655114135",
                "contact:email": "sekretariat@zsp-koscian.pl",
                "contact:website": "http:\/\/www.zsp-koscian.pl",
                "ref:regon": "411494863",
                "operator": "Powiat Ko\u015bcia\u0144ski",
                "operator:type": "government",
                "amenity": "school",
                "note": "Parent RSPO: 34520"
            }
        },
        {
            "id": 50275,
            "type": "Feature",
            "geometry": {
                "type": "Point",
                "coordinates": [
                    16.6284,
                    52.080760000000005
                ]
            },
            "properties": {
                "isced:level": "3",
                "ref:rspo": 50275,
                "official_name": "Technikum w Ko\u015bcianie",
                "name": "Technikum w Ko\u015bcianie",
                "addr:country": "PL",
                "addr:postcode": "64-000",
                "addr:city": "Ko\u015bcian",
                "addr:street": "Wielichowska",
                "addr:housenumber": "43A",
                "addr:teryt:simc": 24062,
                "addr:teryt:sym_ul": 954484,
                "contact:phone": "+48 655114135",
                "contact:email": "sekretariat@zsp-koscian.pl",
                "contact:website": "http:\/\/www.zsp-koscian.pl",
                "ref:regon": "300530869",
                "operator": "Powiat Ko\u015bcia\u0144ski",
                "operator:type": "government",
                "amenity": "school",
                "note": "Parent RSPO: 34520"
            }
        },
        {
            "id": 50276,
            "type": "Feature",
            "geometry": {
                "type": "Point",
                "coordinates": [
                    16.6284,
                    52.08073
                ]
            },
            "properties": {
                "isced:level": "3",
                "ref:rspo": 50276,
                "official_name": "Ii Liceum Og\u00f3lnokszta\u0142c\u0105ce w Ko\u015bcianie",
                "name": "Ii Liceum Og\u00f3lnokszta\u0142c\u0105ce w Ko\u015bcianie",
                "addr:country": "PL",
                "addr:postcode": "64-000",
                "addr:city": "Ko\u015bcian",
                "addr:street": "Wielichowska",
                "addr:housenumber": "43A",
                "addr:teryt:simc": 24062,
                "addr:teryt:sym_ul": 954484,
                "contact:phone": "+48 655114135",
                "contact:email": "sekretariat@zsp-koscian.pl",
                "contact:website": "http:\/\/www.zsp-koscian.pl",
                "ref:regon": "411494828",
                "operator": "Powiat Ko\u015bcia\u0144ski",
                "operator:type": "government",
                "amenity": "school",
                "note": "Parent RSPO: 34520"
            }
        },
        {
            "id": 127858,
            "type": "Feature",
            "geometry": {
                "type": "Point",
                "coordinates": [
                    16.6284,
                    52.0807
                ]
            },
            "properties": {
                "isced:level": "3",
                "ref:rspo": 127858,
                "official_name": "Liceum Og\u00f3lnokszta\u0142c\u0105ce dla Doros\u0142ych w Ko\u015bcianie",
                "name": "Liceum Og\u00f3lnokszta\u0142c\u0105ce dla Doros\u0142ych w Ko\u015bcianie",
                "addr:country": "PL",
                "addr:postcode": "64-000",
                "addr:city": "Ko\u015bcian",
                "addr:street": "Wielichowska",
                "addr:housenumber": "43A",
                "addr:teryt:simc": 24062,
                "addr:teryt:sym_ul": 954484,
                "contact:phone": "+48 655114135",
                "contact:email": "sekretariat@zsp-koscian.pl",
                "contact:website": "http:\/\/www.zsp-koscian.pl",
                "ref:regon": "361925072",
                "operator": "Powiat Ko\u015bcia\u0144ski",
                "operator:type": "government",
                "amenity": "school",
                "note": "Parent RSPO: 34520"
            }
        },
        {
            "id": 275452,
            "type": "Feature",
            "geometry": {
                "type": "Point",
                "coordinates": [
                    16.6284,
                    52.080670000000005
                ]
            },
            "properties": {
                "isced:level": "3",
                "ref:rspo": 275452,
                "official_name": "Bran\u017cowa Szko\u0142a II Stopnia w Ko\u015bcianie",
                "name": "Bran\u017cowa Szko\u0142a II Stopnia w Ko\u015bcianie",
                "addr:country": "PL",
                "addr:postcode": "64-000",
                "addr:city": "Ko\u015bcian",
                "addr:street": "Wielichowska",
                "addr:housenumber": "43A",
                "addr:teryt:simc": 24062,
                "addr:teryt:sym_ul": 954484,
                "contact:phone": "+48 655114135",
                "contact:email": "sekretariat@zsp-koscian.pl",
                "contact:website": "http:\/\/www.zsp-koscian.pl",
                "ref:regon": "386922192",
                "operator": "Powiat Ko\u015bcia\u0144ski",
                "operator:type": "government",
                "amenity": "school",
                "note": "Parent RSPO: 34520"
            }
        },
        {
            "id": 25168,
            "type": "Feature",
            "geometry": {
                "type": "Point",
                "coordinates": [
                    16.63062,
                    52.08221
                ]
            },
            "properties": {
                "ref:rspo": 25168,
                "official_name": "Samorz\u0105dowe Przedszkole Z Oddzia\u0142ami Integracyjnymi Nr 1 im. Wandy Chotomskiej w Ko\u015bcianie",
                "name": "Samorz\u0105dowe Przedszkole Z Oddzia\u0142ami Integracyjnymi Nr 1",
                "addr:country": "PL",
                "addr:postcode": "64-000",
                "addr:city": "Ko\u015bcian",
                "addr:street": "Osiedle Osiedle Piastowskie",
                "addr:housenumber": "73",
                "addr:teryt:simc": 42919,
                "addr:teryt:sym_ul": 954484,
                "contact:phone": "+48 655126254",
                "contact:email": "przedszkolenr1@koscian.eu",
                "ref:regon": "301620178",
                "ref:vatin": "PL6981825452",
                "operator": "Gmina Miejska Ko\u015bcian",
                "operator:type": "government",
                "amenity": "kindergarten"
            }
        },
        {
            "id": 55396,
            "type": "Feature",
            "geometry": {
                "type": "Point",
                "coordinates": [
                    16.63299,
                    52.0824
                ]
            },
            "properties": {
                "isced:level": "1;2",
                "ref:rspo": 55396,
                "official_name": "Szko\u0142a Podstawowa Nr 2 im. W\u0142adys\u0142awa Broniewskiego w Ko\u015bcianie",
                "name": "Szko\u0142a Podstawowa Nr 2",
                "addr:country": "PL",
                "addr:postcode": "64-000",
                "addr:city": "Ko\u015bcian",
                "addr:street": "Osiedle Osiedle Piastowskie",
                "addr:housenumber": "47",
                "addr:teryt:simc": 42919,
                "addr:teryt:sym_ul": 954484,
                "contact:phone": "+48 655120857",
                "contact:email": "zsnr2koscian@wp.pl",
                "contact:website": "http:\/\/www.zs2koscian.szkolnastrona.pl",
                "ref:regon": "000739610",
                "ref:vatin": "PL6981698947",
                "operator": "Gmina Miejska Ko\u015bcian",
                "operator:type": "government",
                "amenity": "school"
            }
        },
        {
            "id": 25126,
            "type": "Feature",
            "geometry": {
                "type": "Point",
                "coordinates": [
                    16.64322,
                    52.08406
                ]
            },
            "properties": {
                "isced:level": "3",
                "ref:rspo": 25126,
                "official_name": "I Liceum Og\u00f3lnokszta\u0142c\u0105ce im. Oskara Kolberga w Ko\u015bcianie",
                "name": "I Liceum Og\u00f3lnokszta\u0142c\u0105ce",
                "addr:country": "PL",
                "addr:postcode": "64-000",
                "addr:city": "Ko\u015bcian",
                "addr:street": "Aleja Tadeusza Ko\u015bciuszki",
                "addr:housenumber": "3",
                "addr:teryt:simc": 39699,
                "addr:teryt:sym_ul": 954484,
                "contact:phone": "+48 655120404",
                "contact:email": "lo1.koscian@gmail.com",
                "contact:website": "http:\/\/www.lo1-koscian.pl",
                "ref:regon": "410199487",
                "ref:vatin": "PL6981042336",
                "operator": "Gmina Miejska Ko\u015bcian",
                "operator:type": "government",
                "amenity": "school"
            }
        },
        {
            "id": 44624,
            "type": "Feature",
            "geometry": {
                "type": "Point",
                "coordinates": [
                    16.64383,
                    52.08475
                ]
            },
            "properties": {
                "ref:rspo": 44624,
                "official_name": "O\u015brodek Kszta\u0142cenia Ustawicznego Towarzystwa Wiedzy Powszechnej Oddzia\u0142u Regionalnego w Ko\u015bcianie",
                "name": "O\u015brodek Kszta\u0142cenia Ustawicznego Towarzystwa Wiedzy Powszechnej Oddzia\u0142u Regionalnego w Ko\u015bcianie",
                "addr:country": "PL",
                "addr:postcode": "64-000",
                "addr:city": "Ko\u015bcian",
                "addr:street": "Wa\u0142y \u017begockiego",
                "addr:housenumber": "2",
                "addr:teryt:simc": 38579,
                "addr:teryt:sym_ul": 954484,
                "contact:phone": "+48 655120740",
                "contact:email": "koscian@twpkoscian.pl",
                "contact:website": "http:\/\/www.twpkoscian.pl",
                "ref:regon": "302247385",
                "ref:vatin": "PL6981373820",
                "operator": "Zdrowie S.c. Apteka Olivka",
                "operator:type": "ngo",
                "fixme": "w zale\u017cno\u015bci od przedmiotu dzia\u0142alno\u015bci (np. amenity=training + training=*, amenity=dancing_school, amenity=language_school, amenity=music_school)"
            }
        },
        {
            "id": 34530,
            "type": "Feature",
            "geometry": {
                "type": "Point",
                "coordinates": [
                    16.64454,
                    52.08515
                ]
            },
            "properties": {
                "ref:rspo": 34530,
                "official_name": "Poradnia Psychologiczno - Pedagogiczna w Ko\u015bcianie",
                "name": "Poradnia Psychologiczno - Pedagogiczna w Ko\u015bcianie",
                "addr:country": "PL",
                "addr:postcode": "64-000",
                "addr:city": "Ko\u015bcian",
                "addr:street": "Ko\u015bcielna",
                "addr:housenumber": "5",
                "addr:door": "A",
                "addr:teryt:simc": 9546,
                "addr:teryt:sym_ul": 954484,
                "contact:phone": "+48 655121760",
                "contact:email": "poradnia_koscian@poczta.onet.pl",
                "contact:website": "http:\/\/www.poradniakoscian.szkolnastrona.pl",
                "ref:regon": "410194478",
                "ref:vatin": "PL6981658511",
                "operator": "Powiat Ko\u015bcia\u0144ski",
                "operator:type": "government",
                "healthcare": "counselling",
                "counselling_type": "education",
                "fixme": "w zale\u017cno\u015bci od przedmiotu dzia\u0142alno\u015bci (np. healthcare=counselling + counselling_type=education albo healthcare=psychotherapist)"
            }
        },
        {
            "id": 128848,
            "type": "Feature",
            "geometry": {
                "type": "Point",
                "coordinates": [
                    16.6366,
                    52.08531
                ]
            },
            "properties": {
                "ref:rspo": 128848,
                "official_name": "Centrum Doskonalenia Nauczycieli Publiczna Biblioteka Pedagogiczna w Lesznie Filia w Ko\u015bcianie",
                "name": "Centrum Doskonalenia Nauczycieli Publiczna Biblioteka Pedagogiczna w Lesznie Filia w Ko\u015bcianie",
                "addr:country": "PL",
                "addr:postcode": "64-000",
                "addr:city": "Ko\u015bcian",
                "addr:street": "Plac Ignacego Paderewskiego",
                "addr:housenumber": "1",
                "addr:teryt:simc": 38511,
                "addr:teryt:sym_ul": 954484,
                "contact:phone": "+48 655122385",
                "contact:email": "pbpkoscian@cdn.leszno.pl",
                "ref:regon": "300906464",
                "operator": "Wojew\u00f3dztwo Wielkopolskie",
                "operator:type": "government",
                "amenity": "library",
                "note": "Parent RSPO: 115168"
            }
        },
        {
            "id": 34527,
            "type": "Feature",
            "geometry": {
                "type": "Point",
                "coordinates": [
                    16.64132,
                    52.08582
                ]
            },
            "properties": {
                "ref:rspo": 34527,
                "official_name": "Zesp\u00f3\u0142 Szk\u00f3\u0142 Specjalnych im. Marii Konopnickiej w Ko\u015bcianie",
                "name": "Zesp\u00f3\u0142 Szk\u00f3\u0142 Specjalnych",
                "addr:country": "PL",
                "addr:postcode": "64-000",
                "addr:city": "Ko\u015bcian",
                "addr:street": "Marii Konopnickiej",
                "addr:housenumber": "1",
                "addr:teryt:simc": 9186,
                "addr:teryt:sym_ul": 954484,
                "contact:phone": "+48 655122931",
                "contact:email": "zssp@poczta.onet.pl",
                "contact:website": "http:\/\/www.zss-koscian.pl",
                "ref:regon": "000739633",
                "ref:vatin": "PL6981043672",
                "operator": "Powiat Ko\u015bcia\u0144ski",
                "operator:type": "government",
                "landuse": "education",
                "fixme": "amenity=school, amenity=college albo landuse=education w zale\u017cno\u015bci od tego, jakie plac\u00f3wki wchodz\u0105 w sk\u0142ad zespo\u0142u. Sprawd\u017a, kiedy stosowa\u0107 amenity=* a kiedy landuse=education.",
                "note": "Children RSPO: 48795;48948;48966"
            }
        },
        {
            "id": 48795,
            "type": "Feature",
            "geometry": {
                "type": "Point",
                "coordinates": [
                    16.64132,
                    52.085789999999996
                ]
            },
            "properties": {
                "isced:level": "3",
                "ref:rspo": 48795,
                "official_name": "Bran\u017cowa Szko\u0142a I Stopnia Specjalna w Ko\u015bcianie",
                "name": "Bran\u017cowa Szko\u0142a I Stopnia Specjalna w Ko\u015bcianie",
                "addr:country": "PL",
                "addr:postcode": "64-000",
                "addr:city": "Ko\u015bcian",
                "addr:street": "Marii Konopnickiej",
                "addr:housenumber": "1",
                "addr:teryt:simc": 9186,
                "addr:teryt:sym_ul": 954484,
                "contact:phone": "+48 655122931",
                "contact:email": "zssp@poczta.onet.pl",
                "contact:website": "http:\/\/www.zss-koscian.pl",
                "ref:regon": "411505756",
                "operator": "Powiat Ko\u015bcia\u0144ski",
                "operator:type": "government",
                "amenity": "school",
                "note": "Parent RSPO: 34527"
            }
        },
        {
            "id": 48948,
            "type": "Feature",
            "geometry": {
                "type": "Point",
                "coordinates": [
                    16.64132,
                    52.08576
                ]
            },
            "properties": {
                "ref:rspo": 48948,
                "official_name": "Szko\u0142a Specjalna Przysposabiaj\u0105ca Do Pracy w Ko\u015bcianie",
                "name": "Szko\u0142a Specjalna Przysposabiaj\u0105ca Do Pracy w Ko\u015bcianie",
                "addr:country": "PL",
                "addr:postcode": "64-000",
                "addr:city": "Ko\u015bcian",
                "addr:street": "Marii Konopnickiej",
                "addr:housenumber": "1",
                "addr:teryt:simc": 9186,
                "addr:teryt:sym_ul": 954484,
                "contact:phone": "+48 655122931",
                "contact:email": "zssp@poczta.onet.pl",
                "contact:website": "http:\/\/www.zss-koscian.pl",
                "ref:regon": "300907558",
                "operator": "Powiat Ko\u015bcia\u0144ski",
                "operator:type": "government",
                "amenity": "school",
                "note": "Parent RSPO: 34527"
            }
        },
        {
            "id": 48966,
            "type": "Feature",
            "geometry": {
                "type": "Point",
                "coordinates": [
                    16.64132,
                    52.08573
                ]
            },
            "properties": {
                "isced:level": "1;2",
                "ref:rspo": 48966,
                "official_name": "Szko\u0142a Podstawowa Specjalna w Ko\u015bcianie",
                "name": "Szko\u0142a Podstawowa Specjalna w Ko\u015bcianie",
                "addr:country": "PL",
                "addr:postcode": "64-000",
                "addr:city": "Ko\u015bcian",
                "addr:street": "Marii Konopnickiej",
                "addr:housenumber": "1",
                "addr:teryt:simc": 9186,
                "addr:teryt:sym_ul": 954484,
                "contact:phone": "+48 655122931",
                "contact:email": "zssp@poczta.onet.pl",
                "contact:website": "http:\/\/www.zss-koscian.pl",
                "ref:regon": "411505762",
                "operator": "Powiat Ko\u015bcia\u0144ski",
                "operator:type": "government",
                "amenity": "school",
                "note": "Parent RSPO: 34527"
            }
        },
        {
            "id": 28204,
            "type": "Feature",
            "geometry": {
                "type": "Point",
                "coordinates": [
                    16.63945,
                    52.08639
                ]
            },
            "properties": {
                "ref:rspo": 28204,
                "official_name": "Przedszkole Niepubliczne \"Weso\u0142e Skrzaty\" Magdalena B\u0142a\u017cejczyk",
                "name": "Przedszkole Niepubliczne \"Weso\u0142e Skrzaty\" Magdalena B\u0142a\u017cejczyk",
                "addr:country": "PL",
                "addr:postcode": "64-000",
                "addr:city": "Ko\u015bcian",
                "addr:street": "Plac Wolno\u015bci",
                "addr:housenumber": "8",
                "addr:teryt:simc": 16414,
                "addr:teryt:sym_ul": 954484,
                "contact:phone": "+48 508683585",
                "contact:email": "wesole.skrzaty@op.pl",
                "ref:regon": "302240905",
                "ref:vatin": "PL7841192361",
                "operator": "Magdalena B\u0142a\u017cejczyk",
                "operator:type": "private",
                "amenity": "kindergarten"
            }
        },
        {
            "id": 270100,
            "type": "Feature",
            "geometry": {
                "type": "Point",
                "coordinates": [
                    16.64538,
                    52.08732
                ]
            },
            "properties": {
                "ref:rspo": 270100,
                "official_name": "Edu-Rachmistrz - Niepubliczna Plac\u00f3wka Kszta\u0142cenia Ustawicznego",
                "name": "Edu-Rachmistrz - Niepubliczna Plac\u00f3wka Kszta\u0142cenia Ustawicznego",
                "addr:country": "PL",
                "addr:postcode": "64-000",
                "addr:city": "Ko\u015bcian",
                "addr:street": "Rzemie\u015blnicza",
                "addr:housenumber": "2",
                "addr:door": "4",
                "addr:teryt:simc": 19335,
                "addr:teryt:sym_ul": 954484,
                "contact:phone": "+48 502640437",
                "contact:email": "szkolenia@edu-rachmistrz.pl",
                "contact:website": "http:\/\/edu-rachmistrz.pl",
                "ref:regon": "382025640",
                "operator": "Marzena Adamowicz",
                "operator:type": "private",
                "fixme": "w zale\u017cno\u015bci od przedmiotu dzia\u0142alno\u015bci (np. amenity=training + training=*, amenity=dancing_school, amenity=language_school, amenity=music_school)"
            }
        },
        {
            "id": 31418,
            "type": "Feature",
            "geometry": {
                "type": "Point",
                "coordinates": [
                    16.647090911865,
                    52.087760925293
                ]
            },
            "properties": {
                "ref:rspo": 31418,
                "official_name": "Centrum Edukacji Atut Wielkopolska",
                "name": "Centrum Edukacji Atut Wielkopolska",
                "addr:country": "PL",
                "addr:postcode": "64-000",
                "addr:city": "Ko\u015bcian",
                "addr:street": "Wawrzy\u0144ca Czajki",
                "addr:housenumber": "6",
                "addr:teryt:simc": 3228,
                "addr:teryt:sym_ul": 954484,
                "contact:phone": "+48 655119738",
                "ref:regon": "302245593",
                "ref:vatin": "PL7831544433",
                "operator": "Educompleks Sp\u00f3\u0142ka Z Ograniczon\u0105 Odpowiedzialno\u015bci\u0105",
                "operator:type": "consortium",
                "fixme": "w zale\u017cno\u015bci od przedmiotu dzia\u0142alno\u015bci (np. amenity=training + training=*, amenity=dancing_school, amenity=language_school, amenity=music_school)"
            }
        },
        {
            "id": 57162,
            "type": "Feature",
            "geometry": {
                "type": "Point",
                "coordinates": [
                    16.63875,
                    52.08887
                ]
            },
            "properties": {
                "isced:level": "1;2",
                "ref:rspo": 57162,
                "official_name": "Szko\u0142a Podstawowa Nr 1 im. Powsta\u0144c\u00f3w Wielkopolskich w Ko\u015bcianie",
                "name": "Szko\u0142a Podstawowa Nr 1",
                "addr:country": "PL",
                "addr:postcode": "64-000",
                "addr:city": "Ko\u015bcian",
                "addr:street": "Adama Mickiewicza",
                "addr:housenumber": "12",
                "addr:teryt:simc": 12740,
                "addr:teryt:sym_ul": 954484,
                "contact:phone": "+48 655120490",
                "contact:email": "szkolanr1@koscian.eu",
                "contact:website": "http:\/\/www.sp1.koscian.pl",
                "ref:regon": "000739604",
                "ref:vatin": "PL6981605615",
                "operator": "Gmina Miejska Ko\u015bcian",
                "operator:type": "government",
                "amenity": "school"
            }
        },
        {
            "id": 25282,
            "type": "Feature",
            "geometry": {
                "type": "Point",
                "coordinates": [
                    16.6462,
                    52.0891499
                ]
            },
            "properties": {
                "ref:rspo": 25282,
                "official_name": "Samorz\u0105dowe Przedszkole Nr 2 w Ko\u015bcianie",
                "name": "Samorz\u0105dowe Przedszkole Nr 2 w Ko\u015bcianie",
                "addr:country": "PL",
                "addr:postcode": "64-000",
                "addr:city": "Ko\u015bcian",
                "addr:street": "Stanis\u0142awa Moniuszki",
                "addr:housenumber": "7",
                "addr:teryt:simc": 13246,
                "addr:teryt:sym_ul": 954484,
                "contact:phone": "+48 655120588",
                "contact:email": "przedszkolenr2koscian@op.pl",
                "contact:website": "http:\/\/www.przedszkole2.koscian.pl",
                "ref:regon": "301620161",
                "ref:vatin": "PL6981825469",
                "operator": "Gmina Miejska Ko\u015bcian",
                "operator:type": "government",
                "amenity": "kindergarten"
            }
        },
        {
            "id": 273682,
            "type": "Feature",
            "geometry": {
                "type": "Point",
                "coordinates": [
                    16.63129,
                    52.08919
                ]
            },
            "properties": {
                "ref:rspo": 273682,
                "official_name": "Przedszkole Montessori",
                "name": "Przedszkole Montessori",
                "addr:country": "PL",
                "addr:postcode": "64-000",
                "addr:city": "Ko\u015bcian",
                "addr:street": "Zygmunta Sierakowskiego",
                "addr:housenumber": "41A",
                "addr:teryt:simc": 19851,
                "addr:teryt:sym_ul": 954484,
                "contact:email": "weiske@buziaczek.pl",
                "contact:website": "http:\/\/crdkoscian.pl",
                "ref:regon": "384558285",
                "operator": "Matylda Weiske-Beszterda",
                "operator:type": "private",
                "amenity": "kindergarten"
            }
        },
        {
            "id": 25365,
            "type": "Feature",
            "geometry": {
                "type": "Point",
                "coordinates": [
                    16.64607,
                    52.08937
                ]
            },
            "properties": {
                "ref:rspo": 25365,
                "official_name": "Samorz\u0105dowe Przedszkole Nr 3 w Ko\u015bcianie",
                "name": "Samorz\u0105dowe Przedszkole Nr 3 w Ko\u015bcianie",
                "addr:country": "PL",
                "addr:postcode": "64-000",
                "addr:city": "Ko\u015bcian",
                "addr:street": "Stanis\u0142awa Moniuszki",
                "addr:housenumber": "4",
                "addr:teryt:simc": 13246,
                "addr:teryt:sym_ul": 954484,
                "contact:phone": "+48 655121454",
                "contact:email": "przedszkolenr3koscian@op.pl",
                "ref:regon": "301620238",
                "ref:vatin": "PL6981825475",
                "operator": "Gmina Miejska Ko\u015bcian",
                "operator:type": "government",
                "amenity": "kindergarten"
            }
        },
        {
            "id": 130285,
            "type": "Feature",
            "geometry": {
                "type": "Point",
                "coordinates": [
                    16.63,
                    52.09161
                ]
            },
            "properties": {
                "ref:rspo": 130285,
                "official_name": "Przedszkole Niepubliczne \"Weso\u0142e Przedszkole\"",
                "name": "Przedszkole Niepubliczne \"Weso\u0142e Przedszkole\"",
                "addr:country": "PL",
                "addr:postcode": "64-000",
                "addr:city": "Ko\u015bcian",
                "addr:street": "Juliusza S\u0142owackiego",
                "addr:housenumber": "1",
                "addr:teryt:simc": 20291,
                "addr:teryt:sym_ul": 954484,
                "contact:phone": "+48 606536605",
                "contact:email": "wesoleprzedszkole@vp.pl",
                "ref:regon": "363760296",
                "ref:vatin": "PL6981700443",
                "operator": "Ewa Kaczmarek",
                "operator:type": "private",
                "amenity": "kindergarten"
            }
        }
    ]
}