{
    "type": "FeatureCollection",
    "features": [
        {
            "id": 73175,
            "type": "Feature",
            "geometry": {
                "type": "Point",
                "coordinates": [
                    16.47201,
                    51.97331
                ]
            },
            "properties": {
                "isced:level": "1;2",
                "ref:rspo": 73175,
                "official_name": "Szko\u0142a Podstawowa im. Por. Stefana Rysmanna w Bronikowie",
                "name": "Szko\u0142a Podstawowa",
                "addr:postcode": "64-030",
                "addr:city": "Bronikowo",
                "addr:street": "Morownicka",
                "addr:housenumber": "26",
                "addr:city:simc": 376403,
                "addr:street:sym_ul": 13292,
                "phone": "+48 655180964",
                "email": "sekretariat@bronikowo.pl",
                "website": "http:\/\/bronikowo.pl",
                "ref:regon": "410371710",
                "ref:vatin": "PL6981700822",
                "operator": "Gmina \u015amigiel",
                "operator:type": "government",
                "amenity": "school"
            }
        },
        {
            "id": 275448,
            "type": "Feature",
            "geometry": {
                "type": "Point",
                "coordinates": [
                    16.581228503693,
                    51.988044558105
                ]
            },
            "properties": {
                "ref:rspo": 275448,
                "official_name": "Przedszkole nr 2 w Starym Bojanowie",
                "name": "Przedszkole nr 2 w Starym Bojanowie",
                "addr:postcode": "64-030",
                "addr:city": "Stare Bojanowo",
                "addr:street": "G\u0142\u00f3wna",
                "addr:housenumber": "29A",
                "addr:city:simc": 376768,
                "addr:street:sym_ul": 5635,
                "phone": "+48 577002912",
                "email": "biuro@malowanemisie.pl",
                "website": "http:\/\/www.malowanemisie.pl",
                "ref:regon": "386922022",
                "operator": "Natalia Aleksandrov",
                "operator:type": "private",
                "amenity": "kindergarten"
            }
        },
        {
            "id": 34521,
            "type": "Feature",
            "geometry": {
                "type": "Point",
                "coordinates": [
                    16.5353,
                    51.99762
                ]
            },
            "properties": {
                "ref:rspo": 34521,
                "official_name": "Zesp\u00f3\u0142 Szk\u00f3\u0142 Ponadpodstawowych im. Jana Kasprowicza w Niet\u0105\u017ckowie",
                "name": "Zesp\u00f3\u0142 Szk\u00f3\u0142 Ponadpodstawowych",
                "addr:postcode": "64-030",
                "addr:city": "Niet\u0105\u017ckowo",
                "addr:street": "Dudycza",
                "addr:housenumber": "4",
                "addr:city:simc": 376596,
                "addr:street:sym_ul": 43284,
                "phone": "+48 655180027",
                "email": "sekretariat@zspnietazkowo.pl",
                "website": "http:\/\/www.zspnietazkowo.pl",
                "ref:regon": "411427140",
                "ref:vatin": "PL6981667042",
                "operator": "Powiat Ko\u015bcia\u0144ski",
                "operator:type": "government",
                "landuse": "education",
                "fixme": "amenity=school, amenity=college albo landuse=education w zale\u017cno\u015bci od tego, jakie plac\u00f3wki wchodz\u0105 w sk\u0142ad zespo\u0142u. Sprawd\u017a, kiedy stosowa\u0107 amenity=* a kiedy landuse=education.",
                "note": "Children RSPO: 49151;49265;50262;128494;275465"
            }
        },
        {
            "id": 38495,
            "type": "Feature",
            "geometry": {
                "type": "Point",
                "coordinates": [
                    16.5353,
                    51.997589999999995
                ]
            },
            "properties": {
                "isced:level": "3",
                "ref:rspo": 38495,
                "official_name": "Liceum Og\u00f3lnokszta\u0142c\u0105ce dla Doros\u0142ych w Niet\u0105\u017ckowie",
                "name": "Liceum Og\u00f3lnokszta\u0142c\u0105ce dla Doros\u0142ych w Niet\u0105\u017ckowie",
                "addr:postcode": "64-030",
                "addr:city": "Niet\u0105\u017ckowo",
                "addr:street": "Dudycza",
                "addr:housenumber": "4",
                "addr:city:simc": 376596,
                "addr:street:sym_ul": 43284,
                "phone": "+48 655180027",
                "email": "m.grzeskowiak56@gmail.com",
                "ref:regon": "302249332",
                "ref:vatin": "PL6981043301",
                "operator": "Magdalena Grze\u015bkowiak",
                "operator:type": "private",
                "amenity": "school"
            }
        },
        {
            "id": 49151,
            "type": "Feature",
            "geometry": {
                "type": "Point",
                "coordinates": [
                    16.5353,
                    51.99756
                ]
            },
            "properties": {
                "isced:level": "3",
                "ref:rspo": 49151,
                "official_name": "Bran\u017cowa Szko\u0142a I Stopnia w Niet\u0105\u017ckowie",
                "name": "Bran\u017cowa Szko\u0142a I Stopnia w Niet\u0105\u017ckowie",
                "addr:postcode": "64-030",
                "addr:city": "Niet\u0105\u017ckowo",
                "addr:street": "Dudycza",
                "addr:housenumber": "4",
                "addr:city:simc": 376596,
                "addr:street:sym_ul": 43284,
                "phone": "+48 655180027",
                "email": "sekretariat@zspnietazkowo.pl",
                "website": "http:\/\/www.zspnietazkowo.pl",
                "ref:regon": "411499033",
                "ref:vatin": "PL6981667042",
                "operator": "Powiat Ko\u015bcia\u0144ski",
                "operator:type": "government",
                "amenity": "school",
                "note": "Parent RSPO: 34521"
            }
        },
        {
            "id": 49265,
            "type": "Feature",
            "geometry": {
                "type": "Point",
                "coordinates": [
                    16.5353,
                    51.99753
                ]
            },
            "properties": {
                "isced:level": "3",
                "ref:rspo": 49265,
                "official_name": "Liceum Og\u00f3lnokszta\u0142c\u0105ce w Niet\u0105\u017ckowie",
                "name": "Liceum Og\u00f3lnokszta\u0142c\u0105ce w Niet\u0105\u017ckowie",
                "addr:postcode": "64-030",
                "addr:city": "Niet\u0105\u017ckowo",
                "addr:street": "Dudycza",
                "addr:housenumber": "4",
                "addr:city:simc": 376596,
                "addr:street:sym_ul": 43284,
                "phone": "+48 655180027",
                "email": "sekretariat@zspnietazkowo.pl",
                "website": "http:\/\/www.zspnietazkowo.pl",
                "ref:regon": "301066374",
                "operator": "Powiat Ko\u015bcia\u0144ski",
                "operator:type": "government",
                "amenity": "school",
                "note": "Parent RSPO: 34521"
            }
        },
        {
            "id": 50262,
            "type": "Feature",
            "geometry": {
                "type": "Point",
                "coordinates": [
                    16.5353,
                    51.997499999999995
                ]
            },
            "properties": {
                "isced:level": "3",
                "ref:rspo": 50262,
                "official_name": "Technikum w Niet\u0105\u017ckowie",
                "name": "Technikum w Niet\u0105\u017ckowie",
                "addr:postcode": "64-030",
                "addr:city": "Niet\u0105\u017ckowo",
                "addr:street": "Dudycza",
                "addr:housenumber": "4",
                "addr:city:simc": 376596,
                "addr:street:sym_ul": 43284,
                "phone": "+48 655180027",
                "email": "sekretariat@zspnietazkowo.pl",
                "website": "http:\/\/www.zspnietazkowo.pl",
                "ref:regon": "411533014",
                "operator": "Powiat Ko\u015bcia\u0144ski",
                "operator:type": "government",
                "amenity": "school",
                "note": "Parent RSPO: 34521"
            }
        },
        {
            "id": 128494,
            "type": "Feature",
            "geometry": {
                "type": "Point",
                "coordinates": [
                    16.5353,
                    51.99747
                ]
            },
            "properties": {
                "isced:level": "4",
                "ref:rspo": 128494,
                "official_name": "Szko\u0142a Policealna w Niet\u0105\u017ckowie",
                "name": "Szko\u0142a Policealna w Niet\u0105\u017ckowie",
                "addr:postcode": "64-030",
                "addr:city": "Niet\u0105\u017ckowo",
                "addr:street": "Dudycza",
                "addr:housenumber": "4",
                "addr:city:simc": 376596,
                "addr:street:sym_ul": 43284,
                "phone": "+48 655180027",
                "email": "sekretariat@zspnietazkowo.pl",
                "website": "http:\/\/www.zspnietazkowo.home.pl",
                "ref:regon": "362298708",
                "operator": "Powiat Ko\u015bcia\u0144ski",
                "operator:type": "government",
                "amenity": "college",
                "note": "Parent RSPO: 34521"
            }
        },
        {
            "id": 275465,
            "type": "Feature",
            "geometry": {
                "type": "Point",
                "coordinates": [
                    16.5353,
                    51.99744
                ]
            },
            "properties": {
                "isced:level": "3",
                "ref:rspo": 275465,
                "official_name": "Bran\u017cowa Szko\u0142a II Stopnia w Niet\u0105\u017ckowie",
                "name": "Bran\u017cowa Szko\u0142a II Stopnia w Niet\u0105\u017ckowie",
                "addr:postcode": "64-030",
                "addr:city": "Niet\u0105\u017ckowo",
                "addr:street": "Dudycza",
                "addr:housenumber": "4",
                "addr:city:simc": 376596,
                "addr:street:sym_ul": 43284,
                "phone": "+48 655180027",
                "email": "sekretariat@zspnietazkowo.pl",
                "website": "http:\/\/www.zspnietazkowo.pl",
                "ref:regon": "386922200",
                "operator": "Powiat Ko\u015bcia\u0144ski",
                "operator:type": "government",
                "amenity": "school",
                "note": "Parent RSPO: 34521"
            }
        },
        {
            "id": 81599,
            "type": "Feature",
            "geometry": {
                "type": "Point",
                "coordinates": [
                    16.68685,
                    52.00193
                ]
            },
            "properties": {
                "isced:level": "1;2",
                "ref:rspo": 81599,
                "official_name": "Szko\u0142a Podstawowa im. Arkadego Fiedlera w Starej Przysiece Drugiej Szko\u0142a Filialna w Wonie\u015bciu",
                "name": "Szko\u0142a Podstawowa",
                "addr:postcode": "64-030",
                "addr:place": "Wonie\u015b\u0107",
                "addr:housenumber": "36",
                "addr:city:simc": 376805,
                "phone": "+48 655186193",
                "email": "sekretariat@szkola-przysieka.pl",
                "ref:regon": "111833000",
                "operator": "Gmina \u015amigiel",
                "operator:type": "government",
                "amenity": "school",
                "note": "Parent RSPO: 73170"
            }
        },
        {
            "id": 41656,
            "type": "Feature",
            "geometry": {
                "type": "Point",
                "coordinates": [
                    16.58542,
                    52.0021
                ]
            },
            "properties": {
                "ref:rspo": 41656,
                "official_name": "Zesp\u00f3\u0142 Szk\u00f3\u0142 w Starym Bojanowie",
                "name": "Zesp\u00f3\u0142 Szk\u00f3\u0142 w Starym Bojanowie",
                "addr:postcode": "64-030",
                "addr:city": "Stare Bojanowo",
                "addr:street": "Szkolna",
                "addr:housenumber": "6",
                "addr:city:simc": 376768,
                "addr:street:sym_ul": 21970,
                "phone": "+48 655185143",
                "email": "sekretariat@szkola-starebojanowo.pl",
                "ref:regon": "411128236",
                "ref:vatin": "PL6981606951",
                "operator": "Gmina \u015amigiel",
                "operator:type": "government",
                "landuse": "education",
                "fixme": "amenity=school, amenity=college albo landuse=education w zale\u017cno\u015bci od tego, jakie plac\u00f3wki wchodz\u0105 w sk\u0142ad zespo\u0142u. Sprawd\u017a, kiedy stosowa\u0107 amenity=* a kiedy landuse=education.",
                "note": "Children RSPO: 64821"
            }
        },
        {
            "id": 64821,
            "type": "Feature",
            "geometry": {
                "type": "Point",
                "coordinates": [
                    16.58542,
                    52.002069999999996
                ]
            },
            "properties": {
                "isced:level": "1;2",
                "ref:rspo": 64821,
                "official_name": "Szko\u0142a Podstawowa im. Powsta\u0144c\u00f3w Wielkopolskich w Starym Bojanowie",
                "name": "Szko\u0142a Podstawowa",
                "addr:postcode": "64-030",
                "addr:city": "Stare Bojanowo",
                "addr:street": "Szkolna",
                "addr:housenumber": "6",
                "addr:city:simc": 376768,
                "addr:street:sym_ul": 21970,
                "phone": "+48 655185143",
                "email": "sekretariat@szkola-starebojanowo.pl",
                "ref:regon": "001118347",
                "operator": "Gmina \u015amigiel",
                "operator:type": "government",
                "amenity": "school",
                "note": "Parent RSPO: 41656"
            }
        },
        {
            "id": 55451,
            "type": "Feature",
            "geometry": {
                "type": "Point",
                "coordinates": [
                    16.5229,
                    52.01239
                ]
            },
            "properties": {
                "ref:rspo": 55451,
                "official_name": "Przedszkole w \u015amiglu",
                "name": "Przedszkole w \u015amiglu",
                "addr:postcode": "64-030",
                "addr:city": "\u015amigiel",
                "addr:street": "Aleja Bohater\u00f3w",
                "addr:housenumber": "7",
                "addr:city:simc": 954656,
                "addr:street:sym_ul": 48397,
                "phone": "+48 655180109",
                "email": "przedszkole_smigiel@poczta.onet.pl",
                "website": "http:\/\/www.przedszkole.smigiel.pl",
                "ref:regon": "000928877",
                "ref:vatin": "PL6981067431",
                "operator": "Gmina \u015amigiel",
                "operator:type": "government",
                "amenity": "kindergarten"
            }
        },
        {
            "id": 40848,
            "type": "Feature",
            "geometry": {
                "type": "Point",
                "coordinates": [
                    16.52141,
                    52.0168
                ]
            },
            "properties": {
                "isced:level": "1;2",
                "ref:rspo": 40848,
                "official_name": "Szko\u0142a Podstawowa im. Konstytucji 3 Maja w \u015amiglu",
                "name": "Szko\u0142a Podstawowa",
                "addr:postcode": "64-030",
                "addr:city": "\u015amigiel",
                "addr:street": "Marii Konopnickiej",
                "addr:housenumber": "5",
                "addr:city:simc": 954656,
                "addr:street:sym_ul": 9182,
                "phone": "+48 655180143",
                "email": "sekretariat@sp.smigiel.pl",
                "website": "http:\/\/sp.smigiel.pl",
                "ref:regon": "001307210",
                "ref:vatin": "PL6981395402",
                "operator": "Gmina \u015amigiel",
                "operator:type": "government",
                "amenity": "school"
            }
        },
        {
            "id": 55404,
            "type": "Feature",
            "geometry": {
                "type": "Point",
                "coordinates": [
                    16.5231299,
                    52.01695
                ]
            },
            "properties": {
                "ref:rspo": 55404,
                "official_name": "Szkolne Schronisko M\u0142odzie\u017cowe",
                "name": "Szkolne Schronisko M\u0142odzie\u017cowe",
                "addr:postcode": "64-030",
                "addr:city": "\u015amigiel",
                "addr:street": "Marii Konopnickiej",
                "addr:housenumber": "4a",
                "addr:city:simc": 954656,
                "addr:street:sym_ul": 9182,
                "phone": "+48 655180293",
                "email": "biuro@schronisko.smigiel.pl",
                "ref:regon": "411413540",
                "ref:vatin": "PL6981662458",
                "operator": "Gmina \u015amigiel",
                "operator:type": "government",
                "tourism": "hostel"
            }
        },
        {
            "id": 73170,
            "type": "Feature",
            "geometry": {
                "type": "Point",
                "coordinates": [
                    16.6322427,
                    52.0216085
                ]
            },
            "properties": {
                "isced:level": "1;2",
                "ref:rspo": 73170,
                "official_name": "Szko\u0142a Podstawowa im. Arkadego Fiedlera w Starej Przysiece Drugiej",
                "name": "Szko\u0142a Podstawowa",
                "addr:postcode": "64-030",
                "addr:place": "Stara Przysieka Druga",
                "addr:housenumber": "34",
                "addr:city:simc": 376739,
                "phone": "+48 655122662",
                "email": "sekretariat@szkola-przysieka.pl",
                "website": "http:\/\/www.szkola-przysieka.pl",
                "ref:regon": "001118330",
                "ref:vatin": "PL6981606916",
                "operator": "Gmina \u015amigiel",
                "operator:type": "government",
                "amenity": "school",
                "note": "Children RSPO: 81599"
            }
        },
        {
            "id": 42312,
            "type": "Feature",
            "geometry": {
                "type": "Point",
                "coordinates": [
                    16.54388,
                    52.03631
                ]
            },
            "properties": {
                "ref:rspo": 42312,
                "official_name": "Zesp\u00f3\u0142 Szk\u00f3\u0142 w Czaczu",
                "name": "Zesp\u00f3\u0142 Szk\u00f3\u0142 w Czaczu",
                "addr:postcode": "64-030",
                "addr:city": "Czacz",
                "addr:street": "Parkowa",
                "addr:housenumber": "2",
                "addr:city:simc": 376461,
                "addr:street:sym_ul": 15710,
                "phone": "+48 655180227",
                "email": "sekretariat@czacz.pl",
                "ref:regon": "411128259",
                "ref:vatin": "PL6981606968",
                "operator": "Gmina \u015amigiel",
                "operator:type": "government",
                "landuse": "education",
                "fixme": "amenity=school, amenity=college albo landuse=education w zale\u017cno\u015bci od tego, jakie plac\u00f3wki wchodz\u0105 w sk\u0142ad zespo\u0142u. Sprawd\u017a, kiedy stosowa\u0107 amenity=* a kiedy landuse=education.",
                "note": "Children RSPO: 61419;75792"
            }
        },
        {
            "id": 61419,
            "type": "Feature",
            "geometry": {
                "type": "Point",
                "coordinates": [
                    16.54388,
                    52.03628
                ]
            },
            "properties": {
                "isced:level": "1;2",
                "ref:rspo": 61419,
                "official_name": "Szko\u0142a Podstawowa im.polskich Noblist\u00f3w w Czaczu",
                "name": "Szko\u0142a Podstawowa im.polskich Noblist\u00f3w w Czaczu",
                "addr:postcode": "63-030",
                "addr:city": "Czacz",
                "addr:street": "Parkowa",
                "addr:housenumber": "2",
                "addr:city:simc": 376461,
                "addr:street:sym_ul": 15710,
                "phone": "+48 655180227",
                "email": "sekretariat@czacz.pl",
                "ref:regon": "001118353",
                "operator": "Gmina \u015amigiel",
                "operator:type": "government",
                "amenity": "school",
                "note": "Parent RSPO: 42312"
            }
        },
        {
            "id": 75792,
            "type": "Feature",
            "geometry": {
                "type": "Point",
                "coordinates": [
                    16.54388,
                    52.03625
                ]
            },
            "properties": {
                "ref:rspo": 75792,
                "official_name": "Przedszkole w Czaczu",
                "name": "Przedszkole w Czaczu",
                "addr:postcode": "64-030",
                "addr:city": "Czacz",
                "addr:street": "Parkowa",
                "addr:housenumber": "2",
                "addr:city:simc": 376461,
                "addr:street:sym_ul": 15710,
                "phone": "+48 655180227",
                "email": "sekretariat@czacz.pl",
                "ref:regon": "302262404",
                "operator": "Gmina \u015amigiel",
                "operator:type": "government",
                "amenity": "kindergarten",
                "note": "Parent RSPO: 42312"
            }
        }
    ]
}