{
    "type": "FeatureCollection",
    "features": [
        {
            "id": 128117,
            "type": "Feature",
            "geometry": {
                "type": "Point",
                "coordinates": [
                    16.93453,
                    51.95067
                ]
            },
            "properties": {
                "ref:rspo": 128117,
                "official_name": "Przedszkole Samorz\u0105dowe w Bielewie",
                "name": "Przedszkole Samorz\u0105dowe w Bielewie",
                "addr:country": "PL",
                "addr:postcode": "64-010",
                "addr:place": "Bielewo",
                "addr:housenumber": "24",
                "addr:door": "1",
                "addr:teryt:sym_ul": 372517,
                "contact:phone": "+48 655177603",
                "ref:regon": "362115085",
                "operator": "Gmina Krzywi\u0144",
                "operator:type": "government",
                "amenity": "kindergarten",
                "note": "Parent RSPO: 24822"
            }
        },
        {
            "id": 24734,
            "type": "Feature",
            "geometry": {
                "type": "Point",
                "coordinates": [
                    16.82357,
                    51.95848
                ]
            },
            "properties": {
                "ref:rspo": 24734,
                "official_name": "Zesp\u00f3\u0142 Szk\u00f3\u0142 w Krzywiniu",
                "name": "Zesp\u00f3\u0142 Szk\u00f3\u0142 w Krzywiniu",
                "addr:country": "PL",
                "addr:postcode": "64-010",
                "addr:city": "Krzywi\u0144",
                "addr:street": "Strzelecka",
                "addr:housenumber": "13",
                "addr:teryt:simc": 21381,
                "addr:teryt:sym_ul": 954544,
                "contact:phone": "+48 655170517",
                "contact:email": "sekretariat@zskrzywin.pl",
                "contact:website": "http:\/\/zskrzywin.pl",
                "ref:regon": "411431360",
                "ref:vatin": "PL6981668403",
                "operator": "Gmina Krzywi\u0144",
                "operator:type": "government",
                "landuse": "education",
                "fixme": "amenity=school, amenity=college albo landuse=education w zale\u017cno\u015bci od tego, jakie plac\u00f3wki wchodz\u0105 w sk\u0142ad zespo\u0142u. Sprawd\u017a, kiedy stosowa\u0107 amenity=* a kiedy landuse=education.",
                "note": "Children RSPO: 24641;30134;30361;30726;53286;128132"
            }
        },
        {
            "id": 24641,
            "type": "Feature",
            "geometry": {
                "type": "Point",
                "coordinates": [
                    16.82357,
                    51.95845
                ]
            },
            "properties": {
                "ref:rspo": 24641,
                "official_name": "Przedszkole Samorz\u0105dowe im. Majki Je\u017cowskiej w Krzywiniu",
                "name": "Przedszkole Samorz\u0105dowe",
                "addr:country": "PL",
                "addr:postcode": "64-010",
                "addr:city": "Krzywi\u0144",
                "addr:street": "Strzelecka",
                "addr:housenumber": "13",
                "addr:teryt:simc": 21381,
                "addr:teryt:sym_ul": 954544,
                "contact:phone": "+48 655170517",
                "contact:email": "sekretariat@zskrzywin.pl",
                "ref:regon": "000928937",
                "ref:vatin": "PL6981705009",
                "operator": "Gmina Krzywi\u0144",
                "operator:type": "government",
                "amenity": "kindergarten",
                "note": "Parent RSPO: 24734"
            }
        },
        {
            "id": 30726,
            "type": "Feature",
            "geometry": {
                "type": "Point",
                "coordinates": [
                    16.82357,
                    51.958420000000004
                ]
            },
            "properties": {
                "isced:level": "1;2",
                "ref:rspo": 30726,
                "official_name": "Szko\u0142a Podstawowa im. Powsta\u0144czej Kompanii Krzywi\u0144skiej w Krzywiniu",
                "name": "Szko\u0142a Podstawowa",
                "addr:country": "PL",
                "addr:postcode": "64-010",
                "addr:city": "Krzywi\u0144",
                "addr:street": "Strzelecka",
                "addr:housenumber": "13",
                "addr:teryt:simc": 21381,
                "addr:teryt:sym_ul": 954544,
                "contact:phone": "+48 655170517",
                "contact:email": "sekretariat@zskrzywin.pl",
                "contact:website": "http:\/\/www.zskrzwin.pl",
                "ref:regon": "000629838",
                "operator": "Gmina Krzywi\u0144",
                "operator:type": "government",
                "amenity": "school",
                "note": "Parent RSPO: 24734"
            }
        },
        {
            "id": 30134,
            "type": "Feature",
            "geometry": {
                "type": "Point",
                "coordinates": [
                    16.83517,
                    51.96008
                ]
            },
            "properties": {
                "isced:level": "3",
                "ref:rspo": 30134,
                "official_name": "Liceum Og\u00f3lnokszta\u0142c\u0105ce im. Kajetana Morawskiego w Krzywiniu",
                "name": "Liceum Og\u00f3lnokszta\u0142c\u0105ce",
                "addr:country": "PL",
                "addr:postcode": "64-010",
                "addr:city": "Krzywi\u0144",
                "addr:street": "Genera\u0142a Ch\u0142apowskiego",
                "addr:housenumber": "34",
                "addr:teryt:simc": 46271,
                "addr:teryt:sym_ul": 954544,
                "contact:phone": "+48 655170503",
                "contact:email": "sekretariat@zskrzywin.pl",
                "contact:website": "http:\/\/zspkrzywin.com",
                "ref:regon": "411492522",
                "operator": "Gmina Krzywi\u0144",
                "operator:type": "government",
                "amenity": "school",
                "note": "Parent RSPO: 24734"
            }
        },
        {
            "id": 30361,
            "type": "Feature",
            "geometry": {
                "type": "Point",
                "coordinates": [
                    16.83517,
                    51.960049999999995
                ]
            },
            "properties": {
                "isced:level": "3",
                "ref:rspo": 30361,
                "official_name": "Liceum Og\u00f3lnokszta\u0142c\u0105ce dla Doros\u0142ych w Krzywiniu",
                "name": "Liceum Og\u00f3lnokszta\u0142c\u0105ce dla Doros\u0142ych w Krzywiniu",
                "addr:country": "PL",
                "addr:postcode": "64-010",
                "addr:city": "Krzywi\u0144",
                "addr:street": "Genera\u0142a Ch\u0142apowskiego",
                "addr:housenumber": "34",
                "addr:teryt:simc": 46271,
                "addr:teryt:sym_ul": 954544,
                "contact:phone": "+48 655170503",
                "contact:email": "sekretariat@zskrzywin.pl",
                "contact:website": "http:\/\/zspkrzywin.com",
                "ref:regon": "302240526",
                "operator": "Gmina Krzywi\u0144",
                "operator:type": "government",
                "amenity": "school",
                "note": "Parent RSPO: 24734"
            }
        },
        {
            "id": 53286,
            "type": "Feature",
            "geometry": {
                "type": "Point",
                "coordinates": [
                    16.83517,
                    51.96002
                ]
            },
            "properties": {
                "isced:level": "3",
                "ref:rspo": 53286,
                "official_name": "Szko\u0142a Bran\u017cowa I Stopnia im. Kajetana Morawskiego w Krzywiniu",
                "name": "Szko\u0142a Bran\u017cowa I Stopnia",
                "addr:country": "PL",
                "addr:postcode": "64-010",
                "addr:city": "Krzywi\u0144",
                "addr:street": "Genera\u0142a Ch\u0142apowskiego",
                "addr:housenumber": "34",
                "addr:teryt:simc": 46271,
                "addr:teryt:sym_ul": 954544,
                "contact:phone": "+48 655170503",
                "contact:email": "sekretariat@zskrzywin.pl",
                "contact:website": "http:\/\/www.zskrzywin.pl",
                "ref:regon": "411492516",
                "operator": "Gmina Krzywi\u0144",
                "operator:type": "government",
                "amenity": "school",
                "note": "Parent RSPO: 24734"
            }
        },
        {
            "id": 24822,
            "type": "Feature",
            "geometry": {
                "type": "Point",
                "coordinates": [
                    16.8982,
                    51.96434
                ]
            },
            "properties": {
                "ref:rspo": 24822,
                "official_name": "Zesp\u00f3\u0142 Szk\u00f3\u0142 I Plac\u00f3wek O\u015bwiatowych im. Adama Mickiewicza w Lubiniu",
                "name": "Zesp\u00f3\u0142 Szk\u00f3\u0142 I Plac\u00f3wek O\u015bwiatowych",
                "addr:country": "PL",
                "addr:postcode": "64-010",
                "addr:city": "Lubi\u0144",
                "addr:street": "Powsta\u0144c\u00f3w",
                "addr:housenumber": "23",
                "addr:teryt:simc": 17354,
                "addr:teryt:sym_ul": 372664,
                "contact:phone": "+48 655177627",
                "contact:email": "zslubin@wp.pl",
                "contact:website": "http:\/\/zslubin.edu.pl",
                "ref:regon": "411431621",
                "ref:vatin": "PL6981668343",
                "operator": "Gmina Krzywi\u0144",
                "operator:type": "government",
                "landuse": "education",
                "fixme": "amenity=school, amenity=college albo landuse=education w zale\u017cno\u015bci od tego, jakie plac\u00f3wki wchodz\u0105 w sk\u0142ad zespo\u0142u. Sprawd\u017a, kiedy stosowa\u0107 amenity=* a kiedy landuse=education.",
                "note": "Children RSPO: 53267;53272;128117;128118"
            }
        },
        {
            "id": 53267,
            "type": "Feature",
            "geometry": {
                "type": "Point",
                "coordinates": [
                    16.8982,
                    51.96431
                ]
            },
            "properties": {
                "ref:rspo": 53267,
                "official_name": "Szkolne Schronisko M\u0142odzie\u017cowe w Lubiniu",
                "name": "Szkolne Schronisko M\u0142odzie\u017cowe w Lubiniu",
                "addr:country": "PL",
                "addr:postcode": "64-010",
                "addr:city": "Lubi\u0144",
                "addr:street": "Powsta\u0144c\u00f3w",
                "addr:housenumber": "23",
                "addr:teryt:simc": 17354,
                "addr:teryt:sym_ul": 372664,
                "contact:phone": "+48 655177627",
                "contact:email": "zslubin@wp.pl",
                "contact:website": "http:\/\/zslubin.edu.pl",
                "ref:regon": "411538543",
                "ref:vatin": "PL6981704978",
                "operator": "Gmina Krzywi\u0144",
                "operator:type": "government",
                "tourism": "hostel",
                "note": "Parent RSPO: 24822"
            }
        },
        {
            "id": 53272,
            "type": "Feature",
            "geometry": {
                "type": "Point",
                "coordinates": [
                    16.8982,
                    51.96428
                ]
            },
            "properties": {
                "isced:level": "1;2",
                "ref:rspo": 53272,
                "official_name": "Szko\u0142a Podstawowa im. Adama Mickiewicza w Lubiniu",
                "name": "Szko\u0142a Podstawowa",
                "addr:country": "PL",
                "addr:postcode": "64-010",
                "addr:city": "Lubi\u0144",
                "addr:street": "Powsta\u0144c\u00f3w",
                "addr:housenumber": "23",
                "addr:teryt:simc": 17354,
                "addr:teryt:sym_ul": 372664,
                "contact:phone": "+48 655177627",
                "contact:email": "zslubin@wp.pl",
                "contact:website": "http:\/\/zslubin.edu.pl",
                "ref:regon": "410368725",
                "ref:vatin": "PL6981528323",
                "operator": "Gmina Krzywi\u0144",
                "operator:type": "government",
                "amenity": "school",
                "note": "Parent RSPO: 24822"
            }
        },
        {
            "id": 128118,
            "type": "Feature",
            "geometry": {
                "type": "Point",
                "coordinates": [
                    16.9013,
                    51.96506
                ]
            },
            "properties": {
                "ref:rspo": 128118,
                "official_name": "Przedszkole Samorz\u0105dowe w Lubiniu",
                "name": "Przedszkole Samorz\u0105dowe w Lubiniu",
                "addr:country": "PL",
                "addr:postcode": "64-010",
                "addr:city": "Lubi\u0144",
                "addr:street": "Adama Mickiewicza",
                "addr:housenumber": "10",
                "addr:teryt:simc": 12734,
                "addr:teryt:sym_ul": 372664,
                "contact:phone": "+48 655177225",
                "ref:regon": "362115122",
                "operator": "Gmina Krzywi\u0144",
                "operator:type": "government",
                "amenity": "kindergarten",
                "note": "Parent RSPO: 24822"
            }
        },
        {
            "id": 53264,
            "type": "Feature",
            "geometry": {
                "type": "Point",
                "coordinates": [
                    16.81963,
                    51.96537
                ]
            },
            "properties": {
                "ref:rspo": 53264,
                "official_name": "Niepubliczne Przedszkole Ochronka im.b\u0142.edmunda Bojanowskiego w Krzywiniu",
                "name": "Niepubliczne Przedszkole Ochronka im.b\u0142.edmunda Bojanowskiego w Krzywiniu",
                "addr:country": "PL",
                "addr:postcode": "64-010",
                "addr:city": "Krzywi\u0144",
                "addr:street": "Edmunda Bojanowskiego",
                "addr:housenumber": "2",
                "addr:teryt:simc": 1704,
                "addr:teryt:sym_ul": 954544,
                "contact:phone": "+48 655170542",
                "contact:email": "ochronka1@o2.pl",
                "contact:website": "http:\/\/ochronkakrzywin.republika.pl",
                "ref:regon": "302260523",
                "ref:vatin": "PL6981711139",
                "operator": "Prowincja \u015awi\u0119tego J\u00f3zefa Zgromadzenia Si\u00f3str S\u0142u\u017cebniczek Niepokalanego Pocz\u0119cia Naj\u015bwi\u0119tszej Maryi Panny",
                "operator:type": "religious",
                "amenity": "kindergarten"
            }
        },
        {
            "id": 53239,
            "type": "Feature",
            "geometry": {
                "type": "Point",
                "coordinates": [
                    16.97886,
                    51.97527
                ]
            },
            "properties": {
                "ref:rspo": 53239,
                "official_name": "Szkolne Schronisko M\u0142odzie\u017cowe w \u0141agowie",
                "name": "Szkolne Schronisko M\u0142odzie\u017cowe w \u0141agowie",
                "addr:country": "PL",
                "addr:postcode": "64-010",
                "addr:place": "\u0141agowo",
                "addr:housenumber": "56",
                "addr:teryt:sym_ul": 372670,
                "contact:phone": "+48 655177314",
                "contact:email": "spbiezyn@wp.pl",
                "contact:website": "http:\/\/spbiezyn.pl",
                "ref:regon": "411538023",
                "ref:vatin": "PL6981704984",
                "operator": "Gmina Krzywi\u0144",
                "operator:type": "government",
                "tourism": "hostel",
                "note": "Parent RSPO: 128116"
            }
        },
        {
            "id": 128215,
            "type": "Feature",
            "geometry": {
                "type": "Point",
                "coordinates": [
                    16.93868,
                    51.97805
                ]
            },
            "properties": {
                "ref:rspo": 128215,
                "official_name": "Przedszkole Samorz\u0105dowe w Bie\u017cyniu",
                "name": "Przedszkole Samorz\u0105dowe w Bie\u017cyniu",
                "addr:country": "PL",
                "addr:postcode": "64-010",
                "addr:place": "Bie\u017cy\u0144",
                "addr:housenumber": "116",
                "addr:teryt:sym_ul": 372523,
                "contact:phone": "+48 655177217",
                "contact:email": "spbiezyn@wp.pl",
                "contact:website": "http:\/\/spbiezyn.pl",
                "ref:regon": "362177620",
                "operator": "Gmina Krzywi\u0144",
                "operator:type": "government",
                "amenity": "kindergarten",
                "note": "Parent RSPO: 128116"
            }
        },
        {
            "id": 128116,
            "type": "Feature",
            "geometry": {
                "type": "Point",
                "coordinates": [
                    16.93974,
                    51.97896
                ]
            },
            "properties": {
                "ref:rspo": 128116,
                "official_name": "Zesp\u00f3\u0142 Szk\u00f3\u0142 I Plac\u00f3wek O\u015bwiatowych w Bie\u017cyniu",
                "name": "Zesp\u00f3\u0142 Szk\u00f3\u0142 I Plac\u00f3wek O\u015bwiatowych w Bie\u017cyniu",
                "addr:country": "PL",
                "addr:postcode": "64-010",
                "addr:place": "Bie\u017cy\u0144",
                "addr:housenumber": "111",
                "addr:teryt:sym_ul": 372523,
                "contact:phone": "+48 655177314",
                "contact:email": "sekretariat@spbiezyn.pl",
                "contact:website": "http:\/\/spbiezyn.pl",
                "ref:regon": "362115079",
                "operator": "Gmina Krzywi\u0144",
                "operator:type": "government",
                "landuse": "education",
                "fixme": "amenity=school, amenity=college albo landuse=education w zale\u017cno\u015bci od tego, jakie plac\u00f3wki wchodz\u0105 w sk\u0142ad zespo\u0142u. Sprawd\u017a, kiedy stosowa\u0107 amenity=* a kiedy landuse=education.",
                "note": "Children RSPO: 24628;53239;128215"
            }
        },
        {
            "id": 24628,
            "type": "Feature",
            "geometry": {
                "type": "Point",
                "coordinates": [
                    16.93974,
                    51.97893
                ]
            },
            "properties": {
                "isced:level": "1;2",
                "ref:rspo": 24628,
                "official_name": "Szko\u0142a Podstawowa w Bie\u017cyniu",
                "name": "Szko\u0142a Podstawowa w Bie\u017cyniu",
                "addr:country": "PL",
                "addr:postcode": "64-010",
                "addr:place": "Bie\u017cy\u0144",
                "addr:housenumber": "111",
                "addr:teryt:sym_ul": 372523,
                "contact:phone": "+48 655177314",
                "contact:email": "sekretariat@spbiezyn.pl",
                "contact:website": "http:\/\/spbiezyn.pl",
                "ref:regon": "001118459",
                "ref:vatin": "PL6981404489",
                "operator": "Gmina Krzywi\u0144",
                "operator:type": "government",
                "amenity": "school",
                "note": "Parent RSPO: 128116"
            }
        },
        {
            "id": 128132,
            "type": "Feature",
            "geometry": {
                "type": "Point",
                "coordinates": [
                    16.79029,
                    51.99345
                ]
            },
            "properties": {
                "ref:rspo": 128132,
                "official_name": "Przedszkole Samorz\u0105dowe w \u015awi\u0144cu",
                "name": "Przedszkole Samorz\u0105dowe w \u015awi\u0144cu",
                "addr:country": "PL",
                "addr:postcode": "64-010",
                "addr:place": "\u015awiniec",
                "addr:housenumber": "31",
                "addr:teryt:sym_ul": 372799,
                "contact:phone": "+48 655170616",
                "contact:email": "sekretariat@zskrzywin.pl",
                "ref:regon": "362117262",
                "operator": "Gmina Krzywi\u0144",
                "operator:type": "government",
                "amenity": "kindergarten",
                "note": "Parent RSPO: 24734"
            }
        },
        {
            "id": 53194,
            "type": "Feature",
            "geometry": {
                "type": "Point",
                "coordinates": [
                    16.8494199,
                    51.99777
                ]
            },
            "properties": {
                "ref:rspo": 53194,
                "official_name": "Zesp\u00f3\u0142 Szk\u00f3\u0142 w Jerce",
                "name": "Zesp\u00f3\u0142 Szk\u00f3\u0142 w Jerce",
                "addr:country": "PL",
                "addr:postcode": "64-010",
                "addr:city": "Jerka",
                "addr:street": "Szkolna",
                "addr:housenumber": "5",
                "addr:teryt:simc": 21970,
                "addr:teryt:sym_ul": 372581,
                "contact:phone": "+48 655178366",
                "contact:email": "zsjerka@op.pl",
                "contact:website": "http:\/\/zsjerka.pl",
                "ref:regon": "411126651",
                "ref:vatin": "PL6981603935",
                "operator": "Gmina Krzywi\u0144",
                "operator:type": "government",
                "landuse": "education",
                "fixme": "amenity=school, amenity=college albo landuse=education w zale\u017cno\u015bci od tego, jakie plac\u00f3wki wchodz\u0105 w sk\u0142ad zespo\u0142u. Sprawd\u017a, kiedy stosowa\u0107 amenity=* a kiedy landuse=education.",
                "note": "Children RSPO: 69892;128119;128131"
            }
        },
        {
            "id": 69892,
            "type": "Feature",
            "geometry": {
                "type": "Point",
                "coordinates": [
                    16.8494199,
                    51.99774
                ]
            },
            "properties": {
                "isced:level": "1;2",
                "ref:rspo": 69892,
                "official_name": "Szko\u0142a Podstawowa im. Melchiora Wa\u0144kowicza",
                "name": "Szko\u0142a Podstawowa",
                "addr:country": "PL",
                "addr:postcode": "64-010",
                "addr:city": "Jerka",
                "addr:street": "Szkolna",
                "addr:housenumber": "5",
                "addr:teryt:simc": 21970,
                "addr:teryt:sym_ul": 372581,
                "contact:phone": "+48 655178366",
                "contact:email": "zsjerka@op.pl",
                "contact:website": "http:\/\/zsjerka.pl",
                "ref:regon": "001118376",
                "ref:vatin": "PL6981407915",
                "operator": "Gmina Krzywi\u0144",
                "operator:type": "government",
                "amenity": "school",
                "note": "Parent RSPO: 53194"
            }
        },
        {
            "id": 128119,
            "type": "Feature",
            "geometry": {
                "type": "Point",
                "coordinates": [
                    16.8494199,
                    51.997710000000005
                ]
            },
            "properties": {
                "ref:rspo": 128119,
                "official_name": "Przedszkole Samorz\u0105dowe w Jerce",
                "name": "Przedszkole Samorz\u0105dowe w Jerce",
                "addr:country": "PL",
                "addr:postcode": "64-010",
                "addr:city": "Jerka",
                "addr:street": "Szkolna",
                "addr:housenumber": "5",
                "addr:teryt:simc": 21970,
                "addr:teryt:sym_ul": 372581,
                "contact:phone": "+48 655178366",
                "contact:email": "zsjerka@op.pl",
                "ref:regon": "362115151",
                "operator": "Gmina Krzywi\u0144",
                "operator:type": "government",
                "amenity": "kindergarten",
                "note": "Parent RSPO: 53194"
            }
        },
        {
            "id": 128131,
            "type": "Feature",
            "geometry": {
                "type": "Point",
                "coordinates": [
                    16.81909,
                    52.00962
                ]
            },
            "properties": {
                "ref:rspo": 128131,
                "official_name": "Przedszkole Samorz\u0105dowe w Kopaszewie",
                "name": "Przedszkole Samorz\u0105dowe w Kopaszewie",
                "addr:country": "PL",
                "addr:postcode": "64-010",
                "addr:place": "Kopaszewo",
                "addr:housenumber": "22",
                "addr:teryt:sym_ul": 372641,
                "contact:phone": "+48 655178189",
                "ref:regon": "362116564",
                "operator": "Gmina Krzywi\u0144",
                "operator:type": "government",
                "amenity": "kindergarten",
                "note": "Parent RSPO: 53194"
            }
        }
    ]
}