{
    "type": "FeatureCollection",
    "features": [
        {
            "id": 106734,
            "type": "Feature",
            "geometry": {
                "type": "Point",
                "coordinates": [
                    16.71267,
                    52.05781
                ]
            },
            "properties": {
                "ref:rspo": 106734,
                "official_name": "Zesp\u00f3\u0142 Szk\u00f3\u0142 Gminy Ko\u015bcian Przedszkole I Szko\u0142a Podstawowa w Racocie",
                "name": "Zesp\u00f3\u0142 Szk\u00f3\u0142 Gminy Ko\u015bcian Przedszkole I Szko\u0142a Podstawowa w Racocie",
                "addr:postcode": "64-000",
                "addr:city": "Racot",
                "addr:street": "Szkolna",
                "addr:housenumber": "10",
                "addr:city:simc": 371788,
                "addr:street:sym_ul": 21970,
                "phone": "+48 655131303",
                "email": "sp.racot@wp.pl",
                "website": "http:\/\/zsracot.pl",
                "ref:regon": "410372187",
                "ref:vatin": "PL6981531041",
                "operator": "Gmina Ko\u015bcian",
                "operator:type": "government",
                "landuse": "education",
                "fixme": "amenity=school, amenity=college albo landuse=education w zale\u017cno\u015bci od tego, jakie plac\u00f3wki wchodz\u0105 w sk\u0142ad zespo\u0142u. Sprawd\u017a, kiedy stosowa\u0107 amenity=* a kiedy landuse=education.",
                "note": "Children RSPO: 107058;107059"
            }
        },
        {
            "id": 107058,
            "type": "Feature",
            "geometry": {
                "type": "Point",
                "coordinates": [
                    16.71267,
                    52.05778
                ]
            },
            "properties": {
                "ref:rspo": 107058,
                "official_name": "Gminne Przedszkole w Racocie z Oddzia\u0142ami Przedszkolnymi w Choryni",
                "name": "Gminne Przedszkole w Racocie z Oddzia\u0142ami Przedszkolnymi w Choryni",
                "addr:postcode": "64-000",
                "addr:city": "Racot",
                "addr:street": "Szkolna",
                "addr:housenumber": "10",
                "addr:city:simc": 371788,
                "addr:street:sym_ul": 21970,
                "phone": "+48 655131303",
                "email": "sp.racot@wp.pl",
                "website": "http:\/\/www.spracot.republika.pl",
                "ref:regon": "411161570",
                "ref:vatin": "PL6981531041",
                "operator": "Gmina Ko\u015bcian",
                "operator:type": "government",
                "amenity": "kindergarten",
                "note": "Parent RSPO: 106734"
            }
        },
        {
            "id": 107059,
            "type": "Feature",
            "geometry": {
                "type": "Point",
                "coordinates": [
                    16.71267,
                    52.057750000000006
                ]
            },
            "properties": {
                "isced:level": "1;2",
                "ref:rspo": 107059,
                "official_name": "Szko\u0142a Podstawowa w Racocie",
                "name": "Szko\u0142a Podstawowa w Racocie",
                "addr:postcode": "64-000",
                "addr:city": "Racot",
                "addr:street": "Szkolna",
                "addr:housenumber": "10",
                "addr:city:simc": 371788,
                "addr:street:sym_ul": 21970,
                "phone": "+48 655131303",
                "email": "sp.racot@wp.pl",
                "website": "http:\/\/zsracot.pl",
                "ref:regon": "411161564",
                "ref:vatin": "PL6981531041",
                "operator": "Gmina Ko\u015bcian",
                "operator:type": "government",
                "amenity": "school",
                "note": "Children RSPO: 109352Parent RSPO: 106734"
            }
        },
        {
            "id": 109352,
            "type": "Feature",
            "geometry": {
                "type": "Point",
                "coordinates": [
                    16.82551,
                    52.0604299
                ]
            },
            "properties": {
                "isced:level": "1;2",
                "ref:rspo": 109352,
                "official_name": "Zesp\u00f3\u0142 Szk\u00f3\u0142 Gminy Ko\u015bcian Przedszkole I Szko\u0142a Podstawowa w Racocie - Szko\u0142a Filialna w Turwi",
                "name": "Zesp\u00f3\u0142 Szk\u00f3\u0142 Gminy Ko\u015bcian Przedszkole I Szko\u0142a Podstawowa w Racocie - Szko\u0142a Filialna w Turwi",
                "addr:postcode": "64-000",
                "addr:city": "Turew",
                "addr:street": "Szkolna",
                "addr:housenumber": "21",
                "addr:city:simc": 371854,
                "addr:street:sym_ul": 21970,
                "phone": "+48 655134263",
                "email": "spturew@op.pl",
                "ref:regon": "411161564",
                "ref:vatin": "PL6981531041",
                "operator": "Gmina Ko\u015bcian",
                "operator:type": "government",
                "amenity": "school",
                "note": "Parent RSPO: 107059"
            }
        },
        {
            "id": 106732,
            "type": "Feature",
            "geometry": {
                "type": "Point",
                "coordinates": [
                    16.712390899658,
                    52.075988769531
                ]
            },
            "properties": {
                "ref:rspo": 106732,
                "official_name": "Zesp\u00f3\u0142 Szk\u00f3\u0142 Gminy Ko\u015bcian Przedszkole I Szko\u0142a Podstawowa w Starym Luboszu",
                "name": "Zesp\u00f3\u0142 Szk\u00f3\u0142 Gminy Ko\u015bcian Przedszkole I Szko\u0142a Podstawowa w Starym Luboszu",
                "addr:postcode": "64-000",
                "addr:city": "Stary Lubosz",
                "addr:street": "Ko\u015bcia\u0144ska",
                "addr:housenumber": "7",
                "addr:city:simc": 371831,
                "addr:street:sym_ul": 9539,
                "phone": "+48 655114131",
                "email": "sekretariat@zslubosz.pl",
                "website": "http:\/\/www.zslubosz.pl",
                "ref:regon": "001118525",
                "ref:vatin": "PL6981025390",
                "operator": "Gmina Ko\u015bcian",
                "operator:type": "government",
                "landuse": "education",
                "fixme": "amenity=school, amenity=college albo landuse=education w zale\u017cno\u015bci od tego, jakie plac\u00f3wki wchodz\u0105 w sk\u0142ad zespo\u0142u. Sprawd\u017a, kiedy stosowa\u0107 amenity=* a kiedy landuse=education.",
                "note": "Children RSPO: 106949;106950"
            }
        },
        {
            "id": 106949,
            "type": "Feature",
            "geometry": {
                "type": "Point",
                "coordinates": [
                    16.712390899658,
                    52.075958769531
                ]
            },
            "properties": {
                "ref:rspo": 106949,
                "official_name": "Gminne Przedszkole w Starym Luboszu",
                "name": "Gminne Przedszkole w Starym Luboszu",
                "addr:postcode": "64-000",
                "addr:city": "Stary Lubosz",
                "addr:street": "Ko\u015bcia\u0144ska",
                "addr:housenumber": "7",
                "addr:city:simc": 371831,
                "addr:street:sym_ul": 9539,
                "phone": "+48 655114131",
                "email": "sekretariat@zslubosz.pl",
                "website": "http:\/\/www.zslubosz.pl",
                "ref:regon": "411529343",
                "ref:vatin": "PL6981025390",
                "operator": "Gmina Ko\u015bcian",
                "operator:type": "government",
                "amenity": "kindergarten",
                "note": "Parent RSPO: 106732"
            }
        },
        {
            "id": 106950,
            "type": "Feature",
            "geometry": {
                "type": "Point",
                "coordinates": [
                    16.712390899658,
                    52.075928769531004
                ]
            },
            "properties": {
                "isced:level": "1;2",
                "ref:rspo": 106950,
                "official_name": "Szko\u0142a Podstawowa w Starym Luboszu",
                "name": "Szko\u0142a Podstawowa w Starym Luboszu",
                "addr:postcode": "64-000",
                "addr:city": "Stary Lubosz",
                "addr:street": "Ko\u015bcia\u0144ska",
                "addr:housenumber": "7",
                "addr:city:simc": 371831,
                "addr:street:sym_ul": 9539,
                "phone": "+48 655114131",
                "email": "sekretariat@zslubosz.pl",
                "website": "http:\/\/www.zslubosz.pl",
                "ref:regon": "411441542",
                "ref:vatin": "PL6981025390",
                "operator": "Gmina Ko\u015bcian",
                "operator:type": "government",
                "amenity": "school",
                "note": "Parent RSPO: 106732"
            }
        },
        {
            "id": 273083,
            "type": "Feature",
            "geometry": {
                "type": "Point",
                "coordinates": [
                    16.58398,
                    52.09171
                ]
            },
            "properties": {
                "isced:level": "1;2",
                "ref:rspo": 273083,
                "official_name": "Szko\u0142a Filialna w Kokorzynie",
                "name": "Szko\u0142a Filialna w Kokorzynie",
                "addr:postcode": "64-000",
                "addr:city": "Kokorzyn",
                "addr:street": "Szkolna",
                "addr:housenumber": "1",
                "addr:city:simc": 371624,
                "addr:street:sym_ul": 21970,
                "phone": "+48 655119443",
                "email": "spkokorzyn@o2.pl",
                "ref:regon": "302325040",
                "operator": "Gmina Ko\u015bcian",
                "operator:type": "government",
                "amenity": "school",
                "note": "Parent RSPO: 107045"
            }
        },
        {
            "id": 106929,
            "type": "Feature",
            "geometry": {
                "type": "Point",
                "coordinates": [
                    16.65941,
                    52.0966499
                ]
            },
            "properties": {
                "ref:rspo": 106929,
                "official_name": "Przedszkole Edukacyjno Sportowe \"Zwinne Szkraby\"",
                "name": "Przedszkole Edukacyjno Sportowe \"Zwinne Szkraby\"",
                "addr:postcode": "64-000",
                "addr:city": "Kie\u0142czewo",
                "addr:street": "Ko\u015bcia\u0144ska",
                "addr:housenumber": "61",
                "addr:city:simc": 371601,
                "addr:street:sym_ul": 9539,
                "phone": "+48 668194950",
                "email": "przedszkole@zwinneszkraby.pl",
                "website": "http:\/\/www.zwinneszkraby.pl",
                "ref:regon": "302324358",
                "ref:vatin": "PL9720825207",
                "operator": "Marek Kruk",
                "operator:type": "private",
                "amenity": "kindergarten"
            }
        },
        {
            "id": 273076,
            "type": "Feature",
            "geometry": {
                "type": "Point",
                "coordinates": [
                    16.65941,
                    52.0966199
                ]
            },
            "properties": {
                "isced:level": "1;2",
                "ref:rspo": 273076,
                "official_name": "Szko\u0142a Filialna w Kie\u0142czewie",
                "name": "Szko\u0142a Filialna w Kie\u0142czewie",
                "addr:postcode": "64-000",
                "addr:city": "Kie\u0142czewo",
                "addr:street": "Ko\u015bcia\u0144ska",
                "addr:housenumber": "2",
                "addr:city:simc": 371601,
                "addr:street:sym_ul": 9539,
                "phone": "+48 655110410",
                "email": "spkielczewo@o2.pl",
                "ref:regon": "302325040",
                "operator": "Gmina Ko\u015bcian",
                "operator:type": "government",
                "amenity": "school",
                "note": "Parent RSPO: 107045"
            }
        },
        {
            "id": 106735,
            "type": "Feature",
            "geometry": {
                "type": "Point",
                "coordinates": [
                    16.698850631714,
                    52.110111236572
                ]
            },
            "properties": {
                "ref:rspo": 106735,
                "official_name": "Zesp\u00f3\u0142 Szk\u00f3\u0142 Gminy Ko\u015bcian Przedszkole I Szko\u0142a Podstawowa w Starych Oborzyskach",
                "name": "Zesp\u00f3\u0142 Szk\u00f3\u0142 Gminy Ko\u015bcian Przedszkole I Szko\u0142a Podstawowa w Starych Oborzyskach",
                "addr:postcode": "64-000",
                "addr:city": "Stare Oborzyska",
                "addr:street": "Szkolna",
                "addr:housenumber": "1",
                "addr:city:simc": 371825,
                "addr:street:sym_ul": 21970,
                "phone": "+48 655114064",
                "email": "sp.oborzyska@interia.pl",
                "website": "http:\/\/www.zsoborzyska.edupage.org",
                "ref:regon": "300916439",
                "ref:vatin": "PL6981790699",
                "operator": "Gmina Ko\u015bcian",
                "operator:type": "government",
                "landuse": "education",
                "fixme": "amenity=school, amenity=college albo landuse=education w zale\u017cno\u015bci od tego, jakie plac\u00f3wki wchodz\u0105 w sk\u0142ad zespo\u0142u. Sprawd\u017a, kiedy stosowa\u0107 amenity=* a kiedy landuse=education.",
                "note": "Children RSPO: 107044;107045"
            }
        },
        {
            "id": 107044,
            "type": "Feature",
            "geometry": {
                "type": "Point",
                "coordinates": [
                    16.698850631714,
                    52.110081236572
                ]
            },
            "properties": {
                "ref:rspo": 107044,
                "official_name": "Samorz\u0105dowe Przedszkole w Starych Oborzyskach",
                "name": "Samorz\u0105dowe Przedszkole w Starych Oborzyskach",
                "addr:postcode": "64-000",
                "addr:city": "Stare Oborzyska",
                "addr:street": "Szkolna",
                "addr:housenumber": "1",
                "addr:city:simc": 371825,
                "addr:street:sym_ul": 21970,
                "phone": "+48 655123625",
                "email": "samprzedstoborzyska@wp.pl",
                "website": "http:\/\/www.zsoborzyska.edupage.pl",
                "ref:regon": "302325010",
                "ref:vatin": "PL6981790699",
                "operator": "Gmina Ko\u015bcian",
                "operator:type": "government",
                "amenity": "kindergarten",
                "note": "Parent RSPO: 106735"
            }
        },
        {
            "id": 107045,
            "type": "Feature",
            "geometry": {
                "type": "Point",
                "coordinates": [
                    16.698850631714,
                    52.110051236572005
                ]
            },
            "properties": {
                "isced:level": "1;2",
                "ref:rspo": 107045,
                "official_name": "Szko\u0142a Podstawowa w Starych Oborzyskach",
                "name": "Szko\u0142a Podstawowa w Starych Oborzyskach",
                "addr:postcode": "64-000",
                "addr:city": "Stare Oborzyska",
                "addr:street": "Szkolna",
                "addr:housenumber": "1",
                "addr:city:simc": 371825,
                "addr:street:sym_ul": 21970,
                "phone": "+48 655114064",
                "email": "sp.oborzyska@interia.pl",
                "website": "http:\/\/www.zsoborzyska.edupage.org",
                "ref:regon": "302325040",
                "ref:vatin": "PL6981790699",
                "operator": "Gmina Ko\u015bcian",
                "operator:type": "government",
                "amenity": "school",
                "note": "Children RSPO: 273076;273083Parent RSPO: 106735"
            }
        },
        {
            "id": 47615,
            "type": "Feature",
            "geometry": {
                "type": "Point",
                "coordinates": [
                    16.6299926,
                    52.1214192
                ]
            },
            "properties": {
                "ref:rspo": 47615,
                "official_name": "Zesp\u00f3\u0142 Szk\u00f3\u0142 Gminy Ko\u015bcian Przedszkole I Szko\u0142a Podstawowa w Bonikowie",
                "name": "Zesp\u00f3\u0142 Szk\u00f3\u0142 Gminy Ko\u015bcian Przedszkole I Szko\u0142a Podstawowa w Bonikowie",
                "addr:postcode": "64-000",
                "addr:city": "Bonikowo",
                "addr:street": "Parkowa",
                "addr:housenumber": "3",
                "addr:city:simc": 371498,
                "addr:street:sym_ul": 15710,
                "phone": "+48 655129501",
                "email": "spbonikowo@poczta.onet.pl",
                "ref:regon": "001118146",
                "ref:vatin": "PL6981352930",
                "operator": "Gmina Ko\u015bcian",
                "operator:type": "government",
                "landuse": "education",
                "fixme": "amenity=school, amenity=college albo landuse=education w zale\u017cno\u015bci od tego, jakie plac\u00f3wki wchodz\u0105 w sk\u0142ad zespo\u0142u. Sprawd\u017a, kiedy stosowa\u0107 amenity=* a kiedy landuse=education.",
                "note": "Children RSPO: 104584;106737"
            }
        },
        {
            "id": 104584,
            "type": "Feature",
            "geometry": {
                "type": "Point",
                "coordinates": [
                    16.6299926,
                    52.121389199999996
                ]
            },
            "properties": {
                "ref:rspo": 104584,
                "official_name": "Gminne Przedszkole w Bonikowie",
                "name": "Gminne Przedszkole w Bonikowie",
                "addr:postcode": "64-000",
                "addr:city": "Bonikowo",
                "addr:street": "Parkowa",
                "addr:housenumber": "3",
                "addr:city:simc": 371498,
                "addr:street:sym_ul": 15710,
                "phone": "+48 655129501",
                "email": "spbonikowo@poczta.onet.pl",
                "ref:regon": "411529656",
                "ref:vatin": "PL6981352930",
                "operator": "Gmina Ko\u015bcian",
                "operator:type": "government",
                "amenity": "kindergarten",
                "note": "Parent RSPO: 47615"
            }
        },
        {
            "id": 106737,
            "type": "Feature",
            "geometry": {
                "type": "Point",
                "coordinates": [
                    16.6299926,
                    52.1213592
                ]
            },
            "properties": {
                "isced:level": "1;2",
                "ref:rspo": 106737,
                "official_name": "Szko\u0142a Podstawowa w Bonikowie",
                "name": "Szko\u0142a Podstawowa w Bonikowie",
                "addr:postcode": "64-000",
                "addr:city": "Bonikowo",
                "addr:street": "Parkowa",
                "addr:housenumber": "3",
                "addr:city:simc": 371498,
                "addr:street:sym_ul": 15710,
                "phone": "+48 655129501",
                "email": "spbonikowo@poczta.onet.pl",
                "ref:regon": "411529640",
                "ref:vatin": "PL6981352930",
                "operator": "Gmina Ko\u015bcian",
                "operator:type": "government",
                "amenity": "school",
                "note": "Parent RSPO: 47615"
            }
        }
    ]
}