{
    "type": "FeatureCollection",
    "features": [
        {
            "id": 4518,
            "type": "Feature",
            "geometry": {
                "type": "Point",
                "coordinates": [
                    21.33055,
                    52.66681
                ]
            },
            "properties": {
                "isced:level": "1;2",
                "ref:rspo": 4518,
                "official_name": "Szko\u0142a Podstawowa im. Or\u0142a Bia\u0142ego w Komorowie",
                "name": "Szko\u0142a Podstawowa",
                "addr:country": "PL",
                "addr:postcode": "07-205",
                "addr:place": "Komorowo",
                "addr:housenumber": "34",
                "addr:teryt:sym_ul": 518889,
                "contact:phone": "+48 297419580",
                "contact:email": "spkomorowo@rzasnik.pl",
                "contact:website": "http:\/\/www.szkolakomorowo.szkolnastrona.pl",
                "ref:regon": "001106670",
                "ref:vatin": "PL7621838826",
                "operator": "Gmina Rz\u0105\u015bnik",
                "operator:type": "government",
                "amenity": "school"
            }
        },
        {
            "id": 106236,
            "type": "Feature",
            "geometry": {
                "type": "Point",
                "coordinates": [
                    21.36022,
                    52.68793
                ]
            },
            "properties": {
                "isced:level": "1;2",
                "ref:rspo": 106236,
                "official_name": "Szko\u0142a Podstawowa Stowarzyszenia Na Rzecz Rozwoju Wsi D\u0105browa w D\u0105browie",
                "name": "Szko\u0142a Podstawowa Stowarzyszenia Na Rzecz Rozwoju Wsi D\u0105browa w D\u0105browie",
                "addr:country": "PL",
                "addr:postcode": "07-205",
                "addr:place": "D\u0105browa",
                "addr:housenumber": "40",
                "addr:teryt:sym_ul": 518760,
                "contact:email": "pspdabrowa@wp.pl",
                "ref:regon": "146261233",
                "ref:vatin": "PL7621823204",
                "operator": "Stowarzyszenie Na Rzecz Rozwoju Wsi D\u0105browa",
                "operator:type": "ngo",
                "amenity": "school"
            }
        },
        {
            "id": 4508,
            "type": "Feature",
            "geometry": {
                "type": "Point",
                "coordinates": [
                    21.424468,
                    52.6985625
                ]
            },
            "properties": {
                "isced:level": "1;2",
                "ref:rspo": 4508,
                "official_name": "Szko\u0142a Podstawowa im. Ks. Jana Trzaskomy w Porz\u0105dziu",
                "name": "Szko\u0142a Podstawowa",
                "addr:country": "PL",
                "addr:postcode": "07-205",
                "addr:place": "Porz\u0105dzie",
                "addr:housenumber": "93",
                "addr:teryt:sym_ul": 519080,
                "contact:phone": "+48 296428156",
                "contact:email": "spporzadzie@rzasnik.pl",
                "contact:website": "http:\/\/pspporzadzie.szkolnastrona.pl",
                "ref:regon": "001106663",
                "ref:vatin": "PL7621836402",
                "operator": "Gmina Rz\u0105\u015bnik",
                "operator:type": "government",
                "amenity": "school"
            }
        },
        {
            "id": 6822,
            "type": "Feature",
            "geometry": {
                "type": "Point",
                "coordinates": [
                    21.36647,
                    52.71452
                ]
            },
            "properties": {
                "isced:level": "1;2",
                "ref:rspo": 6822,
                "official_name": "Szko\u0142a Podstawowa im. Ks. Jana Twardowskiego w Rz\u0105\u015bniku",
                "name": "Szko\u0142a Podstawowa",
                "addr:country": "PL",
                "addr:postcode": "07-205",
                "addr:city": "Rz\u0105\u015bnik",
                "addr:street": "ul. Wyszkowska",
                "addr:housenumber": "50B",
                "addr:teryt:simc": 25092,
                "addr:teryt:sym_ul": 519162,
                "contact:phone": "+48 297419990",
                "contact:email": "zsp-rzasnik@wp.pl",
                "contact:website": "http:\/\/sprzasnik.szkolnastrona.pl",
                "ref:regon": "000593661",
                "ref:vatin": "PL7621836419",
                "operator": "Gmina Rz\u0105\u015bnik",
                "operator:type": "government",
                "amenity": "school"
            }
        },
        {
            "id": 4535,
            "type": "Feature",
            "geometry": {
                "type": "Point",
                "coordinates": [
                    21.43377,
                    52.7608
                ]
            },
            "properties": {
                "isced:level": "1;2",
                "ref:rspo": 4535,
                "official_name": "Szko\u0142a Podstawowa im. Ks. Kardyna\u0142a Stefana Wyszy\u0144skiego w Starym Lubielu",
                "name": "Szko\u0142a Podstawowa",
                "addr:country": "PL",
                "addr:postcode": "07-207",
                "addr:place": "Stary Lubiel",
                "addr:housenumber": "22A",
                "addr:teryt:sym_ul": 519191,
                "contact:phone": "+48 297419320",
                "contact:email": "splubiel@wp.pl",
                "contact:website": "http:\/\/splubiel.superszkolna.pl",
                "ref:regon": "001106686",
                "ref:vatin": "PL7621836431",
                "operator": "Gmina Rz\u0105\u015bnik",
                "operator:type": "government",
                "amenity": "school"
            }
        },
        {
            "id": 4534,
            "type": "Feature",
            "geometry": {
                "type": "Point",
                "coordinates": [
                    21.35377,
                    52.76362
                ]
            },
            "properties": {
                "isced:level": "1;2",
                "ref:rspo": 4534,
                "official_name": "Szko\u0142a Podstawowa im. Jana Paw\u0142a II w Bielinie",
                "name": "Szko\u0142a Podstawowa",
                "addr:country": "PL",
                "addr:postcode": "07-207",
                "addr:place": "Bielino",
                "addr:housenumber": "32A",
                "addr:teryt:sym_ul": 518754,
                "contact:phone": "+48 297419626",
                "contact:email": "pspbielino@op.pl",
                "contact:website": "http:\/\/pspbielino.superszkolna.pl",
                "ref:regon": "001106657",
                "ref:vatin": "PL7621836454",
                "operator": "Gmina Rz\u0105\u015bnik",
                "operator:type": "government",
                "amenity": "school"
            }
        }
    ]
}