{
    "type": "FeatureCollection",
    "features": [
        {
            "id": 13021,
            "type": "Feature",
            "geometry": {
                "type": "Point",
                "coordinates": [
                    21.52446,
                    52.6108
                ]
            },
            "properties": {
                "isced:level": "1;2",
                "ref:rspo": 13021,
                "official_name": "Szko\u0142a Podstawowa im. Marii Konopnickiej w Turzynie",
                "name": "Szko\u0142a Podstawowa",
                "addr:postcode": "07-221",
                "addr:place": "Turzyn",
                "addr:housenumber": "95",
                "addr:teryt:simc": 506930,
                "phone": "+48 295929255",
                "email": "pspt@branszczyk.pl",
                "website": "https:\/\/pspturzyn.edupage.org\/",
                "ref:regon": "001106367",
                "ref:vatin": "PL7621846406",
                "operator": "Gmina Bra\u0144szczyk",
                "operator:type": "government",
                "amenity": "school"
            }
        },
        {
            "id": 53526,
            "type": "Feature",
            "geometry": {
                "type": "Point",
                "coordinates": [
                    21.58588,
                    52.62711
                ]
            },
            "properties": {
                "ref:rspo": 53526,
                "official_name": "Zesp\u00f3\u0142 Szk\u00f3\u0142 Specjalnych w Bra\u0144szczyku",
                "name": "Zesp\u00f3\u0142 Szk\u00f3\u0142 Specjalnych w Bra\u0144szczyku",
                "addr:postcode": "07-221",
                "addr:city": "Bra\u0144szczyk",
                "addr:street": "Jana Paw\u0142a II",
                "addr:housenumber": "30",
                "addr:teryt:simc": 506509,
                "addr:teryt:sym_ul": 7123,
                "phone": "+48 297421478",
                "email": "dzieci_branszczyk@poczta.onet.pl",
                "ref:regon": "551257413",
                "ref:vatin": "PL7621858154",
                "operator": "Powiat Wyszkowski",
                "operator:type": "government",
                "landuse": "education",
                "fixme": "amenity=school, amenity=college albo landuse=education w zale\u017cno\u015bci od tego, jakie plac\u00f3wki wchodz\u0105 w sk\u0142ad zespo\u0142u. Sprawd\u017a, kiedy stosowa\u0107 amenity=* a kiedy landuse=education.",
                "note": "Children RSPO: 103398;103400"
            }
        },
        {
            "id": 103398,
            "type": "Feature",
            "geometry": {
                "type": "Point",
                "coordinates": [
                    21.58588,
                    52.62708
                ]
            },
            "properties": {
                "ref:rspo": 103398,
                "official_name": "Publiczna Szko\u0142a Specjalna Przysposabiaj\u0105ca Do Pracy w Zespole Szk\u00f3\u0142 Specjlanych w Bra\u0144szczyku",
                "name": "Publiczna Szko\u0142a Specjalna Przysposabiaj\u0105ca Do Pracy w Zespole Szk\u00f3\u0142 Specjlanych w Bra\u0144szczyku",
                "addr:postcode": "07-221",
                "addr:city": "Bra\u0144szczyk",
                "addr:street": "Jana Paw\u0142a II",
                "addr:housenumber": "30",
                "addr:teryt:simc": 506509,
                "addr:teryt:sym_ul": 7123,
                "phone": "+48 297421478",
                "ref:regon": "140594703",
                "operator": "Powiat Wyszkowski",
                "operator:type": "government",
                "amenity": "school",
                "note": "Parent RSPO: 53526"
            }
        },
        {
            "id": 103400,
            "type": "Feature",
            "geometry": {
                "type": "Point",
                "coordinates": [
                    21.58588,
                    52.627050000000004
                ]
            },
            "properties": {
                "isced:level": "1;2",
                "ref:rspo": 103400,
                "official_name": "Szko\u0142a Podstawowa Specjalna w Zespole Szk\u00f3\u0142 Specjalnych w Bra\u0144szczyku",
                "name": "Szko\u0142a Podstawowa Specjalna w Zespole Szk\u00f3\u0142 Specjalnych w Bra\u0144szczyku",
                "addr:postcode": "07-221",
                "addr:city": "Bra\u0144szczyk",
                "addr:street": "Jana Paw\u0142a II",
                "addr:housenumber": "30",
                "addr:teryt:simc": 506509,
                "addr:teryt:sym_ul": 7123,
                "phone": "+48 297421478",
                "ref:regon": "001001390",
                "ref:vatin": "PL7621789424",
                "operator": "Powiat Wyszkowski",
                "operator:type": "government",
                "amenity": "school",
                "note": "Parent RSPO: 53526"
            }
        },
        {
            "id": 71801,
            "type": "Feature",
            "geometry": {
                "type": "Point",
                "coordinates": [
                    21.58625,
                    52.62733
                ]
            },
            "properties": {
                "ref:rspo": 71801,
                "official_name": "Specjalny O\u015brodek Wychowawczy Zgromadzenia Si\u00f3str Franciszkanek Rodziny Maryi w Bra\u0144szczyku",
                "name": "Specjalny O\u015brodek Wychowawczy Zgromadzenia Si\u00f3str Franciszkanek Rodziny Maryi w Bra\u0144szczyku",
                "addr:postcode": "07-221",
                "addr:city": "Bra\u0144szczyk",
                "addr:street": "Jana Paw\u0142a II",
                "addr:housenumber": "32",
                "addr:teryt:simc": 506509,
                "addr:teryt:sym_ul": 7123,
                "phone": "+48 296794075",
                "email": "siostry_rm@wp.pl",
                "website": "http:\/\/sowbranszczyk.pl",
                "ref:regon": "146447630",
                "ref:vatin": "PL7621446693",
                "operator": "Zgromadzenie Si\u00f3str Franciszkanek Rodziny Maryi Prowincja Niepokalanej-Warszawska",
                "operator:type": "religious",
                "amenity": "social_facility",
                "social_facility": "group_home",
                "social_facility:for": "child;juvenile"
            }
        },
        {
            "id": 13463,
            "type": "Feature",
            "geometry": {
                "type": "Point",
                "coordinates": [
                    21.58745,
                    52.6284599
                ]
            },
            "properties": {
                "ref:rspo": 13463,
                "official_name": "Zesp\u00f3\u0142 Plac\u00f3wek O\u015bwiatowych w Bra\u0144szczyku",
                "name": "Zesp\u00f3\u0142 Plac\u00f3wek O\u015bwiatowych w Bra\u0144szczyku",
                "addr:postcode": "07-221",
                "addr:city": "Bra\u0144szczyk",
                "addr:street": "Nadbu\u017cna",
                "addr:housenumber": "3",
                "addr:teryt:simc": 506509,
                "addr:teryt:sym_ul": 13866,
                "phone": "+48 297421491",
                "email": "zpob@branszczyk.pl",
                "website": "http:\/\/www.zpob.branszczyk.pl\/",
                "ref:regon": "146300200",
                "operator": "Gmina Bra\u0144szczyk",
                "operator:type": "government",
                "landuse": "education",
                "fixme": "amenity=school, amenity=college albo landuse=education w zale\u017cno\u015bci od tego, jakie plac\u00f3wki wchodz\u0105 w sk\u0142ad zespo\u0142u. Sprawd\u017a, kiedy stosowa\u0107 amenity=* a kiedy landuse=education.",
                "note": "Children RSPO: 22114;22115"
            }
        },
        {
            "id": 22114,
            "type": "Feature",
            "geometry": {
                "type": "Point",
                "coordinates": [
                    21.58745,
                    52.6284299
                ]
            },
            "properties": {
                "isced:level": "1;2",
                "ref:rspo": 22114,
                "official_name": "Szko\u0142a Podstawowa im. Henryka Sienkiewicza w Bra\u0144szczyku",
                "name": "Szko\u0142a Podstawowa",
                "addr:postcode": "07-221",
                "addr:city": "Bra\u0144szczyk",
                "addr:street": "Nadbu\u017cna",
                "addr:housenumber": "3",
                "addr:teryt:simc": 506509,
                "addr:teryt:sym_ul": 13866,
                "phone": "+48 297421491",
                "email": "zpob@branszczyk.pl",
                "website": "http:\/\/www.zpob.branszczyk.pl\/",
                "ref:regon": "000584455",
                "ref:vatin": "PL7621845358",
                "operator": "Gmina Bra\u0144szczyk",
                "operator:type": "government",
                "amenity": "school",
                "note": "Parent RSPO: 13463"
            }
        },
        {
            "id": 22115,
            "type": "Feature",
            "geometry": {
                "type": "Point",
                "coordinates": [
                    21.58909,
                    52.63094
                ]
            },
            "properties": {
                "ref:rspo": 22115,
                "official_name": "Samorz\u0105dowe Przedszkole w Bra\u0144szczyku",
                "name": "Samorz\u0105dowe Przedszkole w Bra\u0144szczyku",
                "addr:postcode": "07-221",
                "addr:city": "Bra\u0144szczyk",
                "addr:street": "Jana Paw\u0142a II",
                "addr:housenumber": "58",
                "addr:teryt:simc": 506509,
                "addr:teryt:sym_ul": 7123,
                "phone": "+48 297421491",
                "email": "zpob@branszczyk.pl",
                "website": "http:\/\/www.zpob.branszczyk.pl\/",
                "ref:regon": "000912936",
                "ref:vatin": "PL7621723448",
                "operator": "Gmina Bra\u0144szczyk",
                "operator:type": "government",
                "amenity": "kindergarten",
                "note": "Parent RSPO: 13463"
            }
        },
        {
            "id": 13020,
            "type": "Feature",
            "geometry": {
                "type": "Point",
                "coordinates": [
                    21.6624,
                    52.63922
                ]
            },
            "properties": {
                "isced:level": "1;2",
                "ref:rspo": 13020,
                "official_name": "Szko\u0142a Podstawowa im. Papie\u017ca Jana Paw\u0142a II w Nowych Budach",
                "name": "Szko\u0142a Podstawowa",
                "addr:postcode": "07-221",
                "addr:place": "Nowe Budy",
                "addr:housenumber": "32",
                "addr:teryt:simc": 506722,
                "phone": "+48 296794641",
                "email": "pspnb@branszczyk.pl",
                "website": "http:\/\/www.pspnb.branszczyk.pl",
                "ref:regon": "001106350",
                "ref:vatin": "PL7621846688",
                "operator": "Gmina Bra\u0144szczyk",
                "operator:type": "government",
                "amenity": "school"
            }
        },
        {
            "id": 13019,
            "type": "Feature",
            "geometry": {
                "type": "Point",
                "coordinates": [
                    21.5435714,
                    52.6479229
                ]
            },
            "properties": {
                "isced:level": "1;2",
                "ref:rspo": 13019,
                "official_name": "Szko\u0142a Podstawowa im. Piotra Kulasi\u0144skiego w Trzciance",
                "name": "Szko\u0142a Podstawowa",
                "addr:postcode": "07-221",
                "addr:place": "Trzcianka",
                "addr:housenumber": "147",
                "addr:teryt:simc": 506863,
                "phone": "+48 296794494",
                "email": "psptrzcianka@poczta.fm",
                "website": "http:\/\/psptrzcianka.edupage.org",
                "ref:regon": "001106640",
                "ref:vatin": "PL7621845944",
                "operator": "Gmina Bra\u0144szczyk",
                "operator:type": "government",
                "amenity": "school"
            }
        },
        {
            "id": 89967,
            "type": "Feature",
            "geometry": {
                "type": "Point",
                "coordinates": [
                    21.63113,
                    52.6684399
                ]
            },
            "properties": {
                "isced:level": "1;2",
                "ref:rspo": 89967,
                "official_name": "Szko\u0142a Podstawowa im. Bohater\u00f3w Le\u015bnej Plac\u00f3wki Ak \"Mrowisko\" w Knurowcu",
                "name": "Szko\u0142a Podstawowa",
                "addr:postcode": "07-221",
                "addr:place": "Knurowiec",
                "addr:housenumber": "1",
                "addr:teryt:simc": 506633,
                "phone": "+48 509184972",
                "email": "pspk@branszczyk.pl",
                "website": "https:\/\/spknurowiec1.edupage.org\/",
                "ref:regon": "001106373",
                "ref:vatin": "PL7621846323",
                "operator": "Gmina Bra\u0144szczyk",
                "operator:type": "government",
                "amenity": "school"
            }
        },
        {
            "id": 13464,
            "type": "Feature",
            "geometry": {
                "type": "Point",
                "coordinates": [
                    21.69271,
                    52.68639
                ]
            },
            "properties": {
                "ref:rspo": 13464,
                "official_name": "Zesp\u00f3\u0142 Plac\u00f3wek O\u015bwiatowych w Por\u0119bie",
                "name": "Zesp\u00f3\u0142 Plac\u00f3wek O\u015bwiatowych w Por\u0119bie",
                "addr:postcode": "07-308",
                "addr:place": "Por\u0119ba \u015arednia",
                "addr:housenumber": "18",
                "addr:teryt:simc": 506805,
                "phone": "+48 296795560",
                "email": "psp.poreba@vp.pl",
                "website": "https:\/\/zpoporeba.edupage.org",
                "ref:regon": "146300507",
                "operator": "Gmina Bra\u0144szczyk",
                "operator:type": "government",
                "landuse": "education",
                "fixme": "amenity=school, amenity=college albo landuse=education w zale\u017cno\u015bci od tego, jakie plac\u00f3wki wchodz\u0105 w sk\u0142ad zespo\u0142u. Sprawd\u017a, kiedy stosowa\u0107 amenity=* a kiedy landuse=education.",
                "note": "Children RSPO: 22117;22118"
            }
        },
        {
            "id": 22117,
            "type": "Feature",
            "geometry": {
                "type": "Point",
                "coordinates": [
                    21.69271,
                    52.68636
                ]
            },
            "properties": {
                "isced:level": "1;2",
                "ref:rspo": 22117,
                "official_name": "Szko\u0142a Podstawowa im. Marsza\u0142ka J\u00f3zefa Pi\u0142sudskiego w Por\u0119bie",
                "name": "Szko\u0142a Podstawowa",
                "addr:postcode": "07-308",
                "addr:place": "Por\u0119ba \u015arednia",
                "addr:housenumber": "18",
                "addr:teryt:simc": 506805,
                "phone": "+48 296795560",
                "email": "zpop@branszczyk.pl",
                "website": "http:\/\/zpoporeba.edupage.org",
                "ref:regon": "001106628",
                "ref:vatin": "PL7621848658",
                "operator": "Gmina Bra\u0144szczyk",
                "operator:type": "government",
                "amenity": "school",
                "note": "Parent RSPO: 13464"
            }
        },
        {
            "id": 22118,
            "type": "Feature",
            "geometry": {
                "type": "Point",
                "coordinates": [
                    21.69488,
                    52.6866
                ]
            },
            "properties": {
                "ref:rspo": 22118,
                "official_name": "Samorz\u0105dowe Przedszkole w Por\u0119bie",
                "name": "Samorz\u0105dowe Przedszkole w Por\u0119bie",
                "addr:postcode": "07-308",
                "addr:place": "Por\u0119ba \u015arednia",
                "addr:housenumber": "7",
                "addr:teryt:simc": 506805,
                "phone": "+48 296795570",
                "email": "psp.poreba@vp.pl",
                "website": "http:\/\/zpoporeba.edupage.org",
                "ref:regon": "550649849",
                "ref:vatin": "PL7621723431",
                "operator": "Gmina Bra\u0144szczyk",
                "operator:type": "government",
                "amenity": "kindergarten",
                "note": "Parent RSPO: 13464"
            }
        },
        {
            "id": 131941,
            "type": "Feature",
            "geometry": {
                "type": "Point",
                "coordinates": [
                    21.59372,
                    52.68829
                ]
            },
            "properties": {
                "ref:rspo": 131941,
                "official_name": "Spo\u0142eczne Przedszkole Roisa",
                "name": "Spo\u0142eczne Przedszkole Roisa",
                "addr:postcode": "07-210",
                "addr:place": "Nowa Wie\u015b",
                "addr:housenumber": "37a",
                "addr:teryt:simc": 506679,
                "phone": "+48 605249314",
                "email": "przedszkole.roisa@gmail.com",
                "website": "http:\/\/www.roisa.pl",
                "ref:regon": "365388381",
                "operator": "Stowarzyszenie Tradycyjnie Nowoczesnych Dla Wsi",
                "operator:type": "ngo",
                "amenity": "kindergarten"
            }
        },
        {
            "id": 13023,
            "type": "Feature",
            "geometry": {
                "type": "Point",
                "coordinates": [
                    21.60437,
                    52.69272
                ]
            },
            "properties": {
                "isced:level": "1;2",
                "ref:rspo": 13023,
                "official_name": "Szko\u0142a Podstawowa im. Papie\u017ca Jana Paw\u0142a II w Bia\u0142ymb\u0142ocie",
                "name": "Szko\u0142a Podstawowa",
                "addr:postcode": "07-210",
                "addr:place": "Nowa Wie\u015b",
                "addr:housenumber": "75",
                "addr:teryt:simc": 506679,
                "phone": "+48 296795189",
                "email": "pspb@branszczyk.pl",
                "website": "https:\/\/spbialebloto.edupage.org\/",
                "ref:regon": "001106634",
                "ref:vatin": "PL7621846369",
                "operator": "Gmina Bra\u0144szczyk",
                "operator:type": "government",
                "amenity": "school"
            }
        }
    ]
}