{"type":"FeatureCollection","features":[{"id":84249,"type":"Feature","geometry":{"type":"Point","coordinates":[21.47122,52.54629]},"properties":{"ref:rspo":84249,"official_name":"Przedszkole \"Miko\u0142ajek\"","name":"Przedszkole \"Miko\u0142ajek\"","addr:country":"PL","addr:postcode":"07-201","addr:city":"Lucyn\u00f3w Du\u017cy","addr:street":"ul. Jana Kochanowskiego","addr:housenumber":"70C","addr:teryt:simc":8728,"addr:teryt:sym_ul":523130,"contact:email":"przedszkole.mikolajek@gmail.com","contact:website":"http:\/\/www.mikolajek.edu.pl","ref:regon":"146407777","operator":"Maria Michalska","operator:type":"private","amenity":"kindergarten"}},{"id":263478,"type":"Feature","geometry":{"type":"Point","coordinates":[21.36852,52.54699]},"properties":{"ref:rspo":263478,"official_name":"Przedszkole Niepubliczne \"Przyjaciele Kubusia\"","name":"Przedszkole Niepubliczne \"Przyjaciele Kubusia\"","addr:country":"PL","addr:postcode":"07-202","addr:city":"Wyszk\u00f3w","addr:street":"ul. Prosta","addr:housenumber":"24","addr:teryt:simc":17547,"addr:teryt:sym_ul":966470,"contact:email":"justyna_lach@onet.pl","ref:regon":"368193608","operator":"Justyna Kuczy\u0144ska","operator:type":"private","amenity":"kindergarten"}},{"id":53527,"type":"Feature","geometry":{"type":"Point","coordinates":[21.12918,52.5498]},"properties":{"ref:rspo":53527,"official_name":"Zesp\u00f3\u0142 Szk\u00f3\u0142 Nr 1 im. Marii Sk\u0142odowskiej-Curie w Wyszkowie","name":"Zesp\u00f3\u0142 Szk\u00f3\u0142 Nr 1","addr:country":"PL","addr:postcode":"07-200","addr:city":"Wyszk\u00f3w","addr:street":"ul. \u015awi\u0119toja\u0144ska","addr:housenumber":"89","addr:teryt:simc":22548,"addr:teryt:sym_ul":966470,"contact:phone":"+48 297425427","contact:email":"zs1@zs1wyszkow.edu.pl","contact:website":"http:\/\/www.zs1wyszkow.edu.pl","ref:regon":"000201916","ref:vatin":"PL7621858125","operator":"Powiat Wyszkowski","operator:type":"government","landuse":"education","fixme":"amenity=school, amenity=college albo landuse=education w zale\u017cno\u015bci od tego, jakie plac\u00f3wki wchodz\u0105 w sk\u0142ad zespo\u0142u. Sprawd\u017a, kiedy stosowa\u0107 amenity=* a kiedy landuse=education.","note":"Children RSPO: 72783;83262;83264"}},{"id":72560,"type":"Feature","geometry":{"type":"Point","coordinates":[21.12918,52.549769999999995]},"properties":{"isced:level":"4","ref:rspo":72560,"official_name":"Szko\u0142a Policealna Farmaceutyczna w Wyszkowie","name":"Szko\u0142a Policealna Farmaceutyczna w Wyszkowie","addr:country":"PL","addr:postcode":"07-200","addr:city":"Wyszk\u00f3w","addr:street":"ul. \u015awi\u0119toja\u0144ska","addr:housenumber":"89","addr:teryt:simc":22548,"addr:teryt:sym_ul":966470,"contact:phone":"+48 297425427","contact:email":"zs1@zs1wyszkow.edu.pl","ref:regon":"146401125","ref:vatin":"PL7180000197","operator":"Spo\u0142eczne Stowarzyszenie Prasoznawcze \"Stopka\" Im. Stanis\u0142awa Zag\u00f3rskiego W \u0141om\u017cy","operator:type":"ngo","amenity":"college"}},{"id":128584,"type":"Feature","geometry":{"type":"Point","coordinates":[21.12918,52.54974]},"properties":{"ref:rspo":128584,"official_name":"Centrum Edukacji Zawodowej I Ustawicznej \"Kopernik\" w Wyszkowie","name":"Centrum Edukacji Zawodowej I Ustawicznej \"Kopernik\" w Wyszkowie","addr:country":"PL","addr:postcode":"07-200","addr:city":"Wyszk\u00f3w","addr:street":"ul. \u015awi\u0119toja\u0144ska","addr:housenumber":"82","addr:teryt:simc":22548,"addr:teryt:sym_ul":966470,"contact:phone":"+48 297424861","contact:email":"sekretariat@ceziu.pl","contact:website":"http:\/\/www.ceziu.pl","ref:regon":"362332405","operator":"Powiat Wyszkowski","operator:type":"government","landuse":"education","fixme":"amenity=school, amenity=college albo landuse=education w zale\u017cno\u015bci od tego, jakie plac\u00f3wki wchodz\u0105 w sk\u0142ad zespo\u0142u. Sprawd\u017a, kiedy stosowa\u0107 amenity=* a kiedy landuse=education.","note":"Children RSPO: 47005;57231;58766;61880;129855;130746"}},{"id":72783,"type":"Feature","geometry":{"type":"Point","coordinates":[21.12918,52.54971]},"properties":{"isced:level":"3","ref:rspo":72783,"official_name":"Bran\u017cowa Szko\u0142a I Stopnia Nr 1 w Wyszkowie","name":"Bran\u017cowa Szko\u0142a I Stopnia Nr 1 w Wyszkowie","addr:country":"PL","addr:postcode":"07-200","addr:city":"Wyszk\u00f3w","addr:street":"ul. \u015awi\u0119toja\u0144ska","addr:housenumber":"89","addr:teryt:simc":22548,"addr:teryt:sym_ul":966470,"contact:phone":"+48 297425427","contact:email":"zs1@zs1wyszkow.edu.pl","contact:website":"http:\/\/www.zs1wyszkow.edu.pl","ref:regon":"551322470","operator":"Powiat Wyszkowski","operator:type":"government","amenity":"school","note":"Parent RSPO: 53527"}},{"id":83262,"type":"Feature","geometry":{"type":"Point","coordinates":[21.12918,52.549679999999995]},"properties":{"isced:level":"3","ref:rspo":83262,"official_name":"Technikum Nr 1 w Zespole Szk\u00f3\u0142 Nr 1 im. Marii Sk\u0142odowskiej-Curie w Wyszkowie","name":"Technikum Nr 1 w Zespole Szk\u00f3\u0142 Nr 1","addr:country":"PL","addr:postcode":"07-200","addr:city":"Wyszk\u00f3w","addr:street":"ul. \u015awi\u0119toja\u0144ska","addr:housenumber":"89","addr:teryt:simc":22548,"addr:teryt:sym_ul":966470,"contact:phone":"+48 297425427","contact:email":"zs1@zs1wyszkow.edu.pl","contact:website":"http:\/\/zs1wyszkow.edu.pl","ref:regon":"551322493","operator":"Powiat Wyszkowski","operator:type":"government","amenity":"school","note":"Parent RSPO: 53527"}},{"id":83264,"type":"Feature","geometry":{"type":"Point","coordinates":[21.12918,52.54965]},"properties":{"isced:level":"3","ref:rspo":83264,"official_name":"Ii Liceum Og\u00f3lnokszta\u0142c\u0105ce w Zespole Szk\u00f3\u0142 Nr 1 im. Marii Sk\u0142odowskiej-Curie w Wyszkowie","name":"Ii Liceum Og\u00f3lnokszta\u0142c\u0105ce w Zespole Szk\u00f3\u0142 Nr 1","addr:country":"PL","addr:postcode":"07-200","addr:city":"Wyszk\u00f3w","addr:street":"ul. \u015awi\u0119toja\u0144ska","addr:housenumber":"89","addr:teryt:simc":22548,"addr:teryt:sym_ul":966470,"contact:phone":"+48 297425427","contact:email":"zs1@zs1wyszkow.edu.pl","contact:website":"http:\/\/zs1wyszkow.edu.pl","ref:regon":"551322412","operator":"Powiat Wyszkowski","operator:type":"government","amenity":"school","note":"Parent RSPO: 53527"}},{"id":47005,"type":"Feature","geometry":{"type":"Point","coordinates":[21.12918,52.54962]},"properties":{"ref:rspo":47005,"official_name":"Centrum Kszta\u0142cenia Zawodowego w Wyszkowie","name":"Centrum Kszta\u0142cenia Zawodowego w Wyszkowie","addr:country":"PL","addr:postcode":"07-200","addr:city":"Wyszk\u00f3w","addr:street":"ul. \u015awi\u0119toja\u0144ska","addr:housenumber":"82A","addr:teryt:simc":22548,"addr:teryt:sym_ul":966470,"contact:phone":"+48 297424861","contact:email":"sekretariat@ceziu.pl","contact:website":"http:\/\/www.ceziu.pl","ref:regon":"551257548","ref:vatin":"PL7621858148","operator":"Powiat Wyszkowski","operator:type":"government","fixme":"w zale\u017cno\u015bci od przedmiotu dzia\u0142alno\u015bci (np. amenity=training + training=*, amenity=dancing_school, amenity=language_school, amenity=music_school) albo amenity=school, amenity=college, albo landuse=education w zale\u017cno\u015bci od tego, jakie plac\u00f3wki wchodz\u0105 w sk\u0142ad zespo\u0142u. Sprawd\u017a, kiedy stosowa\u0107 amenity=* a kiedy landuse=education.","note":"Parent RSPO: 128584"}},{"id":57231,"type":"Feature","geometry":{"type":"Point","coordinates":[21.12918,52.549589999999995]},"properties":{"isced:level":"3","ref:rspo":57231,"official_name":"Iii Liceum Og\u00f3lnokszta\u0142c\u0105ce im. Miko\u0142aja Kopernika w Wyszkowie","name":"Iii Liceum Og\u00f3lnokszta\u0142c\u0105ce","addr:country":"PL","addr:postcode":"07-200","addr:city":"Wyszk\u00f3w","addr:street":"ul. \u015awi\u0119toja\u0144ska","addr:housenumber":"82","addr:teryt:simc":22548,"addr:teryt:sym_ul":966470,"contact:phone":"+48 297424861","contact:email":"sekretariat@ceziu.pl","contact:website":"http:\/\/www.ceziu.pl","ref:regon":"146381782","operator":"Powiat Wyszkowski","operator:type":"government","amenity":"school","note":"Parent RSPO: 128584"}},{"id":58766,"type":"Feature","geometry":{"type":"Point","coordinates":[21.12918,52.54956]},"properties":{"isced:level":"3","ref:rspo":58766,"official_name":"Bran\u017cowa Szko\u0142a I Stopnia Nr 2 im. Miko\u0142aja Kopernika w Wyszkowie","name":"Bran\u017cowa Szko\u0142a I Stopnia Nr 2","addr:country":"PL","addr:postcode":"07-200","addr:city":"Wyszk\u00f3w","addr:street":"ul. \u015awi\u0119toja\u0144ska","addr:housenumber":"82","addr:teryt:simc":22548,"addr:teryt:sym_ul":966470,"contact:phone":"+48 297424861","contact:email":"sekretariat@ceziu.pl","contact:website":"http:\/\/www.ceziu.pl","ref:regon":"551336756","operator":"Powiat Wyszkowski","operator:type":"government","amenity":"school","note":"Parent RSPO: 128584"}},{"id":61880,"type":"Feature","geometry":{"type":"Point","coordinates":[21.12918,52.54953]},"properties":{"isced:level":"3","ref:rspo":61880,"official_name":"Technikum Nr 2 im. Miko\u0142aja Kopernika w Wyszkowie","name":"Technikum Nr 2","addr:country":"PL","addr:postcode":"07-200","addr:city":"Wyszk\u00f3w","addr:street":"ul. \u015awi\u0119toja\u0144ska","addr:housenumber":"82","addr:teryt:simc":22548,"addr:teryt:sym_ul":966470,"contact:phone":"+48 297424861","contact:email":"sekretariat@ceziu.pl","contact:website":"http:\/\/www.ceziu.pl","ref:regon":"551336740","operator":"Powiat Wyszkowski","operator:type":"government","amenity":"school","note":"Parent RSPO: 128584"}},{"id":129855,"type":"Feature","geometry":{"type":"Point","coordinates":[21.12918,52.549499999999995]},"properties":{"ref:rspo":129855,"official_name":"Szkolne Schronisko M\u0142odzie\u017cowe \"Jowisz\" w Wyszkowie","name":"Szkolne Schronisko M\u0142odzie\u017cowe \"Jowisz\" w Wyszkowie","addr:country":"PL","addr:postcode":"07-200","addr:city":"Wyszk\u00f3w","addr:street":"ul. \u015awi\u0119toja\u0144ska","addr:housenumber":"89A","addr:teryt:simc":22548,"addr:teryt:sym_ul":966470,"contact:phone":"+48 297424861","ref:regon":"363023304","operator":"Powiat Wyszkowski","operator:type":"government","tourism":"hostel","note":"Parent RSPO: 128584"}},{"id":130746,"type":"Feature","geometry":{"type":"Point","coordinates":[21.12918,52.54947]},"properties":{"isced:level":"4","ref:rspo":130746,"official_name":"Centrum Edukacji Zawodowej I Ustawicznej \"Kopernik w Wyszkowie - Szko\u0142a Policealna w Wyszkowie","name":"Centrum Edukacji Zawodowej I Ustawicznej \"Kopernik w Wyszkowie - Szko\u0142a Policealna w Wyszkowie","addr:country":"PL","addr:postcode":"07-200","addr:city":"Wyszk\u00f3w","addr:street":"ul. \u015awi\u0119toja\u0144ska","addr:housenumber":"82","addr:teryt:simc":22548,"addr:teryt:sym_ul":966470,"contact:phone":"+48 297424861","contact:email":"sekretariat@ceziu.pl","ref:regon":"364461466","operator":"Powiat Wyszkowski","operator:type":"government","amenity":"college","note":"Parent RSPO: 128584"}},{"id":21950,"type":"Feature","geometry":{"type":"Point","coordinates":[21.46413,52.55345]},"properties":{"isced:level":"1;2","ref:rspo":21950,"official_name":"Szko\u0142a Podstawowa im. Jana Brzechwy w Lucynowie","name":"Szko\u0142a Podstawowa","addr:country":"PL","addr:postcode":"07-201","addr:city":"Lucyn\u00f3w","addr:street":"ul. Szkolna","addr:housenumber":"12","addr:teryt:simc":21970,"addr:teryt:sym_ul":523146,"contact:phone":"+48 297424514","contact:email":"sp.lucynow@wyszkow.eu","contact:website":"http:\/\/www.splucynow.edupage.org","ref:regon":"001073231","ref:vatin":"PL7621795028","operator":"Gmina Wyszk\u00f3w","operator:type":"government","amenity":"school"}},{"id":29745,"type":"Feature","geometry":{"type":"Point","coordinates":[21.42011,52.57096]},"properties":{"isced:level":"1;2","ref:rspo":29745,"official_name":"Szko\u0142a Podstawowa im. Henryka Sienkiewicza w Rybnie","name":"Szko\u0142a Podstawowa","addr:country":"PL","addr:postcode":"07-200","addr:city":"Rybno","addr:street":"ul. Wyszkowska","addr:housenumber":"87","addr:teryt:simc":25092,"addr:teryt:sym_ul":523258,"contact:phone":"+48 297424013","contact:email":"sp.rybno@wyszkow.eu","contact:website":"http:\/\/sprybno.pl","ref:regon":"001073277","ref:vatin":"PL7621796252","operator":"Gmina Wyszk\u00f3w","operator:type":"government","amenity":"school"}},{"id":27059,"type":"Feature","geometry":{"type":"Point","coordinates":[21.45364,52.5782]},"properties":{"isced:level":"1;2","ref:rspo":27059,"official_name":"Szko\u0142a Podstawowa Nr 3 im. Stanis\u0142awa Wr\u00f3bla \"Jask\u00f3\u0142ki\" w Wyszkowie","name":"Szko\u0142a Podstawowa Nr 3","addr:country":"PL","addr:postcode":"07-201","addr:city":"Wyszk\u00f3w","addr:street":"ul. Stefana Batorego","addr:housenumber":"6","addr:teryt:simc":891,"addr:teryt:sym_ul":966470,"contact:phone":"+48 297428219","contact:email":"sp3@wyszkow.eu","contact:website":"http:\/\/sp3wyszkow.szkolnastrona.pl","ref:regon":"000641058","ref:vatin":"PL7621794997","operator":"Gmina Wyszk\u00f3w","operator:type":"government","amenity":"school"}},{"id":29901,"type":"Feature","geometry":{"type":"Point","coordinates":[21.4456099,52.58743]},"properties":{"ref:rspo":29901,"official_name":"Przedszkole \"Nasze Bambino\" w Wyszkowie","name":"Przedszkole \"Nasze Bambino\" w Wyszkowie","addr:country":"PL","addr:postcode":"07-200","addr:city":"Wyszk\u00f3w","addr:street":"ul. Komisji Edukacji Narodowej","addr:housenumber":"2","addr:teryt:simc":9066,"addr:teryt:sym_ul":966470,"contact:phone":"+48 296429950","contact:email":"ckwyszkow@zdz.edu.pl","contact:website":"http:\/\/www.naszebambino.edu.pl","ref:regon":"146355833","operator":"Zak\u0142ad Doskonalenia Zawodowego W Warszawie","operator:type":"ngo","amenity":"kindergarten"}},{"id":71484,"type":"Feature","geometry":{"type":"Point","coordinates":[21.4456099,52.587399999999995]},"properties":{"isced:level":"3","ref:rspo":71484,"official_name":"I Technikum Poligraficzno-Us\u0142ugowe w Wyszkowie","name":"I Technikum Poligraficzno-Us\u0142ugowe w Wyszkowie","addr:country":"PL","addr:postcode":"07-200","addr:city":"Wyszk\u00f3w","addr:street":"ul. Komisji Edukacji Narodowej","addr:housenumber":"2","addr:teryt:simc":9066,"addr:teryt:sym_ul":966470,"contact:phone":"+48 297424254","contact:email":"ckwyszkow@zdz.edu.pl","contact:website":"http:\/\/www.wyszkow.zdz.edu.pl","ref:regon":"146438826","operator":"Zak\u0142ad Doskonalenia Zawodowego W Warszawie","operator:type":"ngo","amenity":"school"}},{"id":119632,"type":"Feature","geometry":{"type":"Point","coordinates":[21.4456099,52.58737]},"properties":{"isced:level":"3","ref:rspo":119632,"official_name":"Iv Liceum Og\u00f3lnokszta\u0142c\u0105ce w Wyszkowie","name":"Iv Liceum Og\u00f3lnokszta\u0142c\u0105ce w Wyszkowie","addr:country":"PL","addr:postcode":"07-200","addr:city":"Wyszk\u00f3w","addr:street":"ul. Komisji Edukacji Narodowej","addr:housenumber":"2","addr:teryt:simc":9066,"addr:teryt:sym_ul":966470,"contact:phone":"+48 297424254","contact:email":"ckwyszkow@zdz.edu.pl","contact:website":"http:\/\/wyszkow.zdz.edu.pl","ref:regon":"146855961","operator":"Zak\u0142ad Doskonalenia Zawodowego W Warszawie","operator:type":"ngo","amenity":"school"}},{"id":120723,"type":"Feature","geometry":{"type":"Point","coordinates":[21.4456099,52.58734]},"properties":{"isced:level":"1;2","ref:rspo":120723,"official_name":"I J\u0119zykowa Szko\u0142a Podstawowa \"Language\" w Wyszkowie","name":"I J\u0119zykowa Szko\u0142a Podstawowa \"Language\" w Wyszkowie","addr:country":"PL","addr:postcode":"07-200","addr:city":"Wyszk\u00f3w","addr:street":"ul. Komisji Edukacji Narodowej","addr:housenumber":"2","addr:teryt:simc":9066,"addr:teryt:sym_ul":966470,"contact:phone":"+48 296429950","contact:email":"ckwyszkow@zdz.edu.pl","contact:website":"http:\/\/www.jspwyszkow.edu.pl","ref:regon":"146947440","operator":"Zak\u0142ad Doskonalenia Zawodowego W Warszawie","operator:type":"ngo","amenity":"school"}},{"id":129853,"type":"Feature","geometry":{"type":"Point","coordinates":[21.4456099,52.587309999999995]},"properties":{"ref:rspo":129853,"official_name":"Zak\u0142ad Doskonalenia Zawodowego w Warszawie - Centrum Kszta\u0142cenia w Wyszkowie","name":"Zak\u0142ad Doskonalenia Zawodowego w Warszawie - Centrum Kszta\u0142cenia w Wyszkowie","addr:country":"PL","addr:postcode":"07-200","addr:city":"Wyszk\u00f3w","addr:street":"ul. Komisji Edukacji Narodowej","addr:housenumber":"2","addr:teryt:simc":9066,"addr:teryt:sym_ul":966470,"contact:phone":"+48 297424254","contact:email":"ckwyszkow@zdz.edu.pl","contact:website":"http:\/\/www.wyszkow.zdz.edu.pl","ref:regon":"363024597","operator":"Zak\u0142ad Doskonalenia Zawodowego W Warszawie","operator:type":"ngo","fixme":"w zale\u017cno\u015bci od przedmiotu dzia\u0142alno\u015bci (np. amenity=training + training=*, amenity=dancing_school, amenity=language_school, amenity=music_school) albo amenity=school, amenity=college, albo landuse=education w zale\u017cno\u015bci od tego, jakie plac\u00f3wki wchodz\u0105 w sk\u0142ad zespo\u0142u. Sprawd\u017a, kiedy stosowa\u0107 amenity=* a kiedy landuse=education."}},{"id":133741,"type":"Feature","geometry":{"type":"Point","coordinates":[21.4456099,52.58728]},"properties":{"ref:rspo":133741,"official_name":"Przedszkole Nasze Bambino Nr 2","name":"Przedszkole Nasze Bambino Nr 2","addr:country":"PL","addr:postcode":"07-200","addr:city":"Wyszk\u00f3w","addr:street":"ul. Komisji Edukacji Narodowej","addr:housenumber":"2","addr:teryt:simc":9066,"addr:teryt:sym_ul":966470,"contact:phone":"+48 296429950","contact:email":"ckwyszkow@zdz.edu.pl","contact:website":"http:\/\/www.naszebambinonr2.edu.pl","ref:regon":"367568710","operator":"Zak\u0142ad Doskonalenia Zawodowego W Warszawie","operator:type":"ngo","amenity":"kindergarten"}},{"id":30885,"type":"Feature","geometry":{"type":"Point","coordinates":[21.44679,52.58755]},"properties":{"ref:rspo":30885,"official_name":"Niepubliczne Przedszkole \"Ma\u0142y Geniusz\"","name":"Niepubliczne Przedszkole \"Ma\u0142y Geniusz\"","addr:country":"PL","addr:postcode":"07-202","addr:city":"Wyszk\u00f3w","addr:street":"ul. 1 Maja","addr:housenumber":"24b","addr:teryt:simc":11926,"addr:teryt:sym_ul":966470,"contact:phone":"+48 504101771","contact:email":"m.geniusz.88@wp.pl","ref:regon":"146348520","operator":"Aneta Nowosielska \"Ma\u0142y Geniusz\"","operator:type":"consortium","amenity":"kindergarten"}},{"id":68327,"type":"Feature","geometry":{"type":"Point","coordinates":[21.4496499,52.5899]},"properties":{"isced:level":"4","ref:rspo":68327,"official_name":"Szko\u0142a Policealna Twp w Wyszkowie","name":"Szko\u0142a Policealna Twp w Wyszkowie","addr:country":"PL","addr:postcode":"07-200","addr:city":"Wyszk\u00f3w","addr:street":"ul. 3 Maja","addr:housenumber":"12","addr:door":"1A","addr:teryt:simc":11937,"addr:teryt:sym_ul":966470,"contact:phone":"+48 297429565","contact:email":"wyszkowlotwp@wp.pl","contact:website":"http:\/\/www.twpwyszkow.pl","ref:regon":"146415021","operator":"Towarzystwo Wiedzy Powszechnej Oddzia\u0142 Regionalny W Wyszkowie","operator:type":"ngo","amenity":"college"}},{"id":68333,"type":"Feature","geometry":{"type":"Point","coordinates":[21.4496499,52.58987]},"properties":{"isced:level":"3","ref:rspo":68333,"official_name":"Liceum Og\u00f3lnokszta\u0142c\u0105ce dla Doros\u0142ych Twp w Wyszkowie","name":"Liceum Og\u00f3lnokszta\u0142c\u0105ce dla Doros\u0142ych Twp w Wyszkowie","addr:country":"PL","addr:postcode":"07-200","addr:city":"Wyszk\u00f3w","addr:street":"ul. 3 Maja","addr:housenumber":"12","addr:door":"1A","addr:teryt:simc":11937,"addr:teryt:sym_ul":966470,"contact:phone":"+48 297429565","contact:email":"wyszkowlotwp1@wp.pl","contact:website":"http:\/\/www.twpwyszkow.pl","ref:regon":"146396192","operator":"Towarzystwo Wiedzy Powszechnej Oddzia\u0142 Regionalny W Wyszkowie","operator:type":"ngo","amenity":"school"}},{"id":120474,"type":"Feature","geometry":{"type":"Point","coordinates":[21.44755,52.58997]},"properties":{"ref:rspo":120474,"official_name":"Niepubliczne Przedszkole Z Oddzia\u0142ami Integracyjnymi \"Malinowe Przedszkole\"","name":"Niepubliczne Przedszkole Z Oddzia\u0142ami Integracyjnymi \"Malinowe Przedszkole\"","addr:country":"PL","addr:postcode":"07-200","addr:city":"Wyszk\u00f3w","addr:street":"ul. Tadeusza Ko\u015bciuszki","addr:housenumber":"39","addr:teryt:simc":9582,"addr:teryt:sym_ul":966470,"contact:phone":"+48 297422553","contact:email":"info@malinoweprzeszkole.pl","contact:website":"http:\/\/www.malinoweprzedszkole.pl","ref:regon":"146906115","operator":"Krystyna Owczarek Juliusz Owczarek S.c.","operator:type":"consortium","amenity":"kindergarten"}},{"id":133880,"type":"Feature","geometry":{"type":"Point","coordinates":[21.43064,52.59138]},"properties":{"ref:rspo":133880,"official_name":"Przedszkole Nr 2 w Wyszkowie","name":"Przedszkole Nr 2 w Wyszkowie","addr:country":"PL","addr:postcode":"07-200","addr:city":"Wyszk\u00f3w","addr:street":"ul. Meliorant\u00f3w","addr:housenumber":"13","addr:teryt:simc":12595,"addr:teryt:sym_ul":966470,"contact:phone":"+48 297424412","contact:email":"p2@wyszkow.eu","contact:website":"http:\/\/przed2wyszkow.edupage.org","ref:regon":"367706129","ref:vatin":"PL7622003383","operator":"Gmina Wyszk\u00f3w","operator:type":"government","amenity":"kindergarten"}},{"id":42115,"type":"Feature","geometry":{"type":"Point","coordinates":[21.44971,52.59199]},"properties":{"isced:level":"3","ref:rspo":42115,"official_name":"I Liceum Og\u00f3lnokszta\u0142c\u0105ce im. Cypriana Kamila Norwida w Wyszkowie","name":"I Liceum Og\u00f3lnokszta\u0142c\u0105ce","addr:country":"PL","addr:postcode":"07-200","addr:city":"Wyszk\u00f3w","addr:street":"ul. Tadeusza Ko\u015bciuszki","addr:housenumber":"52A","addr:teryt:simc":9582,"addr:teryt:sym_ul":966470,"contact:phone":"+48 297424622","contact:email":"szkola@1lowyszkow.pl","contact:website":"http:\/\/www.1lowyszkow.pl","ref:regon":"000256018","ref:vatin":"PL7621441052","operator":"Powiat Wyszkowski","operator:type":"government","amenity":"school"}},{"id":47010,"type":"Feature","geometry":{"type":"Point","coordinates":[21.44971,52.59196]},"properties":{"ref:rspo":47010,"official_name":"Poradnia Psychologiczno-Pedagogiczna w Wyszkowie","name":"Poradnia Psychologiczno-Pedagogiczna w Wyszkowie","addr:country":"PL","addr:postcode":"07-200","addr:city":"Wyszk\u00f3w","addr:street":"ul. Tadeusza Ko\u015bciuszki","addr:housenumber":"52","addr:teryt:simc":9582,"addr:teryt:sym_ul":966470,"contact:phone":"+48 297425007","contact:email":"sekretariat@pppwyszkow.pl","contact:website":"http:\/\/www.pppwyszkow.pl","ref:regon":"000694468","ref:vatin":"PL7621802113","operator":"Powiat Wyszkowski","operator:type":"government","healthcare":"councelling","counselling_type":"education","fixme":"w zale\u017cno\u015bci od przedmiotu dzia\u0142alno\u015bci (np. healthcare=councelling + counselling_type=education albo healthcare=psychotherapist)"}},{"id":263487,"type":"Feature","geometry":{"type":"Point","coordinates":[21.43372,52.59216]},"properties":{"ref:rspo":263487,"official_name":"Przedszkole Niepubliczne \"Akademia Przedszkolaka\"","name":"Przedszkole Niepubliczne \"Akademia Przedszkolaka\"","addr:country":"PL","addr:postcode":"07-202","addr:city":"Wyszk\u00f3w","addr:street":"ul. Jutrzenki","addr:housenumber":"2","addr:teryt:simc":7699,"addr:teryt:sym_ul":966470,"contact:email":"ania_1640@wp.pl","ref:regon":"368194080","operator":"Anna Kurowska","operator:type":"private","amenity":"kindergarten"}},{"id":133200,"type":"Feature","geometry":{"type":"Point","coordinates":[21.4532005,52.5929734]},"properties":{"ref:rspo":133200,"official_name":"Przedszkole Niepubliczne \"Ma\u0142y Chopin\"","name":"Przedszkole Niepubliczne \"Ma\u0142y Chopin\"","addr:country":"PL","addr:postcode":"07-202","addr:city":"Wyszk\u00f3w","addr:street":"ul. Fryderyka Chopina","addr:housenumber":"13","addr:teryt:simc":2849,"addr:teryt:sym_ul":966470,"contact:email":"asia_kasinska@interia.pl","ref:regon":"366800820","operator":"Joanna Dudzik Przedszkole Niepubliczne Ma\u0142y Chopin","operator:type":"consortium","amenity":"kindergarten"}},{"id":5513,"type":"Feature","geometry":{"type":"Point","coordinates":[21.44888,52.59396]},"properties":{"ref:rspo":5513,"official_name":"Przedszkole Nr 7 w Wyszkowie","name":"Przedszkole Nr 7 w Wyszkowie","addr:country":"PL","addr:postcode":"07-200","addr:city":"Wyszk\u00f3w","addr:street":"ul. 11 Listopada","addr:housenumber":"50","addr:teryt:simc":11205,"addr:teryt:sym_ul":966470,"contact:phone":"+48 297425100","contact:email":"p7@przedszkole-promyk.edu.pl","contact:website":"http:\/\/www.przedszkole-promyk.edu.pl","ref:regon":"550324343","ref:vatin":"PL7621030917","operator":"Gmina Wyszk\u00f3w","operator:type":"government","amenity":"kindergarten"}},{"id":278023,"type":"Feature","geometry":{"type":"Point","coordinates":[21.43546,52.59583]},"properties":{"ref:rspo":278023,"official_name":"Niepubliczne Przedszkole Tulimy","name":"Niepubliczne Przedszkole Tulimy","addr:country":"PL","addr:postcode":"07-200","addr:city":"Wyszk\u00f3w","addr:street":"ul. Geodet\u00f3w","addr:housenumber":"31","addr:teryt:simc":5452,"addr:teryt:sym_ul":966470,"contact:email":"niepubliczneprzedszkoletulimy@gmail.com","ref:regon":"389746608","operator":"Niepubliczne Przedszkole Tulimy Marlena \u017bywia\u0142kowska","operator:type":"consortium","amenity":"kindergarten"}},{"id":62042,"type":"Feature","geometry":{"type":"Point","coordinates":[21.44424,52.59645]},"properties":{"ref:rspo":62042,"official_name":"Specjalny O\u015brodek Szkolno-Wychowawczy im. Marii Konopnickiej w Wyszkowie","name":"Specjalny O\u015brodek Szkolno-Wychowawczy","addr:country":"PL","addr:postcode":"07-200","addr:city":"Wyszk\u00f3w","addr:street":"ul. Zakolejowa","addr:housenumber":"15A","addr:teryt:simc":25454,"addr:teryt:sym_ul":966470,"contact:phone":"+48 297423510","contact:email":"sekretariat@soswwyszkow.pl","contact:website":"http:\/\/www.soswwyszkow.pl","ref:regon":"000201974","ref:vatin":"PL7621790195","operator":"Powiat Wyszkowski","operator:type":"government","amenity":"school","note":"Children RSPO: 103394;103395;103397"}},{"id":103394,"type":"Feature","geometry":{"type":"Point","coordinates":[21.44424,52.596419999999995]},"properties":{"isced:level":"3","ref:rspo":103394,"official_name":"Bran\u017cowa Szko\u0142a I Stopnia w Wyszkowie","name":"Bran\u017cowa Szko\u0142a I Stopnia w Wyszkowie","addr:country":"PL","addr:postcode":"07-200","addr:city":"Wyszk\u00f3w","addr:street":"ul. Zakolejowa","addr:housenumber":"15A","addr:teryt:simc":25454,"addr:teryt:sym_ul":966470,"contact:phone":"+48 297423510","contact:email":"osw_wyszkow@wp.pl","contact:website":"http:\/\/www.osw.wyszkow.com.pl","ref:regon":"000912971","operator":"Powiat Wyszkowski","operator:type":"government","amenity":"school","note":"Parent RSPO: 62042"}},{"id":103395,"type":"Feature","geometry":{"type":"Point","coordinates":[21.44424,52.59639]},"properties":{"ref:rspo":103395,"official_name":"Szko\u0142a Przysposabiaj\u0105ca Do Pracy w Specjalnym O\u015brodku Szkolno-Wychowawczym w Wyszkowie","name":"Szko\u0142a Przysposabiaj\u0105ca Do Pracy w Specjalnym O\u015brodku Szkolno-Wychowawczym w Wyszkowie","addr:country":"PL","addr:postcode":"07-200","addr:city":"Wyszk\u00f3w","addr:street":"ul. Zakolejowa","addr:housenumber":"15A","addr:teryt:simc":25454,"addr:teryt:sym_ul":966470,"contact:phone":"+48 297423510","contact:email":"osw-wyszkow@wp.pl","contact:website":"http:\/\/soswwyszkow.pl\/","ref:regon":"140206606","operator":"Powiat Wyszkowski","operator:type":"government","amenity":"school","note":"Parent RSPO: 62042"}},{"id":103397,"type":"Feature","geometry":{"type":"Point","coordinates":[21.44424,52.59636]},"properties":{"isced:level":"1;2","ref:rspo":103397,"official_name":"Szko\u0142a Podstawowa Specjalna w Specjalnym O\u015brodku Szkolno-Wychowawczym w Wyszkowie","name":"Szko\u0142a Podstawowa Specjalna w Specjalnym O\u015brodku Szkolno-Wychowawczym w Wyszkowie","addr:country":"PL","addr:postcode":"07-200","addr:city":"Wyszk\u00f3w","addr:street":"ul. Zakolejowa","addr:housenumber":"15A","addr:teryt:simc":25454,"addr:teryt:sym_ul":966470,"contact:phone":"+48 297423510","contact:email":"sekretariat@soswwyszkow.pl","contact:website":"http:\/\/soswwyszkow.pl","ref:regon":"000932169","operator":"Powiat Wyszkowski","operator:type":"government","amenity":"school","note":"Children RSPO: 113526;113527Parent RSPO: 62042"}},{"id":128240,"type":"Feature","geometry":{"type":"Point","coordinates":[21.4351999,52.59739]},"properties":{"isced:level":"1;2","ref:rspo":128240,"official_name":"Polsko - Angielska Szko\u0142a Podstawowa Akademia Ucznia w Wyszkowie","name":"Polsko - Angielska Szko\u0142a Podstawowa Akademia Ucznia w Wyszkowie","addr:country":"PL","addr:postcode":"07-200","addr:city":"Wyszk\u00f3w","addr:street":"ul. Geodet\u00f3w","addr:housenumber":"45a","addr:teryt:simc":5452,"addr:teryt:sym_ul":966470,"contact:phone":"+48 505235841","contact:email":"biuro.akademiaucznia@gmail.com","contact:website":"http:\/\/www.akademiaucznia.com\/","ref:regon":"362193955","operator":"Akademia Edulogos Sp\u00f3\u0142ka Z Ograniczon\u0105 Odpowiedzialno\u015bci\u0105","operator:type":"private","amenity":"school"}},{"id":18985,"type":"Feature","geometry":{"type":"Point","coordinates":[21.44933,52.59758]},"properties":{"isced:level":"1;2","ref:rspo":18985,"official_name":"Szko\u0142a Podstawowa Nr 1 im. Adama Mickiewicza w Wyszkowie","name":"Szko\u0142a Podstawowa Nr 1","addr:country":"PL","addr:postcode":"07-200","addr:city":"Wyszk\u00f3w","addr:street":"ul. 11 Listopada","addr:housenumber":"62","addr:teryt:simc":11205,"addr:teryt:sym_ul":966470,"contact:phone":"+48 297423222","contact:email":"sp1@wyszkow.eu","contact:website":"http:\/\/www.sp1wyszkow.szkolnastrona.pl","ref:regon":"000694712","ref:vatin":"PL7621794974","operator":"Gmina Wyszk\u00f3w","operator:type":"government","amenity":"school"}},{"id":31356,"type":"Feature","geometry":{"type":"Point","coordinates":[21.43058,52.59765]},"properties":{"ref:rspo":31356,"official_name":"Niepubliczne Przedszkole \"Kubu\u015b I Przyjaciele\"","name":"Niepubliczne Przedszkole \"Kubu\u015b I Przyjaciele\"","addr:country":"PL","addr:postcode":"07-200","addr:city":"Wyszk\u00f3w","addr:street":"ul. Centralna","addr:housenumber":"42","addr:teryt:simc":2614,"addr:teryt:sym_ul":966470,"contact:phone":"+48 696024666","contact:email":"justyna_lach@onet.pl","contact:website":"http:\/\/www.przyjacielekubusia.pl","ref:regon":"146351210","operator":"Justyna Kuczy\u0144ska","operator:type":"private","amenity":"kindergarten"}},{"id":133211,"type":"Feature","geometry":{"type":"Point","coordinates":[21.4513883,52.5983824]},"properties":{"isced:level":"1;2","ref:rspo":133211,"official_name":"Szko\u0142a Podstawowa Nr 4 im. Obro\u0144c\u00f3w Westerplatte w Wyszkowie","name":"Szko\u0142a Podstawowa Nr 4","addr:country":"PL","addr:postcode":"07-202","addr:city":"Wyszk\u00f3w","addr:street":"ul. Genera\u0142a J\u00f3zefa Sowi\u0144skiego","addr:housenumber":"55","addr:teryt:simc":37884,"addr:teryt:sym_ul":966470,"contact:phone":"+48 297424517","contact:email":"sp4@wyszkow.eu","contact:website":"http:\/\/www.sp4wyszkow.pl","ref:regon":"366809376","ref:vatin":"PL7622003408","operator":"Gmina Wyszk\u00f3w","operator:type":"government","amenity":"school"}},{"id":28760,"type":"Feature","geometry":{"type":"Point","coordinates":[21.43224,52.59886]},"properties":{"isced:level":"1;2","ref:rspo":28760,"official_name":"Szko\u0142a Podstawowa Nr 5 im. \u017bo\u0142nierzy Armii Krajowej w Wyszkowie","name":"Szko\u0142a Podstawowa Nr 5","addr:country":"PL","addr:postcode":"07-200","addr:city":"Wyszk\u00f3w","addr:street":"ul. Geodet\u00f3w","addr:housenumber":"45","addr:teryt:simc":5452,"addr:teryt:sym_ul":966470,"contact:phone":"+48 297424559","contact:email":"sp5@wyszkow.eu","contact:website":"http:\/\/www.sp5wyszkow.pl","ref:regon":"001244833","ref:vatin":"PL7621795011","operator":"Gmina Wyszk\u00f3w","operator:type":"government","amenity":"school"}},{"id":121397,"type":"Feature","geometry":{"type":"Point","coordinates":[21.43224,52.59883]},"properties":{"ref:rspo":121397,"official_name":"Zesp\u00f3\u0142 Szk\u00f3\u0142 Pascal w Wyszkowie","name":"Zesp\u00f3\u0142 Szk\u00f3\u0142 Pascal w Wyszkowie","addr:country":"PL","addr:postcode":"07-200","addr:city":"Wyszk\u00f3w","addr:street":"ul. Geodet\u00f3w","addr:housenumber":"45","addr:teryt:simc":5452,"addr:teryt:sym_ul":966470,"contact:phone":"+48 296462121","contact:email":"wyszkow@pascal.edu.pl","contact:website":"http:\/\/www.pascal.edu.pl","ref:regon":"147044101","operator":"Grupa Pascal Sp\u00f3\u0142ka Z Ograniczon\u0105 Odpowiedzialno\u015bci\u0105","operator:type":"private","landuse":"education","fixme":"amenity=school, amenity=college albo landuse=education w zale\u017cno\u015bci od tego, jakie plac\u00f3wki wchodz\u0105 w sk\u0142ad zespo\u0142u. Sprawd\u017a, kiedy stosowa\u0107 amenity=* a kiedy landuse=education.","note":"Children RSPO: 71051;71052;71053;125771;125772"}},{"id":277355,"type":"Feature","geometry":{"type":"Point","coordinates":[21.43224,52.598800000000004]},"properties":{"isced:level":"3","ref:rspo":277355,"official_name":"I Liceum Og\u00f3lnokszta\u0142c\u0105ce Cn-B w Wyszkowie","name":"I Liceum Og\u00f3lnokszta\u0142c\u0105ce Cn-B w Wyszkowie","addr:country":"PL","addr:postcode":"07-200","addr:city":"Wyszk\u00f3w","addr:street":"ul. Geodet\u00f3w","addr:housenumber":"45","addr:door":"a","addr:teryt:simc":5452,"addr:teryt:sym_ul":966470,"contact:phone":"+48 506132375","contact:email":"j.chrobot@cnb-feniks.edu.pl","ref:regon":"388692081","operator":"Jaros\u0142aw Chrobot","operator:type":"private","amenity":"school"}},{"id":71051,"type":"Feature","geometry":{"type":"Point","coordinates":[21.43224,52.59877]},"properties":{"isced:level":"4","ref:rspo":71051,"official_name":"Zaoczna Policealna Szko\u0142a Zawodowa \"Pascal\" w Wyszkowie","name":"Zaoczna Policealna Szko\u0142a Zawodowa \"Pascal\" w Wyszkowie","addr:country":"PL","addr:postcode":"07-200","addr:city":"Wyszk\u00f3w","addr:street":"ul. Geodet\u00f3w","addr:housenumber":"45","addr:teryt:simc":5452,"addr:teryt:sym_ul":966470,"contact:phone":"+48 296462121","contact:email":"wyszkow@pascal.edu.pl","contact:website":"http:\/\/www.pascal.edu.pl","ref:regon":"146402981","operator":"Grupa Pascal Sp\u00f3\u0142ka Z Ograniczon\u0105 Odpowiedzialno\u015bci\u0105","operator:type":"private","amenity":"college","note":"Parent RSPO: 121397"}},{"id":71052,"type":"Feature","geometry":{"type":"Point","coordinates":[21.43224,52.59874]},"properties":{"isced:level":"4","ref:rspo":71052,"official_name":"Zaoczna Policealna Szko\u0142a Kosmetyczna \"Pascal\" w Wyszkowie","name":"Zaoczna Policealna Szko\u0142a Kosmetyczna \"Pascal\" w Wyszkowie","addr:country":"PL","addr:postcode":"07-200","addr:city":"Wyszk\u00f3w","addr:street":"ul. Geodet\u00f3w","addr:housenumber":"45","addr:teryt:simc":5452,"addr:teryt:sym_ul":966470,"contact:phone":"+48 296462121","contact:email":"wyszkow@pascal.edu.pl","contact:website":"http:\/\/www.pascal.edu.pl","ref:regon":"146399486","operator":"Grupa Pascal Sp\u00f3\u0142ka Z Ograniczon\u0105 Odpowiedzialno\u015bci\u0105","operator:type":"private","amenity":"college","note":"Parent RSPO: 121397"}},{"id":71053,"type":"Feature","geometry":{"type":"Point","coordinates":[21.43224,52.598710000000004]},"properties":{"isced:level":"3","ref:rspo":71053,"official_name":"Liceum Og\u00f3lnokszta\u0142c\u0105ce dla Doros\u0142ych \"Pascal\" w Wyszkowie","name":"Liceum Og\u00f3lnokszta\u0142c\u0105ce dla Doros\u0142ych \"Pascal\" w Wyszkowie","addr:country":"PL","addr:postcode":"07-200","addr:city":"Wyszk\u00f3w","addr:street":"ul. Geodet\u00f3w","addr:housenumber":"45","addr:teryt:simc":5452,"addr:teryt:sym_ul":966470,"contact:phone":"+48 296462121","contact:email":"wyszkow@pascal.edu.pl","contact:website":"http:\/\/www.pascal.edu.pl","ref:regon":"146402946","operator":"Grupa Pascal Sp\u00f3\u0142ka Z Ograniczon\u0105 Odpowiedzialno\u015bci\u0105","operator:type":"private","amenity":"school","note":"Parent RSPO: 121397"}},{"id":125771,"type":"Feature","geometry":{"type":"Point","coordinates":[21.43224,52.59868]},"properties":{"isced:level":"4","ref:rspo":125771,"official_name":"Stacjonarna Policealna Szko\u0142a Medyczna \"Pascal\" w Wyszkowie","name":"Stacjonarna Policealna Szko\u0142a Medyczna \"Pascal\" w Wyszkowie","addr:country":"PL","addr:postcode":"07-200","addr:city":"Wyszk\u00f3w","addr:street":"ul. Geodet\u00f3w","addr:housenumber":"45","addr:teryt:simc":5452,"addr:teryt:sym_ul":966470,"contact:phone":"+48 296462121","contact:email":"wyszkow@pascal.edu.pl","contact:website":"http:\/\/www.pascal.edu.pl","ref:regon":"147482953","operator":"Grupa Pascal Sp\u00f3\u0142ka Z Ograniczon\u0105 Odpowiedzialno\u015bci\u0105","operator:type":"private","amenity":"college","note":"Parent RSPO: 121397"}},{"id":125772,"type":"Feature","geometry":{"type":"Point","coordinates":[21.43224,52.59865]},"properties":{"isced:level":"4","ref:rspo":125772,"official_name":"Policealna Szko\u0142a Medyczna Pascal w Wyszkowie","name":"Policealna Szko\u0142a Medyczna Pascal w Wyszkowie","addr:country":"PL","addr:postcode":"07-200","addr:city":"Wyszk\u00f3w","addr:street":"ul. Geodet\u00f3w","addr:housenumber":"45","addr:teryt:simc":5452,"addr:teryt:sym_ul":966470,"contact:phone":"+48 296462121","contact:email":"wyszkow@pascal.edu.pl","contact:website":"http:\/\/www.pascal.edu.pl","ref:regon":"147482960","operator":"Grupa Pascal Sp\u00f3\u0142ka Z Ograniczon\u0105 Odpowiedzialno\u015bci\u0105","operator:type":"private","amenity":"college","note":"Parent RSPO: 121397"}},{"id":29903,"type":"Feature","geometry":{"type":"Point","coordinates":[21.4270299,52.59958]},"properties":{"ref:rspo":29903,"official_name":"Niepubliczne Przedszkole \"Bezpieczny Przedszkolak\"","name":"Niepubliczne Przedszkole \"Bezpieczny Przedszkolak\"","addr:country":"PL","addr:postcode":"07-200","addr:city":"Wyszk\u00f3w","addr:street":"ul. Geodet\u00f3w","addr:housenumber":"76","addr:teryt:simc":5452,"addr:teryt:sym_ul":966470,"contact:phone":"+48 507186388","contact:email":"bezpieczny@bezpiecznyprzedszkolak.edu.pl","contact:website":"http:\/\/www.wyszkow.bezpiecznyprzedszkolak.edu.pl","ref:regon":"146342859","operator":"Bezpieczny Przedszkolak Sp\u00f3\u0142ka Z Ograniczon\u0105 Odpowiedzialno\u015bci\u0105","operator:type":"private","amenity":"kindergarten"}},{"id":71554,"type":"Feature","geometry":{"type":"Point","coordinates":[21.4270299,52.59955]},"properties":{"ref:rspo":71554,"official_name":"O\u015brodek Rehabilitacyjno-Edukacyjno-Wychowawczy w Wyszkowie","name":"O\u015brodek Rehabilitacyjno-Edukacyjno-Wychowawczy w Wyszkowie","addr:country":"PL","addr:postcode":"07-200","addr:city":"Wyszk\u00f3w","addr:street":"ul. Geodet\u00f3w","addr:housenumber":"76","addr:teryt:simc":5452,"addr:teryt:sym_ul":966470,"contact:phone":"+48 297427768","contact:email":"zk.wyszkow@psouu.org.pl","ref:regon":"146401390","operator":"Dane Do Uzupe\u0142nienia","operator:type":"private","amenity":"school"}},{"id":5421,"type":"Feature","geometry":{"type":"Point","coordinates":[21.45334,52.5999399]},"properties":{"ref:rspo":5421,"official_name":"Przedszkole Nr 1 w Wyszkowie","name":"Przedszkole Nr 1 w Wyszkowie","addr:country":"PL","addr:postcode":"07-202","addr:city":"Wyszk\u00f3w","addr:street":"ul. Prosta","addr:housenumber":"7a","addr:teryt:simc":17547,"addr:teryt:sym_ul":966470,"contact:phone":"+48 297424862","contact:email":"p1@wyszkow.eu","contact:website":"http:\/\/jedyneczka.info","ref:regon":"550014826","ref:vatin":"PL7621044486","operator":"Gmina Wyszk\u00f3w","operator:type":"government","amenity":"kindergarten"}},{"id":5639,"type":"Feature","geometry":{"type":"Point","coordinates":[21.43057,52.60051]},"properties":{"ref:rspo":5639,"official_name":"Przedszkole Nr 9 w Wyszkowie","name":"Przedszkole Nr 9 w Wyszkowie","addr:country":"PL","addr:postcode":"07-200","addr:city":"Wyszk\u00f3w","addr:street":"ul. Pu\u0142tuska","addr:housenumber":"143","addr:teryt:simc":18168,"addr:teryt:sym_ul":966470,"contact:phone":"+48 297423733","contact:email":"p9@wyszkow.eu","contact:website":"http:\/\/www.9pwyszkow.szkolnastrona.pl","ref:regon":"550324366","ref:vatin":"PL7621030892","operator":"Gmina Wyszk\u00f3w","operator:type":"government","amenity":"kindergarten"}},{"id":21796,"type":"Feature","geometry":{"type":"Point","coordinates":[21.45773,52.60121]},"properties":{"isced:level":"1;2","ref:rspo":21796,"official_name":"Szko\u0142a Podstawowa Nr 2 im. W\u0142adys\u0142awa Broniewskiego w Wyszkowie","name":"Szko\u0142a Podstawowa Nr 2","addr:country":"PL","addr:postcode":"07-200","addr:city":"Wyszk\u00f3w","addr:street":"ul. Jana Matejki","addr:housenumber":"5","addr:teryt:simc":12489,"addr:teryt:sym_ul":966470,"contact:phone":"+48 297423233","contact:email":"sp2@wyszkow.eu","contact:website":"http:\/\/www.sp2wyszkow.szkolnastrona.pl","ref:regon":"000694729","ref:vatin":"PL7621794980","operator":"Gmina Wyszk\u00f3w","operator:type":"government","amenity":"school"}},{"id":44135,"type":"Feature","geometry":{"type":"Point","coordinates":[21.45801,52.60131]},"properties":{"ref:rspo":44135,"official_name":"Zesp\u00f3\u0142 Szk\u00f3\u0142 Nr 3 im. Jana Kochanowskiego w Wyszkowie","name":"Zesp\u00f3\u0142 Szk\u00f3\u0142 Nr 3","addr:country":"PL","addr:postcode":"07-200","addr:city":"Wyszk\u00f3w","addr:street":"ul. Jana Matejki","addr:housenumber":"9","addr:teryt:simc":12489,"addr:teryt:sym_ul":966470,"contact:phone":"+48 297429327","contact:email":"sekretariat@zs3-wyszkow.pl","contact:website":"http:\/\/www.zs3-wyszkow.pl","ref:regon":"551333781","ref:vatin":"PL7621893038","operator":"Wojew\u00f3dztwo Mazowieckie","operator:type":"government","landuse":"education","fixme":"amenity=school, amenity=college albo landuse=education w zale\u017cno\u015bci od tego, jakie plac\u00f3wki wchodz\u0105 w sk\u0142ad zespo\u0142u. Sprawd\u017a, kiedy stosowa\u0107 amenity=* a kiedy landuse=education.","note":"Children RSPO: 91726;91728"}},{"id":44136,"type":"Feature","geometry":{"type":"Point","coordinates":[21.45801,52.601279999999996]},"properties":{"ref:rspo":44136,"official_name":"Centrum Kszta\u0142cenia Ustawicznego im. Jana Kochanowskiego w Wyszkowie","name":"Centrum Kszta\u0142cenia Ustawicznego","addr:country":"PL","addr:postcode":"07-200","addr:city":"Wyszk\u00f3w","addr:street":"ul. Jana Matejki","addr:housenumber":"9","addr:teryt:simc":12489,"addr:teryt:sym_ul":966470,"contact:phone":"+48 297423430","contact:email":"sekretariat@cku-wyszkow.edu.pl","contact:website":"http:\/\/www.cku-wyszkow.edu.pl","ref:regon":"000202407","ref:vatin":"PL7621013681","operator":"Wojew\u00f3dztwo Mazowieckie","operator:type":"government","amenity":"school","fixme":"amenity=school lub amenity=college","note":"Children RSPO: 75242;88455"}},{"id":91726,"type":"Feature","geometry":{"type":"Point","coordinates":[21.45801,52.60125]},"properties":{"isced:level":"3","ref:rspo":91726,"official_name":"Liceum Og\u00f3lnokszta\u0142c\u0105ce w Zespole Szk\u00f3\u0142 Nr 3 im. Jana Kochanowskiego w Wyszkowie","name":"Liceum Og\u00f3lnokszta\u0142c\u0105ce w Zespole Szk\u00f3\u0142 Nr 3","addr:country":"PL","addr:postcode":"07-200","addr:city":"Wyszk\u00f3w","addr:street":"ul. Jana Matejki","addr:housenumber":"9","addr:teryt:simc":12489,"addr:teryt:sym_ul":966470,"contact:phone":"+48 297429327","contact:email":"sekretariat@zs3-wyszkow.pl","contact:website":"http:\/\/www.zs3-wyszkow.pl","ref:regon":"551301657","ref:vatin":"PL7621893038","operator":"Wojew\u00f3dztwo Mazowieckie","operator:type":"government","amenity":"school","note":"Parent RSPO: 44135"}},{"id":91728,"type":"Feature","geometry":{"type":"Point","coordinates":[21.45801,52.60122]},"properties":{"isced:level":"3","ref:rspo":91728,"official_name":"Technikum w Zespole Szk\u00f3\u0142 Nr 3 im. Jana Kochanowskiego w Wyszkowie","name":"Technikum w Zespole Szk\u00f3\u0142 Nr 3","addr:country":"PL","addr:postcode":"07-200","addr:city":"Wyszk\u00f3w","addr:street":"ul. Jana Matejki","addr:housenumber":"9","addr:teryt:simc":12489,"addr:teryt:sym_ul":966470,"contact:phone":"+48 297429327","contact:email":"sekretariat@zs3-wyszkow.pl","contact:website":"http:\/\/www.zs3-wyszkow.pl","ref:regon":"551301628","ref:vatin":"PL7621893038","operator":"Wojew\u00f3dztwo Mazowieckie","operator:type":"government","amenity":"school","note":"Parent RSPO: 44135"}},{"id":75242,"type":"Feature","geometry":{"type":"Point","coordinates":[21.45801,52.601189999999995]},"properties":{"isced:level":"3","ref:rspo":75242,"official_name":"Liceum Og\u00f3lnokszta\u0142c\u0105ce w Centrum Kszta\u0142cenia Ustawicznego im. Jana Kochanowskiego w Wyszkowie","name":"Liceum Og\u00f3lnokszta\u0142c\u0105ce w Centrum Kszta\u0142cenia Ustawicznego","addr:country":"PL","addr:postcode":"07-200","addr:city":"Wyszk\u00f3w","addr:street":"ul. Jana Matejki","addr:housenumber":"9","addr:teryt:simc":12489,"addr:teryt:sym_ul":966470,"contact:phone":"+48 297423430","contact:email":"sekretariat@cku-wyszkow.edu.pl","contact:website":"http:\/\/www.cku-wyszkow.edu.pl","ref:regon":"141548591","ref:vatin":"PL7621013681","operator":"Wojew\u00f3dztwo Mazowieckie","operator:type":"government","amenity":"school","note":"Parent RSPO: 44136"}},{"id":88455,"type":"Feature","geometry":{"type":"Point","coordinates":[21.45801,52.60116]},"properties":{"isced:level":"4","ref:rspo":88455,"official_name":"Szko\u0142a Policealna w Wyszkowie","name":"Szko\u0142a Policealna w Wyszkowie","addr:country":"PL","addr:postcode":"07-200","addr:city":"Wyszk\u00f3w","addr:street":"ul. Jana Matejki","addr:housenumber":"9","addr:teryt:simc":12489,"addr:teryt:sym_ul":966470,"contact:phone":"+48 297423430","contact:email":"sekretariat@cku-wyszkow.edu.pl","contact:website":"http:\/\/www.cku-wyszkow.edu.pl","ref:regon":"551301640","ref:vatin":"PL7621013681","operator":"Wojew\u00f3dztwo Mazowieckie","operator:type":"government","amenity":"college","note":"Parent RSPO: 44136"}},{"id":5468,"type":"Feature","geometry":{"type":"Point","coordinates":[21.4509,52.60158]},"properties":{"ref:rspo":5468,"official_name":"Przedszkole Integracyjne Nr 4 w Wyszkowie","name":"Przedszkole Integracyjne Nr 4 w Wyszkowie","addr:country":"PL","addr:postcode":"07-202","addr:city":"Wyszk\u00f3w","addr:street":"ul. Genera\u0142a J\u00f3zefa Sowi\u0144skiego","addr:housenumber":"27b","addr:teryt:simc":37884,"addr:teryt:sym_ul":966470,"contact:phone":"+48 297425817","contact:email":"pi4@wyszkow.eu","contact:website":"http:\/\/pi4wyszkow.szkolnastrona.pl","ref:regon":"550027585","ref:vatin":"PL7621030886","operator":"Gmina Wyszk\u00f3w","operator:type":"government","amenity":"kindergarten"}},{"id":89464,"type":"Feature","geometry":{"type":"Point","coordinates":[21.45672,52.60223]},"properties":{"ref:rspo":89464,"official_name":"Biblioteka Pedagogiczna w Ostro\u0142\u0119ce - Filia w Wyszkowie","name":"Biblioteka Pedagogiczna w Ostro\u0142\u0119ce - Filia w Wyszkowie","addr:country":"PL","addr:postcode":"07-202","addr:city":"Wyszk\u00f3w","addr:street":"ul. I Armii Wojska Polskiego","addr:housenumber":"82A","addr:teryt:simc":441,"addr:teryt:sym_ul":966470,"contact:phone":"+48 297423676","contact:email":"wyszkow@bp.ostroleka.pl","ref:regon":"694480000","ref:vatin":"PL7582120644","operator":"Wojew\u00f3dztwo Mazowieckie","operator:type":"government","amenity":"library","note":"Parent RSPO: 27001"}},{"id":29884,"type":"Feature","geometry":{"type":"Point","coordinates":[21.38482093811,52.607738494873]},"properties":{"isced:level":"1;2","ref:rspo":29884,"official_name":"Szko\u0142a Podstawowa w Olszance","name":"Szko\u0142a Podstawowa w Olszance","addr:country":"PL","addr:postcode":"07-200","addr:city":"Olszanka","addr:street":"ul. Zachodnia","addr:housenumber":"3","addr:teryt:simc":25305,"addr:teryt:sym_ul":523229,"contact:phone":"+48 295966918","contact:email":"spolszanka@wp.pl","contact:website":"http:\/\/www.spolszanka.szkolnastrona.pl","ref:regon":"146355879","ref:vatin":"PL7621996413","operator":"Stowarzyszenie Spo\u0142eczno-O\u015bwiatowe \"Przyjazny Kr\u0105g\"","operator:type":"ngo","amenity":"school"}},{"id":123682,"type":"Feature","geometry":{"type":"Point","coordinates":[21.38482093811,52.607708494872995]},"properties":{"ref:rspo":123682,"official_name":"Niepubliczne Przedszkole Tw\u00f3rcze \"Domisiowe Przedszkole\" w Olszance","name":"Niepubliczne Przedszkole Tw\u00f3rcze \"Domisiowe Przedszkole\" w Olszance","addr:country":"PL","addr:postcode":"07-200","addr:city":"Olszanka","addr:street":"ul. Zachodnia","addr:housenumber":"3","addr:teryt:simc":25305,"addr:teryt:sym_ul":523229,"contact:phone":"+48 295966918","contact:email":"spolszanka@wp.pl","ref:regon":"147340271","operator":"Stowarzyszenie Spo\u0142eczno-O\u015bwiatowe \"Przyjazny Kr\u0105g\"","operator:type":"ngo","amenity":"kindergarten"}},{"id":21899,"type":"Feature","geometry":{"type":"Point","coordinates":[21.41103,52.6233099]},"properties":{"isced:level":"1;2","ref:rspo":21899,"official_name":"Szko\u0142a Podstawowa im. Kardyna\u0142a Stefana Wyszy\u0144skiego w Leszczydole Starym","name":"Szko\u0142a Podstawowa","addr:country":"PL","addr:postcode":"07-202","addr:place":"Leszczyd\u00f3\u0142 Stary","addr:housenumber":"38","addr:teryt:sym_ul":523318,"contact:phone":"+48 297415608","contact:email":"sp.leszczydol.stary@wyszkow.eu","contact:website":"http:\/\/www.spleszczydol.szkolnastrona.pl","ref:regon":"001073260","ref:vatin":"PL7621795040","operator":"Gmina Wyszk\u00f3w","operator:type":"government","amenity":"school"}},{"id":125225,"type":"Feature","geometry":{"type":"Point","coordinates":[21.41103,52.6232799]},"properties":{"ref:rspo":125225,"official_name":"Przedszkole Niepubliczne \"Kajtek\"","name":"Przedszkole Niepubliczne \"Kajtek\"","addr:country":"PL","addr:postcode":"07-200","addr:place":"Leszczyd\u00f3\u0142 Stary","addr:housenumber":"38","addr:teryt:sym_ul":523318,"contact:phone":"+48 796417900","contact:email":"pn_kajtek@wp.pl","ref:regon":"147432688","operator":"Robert Gawry\u015b","operator:type":"private","amenity":"kindergarten"}},{"id":29894,"type":"Feature","geometry":{"type":"Point","coordinates":[21.36289,52.62459]},"properties":{"isced:level":"1;2","ref:rspo":29894,"official_name":"Szko\u0142a Podstawowa w \u0141osinnie","name":"Szko\u0142a Podstawowa w \u0141osinnie","addr:country":"PL","addr:postcode":"07-200","addr:city":"\u0141osinno","addr:street":"ul. Szkolna","addr:housenumber":"12","addr:teryt:simc":21970,"addr:teryt:sym_ul":523169,"contact:phone":"+48 297414784","contact:email":"splosinno@wp.pl","contact:website":"http:\/\/splosinno.edupage.org","ref:regon":"146372174","ref:vatin":"PL7621996436","operator":"Stowarzyszenie Spo\u0142eczno-O\u015bwiatowe \"Przyjazny Kr\u0105g\"","operator:type":"ngo","amenity":"school"}},{"id":123704,"type":"Feature","geometry":{"type":"Point","coordinates":[21.36289,52.624559999999995]},"properties":{"ref:rspo":123704,"official_name":"Niepubliczne Przedszkole Tw\u00f3rcze \"Akademia Krasnoludk\u00f3w\" w \u0141osinnie","name":"Niepubliczne Przedszkole Tw\u00f3rcze \"Akademia Krasnoludk\u00f3w\" w \u0141osinnie","addr:country":"PL","addr:postcode":"07-200","addr:city":"\u0141osinno","addr:street":"ul. Szkolna","addr:housenumber":"12","addr:teryt:simc":21970,"addr:teryt:sym_ul":523169,"contact:phone":"+48 297414784","contact:email":"splosinno@wp.pl","ref:regon":"147344091","operator":"Stowarzyszenie Spo\u0142eczno-O\u015bwiatowe \"Przyjazny Kr\u0105g\"","operator:type":"ngo","amenity":"kindergarten"}},{"id":278672,"type":"Feature","geometry":{"type":"Point","coordinates":[21.45133,52.64617]},"properties":{"ref:rspo":278672,"official_name":"Przedszkole Niepubliczne Przedszkolaczek","name":"Przedszkole Niepubliczne Przedszkolaczek","addr:country":"PL","addr:postcode":"07-202","addr:city":"Leszczyd\u00f3\u0142-Nowiny","addr:street":"ul. Wyszkowska","addr:housenumber":"73","addr:teryt:simc":25092,"addr:teryt:sym_ul":523057,"contact:phone":"+48 512206198","contact:email":"przedszkolaczek73@op.pl","ref:regon":"520031179","operator":"\u0141ukasz Kurowski","operator:type":"private","amenity":"kindergarten"}},{"id":27043,"type":"Feature","geometry":{"type":"Point","coordinates":[21.45688,52.64703]},"properties":{"isced:level":"1;2","ref:rspo":27043,"official_name":"Szko\u0142a Podstawowa im. Jana Paw\u0142a II w Leszczydole-Nowinach","name":"Szko\u0142a Podstawowa","addr:country":"PL","addr:postcode":"07-202","addr:city":"Leszczyd\u00f3\u0142-Nowiny","addr:street":"ul. Szkolna","addr:housenumber":"26","addr:teryt:simc":21970,"addr:teryt:sym_ul":523057,"contact:phone":"+48 296791466","contact:email":"sp.leszczydol.nowiny@wyszkow.eu","contact:website":"http:\/\/www.zsnowiny.szkolnastrona.pl","ref:regon":"001073254","ref:vatin":"PL7621795034","operator":"Gmina Wyszk\u00f3w","operator:type":"government","amenity":"school"}}]}