{
    "type": "FeatureCollection",
    "features": [
        {
            "id": 75458,
            "type": "Feature",
            "geometry": {
                "type": "Point",
                "coordinates": [
                    21.23574,
                    52.54741
                ]
            },
            "properties": {
                "isced:level": "1;2",
                "ref:rspo": 75458,
                "official_name": "Szko\u0142a Podstawowa im. \u015aw. Stanis\u0142awa Kostki w Jackowie G\u00f3rnym",
                "name": "Szko\u0142a Podstawowa",
                "addr:postcode": "07-203",
                "addr:place": "Jackowo G\u00f3rne",
                "addr:housenumber": "12",
                "addr:teryt:simc": 520107,
                "phone": "+48 297421640",
                "email": "jackowo_gorne_1959@o2.pl",
                "ref:regon": "001106344",
                "ref:vatin": "PL7621863310",
                "operator": "Spo\u0142eczne Stowarzyszenie O\u015bwiatowe \"Szko\u0142a Z Tradycjami\"",
                "operator:type": "ngo",
                "amenity": "school"
            }
        },
        {
            "id": 125461,
            "type": "Feature",
            "geometry": {
                "type": "Point",
                "coordinates": [
                    21.23574,
                    52.54738
                ]
            },
            "properties": {
                "ref:rspo": 125461,
                "official_name": "Niepubliczne Przedszkole w Jackowie G\u00f3rnym",
                "name": "Niepubliczne Przedszkole w Jackowie G\u00f3rnym",
                "addr:postcode": "07-203",
                "addr:place": "Jackowo G\u00f3rne",
                "addr:housenumber": "12",
                "addr:teryt:simc": 520107,
                "phone": "+48 297421640",
                "email": "jackowo_gorne_1959@o2.pl",
                "ref:regon": "147447359",
                "ref:vatin": "PL7621998576",
                "operator": "Spo\u0142eczne Stowarzyszenie O\u015bwiatowe \"Szko\u0142a Z Tradycjami\"",
                "operator:type": "ngo",
                "amenity": "kindergarten"
            }
        },
        {
            "id": 275369,
            "type": "Feature",
            "geometry": {
                "type": "Point",
                "coordinates": [
                    21.2943399,
                    52.56107
                ]
            },
            "properties": {
                "ref:rspo": 275369,
                "official_name": "Zesp\u00f3\u0142 Szkolno-Przedszkolny w Somiance",
                "name": "Zesp\u00f3\u0142 Szkolno-Przedszkolny w Somiance",
                "addr:postcode": "07-203",
                "addr:place": "Somianka",
                "addr:housenumber": "24B",
                "addr:teryt:simc": 520283,
                "phone": "+48 297418720",
                "email": "zssomianka@poczta.onet.pl",
                "website": "http:\/\/www.zssomianka.pl",
                "ref:regon": "386828263",
                "operator": "Gmina Somianka",
                "operator:type": "government",
                "landuse": "education",
                "fixme": "amenity=school, amenity=college albo landuse=education w zale\u017cno\u015bci od tego, jakie plac\u00f3wki wchodz\u0105 w sk\u0142ad zespo\u0142u. Sprawd\u017a, kiedy stosowa\u0107 amenity=* a kiedy landuse=education.",
                "note": "Children RSPO: 8813;276032"
            }
        },
        {
            "id": 8813,
            "type": "Feature",
            "geometry": {
                "type": "Point",
                "coordinates": [
                    21.2943399,
                    52.56104
                ]
            },
            "properties": {
                "isced:level": "1;2",
                "ref:rspo": 8813,
                "official_name": "Szko\u0142a Podstawowa im. \u015aw. Jana Paw\u0142a II w Somiance",
                "name": "Szko\u0142a Podstawowa",
                "addr:postcode": "07-203",
                "addr:place": "Somianka",
                "addr:housenumber": "24B",
                "addr:teryt:simc": 520283,
                "phone": "+48 297418720",
                "email": "zssomianka@poczta.onet.pl",
                "ref:regon": "000640892",
                "ref:vatin": "PL7621863273",
                "operator": "Gmina Somianka",
                "operator:type": "government",
                "amenity": "school",
                "note": "Parent RSPO: 275369"
            }
        },
        {
            "id": 276032,
            "type": "Feature",
            "geometry": {
                "type": "Point",
                "coordinates": [
                    21.2943399,
                    52.56101
                ]
            },
            "properties": {
                "ref:rspo": 276032,
                "official_name": "Samorz\u0105dowe Przedszkole im. \u015aw. Jana Paw\u0142a II w Somiance",
                "name": "Samorz\u0105dowe Przedszkole",
                "addr:postcode": "07-203",
                "addr:place": "Somianka",
                "addr:housenumber": "24B",
                "addr:teryt:simc": 520283,
                "phone": "+48 297418720",
                "email": "zssomianka@poczta.onet.pl",
                "website": "http:\/\/zssomianka.pl",
                "ref:regon": "386974444",
                "operator": "Gmina Somianka",
                "operator:type": "government",
                "amenity": "kindergarten",
                "note": "Parent RSPO: 275369"
            }
        },
        {
            "id": 75459,
            "type": "Feature",
            "geometry": {
                "type": "Point",
                "coordinates": [
                    21.36784,
                    52.56921
                ]
            },
            "properties": {
                "isced:level": "1;2",
                "ref:rspo": 75459,
                "official_name": "Szko\u0142a Podstawowa im. Por. Pil. Stefana Okrzei",
                "name": "Szko\u0142a Podstawowa",
                "addr:postcode": "07-200",
                "addr:place": "Kr\u0119gi",
                "addr:housenumber": "9",
                "addr:teryt:simc": 520171,
                "phone": "+48 297418779",
                "email": "szkolakregi@wp.pl",
                "website": "http:\/\/spkregi.szkolnastrona.pl",
                "ref:regon": "001105652",
                "ref:vatin": "PL7621863304",
                "operator": "Stowarzyszenie Spo\u0142eczno-O\u015bwiatowe \"Przyjazny Kr\u0105g\"",
                "operator:type": "ngo",
                "amenity": "school"
            }
        },
        {
            "id": 123586,
            "type": "Feature",
            "geometry": {
                "type": "Point",
                "coordinates": [
                    21.36784,
                    52.569179999999996
                ]
            },
            "properties": {
                "ref:rspo": 123586,
                "official_name": "Niepubliczne Przedszkole Tw\u00f3rcze \"Pa\u0142acowe Skrzaty\" w Kr\u0119gach",
                "name": "Niepubliczne Przedszkole Tw\u00f3rcze \"Pa\u0142acowe Skrzaty\" w Kr\u0119gach",
                "addr:postcode": "07-200",
                "addr:place": "Kr\u0119gi",
                "addr:housenumber": "9",
                "addr:teryt:simc": 520171,
                "phone": "+48 297418779",
                "email": "szkolakregi@wp.pl",
                "ref:regon": "147330686",
                "ref:vatin": "PL7621998085",
                "operator": "Stowarzyszenie Spo\u0142eczno-O\u015bwiatowe \"Przyjazny Kr\u0105g\"",
                "operator:type": "ngo",
                "amenity": "kindergarten"
            }
        },
        {
            "id": 7997,
            "type": "Feature",
            "geometry": {
                "type": "Point",
                "coordinates": [
                    21.28481,
                    52.58738
                ]
            },
            "properties": {
                "isced:level": "1;2",
                "ref:rspo": 7997,
                "official_name": "Szko\u0142a Podstawowa w Ulasku",
                "name": "Szko\u0142a Podstawowa w Ulasku",
                "addr:postcode": "07-203",
                "addr:place": "Ulasek",
                "addr:housenumber": "28A",
                "addr:teryt:simc": 520395,
                "phone": "+48 297414586",
                "email": "szkola.ulasek@o2.pl",
                "website": "http:\/\/www.szkolaulasek.szkolnastrona.pl",
                "ref:regon": "001105681",
                "ref:vatin": "PL7621863600",
                "operator": "Gmina Somianka",
                "operator:type": "government",
                "amenity": "school"
            }
        },
        {
            "id": 275372,
            "type": "Feature",
            "geometry": {
                "type": "Point",
                "coordinates": [
                    21.31824,
                    52.62356
                ]
            },
            "properties": {
                "ref:rspo": 275372,
                "official_name": "Zesp\u00f3\u0142 Szkolno-Przedszkolny im. Gen. Bryg. Pil. Stanis\u0142awa Skalskiego w Woli Mystkowskiej",
                "name": "Zesp\u00f3\u0142 Szkolno-Przedszkolny",
                "addr:postcode": "07-206",
                "addr:place": "Wola Mystkowska",
                "addr:housenumber": "17",
                "addr:teryt:simc": 520455,
                "phone": "+48 297418322",
                "email": "wola.mystkowska@wp.pl",
                "website": "http:\/\/sites.google.com\/site\/wolamystkowska",
                "ref:regon": "386828783",
                "operator": "Gmina Somianka",
                "operator:type": "government",
                "landuse": "education",
                "fixme": "amenity=school, amenity=college albo landuse=education w zale\u017cno\u015bci od tego, jakie plac\u00f3wki wchodz\u0105 w sk\u0142ad zespo\u0142u. Sprawd\u017a, kiedy stosowa\u0107 amenity=* a kiedy landuse=education.",
                "note": "Children RSPO: 8815;275749"
            }
        },
        {
            "id": 8815,
            "type": "Feature",
            "geometry": {
                "type": "Point",
                "coordinates": [
                    21.31824,
                    52.623529999999995
                ]
            },
            "properties": {
                "isced:level": "1;2",
                "ref:rspo": 8815,
                "official_name": "Szko\u0142a Podstawowa im. Gen. Bryg. Pil. Stanis\u0142awa Skalskiego w Woli Mystkowskiej",
                "name": "Szko\u0142a Podstawowa",
                "addr:postcode": "07-206",
                "addr:place": "Wola Mystkowska",
                "addr:housenumber": "17",
                "addr:teryt:simc": 520455,
                "phone": "+48 297418322",
                "email": "wola.mystkowska@wp.pl",
                "ref:regon": "001105669",
                "ref:vatin": "PL7621863971",
                "operator": "Gmina Somianka",
                "operator:type": "government",
                "amenity": "school",
                "note": "Parent RSPO: 275372"
            }
        },
        {
            "id": 275749,
            "type": "Feature",
            "geometry": {
                "type": "Point",
                "coordinates": [
                    21.31824,
                    52.6235
                ]
            },
            "properties": {
                "ref:rspo": 275749,
                "official_name": "Samorz\u0105dowe Przedszkole im. Gen. Bryg. Pil. Stanis\u0142awa Skalskiego w Woli Mystkowskiej",
                "name": "Samorz\u0105dowe Przedszkole",
                "addr:postcode": "07-206",
                "addr:place": "Wola Mystkowska",
                "addr:housenumber": "17",
                "addr:teryt:simc": 520455,
                "phone": "+48 297418322",
                "email": "wola.mystkowska@wp.pl",
                "ref:regon": "386933712",
                "operator": "Gmina Somianka",
                "operator:type": "government",
                "amenity": "kindergarten",
                "note": "Parent RSPO: 275372"
            }
        },
        {
            "id": 8096,
            "type": "Feature",
            "geometry": {
                "type": "Point",
                "coordinates": [
                    17.265069961548,
                    52.715301513672
                ]
            },
            "properties": {
                "isced:level": "1;2",
                "ref:rspo": 8096,
                "official_name": "Szko\u0142a Podstawowa im. Kazimiery Augustynowicz w Popowie Ko\u015bcielnym",
                "name": "Szko\u0142a Podstawowa",
                "addr:postcode": "07-203",
                "addr:place": "Popowo Ko\u015bcielne",
                "addr:housenumber": "60",
                "addr:teryt:simc": 520248,
                "phone": "+48 297421679",
                "email": "szkola@psppopowo.pl",
                "website": "http:\/\/psppopowo.pl",
                "ref:regon": "146319300",
                "ref:vatin": "PL7621864338",
                "operator": "Nadbu\u017ca\u0144skie Towarzystwo O\u015bwiatowe \"Moja Wie\u015b\"",
                "operator:type": "ngo",
                "amenity": "school"
            }
        }
    ]
}