{
    "type": "FeatureCollection",
    "features": [
        {
            "id": 120959,
            "type": "Feature",
            "geometry": {
                "type": "Point",
                "coordinates": [
                    16.44475,
                    52.6267799
                ]
            },
            "properties": {
                "isced:level": "1;2",
                "ref:rspo": 120959,
                "official_name": "Szko\u0142a Podstawowa im. Jana Ostroroga w Ostrorogu",
                "name": "Szko\u0142a Podstawowa",
                "addr:country": "PL",
                "addr:postcode": "64-560",
                "addr:city": "Ostror\u00f3g",
                "addr:street": "Jana Ostroroga",
                "addr:housenumber": "14",
                "addr:teryt:simc": 971264,
                "addr:teryt:sym_ul": 15384,
                "contact:phone": "+48 612916772",
                "contact:email": "sekretariat@spostrorog.pl",
                "contact:website": "http:\/\/www.spostrorog.pl",
                "ref:regon": "000657467",
                "ref:vatin": "PL7872131538",
                "operator": "Gmina Ostror\u00f3g",
                "operator:type": "government",
                "amenity": "school"
            }
        },
        {
            "id": 9569,
            "type": "Feature",
            "geometry": {
                "type": "Point",
                "coordinates": [
                    16.44658,
                    52.62833
                ]
            },
            "properties": {
                "ref:rspo": 9569,
                "official_name": "Przedszkole ,,Mi\u015b Uszatek\" w Ostrorogu",
                "name": "Przedszkole ,,Mi\u015b Uszatek\" w Ostrorogu",
                "addr:country": "PL",
                "addr:postcode": "64-560",
                "addr:city": "Ostror\u00f3g",
                "addr:street": "Wroniecka",
                "addr:housenumber": "12",
                "addr:teryt:simc": 971264,
                "addr:teryt:sym_ul": 24813,
                "contact:phone": "+48 612931718",
                "contact:email": "dyrektor@misuszatekostrorog.edu.pl",
                "ref:regon": "630033865",
                "ref:vatin": "PL7872131544",
                "operator": "Gmina Ostror\u00f3g",
                "operator:type": "government",
                "amenity": "kindergarten"
            }
        }
    ]
}