{
    "type": "FeatureCollection",
    "features": [
        {
            "id": 87088,
            "type": "Feature",
            "geometry": {
                "type": "Point",
                "coordinates": [
                    16.30254,
                    52.69017
                ]
            },
            "properties": {
                "isced:level": "1;2",
                "ref:rspo": 87088,
                "official_name": "Szko\u0142a Podstawowa im. Wincentego Witosa w Biezdrowie",
                "name": "Szko\u0142a Podstawowa",
                "addr:postcode": "64-510",
                "addr:place": "Biezdrowo",
                "addr:housenumber": "9",
                "addr:city:simc": 532719,
                "phone": "+48 672547205",
                "email": "zsbiezdrowo@zsbiezdrowo.edu.pl",
                "website": "http:\/\/www.spbiezdrowo.edu.pl",
                "ref:regon": "001130650",
                "ref:vatin": "PL7871975955",
                "operator": "Gmina Wronki",
                "operator:type": "government",
                "amenity": "school"
            }
        },
        {
            "id": 275702,
            "type": "Feature",
            "geometry": {
                "type": "Point",
                "coordinates": [
                    16.38506,
                    52.694387
                ]
            },
            "properties": {
                "ref:rspo": 275702,
                "official_name": "Przedszkole nr 1 w Nowej Wsi",
                "name": "Przedszkole nr 1 w Nowej Wsi",
                "addr:postcode": "64-510",
                "addr:city": "Nowa Wie\u015b",
                "addr:street": "Szkolna",
                "addr:housenumber": "5a",
                "addr:city:simc": 532961,
                "addr:street:sym_ul": 21970,
                "email": "biuro@zlota-rybka.info",
                "website": "http:\/\/www.zlota-rybka.info",
                "ref:regon": "386932530",
                "operator": "Remigiusz Stein",
                "operator:type": "private",
                "amenity": "kindergarten"
            }
        },
        {
            "id": 72925,
            "type": "Feature",
            "geometry": {
                "type": "Point",
                "coordinates": [
                    16.38506,
                    52.69439
                ]
            },
            "properties": {
                "isced:level": "1;2",
                "ref:rspo": 72925,
                "official_name": "Szko\u0142a Podstawowa im. Arkadego Fiedlera w Nowej Wsi",
                "name": "Szko\u0142a Podstawowa",
                "addr:postcode": "64-510",
                "addr:city": "Nowa Wie\u015b",
                "addr:street": "Szkolna",
                "addr:housenumber": "5",
                "addr:city:simc": 532961,
                "addr:street:sym_ul": 21970,
                "phone": "+48 672540574",
                "email": "szkola70@op.pl",
                "website": "http:\/\/www.sp-nowa-wies.pl",
                "ref:regon": "001130673",
                "ref:vatin": "PL7871975961",
                "operator": "Gmina Wronki",
                "operator:type": "government",
                "amenity": "school"
            }
        },
        {
            "id": 73171,
            "type": "Feature",
            "geometry": {
                "type": "Point",
                "coordinates": [
                    16.20831,
                    52.6961299
                ]
            },
            "properties": {
                "isced:level": "1;2",
                "ref:rspo": 73171,
                "official_name": "Szko\u0142a Podstawowa im. Agnieszki Bartol w Chojnie",
                "name": "Szko\u0142a Podstawowa",
                "addr:postcode": "64-510",
                "addr:place": "Chojno-Wie\u015b",
                "addr:housenumber": "79",
                "addr:city:simc": 532731,
                "phone": "+48 672547169",
                "email": "szkola_chojno@op.pl",
                "website": "http:\/\/www.spchojno.org.pl",
                "ref:regon": "001130667",
                "ref:vatin": "PL7871975949",
                "operator": "Gmina Wronki",
                "operator:type": "government",
                "amenity": "school"
            }
        },
        {
            "id": 4869,
            "type": "Feature",
            "geometry": {
                "type": "Point",
                "coordinates": [
                    16.37068,
                    52.70609
                ]
            },
            "properties": {
                "ref:rspo": 4869,
                "official_name": "Zesp\u00f3\u0142 Szk\u00f3\u0142 nr 2 im. Stanis\u0142awa Konarskiego we Wronkach",
                "name": "Zesp\u00f3\u0142 Szk\u00f3\u0142 nr 2",
                "addr:postcode": "64-510",
                "addr:city": "Wronki",
                "addr:street": "Powsta\u0144c\u00f3w Wielkopolskich",
                "addr:housenumber": "25",
                "addr:city:simc": 967386,
                "addr:street:sym_ul": 17377,
                "phone": "+48 672541176",
                "email": "sekretariat@zs2-wronki.pl",
                "website": "http:\/\/www.zs2.informatycznynadzor.pl",
                "ref:regon": "570532899",
                "ref:vatin": "PL7631371979",
                "operator": "Powiat Szamotulski",
                "operator:type": "government",
                "landuse": "education",
                "fixme": "amenity=school, amenity=college albo landuse=education w zale\u017cno\u015bci od tego, jakie plac\u00f3wki wchodz\u0105 w sk\u0142ad zespo\u0142u. Sprawd\u017a, kiedy stosowa\u0107 amenity=* a kiedy landuse=education.",
                "note": "Children RSPO: 13080;13127;13224"
            }
        },
        {
            "id": 13080,
            "type": "Feature",
            "geometry": {
                "type": "Point",
                "coordinates": [
                    16.37068,
                    52.70606
                ]
            },
            "properties": {
                "isced:level": "3",
                "ref:rspo": 13080,
                "official_name": "Bran\u017cowa Szko\u0142a I Stopnia we Wronkach",
                "name": "Bran\u017cowa Szko\u0142a I Stopnia we Wronkach",
                "addr:postcode": "64-510",
                "addr:city": "Wronki",
                "addr:street": "Powsta\u0144c\u00f3w Wielkopolskich",
                "addr:housenumber": "25",
                "addr:city:simc": 967386,
                "addr:street:sym_ul": 17377,
                "phone": "+48 672541176",
                "email": "sekretariat@zs2-wronki.pl",
                "website": "http:\/\/www.zs2.informatycznynadzor.pl",
                "ref:regon": "634393810",
                "operator": "Powiat Szamotulski",
                "operator:type": "government",
                "amenity": "school",
                "note": "Parent RSPO: 4869"
            }
        },
        {
            "id": 13127,
            "type": "Feature",
            "geometry": {
                "type": "Point",
                "coordinates": [
                    16.37068,
                    52.706030000000005
                ]
            },
            "properties": {
                "isced:level": "3",
                "ref:rspo": 13127,
                "official_name": "Technikum nr 2",
                "name": "Technikum nr 2",
                "addr:postcode": "64-510",
                "addr:city": "Wronki",
                "addr:street": "Powsta\u0144c\u00f3w Wielkopolskich",
                "addr:housenumber": "25",
                "addr:city:simc": 967386,
                "addr:street:sym_ul": 17377,
                "phone": "+48 672541176",
                "email": "sekretariat@zs2-wronki.pl",
                "website": "http:\/\/www.zs2.informatycznynadzor.pl",
                "ref:regon": "634393780",
                "operator": "Powiat Szamotulski",
                "operator:type": "government",
                "amenity": "school",
                "note": "Parent RSPO: 4869"
            }
        },
        {
            "id": 13224,
            "type": "Feature",
            "geometry": {
                "type": "Point",
                "coordinates": [
                    16.37068,
                    52.706
                ]
            },
            "properties": {
                "isced:level": "3",
                "ref:rspo": 13224,
                "official_name": "Liceum Og\u00f3lnokszta\u0142c\u0105ce dla Doros\u0142ych",
                "name": "Liceum Og\u00f3lnokszta\u0142c\u0105ce dla Doros\u0142ych",
                "addr:postcode": "64-510",
                "addr:city": "Wronki",
                "addr:street": "Powsta\u0144c\u00f3w Wielkopolskich",
                "addr:housenumber": "25",
                "addr:city:simc": 967386,
                "addr:street:sym_ul": 17377,
                "phone": "+48 672541176",
                "email": "sekretariat@zs2-wronki.pl",
                "website": "http:\/\/www.zs2.informatycznynadzor.pl",
                "ref:regon": "302210979",
                "operator": "Powiat Szamotulski",
                "operator:type": "government",
                "amenity": "school",
                "note": "Parent RSPO: 4869"
            }
        },
        {
            "id": 196381,
            "type": "Feature",
            "geometry": {
                "type": "Point",
                "coordinates": [
                    16.38495,
                    52.70641
                ]
            },
            "properties": {
                "isced:level": "1;2",
                "ref:rspo": 196381,
                "official_name": "Szko\u0142a Podstawowa nr 3 im.zbigniewa Herberta",
                "name": "Szko\u0142a Podstawowa nr 3 im.zbigniewa Herberta",
                "addr:postcode": "64-510",
                "addr:city": "Wronki",
                "addr:street": "Polna",
                "addr:housenumber": "5",
                "addr:city:simc": 967386,
                "addr:street:sym_ul": 17011,
                "phone": "+48 672540748",
                "email": "sekretariat@sp3wronki.pl",
                "website": "http:\/\/www.sp3wronki.pl",
                "ref:regon": "367992052",
                "ref:vatin": "PL7872120032",
                "operator": "Gmina Wronki",
                "operator:type": "government",
                "amenity": "school"
            }
        },
        {
            "id": 130022,
            "type": "Feature",
            "geometry": {
                "type": "Point",
                "coordinates": [
                    16.3837,
                    52.7073899
                ]
            },
            "properties": {
                "ref:rspo": 130022,
                "official_name": "Przedszkole Prywatne \"Mali Odkrywcy\" Monika Radunz Garkowska, Karolina Gall Sp\u00f3\u0142ka Cywilna",
                "name": "Przedszkole Prywatne \"Mali Odkrywcy\" Monika Radunz Garkowska, Karolina Gall Sp\u00f3\u0142ka Cywilna",
                "addr:postcode": "64-510",
                "addr:city": "Wronki",
                "addr:street": "Partyzant\u00f3w",
                "addr:housenumber": "5",
                "addr:city:simc": 967386,
                "addr:street:sym_ul": 15733,
                "phone": "+48 667974632",
                "email": "mali-odkrywcy@onet.pl",
                "website": "http:\/\/mali-odkrywcy-wronki.pl",
                "ref:regon": "363497189",
                "ref:vatin": "PL7872111702",
                "operator": "Monika Radunz Garkowska",
                "operator:type": "private",
                "amenity": "kindergarten"
            }
        },
        {
            "id": 72748,
            "type": "Feature",
            "geometry": {
                "type": "Point",
                "coordinates": [
                    16.37862,
                    52.70778
                ]
            },
            "properties": {
                "isced:level": "1;2",
                "ref:rspo": 72748,
                "official_name": "Szko\u0142a Podstawowa nr 2 im. Kornela Makuszy\u0144skiego",
                "name": "Szko\u0142a Podstawowa nr 2",
                "addr:postcode": "64-510",
                "addr:city": "Wronki",
                "addr:street": "Pozna\u0144ska",
                "addr:housenumber": "46",
                "addr:city:simc": 967386,
                "addr:street:sym_ul": 17394,
                "phone": "+48 672540313",
                "email": "sekretariat@sp2wronki.pl",
                "website": "http:\/\/www.sp2wronki.pl",
                "ref:regon": "001130644",
                "ref:vatin": "PL7871975932",
                "operator": "Gmina Wronki",
                "operator:type": "government",
                "amenity": "school"
            }
        },
        {
            "id": 87050,
            "type": "Feature",
            "geometry": {
                "type": "Point",
                "coordinates": [
                    16.37272,
                    52.70805
                ]
            },
            "properties": {
                "ref:rspo": 87050,
                "official_name": "Przedszkole nr 2 we Wronkach Wronczusie",
                "name": "Przedszkole nr 2 we Wronkach Wronczusie",
                "addr:postcode": "64-510",
                "addr:city": "Wronki",
                "addr:street": "Plac Wolno\u015bci",
                "addr:housenumber": "6",
                "addr:city:simc": 967386,
                "addr:street:sym_ul": 24685,
                "phone": "+48 672540621",
                "email": "przedszkole2wronki@poczta.onet.pl",
                "website": "http:\/\/www.przedszkole2wronki.strefa.pl",
                "ref:regon": "570302314",
                "ref:vatin": "PL7871975990",
                "operator": "Gmina Wronki",
                "operator:type": "government",
                "amenity": "kindergarten"
            }
        },
        {
            "id": 4447,
            "type": "Feature",
            "geometry": {
                "type": "Point",
                "coordinates": [
                    16.38481,
                    52.70806
                ]
            },
            "properties": {
                "ref:rspo": 4447,
                "official_name": "Centrum Kszta\u0142cenia Ustawicznego",
                "name": "Centrum Kszta\u0142cenia Ustawicznego",
                "addr:postcode": "64-510",
                "addr:city": "Wronki",
                "addr:street": "Partyzant\u00f3w",
                "addr:housenumber": "1",
                "addr:city:simc": 967386,
                "addr:street:sym_ul": 15733,
                "phone": "+48 672545087",
                "email": "zkzs_wronki@sw.gov.pl",
                "ref:regon": "302190024",
                "operator": "Ministerstwo Sprawiedliwo\u015bci",
                "operator:type": "government",
                "amenity": "school",
                "fixme": "amenity=school lub amenity=college",
                "note": "Children RSPO: 11059;20170"
            }
        },
        {
            "id": 11059,
            "type": "Feature",
            "geometry": {
                "type": "Point",
                "coordinates": [
                    16.38481,
                    52.70803
                ]
            },
            "properties": {
                "isced:level": "3",
                "ref:rspo": 11059,
                "official_name": "Liceum Og\u00f3lnokszta\u0142c\u0105ce dla Doros\u0142ych",
                "name": "Liceum Og\u00f3lnokszta\u0142c\u0105ce dla Doros\u0142ych",
                "addr:postcode": "64-510",
                "addr:city": "Wronki",
                "addr:street": "Partyzant\u00f3w",
                "addr:housenumber": "1",
                "addr:city:simc": 967386,
                "addr:street:sym_ul": 15733,
                "phone": "+48 672545087",
                "email": "zkzs.wronki@sw.gov.pl",
                "ref:regon": "302205719",
                "operator": "Ministerstwo Sprawiedliwo\u015bci",
                "operator:type": "government",
                "amenity": "school",
                "note": "Parent RSPO: 4447"
            }
        },
        {
            "id": 20170,
            "type": "Feature",
            "geometry": {
                "type": "Point",
                "coordinates": [
                    16.38481,
                    52.708000000000006
                ]
            },
            "properties": {
                "isced:level": "1;2",
                "ref:rspo": 20170,
                "official_name": "Szko\u0142a Podstawowa dla Doros\u0142ych",
                "name": "Szko\u0142a Podstawowa dla Doros\u0142ych",
                "addr:postcode": "64-510",
                "addr:city": "Wronki",
                "addr:street": "Partyzant\u00f3w",
                "addr:housenumber": "1",
                "addr:city:simc": 967386,
                "addr:street:sym_ul": 15733,
                "phone": "+48 672545087",
                "email": "zkzs.wronki@interia.pl",
                "ref:regon": "302226153",
                "operator": "Ministerstwo Sprawiedliwo\u015bci",
                "operator:type": "government",
                "amenity": "school",
                "note": "Parent RSPO: 4447"
            }
        },
        {
            "id": 43691,
            "type": "Feature",
            "geometry": {
                "type": "Point",
                "coordinates": [
                    16.37769,
                    52.70809
                ]
            },
            "properties": {
                "ref:rspo": 43691,
                "official_name": "Poradnia Psychologiczno-Pedagogiczna we Wronkach",
                "name": "Poradnia Psychologiczno-Pedagogiczna we Wronkach",
                "addr:postcode": "64-510",
                "addr:city": "Wronki",
                "addr:street": "Pozna\u0144ska",
                "addr:housenumber": "42",
                "addr:city:simc": 967386,
                "addr:street:sym_ul": 17394,
                "phone": "+48 672540353",
                "email": "poradniapp-wronki@o2.pl",
                "website": "http:\/\/www.pzppp-szamotuly.pl",
                "ref:regon": "004618145",
                "operator": "Powiat Szamotulski",
                "operator:type": "government",
                "healthcare": "counselling",
                "counselling_type": "education",
                "fixme": "w zale\u017cno\u015bci od przedmiotu dzia\u0142alno\u015bci (np. healthcare=counselling + counselling_type=education albo healthcare=psychotherapist)",
                "note": "Parent RSPO: 4936"
            }
        },
        {
            "id": 59741,
            "type": "Feature",
            "geometry": {
                "type": "Point",
                "coordinates": [
                    16.37742,
                    52.71066
                ]
            },
            "properties": {
                "isced:level": "1;2",
                "ref:rspo": 59741,
                "official_name": "Szko\u0142a Podstawowa nr 1 im. Janusza Korczaka we Wronkach",
                "name": "Szko\u0142a Podstawowa nr 1",
                "addr:postcode": "64-510",
                "addr:city": "Wronki",
                "addr:street": "Adama Mickiewicza",
                "addr:housenumber": "5",
                "addr:city:simc": 967386,
                "addr:street:sym_ul": 12734,
                "phone": "+48 672540316",
                "email": "jedynka.wronki@akcja.pl",
                "website": "http:\/\/sp1wronki.pl",
                "ref:regon": "001130638",
                "ref:vatin": "PL7871975926",
                "operator": "Gmina Wronki",
                "operator:type": "government",
                "amenity": "school"
            }
        },
        {
            "id": 87049,
            "type": "Feature",
            "geometry": {
                "type": "Point",
                "coordinates": [
                    16.40928,
                    52.71451
                ]
            },
            "properties": {
                "ref:rspo": 87049,
                "official_name": "Przedszkole nr 1 \"Bajkowy \u015awiat\" we Wronkach",
                "name": "Przedszkole nr 1 \"Bajkowy \u015awiat\" we Wronkach",
                "addr:postcode": "64-510",
                "addr:city": "Wronki",
                "addr:street": "Osiedle Borek",
                "addr:housenumber": "20",
                "addr:city:simc": 967386,
                "addr:street:sym_ul": 1821,
                "phone": "+48 672540616",
                "email": "bajkowyswiat@interia.pl",
                "website": "http:\/\/www.bajkowyswiat.evi.pl",
                "ref:regon": "570302308",
                "ref:vatin": "PL7871975984",
                "operator": "Gmina Wronki",
                "operator:type": "government",
                "amenity": "kindergarten"
            }
        },
        {
            "id": 125562,
            "type": "Feature",
            "geometry": {
                "type": "Point",
                "coordinates": [
                    16.40928,
                    52.714479999999995
                ]
            },
            "properties": {
                "ref:rspo": 125562,
                "official_name": "Prywatne Przedszkole Amica Kids",
                "name": "Prywatne Przedszkole Amica Kids",
                "addr:postcode": "64-510",
                "addr:city": "Wronki",
                "addr:street": "Osiedle Borek",
                "addr:housenumber": "21",
                "addr:city:simc": 967386,
                "addr:street:sym_ul": 1821,
                "phone": "+48 570763502",
                "email": "biuro@amicakids.pl",
                "website": "http:\/\/amicakids.pl",
                "ref:regon": "302841881",
                "ref:vatin": "PL7661868638",
                "operator": "Alicja Helbik",
                "operator:type": "private",
                "amenity": "kindergarten"
            }
        },
        {
            "id": 5743,
            "type": "Feature",
            "geometry": {
                "type": "Point",
                "coordinates": [
                    16.38313,
                    52.71796
                ]
            },
            "properties": {
                "ref:rspo": 5743,
                "official_name": "O\u015brodek Dokszta\u0142cania I Doskonalenia Zawodowego Sukurs Boles\u0142aw Urban we Wronkach",
                "name": "O\u015brodek Dokszta\u0142cania I Doskonalenia Zawodowego Sukurs Boles\u0142aw Urban we Wronkach",
                "addr:postcode": "64-510",
                "addr:city": "Wronki",
                "addr:street": "Le\u015bna",
                "addr:housenumber": "20",
                "addr:city:simc": 967386,
                "addr:street:sym_ul": 10898,
                "phone": "+48 672549203",
                "email": "biuro@sukurs-bhp.com.pl",
                "website": "http:\/\/www.sukurs-bhp.com.pl",
                "ref:regon": "302199150",
                "operator": "Boles\u0142aw Urban",
                "operator:type": "private",
                "fixme": "w zale\u017cno\u015bci od przedmiotu dzia\u0142alno\u015bci (np. amenity=training + training=*, amenity=dancing_school, amenity=language_school, amenity=music_school)"
            }
        },
        {
            "id": 5744,
            "type": "Feature",
            "geometry": {
                "type": "Point",
                "coordinates": [
                    16.38313,
                    52.717929999999996
                ]
            },
            "properties": {
                "ref:rspo": 5744,
                "official_name": "O\u015brodek Dokszta\u0142cania I Doskonalenia Zawodowego Sukurs Miko\u0142aj Urban we Wronkach",
                "name": "O\u015brodek Dokszta\u0142cania I Doskonalenia Zawodowego Sukurs Miko\u0142aj Urban we Wronkach",
                "addr:postcode": "64-510",
                "addr:city": "Wronki",
                "addr:street": "Le\u015bna",
                "addr:housenumber": "20",
                "addr:city:simc": 967386,
                "addr:street:sym_ul": 10898,
                "phone": "+48 672549203",
                "email": "biuro@sukurs-bhp.com.pl",
                "website": "http:\/\/www.sukurs-bhp.com.pl",
                "ref:regon": "302199166",
                "operator": "Miko\u0142aj Urban",
                "operator:type": "private",
                "fixme": "w zale\u017cno\u015bci od przedmiotu dzia\u0142alno\u015bci (np. amenity=training + training=*, amenity=dancing_school, amenity=language_school, amenity=music_school)"
            }
        },
        {
            "id": 4851,
            "type": "Feature",
            "geometry": {
                "type": "Point",
                "coordinates": [
                    16.38192,
                    52.71804
                ]
            },
            "properties": {
                "ref:rspo": 4851,
                "official_name": "Zesp\u00f3\u0142 Szk\u00f3\u0142 nr 1 im. Powsta\u0144c\u00f3w Wielkopolskich we Wronkach",
                "name": "Zesp\u00f3\u0142 Szk\u00f3\u0142 nr 1",
                "addr:postcode": "64-510",
                "addr:city": "Wronki",
                "addr:street": "Le\u015bna",
                "addr:housenumber": "17",
                "addr:city:simc": 967386,
                "addr:street:sym_ul": 10898,
                "phone": "+48 672540213",
                "email": "sekretariat@szkolanalesnej.edu.pl",
                "website": "http:\/\/www.szkolanalesnej.edu.pl",
                "ref:regon": "000767428",
                "ref:vatin": "PL7631394584",
                "operator": "Powiat Szamotulski",
                "operator:type": "government",
                "landuse": "education",
                "fixme": "amenity=school, amenity=college albo landuse=education w zale\u017cno\u015bci od tego, jakie plac\u00f3wki wchodz\u0105 w sk\u0142ad zespo\u0142u. Sprawd\u017a, kiedy stosowa\u0107 amenity=* a kiedy landuse=education.",
                "note": "Children RSPO: 12660;12738"
            }
        },
        {
            "id": 12660,
            "type": "Feature",
            "geometry": {
                "type": "Point",
                "coordinates": [
                    16.38192,
                    52.71801
                ]
            },
            "properties": {
                "isced:level": "3",
                "ref:rspo": 12660,
                "official_name": "Liceum Og\u00f3lnokszta\u0142cace",
                "name": "Liceum Og\u00f3lnokszta\u0142cace",
                "addr:postcode": "64-510",
                "addr:city": "Wronki",
                "addr:street": "Le\u015bna",
                "addr:housenumber": "17",
                "addr:city:simc": 967386,
                "addr:street:sym_ul": 10898,
                "phone": "+48 672540213",
                "email": "sekretariat@szkolanalesnej.edu.pl",
                "website": "http:\/\/www.szkolanalesnej.edu.pl",
                "ref:regon": "639892848",
                "operator": "Powiat Szamotulski",
                "operator:type": "government",
                "amenity": "school",
                "note": "Parent RSPO: 4851"
            }
        },
        {
            "id": 12738,
            "type": "Feature",
            "geometry": {
                "type": "Point",
                "coordinates": [
                    16.38192,
                    52.717980000000004
                ]
            },
            "properties": {
                "isced:level": "3",
                "ref:rspo": 12738,
                "official_name": "Technikum nr 1",
                "name": "Technikum nr 1",
                "addr:postcode": "64-510",
                "addr:city": "Wronki",
                "addr:street": "Le\u015bna",
                "addr:housenumber": "17",
                "addr:city:simc": 967386,
                "addr:street:sym_ul": 10898,
                "phone": "+48 672540213",
                "email": "sekretariat@szkolanalesnej.edu.pl",
                "website": "http:\/\/www.szkolanalesnej.edu.pl",
                "ref:regon": "634389866",
                "operator": "Powiat Szamotulski",
                "operator:type": "government",
                "amenity": "school",
                "note": "Parent RSPO: 4851"
            }
        }
    ]
}