{
    "type": "FeatureCollection",
    "features": [
        {
            "id": 56583,
            "type": "Feature",
            "geometry": {
                "type": "Point",
                "coordinates": [
                    16.6784399,
                    52.55276
                ]
            },
            "properties": {
                "isced:level": "1;2",
                "ref:rspo": 56583,
                "official_name": "Szko\u0142a Podstawowa w Pami\u0105tkowie",
                "name": "Szko\u0142a Podstawowa w Pami\u0105tkowie",
                "addr:postcode": "64-514",
                "addr:city": "Pami\u0105tkowo",
                "addr:street": "Szkolna",
                "addr:housenumber": "13",
                "addr:city:simc": 595973,
                "addr:street:sym_ul": 21970,
                "phone": "+48 612914409",
                "email": "sekretariat@sppamiatkowo.pl",
                "website": "http:\/\/www.zspamiatkowo.pl",
                "ref:regon": "001076703",
                "operator": "Miasto I Gmina Szamotu\u0142y",
                "operator:type": "government",
                "amenity": "school"
            }
        },
        {
            "id": 15250,
            "type": "Feature",
            "geometry": {
                "type": "Point",
                "coordinates": [
                    16.57609,
                    52.55634
                ]
            },
            "properties": {
                "isced:level": "1;2",
                "ref:rspo": 15250,
                "official_name": "Szko\u0142a Podstawowa w Przyborowie",
                "name": "Szko\u0142a Podstawowa w Przyborowie",
                "addr:postcode": "64-500",
                "addr:city": "Przyborowo",
                "addr:street": "Bajkowa",
                "addr:housenumber": "2",
                "addr:city:simc": 596040,
                "addr:street:sym_ul": 608,
                "email": "spprzyborowo@wp.pl",
                "website": "http:\/\/www.spprzyborowo.pl",
                "ref:regon": "001076643",
                "ref:vatin": "PL7871972856",
                "operator": "Miasto I Gmina Szamotu\u0142y",
                "operator:type": "government",
                "amenity": "school"
            }
        },
        {
            "id": 34855,
            "type": "Feature",
            "geometry": {
                "type": "Point",
                "coordinates": [
                    16.4311,
                    52.56148
                ]
            },
            "properties": {
                "ref:rspo": 34855,
                "official_name": "Przedszkole w Otorowie",
                "name": "Przedszkole w Otorowie",
                "addr:postcode": "64-551",
                "addr:city": "Otorowo",
                "addr:street": "Pniewska",
                "addr:housenumber": "13",
                "addr:city:simc": 595921,
                "addr:street:sym_ul": 16549,
                "phone": "+48 612917416",
                "email": "sekretariat@przedszkole-muchomorek.pl",
                "website": "http:\/\/www.muchomorek.veus.pl",
                "ref:regon": "631579508",
                "ref:vatin": "PL7871972951",
                "operator": "Miasto I Gmina Szamotu\u0142y",
                "operator:type": "government",
                "amenity": "kindergarten"
            }
        },
        {
            "id": 48359,
            "type": "Feature",
            "geometry": {
                "type": "Point",
                "coordinates": [
                    16.43377,
                    52.56349
                ]
            },
            "properties": {
                "isced:level": "1;2",
                "ref:rspo": 48359,
                "official_name": "Szko\u0142a Podstawowa w Otorowie",
                "name": "Szko\u0142a Podstawowa w Otorowie",
                "addr:postcode": "64-551",
                "addr:city": "Otorowo",
                "addr:street": "\u0141\u0105kowa",
                "addr:housenumber": "3",
                "addr:city:simc": 595921,
                "addr:street:sym_ul": 11596,
                "phone": "+48 612917232",
                "email": "szkola@szkolaotorowo.pl",
                "website": "http:\/\/szkolaotorowo.pl",
                "ref:regon": "001076695",
                "operator": "Miasto I Gmina Szamotu\u0142y",
                "operator:type": "government",
                "amenity": "school"
            }
        },
        {
            "id": 44149,
            "type": "Feature",
            "geometry": {
                "type": "Point",
                "coordinates": [
                    16.52066,
                    52.56966
                ]
            },
            "properties": {
                "isced:level": "1;2",
                "ref:rspo": 44149,
                "official_name": "Szko\u0142a Podstawowa w Brodziszewie",
                "name": "Szko\u0142a Podstawowa w Brodziszewie",
                "addr:postcode": "64-500",
                "addr:city": "Brodziszewo",
                "addr:street": "Szkolna",
                "addr:housenumber": "1",
                "addr:city:simc": 595714,
                "addr:street:sym_ul": 21970,
                "phone": "+48 509513453",
                "email": "sp@brodziszewo.dlaedu.pl",
                "website": "http:\/\/www.szkolnastrona.brodziszewo",
                "ref:regon": "001076672",
                "ref:vatin": "PL7871972827",
                "operator": "Miasto I Gmina Szamotu\u0142y",
                "operator:type": "government",
                "amenity": "school"
            }
        },
        {
            "id": 273718,
            "type": "Feature",
            "geometry": {
                "type": "Point",
                "coordinates": [
                    16.39529,
                    52.57224
                ]
            },
            "properties": {
                "ref:rspo": 273718,
                "official_name": "Niepubliczne Przedszkole \"Niebo\"",
                "name": "Niepubliczne Przedszkole \"Niebo\"",
                "addr:postcode": "64-551",
                "addr:place": "Ko\u017ale",
                "addr:housenumber": "37",
                "addr:city:simc": 595826,
                "email": "przedszkoleniebo@gmail.com",
                "ref:regon": "384574456",
                "ref:vatin": "PL7182148768",
                "operator": "Fundacja Niebo",
                "operator:type": "ngo",
                "amenity": "kindergarten"
            }
        },
        {
            "id": 267403,
            "type": "Feature",
            "geometry": {
                "type": "Point",
                "coordinates": [
                    16.47369,
                    52.57236
                ]
            },
            "properties": {
                "ref:rspo": 267403,
                "official_name": "Przedszkole Niepubliczne Zgromadzenia Si\u00f3str Urszulanek Serca Jezusa Konaj\u0105cego \"U Julki\"",
                "name": "Przedszkole Niepubliczne Zgromadzenia Si\u00f3str Urszulanek Serca Jezusa Konaj\u0105cego \"U Julki\"",
                "addr:postcode": "64-551",
                "addr:city": "Lipnica",
                "addr:street": "Szamotulska",
                "addr:housenumber": "11",
                "addr:city:simc": 595849,
                "addr:street:sym_ul": 21752,
                "email": "przedszkole.lipnica@urszulanki.pl",
                "ref:regon": "380285212",
                "operator": "Centrum Pniewsko-Pozna\u0144skie Zgromadzenia Si\u00f3str Urszulanek Serca Jezusa Konaj\u0105cego",
                "operator:type": "religious",
                "amenity": "kindergarten"
            }
        },
        {
            "id": 44065,
            "type": "Feature",
            "geometry": {
                "type": "Point",
                "coordinates": [
                    16.64638,
                    52.59292
                ]
            },
            "properties": {
                "isced:level": "1;2",
                "ref:rspo": 44065,
                "official_name": "Szko\u0142a Podstawowa w Baborowie",
                "name": "Szko\u0142a Podstawowa w Baborowie",
                "addr:postcode": "64-500",
                "addr:place": "Baborowo",
                "addr:housenumber": "18",
                "addr:city:simc": 595690,
                "phone": "+48 612914301",
                "email": "szkola.baborowo@op.pl",
                "website": "http:\/\/www.szkola-baborowo.pl",
                "ref:regon": "001076637",
                "ref:vatin": "PL7871972810",
                "operator": "Miasto I Gmina Szamotu\u0142y",
                "operator:type": "government",
                "amenity": "school"
            }
        },
        {
            "id": 34834,
            "type": "Feature",
            "geometry": {
                "type": "Point",
                "coordinates": [
                    16.5668599,
                    52.59767
                ]
            },
            "properties": {
                "ref:rspo": 34834,
                "official_name": "Przedszkole w Ga\u0142owie",
                "name": "Przedszkole w Ga\u0142owie",
                "addr:postcode": "64-500",
                "addr:city": "Ga\u0142owo",
                "addr:street": "Topolowa",
                "addr:housenumber": "10",
                "addr:city:simc": 595737,
                "addr:street:sym_ul": 22880,
                "phone": "+48 612924926",
                "email": "biuro@przedszkolegalowo.pl",
                "ref:regon": "630802720",
                "ref:vatin": "PL7871972945",
                "operator": "Miasto I Gmina Szamotu\u0142y",
                "operator:type": "government",
                "amenity": "kindergarten"
            }
        },
        {
            "id": 4936,
            "type": "Feature",
            "geometry": {
                "type": "Point",
                "coordinates": [
                    16.5885,
                    52.5995
                ]
            },
            "properties": {
                "ref:rspo": 4936,
                "official_name": "Powiatowy Zesp\u00f3\u0142 Poradni Psychologiczno-Pedagogicznych w Szamotu\u0142ach",
                "name": "Powiatowy Zesp\u00f3\u0142 Poradni Psychologiczno-Pedagogicznych w Szamotu\u0142ach",
                "addr:postcode": "64-500",
                "addr:city": "Szamotu\u0142y",
                "addr:street": "Boles\u0142awa Chrobrego",
                "addr:housenumber": "8",
                "addr:door": "B",
                "addr:city:simc": 971531,
                "addr:street:sym_ul": 1742,
                "phone": "+48 664064138",
                "email": "sekretariat.szamotuly@poradnia-szamotuly.pl",
                "website": "http:\/\/www.poradnia-szamotuly.pl",
                "ref:regon": "301189154",
                "ref:vatin": "PL7872081154",
                "operator": "Powiat Szamotulski",
                "operator:type": "government",
                "landuse": "education",
                "fixme": "amenity=school, amenity=college albo landuse=education w zale\u017cno\u015bci od tego, jakie plac\u00f3wki wchodz\u0105 w sk\u0142ad zespo\u0142u. Sprawd\u017a, kiedy stosowa\u0107 amenity=* a kiedy landuse=education.",
                "note": "Children RSPO: 43691;43692"
            }
        },
        {
            "id": 43692,
            "type": "Feature",
            "geometry": {
                "type": "Point",
                "coordinates": [
                    16.5885,
                    52.59947
                ]
            },
            "properties": {
                "ref:rspo": 43692,
                "official_name": "Poradnia Psychologiczno-Pedagogiczna w Szamotu\u0142ach",
                "name": "Poradnia Psychologiczno-Pedagogiczna w Szamotu\u0142ach",
                "addr:postcode": "64-500",
                "addr:city": "Szamotu\u0142y",
                "addr:street": "Boles\u0142awa Chrobrego",
                "addr:housenumber": "8",
                "addr:door": "B",
                "addr:city:simc": 971531,
                "addr:street:sym_ul": 1742,
                "email": "pppszamotuly@poczta.onet.pl",
                "website": "http:\/\/www.pzppp-szamotuly.pl",
                "ref:regon": "000707952",
                "operator": "Powiat Szamotulski",
                "operator:type": "government",
                "healthcare": "counselling",
                "counselling_type": "education",
                "fixme": "w zale\u017cno\u015bci od przedmiotu dzia\u0142alno\u015bci (np. healthcare=counselling + counselling_type=education albo healthcare=psychotherapist)",
                "note": "Parent RSPO: 4936"
            }
        },
        {
            "id": 34854,
            "type": "Feature",
            "geometry": {
                "type": "Point",
                "coordinates": [
                    16.59656,
                    52.60425
                ]
            },
            "properties": {
                "ref:rspo": 34854,
                "official_name": "Przedszkole nr 5",
                "name": "Przedszkole nr 5",
                "addr:postcode": "64-500",
                "addr:city": "Szamotu\u0142y",
                "addr:street": "Hokejowa",
                "addr:housenumber": "1",
                "addr:city:simc": 971531,
                "addr:street:sym_ul": 6695,
                "phone": "+48 612921440",
                "email": "sekretariat@p5szamotuly.dlaedu.pl",
                "website": "http:\/\/przedszkolemis.edupage.org",
                "ref:regon": "631579514",
                "ref:vatin": "PL7871972939",
                "operator": "Miasto I Gmina Szamotu\u0142y",
                "operator:type": "government",
                "amenity": "kindergarten"
            }
        },
        {
            "id": 34851,
            "type": "Feature",
            "geometry": {
                "type": "Point",
                "coordinates": [
                    16.57801,
                    52.60484
                ]
            },
            "properties": {
                "ref:rspo": 34851,
                "official_name": "Przedszkole nr 3",
                "name": "Przedszkole nr 3",
                "addr:postcode": "64-500",
                "addr:city": "Szamotu\u0142y",
                "addr:street": "Wojska Polskiego",
                "addr:housenumber": "11",
                "addr:city:simc": 971531,
                "addr:street:sym_ul": 24628,
                "phone": "+48 612921428",
                "email": "sekretariat@przedszkole-rzepka.pl",
                "website": "http:\/\/www.przedszkole-rzepka.pl",
                "ref:regon": "000239563",
                "ref:vatin": "PL7871972916",
                "operator": "Miasto I Gmina Szamotu\u0142y",
                "operator:type": "government",
                "amenity": "kindergarten"
            }
        },
        {
            "id": 34857,
            "type": "Feature",
            "geometry": {
                "type": "Point",
                "coordinates": [
                    16.58729,
                    52.60617
                ]
            },
            "properties": {
                "ref:rspo": 34857,
                "official_name": "Przedszkole nr 1",
                "name": "Przedszkole nr 1",
                "addr:postcode": "64-500",
                "addr:city": "Szamotu\u0142y",
                "addr:street": "Stanis\u0142awa Staszica",
                "addr:housenumber": "7",
                "addr:city:simc": 971531,
                "addr:street:sym_ul": 21071,
                "phone": "+48 612921190",
                "email": "przedszkole@jarzebinka.org",
                "website": "http:\/\/www.jarzebinka.org",
                "ref:regon": "631579543",
                "ref:vatin": "PL7871972891",
                "operator": "Miasto I Gmina Szamotu\u0142y",
                "operator:type": "government",
                "amenity": "kindergarten"
            }
        },
        {
            "id": 124550,
            "type": "Feature",
            "geometry": {
                "type": "Point",
                "coordinates": [
                    16.5856299,
                    52.6069
                ]
            },
            "properties": {
                "ref:rspo": 124550,
                "official_name": "Publiczna Biblioteka Pedagogiczna w Poznaniu Filia w Szamotu\u0142ach",
                "name": "Publiczna Biblioteka Pedagogiczna w Poznaniu Filia w Szamotu\u0142ach",
                "addr:postcode": "64-500",
                "addr:city": "Szamotu\u0142y",
                "addr:street": "Stanis\u0142awa Staszica",
                "addr:housenumber": "4",
                "addr:city:simc": 971531,
                "addr:street:sym_ul": 21071,
                "phone": "+48 577001349",
                "email": "biblioteka@szamotuly.pbp.poznan.pl",
                "website": "http:\/\/szamotuly.pbp.poznan.pl",
                "ref:regon": "639810550",
                "operator": "Wojew\u00f3dztwo Wielkopolskie",
                "operator:type": "government",
                "amenity": "library",
                "note": "Parent RSPO: 30977"
            }
        },
        {
            "id": 48356,
            "type": "Feature",
            "geometry": {
                "type": "Point",
                "coordinates": [
                    16.58631,
                    52.60715
                ]
            },
            "properties": {
                "isced:level": "1;2",
                "ref:rspo": 48356,
                "official_name": "Szko\u0142a Podstawowa nr 1 im.stanis\u0142awa Staszica",
                "name": "Szko\u0142a Podstawowa nr 1 im.stanis\u0142awa Staszica",
                "addr:postcode": "64-500",
                "addr:city": "Szamotu\u0142y",
                "addr:street": "Stanis\u0142awa Staszica",
                "addr:housenumber": "1",
                "addr:city:simc": 971531,
                "addr:street:sym_ul": 21071,
                "phone": "+48 612921602",
                "email": "sp1szamotuly@interia.pl",
                "website": "http:\/\/www.sp1szamotuly.szkolnastrona.pl",
                "ref:regon": "000707946",
                "ref:vatin": "PL7871972773",
                "operator": "Miasto I Gmina Szamotu\u0142y",
                "operator:type": "government",
                "amenity": "school"
            }
        },
        {
            "id": 133603,
            "type": "Feature",
            "geometry": {
                "type": "Point",
                "coordinates": [
                    16.59127,
                    52.60901
                ]
            },
            "properties": {
                "ref:rspo": 133603,
                "official_name": "Przedszkole Niepubliczne im. \u015aw. Zygmunta Feli\u0144skiego Si\u00f3str Franciszkanek Rodziny Maryi w Szamotu\u0142ach",
                "name": "Przedszkole Niepubliczne",
                "addr:postcode": "64-500",
                "addr:city": "Szamotu\u0142y",
                "addr:street": "Lipowa",
                "addr:housenumber": "27",
                "addr:city:simc": 971531,
                "addr:street:sym_ul": 11139,
                "phone": "+48 612920984",
                "email": "siostra_beata@o2.pl",
                "ref:regon": "367476764",
                "operator": "Zg.ss. Franciszkanek Rodziny Maryi, Prowincja \u015aw. J\u00f3zefa - Pozna\u0144ska",
                "operator:type": "religious",
                "amenity": "kindergarten"
            }
        },
        {
            "id": 132474,
            "type": "Feature",
            "geometry": {
                "type": "Point",
                "coordinates": [
                    16.58353,
                    52.60983
                ]
            },
            "properties": {
                "ref:rspo": 132474,
                "official_name": "Przedszkole Angloj\u0119zyczne Uniwersytet Milusi\u0144ski Piotr Gajewski",
                "name": "Przedszkole Angloj\u0119zyczne Uniwersytet Milusi\u0144ski Piotr Gajewski",
                "addr:postcode": "64-500",
                "addr:city": "Szamotu\u0142y",
                "addr:street": "M\u0142y\u0144ska",
                "addr:housenumber": "3a",
                "addr:city:simc": 971531,
                "addr:street:sym_ul": 13132,
                "phone": "+48 575500186",
                "email": "milusinscy2017@gmail.com",
                "website": "http:\/\/www.milusinscy.com.pl",
                "ref:regon": "365648646",
                "operator": "Piotr Gajewski",
                "operator:type": "private",
                "amenity": "kindergarten"
            }
        },
        {
            "id": 48355,
            "type": "Feature",
            "geometry": {
                "type": "Point",
                "coordinates": [
                    16.5772,
                    52.61115
                ]
            },
            "properties": {
                "isced:level": "1;2",
                "ref:rspo": 48355,
                "official_name": "Szko\u0142a Podstawowa nr 2 z Oddzia\u0142ami Sportowymi im. Marii Konopnickiej w Szamotu\u0142ach",
                "name": "Szko\u0142a Podstawowa nr 2 z Oddzia\u0142ami Sportowymi",
                "addr:postcode": "64-500",
                "addr:city": "Szamotu\u0142y",
                "addr:street": "Kap\u0142a\u0144ska",
                "addr:housenumber": "18",
                "addr:city:simc": 971531,
                "addr:street:sym_ul": 7987,
                "phone": "+48 612921443",
                "email": "sp2szamotuly@wp.pl",
                "ref:regon": "000940223",
                "ref:vatin": "PL7871972796",
                "operator": "Miasto I Gmina Szamotu\u0142y",
                "operator:type": "government",
                "amenity": "school"
            }
        },
        {
            "id": 4905,
            "type": "Feature",
            "geometry": {
                "type": "Point",
                "coordinates": [
                    16.58868,
                    52.61211
                ]
            },
            "properties": {
                "ref:rspo": 4905,
                "official_name": "Zesp\u00f3\u0142 Szk\u00f3\u0142 Specjalnych im. Jana Brzechwy w Szamotu\u0142ach",
                "name": "Zesp\u00f3\u0142 Szk\u00f3\u0142 Specjalnych",
                "addr:postcode": "64-500",
                "addr:city": "Szamotu\u0142y",
                "addr:street": "Hugona Ko\u0142\u0142\u0105taja",
                "addr:housenumber": "1",
                "addr:city:simc": 971531,
                "addr:street:sym_ul": 9003,
                "phone": "+48 612920937",
                "email": "sekretariat@zss-szamotuly.pl",
                "website": "http:\/\/www.zss-szamotuly.pl",
                "ref:regon": "639652446",
                "ref:vatin": "PL7872009760",
                "operator": "Powiat Szamotulski",
                "operator:type": "government",
                "landuse": "education",
                "fixme": "amenity=school, amenity=college albo landuse=education w zale\u017cno\u015bci od tego, jakie plac\u00f3wki wchodz\u0105 w sk\u0142ad zespo\u0142u. Sprawd\u017a, kiedy stosowa\u0107 amenity=* a kiedy landuse=education.",
                "note": "Children RSPO: 16361;16810"
            }
        },
        {
            "id": 16361,
            "type": "Feature",
            "geometry": {
                "type": "Point",
                "coordinates": [
                    16.58868,
                    52.61208
                ]
            },
            "properties": {
                "isced:level": "1;2",
                "ref:rspo": 16361,
                "official_name": "Szko\u0142a Podstawowa nr 5 Specjalna",
                "name": "Szko\u0142a Podstawowa nr 5 Specjalna",
                "addr:postcode": "64-500",
                "addr:city": "Szamotu\u0142y",
                "addr:street": "Hugona Ko\u0142\u0142\u0105taja",
                "addr:housenumber": "1",
                "addr:city:simc": 971531,
                "addr:street:sym_ul": 9003,
                "phone": "+48 612920937",
                "email": "sekretariat@zss-szamotuly.pl",
                "website": "http:\/\/www.zss-szamotuly.pl",
                "ref:regon": "630523486",
                "operator": "Powiat Szamotulski",
                "operator:type": "government",
                "amenity": "school",
                "note": "Parent RSPO: 4905"
            }
        },
        {
            "id": 16810,
            "type": "Feature",
            "geometry": {
                "type": "Point",
                "coordinates": [
                    16.58868,
                    52.61205
                ]
            },
            "properties": {
                "ref:rspo": 16810,
                "official_name": "Szko\u0142a Specjalna Przysposabiaj\u0105ca do Pracy",
                "name": "Szko\u0142a Specjalna Przysposabiaj\u0105ca do Pracy",
                "addr:postcode": "64-500",
                "addr:city": "Szamotu\u0142y",
                "addr:street": "Hugona Ko\u0142\u0142\u0105taja",
                "addr:housenumber": "1",
                "addr:city:simc": 971531,
                "addr:street:sym_ul": 9003,
                "phone": "+48 612920937",
                "email": "sekretariat@zss-szamotuly.pl",
                "website": "http:\/\/www.zss-szamotuly.pl",
                "ref:regon": "634610704",
                "operator": "Powiat Szamotulski",
                "operator:type": "government",
                "amenity": "school",
                "note": "Parent RSPO: 4905"
            }
        },
        {
            "id": 4817,
            "type": "Feature",
            "geometry": {
                "type": "Point",
                "coordinates": [
                    16.58599,
                    52.61301
                ]
            },
            "properties": {
                "ref:rspo": 4817,
                "official_name": "Zesp\u00f3\u0142 Szk\u00f3\u0142 nr 3 im. Hugona Ko\u0142\u0142\u0105taja w Szamotu\u0142ach",
                "name": "Zesp\u00f3\u0142 Szk\u00f3\u0142 nr 3",
                "addr:postcode": "64-500",
                "addr:city": "Szamotu\u0142y",
                "addr:street": "Adama Mickiewicza",
                "addr:housenumber": "4",
                "addr:city:simc": 971531,
                "addr:street:sym_ul": 12740,
                "phone": "+48 612926251",
                "email": "zs3@zs3.szkola.pl",
                "website": "http:\/\/www.zs3.szkola.pl",
                "ref:regon": "000688019",
                "ref:vatin": "PL7871015540",
                "operator": "Powiat Szamotulski",
                "operator:type": "government",
                "landuse": "education",
                "fixme": "amenity=school, amenity=college albo landuse=education w zale\u017cno\u015bci od tego, jakie plac\u00f3wki wchodz\u0105 w sk\u0142ad zespo\u0142u. Sprawd\u017a, kiedy stosowa\u0107 amenity=* a kiedy landuse=education.",
                "note": "Children RSPO: 10646;10751;10787;11808"
            }
        },
        {
            "id": 10646,
            "type": "Feature",
            "geometry": {
                "type": "Point",
                "coordinates": [
                    16.58599,
                    52.61298
                ]
            },
            "properties": {
                "isced:level": "3",
                "ref:rspo": 10646,
                "official_name": "Bran\u017cowa Szko\u0142a I Stopnia Specjalna",
                "name": "Bran\u017cowa Szko\u0142a I Stopnia Specjalna",
                "addr:postcode": "64-500",
                "addr:city": "Szamotu\u0142y",
                "addr:street": "Adama Mickiewicza",
                "addr:housenumber": "4",
                "addr:city:simc": 971531,
                "addr:street:sym_ul": 12740,
                "phone": "+48 612926251",
                "email": "zszszamot@poczta.onet.pl",
                "website": "http:\/\/www.zs3.szkola.pl",
                "ref:regon": "639823942",
                "operator": "Powiat Szamotulski",
                "operator:type": "government",
                "amenity": "school",
                "note": "Parent RSPO: 4817"
            }
        },
        {
            "id": 10751,
            "type": "Feature",
            "geometry": {
                "type": "Point",
                "coordinates": [
                    16.58599,
                    52.612950000000005
                ]
            },
            "properties": {
                "isced:level": "3",
                "ref:rspo": 10751,
                "official_name": "Bran\u017cowa Szko\u0142a I Stopnia nr 1 w Szamotu\u0142ach",
                "name": "Bran\u017cowa Szko\u0142a I Stopnia nr 1 w Szamotu\u0142ach",
                "addr:postcode": "64-500",
                "addr:city": "Szamotu\u0142y",
                "addr:street": "Adama Mickiewicza",
                "addr:housenumber": "4",
                "addr:city:simc": 971531,
                "addr:street:sym_ul": 12740,
                "phone": "+48 612926251",
                "email": "zszszamot@poczta.onet.pl",
                "website": "http:\/\/www.zs3.szkola.pl",
                "ref:regon": "639823920",
                "operator": "Powiat Szamotulski",
                "operator:type": "government",
                "amenity": "school",
                "note": "Parent RSPO: 4817"
            }
        },
        {
            "id": 10787,
            "type": "Feature",
            "geometry": {
                "type": "Point",
                "coordinates": [
                    16.58599,
                    52.61292
                ]
            },
            "properties": {
                "isced:level": "3",
                "ref:rspo": 10787,
                "official_name": "Technikum nr 2",
                "name": "Technikum nr 2",
                "addr:postcode": "64-500",
                "addr:city": "Szamotu\u0142y",
                "addr:street": "Adama Mickiewicza",
                "addr:housenumber": "4",
                "addr:city:simc": 971531,
                "addr:street:sym_ul": 12740,
                "phone": "+48 612921579",
                "email": "zs3@zs3.szkola.pl",
                "website": "http:\/\/www.zs3.szkola.pl",
                "ref:regon": "634378377",
                "operator": "Powiat Szamotulski",
                "operator:type": "government",
                "amenity": "school",
                "note": "Parent RSPO: 4817"
            }
        },
        {
            "id": 11808,
            "type": "Feature",
            "geometry": {
                "type": "Point",
                "coordinates": [
                    16.58599,
                    52.61289
                ]
            },
            "properties": {
                "isced:level": "4",
                "ref:rspo": 11808,
                "official_name": "Szko\u0142a Policealna nr 1",
                "name": "Szko\u0142a Policealna nr 1",
                "addr:postcode": "64-500",
                "addr:city": "Szamotu\u0142y",
                "addr:street": "Adama Mickiewicza",
                "addr:housenumber": "4",
                "addr:city:simc": 971531,
                "addr:street:sym_ul": 12740,
                "phone": "+48 612926251",
                "email": "zszszamot@poczta.onet.pl",
                "website": "http:\/\/www.zs3.szkola.pl",
                "ref:regon": "634241610",
                "operator": "Powiat Szamotulski",
                "operator:type": "government",
                "amenity": "college",
                "note": "Parent RSPO: 4817"
            }
        },
        {
            "id": 278352,
            "type": "Feature",
            "geometry": {
                "type": "Point",
                "coordinates": [
                    16.58794,
                    52.61389
                ]
            },
            "properties": {
                "isced:level": "3",
                "ref:rspo": 278352,
                "official_name": "I Liceum Og\u00f3lnokszta\u0142c\u0105ce im. Ks. Piotra Skargi w Szamotu\u0142ach",
                "name": "I Liceum Og\u00f3lnokszta\u0142c\u0105ce",
                "addr:postcode": "64-500",
                "addr:city": "Szamotu\u0142y",
                "addr:street": "Adama Mickiewicza",
                "addr:housenumber": "9",
                "addr:city:simc": 971531,
                "addr:street:sym_ul": 12740,
                "phone": "+48 612921614",
                "email": "loszdyr@wp.pl",
                "website": "http:\/\/www.skarga-szamotuly.edu.pl",
                "ref:regon": "389866548",
                "operator": "Powiat Szamotulski",
                "operator:type": "government",
                "amenity": "school"
            }
        },
        {
            "id": 34852,
            "type": "Feature",
            "geometry": {
                "type": "Point",
                "coordinates": [
                    16.56813,
                    52.6151
                ]
            },
            "properties": {
                "ref:rspo": 34852,
                "official_name": "Przedszkole nr 4",
                "name": "Przedszkole nr 4",
                "addr:postcode": "64-500",
                "addr:city": "Szamotu\u0142y",
                "addr:street": "Aleja 1 Maja",
                "addr:housenumber": "36",
                "addr:city:simc": 971531,
                "addr:street:sym_ul": 11921,
                "phone": "+48 612920482",
                "email": "przedszkole@wedrowniczek4.pl",
                "website": "http:\/\/www.wedrowniczek4.pl",
                "ref:regon": "631579520",
                "ref:vatin": "PL7871972922",
                "operator": "Miasto I Gmina Szamotu\u0142y",
                "operator:type": "government",
                "amenity": "kindergarten"
            }
        },
        {
            "id": 16202,
            "type": "Feature",
            "geometry": {
                "type": "Point",
                "coordinates": [
                    16.57388,
                    52.61533
                ]
            },
            "properties": {
                "ref:rspo": 16202,
                "official_name": "Pa\u0144stwowa Szko\u0142a Muzyczna I I II St. im. Wac\u0142awa z Szamotu\u0142 w Szamotu\u0142ach",
                "name": "Pa\u0144stwowa Szko\u0142a Muzyczna I I II St.",
                "addr:postcode": "64-500",
                "addr:city": "Szamotu\u0142y",
                "addr:street": "3 Maja",
                "addr:housenumber": "8",
                "addr:city:simc": 971531,
                "addr:street:sym_ul": 11937,
                "phone": "+48 612921318",
                "email": "sekretariat@psmszamotuly.art.pl",
                "website": "http:\/\/psmszamotuly.art.pl",
                "ref:regon": "300066774",
                "operator": "Ministerstwo Kultury I Dziedzictwa Narodowego",
                "operator:type": "public",
                "landuse": "education",
                "fixme": "amenity=school, amenity=college albo landuse=education w zale\u017cno\u015bci od tego, jakie plac\u00f3wki wchodz\u0105 w sk\u0142ad zespo\u0142u. Sprawd\u017a, kiedy stosowa\u0107 amenity=* a kiedy landuse=education.",
                "note": "Children RSPO: 78089;78090"
            }
        },
        {
            "id": 78089,
            "type": "Feature",
            "geometry": {
                "type": "Point",
                "coordinates": [
                    16.57388,
                    52.6153
                ]
            },
            "properties": {
                "ref:rspo": 78089,
                "official_name": "Pa\u0144stwowa Szko\u0142a Muzyczna I St. im. Wac\u0142awa z Szamotu\u0142 w Szamotu\u0142ach",
                "name": "Pa\u0144stwowa Szko\u0142a Muzyczna I St.",
                "addr:postcode": "64-500",
                "addr:city": "Szamotu\u0142y",
                "addr:street": "3 Maja",
                "addr:housenumber": "8",
                "addr:city:simc": 971531,
                "addr:street:sym_ul": 11937,
                "phone": "+48 612921318",
                "ref:regon": "000901364",
                "operator": "Ministerstwo Kultury I Dziedzictwa Narodowego",
                "operator:type": "public",
                "amenity": "music_school",
                "note": "Parent RSPO: 16202"
            }
        },
        {
            "id": 78090,
            "type": "Feature",
            "geometry": {
                "type": "Point",
                "coordinates": [
                    16.57388,
                    52.61527
                ]
            },
            "properties": {
                "ref:rspo": 78090,
                "official_name": "Pa\u0144stwowa Szko\u0142a Muzyczna II St. w Szamotu\u0142ach",
                "name": "Pa\u0144stwowa Szko\u0142a Muzyczna II St. w Szamotu\u0142ach",
                "addr:postcode": "64-500",
                "addr:city": "Szamotu\u0142y",
                "addr:street": "3 Maja",
                "addr:housenumber": "8",
                "addr:city:simc": 971531,
                "addr:street:sym_ul": 11937,
                "phone": "+48 612921318",
                "ref:regon": "300066805",
                "operator": "Ministerstwo Kultury I Dziedzictwa Narodowego",
                "operator:type": "public",
                "amenity": "music_school",
                "note": "Parent RSPO: 16202"
            }
        },
        {
            "id": 120423,
            "type": "Feature",
            "geometry": {
                "type": "Point",
                "coordinates": [
                    16.57336,
                    52.61535
                ]
            },
            "properties": {
                "ref:rspo": 120423,
                "official_name": "Zak\u0142ad Doskonalenia Zawodowego Centrum Kszta\u0142cenia w Poznaniu O\u015brodek Kszta\u0142cenia Zawodowego w Szamotu\u0142ach",
                "name": "Zak\u0142ad Doskonalenia Zawodowego Centrum Kszta\u0142cenia w Poznaniu O\u015brodek Kszta\u0142cenia Zawodowego w Szamotu\u0142ach",
                "addr:postcode": "64-500",
                "addr:city": "Szamotu\u0142y",
                "addr:street": "3 Maja",
                "addr:housenumber": "12",
                "addr:city:simc": 971531,
                "addr:street:sym_ul": 11937,
                "phone": "+48 614422986",
                "email": "okz.szamotuly@zdz.poznan.pl",
                "website": "http:\/\/www.zdz.poznan.pl",
                "ref:regon": "302545378",
                "operator": "Zak\u0142ad Doskonalenia Zawodowego",
                "operator:type": "ngo",
                "fixme": "w zale\u017cno\u015bci od przedmiotu dzia\u0142alno\u015bci (np. amenity=training + training=*, amenity=dancing_school, amenity=language_school, amenity=music_school) albo amenity=school, amenity=college, albo landuse=education w zale\u017cno\u015bci od tego, jakie plac\u00f3wki wchodz\u0105 w sk\u0142ad zespo\u0142u. Sprawd\u017a, kiedy stosowa\u0107 amenity=* a kiedy landuse=education."
            }
        },
        {
            "id": 4787,
            "type": "Feature",
            "geometry": {
                "type": "Point",
                "coordinates": [
                    16.57635,
                    52.6174899
                ]
            },
            "properties": {
                "ref:rspo": 4787,
                "official_name": "Zesp\u00f3\u0142 Szk\u00f3\u0142 nr 2 im. Stanis\u0142awa Staszica w Szamotu\u0142ach",
                "name": "Zesp\u00f3\u0142 Szk\u00f3\u0142 nr 2",
                "addr:postcode": "64-500",
                "addr:city": "Szamotu\u0142y",
                "addr:street": "Szczuczy\u0144ska",
                "addr:housenumber": "3",
                "addr:city:simc": 971531,
                "addr:street:sym_ul": 21855,
                "phone": "+48 612921559",
                "email": "zsnr2szamotuly@onet.pl",
                "website": "http:\/\/www.zsnr2-szamotuly.pl",
                "ref:regon": "000100078",
                "ref:vatin": "PL7871030195",
                "operator": "Powiat Szamotulski",
                "operator:type": "government",
                "landuse": "education",
                "fixme": "amenity=school, amenity=college albo landuse=education w zale\u017cno\u015bci od tego, jakie plac\u00f3wki wchodz\u0105 w sk\u0142ad zespo\u0142u. Sprawd\u017a, kiedy stosowa\u0107 amenity=* a kiedy landuse=education.",
                "note": "Children RSPO: 9926;10305;10391;10620;263076"
            }
        },
        {
            "id": 9926,
            "type": "Feature",
            "geometry": {
                "type": "Point",
                "coordinates": [
                    16.57635,
                    52.6174599
                ]
            },
            "properties": {
                "isced:level": "3",
                "ref:rspo": 9926,
                "official_name": "Technikum nr 1",
                "name": "Technikum nr 1",
                "addr:postcode": "64-500",
                "addr:city": "Szamotu\u0142y",
                "addr:street": "Szczuczy\u0144ska",
                "addr:housenumber": "3",
                "addr:city:simc": 971531,
                "addr:street:sym_ul": 21855,
                "phone": "+48 612921559",
                "email": "zsnr2szamotuly@onet.pl",
                "website": "http:\/\/www.zsnr2-szamotuly.pl",
                "ref:regon": "634381758",
                "operator": "Powiat Szamotulski",
                "operator:type": "government",
                "amenity": "school",
                "note": "Parent RSPO: 4787"
            }
        },
        {
            "id": 10305,
            "type": "Feature",
            "geometry": {
                "type": "Point",
                "coordinates": [
                    16.57635,
                    52.617429900000005
                ]
            },
            "properties": {
                "isced:level": "3",
                "ref:rspo": 10305,
                "official_name": "Ii Liceum Og\u00f3lnokszta\u0142c\u0105ce",
                "name": "Ii Liceum Og\u00f3lnokszta\u0142c\u0105ce",
                "addr:postcode": "64-500",
                "addr:city": "Szamotu\u0142y",
                "addr:street": "Szczuczy\u0144ska",
                "addr:housenumber": "3",
                "addr:city:simc": 971531,
                "addr:street:sym_ul": 21855,
                "phone": "+48 612921559",
                "email": "zsnr2szamotuly@onet.pl",
                "website": "http:\/\/www.zsnr2-szamotuly.pl",
                "ref:regon": "639893121",
                "operator": "Powiat Szamotulski",
                "operator:type": "government",
                "amenity": "school",
                "note": "Parent RSPO: 4787"
            }
        },
        {
            "id": 10391,
            "type": "Feature",
            "geometry": {
                "type": "Point",
                "coordinates": [
                    16.57635,
                    52.6173999
                ]
            },
            "properties": {
                "isced:level": "4",
                "ref:rspo": 10391,
                "official_name": "Szko\u0142a Policealna nr 2",
                "name": "Szko\u0142a Policealna nr 2",
                "addr:postcode": "64-500",
                "addr:city": "Szamotu\u0142y",
                "addr:street": "Szczuczy\u0144ska",
                "addr:housenumber": "3",
                "addr:city:simc": 971531,
                "addr:street:sym_ul": 21855,
                "phone": "+48 612921559",
                "email": "zsnr2szamotuly@onet.pl",
                "website": "http:\/\/www.zsnr2-szamotuly.pl",
                "ref:regon": "300120321",
                "operator": "Powiat Szamotulski",
                "operator:type": "government",
                "amenity": "college",
                "note": "Parent RSPO: 4787"
            }
        },
        {
            "id": 10620,
            "type": "Feature",
            "geometry": {
                "type": "Point",
                "coordinates": [
                    16.57635,
                    52.6173699
                ]
            },
            "properties": {
                "isced:level": "3",
                "ref:rspo": 10620,
                "official_name": "Liceum Og\u00f3lnokszta\u0142c\u0105ce dla Doros\u0142ych",
                "name": "Liceum Og\u00f3lnokszta\u0142c\u0105ce dla Doros\u0142ych",
                "addr:postcode": "64-500",
                "addr:city": "Szamotu\u0142y",
                "addr:street": "Szczuczy\u0144ska",
                "addr:housenumber": "3",
                "addr:city:simc": 971531,
                "addr:street:sym_ul": 21855,
                "phone": "+48 612921559",
                "email": "zsnr2szamotuly@onet.pl",
                "website": "http:\/\/www.zsnr2-szamotuly.pl",
                "ref:regon": "302205145",
                "operator": "Powiat Szamotulski",
                "operator:type": "government",
                "amenity": "school",
                "note": "Parent RSPO: 4787"
            }
        },
        {
            "id": 263076,
            "type": "Feature",
            "geometry": {
                "type": "Point",
                "coordinates": [
                    16.57635,
                    52.617339900000005
                ]
            },
            "properties": {
                "isced:level": "3",
                "ref:rspo": 263076,
                "official_name": "Bran\u017cowa Szko\u0142a I Stopnia nr 2 w Szamotu\u0142ach",
                "name": "Bran\u017cowa Szko\u0142a I Stopnia nr 2 w Szamotu\u0142ach",
                "addr:postcode": "64-500",
                "addr:city": "Szamotu\u0142y",
                "addr:street": "Szczuczy\u0144ska",
                "addr:housenumber": "3",
                "addr:city:simc": 971531,
                "addr:street:sym_ul": 21855,
                "phone": "+48 612921559",
                "email": "zsnr2szamotuly@onet.pl",
                "website": "http:\/\/www.zsnr2-szamotuly.pl",
                "ref:regon": "368099565",
                "operator": "Powiat Szamotulski",
                "operator:type": "government",
                "amenity": "school",
                "note": "Parent RSPO: 4787"
            }
        },
        {
            "id": 48357,
            "type": "Feature",
            "geometry": {
                "type": "Point",
                "coordinates": [
                    16.57602,
                    52.61829
                ]
            },
            "properties": {
                "isced:level": "1;2",
                "ref:rspo": 48357,
                "official_name": "Szko\u0142a Podstawowa nr 3 im. Adama Mickiewicza",
                "name": "Szko\u0142a Podstawowa nr 3",
                "addr:postcode": "64-500",
                "addr:city": "Szamotu\u0142y",
                "addr:street": "Szczuczy\u0144ska",
                "addr:housenumber": "5",
                "addr:city:simc": 971531,
                "addr:street:sym_ul": 21855,
                "phone": "+48 612921754",
                "email": "sp3_szam@o2.pl",
                "website": "http:\/\/www.sp3szamotuly.pl",
                "ref:regon": "000940230",
                "ref:vatin": "PL7871972804",
                "operator": "Miasto I Gmina Szamotu\u0142y",
                "operator:type": "government",
                "amenity": "school"
            }
        },
        {
            "id": 5807,
            "type": "Feature",
            "geometry": {
                "type": "Point",
                "coordinates": [
                    16.57627,
                    52.62021
                ]
            },
            "properties": {
                "ref:rspo": 5807,
                "official_name": "Niepubliczna Specjalistyczna Poradnia Psychologiczno-Pedagogiczna w Szamotu\u0142ach",
                "name": "Niepubliczna Specjalistyczna Poradnia Psychologiczno-Pedagogiczna w Szamotu\u0142ach",
                "addr:postcode": "64-500",
                "addr:city": "Szamotu\u0142y",
                "addr:street": "Szczuczy\u0144ska",
                "addr:housenumber": "15",
                "addr:city:simc": 971531,
                "addr:street:sym_ul": 21855,
                "phone": "+48 508252406",
                "email": "krystyna.akra@vp.pl",
                "website": "http:\/\/www.ego-med.pl",
                "ref:regon": "302199284",
                "operator": "Krystyna Goliw\u0105s",
                "operator:type": "private",
                "healthcare": "counselling",
                "counselling_type": "education",
                "fixme": "w zale\u017cno\u015bci od przedmiotu dzia\u0142alno\u015bci (np. healthcare=counselling + counselling_type=education albo healthcare=psychotherapist)"
            }
        },
        {
            "id": 44266,
            "type": "Feature",
            "geometry": {
                "type": "Point",
                "coordinates": [
                    16.57589,
                    52.62368
                ]
            },
            "properties": {
                "ref:rspo": 44266,
                "official_name": "Prywatne Przedszkole Kubusia Puchatka",
                "name": "Prywatne Przedszkole Kubusia Puchatka",
                "addr:postcode": "64-500",
                "addr:city": "Szamotu\u0142y",
                "addr:street": "Wi\u015bniowa",
                "addr:housenumber": "35",
                "addr:city:simc": 971531,
                "addr:street:sym_ul": 24412,
                "phone": "+48 691889993",
                "email": "info@przedszkole-szamotuly.pl",
                "website": "http:\/\/www.przedszkole-szamotuly.pl",
                "ref:regon": "302245699",
                "ref:vatin": "PL7871262416",
                "operator": "Atm Edukacja Sp\u00f3\u0142ka Z Ograniczon\u0105 Odpowiedzialno\u015bci\u0105 Sp\u00f3\u0142ka Komandytowa",
                "operator:type": "private",
                "amenity": "kindergarten"
            }
        },
        {
            "id": 34856,
            "type": "Feature",
            "geometry": {
                "type": "Point",
                "coordinates": [
                    16.56373,
                    52.6253843
                ]
            },
            "properties": {
                "ref:rspo": 34856,
                "official_name": "Przedszkole \"S\u0142oneczko\" Anna Korycka",
                "name": "Przedszkole \"S\u0142oneczko\" Anna Korycka",
                "addr:postcode": "64-500",
                "addr:city": "Szamotu\u0142y",
                "addr:street": "Zielona",
                "addr:housenumber": "74",
                "addr:city:simc": 971531,
                "addr:street:sym_ul": 26081,
                "phone": "+48 691340090",
                "email": "info@przedszkole-sloneczko.info",
                "website": "http:\/\/www.przedszkole-sloneczko.info",
                "ref:regon": "302243074",
                "ref:vatin": "PL7671238755",
                "operator": "Anna Korycka",
                "operator:type": "private",
                "amenity": "kindergarten"
            }
        }
    ]
}