{
    "type": "FeatureCollection",
    "features": [
        {
            "id": 61570,
            "type": "Feature",
            "geometry": {
                "type": "Point",
                "coordinates": [
                    16.46344,
                    52.3997699
                ]
            },
            "properties": {
                "isced:level": "1;2",
                "ref:rspo": 61570,
                "official_name": "Szko\u0142a Podstawowa w S\u0119dzinku",
                "name": "Szko\u0142a Podstawowa w S\u0119dzinku",
                "addr:postcode": "64-552",
                "addr:city": "S\u0119dzinko",
                "addr:street": "Szkolna",
                "addr:housenumber": "9",
                "addr:teryt:simc": 583250,
                "addr:teryt:sym_ul": 21970,
                "phone": "+48 612918804",
                "email": "sedzinko_sp@wp.pl",
                "website": "http:\/\/www.spsedzinko.szkolnastrona.pl",
                "ref:regon": "001225110",
                "ref:vatin": "PL7872109823",
                "operator": "Gmina Duszniki",
                "operator:type": "government",
                "amenity": "school"
            }
        },
        {
            "id": 68515,
            "type": "Feature",
            "geometry": {
                "type": "Point",
                "coordinates": [
                    16.52269,
                    52.43335
                ]
            },
            "properties": {
                "isced:level": "1;2",
                "ref:rspo": 68515,
                "official_name": "Szko\u0142a Podstawowa im. J\u00f3zefa Gibowskiego w Grzebienisku",
                "name": "Szko\u0142a Podstawowa",
                "addr:postcode": "64-553",
                "addr:city": "Grzebienisko",
                "addr:street": "Szkolna",
                "addr:housenumber": "16",
                "addr:teryt:simc": 583119,
                "addr:teryt:sym_ul": 21970,
                "phone": "+48 612918604",
                "email": "szkolagrzebienisko@op.pl",
                "website": "http:\/\/szkolagrzebienisko.edupage.org",
                "ref:regon": "001225103",
                "ref:vatin": "PL7872109852",
                "operator": "Gmina Duszniki",
                "operator:type": "government",
                "amenity": "school"
            }
        },
        {
            "id": 61569,
            "type": "Feature",
            "geometry": {
                "type": "Point",
                "coordinates": [
                    16.40929,
                    52.4402
                ]
            },
            "properties": {
                "isced:level": "1;2",
                "ref:rspo": 61569,
                "official_name": "Szko\u0142a Podstawowa im. Powsta\u0144c\u00f3w Wielkopolskich w Dusznikach",
                "name": "Szko\u0142a Podstawowa",
                "addr:postcode": "64-550",
                "addr:city": "Duszniki",
                "addr:street": "W\u0142adys\u0142awa Broniewskiego",
                "addr:housenumber": "3",
                "addr:teryt:simc": 583065,
                "addr:teryt:sym_ul": 2120,
                "phone": "+48 612919162",
                "email": "sekretariat@spduszniki.net",
                "website": "http:\/\/www.spduszniki.szkolnastrona.pl",
                "ref:regon": "000601343",
                "ref:vatin": "PL7872110039",
                "operator": "Gmina Duszniki",
                "operator:type": "government",
                "amenity": "school",
                "note": "Children RSPO: 71215"
            }
        },
        {
            "id": 42493,
            "type": "Feature",
            "geometry": {
                "type": "Point",
                "coordinates": [
                    16.40023,
                    52.44849
                ]
            },
            "properties": {
                "ref:rspo": 42493,
                "official_name": "S\u0142oneczne Przedszkole w Dusznikach",
                "name": "S\u0142oneczne Przedszkole w Dusznikach",
                "addr:postcode": "64-550",
                "addr:city": "Duszniki",
                "addr:street": "Kolejowa",
                "addr:housenumber": "7",
                "addr:door": "A",
                "addr:teryt:simc": 583065,
                "addr:teryt:sym_ul": 8828,
                "phone": "+48 612919224",
                "email": "przedszkoleduszniki@interia.pl",
                "ref:regon": "631579460",
                "ref:vatin": "PL7872109869",
                "operator": "Gmina Duszniki",
                "operator:type": "government",
                "amenity": "kindergarten",
                "note": "Parent RSPO: 272824"
            }
        },
        {
            "id": 272824,
            "type": "Feature",
            "geometry": {
                "type": "Point",
                "coordinates": [
                    16.39991,
                    52.4498
                ]
            },
            "properties": {
                "ref:rspo": 272824,
                "official_name": "Zesp\u00f3\u0142 Przedszkoli w Dusznikach",
                "name": "Zesp\u00f3\u0142 Przedszkoli w Dusznikach",
                "addr:postcode": "64-550",
                "addr:city": "Duszniki",
                "addr:street": "Kolejowa",
                "addr:housenumber": "7A",
                "addr:teryt:simc": 583065,
                "addr:teryt:sym_ul": 8828,
                "phone": "+48 612919224",
                "email": "przedszkoleduszniki@interia.pl",
                "website": "https:\/\/przedszkoleduszniki.edupage.org\/",
                "ref:regon": "384297241",
                "operator": "Gmina Duszniki",
                "operator:type": "government",
                "landuse": "education",
                "fixme": "amenity=school, amenity=college albo landuse=education w zale\u017cno\u015bci od tego, jakie plac\u00f3wki wchodz\u0105 w sk\u0142ad zespo\u0142u. Sprawd\u017a, kiedy stosowa\u0107 amenity=* a kiedy landuse=education.",
                "note": "Children RSPO: 42493;272547;272550"
            }
        },
        {
            "id": 71215,
            "type": "Feature",
            "geometry": {
                "type": "Point",
                "coordinates": [
                    16.38784,
                    52.49243
                ]
            },
            "properties": {
                "isced:level": "1;2",
                "ref:rspo": 71215,
                "official_name": "Punkt Filialny w Podrzewiu Szko\u0142y Podstawowej w Dusznikach",
                "name": "Punkt Filialny w Podrzewiu Szko\u0142y Podstawowej w Dusznikach",
                "addr:postcode": "64-541",
                "addr:city": "Podrzewie",
                "addr:street": "Dusznicka",
                "addr:housenumber": "22",
                "addr:teryt:simc": 583208,
                "addr:teryt:sym_ul": 4414,
                "phone": "+48 612919162",
                "email": "sekretariat@spduszniki.net",
                "ref:regon": "601343000",
                "ref:vatin": "PL7871804159",
                "operator": "Gmina Duszniki",
                "operator:type": "government",
                "amenity": "school",
                "note": "Parent RSPO: 61569"
            }
        },
        {
            "id": 272550,
            "type": "Feature",
            "geometry": {
                "type": "Point",
                "coordinates": [
                    16.38453,
                    52.495
                ]
            },
            "properties": {
                "ref:rspo": 272550,
                "official_name": "Przedszkole w Podrzewiu",
                "name": "Przedszkole w Podrzewiu",
                "addr:postcode": "64-541",
                "addr:city": "Podrzewie",
                "addr:street": "Ogrodowa",
                "addr:housenumber": "3",
                "addr:teryt:simc": 583208,
                "addr:teryt:sym_ul": 14834,
                "phone": "+48 614423708",
                "ref:regon": "384263325",
                "operator": "Gmina Duszniki",
                "operator:type": "government",
                "amenity": "kindergarten",
                "note": "Parent RSPO: 272824"
            }
        },
        {
            "id": 272547,
            "type": "Feature",
            "geometry": {
                "type": "Point",
                "coordinates": [
                    16.414901733398,
                    52.600849151611
                ]
            },
            "properties": {
                "ref:rspo": 272547,
                "official_name": "Przedszkole w S\u0119kowie",
                "name": "Przedszkole w S\u0119kowie",
                "addr:postcode": "64-541",
                "addr:place": "S\u0119kowo",
                "addr:housenumber": "23",
                "addr:teryt:simc": 583289,
                "phone": "+48 612919472",
                "ref:regon": "384263265",
                "operator": "Gmina Duszniki",
                "operator:type": "government",
                "amenity": "kindergarten",
                "note": "Parent RSPO: 272824"
            }
        }
    ]
}