{
    "type": "FeatureCollection",
    "features": [
        {
            "id": 25184,
            "type": "Feature",
            "geometry": {
                "type": "Point",
                "coordinates": [
                    20.2581099,
                    53.79441
                ]
            },
            "properties": {
                "isced:level": "1;2",
                "ref:rspo": 25184,
                "official_name": "Szko\u0142a Podstawowa we Wrzesinie",
                "name": "Szko\u0142a Podstawowa we Wrzesinie",
                "addr:country": "PL",
                "addr:postcode": "11-042",
                "addr:place": "Wrzesina",
                "addr:housenumber": "43",
                "addr:teryt:sym_ul": 477280,
                "contact:phone": "+48 895128119",
                "contact:email": "spwrzesina@jonkowo.pl",
                "contact:website": "http:\/\/pspwrzesina.superszkolna.pl\/",
                "ref:regon": "001205721",
                "ref:vatin": "PL7393264371",
                "operator": "Gmina Jonkowo",
                "operator:type": "government",
                "amenity": "school"
            }
        },
        {
            "id": 57262,
            "type": "Feature",
            "geometry": {
                "type": "Point",
                "coordinates": [
                    20.38946,
                    53.80959
                ]
            },
            "properties": {
                "ref:rspo": 57262,
                "official_name": "Niepubliczne Przedszkole \"Ekolandia\"",
                "name": "Niepubliczne Przedszkole \"Ekolandia\"",
                "addr:country": "PL",
                "addr:postcode": "11-041",
                "addr:place": "Gutkowo",
                "addr:housenumber": "79",
                "addr:teryt:sym_ul": 477073,
                "contact:phone": "+48 502692157",
                "contact:email": "abramczyk90@o2.pl",
                "contact:website": "http:\/\/www.ekolandia.olsztyn.pl",
                "ref:regon": "281439117",
                "ref:vatin": "PL7391722734",
                "operator": "Joanna Abramczyk",
                "operator:type": "private",
                "amenity": "kindergarten"
            }
        },
        {
            "id": 25183,
            "type": "Feature",
            "geometry": {
                "type": "Point",
                "coordinates": [
                    20.30661,
                    53.82279
                ]
            },
            "properties": {
                "ref:rspo": 25183,
                "official_name": "Przedszkole w Jonkowie",
                "name": "Przedszkole w Jonkowie",
                "addr:country": "PL",
                "addr:postcode": "11-042",
                "addr:city": "Jonkowo",
                "addr:street": "Spacerowa",
                "addr:housenumber": "2",
                "addr:teryt:simc": 20641,
                "addr:teryt:sym_ul": 477080,
                "contact:phone": "+48 895129137",
                "contact:email": "dorota_przedszkole@o2.pl",
                "contact:website": "http:\/\/www.przedszkole.jonkowo.pl",
                "ref:regon": "511314817",
                "ref:vatin": "PL7393259826",
                "operator": "Gmina Jonkowo",
                "operator:type": "government",
                "amenity": "kindergarten"
            }
        },
        {
            "id": 25182,
            "type": "Feature",
            "geometry": {
                "type": "Point",
                "coordinates": [
                    20.30803,
                    53.82607
                ]
            },
            "properties": {
                "isced:level": "1;2",
                "ref:rspo": 25182,
                "official_name": "Szko\u0142a Podstawowa im. T. Ko\u015bciuszki",
                "name": "Szko\u0142a Podstawowa",
                "addr:country": "PL",
                "addr:postcode": "11-042",
                "addr:city": "Jonkowo",
                "addr:street": "Ksi\u0119dza Jana Hanowskiego",
                "addr:housenumber": "29",
                "addr:teryt:simc": 6518,
                "addr:teryt:sym_ul": 477080,
                "contact:phone": "+48 895129275",
                "contact:email": "sekretariatspjonkowo@op.pl",
                "contact:website": "http:\/\/www.spjonkowo.edupage.org",
                "ref:regon": "000269239",
                "ref:vatin": "PL7393261734",
                "operator": "Gmina Jonkowo",
                "operator:type": "government",
                "amenity": "school"
            }
        },
        {
            "id": 56225,
            "type": "Feature",
            "geometry": {
                "type": "Point",
                "coordinates": [
                    20.3096,
                    53.82772
                ]
            },
            "properties": {
                "ref:rspo": 56225,
                "official_name": "Przedszkole \"Patryk\"",
                "name": "Przedszkole \"Patryk\"",
                "addr:country": "PL",
                "addr:postcode": "11-042",
                "addr:city": "Jonkowo",
                "addr:street": "Ksi\u0119dza Jana Hanowskiego",
                "addr:housenumber": "30",
                "addr:teryt:simc": 6518,
                "addr:teryt:sym_ul": 477080,
                "contact:phone": "+48 895353366",
                "contact:email": "cecyliapatos@wp.pl",
                "ref:regon": "281438879",
                "ref:vatin": "PL7392289707",
                "operator": "Cecylia \u0141ubi\u0144ska",
                "operator:type": "private",
                "amenity": "kindergarten"
            }
        },
        {
            "id": 57263,
            "type": "Feature",
            "geometry": {
                "type": "Point",
                "coordinates": [
                    20.18749,
                    53.83269
                ]
            },
            "properties": {
                "ref:rspo": 57263,
                "official_name": "Punkt Przedszkolny Sza\u0142stry",
                "name": "Punkt Przedszkolny Sza\u0142stry",
                "addr:country": "PL",
                "addr:postcode": "11-042",
                "addr:place": "Sza\u0142stry",
                "addr:housenumber": "7",
                "addr:teryt:sym_ul": 477200,
                "contact:phone": "+48 881916292",
                "ref:regon": "281438916",
                "ref:vatin": "PL7391230505",
                "operator": "Dane Do Uzupe\u0142nienia",
                "operator:type": "private",
                "amenity": "kindergarten"
            }
        },
        {
            "id": 271398,
            "type": "Feature",
            "geometry": {
                "type": "Point",
                "coordinates": [
                    20.30523,
                    53.83505
                ]
            },
            "properties": {
                "ref:rspo": 271398,
                "official_name": "Plac\u00f3wka Doskonalenia Nauczycieli Impuls",
                "name": "Plac\u00f3wka Doskonalenia Nauczycieli Impuls",
                "addr:country": "PL",
                "addr:postcode": "11-042",
                "addr:city": "Jonkowo",
                "addr:street": "Jana III Sobieskiego",
                "addr:housenumber": "3",
                "addr:teryt:simc": 20431,
                "addr:teryt:sym_ul": 477080,
                "contact:phone": "+48 664929926",
                "contact:email": "d.tomaszewicz.kontakt@gmail.com",
                "contact:website": "http:\/\/www.dorotatomaszewicz.pl",
                "ref:regon": "383315445",
                "operator": "Dorota Tomaszewicz",
                "operator:type": "private",
                "amenity": "training"
            }
        },
        {
            "id": 25186,
            "type": "Feature",
            "geometry": {
                "type": "Point",
                "coordinates": [
                    20.20658,
                    53.85761
                ]
            },
            "properties": {
                "isced:level": "1;2",
                "ref:rspo": 25186,
                "official_name": "Szko\u0142a Podstawowa w Nowym Kawkowie",
                "name": "Szko\u0142a Podstawowa w Nowym Kawkowie",
                "addr:country": "PL",
                "addr:postcode": "11-042",
                "addr:place": "Nowe Kawkowo",
                "addr:housenumber": "25",
                "addr:teryt:sym_ul": 477133,
                "contact:phone": "+48 895128566",
                "contact:email": "nkszkola@jonkowo.pl",
                "ref:regon": "001205566",
                "ref:vatin": "PL7393263472",
                "operator": "Gmina Jonkowo",
                "operator:type": "government",
                "amenity": "school"
            }
        }
    ]
}