{
    "type": "FeatureCollection",
    "features": [
        {
            "id": 34483,
            "type": "Feature",
            "geometry": {
                "type": "Point",
                "coordinates": [
                    20.63866,
                    53.81913
                ]
            },
            "properties": {
                "ref:rspo": 34483,
                "official_name": "Przedszkole Publiczne w \u0141\u0119gajnach",
                "name": "Przedszkole Publiczne w \u0141\u0119gajnach",
                "addr:country": "PL",
                "addr:postcode": "11-010",
                "addr:city": "\u0141\u0119gajny",
                "addr:street": "Olszty\u0144ska",
                "addr:housenumber": "8",
                "addr:teryt:simc": 15016,
                "addr:teryt:sym_ul": 469955,
                "contact:phone": "+48 895144297",
                "contact:website": "http:\/\/www.zsplegajny.pl",
                "ref:regon": "511355851",
                "ref:vatin": "PL7393220729",
                "operator": "Gmina Barczewo",
                "operator:type": "government",
                "amenity": "kindergarten",
                "note": "Parent RSPO: 27099"
            }
        },
        {
            "id": 27099,
            "type": "Feature",
            "geometry": {
                "type": "Point",
                "coordinates": [
                    20.63116,
                    53.82035
                ]
            },
            "properties": {
                "ref:rspo": 27099,
                "official_name": "Zesp\u00f3\u0142 Szkolno-Przedszkolny w \u0141\u0119gajnach",
                "name": "Zesp\u00f3\u0142 Szkolno-Przedszkolny w \u0141\u0119gajnach",
                "addr:country": "PL",
                "addr:postcode": "11-010",
                "addr:city": "\u0141\u0119gajny",
                "addr:street": "Ogrodowa",
                "addr:housenumber": "7",
                "addr:teryt:simc": 14834,
                "addr:teryt:sym_ul": 469955,
                "contact:phone": "+48 895144242",
                "contact:email": "splegajny@wp.pl",
                "contact:website": "http:\/\/www.zsplegajny.pl",
                "ref:regon": "519476502",
                "ref:vatin": "PL7393713917",
                "operator": "Gmina Barczewo",
                "operator:type": "government",
                "landuse": "education",
                "fixme": "amenity=school, amenity=college albo landuse=education w zale\u017cno\u015bci od tego, jakie plac\u00f3wki wchodz\u0105 w sk\u0142ad zespo\u0142u. Sprawd\u017a, kiedy stosowa\u0107 amenity=* a kiedy landuse=education.",
                "note": "Children RSPO: 34482;34483;38587"
            }
        },
        {
            "id": 34482,
            "type": "Feature",
            "geometry": {
                "type": "Point",
                "coordinates": [
                    20.63116,
                    53.820319999999995
                ]
            },
            "properties": {
                "isced:level": "1;2",
                "ref:rspo": 34482,
                "official_name": "Szko\u0142a Podstawowa im. Jana Paw\u0142a II w \u0141\u0119gajnach",
                "name": "Szko\u0142a Podstawowa",
                "addr:country": "PL",
                "addr:postcode": "11-010",
                "addr:city": "\u0141\u0119gajny",
                "addr:street": "Ogrodowa",
                "addr:housenumber": "7",
                "addr:teryt:simc": 14834,
                "addr:teryt:sym_ul": 469955,
                "contact:phone": "+48 895144242",
                "contact:email": "splegajny@wp.pl",
                "contact:website": "http:\/\/www.zsplegajny.pl",
                "ref:regon": "001123800",
                "ref:vatin": "PL7393220652",
                "operator": "Gmina Barczewo",
                "operator:type": "government",
                "amenity": "school",
                "note": "Parent RSPO: 27099"
            }
        },
        {
            "id": 105150,
            "type": "Feature",
            "geometry": {
                "type": "Point",
                "coordinates": [
                    20.69319,
                    53.83059
                ]
            },
            "properties": {
                "ref:rspo": 105150,
                "official_name": "Zak\u0142ad Poprawczy w Barczewie",
                "name": "Zak\u0142ad Poprawczy w Barczewie",
                "addr:country": "PL",
                "addr:postcode": "11-010",
                "addr:city": "Barczewo",
                "addr:street": "Wojska Polskiego",
                "addr:housenumber": "2",
                "addr:teryt:simc": 24628,
                "addr:teryt:sym_ul": 964577,
                "contact:phone": "+48 895148461",
                "contact:email": "sekretariat@barczewo.zp.gov.pl",
                "contact:website": "http:\/\/www.barczewo.zp.gov.pl",
                "ref:regon": "000323648",
                "operator": "Ministerstwo Sprawiedliwo\u015bci",
                "operator:type": "public",
                "note": "Children RSPO: 124725;124730"
            }
        },
        {
            "id": 124725,
            "type": "Feature",
            "geometry": {
                "type": "Point",
                "coordinates": [
                    20.69319,
                    53.83056
                ]
            },
            "properties": {
                "isced:level": "1;2",
                "ref:rspo": 124725,
                "official_name": "Szko\u0142a Podstawowa Nr 2 w Zakladzie Poprawczym w Barczewie",
                "name": "Szko\u0142a Podstawowa Nr 2 w Zakladzie Poprawczym w Barczewie",
                "addr:country": "PL",
                "addr:postcode": "11-010",
                "addr:city": "Barczewo",
                "addr:street": "Wojska Polskiego",
                "addr:housenumber": "2",
                "addr:teryt:simc": 24628,
                "addr:teryt:sym_ul": 964577,
                "contact:phone": "+48 895148461",
                "contact:email": "sekretariat@barczewo.zp.gov.pl",
                "contact:website": "http:\/\/www.barczewo.zp.gov.pl",
                "ref:regon": "281622614",
                "operator": "Ministerstwo Sprawiedliwo\u015bci",
                "operator:type": "public",
                "amenity": "school",
                "note": "Parent RSPO: 105150"
            }
        },
        {
            "id": 124730,
            "type": "Feature",
            "geometry": {
                "type": "Point",
                "coordinates": [
                    20.69319,
                    53.83053
                ]
            },
            "properties": {
                "isced:level": "3",
                "ref:rspo": 124730,
                "official_name": "Bran\u017cowa Szko\u0142a I Stopnia Nr 2 w Zak\u0142adzie Poprawczym w Barczewie",
                "name": "Bran\u017cowa Szko\u0142a I Stopnia Nr 2 w Zak\u0142adzie Poprawczym w Barczewie",
                "addr:country": "PL",
                "addr:postcode": "11-010",
                "addr:city": "Barczewo",
                "addr:street": "Wojska Polskiego",
                "addr:housenumber": "2",
                "addr:teryt:simc": 24628,
                "addr:teryt:sym_ul": 964577,
                "contact:phone": "+48 895148461",
                "contact:email": "sekretariat@barczewo.zp.gov.pl",
                "contact:website": "http:\/\/www.barczewo.zp.gov.pl",
                "ref:regon": "281622666",
                "operator": "Ministerstwo Sprawiedliwo\u015bci",
                "operator:type": "public",
                "amenity": "school",
                "note": "Parent RSPO: 105150"
            }
        },
        {
            "id": 127836,
            "type": "Feature",
            "geometry": {
                "type": "Point",
                "coordinates": [
                    20.6875,
                    53.83302
                ]
            },
            "properties": {
                "ref:rspo": 127836,
                "official_name": "Zesp\u00f3\u0142 Szk\u00f3\u0142 w Barczewie",
                "name": "Zesp\u00f3\u0142 Szk\u00f3\u0142 w Barczewie",
                "addr:country": "PL",
                "addr:postcode": "11-010",
                "addr:city": "Barczewo",
                "addr:street": "P\u00f3\u0142nocna",
                "addr:housenumber": "14",
                "addr:teryt:simc": 17421,
                "addr:teryt:sym_ul": 964577,
                "contact:phone": "+48 895147713",
                "contact:email": "zsb@barczewo.pl",
                "ref:regon": "361872163",
                "operator": "Gmina Barczewo",
                "operator:type": "government",
                "landuse": "education",
                "fixme": "amenity=school, amenity=college albo landuse=education w zale\u017cno\u015bci od tego, jakie plac\u00f3wki wchodz\u0105 w sk\u0142ad zespo\u0142u. Sprawd\u017a, kiedy stosowa\u0107 amenity=* a kiedy landuse=education.",
                "note": "Children RSPO: 127838;127839;127840;263242"
            }
        },
        {
            "id": 121621,
            "type": "Feature",
            "geometry": {
                "type": "Point",
                "coordinates": [
                    20.6875,
                    53.832989999999995
                ]
            },
            "properties": {
                "ref:rspo": 121621,
                "official_name": "Samorz\u0105dowa Szko\u0142a Muzyczna I Stopnia w Dywitach w Powiecie Olszty\u0144skim Filia w Barczewie",
                "name": "Samorz\u0105dowa Szko\u0142a Muzyczna I Stopnia w Dywitach w Powiecie Olszty\u0144skim Filia w Barczewie",
                "addr:country": "PL",
                "addr:postcode": "11-010",
                "addr:city": "Barczewo",
                "addr:street": "P\u00f3\u0142nocna",
                "addr:housenumber": "14",
                "addr:teryt:simc": 17421,
                "addr:teryt:sym_ul": 964577,
                "contact:phone": "+48 790510023",
                "contact:email": "barczewo@psmdywity.org",
                "ref:regon": "280535735",
                "ref:vatin": "PL7393801142",
                "operator": "Powiat Olszty\u0144ski",
                "operator:type": "government",
                "amenity": "music_school",
                "note": "Parent RSPO: 29337"
            }
        },
        {
            "id": 127838,
            "type": "Feature",
            "geometry": {
                "type": "Point",
                "coordinates": [
                    20.6875,
                    53.83296
                ]
            },
            "properties": {
                "isced:level": "3",
                "ref:rspo": 127838,
                "official_name": "Bran\u017cowa Szko\u0142a I Stopnia Nr1 w Barczewie",
                "name": "Bran\u017cowa Szko\u0142a I Stopnia Nr1 w Barczewie",
                "addr:country": "PL",
                "addr:postcode": "11-010",
                "addr:city": "Barczewo",
                "addr:street": "P\u00f3\u0142nocna",
                "addr:housenumber": "14",
                "addr:teryt:simc": 17421,
                "addr:teryt:sym_ul": 964577,
                "contact:phone": "+48 895147713",
                "ref:regon": "361875948",
                "operator": "Gmina Barczewo",
                "operator:type": "government",
                "amenity": "school",
                "note": "Parent RSPO: 127836"
            }
        },
        {
            "id": 127839,
            "type": "Feature",
            "geometry": {
                "type": "Point",
                "coordinates": [
                    20.6875,
                    53.83293
                ]
            },
            "properties": {
                "isced:level": "3",
                "ref:rspo": 127839,
                "official_name": "Liceum Og\u00f3lnokszta\u0142c\u0105ce w Barczewie",
                "name": "Liceum Og\u00f3lnokszta\u0142c\u0105ce w Barczewie",
                "addr:country": "PL",
                "addr:postcode": "11-010",
                "addr:city": "Barczewo",
                "addr:street": "P\u00f3\u0142nocna",
                "addr:housenumber": "14",
                "addr:teryt:simc": 17421,
                "addr:teryt:sym_ul": 964577,
                "contact:phone": "+48 895147713",
                "contact:email": "zsb@barczewo.pl",
                "contact:website": "http:\/\/www.lo.barczewo.pl",
                "ref:regon": "361877918",
                "operator": "Gmina Barczewo",
                "operator:type": "government",
                "amenity": "school",
                "note": "Parent RSPO: 127836"
            }
        },
        {
            "id": 127840,
            "type": "Feature",
            "geometry": {
                "type": "Point",
                "coordinates": [
                    20.6875,
                    53.832899999999995
                ]
            },
            "properties": {
                "isced:level": "3",
                "ref:rspo": 127840,
                "official_name": "Liceum Og\u00f3lnokszta\u0142c\u0105ce dla Doros\u0142ych w Barczewie",
                "name": "Liceum Og\u00f3lnokszta\u0142c\u0105ce dla Doros\u0142ych w Barczewie",
                "addr:country": "PL",
                "addr:postcode": "11-010",
                "addr:city": "Barczewo",
                "addr:street": "P\u00f3\u0142nocna",
                "addr:housenumber": "14",
                "addr:teryt:simc": 17421,
                "addr:teryt:sym_ul": 964577,
                "contact:phone": "+48 895147713",
                "ref:regon": "361881966",
                "operator": "Gmina Barczewo",
                "operator:type": "government",
                "amenity": "school",
                "note": "Parent RSPO: 127836"
            }
        },
        {
            "id": 263242,
            "type": "Feature",
            "geometry": {
                "type": "Point",
                "coordinates": [
                    20.6875,
                    53.83287
                ]
            },
            "properties": {
                "isced:level": "1;2",
                "ref:rspo": 263242,
                "official_name": "Szko\u0142a Podstawowa Nr 3 im. Ziemi Warmi\u0144skiej w Barczewie",
                "name": "Szko\u0142a Podstawowa Nr 3",
                "addr:country": "PL",
                "addr:postcode": "11-010",
                "addr:city": "Barczewo",
                "addr:street": "P\u00f3\u0142nocna",
                "addr:housenumber": "14",
                "addr:teryt:simc": 17421,
                "addr:teryt:sym_ul": 964577,
                "contact:phone": "+48 895147713",
                "contact:email": "gimbar1@wp.pl",
                "contact:website": "http:\/\/www.zsb.bar.pl",
                "ref:regon": "368175384",
                "operator": "Gmina Barczewo",
                "operator:type": "government",
                "amenity": "school",
                "note": "Parent RSPO: 127836"
            }
        },
        {
            "id": 27100,
            "type": "Feature",
            "geometry": {
                "type": "Point",
                "coordinates": [
                    20.69604,
                    53.83328
                ]
            },
            "properties": {
                "ref:rspo": 27100,
                "official_name": "Przedszkole Miejskie w Barczewie",
                "name": "Przedszkole Miejskie w Barczewie",
                "addr:country": "PL",
                "addr:postcode": "11-010",
                "addr:city": "Barczewo",
                "addr:street": "Juliusza S\u0142owackiego",
                "addr:housenumber": "7",
                "addr:teryt:simc": 20291,
                "addr:teryt:sym_ul": 964577,
                "contact:phone": "+48 895148396",
                "contact:email": "pm.barczewo@wp.pl",
                "ref:regon": "511355874",
                "ref:vatin": "PL7393220712",
                "operator": "Gmina Barczewo",
                "operator:type": "government",
                "amenity": "kindergarten"
            }
        },
        {
            "id": 27098,
            "type": "Feature",
            "geometry": {
                "type": "Point",
                "coordinates": [
                    20.69421,
                    53.8347
                ]
            },
            "properties": {
                "isced:level": "1;2",
                "ref:rspo": 27098,
                "official_name": "Szko\u0142a Podstawowa Nr 1 im. Feliksa Nowowiejskiego w Barczewie",
                "name": "Szko\u0142a Podstawowa Nr 1",
                "addr:country": "PL",
                "addr:postcode": "11-010",
                "addr:city": "Barczewo",
                "addr:street": "Wojska Polskiego",
                "addr:housenumber": "36",
                "addr:teryt:simc": 24628,
                "addr:teryt:sym_ul": 964577,
                "contact:phone": "+48 895148282",
                "contact:email": "sp1barczewo@wp.pl",
                "contact:website": "http:\/\/sp1barczewo.edu.pl",
                "ref:regon": "000262697",
                "ref:vatin": "PL7393220646",
                "operator": "Gmina Barczewo",
                "operator:type": "government",
                "amenity": "school"
            }
        },
        {
            "id": 38587,
            "type": "Feature",
            "geometry": {
                "type": "Point",
                "coordinates": [
                    20.58841,
                    53.84949
                ]
            },
            "properties": {
                "isced:level": "1;2",
                "ref:rspo": 38587,
                "official_name": "Szko\u0142a Filialna w Barczewku",
                "name": "Szko\u0142a Filialna w Barczewku",
                "addr:country": "PL",
                "addr:postcode": "11-010",
                "addr:place": "Barczewko",
                "addr:housenumber": "35",
                "addr:teryt:sym_ul": 469719,
                "contact:phone": "+48 895141525",
                "contact:website": "http:\/\/www.zsplegajny.pl",
                "ref:regon": "281439873",
                "ref:vatin": "PL7393220652",
                "operator": "Gmina Barczewo",
                "operator:type": "government",
                "amenity": "school",
                "note": "Parent RSPO: 27099"
            }
        },
        {
            "id": 27104,
            "type": "Feature",
            "geometry": {
                "type": "Point",
                "coordinates": [
                    20.81544,
                    53.85172
                ]
            },
            "properties": {
                "ref:rspo": 27104,
                "official_name": "Niepubliczny Zesp\u00f3\u0142 Szk\u00f3\u0142 I Plac\u00f3wek w Ramsowie",
                "name": "Niepubliczny Zesp\u00f3\u0142 Szk\u00f3\u0142 I Plac\u00f3wek w Ramsowie",
                "addr:country": "PL",
                "addr:postcode": "11-010",
                "addr:place": "Ramsowo",
                "addr:housenumber": "87",
                "addr:teryt:sym_ul": 470071,
                "contact:phone": "+48 895145710",
                "contact:email": "ramsowo@o2.pl",
                "ref:regon": "281435020",
                "ref:vatin": "PL7392174447",
                "operator": "Jan Malinowski",
                "operator:type": "private",
                "landuse": "education",
                "fixme": "amenity=school, amenity=college albo landuse=education w zale\u017cno\u015bci od tego, jakie plac\u00f3wki wchodz\u0105 w sk\u0142ad zespo\u0142u. Sprawd\u017a, kiedy stosowa\u0107 amenity=* a kiedy landuse=education.",
                "note": "Children RSPO: 42078;50320"
            }
        },
        {
            "id": 42078,
            "type": "Feature",
            "geometry": {
                "type": "Point",
                "coordinates": [
                    20.81544,
                    53.85169
                ]
            },
            "properties": {
                "isced:level": "1;2",
                "ref:rspo": 42078,
                "official_name": "Niepubliczna Szko\u0142a Podstawowa w Ramsowie",
                "name": "Niepubliczna Szko\u0142a Podstawowa w Ramsowie",
                "addr:country": "PL",
                "addr:postcode": "11-010",
                "addr:place": "Ramsowo",
                "addr:housenumber": "87",
                "addr:teryt:sym_ul": 470071,
                "contact:phone": "+48 895145710",
                "contact:email": "nzsipramsowo@gmail.com",
                "ref:regon": "281437510",
                "ref:vatin": "PL7392174447",
                "operator": "Jan Malinowski",
                "operator:type": "private",
                "amenity": "school",
                "note": "Parent RSPO: 27104"
            }
        },
        {
            "id": 50320,
            "type": "Feature",
            "geometry": {
                "type": "Point",
                "coordinates": [
                    20.81544,
                    53.85166
                ]
            },
            "properties": {
                "ref:rspo": 50320,
                "official_name": "Niepubliczne Przedszkole w Ramsowie",
                "name": "Niepubliczne Przedszkole w Ramsowie",
                "addr:country": "PL",
                "addr:postcode": "11-010",
                "addr:place": "Ramsowo",
                "addr:housenumber": "87",
                "addr:teryt:sym_ul": 470071,
                "contact:phone": "+48 895145710",
                "ref:regon": "281442160",
                "ref:vatin": "PL7392174447",
                "operator": "Jan Malinowski",
                "operator:type": "private",
                "amenity": "kindergarten",
                "note": "Parent RSPO: 27104"
            }
        },
        {
            "id": 27102,
            "type": "Feature",
            "geometry": {
                "type": "Point",
                "coordinates": [
                    20.72589,
                    53.88066
                ]
            },
            "properties": {
                "ref:rspo": 27102,
                "official_name": "Niepubliczny Zesp\u00f3\u0142 Szk\u00f3\u0142 I Plac\u00f3wek w Kronowie",
                "name": "Niepubliczny Zesp\u00f3\u0142 Szk\u00f3\u0142 I Plac\u00f3wek w Kronowie",
                "addr:country": "PL",
                "addr:postcode": "11-010",
                "addr:place": "Kronowo",
                "addr:housenumber": "6",
                "addr:teryt:sym_ul": 469889,
                "contact:phone": "+48 895141694",
                "contact:email": "nspkronowo@wp.pl",
                "ref:regon": "281434976",
                "ref:vatin": "PL7391688374",
                "operator": "Marcin Rybczy\u0144ski",
                "operator:type": "private",
                "landuse": "education",
                "fixme": "amenity=school, amenity=college albo landuse=education w zale\u017cno\u015bci od tego, jakie plac\u00f3wki wchodz\u0105 w sk\u0142ad zespo\u0142u. Sprawd\u017a, kiedy stosowa\u0107 amenity=* a kiedy landuse=education.",
                "note": "Children RSPO: 41857;44630"
            }
        },
        {
            "id": 41857,
            "type": "Feature",
            "geometry": {
                "type": "Point",
                "coordinates": [
                    20.72589,
                    53.88063
                ]
            },
            "properties": {
                "isced:level": "1;2",
                "ref:rspo": 41857,
                "official_name": "Niepubliczna Szko\u0142a Podstawowa w Kronowie",
                "name": "Niepubliczna Szko\u0142a Podstawowa w Kronowie",
                "addr:country": "PL",
                "addr:postcode": "11-010",
                "addr:place": "Kronowo",
                "addr:housenumber": "6",
                "addr:teryt:sym_ul": 469889,
                "contact:phone": "+48 895141694",
                "contact:email": "nspkronowo@wp.pl",
                "ref:regon": "281437160",
                "ref:vatin": "PL7391688374",
                "operator": "Marcin Rybczy\u0144ski",
                "operator:type": "private",
                "amenity": "school",
                "note": "Parent RSPO: 27102"
            }
        },
        {
            "id": 44630,
            "type": "Feature",
            "geometry": {
                "type": "Point",
                "coordinates": [
                    20.72589,
                    53.8806
                ]
            },
            "properties": {
                "ref:rspo": 44630,
                "official_name": "Niepubliczne Przedszkole w Kronowie",
                "name": "Niepubliczne Przedszkole w Kronowie",
                "addr:country": "PL",
                "addr:postcode": "11-010",
                "addr:place": "Kronowo",
                "addr:housenumber": "6",
                "addr:teryt:sym_ul": 469889,
                "contact:phone": "+48 895141694",
                "contact:email": "nspkronowo@wp.pl",
                "ref:regon": "281437868",
                "ref:vatin": "PL7391688374",
                "operator": "Marcin Rybczy\u0144ski",
                "operator:type": "private",
                "amenity": "kindergarten",
                "note": "Parent RSPO: 27102"
            }
        },
        {
            "id": 27101,
            "type": "Feature",
            "geometry": {
                "type": "Point",
                "coordinates": [
                    20.79299,
                    53.90042
                ]
            },
            "properties": {
                "ref:rspo": 27101,
                "official_name": "Niepubliczny Zesp\u00f3\u0142 Szk\u00f3\u0142 I Plac\u00f3wek w Wipsowie",
                "name": "Niepubliczny Zesp\u00f3\u0142 Szk\u00f3\u0142 I Plac\u00f3wek w Wipsowie",
                "addr:country": "PL",
                "addr:postcode": "11-010",
                "addr:place": "Wipsowo",
                "addr:housenumber": "63",
                "addr:teryt:sym_ul": 470214,
                "contact:phone": "+48 895145026",
                "contact:email": "ewa.dawidczyk@interia.pl",
                "ref:regon": "281434999",
                "ref:vatin": "PL8571064351",
                "operator": "Ewa Dawidczyk",
                "operator:type": "private",
                "landuse": "education",
                "fixme": "amenity=school, amenity=college albo landuse=education w zale\u017cno\u015bci od tego, jakie plac\u00f3wki wchodz\u0105 w sk\u0142ad zespo\u0142u. Sprawd\u017a, kiedy stosowa\u0107 amenity=* a kiedy landuse=education.",
                "note": "Children RSPO: 34484;105848"
            }
        },
        {
            "id": 34484,
            "type": "Feature",
            "geometry": {
                "type": "Point",
                "coordinates": [
                    20.79299,
                    53.900389999999994
                ]
            },
            "properties": {
                "ref:rspo": 34484,
                "official_name": "Niepubliczne Przedszkole w Wipsowie",
                "name": "Niepubliczne Przedszkole w Wipsowie",
                "addr:country": "PL",
                "addr:postcode": "11-010",
                "addr:place": "Wipsowo",
                "addr:housenumber": "63",
                "addr:teryt:sym_ul": 470214,
                "contact:phone": "+48 895145026",
                "contact:email": "ewa.dawidczyk@interia.pl",
                "ref:regon": "281438885",
                "ref:vatin": "PL8571064351",
                "operator": "Ewa Dawidczyk",
                "operator:type": "private",
                "amenity": "kindergarten",
                "note": "Parent RSPO: 27101"
            }
        },
        {
            "id": 105848,
            "type": "Feature",
            "geometry": {
                "type": "Point",
                "coordinates": [
                    20.79299,
                    53.90036
                ]
            },
            "properties": {
                "isced:level": "1;2",
                "ref:rspo": 105848,
                "official_name": "Niepubliczna Szko\u0142a Podstawowa im. Augustyny Wiewiorry w Wipsowie",
                "name": "Niepubliczna Szko\u0142a Podstawowa",
                "addr:country": "PL",
                "addr:postcode": "11-010",
                "addr:place": "Wipsowo",
                "addr:housenumber": "63",
                "addr:teryt:sym_ul": 470214,
                "contact:phone": "+48 895145026",
                "contact:email": "ewa.dawidczyk@interia.pl",
                "ref:regon": "281459143",
                "ref:vatin": "PL8571064351",
                "operator": "Ewa Dawidczyk",
                "operator:type": "private",
                "amenity": "school",
                "note": "Parent RSPO: 27101"
            }
        },
        {
            "id": 27103,
            "type": "Feature",
            "geometry": {
                "type": "Point",
                "coordinates": [
                    20.68566,
                    53.9171
                ]
            },
            "properties": {
                "ref:rspo": 27103,
                "official_name": "Niepubliczny Zesp\u00f3\u0142 Szk\u00f3\u0142 I Plac\u00f3wek \"Edukacja dla Przysz\u0142o\u015bci\" w Lamkowie",
                "name": "Niepubliczny Zesp\u00f3\u0142 Szk\u00f3\u0142 I Plac\u00f3wek \"Edukacja dla Przysz\u0142o\u015bci\" w Lamkowie",
                "addr:country": "PL",
                "addr:postcode": "11-010",
                "addr:place": "Lamkowo",
                "addr:housenumber": "29",
                "addr:teryt:sym_ul": 469903,
                "contact:phone": "+48 895141629",
                "contact:email": "mbalusz@wp.pl",
                "ref:regon": "281435697",
                "ref:vatin": "PL7393662315",
                "operator": "Stowarzyszenie Na Rzecz Edukacji Dzieci I Rozwoju Obszar\u00f3w Wiejskich Wrota",
                "operator:type": "ngo",
                "landuse": "education",
                "fixme": "amenity=school, amenity=college albo landuse=education w zale\u017cno\u015bci od tego, jakie plac\u00f3wki wchodz\u0105 w sk\u0142ad zespo\u0142u. Sprawd\u017a, kiedy stosowa\u0107 amenity=* a kiedy landuse=education.",
                "note": "Children RSPO: 43824;43826"
            }
        },
        {
            "id": 43824,
            "type": "Feature",
            "geometry": {
                "type": "Point",
                "coordinates": [
                    20.68566,
                    53.917069999999995
                ]
            },
            "properties": {
                "ref:rspo": 43824,
                "official_name": "Niepubliczne Przedszkole \"Warmi\u0144ska Bajka\" w Lamkowie",
                "name": "Niepubliczne Przedszkole \"Warmi\u0144ska Bajka\" w Lamkowie",
                "addr:country": "PL",
                "addr:postcode": "11-010",
                "addr:place": "Lamkowo",
                "addr:housenumber": "29",
                "addr:teryt:sym_ul": 469903,
                "contact:phone": "+48 895141629",
                "contact:email": "mbalusz@wp.pl",
                "ref:regon": "281438810",
                "ref:vatin": "PL7393662315",
                "operator": "Stowarzyszenie Na Rzecz Edukacji Dzieci I Rozwoju Obszar\u00f3w Wiejskich Wrota",
                "operator:type": "ngo",
                "amenity": "kindergarten",
                "note": "Parent RSPO: 27103"
            }
        },
        {
            "id": 43826,
            "type": "Feature",
            "geometry": {
                "type": "Point",
                "coordinates": [
                    20.68566,
                    53.91704
                ]
            },
            "properties": {
                "isced:level": "1;2",
                "ref:rspo": 43826,
                "official_name": "Niepubliczna Szko\u0142a Podstawowa im. Franciszka Szczepa\u0144skiego w Lamkowie",
                "name": "Niepubliczna Szko\u0142a Podstawowa",
                "addr:country": "PL",
                "addr:postcode": "11-010",
                "addr:place": "Lamkowo",
                "addr:housenumber": "29",
                "addr:teryt:sym_ul": 469903,
                "contact:phone": "+48 895141629",
                "contact:email": "sekretariat.lamkowo@o2.pl",
                "ref:regon": "281439229",
                "ref:vatin": "PL7393662315",
                "operator": "Stowarzyszenie Na Rzecz Edukacji Dzieci I Rozwoju Obszar\u00f3w Wiejskich Wrota",
                "operator:type": "ngo",
                "amenity": "school",
                "note": "Parent RSPO: 27103"
            }
        }
    ]
}