{
    "type": "FeatureCollection",
    "features": [
        {
            "id": 52810,
            "type": "Feature",
            "geometry": {
                "type": "Point",
                "coordinates": [
                    21.02516,
                    53.79804
                ]
            },
            "properties": {
                "isced:level": "1;2",
                "ref:rspo": 52810,
                "official_name": "Szko\u0142a Podstawowa im. Flagi Polski w Kobu\u0142tach",
                "name": "Szko\u0142a Podstawowa",
                "addr:country": "PL",
                "addr:postcode": "11-300",
                "addr:place": "Kobu\u0142ty",
                "addr:housenumber": "80",
                "addr:teryt:sym_ul": 471573,
                "contact:phone": "+48 897161424",
                "contact:email": "spkobulty@interia.pl",
                "contact:website": "https:\/\/www.szkolakobulty.pl",
                "ref:regon": "001125011",
                "ref:vatin": "PL7393707615",
                "operator": "Gmina Biskupiec",
                "operator:type": "government",
                "amenity": "school"
            }
        },
        {
            "id": 86162,
            "type": "Feature",
            "geometry": {
                "type": "Point",
                "coordinates": [
                    21.02516,
                    53.79801
                ]
            },
            "properties": {
                "ref:rspo": 86162,
                "official_name": "Zesp\u00f3\u0142 Wychowania Przedszkolnego Przy Szkole Podstawowej w Kobu\u0142tach",
                "name": "Zesp\u00f3\u0142 Wychowania Przedszkolnego Przy Szkole Podstawowej w Kobu\u0142tach",
                "addr:country": "PL",
                "addr:postcode": "11-300",
                "addr:place": "Kobu\u0142ty",
                "addr:housenumber": "80",
                "addr:teryt:sym_ul": 471573,
                "contact:phone": "+48 897161424",
                "contact:email": "spkobulty@interia.pl",
                "contact:website": "https:\/\/www.szkolakobulty.org\/nowinki.html",
                "ref:regon": "281447370",
                "operator": "Gmina Biskupiec",
                "operator:type": "government",
                "amenity": "kindergarten"
            }
        },
        {
            "id": 30444,
            "type": "Feature",
            "geometry": {
                "type": "Point",
                "coordinates": [
                    21.06077,
                    53.83302
                ]
            },
            "properties": {
                "isced:level": "1;2",
                "ref:rspo": 30444,
                "official_name": "Spo\u0142eczna Szko\u0142a Podstawowa w Borkach Wielkich",
                "name": "Spo\u0142eczna Szko\u0142a Podstawowa w Borkach Wielkich",
                "addr:country": "PL",
                "addr:postcode": "11-300",
                "addr:place": "Borki Wielkie",
                "addr:housenumber": "35",
                "addr:teryt:sym_ul": 471484,
                "contact:phone": "+48 897161623",
                "contact:email": "borkiw@interia.pl",
                "contact:website": "http:\/\/www.borki-wielkie.schoolpage.pl\/index.html",
                "ref:regon": "281437450",
                "ref:vatin": "PL7393857131",
                "operator": "Stowarzyszenie Rozwoju Wsi Bredynki I Stanclewo",
                "operator:type": "ngo",
                "amenity": "school"
            }
        },
        {
            "id": 30453,
            "type": "Feature",
            "geometry": {
                "type": "Point",
                "coordinates": [
                    21.06077,
                    53.832989999999995
                ]
            },
            "properties": {
                "ref:rspo": 30453,
                "official_name": "Punkt Przedszkolny \"Radosne Przedszkolaki\" w Borkach Wielkich",
                "name": "Punkt Przedszkolny \"Radosne Przedszkolaki\" w Borkach Wielkich",
                "addr:country": "PL",
                "addr:postcode": "11-300",
                "addr:place": "Borki Wielkie",
                "addr:housenumber": "35",
                "addr:teryt:sym_ul": 471484,
                "contact:phone": "+48 897161623",
                "contact:email": "borkiw@interia.pl",
                "contact:website": "http:\/\/www.borki-wielkie.schoolpage.pl\/index.html",
                "ref:regon": "281437638",
                "ref:vatin": "PL7393857125",
                "operator": "Stowarzyszenie Rozwoju Wsi Bredynki I Stanclewo",
                "operator:type": "ngo",
                "amenity": "kindergarten"
            }
        },
        {
            "id": 113838,
            "type": "Feature",
            "geometry": {
                "type": "Point",
                "coordinates": [
                    20.95916,
                    53.86094
                ]
            },
            "properties": {
                "ref:rspo": 113838,
                "official_name": "Powiatowa Biblioteka Pedagogiczna w Biskupcu",
                "name": "Powiatowa Biblioteka Pedagogiczna w Biskupcu",
                "addr:country": "PL",
                "addr:postcode": "11-300",
                "addr:city": "Biskupiec",
                "addr:street": "ul. Adama Mickiewicza",
                "addr:housenumber": "10",
                "addr:teryt:simc": 12740,
                "addr:teryt:sym_ul": 964590,
                "contact:phone": "+48 897152548",
                "contact:email": "zsbiskupiec@interia.pl",
                "ref:regon": "281489233",
                "operator": "Powiat Olszty\u0144ski",
                "operator:type": "government",
                "amenity": "library",
                "note": "Parent RSPO: 27253"
            }
        },
        {
            "id": 114497,
            "type": "Feature",
            "geometry": {
                "type": "Point",
                "coordinates": [
                    20.95859,
                    53.86135
                ]
            },
            "properties": {
                "ref:rspo": 114497,
                "official_name": "Zesp\u00f3\u0142 Szkolno-Przedszkolny Nr 1 w Biskupcu",
                "name": "Zesp\u00f3\u0142 Szkolno-Przedszkolny Nr 1 w Biskupcu",
                "addr:country": "PL",
                "addr:postcode": "11-300",
                "addr:city": "Biskupiec",
                "addr:street": "ul. Adama Mickiewicza",
                "addr:housenumber": "8",
                "addr:teryt:simc": 12740,
                "addr:teryt:sym_ul": 964590,
                "contact:phone": "+48 897152549",
                "contact:email": "sp2@biskupiec.pl",
                "contact:website": "https:\/\/sp2biskupiec.edupage.org\/",
                "ref:regon": "281496701",
                "ref:vatin": "PL7393862600",
                "operator": "Gmina Biskupiec",
                "operator:type": "government",
                "landuse": "education",
                "fixme": "amenity=school, amenity=college albo landuse=education w zale\u017cno\u015bci od tego, jakie plac\u00f3wki wchodz\u0105 w sk\u0142ad zespo\u0142u. Sprawd\u017a, kiedy stosowa\u0107 amenity=* a kiedy landuse=education.",
                "note": "Children RSPO: 20420;30641"
            }
        },
        {
            "id": 20420,
            "type": "Feature",
            "geometry": {
                "type": "Point",
                "coordinates": [
                    20.95859,
                    53.86132
                ]
            },
            "properties": {
                "isced:level": "1;2",
                "ref:rspo": 20420,
                "official_name": "Szko\u0142a Podstawowa Nr 2 im. Mjr. Henryka Dobrza\u0144skiego Pseud. \"Hubal\" w Biskupcu",
                "name": "Szko\u0142a Podstawowa Nr 2",
                "addr:country": "PL",
                "addr:postcode": "11-300",
                "addr:city": "Biskupiec",
                "addr:street": "ul. Adama Mickiewicza",
                "addr:housenumber": "8",
                "addr:teryt:simc": 12740,
                "addr:teryt:sym_ul": 964590,
                "contact:phone": "+48 897152549",
                "contact:email": "sp2@biskupiec.pl",
                "contact:website": "https:\/\/sp2biskupiec.edupage.org\/",
                "ref:regon": "000707544",
                "ref:vatin": "PL7393655255",
                "operator": "Gmina Biskupiec",
                "operator:type": "government",
                "amenity": "school",
                "note": "Parent RSPO: 114497"
            }
        },
        {
            "id": 25625,
            "type": "Feature",
            "geometry": {
                "type": "Point",
                "coordinates": [
                    20.95513,
                    53.8618
                ]
            },
            "properties": {
                "ref:rspo": 25625,
                "official_name": "Niepubliczne Przedszkole \"Jacek I Agatka\" Katarzyna Kotecka",
                "name": "Niepubliczne Przedszkole \"Jacek I Agatka\" Katarzyna Kotecka",
                "addr:country": "PL",
                "addr:postcode": "11-300",
                "addr:city": "Biskupiec",
                "addr:street": "ul. Pozna\u0144ska",
                "addr:housenumber": "3",
                "addr:teryt:simc": 17394,
                "addr:teryt:sym_ul": 964590,
                "contact:phone": "+48 897152277",
                "contact:email": "jacekiagatkabiskupiec@interia.eu",
                "contact:website": "http:\/\/www.jacek-i-agatka.pl\/",
                "ref:regon": "281434522",
                "ref:vatin": "PL7391768073",
                "operator": "Katarzyna Kotecka",
                "operator:type": "private",
                "amenity": "kindergarten"
            }
        },
        {
            "id": 128845,
            "type": "Feature",
            "geometry": {
                "type": "Point",
                "coordinates": [
                    20.94551,
                    53.86188
                ]
            },
            "properties": {
                "ref:rspo": 128845,
                "official_name": "Niepubliczny Zesp\u00f3\u0142 Szkolno-Przedszkolny w Biskupcu",
                "name": "Niepubliczny Zesp\u00f3\u0142 Szkolno-Przedszkolny w Biskupcu",
                "addr:country": "PL",
                "addr:postcode": "11-300",
                "addr:city": "Biskupiec",
                "addr:street": "ul. Ludowa",
                "addr:housenumber": "5",
                "addr:teryt:simc": 11383,
                "addr:teryt:sym_ul": 964590,
                "contact:phone": "+48 665510600",
                "contact:email": "nzsp.biskupiec@wp.pl",
                "contact:website": "https:\/\/nspbiskupiec.edupage.org",
                "ref:regon": "362401750",
                "ref:vatin": "PL7391808200",
                "operator": "Krzysztof Dembowski",
                "operator:type": "private",
                "landuse": "education",
                "fixme": "amenity=school, amenity=college albo landuse=education w zale\u017cno\u015bci od tego, jakie plac\u00f3wki wchodz\u0105 w sk\u0142ad zespo\u0142u. Sprawd\u017a, kiedy stosowa\u0107 amenity=* a kiedy landuse=education.",
                "note": "Children RSPO: 115362;115363"
            }
        },
        {
            "id": 121622,
            "type": "Feature",
            "geometry": {
                "type": "Point",
                "coordinates": [
                    20.94551,
                    53.86185
                ]
            },
            "properties": {
                "ref:rspo": 121622,
                "official_name": "Samorz\u0105dowa Szko\u0142a Muzyczna I Stopnia w Dywitach w Powiecie Olszty\u0144skim Filia w Biskupcu",
                "name": "Samorz\u0105dowa Szko\u0142a Muzyczna I Stopnia w Dywitach w Powiecie Olszty\u0144skim Filia w Biskupcu",
                "addr:country": "PL",
                "addr:postcode": "11-300",
                "addr:city": "Biskupiec",
                "addr:street": "ul. Ludowa",
                "addr:housenumber": "5",
                "addr:teryt:simc": 11383,
                "addr:teryt:sym_ul": 964590,
                "contact:phone": "+48 790510046",
                "contact:email": "biskupiec@psmdywity.org",
                "ref:regon": "280535735",
                "ref:vatin": "PL7393801142",
                "operator": "Powiat Olszty\u0144ski",
                "operator:type": "government",
                "amenity": "music_school",
                "note": "Parent RSPO: 29337"
            }
        },
        {
            "id": 115362,
            "type": "Feature",
            "geometry": {
                "type": "Point",
                "coordinates": [
                    20.94551,
                    53.86182
                ]
            },
            "properties": {
                "ref:rspo": 115362,
                "official_name": "Niepubliczne Przedszkole \"Bajka\"",
                "name": "Niepubliczne Przedszkole \"Bajka\"",
                "addr:country": "PL",
                "addr:postcode": "11-300",
                "addr:city": "Biskupiec",
                "addr:street": "ul. Ludowa",
                "addr:housenumber": "5",
                "addr:teryt:simc": 11383,
                "addr:teryt:sym_ul": 964590,
                "contact:phone": "+48 665510600",
                "contact:email": "nzsp.biskupiec@wp.pl",
                "contact:website": "https:\/\/nspbiskupiec.edupage.org",
                "ref:regon": "281511381",
                "operator": "Krzysztof Dembowski",
                "operator:type": "private",
                "amenity": "kindergarten",
                "note": "Parent RSPO: 128845"
            }
        },
        {
            "id": 115363,
            "type": "Feature",
            "geometry": {
                "type": "Point",
                "coordinates": [
                    20.94551,
                    53.86179
                ]
            },
            "properties": {
                "isced:level": "1;2",
                "ref:rspo": 115363,
                "official_name": "Niepubliczna Szko\u0142a Podstawowa",
                "name": "Niepubliczna Szko\u0142a Podstawowa",
                "addr:country": "PL",
                "addr:postcode": "11-300",
                "addr:city": "Biskupiec",
                "addr:street": "ul. Ludowa",
                "addr:housenumber": "5",
                "addr:teryt:simc": 11383,
                "addr:teryt:sym_ul": 964590,
                "contact:phone": "+48 665510600",
                "contact:email": "nzsp.biskupiec@wp.pl",
                "contact:website": "https:\/\/nspbiskupiec.edupage.org",
                "ref:regon": "281511398",
                "operator": "Krzysztof Dembowski",
                "operator:type": "private",
                "amenity": "school",
                "note": "Parent RSPO: 128845"
            }
        },
        {
            "id": 115196,
            "type": "Feature",
            "geometry": {
                "type": "Point",
                "coordinates": [
                    20.95911,
                    53.86263
                ]
            },
            "properties": {
                "ref:rspo": 115196,
                "official_name": "Warmi\u0144sko-Mazurski Zak\u0142ad Doskonalenia Zawodowego w Olsztynie Centrum Edukacji w Biskupcu",
                "name": "Warmi\u0144sko-Mazurski Zak\u0142ad Doskonalenia Zawodowego w Olsztynie Centrum Edukacji w Biskupcu",
                "addr:country": "PL",
                "addr:postcode": "11-300",
                "addr:city": "Biskupiec",
                "addr:street": "ul. Juliusza S\u0142owackiego",
                "addr:housenumber": "12",
                "addr:teryt:simc": 20291,
                "addr:teryt:sym_ul": 964590,
                "contact:phone": "+48 897152420",
                "contact:email": "biskupiec@wmzdz.pl",
                "ref:regon": "281507468",
                "operator": "Warmi\u0144sko - Mazurski Zak\u0142ad Doskonalenia Zawodowego W Olsztynie",
                "operator:type": "ngo",
                "fixme": "w zale\u017cno\u015bci od przedmiotu dzia\u0142alno\u015bci (np. amenity=training + training=*, amenity=dancing_school, amenity=language_school, amenity=music_school)"
            }
        },
        {
            "id": 58792,
            "type": "Feature",
            "geometry": {
                "type": "Point",
                "coordinates": [
                    20.94657,
                    53.86385
                ]
            },
            "properties": {
                "ref:rspo": 58792,
                "official_name": "O\u015brodek Rehabilitacyjno - Edukacyjno - Wychowawczy w Biskupcu",
                "name": "O\u015brodek Rehabilitacyjno - Edukacyjno - Wychowawczy w Biskupcu",
                "addr:country": "PL",
                "addr:postcode": "11-300",
                "addr:city": "Biskupiec",
                "addr:street": "ul. Stanis\u0142awa \u017b\u00f3\u0142kiewskiego",
                "addr:housenumber": "17",
                "addr:teryt:simc": 26529,
                "addr:teryt:sym_ul": 964590,
                "contact:phone": "+48 896764201",
                "contact:email": "kontakt@psonibiskupiec.pl",
                "contact:website": "http:\/\/www.psouubiskupiec.pl",
                "ref:regon": "281441367",
                "operator": "Polskie Stowarzyszenie Na Rzecz Os\u00f3b Z Niepe\u0142nosprawno\u015bci\u0105 Intelektualn\u0105 Ko\u0142o W Biskupcu",
                "operator:type": "ngo",
                "amenity": "school"
            }
        },
        {
            "id": 277035,
            "type": "Feature",
            "geometry": {
                "type": "Point",
                "coordinates": [
                    20.94657,
                    53.86382
                ]
            },
            "properties": {
                "isced:level": "1;2",
                "ref:rspo": 277035,
                "official_name": "Niepubliczna Szko\u0142a Podstawowa Specjalna w Biskupcu",
                "name": "Niepubliczna Szko\u0142a Podstawowa Specjalna w Biskupcu",
                "addr:country": "PL",
                "addr:postcode": "11-300",
                "addr:city": "Biskupiec",
                "addr:street": "ul. Stanis\u0142awa \u017b\u00f3\u0142kiewskiego",
                "addr:housenumber": "17",
                "addr:teryt:simc": 26529,
                "addr:teryt:sym_ul": 964590,
                "contact:phone": "+48 895065060",
                "contact:email": "kontakt@psonibiskupiec.pl",
                "contact:website": "http:\/\/www.psonibiskupiec.pl",
                "ref:regon": "388060100",
                "operator": "Polskie Stowarzyszenie Na Rzecz Os\u00f3b Z Niepe\u0142nosprawno\u015bci\u0105 Intelektualn\u0105 Ko\u0142o W Biskupcu",
                "operator:type": "ngo",
                "amenity": "school"
            }
        },
        {
            "id": 277036,
            "type": "Feature",
            "geometry": {
                "type": "Point",
                "coordinates": [
                    20.94657,
                    53.86379
                ]
            },
            "properties": {
                "ref:rspo": 277036,
                "official_name": "Niepubliczna Szko\u0142a Specjalna Przysposabiaj\u0105ca Do Pracy w Biskupcu",
                "name": "Niepubliczna Szko\u0142a Specjalna Przysposabiaj\u0105ca Do Pracy w Biskupcu",
                "addr:country": "PL",
                "addr:postcode": "11-300",
                "addr:city": "Biskupiec",
                "addr:street": "ul. Stanis\u0142awa \u017b\u00f3\u0142kiewskiego",
                "addr:housenumber": "17",
                "addr:teryt:simc": 26529,
                "addr:teryt:sym_ul": 964590,
                "contact:phone": "+48 895065060",
                "contact:email": "kontakt@psonibiskupiec.pl",
                "contact:website": "http:\/\/www.psonibiskupiec.pl",
                "ref:regon": "388060033",
                "operator": "Polskie Stowarzyszenie Na Rzecz Os\u00f3b Z Niepe\u0142nosprawno\u015bci\u0105 Intelektualn\u0105 Ko\u0142o W Biskupcu",
                "operator:type": "ngo",
                "amenity": "school"
            }
        },
        {
            "id": 30658,
            "type": "Feature",
            "geometry": {
                "type": "Point",
                "coordinates": [
                    20.95979,
                    53.86472
                ]
            },
            "properties": {
                "isced:level": "1;2",
                "ref:rspo": 30658,
                "official_name": "Szko\u0142a Podstawowa Nr 3 im. Or\u0142a Bia\u0142ego w Biskupcu",
                "name": "Szko\u0142a Podstawowa Nr 3",
                "addr:country": "PL",
                "addr:postcode": "11-300",
                "addr:city": "Biskupiec",
                "addr:street": "ul. Boles\u0142awa Chrobrego",
                "addr:housenumber": "15",
                "addr:teryt:simc": 1742,
                "addr:teryt:sym_ul": 964590,
                "contact:phone": "+48 897152716",
                "contact:email": "sp3@biskupiec.pl",
                "contact:website": "http:\/\/sp3biskupiec.edupage.org",
                "ref:regon": "000707550",
                "ref:vatin": "PL7393655203",
                "operator": "Gmina Biskupiec",
                "operator:type": "government",
                "amenity": "school"
            }
        },
        {
            "id": 27253,
            "type": "Feature",
            "geometry": {
                "type": "Point",
                "coordinates": [
                    20.9589,
                    53.86477
                ]
            },
            "properties": {
                "ref:rspo": 27253,
                "official_name": "Zesp\u00f3\u0142 Szk\u00f3\u0142 w Biskupcu",
                "name": "Zesp\u00f3\u0142 Szk\u00f3\u0142 w Biskupcu",
                "addr:country": "PL",
                "addr:postcode": "11-300",
                "addr:city": "Biskupiec",
                "addr:street": "ul. Boles\u0142awa Chrobrego",
                "addr:housenumber": "13",
                "addr:teryt:simc": 1742,
                "addr:teryt:sym_ul": 964590,
                "contact:phone": "+48 897152189",
                "contact:email": "zsbiskupiec@interia.pl",
                "contact:website": "http:\/\/www.zslo.net.pl",
                "ref:regon": "510907538",
                "operator": "Powiat Olszty\u0144ski",
                "operator:type": "government",
                "landuse": "education",
                "fixme": "amenity=school, amenity=college albo landuse=education w zale\u017cno\u015bci od tego, jakie plac\u00f3wki wchodz\u0105 w sk\u0142ad zespo\u0142u. Sprawd\u017a, kiedy stosowa\u0107 amenity=* a kiedy landuse=education.",
                "note": "Children RSPO: 72960;72961;72963;75347;113838;119706"
            }
        },
        {
            "id": 72960,
            "type": "Feature",
            "geometry": {
                "type": "Point",
                "coordinates": [
                    20.9589,
                    53.86474
                ]
            },
            "properties": {
                "isced:level": "3",
                "ref:rspo": 72960,
                "official_name": "Bran\u017cowa Szko\u0142a I Stopnia w Biskupcu",
                "name": "Bran\u017cowa Szko\u0142a I Stopnia w Biskupcu",
                "addr:country": "PL",
                "addr:postcode": "11-300",
                "addr:city": "Biskupiec",
                "addr:street": "ul. Boles\u0142awa Chrobrego",
                "addr:housenumber": "13",
                "addr:teryt:simc": 1742,
                "addr:teryt:sym_ul": 964590,
                "contact:phone": "+48 897152189",
                "contact:email": "zsbiskupiec@interia.pl",
                "contact:website": "http:\/\/www.zslo.net.pl",
                "ref:regon": "519453820",
                "operator": "Powiat Olszty\u0144ski",
                "operator:type": "government",
                "amenity": "school",
                "note": "Parent RSPO: 27253"
            }
        },
        {
            "id": 72961,
            "type": "Feature",
            "geometry": {
                "type": "Point",
                "coordinates": [
                    20.9589,
                    53.86471
                ]
            },
            "properties": {
                "isced:level": "3",
                "ref:rspo": 72961,
                "official_name": "Ii Liceum Og\u00f3lnokszta\u0142c\u0105ce dla Doros\u0142ych w Biskupcu",
                "name": "Ii Liceum Og\u00f3lnokszta\u0142c\u0105ce dla Doros\u0142ych w Biskupcu",
                "addr:country": "PL",
                "addr:postcode": "11-300",
                "addr:city": "Biskupiec",
                "addr:street": "ul. Boles\u0142awa Chrobrego",
                "addr:housenumber": "13",
                "addr:teryt:simc": 1742,
                "addr:teryt:sym_ul": 964590,
                "contact:phone": "+48 897152189",
                "contact:email": "zsbiskupiec@interia.pl",
                "contact:website": "http:\/\/www.zslo.net.pl",
                "ref:regon": "281343564",
                "operator": "Powiat Olszty\u0144ski",
                "operator:type": "government",
                "amenity": "school",
                "note": "Parent RSPO: 27253"
            }
        },
        {
            "id": 72963,
            "type": "Feature",
            "geometry": {
                "type": "Point",
                "coordinates": [
                    20.9589,
                    53.86468
                ]
            },
            "properties": {
                "ref:rspo": 72963,
                "official_name": "Szkolne Schronisko M\u0142odzie\u017cowe w Biskupcu",
                "name": "Szkolne Schronisko M\u0142odzie\u017cowe w Biskupcu",
                "addr:country": "PL",
                "addr:postcode": "11-300",
                "addr:city": "Biskupiec",
                "addr:street": "ul. Boles\u0142awa Chrobrego",
                "addr:housenumber": "13",
                "addr:teryt:simc": 1742,
                "addr:teryt:sym_ul": 964590,
                "contact:phone": "+48 897152189",
                "contact:email": "zsbiskupiec@interia.pl",
                "contact:website": "http:\/\/www.zslo.net.pl",
                "ref:regon": "280546294",
                "operator": "Powiat Olszty\u0144ski",
                "operator:type": "government",
                "tourism": "hostel",
                "note": "Parent RSPO: 27253"
            }
        },
        {
            "id": 75347,
            "type": "Feature",
            "geometry": {
                "type": "Point",
                "coordinates": [
                    20.9589,
                    53.86465
                ]
            },
            "properties": {
                "isced:level": "3",
                "ref:rspo": 75347,
                "official_name": "Liceum Og\u00f3lnokszta\u0142c\u0105ce im. Komisji Edukacji Narodowej w Biskupcu",
                "name": "Liceum Og\u00f3lnokszta\u0142c\u0105ce",
                "addr:country": "PL",
                "addr:postcode": "11-300",
                "addr:city": "Biskupiec",
                "addr:street": "ul. Boles\u0142awa Chrobrego",
                "addr:housenumber": "13",
                "addr:teryt:simc": 1742,
                "addr:teryt:sym_ul": 964590,
                "contact:phone": "+48 897152189",
                "contact:email": "zsbiskupiec@interia.pl",
                "contact:website": "http:\/\/www.zslo.net.pl",
                "ref:regon": "519453814",
                "operator": "Powiat Olszty\u0144ski",
                "operator:type": "government",
                "amenity": "school",
                "note": "Parent RSPO: 27253"
            }
        },
        {
            "id": 119706,
            "type": "Feature",
            "geometry": {
                "type": "Point",
                "coordinates": [
                    20.9589,
                    53.86462
                ]
            },
            "properties": {
                "isced:level": "3",
                "ref:rspo": 119706,
                "official_name": "Technikum w Biskupcu",
                "name": "Technikum w Biskupcu",
                "addr:country": "PL",
                "addr:postcode": "11-300",
                "addr:city": "Biskupiec",
                "addr:street": "ul. Boles\u0142awa Chrobrego",
                "addr:housenumber": "13",
                "addr:teryt:simc": 1742,
                "addr:teryt:sym_ul": 964590,
                "contact:phone": "+48 897152189",
                "contact:email": "zsbiskupiec@ineria.pl",
                "contact:website": "http:\/\/www.zslo.net.pl",
                "ref:regon": "281529085",
                "operator": "Powiat Olszty\u0144ski",
                "operator:type": "government",
                "amenity": "school",
                "note": "Parent RSPO: 27253"
            }
        },
        {
            "id": 72471,
            "type": "Feature",
            "geometry": {
                "type": "Point",
                "coordinates": [
                    20.95587,
                    53.86627
                ]
            },
            "properties": {
                "isced:level": "3",
                "ref:rspo": 72471,
                "official_name": "Katolickie Liceum Og\u00f3lnokszta\u0142c\u0105ce im. \u015aw. Jana Paw\u0142a II w Biskupcu",
                "name": "Katolickie Liceum Og\u00f3lnokszta\u0142c\u0105ce",
                "addr:country": "PL",
                "addr:postcode": "11-300",
                "addr:city": "Biskupiec",
                "addr:street": "ul. Armii Krajowej",
                "addr:housenumber": "2",
                "addr:teryt:simc": 432,
                "addr:teryt:sym_ul": 964590,
                "contact:phone": "+48 897155050",
                "contact:email": "kgs_bc@wp.pl",
                "ref:regon": "281442645",
                "operator": "Stowarzyszenie Na Rzecz Wspierania I Rozwoju O\u015bwiaty \"\u017bak\" W Biskupcu",
                "operator:type": "ngo",
                "amenity": "school"
            }
        },
        {
            "id": 30641,
            "type": "Feature",
            "geometry": {
                "type": "Point",
                "coordinates": [
                    20.95194,
                    53.86781
                ]
            },
            "properties": {
                "ref:rspo": 30641,
                "official_name": "Przedszkole Samorz\u0105dowe Nr 5 \"Pi\u0105tka\" w Biskupcu",
                "name": "Przedszkole Samorz\u0105dowe Nr 5 \"Pi\u0105tka\" w Biskupcu",
                "addr:country": "PL",
                "addr:postcode": "11-300",
                "addr:city": "Biskupiec",
                "addr:street": "al. Niepodleg\u0142o\u015bci",
                "addr:housenumber": "19",
                "addr:teryt:simc": 14199,
                "addr:teryt:sym_ul": 964590,
                "contact:phone": "+48 897152769",
                "contact:email": "sp2@biskupiec.pl",
                "contact:website": "https:\/\/ps5biskupiec.edupage.org\/",
                "ref:regon": "511347461",
                "ref:vatin": "PL7391191372",
                "operator": "Gmina Biskupiec",
                "operator:type": "government",
                "amenity": "kindergarten",
                "note": "Parent RSPO: 114497"
            }
        },
        {
            "id": 30446,
            "type": "Feature",
            "geometry": {
                "type": "Point",
                "coordinates": [
                    21.03849,
                    53.89227
                ]
            },
            "properties": {
                "ref:rspo": 30446,
                "official_name": "Punkt Przedszkolny \"S\u0142oneczko\" w Bredynkach",
                "name": "Punkt Przedszkolny \"S\u0142oneczko\" w Bredynkach",
                "addr:country": "PL",
                "addr:postcode": "11-300",
                "addr:place": "Bredynki",
                "addr:housenumber": "24",
                "addr:teryt:sym_ul": 471521,
                "contact:phone": "+48 897153974",
                "contact:email": "spbredynki@wp.pl",
                "contact:website": "http:\/\/www.spbredynki.pl\/",
                "ref:regon": "281435987",
                "operator": "Stowarzyszenie Rozwoju Wsi Bredynki I Stanclewo",
                "operator:type": "ngo",
                "amenity": "kindergarten"
            }
        },
        {
            "id": 30450,
            "type": "Feature",
            "geometry": {
                "type": "Point",
                "coordinates": [
                    21.03849,
                    53.89224
                ]
            },
            "properties": {
                "isced:level": "1;2",
                "ref:rspo": 30450,
                "official_name": "Spo\u0142eczna Szko\u0142a Podstawowa w Bredynkach",
                "name": "Spo\u0142eczna Szko\u0142a Podstawowa w Bredynkach",
                "addr:country": "PL",
                "addr:postcode": "11-300",
                "addr:place": "Bredynki",
                "addr:housenumber": "24",
                "addr:teryt:sym_ul": 471521,
                "contact:phone": "+48 897153974",
                "contact:email": "spbredynki@wp.pl",
                "contact:website": "http:\/\/www.spbredynki.pl\/",
                "ref:regon": "281438520",
                "operator": "Stowarzyszenie Rozwoju Wsi Bredynki I Stanclewo",
                "operator:type": "ngo",
                "amenity": "school"
            }
        },
        {
            "id": 52814,
            "type": "Feature",
            "geometry": {
                "type": "Point",
                "coordinates": [
                    20.9062153,
                    53.9081391
                ]
            },
            "properties": {
                "isced:level": "1;2",
                "ref:rspo": 52814,
                "official_name": "Szko\u0142a Podstawowa im. Mazurka D\u0105browskiego w Czerwonce",
                "name": "Szko\u0142a Podstawowa",
                "addr:country": "PL",
                "addr:postcode": "11-300",
                "addr:place": "Czerwonka",
                "addr:housenumber": "15",
                "addr:teryt:sym_ul": 471538,
                "contact:phone": "+48 897159924",
                "contact:email": "spc@biskupiec.pl",
                "contact:website": "https:\/\/zsczerwonka.edupage.org\/",
                "ref:regon": "001125005",
                "ref:vatin": "PL7393757381",
                "operator": "Gmina Biskupiec",
                "operator:type": "government",
                "amenity": "school"
            }
        },
        {
            "id": 52819,
            "type": "Feature",
            "geometry": {
                "type": "Point",
                "coordinates": [
                    20.97152,
                    53.91331
                ]
            },
            "properties": {
                "ref:rspo": 52819,
                "official_name": "Zesp\u00f3\u0142 Przedszkolny w W\u0119goju",
                "name": "Zesp\u00f3\u0142 Przedszkolny w W\u0119goju",
                "addr:country": "PL",
                "addr:postcode": "11-300",
                "addr:place": "W\u0119g\u00f3j",
                "addr:housenumber": "19",
                "addr:teryt:sym_ul": 471923,
                "contact:phone": "+48 516148636",
                "contact:email": "podstawowka_wegoj@interia.pl",
                "contact:website": "http:\/\/www.sspwegoj.edupage.org\/",
                "ref:regon": "281442680",
                "ref:vatin": "PL7393857438",
                "operator": "W\u0119gojskie Stowarzyszenie Edukacji Lokalnej-Cel",
                "operator:type": "ngo",
                "amenity": "kindergarten"
            }
        },
        {
            "id": 106540,
            "type": "Feature",
            "geometry": {
                "type": "Point",
                "coordinates": [
                    20.97152,
                    53.91328
                ]
            },
            "properties": {
                "isced:level": "1;2",
                "ref:rspo": 106540,
                "official_name": "Spo\u0142eczna Szko\u0142a Podstawowa w W\u0119goju",
                "name": "Spo\u0142eczna Szko\u0142a Podstawowa w W\u0119goju",
                "addr:country": "PL",
                "addr:postcode": "11-300",
                "addr:place": "W\u0119g\u00f3j",
                "addr:housenumber": "19",
                "addr:teryt:sym_ul": 471923,
                "contact:phone": "+48 516148636",
                "contact:email": "podstawowka_wegoj@interia.pl",
                "contact:website": "http:\/\/www.szkola-wegoj.szkolnastrona.pl\/",
                "ref:regon": "281462837",
                "ref:vatin": "PL7393858159",
                "operator": "W\u0119gojskie Stowarzyszenie Edukacji Lokalnej-Cel",
                "operator:type": "ngo",
                "amenity": "school"
            }
        }
    ]
}