{
    "type": "FeatureCollection",
    "features": [
        {
            "id": 77602,
            "type": "Feature",
            "geometry": {
                "type": "Point",
                "coordinates": [
                    20.57967,
                    53.6083799
                ]
            },
            "properties": {
                "ref:rspo": 77602,
                "official_name": "Zesp\u00f3\u0142 Szkolno-Przedszkolny w Butrynach",
                "name": "Zesp\u00f3\u0142 Szkolno-Przedszkolny w Butrynach",
                "addr:country": "PL",
                "addr:postcode": "10-687",
                "addr:place": "Butryny",
                "addr:housenumber": "1A",
                "addr:teryt:sym_ul": 486497,
                "contact:phone": "+48 512185870",
                "contact:email": "m.kwiatkowska@purda.pl",
                "contact:website": "http:\/\/www.zspbutryny.edupage.org",
                "ref:regon": "511400876",
                "ref:vatin": "PL7393252735",
                "operator": "Gmina Purda",
                "operator:type": "government",
                "landuse": "education",
                "fixme": "amenity=school, amenity=college albo landuse=education w zale\u017cno\u015bci od tego, jakie plac\u00f3wki wchodz\u0105 w sk\u0142ad zespo\u0142u. Sprawd\u017a, kiedy stosowa\u0107 amenity=* a kiedy landuse=education.",
                "note": "Children RSPO: 85367;85417"
            }
        },
        {
            "id": 85367,
            "type": "Feature",
            "geometry": {
                "type": "Point",
                "coordinates": [
                    20.57967,
                    53.6083499
                ]
            },
            "properties": {
                "isced:level": "1;2",
                "ref:rspo": 85367,
                "official_name": "Szko\u0142a Podstawowa im. Franciszka Barcza w Butrynach",
                "name": "Szko\u0142a Podstawowa",
                "addr:country": "PL",
                "addr:postcode": "10-687",
                "addr:place": "Butryny",
                "addr:housenumber": "1A",
                "addr:teryt:sym_ul": 486497,
                "contact:phone": "+48 509688198",
                "contact:email": "m.kwiatkowska@purda.pl",
                "contact:website": "http:\/\/www.zspbutryny,edupage.org",
                "ref:regon": "001209481",
                "ref:vatin": "PL7393252735",
                "operator": "Gmina Purda",
                "operator:type": "government",
                "amenity": "school",
                "note": "Parent RSPO: 77602"
            }
        },
        {
            "id": 85417,
            "type": "Feature",
            "geometry": {
                "type": "Point",
                "coordinates": [
                    20.57967,
                    53.608319900000005
                ]
            },
            "properties": {
                "ref:rspo": 85417,
                "official_name": "Przedszkole Samorz\u0105dowe w Butrynach",
                "name": "Przedszkole Samorz\u0105dowe w Butrynach",
                "addr:country": "PL",
                "addr:postcode": "10-687",
                "addr:place": "Butryny",
                "addr:housenumber": "1A",
                "addr:teryt:sym_ul": 486497,
                "contact:phone": "+48 509688198",
                "contact:email": "m.kwiatkowska@purda.pl",
                "contact:website": "http:\/\/www.zspbutryny.edupage.org",
                "ref:regon": "280007611",
                "ref:vatin": "PL7393252735",
                "operator": "Gmina Purda",
                "operator:type": "government",
                "amenity": "kindergarten",
                "note": "Parent RSPO: 77602"
            }
        },
        {
            "id": 120450,
            "type": "Feature",
            "geometry": {
                "type": "Point",
                "coordinates": [
                    20.61025,
                    53.65001
                ]
            },
            "properties": {
                "isced:level": "1;2",
                "ref:rspo": 120450,
                "official_name": "Niepubliczna Szko\u0142a Podstawowa w Nowej Wsi",
                "name": "Niepubliczna Szko\u0142a Podstawowa w Nowej Wsi",
                "addr:country": "PL",
                "addr:postcode": "11-030",
                "addr:place": "Nowa Wie\u015b",
                "addr:housenumber": "7",
                "addr:teryt:sym_ul": 486675,
                "contact:phone": "+48 895133123",
                "contact:email": "sp-nowawies@wp.pl",
                "contact:website": "https:\/\/szkolanowawies.edupage.org\/",
                "ref:regon": "281535938",
                "operator": "Stowarzyszenie Rozwoju Wsi \"Nasza Wie\u015b - Naszym Domem\"",
                "operator:type": "ngo",
                "amenity": "school"
            }
        },
        {
            "id": 48386,
            "type": "Feature",
            "geometry": {
                "type": "Point",
                "coordinates": [
                    20.61023,
                    53.65162
                ]
            },
            "properties": {
                "ref:rspo": 48386,
                "official_name": "Publiczne Przedszkole w Nowej Wsi",
                "name": "Publiczne Przedszkole w Nowej Wsi",
                "addr:country": "PL",
                "addr:postcode": "11-030",
                "addr:place": "Nowa Wie\u015b",
                "addr:housenumber": "16",
                "addr:teryt:sym_ul": 486675,
                "contact:phone": "+48 895133180",
                "contact:email": "j.lachacz@purda.pl",
                "ref:regon": "280007597",
                "ref:vatin": "PL7393844915",
                "operator": "Gmina Purda",
                "operator:type": "government",
                "amenity": "kindergarten"
            }
        },
        {
            "id": 130042,
            "type": "Feature",
            "geometry": {
                "type": "Point",
                "coordinates": [
                    20.70244,
                    53.70839
                ]
            },
            "properties": {
                "ref:rspo": 130042,
                "official_name": "Zesp\u00f3\u0142 Szkolno - Przedszkolny w Purdzie",
                "name": "Zesp\u00f3\u0142 Szkolno - Przedszkolny w Purdzie",
                "addr:country": "PL",
                "addr:postcode": "11-030",
                "addr:place": "Purda",
                "addr:housenumber": "23",
                "addr:teryt:sym_ul": 486770,
                "contact:phone": "+48 895122212",
                "contact:email": "danuta.adamowicz@gmail.com",
                "contact:website": "http:\/\/szkolawpurdzie.pl",
                "ref:regon": "363334576",
                "operator": "Gmina Purda",
                "operator:type": "government",
                "landuse": "education",
                "fixme": "amenity=school, amenity=college albo landuse=education w zale\u017cno\u015bci od tego, jakie plac\u00f3wki wchodz\u0105 w sk\u0142ad zespo\u0142u. Sprawd\u017a, kiedy stosowa\u0107 amenity=* a kiedy landuse=education.",
                "note": "Children RSPO: 47119;77609"
            }
        },
        {
            "id": 47119,
            "type": "Feature",
            "geometry": {
                "type": "Point",
                "coordinates": [
                    20.70244,
                    53.70836
                ]
            },
            "properties": {
                "isced:level": "1;2",
                "ref:rspo": 47119,
                "official_name": "Szko\u0142a Podstawowa im. Tadeusza Peza\u0142y",
                "name": "Szko\u0142a Podstawowa",
                "addr:country": "PL",
                "addr:postcode": "11-030",
                "addr:place": "Purda",
                "addr:housenumber": "23",
                "addr:teryt:sym_ul": 486770,
                "contact:phone": "+48 895122212",
                "contact:email": "d.adamowicz@purda.pl",
                "contact:website": "http:\/\/szkolawpurdzie.pl",
                "ref:regon": "000594790",
                "ref:vatin": "PL7393252681",
                "operator": "Gmina Purda",
                "operator:type": "government",
                "amenity": "school",
                "note": "Parent RSPO: 130042"
            }
        },
        {
            "id": 77609,
            "type": "Feature",
            "geometry": {
                "type": "Point",
                "coordinates": [
                    20.70198,
                    53.70853
                ]
            },
            "properties": {
                "ref:rspo": 77609,
                "official_name": "Przedszkole w Purdzie",
                "name": "Przedszkole w Purdzie",
                "addr:country": "PL",
                "addr:postcode": "11-030",
                "addr:place": "Purda",
                "addr:housenumber": "18",
                "addr:teryt:sym_ul": 486770,
                "contact:phone": "+48 895122295",
                "contact:email": "danuta.adamowicz@gmail.com",
                "contact:website": "http:\/\/szkolawpurdzie.pl",
                "ref:regon": "511402349",
                "ref:vatin": "PL7393252669",
                "operator": "Gmina Purda",
                "operator:type": "government",
                "amenity": "kindergarten",
                "note": "Parent RSPO: 130042"
            }
        },
        {
            "id": 47975,
            "type": "Feature",
            "geometry": {
                "type": "Point",
                "coordinates": [
                    20.57558,
                    53.73618
                ]
            },
            "properties": {
                "ref:rspo": 47975,
                "official_name": "Publiczne Przedszkole \"Jarz\u0119binki\" w Klewkach",
                "name": "Publiczne Przedszkole \"Jarz\u0119binki\" w Klewkach",
                "addr:country": "PL",
                "addr:postcode": "10-687",
                "addr:place": "Klewki",
                "addr:housenumber": "13B",
                "addr:teryt:sym_ul": 486592,
                "contact:phone": "+48 895124662",
                "contact:email": "przedszkolejarzebinki@wp.pl",
                "contact:website": "http:\/\/przedszkole-klewki.edupage.org",
                "ref:regon": "511402355",
                "ref:vatin": "PL7393252729",
                "operator": "Gmina Purda",
                "operator:type": "government",
                "amenity": "kindergarten"
            }
        },
        {
            "id": 77608,
            "type": "Feature",
            "geometry": {
                "type": "Point",
                "coordinates": [
                    20.54735,
                    53.74491
                ]
            },
            "properties": {
                "isced:level": "1;2",
                "ref:rspo": 77608,
                "official_name": "Szko\u0142a Podstawowa w Szcz\u0119snem",
                "name": "Szko\u0142a Podstawowa w Szcz\u0119snem",
                "addr:country": "PL",
                "addr:postcode": "10-687",
                "addr:place": "Szcz\u0119sne",
                "addr:housenumber": "5",
                "addr:teryt:sym_ul": 486830,
                "contact:phone": "+48 895335548",
                "contact:email": "sp_szczesne@o2.pl",
                "contact:website": "http:\/\/spszczesne.edupage.org",
                "ref:regon": "001209535",
                "ref:vatin": "PL7393252758",
                "operator": "Gmina Purda",
                "operator:type": "government",
                "amenity": "school"
            }
        },
        {
            "id": 77601,
            "type": "Feature",
            "geometry": {
                "type": "Point",
                "coordinates": [
                    20.6005499,
                    53.75304
                ]
            },
            "properties": {
                "ref:rspo": 77601,
                "official_name": "Zesp\u00f3\u0142 Szkolno-Przedszkolny w Klebarku Wielkim",
                "name": "Zesp\u00f3\u0142 Szkolno-Przedszkolny w Klebarku Wielkim",
                "addr:country": "PL",
                "addr:postcode": "10-687",
                "addr:place": "Klebark Wielki",
                "addr:housenumber": "9",
                "addr:teryt:sym_ul": 486586,
                "contact:phone": "+48 666331696",
                "contact:email": "sekretariat@zspklebark.pl",
                "contact:website": "http:\/\/zspklebark.pl",
                "ref:regon": "511400853",
                "ref:vatin": "PL7393252712",
                "operator": "Gmina Purda",
                "operator:type": "government",
                "landuse": "education",
                "fixme": "amenity=school, amenity=college albo landuse=education w zale\u017cno\u015bci od tego, jakie plac\u00f3wki wchodz\u0105 w sk\u0142ad zespo\u0142u. Sprawd\u017a, kiedy stosowa\u0107 amenity=* a kiedy landuse=education.",
                "note": "Children RSPO: 85486;85771"
            }
        },
        {
            "id": 85486,
            "type": "Feature",
            "geometry": {
                "type": "Point",
                "coordinates": [
                    20.6005499,
                    53.753009999999996
                ]
            },
            "properties": {
                "isced:level": "1;2",
                "ref:rspo": 85486,
                "official_name": "Szko\u0142a Podstawowa im. Ks. Paw\u0142a Chmielewskiego w Klebarku Wielkim",
                "name": "Szko\u0142a Podstawowa",
                "addr:country": "PL",
                "addr:postcode": "10-687",
                "addr:place": "Klebark Wielki",
                "addr:housenumber": "9",
                "addr:teryt:sym_ul": 486586,
                "contact:phone": "+48 666331696",
                "contact:email": "sekretariat@zspklebark.pl",
                "contact:website": "http:\/\/zspklebark.pl",
                "ref:regon": "001209506",
                "ref:vatin": "PL7393252712",
                "operator": "Gmina Purda",
                "operator:type": "government",
                "amenity": "school",
                "note": "Parent RSPO: 77601"
            }
        },
        {
            "id": 85771,
            "type": "Feature",
            "geometry": {
                "type": "Point",
                "coordinates": [
                    20.6005499,
                    53.75298
                ]
            },
            "properties": {
                "ref:rspo": 85771,
                "official_name": "Przedszkole w Klebarku Wielkim",
                "name": "Przedszkole w Klebarku Wielkim",
                "addr:country": "PL",
                "addr:postcode": "10-687",
                "addr:place": "Klebark Wielki",
                "addr:housenumber": "9",
                "addr:teryt:sym_ul": 486586,
                "contact:phone": "+48 666331696",
                "contact:email": "sekretariat@zspklebark.pl",
                "contact:website": "http:\/\/zspklebark.pl",
                "ref:regon": "280007605",
                "ref:vatin": "PL7393252712",
                "operator": "Gmina Purda",
                "operator:type": "government",
                "amenity": "kindergarten",
                "note": "Parent RSPO: 77601"
            }
        }
    ]
}