{
    "type": "FeatureCollection",
    "features": [
        {
            "id": 266196,
            "type": "Feature",
            "geometry": {
                "type": "Point",
                "coordinates": [
                    20.41761,
                    53.6082899
                ]
            },
            "properties": {
                "ref:rspo": 266196,
                "official_name": "Polska Szko\u0142a Naturoterapii - Akademia Kszta\u0142cenia Ustawicznego Rzemios\u0142a I Przedsi\u0119biorczo\u015bci \"Naturopata\" Przy Alter Ego Inter-Pol Consulting",
                "name": "Polska Szko\u0142a Naturoterapii - Akademia Kszta\u0142cenia Ustawicznego Rzemios\u0142a I Przedsi\u0119biorczo\u015bci \"Naturopata\" Przy Alter Ego Inter-Pol Consulting",
                "addr:country": "PL",
                "addr:postcode": "11-034",
                "addr:city": "Pluski",
                "addr:street": "Jeziorna",
                "addr:housenumber": "34",
                "addr:teryt:simc": 488964,
                "addr:teryt:sym_ul": 7535,
                "contact:phone": "+48 601805111",
                "contact:email": "jmackiewicz@onet.pl",
                "ref:regon": "369350671",
                "operator": "Alter Ego Inter-Pol Consulting Jan Mackiewicz",
                "operator:type": "consortium",
                "fixme": "w zale\u017cno\u015bci od przedmiotu dzia\u0142alno\u015bci (np. amenity=training + training=*, amenity=dancing_school, amenity=language_school, amenity=music_school)"
            }
        },
        {
            "id": 266930,
            "type": "Feature",
            "geometry": {
                "type": "Point",
                "coordinates": [
                    20.417995,
                    53.6107998
                ]
            },
            "properties": {
                "isced:level": "1;2",
                "ref:rspo": 266930,
                "official_name": "Filia Szko\u0142y Podstawowej w Rusi",
                "name": "Filia Szko\u0142y Podstawowej w Rusi",
                "addr:country": "PL",
                "addr:postcode": "10-687",
                "addr:city": "Bart\u0105g",
                "addr:street": "Jeziorna",
                "addr:housenumber": "24",
                "addr:teryt:simc": 488830,
                "addr:teryt:sym_ul": 7535,
                "contact:phone": "+48 895410322",
                "ref:regon": "510890430",
                "operator": "Gmina Stawiguda",
                "operator:type": "government",
                "amenity": "school",
                "note": "Parent RSPO: 54081"
            }
        },
        {
            "id": 69501,
            "type": "Feature",
            "geometry": {
                "type": "Point",
                "coordinates": [
                    20.34155,
                    53.6171
                ]
            },
            "properties": {
                "isced:level": "1;2",
                "ref:rspo": 69501,
                "official_name": "Publiczna Szko\u0142a Podstawowa Stowarzyszenia Przyjaci\u00f3\u0142 Szk\u00f3\u0142 Katolickich im. Jana Baczewskiego w Gry\u017alinach",
                "name": "Publiczna Szko\u0142a Podstawowa Stowarzyszenia Przyjaci\u00f3\u0142 Szk\u00f3\u0142 Katolickich",
                "addr:country": "PL",
                "addr:postcode": "11-034",
                "addr:place": "Gry\u017aliny",
                "addr:housenumber": "44",
                "addr:teryt:simc": 488906,
                "contact:phone": "+48 895191860",
                "contact:email": "spgryzliny1@wp.pl",
                "ref:regon": "281441410",
                "operator": "Stowarzyszenie Przyjaci\u00f3\u0142 Szk\u00f3\u0142 Katolickich",
                "operator:type": "ngo",
                "amenity": "school"
            }
        },
        {
            "id": 69498,
            "type": "Feature",
            "geometry": {
                "type": "Point",
                "coordinates": [
                    20.39692,
                    53.65742
                ]
            },
            "properties": {
                "ref:rspo": 69498,
                "official_name": "Zesp\u00f3\u0142 Szkolno-Przedszkolny Imienia Olimpijczyk\u00f3w Polskichw Stawigudzie",
                "name": "Zesp\u00f3\u0142 Szkolno-Przedszkolny Imienia Olimpijczyk\u00f3w Polskichw Stawigudzie",
                "addr:country": "PL",
                "addr:postcode": "11-034",
                "addr:city": "Stawiguda",
                "addr:street": "Warszawska",
                "addr:housenumber": "5",
                "addr:teryt:simc": 489018,
                "addr:teryt:sym_ul": 23682,
                "contact:phone": "+48 895126221",
                "contact:email": "zspstawiguda@stawiguda.pl",
                "ref:regon": "510630663",
                "ref:vatin": "PL7393251032",
                "operator": "Gmina Stawiguda",
                "operator:type": "government",
                "landuse": "education",
                "fixme": "amenity=school, amenity=college albo landuse=education w zale\u017cno\u015bci od tego, jakie plac\u00f3wki wchodz\u0105 w sk\u0142ad zespo\u0142u. Sprawd\u017a, kiedy stosowa\u0107 amenity=* a kiedy landuse=education.",
                "note": "Children RSPO: 42967;69510"
            }
        },
        {
            "id": 42967,
            "type": "Feature",
            "geometry": {
                "type": "Point",
                "coordinates": [
                    20.39692,
                    53.65739
                ]
            },
            "properties": {
                "ref:rspo": 42967,
                "official_name": "Przedszkole w Stawigudzie",
                "name": "Przedszkole w Stawigudzie",
                "addr:country": "PL",
                "addr:postcode": "11-034",
                "addr:city": "Stawiguda",
                "addr:street": "Warszawska",
                "addr:housenumber": "5",
                "addr:teryt:simc": 489018,
                "addr:teryt:sym_ul": 23682,
                "contact:phone": "+48 895237031",
                "contact:email": "przedszkole@stawiguda.pl",
                "ref:regon": "511431546",
                "operator": "Gmina Stawiguda",
                "operator:type": "government",
                "amenity": "kindergarten",
                "note": "Parent RSPO: 69498"
            }
        },
        {
            "id": 69510,
            "type": "Feature",
            "geometry": {
                "type": "Point",
                "coordinates": [
                    20.39692,
                    53.657360000000004
                ]
            },
            "properties": {
                "isced:level": "1;2",
                "ref:rspo": 69510,
                "official_name": "Szko\u0142a Podstawowa w Stawigudzie",
                "name": "Szko\u0142a Podstawowa w Stawigudzie",
                "addr:country": "PL",
                "addr:postcode": "11-034",
                "addr:city": "Stawiguda",
                "addr:street": "Warszawska",
                "addr:housenumber": "5",
                "addr:teryt:simc": 489018,
                "addr:teryt:sym_ul": 23682,
                "contact:phone": "+48 895126221",
                "contact:email": "zspstawiguda@stawiguda.pl",
                "contact:website": "http:\/\/zspstawiguda.edupage.org",
                "ref:regon": "511431523",
                "operator": "Gmina Stawiguda",
                "operator:type": "government",
                "amenity": "school",
                "note": "Parent RSPO: 69498"
            }
        },
        {
            "id": 54081,
            "type": "Feature",
            "geometry": {
                "type": "Point",
                "coordinates": [
                    20.49135,
                    53.69237
                ]
            },
            "properties": {
                "isced:level": "1;2",
                "ref:rspo": 54081,
                "official_name": "Szko\u0142a Podstawowa Imienia 11 Listopada w Rusi",
                "name": "Szko\u0142a Podstawowa Imienia 11 Listopada w Rusi",
                "addr:country": "PL",
                "addr:postcode": "10-687",
                "addr:place": "Ru\u015b",
                "addr:housenumber": "4",
                "addr:teryt:simc": 488987,
                "contact:phone": "+48 895410322",
                "contact:email": "sprus@stawiguda.pl",
                "contact:website": "http:\/\/sprus.edupage.org",
                "ref:regon": "510890430",
                "ref:vatin": "PL7393256377",
                "operator": "Gmina Stawiguda",
                "operator:type": "government",
                "amenity": "school",
                "note": "Children RSPO: 266930"
            }
        },
        {
            "id": 42414,
            "type": "Feature",
            "geometry": {
                "type": "Point",
                "coordinates": [
                    20.46985,
                    53.71604
                ]
            },
            "properties": {
                "ref:rspo": 42414,
                "official_name": "Przedszkole w Bart\u0105gu",
                "name": "Przedszkole w Bart\u0105gu",
                "addr:country": "PL",
                "addr:postcode": "10-687",
                "addr:city": "Bart\u0105g",
                "addr:street": "Nad \u0141yn\u0105",
                "addr:housenumber": "57",
                "addr:teryt:simc": 488830,
                "addr:teryt:sym_ul": 13782,
                "contact:phone": "+48 895410323",
                "contact:email": "przedszkolebartag@tlen.pl",
                "ref:regon": "519566211",
                "operator": "Gmina Stawiguda",
                "operator:type": "government",
                "amenity": "kindergarten"
            }
        },
        {
            "id": 129253,
            "type": "Feature",
            "geometry": {
                "type": "Point",
                "coordinates": [
                    20.50538,
                    53.71949
                ]
            },
            "properties": {
                "ref:rspo": 129253,
                "official_name": "Przedszkole Niepubliczne Dom Rozwoju Malucha Promyczek",
                "name": "Przedszkole Niepubliczne Dom Rozwoju Malucha Promyczek",
                "addr:country": "PL",
                "addr:postcode": "10-687",
                "addr:place": "Bart\u0105g",
                "addr:housenumber": "98",
                "addr:teryt:simc": 488830,
                "contact:phone": "+48 664229770",
                "contact:email": "kontakt@zlobek-przedszkole.pl",
                "contact:website": "http:\/\/www.zlobek-przedszkole.pl",
                "ref:regon": "362527095",
                "ref:vatin": "PL7393466531",
                "operator": "Hanna Wasiak",
                "operator:type": "private",
                "amenity": "kindergarten"
            }
        },
        {
            "id": 42383,
            "type": "Feature",
            "geometry": {
                "type": "Point",
                "coordinates": [
                    20.47053,
                    53.72809
                ]
            },
            "properties": {
                "ref:rspo": 42383,
                "official_name": "Przedszkole Niepubliczne \"Bajka\"",
                "name": "Przedszkole Niepubliczne \"Bajka\"",
                "addr:country": "PL",
                "addr:postcode": "10-687",
                "addr:city": "Jaroty",
                "addr:street": "Stawigudzka",
                "addr:housenumber": "8C",
                "addr:door": "B",
                "addr:teryt:simc": 488929,
                "addr:teryt:sym_ul": 39821,
                "contact:phone": "+48 515691351",
                "ref:regon": "281437236",
                "operator": "Andrzej Czapczuk",
                "operator:type": "private",
                "amenity": "kindergarten"
            }
        },
        {
            "id": 273057,
            "type": "Feature",
            "geometry": {
                "type": "Point",
                "coordinates": [
                    20.47056,
                    53.72811
                ]
            },
            "properties": {
                "ref:rspo": 273057,
                "official_name": "Publiczne Przedszkole Bajka",
                "name": "Publiczne Przedszkole Bajka",
                "addr:country": "PL",
                "addr:postcode": "10-687",
                "addr:city": "Jaroty",
                "addr:street": "Stawigudzka",
                "addr:housenumber": "18",
                "addr:teryt:simc": 488929,
                "addr:teryt:sym_ul": 39821,
                "contact:phone": "+48 536100663",
                "contact:email": "przedszkole@bajka-olsztyn.pl",
                "ref:regon": "384361921",
                "operator": "Andrzej Czapczuk",
                "operator:type": "private",
                "amenity": "kindergarten"
            }
        }
    ]
}