{
    "type": "FeatureCollection",
    "features": [
        {
            "id": 56460,
            "type": "Feature",
            "geometry": {
                "type": "Point",
                "coordinates": [
                    20.50734,
                    53.82171
                ]
            },
            "properties": {
                "ref:rspo": 56460,
                "official_name": "Przedszkole Samorz\u0105dowe \"Juniorek\" w Kie\u017alinach",
                "name": "Przedszkole Samorz\u0105dowe \"Juniorek\" w Kie\u017alinach",
                "addr:postcode": "10-371",
                "addr:city": "Kie\u017aliny",
                "addr:street": "Ksi\u0119dza Jakuba Jaga\u0142\u0142y",
                "addr:housenumber": "3",
                "addr:teryt:simc": 473000,
                "addr:teryt:sym_ul": 31956,
                "phone": "+48 895135158",
                "email": "pskiezliny@o2.pl",
                "website": "http:\/\/www.pskjuniorek.szkolnastrona.pl",
                "ref:regon": "510633791",
                "ref:vatin": "PL7393659187",
                "operator": "Gmina Dywity",
                "operator:type": "government",
                "amenity": "kindergarten"
            }
        },
        {
            "id": 56459,
            "type": "Feature",
            "geometry": {
                "type": "Point",
                "coordinates": [
                    20.47813,
                    53.83469
                ]
            },
            "properties": {
                "ref:rspo": 56459,
                "official_name": "Przedszkole Samorz\u0105dowe Nr 1 w Dywitach",
                "name": "Przedszkole Samorz\u0105dowe Nr 1 w Dywitach",
                "addr:postcode": "11-001",
                "addr:city": "Dywity",
                "addr:street": "Jana Paw\u0142a II",
                "addr:housenumber": "6",
                "addr:teryt:simc": 472963,
                "addr:teryt:sym_ul": 7123,
                "phone": "+48 895120119",
                "email": "psdywity@op.pl",
                "website": "http:\/\/www.przedszkoledywity.edupage.org",
                "ref:regon": "510633816",
                "ref:vatin": "PL7393345158",
                "operator": "Gmina Dywity",
                "operator:type": "government",
                "amenity": "kindergarten"
            }
        },
        {
            "id": 275626,
            "type": "Feature",
            "geometry": {
                "type": "Point",
                "coordinates": [
                    20.47497,
                    53.8348
                ]
            },
            "properties": {
                "ref:rspo": 275626,
                "official_name": "Niepubliczne Przedszkole \"Akademia Malucha\"",
                "name": "Niepubliczne Przedszkole \"Akademia Malucha\"",
                "addr:postcode": "11-001",
                "addr:city": "Dywity",
                "addr:street": "Olszty\u0144ska",
                "addr:housenumber": "86",
                "addr:teryt:simc": 472963,
                "addr:teryt:sym_ul": 15016,
                "phone": "+48 512298444",
                "email": "przedszkole.aka@o2.pl",
                "ref:regon": "386928496",
                "operator": "Edu-Consulting Agnieszka Merchel-Pieczkowska",
                "operator:type": "consortium",
                "amenity": "kindergarten"
            }
        },
        {
            "id": 29337,
            "type": "Feature",
            "geometry": {
                "type": "Point",
                "coordinates": [
                    20.47828,
                    53.83609
                ]
            },
            "properties": {
                "ref:rspo": 29337,
                "official_name": "Samorz\u0105dowa Szko\u0142a Muzyczna I Stopnia w Dywitach w Powiecie Olszty\u0144skim",
                "name": "Samorz\u0105dowa Szko\u0142a Muzyczna I Stopnia w Dywitach w Powiecie Olszty\u0144skim",
                "addr:postcode": "11-001",
                "addr:city": "Dywity",
                "addr:street": "Sp\u00f3\u0142dzielcza",
                "addr:housenumber": "4",
                "addr:teryt:simc": 472963,
                "addr:teryt:sym_ul": 20696,
                "phone": "+48 895237211",
                "email": "sekretariat@psmdywity.org",
                "website": "http:\/\/www.psmdywity.org",
                "ref:regon": "280535735",
                "ref:vatin": "PL7393801142",
                "operator": "Powiat Olszty\u0144ski",
                "operator:type": "government",
                "amenity": "music_school",
                "note": "Children RSPO: 121621;121622;121646;132062"
            }
        },
        {
            "id": 63468,
            "type": "Feature",
            "geometry": {
                "type": "Point",
                "coordinates": [
                    20.47828,
                    53.836059999999996
                ]
            },
            "properties": {
                "isced:level": "1;2",
                "ref:rspo": 63468,
                "official_name": "Szko\u0142a Podstawowa im. Marii Zientary-Malewskiej Z Oddzia\u0142ami Dwuj\u0119zycznymi w Dywitach",
                "name": "Szko\u0142a Podstawowa",
                "addr:postcode": "11-001",
                "addr:city": "Dywity",
                "addr:street": "Sp\u00f3\u0142dzielcza",
                "addr:housenumber": "4",
                "addr:teryt:simc": 472963,
                "addr:teryt:sym_ul": 20696,
                "phone": "+48 895120126",
                "email": "spdywity@o2.pl",
                "website": "http:\/\/www.spdywity.edu.pl",
                "ref:regon": "000586721",
                "ref:vatin": "PL7393649148",
                "operator": "Gmina Dywity",
                "operator:type": "government",
                "amenity": "school"
            }
        },
        {
            "id": 267931,
            "type": "Feature",
            "geometry": {
                "type": "Point",
                "coordinates": [
                    20.47828,
                    53.83603
                ]
            },
            "properties": {
                "ref:rspo": 267931,
                "official_name": "Przedszkole Samorz\u0105dowe Nr 2 w Dywitach",
                "name": "Przedszkole Samorz\u0105dowe Nr 2 w Dywitach",
                "addr:postcode": "11-001",
                "addr:city": "Dywity",
                "addr:street": "Sp\u00f3\u0142dzielcza",
                "addr:housenumber": "4",
                "addr:teryt:simc": 472963,
                "addr:teryt:sym_ul": 20696,
                "phone": "+48 797165338",
                "email": "psdywity.2@o2.pl",
                "website": "http:\/\/ps2dywity.edupage.org",
                "ref:regon": "380760370",
                "ref:vatin": "PL7393917637",
                "operator": "Gmina Dywity",
                "operator:type": "government",
                "amenity": "kindergarten"
            }
        },
        {
            "id": 52739,
            "type": "Feature",
            "geometry": {
                "type": "Point",
                "coordinates": [
                    20.53712,
                    53.84372
                ]
            },
            "properties": {
                "isced:level": "1;2",
                "ref:rspo": 52739,
                "official_name": "Niepubliczna Szko\u0142a Podstawowa w S\u0142upach",
                "name": "Niepubliczna Szko\u0142a Podstawowa w S\u0142upach",
                "addr:postcode": "10-381",
                "addr:place": "S\u0142upy",
                "addr:housenumber": "43",
                "addr:teryt:simc": 473081,
                "phone": "+48 895135599",
                "email": "srwsio.slupy@wp.pl",
                "website": "http:\/\/www.naszaszkolaslupy.pl",
                "ref:regon": "281492873",
                "operator": "Stowarzyszenie Rozwoju Wsi S\u0142upy I Okolic",
                "operator:type": "ngo",
                "amenity": "school"
            }
        },
        {
            "id": 56461,
            "type": "Feature",
            "geometry": {
                "type": "Point",
                "coordinates": [
                    20.53712,
                    53.843689999999995
                ]
            },
            "properties": {
                "ref:rspo": 56461,
                "official_name": "Przedszkole Samorz\u0105dowe w S\u0142upach",
                "name": "Przedszkole Samorz\u0105dowe w S\u0142upach",
                "addr:postcode": "10-381",
                "addr:place": "S\u0142upy",
                "addr:housenumber": "43",
                "addr:teryt:simc": 473081,
                "phone": "+48 895135077",
                "email": "przedszkole.slupy@gmail.com",
                "website": "http:\/\/www.przedszkoleslupy.edupage.org",
                "ref:regon": "510633800",
                "ref:vatin": "PL7393658733",
                "operator": "Gmina Dywity",
                "operator:type": "government",
                "amenity": "kindergarten"
            }
        },
        {
            "id": 52717,
            "type": "Feature",
            "geometry": {
                "type": "Point",
                "coordinates": [
                    20.50809,
                    53.85952
                ]
            },
            "properties": {
                "ref:rspo": 52717,
                "official_name": "Niepubliczne Przedszkole \"Mali Odkrywcy\" Anita K\u0119dzierska",
                "name": "Niepubliczne Przedszkole \"Mali Odkrywcy\" Anita K\u0119dzierska",
                "addr:postcode": "11-001",
                "addr:place": "R\u00f3\u017cnowo",
                "addr:housenumber": "766",
                "addr:teryt:simc": 473069,
                "phone": "+48 506171325",
                "email": "biuro@przedszkole-mali-odkrywcy.pl",
                "website": "http:\/\/www.przedszkole-mali-odkrywcy.pl",
                "ref:regon": "281447217",
                "ref:vatin": "PL1250892135",
                "operator": "Anita K\u0119dzierska",
                "operator:type": "private",
                "amenity": "kindergarten"
            }
        },
        {
            "id": 56458,
            "type": "Feature",
            "geometry": {
                "type": "Point",
                "coordinates": [
                    20.4392,
                    53.87528
                ]
            },
            "properties": {
                "isced:level": "1;2",
                "ref:rspo": 56458,
                "official_name": "Szko\u0142a Podstawowa im. Ks. Walentego Barczewskiego w Spr\u0119cowie",
                "name": "Szko\u0142a Podstawowa",
                "addr:postcode": "11-001",
                "addr:place": "Spr\u0119cowo",
                "addr:housenumber": "2",
                "addr:teryt:simc": 473106,
                "phone": "+48 895120027",
                "email": "szkola.sprecowo@op.pl",
                "website": "http:\/\/www.szkola.sprecowo.pl",
                "ref:regon": "001125726",
                "ref:vatin": "PL7393336449",
                "operator": "Gmina Dywity",
                "operator:type": "government",
                "amenity": "school"
            }
        },
        {
            "id": 126243,
            "type": "Feature",
            "geometry": {
                "type": "Point",
                "coordinates": [
                    20.4392,
                    53.875249999999994
                ]
            },
            "properties": {
                "ref:rspo": 126243,
                "official_name": "Niepubliczne Przedszkole Integracyjne \"Akademia Malucha\"",
                "name": "Niepubliczne Przedszkole Integracyjne \"Akademia Malucha\"",
                "addr:postcode": "11-001",
                "addr:place": "Spr\u0119cowo",
                "addr:housenumber": "2",
                "addr:teryt:simc": 473106,
                "phone": "+48 512298444",
                "email": "a.pieczkowska@o2.pl",
                "ref:regon": "360198368",
                "operator": "Edu-Consulting Agnieszka Merchel-Pieczkowska",
                "operator:type": "consortium",
                "amenity": "kindergarten"
            }
        },
        {
            "id": 56457,
            "type": "Feature",
            "geometry": {
                "type": "Point",
                "coordinates": [
                    20.35657,
                    53.87799
                ]
            },
            "properties": {
                "isced:level": "1;2",
                "ref:rspo": 56457,
                "official_name": "Szko\u0142a Podstawowa w Bukwa\u0142dzie",
                "name": "Szko\u0142a Podstawowa w Bukwa\u0142dzie",
                "addr:postcode": "11-001",
                "addr:place": "Bukwa\u0142d",
                "addr:housenumber": "39",
                "addr:teryt:simc": 472911,
                "phone": "+48 895140763",
                "email": "spbukwald@interia.pl",
                "website": "http:\/\/www.spbukwald.edu.pl",
                "ref:regon": "001125695",
                "ref:vatin": "PL7393338572",
                "operator": "Gmina Dywity",
                "operator:type": "government",
                "amenity": "school"
            }
        },
        {
            "id": 115197,
            "type": "Feature",
            "geometry": {
                "type": "Point",
                "coordinates": [
                    20.5715,
                    53.89652
                ]
            },
            "properties": {
                "ref:rspo": 115197,
                "official_name": "Centrum Us\u0142ug Kadrowych I Bhp Wies\u0142aw Wygonny",
                "name": "Centrum Us\u0142ug Kadrowych I Bhp Wies\u0142aw Wygonny",
                "addr:postcode": "11-001",
                "addr:place": "Tu\u0142awki",
                "addr:housenumber": "15",
                "addr:door": "6",
                "addr:teryt:simc": 473112,
                "phone": "+48 895270770",
                "email": "cukibhp.olsztyn@gmail.com",
                "ref:regon": "281507497",
                "operator": "Centrum Us\u0142ug Kadrowych I Bhp Wies\u0142aw Wygonny",
                "operator:type": "consortium",
                "fixme": "w zale\u017cno\u015bci od przedmiotu dzia\u0142alno\u015bci (np. amenity=training + training=*, amenity=dancing_school, amenity=language_school, amenity=music_school)"
            }
        },
        {
            "id": 64651,
            "type": "Feature",
            "geometry": {
                "type": "Point",
                "coordinates": [
                    20.57342,
                    53.90187
                ]
            },
            "properties": {
                "isced:level": "1;2",
                "ref:rspo": 64651,
                "official_name": "Szko\u0142a Podstawowa w Tu\u0142awkach",
                "name": "Szko\u0142a Podstawowa w Tu\u0142awkach",
                "addr:postcode": "11-001",
                "addr:place": "Tu\u0142awki",
                "addr:housenumber": "31",
                "addr:teryt:simc": 473112,
                "phone": "+48 895130226",
                "email": "zstulawki@tlen.pl",
                "website": "http:\/\/www.zstulawki.ehost.pl",
                "ref:regon": "001125732",
                "ref:vatin": "PL7393341462",
                "operator": "Gmina Dywity",
                "operator:type": "government",
                "amenity": "school",
                "note": "Children RSPO: 115259"
            }
        },
        {
            "id": 115259,
            "type": "Feature",
            "geometry": {
                "type": "Point",
                "coordinates": [
                    20.59715,
                    53.93164
                ]
            },
            "properties": {
                "isced:level": "1;2",
                "ref:rspo": 115259,
                "official_name": "Szko\u0142a Podstawowa w Tu\u0142awkach Filia we Fr\u0105czkach",
                "name": "Szko\u0142a Podstawowa w Tu\u0142awkach Filia we Fr\u0105czkach",
                "addr:postcode": "11-001",
                "addr:place": "Fr\u0105czki",
                "addr:housenumber": "4",
                "addr:teryt:simc": 472970,
                "phone": "+48 895130296",
                "email": "zstulawki@tlen.pl",
                "ref:regon": "112573200",
                "operator": "Gmina Dywity",
                "operator:type": "government",
                "amenity": "school",
                "note": "Parent RSPO: 64651"
            }
        }
    ]
}