{
    "type": "FeatureCollection",
    "features": [
        {
            "id": 66099,
            "type": "Feature",
            "geometry": {
                "type": "Point",
                "coordinates": [
                    20.94689,
                    53.96353
                ]
            },
            "properties": {
                "ref:rspo": 66099,
                "official_name": "Publiczny Specjalny Katolicki O\u015brodek Edukacyjno \u2013 Wychowawczy w Kruzach",
                "name": "Publiczny Specjalny Katolicki O\u015brodek Edukacyjno \u2013 Wychowawczy w Kruzach",
                "addr:country": "PL",
                "addr:postcode": "11-311",
                "addr:place": "Kruzy",
                "addr:housenumber": "18",
                "addr:teryt:sym_ul": 478434,
                "contact:phone": "+48 897163216",
                "contact:email": "pskoew.kruzy@gmail.com",
                "contact:website": "http:\/\/www.pskoewkruzy.republika.pl",
                "ref:regon": "281440942",
                "operator": "Akcja Katolicka Archidiecezji Warmi\u0144skiej",
                "operator:type": "ngo",
                "amenity": "school",
                "note": "Children RSPO: 124558;124570"
            }
        },
        {
            "id": 124558,
            "type": "Feature",
            "geometry": {
                "type": "Point",
                "coordinates": [
                    20.94689,
                    53.963499999999996
                ]
            },
            "properties": {
                "isced:level": "1;2",
                "ref:rspo": 124558,
                "official_name": "Specjalna Szko\u0142a Podstawowa dla Uczni\u00f3w Z Upo\u015bledzeniem Umys\u0142owym w Stopniu Umiarkowanym Lub Znacznym, Z Niepe\u0142nosprawno\u015bciami Sprz\u0119\u017conymi Oraz Autyzmem",
                "name": "Specjalna Szko\u0142a Podstawowa dla Uczni\u00f3w Z Upo\u015bledzeniem Umys\u0142owym w Stopniu Umiarkowanym Lub Znacznym, Z Niepe\u0142nosprawno\u015bciami Sprz\u0119\u017conymi Oraz Autyzmem",
                "addr:country": "PL",
                "addr:postcode": "11-311",
                "addr:place": "Kruzy",
                "addr:housenumber": "18",
                "addr:teryt:sym_ul": 478434,
                "contact:phone": "+48 897163216",
                "contact:email": "pskoew.kruzy@neostrada.pl",
                "ref:regon": "281621460",
                "operator": "Akcja Katolicka Archidiecezji Warmi\u0144skiej",
                "operator:type": "ngo",
                "amenity": "school",
                "note": "Parent RSPO: 66099"
            }
        },
        {
            "id": 124570,
            "type": "Feature",
            "geometry": {
                "type": "Point",
                "coordinates": [
                    20.94689,
                    53.96347
                ]
            },
            "properties": {
                "ref:rspo": 124570,
                "official_name": "Specjalna Szko\u0142a Przysposabiaj\u0105ca Do Pracy dla Uczni\u00f3w Z Upo\u015bledzeniem Umys\u0142owym w Stopniu Umiarkowanym Lub Znacznym Oraz Z Niepe\u0142nosprawno\u015bciami Sprz\u0119\u017conymi",
                "name": "Specjalna Szko\u0142a Przysposabiaj\u0105ca Do Pracy dla Uczni\u00f3w Z Upo\u015bledzeniem Umys\u0142owym w Stopniu Umiarkowanym Lub Znacznym Oraz Z Niepe\u0142nosprawno\u015bciami Sprz\u0119\u017conymi",
                "addr:country": "PL",
                "addr:postcode": "11-311",
                "addr:place": "Kruzy",
                "addr:housenumber": "18",
                "addr:teryt:sym_ul": 478434,
                "contact:phone": "+48 897163216",
                "contact:email": "pskoew.kruzy@neostrada.pl",
                "ref:regon": "281621483",
                "operator": "Akcja Katolicka Archidiecezji Warmi\u0144skiej",
                "operator:type": "ngo",
                "amenity": "school",
                "note": "Parent RSPO: 66099"
            }
        },
        {
            "id": 6387,
            "type": "Feature",
            "geometry": {
                "type": "Point",
                "coordinates": [
                    20.9931899,
                    53.9977
                ]
            },
            "properties": {
                "isced:level": "1;2",
                "ref:rspo": 6387,
                "official_name": "Szko\u0142a Podstawowa im. Jana Paw\u0142a II w Kolnie",
                "name": "Szko\u0142a Podstawowa",
                "addr:country": "PL",
                "addr:postcode": "11-311",
                "addr:place": "Kolno",
                "addr:housenumber": "27",
                "addr:teryt:sym_ul": 478411,
                "contact:phone": "+48 897163228",
                "contact:email": "kolno_gimn@wp.pl",
                "contact:website": "http:\/\/www.zskolno.pl",
                "ref:regon": "519456669",
                "ref:vatin": "PL7393456797",
                "operator": "Gmina Kolno",
                "operator:type": "government",
                "amenity": "school"
            }
        },
        {
            "id": 4654,
            "type": "Feature",
            "geometry": {
                "type": "Point",
                "coordinates": [
                    20.99271,
                    53.99786
                ]
            },
            "properties": {
                "ref:rspo": 4654,
                "official_name": "Przedszkole Samorz\u0105dowe w Kolnie",
                "name": "Przedszkole Samorz\u0105dowe w Kolnie",
                "addr:country": "PL",
                "addr:postcode": "11-311",
                "addr:place": "Kolno",
                "addr:housenumber": "29",
                "addr:teryt:sym_ul": 478411,
                "contact:phone": "+48 897163218",
                "contact:email": "przedszkole.kolno1@o2.pl",
                "ref:regon": "519631575",
                "ref:vatin": "PL7393439008",
                "operator": "Gmina Kolno",
                "operator:type": "government",
                "amenity": "kindergarten"
            }
        },
        {
            "id": 8297,
            "type": "Feature",
            "geometry": {
                "type": "Point",
                "coordinates": [
                    20.89682,
                    54.01027
                ]
            },
            "properties": {
                "ref:rspo": 8297,
                "official_name": "Niepubliczne Przedszkole w Lutrach",
                "name": "Niepubliczne Przedszkole w Lutrach",
                "addr:country": "PL",
                "addr:postcode": "11-311",
                "addr:place": "Lutry",
                "addr:housenumber": "9",
                "addr:teryt:sym_ul": 478440,
                "contact:phone": "+48 897162123",
                "contact:email": "sp_lutry@wp.pl",
                "ref:regon": "281424759",
                "operator": "Stowarzyszenie \"Centrum Kulturalno-O\u015bwiatowe W Lutrach\"",
                "operator:type": "ngo",
                "amenity": "kindergarten"
            }
        },
        {
            "id": 8265,
            "type": "Feature",
            "geometry": {
                "type": "Point",
                "coordinates": [
                    20.8967199,
                    54.01173
                ]
            },
            "properties": {
                "isced:level": "1;2",
                "ref:rspo": 8265,
                "official_name": "Niepubliczna Szko\u0142a Podstawowa w Lutrach",
                "name": "Niepubliczna Szko\u0142a Podstawowa w Lutrach",
                "addr:country": "PL",
                "addr:postcode": "11-311",
                "addr:place": "Lutry",
                "addr:housenumber": "8-9",
                "addr:teryt:sym_ul": 478440,
                "contact:phone": "+48 897162123",
                "contact:email": "sp_lutry@wp.pl",
                "ref:regon": "281424736",
                "operator": "Stowarzyszenie \"Centrum Kulturalno-O\u015bwiatowe W Lutrach\"",
                "operator:type": "ngo",
                "amenity": "school"
            }
        }
    ]
}