{
    "type": "FeatureCollection",
    "features": [
        {
            "id": 91188,
            "type": "Feature",
            "geometry": {
                "type": "Point",
                "coordinates": [
                    21.11909,
                    49.95935
                ]
            },
            "properties": {
                "ref:rspo": 91188,
                "official_name": "Przedszkole Niepubliczne Zgromadzenia Si\u00f3str S\u0142u\u017cebniczek Nmp Np Ochronka Pw. \u015aw. J\u00f3zefa w Szynwa\u0142dzie",
                "name": "Przedszkole Niepubliczne Zgromadzenia Si\u00f3str S\u0142u\u017cebniczek Nmp Np Ochronka Pw. \u015aw. J\u00f3zefa w Szynwa\u0142dzie",
                "addr:postcode": "33-158",
                "addr:place": "Szynwa\u0142d",
                "addr:housenumber": "367",
                "addr:teryt:simc": 830440,
                "phone": "+48 146742003",
                "email": "ochronkaszynwald@gmail.com",
                "ref:regon": "122722931",
                "ref:vatin": "PL9930305862",
                "operator": "Zgromadzenie Si\u00f3str S\u0142u\u017cebniczek Naj\u015bwi\u0119tszej Maryi Panny Niepokalanie Pocz\u0119tej Prowincja Tarnowska",
                "operator:type": "religious",
                "amenity": "kindergarten"
            }
        },
        {
            "id": 6331,
            "type": "Feature",
            "geometry": {
                "type": "Point",
                "coordinates": [
                    21.0500599,
                    49.96701
                ]
            },
            "properties": {
                "isced:level": "1;2",
                "ref:rspo": 6331,
                "official_name": "Szko\u0142a Podstawowa im. Bohater\u00f3w Westerplatte w \u0141\u0119kawicy",
                "name": "Szko\u0142a Podstawowa",
                "addr:postcode": "33-157",
                "addr:place": "\u0141\u0119kawica",
                "addr:housenumber": "88",
                "addr:teryt:simc": 830351,
                "phone": "+48 146744003",
                "email": "splekawica@op.pl",
                "website": "http:\/\/www.splekawica.com.pl",
                "ref:regon": "001188632",
                "ref:vatin": "PL9930180426",
                "operator": "Gmina Skrzysz\u00f3w",
                "operator:type": "government",
                "amenity": "school"
            }
        },
        {
            "id": 29769,
            "type": "Feature",
            "geometry": {
                "type": "Point",
                "coordinates": [
                    21.05746,
                    49.96989
                ]
            },
            "properties": {
                "ref:rspo": 29769,
                "official_name": "Przedszkole Publiczne im. Kapitana J\u00f3zefa Budzika w \u0141\u0119kawicy",
                "name": "Przedszkole Publiczne",
                "addr:postcode": "33-157",
                "addr:place": "\u0141\u0119kawica",
                "addr:housenumber": "281A",
                "addr:teryt:simc": 830351,
                "phone": "+48 146744170",
                "email": "przedszkolakabc@gmail.com",
                "ref:regon": "851765488",
                "ref:vatin": "PL9930180337",
                "operator": "Gmina Skrzysz\u00f3w",
                "operator:type": "government",
                "amenity": "kindergarten"
            }
        },
        {
            "id": 56140,
            "type": "Feature",
            "geometry": {
                "type": "Point",
                "coordinates": [
                    21.1142,
                    49.97421
                ]
            },
            "properties": {
                "isced:level": "1;2",
                "ref:rspo": 56140,
                "official_name": "Szko\u0142a Podstawowa Nr 1 im. Armii Krajowej w Szynwa\u0142dzie",
                "name": "Szko\u0142a Podstawowa Nr 1",
                "addr:postcode": "33-158",
                "addr:place": "Szynwa\u0142d",
                "addr:housenumber": "11",
                "addr:teryt:simc": 830440,
                "phone": "+48 146742010",
                "email": "szkolaszynwald@sp1szyn.pl",
                "website": "http:\/\/www.szkolaszynwald.pl",
                "ref:regon": "852711738",
                "ref:vatin": "PL9930180395",
                "operator": "Gmina Skrzysz\u00f3w",
                "operator:type": "government",
                "amenity": "school"
            }
        },
        {
            "id": 42358,
            "type": "Feature",
            "geometry": {
                "type": "Point",
                "coordinates": [
                    21.1132,
                    49.97451
                ]
            },
            "properties": {
                "ref:rspo": 42358,
                "official_name": "Przedszkole Publiczne im. Ks. Pra\u0142ata Aleksandra Siemie\u0144skiego w Szynwa\u0142dzie",
                "name": "Przedszkole Publiczne",
                "addr:postcode": "33-158",
                "addr:place": "Szynwa\u0142d",
                "addr:housenumber": "11A",
                "addr:teryt:simc": 830440,
                "phone": "+48 146742402",
                "email": "przedszkolesz@poczta.okay.pl",
                "website": "http:\/\/www.przedszkole-szynwald.pl",
                "ref:regon": "851765471",
                "ref:vatin": "PL9930180366",
                "operator": "Gmina Skrzysz\u00f3w",
                "operator:type": "government",
                "amenity": "kindergarten"
            }
        },
        {
            "id": 6313,
            "type": "Feature",
            "geometry": {
                "type": "Point",
                "coordinates": [
                    21.0970799,
                    49.98757
                ]
            },
            "properties": {
                "isced:level": "1;2",
                "ref:rspo": 6313,
                "official_name": "Szko\u0142a Podstawowa Nr 2 im. Ks. Piotra Skargi w Skrzyszowie",
                "name": "Szko\u0142a Podstawowa Nr 2",
                "addr:postcode": "33-156",
                "addr:place": "Skrzysz\u00f3w",
                "addr:housenumber": "147A",
                "addr:teryt:simc": 830428,
                "phone": "+48 146745024",
                "email": "sp2.skrzyszow@onet.pl",
                "website": "http:\/\/www.sp2skrzyszow.pl",
                "ref:regon": "001188655",
                "ref:vatin": "PL9930180449",
                "operator": "Gmina Skrzysz\u00f3w",
                "operator:type": "government",
                "amenity": "school"
            }
        },
        {
            "id": 50361,
            "type": "Feature",
            "geometry": {
                "type": "Point",
                "coordinates": [
                    21.0575,
                    49.99603
                ]
            },
            "properties": {
                "isced:level": "1;2",
                "ref:rspo": 50361,
                "official_name": "Szko\u0142a Podstawowa Nr 1 im. Jana Paw\u0142a II w Skrzyszowie",
                "name": "Szko\u0142a Podstawowa Nr 1",
                "addr:postcode": "33-156",
                "addr:place": "Skrzysz\u00f3w",
                "addr:housenumber": "629A",
                "addr:teryt:simc": 830428,
                "phone": "+48 146745285",
                "email": "sekretariat@zsp1gsk.webd.pl",
                "website": "http:\/\/www.zsp1gskrzyszow.pl",
                "ref:regon": "852711566",
                "ref:vatin": "PL9930180389",
                "operator": "Gmina Skrzysz\u00f3w",
                "operator:type": "government",
                "amenity": "school"
            }
        },
        {
            "id": 6455,
            "type": "Feature",
            "geometry": {
                "type": "Point",
                "coordinates": [
                    21.05542,
                    49.99626
                ]
            },
            "properties": {
                "ref:rspo": 6455,
                "official_name": "Przedszkole Publiczne w Skrzyszowie",
                "name": "Przedszkole Publiczne w Skrzyszowie",
                "addr:postcode": "33-156",
                "addr:place": "Skrzysz\u00f3w",
                "addr:housenumber": "644",
                "addr:teryt:simc": 830428,
                "phone": "+48 146745599",
                "email": "przedszkolak1@data.pl",
                "website": "http:\/\/www.przedszkole-skrzyszow.eprzedszkola.pl",
                "ref:regon": "851765465",
                "ref:vatin": "PL9930180343",
                "operator": "Gmina Skrzysz\u00f3w",
                "operator:type": "government",
                "amenity": "kindergarten"
            }
        },
        {
            "id": 127176,
            "type": "Feature",
            "geometry": {
                "type": "Point",
                "coordinates": [
                    21.14404,
                    49.9983099
                ]
            },
            "properties": {
                "ref:rspo": 127176,
                "official_name": "Regionalny O\u015brodek Rewalidacyjno-Wychowawczy",
                "name": "Regionalny O\u015brodek Rewalidacyjno-Wychowawczy",
                "addr:postcode": "33-152",
                "addr:place": "Pog\u00f3rska Wola",
                "addr:housenumber": "162",
                "addr:teryt:simc": 830368,
                "phone": "+48 512702650",
                "email": "sekretariat@osrodekrewalidacji.pl",
                "website": "http:\/\/www.osrodekrewalidacji.pl",
                "ref:regon": "361161870",
                "operator": "Krzysztof Nowak",
                "operator:type": "private",
                "amenity": "school"
            }
        },
        {
            "id": 279011,
            "type": "Feature",
            "geometry": {
                "type": "Point",
                "coordinates": [
                    21.14404,
                    49.9982799
                ]
            },
            "properties": {
                "ref:rspo": 279011,
                "official_name": "Niepubliczne Przedszkole \"Smerf\" w Pog\u00f3rskiej Woli",
                "name": "Niepubliczne Przedszkole \"Smerf\" w Pog\u00f3rskiej Woli",
                "addr:postcode": "33-152",
                "addr:place": "Pog\u00f3rska Wola",
                "addr:housenumber": "162",
                "addr:teryt:simc": 830368,
                "ref:regon": "520411226",
                "operator": "Krzysztof Nowak",
                "operator:type": "private",
                "amenity": "kindergarten"
            }
        },
        {
            "id": 6346,
            "type": "Feature",
            "geometry": {
                "type": "Point",
                "coordinates": [
                    21.09433,
                    50.01318
                ]
            },
            "properties": {
                "isced:level": "1;2",
                "ref:rspo": 6346,
                "official_name": "Szko\u0142a Podstawowa im. Kornela Makuszy\u0144skiego w \u0141adnej",
                "name": "Szko\u0142a Podstawowa",
                "addr:postcode": "33-156",
                "addr:place": "\u0141adna",
                "addr:housenumber": "98B",
                "addr:teryt:simc": 830316,
                "phone": "+48 146745638",
                "email": "sp_ladna@op.pl",
                "website": "http:\/\/www.sp-ladna.pl",
                "ref:regon": "001188626",
                "ref:vatin": "PL9930180432",
                "operator": "Gmina Skrzysz\u00f3w",
                "operator:type": "government",
                "amenity": "school"
            }
        },
        {
            "id": 34416,
            "type": "Feature",
            "geometry": {
                "type": "Point",
                "coordinates": [
                    21.15426,
                    50.01429
                ]
            },
            "properties": {
                "ref:rspo": 34416,
                "official_name": "Przedszkole Publiczne w Pog\u00f3rskiej Woli",
                "name": "Przedszkole Publiczne w Pog\u00f3rskiej Woli",
                "addr:postcode": "33-152",
                "addr:place": "Pog\u00f3rska Wola",
                "addr:housenumber": "88C",
                "addr:teryt:simc": 830368,
                "phone": "+48 146747404",
                "email": "przedszkole.pogorskawola@vp.pl",
                "ref:regon": "120065162",
                "ref:vatin": "PL9930440399",
                "operator": "Gmina Skrzysz\u00f3w",
                "operator:type": "government",
                "amenity": "kindergarten"
            }
        },
        {
            "id": 61889,
            "type": "Feature",
            "geometry": {
                "type": "Point",
                "coordinates": [
                    21.15426,
                    50.01426
                ]
            },
            "properties": {
                "isced:level": "1;2",
                "ref:rspo": 61889,
                "official_name": "Szko\u0142a Podstawowa im. Heleny Marusarz\u00f3wny w Pog\u00f3rskiej Woli",
                "name": "Szko\u0142a Podstawowa",
                "addr:postcode": "33-152",
                "addr:place": "Pog\u00f3rska Wola",
                "addr:housenumber": "88C",
                "addr:teryt:simc": 830368,
                "phone": "+48 146747003",
                "email": "pogorska_wola_sz@wp.pl",
                "website": "http:\/\/www.pogorskawolaszkola.y0.pl",
                "ref:regon": "852711514",
                "ref:vatin": "PL9930180372",
                "operator": "Gmina Skrzysz\u00f3w",
                "operator:type": "government",
                "amenity": "school"
            }
        }
    ]
}