{
    "type": "FeatureCollection",
    "features": [
        {
            "id": 4767,
            "type": "Feature",
            "geometry": {
                "type": "Point",
                "coordinates": [
                    20.82106,
                    49.88773
                ]
            },
            "properties": {
                "ref:rspo": 4767,
                "official_name": "Niepubliczne Przedszkole ,,Weso\u0142e Maczki\" w Olszynach",
                "name": "Niepubliczne Przedszkole ,,Weso\u0142e Maczki\" w Olszynach",
                "addr:postcode": "32-831",
                "addr:place": "Olszyny",
                "addr:housenumber": "29",
                "addr:city:simc": 836052,
                "phone": "+48 146791202",
                "email": "zspigolszy@interia.pl",
                "website": "http:\/\/zspolszyny.pl",
                "ref:regon": "122641411",
                "operator": "Stowarzyszenie Im. Ks. Lucjana Morawskiego",
                "operator:type": "ngo",
                "amenity": "kindergarten",
                "note": "Parent RSPO: 118722"
            }
        },
        {
            "id": 118722,
            "type": "Feature",
            "geometry": {
                "type": "Point",
                "coordinates": [
                    20.81954,
                    49.88862
                ]
            },
            "properties": {
                "ref:rspo": 118722,
                "official_name": "Zesp\u00f3\u0142 Szkolno- Przedszkolny w Olszynach",
                "name": "Zesp\u00f3\u0142 Szkolno- Przedszkolny w Olszynach",
                "addr:postcode": "32-831",
                "addr:place": "Olszyny",
                "addr:housenumber": "57",
                "addr:city:simc": 836052,
                "phone": "+48 146791202",
                "email": "zspigolszyny@interia.pl",
                "ref:regon": "122919562",
                "operator": "Stowarzyszenie Im. Ks. Lucjana Morawskiego",
                "operator:type": "ngo",
                "landuse": "education",
                "fixme": "amenity=school, amenity=college albo landuse=education w zale\u017cno\u015bci od tego, jakie plac\u00f3wki wchodz\u0105 w sk\u0142ad zespo\u0142u. Sprawd\u017a, kiedy stosowa\u0107 amenity=* a kiedy landuse=education.",
                "note": "Children RSPO: 4767;114853"
            }
        },
        {
            "id": 114853,
            "type": "Feature",
            "geometry": {
                "type": "Point",
                "coordinates": [
                    20.81954,
                    49.88859
                ]
            },
            "properties": {
                "isced:level": "1;2",
                "ref:rspo": 114853,
                "official_name": "Szko\u0142a Podstawowa im. Genera\u0142a Stanis\u0142awa Maczka w Olszynach",
                "name": "Szko\u0142a Podstawowa",
                "addr:postcode": "32-831",
                "addr:place": "Olszyny",
                "addr:housenumber": "57",
                "addr:city:simc": 836052,
                "phone": "+48 146791202",
                "email": "zspigolszyny@interia.pl",
                "website": "http:\/\/zspolszyny.pl",
                "ref:regon": "122869574",
                "operator": "Stowarzyszenie Im. Ks. Lucjana Morawskiego",
                "operator:type": "ngo",
                "amenity": "school",
                "note": "Parent RSPO: 118722"
            }
        },
        {
            "id": 5054,
            "type": "Feature",
            "geometry": {
                "type": "Point",
                "coordinates": [
                    20.79023,
                    49.91933
                ]
            },
            "properties": {
                "isced:level": "1;2",
                "ref:rspo": 5054,
                "official_name": "Publiczna Szko\u0142a Podstawowa Stowarzyszenia Przyjaci\u00f3\u0142 Szk\u00f3\u0142 Katolickich im. \u015aw. Faustynyw Mil\u00f3wce",
                "name": "Publiczna Szko\u0142a Podstawowa Stowarzyszenia Przyjaci\u00f3\u0142 Szk\u00f3\u0142 Katolickich",
                "addr:postcode": "32-830",
                "addr:place": "Mil\u00f3wka",
                "addr:housenumber": "1",
                "addr:city:simc": 836023,
                "phone": "+48 146791653",
                "email": "spmilowka@op.pl",
                "ref:regon": "122642379",
                "operator": "Stowarzyszenie Przyjaci\u00f3\u0142 Szk\u00f3\u0142 Katolickich",
                "operator:type": "ngo",
                "amenity": "school"
            }
        },
        {
            "id": 6323,
            "type": "Feature",
            "geometry": {
                "type": "Point",
                "coordinates": [
                    20.77842,
                    49.92777
                ]
            },
            "properties": {
                "isced:level": "1;2",
                "ref:rspo": 6323,
                "official_name": "Szko\u0142a Podstawowa im. Kardyna\u0142a Stefana Wyszy\u0144skiego w Grabnie",
                "name": "Szko\u0142a Podstawowa",
                "addr:postcode": "32-830",
                "addr:place": "Grabno",
                "addr:housenumber": "285",
                "addr:city:simc": 835880,
                "phone": "+48 146791903",
                "email": "szkolagrabno@gmail.com",
                "website": "http:\/\/spgrabno.szkolnastrona.pl\/",
                "ref:regon": "122647000",
                "operator": "Stowarzyszenie Edukacji I Rozwoju \"Prymus\" W Grabnie",
                "operator:type": "ngo",
                "amenity": "school"
            }
        },
        {
            "id": 20901,
            "type": "Feature",
            "geometry": {
                "type": "Point",
                "coordinates": [
                    20.7914535,
                    49.9319966
                ]
            },
            "properties": {
                "ref:rspo": 20901,
                "official_name": "Przedszkole Publiczne w Grabnie",
                "name": "Przedszkole Publiczne w Grabnie",
                "addr:postcode": "32-830",
                "addr:place": "Grabno",
                "addr:housenumber": "246",
                "addr:city:simc": 835880,
                "phone": "+48 146791705",
                "email": "przedszkole.grabno@gmail.com",
                "ref:regon": "852487896",
                "ref:vatin": "PL8732864282",
                "operator": "Gmina Wojnicz",
                "operator:type": "government",
                "amenity": "kindergarten"
            }
        },
        {
            "id": 4704,
            "type": "Feature",
            "geometry": {
                "type": "Point",
                "coordinates": [
                    20.82907,
                    49.93258
                ]
            },
            "properties": {
                "ref:rspo": 4704,
                "official_name": "Zesp\u00f3\u0142 Szkolno - Przedszkolny w Wielkiej Wsi",
                "name": "Zesp\u00f3\u0142 Szkolno - Przedszkolny w Wielkiej Wsi",
                "addr:postcode": "32-830",
                "addr:place": "Wielka Wie\u015b",
                "addr:housenumber": "210",
                "addr:city:simc": 836187,
                "phone": "+48 146791212",
                "email": "zspigww@interia.pl",
                "website": "http:\/\/www.zspwielkawies.pl",
                "ref:regon": "852719349",
                "ref:vatin": "PL8732964925",
                "operator": "Gmina Wojnicz",
                "operator:type": "government",
                "landuse": "education",
                "fixme": "amenity=school, amenity=college albo landuse=education w zale\u017cno\u015bci od tego, jakie plac\u00f3wki wchodz\u0105 w sk\u0142ad zespo\u0142u. Sprawd\u017a, kiedy stosowa\u0107 amenity=* a kiedy landuse=education.",
                "note": "Children RSPO: 20886;53914"
            }
        },
        {
            "id": 20886,
            "type": "Feature",
            "geometry": {
                "type": "Point",
                "coordinates": [
                    20.82907,
                    49.93255
                ]
            },
            "properties": {
                "ref:rspo": 20886,
                "official_name": "Przedszkole Publiczne w Wielkiej Wsi",
                "name": "Przedszkole Publiczne w Wielkiej Wsi",
                "addr:postcode": "32-830",
                "addr:place": "Wielka Wie\u015b",
                "addr:housenumber": "210",
                "addr:city:simc": 836187,
                "phone": "+48 146791265",
                "email": "zspigww@interia.pl",
                "ref:regon": "852487784",
                "ref:vatin": "PL8732864299",
                "operator": "Gmina Wojnicz",
                "operator:type": "government",
                "amenity": "kindergarten",
                "note": "Parent RSPO: 4704"
            }
        },
        {
            "id": 53914,
            "type": "Feature",
            "geometry": {
                "type": "Point",
                "coordinates": [
                    20.82907,
                    49.932520000000004
                ]
            },
            "properties": {
                "isced:level": "1;2",
                "ref:rspo": 53914,
                "official_name": "Szko\u0142a Podstawowa im. Marii Konopnickiej w Wielkiej Wsi",
                "name": "Szko\u0142a Podstawowa",
                "addr:postcode": "32-830",
                "addr:place": "Wielka Wie\u015b",
                "addr:housenumber": "210",
                "addr:city:simc": 836187,
                "phone": "+48 146791212",
                "email": "zspigww@interia.pl",
                "website": "http:\/\/spwwies.wixsite.com\/wielkawies",
                "ref:regon": "001202757",
                "operator": "Gmina Wojnicz",
                "operator:type": "government",
                "amenity": "school",
                "note": "Parent RSPO: 4704"
            }
        },
        {
            "id": 129733,
            "type": "Feature",
            "geometry": {
                "type": "Point",
                "coordinates": [
                    20.8377,
                    49.95597
                ]
            },
            "properties": {
                "ref:rspo": 129733,
                "official_name": "Przedszkole Niepubliczne ,,M\u00f3j Ma\u0142y \u015awiat\"",
                "name": "Przedszkole Niepubliczne ,,M\u00f3j Ma\u0142y \u015awiat\"",
                "addr:postcode": "32-830",
                "addr:city": "Wojnicz",
                "addr:street": "Jagiello\u0144ska",
                "addr:housenumber": "14",
                "addr:city:simc": 836276,
                "addr:street:sym_ul": 7029,
                "phone": "+48 608413845",
                "email": "biuro@mojmalyswiat.edu.pl",
                "website": "https:\/\/mojmalyswiat.edu.pl\/",
                "ref:regon": "362800929",
                "operator": "Marzena \u015aliwa",
                "operator:type": "private",
                "amenity": "kindergarten"
            }
        },
        {
            "id": 38629,
            "type": "Feature",
            "geometry": {
                "type": "Point",
                "coordinates": [
                    20.8374,
                    49.95675
                ]
            },
            "properties": {
                "ref:rspo": 38629,
                "official_name": "Zesp\u00f3\u0142 Szk\u00f3\u0142 Licealnych I Technicznych im. Jana Paw\u0142a II w Wojniczu",
                "name": "Zesp\u00f3\u0142 Szk\u00f3\u0142 Licealnych I Technicznych",
                "addr:postcode": "32-830",
                "addr:city": "Wojnicz",
                "addr:street": "Jagiello\u0144ska",
                "addr:housenumber": "17",
                "addr:city:simc": 836276,
                "addr:street:sym_ul": 7029,
                "phone": "+48 146790005",
                "email": "sekretariat@wojnicz.edu.pl",
                "website": "http:\/\/www.wojnicz.edu.pl",
                "ref:regon": "000095319",
                "ref:vatin": "PL8731211299",
                "operator": "Powiat Tarnowski",
                "operator:type": "government",
                "landuse": "education",
                "fixme": "amenity=school, amenity=college albo landuse=education w zale\u017cno\u015bci od tego, jakie plac\u00f3wki wchodz\u0105 w sk\u0142ad zespo\u0142u. Sprawd\u017a, kiedy stosowa\u0107 amenity=* a kiedy landuse=education.",
                "note": "Children RSPO: 38630;38632;38633;114429"
            }
        },
        {
            "id": 57818,
            "type": "Feature",
            "geometry": {
                "type": "Point",
                "coordinates": [
                    20.8374,
                    49.95672
                ]
            },
            "properties": {
                "ref:rspo": 57818,
                "official_name": "Powiatowa Poradnia Psychologiczno-Pedagogiczna w Tarnowie Filia w Wojniczu",
                "name": "Powiatowa Poradnia Psychologiczno-Pedagogiczna w Tarnowie Filia w Wojniczu",
                "addr:postcode": "32-830",
                "addr:city": "Wojnicz",
                "addr:street": "Jagiello\u0144ska",
                "addr:housenumber": "17",
                "addr:city:simc": 836276,
                "addr:street:sym_ul": 7029,
                "phone": "+48 146501131",
                "email": "filiawojnicz@pppptarnow.pl",
                "website": "http:\/\/www.pppptarnow.pl",
                "ref:regon": "851814608",
                "ref:vatin": "PL8732859884",
                "operator": "Powiat Tarnowski",
                "operator:type": "government",
                "healthcare": "counselling",
                "counselling_type": "education",
                "fixme": "w zale\u017cno\u015bci od przedmiotu dzia\u0142alno\u015bci (np. healthcare=counselling + counselling_type=education albo healthcare=psychotherapist)",
                "note": "Parent RSPO: 38611"
            }
        },
        {
            "id": 38630,
            "type": "Feature",
            "geometry": {
                "type": "Point",
                "coordinates": [
                    20.8374,
                    49.95669
                ]
            },
            "properties": {
                "isced:level": "3",
                "ref:rspo": 38630,
                "official_name": "Liceum Og\u00f3lnokszta\u0142cace w Wojniczu",
                "name": "Liceum Og\u00f3lnokszta\u0142cace w Wojniczu",
                "addr:postcode": "32-830",
                "addr:city": "Wojnicz",
                "addr:street": "Jagiello\u0144ska",
                "addr:housenumber": "17",
                "addr:city:simc": 836276,
                "addr:street:sym_ul": 7029,
                "phone": "+48 146790005",
                "email": "sekretariat@wojnicz.edu.pl",
                "website": "http:\/\/www.wojnicz.edu.pl",
                "ref:regon": "852712146",
                "operator": "Powiat Tarnowski",
                "operator:type": "government",
                "amenity": "school",
                "note": "Parent RSPO: 38629"
            }
        },
        {
            "id": 38632,
            "type": "Feature",
            "geometry": {
                "type": "Point",
                "coordinates": [
                    20.8374,
                    49.95666
                ]
            },
            "properties": {
                "isced:level": "3",
                "ref:rspo": 38632,
                "official_name": "Technikum w Wojniczu",
                "name": "Technikum w Wojniczu",
                "addr:postcode": "32-830",
                "addr:city": "Wojnicz",
                "addr:street": "Jagiello\u0144ska",
                "addr:housenumber": "17",
                "addr:city:simc": 836276,
                "addr:street:sym_ul": 7029,
                "phone": "+48 146790005",
                "email": "sekretariat@wojnicz.edu.pl",
                "website": "http:\/\/www.wojnicz.edu.pl",
                "ref:regon": "852712318",
                "operator": "Powiat Tarnowski",
                "operator:type": "government",
                "amenity": "school",
                "note": "Parent RSPO: 38629"
            }
        },
        {
            "id": 38633,
            "type": "Feature",
            "geometry": {
                "type": "Point",
                "coordinates": [
                    20.8374,
                    49.95663
                ]
            },
            "properties": {
                "isced:level": "3",
                "ref:rspo": 38633,
                "official_name": "Bran\u017cowa Szko\u0142a I Stopnia w Wojniczu",
                "name": "Bran\u017cowa Szko\u0142a I Stopnia w Wojniczu",
                "addr:postcode": "32-830",
                "addr:city": "Wojnicz",
                "addr:street": "Jagiello\u0144ska",
                "addr:housenumber": "17",
                "addr:city:simc": 836276,
                "addr:street:sym_ul": 7029,
                "phone": "+48 146790005",
                "email": "sekretariat@wojnicz.edu.pl",
                "website": "http:\/\/www.wojnicz.edu.pl",
                "ref:regon": "852623313",
                "operator": "Powiat Tarnowski",
                "operator:type": "government",
                "amenity": "school",
                "note": "Parent RSPO: 38629"
            }
        },
        {
            "id": 114429,
            "type": "Feature",
            "geometry": {
                "type": "Point",
                "coordinates": [
                    20.8374,
                    49.9566
                ]
            },
            "properties": {
                "ref:rspo": 114429,
                "official_name": "Szkolne Schronisko M\u0142odzie\u017cowe w Wojniczu",
                "name": "Szkolne Schronisko M\u0142odzie\u017cowe w Wojniczu",
                "addr:postcode": "32-830",
                "addr:city": "Wojnicz",
                "addr:street": "Jagiello\u0144ska",
                "addr:housenumber": "17",
                "addr:city:simc": 836276,
                "addr:street:sym_ul": 7029,
                "phone": "+48 146790005",
                "email": "sekretariat@wojnicz.edu.pl",
                "website": "http:\/\/www.wojnicz.edu.pl",
                "ref:regon": "122849258",
                "operator": "Powiat Tarnowski",
                "operator:type": "government",
                "tourism": "hostel",
                "note": "Parent RSPO: 38629"
            }
        },
        {
            "id": 55310,
            "type": "Feature",
            "geometry": {
                "type": "Point",
                "coordinates": [
                    20.84148,
                    49.95703
                ]
            },
            "properties": {
                "ref:rspo": 55310,
                "official_name": "Przedszkole Publiczne w Wojniczu",
                "name": "Przedszkole Publiczne w Wojniczu",
                "addr:postcode": "32-830",
                "addr:city": "Wojnicz",
                "addr:street": "Krzywa",
                "addr:housenumber": "18",
                "addr:city:simc": 836276,
                "addr:street:sym_ul": 10157,
                "phone": "+48 146790013",
                "email": "przedszkole_wojnicz@op.pl",
                "website": "http:\/\/przedszkole.wojnicz.pl",
                "ref:regon": "852487726",
                "ref:vatin": "PL8732862455",
                "operator": "Gmina Wojnicz",
                "operator:type": "government",
                "amenity": "kindergarten"
            }
        },
        {
            "id": 53553,
            "type": "Feature",
            "geometry": {
                "type": "Point",
                "coordinates": [
                    20.83801,
                    49.96076
                ]
            },
            "properties": {
                "isced:level": "1;2",
                "ref:rspo": 53553,
                "official_name": "Szko\u0142a Podstawowa im. \u015aw. Jana Kantego w Wojniczu",
                "name": "Szko\u0142a Podstawowa",
                "addr:postcode": "32-830",
                "addr:city": "Wojnicz",
                "addr:street": "Szkolna",
                "addr:housenumber": "10",
                "addr:city:simc": 836276,
                "addr:street:sym_ul": 21970,
                "phone": "+48 146790019",
                "email": "sp.wojnicz@interia.pl",
                "website": "http:\/\/szkola.wojnicz.pl",
                "ref:regon": "000718460",
                "ref:vatin": "PL8732632844",
                "operator": "Gmina Wojnicz",
                "operator:type": "government",
                "amenity": "school"
            }
        },
        {
            "id": 5053,
            "type": "Feature",
            "geometry": {
                "type": "Point",
                "coordinates": [
                    20.7711,
                    49.96698
                ]
            },
            "properties": {
                "isced:level": "1;2",
                "ref:rspo": 5053,
                "official_name": "Publiczna Szko\u0142a Podstawowa Stowarzyszenia Przyjaci\u00f3\u0142 Szk\u00f3\u0142 Katolickich w \u0141oponiu",
                "name": "Publiczna Szko\u0142a Podstawowa Stowarzyszenia Przyjaci\u00f3\u0142 Szk\u00f3\u0142 Katolickich w \u0141oponiu",
                "addr:postcode": "32-830",
                "addr:place": "\u0141opo\u0144",
                "addr:housenumber": "105",
                "addr:city:simc": 835934,
                "phone": "+48 146791333",
                "email": "szkola@lopon.spsk.pl",
                "website": "http:\/\/lopon.spsk.info.pl",
                "ref:regon": "122642362",
                "ref:vatin": "PL8733250145",
                "operator": "Stowarzyszenie Przyjaci\u00f3\u0142 Szk\u00f3\u0142 Katolickich",
                "operator:type": "ngo",
                "amenity": "school"
            }
        },
        {
            "id": 278338,
            "type": "Feature",
            "geometry": {
                "type": "Point",
                "coordinates": [
                    20.7711,
                    49.96695
                ]
            },
            "properties": {
                "ref:rspo": 278338,
                "official_name": "Przedszkole Publiczne w \u0141oponiu",
                "name": "Przedszkole Publiczne w \u0141oponiu",
                "addr:postcode": "32-830",
                "addr:place": "\u0141opo\u0144",
                "addr:housenumber": "105",
                "addr:city:simc": 835934,
                "phone": "+48 146791333",
                "email": "przed.lopon@spsk.edu.pl",
                "ref:regon": "389867097",
                "ref:vatin": "PL8732864276",
                "operator": "Stowarzyszenie Przyjaci\u00f3\u0142 Szk\u00f3\u0142 Katolickich",
                "operator:type": "ngo",
                "amenity": "kindergarten"
            }
        },
        {
            "id": 23186,
            "type": "Feature",
            "geometry": {
                "type": "Point",
                "coordinates": [
                    20.76103,
                    49.99237
                ]
            },
            "properties": {
                "ref:rspo": 23186,
                "official_name": "Przedszkole Publiczne w Biadolinach Rad\u0142owskich",
                "name": "Przedszkole Publiczne w Biadolinach Rad\u0142owskich",
                "addr:postcode": "32-828",
                "addr:place": "Biadoliny Rad\u0142owskie",
                "addr:housenumber": "152",
                "addr:city:simc": 835756,
                "phone": "+48 146791522",
                "email": "ppbr152@gmail.com",
                "ref:regon": "852487790",
                "ref:vatin": "PL8733250375",
                "operator": "Gmina Wojnicz",
                "operator:type": "government",
                "amenity": "kindergarten"
            }
        },
        {
            "id": 114849,
            "type": "Feature",
            "geometry": {
                "type": "Point",
                "coordinates": [
                    20.76062,
                    49.99488
                ]
            },
            "properties": {
                "isced:level": "1;2",
                "ref:rspo": 114849,
                "official_name": "Szko\u0142a Podstawowa im. Ksi\u0119dza J\u00f3zefa \u0141akomego w Biadolinach Rad\u0142owskich",
                "name": "Szko\u0142a Podstawowa",
                "addr:postcode": "32-828",
                "addr:place": "Biadoliny Rad\u0142owskie",
                "addr:housenumber": "135",
                "addr:city:simc": 835756,
                "phone": "+48 146791554",
                "email": "zsbiadoliny@o2.pl",
                "website": "http:\/\/www.zsbiadoliny.szkolnastrona.pl",
                "ref:regon": "122869019",
                "ref:vatin": "PL8733272431",
                "operator": "Stowarzyszenie Im. Ksi\u0119dza J\u00f3zefa \u0141akomego W Biadolinach Rad\u0142owskich",
                "operator:type": "ngo",
                "amenity": "school"
            }
        }
    ]
}