{
    "type": "FeatureCollection",
    "features": [
        {
            "id": 84455,
            "type": "Feature",
            "geometry": {
                "type": "Point",
                "coordinates": [
                    20.80079,
                    49.79318
                ]
            },
            "properties": {
                "ref:rspo": 84455,
                "official_name": "Zesp\u00f3\u0142 Szkolno-Przedszkolny im. Tadeusza Ko\u015bciuszki w Pale\u015bnicy",
                "name": "Zesp\u00f3\u0142 Szkolno-Przedszkolny",
                "addr:postcode": "32-842",
                "addr:place": "Pale\u015bnica",
                "addr:housenumber": "115",
                "addr:city:simc": 836968,
                "phone": "+48 146654104",
                "email": "zsppalesnica@onet.pl",
                "ref:regon": "852633004",
                "ref:vatin": "PL8732925256",
                "operator": "Gmina Zakliczyn",
                "operator:type": "government",
                "landuse": "education",
                "fixme": "amenity=school, amenity=college albo landuse=education w zale\u017cno\u015bci od tego, jakie plac\u00f3wki wchodz\u0105 w sk\u0142ad zespo\u0142u. Sprawd\u017a, kiedy stosowa\u0107 amenity=* a kiedy landuse=education.",
                "note": "Children RSPO: 104920;104922"
            }
        },
        {
            "id": 104920,
            "type": "Feature",
            "geometry": {
                "type": "Point",
                "coordinates": [
                    20.80079,
                    49.79315
                ]
            },
            "properties": {
                "isced:level": "1;2",
                "ref:rspo": 104920,
                "official_name": "Szko\u0142a Podstawowa w Pale\u015bnicy",
                "name": "Szko\u0142a Podstawowa w Pale\u015bnicy",
                "addr:postcode": "32-842",
                "addr:place": "Pale\u015bnica",
                "addr:housenumber": "115",
                "addr:city:simc": 836968,
                "phone": "+48 146654104",
                "email": "zsppalesnica@onet.pl",
                "ref:regon": "852488341",
                "operator": "Gmina Zakliczyn",
                "operator:type": "government",
                "amenity": "school",
                "note": "Parent RSPO: 84455"
            }
        },
        {
            "id": 104922,
            "type": "Feature",
            "geometry": {
                "type": "Point",
                "coordinates": [
                    20.80079,
                    49.79312
                ]
            },
            "properties": {
                "ref:rspo": 104922,
                "official_name": "Publiczne Przedszkole w Pale\u015bnicy",
                "name": "Publiczne Przedszkole w Pale\u015bnicy",
                "addr:postcode": "32-842",
                "addr:place": "Pale\u015bnica",
                "addr:housenumber": "115",
                "addr:city:simc": 836968,
                "phone": "+48 146654104",
                "email": "zsppalesnica@onet.pl",
                "ref:regon": "851782699",
                "operator": "Gmina Zakliczyn",
                "operator:type": "government",
                "amenity": "kindergarten",
                "note": "Parent RSPO: 84455"
            }
        },
        {
            "id": 87917,
            "type": "Feature",
            "geometry": {
                "type": "Point",
                "coordinates": [
                    20.72532,
                    49.8365099
                ]
            },
            "properties": {
                "ref:rspo": 87917,
                "official_name": "Zesp\u00f3\u0142 Szko\u0142y Podstawowej I Przedszkola w Filipowicach",
                "name": "Zesp\u00f3\u0142 Szko\u0142y Podstawowej I Przedszkola w Filipowicach",
                "addr:postcode": "32-840",
                "addr:place": "Filipowice",
                "addr:housenumber": "125",
                "addr:city:simc": 836566,
                "phone": "+48 146636193",
                "email": "zspipfilip@interia.pl",
                "website": "http:\/\/www.zspipfilipowice.dzs.pl",
                "ref:regon": "852632223",
                "ref:vatin": "PL8732924914",
                "operator": "Gmina Zakliczyn",
                "operator:type": "government",
                "landuse": "education",
                "fixme": "amenity=school, amenity=college albo landuse=education w zale\u017cno\u015bci od tego, jakie plac\u00f3wki wchodz\u0105 w sk\u0142ad zespo\u0142u. Sprawd\u017a, kiedy stosowa\u0107 amenity=* a kiedy landuse=education.",
                "note": "Children RSPO: 104937;104951"
            }
        },
        {
            "id": 104937,
            "type": "Feature",
            "geometry": {
                "type": "Point",
                "coordinates": [
                    20.72532,
                    49.8364799
                ]
            },
            "properties": {
                "isced:level": "1;2",
                "ref:rspo": 104937,
                "official_name": "Szko\u0142a Podstawowa w Filipowicach im. \u015awi\u0119tego Jana Paw\u0142a Ii",
                "name": "Szko\u0142a Podstawowa w Filipowicach",
                "addr:postcode": "32-840",
                "addr:place": "Filipowice",
                "addr:housenumber": "125",
                "addr:city:simc": 836566,
                "phone": "+48 146636193",
                "email": "zspipfilip@interia.pl",
                "website": "http:\/\/www.zspipfilipowice.dzs.pl",
                "ref:regon": "001202591",
                "operator": "Gmina Zakliczyn",
                "operator:type": "government",
                "amenity": "school",
                "note": "Parent RSPO: 87917"
            }
        },
        {
            "id": 104951,
            "type": "Feature",
            "geometry": {
                "type": "Point",
                "coordinates": [
                    20.72532,
                    49.836449900000005
                ]
            },
            "properties": {
                "ref:rspo": 104951,
                "official_name": "Przedszkole Publiczne w Filipowicach",
                "name": "Przedszkole Publiczne w Filipowicach",
                "addr:postcode": "32-840",
                "addr:place": "Filipowice",
                "addr:housenumber": "125",
                "addr:city:simc": 836566,
                "phone": "+48 146636193",
                "email": "zspipfilip@interia.pl",
                "website": "http:\/\/www.zspipfilipowice.dzs.pl",
                "ref:regon": "851782676",
                "operator": "Gmina Zakliczyn",
                "operator:type": "government",
                "amenity": "kindergarten",
                "note": "Parent RSPO: 87917"
            }
        },
        {
            "id": 83202,
            "type": "Feature",
            "geometry": {
                "type": "Point",
                "coordinates": [
                    20.76885,
                    49.83766
                ]
            },
            "properties": {
                "isced:level": "1;2",
                "ref:rspo": 83202,
                "official_name": "Szko\u0142a Podstawowa im. Tadeusza Ko\u015bciuszki w Str\u00f3\u017cach",
                "name": "Szko\u0142a Podstawowa",
                "addr:postcode": "32-840",
                "addr:place": "Str\u00f3\u017ce",
                "addr:housenumber": "88",
                "addr:city:simc": 837181,
                "phone": "+48 146655069",
                "email": "spstroze@wp.pl",
                "website": "http:\/\/spstroze.edupage.org",
                "ref:regon": "001202622",
                "ref:vatin": "PL8691620122",
                "operator": "Gmina Zakliczyn",
                "operator:type": "government",
                "amenity": "school"
            }
        },
        {
            "id": 37555,
            "type": "Feature",
            "geometry": {
                "type": "Point",
                "coordinates": [
                    20.79657,
                    49.8420599
                ]
            },
            "properties": {
                "ref:rspo": 37555,
                "official_name": "Zesp\u00f3\u0142 Szk\u00f3L Ponadpodstawowych im. J\u00f3zefa Pi\u0142sudskiego w Zakliczynie",
                "name": "Zesp\u00f3\u0142 Szk\u00f3L Ponadpodstawowych",
                "addr:postcode": "32-840",
                "addr:city": "Zakliczyn",
                "addr:street": "Grabina",
                "addr:housenumber": "57",
                "addr:city:simc": 837436,
                "addr:street:sym_ul": 6014,
                "phone": "+48 146653409",
                "email": "zsz-zakliczyn@wp.pl",
                "website": "http:\/\/www.zsp-zakliczyn.pl",
                "ref:regon": "000198255",
                "ref:vatin": "PL8691318334",
                "operator": "Powiat Tarnowski",
                "operator:type": "government",
                "landuse": "education",
                "fixme": "amenity=school, amenity=college albo landuse=education w zale\u017cno\u015bci od tego, jakie plac\u00f3wki wchodz\u0105 w sk\u0142ad zespo\u0142u. Sprawd\u017a, kiedy stosowa\u0107 amenity=* a kiedy landuse=education.",
                "note": "Children RSPO: 38656;38657;38658"
            }
        },
        {
            "id": 38656,
            "type": "Feature",
            "geometry": {
                "type": "Point",
                "coordinates": [
                    20.79657,
                    49.8420299
                ]
            },
            "properties": {
                "isced:level": "3",
                "ref:rspo": 38656,
                "official_name": "Liceum Og\u00f3lnokszta\u0142cace w Zakliczynie",
                "name": "Liceum Og\u00f3lnokszta\u0142cace w Zakliczynie",
                "addr:postcode": "32-840",
                "addr:city": "Zakliczyn",
                "addr:street": "Grabina",
                "addr:housenumber": "57",
                "addr:city:simc": 837436,
                "addr:street:sym_ul": 6014,
                "phone": "+48 146653409",
                "email": "zsp-zakliczyn@wp.pl",
                "website": "http:\/\/www.zsp-zakliczyn.pl",
                "ref:regon": "852622970",
                "operator": "Powiat Tarnowski",
                "operator:type": "government",
                "amenity": "school",
                "note": "Parent RSPO: 37555"
            }
        },
        {
            "id": 38657,
            "type": "Feature",
            "geometry": {
                "type": "Point",
                "coordinates": [
                    20.79657,
                    49.841999900000005
                ]
            },
            "properties": {
                "isced:level": "3",
                "ref:rspo": 38657,
                "official_name": "Technikum w Zakliczynie",
                "name": "Technikum w Zakliczynie",
                "addr:postcode": "32-840",
                "addr:city": "Zakliczyn",
                "addr:street": "Grabina",
                "addr:housenumber": "57",
                "addr:city:simc": 837436,
                "addr:street:sym_ul": 6014,
                "phone": "+48 146653409",
                "email": "zsp-zakliczyn@wp.pl",
                "website": "http:\/\/www.zsp-zakliczyn.pl",
                "ref:regon": "852722038",
                "operator": "Powiat Tarnowski",
                "operator:type": "government",
                "amenity": "school",
                "note": "Parent RSPO: 37555"
            }
        },
        {
            "id": 38658,
            "type": "Feature",
            "geometry": {
                "type": "Point",
                "coordinates": [
                    20.79657,
                    49.8419699
                ]
            },
            "properties": {
                "isced:level": "3",
                "ref:rspo": 38658,
                "official_name": "Bran\u017cowa Szko\u0142a I Stopnia w Zakliczynie",
                "name": "Bran\u017cowa Szko\u0142a I Stopnia w Zakliczynie",
                "addr:postcode": "32-840",
                "addr:city": "Zakliczyn",
                "addr:street": "Grabina",
                "addr:housenumber": "57",
                "addr:city:simc": 837436,
                "addr:street:sym_ul": 6014,
                "phone": "+48 146653409",
                "email": "zsz-zakliczyn@wp.pl",
                "ref:regon": "852623000",
                "operator": "Powiat Tarnowski",
                "operator:type": "government",
                "amenity": "school",
                "note": "Parent RSPO: 37555"
            }
        },
        {
            "id": 6070,
            "type": "Feature",
            "geometry": {
                "type": "Point",
                "coordinates": [
                    20.84017,
                    49.84968
                ]
            },
            "properties": {
                "isced:level": "1;2",
                "ref:rspo": 6070,
                "official_name": "Szko\u0142a Podstawowa im. Jacka Malczewskiego",
                "name": "Szko\u0142a Podstawowa",
                "addr:postcode": "32-840",
                "addr:place": "Fa\u015bciszowa",
                "addr:housenumber": "126",
                "addr:city:simc": 836537,
                "phone": "+48 146653287",
                "email": "szkolamarzen1@gmail.com",
                "ref:regon": "122646644",
                "operator": "Stowarzyszenie Przyjaci\u00f3\u0142 Szko\u0142y Imienia Jacka Malczewskiego \"Szko\u0142a Marze\u0144\"",
                "operator:type": "ngo",
                "amenity": "school"
            }
        },
        {
            "id": 82438,
            "type": "Feature",
            "geometry": {
                "type": "Point",
                "coordinates": [
                    20.8173,
                    49.85453
                ]
            },
            "properties": {
                "ref:rspo": 82438,
                "official_name": "Przedszkole Publiczne Nr 1 w Zakliczynie",
                "name": "Przedszkole Publiczne Nr 1 w Zakliczynie",
                "addr:postcode": "32-840",
                "addr:city": "Zakliczyn",
                "addr:street": "Spytka Jordana",
                "addr:housenumber": "2",
                "addr:city:simc": 837436,
                "addr:street:sym_ul": 7607,
                "phone": "+48 146653112",
                "email": "przedszkolenr1zak@poczta.onet.pl",
                "ref:regon": "851782736",
                "ref:vatin": "PL8732815094",
                "operator": "Gmina Zakliczyn",
                "operator:type": "government",
                "amenity": "kindergarten"
            }
        },
        {
            "id": 105422,
            "type": "Feature",
            "geometry": {
                "type": "Point",
                "coordinates": [
                    20.81672,
                    49.85501
                ]
            },
            "properties": {
                "isced:level": "1;2",
                "ref:rspo": 105422,
                "official_name": "Szko\u0142a Podstawowa im. Lanckoro\u0144skich w Zakliczynie",
                "name": "Szko\u0142a Podstawowa",
                "addr:postcode": "32-840",
                "addr:city": "Zakliczyn",
                "addr:street": "Jacka Malczewskiego",
                "addr:housenumber": "56",
                "addr:city:simc": 837436,
                "addr:street:sym_ul": 12037,
                "phone": "+48 146653335",
                "email": "spzakliczyn@poczta.fm",
                "website": "http:\/\/www.zspig.zakliczyn.pl\/",
                "ref:regon": "852488217",
                "operator": "Gmina Zakliczyn",
                "operator:type": "government",
                "amenity": "school",
                "note": "Children RSPO: 118671"
            }
        },
        {
            "id": 87934,
            "type": "Feature",
            "geometry": {
                "type": "Point",
                "coordinates": [
                    20.80348,
                    49.8562
                ]
            },
            "properties": {
                "ref:rspo": 87934,
                "official_name": "Przedszkole Niepubliczne Pw.\u015bw.rodziny",
                "name": "Przedszkole Niepubliczne Pw.\u015bw.rodziny",
                "addr:postcode": "32-840",
                "addr:city": "Zakliczyn",
                "addr:street": "Adama Mickiewicza",
                "addr:housenumber": "68",
                "addr:city:simc": 837436,
                "addr:street:sym_ul": 12740,
                "phone": "+48 146653249",
                "email": "przedszkolezakliczyn@interia.pl",
                "ref:regon": "122715575",
                "operator": "Zg.ss.\u015bwi\u0119tego J\u00f3zefa, Prowincja Tarnowska",
                "operator:type": "religious",
                "amenity": "kindergarten"
            }
        },
        {
            "id": 118671,
            "type": "Feature",
            "geometry": {
                "type": "Point",
                "coordinates": [
                    20.75238,
                    49.86871
                ]
            },
            "properties": {
                "isced:level": "1;2",
                "ref:rspo": 118671,
                "official_name": "Szko\u0142a Podstawowa im. Lanckoro\u0144skich w Zakliczynie Szko\u0142a Filialna w Charzewicach",
                "name": "Szko\u0142a Podstawowa",
                "addr:postcode": "32-840",
                "addr:place": "Charzewice",
                "addr:housenumber": "95",
                "addr:city:simc": 836419,
                "phone": "+48 146659325",
                "email": "spzakliczyn@poczta.fm",
                "ref:regon": "852488217",
                "operator": "Gmina Zakliczyn",
                "operator:type": "government",
                "amenity": "school",
                "note": "Parent RSPO: 105422"
            }
        },
        {
            "id": 131527,
            "type": "Feature",
            "geometry": {
                "type": "Point",
                "coordinates": [
                    20.85826,
                    49.87581
                ]
            },
            "properties": {
                "ref:rspo": 131527,
                "official_name": "Niepubliczny Zesp\u00f3\u0142 Szkolno-Przedszkolny we Wr\u00f3blowicach",
                "name": "Niepubliczny Zesp\u00f3\u0142 Szkolno-Przedszkolny we Wr\u00f3blowicach",
                "addr:postcode": "32-840",
                "addr:place": "Wr\u00f3blowice",
                "addr:housenumber": "142",
                "addr:city:simc": 837376,
                "phone": "+48 146653301",
                "email": "bkirc@wp.pl",
                "ref:regon": "365212587",
                "operator": "Stowarzyszenie Przyjaci\u00f3\u0142 I Sympatyk\u00f3w Szko\u0142y We Wr\u00f3blowicach",
                "operator:type": "ngo",
                "landuse": "education",
                "fixme": "amenity=school, amenity=college albo landuse=education w zale\u017cno\u015bci od tego, jakie plac\u00f3wki wchodz\u0105 w sk\u0142ad zespo\u0142u. Sprawd\u017a, kiedy stosowa\u0107 amenity=* a kiedy landuse=education.",
                "note": "Children RSPO: 3679;131529"
            }
        },
        {
            "id": 3679,
            "type": "Feature",
            "geometry": {
                "type": "Point",
                "coordinates": [
                    20.85826,
                    49.87578
                ]
            },
            "properties": {
                "isced:level": "1;2",
                "ref:rspo": 3679,
                "official_name": "Niepubliczna Szko\u0142a Podstawowa we Wr\u00f3blowicach",
                "name": "Niepubliczna Szko\u0142a Podstawowa we Wr\u00f3blowicach",
                "addr:postcode": "32-840",
                "addr:place": "Wr\u00f3blowice",
                "addr:housenumber": "142",
                "addr:city:simc": 837376,
                "phone": "+48 146653301",
                "email": "spwroblowice@gazeta.pl",
                "ref:regon": "122636806",
                "operator": "Stowarzyszenie Przyjaci\u00f3\u0142 I Sympatyk\u00f3w Szko\u0142y We Wr\u00f3blowicach",
                "operator:type": "ngo",
                "amenity": "school",
                "note": "Parent RSPO: 131527"
            }
        },
        {
            "id": 131529,
            "type": "Feature",
            "geometry": {
                "type": "Point",
                "coordinates": [
                    20.85826,
                    49.875750000000004
                ]
            },
            "properties": {
                "ref:rspo": 131529,
                "official_name": "Niepubliczne Przedszkole we Wr\u00f3blowicach \"Weso\u0142e Wr\u00f3belki\"",
                "name": "Niepubliczne Przedszkole we Wr\u00f3blowicach \"Weso\u0142e Wr\u00f3belki\"",
                "addr:postcode": "32-840",
                "addr:place": "Wr\u00f3blowice",
                "addr:housenumber": "142",
                "addr:city:simc": 837376,
                "phone": "+48 146653301",
                "email": "spwroblowice@gazeta.pl",
                "ref:regon": "365213658",
                "operator": "Stowarzyszenie Przyjaci\u00f3\u0142 I Sympatyk\u00f3w Szko\u0142y We Wr\u00f3blowicach",
                "operator:type": "ngo",
                "amenity": "kindergarten",
                "note": "Parent RSPO: 131527"
            }
        },
        {
            "id": 89958,
            "type": "Feature",
            "geometry": {
                "type": "Point",
                "coordinates": [
                    20.77151,
                    49.88623
                ]
            },
            "properties": {
                "ref:rspo": 89958,
                "official_name": "Zesp\u00f3\u0142 Szko\u0142y Podstawowej I Przedszkola w Gwo\u017ad\u017acu",
                "name": "Zesp\u00f3\u0142 Szko\u0142y Podstawowej I Przedszkola w Gwo\u017ad\u017acu",
                "addr:postcode": "32-840",
                "addr:place": "Gwo\u017adziec",
                "addr:housenumber": "199",
                "addr:city:simc": 836626,
                "phone": "+48 146659537",
                "email": "spgwozdziec@op.pl",
                "website": "http:\/\/www.spgwozdziec.pl",
                "ref:regon": "120994938",
                "ref:vatin": "PL8732796178",
                "operator": "Gmina Zakliczyn",
                "operator:type": "government",
                "landuse": "education",
                "fixme": "amenity=school, amenity=college albo landuse=education w zale\u017cno\u015bci od tego, jakie plac\u00f3wki wchodz\u0105 w sk\u0142ad zespo\u0142u. Sprawd\u017a, kiedy stosowa\u0107 amenity=* a kiedy landuse=education.",
                "note": "Children RSPO: 91885;91888"
            }
        },
        {
            "id": 91885,
            "type": "Feature",
            "geometry": {
                "type": "Point",
                "coordinates": [
                    20.77151,
                    49.886199999999995
                ]
            },
            "properties": {
                "isced:level": "1;2",
                "ref:rspo": 91885,
                "official_name": "Szko\u0142a Podstawowa im. Stefana \u017beromskiego w Gwo\u017ad\u017acu",
                "name": "Szko\u0142a Podstawowa",
                "addr:postcode": "32-840",
                "addr:place": "Gwo\u017adziec",
                "addr:housenumber": "199",
                "addr:city:simc": 836626,
                "phone": "+48 146659537",
                "email": "spgwozdziec@op.pl",
                "website": "http:\/\/www.spgwozdziec.pl",
                "ref:regon": "001202600",
                "operator": "Gmina Zakliczyn",
                "operator:type": "government",
                "amenity": "school",
                "note": "Parent RSPO: 89958"
            }
        },
        {
            "id": 91888,
            "type": "Feature",
            "geometry": {
                "type": "Point",
                "coordinates": [
                    20.77151,
                    49.88617
                ]
            },
            "properties": {
                "ref:rspo": 91888,
                "official_name": "Przedszkole Publiczne w Gwo\u017ad\u017acu",
                "name": "Przedszkole Publiczne w Gwo\u017ad\u017acu",
                "addr:postcode": "32-840",
                "addr:place": "Gwo\u017adziec",
                "addr:housenumber": "199",
                "addr:city:simc": 836626,
                "phone": "+48 146659537",
                "email": "spgwozdziec@op.pl",
                "website": "http:\/\/www.spgwozdziec.pl",
                "ref:regon": "120994980",
                "operator": "Gmina Zakliczyn",
                "operator:type": "government",
                "amenity": "kindergarten",
                "note": "Parent RSPO: 89958"
            }
        }
    ]
}