{
    "type": "FeatureCollection",
    "features": [
        {
            "id": 6651,
            "type": "Feature",
            "geometry": {
                "type": "Point",
                "coordinates": [
                    20.85339,
                    50.05674
                ]
            },
            "properties": {
                "ref:rspo": 6651,
                "official_name": "Zesp\u00f3\u0142 Szko\u0142y Podstawowej I Przedszkola w Niwce",
                "name": "Zesp\u00f3\u0142 Szko\u0142y Podstawowej I Przedszkola w Niwce",
                "addr:postcode": "33-130",
                "addr:place": "Niwka",
                "addr:housenumber": "25",
                "addr:city:simc": 827886,
                "phone": "+48 146870024",
                "email": "spniwka@op.pl",
                "website": "http:\/\/www.spniwka.pl",
                "ref:regon": "122647603",
                "operator": "Stowarzyszenie \"Niwka Dzieciom\"",
                "operator:type": "ngo",
                "landuse": "education",
                "fixme": "amenity=school, amenity=college albo landuse=education w zale\u017cno\u015bci od tego, jakie plac\u00f3wki wchodz\u0105 w sk\u0142ad zespo\u0142u. Sprawd\u017a, kiedy stosowa\u0107 amenity=* a kiedy landuse=education.",
                "note": "Children RSPO: 3525;3526"
            }
        },
        {
            "id": 3525,
            "type": "Feature",
            "geometry": {
                "type": "Point",
                "coordinates": [
                    20.85339,
                    50.056709999999995
                ]
            },
            "properties": {
                "isced:level": "1;2",
                "ref:rspo": 3525,
                "official_name": "Niepubliczna Szko\u0142a Podstawowa w Niwce",
                "name": "Niepubliczna Szko\u0142a Podstawowa w Niwce",
                "addr:postcode": "33-130",
                "addr:place": "Niwka",
                "addr:housenumber": "25",
                "addr:city:simc": 827886,
                "phone": "+48 146870024",
                "email": "spniwka@op.pl",
                "website": "https:\/\/www.spniwka.pl\/",
                "ref:regon": "122647626",
                "operator": "Stowarzyszenie \"Niwka Dzieciom\"",
                "operator:type": "ngo",
                "amenity": "school",
                "note": "Parent RSPO: 6651"
            }
        },
        {
            "id": 3526,
            "type": "Feature",
            "geometry": {
                "type": "Point",
                "coordinates": [
                    20.85339,
                    50.05668
                ]
            },
            "properties": {
                "ref:rspo": 3526,
                "official_name": "Niepubliczne Przedszkole w Niwce",
                "name": "Niepubliczne Przedszkole w Niwce",
                "addr:postcode": "33-130",
                "addr:place": "Niwka",
                "addr:housenumber": "25",
                "addr:city:simc": 827886,
                "phone": "+48 146870024",
                "email": "spniwka@op.pl",
                "website": "http:\/\/www.spniwka.pl",
                "ref:regon": "122636380",
                "operator": "Stowarzyszenie \"Niwka Dzieciom\"",
                "operator:type": "ngo",
                "amenity": "kindergarten",
                "note": "Parent RSPO: 6651"
            }
        },
        {
            "id": 110059,
            "type": "Feature",
            "geometry": {
                "type": "Point",
                "coordinates": [
                    20.82716,
                    50.08233
                ]
            },
            "properties": {
                "ref:rspo": 110059,
                "official_name": "Kursy I Szkolenia Pracownik\u00f3w Le\u015bnych Drwal",
                "name": "Kursy I Szkolenia Pracownik\u00f3w Le\u015bnych Drwal",
                "addr:postcode": "33-130",
                "addr:city": "Rad\u0142\u00f3w",
                "addr:street": "Brzeska",
                "addr:housenumber": "88",
                "addr:city:simc": 827923,
                "addr:street:sym_ul": 2230,
                "phone": "+48 604278583",
                "email": "zbigniew.mleczko@wp.pl",
                "website": "http:\/\/kursy-i-szkolenia-pracownikow-lesnych.pl\/",
                "ref:regon": "122786575",
                "ref:vatin": "PL6551383075",
                "operator": "Dane Do Uzupe\u0142nienia",
                "operator:type": "private"
            }
        },
        {
            "id": 65147,
            "type": "Feature",
            "geometry": {
                "type": "Point",
                "coordinates": [
                    20.85441,
                    50.08738
                ]
            },
            "properties": {
                "ref:rspo": 65147,
                "official_name": "Zesp\u00f3\u0142 Szk\u00f3\u0142 w Rad\u0142owie",
                "name": "Zesp\u00f3\u0142 Szk\u00f3\u0142 w Rad\u0142owie",
                "addr:postcode": "33-130",
                "addr:city": "Rad\u0142\u00f3w",
                "addr:street": "Szkolna",
                "addr:housenumber": "1",
                "addr:city:simc": 827923,
                "addr:street:sym_ul": 21970,
                "phone": "+48 146782797",
                "email": "spradlow@op.pl",
                "website": "http:\/\/www.zs-radlow.pl",
                "ref:regon": "121840870",
                "ref:vatin": "PL8733245204",
                "operator": "Gmina Rad\u0142\u00f3w",
                "operator:type": "government",
                "landuse": "education",
                "fixme": "amenity=school, amenity=college albo landuse=education w zale\u017cno\u015bci od tego, jakie plac\u00f3wki wchodz\u0105 w sk\u0142ad zespo\u0142u. Sprawd\u017a, kiedy stosowa\u0107 amenity=* a kiedy landuse=education.",
                "note": "Children RSPO: 74936;75008"
            }
        },
        {
            "id": 74936,
            "type": "Feature",
            "geometry": {
                "type": "Point",
                "coordinates": [
                    20.85441,
                    50.08735
                ]
            },
            "properties": {
                "ref:rspo": 74936,
                "official_name": "Przedszkole Publiczne w Rad\u0142owie",
                "name": "Przedszkole Publiczne w Rad\u0142owie",
                "addr:postcode": "33-130",
                "addr:city": "Rad\u0142\u00f3w",
                "addr:street": "Szkolna",
                "addr:housenumber": "1",
                "addr:city:simc": 827923,
                "addr:street:sym_ul": 21970,
                "phone": "+48 146782242",
                "email": "przedszkoleradlow@onet.pl",
                "ref:regon": "850502137",
                "ref:vatin": "PL8733245204",
                "operator": "Gmina Rad\u0142\u00f3w",
                "operator:type": "government",
                "amenity": "kindergarten",
                "note": "Parent RSPO: 65147"
            }
        },
        {
            "id": 75008,
            "type": "Feature",
            "geometry": {
                "type": "Point",
                "coordinates": [
                    20.85441,
                    50.087320000000005
                ]
            },
            "properties": {
                "isced:level": "1;2",
                "ref:rspo": 75008,
                "official_name": "Szko\u0142a Podstawowa im. Bohater\u00f3w Wrze\u015bnia 1939 R. w Rad\u0142owie",
                "name": "Szko\u0142a Podstawowa",
                "addr:postcode": "33-130",
                "addr:city": "Rad\u0142\u00f3w",
                "addr:street": "Szkolna",
                "addr:housenumber": "1",
                "addr:city:simc": 827923,
                "addr:street:sym_ul": 21970,
                "phone": "+48 146782797",
                "email": "spradlow@op.pl",
                "website": "http:\/\/www.zs-radlow.pl",
                "ref:regon": "000271561",
                "ref:vatin": "PL8733245204",
                "operator": "Gmina Rad\u0142\u00f3w",
                "operator:type": "government",
                "amenity": "school",
                "note": "Parent RSPO: 65147"
            }
        },
        {
            "id": 73858,
            "type": "Feature",
            "geometry": {
                "type": "Point",
                "coordinates": [
                    20.81782,
                    50.09521
                ]
            },
            "properties": {
                "ref:rspo": 73858,
                "official_name": "Publiczne Przedszkole w Woli Rad\u0142owskiej",
                "name": "Publiczne Przedszkole w Woli Rad\u0142owskiej",
                "addr:postcode": "33-133",
                "addr:place": "Wola Rad\u0142owska",
                "addr:housenumber": "40",
                "addr:city:simc": 828012,
                "phone": "+48 146782796",
                "email": "zspwr@interia.pl",
                "website": "http:\/\/www.zspwolaradlowska.pl",
                "ref:regon": "850502150",
                "ref:vatin": "PL8733113336",
                "operator": "Gmina Rad\u0142\u00f3w",
                "operator:type": "government",
                "amenity": "kindergarten",
                "note": "Parent RSPO: 59094"
            }
        },
        {
            "id": 59094,
            "type": "Feature",
            "geometry": {
                "type": "Point",
                "coordinates": [
                    20.81628,
                    50.09576
                ]
            },
            "properties": {
                "ref:rspo": 59094,
                "official_name": "Zesp\u00f3\u0142 Szkolno-Przedszkolny w Woli Rad\u0142owskiej",
                "name": "Zesp\u00f3\u0142 Szkolno-Przedszkolny w Woli Rad\u0142owskiej",
                "addr:postcode": "33-133",
                "addr:place": "Wola Rad\u0142owska",
                "addr:housenumber": "67",
                "addr:city:simc": 828012,
                "phone": "+48 146782038",
                "email": "zspwr@interia.pl",
                "website": "http:\/\/www.zspwolaradlowska.pl",
                "ref:regon": "120287997",
                "ref:vatin": "PL8733113336",
                "operator": "Gmina Rad\u0142\u00f3w",
                "operator:type": "government",
                "landuse": "education",
                "fixme": "amenity=school, amenity=college albo landuse=education w zale\u017cno\u015bci od tego, jakie plac\u00f3wki wchodz\u0105 w sk\u0142ad zespo\u0142u. Sprawd\u017a, kiedy stosowa\u0107 amenity=* a kiedy landuse=education.",
                "note": "Children RSPO: 73831;73858"
            }
        },
        {
            "id": 73831,
            "type": "Feature",
            "geometry": {
                "type": "Point",
                "coordinates": [
                    20.81628,
                    50.095729999999996
                ]
            },
            "properties": {
                "isced:level": "1;2",
                "ref:rspo": 73831,
                "official_name": "Szko\u0142a Podstawowa im. Stanis\u0142awa Wyspia\u0144skiego w Woli Rad\u0142owskiej",
                "name": "Szko\u0142a Podstawowa",
                "addr:postcode": "33-133",
                "addr:place": "Wola Rad\u0142owska",
                "addr:housenumber": "67",
                "addr:city:simc": 828012,
                "phone": "+48 146782038",
                "email": "zspwr@interia.pl",
                "website": "http:\/\/www.zspwolaradlowska.pl",
                "ref:regon": "001188997",
                "ref:vatin": "PL8733113336",
                "operator": "Gmina Rad\u0142\u00f3w",
                "operator:type": "government",
                "amenity": "school",
                "note": "Parent RSPO: 59094"
            }
        },
        {
            "id": 59011,
            "type": "Feature",
            "geometry": {
                "type": "Point",
                "coordinates": [
                    20.81086,
                    50.11764
                ]
            },
            "properties": {
                "ref:rspo": 59011,
                "official_name": "Zesp\u00f3\u0142 Szk\u00f3\u0142 w Zabawie",
                "name": "Zesp\u00f3\u0142 Szk\u00f3\u0142 w Zabawie",
                "addr:postcode": "33-133",
                "addr:city": "Zabawa",
                "addr:street": "Szkolna",
                "addr:housenumber": "31",
                "addr:city:simc": 828035,
                "addr:street:sym_ul": 21970,
                "phone": "+48 146226081",
                "email": "zszabawa@op.pl",
                "website": "http:\/\/www.zabawa.szkolna.net\/",
                "ref:regon": "121270326",
                "ref:vatin": "PL8733224024",
                "operator": "Gmina Rad\u0142\u00f3w",
                "operator:type": "government",
                "landuse": "education",
                "fixme": "amenity=school, amenity=college albo landuse=education w zale\u017cno\u015bci od tego, jakie plac\u00f3wki wchodz\u0105 w sk\u0142ad zespo\u0142u. Sprawd\u017a, kiedy stosowa\u0107 amenity=* a kiedy landuse=education.",
                "note": "Children RSPO: 73750;131338"
            }
        },
        {
            "id": 73750,
            "type": "Feature",
            "geometry": {
                "type": "Point",
                "coordinates": [
                    20.81086,
                    50.11761
                ]
            },
            "properties": {
                "isced:level": "1;2",
                "ref:rspo": 73750,
                "official_name": "Szko\u0142a Podstawowa im. Jana Paw\u0142a II w Zabawie",
                "name": "Szko\u0142a Podstawowa",
                "addr:postcode": "33-133",
                "addr:city": "Zabawa",
                "addr:street": "Szkolna",
                "addr:housenumber": "31",
                "addr:city:simc": 828035,
                "addr:street:sym_ul": 21970,
                "phone": "+48 146226081",
                "email": "zszabawa@op.pl",
                "website": "http:\/\/www.zabawa.szkolna.net\/",
                "ref:regon": "001189005",
                "ref:vatin": "PL8733224024",
                "operator": "Gmina Rad\u0142\u00f3w",
                "operator:type": "government",
                "amenity": "school",
                "note": "Parent RSPO: 59011"
            }
        },
        {
            "id": 131338,
            "type": "Feature",
            "geometry": {
                "type": "Point",
                "coordinates": [
                    20.82745,
                    50.11953
                ]
            },
            "properties": {
                "ref:rspo": 131338,
                "official_name": "Publiczne Przedszkole w Zabawie",
                "name": "Publiczne Przedszkole w Zabawie",
                "addr:postcode": "33-133",
                "addr:place": "Zabawa",
                "addr:housenumber": "6",
                "addr:city:simc": 828035,
                "phone": "+48 146226081",
                "email": "zszabawa@op.pl",
                "website": "http:\/\/www.zabawa.szkolna.net\/",
                "ref:regon": "365119280",
                "ref:vatin": "PL8733224024",
                "operator": "Gmina Rad\u0142\u00f3w",
                "operator:type": "government",
                "amenity": "kindergarten",
                "note": "Parent RSPO: 59011"
            }
        },
        {
            "id": 6839,
            "type": "Feature",
            "geometry": {
                "type": "Point",
                "coordinates": [
                    20.86647,
                    50.12128
                ]
            },
            "properties": {
                "ref:rspo": 6839,
                "official_name": "Zesp\u00f3\u0142 Szkolno - Przedszkolny w Biskupicach Rad\u0142owskich",
                "name": "Zesp\u00f3\u0142 Szkolno - Przedszkolny w Biskupicach Rad\u0142owskich",
                "addr:postcode": "33-130",
                "addr:city": "Biskupice Rad\u0142owskie",
                "addr:street": "Szkolna",
                "addr:housenumber": "2",
                "addr:city:simc": 827828,
                "addr:street:sym_ul": 21970,
                "phone": "+48 146781416",
                "email": "spbiskupice@op.pl",
                "website": "https:\/\/www.spbiskupice.h2.pl\/",
                "ref:regon": "122648502",
                "ref:vatin": "PL8733250205",
                "operator": "Stowarzyszenie Na Rzecz Wsi Biskupice Rad\u0142owskie",
                "operator:type": "ngo",
                "landuse": "education",
                "fixme": "amenity=school, amenity=college albo landuse=education w zale\u017cno\u015bci od tego, jakie plac\u00f3wki wchodz\u0105 w sk\u0142ad zespo\u0142u. Sprawd\u017a, kiedy stosowa\u0107 amenity=* a kiedy landuse=education.",
                "note": "Children RSPO: 3533;6549"
            }
        },
        {
            "id": 3533,
            "type": "Feature",
            "geometry": {
                "type": "Point",
                "coordinates": [
                    20.86647,
                    50.121249999999996
                ]
            },
            "properties": {
                "ref:rspo": 3533,
                "official_name": "Niepubliczne Przedszkole w Biskupicach Rad\u0142owskich",
                "name": "Niepubliczne Przedszkole w Biskupicach Rad\u0142owskich",
                "addr:postcode": "33-130",
                "addr:city": "Biskupice Rad\u0142owskie",
                "addr:street": "Szkolna",
                "addr:housenumber": "2",
                "addr:city:simc": 827828,
                "addr:street:sym_ul": 21970,
                "phone": "+48 146781416",
                "email": "spbiskupice@op.pl",
                "website": "http:\/\/www.spbiskupice.h2.pl\/",
                "ref:regon": "122636670",
                "operator": "Stowarzyszenie Na Rzecz Wsi Biskupice Rad\u0142owskie",
                "operator:type": "ngo",
                "amenity": "kindergarten",
                "note": "Parent RSPO: 6839"
            }
        },
        {
            "id": 6549,
            "type": "Feature",
            "geometry": {
                "type": "Point",
                "coordinates": [
                    20.86647,
                    50.12122
                ]
            },
            "properties": {
                "isced:level": "1;2",
                "ref:rspo": 6549,
                "official_name": "Niepubliczna Szko\u0142a Podstawowa w Biskupicach Rad\u0142owskich",
                "name": "Niepubliczna Szko\u0142a Podstawowa w Biskupicach Rad\u0142owskich",
                "addr:postcode": "33-130",
                "addr:city": "Biskupice Rad\u0142owskie",
                "addr:street": "Szkolna",
                "addr:housenumber": "2",
                "addr:city:simc": 827828,
                "addr:street:sym_ul": 21970,
                "phone": "+48 146781416",
                "email": "spbiskupice@op.pl",
                "website": "http:\/\/www.spbiskupice.h2.pl",
                "ref:regon": "122647589",
                "operator": "Stowarzyszenie Na Rzecz Wsi Biskupice Rad\u0142owskie",
                "operator:type": "ngo",
                "amenity": "school",
                "note": "Parent RSPO: 6839"
            }
        },
        {
            "id": 71644,
            "type": "Feature",
            "geometry": {
                "type": "Point",
                "coordinates": [
                    20.82868,
                    50.13912
                ]
            },
            "properties": {
                "ref:rspo": 71644,
                "official_name": "Zesp\u00f3\u0142 Szko\u0142y Podstawowej I Przedszkola w Zdrochcu",
                "name": "Zesp\u00f3\u0142 Szko\u0142y Podstawowej I Przedszkola w Zdrochcu",
                "addr:postcode": "33-273",
                "addr:place": "Zdrochec",
                "addr:housenumber": "3",
                "addr:city:simc": 828070,
                "phone": "+48 146277998",
                "email": "spzdrochec@onet.pl",
                "website": "http:\/\/www.zdrochec.pl",
                "ref:regon": "122706731",
                "ref:vatin": "PL8733245374",
                "operator": "Szko\u0142a Wsp\u00f3lnym Dobrem",
                "operator:type": "ngo",
                "landuse": "education",
                "fixme": "amenity=school, amenity=college albo landuse=education w zale\u017cno\u015bci od tego, jakie plac\u00f3wki wchodz\u0105 w sk\u0142ad zespo\u0142u. Sprawd\u017a, kiedy stosowa\u0107 amenity=* a kiedy landuse=education.",
                "note": "Children RSPO: 86714;86723"
            }
        },
        {
            "id": 86714,
            "type": "Feature",
            "geometry": {
                "type": "Point",
                "coordinates": [
                    20.82868,
                    50.139089999999996
                ]
            },
            "properties": {
                "isced:level": "1;2",
                "ref:rspo": 86714,
                "official_name": "Niepubliczna Szko\u0142a Podstawowa w Zdrochcu",
                "name": "Niepubliczna Szko\u0142a Podstawowa w Zdrochcu",
                "addr:postcode": "33-273",
                "addr:place": "Zdrochec",
                "addr:housenumber": "3",
                "addr:city:simc": 828070,
                "phone": "+48 146277998",
                "email": "spzdrochec@onet.pl",
                "website": "http:\/\/www.zdrochec.pl",
                "ref:regon": "122714943",
                "ref:vatin": "PL8733245374",
                "operator": "Szko\u0142a Wsp\u00f3lnym Dobrem",
                "operator:type": "ngo",
                "amenity": "school",
                "note": "Parent RSPO: 71644"
            }
        },
        {
            "id": 86723,
            "type": "Feature",
            "geometry": {
                "type": "Point",
                "coordinates": [
                    20.82882,
                    50.13933
                ]
            },
            "properties": {
                "ref:rspo": 86723,
                "official_name": "Niepubliczne Przedszkole w Zdrochcu",
                "name": "Niepubliczne Przedszkole w Zdrochcu",
                "addr:postcode": "33-273",
                "addr:place": "Zdrochec",
                "addr:housenumber": "3a",
                "addr:city:simc": 828070,
                "phone": "+48 146277998",
                "email": "spzdrochec@onet.pl",
                "website": "http:\/\/www.zdrochec.pl",
                "ref:regon": "122714950",
                "ref:vatin": "PL8733245374",
                "operator": "Szko\u0142a Wsp\u00f3lnym Dobrem",
                "operator:type": "ngo",
                "amenity": "kindergarten",
                "note": "Parent RSPO: 71644"
            }
        },
        {
            "id": 59948,
            "type": "Feature",
            "geometry": {
                "type": "Point",
                "coordinates": [
                    20.8100099,
                    50.1589699
                ]
            },
            "properties": {
                "isced:level": "1;2",
                "ref:rspo": 59948,
                "official_name": "Niepubliczna Szko\u0142a Podstawowa w Przybys\u0142awicach",
                "name": "Niepubliczna Szko\u0142a Podstawowa w Przybys\u0142awicach",
                "addr:postcode": "33-273",
                "addr:place": "Przybys\u0142awice",
                "addr:housenumber": "152",
                "addr:city:simc": 827917,
                "phone": "+48 146283464",
                "email": "przybyslawice.szkola@op.pl",
                "website": "http:\/\/www.przybyslawice.net.pl",
                "ref:regon": "122699497",
                "ref:vatin": "PL8733004481",
                "operator": "Rozw\u00f3j Wsi Przybys\u0142awice I Pasieka Otfinowska",
                "operator:type": "ngo",
                "amenity": "school"
            }
        }
    ]
}