{"type":"FeatureCollection","features":[{"id":132123,"type":"Feature","geometry":{"type":"Point","coordinates":[21.03243,49.9475]},"properties":{"ref:rspo":132123,"official_name":"Niepubliczny Zesp\u00f3\u0142 Szkolno-Przedszkolny w \u0141\u0119kawce","name":"Niepubliczny Zesp\u00f3\u0142 Szkolno-Przedszkolny w \u0141\u0119kawce","addr:country":"PL","addr:postcode":"33-112","addr:place":"\u0141\u0119kawka","addr:housenumber":"133a","addr:teryt:sym_ul":832918,"contact:phone":"+48 146744007","contact:email":"splekawka@gmail.com","ref:regon":"365475387","operator":"El\u017cbieta Chrz\u0105szcz","operator:type":"private","landuse":"education","fixme":"amenity=school, amenity=college albo landuse=education w zale\u017cno\u015bci od tego, jakie plac\u00f3wki wchodz\u0105 w sk\u0142ad zespo\u0142u. Sprawd\u017a, kiedy stosowa\u0107 amenity=* a kiedy landuse=education.","note":"Children RSPO: 131371;131372"}},{"id":131371,"type":"Feature","geometry":{"type":"Point","coordinates":[21.03243,49.947469999999996]},"properties":{"isced:level":"1;2","ref:rspo":131371,"official_name":"Niepubliczna Szko\u0142a Podstawowa im. B\u0142. Ks. Jerzego Popie\u0142uszki w \u0141\u0119kawce","name":"Niepubliczna Szko\u0142a Podstawowa","addr:country":"PL","addr:postcode":"33-112","addr:place":"\u0141\u0119kawka","addr:housenumber":"133A","addr:teryt:sym_ul":832918,"contact:phone":"+48 146744007","contact:email":"splekawka@gmail.com","ref:regon":"365142912","operator":"El\u017cbieta Chrz\u0105szcz","operator:type":"private","amenity":"school","note":"Parent RSPO: 132123"}},{"id":131372,"type":"Feature","geometry":{"type":"Point","coordinates":[21.03243,49.94744]},"properties":{"ref:rspo":131372,"official_name":"Niepubliczne Przedszkole w \u0141\u0119kawce","name":"Niepubliczne Przedszkole w \u0141\u0119kawce","addr:country":"PL","addr:postcode":"33-112","addr:place":"\u0141\u0119kawka","addr:housenumber":"133A","addr:teryt:sym_ul":832918,"contact:phone":"+48 146744007","contact:email":"splekawka@gmail.com","ref:regon":"365142935","operator":"El\u017cbieta Chrz\u0105szcz","operator:type":"private","amenity":"kindergarten","note":"Parent RSPO: 132123"}},{"id":132014,"type":"Feature","geometry":{"type":"Point","coordinates":[20.90195,49.9564499]},"properties":{"ref:rspo":132014,"official_name":"Niepubliczny Zesp\u00f3\u0142 Szkolno-Przedszkolny im.jana Paw\u0142a II w B\u0142oniu","name":"Niepubliczny Zesp\u00f3\u0142 Szkolno-Przedszkolny im.jana Paw\u0142a II w B\u0142oniu","addr:country":"PL","addr:postcode":"33-113","addr:place":"B\u0142onie","addr:housenumber":"20","addr:teryt:sym_ul":832663,"contact:phone":"+48 146743094","contact:email":"nasza_szkola_blonie20@op.pl","ref:regon":"365418610","ref:vatin":"PL9930294986","operator":"Barbara Ka\u0142dan-Molczyk","operator:type":"private","landuse":"education","fixme":"amenity=school, amenity=college albo landuse=education w zale\u017cno\u015bci od tego, jakie plac\u00f3wki wchodz\u0105 w sk\u0142ad zespo\u0142u. Sprawd\u017a, kiedy stosowa\u0107 amenity=* a kiedy landuse=education.","note":"Children RSPO: 131393;131396"}},{"id":131393,"type":"Feature","geometry":{"type":"Point","coordinates":[20.90195,49.9564199]},"properties":{"ref:rspo":131393,"official_name":"Niepubliczne Przedszkole w B\u0142oniu","name":"Niepubliczne Przedszkole w B\u0142oniu","addr:country":"PL","addr:postcode":"33-113","addr:place":"B\u0142onie","addr:housenumber":"20","addr:teryt:sym_ul":832663,"contact:phone":"+48 146743094","contact:email":"nasza_szkola_blonie20@op.pl","ref:regon":"365155381","ref:vatin":"PL9930294986","operator":"Barbara Ka\u0142dan-Molczyk","operator:type":"private","amenity":"kindergarten","note":"Parent RSPO: 132014"}},{"id":131396,"type":"Feature","geometry":{"type":"Point","coordinates":[20.90195,49.956389900000005]},"properties":{"isced:level":"1;2","ref:rspo":131396,"official_name":"Niepubliczna Szko\u0142a Podstawowa im.jana Paw\u0142a II w B\u0142oniu","name":"Niepubliczna Szko\u0142a Podstawowa im.jana Paw\u0142a II w B\u0142oniu","addr:country":"PL","addr:postcode":"33-113","addr:place":"B\u0142onie","addr:housenumber":"20","addr:teryt:sym_ul":832663,"contact:phone":"+48 146743094","contact:email":"nasza_szkola_blonie20@op.pl","ref:regon":"365155435","ref:vatin":"PL9930294986","operator":"Barbara Ka\u0142dan-Molczyk","operator:type":"private","amenity":"school","note":"Parent RSPO: 132014"}},{"id":268091,"type":"Feature","geometry":{"type":"Point","coordinates":[20.99302,49.95844]},"properties":{"ref:rspo":268091,"official_name":"Zesp\u00f3\u0142 Szkolno-Przedszkolny w Por\u0119bie Radlnej","name":"Zesp\u00f3\u0142 Szkolno-Przedszkolny w Por\u0119bie Radlnej","addr:country":"PL","addr:postcode":"33-112","addr:place":"Por\u0119ba Radlna","addr:housenumber":"119","addr:teryt:sym_ul":832976,"contact:phone":"+48 146795115","contact:email":"szkola_poreba_radlna@wp.pl","ref:regon":"380932025","operator":"Gmina Tarn\u00f3w","operator:type":"government","landuse":"education","fixme":"amenity=school, amenity=college albo landuse=education w zale\u017cno\u015bci od tego, jakie plac\u00f3wki wchodz\u0105 w sk\u0142ad zespo\u0142u. Sprawd\u017a, kiedy stosowa\u0107 amenity=* a kiedy landuse=education.","note":"Children RSPO: 18932;268090"}},{"id":18932,"type":"Feature","geometry":{"type":"Point","coordinates":[20.99302,49.95841]},"properties":{"isced:level":"1;2","ref:rspo":18932,"official_name":"Szko\u0142a Podstawowa im.ks.jana Twardowskiego w Por\u0119bie Radlnej","name":"Szko\u0142a Podstawowa im.ks.jana Twardowskiego w Por\u0119bie Radlnej","addr:country":"PL","addr:postcode":"33-112","addr:place":"Por\u0119ba Radlna","addr:housenumber":"119","addr:teryt:sym_ul":832976,"contact:phone":"+48 146795115","contact:email":"szkola_poreba_radlna@wp.pl","ref:regon":"001202421","ref:vatin":"PL8731450006","operator":"Gmina Tarn\u00f3w","operator:type":"government","amenity":"school","note":"Parent RSPO: 268091"}},{"id":268090,"type":"Feature","geometry":{"type":"Point","coordinates":[20.99302,49.958380000000005]},"properties":{"ref:rspo":268090,"official_name":"Publiczne Przedszkole w Por\u0119bie Radlnej","name":"Publiczne Przedszkole w Por\u0119bie Radlnej","addr:country":"PL","addr:postcode":"33-112","addr:place":"Por\u0119ba Radlna","addr:housenumber":"119","addr:teryt:sym_ul":832976,"contact:phone":"+48 146795115","contact:email":"szkola_poreba_radlna@wp.pl","ref:regon":"380931818","operator":"Gmina Tarn\u00f3w","operator:type":"government","amenity":"kindergarten","note":"Parent RSPO: 268091"}},{"id":108777,"type":"Feature","geometry":{"type":"Point","coordinates":[20.9775199,49.96554]},"properties":{"ref:rspo":108777,"official_name":"Niepubliczne Przedszkole \"S\u0142oneczko\"","name":"Niepubliczne Przedszkole \"S\u0142oneczko\"","addr:country":"PL","addr:postcode":"33-112","addr:place":"Radlna","addr:housenumber":"62","addr:teryt:sym_ul":833088,"contact:phone":"+48 695057907","ref:regon":"122771214","ref:vatin":"PL8731290583","operator":"Przedsi\u0119biorstwo Budowlano-Us\u0142ugowe \"Konsnett\" Zi\u0119ba Stanis\u0142aw","operator:type":"private","amenity":"kindergarten"}},{"id":3453,"type":"Feature","geometry":{"type":"Point","coordinates":[20.9447,49.96563]},"properties":{"ref:rspo":3453,"official_name":"Niepubliczne Przedszkole w Koszycach Ma\u0142ych","name":"Niepubliczne Przedszkole w Koszycach Ma\u0142ych","addr:country":"PL","addr:postcode":"33-111","addr:city":"Koszyce Ma\u0142e","addr:street":"ul. O\u015bwiatowa","addr:housenumber":"1","addr:teryt:simc":15436,"addr:teryt:sym_ul":832835,"contact:phone":"+48 146522854","contact:email":"nspkm@interia.pl","contact:website":"http:\/\/www.przedszkole.npokm.eu\/","ref:regon":"122635735","operator":"Jadwiga Siembab","operator:type":"private","amenity":"kindergarten"}},{"id":85352,"type":"Feature","geometry":{"type":"Point","coordinates":[20.9447,49.965599999999995]},"properties":{"isced:level":"1;2","ref:rspo":85352,"official_name":"Niepubliczna Szko\u0142a Podstawowa w Koszycach Ma\u0142ych","name":"Niepubliczna Szko\u0142a Podstawowa w Koszycach Ma\u0142ych","addr:country":"PL","addr:postcode":"33-111","addr:city":"Koszyce Ma\u0142e","addr:street":"ul. O\u015bwiatowa","addr:housenumber":"1","addr:teryt:simc":15436,"addr:teryt:sym_ul":832835,"contact:phone":"+48 146522854","contact:email":"nspkm@interia.pl","contact:website":"https:\/\/nspkm.szkolnastrona.pl\/nsp\/","ref:regon":"122709273","operator":"Jadwiga Siembab","operator:type":"private","amenity":"school"}},{"id":44508,"type":"Feature","geometry":{"type":"Point","coordinates":[20.9083,49.96975]},"properties":{"isced:level":"1;2","ref:rspo":44508,"official_name":"Publiczna Szko\u0142a Podstawowa im.k.k. Baczy\u0144skiego w Zg\u0142obicach","name":"Publiczna Szko\u0142a Podstawowa im.k.k. Baczy\u0144skiego w Zg\u0142obicach","addr:country":"PL","addr:postcode":"33-113","addr:city":"Zg\u0142obice","addr:street":"ul. Zg\u0142obicka","addr:housenumber":"4","addr:teryt:simc":26020,"addr:teryt:sym_ul":833473,"contact:phone":"+48 146743090","contact:email":"zglobice@wp.pl","contact:website":"http:\/\/www.szkolazglobice.pl","ref:regon":"000718430","ref:vatin":"PL8731448943","operator":"Gmina Tarn\u00f3w","operator:type":"government","amenity":"school"}},{"id":268088,"type":"Feature","geometry":{"type":"Point","coordinates":[20.94196,49.97639]},"properties":{"ref:rspo":268088,"official_name":"Zesp\u00f3\u0142 Szkolno-Przedszkolny w Koszycach Wielkich","name":"Zesp\u00f3\u0142 Szkolno-Przedszkolny w Koszycach Wielkich","addr:country":"PL","addr:postcode":"33-111","addr:city":"Koszyce Wielkie","addr:street":"ul. Szkolna","addr:housenumber":"22","addr:teryt:simc":21970,"addr:teryt:sym_ul":832864,"contact:phone":"+48 146340754","contact:email":"sp.wkoszyce@interia.pl","contact:website":"http:\/\/www.koszycewielkie.pl","ref:regon":"380929170","operator":"Gmina Tarn\u00f3w","operator:type":"government","landuse":"education","fixme":"amenity=school, amenity=college albo landuse=education w zale\u017cno\u015bci od tego, jakie plac\u00f3wki wchodz\u0105 w sk\u0142ad zespo\u0142u. Sprawd\u017a, kiedy stosowa\u0107 amenity=* a kiedy landuse=education.","note":"Children RSPO: 64845;268086"}},{"id":64845,"type":"Feature","geometry":{"type":"Point","coordinates":[20.94196,49.97636]},"properties":{"isced:level":"1;2","ref:rspo":64845,"official_name":"Szko\u0142a Podstawowa im.mjr Sucharskiego w Koszycach Wielkich","name":"Szko\u0142a Podstawowa im.mjr Sucharskiego w Koszycach Wielkich","addr:country":"PL","addr:postcode":"33-111","addr:city":"Koszyce Wielkie","addr:street":"ul. Szkolna","addr:housenumber":"22","addr:teryt:simc":21970,"addr:teryt:sym_ul":832864,"contact:phone":"+48 146340754","contact:email":"sp.wkoszyce@interia.pl","contact:website":"http:\/\/koszycewielkie.pl","ref:regon":"001202409","ref:vatin":"PL8731450265","operator":"Gmina Tarn\u00f3w","operator:type":"government","amenity":"school","note":"Parent RSPO: 268088"}},{"id":268086,"type":"Feature","geometry":{"type":"Point","coordinates":[20.94196,49.976330000000004]},"properties":{"ref:rspo":268086,"official_name":"Publiczne Przedszkole w Koszycach Wielkich","name":"Publiczne Przedszkole w Koszycach Wielkich","addr:country":"PL","addr:postcode":"33-111","addr:city":"Koszyce Wielkie","addr:street":"ul. Szkolna","addr:housenumber":"22","addr:teryt:simc":21970,"addr:teryt:sym_ul":832864,"contact:phone":"+48 146340754","contact:email":"sp.wkoszyce@interia.pl","contact:website":"http:\/\/www.koszycewielkie.pl","ref:regon":"380929224","operator":"Gmina Tarn\u00f3w","operator:type":"government","amenity":"kindergarten","note":"Parent RSPO: 268088"}},{"id":125473,"type":"Feature","geometry":{"type":"Point","coordinates":[20.93348,49.9788799]},"properties":{"ref:rspo":125473,"official_name":"Zak\u0142ad Us\u0142ug Bhp, Szkolenia Doradztwo Prawne Mieczys\u0142aw L0Ngosz","name":"Zak\u0142ad Us\u0142ug Bhp, Szkolenia Doradztwo Prawne Mieczys\u0142aw L0Ngosz","addr:country":"PL","addr:postcode":"33-111","addr:city":"Koszyce Wielkie","addr:street":"ul. Graniczna","addr:housenumber":"9","addr:teryt:simc":6075,"addr:teryt:sym_ul":832864,"contact:email":"bhp.longosz@poczta.onet.pl","ref:regon":"123220597","operator":"Mieczys\u0142aw Longosz","operator:type":"private"}},{"id":124127,"type":"Feature","geometry":{"type":"Point","coordinates":[20.9117844,49.9793164]},"properties":{"ref:rspo":124127,"official_name":"Niepubliczne Przedszkole Z Oddzia\u0142ami Integracyjnymi \"Kraina Marze\u0144\"","name":"Niepubliczne Przedszkole Z Oddzia\u0142ami Integracyjnymi \"Kraina Marze\u0144\"","addr:country":"PL","addr:postcode":"33-113","addr:city":"Zg\u0142obice","addr:street":"ul. D\u0142uga","addr:housenumber":"45","addr:teryt:simc":3839,"addr:teryt:sym_ul":833473,"contact:phone":"+48 146767881","contact:email":"krainamarzen@przedszkolezglobice.pl","contact:website":"http:\/\/www.przedszkolezglobice.gminatarnow.pl","ref:regon":"123187842","ref:vatin":"PL9930664383","operator":"Stowarzyszenie Nasze Zg\u0142obice","operator:type":"ngo","amenity":"kindergarten"}},{"id":109102,"type":"Feature","geometry":{"type":"Point","coordinates":[21.01403,49.98035]},"properties":{"isced:level":"1;2","ref:rspo":109102,"official_name":"Szko\u0142a Podstawowa im.o.zbigniewa Strza\u0142kowskiego w Zawadzie","name":"Szko\u0142a Podstawowa im.o.zbigniewa Strza\u0142kowskiego w Zawadzie","addr:country":"PL","addr:postcode":"33-112","addr:place":"Zawada","addr:housenumber":"87a","addr:teryt:sym_ul":833303,"contact:phone":"+48 146795380","contact:email":"sp_zawada@op.pl","contact:website":"http:\/\/www.szpzawada.pl","ref:regon":"122774603","operator":"Krzysztof Nowak","operator:type":"private","amenity":"school"}},{"id":66216,"type":"Feature","geometry":{"type":"Point","coordinates":[20.98645,49.98216]},"properties":{"isced:level":"1;2","ref:rspo":66216,"official_name":"Szko\u0142a Podstawowa im. Hetmana Jana Tarnowskiego w Tarnowcu","name":"Szko\u0142a Podstawowa","addr:country":"PL","addr:postcode":"33-112","addr:city":"Tarnowiec","addr:street":"ul. Tarnowska","addr:housenumber":"60","addr:teryt:simc":22681,"addr:teryt:sym_ul":833102,"contact:phone":"+48 146794414","contact:email":"szkola@sptarnowiec.pl","contact:website":"http:\/\/www.sptarnowiec.pl","ref:regon":"001202438","ref:vatin":"PL8731455274","operator":"Gmina Tarn\u00f3w","operator:type":"government","amenity":"school"}},{"id":18931,"type":"Feature","geometry":{"type":"Point","coordinates":[20.98488,49.98355]},"properties":{"ref:rspo":18931,"official_name":"Przedszkole Niepubliczne w Tarnowcu","name":"Przedszkole Niepubliczne w Tarnowcu","addr:country":"PL","addr:postcode":"33-112","addr:city":"Tarnowiec","addr:street":"ul. Tarnowska","addr:housenumber":"79","addr:teryt:simc":22681,"addr:teryt:sym_ul":833102,"contact:phone":"+48 146795183","contact:email":"pptarnowiec@o2.pl","ref:regon":"122668195","operator":"Stowarzyszenie Przyjaci\u00f3\u0142 Niepublicznego Przedszkola W Tarnowcu","operator:type":"ngo","amenity":"kindergarten"}},{"id":121681,"type":"Feature","geometry":{"type":"Point","coordinates":[20.9162,49.9847899]},"properties":{"ref:rspo":121681,"official_name":"Szko\u0142a Coachingu Lilianna Kupaj","name":"Szko\u0142a Coachingu Lilianna Kupaj","addr:country":"PL","addr:postcode":"33-113","addr:city":"Zbylitowska G\u00f3ra","addr:street":"ul. ks. Jerzego Popie\u0142uszki","addr:housenumber":"32","addr:teryt:simc":17149,"addr:teryt:sym_ul":833415,"contact:phone":"+48 146928807","contact:email":"lkupaj@szkolacoachingu.edu.pl","contact:website":"http:\/\/www.szkolacoachingu.edu.pl","ref:regon":"123033688","ref:vatin":"PL8731473237","operator":"Lilianna Kupaj","operator:type":"private"}},{"id":128391,"type":"Feature","geometry":{"type":"Point","coordinates":[20.8945599,49.98906]},"properties":{"ref:rspo":128391,"official_name":"Niepubliczne Przedszkole Pod Kasztanami w Zbylitowskiej G\u00f3rze","name":"Niepubliczne Przedszkole Pod Kasztanami w Zbylitowskiej G\u00f3rze","addr:country":"PL","addr:postcode":"33-113","addr:city":"Zbylitowska G\u00f3ra","addr:street":"ul. Sportowa","addr:housenumber":"3","addr:teryt:simc":20683,"addr:teryt:sym_ul":833415,"contact:phone":"+48 794423262","ref:regon":"362264069","operator":"Ma\u0142gorzata Simajchel","operator:type":"private","amenity":"kindergarten"}},{"id":78018,"type":"Feature","geometry":{"type":"Point","coordinates":[20.90354,49.98935]},"properties":{"isced:level":"1;2","ref:rspo":78018,"official_name":"Szko\u0142a Podstawowa im.komisji Edukacji Narodowej w Zbylitowskiej G\u00f3rze","name":"Szko\u0142a Podstawowa im.komisji Edukacji Narodowej w Zbylitowskiej G\u00f3rze","addr:country":"PL","addr:postcode":"33-113","addr:city":"Zbylitowska G\u00f3ra","addr:street":"ul. \u015bw. Floriana","addr:housenumber":"1","addr:teryt:simc":5083,"addr:teryt:sym_ul":833415,"contact:phone":"+48 146743029","contact:email":"spken@o2.pl","ref:regon":"001202473","ref:vatin":"PL8731449730","operator":"Gmina Tarn\u00f3w","operator:type":"government","amenity":"school"}},{"id":132491,"type":"Feature","geometry":{"type":"Point","coordinates":[20.9006,49.9918]},"properties":{"ref:rspo":132491,"official_name":"Specjalny O\u015brodek Szkolno-Wychowawczy \"Dw\u00f3r\"","name":"Specjalny O\u015brodek Szkolno-Wychowawczy \"Dw\u00f3r\"","addr:country":"PL","addr:postcode":"33-113","addr:city":"Zbylitowska G\u00f3ra","addr:street":"ul. Zbylitowskich","addr:housenumber":"95","addr:teryt:simc":25924,"addr:teryt:sym_ul":833415,"contact:phone":"+48 515280617","contact:email":"dworsosw@gmail.com","ref:regon":"365677872","operator":"Stowarzyszenie Integracyjne Zbylitowska G\u00f3ra \"Dw\u00f3r\"","operator:type":"ngo","amenity":"school","note":"Children RSPO: 132512;132515"}},{"id":132512,"type":"Feature","geometry":{"type":"Point","coordinates":[20.9006,49.991769999999995]},"properties":{"isced:level":"1;2","ref:rspo":132512,"official_name":"Szko\u0142a Podstawowa Specjalna","name":"Szko\u0142a Podstawowa Specjalna","addr:country":"PL","addr:postcode":"33-113","addr:city":"Zbylitowska G\u00f3ra","addr:street":"ul. Zbylitowskich","addr:housenumber":"95","addr:teryt:simc":25924,"addr:teryt:sym_ul":833415,"contact:phone":"+48 515280617","contact:email":"dworsosw@gmail.com","contact:website":"http:\/\/www.soswdwor.pl","ref:regon":"365699796","operator":"Stowarzyszenie Integracyjne Zbylitowska G\u00f3ra \"Dw\u00f3r\"","operator:type":"ngo","amenity":"school","note":"Parent RSPO: 132491"}},{"id":132515,"type":"Feature","geometry":{"type":"Point","coordinates":[20.9006,49.99174]},"properties":{"ref:rspo":132515,"official_name":"Szko\u0142a Specjalna Przysposabiaj\u0105ca Do Pracy","name":"Szko\u0142a Specjalna Przysposabiaj\u0105ca Do Pracy","addr:country":"PL","addr:postcode":"33-113","addr:city":"Zbylitowska G\u00f3ra","addr:street":"ul. Zbylitowskich","addr:housenumber":"95","addr:teryt:simc":25924,"addr:teryt:sym_ul":833415,"contact:phone":"+48 515280617","contact:email":"dworsosw@gmail.com","ref:regon":"365700016","operator":"Stowarzyszenie Integracyjne Zbylitowska G\u00f3ra \"Dw\u00f3r\"","operator:type":"ngo","amenity":"school","note":"Parent RSPO: 132491"}},{"id":22019,"type":"Feature","geometry":{"type":"Point","coordinates":[21.06356,50.03593]},"properties":{"isced:level":"1;2","ref:rspo":22019,"official_name":"Publiczna Szko\u0142a Podstawowa Nr 1 im. Heleny Marusarz w Woli Rz\u0119dzi\u0144skiej","name":"Publiczna Szko\u0142a Podstawowa Nr 1","addr:country":"PL","addr:postcode":"33-150","addr:place":"Wola Rz\u0119dzi\u0144ska","addr:housenumber":"435B","addr:teryt:sym_ul":833148,"contact:phone":"+48 146792170","contact:email":"sp-rzed1@wp.pl","contact:website":"http:\/\/www.sp-rzed1.szkolnastrona.pl","ref:regon":"001202444","ref:vatin":"PL8731455280","operator":"Gmina Tarn\u00f3w","operator:type":"government","amenity":"school"}},{"id":18933,"type":"Feature","geometry":{"type":"Point","coordinates":[21.064,50.03684]},"properties":{"ref:rspo":18933,"official_name":"Publiczne Przedszkole w Woli Rz\u0119dzi\u0144skiej","name":"Publiczne Przedszkole w Woli Rz\u0119dzi\u0144skiej","addr:country":"PL","addr:postcode":"33-150","addr:place":"Wola Rz\u0119dzi\u0144ska","addr:housenumber":"435C","addr:teryt:sym_ul":833148,"contact:phone":"+48 146793077","ref:regon":"850452729","ref:vatin":"PL8731609174","operator":"Gmina Tarn\u00f3w","operator:type":"government","amenity":"kindergarten"}},{"id":268031,"type":"Feature","geometry":{"type":"Point","coordinates":[20.91906,50.04264]},"properties":{"ref:rspo":268031,"official_name":"Niepubliczne Przedszkole w Bia\u0142ej","name":"Niepubliczne Przedszkole w Bia\u0142ej","addr:country":"PL","addr:postcode":"33-102","addr:place":"Bia\u0142a","addr:housenumber":"25","addr:teryt:sym_ul":832640,"contact:email":"przedszkolebiala@o2.pl","contact:website":"http:\/\/przedszkolebiala.gminatarnow.pl","ref:regon":"380875333","operator":"Kinga Nowak","operator:type":"private","amenity":"kindergarten"}},{"id":106536,"type":"Feature","geometry":{"type":"Point","coordinates":[21.09744,50.0437299]},"properties":{"ref:rspo":106536,"official_name":"Przedszkole Niepubliczne Zgromadzenia Si\u00f3str S\u0142u\u017cebniczek Nmp Np Pw. \u015aw. J\u00f3zefa","name":"Przedszkole Niepubliczne Zgromadzenia Si\u00f3str S\u0142u\u017cebniczek Nmp Np Pw. \u015aw. J\u00f3zefa","addr:country":"PL","addr:postcode":"33-150","addr:place":"Wola Rz\u0119dzi\u0144ska","addr:housenumber":"253","addr:teryt:sym_ul":833148,"contact:phone":"+48 146792950","ref:regon":"122760038","ref:vatin":"PL9930261550","operator":"Zgromadzenie Si\u00f3str S\u0142u\u017cebniczek Naj\u015bwi\u0119tszej Maryi Panny Niepokalanie Pocz\u0119tej Prowincja Tarnowska","operator:type":"religious","amenity":"kindergarten"}},{"id":44696,"type":"Feature","geometry":{"type":"Point","coordinates":[21.10045,50.0463]},"properties":{"isced:level":"1;2","ref:rspo":44696,"official_name":"Szko\u0142a Podstawowa Nr 2 im.b\u0142.edmunda Bojanowskiego w Woli Rz\u0119dzi\u0144skiej","name":"Szko\u0142a Podstawowa Nr 2 im.b\u0142.edmunda Bojanowskiego w Woli Rz\u0119dzi\u0144skiej","addr:country":"PL","addr:postcode":"33-150","addr:place":"Wola Rz\u0119dzi\u0144ska","addr:housenumber":"253A","addr:teryt:sym_ul":833148,"contact:phone":"+48 146792124","contact:email":"kontakt@szpwola.pl","contact:website":"http:\/\/www.szpwola.pl","ref:regon":"001202450","ref:vatin":"PL9930650990","operator":"Gmina Tarn\u00f3w","operator:type":"government","amenity":"school"}},{"id":132122,"type":"Feature","geometry":{"type":"Point","coordinates":[21.14179,50.05466]},"properties":{"ref:rspo":132122,"official_name":"Niepubliczny Zesp\u00f3\u0142 Szkolno-Przedszkolny w Jod\u0142\u00f3wce-Wa\u0142kach","name":"Niepubliczny Zesp\u00f3\u0142 Szkolno-Przedszkolny w Jod\u0142\u00f3wce-Wa\u0142kach","addr:country":"PL","addr:postcode":"33-150","addr:place":"Jod\u0142\u00f3wka-Wa\u0142ki","addr:housenumber":"57","addr:teryt:sym_ul":832730,"contact:phone":"+48 146756525","contact:email":"szkola_podstawowa_walki@vp.pl","contact:website":"http:\/\/www.nzspwalki.szkolnastrona.pl","ref:regon":"365475298","operator":"Krystyna Dudo\u0144","operator:type":"private","landuse":"education","fixme":"amenity=school, amenity=college albo landuse=education w zale\u017cno\u015bci od tego, jakie plac\u00f3wki wchodz\u0105 w sk\u0142ad zespo\u0142u. Sprawd\u017a, kiedy stosowa\u0107 amenity=* a kiedy landuse=education.","note":"Children RSPO: 131552;131553"}},{"id":131552,"type":"Feature","geometry":{"type":"Point","coordinates":[21.14179,50.054629999999996]},"properties":{"ref:rspo":131552,"official_name":"Niepublicze Przedszkole w Jod\u0142\u00f3wce-Wa\u0142kach","name":"Niepublicze Przedszkole w Jod\u0142\u00f3wce-Wa\u0142kach","addr:country":"PL","addr:postcode":"33-150","addr:place":"Jod\u0142\u00f3wka-Wa\u0142ki","addr:housenumber":"57","addr:teryt:sym_ul":832730,"contact:phone":"+48 146756525","contact:email":"szkola_podstawowa_walki@vp.pl","ref:regon":"365226610","operator":"Krystyna Dudo\u0144","operator:type":"private","amenity":"kindergarten","note":"Parent RSPO: 132122"}},{"id":131553,"type":"Feature","geometry":{"type":"Point","coordinates":[21.14179,50.0546]},"properties":{"isced:level":"1;2","ref:rspo":131553,"official_name":"Niepubliczna Szko\u0142a Podstawowa w Jod\u0142\u00f3wce-Wa\u0142kach","name":"Niepubliczna Szko\u0142a Podstawowa w Jod\u0142\u00f3wce-Wa\u0142kach","addr:country":"PL","addr:postcode":"33-150","addr:place":"Jod\u0142\u00f3wka-Wa\u0142ki","addr:housenumber":"57","addr:teryt:sym_ul":832730,"contact:phone":"+48 146756525","contact:email":"szkola_podstawowa_walki@vp.pl","ref:regon":"365226715","operator":"Krystyna Dudo\u0144","operator:type":"private","amenity":"school","note":"Parent RSPO: 132122"}}]}