{
    "type": "FeatureCollection",
    "features": [
        {
            "id": 38607,
            "type": "Feature",
            "geometry": {
                "type": "Point",
                "coordinates": [
                    21.07157,
                    49.8299499
                ]
            },
            "properties": {
                "ref:rspo": 38607,
                "official_name": "Dom Wczas\u00f3w Dzieci\u0119cych w Jod\u0142\u00f3wce Tuchowskiej",
                "name": "Dom Wczas\u00f3w Dzieci\u0119cych w Jod\u0142\u00f3wce Tuchowskiej",
                "addr:country": "PL",
                "addr:postcode": "33-173",
                "addr:place": "Jod\u0142\u00f3wka Tuchowska",
                "addr:housenumber": "275B",
                "addr:teryt:sym_ul": 833740,
                "contact:phone": "+48 146527919",
                "contact:email": "sekretariat@dwdjt.pl",
                "contact:website": "http:\/\/www.dwdjt.pl",
                "ref:regon": "850048365",
                "ref:vatin": "PL8731381475",
                "operator": "Powiat Tarnowski",
                "operator:type": "government",
                "leisure": "resort"
            }
        },
        {
            "id": 71164,
            "type": "Feature",
            "geometry": {
                "type": "Point",
                "coordinates": [
                    21.07157,
                    49.8299199
                ]
            },
            "properties": {
                "isced:level": "1;2",
                "ref:rspo": 71164,
                "official_name": "Szko\u0142a Podstawowa im.marii Kotulskiej w Jod\u0142\u00f3wce Tuchowskiej",
                "name": "Szko\u0142a Podstawowa im.marii Kotulskiej w Jod\u0142\u00f3wce Tuchowskiej",
                "addr:country": "PL",
                "addr:postcode": "33-173",
                "addr:place": "Jod\u0142\u00f3wka Tuchowska",
                "addr:housenumber": "275",
                "addr:teryt:sym_ul": 833740,
                "contact:phone": "+48 146526826",
                "contact:email": "zespol_szkol_jodlowka@wp.pl",
                "contact:website": "http:\/\/www.zsjodlowka.pl",
                "ref:regon": "001201812",
                "ref:vatin": "PL9930195304",
                "operator": "Gmina Tuch\u00f3w",
                "operator:type": "government",
                "amenity": "school"
            }
        },
        {
            "id": 272531,
            "type": "Feature",
            "geometry": {
                "type": "Point",
                "coordinates": [
                    21.0360827,
                    49.8566826
                ]
            },
            "properties": {
                "ref:rspo": 272531,
                "official_name": "Zesp\u00f3\u0142 Szkolno-Przedszkolny w Lubaszowej",
                "name": "Zesp\u00f3\u0142 Szkolno-Przedszkolny w Lubaszowej",
                "addr:country": "PL",
                "addr:postcode": "33-172",
                "addr:place": "Lubaszowa",
                "addr:housenumber": "126",
                "addr:teryt:sym_ul": 834165,
                "contact:phone": "+48 146506169",
                "contact:email": "splubaszowa@op.pl",
                "ref:regon": "384262426",
                "ref:vatin": "PL8731447978",
                "operator": "Barbara Dusza",
                "operator:type": "private",
                "landuse": "education",
                "fixme": "amenity=school, amenity=college albo landuse=education w zale\u017cno\u015bci od tego, jakie plac\u00f3wki wchodz\u0105 w sk\u0142ad zespo\u0142u. Sprawd\u017a, kiedy stosowa\u0107 amenity=* a kiedy landuse=education.",
                "note": "Children RSPO: 4537;272284"
            }
        },
        {
            "id": 4537,
            "type": "Feature",
            "geometry": {
                "type": "Point",
                "coordinates": [
                    21.0360827,
                    49.8566526
                ]
            },
            "properties": {
                "isced:level": "1;2",
                "ref:rspo": 4537,
                "official_name": "Szko\u0142a Podstawowa im. Batalionu Ak \"Barbara\" w Lubaszowej",
                "name": "Szko\u0142a Podstawowa",
                "addr:country": "PL",
                "addr:postcode": "33-172",
                "addr:place": "Lubaszowa",
                "addr:housenumber": "126",
                "addr:teryt:sym_ul": 834165,
                "contact:phone": "+48 146506169",
                "contact:email": "splubaszowa@wp.pl",
                "contact:website": "http:\/\/www.sp.lubaszowa.pl",
                "ref:regon": "122640825",
                "ref:vatin": "PL8731447978",
                "operator": "Barbara Dusza",
                "operator:type": "private",
                "amenity": "school",
                "note": "Parent RSPO: 272531"
            }
        },
        {
            "id": 272284,
            "type": "Feature",
            "geometry": {
                "type": "Point",
                "coordinates": [
                    21.03407,
                    49.85862
                ]
            },
            "properties": {
                "ref:rspo": 272284,
                "official_name": "Przedszkole \"Batalionik\" w Siedliskach",
                "name": "Przedszkole \"Batalionik\" w Siedliskach",
                "addr:country": "PL",
                "addr:postcode": "33-172",
                "addr:place": "Siedliska",
                "addr:housenumber": "12F",
                "addr:teryt:sym_ul": 834395,
                "contact:phone": "+48 146506169",
                "contact:email": "splubaszowa@op.pl",
                "ref:regon": "384084982",
                "ref:vatin": "PL8731447978",
                "operator": "Barbara Dusza",
                "operator:type": "private",
                "amenity": "kindergarten",
                "note": "Parent RSPO: 272531"
            }
        },
        {
            "id": 71169,
            "type": "Feature",
            "geometry": {
                "type": "Point",
                "coordinates": [
                    21.0119157,
                    49.8680543
                ]
            },
            "properties": {
                "isced:level": "1;2",
                "ref:rspo": 71169,
                "official_name": "Szko\u0142a Podstawowa im.kardyna\u0142a Stefana Wyszy\u0144skiego w Siedliskach",
                "name": "Szko\u0142a Podstawowa im.kardyna\u0142a Stefana Wyszy\u0144skiego w Siedliskach",
                "addr:country": "PL",
                "addr:postcode": "33-172",
                "addr:place": "Siedliska",
                "addr:housenumber": "232",
                "addr:teryt:sym_ul": 834395,
                "contact:phone": "+48 146527435",
                "contact:email": "zssiedliska@gmail.com",
                "contact:website": "http:\/\/spsiedliska.pl",
                "ref:regon": "001201870",
                "ref:vatin": "PL9930195238",
                "operator": "Gmina Tuch\u00f3w",
                "operator:type": "government",
                "amenity": "school"
            }
        },
        {
            "id": 4531,
            "type": "Feature",
            "geometry": {
                "type": "Point",
                "coordinates": [
                    21.0453,
                    49.87355
                ]
            },
            "properties": {
                "isced:level": "1;2",
                "ref:rspo": 4531,
                "official_name": "Szko\u0142a Podstawowa im. Kornela Makuszy\u0144skiego w D\u0105br\u00f3wce Tuchowskiej",
                "name": "Szko\u0142a Podstawowa",
                "addr:country": "PL",
                "addr:postcode": "33-170",
                "addr:place": "D\u0105br\u00f3wka Tuchowska",
                "addr:housenumber": "145A",
                "addr:teryt:sym_ul": 833711,
                "contact:phone": "+48 146526555",
                "contact:email": "spdabrowkatuchowska@interia.pl",
                "contact:website": "http:\/\/www.spdabrowkatuchowska.pl",
                "ref:regon": "122640676",
                "operator": "Bernadeta Wr\u00f3bel",
                "operator:type": "private",
                "amenity": "school"
            }
        },
        {
            "id": 120813,
            "type": "Feature",
            "geometry": {
                "type": "Point",
                "coordinates": [
                    21.0453,
                    49.87352
                ]
            },
            "properties": {
                "ref:rspo": 120813,
                "official_name": "Publiczne Przedszkole w D\u0105br\u00f3wce Tuchowskiej",
                "name": "Publiczne Przedszkole w D\u0105br\u00f3wce Tuchowskiej",
                "addr:country": "PL",
                "addr:postcode": "33-170",
                "addr:place": "D\u0105br\u00f3wka Tuchowska",
                "addr:housenumber": "145A",
                "addr:teryt:sym_ul": 833711,
                "contact:phone": "+48 146526555",
                "contact:email": "spdabrowkatuchowska@interia.pl",
                "ref:regon": "122981785",
                "operator": "Bernadeta Wr\u00f3bel",
                "operator:type": "private",
                "amenity": "kindergarten"
            }
        },
        {
            "id": 71162,
            "type": "Feature",
            "geometry": {
                "type": "Point",
                "coordinates": [
                    21.06109,
                    49.87364
                ]
            },
            "properties": {
                "isced:level": "1;2",
                "ref:rspo": 71162,
                "official_name": "Szko\u0142a Podstawowa im. Prof. Jana Sajdaka w Burzynie",
                "name": "Szko\u0142a Podstawowa",
                "addr:country": "PL",
                "addr:postcode": "33-170",
                "addr:place": "Burzyn",
                "addr:housenumber": "1",
                "addr:teryt:sym_ul": 833639,
                "contact:phone": "+48 146526437",
                "contact:email": "zsburzyn@onet.eu",
                "contact:website": "http:\/\/www.szkolaburzyn.pl",
                "ref:regon": "001201806",
                "ref:vatin": "PL9930195327",
                "operator": "Gmina Tuch\u00f3w",
                "operator:type": "government",
                "amenity": "school"
            }
        },
        {
            "id": 71402,
            "type": "Feature",
            "geometry": {
                "type": "Point",
                "coordinates": [
                    21.0139849,
                    49.8882942
                ]
            },
            "properties": {
                "isced:level": "1;2",
                "ref:rspo": 71402,
                "official_name": "Publiczna Szko\u0142a Podstawowa w Mesznej Opackiej",
                "name": "Publiczna Szko\u0142a Podstawowa w Mesznej Opackiej",
                "addr:country": "PL",
                "addr:postcode": "33-170",
                "addr:place": "Meszna Opacka",
                "addr:housenumber": "110",
                "addr:teryt:sym_ul": 834283,
                "contact:phone": "+48 146525581",
                "contact:email": "mesznasp@poczta.onet.pl",
                "contact:website": "http:\/\/www.mesznapsp.pl",
                "ref:regon": "122698411",
                "ref:vatin": "PL8731448363",
                "operator": "Urszula Hajduga",
                "operator:type": "private",
                "amenity": "school"
            }
        },
        {
            "id": 71403,
            "type": "Feature",
            "geometry": {
                "type": "Point",
                "coordinates": [
                    21.0139849,
                    49.888264199999995
                ]
            },
            "properties": {
                "ref:rspo": 71403,
                "official_name": "Publiczne Przedszkole w Mesznej Opackiej",
                "name": "Publiczne Przedszkole w Mesznej Opackiej",
                "addr:country": "PL",
                "addr:postcode": "33-170",
                "addr:place": "Meszna Opacka",
                "addr:housenumber": "110",
                "addr:teryt:sym_ul": 834283,
                "contact:phone": "+48 146525581",
                "contact:email": "mesznasp@poczta.onet.pl",
                "ref:regon": "122707771",
                "ref:vatin": "PL8731448363",
                "operator": "Urszula Hajduga",
                "operator:type": "private",
                "amenity": "kindergarten"
            }
        },
        {
            "id": 119969,
            "type": "Feature",
            "geometry": {
                "type": "Point",
                "coordinates": [
                    21.05361,
                    49.89162
                ]
            },
            "properties": {
                "ref:rspo": 119969,
                "official_name": "Niepubliczne Integracyjne Przedszkole w Tuchowie",
                "name": "Niepubliczne Integracyjne Przedszkole w Tuchowie",
                "addr:country": "PL",
                "addr:postcode": "33-170",
                "addr:city": "Tuch\u00f3w",
                "addr:street": "ul. Kazimierza Wielkiego",
                "addr:housenumber": "16",
                "addr:teryt:simc": 8265,
                "addr:teryt:sym_ul": 982457,
                "contact:phone": "+48 691237878",
                "contact:website": "http:\/\/przedszkole.swjozef.tuchow@gmail.com",
                "ref:regon": "122946116",
                "operator": "Micha\u0142 Krempa",
                "operator:type": "private",
                "amenity": "kindergarten"
            }
        },
        {
            "id": 71401,
            "type": "Feature",
            "geometry": {
                "type": "Point",
                "coordinates": [
                    21.05977,
                    49.89346
                ]
            },
            "properties": {
                "ref:rspo": 71401,
                "official_name": "Przedszkole Publiczne w Tuchowie",
                "name": "Przedszkole Publiczne w Tuchowie",
                "addr:country": "PL",
                "addr:postcode": "33-170",
                "addr:city": "Tuch\u00f3w",
                "addr:street": "ul. Szpitalna",
                "addr:housenumber": "2",
                "addr:teryt:simc": 22073,
                "addr:teryt:sym_ul": 982457,
                "contact:phone": "+48 146525387",
                "contact:email": "przedtuchow@wp.pl",
                "ref:regon": "852652697",
                "ref:vatin": "PL9930181756",
                "operator": "Gmina Tuch\u00f3w",
                "operator:type": "government",
                "amenity": "kindergarten"
            }
        },
        {
            "id": 48738,
            "type": "Feature",
            "geometry": {
                "type": "Point",
                "coordinates": [
                    20.99959,
                    49.8936599
                ]
            },
            "properties": {
                "ref:rspo": 48738,
                "official_name": "Zesp\u00f3\u0142 Szko\u0142y Podstawowej im.sier\u017c. Ak J\u00f3zefa Siwaka\"Walig\u00f3ry\" I Przedszkola w Buchcicach",
                "name": "Zesp\u00f3\u0142 Szko\u0142y Podstawowej im.sier\u017c. Ak J\u00f3zefa Siwaka\"Walig\u00f3ry\" I Przedszkola w Buchcicach",
                "addr:country": "PL",
                "addr:postcode": "33-170",
                "addr:place": "Buchcice",
                "addr:housenumber": "41",
                "addr:teryt:sym_ul": 833540,
                "contact:phone": "+48 146526405",
                "contact:email": "psp_buchcice@op.pl",
                "contact:website": "http:\/\/www.spbuchcice.tuchow.pl",
                "ref:regon": "122690929",
                "ref:vatin": "PL9930391407",
                "operator": "Towarzystwo O\u015bwiatowe W Buchcicach",
                "operator:type": "ngo",
                "landuse": "education",
                "fixme": "amenity=school, amenity=college albo landuse=education w zale\u017cno\u015bci od tego, jakie plac\u00f3wki wchodz\u0105 w sk\u0142ad zespo\u0142u. Sprawd\u017a, kiedy stosowa\u0107 amenity=* a kiedy landuse=education.",
                "note": "Children RSPO: 71161;71166"
            }
        },
        {
            "id": 71161,
            "type": "Feature",
            "geometry": {
                "type": "Point",
                "coordinates": [
                    20.99959,
                    49.8936299
                ]
            },
            "properties": {
                "isced:level": "1;2",
                "ref:rspo": 71161,
                "official_name": "Publiczna Szko\u0142a Podstawowa im.sier\u017c.ak Siwaka Walig\u00f3ry w Buchcicach",
                "name": "Publiczna Szko\u0142a Podstawowa im.sier\u017c.ak Siwaka Walig\u00f3ry w Buchcicach",
                "addr:country": "PL",
                "addr:postcode": "33-170",
                "addr:place": "Buchcice",
                "addr:housenumber": "41",
                "addr:teryt:sym_ul": 833540,
                "contact:phone": "+48 146526405",
                "contact:email": "psp_buchcice@op.pl",
                "ref:regon": "122706932",
                "operator": "Towarzystwo O\u015bwiatowe W Buchcicach",
                "operator:type": "ngo",
                "amenity": "school",
                "note": "Parent RSPO: 48738"
            }
        },
        {
            "id": 71166,
            "type": "Feature",
            "geometry": {
                "type": "Point",
                "coordinates": [
                    20.99959,
                    49.893599900000005
                ]
            },
            "properties": {
                "ref:rspo": 71166,
                "official_name": "Publiczne Przedszkole w Buchcicach",
                "name": "Publiczne Przedszkole w Buchcicach",
                "addr:country": "PL",
                "addr:postcode": "33-170",
                "addr:place": "Buchcice",
                "addr:housenumber": "41",
                "addr:teryt:sym_ul": 833540,
                "contact:phone": "+48 146526405",
                "contact:email": "psp_buchcice@op.pl",
                "ref:regon": "122698210",
                "operator": "Towarzystwo O\u015bwiatowe W Buchcicach",
                "operator:type": "ngo",
                "amenity": "kindergarten",
                "note": "Parent RSPO: 48738"
            }
        },
        {
            "id": 130599,
            "type": "Feature",
            "geometry": {
                "type": "Point",
                "coordinates": [
                    21.05861,
                    49.89399
                ]
            },
            "properties": {
                "ref:rspo": 130599,
                "official_name": "Centrum Kszta\u0142cenia Zawodowego I Ustawicznego w Tuchowie",
                "name": "Centrum Kszta\u0142cenia Zawodowego I Ustawicznego w Tuchowie",
                "addr:country": "PL",
                "addr:postcode": "33-170",
                "addr:city": "Tuch\u00f3w",
                "addr:street": "ul. W\u0142adys\u0142awa Reymonta",
                "addr:housenumber": "19",
                "addr:teryt:simc": 18648,
                "addr:teryt:sym_ul": 982457,
                "contact:phone": "+48 146525819",
                "contact:email": "ckziu.tuchow@gmail.com",
                "contact:website": "http:\/\/www.ckziu.tuchow.pl",
                "ref:regon": "364224542",
                "operator": "Powiat Tarnowski",
                "operator:type": "government",
                "landuse": "education",
                "fixme": "amenity=school, amenity=college albo landuse=education w zale\u017cno\u015bci od tego, jakie plac\u00f3wki wchodz\u0105 w sk\u0142ad zespo\u0142u. Sprawd\u017a, kiedy stosowa\u0107 amenity=* a kiedy landuse=education.",
                "note": "Children RSPO: 38651;38652;38653;126170;130488;131022;276061"
            }
        },
        {
            "id": 38651,
            "type": "Feature",
            "geometry": {
                "type": "Point",
                "coordinates": [
                    21.05861,
                    49.89396
                ]
            },
            "properties": {
                "isced:level": "3",
                "ref:rspo": 38651,
                "official_name": "Liceum Og\u00f3lnokszta\u0142c\u0105ce w Tuchowie",
                "name": "Liceum Og\u00f3lnokszta\u0142c\u0105ce w Tuchowie",
                "addr:country": "PL",
                "addr:postcode": "33-170",
                "addr:city": "Tuch\u00f3w",
                "addr:street": "ul. W\u0142adys\u0142awa Reymonta",
                "addr:housenumber": "19",
                "addr:teryt:simc": 18648,
                "addr:teryt:sym_ul": 982457,
                "contact:phone": "+48 146525819",
                "contact:email": "ckziu.tuchow@gmail.com",
                "contact:website": "https:\/\/ckziu.tuchow.pl\/",
                "ref:regon": "852623767",
                "operator": "Powiat Tarnowski",
                "operator:type": "government",
                "amenity": "school",
                "note": "Parent RSPO: 130599"
            }
        },
        {
            "id": 38652,
            "type": "Feature",
            "geometry": {
                "type": "Point",
                "coordinates": [
                    21.05861,
                    49.893930000000005
                ]
            },
            "properties": {
                "isced:level": "3",
                "ref:rspo": 38652,
                "official_name": "Bran\u017cowa Szko\u0142a I Stopnia w Tuchowie",
                "name": "Bran\u017cowa Szko\u0142a I Stopnia w Tuchowie",
                "addr:country": "PL",
                "addr:postcode": "33-170",
                "addr:city": "Tuch\u00f3w",
                "addr:street": "ul. W\u0142adys\u0142awa Reymonta",
                "addr:housenumber": "19",
                "addr:teryt:simc": 18648,
                "addr:teryt:sym_ul": 982457,
                "contact:phone": "+48 146525819",
                "contact:email": "ckziu.tuchow@gmail.com",
                "contact:website": "https:\/\/ckziu.tuchow.pl\/",
                "ref:regon": "852623709",
                "operator": "Powiat Tarnowski",
                "operator:type": "government",
                "amenity": "school",
                "note": "Parent RSPO: 130599"
            }
        },
        {
            "id": 38653,
            "type": "Feature",
            "geometry": {
                "type": "Point",
                "coordinates": [
                    21.05861,
                    49.8939
                ]
            },
            "properties": {
                "isced:level": "3",
                "ref:rspo": 38653,
                "official_name": "Technikum w Tuchowie",
                "name": "Technikum w Tuchowie",
                "addr:country": "PL",
                "addr:postcode": "33-170",
                "addr:city": "Tuch\u00f3w",
                "addr:street": "ul. W\u0142adys\u0142awa Reymonta",
                "addr:housenumber": "19",
                "addr:teryt:simc": 18648,
                "addr:teryt:sym_ul": 982457,
                "contact:phone": "+48 146525819",
                "contact:email": "ckziu.tuchow@gmail.com",
                "contact:website": "https:\/\/ckziu.tuchow.pl\/",
                "ref:regon": "852623632",
                "operator": "Powiat Tarnowski",
                "operator:type": "government",
                "amenity": "school",
                "note": "Parent RSPO: 130599"
            }
        },
        {
            "id": 126170,
            "type": "Feature",
            "geometry": {
                "type": "Point",
                "coordinates": [
                    21.05861,
                    49.89387
                ]
            },
            "properties": {
                "ref:rspo": 126170,
                "official_name": "Centrum Ksztalcenia Zawodowego w Tuchowie",
                "name": "Centrum Ksztalcenia Zawodowego w Tuchowie",
                "addr:country": "PL",
                "addr:postcode": "33-170",
                "addr:city": "Tuch\u00f3w",
                "addr:street": "ul. W\u0142adys\u0142awa Reymonta",
                "addr:housenumber": "19",
                "addr:teryt:simc": 18648,
                "addr:teryt:sym_ul": 982457,
                "contact:phone": "+48 146525819",
                "contact:email": "ckziu.tuchow@gmail.com",
                "contact:website": "https:\/\/ckziu.tuchow.pl\/",
                "ref:regon": "360163022",
                "operator": "Powiat Tarnowski",
                "operator:type": "government",
                "fixme": "w zale\u017cno\u015bci od przedmiotu dzia\u0142alno\u015bci (np. amenity=training + training=*, amenity=dancing_school, amenity=language_school, amenity=music_school) albo amenity=school, amenity=college, albo landuse=education w zale\u017cno\u015bci od tego, jakie plac\u00f3wki wchodz\u0105 w sk\u0142ad zespo\u0142u. Sprawd\u017a, kiedy stosowa\u0107 amenity=* a kiedy landuse=education.",
                "note": "Parent RSPO: 130599"
            }
        },
        {
            "id": 130488,
            "type": "Feature",
            "geometry": {
                "type": "Point",
                "coordinates": [
                    21.05861,
                    49.893840000000004
                ]
            },
            "properties": {
                "isced:level": "4",
                "ref:rspo": 130488,
                "official_name": "Szko\u0142a Policealna",
                "name": "Szko\u0142a Policealna",
                "addr:country": "PL",
                "addr:postcode": "33-170",
                "addr:city": "Tuch\u00f3w",
                "addr:street": "ul. W\u0142adys\u0142awa Reymonta",
                "addr:housenumber": "19",
                "addr:teryt:simc": 18648,
                "addr:teryt:sym_ul": 982457,
                "contact:phone": "+48 146525819",
                "contact:email": "ckziu.tuchow@gmail.com",
                "contact:website": "https:\/\/ckziu.tuchow.pl\/",
                "ref:regon": "364076395",
                "operator": "Powiat Tarnowski",
                "operator:type": "government",
                "amenity": "college",
                "note": "Parent RSPO: 130599"
            }
        },
        {
            "id": 131022,
            "type": "Feature",
            "geometry": {
                "type": "Point",
                "coordinates": [
                    21.05861,
                    49.89381
                ]
            },
            "properties": {
                "isced:level": "3",
                "ref:rspo": 131022,
                "official_name": "Liceum Og\u00f3lnokszta\u0142c\u0105ce dla Doros\u0142ych w Tuchowie",
                "name": "Liceum Og\u00f3lnokszta\u0142c\u0105ce dla Doros\u0142ych w Tuchowie",
                "addr:country": "PL",
                "addr:postcode": "33-170",
                "addr:city": "Tuch\u00f3w",
                "addr:street": "ul. W\u0142adys\u0142awa Reymonta",
                "addr:housenumber": "19",
                "addr:teryt:simc": 18648,
                "addr:teryt:sym_ul": 982457,
                "contact:phone": "+48 146525819",
                "contact:email": "ckziu.tuchow@gmail.com",
                "contact:website": "https:\/\/ckziu.tuchow.pl\/",
                "ref:regon": "364882328",
                "operator": "Powiat Tarnowski",
                "operator:type": "government",
                "amenity": "school",
                "note": "Parent RSPO: 130599"
            }
        },
        {
            "id": 276061,
            "type": "Feature",
            "geometry": {
                "type": "Point",
                "coordinates": [
                    21.05861,
                    49.89378
                ]
            },
            "properties": {
                "isced:level": "3",
                "ref:rspo": 276061,
                "official_name": "Bran\u017cowa Szko\u0142a II Stopnia w Tuchowie",
                "name": "Bran\u017cowa Szko\u0142a II Stopnia w Tuchowie",
                "addr:country": "PL",
                "addr:postcode": "33-170",
                "addr:city": "Tuch\u00f3w",
                "addr:street": "ul. W\u0142adys\u0142awa Reymonta",
                "addr:housenumber": "19",
                "addr:teryt:simc": 18648,
                "addr:teryt:sym_ul": 982457,
                "contact:phone": "+48 146525819",
                "contact:email": "ckziu.tuchow@gmail.com",
                "contact:website": "https:\/\/ckziu.tuchow.pl\/",
                "ref:regon": "386975350",
                "operator": "Powiat Tarnowski",
                "operator:type": "government",
                "amenity": "school",
                "note": "Parent RSPO: 130599"
            }
        },
        {
            "id": 57821,
            "type": "Feature",
            "geometry": {
                "type": "Point",
                "coordinates": [
                    21.05038,
                    49.89414
                ]
            },
            "properties": {
                "ref:rspo": 57821,
                "official_name": "Powiatowa Poradnia Psychologiczno-Pedagogiczna w Tarnowie Filia w Tuchowie",
                "name": "Powiatowa Poradnia Psychologiczno-Pedagogiczna w Tarnowie Filia w Tuchowie",
                "addr:country": "PL",
                "addr:postcode": "33-170",
                "addr:city": "Tuch\u00f3w",
                "addr:street": "ul. Wr\u00f3blewskiego",
                "addr:housenumber": "1",
                "addr:teryt:simc": 24830,
                "addr:teryt:sym_ul": 982457,
                "contact:phone": "+48 146526494",
                "contact:email": "filiatuchow@pppptarnow.pl",
                "contact:website": "http:\/\/www.pppptarnow.pl",
                "ref:regon": "851814608",
                "ref:vatin": "PL8732859884",
                "operator": "Powiat Tarnowski",
                "operator:type": "government",
                "healthcare": "counselling",
                "counselling_type": "education",
                "fixme": "w zale\u017cno\u015bci od przedmiotu dzia\u0142alno\u015bci (np. healthcare=counselling + counselling_type=education albo healthcare=psychotherapist)",
                "note": "Parent RSPO: 38611"
            }
        },
        {
            "id": 71160,
            "type": "Feature",
            "geometry": {
                "type": "Point",
                "coordinates": [
                    21.05592,
                    49.89484
                ]
            },
            "properties": {
                "isced:level": "1;2",
                "ref:rspo": 71160,
                "official_name": "Szko\u0142a Podstawowa im. Stanis\u0142awa Staszica w Tuchowie",
                "name": "Szko\u0142a Podstawowa",
                "addr:country": "PL",
                "addr:postcode": "33-170",
                "addr:city": "Tuch\u00f3w",
                "addr:street": "ul. Jana Paw\u0142a II",
                "addr:housenumber": "6",
                "addr:teryt:simc": 7123,
                "addr:teryt:sym_ul": 982457,
                "contact:phone": "+48 146525220",
                "contact:email": "sptuchow@sp.tuchow.pl",
                "contact:website": "https:\/\/sp.tuchow.pl\/",
                "ref:regon": "000654196",
                "ref:vatin": "PL9930195215",
                "operator": "Gmina Tuch\u00f3w",
                "operator:type": "government",
                "amenity": "school"
            }
        },
        {
            "id": 118776,
            "type": "Feature",
            "geometry": {
                "type": "Point",
                "coordinates": [
                    21.05443,
                    49.89493
                ]
            },
            "properties": {
                "ref:rspo": 118776,
                "official_name": "Szko\u0142a Muzyczna I Stopnia w Tuchowie",
                "name": "Szko\u0142a Muzyczna I Stopnia w Tuchowie",
                "addr:country": "PL",
                "addr:postcode": "33-170",
                "addr:city": "Tuch\u00f3w",
                "addr:street": "ul. Jana Paw\u0142a II",
                "addr:housenumber": "2",
                "addr:teryt:simc": 7123,
                "addr:teryt:sym_ul": 982457,
                "contact:phone": "+48 146520307",
                "contact:email": "sekretariat@sm.tuchow.pl",
                "ref:regon": "122920861",
                "operator": "Gmina Tuch\u00f3w",
                "operator:type": "government",
                "amenity": "music_school"
            }
        },
        {
            "id": 38606,
            "type": "Feature",
            "geometry": {
                "type": "Point",
                "coordinates": [
                    21.05815,
                    49.89514
                ]
            },
            "properties": {
                "isced:level": "3",
                "ref:rspo": 38606,
                "official_name": "Liceum Og\u00f3lnokszta\u0142c\u0105ce im.miko\u0142aja Kopernika\nW Tuchowie",
                "name": "Liceum Og\u00f3lnokszta\u0142c\u0105ce im.miko\u0142aja Kopernika\nW Tuchowie",
                "addr:country": "PL",
                "addr:postcode": "33-170",
                "addr:city": "Tuch\u00f3w",
                "addr:street": "ul. Jana Paw\u0142a II",
                "addr:housenumber": "10",
                "addr:teryt:simc": 7123,
                "addr:teryt:sym_ul": 982457,
                "contact:phone": "+48 146525414",
                "contact:email": "lo_tuchow@poczta.onet.pl",
                "contact:website": "http:\/\/www.lo-tuchow.pl",
                "ref:regon": "000811684",
                "ref:vatin": "PL8731382167",
                "operator": "Powiat Tarnowski",
                "operator:type": "government",
                "amenity": "school"
            }
        },
        {
            "id": 51262,
            "type": "Feature",
            "geometry": {
                "type": "Point",
                "coordinates": [
                    21.05572,
                    49.89589
                ]
            },
            "properties": {
                "ref:rspo": 51262,
                "official_name": "Ochronka Zgromadzenia Si\u00f3str S\u0142u\u017cebniczek Bdnp Niepubliczne Przedszkole w Tuchowie",
                "name": "Ochronka Zgromadzenia Si\u00f3str S\u0142u\u017cebniczek Bdnp Niepubliczne Przedszkole w Tuchowie",
                "addr:country": "PL",
                "addr:postcode": "33-170",
                "addr:city": "Tuch\u00f3w",
                "addr:street": "ul. Zielona",
                "addr:housenumber": "10",
                "addr:teryt:simc": 26081,
                "addr:teryt:sym_ul": 982457,
                "contact:phone": "+48 146225831",
                "contact:email": "ochronka.tuchow@siostry.net",
                "ref:regon": "122696240",
                "ref:vatin": "PL9930206396",
                "operator": "Zgromadzenie Si\u00f3str S\u0142u\u017cebniczek Bdnp, Prowincja Tarnowska",
                "operator:type": "religious",
                "amenity": "kindergarten"
            }
        },
        {
            "id": 51261,
            "type": "Feature",
            "geometry": {
                "type": "Point",
                "coordinates": [
                    21.0604,
                    49.90287
                ]
            },
            "properties": {
                "ref:rspo": 51261,
                "official_name": "Przedszkole Niepubliczne Zgromadzenia Si\u00f3str \u015awi\u0119tego J\u00f3efa",
                "name": "Przedszkole Niepubliczne Zgromadzenia Si\u00f3str \u015awi\u0119tego J\u00f3efa",
                "addr:country": "PL",
                "addr:postcode": "33-170",
                "addr:city": "Tuch\u00f3w",
                "addr:street": "ul. \u015bw. J\u00f3zefa",
                "addr:housenumber": "9",
                "addr:teryt:simc": 7626,
                "addr:teryt:sym_ul": 982457,
                "contact:phone": "+48 146525459",
                "contact:email": "cssjprzedszkole@o2.pl",
                "ref:regon": "122696091",
                "ref:vatin": "PL9930075770",
                "operator": "Zg.ss.\u015bwi\u0119tego J\u00f3zefa, Prowincja Tarnowska",
                "operator:type": "religious",
                "amenity": "kindergarten"
            }
        },
        {
            "id": 4548,
            "type": "Feature",
            "geometry": {
                "type": "Point",
                "coordinates": [
                    20.9986805,
                    49.9106549
                ]
            },
            "properties": {
                "isced:level": "1;2",
                "ref:rspo": 4548,
                "official_name": "Szko\u0142a Podstawowa im. Ksi\u0119dza Jerzego Popie\u0142uszki w \u0141owczowie",
                "name": "Szko\u0142a Podstawowa",
                "addr:country": "PL",
                "addr:postcode": "33-170",
                "addr:place": "\u0141owcz\u00f3w",
                "addr:housenumber": "96",
                "addr:teryt:sym_ul": 834219,
                "contact:phone": "+48 146525289",
                "contact:email": "sp.lowczow@interia.pl",
                "contact:website": "http:\/\/www.sp.lowczow.pl",
                "ref:regon": "122640736",
                "operator": "Kazimiera Snopkowska",
                "operator:type": "private",
                "amenity": "school"
            }
        },
        {
            "id": 128616,
            "type": "Feature",
            "geometry": {
                "type": "Point",
                "coordinates": [
                    20.9986805,
                    49.910624899999995
                ]
            },
            "properties": {
                "ref:rspo": 128616,
                "official_name": "Publiczne Przedszkole im. Ksi\u0119dza Jerzego Popie\u0142uszki w \u0141owczowie",
                "name": "Publiczne Przedszkole",
                "addr:country": "PL",
                "addr:postcode": "33-170",
                "addr:place": "\u0141owcz\u00f3w",
                "addr:housenumber": "96",
                "addr:teryt:sym_ul": 834219,
                "contact:phone": "+48 146525289",
                "contact:email": "sp.lowczow@interia.pl",
                "contact:website": "http:\/\/sp.lowczow.pl",
                "ref:regon": "362334048",
                "operator": "Kazimiera Snopkowska",
                "operator:type": "private",
                "amenity": "kindergarten"
            }
        },
        {
            "id": 71406,
            "type": "Feature",
            "geometry": {
                "type": "Point",
                "coordinates": [
                    21.04759,
                    49.91829
                ]
            },
            "properties": {
                "isced:level": "1;2",
                "ref:rspo": 71406,
                "official_name": "Szko\u0142a Podstawowa im.jana Paw\u0142a II w Zab\u0142\u0119dzy",
                "name": "Szko\u0142a Podstawowa im.jana Paw\u0142a II w Zab\u0142\u0119dzy",
                "addr:country": "PL",
                "addr:postcode": "33-170",
                "addr:place": "Zab\u0142\u0119dza",
                "addr:housenumber": "38a",
                "addr:teryt:sym_ul": 834580,
                "contact:phone": "+48 146522717",
                "contact:email": "spzabledza@poczta.onet.pl",
                "ref:regon": "001201893",
                "ref:vatin": "PL9930195209",
                "operator": "Gmina Tuch\u00f3w",
                "operator:type": "government",
                "amenity": "school"
            }
        },
        {
            "id": 71167,
            "type": "Feature",
            "geometry": {
                "type": "Point",
                "coordinates": [
                    21.0661,
                    49.92307
                ]
            },
            "properties": {
                "isced:level": "1;2",
                "ref:rspo": 71167,
                "official_name": "Szko\u0142a Podstawowa im. O. W\u0142adys\u0142awa Witkowskiego Redemptorysty w Karwodrzy",
                "name": "Szko\u0142a Podstawowa",
                "addr:country": "PL",
                "addr:postcode": "33-170",
                "addr:place": "Karwodrza",
                "addr:housenumber": "139a",
                "addr:teryt:sym_ul": 834099,
                "contact:phone": "+48 146525284",
                "contact:email": "zskarwodrza@onet.eu",
                "contact:website": "http:\/\/www.spkarwodrza.pl",
                "ref:regon": "001201829",
                "ref:vatin": "PL9930195296",
                "operator": "Gmina Tuch\u00f3w",
                "operator:type": "government",
                "amenity": "school"
            }
        },
        {
            "id": 272528,
            "type": "Feature",
            "geometry": {
                "type": "Point",
                "coordinates": [
                    20.99419,
                    49.92517
                ]
            },
            "properties": {
                "ref:rspo": 272528,
                "official_name": "Zesp\u00f3\u0142 Szkolno-Przedszkolny w Piotrkowicach",
                "name": "Zesp\u00f3\u0142 Szkolno-Przedszkolny w Piotrkowicach",
                "addr:country": "PL",
                "addr:postcode": "33-170",
                "addr:place": "Piotrkowice",
                "addr:housenumber": "7",
                "addr:teryt:sym_ul": 834343,
                "contact:phone": "+48 146520409",
                "contact:email": "sppiotrkowice@op.pl",
                "ref:regon": "384262194",
                "ref:vatin": "PL8731456055",
                "operator": "Barbara Polek",
                "operator:type": "private",
                "landuse": "education",
                "fixme": "amenity=school, amenity=college albo landuse=education w zale\u017cno\u015bci od tego, jakie plac\u00f3wki wchodz\u0105 w sk\u0142ad zespo\u0142u. Sprawd\u017a, kiedy stosowa\u0107 amenity=* a kiedy landuse=education.",
                "note": "Children RSPO: 4554;272282"
            }
        },
        {
            "id": 4554,
            "type": "Feature",
            "geometry": {
                "type": "Point",
                "coordinates": [
                    20.99419,
                    49.92514
                ]
            },
            "properties": {
                "isced:level": "1;2",
                "ref:rspo": 4554,
                "official_name": "Publiczna Szko\u0142a Podstawowa im.ks.pra\u0142ata W\u0142adys\u0142awa Giba\u0142y w Piotrkowicach",
                "name": "Publiczna Szko\u0142a Podstawowa im.ks.pra\u0142ata W\u0142adys\u0142awa Giba\u0142y w Piotrkowicach",
                "addr:country": "PL",
                "addr:postcode": "33-170",
                "addr:place": "Piotrkowice",
                "addr:housenumber": "7",
                "addr:teryt:sym_ul": 834343,
                "contact:phone": "+48 146520409",
                "contact:email": "sppiotrkowice@op.pl",
                "contact:website": "http:\/\/www.sppiotrkowice.tuchow.info",
                "ref:regon": "122640877",
                "ref:vatin": "PL8731456055",
                "operator": "Barbara Polek",
                "operator:type": "private",
                "amenity": "school",
                "note": "Parent RSPO: 272528"
            }
        },
        {
            "id": 272282,
            "type": "Feature",
            "geometry": {
                "type": "Point",
                "coordinates": [
                    20.99419,
                    49.925110000000004
                ]
            },
            "properties": {
                "ref:rspo": 272282,
                "official_name": "Publiczne Przedszkole \"Polak Ma\u0142y\" w Piotrkowicach",
                "name": "Publiczne Przedszkole \"Polak Ma\u0142y\" w Piotrkowicach",
                "addr:country": "PL",
                "addr:postcode": "33-170",
                "addr:place": "Piotrkowice",
                "addr:housenumber": "7",
                "addr:teryt:sym_ul": 834343,
                "contact:phone": "+48 146520409",
                "contact:email": "sppiotrkowice@op.pl",
                "ref:regon": "384084255",
                "ref:vatin": "PL8731456055",
                "operator": "Barbara Polek",
                "operator:type": "private",
                "amenity": "kindergarten",
                "note": "Parent RSPO: 272528"
            }
        },
        {
            "id": 71408,
            "type": "Feature",
            "geometry": {
                "type": "Point",
                "coordinates": [
                    21.07363,
                    49.94929
                ]
            },
            "properties": {
                "isced:level": "1;2",
                "ref:rspo": 71408,
                "official_name": "Niepubliczna Szko\u0142a Podstawowa w Trzemesnej",
                "name": "Niepubliczna Szko\u0142a Podstawowa w Trzemesnej",
                "addr:country": "PL",
                "addr:postcode": "33-170",
                "addr:place": "Trzemesna",
                "addr:housenumber": "100",
                "addr:teryt:sym_ul": 834521,
                "contact:phone": "+48 146744328",
                "contact:email": "sptrzemesna@op.pl",
                "ref:regon": "122698760",
                "ref:vatin": "PL8731457126",
                "operator": "Eugeniusz Krupa",
                "operator:type": "private",
                "amenity": "school"
            }
        }
    ]
}