{
    "type": "FeatureCollection",
    "features": [
        {
            "id": 38635,
            "type": "Feature",
            "geometry": {
                "type": "Point",
                "coordinates": [
                    20.967578887939,
                    49.947772979736
                ]
            },
            "properties": {
                "ref:rspo": 38635,
                "official_name": "Specjalny O\u015brodek Szkolno-Wychowawczy w Wierzchos\u0142awicach-Dwudniakach",
                "name": "Specjalny O\u015brodek Szkolno-Wychowawczy w Wierzchos\u0142awicach-Dwudniakach",
                "addr:postcode": "33-122",
                "addr:place": "Dwudniaki",
                "addr:housenumber": "758",
                "addr:teryt:simc": 835609,
                "phone": "+48 146331930",
                "email": "gimgora@wp.pl",
                "website": "http:\/\/www.soswprometeusz.pl",
                "ref:regon": "000207250",
                "ref:vatin": "PL8731701767",
                "operator": "Powiat Tarnowski",
                "operator:type": "government",
                "amenity": "school",
                "note": "Children RSPO: 38640;38837"
            }
        },
        {
            "id": 38640,
            "type": "Feature",
            "geometry": {
                "type": "Point",
                "coordinates": [
                    20.967578887939,
                    49.947742979736
                ]
            },
            "properties": {
                "ref:rspo": 38640,
                "official_name": "Szko\u0142a Przysposabiaj\u0105ca Do Pracy w Specjalnym O\u015brodku Szkolno-Wychowawczym w Wierzchos\u0142awicach-Dwudniakach",
                "name": "Szko\u0142a Przysposabiaj\u0105ca Do Pracy w Specjalnym O\u015brodku Szkolno-Wychowawczym w Wierzchos\u0142awicach-Dwudniakach",
                "addr:postcode": "33-122",
                "addr:place": "Dwudniaki",
                "addr:housenumber": "758",
                "addr:teryt:simc": 835609,
                "phone": "+48 146331930",
                "email": "gimgora@wp.pl",
                "ref:regon": "852712258",
                "operator": "Powiat Tarnowski",
                "operator:type": "government",
                "amenity": "school",
                "note": "Parent RSPO: 38635"
            }
        },
        {
            "id": 38837,
            "type": "Feature",
            "geometry": {
                "type": "Point",
                "coordinates": [
                    20.967578887939,
                    49.947712979736
                ]
            },
            "properties": {
                "isced:level": "1;2",
                "ref:rspo": 38837,
                "official_name": "Szko\u0142a Podstawowa Specjalna w Wierzchos\u0142awicach-Dwudniakach",
                "name": "Szko\u0142a Podstawowa Specjalna w Wierzchos\u0142awicach-Dwudniakach",
                "addr:postcode": "33-122",
                "addr:place": "Dwudniaki",
                "addr:housenumber": "758",
                "addr:teryt:simc": 835609,
                "phone": "+48 146331930",
                "email": "gimgora@wp.pl",
                "website": "http:\/\/www.sosoprometeusz.pl",
                "ref:regon": "852712235",
                "operator": "Powiat Tarnowski",
                "operator:type": "government",
                "amenity": "school",
                "note": "Parent RSPO: 38635"
            }
        },
        {
            "id": 80196,
            "type": "Feature",
            "geometry": {
                "type": "Point",
                "coordinates": [
                    20.86903,
                    49.97979
                ]
            },
            "properties": {
                "isced:level": "1;2",
                "ref:rspo": 80196,
                "official_name": "Szko\u0142a Podstawowa im. Miko\u0142aja Kopernika w Miko\u0142ajowicach",
                "name": "Szko\u0142a Podstawowa",
                "addr:postcode": "33-121",
                "addr:place": "Miko\u0142ajowice",
                "addr:housenumber": "168",
                "addr:teryt:simc": 835510,
                "phone": "+48 146797258",
                "email": "spmikolajowice@wierzchoslawice.pl",
                "website": "http:\/\/szkolamikolaja.pl",
                "ref:regon": "001202527",
                "ref:vatin": "PL8732824472",
                "operator": "Gmina Wierzchos\u0142awice",
                "operator:type": "government",
                "amenity": "school"
            }
        },
        {
            "id": 80108,
            "type": "Feature",
            "geometry": {
                "type": "Point",
                "coordinates": [
                    20.84534,
                    49.99468
                ]
            },
            "properties": {
                "isced:level": "1;2",
                "ref:rspo": 80108,
                "official_name": "Szko\u0142a Podstawowa im. Tadeusza Ko\u015bciuszki w \u0141\u0119towicach",
                "name": "Szko\u0142a Podstawowa",
                "addr:postcode": "33-121",
                "addr:place": "\u0141\u0119towice",
                "addr:housenumber": "371",
                "addr:teryt:simc": 835495,
                "phone": "+48 146754812",
                "email": "spletowice@wierzchoslawice.pl",
                "website": "http:\/\/spletowice.pl\/",
                "ref:regon": "001202510",
                "ref:vatin": "PL8731210756",
                "operator": "Gmina Wierzchos\u0142awice",
                "operator:type": "government",
                "amenity": "school"
            }
        },
        {
            "id": 80194,
            "type": "Feature",
            "geometry": {
                "type": "Point",
                "coordinates": [
                    20.88542,
                    50.01556
                ]
            },
            "properties": {
                "isced:level": "1;2",
                "ref:rspo": 80194,
                "official_name": "Szko\u0142a Podstawowa im. Ks. Jana Twardowskiego",
                "name": "Szko\u0142a Podstawowa",
                "addr:postcode": "33-122",
                "addr:place": "Ostr\u00f3w",
                "addr:housenumber": "138",
                "addr:teryt:simc": 835555,
                "phone": "+48 146752208",
                "email": "spostrow@wierzchoslawice.pl",
                "ref:regon": "001202533",
                "ref:vatin": "PL8731604395",
                "operator": "Gmina Wierzchos\u0142awice",
                "operator:type": "government",
                "amenity": "school"
            }
        },
        {
            "id": 81588,
            "type": "Feature",
            "geometry": {
                "type": "Point",
                "coordinates": [
                    20.85889,
                    50.01987
                ]
            },
            "properties": {
                "ref:rspo": 81588,
                "official_name": "Przedszkole Publiczne w Wierzchos\u0142awicach",
                "name": "Przedszkole Publiczne w Wierzchos\u0142awicach",
                "addr:postcode": "33-122",
                "addr:place": "Wierzchos\u0142awice",
                "addr:housenumber": "796",
                "addr:teryt:simc": 835590,
                "phone": "+48 146752664",
                "email": "przedszkole@wierzchoslawice.pl",
                "ref:regon": "121419640",
                "ref:vatin": "PL8733234927",
                "operator": "Gmina Wierzchos\u0142awice",
                "operator:type": "government",
                "amenity": "kindergarten"
            }
        },
        {
            "id": 80107,
            "type": "Feature",
            "geometry": {
                "type": "Point",
                "coordinates": [
                    20.85807,
                    50.02099
                ]
            },
            "properties": {
                "isced:level": "1;2",
                "ref:rspo": 80107,
                "official_name": "Szko\u0142a Podstawowa im. 100-Lecia Ruchu Ludowego",
                "name": "Szko\u0142a Podstawowa",
                "addr:postcode": "33-122",
                "addr:place": "Wierzchos\u0142awice",
                "addr:housenumber": "713",
                "addr:teryt:simc": 835590,
                "phone": "+48 146797056",
                "email": "spwierzchoslawice@wierzchoslawice.pl",
                "website": "http:\/\/www.spwierzchoslawice.pl\/",
                "ref:regon": "000718447",
                "ref:vatin": "PL8731453938",
                "operator": "Gmina Wierzchos\u0142awice",
                "operator:type": "government",
                "amenity": "school"
            }
        },
        {
            "id": 269136,
            "type": "Feature",
            "geometry": {
                "type": "Point",
                "coordinates": [
                    20.85467,
                    50.0229
                ]
            },
            "properties": {
                "ref:rspo": 269136,
                "official_name": "Niepubliczne Przedszkole \"S\u0142oneczko\" Z Odzia\u0142ami Integracyjnymi w Wierzchos\u0142awicach",
                "name": "Niepubliczne Przedszkole \"S\u0142oneczko\" Z Odzia\u0142ami Integracyjnymi w Wierzchos\u0142awicach",
                "addr:postcode": "33-122",
                "addr:place": "Wierzchos\u0142awice",
                "addr:housenumber": "144",
                "addr:teryt:simc": 835590,
                "email": "przedszkolesloeczko@wierzchoslawice.eu",
                "ref:regon": "381383490",
                "operator": "Stanis\u0142aw Zi\u0119ba",
                "operator:type": "private",
                "amenity": "kindergarten"
            }
        },
        {
            "id": 81589,
            "type": "Feature",
            "geometry": {
                "type": "Point",
                "coordinates": [
                    20.88705,
                    50.04892
                ]
            },
            "properties": {
                "isced:level": "1;2",
                "ref:rspo": 81589,
                "official_name": "Szko\u0142a Podstawowa im. Wincentego Witosa w Rudce",
                "name": "Szko\u0142a Podstawowa",
                "addr:postcode": "33-122",
                "addr:place": "Rudka",
                "addr:housenumber": "163",
                "addr:teryt:simc": 835561,
                "phone": "+48 146797247",
                "email": "sprudka@wierzchoslawice.pl",
                "website": "http:\/\/www.sprudka.pl",
                "ref:regon": "001202540",
                "ref:vatin": "PL8731210176",
                "operator": "Gmina Wierzchos\u0142awice",
                "operator:type": "government",
                "amenity": "school"
            }
        }
    ]
}