{"type":"FeatureCollection","features":[{"id":268368,"type":"Feature","geometry":{"type":"Point","coordinates":[21.18421,49.80287]},"properties":{"ref:rspo":268368,"official_name":"Niepubliczne Przedszkole Bajkolandia","name":"Niepubliczne Przedszkole Bajkolandia","addr:country":"PL","addr:postcode":"38-247","addr:place":"O\u0142piny","addr:housenumber":"639","addr:teryt:sym_ul":832338,"contact:email":"mariuszantosz@interia.pl","ref:regon":"381116256","operator":"Mariusz Antosz","operator:type":"private","amenity":"kindergarten"}},{"id":51286,"type":"Feature","geometry":{"type":"Point","coordinates":[21.20292,49.80732]},"properties":{"ref:rspo":51286,"official_name":"Publiczne Przedszkole w O\u0142pinach","name":"Publiczne Przedszkole w O\u0142pinach","addr:country":"PL","addr:postcode":"38-247","addr:place":"O\u0142piny","addr:housenumber":"89","addr:teryt:sym_ul":832338,"contact:phone":"+48 146519203","contact:email":"przedszkole89@onet.eu","ref:regon":"850471589","ref:vatin":"PL6852051592","operator":"Gmina Szerzyny","operator:type":"government","amenity":"kindergarten"}},{"id":82952,"type":"Feature","geometry":{"type":"Point","coordinates":[21.1999299,49.80812]},"properties":{"isced:level":"1;2","ref:rspo":82952,"official_name":"Publiczna Szko\u0142a Podstawowa im. Ks. Pra\u0142. Jana \u015aL\u0119zaka w O\u0142pinach","name":"Publiczna Szko\u0142a Podstawowa","addr:country":"PL","addr:postcode":"38-247","addr:place":"O\u0142piny","addr:housenumber":"451","addr:teryt:sym_ul":832338,"contact:phone":"+48 146519202","contact:email":"olpiny@op.pl","contact:website":"http:\/\/www.szkolaolpiny.pl","ref:regon":"370473134","ref:vatin":"PL6852051497","operator":"Gmina Szerzyny","operator:type":"government","amenity":"school"}},{"id":82867,"type":"Feature","geometry":{"type":"Point","coordinates":[21.24574,49.80912]},"properties":{"isced:level":"1;2","ref:rspo":82867,"official_name":"Publiczna Szko\u0142a Podstawowa im. Ks. Kard. Stefana Wyszy\u0144skiego w Szerzynach","name":"Publiczna Szko\u0142a Podstawowa","addr:country":"PL","addr:postcode":"38-246","addr:place":"Szerzyny","addr:housenumber":"544","addr:teryt:sym_ul":832491,"contact:phone":"+48 146517400","contact:email":"zsszerzyny@wp.pl","ref:regon":"370475765","ref:vatin":"PL6852051698","operator":"Gmina Szerzyny","operator:type":"government","amenity":"school"}},{"id":51285,"type":"Feature","geometry":{"type":"Point","coordinates":[21.24584,49.80956]},"properties":{"ref:rspo":51285,"official_name":"Publiczne Przedszkole w Szerzynach","name":"Publiczne Przedszkole w Szerzynach","addr:country":"PL","addr:postcode":"38-246","addr:place":"Szerzyny","addr:housenumber":"295","addr:teryt:sym_ul":832491,"contact:phone":"+48 146517448","contact:email":"zofiadz@op.pl","ref:regon":"850471595","ref:vatin":"PL6852051586","operator":"Gmina Szerzyny","operator:type":"government","amenity":"kindergarten"}},{"id":80415,"type":"Feature","geometry":{"type":"Point","coordinates":[21.29404,49.81832]},"properties":{"isced:level":"1;2","ref:rspo":80415,"official_name":"Publiczna Szko\u0142a Podstawowa im. B\u0142. Karoliny K\u00f3zki","name":"Publiczna Szko\u0142a Podstawowa","addr:country":"PL","addr:postcode":"38-245","addr:place":"Czermna","addr:housenumber":"115","addr:teryt:sym_ul":832232,"contact:phone":"+48 146528128","contact:email":"zsczermna@wp.pl","contact:website":"http:\/\/zsczermna.szkolnastrona.pl","ref:regon":"370476078","ref:vatin":"PL6852051534","operator":"Gmina Szerzyny","operator:type":"government","amenity":"school"}},{"id":51284,"type":"Feature","geometry":{"type":"Point","coordinates":[21.16644,49.83077]},"properties":{"isced:level":"1;2","ref:rspo":51284,"official_name":"Publiczna Szko\u0142a Podstawowa im. \u015awi\u0119tej Jadwigi Kr\u00f3lowej w \u017burowej","name":"Publiczna Szko\u0142a Podstawowa","addr:country":"PL","addr:postcode":"38-247","addr:place":"\u017burowa","addr:housenumber":"193","addr:teryt:sym_ul":832568,"contact:phone":"+48 146518322","contact:email":"spzurowa@wp.pl","ref:regon":"001188282","ref:vatin":"PL6852051669","operator":"Gmina Szerzyny","operator:type":"government","amenity":"school"}},{"id":51283,"type":"Feature","geometry":{"type":"Point","coordinates":[21.21581,49.83795]},"properties":{"isced:level":"1;2","ref:rspo":51283,"official_name":"Publiczna Szko\u0142a Podstawowa im. Jana Paw\u0142a II w Swoszowej","name":"Publiczna Szko\u0142a Podstawowa","addr:country":"PL","addr:postcode":"38-246","addr:place":"Swoszowa","addr:housenumber":"170","addr:teryt:sym_ul":832433,"contact:phone":"+48 146517530","contact:email":"spswoszowa@wp.pl","ref:regon":"001188276","ref:vatin":"PL6852051652","operator":"Gmina Szerzyny","operator:type":"government","amenity":"school"}}]}