{
    "type": "FeatureCollection",
    "features": [
        {
            "id": 59785,
            "type": "Feature",
            "geometry": {
                "type": "Point",
                "coordinates": [
                    20.91665,
                    50.06649
                ]
            },
            "properties": {
                "isced:level": "1;2",
                "ref:rspo": 59785,
                "official_name": "Szko\u0142a Podstawowa w Bobrownikach Wielkich",
                "name": "Szko\u0142a Podstawowa w Bobrownikach Wielkich",
                "addr:country": "PL",
                "addr:postcode": "33-131",
                "addr:city": "Bobrowniki Wielkie",
                "addr:street": "D\u0142uga",
                "addr:housenumber": "63",
                "addr:teryt:simc": 3839,
                "addr:teryt:sym_ul": 837614,
                "contact:phone": "+48 146451880",
                "contact:email": "szkolabobrownikiwielkie@zabno.pl",
                "contact:website": "http:\/\/spbobrownikiwielkie.edupage.pl",
                "ref:regon": "001277264",
                "ref:vatin": "PL9930203044",
                "operator": "Gmina \u017babno",
                "operator:type": "government",
                "amenity": "school"
            }
        },
        {
            "id": 121393,
            "type": "Feature",
            "geometry": {
                "type": "Point",
                "coordinates": [
                    20.91978,
                    50.07386
                ]
            },
            "properties": {
                "ref:rspo": 121393,
                "official_name": "Stowarzyszenie In\u017cynier\u00f3w I Technik\u00f3w Mechanik\u00f3w Polskich Simp-Automex Centrum Motoryzacji Piotr G\u0119bi\u015b",
                "name": "Stowarzyszenie In\u017cynier\u00f3w I Technik\u00f3w Mechanik\u00f3w Polskich Simp-Automex Centrum Motoryzacji Piotr G\u0119bi\u015b",
                "addr:country": "PL",
                "addr:postcode": "33-131",
                "addr:city": "\u0141\u0119g Tarnowski",
                "addr:street": "Tarnowska",
                "addr:housenumber": "167",
                "addr:teryt:simc": 22681,
                "addr:teryt:sym_ul": 837844,
                "contact:phone": "+48 146450042",
                "contact:email": "biur@simp.edu.pl",
                "contact:website": "http:\/\/www.simp.edu.pl",
                "ref:regon": "123019642",
                "ref:vatin": "PL8710000634",
                "operator": "Piotr G\u0119bi\u015b",
                "operator:type": "private",
                "fixme": "w zale\u017cno\u015bci od przedmiotu dzia\u0142alno\u015bci (np. amenity=training + training=*, amenity=dancing_school, amenity=language_school, amenity=music_school) albo amenity=school, amenity=college, albo landuse=education w zale\u017cno\u015bci od tego, jakie plac\u00f3wki wchodz\u0105 w sk\u0142ad zespo\u0142u. Sprawd\u017a, kiedy stosowa\u0107 amenity=* a kiedy landuse=education."
            }
        },
        {
            "id": 272164,
            "type": "Feature",
            "geometry": {
                "type": "Point",
                "coordinates": [
                    20.9202248,
                    50.077231
                ]
            },
            "properties": {
                "ref:rspo": 272164,
                "official_name": "Publiczne Przedszkole w \u0141\u0119gu Tarnowskim Nr 2",
                "name": "Publiczne Przedszkole w \u0141\u0119gu Tarnowskim Nr 2",
                "addr:country": "PL",
                "addr:postcode": "33-131",
                "addr:city": "\u0141\u0119g Tarnowski",
                "addr:street": "Zborowskiego",
                "addr:housenumber": "37",
                "addr:teryt:simc": 25903,
                "addr:teryt:sym_ul": 837844,
                "contact:phone": "+48 146451187",
                "contact:email": "przedszkolelegtarnowski2@gmail.com",
                "ref:regon": "383984494",
                "ref:vatin": "PL9930673643",
                "operator": "Gmina \u017babno",
                "operator:type": "government",
                "amenity": "kindergarten"
            }
        },
        {
            "id": 49901,
            "type": "Feature",
            "geometry": {
                "type": "Point",
                "coordinates": [
                    20.91327,
                    50.0874
                ]
            },
            "properties": {
                "ref:rspo": 49901,
                "official_name": "Zesp\u00f3\u0142 Szko\u0142y Podstawowej I Przedszkola w Ilkowicach",
                "name": "Zesp\u00f3\u0142 Szko\u0142y Podstawowej I Przedszkola w Ilkowicach",
                "addr:country": "PL",
                "addr:postcode": "33-131",
                "addr:city": "Ilkowice",
                "addr:street": "Rudno",
                "addr:housenumber": "195",
                "addr:teryt:simc": 29452,
                "addr:teryt:sym_ul": 837755,
                "contact:phone": "+48 146451114",
                "contact:email": "ilkowice@vp.pl",
                "contact:website": "http:\/\/ilkowice.eu",
                "ref:regon": "122695890",
                "ref:vatin": "PL9930452132",
                "operator": "\"Stowarzyszenie Rozwoju Wsi Ilkowice\"",
                "operator:type": "ngo",
                "landuse": "education",
                "fixme": "amenity=school, amenity=college albo landuse=education w zale\u017cno\u015bci od tego, jakie plac\u00f3wki wchodz\u0105 w sk\u0142ad zespo\u0142u. Sprawd\u017a, kiedy stosowa\u0107 amenity=* a kiedy landuse=education.",
                "note": "Children RSPO: 82353;82354"
            }
        },
        {
            "id": 82353,
            "type": "Feature",
            "geometry": {
                "type": "Point",
                "coordinates": [
                    20.91327,
                    50.08737
                ]
            },
            "properties": {
                "isced:level": "1;2",
                "ref:rspo": 82353,
                "official_name": "Szko\u0142a Podstawowa im. B\u0142ogos\u0142awionej Karoliny w Ilkowicach",
                "name": "Szko\u0142a Podstawowa",
                "addr:country": "PL",
                "addr:postcode": "33-131",
                "addr:city": "Ilkowice",
                "addr:street": "Rudno",
                "addr:housenumber": "195",
                "addr:teryt:simc": 29452,
                "addr:teryt:sym_ul": 837755,
                "contact:phone": "+48 146451114",
                "contact:email": "ilkowice@vp.pl",
                "contact:website": "http:\/\/ilkowice.eu",
                "ref:regon": "122713866",
                "operator": "\"Stowarzyszenie Rozwoju Wsi Ilkowice\"",
                "operator:type": "ngo",
                "amenity": "school",
                "note": "Parent RSPO: 49901"
            }
        },
        {
            "id": 82354,
            "type": "Feature",
            "geometry": {
                "type": "Point",
                "coordinates": [
                    20.91327,
                    50.087340000000005
                ]
            },
            "properties": {
                "ref:rspo": 82354,
                "official_name": "Publiczne Przedszkole w Ilkowicach",
                "name": "Publiczne Przedszkole w Ilkowicach",
                "addr:country": "PL",
                "addr:postcode": "33-131",
                "addr:city": "Ilkowice",
                "addr:street": "Rudno",
                "addr:housenumber": "195",
                "addr:teryt:simc": 29452,
                "addr:teryt:sym_ul": 837755,
                "contact:phone": "+48 146451114",
                "contact:email": "ilkowice@vp.pl",
                "contact:website": "http:\/\/ilkowice.eu",
                "ref:regon": "122712909",
                "operator": "\"Stowarzyszenie Rozwoju Wsi Ilkowice\"",
                "operator:type": "ngo",
                "amenity": "kindergarten",
                "note": "Parent RSPO: 49901"
            }
        },
        {
            "id": 49921,
            "type": "Feature",
            "geometry": {
                "type": "Point",
                "coordinates": [
                    20.92601,
                    50.0917
                ]
            },
            "properties": {
                "ref:rspo": 49921,
                "official_name": "Publiczne Przedszkole w \u0141\u0119gu Tarnowskim Nr 1",
                "name": "Publiczne Przedszkole w \u0141\u0119gu Tarnowskim Nr 1",
                "addr:country": "PL",
                "addr:postcode": "33-131",
                "addr:city": "\u0141\u0119g Tarnowski",
                "addr:street": "Wincentego Witosa",
                "addr:housenumber": "187A",
                "addr:teryt:simc": 24454,
                "addr:teryt:sym_ul": 837844,
                "contact:phone": "+48 146451364",
                "contact:email": "przedszkolelegtarnowski@zabno.pl",
                "contact:website": "http:\/\/pplt.przedszkolna.net",
                "ref:regon": "851784155",
                "ref:vatin": "PL9930202990",
                "operator": "Gmina \u017babno",
                "operator:type": "government",
                "amenity": "kindergarten"
            }
        },
        {
            "id": 49915,
            "type": "Feature",
            "geometry": {
                "type": "Point",
                "coordinates": [
                    20.92834,
                    50.09179
                ]
            },
            "properties": {
                "isced:level": "1;2",
                "ref:rspo": 49915,
                "official_name": "Szko\u0142a Podstawowa im. Ojca \u015awi\u0119tego Jana Paw\u0142a II w \u0141\u0119gu Tarnowskim",
                "name": "Szko\u0142a Podstawowa",
                "addr:country": "PL",
                "addr:postcode": "33-131",
                "addr:city": "\u0141\u0119g Tarnowski",
                "addr:street": "Wincentego Witosa",
                "addr:housenumber": "140",
                "addr:teryt:simc": 24454,
                "addr:teryt:sym_ul": 837844,
                "contact:phone": "+48 146451180",
                "contact:email": "szp_legtarnowski_jp@poczta.onet.pl",
                "contact:website": "http:\/\/splegtarnowsk.edupage.org",
                "ref:regon": "852526410",
                "ref:vatin": "PL9930269793",
                "operator": "Gmina \u017babno",
                "operator:type": "government",
                "amenity": "school"
            }
        },
        {
            "id": 49920,
            "type": "Feature",
            "geometry": {
                "type": "Point",
                "coordinates": [
                    20.89299,
                    50.10447
                ]
            },
            "properties": {
                "ref:rspo": 49920,
                "official_name": "Publiczne Przedszkole w Niedomicach",
                "name": "Publiczne Przedszkole w Niedomicach",
                "addr:country": "PL",
                "addr:postcode": "33-132",
                "addr:city": "Niedomice",
                "addr:street": "Szkolna",
                "addr:housenumber": "2",
                "addr:teryt:simc": 21970,
                "addr:teryt:sym_ul": 838000,
                "contact:phone": "+48 146457103",
                "contact:email": "przedszkoleniedomice@zabno.pl",
                "contact:website": "http:\/\/ppniedomice.przedszkolna.net",
                "ref:regon": "851784132",
                "ref:vatin": "PL9930202889",
                "operator": "Gmina \u017babno",
                "operator:type": "government",
                "amenity": "kindergarten"
            }
        },
        {
            "id": 82351,
            "type": "Feature",
            "geometry": {
                "type": "Point",
                "coordinates": [
                    20.89299,
                    50.10444
                ]
            },
            "properties": {
                "isced:level": "1;2",
                "ref:rspo": 82351,
                "official_name": "Szko\u0142a Podstawowa im. Polskich Olimpijczyk\u00f3w Z Oddzia\u0142ami Sportowymi w Niedomicach",
                "name": "Szko\u0142a Podstawowa",
                "addr:country": "PL",
                "addr:postcode": "33-132",
                "addr:city": "Niedomice",
                "addr:street": "Szkolna",
                "addr:housenumber": "2",
                "addr:teryt:simc": 21970,
                "addr:teryt:sym_ul": 838000,
                "contact:phone": "+48 146457575",
                "contact:email": "szkolaniedomice@gmail.com",
                "contact:website": "http:\/\/www.szkolaniedomice.pl",
                "ref:regon": "000269073",
                "ref:vatin": "PL9930203009",
                "operator": "Gmina \u017babno",
                "operator:type": "government",
                "amenity": "school"
            }
        },
        {
            "id": 120571,
            "type": "Feature",
            "geometry": {
                "type": "Point",
                "coordinates": [
                    20.8996,
                    50.1275199
                ]
            },
            "properties": {
                "ref:rspo": 120571,
                "official_name": "Akademia Malucha Smerfna Chata",
                "name": "Akademia Malucha Smerfna Chata",
                "addr:country": "PL",
                "addr:postcode": "33-240",
                "addr:city": "\u017babno",
                "addr:street": "Aleja Pi\u0142sudskiego",
                "addr:housenumber": "92",
                "addr:teryt:simc": 34879,
                "addr:teryt:sym_ul": 982641,
                "contact:email": "akademiamalucha1@go2.pl",
                "ref:regon": "122964806",
                "ref:vatin": "PL8711215472",
                "operator": "Mariola Mierzewska",
                "operator:type": "private",
                "amenity": "kindergarten"
            }
        },
        {
            "id": 49914,
            "type": "Feature",
            "geometry": {
                "type": "Point",
                "coordinates": [
                    20.89228,
                    50.13217
                ]
            },
            "properties": {
                "isced:level": "1;2",
                "ref:rspo": 49914,
                "official_name": "Szko\u0142a Podstawowa im. Stanis\u0142awa Wyspia\u0144skiego w \u017babnie",
                "name": "Szko\u0142a Podstawowa",
                "addr:country": "PL",
                "addr:postcode": "33-240",
                "addr:city": "\u017babno",
                "addr:street": "W\u0142adys\u0142awa Jagie\u0142\u0142y",
                "addr:housenumber": "18",
                "addr:teryt:simc": 24494,
                "addr:teryt:sym_ul": 982641,
                "contact:phone": "+48 146456445",
                "contact:email": "spzabno@gmail.com",
                "contact:website": "http:\/\/www.spzabno.edu.pl",
                "ref:regon": "001201960",
                "ref:vatin": "PL9930202932",
                "operator": "Gmina \u017babno",
                "operator:type": "government",
                "amenity": "school"
            }
        },
        {
            "id": 57822,
            "type": "Feature",
            "geometry": {
                "type": "Point",
                "coordinates": [
                    20.89228,
                    50.13214
                ]
            },
            "properties": {
                "ref:rspo": 57822,
                "official_name": "Powiatowa Poradnia Psychologiczno-Pedagogiczna w Tarnowie Filia w \u017babnie",
                "name": "Powiatowa Poradnia Psychologiczno-Pedagogiczna w Tarnowie Filia w \u017babnie",
                "addr:country": "PL",
                "addr:postcode": "33-240",
                "addr:city": "\u017babno",
                "addr:street": "W\u0142adys\u0142awa Jagie\u0142\u0142y",
                "addr:housenumber": "18",
                "addr:teryt:simc": 24494,
                "addr:teryt:sym_ul": 982641,
                "contact:phone": "+48 146456936",
                "contact:email": "filiazabno@pppptarnow.pl",
                "ref:regon": "851814608",
                "ref:vatin": "PL8732859884",
                "operator": "Powiat Tarnowski",
                "operator:type": "government",
                "healthcare": "counselling",
                "counselling_type": "education",
                "fixme": "w zale\u017cno\u015bci od przedmiotu dzia\u0142alno\u015bci (np. healthcare=counselling + counselling_type=education albo healthcare=psychotherapist)",
                "note": "Parent RSPO: 38611"
            }
        },
        {
            "id": 49918,
            "type": "Feature",
            "geometry": {
                "type": "Point",
                "coordinates": [
                    20.89018,
                    50.13284
                ]
            },
            "properties": {
                "ref:rspo": 49918,
                "official_name": "Publiczne Przedszkole w \u017babnie",
                "name": "Publiczne Przedszkole w \u017babnie",
                "addr:country": "PL",
                "addr:postcode": "33-240",
                "addr:city": "\u017babno",
                "addr:street": "W\u0142adys\u0142awa Jagie\u0142\u0142y",
                "addr:housenumber": "12",
                "addr:teryt:simc": 24494,
                "addr:teryt:sym_ul": 982641,
                "contact:phone": "+48 146456973",
                "contact:email": "przedszkolezabno@zabno.pl",
                "contact:website": "http:\/\/przedszkole.zabno.com",
                "ref:regon": "851784149",
                "ref:vatin": "PL9930202895",
                "operator": "Gmina \u017babno",
                "operator:type": "government",
                "amenity": "kindergarten"
            }
        },
        {
            "id": 38672,
            "type": "Feature",
            "geometry": {
                "type": "Point",
                "coordinates": [
                    20.88497,
                    50.13339
                ]
            },
            "properties": {
                "ref:rspo": 38672,
                "official_name": "Zesp\u00f3\u0142 Szk\u00f3\u0142 Ponadpodstawowych im.ks.janusza St. Pasierba w \u017babnie",
                "name": "Zesp\u00f3\u0142 Szk\u00f3\u0142 Ponadpodstawowych im.ks.janusza St. Pasierba w \u017babnie",
                "addr:country": "PL",
                "addr:postcode": "33-240",
                "addr:city": "\u017babno",
                "addr:street": "Rynek",
                "addr:housenumber": "26",
                "addr:teryt:simc": 19252,
                "addr:teryt:sym_ul": 982641,
                "contact:phone": "+48 146456187",
                "contact:email": "zsp-zabno@wp.pl",
                "contact:website": "http:\/\/www.zspzabno.pl",
                "ref:regon": "000181349",
                "ref:vatin": "PL8711010600",
                "operator": "Powiat Tarnowski",
                "operator:type": "government",
                "landuse": "education",
                "fixme": "amenity=school, amenity=college albo landuse=education w zale\u017cno\u015bci od tego, jakie plac\u00f3wki wchodz\u0105 w sk\u0142ad zespo\u0142u. Sprawd\u017a, kiedy stosowa\u0107 amenity=* a kiedy landuse=education.",
                "note": "Children RSPO: 38673;38674;38675"
            }
        },
        {
            "id": 38673,
            "type": "Feature",
            "geometry": {
                "type": "Point",
                "coordinates": [
                    20.88497,
                    50.133359999999996
                ]
            },
            "properties": {
                "isced:level": "3",
                "ref:rspo": 38673,
                "official_name": "Liceum Og\u00f3lnokszta\u0142c\u0105ce w \u017babnie",
                "name": "Liceum Og\u00f3lnokszta\u0142c\u0105ce w \u017babnie",
                "addr:country": "PL",
                "addr:postcode": "33-240",
                "addr:city": "\u017babno",
                "addr:street": "Rynek",
                "addr:housenumber": "26",
                "addr:teryt:simc": 19252,
                "addr:teryt:sym_ul": 982641,
                "contact:phone": "+48 146456187",
                "contact:email": "zsp-zabno@wp.pl",
                "contact:website": "http:\/\/www.zspzabno.pl",
                "ref:regon": "852622561",
                "ref:vatin": "PL8711010600",
                "operator": "Powiat Tarnowski",
                "operator:type": "government",
                "amenity": "school",
                "note": "Parent RSPO: 38672"
            }
        },
        {
            "id": 38674,
            "type": "Feature",
            "geometry": {
                "type": "Point",
                "coordinates": [
                    20.88497,
                    50.13333
                ]
            },
            "properties": {
                "isced:level": "3",
                "ref:rspo": 38674,
                "official_name": "Technikum w \u017babnie",
                "name": "Technikum w \u017babnie",
                "addr:country": "PL",
                "addr:postcode": "33-240",
                "addr:city": "\u017babno",
                "addr:street": "Rynek",
                "addr:housenumber": "26",
                "addr:teryt:simc": 19252,
                "addr:teryt:sym_ul": 982641,
                "contact:phone": "+48 146456187",
                "contact:email": "zsp-zabno@wp.pl",
                "contact:website": "http:\/\/www.zspzabno.pl",
                "ref:regon": "852637700",
                "ref:vatin": "PL8711010600",
                "operator": "Powiat Tarnowski",
                "operator:type": "government",
                "amenity": "school",
                "note": "Parent RSPO: 38672"
            }
        },
        {
            "id": 38675,
            "type": "Feature",
            "geometry": {
                "type": "Point",
                "coordinates": [
                    20.88497,
                    50.1333
                ]
            },
            "properties": {
                "isced:level": "3",
                "ref:rspo": 38675,
                "official_name": "Bran\u017cowa Szko\u0142a I Stopnia w \u017babnie",
                "name": "Bran\u017cowa Szko\u0142a I Stopnia w \u017babnie",
                "addr:country": "PL",
                "addr:postcode": "33-240",
                "addr:city": "\u017babno",
                "addr:street": "Rynek",
                "addr:housenumber": "26",
                "addr:teryt:simc": 19252,
                "addr:teryt:sym_ul": 982641,
                "contact:phone": "+48 146456187",
                "contact:email": "zsp-zabno@wp.pl",
                "contact:website": "http:\/\/www.zspzabno.pl",
                "ref:regon": "852622408",
                "ref:vatin": "PL8711010600",
                "operator": "Powiat Tarnowski",
                "operator:type": "government",
                "amenity": "school",
                "note": "Parent RSPO: 38672"
            }
        },
        {
            "id": 49917,
            "type": "Feature",
            "geometry": {
                "type": "Point",
                "coordinates": [
                    20.93363,
                    50.13709
                ]
            },
            "properties": {
                "isced:level": "1;2",
                "ref:rspo": 49917,
                "official_name": "Szko\u0142a Podstawowa w Sieradzy",
                "name": "Szko\u0142a Podstawowa w Sieradzy",
                "addr:country": "PL",
                "addr:postcode": "33-240",
                "addr:place": "Sieradza",
                "addr:housenumber": "70",
                "addr:teryt:sym_ul": 838335,
                "contact:phone": "+48 146456513",
                "contact:email": "spsieradza@op.pl",
                "ref:regon": "001201953",
                "ref:vatin": "PL9930203050",
                "operator": "Gmina \u017babno",
                "operator:type": "government",
                "amenity": "school"
            }
        },
        {
            "id": 49916,
            "type": "Feature",
            "geometry": {
                "type": "Point",
                "coordinates": [
                    20.91172,
                    50.14796
                ]
            },
            "properties": {
                "isced:level": "1;2",
                "ref:rspo": 49916,
                "official_name": "Szko\u0142a Podstawowa im. Jana Wn\u0119ka w Odporyszowie",
                "name": "Szko\u0142a Podstawowa",
                "addr:country": "PL",
                "addr:postcode": "33-240",
                "addr:city": "Odporysz\u00f3w",
                "addr:street": "\u0179wiernik",
                "addr:housenumber": "41",
                "addr:teryt:simc": 31108,
                "addr:teryt:sym_ul": 838039,
                "contact:phone": "+48 146456573",
                "contact:email": "szp.odporyszow@interia.pl",
                "contact:website": "http:\/\/www.spodporyszow.edu.pl",
                "ref:regon": "001277258",
                "ref:vatin": "PL9930203015",
                "operator": "Gmina \u017babno",
                "operator:type": "government",
                "amenity": "school"
            }
        },
        {
            "id": 80747,
            "type": "Feature",
            "geometry": {
                "type": "Point",
                "coordinates": [
                    20.9158,
                    50.15099
                ]
            },
            "properties": {
                "ref:rspo": 80747,
                "official_name": "Ochronka Zgromadzenia Siostr S\u0142u\u017cebniczek Bdnp Niepubliczne Przedszkole",
                "name": "Ochronka Zgromadzenia Siostr S\u0142u\u017cebniczek Bdnp Niepubliczne Przedszkole",
                "addr:country": "PL",
                "addr:postcode": "33-240",
                "addr:city": "Odporysz\u00f3w",
                "addr:street": "Jana Paw\u0142a II",
                "addr:housenumber": "56",
                "addr:teryt:simc": 7123,
                "addr:teryt:sym_ul": 838039,
                "contact:phone": "+48 146456966",
                "contact:email": "ochronka.odporyszow@wp.pl",
                "ref:regon": "122712944",
                "ref:vatin": "PL9930650004",
                "operator": "Zgromadzenie Si\u00f3str S\u0142u\u017cebniczek Bdnp, Prowincja Tarnowska",
                "operator:type": "religious",
                "amenity": "kindergarten"
            }
        },
        {
            "id": 49902,
            "type": "Feature",
            "geometry": {
                "type": "Point",
                "coordinates": [
                    20.84786,
                    50.15667
                ]
            },
            "properties": {
                "ref:rspo": 49902,
                "official_name": "Publiczny Katolicki Zesp\u00f3\u0142 Szk\u00f3\u0142 I Przedszkola w Niecieczy",
                "name": "Publiczny Katolicki Zesp\u00f3\u0142 Szk\u00f3\u0142 I Przedszkola w Niecieczy",
                "addr:country": "PL",
                "addr:postcode": "33-240",
                "addr:place": "Nieciecza",
                "addr:housenumber": "175",
                "addr:teryt:sym_ul": 837985,
                "contact:phone": "+48 146456947",
                "contact:email": "sekretariat@szkola-nieciecza.pl",
                "contact:website": "http:\/\/szkola.nieciecza.pl",
                "ref:regon": "122691047",
                "ref:vatin": "PL8711508056",
                "operator": "Danuta Witkowska",
                "operator:type": "private",
                "landuse": "education",
                "fixme": "amenity=school, amenity=college albo landuse=education w zale\u017cno\u015bci od tego, jakie plac\u00f3wki wchodz\u0105 w sk\u0142ad zespo\u0142u. Sprawd\u017a, kiedy stosowa\u0107 amenity=* a kiedy landuse=education.",
                "note": "Children RSPO: 82335;82357"
            }
        },
        {
            "id": 82335,
            "type": "Feature",
            "geometry": {
                "type": "Point",
                "coordinates": [
                    20.84786,
                    50.156639999999996
                ]
            },
            "properties": {
                "ref:rspo": 82335,
                "official_name": "Publiczne Katolickie Przedszkole w Niecieczy",
                "name": "Publiczne Katolickie Przedszkole w Niecieczy",
                "addr:country": "PL",
                "addr:postcode": "33-240",
                "addr:place": "Nieciecza",
                "addr:housenumber": "175",
                "addr:teryt:sym_ul": 837985,
                "contact:phone": "+48 146456947",
                "contact:email": "sekretariat@szkola-nieciecza.pl",
                "contact:website": "http:\/\/szkola.nieciecza.pl",
                "ref:regon": "122713777",
                "operator": "Danuta Witkowska",
                "operator:type": "private",
                "amenity": "kindergarten",
                "note": "Parent RSPO: 49902"
            }
        },
        {
            "id": 82357,
            "type": "Feature",
            "geometry": {
                "type": "Point",
                "coordinates": [
                    20.84786,
                    50.15661
                ]
            },
            "properties": {
                "isced:level": "1;2",
                "ref:rspo": 82357,
                "official_name": "Publiczna Katolicka Szko\u0142a Podstawowa im. Armii Krajowej w Niecieczy",
                "name": "Publiczna Katolicka Szko\u0142a Podstawowa",
                "addr:country": "PL",
                "addr:postcode": "33-240",
                "addr:place": "Nieciecza",
                "addr:housenumber": "175",
                "addr:teryt:sym_ul": 837985,
                "contact:phone": "+48 146456947",
                "contact:email": "sekretariat@szkola-nieciecza.pl",
                "contact:website": "http:\/\/szkola-nieciecza.pl",
                "ref:regon": "122713790",
                "operator": "Danuta Witkowska",
                "operator:type": "private",
                "amenity": "school",
                "note": "Parent RSPO: 49902"
            }
        },
        {
            "id": 59786,
            "type": "Feature",
            "geometry": {
                "type": "Point",
                "coordinates": [
                    20.8084162,
                    50.1676241
                ]
            },
            "properties": {
                "ref:rspo": 59786,
                "official_name": "Niepubliczne Przedszkole w Pasiece Otfinowskiej",
                "name": "Niepubliczne Przedszkole w Pasiece Otfinowskiej",
                "addr:country": "PL",
                "addr:postcode": "33-270",
                "addr:place": "Pasieka Otfinowska",
                "addr:housenumber": "145",
                "addr:teryt:sym_ul": 838157,
                "contact:phone": "+48 146283464",
                "contact:email": "przybyslawice.szkola@op.pl",
                "contact:website": "http:\/\/przybyslawice.net.pl",
                "ref:regon": "122699623",
                "ref:vatin": "PL9930446143",
                "operator": "Rozw\u00f3j Wsi Przybys\u0142awice I Pasieka Otfinowska",
                "operator:type": "ngo",
                "amenity": "kindergarten"
            }
        },
        {
            "id": 59787,
            "type": "Feature",
            "geometry": {
                "type": "Point",
                "coordinates": [
                    20.81482,
                    50.17857
                ]
            },
            "properties": {
                "ref:rspo": 59787,
                "official_name": "Przedszkole Niepubliczne Ochronka \u015aw. J\u00f3zefa",
                "name": "Przedszkole Niepubliczne Ochronka \u015aw. J\u00f3zefa",
                "addr:country": "PL",
                "addr:postcode": "33-250",
                "addr:place": "Otfin\u00f3w",
                "addr:housenumber": "36",
                "addr:teryt:sym_ul": 838097,
                "contact:phone": "+48 146452372",
                "contact:email": "otfinow@interia.pl",
                "ref:regon": "122699592",
                "ref:vatin": "PL9930211210",
                "operator": "Zgromadzenie Si\u00f3str S\u0142u\u017cebniczek Naj\u015bwi\u0119tszej Maryi Panny Niepokalanie Pocz\u0119tej Prowincja Tarnowska",
                "operator:type": "religious",
                "amenity": "kindergarten"
            }
        },
        {
            "id": 44723,
            "type": "Feature",
            "geometry": {
                "type": "Point",
                "coordinates": [
                    20.8141402,
                    50.180462
                ]
            },
            "properties": {
                "ref:rspo": 44723,
                "official_name": "Zesp\u00f3\u0142 Szko\u0142y Podstawowej I Przedszkola w Otfinowie",
                "name": "Zesp\u00f3\u0142 Szko\u0142y Podstawowej I Przedszkola w Otfinowie",
                "addr:country": "PL",
                "addr:postcode": "33-250",
                "addr:place": "Otfin\u00f3w",
                "addr:housenumber": "58",
                "addr:teryt:sym_ul": 838097,
                "contact:phone": "+48 146452306",
                "contact:email": "szkolaotfinow@zabno.pl",
                "contact:website": "http:\/\/www.zsotfinow.szkolnastrona.pl",
                "ref:regon": "852634073",
                "ref:vatin": "PL9930305767",
                "operator": "Gmina \u017babno",
                "operator:type": "government",
                "landuse": "education",
                "fixme": "amenity=school, amenity=college albo landuse=education w zale\u017cno\u015bci od tego, jakie plac\u00f3wki wchodz\u0105 w sk\u0142ad zespo\u0142u. Sprawd\u017a, kiedy stosowa\u0107 amenity=* a kiedy landuse=education.",
                "note": "Children RSPO: 82348;82350"
            }
        },
        {
            "id": 82348,
            "type": "Feature",
            "geometry": {
                "type": "Point",
                "coordinates": [
                    20.8141402,
                    50.180431999999996
                ]
            },
            "properties": {
                "isced:level": "1;2",
                "ref:rspo": 82348,
                "official_name": "Szko\u0142a Podstawowa im. Stanis\u0142awa Staszica w Otfinowie",
                "name": "Szko\u0142a Podstawowa",
                "addr:country": "PL",
                "addr:postcode": "33-250",
                "addr:place": "Otfin\u00f3w",
                "addr:housenumber": "58",
                "addr:teryt:sym_ul": 838097,
                "contact:phone": "+48 146452306",
                "contact:email": "otfgim@interia.pl",
                "contact:website": "http:\/\/zsotfinow.szkolnastrona.pl",
                "ref:regon": "001201947",
                "operator": "Gmina \u017babno",
                "operator:type": "government",
                "amenity": "school",
                "note": "Parent RSPO: 44723"
            }
        },
        {
            "id": 82350,
            "type": "Feature",
            "geometry": {
                "type": "Point",
                "coordinates": [
                    20.85973,
                    50.18375
                ]
            },
            "properties": {
                "ref:rspo": 82350,
                "official_name": "Publiczne Przedszkole w Gorzycach",
                "name": "Publiczne Przedszkole w Gorzycach",
                "addr:country": "PL",
                "addr:postcode": "33-250",
                "addr:place": "Gorzyce",
                "addr:housenumber": "153",
                "addr:teryt:sym_ul": 837695,
                "contact:phone": "+48 146919385",
                "contact:email": "otfgim@interia.pl",
                "ref:regon": "852718976",
                "operator": "Gmina \u017babno",
                "operator:type": "government",
                "amenity": "kindergarten",
                "note": "Parent RSPO: 44723"
            }
        }
    ]
}