{"type":"FeatureCollection","features":[{"id":91144,"type":"Feature","geometry":{"type":"Point","coordinates":[20.90243,49.81738]},"properties":{"isced:level":"1;2","ref:rspo":91144,"official_name":"Szko\u0142a Podstawowa im. W.witosa w Gromniku Szko\u0142a Filialna w Polichtach","name":"Szko\u0142a Podstawowa","addr:country":"PL","addr:postcode":"33-182","addr:place":"Polichty","addr:housenumber":"49","addr:door":"-","addr:teryt:sym_ul":820654,"contact:phone":"+48 146516097","contact:email":"zs@gromnik.pl","contact:website":"http:\/\/www.zs.gromnik.pl","ref:regon":"718588000","operator":"Gmina Gromnik","operator:type":"government","amenity":"school","note":"Parent RSPO: 21760"}},{"id":15711,"type":"Feature","geometry":{"type":"Point","coordinates":[21.00828,49.82365]},"properties":{"isced:level":"1;2","ref:rspo":15711,"official_name":"Szko\u0142a Podstawowa w Rzepienniku Marciszewskim","name":"Szko\u0142a Podstawowa w Rzepienniku Marciszewskim","addr:country":"PL","addr:postcode":"33-180","addr:place":"Rzepiennik Marciszewski","addr:housenumber":"200","addr:door":"-","addr:teryt:sym_ul":820690,"contact:phone":"+48 146516625","contact:email":"sprzepm@op.pl","contact:website":"http:\/\/sprzepiennikm.pl","ref:regon":"001278275","ref:vatin":"PL8732795109","operator":"Gmina Gromnik","operator:type":"government","amenity":"school"}},{"id":15712,"type":"Feature","geometry":{"type":"Point","coordinates":[20.88863,49.8343599]},"properties":{"isced:level":"1;2","ref:rspo":15712,"official_name":"Szko\u0142a Podstawowa w Brzozowej","name":"Szko\u0142a Podstawowa w Brzozowej","addr:country":"PL","addr:postcode":"33-182","addr:place":"Brzozowa","addr:housenumber":"80","addr:door":"-","addr:teryt:sym_ul":820364,"contact:phone":"+48 146516099","contact:email":"szkola80@poczta.onet.pl","contact:website":"http:\/\/sp.brzozowa-sa.pl","ref:regon":"001189940","ref:vatin":"PL8732795090","operator":"Gmina Gromnik","operator:type":"government","amenity":"school"}},{"id":118793,"type":"Feature","geometry":{"type":"Point","coordinates":[20.98871,49.83568]},"properties":{"ref:rspo":118793,"official_name":"Przedszkole Niepubliczne \"Abc\"","name":"Przedszkole Niepubliczne \"Abc\"","addr:country":"PL","addr:postcode":"33-180","addr:place":"Golanka","addr:housenumber":"47","addr:teryt:sym_ul":820565,"contact:phone":"+48 515428300","contact:email":"nprzedszkoleabc@gmail.com","ref:regon":"122921493","ref:vatin":"PL7361156170","operator":"Bo\u017cena Kras","operator:type":"private","amenity":"kindergarten"}},{"id":91143,"type":"Feature","geometry":{"type":"Point","coordinates":[20.98871,49.83565]},"properties":{"isced:level":"1;2","ref:rspo":91143,"official_name":"Szko\u0142a Podstawowa im. W.witosa w Gromniku Szko\u0142a Filialna w Golance","name":"Szko\u0142a Podstawowa","addr:country":"PL","addr:postcode":"33-180","addr:place":"Golanka","addr:housenumber":"47","addr:door":"-","addr:teryt:sym_ul":820565,"contact:phone":"+48 146514234","contact:email":"zs@gromnik.pl","contact:website":"http:\/\/www.zs.gromnik.pl","ref:regon":"718588000","operator":"Gmina Gromnik","operator:type":"government","amenity":"school","note":"Parent RSPO: 21760"}},{"id":15710,"type":"Feature","geometry":{"type":"Point","coordinates":[20.9599,49.84024]},"properties":{"ref:rspo":15710,"official_name":"Zesp\u00f3\u0142 Szk\u00f3\u0142 w Gromniku","name":"Zesp\u00f3\u0142 Szk\u00f3\u0142 w Gromniku","addr:country":"PL","addr:postcode":"33-180","addr:city":"Gromnik","addr:street":"ul. Witosa","addr:housenumber":"4","addr:door":"-","addr:teryt:simc":24454,"addr:teryt:sym_ul":820571,"contact:phone":"+48 146514233","contact:email":"zs@gromnik.pl","contact:website":"http:\/\/zs.gromnik.pl","ref:regon":"120750142","ref:vatin":"PL8733177371","operator":"Gmina Gromnik","operator:type":"government","landuse":"education","fixme":"amenity=school, amenity=college albo landuse=education w zale\u017cno\u015bci od tego, jakie plac\u00f3wki wchodz\u0105 w sk\u0142ad zespo\u0142u. Sprawd\u017a, kiedy stosowa\u0107 amenity=* a kiedy landuse=education.","note":"Children RSPO: 21698;21760"}},{"id":38677,"type":"Feature","geometry":{"type":"Point","coordinates":[20.9599,49.84021]},"properties":{"ref:rspo":38677,"official_name":"Zesp\u00f3\u0142 Szk\u00f3\u0142 Og\u00f3lnokszta\u0142cacych I Zawodowych im. Jana Paw\u0142a II w Gromniku","name":"Zesp\u00f3\u0142 Szk\u00f3\u0142 Og\u00f3lnokszta\u0142cacych I Zawodowych","addr:country":"PL","addr:postcode":"33-180","addr:city":"Gromnik","addr:street":"ul. Witosa","addr:housenumber":"4","addr:teryt:simc":24454,"addr:teryt:sym_ul":820571,"contact:phone":"+48 146514013","contact:email":"zsoiz@gromnik.pl","contact:website":"http:\/\/www.zsoiz.gromnik.pl","ref:regon":"852718321","ref:vatin":"PL8732962843","operator":"Powiat Tarnowski","operator:type":"government","landuse":"education","fixme":"amenity=school, amenity=college albo landuse=education w zale\u017cno\u015bci od tego, jakie plac\u00f3wki wchodz\u0105 w sk\u0142ad zespo\u0142u. Sprawd\u017a, kiedy stosowa\u0107 amenity=* a kiedy landuse=education.","note":"Children RSPO: 38678;38679;127133"}},{"id":21698,"type":"Feature","geometry":{"type":"Point","coordinates":[20.9599,49.840180000000004]},"properties":{"ref:rspo":21698,"official_name":"Przedszkole Publiczne w Gromniku","name":"Przedszkole Publiczne w Gromniku","addr:country":"PL","addr:postcode":"33-180","addr:city":"Gromnik","addr:street":"ul. Witosa","addr:housenumber":"4","addr:door":"-","addr:teryt:simc":24454,"addr:teryt:sym_ul":820571,"contact:phone":"+48 146514233","contact:email":"zs@gromnik.pl","contact:website":"http:\/\/www.zs.gromnik.pl","ref:regon":"120717297","ref:vatin":"PL8733172592","operator":"Gmina Gromnik","operator:type":"government","amenity":"kindergarten","note":"Parent RSPO: 15710"}},{"id":21760,"type":"Feature","geometry":{"type":"Point","coordinates":[20.9599,49.84015]},"properties":{"isced:level":"1;2","ref:rspo":21760,"official_name":"Szko\u0142a Podstawowa im. Wincentego Witosa w Gromniku","name":"Szko\u0142a Podstawowa","addr:country":"PL","addr:postcode":"33-180","addr:city":"Gromnik","addr:street":"ul. Witosa","addr:housenumber":"4","addr:door":"-","addr:teryt:simc":24454,"addr:teryt:sym_ul":820571,"contact:phone":"+48 146514233","contact:email":"zs@gromnik.pl","contact:website":"http:\/\/www.zs.gromnik.pl","ref:regon":"000718588","ref:vatin":"PL8732795078","operator":"Gmina Gromnik","operator:type":"government","amenity":"school","note":"Children RSPO: 91143;91144Parent RSPO: 15710"}},{"id":38678,"type":"Feature","geometry":{"type":"Point","coordinates":[20.9599,49.84012]},"properties":{"isced:level":"3","ref:rspo":38678,"official_name":"Liceum Og\u00f3lnokszta\u0142c\u0105ce w Gromniku","name":"Liceum Og\u00f3lnokszta\u0142c\u0105ce w Gromniku","addr:country":"PL","addr:postcode":"33-180","addr:city":"Gromnik","addr:street":"ul. Witosa","addr:housenumber":"4","addr:teryt:simc":24454,"addr:teryt:sym_ul":820571,"contact:phone":"+48 146514013","contact:email":"zsoiz@gromnik.pl","contact:website":"http:\/\/www.zsoiz.gromnik.pl","ref:regon":"852718309","ref:vatin":"PL8732962843","operator":"Powiat Tarnowski","operator:type":"government","amenity":"school","note":"Parent RSPO: 38677"}},{"id":38679,"type":"Feature","geometry":{"type":"Point","coordinates":[20.9599,49.840090000000004]},"properties":{"isced:level":"3","ref:rspo":38679,"official_name":"Bran\u017cowa Szko\u0142a I Stopnia w Gromniku","name":"Bran\u017cowa Szko\u0142a I Stopnia w Gromniku","addr:country":"PL","addr:postcode":"33-180","addr:city":"Gromnik","addr:street":"ul. Witosa","addr:housenumber":"4","addr:teryt:simc":24454,"addr:teryt:sym_ul":820571,"contact:phone":"+48 146514013","contact:email":"zsoiz@gromnik.pl","contact:website":"http:\/\/www.zsoiz.gromnik.pl","ref:regon":"852718338","ref:vatin":"PL8732962843","operator":"Powiat Tarnowski","operator:type":"government","amenity":"school","note":"Parent RSPO: 38677"}},{"id":127133,"type":"Feature","geometry":{"type":"Point","coordinates":[20.9599,49.84006]},"properties":{"isced:level":"3","ref:rspo":127133,"official_name":"Technikum w Gromniku","name":"Technikum w Gromniku","addr:country":"PL","addr:postcode":"33-180","addr:city":"Gromnik","addr:street":"ul. Witosa","addr:housenumber":"4","addr:teryt:simc":24454,"addr:teryt:sym_ul":820571,"contact:phone":"+48 146514013","contact:email":"zsoiz@gromnik.pl","contact:website":"http:\/\/www.zsoiz.gromnik.pl","ref:regon":"361134838","operator":"Powiat Tarnowski","operator:type":"government","amenity":"school","note":"Parent RSPO: 38677"}},{"id":15713,"type":"Feature","geometry":{"type":"Point","coordinates":[20.91716,49.85045]},"properties":{"ref:rspo":15713,"official_name":"Przedszkole Publiczne w Siemiechowie","name":"Przedszkole Publiczne w Siemiechowie","addr:country":"PL","addr:postcode":"33-181","addr:place":"Siemiech\u00f3w","addr:housenumber":"75","addr:door":"-","addr:teryt:sym_ul":820737,"contact:phone":"+48 146504233","contact:email":"psiemiechow@wp.pl","ref:regon":"120717274","ref:vatin":"PL8733172600","operator":"Gmina Gromnik","operator:type":"government","amenity":"kindergarten"}},{"id":19203,"type":"Feature","geometry":{"type":"Point","coordinates":[20.90025,49.85343]},"properties":{"isced:level":"1;2","ref:rspo":19203,"official_name":"Szko\u0142a Podstawowa w Siemiechowie","name":"Szko\u0142a Podstawowa w Siemiechowie","addr:country":"PL","addr:postcode":"33-181","addr:place":"Siemiech\u00f3w","addr:housenumber":"419","addr:teryt:sym_ul":820737,"contact:phone":"+48 146504232","contact:email":"siemiechow@wp.pl","contact:website":"http:\/\/zssiemiechow.pl","ref:regon":"001189962","ref:vatin":"PL8732962671","operator":"Gmina Gromnik","operator:type":"government","amenity":"school"}},{"id":18623,"type":"Feature","geometry":{"type":"Point","coordinates":[20.97212,49.8539699]},"properties":{"isced:level":"1;2","ref:rspo":18623,"official_name":"Szko\u0142a Podstawowa im. \u015aw. Jadwigi Kr\u00f3lowej w Chojniku","name":"Szko\u0142a Podstawowa","addr:country":"PL","addr:postcode":"33-180","addr:place":"Chojnik","addr:housenumber":"287","addr:teryt:sym_ul":820482,"contact:phone":"+48 146514216","contact:email":"spcho@poczta.onet.pl","contact:website":"http:\/\/spchojnik.szkolna.net","ref:regon":"001189956","ref:vatin":"PL8733149676","operator":"Gmina Gromnik","operator:type":"government","amenity":"school"}}]}