{
    "type": "FeatureCollection",
    "features": [
        {
            "id": 73225,
            "type": "Feature",
            "geometry": {
                "type": "Point",
                "coordinates": [
                    21.01551,
                    50.0588
                ]
            },
            "properties": {
                "isced:level": "1;2",
                "ref:rspo": 73225,
                "official_name": "Szko\u0142a Podstawowa im.orl\u0105t Lwowskich w Brzoz\u00f3wce",
                "name": "Szko\u0142a Podstawowa im.orl\u0105t Lwowskich w Brzoz\u00f3wce",
                "addr:country": "PL",
                "addr:postcode": "33-140",
                "addr:city": "Brzoz\u00f3wka",
                "addr:street": "ul. Tarnowska",
                "addr:housenumber": "36",
                "addr:teryt:simc": 22681,
                "addr:teryt:sym_ul": 822340,
                "contact:phone": "+48 146784352",
                "contact:email": "spbrzozowka@lisiagora.pl",
                "contact:website": "http:\/\/www.spbrzozowka.eu",
                "ref:regon": "001190037",
                "ref:vatin": "PL9930208662",
                "operator": "Gmina Lisia G\u00f3ra",
                "operator:type": "government",
                "amenity": "school"
            }
        },
        {
            "id": 80840,
            "type": "Feature",
            "geometry": {
                "type": "Point",
                "coordinates": [
                    21.06931,
                    50.06224
                ]
            },
            "properties": {
                "ref:rspo": 80840,
                "official_name": "Gminne Przedszkole w Zaczarniu",
                "name": "Gminne Przedszkole w Zaczarniu",
                "addr:country": "PL",
                "addr:postcode": "33-140",
                "addr:place": "Zaczarnie",
                "addr:housenumber": "153a",
                "addr:teryt:sym_ul": 822848,
                "contact:phone": "+48 146788614",
                "contact:email": "gpzaczarnie@lisiagora.pl",
                "contact:website": "http:\/\/gpzaczarnie.szkolnastrona.pl\/",
                "ref:regon": "851799381",
                "ref:vatin": "PL9930208596",
                "operator": "Gmina Lisia G\u00f3ra",
                "operator:type": "government",
                "amenity": "kindergarten"
            }
        },
        {
            "id": 110996,
            "type": "Feature",
            "geometry": {
                "type": "Point",
                "coordinates": [
                    21.0691,
                    50.06315
                ]
            },
            "properties": {
                "isced:level": "1;2",
                "ref:rspo": 110996,
                "official_name": "Szko\u0142a Podstawowa im. Marii Konopnickiej w Zaczarniu",
                "name": "Szko\u0142a Podstawowa",
                "addr:country": "PL",
                "addr:postcode": "33-140",
                "addr:place": "Zaczarnie",
                "addr:housenumber": "25",
                "addr:teryt:sym_ul": 822848,
                "contact:phone": "+48 146788723",
                "contact:email": "spzaczarnie@lisiagora.pl",
                "contact:website": "http:\/\/www.spzaczarnie.szkolnastrona.pl",
                "ref:regon": "001190095",
                "ref:vatin": "PL9930650984",
                "operator": "Gmina Lisia G\u00f3ra",
                "operator:type": "government",
                "amenity": "school"
            }
        },
        {
            "id": 263051,
            "type": "Feature",
            "geometry": {
                "type": "Point",
                "coordinates": [
                    20.9861,
                    50.07047
                ]
            },
            "properties": {
                "isced:level": "1;2",
                "ref:rspo": 263051,
                "official_name": "Szko\u0142a Podstawowa im. Batalionu \"Barbara\" Ak w Paw\u0119zowie",
                "name": "Szko\u0142a Podstawowa",
                "addr:country": "PL",
                "addr:postcode": "33-103",
                "addr:place": "Paw\u0119z\u00f3w",
                "addr:housenumber": "66",
                "addr:teryt:sym_ul": 822713,
                "contact:phone": "+48 146250118",
                "contact:email": "sppawezow@lisiagora.pl",
                "contact:website": "http:\/\/www.sppawezow.superszkolna.pl",
                "ref:regon": "368096325",
                "ref:vatin": "PL9930664207",
                "operator": "Gmina Lisia G\u00f3ra",
                "operator:type": "government",
                "amenity": "school"
            }
        },
        {
            "id": 111025,
            "type": "Feature",
            "geometry": {
                "type": "Point",
                "coordinates": [
                    21.04445,
                    50.08122
                ]
            },
            "properties": {
                "isced:level": "1;2",
                "ref:rspo": 111025,
                "official_name": "Szko\u0142a Podstawowa im. \u015aw. Jadwigi Kr\u00f3lowej Polski w Lisiej G\u00f3rze",
                "name": "Szko\u0142a Podstawowa",
                "addr:country": "PL",
                "addr:postcode": "33-140",
                "addr:city": "Lisia G\u00f3ra",
                "addr:street": "ul. Szkolna",
                "addr:housenumber": "2",
                "addr:teryt:simc": 21970,
                "addr:teryt:sym_ul": 822400,
                "contact:phone": "+48 146784781",
                "contact:email": "splisiagora@lisiagora.pl",
                "contact:website": "http:\/\/www.splisiagora.szkolnastrona.pl",
                "ref:regon": "000665099",
                "ref:vatin": "PL9930651015",
                "operator": "Gmina Lisia G\u00f3ra",
                "operator:type": "government",
                "amenity": "school"
            }
        },
        {
            "id": 276841,
            "type": "Feature",
            "geometry": {
                "type": "Point",
                "coordinates": [
                    21.04445,
                    50.08119
                ]
            },
            "properties": {
                "ref:rspo": 276841,
                "official_name": "Niepubliczna Plac\u00f3wka Doskonalenia Nauczycieli Cedrin",
                "name": "Niepubliczna Plac\u00f3wka Doskonalenia Nauczycieli Cedrin",
                "addr:country": "PL",
                "addr:postcode": "33-140",
                "addr:city": "Lisia G\u00f3ra",
                "addr:street": "ul. Szkolna",
                "addr:housenumber": "2",
                "addr:teryt:simc": 21970,
                "addr:teryt:sym_ul": 822400,
                "ref:regon": "387682206",
                "operator": "Krystian Sroka",
                "operator:type": "private",
                "amenity": "training"
            }
        },
        {
            "id": 92883,
            "type": "Feature",
            "geometry": {
                "type": "Point",
                "coordinates": [
                    20.99483,
                    50.08178
                ]
            },
            "properties": {
                "isced:level": "1;2",
                "ref:rspo": 92883,
                "official_name": "Szko\u0142a Podstawowa w \u015amignie",
                "name": "Szko\u0142a Podstawowa w \u015amignie",
                "addr:country": "PL",
                "addr:postcode": "33-140",
                "addr:place": "\u015amigno",
                "addr:housenumber": "31",
                "addr:teryt:sym_ul": 822825,
                "contact:phone": "+48 146784405",
                "contact:email": "info@szkolawsmignie.pl",
                "contact:website": "http:\/\/www.szkolawsmignie.pl",
                "ref:regon": "122726610",
                "ref:vatin": "PL9930651676",
                "operator": "Stowarzyszenie Wspierania Edukacji W Gminie Lisia G\u00f3ra 'Przyjazna Szko\u0142a'",
                "operator:type": "ngo",
                "amenity": "school"
            }
        },
        {
            "id": 80834,
            "type": "Feature",
            "geometry": {
                "type": "Point",
                "coordinates": [
                    21.02621,
                    50.0825
                ]
            },
            "properties": {
                "ref:rspo": 80834,
                "official_name": "Gminne Przedszkole w Lisiej G\u00f3rze",
                "name": "Gminne Przedszkole w Lisiej G\u00f3rze",
                "addr:country": "PL",
                "addr:postcode": "33-140",
                "addr:city": "Lisia G\u00f3ra",
                "addr:street": "ul. Stefana Jaracza",
                "addr:housenumber": "1",
                "addr:teryt:simc": 7240,
                "addr:teryt:sym_ul": 822400,
                "contact:phone": "+48 146784710",
                "contact:email": "gplg@lisiagora.pl",
                "contact:website": "http:\/\/www.przedszkole.lisiagora.blizej.info\/",
                "ref:regon": "851799300",
                "ref:vatin": "PL9930208627",
                "operator": "Gmina Lisia G\u00f3ra",
                "operator:type": "government",
                "amenity": "kindergarten"
            }
        },
        {
            "id": 111022,
            "type": "Feature",
            "geometry": {
                "type": "Point",
                "coordinates": [
                    21.10722,
                    50.08748
                ]
            },
            "properties": {
                "isced:level": "1;2",
                "ref:rspo": 111022,
                "official_name": "Szko\u0142a Podstawowa w Starych \u017bukowicach",
                "name": "Szko\u0142a Podstawowa w Starych \u017bukowicach",
                "addr:country": "PL",
                "addr:postcode": "33-151",
                "addr:place": "Stare \u017bukowice",
                "addr:housenumber": "132a",
                "addr:teryt:sym_ul": 822736,
                "contact:phone": "+48 146786699",
                "contact:email": "spstarezukowice@lisiagora.pl",
                "contact:website": "http:\/\/www.szkolazukowice.pl",
                "ref:regon": "001190089",
                "ref:vatin": "PL9930651110",
                "operator": "Gmina Lisia G\u00f3ra",
                "operator:type": "government",
                "amenity": "school"
            }
        },
        {
            "id": 80838,
            "type": "Feature",
            "geometry": {
                "type": "Point",
                "coordinates": [
                    21.10623,
                    50.08757
                ]
            },
            "properties": {
                "ref:rspo": 80838,
                "official_name": "Gminne Przedszkole w Starych \u017bukowicach",
                "name": "Gminne Przedszkole w Starych \u017bukowicach",
                "addr:country": "PL",
                "addr:postcode": "33-151",
                "addr:place": "Stare \u017bukowice",
                "addr:housenumber": "132",
                "addr:teryt:sym_ul": 822736,
                "contact:phone": "+48 146258315",
                "contact:email": "gpsz@lisiagora.pl",
                "contact:website": "http:\/\/przedszkolezukowice.szkolnastrona.pl\/",
                "ref:regon": "851799369",
                "ref:vatin": "PL9930208774",
                "operator": "Gmina Lisia G\u00f3ra",
                "operator:type": "government",
                "amenity": "kindergarten"
            }
        },
        {
            "id": 80836,
            "type": "Feature",
            "geometry": {
                "type": "Point",
                "coordinates": [
                    21.13729,
                    50.08831
                ]
            },
            "properties": {
                "ref:rspo": 80836,
                "official_name": "Gminne Przedszkole w Nowych \u017bukowicach",
                "name": "Gminne Przedszkole w Nowych \u017bukowicach",
                "addr:country": "PL",
                "addr:postcode": "33-151",
                "addr:place": "Nowe \u017bukowice",
                "addr:housenumber": "48a",
                "addr:teryt:sym_ul": 822624,
                "contact:phone": "+48 146786165",
                "contact:email": "gpnz@lisiagora.pl",
                "contact:website": "https:\/\/gp.nzukowice.szkolnastrona.pl\/",
                "ref:regon": "851799352",
                "ref:vatin": "PL9930208604",
                "operator": "Gmina Lisia G\u00f3ra",
                "operator:type": "government",
                "amenity": "kindergarten"
            }
        },
        {
            "id": 73554,
            "type": "Feature",
            "geometry": {
                "type": "Point",
                "coordinates": [
                    21.13796,
                    50.08967
                ]
            },
            "properties": {
                "isced:level": "1;2",
                "ref:rspo": 73554,
                "official_name": "Szko\u0142a Podstawowa im.jana Paw\u0142a Wielkiego w Nowych \u017bukowicach",
                "name": "Szko\u0142a Podstawowa im.jana Paw\u0142a Wielkiego w Nowych \u017bukowicach",
                "addr:country": "PL",
                "addr:postcode": "33-151",
                "addr:place": "Nowe \u017bukowice",
                "addr:housenumber": "54",
                "addr:teryt:sym_ul": 822624,
                "contact:phone": "+48 146555907",
                "contact:email": "spnowezukowice@lisiagora.pl",
                "contact:website": "http:\/\/www.spnowezukowice.pl",
                "ref:regon": "001190066",
                "ref:vatin": "PL9930208685",
                "operator": "Gmina Lisia G\u00f3ra",
                "operator:type": "government",
                "amenity": "school"
            }
        },
        {
            "id": 73548,
            "type": "Feature",
            "geometry": {
                "type": "Point",
                "coordinates": [
                    20.97408,
                    50.09296
                ]
            },
            "properties": {
                "isced:level": "1;2",
                "ref:rspo": 73548,
                "official_name": "Szko\u0142a Podstawowa im.\u015bwi\u0119tej Kingi w \u0141ukowej",
                "name": "Szko\u0142a Podstawowa im.\u015bwi\u0119tej Kingi w \u0141ukowej",
                "addr:country": "PL",
                "addr:postcode": "33-140",
                "addr:place": "\u0141ukowa",
                "addr:housenumber": "86a",
                "addr:teryt:sym_ul": 822475,
                "contact:phone": "+48 146788056",
                "contact:email": "splukowa@lisiagora.pl",
                "contact:website": "http:\/\/www.szkolalukowa.szkolnastrona.pl",
                "ref:regon": "001190043",
                "ref:vatin": "PL9930208679",
                "operator": "Gmina Lisia G\u00f3ra",
                "operator:type": "government",
                "amenity": "school"
            }
        },
        {
            "id": 80835,
            "type": "Feature",
            "geometry": {
                "type": "Point",
                "coordinates": [
                    20.97457,
                    50.09402
                ]
            },
            "properties": {
                "ref:rspo": 80835,
                "official_name": "Gminne Przedszkole w \u0141ukowej",
                "name": "Gminne Przedszkole w \u0141ukowej",
                "addr:country": "PL",
                "addr:postcode": "33-140",
                "addr:place": "\u0141ukowa",
                "addr:housenumber": "80",
                "addr:teryt:sym_ul": 822475,
                "contact:phone": "+48 146788127",
                "contact:email": "gplukowa@lisiagora.pl",
                "contact:website": "https:\/\/pglukowa.szkolnastrona.pl\/",
                "ref:regon": "851799317",
                "ref:vatin": "PL9930208610",
                "operator": "Gmina Lisia G\u00f3ra",
                "operator:type": "government",
                "amenity": "kindergarten"
            }
        },
        {
            "id": 104905,
            "type": "Feature",
            "geometry": {
                "type": "Point",
                "coordinates": [
                    20.99372,
                    50.104
                ]
            },
            "properties": {
                "isced:level": "1;2",
                "ref:rspo": 104905,
                "official_name": "Szko\u0142a Podstawowa w Kobierzynie",
                "name": "Szko\u0142a Podstawowa w Kobierzynie",
                "addr:country": "PL",
                "addr:postcode": "33-140",
                "addr:place": "Kobierzyn",
                "addr:housenumber": "61a",
                "addr:teryt:sym_ul": 822357,
                "contact:phone": "+48 146784607",
                "contact:email": "szkola.kobierzyn@poczta.fm",
                "contact:website": "http:\/\/www.spkobierzyn.szkolnastrona.pl\/",
                "ref:regon": "122738694",
                "ref:vatin": "PL9930651707",
                "operator": "Stowarzyszenie \"Ma\u0142e Jest Dobre\"",
                "operator:type": "ngo",
                "amenity": "school"
            }
        },
        {
            "id": 73223,
            "type": "Feature",
            "geometry": {
                "type": "Point",
                "coordinates": [
                    21.01574,
                    50.11624
                ]
            },
            "properties": {
                "isced:level": "1;2",
                "ref:rspo": 73223,
                "official_name": "Szko\u0142a Podstawowa im.jana Paw\u0142a II w Brniu",
                "name": "Szko\u0142a Podstawowa im.jana Paw\u0142a II w Brniu",
                "addr:country": "PL",
                "addr:postcode": "33-140",
                "addr:place": "Bre\u0144",
                "addr:housenumber": "25",
                "addr:teryt:sym_ul": 822334,
                "contact:phone": "+48 730513102",
                "contact:email": "spbren@lisiagora.pl",
                "contact:website": "http:\/\/www.spbren.szkolnastrona.pl",
                "ref:regon": "001278306",
                "ref:vatin": "PL9930208573",
                "operator": "Gmina Lisia G\u00f3ra",
                "operator:type": "government",
                "amenity": "school"
            }
        },
        {
            "id": 73551,
            "type": "Feature",
            "geometry": {
                "type": "Point",
                "coordinates": [
                    21.1472195,
                    50.1230968
                ]
            },
            "properties": {
                "ref:rspo": 73551,
                "official_name": "Zesp\u00f3\u0142 Szko\u0142y Podstawowej I Gminnego Przedszkola w Nowej Jastrz\u0105bce",
                "name": "Zesp\u00f3\u0142 Szko\u0142y Podstawowej I Gminnego Przedszkola w Nowej Jastrz\u0105bce",
                "addr:country": "PL",
                "addr:postcode": "33-151",
                "addr:place": "Nowa Jastrz\u0105bka",
                "addr:housenumber": "156",
                "addr:teryt:sym_ul": 822498,
                "contact:phone": "+48 146513468",
                "contact:email": "zspgp@lisiagora.pl",
                "contact:website": "http:\/\/zespolszkolnj.szkolnastrona.pl\/",
                "ref:regon": "852633323",
                "ref:vatin": "PL9930304414",
                "operator": "Gmina Lisia G\u00f3ra",
                "operator:type": "government",
                "landuse": "education",
                "fixme": "amenity=school, amenity=college albo landuse=education w zale\u017cno\u015bci od tego, jakie plac\u00f3wki wchodz\u0105 w sk\u0142ad zespo\u0142u. Sprawd\u017a, kiedy stosowa\u0107 amenity=* a kiedy landuse=education.",
                "note": "Children RSPO: 111030;111050"
            }
        },
        {
            "id": 111030,
            "type": "Feature",
            "geometry": {
                "type": "Point",
                "coordinates": [
                    21.1472195,
                    50.1230668
                ]
            },
            "properties": {
                "ref:rspo": 111030,
                "official_name": "Gminne Przedszkole w Nowej Jastrz\u0105bce",
                "name": "Gminne Przedszkole w Nowej Jastrz\u0105bce",
                "addr:country": "PL",
                "addr:postcode": "33-151",
                "addr:place": "Nowa Jastrz\u0105bka",
                "addr:housenumber": "156",
                "addr:teryt:sym_ul": 822498,
                "contact:phone": "+48 146513468",
                "contact:email": "zspgp@lisiagora.pl",
                "contact:website": "http:\/\/zespolszkolnj.szkolnastrona.pl\/",
                "ref:regon": "851799323",
                "operator": "Gmina Lisia G\u00f3ra",
                "operator:type": "government",
                "amenity": "kindergarten",
                "note": "Parent RSPO: 73551"
            }
        },
        {
            "id": 111050,
            "type": "Feature",
            "geometry": {
                "type": "Point",
                "coordinates": [
                    21.1472195,
                    50.1230368
                ]
            },
            "properties": {
                "isced:level": "1;2",
                "ref:rspo": 111050,
                "official_name": "Szko\u0142a Podstawowa w Nowej Jastrz\u0105bce",
                "name": "Szko\u0142a Podstawowa w Nowej Jastrz\u0105bce",
                "addr:country": "PL",
                "addr:postcode": "33-151",
                "addr:place": "Nowa Jastrz\u0105bka",
                "addr:housenumber": "156",
                "addr:teryt:sym_ul": 822498,
                "contact:phone": "+48 146513468",
                "contact:email": "zspgp@lisiagora.pl",
                "contact:website": "http:\/\/zespolszkolnj.szkolnastrona.pl\/",
                "ref:regon": "001190050",
                "operator": "Gmina Lisia G\u00f3ra",
                "operator:type": "government",
                "amenity": "school",
                "note": "Parent RSPO: 73551"
            }
        }
    ]
}