{
    "type": "FeatureCollection",
    "features": [
        {
            "id": 107405,
            "type": "Feature",
            "geometry": {
                "type": "Point",
                "coordinates": [
                    20.88681,
                    49.74194
                ]
            },
            "properties": {
                "isced:level": "1;2",
                "ref:rspo": 107405,
                "official_name": "Filia Szko\u0142y Podstawowej w Siekierczynie w Falkowej",
                "name": "Filia Szko\u0142y Podstawowej w Siekierczynie w Falkowej",
                "addr:country": "PL",
                "addr:postcode": "33-192",
                "addr:place": "Falkowa",
                "addr:housenumber": "36",
                "addr:teryt:simc": 815334,
                "contact:phone": "+48 146546061",
                "contact:website": "http:\/\/www.spsiekierczyna.pl",
                "ref:regon": "119247300",
                "ref:vatin": "PL8732793079",
                "operator": "Gmina Ci\u0119\u017ckowice",
                "operator:type": "government",
                "amenity": "school",
                "note": "Parent RSPO: 7795"
            }
        },
        {
            "id": 107643,
            "type": "Feature",
            "geometry": {
                "type": "Point",
                "coordinates": [
                    20.9075099,
                    49.7485
                ]
            },
            "properties": {
                "isced:level": "1;2",
                "ref:rspo": 107643,
                "official_name": "Szko\u0142a Podstawowa im. \u015aw. Stanis\u0142awa Kostki w Bru\u015bniku",
                "name": "Szko\u0142a Podstawowa",
                "addr:country": "PL",
                "addr:postcode": "33-192",
                "addr:place": "Bru\u015bnik",
                "addr:housenumber": "42",
                "addr:teryt:simc": 815104,
                "contact:phone": "+48 146546060",
                "contact:email": "sp@spbrusnik.pl",
                "contact:website": "http:\/\/www.spbrusnik.pl",
                "ref:regon": "001192409",
                "ref:vatin": "PL8732963481",
                "operator": "Gmina Ci\u0119\u017ckowice",
                "operator:type": "government",
                "amenity": "school"
            }
        },
        {
            "id": 84593,
            "type": "Feature",
            "geometry": {
                "type": "Point",
                "coordinates": [
                    20.94049,
                    49.75438
                ]
            },
            "properties": {
                "isced:level": "1;2",
                "ref:rspo": 84593,
                "official_name": "Niepubliczna Szko\u0142a Podstawowa w P\u0142awnej",
                "name": "Niepubliczna Szko\u0142a Podstawowa w P\u0142awnej",
                "addr:country": "PL",
                "addr:postcode": "33-190",
                "addr:place": "P\u0142awna",
                "addr:housenumber": "22",
                "addr:teryt:simc": 815742,
                "contact:phone": "+48 146513018",
                "contact:email": "spplawna@wp.pl",
                "ref:regon": "122713582",
                "ref:vatin": "PL8733176650",
                "operator": "Dane Do Uzupe\u0142nienia",
                "operator:type": "private",
                "amenity": "school"
            }
        },
        {
            "id": 84595,
            "type": "Feature",
            "geometry": {
                "type": "Point",
                "coordinates": [
                    20.94049,
                    49.754349999999995
                ]
            },
            "properties": {
                "ref:rspo": 84595,
                "official_name": "Niepubliczne Przedszkole w P\u0142awnej",
                "name": "Niepubliczne Przedszkole w P\u0142awnej",
                "addr:country": "PL",
                "addr:postcode": "33-190",
                "addr:place": "P\u0142awna",
                "addr:housenumber": "22",
                "addr:teryt:simc": 815742,
                "contact:phone": "+48 146513018",
                "contact:email": "spplawna@wp.pl",
                "ref:regon": "122713560",
                "ref:vatin": "PL8733204346",
                "operator": "Dane Do Uzupe\u0142nienia",
                "operator:type": "private",
                "amenity": "kindergarten"
            }
        },
        {
            "id": 7795,
            "type": "Feature",
            "geometry": {
                "type": "Point",
                "coordinates": [
                    20.88019,
                    49.76115
                ]
            },
            "properties": {
                "isced:level": "1;2",
                "ref:rspo": 7795,
                "official_name": "Szko\u0142a Podstawowa im. Stefana Batorego w Siekierczynie Z Fili\u0105 w Falkowej",
                "name": "Szko\u0142a Podstawowa",
                "addr:country": "PL",
                "addr:postcode": "33-192",
                "addr:place": "Siekierczyna",
                "addr:housenumber": "68",
                "addr:teryt:simc": 815771,
                "contact:phone": "+48 146546040",
                "contact:email": "spsiekierczyna@ciezkowice.pl",
                "contact:website": "http:\/\/www.spsiekierczyna.pl",
                "ref:regon": "001192473",
                "ref:vatin": "PL8732793079",
                "operator": "Gmina Ci\u0119\u017ckowice",
                "operator:type": "government",
                "amenity": "school",
                "note": "Children RSPO: 107405"
            }
        },
        {
            "id": 107448,
            "type": "Feature",
            "geometry": {
                "type": "Point",
                "coordinates": [
                    20.9701,
                    49.76118
                ]
            },
            "properties": {
                "ref:rspo": 107448,
                "official_name": "Publiczne Przedszkole w Zborowicach",
                "name": "Publiczne Przedszkole w Zborowicach",
                "addr:country": "PL",
                "addr:postcode": "33-190",
                "addr:place": "Zborowice",
                "addr:housenumber": "14a",
                "addr:teryt:simc": 815890,
                "contact:phone": "+48 146513183",
                "contact:email": "ppzborowice@ciezkowice.pl",
                "contact:website": "https:\/\/zborowice.przedszkolna.net",
                "ref:regon": "851743707",
                "ref:vatin": "PL8732793010",
                "operator": "Gmina Ci\u0119\u017ckowice",
                "operator:type": "government",
                "amenity": "kindergarten"
            }
        },
        {
            "id": 107675,
            "type": "Feature",
            "geometry": {
                "type": "Point",
                "coordinates": [
                    20.96724,
                    49.7634
                ]
            },
            "properties": {
                "isced:level": "1;2",
                "ref:rspo": 107675,
                "official_name": "Szko\u0142a Podstawowa im. \u015aw. Jana Kantego w Zborowicach",
                "name": "Szko\u0142a Podstawowa",
                "addr:country": "PL",
                "addr:postcode": "33-190",
                "addr:place": "Zborowice",
                "addr:housenumber": "5a",
                "addr:teryt:simc": 815890,
                "contact:phone": "+48 146513028",
                "contact:email": "spzborowice@op.pl",
                "contact:website": "http:\/\/www.spzborowice.manifo.com",
                "ref:regon": "001192480",
                "ref:vatin": "PL8732963498",
                "operator": "Gmina Ci\u0119\u017ckowice",
                "operator:type": "government",
                "amenity": "school"
            }
        },
        {
            "id": 118420,
            "type": "Feature",
            "geometry": {
                "type": "Point",
                "coordinates": [
                    20.97331,
                    49.78142
                ]
            },
            "properties": {
                "ref:rspo": 118420,
                "official_name": "Niepubliczne Przedszkole \"U\u015bmiech Dziecka\"",
                "name": "Niepubliczne Przedszkole \"U\u015bmiech Dziecka\"",
                "addr:country": "PL",
                "addr:postcode": "33-190",
                "addr:city": "Ci\u0119\u017ckowice",
                "addr:street": "Tysi\u0105clecia",
                "addr:housenumber": "41",
                "addr:teryt:simc": 815239,
                "addr:teryt:sym_ul": 23270,
                "contact:phone": "+48 512749057",
                "contact:email": "przedszkole@usmiechdziecka.net",
                "ref:regon": "122910414",
                "operator": "Dane Do Uzupe\u0142nienia",
                "operator:type": "private",
                "amenity": "kindergarten"
            }
        },
        {
            "id": 107435,
            "type": "Feature",
            "geometry": {
                "type": "Point",
                "coordinates": [
                    20.93778,
                    49.7816
                ]
            },
            "properties": {
                "isced:level": "1;2",
                "ref:rspo": 107435,
                "official_name": "Szko\u0142a Podstawowa w K\u0105\u015bnej Dolnej",
                "name": "Szko\u0142a Podstawowa w K\u0105\u015bnej Dolnej",
                "addr:country": "PL",
                "addr:postcode": "33-190",
                "addr:place": "K\u0105\u015bna Dolna",
                "addr:housenumber": "67",
                "addr:teryt:simc": 815535,
                "contact:phone": "+48 146510198",
                "contact:email": "spkasnadolna@ciezkowice.pl",
                "ref:regon": "001192444",
                "ref:vatin": "PL8732793116",
                "operator": "Gmina Ci\u0119\u017ckowice",
                "operator:type": "government",
                "amenity": "school"
            }
        },
        {
            "id": 38616,
            "type": "Feature",
            "geometry": {
                "type": "Point",
                "coordinates": [
                    20.97115,
                    49.78339
                ]
            },
            "properties": {
                "ref:rspo": 38616,
                "official_name": "Zesp\u00f3\u0142 Szk\u00f3L Og\u00f3lnokszta\u0142c\u0105cych I Zawodowych im. Ignacego Jana Paderewskiego w Ci\u0119\u017ckowicach",
                "name": "Zesp\u00f3\u0142 Szk\u00f3L Og\u00f3lnokszta\u0142c\u0105cych I Zawodowych",
                "addr:country": "PL",
                "addr:postcode": "33-190",
                "addr:city": "Ci\u0119\u017ckowice",
                "addr:street": "\u0141uczkiewicz\u00f3w",
                "addr:housenumber": "12",
                "addr:teryt:simc": 815239,
                "addr:teryt:sym_ul": 28617,
                "contact:phone": "+48 146511080",
                "contact:email": "zsoiz.ciezkowice@powiat.tarnow.pl",
                "contact:website": "http:\/\/www.umistrzapaderewskiego.pl",
                "ref:regon": "850390081",
                "ref:vatin": "PL8732790307",
                "operator": "Powiat Tarnowski",
                "operator:type": "government",
                "landuse": "education",
                "fixme": "amenity=school, amenity=college albo landuse=education w zale\u017cno\u015bci od tego, jakie plac\u00f3wki wchodz\u0105 w sk\u0142ad zespo\u0142u. Sprawd\u017a, kiedy stosowa\u0107 amenity=* a kiedy landuse=education.",
                "note": "Children RSPO: 38617;38619;38621;38626;38627;276063"
            }
        },
        {
            "id": 38617,
            "type": "Feature",
            "geometry": {
                "type": "Point",
                "coordinates": [
                    20.97115,
                    49.783359999999995
                ]
            },
            "properties": {
                "isced:level": "3",
                "ref:rspo": 38617,
                "official_name": "Liceum Og\u00f3lnokszta\u0142c\u0105ce w Ci\u0119\u017ckowicach",
                "name": "Liceum Og\u00f3lnokszta\u0142c\u0105ce w Ci\u0119\u017ckowicach",
                "addr:country": "PL",
                "addr:postcode": "33-190",
                "addr:city": "Ci\u0119\u017ckowice",
                "addr:street": "\u0141uczkiewicz\u00f3w",
                "addr:housenumber": "12",
                "addr:teryt:simc": 815239,
                "addr:teryt:sym_ul": 28617,
                "contact:phone": "+48 146511080",
                "contact:email": "zsoiz.ciezkowice@powiat.tarnow.pl",
                "contact:website": "http:\/\/www.umistrzapaderewskiego.pl",
                "ref:regon": "852623098",
                "operator": "Powiat Tarnowski",
                "operator:type": "government",
                "amenity": "school",
                "note": "Parent RSPO: 38616"
            }
        },
        {
            "id": 38619,
            "type": "Feature",
            "geometry": {
                "type": "Point",
                "coordinates": [
                    20.97115,
                    49.78333
                ]
            },
            "properties": {
                "isced:level": "3",
                "ref:rspo": 38619,
                "official_name": "Technikum w Ci\u0119\u017ckowicach",
                "name": "Technikum w Ci\u0119\u017ckowicach",
                "addr:country": "PL",
                "addr:postcode": "33-190",
                "addr:city": "Ci\u0119\u017ckowice",
                "addr:street": "\u0141uczkiewicz\u00f3w",
                "addr:housenumber": "12",
                "addr:teryt:simc": 815239,
                "addr:teryt:sym_ul": 28617,
                "contact:phone": "+48 146511080",
                "contact:email": "zsoiz.ciezkowice@powiat.tarnow.pl",
                "contact:website": "http:\/\/www.umistrzapaderewskiego.pl",
                "ref:regon": "852637083",
                "operator": "Powiat Tarnowski",
                "operator:type": "government",
                "amenity": "school",
                "note": "Parent RSPO: 38616"
            }
        },
        {
            "id": 38621,
            "type": "Feature",
            "geometry": {
                "type": "Point",
                "coordinates": [
                    20.97115,
                    49.7833
                ]
            },
            "properties": {
                "isced:level": "3",
                "ref:rspo": 38621,
                "official_name": "Bran\u017cowa Szko\u0142a I Stopnia w Ci\u0119\u017ckowicach",
                "name": "Bran\u017cowa Szko\u0142a I Stopnia w Ci\u0119\u017ckowicach",
                "addr:country": "PL",
                "addr:postcode": "33-190",
                "addr:city": "Ci\u0119\u017ckowice",
                "addr:street": "\u0141uczkiewicz\u00f3w",
                "addr:housenumber": "12",
                "addr:teryt:simc": 815239,
                "addr:teryt:sym_ul": 28617,
                "contact:phone": "+48 146511080",
                "contact:email": "zsoiz.ciezkowice@powiat.tarnow.pl",
                "contact:website": "http:\/\/www.umistrzapaderewskiego.pl",
                "ref:regon": "852623129",
                "operator": "Powiat Tarnowski",
                "operator:type": "government",
                "amenity": "school",
                "note": "Parent RSPO: 38616"
            }
        },
        {
            "id": 38626,
            "type": "Feature",
            "geometry": {
                "type": "Point",
                "coordinates": [
                    20.97115,
                    49.783269999999995
                ]
            },
            "properties": {
                "isced:level": "4",
                "ref:rspo": 38626,
                "official_name": "Szko\u0142a Policealna w Ci\u0119\u017ckowicach",
                "name": "Szko\u0142a Policealna w Ci\u0119\u017ckowicach",
                "addr:country": "PL",
                "addr:postcode": "33-190",
                "addr:city": "Ci\u0119\u017ckowice",
                "addr:street": "\u0141uczkiewicz\u00f3w",
                "addr:housenumber": "12",
                "addr:teryt:simc": 815239,
                "addr:teryt:sym_ul": 28617,
                "contact:phone": "+48 146511080",
                "contact:email": "zsoiz.ciezkowice@powiat.tarnow.pl",
                "contact:website": "http:\/\/www.umistrzapaderewskiego.pl",
                "ref:regon": "852623170",
                "operator": "Powiat Tarnowski",
                "operator:type": "government",
                "amenity": "college",
                "note": "Parent RSPO: 38616"
            }
        },
        {
            "id": 276063,
            "type": "Feature",
            "geometry": {
                "type": "Point",
                "coordinates": [
                    20.97115,
                    49.78324
                ]
            },
            "properties": {
                "isced:level": "3",
                "ref:rspo": 276063,
                "official_name": "Bran\u017cowa Szko\u0142a II Stopnia w Ci\u0119\u017ckowicach",
                "name": "Bran\u017cowa Szko\u0142a II Stopnia w Ci\u0119\u017ckowicach",
                "addr:country": "PL",
                "addr:postcode": "33-190",
                "addr:city": "Ci\u0119\u017ckowice",
                "addr:street": "\u0141uczkiewicz\u00f3w",
                "addr:housenumber": "12",
                "addr:teryt:simc": 815239,
                "addr:teryt:sym_ul": 28617,
                "contact:phone": "+48 146511080",
                "contact:email": "zsoiz.ciezkowice@powiat.tarnow.pl",
                "contact:website": "http:\/\/umistrzapaderewskiego.pl",
                "ref:regon": "386976147",
                "operator": "Powiat Tarnowski",
                "operator:type": "government",
                "amenity": "school",
                "note": "Parent RSPO: 38616"
            }
        },
        {
            "id": 107440,
            "type": "Feature",
            "geometry": {
                "type": "Point",
                "coordinates": [
                    20.97325,
                    49.78388
                ]
            },
            "properties": {
                "isced:level": "1;2",
                "ref:rspo": 107440,
                "official_name": "Szko\u0142a Podstawowa im. \u015aw. Jana Paw\u0142a II w Ci\u0119\u017ckowicach",
                "name": "Szko\u0142a Podstawowa",
                "addr:country": "PL",
                "addr:postcode": "33-190",
                "addr:city": "Ci\u0119\u017ckowice",
                "addr:street": "Tysi\u0105clecia",
                "addr:housenumber": "12",
                "addr:teryt:simc": 815239,
                "addr:teryt:sym_ul": 23270,
                "contact:phone": "+48 146510040",
                "contact:email": "spciezkowice@ciezkowice.pl",
                "ref:regon": "000265425",
                "ref:vatin": "PL8732793151",
                "operator": "Gmina Ci\u0119\u017ckowice",
                "operator:type": "government",
                "amenity": "school"
            }
        },
        {
            "id": 107445,
            "type": "Feature",
            "geometry": {
                "type": "Point",
                "coordinates": [
                    20.97325,
                    49.78385
                ]
            },
            "properties": {
                "ref:rspo": 107445,
                "official_name": "Przedszkole Publiczne w Ci\u0119\u017ckowicach",
                "name": "Przedszkole Publiczne w Ci\u0119\u017ckowicach",
                "addr:country": "PL",
                "addr:postcode": "33-190",
                "addr:city": "Ci\u0119\u017ckowice",
                "addr:street": "Tysi\u0105clecia",
                "addr:housenumber": "12",
                "addr:teryt:simc": 815239,
                "addr:teryt:sym_ul": 23270,
                "contact:phone": "+48 146510031",
                "contact:email": "ppciezkowice@ciezkowice.pl",
                "ref:regon": "851743682",
                "ref:vatin": "PL8732793174",
                "operator": "Gmina Ci\u0119\u017ckowice",
                "operator:type": "government",
                "amenity": "kindergarten"
            }
        },
        {
            "id": 278092,
            "type": "Feature",
            "geometry": {
                "type": "Point",
                "coordinates": [
                    20.89956,
                    49.78502
                ]
            },
            "properties": {
                "ref:rspo": 278092,
                "official_name": "Zesp\u00f3\u0142 Szkolno-Przedszkolny w Jastrz\u0119biej",
                "name": "Zesp\u00f3\u0142 Szkolno-Przedszkolny w Jastrz\u0119biej",
                "addr:country": "PL",
                "addr:postcode": "33-191",
                "addr:place": "Jastrz\u0119bia",
                "addr:housenumber": "1",
                "addr:teryt:simc": 815423,
                "contact:phone": "+48 146512466",
                "ref:regon": "389765899",
                "operator": "Gmina Ci\u0119\u017ckowice",
                "operator:type": "government",
                "landuse": "education",
                "fixme": "amenity=school, amenity=college albo landuse=education w zale\u017cno\u015bci od tego, jakie plac\u00f3wki wchodz\u0105 w sk\u0142ad zespo\u0142u. Sprawd\u017a, kiedy stosowa\u0107 amenity=* a kiedy landuse=education.",
                "note": "Children RSPO: 107635;107728"
            }
        },
        {
            "id": 107635,
            "type": "Feature",
            "geometry": {
                "type": "Point",
                "coordinates": [
                    20.89956,
                    49.78499
                ]
            },
            "properties": {
                "isced:level": "1;2",
                "ref:rspo": 107635,
                "official_name": "Szko\u0142a Podstawowa Nr 1 im. \u015aw. Jadwigi Kr\u00f3lowej w Jastrz\u0119biej",
                "name": "Szko\u0142a Podstawowa Nr 1",
                "addr:country": "PL",
                "addr:postcode": "33-191",
                "addr:place": "Jastrz\u0119bia",
                "addr:housenumber": "1",
                "addr:teryt:simc": 815423,
                "contact:phone": "+48 146512466",
                "contact:email": "gimnazjumjastrzebia@op.pl",
                "contact:website": "http:\/\/www.sp1jastrzebia.szkolna.net",
                "ref:regon": "001192421",
                "ref:vatin": "PL8733150716",
                "operator": "Gmina Ci\u0119\u017ckowice",
                "operator:type": "government",
                "amenity": "school",
                "note": "Parent RSPO: 278092"
            }
        },
        {
            "id": 107728,
            "type": "Feature",
            "geometry": {
                "type": "Point",
                "coordinates": [
                    20.89956,
                    49.784960000000005
                ]
            },
            "properties": {
                "ref:rspo": 107728,
                "official_name": "Publiczne Przedszkole w Jastrz\u0119biej",
                "name": "Publiczne Przedszkole w Jastrz\u0119biej",
                "addr:country": "PL",
                "addr:postcode": "33-191",
                "addr:place": "Jastrz\u0119bia",
                "addr:housenumber": "1",
                "addr:teryt:simc": 815423,
                "contact:phone": "+48 146512101",
                "contact:email": "agata.rosiek40@wp.pl",
                "ref:regon": "851743713",
                "ref:vatin": "PL8732792967",
                "operator": "Gmina Ci\u0119\u017ckowice",
                "operator:type": "government",
                "amenity": "kindergarten",
                "note": "Parent RSPO: 278092"
            }
        },
        {
            "id": 38627,
            "type": "Feature",
            "geometry": {
                "type": "Point",
                "coordinates": [
                    20.97251,
                    49.78689
                ]
            },
            "properties": {
                "ref:rspo": 38627,
                "official_name": "Szkolne Schronisko M\u0142odzie\u017cowe w Ci\u0119\u017ckowicach",
                "name": "Szkolne Schronisko M\u0142odzie\u017cowe w Ci\u0119\u017ckowicach",
                "addr:country": "PL",
                "addr:postcode": "33-190",
                "addr:city": "Ci\u0119\u017ckowice",
                "addr:street": "\u015awi\u0119tego Andrzeja",
                "addr:housenumber": "6",
                "addr:teryt:simc": 815239,
                "addr:teryt:sym_ul": 303,
                "contact:phone": "+48 146510225",
                "contact:email": "ssmciezkowice@op.pl",
                "contact:website": "http:\/\/www.schronisko.ciezkowice.com",
                "ref:regon": "120106234",
                "operator": "Powiat Tarnowski",
                "operator:type": "government",
                "tourism": "hostel",
                "note": "Parent RSPO: 38616"
            }
        },
        {
            "id": 107417,
            "type": "Feature",
            "geometry": {
                "type": "Point",
                "coordinates": [
                    20.87309,
                    49.7995
                ]
            },
            "properties": {
                "isced:level": "1;2",
                "ref:rspo": 107417,
                "official_name": "Szko\u0142a Podstawowa Nr 2 im. W\u0142. Sikorskiego w Jastrz\u0119bi",
                "name": "Szko\u0142a Podstawowa Nr 2",
                "addr:country": "PL",
                "addr:postcode": "33-191",
                "addr:place": "Jastrz\u0119bia",
                "addr:housenumber": "138",
                "addr:teryt:simc": 815423,
                "contact:phone": "+48 146512015",
                "contact:email": "sp2jastrzebia@wp.pl",
                "contact:website": "http:\/\/sp2jastrzebia.szkolna.net",
                "ref:regon": "001192438",
                "ref:vatin": "PL8732793004",
                "operator": "Gmina Ci\u0119\u017ckowice",
                "operator:type": "government",
                "amenity": "school"
            }
        },
        {
            "id": 7794,
            "type": "Feature",
            "geometry": {
                "type": "Point",
                "coordinates": [
                    20.9741,
                    49.80221
                ]
            },
            "properties": {
                "isced:level": "1;2",
                "ref:rspo": 7794,
                "official_name": "Szko\u0142a Podstawowa w Bogoniowicach Z Fili\u0105 w Kipsznej",
                "name": "Szko\u0142a Podstawowa w Bogoniowicach Z Fili\u0105 w Kipsznej",
                "addr:country": "PL",
                "addr:postcode": "33-190",
                "addr:place": "Bogoniowice",
                "addr:housenumber": "1",
                "addr:teryt:simc": 815080,
                "contact:phone": "+48 146510056",
                "contact:email": "pspbogoniowice@poczta.fm",
                "contact:website": "http:\/\/spbogoniowice.szkolna.net",
                "ref:regon": "001192390",
                "ref:vatin": "PL8732793180",
                "operator": "Gmina Ci\u0119\u017ckowice",
                "operator:type": "government",
                "amenity": "school",
                "note": "Children RSPO: 107404"
            }
        },
        {
            "id": 276722,
            "type": "Feature",
            "geometry": {
                "type": "Point",
                "coordinates": [
                    20.97089,
                    49.80462
                ]
            },
            "properties": {
                "ref:rspo": 276722,
                "official_name": "Niepubliczna Plac\u00f3wka Doskonalenia Nauczycieli \" Twoja Strefa Rozwoju\"",
                "name": "Niepubliczna Plac\u00f3wka Doskonalenia Nauczycieli \" Twoja Strefa Rozwoju\"",
                "addr:country": "PL",
                "addr:postcode": "33-190",
                "addr:place": "Bogoniowice",
                "addr:housenumber": "73",
                "addr:teryt:simc": 815080,
                "ref:regon": "387412790",
                "operator": "Bo\u017cena Pawlikowska",
                "operator:type": "private",
                "amenity": "training"
            }
        },
        {
            "id": 277280,
            "type": "Feature",
            "geometry": {
                "type": "Point",
                "coordinates": [
                    20.97089,
                    49.80459
                ]
            },
            "properties": {
                "ref:rspo": 277280,
                "official_name": "Niepubliczna Plac\u00f3wka Wychowania Pozaszkolnego",
                "name": "Niepubliczna Plac\u00f3wka Wychowania Pozaszkolnego",
                "addr:country": "PL",
                "addr:postcode": "33-190",
                "addr:place": "Bogoniowice",
                "addr:housenumber": "73",
                "addr:teryt:simc": 815080,
                "ref:regon": "388511607",
                "operator": "Bo\u017cena Pawlikowska",
                "operator:type": "private",
                "fixme": "w zale\u017cno\u015bci od przedmiotu dzia\u0142alno\u015bci (np. amenity=training + training=*, amenity=dancing_school, amenity=language_school, amenity=music_school)"
            }
        },
        {
            "id": 107404,
            "type": "Feature",
            "geometry": {
                "type": "Point",
                "coordinates": [
                    20.93244,
                    49.80779
                ]
            },
            "properties": {
                "isced:level": "1;2",
                "ref:rspo": 107404,
                "official_name": "Filia Szko\u0142y Podstawowej w Bogoniowicach w Kipsznej",
                "name": "Filia Szko\u0142y Podstawowej w Bogoniowicach w Kipsznej",
                "addr:country": "PL",
                "addr:postcode": "33-190",
                "addr:place": "Kipszna",
                "addr:housenumber": "5",
                "addr:teryt:simc": 815630,
                "contact:phone": "+48 146510165",
                "ref:regon": "119239000",
                "operator": "Gmina Ci\u0119\u017ckowice",
                "operator:type": "government",
                "amenity": "school",
                "note": "Parent RSPO: 7794"
            }
        }
    ]
}