{
    "type": "FeatureCollection",
    "features": [
        {
            "id": 70680,
            "type": "Feature",
            "geometry": {
                "type": "Point",
                "coordinates": [
                    16.96624,
                    52.31262
                ]
            },
            "properties": {
                "ref:rspo": 70680,
                "official_name": "Przedszkole Nr 17 \"Ikarek\"",
                "name": "Przedszkole Nr 17 \"Ikarek\"",
                "addr:postcode": "61-329",
                "addr:city": "Pozna\u0144",
                "addr:street": "G\u0142uszyna",
                "addr:housenumber": "206A",
                "addr:teryt:simc": 969770,
                "addr:teryt:sym_ul": 5651,
                "phone": "+48 618101746",
                "email": "ikarek.przedszkole17@wp.pl",
                "website": "http:\/\/www.ikarek.org",
                "ref:regon": "301626070",
                "ref:vatin": "PL7822518206",
                "operator": "Miasto Pozna\u0144",
                "operator:type": "government",
                "amenity": "kindergarten"
            }
        },
        {
            "id": 29418,
            "type": "Feature",
            "geometry": {
                "type": "Point",
                "coordinates": [
                    16.96256,
                    52.3152
                ]
            },
            "properties": {
                "ref:rspo": 29418,
                "official_name": "Zesp\u00f3\u0142 Szk\u00f3\u0142 I Plac\u00f3wek O\u015bwiatowych Nr 5",
                "name": "Zesp\u00f3\u0142 Szk\u00f3\u0142 I Plac\u00f3wek O\u015bwiatowych Nr 5",
                "addr:postcode": "61-329",
                "addr:city": "Pozna\u0144",
                "addr:street": "G\u0142uszyna",
                "addr:housenumber": "187",
                "addr:teryt:simc": 969770,
                "addr:teryt:sym_ul": 5651,
                "phone": "+48 618788006",
                "email": "sekretariat@sp53.poznan.pl",
                "website": "http:\/\/www.sp53.poznan.pl",
                "ref:regon": "300528602",
                "ref:vatin": "PL7822385366",
                "operator": "Miasto Pozna\u0144",
                "operator:type": "government",
                "landuse": "education",
                "fixme": "amenity=school, amenity=college albo landuse=education w zale\u017cno\u015bci od tego, jakie plac\u00f3wki wchodz\u0105 w sk\u0142ad zespo\u0142u. Sprawd\u017a, kiedy stosowa\u0107 amenity=* a kiedy landuse=education.",
                "note": "Children RSPO: 66389;83369"
            }
        },
        {
            "id": 66389,
            "type": "Feature",
            "geometry": {
                "type": "Point",
                "coordinates": [
                    16.96256,
                    52.315169999999995
                ]
            },
            "properties": {
                "isced:level": "1;2",
                "ref:rspo": 66389,
                "official_name": "Szko\u0142a Podstawowa Nr 53 im. Paw\u0142a Edmunda Strzeleckiego",
                "name": "Szko\u0142a Podstawowa Nr 53",
                "addr:postcode": "61-329",
                "addr:city": "Pozna\u0144",
                "addr:street": "G\u0142uszyna",
                "addr:housenumber": "187",
                "addr:teryt:simc": 969770,
                "addr:teryt:sym_ul": 5651,
                "phone": "+48 618788006",
                "email": "sekretariat@sp53.poznan.pl",
                "website": "http:\/\/www.sp53.poznan.pl",
                "ref:regon": "000241927",
                "ref:vatin": "PL7821144643",
                "operator": "Miasto Pozna\u0144",
                "operator:type": "government",
                "amenity": "school",
                "note": "Parent RSPO: 29418"
            }
        },
        {
            "id": 28232,
            "type": "Feature",
            "geometry": {
                "type": "Point",
                "coordinates": [
                    16.99227,
                    52.34098
                ]
            },
            "properties": {
                "ref:rspo": 28232,
                "official_name": "Zesp\u00f3\u0142 Szk\u00f3\u0142 Og\u00f3lnokszta\u0142c\u0105cych Nr 2 im. Charles De Gaulle'a",
                "name": "Zesp\u00f3\u0142 Szk\u00f3\u0142 Og\u00f3lnokszta\u0142c\u0105cych Nr 2",
                "addr:postcode": "61-323",
                "addr:city": "Pozna\u0144",
                "addr:street": "Tarnowska",
                "addr:housenumber": "27",
                "addr:teryt:simc": 969770,
                "addr:teryt:sym_ul": 22681,
                "phone": "+48 618798090",
                "email": "zso2@zso2.pl",
                "website": "http:\/\/www.zso2.pl",
                "ref:regon": "000243286",
                "ref:vatin": "PL7821067463",
                "operator": "Miasto Pozna\u0144",
                "operator:type": "government",
                "landuse": "education",
                "fixme": "amenity=school, amenity=college albo landuse=education w zale\u017cno\u015bci od tego, jakie plac\u00f3wki wchodz\u0105 w sk\u0142ad zespo\u0142u. Sprawd\u017a, kiedy stosowa\u0107 amenity=* a kiedy landuse=education.",
                "note": "Children RSPO: 69381;75190;121386"
            }
        },
        {
            "id": 75190,
            "type": "Feature",
            "geometry": {
                "type": "Point",
                "coordinates": [
                    16.99227,
                    52.34095
                ]
            },
            "properties": {
                "isced:level": "1;2",
                "ref:rspo": 75190,
                "official_name": "Szko\u0142a Podstawowa Nr 56",
                "name": "Szko\u0142a Podstawowa Nr 56",
                "addr:postcode": "61-323",
                "addr:city": "Pozna\u0144",
                "addr:street": "Tarnowska",
                "addr:housenumber": "27",
                "addr:teryt:simc": 969770,
                "addr:teryt:sym_ul": 22681,
                "phone": "+48 618798090",
                "email": "zso2@zso2.pl",
                "website": "http:\/\/www.zso2.pl",
                "ref:regon": "639644330",
                "operator": "Miasto Pozna\u0144",
                "operator:type": "government",
                "amenity": "school",
                "note": "Parent RSPO: 28232"
            }
        },
        {
            "id": 121386,
            "type": "Feature",
            "geometry": {
                "type": "Point",
                "coordinates": [
                    16.99227,
                    52.340920000000004
                ]
            },
            "properties": {
                "isced:level": "3",
                "ref:rspo": 121386,
                "official_name": "Xvi Liceum Og\u00f3lnokszta \u0141c\u0105ce Z Oddzia\u0142ami Dwuj\u0119zycznymi im. Charles De Gaulle'a",
                "name": "Xvi Liceum Og\u00f3lnokszta \u0141c\u0105ce Z Oddzia\u0142ami Dwuj\u0119zycznymi",
                "addr:postcode": "61-323",
                "addr:city": "Pozna\u0144",
                "addr:street": "Tarnowska",
                "addr:housenumber": "27",
                "addr:teryt:simc": 969770,
                "addr:teryt:sym_ul": 22681,
                "phone": "+48 618798090",
                "email": "zso2@zso2.pl",
                "website": "http:\/\/www.zso2.pl",
                "ref:regon": "639645156",
                "operator": "Miasto Pozna\u0144",
                "operator:type": "government",
                "amenity": "school",
                "note": "Parent RSPO: 28232"
            }
        },
        {
            "id": 69381,
            "type": "Feature",
            "geometry": {
                "type": "Point",
                "coordinates": [
                    16.98915,
                    52.3423
                ]
            },
            "properties": {
                "ref:rspo": 69381,
                "official_name": "Przedszkole Nr 85",
                "name": "Przedszkole Nr 85",
                "addr:postcode": "61-321",
                "addr:city": "Pozna\u0144",
                "addr:street": "Krzesiny",
                "addr:housenumber": "13",
                "addr:teryt:simc": 969770,
                "addr:teryt:sym_ul": 10117,
                "phone": "+48 618798090",
                "email": "zso2@zso2.pl",
                "ref:regon": "301624041",
                "ref:vatin": "PL7822518531",
                "operator": "Miasto Pozna\u0144",
                "operator:type": "government",
                "amenity": "kindergarten",
                "note": "Parent RSPO: 28232"
            }
        },
        {
            "id": 268057,
            "type": "Feature",
            "geometry": {
                "type": "Point",
                "coordinates": [
                    16.93206,
                    52.3433599
                ]
            },
            "properties": {
                "ref:rspo": 268057,
                "official_name": "Biuro Kurs\u00f3w Szkole\u0144 Doradztwa I Doskonalenia Kadr \"Bez Wypadku\"",
                "name": "Biuro Kurs\u00f3w Szkole\u0144 Doradztwa I Doskonalenia Kadr \"Bez Wypadku\"",
                "addr:postcode": "61-334",
                "addr:city": "Pozna\u0144",
                "addr:street": "Lubartowska",
                "addr:housenumber": "12",
                "addr:teryt:simc": 969770,
                "addr:teryt:sym_ul": 11294,
                "phone": "+48 602248228",
                "email": "bezwypadku@gmail.com",
                "ref:regon": "380901585",
                "operator": "Krzysztof Zimi\u0144ski",
                "operator:type": "private",
                "fixme": "w zale\u017cno\u015bci od przedmiotu dzia\u0142alno\u015bci (np. amenity=training + training=*, amenity=dancing_school, amenity=language_school, amenity=music_school)"
            }
        },
        {
            "id": 267338,
            "type": "Feature",
            "geometry": {
                "type": "Point",
                "coordinates": [
                    16.92332,
                    52.34565
                ]
            },
            "properties": {
                "ref:rspo": 267338,
                "official_name": "Vigor Edukacja",
                "name": "Vigor Edukacja",
                "addr:postcode": "61-334",
                "addr:city": "Pozna\u0144",
                "addr:street": "Czernichowska",
                "addr:housenumber": "28",
                "addr:teryt:simc": 969770,
                "addr:teryt:sym_ul": 3388,
                "email": "krzysztof.urbanek@ochrona-vigor.pl",
                "ref:regon": "380182268",
                "operator": "Vigor Edukacja Sp\u00f3\u0142ka Z Ograniczon\u0105 Odpowiedzialno\u015bci\u0105",
                "operator:type": "private",
                "fixme": "w zale\u017cno\u015bci od przedmiotu dzia\u0142alno\u015bci (np. amenity=training + training=*, amenity=dancing_school, amenity=language_school, amenity=music_school)"
            }
        },
        {
            "id": 264693,
            "type": "Feature",
            "geometry": {
                "type": "Point",
                "coordinates": [
                    16.9279699,
                    52.35318
                ]
            },
            "properties": {
                "ref:rspo": 264693,
                "official_name": "Przedszkole Montessori \"Jarz\u0119bina\"",
                "name": "Przedszkole Montessori \"Jarz\u0119bina\"",
                "addr:postcode": "61-344",
                "addr:city": "Pozna\u0144",
                "addr:street": "Dziedzicka",
                "addr:housenumber": "27",
                "addr:teryt:simc": 969770,
                "addr:teryt:sym_ul": 4614,
                "email": "jarzebinaprzedszkoledanusia@gmail.com",
                "website": "http:\/\/www.przedszkolejarzebina.pl",
                "ref:regon": "368425190",
                "operator": "Danuta Masztalerz",
                "operator:type": "private",
                "amenity": "kindergarten"
            }
        },
        {
            "id": 77957,
            "type": "Feature",
            "geometry": {
                "type": "Point",
                "coordinates": [
                    16.92177,
                    52.35321
                ]
            },
            "properties": {
                "isced:level": "1;2",
                "ref:rspo": 77957,
                "official_name": "Szko\u0142a Podstawowa Nr 63 im. Ksawerego Zakrzewskiego",
                "name": "Szko\u0142a Podstawowa Nr 63",
                "addr:postcode": "61-341",
                "addr:city": "Pozna\u0144",
                "addr:street": "Staro\u0142\u0119cka",
                "addr:housenumber": "142",
                "addr:teryt:simc": 969770,
                "addr:teryt:sym_ul": 20950,
                "phone": "+48 618793046",
                "email": "sekretariat@sp63poznan.pl",
                "website": "http:\/\/sp63poznan.edupage.org",
                "ref:regon": "000244742",
                "ref:vatin": "PL7821144637",
                "operator": "Miasto Pozna\u0144",
                "operator:type": "government",
                "amenity": "school"
            }
        },
        {
            "id": 131054,
            "type": "Feature",
            "geometry": {
                "type": "Point",
                "coordinates": [
                    17.00066,
                    52.35349
                ]
            },
            "properties": {
                "ref:rspo": 131054,
                "official_name": "Centrum Szkolenia Motoryzacji Autoelektronika",
                "name": "Centrum Szkolenia Motoryzacji Autoelektronika",
                "addr:postcode": "61-324",
                "addr:city": "Pozna\u0144",
                "addr:street": "Ustrzycka",
                "addr:housenumber": "1",
                "addr:teryt:simc": 969770,
                "addr:teryt:sym_ul": 23438,
                "phone": "+48 791759488",
                "ref:regon": "364913075",
                "operator": "Karolina K\u0119dzia-Wojciechowska",
                "operator:type": "private",
                "fixme": "w zale\u017cno\u015bci od przedmiotu dzia\u0142alno\u015bci (np. amenity=training + training=*, amenity=dancing_school, amenity=language_school, amenity=music_school)"
            }
        },
        {
            "id": 30335,
            "type": "Feature",
            "geometry": {
                "type": "Point",
                "coordinates": [
                    16.92176,
                    52.35374
                ]
            },
            "properties": {
                "isced:level": "3",
                "ref:rspo": 30335,
                "official_name": "Iv Prywatne Liceum Og\u00f3lnokszta\u0142c\u0105ce im. Augustyna Aureliusza w Poznaniu",
                "name": "Iv Prywatne Liceum Og\u00f3lnokszta\u0142c\u0105ce",
                "addr:postcode": "61-341",
                "addr:city": "Pozna\u0144",
                "addr:street": "Staro\u0142\u0119cka",
                "addr:housenumber": "138",
                "addr:teryt:simc": 969770,
                "addr:teryt:sym_ul": 20950,
                "phone": "+48 618793047",
                "ref:regon": "631569970",
                "operator": "Piotr Repczy\u0144ski",
                "operator:type": "private",
                "amenity": "school"
            }
        },
        {
            "id": 119388,
            "type": "Feature",
            "geometry": {
                "type": "Point",
                "coordinates": [
                    16.92176,
                    52.35371
                ]
            },
            "properties": {
                "isced:level": "1;2",
                "ref:rspo": 119388,
                "official_name": "Katolicka Szko\u0142a Podstawowa im. Jana Paw\u0142a II w Poznaniu",
                "name": "Katolicka Szko\u0142a Podstawowa",
                "addr:postcode": "61-341",
                "addr:city": "Pozna\u0144",
                "addr:street": "Staro\u0142\u0119cka",
                "addr:housenumber": "138",
                "addr:teryt:simc": 969770,
                "addr:teryt:sym_ul": 20950,
                "phone": "+48 534957315",
                "email": "katolicka.szkola@wp.pl",
                "ref:regon": "302516738",
                "operator": "Irena Kr\u0119gielczak",
                "operator:type": "private",
                "amenity": "school"
            }
        },
        {
            "id": 119392,
            "type": "Feature",
            "geometry": {
                "type": "Point",
                "coordinates": [
                    16.92176,
                    52.353680000000004
                ]
            },
            "properties": {
                "isced:level": "3",
                "ref:rspo": 119392,
                "official_name": "Katolickie Liceum Og\u00f3lnokszta\u0142c\u0105ce im. Jana Paw\u0142a II w Poznaniu",
                "name": "Katolickie Liceum Og\u00f3lnokszta\u0142c\u0105ce",
                "addr:postcode": "61-341",
                "addr:city": "Pozna\u0144",
                "addr:street": "Staro\u0142\u0119cka",
                "addr:housenumber": "138",
                "addr:teryt:simc": 969770,
                "addr:teryt:sym_ul": 20950,
                "phone": "+48 534957315",
                "email": "katolicka.szkola@wp.pl",
                "ref:regon": "302516632",
                "operator": "Irena Kr\u0119gielczak",
                "operator:type": "private",
                "amenity": "school"
            }
        },
        {
            "id": 130003,
            "type": "Feature",
            "geometry": {
                "type": "Point",
                "coordinates": [
                    16.92342,
                    52.35525
                ]
            },
            "properties": {
                "ref:rspo": 130003,
                "official_name": "Przedszkole Mini Mini",
                "name": "Przedszkole Mini Mini",
                "addr:postcode": "61-341",
                "addr:city": "Pozna\u0144",
                "addr:street": "Staro\u0142\u0119cka",
                "addr:housenumber": "129",
                "addr:teryt:simc": 969770,
                "addr:teryt:sym_ul": 20950,
                "phone": "+48 503812012",
                "email": "zp@zp-minimini.pl",
                "ref:regon": "363253636",
                "operator": "Anna Jadowska",
                "operator:type": "private",
                "amenity": "kindergarten"
            }
        },
        {
            "id": 49656,
            "type": "Feature",
            "geometry": {
                "type": "Point",
                "coordinates": [
                    16.94321,
                    52.3559
                ]
            },
            "properties": {
                "isced:level": "1;2",
                "ref:rspo": 49656,
                "official_name": "Szko\u0142a Podstawowa Nr 59 im. Genera\u0142a Jana Henryka D\u0105browskiego",
                "name": "Szko\u0142a Podstawowa Nr 59",
                "addr:postcode": "61-353",
                "addr:city": "Pozna\u0144",
                "addr:street": "Baranowska",
                "addr:housenumber": "1",
                "addr:teryt:simc": 969770,
                "addr:teryt:sym_ul": 713,
                "phone": "+48 618793196",
                "email": "szk59@wp.pl",
                "website": "http:\/\/www.sp59poznan.pl",
                "ref:regon": "000243843",
                "ref:vatin": "PL7821415384",
                "operator": "Miasto Pozna\u0144",
                "operator:type": "government",
                "amenity": "school"
            }
        },
        {
            "id": 30243,
            "type": "Feature",
            "geometry": {
                "type": "Point",
                "coordinates": [
                    17.02853,
                    52.35593
                ]
            },
            "properties": {
                "isced:level": "1;2",
                "ref:rspo": 30243,
                "official_name": "Horyzonty Szko\u0142a Podstawowa Fundacji Sternik-Pozna\u0144",
                "name": "Horyzonty Szko\u0142a Podstawowa Fundacji Sternik-Pozna\u0144",
                "addr:postcode": "61-306",
                "addr:city": "Pozna\u0144",
                "addr:street": "Szczepankowo",
                "addr:housenumber": "131",
                "addr:teryt:simc": 969770,
                "addr:teryt:sym_ul": 21820,
                "phone": "+48 618750018",
                "email": "szkola.horyzonty@sternikpoznan.pl",
                "website": "http:\/\/www.horyzonty.edu.pl",
                "ref:regon": "302246109",
                "operator": "Fundacja Sternik - Pozna\u0144",
                "operator:type": "ngo",
                "amenity": "school"
            }
        },
        {
            "id": 83064,
            "type": "Feature",
            "geometry": {
                "type": "Point",
                "coordinates": [
                    16.93706,
                    52.35595
                ]
            },
            "properties": {
                "ref:rspo": 83064,
                "official_name": "Przedszkole Kasztanowe",
                "name": "Przedszkole Kasztanowe",
                "addr:postcode": "61-331",
                "addr:city": "Pozna\u0144",
                "addr:street": "Wolbromska",
                "addr:housenumber": "20",
                "addr:teryt:simc": 969770,
                "addr:teryt:sym_ul": 24664,
                "phone": "+48 616661318",
                "email": "rozliczenia@zieloneprzedszkola.pl",
                "website": "http:\/\/www.zieloneprzedszkola.pl",
                "ref:regon": "302270817",
                "operator": "Zielone Przedszkola Sp\u00f3\u0142ka Z Ograniczon\u0105 Odpowiedzialno\u015bci\u0105",
                "operator:type": "private",
                "amenity": "kindergarten"
            }
        },
        {
            "id": 131998,
            "type": "Feature",
            "geometry": {
                "type": "Point",
                "coordinates": [
                    16.92791,
                    52.35631
                ]
            },
            "properties": {
                "ref:rspo": 131998,
                "official_name": "Europejska Szko\u0142a Kszta\u0142cenia Korespondencyjnego Sp. Z O. O.",
                "name": "Europejska Szko\u0142a Kszta\u0142cenia Korespondencyjnego Sp. Z O. O.",
                "addr:postcode": "61-345",
                "addr:city": "Pozna\u0144",
                "addr:street": "Masztowa",
                "addr:housenumber": "3",
                "addr:teryt:simc": 969770,
                "addr:teryt:sym_ul": 12469,
                "phone": "+48 618793267",
                "website": "http:\/\/www.eskk.pl",
                "ref:regon": "365405085",
                "operator": "\"Europejska Szko\u0142a Kszta\u0142cenia Korespondencyjnego\" Sp\u00f3\u0142ka Z Ograniczon\u0105 Odpowiedzialno\u015bci\u0105",
                "operator:type": "private",
                "fixme": "w zale\u017cno\u015bci od przedmiotu dzia\u0142alno\u015bci (np. amenity=training + training=*, amenity=dancing_school, amenity=language_school, amenity=music_school)"
            }
        },
        {
            "id": 129709,
            "type": "Feature",
            "geometry": {
                "type": "Point",
                "coordinates": [
                    17.00041,
                    52.35993
                ]
            },
            "properties": {
                "ref:rspo": 129709,
                "official_name": "Niepubliczne Przedszkole Tomcio Paluch",
                "name": "Niepubliczne Przedszkole Tomcio Paluch",
                "addr:postcode": "61-312",
                "addr:city": "Pozna\u0144",
                "addr:street": "Pozna\u0144skie Sady",
                "addr:housenumber": "18",
                "addr:teryt:simc": 969770,
                "addr:teryt:sym_ul": 17398,
                "phone": "+48 793050087",
                "email": "biuro@tomciopaluch.pl",
                "website": "http:\/\/przedszkole.tomciopaluch.pl",
                "ref:regon": "362780664",
                "operator": "Katarzyna Kami\u0144ska",
                "operator:type": "private",
                "amenity": "kindergarten"
            }
        },
        {
            "id": 18272,
            "type": "Feature",
            "geometry": {
                "type": "Point",
                "coordinates": [
                    17.03244,
                    52.36244
                ]
            },
            "properties": {
                "ref:rspo": 18272,
                "official_name": "Neo Consulting & Investment",
                "name": "Neo Consulting & Investment",
                "addr:postcode": "61-306",
                "addr:city": "Pozna\u0144",
                "addr:street": "Porzeczkowa",
                "addr:housenumber": "47",
                "addr:teryt:simc": 969770,
                "addr:teryt:sym_ul": 17226,
                "phone": "+48 618106102",
                "ref:regon": "302234610",
                "operator": "Neo Consulting & Investment Sp\u00f3\u0142ka Z Ograniczon\u0105 Odpowiedzialno\u015bci\u0105",
                "operator:type": "private",
                "fixme": "w zale\u017cno\u015bci od przedmiotu dzia\u0142alno\u015bci (np. amenity=training + training=*, amenity=dancing_school, amenity=language_school, amenity=music_school)"
            }
        },
        {
            "id": 113735,
            "type": "Feature",
            "geometry": {
                "type": "Point",
                "coordinates": [
                    17.00824,
                    52.36363
                ]
            },
            "properties": {
                "ref:rspo": 113735,
                "official_name": "Centrum Edukacji I Profilaktyki Problem\u00f3w Uzaleznie\u0144",
                "name": "Centrum Edukacji I Profilaktyki Problem\u00f3w Uzaleznie\u0144",
                "addr:postcode": "61-312",
                "addr:city": "Pozna\u0144",
                "addr:street": "Skibowa",
                "addr:housenumber": "11",
                "addr:teryt:simc": 969770,
                "addr:teryt:sym_ul": 20043,
                "ref:regon": "302400220",
                "operator": "Dane Do Uzupe\u0142nienia",
                "operator:type": "private",
                "amenity": "training"
            }
        },
        {
            "id": 20899,
            "type": "Feature",
            "geometry": {
                "type": "Point",
                "coordinates": [
                    16.98186,
                    52.36372
                ]
            },
            "properties": {
                "ref:rspo": 20899,
                "official_name": "Centrum Szkolenia Motoryzacji K\u0119dzia",
                "name": "Centrum Szkolenia Motoryzacji K\u0119dzia",
                "addr:postcode": "61-315",
                "addr:city": "Pozna\u0144",
                "addr:street": "Pokrzywno",
                "addr:housenumber": "3a",
                "addr:teryt:simc": 969770,
                "addr:teryt:sym_ul": 16952,
                "phone": "+48 618726885",
                "ref:regon": "302227796",
                "operator": "Ryszard K\u0119dzia",
                "operator:type": "private",
                "fixme": "w zale\u017cno\u015bci od przedmiotu dzia\u0142alno\u015bci (np. amenity=training + training=*, amenity=dancing_school, amenity=language_school, amenity=music_school)"
            }
        },
        {
            "id": 70562,
            "type": "Feature",
            "geometry": {
                "type": "Point",
                "coordinates": [
                    17.00835,
                    52.36385
                ]
            },
            "properties": {
                "ref:rspo": 70562,
                "official_name": "Przedszkole Nr 93 im. Hanny Zdzitowieckiej",
                "name": "Przedszkole Nr 93",
                "addr:postcode": "61-312",
                "addr:city": "Pozna\u0144",
                "addr:street": "Skibowa",
                "addr:housenumber": "13",
                "addr:teryt:simc": 969770,
                "addr:teryt:sym_ul": 20043,
                "phone": "+48 618798436",
                "email": "przedszkole93@op.pl",
                "website": "http:\/\/p93.przedszkola.net.pl",
                "ref:regon": "301625201",
                "ref:vatin": "PL7822518181",
                "operator": "Miasto Pozna\u0144",
                "operator:type": "government",
                "amenity": "kindergarten"
            }
        },
        {
            "id": 47361,
            "type": "Feature",
            "geometry": {
                "type": "Point",
                "coordinates": [
                    16.93236,
                    52.36386
                ]
            },
            "properties": {
                "ref:rspo": 47361,
                "official_name": "Poradnia Psychologiczno-Pedagogiczna Nr 7",
                "name": "Poradnia Psychologiczno-Pedagogiczna Nr 7",
                "addr:postcode": "61-359",
                "addr:city": "Pozna\u0144",
                "addr:street": "\u015bw. Antoniego",
                "addr:housenumber": "42",
                "addr:teryt:simc": 969770,
                "addr:teryt:sym_ul": 351,
                "phone": "+48 618721050",
                "email": "poradnia7@op.pl",
                "website": "http:\/\/poradnia7.poznan.pl",
                "ref:regon": "000717554",
                "ref:vatin": "PL7822092687",
                "operator": "Miasto Pozna\u0144",
                "operator:type": "government",
                "healthcare": "counselling",
                "counselling_type": "education",
                "fixme": "w zale\u017cno\u015bci od przedmiotu dzia\u0142alno\u015bci (np. healthcare=counselling + counselling_type=education albo healthcare=psychotherapist)"
            }
        },
        {
            "id": 70685,
            "type": "Feature",
            "geometry": {
                "type": "Point",
                "coordinates": [
                    16.93236,
                    52.36383
                ]
            },
            "properties": {
                "ref:rspo": 70685,
                "official_name": "Przedszkole Nr 15 \"Calineczka\"",
                "name": "Przedszkole Nr 15 \"Calineczka\"",
                "addr:postcode": "61-359",
                "addr:city": "Pozna\u0144",
                "addr:street": "\u015bw. Antoniego",
                "addr:housenumber": "42",
                "addr:teryt:simc": 969770,
                "addr:teryt:sym_ul": 351,
                "phone": "+48 618793252",
                "email": "p15@poznan.interklasa.pl",
                "ref:regon": "301627453",
                "ref:vatin": "PL7822518198",
                "operator": "Miasto Pozna\u0144",
                "operator:type": "government",
                "amenity": "kindergarten"
            }
        },
        {
            "id": 66385,
            "type": "Feature",
            "geometry": {
                "type": "Point",
                "coordinates": [
                    17.00854,
                    52.36448
                ]
            },
            "properties": {
                "isced:level": "1;2",
                "ref:rspo": 66385,
                "official_name": "Szko\u0142a Podstawowa Nr 61 im. Komisji Edukacji Narodowej",
                "name": "Szko\u0142a Podstawowa Nr 61",
                "addr:postcode": "61-306",
                "addr:city": "Pozna\u0144",
                "addr:street": "Szczepankowo",
                "addr:housenumber": "72a",
                "addr:teryt:simc": 969770,
                "addr:teryt:sym_ul": 21820,
                "phone": "+48 618726135",
                "email": "sp61poznan@wp.pl",
                "website": "http:\/\/sp61poznan.pl",
                "ref:regon": "000244340",
                "ref:vatin": "PL7822335316",
                "operator": "Miasto Pozna\u0144",
                "operator:type": "government",
                "amenity": "school"
            }
        },
        {
            "id": 121581,
            "type": "Feature",
            "geometry": {
                "type": "Point",
                "coordinates": [
                    16.9284,
                    52.3645799
                ]
            },
            "properties": {
                "ref:rspo": 121581,
                "official_name": "Niepubliczna Plac\u00f3wka O\u015bwiatowo-Wychowawcza Akademia Ta\u0144ca Fun&Dance",
                "name": "Niepubliczna Plac\u00f3wka O\u015bwiatowo-Wychowawcza Akademia Ta\u0144ca Fun&Dance",
                "addr:postcode": "61-359",
                "addr:city": "Pozna\u0144",
                "addr:street": "\u015bw. Antoniego",
                "addr:housenumber": "16",
                "addr:teryt:simc": 969770,
                "addr:teryt:sym_ul": 351,
                "phone": "+48 601852121",
                "ref:regon": "302629945",
                "operator": "Leszek Tata\u0142a",
                "operator:type": "private",
                "fixme": "w zale\u017cno\u015bci od przedmiotu dzia\u0142alno\u015bci (np. amenity=training + training=*, amenity=dancing_school, amenity=language_school, amenity=music_school)"
            }
        },
        {
            "id": 123606,
            "type": "Feature",
            "geometry": {
                "type": "Point",
                "coordinates": [
                    16.9284,
                    52.3645499
                ]
            },
            "properties": {
                "ref:rspo": 123606,
                "official_name": "Niepubliczna Plac\u00f3wka O\u015bwiatowo-Wychowawcza \"Tango\"",
                "name": "Niepubliczna Plac\u00f3wka O\u015bwiatowo-Wychowawcza \"Tango\"",
                "addr:postcode": "61-359",
                "addr:city": "Pozna\u0144",
                "addr:street": "\u015bw. Antoniego",
                "addr:housenumber": "16",
                "addr:teryt:simc": 969770,
                "addr:teryt:sym_ul": 351,
                "phone": "+48 601852121",
                "ref:regon": "302776072",
                "operator": "Anna Tata\u0142a",
                "operator:type": "private",
                "fixme": "w zale\u017cno\u015bci od przedmiotu dzia\u0142alno\u015bci (np. amenity=training + training=*, amenity=dancing_school, amenity=language_school, amenity=music_school)"
            }
        },
        {
            "id": 269255,
            "type": "Feature",
            "geometry": {
                "type": "Point",
                "coordinates": [
                    17.00587,
                    52.36603
                ]
            },
            "properties": {
                "ref:rspo": 269255,
                "official_name": "Przedszkole Zwierzoland Nr 194 w Poznaniu",
                "name": "Przedszkole Zwierzoland Nr 194 w Poznaniu",
                "addr:postcode": "61-131",
                "addr:city": "Pozna\u0144",
                "addr:street": "Szczepankowo",
                "addr:housenumber": "68a",
                "addr:teryt:simc": 969770,
                "addr:teryt:sym_ul": 21820,
                "phone": "+48 533335854",
                "email": "a.witkowska@operator.edu.pl",
                "website": "http:\/\/www.operator.edu.pl",
                "ref:regon": "381418684",
                "operator": "Og\u00f3lnopolski Operator O\u015bwiaty",
                "operator:type": "ngo",
                "amenity": "kindergarten"
            }
        },
        {
            "id": 53723,
            "type": "Feature",
            "geometry": {
                "type": "Point",
                "coordinates": [
                    17.02367,
                    52.36677
                ]
            },
            "properties": {
                "ref:rspo": 53723,
                "official_name": "Przedszkole Ba\u015bniowy \u015awiat",
                "name": "Przedszkole Ba\u015bniowy \u015awiat",
                "addr:postcode": "61-306",
                "addr:city": "Pozna\u0144",
                "addr:street": "Sowice",
                "addr:housenumber": "29",
                "addr:teryt:simc": 969770,
                "addr:teryt:sym_ul": 20618,
                "phone": "+48 618798763",
                "email": "majka@basniowyswiat.pl",
                "ref:regon": "302255775",
                "operator": "Mieczys\u0142awa Skorli\u0144ska",
                "operator:type": "private",
                "amenity": "kindergarten"
            }
        },
        {
            "id": 133075,
            "type": "Feature",
            "geometry": {
                "type": "Point",
                "coordinates": [
                    17.01985,
                    52.36937
                ]
            },
            "properties": {
                "ref:rspo": 133075,
                "official_name": "Prywatne Przedszkole im. Marii Montessori",
                "name": "Prywatne Przedszkole",
                "addr:postcode": "61-249",
                "addr:city": "Pozna\u0144",
                "addr:street": "Ro\u015blinna",
                "addr:housenumber": "36a",
                "addr:teryt:simc": 969770,
                "addr:teryt:sym_ul": 18903,
                "phone": "+48 695540776",
                "email": "biuro.nestin@gmail.com",
                "ref:regon": "366599051",
                "operator": "Nestin Sp\u00f3\u0142ka Z Ograniczon\u0105 Odpowiedzialno\u015bci\u0105",
                "operator:type": "private",
                "amenity": "kindergarten"
            }
        },
        {
            "id": 133730,
            "type": "Feature",
            "geometry": {
                "type": "Point",
                "coordinates": [
                    16.93222,
                    52.36954
                ]
            },
            "properties": {
                "ref:rspo": 133730,
                "official_name": "Publiczne Przedszkole Parostatek",
                "name": "Publiczne Przedszkole Parostatek",
                "addr:postcode": "61-361",
                "addr:city": "Pozna\u0144",
                "addr:street": "Staro\u0142\u0119cka",
                "addr:housenumber": "42",
                "addr:teryt:simc": 969770,
                "addr:teryt:sym_ul": 20950,
                "phone": "+48 533335390",
                "email": "a.witkowska@operator.edu.pl",
                "website": "http:\/\/parostatek-poznan.familijny.pl\/",
                "ref:regon": "367570180",
                "operator": "Og\u00f3lnopolski Operator O\u015bwiaty",
                "operator:type": "ngo",
                "amenity": "kindergarten"
            }
        },
        {
            "id": 20850,
            "type": "Feature",
            "geometry": {
                "type": "Point",
                "coordinates": [
                    16.984399795532,
                    52.371700286865
                ]
            },
            "properties": {
                "ref:rspo": 20850,
                "official_name": "O\u015brodek Szkolenia Zawodowego",
                "name": "O\u015brodek Szkolenia Zawodowego",
                "addr:postcode": "61-248",
                "addr:city": "Pozna\u0144",
                "addr:street": "Stanis\u0142awa Zwierzchowskiego",
                "addr:housenumber": "17",
                "addr:teryt:simc": 969770,
                "addr:teryt:sym_ul": 54218,
                "phone": "+48 601615199",
                "ref:regon": "302229298",
                "operator": "Wies\u0142awa Kosmacz",
                "operator:type": "private",
                "fixme": "w zale\u017cno\u015bci od przedmiotu dzia\u0142alno\u015bci (np. amenity=training + training=*, amenity=dancing_school, amenity=language_school, amenity=music_school)"
            }
        },
        {
            "id": 70353,
            "type": "Feature",
            "geometry": {
                "type": "Point",
                "coordinates": [
                    16.984399795532,
                    52.371670286865
                ]
            },
            "properties": {
                "ref:rspo": 70353,
                "official_name": "Przedszkole Nr 4",
                "name": "Przedszkole Nr 4",
                "addr:postcode": "61-055",
                "addr:city": "Pozna\u0144",
                "addr:street": "\u015bw. Kingi",
                "addr:housenumber": "1A",
                "addr:teryt:simc": 969770,
                "addr:teryt:sym_ul": 8446,
                "phone": "+48 618709223",
                "email": "przedszkole4poznan@wp.pl",
                "website": "http:\/\/www.przedszkole4poznan.pl",
                "ref:regon": "301613474",
                "ref:vatin": "PL7822517810",
                "operator": "Miasto Pozna\u0144",
                "operator:type": "government",
                "amenity": "kindergarten"
            }
        },
        {
            "id": 105155,
            "type": "Feature",
            "geometry": {
                "type": "Point",
                "coordinates": [
                    16.9492723,
                    52.3756319
                ]
            },
            "properties": {
                "ref:rspo": 105155,
                "official_name": "Zak\u0142ad Poprawczy w Poznaniu",
                "name": "Zak\u0142ad Poprawczy w Poznaniu",
                "addr:postcode": "61-372",
                "addr:city": "Pozna\u0144",
                "addr:street": "Wagrowska",
                "addr:housenumber": "9",
                "addr:teryt:simc": 969770,
                "addr:teryt:sym_ul": 23497,
                "phone": "+48 618793292",
                "email": "sekretariat@poznan.zp.gov.pl",
                "website": "http:\/\/www.poznan.zp.gov.pl",
                "ref:regon": "000324197",
                "operator": "Ministerstwo Sprawiedliwo\u015bci",
                "operator:type": "public",
                "note": "Children RSPO: 124811;124814"
            }
        },
        {
            "id": 124811,
            "type": "Feature",
            "geometry": {
                "type": "Point",
                "coordinates": [
                    16.9492723,
                    52.3756019
                ]
            },
            "properties": {
                "isced:level": "1;2",
                "ref:rspo": 124811,
                "official_name": "Szko\u0142a Podstawowa Nr 98 w Zak\u0142adzie Poprawczym w Poznaniu",
                "name": "Szko\u0142a Podstawowa Nr 98 w Zak\u0142adzie Poprawczym w Poznaniu",
                "addr:postcode": "61-372",
                "addr:city": "Pozna\u0144",
                "addr:street": "Wagrowska",
                "addr:housenumber": "9",
                "addr:teryt:simc": 969770,
                "addr:teryt:sym_ul": 23497,
                "phone": "+48 618773719",
                "email": "sekretariat@poznan.zp.gov.pl",
                "website": "http:\/\/www.poznan.zp.gov.pl",
                "ref:regon": "302817836",
                "operator": "Ministerstwo Sprawiedliwo\u015bci",
                "operator:type": "public",
                "amenity": "school",
                "note": "Parent RSPO: 105155"
            }
        },
        {
            "id": 124814,
            "type": "Feature",
            "geometry": {
                "type": "Point",
                "coordinates": [
                    16.9492723,
                    52.375571900000004
                ]
            },
            "properties": {
                "isced:level": "3",
                "ref:rspo": 124814,
                "official_name": "Bran\u017cowa Szko\u0142a I Stopnia Nr 40 w Zak\u0142adzie Poprawczym w Poznaniu",
                "name": "Bran\u017cowa Szko\u0142a I Stopnia Nr 40 w Zak\u0142adzie Poprawczym w Poznaniu",
                "addr:postcode": "61-372",
                "addr:city": "Pozna\u0144",
                "addr:street": "Wagrowska",
                "addr:housenumber": "9",
                "addr:teryt:simc": 969770,
                "addr:teryt:sym_ul": 23497,
                "phone": "+48 618773719",
                "email": "sekretariat@poznan.zp.gov.pl",
                "website": "http:\/\/www.poznan.zp.gov.pl",
                "ref:regon": "302817859",
                "operator": "Ministerstwo Sprawiedliwo\u015bci",
                "operator:type": "public",
                "amenity": "school",
                "note": "Parent RSPO: 105155"
            }
        },
        {
            "id": 274591,
            "type": "Feature",
            "geometry": {
                "type": "Point",
                "coordinates": [
                    16.9382055,
                    52.3758432
                ]
            },
            "properties": {
                "ref:rspo": 274591,
                "official_name": "Tarbonus Niepubliczna Plac\u00f3wka Kszta\u0142cenia Ustawicznego",
                "name": "Tarbonus Niepubliczna Plac\u00f3wka Kszta\u0142cenia Ustawicznego",
                "addr:postcode": "61-361",
                "addr:city": "Pozna\u0144",
                "addr:street": "Staro\u0142\u0119cka",
                "addr:housenumber": "2",
                "addr:door": "8",
                "addr:teryt:simc": 969770,
                "addr:teryt:sym_ul": 20950,
                "phone": "+48 506286436",
                "email": "info.poznan@tarbonus.pl",
                "ref:regon": "386009750",
                "operator": "\"Tarbonus\" Sp\u00f3\u0142ka Z Ograniczon\u0105 Odpowiedzialno\u015bci\u0105",
                "operator:type": "private",
                "fixme": "w zale\u017cno\u015bci od przedmiotu dzia\u0142alno\u015bci (np. amenity=training + training=*, amenity=dancing_school, amenity=language_school, amenity=music_school)"
            }
        },
        {
            "id": 70615,
            "type": "Feature",
            "geometry": {
                "type": "Point",
                "coordinates": [
                    16.96249,
                    52.37759
                ]
            },
            "properties": {
                "ref:rspo": 70615,
                "official_name": "Przedszkole Nr 20\n\u015amia\u0142ka Umia\u0142ka",
                "name": "Przedszkole Nr 20\n\u015amia\u0142ka Umia\u0142ka",
                "addr:postcode": "61-251",
                "addr:city": "Pozna\u0144",
                "addr:street": "Osiedle Or\u0142a Bia\u0142ego",
                "addr:housenumber": "29",
                "addr:teryt:simc": 969770,
                "addr:teryt:sym_ul": 15168,
                "phone": "+48 618796199",
                "email": "przedszkole20umialek@interia.pl",
                "website": "http:\/\/www.przedszkole20.com.pl",
                "ref:regon": "301610330",
                "ref:vatin": "PL7822517247",
                "operator": "Miasto Pozna\u0144",
                "operator:type": "government",
                "amenity": "kindergarten"
            }
        },
        {
            "id": 29424,
            "type": "Feature",
            "geometry": {
                "type": "Point",
                "coordinates": [
                    16.95901,
                    52.37842
                ]
            },
            "properties": {
                "ref:rspo": 29424,
                "official_name": "Zesp\u00f3\u0142 Szk\u00f3\u0142 Z Oddzia\u0142ami Integracyjnymi Nr 1",
                "name": "Zesp\u00f3\u0142 Szk\u00f3\u0142 Z Oddzia\u0142ami Integracyjnymi Nr 1",
                "addr:postcode": "61-249",
                "addr:city": "Pozna\u0144",
                "addr:street": "Osiedle Stare \u017begrze",
                "addr:housenumber": "1",
                "addr:teryt:simc": 969770,
                "addr:teryt:sym_ul": 20900,
                "phone": "+48 618797791",
                "email": "sekretariat@sp50-poznan.pl",
                "website": "http:\/\/www.sp50-poznan.pl",
                "ref:regon": "634377426",
                "ref:vatin": "PL7822248511",
                "operator": "Miasto Pozna\u0144",
                "operator:type": "government",
                "landuse": "education",
                "fixme": "amenity=school, amenity=college albo landuse=education w zale\u017cno\u015bci od tego, jakie plac\u00f3wki wchodz\u0105 w sk\u0142ad zespo\u0142u. Sprawd\u017a, kiedy stosowa\u0107 amenity=* a kiedy landuse=education.",
                "note": "Children RSPO: 66380;70660"
            }
        },
        {
            "id": 119888,
            "type": "Feature",
            "geometry": {
                "type": "Point",
                "coordinates": [
                    16.95901,
                    52.378389999999996
                ]
            },
            "properties": {
                "ref:rspo": 119888,
                "official_name": "Niepubliczne Przedszkole Zaczarowane Podr\u00f3\u017ce",
                "name": "Niepubliczne Przedszkole Zaczarowane Podr\u00f3\u017ce",
                "addr:postcode": "61-249",
                "addr:city": "Pozna\u0144",
                "addr:street": "Osiedle Stare \u017begrze",
                "addr:housenumber": "55",
                "addr:teryt:simc": 969770,
                "addr:teryt:sym_ul": 20900,
                "phone": "+48 661456785",
                "email": "npzaczarowanepodroze@gmail.com",
                "website": "http:\/\/www.przedszkolezaczarowanepodroze.pl",
                "ref:regon": "302527831",
                "operator": "Sebastian Garczy\u0144ski",
                "operator:type": "private",
                "amenity": "kindergarten"
            }
        },
        {
            "id": 267815,
            "type": "Feature",
            "geometry": {
                "type": "Point",
                "coordinates": [
                    16.95901,
                    52.37836
                ]
            },
            "properties": {
                "ref:rspo": 267815,
                "official_name": "Niepubliczne Przedszkole Pozna\u0144skie Maludy",
                "name": "Niepubliczne Przedszkole Pozna\u0144skie Maludy",
                "addr:postcode": "61-249",
                "addr:city": "Pozna\u0144",
                "addr:street": "Osiedle Stare \u017begrze",
                "addr:housenumber": "97",
                "addr:teryt:simc": 969770,
                "addr:teryt:sym_ul": 20900,
                "email": "j.urbanska@poznanskiemaludy.pl",
                "website": "http:\/\/www.poznanskiemaludy.pl",
                "ref:regon": "380703017",
                "operator": "Joanna Urba\u0144ska",
                "operator:type": "private",
                "amenity": "kindergarten"
            }
        },
        {
            "id": 273470,
            "type": "Feature",
            "geometry": {
                "type": "Point",
                "coordinates": [
                    16.95901,
                    52.37833
                ]
            },
            "properties": {
                "ref:rspo": 273470,
                "official_name": "Przedszkole Niepubliczne Zielone Pandy",
                "name": "Przedszkole Niepubliczne Zielone Pandy",
                "addr:postcode": "61-249",
                "addr:city": "Pozna\u0144",
                "addr:street": "Osiedle Stare \u017begrze",
                "addr:housenumber": "14",
                "addr:door": "66",
                "addr:teryt:simc": 969770,
                "addr:teryt:sym_ul": 20900,
                "phone": "+48 728313292",
                "email": "kontakt@zielonepandy.pl",
                "ref:regon": "384485681",
                "operator": "Zielone Pandy Sp\u00f3\u0142ka Z Ograniczon\u0105 Odpowiedzialno\u015bci\u0105",
                "operator:type": "private",
                "amenity": "kindergarten"
            }
        },
        {
            "id": 70660,
            "type": "Feature",
            "geometry": {
                "type": "Point",
                "coordinates": [
                    16.95901,
                    52.378299999999996
                ]
            },
            "properties": {
                "ref:rspo": 70660,
                "official_name": "Przedszkole Nr 186\n\"Mieszka\u0144cy \u0141\u0105ki\"",
                "name": "Przedszkole Nr 186\n\"Mieszka\u0144cy \u0141\u0105ki\"",
                "addr:postcode": "61-249",
                "addr:city": "Pozna\u0144",
                "addr:street": "Osiedle Stare \u017begrze",
                "addr:housenumber": "1",
                "addr:teryt:simc": 969770,
                "addr:teryt:sym_ul": 20900,
                "phone": "+48 618797585",
                "email": "wicedyrektor@p186.pl",
                "website": "http:\/\/www.p186.pl",
                "ref:regon": "301617845",
                "ref:vatin": "PL7822517477",
                "operator": "Miasto Pozna\u0144",
                "operator:type": "government",
                "amenity": "kindergarten",
                "note": "Parent RSPO: 29424"
            }
        },
        {
            "id": 70591,
            "type": "Feature",
            "geometry": {
                "type": "Point",
                "coordinates": [
                    16.96673,
                    52.37876
                ]
            },
            "properties": {
                "ref:rspo": 70591,
                "official_name": "Przedszkole Nr 178 \"Kwiaty Polskie\"",
                "name": "Przedszkole Nr 178 \"Kwiaty Polskie\"",
                "addr:postcode": "61-251",
                "addr:city": "Pozna\u0144",
                "addr:street": "Osiedle Or\u0142a Bia\u0142ego",
                "addr:housenumber": "72",
                "addr:teryt:simc": 969770,
                "addr:teryt:sym_ul": 15168,
                "phone": "+48 618795135",
                "email": "p178@op.pl",
                "website": "http:\/\/www.przedszkole178.pl",
                "ref:regon": "301626040",
                "ref:vatin": "PL7822518809",
                "operator": "Miasto Pozna\u0144",
                "operator:type": "government",
                "amenity": "kindergarten"
            }
        },
        {
            "id": 77913,
            "type": "Feature",
            "geometry": {
                "type": "Point",
                "coordinates": [
                    16.95241,
                    52.37935
                ]
            },
            "properties": {
                "isced:level": "1;2",
                "ref:rspo": 77913,
                "official_name": "Szko\u0142a Podstawowa Nr 18 im. Zofii Na\u0142kowskiej",
                "name": "Szko\u0142a Podstawowa Nr 18",
                "addr:postcode": "61-381",
                "addr:city": "Pozna\u0144",
                "addr:street": "Osiedle Armii Krajowej",
                "addr:housenumber": "100",
                "addr:teryt:simc": 969770,
                "addr:teryt:sym_ul": 429,
                "phone": "+48 618775715",
                "email": "sp18@poznan.interklasa.pl",
                "website": "http:\/\/www.sp18.poznan.pl",
                "ref:regon": "000252629",
                "ref:vatin": "PL7821415183",
                "operator": "Miasto Pozna\u0144",
                "operator:type": "government",
                "amenity": "school"
            }
        },
        {
            "id": 271842,
            "type": "Feature",
            "geometry": {
                "type": "Point",
                "coordinates": [
                    16.95294,
                    52.38003
                ]
            },
            "properties": {
                "ref:rspo": 271842,
                "official_name": "Publiczne Przedszkole \"Liczmanek\" w Poznaniu",
                "name": "Publiczne Przedszkole \"Liczmanek\" w Poznaniu",
                "addr:postcode": "61-381",
                "addr:city": "Pozna\u0144",
                "addr:street": "Osiedle Armii Krajowej",
                "addr:housenumber": "97",
                "addr:teryt:simc": 969770,
                "addr:teryt:sym_ul": 429,
                "phone": "+48 618775381",
                "email": "przedszkoleliczmanek@gmail.com",
                "website": "http:\/\/www.liczmanek.pl",
                "ref:regon": "383682630",
                "operator": "Natalia Nowakowska",
                "operator:type": "private",
                "amenity": "kindergarten"
            }
        },
        {
            "id": 42802,
            "type": "Feature",
            "geometry": {
                "type": "Point",
                "coordinates": [
                    16.96718,
                    52.38012
                ]
            },
            "properties": {
                "isced:level": "1;2",
                "ref:rspo": 42802,
                "official_name": "Szko\u0142a Podstawowa Nr 64 im.marii Konopnickiej",
                "name": "Szko\u0142a Podstawowa Nr 64 im.marii Konopnickiej",
                "addr:postcode": "61-251",
                "addr:city": "Pozna\u0144",
                "addr:street": "Osiedle Or\u0142a Bia\u0142ego",
                "addr:housenumber": "120",
                "addr:teryt:simc": 969770,
                "addr:teryt:sym_ul": 15168,
                "phone": "+48 618770562",
                "email": "sp64@poczta.onet.pl",
                "website": "http:\/\/www.sp64poznan.pl",
                "ref:regon": "000245084",
                "ref:vatin": "PL7821552313",
                "operator": "Miasto Pozna\u0144",
                "operator:type": "government",
                "amenity": "school"
            }
        },
        {
            "id": 70387,
            "type": "Feature",
            "geometry": {
                "type": "Point",
                "coordinates": [
                    16.97122,
                    52.38172
                ]
            },
            "properties": {
                "ref:rspo": 70387,
                "official_name": "Przedszkole Nr 21 \"Akademia Pana Kleksa\"",
                "name": "Przedszkole Nr 21 \"Akademia Pana Kleksa\"",
                "addr:postcode": "61-251",
                "addr:city": "Pozna\u0144",
                "addr:street": "Osiedle Or\u0142a Bia\u0142ego",
                "addr:housenumber": "102",
                "addr:teryt:simc": 969770,
                "addr:teryt:sym_ul": 15168,
                "phone": "+48 618796196",
                "email": "21przedszkole@wp.pl",
                "ref:regon": "301617578",
                "ref:vatin": "PL7822517520",
                "operator": "Miasto Pozna\u0144",
                "operator:type": "government",
                "amenity": "kindergarten"
            }
        },
        {
            "id": 90588,
            "type": "Feature",
            "geometry": {
                "type": "Point",
                "coordinates": [
                    16.94069,
                    52.38225
                ]
            },
            "properties": {
                "isced:level": "3",
                "ref:rspo": 90588,
                "official_name": "Technikum Samochodowe",
                "name": "Technikum Samochodowe",
                "addr:postcode": "61-139",
                "addr:city": "Pozna\u0144",
                "addr:street": "Ludwika Zamenhofa",
                "addr:housenumber": "142",
                "addr:teryt:simc": 969770,
                "addr:teryt:sym_ul": 25536,
                "phone": "+48 618770908",
                "email": "zss@samochodowka.edu.pl",
                "website": "http:\/\/www.samochodowka.edu.pl",
                "ref:regon": "634426060",
                "operator": "Miasto Pozna\u0144",
                "operator:type": "government",
                "amenity": "school",
                "note": "Parent RSPO: 41971"
            }
        },
        {
            "id": 90589,
            "type": "Feature",
            "geometry": {
                "type": "Point",
                "coordinates": [
                    16.94069,
                    52.38222
                ]
            },
            "properties": {
                "isced:level": "3",
                "ref:rspo": 90589,
                "official_name": "Bran\u017cowa Szko\u0142a I Stopnia Nr 9",
                "name": "Bran\u017cowa Szko\u0142a I Stopnia Nr 9",
                "addr:postcode": "61-139",
                "addr:city": "Pozna\u0144",
                "addr:street": "Ludwika Zamenhofa",
                "addr:housenumber": "142",
                "addr:teryt:simc": 969770,
                "addr:teryt:sym_ul": 25536,
                "phone": "+48 618770908",
                "email": "zss@samochodowka.edu.pl",
                "website": "http:\/\/www.samochodowka.edu.pl",
                "ref:regon": "634426047",
                "operator": "Miasto Pozna\u0144",
                "operator:type": "government",
                "amenity": "school",
                "note": "Parent RSPO: 41971"
            }
        },
        {
            "id": 276218,
            "type": "Feature",
            "geometry": {
                "type": "Point",
                "coordinates": [
                    16.94069,
                    52.38219
                ]
            },
            "properties": {
                "isced:level": "3",
                "ref:rspo": 276218,
                "official_name": "Bran\u017cowa Szko\u0142a II Stopnia Nr 3",
                "name": "Bran\u017cowa Szko\u0142a II Stopnia Nr 3",
                "addr:postcode": "61-139",
                "addr:city": "Pozna\u0144",
                "addr:street": "Ludwika Zamenhofa",
                "addr:housenumber": "142",
                "addr:teryt:simc": 969770,
                "addr:teryt:sym_ul": 25536,
                "phone": "+48 618770908",
                "email": "zss@samochodowka.edu.pl",
                "ref:regon": "387037204",
                "operator": "Miasto Pozna\u0144",
                "operator:type": "government",
                "amenity": "school",
                "note": "Parent RSPO: 41971"
            }
        },
        {
            "id": 68322,
            "type": "Feature",
            "geometry": {
                "type": "Point",
                "coordinates": [
                    16.9515,
                    52.38285
                ]
            },
            "properties": {
                "ref:rspo": 68322,
                "official_name": "Przedszkole Nr 124 \"Weso\u0142a Ludwiczka\"",
                "name": "Przedszkole Nr 124 \"Weso\u0142a Ludwiczka\"",
                "addr:postcode": "61-386",
                "addr:city": "Pozna\u0144",
                "addr:street": "Osiedle Bohater\u00f3w II Wojny \u015awiatowej",
                "addr:housenumber": "30",
                "addr:teryt:simc": 969770,
                "addr:teryt:sym_ul": 1639,
                "phone": "+48 618773146",
                "email": "p124@poznan.interklasa.pl",
                "ref:regon": "301615131",
                "ref:vatin": "PL7822517454",
                "operator": "Miasto Pozna\u0144",
                "operator:type": "government",
                "amenity": "kindergarten"
            }
        },
        {
            "id": 70509,
            "type": "Feature",
            "geometry": {
                "type": "Point",
                "coordinates": [
                    16.97993,
                    52.38304
                ]
            },
            "properties": {
                "ref:rspo": 70509,
                "official_name": "Przedszkole Nr73 Zielony Gaik",
                "name": "Przedszkole Nr73 Zielony Gaik",
                "addr:postcode": "61-292",
                "addr:city": "Pozna\u0144",
                "addr:street": "Osiedle Czecha",
                "addr:housenumber": "140",
                "addr:teryt:simc": 969770,
                "addr:teryt:sym_ul": 3331,
                "phone": "+48 618776531",
                "email": "p73@poznan.interklasa.pl",
                "website": "http:\/\/p73poznan.szkolnastrona.pl",
                "ref:regon": "301624087",
                "ref:vatin": "PL7822518525",
                "operator": "Miasto Pozna\u0144",
                "operator:type": "government",
                "amenity": "kindergarten"
            }
        },
        {
            "id": 69175,
            "type": "Feature",
            "geometry": {
                "type": "Point",
                "coordinates": [
                    16.94786,
                    52.38396
                ]
            },
            "properties": {
                "ref:rspo": 69175,
                "official_name": "Przedszkole Nr 114 im. \"Pinokio\"",
                "name": "Przedszkole Nr 114",
                "addr:postcode": "61-388",
                "addr:city": "Pozna\u0144",
                "addr:street": "Osiedle Bohater\u00f3w II Wojny \u015awiatowej",
                "addr:housenumber": "1",
                "addr:teryt:simc": 969770,
                "addr:teryt:sym_ul": 1639,
                "phone": "+48 618775318",
                "email": "p114@poznan.interklasa.pl",
                "website": "http:\/\/www.przedszkole114.edu.pl",
                "ref:regon": "301625460",
                "ref:vatin": "PL7822518034",
                "operator": "Miasto Pozna\u0144",
                "operator:type": "government",
                "amenity": "kindergarten"
            }
        },
        {
            "id": 124143,
            "type": "Feature",
            "geometry": {
                "type": "Point",
                "coordinates": [
                    16.95093,
                    52.38418
                ]
            },
            "properties": {
                "ref:rspo": 124143,
                "official_name": "Zesp\u00f3\u0142 Szk\u00f3\u0142 Salezja\u0144skich w Poznaniu",
                "name": "Zesp\u00f3\u0142 Szk\u00f3\u0142 Salezja\u0144skich w Poznaniu",
                "addr:postcode": "61-387",
                "addr:city": "Pozna\u0144",
                "addr:street": "Osiedle Bohater\u00f3w II Wojny \u015awiatowej",
                "addr:housenumber": "29",
                "addr:teryt:simc": 969770,
                "addr:teryt:sym_ul": 1639,
                "phone": "+48 618756230",
                "email": "szkola-poznan@salezjanie.pl",
                "website": "http:\/\/szkola-poznan.salezjanie.pl",
                "ref:regon": "302799908",
                "operator": "Inspektoria Towarzystwa Salezja\u0144skiego \u015aw.jana Bosko",
                "operator:type": "religious",
                "landuse": "education",
                "fixme": "amenity=school, amenity=college albo landuse=education w zale\u017cno\u015bci od tego, jakie plac\u00f3wki wchodz\u0105 w sk\u0142ad zespo\u0142u. Sprawd\u017a, kiedy stosowa\u0107 amenity=* a kiedy landuse=education.",
                "note": "Children RSPO: 83117;109101"
            }
        },
        {
            "id": 83117,
            "type": "Feature",
            "geometry": {
                "type": "Point",
                "coordinates": [
                    16.95093,
                    52.38415
                ]
            },
            "properties": {
                "isced:level": "3",
                "ref:rspo": 83117,
                "official_name": "Publiczne Salezja\u0144skie Liceum Og\u00f3lnokszta\u0142c\u0105ce w Poznaniu im. B\u0142.pi\u0105tki Pozna\u0144skiej",
                "name": "Publiczne Salezja\u0144skie Liceum Og\u00f3lnokszta\u0142c\u0105ce w Poznaniu",
                "addr:postcode": "61-387",
                "addr:city": "Pozna\u0144",
                "addr:street": "Osiedle Bohater\u00f3w II Wojny \u015awiatowej",
                "addr:housenumber": "29",
                "addr:teryt:simc": 969770,
                "addr:teryt:sym_ul": 1639,
                "phone": "+48 618756230",
                "email": "szkola-poznan@salezjanie.pl",
                "website": "http:\/\/www.szkola-poznan.salezjanie.pl",
                "ref:regon": "302272058",
                "operator": "Inspektoria Towarzystwa Salezja\u0144skiego \u015aw.jana Bosko",
                "operator:type": "religious",
                "amenity": "school",
                "note": "Parent RSPO: 124143"
            }
        },
        {
            "id": 109101,
            "type": "Feature",
            "geometry": {
                "type": "Point",
                "coordinates": [
                    16.95093,
                    52.38412
                ]
            },
            "properties": {
                "isced:level": "1;2",
                "ref:rspo": 109101,
                "official_name": "Publiczna Salezja\u0144ska Szko\u0142a Podstawowa w Poznaniu im. B\u0142. Pi\u0105tki Pozna\u0144skiej",
                "name": "Publiczna Salezja\u0144ska Szko\u0142a Podstawowa w Poznaniu",
                "addr:postcode": "61-387",
                "addr:city": "Pozna\u0144",
                "addr:street": "Osiedle Bohater\u00f3w II Wojny \u015awiatowej",
                "addr:housenumber": "29",
                "addr:teryt:simc": 969770,
                "addr:teryt:sym_ul": 1639,
                "phone": "+48 618756230",
                "email": "szkola-poznan@salezjanie.pl",
                "website": "http:\/\/www.szkola-poznan.salezjanie.pl",
                "ref:regon": "302342072",
                "operator": "Inspektoria Towarzystwa Salezja\u0144skiego \u015aw.jana Bosko",
                "operator:type": "religious",
                "amenity": "school",
                "note": "Parent RSPO: 124143"
            }
        },
        {
            "id": 43556,
            "type": "Feature",
            "geometry": {
                "type": "Point",
                "coordinates": [
                    16.97749,
                    52.38526
                ]
            },
            "properties": {
                "ref:rspo": 43556,
                "official_name": "Zesp\u00f3\u0142 Szk\u00f3\u0142 Og\u00f3lnokszta\u0142c\u0105cych Nr 4 im. Ks.prof.j\u00f3zefa Tischnera",
                "name": "Zesp\u00f3\u0142 Szk\u00f3\u0142 Og\u00f3lnokszta\u0142c\u0105cych Nr 4",
                "addr:postcode": "61-288",
                "addr:city": "Pozna\u0144",
                "addr:street": "Osiedle Czecha",
                "addr:housenumber": "59",
                "addr:teryt:simc": 969770,
                "addr:teryt:sym_ul": 3331,
                "phone": "+48 618776058",
                "email": "sekretariat@zso4.poznan.pl",
                "website": "http:\/\/www.zso4.poznan.pl",
                "ref:regon": "632048888",
                "ref:vatin": "PL7821649633",
                "operator": "Miasto Pozna\u0144",
                "operator:type": "government",
                "landuse": "education",
                "fixme": "amenity=school, amenity=college albo landuse=education w zale\u017cno\u015bci od tego, jakie plac\u00f3wki wchodz\u0105 w sk\u0142ad zespo\u0142u. Sprawd\u017a, kiedy stosowa\u0107 amenity=* a kiedy landuse=education.",
                "note": "Children RSPO: 90185;133662"
            }
        },
        {
            "id": 90185,
            "type": "Feature",
            "geometry": {
                "type": "Point",
                "coordinates": [
                    16.97749,
                    52.38523
                ]
            },
            "properties": {
                "isced:level": "3",
                "ref:rspo": 90185,
                "official_name": "Xvii Liceum Og\u00f3lnokszta\u0142c\u0105ce",
                "name": "Xvii Liceum Og\u00f3lnokszta\u0142c\u0105ce",
                "addr:postcode": "61-288",
                "addr:city": "Pozna\u0144",
                "addr:street": "Osiedle Czecha",
                "addr:housenumber": "59",
                "addr:teryt:simc": 969770,
                "addr:teryt:sym_ul": 3331,
                "phone": "+48 618776058",
                "email": "sekretariat@zso4.poznan.pl",
                "website": "http:\/\/www.zso4.poznan.pl",
                "ref:regon": "630851121",
                "operator": "Miasto Pozna\u0144",
                "operator:type": "government",
                "amenity": "school",
                "note": "Parent RSPO: 43556"
            }
        },
        {
            "id": 133662,
            "type": "Feature",
            "geometry": {
                "type": "Point",
                "coordinates": [
                    16.97749,
                    52.385200000000005
                ]
            },
            "properties": {
                "isced:level": "1;2",
                "ref:rspo": 133662,
                "official_name": "Szko\u0142a Podstawowa Nr 47 Z Oddzia\u0142ami Dwuj\u0119zycznymi",
                "name": "Szko\u0142a Podstawowa Nr 47 Z Oddzia\u0142ami Dwuj\u0119zycznymi",
                "addr:postcode": "61-289",
                "addr:city": "Pozna\u0144",
                "addr:street": "Osiedle Czecha",
                "addr:housenumber": "59",
                "addr:teryt:simc": 969770,
                "addr:teryt:sym_ul": 3331,
                "phone": "+48 618776058",
                "email": "sekretariat@zso4.poznan.pl",
                "website": "http:\/\/www.zso4.poznan.pl",
                "ref:regon": "367522872",
                "operator": "Miasto Pozna\u0144",
                "operator:type": "government",
                "amenity": "school",
                "note": "Parent RSPO: 43556"
            }
        },
        {
            "id": 68404,
            "type": "Feature",
            "geometry": {
                "type": "Point",
                "coordinates": [
                    16.94941,
                    52.38532
                ]
            },
            "properties": {
                "ref:rspo": 68404,
                "official_name": "Przedszkole Nr 130 \"Bajkowy Swiat\"",
                "name": "Przedszkole Nr 130 \"Bajkowy Swiat\"",
                "addr:postcode": "61-395",
                "addr:city": "Pozna\u0144",
                "addr:street": "Osiedle Rzeczypospolitej",
                "addr:housenumber": "43",
                "addr:teryt:simc": 969770,
                "addr:teryt:sym_ul": 19330,
                "phone": "+48 618775281",
                "email": "sekretariat@przedszkole130.com.pl",
                "website": "http:\/\/przedszkole130.com.pl",
                "ref:regon": "301632247",
                "ref:vatin": "PL7822518962",
                "operator": "Miasto Pozna\u0144",
                "operator:type": "government",
                "amenity": "kindergarten"
            }
        },
        {
            "id": 70320,
            "type": "Feature",
            "geometry": {
                "type": "Point",
                "coordinates": [
                    16.96177,
                    52.38552
                ]
            },
            "properties": {
                "ref:rspo": 70320,
                "official_name": "Przedszkole Nr 180 \"Dzi\u0119cio\u0142owe Mieszkanie\"",
                "name": "Przedszkole Nr 180 \"Dzi\u0119cio\u0142owe Mieszkanie\"",
                "addr:postcode": "61-253",
                "addr:city": "Pozna\u0144",
                "addr:street": "Osiedle Polan",
                "addr:housenumber": "1",
                "addr:teryt:simc": 969770,
                "addr:teryt:sym_ul": 16966,
                "phone": "+48 618766221",
                "email": "p180@poznan.interklasa.pl",
                "ref:regon": "301631963",
                "ref:vatin": "PL7822518620",
                "operator": "Miasto Pozna\u0144",
                "operator:type": "government",
                "amenity": "kindergarten"
            }
        },
        {
            "id": 68502,
            "type": "Feature",
            "geometry": {
                "type": "Point",
                "coordinates": [
                    16.98888,
                    52.38615
                ]
            },
            "properties": {
                "ref:rspo": 68502,
                "official_name": "Przedszkole Nr 150\n\"Ba\u015bniowy Dom\"",
                "name": "Przedszkole Nr 150\n\"Ba\u015bniowy Dom\"",
                "addr:postcode": "61-245",
                "addr:city": "Pozna\u0144",
                "addr:street": "Osiedle Rusa",
                "addr:housenumber": "120",
                "addr:teryt:simc": 969770,
                "addr:teryt:sym_ul": 19108,
                "phone": "+48 618779131",
                "email": "p150@poznan.interklasa.pl",
                "ref:regon": "301623640",
                "ref:vatin": "PL7822518005",
                "operator": "Miasto Pozna\u0144",
                "operator:type": "government",
                "amenity": "kindergarten"
            }
        },
        {
            "id": 28771,
            "type": "Feature",
            "geometry": {
                "type": "Point",
                "coordinates": [
                    16.95184,
                    52.38653
                ]
            },
            "properties": {
                "ref:rspo": 28771,
                "official_name": "Zesp\u00f3\u0142 Szk\u00f3\u0142 Og\u00f3lnokszta\u0142c\u0105cych Nr 8",
                "name": "Zesp\u00f3\u0142 Szk\u00f3\u0142 Og\u00f3lnokszta\u0142c\u0105cych Nr 8",
                "addr:postcode": "61-389",
                "addr:city": "Pozna\u0144",
                "addr:street": "Osiedle Rzeczypospolitej",
                "addr:housenumber": "111",
                "addr:teryt:simc": 969770,
                "addr:teryt:sym_ul": 19330,
                "phone": "+48 618771959",
                "email": "lo10@poznan.interklasa.pl",
                "website": "http:\/\/www.10lo.edu.pl",
                "ref:regon": "000246787",
                "ref:vatin": "PL7821649107",
                "operator": "Miasto Pozna\u0144",
                "operator:type": "government",
                "landuse": "education",
                "fixme": "amenity=school, amenity=college albo landuse=education w zale\u017cno\u015bci od tego, jakie plac\u00f3wki wchodz\u0105 w sk\u0142ad zespo\u0142u. Sprawd\u017a, kiedy stosowa\u0107 amenity=* a kiedy landuse=education.",
                "note": "Children RSPO: 121357;121363"
            }
        },
        {
            "id": 121357,
            "type": "Feature",
            "geometry": {
                "type": "Point",
                "coordinates": [
                    16.95184,
                    52.3865
                ]
            },
            "properties": {
                "isced:level": "3",
                "ref:rspo": 121357,
                "official_name": "X Liceum Og\u00f3lnokszta\u0142c\u0105ce im. Przemys\u0142a Ii",
                "name": "X Liceum Og\u00f3lnokszta\u0142c\u0105ce",
                "addr:postcode": "61-389",
                "addr:city": "Pozna\u0144",
                "addr:street": "Osiedle Rzeczypospolitej",
                "addr:housenumber": "111",
                "addr:teryt:simc": 969770,
                "addr:teryt:sym_ul": 19330,
                "phone": "+48 618771959",
                "email": "lo10@poznan.interklasa.pl",
                "website": "http:\/\/www.xlo.poznan.pl",
                "ref:regon": "630830633",
                "operator": "Miasto Pozna\u0144",
                "operator:type": "government",
                "amenity": "school",
                "note": "Parent RSPO: 28771"
            }
        },
        {
            "id": 121363,
            "type": "Feature",
            "geometry": {
                "type": "Point",
                "coordinates": [
                    16.95184,
                    52.38647
                ]
            },
            "properties": {
                "isced:level": "3",
                "ref:rspo": 121363,
                "official_name": "X Liceum Og\u00f3lnokszta\u0142c\u0105ce dla Doros\u0142ych",
                "name": "X Liceum Og\u00f3lnokszta\u0142c\u0105ce dla Doros\u0142ych",
                "addr:postcode": "61-877",
                "addr:city": "Pozna\u0144",
                "addr:street": "Osiedle Rzeczypospolitej",
                "addr:housenumber": "111",
                "addr:teryt:simc": 969770,
                "addr:teryt:sym_ul": 19330,
                "phone": "+48 618771959",
                "ref:regon": "634609606",
                "operator": "Miasto Pozna\u0144",
                "operator:type": "government",
                "amenity": "school",
                "note": "Parent RSPO: 28771"
            }
        },
        {
            "id": 77946,
            "type": "Feature",
            "geometry": {
                "type": "Point",
                "coordinates": [
                    16.97875,
                    52.38653
                ]
            },
            "properties": {
                "ref:rspo": 77946,
                "official_name": "Przedszkole Nr 144 \"Weso\u0142a Gromada\"",
                "name": "Przedszkole Nr 144 \"Weso\u0142a Gromada\"",
                "addr:postcode": "61-289",
                "addr:city": "Pozna\u0144",
                "addr:street": "Osiedle Czecha",
                "addr:housenumber": "76",
                "addr:teryt:simc": 969770,
                "addr:teryt:sym_ul": 3331,
                "phone": "+48 618776521",
                "email": "p144@poznan.interklasa.pl",
                "website": "http:\/\/p144.pl",
                "ref:regon": "301613400",
                "ref:vatin": "PL7822517431",
                "operator": "Miasto Pozna\u0144",
                "operator:type": "government",
                "amenity": "kindergarten"
            }
        },
        {
            "id": 70473,
            "type": "Feature",
            "geometry": {
                "type": "Point",
                "coordinates": [
                    16.94112,
                    52.38761
                ]
            },
            "properties": {
                "ref:rspo": 70473,
                "official_name": "Przedszkole Nr 117 im.czecha",
                "name": "Przedszkole Nr 117 im.czecha",
                "addr:postcode": "61-164",
                "addr:city": "Pozna\u0144",
                "addr:street": "Osiedle Piastowskie",
                "addr:housenumber": "105",
                "addr:teryt:simc": 969770,
                "addr:teryt:sym_ul": 16052,
                "phone": "+48 618774699",
                "email": "p117@poznan.interklasa.pl",
                "website": "http:\/\/przedszkole117.pl",
                "ref:regon": "301613570",
                "ref:vatin": "PL7822517514",
                "operator": "Miasto Pozna\u0144",
                "operator:type": "government",
                "amenity": "kindergarten"
            }
        },
        {
            "id": 78028,
            "type": "Feature",
            "geometry": {
                "type": "Point",
                "coordinates": [
                    16.95104,
                    52.38785
                ]
            },
            "properties": {
                "isced:level": "1;2",
                "ref:rspo": 78028,
                "official_name": "Szko\u0142a Podstawowa Nr 20 im. Stefana Batorego",
                "name": "Szko\u0142a Podstawowa Nr 20",
                "addr:postcode": "61-395",
                "addr:city": "Pozna\u0144",
                "addr:street": "Osiedle Rzeczypospolitej",
                "addr:housenumber": "44",
                "addr:teryt:simc": 969770,
                "addr:teryt:sym_ul": 19330,
                "phone": "+48 618775631",
                "email": "sekretariat@sp20.pl",
                "website": "http:\/\/www.sp20.pl",
                "ref:regon": "000237251",
                "ref:vatin": "PL7821336667",
                "operator": "Miasto Pozna\u0144",
                "operator:type": "government",
                "amenity": "school"
            }
        },
        {
            "id": 48828,
            "type": "Feature",
            "geometry": {
                "type": "Point",
                "coordinates": [
                    17.03082,
                    52.38787
                ]
            },
            "properties": {
                "isced:level": "1;2",
                "ref:rspo": 48828,
                "official_name": "Prywatna Szko\u0142a Podstawowa Angloj\u0119zyczna Pozna\u0144 British International School",
                "name": "Prywatna Szko\u0142a Podstawowa Angloj\u0119zyczna Pozna\u0144 British International School",
                "addr:postcode": "61-303",
                "addr:city": "Pozna\u0144",
                "addr:street": "Darzyborska",
                "addr:housenumber": "1a",
                "addr:teryt:simc": 969770,
                "addr:teryt:sym_ul": 3626,
                "phone": "+48 618709730",
                "email": "office@pbis.edu.pl",
                "website": "http:\/\/www.pbis.edu.pl",
                "ref:regon": "302254847",
                "operator": "\"Pozna\u0144ska Szko\u0142a Angloj\u0119zyczna\" Sp\u00f3\u0142ka Z Ograniczon\u0105 Odpowiedzialno\u015bci\u0105",
                "operator:type": "private",
                "amenity": "school"
            }
        },
        {
            "id": 85451,
            "type": "Feature",
            "geometry": {
                "type": "Point",
                "coordinates": [
                    17.03082,
                    52.38784
                ]
            },
            "properties": {
                "ref:rspo": 85451,
                "official_name": "Prywatne Przedszkole Angloj\u0119zyczne Pozna\u0144 British International School",
                "name": "Prywatne Przedszkole Angloj\u0119zyczne Pozna\u0144 British International School",
                "addr:postcode": "61-303",
                "addr:city": "Pozna\u0144",
                "addr:street": "Darzyborska",
                "addr:housenumber": "1a",
                "addr:teryt:simc": 969770,
                "addr:teryt:sym_ul": 3626,
                "phone": "+48 509151501",
                "email": "office@pbis.edu.pl",
                "ref:regon": "302271403",
                "operator": "\"Pozna\u0144ska Szko\u0142a Angloj\u0119zyczna\" Sp\u00f3\u0142ka Z Ograniczon\u0105 Odpowiedzialno\u015bci\u0105",
                "operator:type": "private",
                "amenity": "kindergarten"
            }
        },
        {
            "id": 70669,
            "type": "Feature",
            "geometry": {
                "type": "Point",
                "coordinates": [
                    16.94953,
                    52.38792
                ]
            },
            "properties": {
                "ref:rspo": 70669,
                "official_name": "Przedszkole Nr 113\n\"Mali Sportowcy\"",
                "name": "Przedszkole Nr 113\n\"Mali Sportowcy\"",
                "addr:postcode": "61-395",
                "addr:city": "Pozna\u0144",
                "addr:street": "Osiedle Rzeczypospolitej",
                "addr:housenumber": "7",
                "addr:teryt:simc": 969770,
                "addr:teryt:sym_ul": 19330,
                "phone": "+48 618775237",
                "email": "pr113pozn@op.pl",
                "website": "http:\/\/www.przedszkole113.ehost.pl",
                "ref:regon": "301631265",
                "ref:vatin": "PL7822518577",
                "operator": "Miasto Pozna\u0144",
                "operator:type": "government",
                "amenity": "kindergarten"
            }
        },
        {
            "id": 70653,
            "type": "Feature",
            "geometry": {
                "type": "Point",
                "coordinates": [
                    16.97167,
                    52.38833
                ]
            },
            "properties": {
                "ref:rspo": 70653,
                "official_name": "Przedszkole Nr 6 im. Polne Kwiatki",
                "name": "Przedszkole Nr 6",
                "addr:postcode": "61-296",
                "addr:city": "Pozna\u0144",
                "addr:street": "Osiedle Lecha",
                "addr:housenumber": "79",
                "addr:teryt:simc": 969770,
                "addr:teryt:sym_ul": 10735,
                "phone": "+48 618778079",
                "email": "p6@poznan.interklasa.pl",
                "website": "http:\/\/www.polnekwiatki.pl",
                "ref:regon": "301624029",
                "ref:vatin": "PL7822518235",
                "operator": "Miasto Pozna\u0144",
                "operator:type": "government",
                "amenity": "kindergarten"
            }
        },
        {
            "id": 82993,
            "type": "Feature",
            "geometry": {
                "type": "Point",
                "coordinates": [
                    17.01623,
                    52.38852
                ]
            },
            "properties": {
                "isced:level": "1;2",
                "ref:rspo": 82993,
                "official_name": "Dwuj\u0119zyczna Polsko-Angielska Prywatna Szko\u0142a Podstawowa",
                "name": "Dwuj\u0119zyczna Polsko-Angielska Prywatna Szko\u0142a Podstawowa",
                "addr:postcode": "61-065",
                "addr:city": "Pozna\u0144",
                "addr:street": "Piwna",
                "addr:housenumber": "1",
                "addr:teryt:simc": 969770,
                "addr:teryt:sym_ul": 16370,
                "phone": "+48 616337138",
                "email": "sekretariat@szkolapol-ang.pl",
                "website": "http:\/\/www.szkolapol-ang.pl",
                "ref:regon": "302270786",
                "operator": "Natalia Litwinowicz",
                "operator:type": "private",
                "amenity": "school"
            }
        },
        {
            "id": 125369,
            "type": "Feature",
            "geometry": {
                "type": "Point",
                "coordinates": [
                    17.01623,
                    52.38849
                ]
            },
            "properties": {
                "ref:rspo": 125369,
                "official_name": "Dwuj\u0119zyczne Przedszkole Montessori",
                "name": "Dwuj\u0119zyczne Przedszkole Montessori",
                "addr:postcode": "61-065",
                "addr:city": "Pozna\u0144",
                "addr:street": "Piwna",
                "addr:housenumber": "1",
                "addr:teryt:simc": 969770,
                "addr:teryt:sym_ul": 16370,
                "phone": "+48 602783789",
                "email": "radek@jopek.com",
                "ref:regon": "302832563",
                "operator": "Rados\u0142aw Jopek",
                "operator:type": "private",
                "amenity": "kindergarten"
            }
        },
        {
            "id": 278419,
            "type": "Feature",
            "geometry": {
                "type": "Point",
                "coordinates": [
                    16.94554,
                    52.38895
                ]
            },
            "properties": {
                "ref:rspo": 278419,
                "official_name": "Niepubliczna Poradnia Psychologiczno-Pedagogiczna Sukurs",
                "name": "Niepubliczna Poradnia Psychologiczno-Pedagogiczna Sukurs",
                "addr:postcode": "61-159",
                "addr:city": "Pozna\u0144",
                "addr:street": "Osiedle Piastowskie",
                "addr:housenumber": "81",
                "addr:teryt:simc": 969770,
                "addr:teryt:sym_ul": 16052,
                "email": "kontakt@poradniasukurs.pl",
                "ref:regon": "389888662",
                "operator": "Janusz Patynek",
                "operator:type": "private",
                "healthcare": "counselling",
                "counselling_type": "education",
                "fixme": "w zale\u017cno\u015bci od przedmiotu dzia\u0142alno\u015bci (np. healthcare=counselling + counselling_type=education albo healthcare=psychotherapist)"
            }
        },
        {
            "id": 72542,
            "type": "Feature",
            "geometry": {
                "type": "Point",
                "coordinates": [
                    17.03197,
                    52.3890699
                ]
            },
            "properties": {
                "isced:level": "1;2",
                "ref:rspo": 72542,
                "official_name": "Skrzyd\u0142a Szkola Podstawowa Fundacji Sternik-Pozna\u0144",
                "name": "Skrzyd\u0142a Szkola Podstawowa Fundacji Sternik-Pozna\u0144",
                "addr:postcode": "61-304",
                "addr:city": "Pozna\u0144",
                "addr:street": "Bor\u00f3wki",
                "addr:housenumber": "10",
                "addr:teryt:simc": 969770,
                "addr:teryt:sym_ul": 1872,
                "phone": "+48 618710018",
                "email": "sekretariat@skrzydla.edu.pl",
                "website": "http:\/\/www.skrzydla.edu.pl",
                "ref:regon": "302259589",
                "operator": "Fundacja Sternik - Pozna\u0144",
                "operator:type": "ngo",
                "amenity": "school"
            }
        },
        {
            "id": 21506,
            "type": "Feature",
            "geometry": {
                "type": "Point",
                "coordinates": [
                    16.98657,
                    52.39015
                ]
            },
            "properties": {
                "isced:level": "3",
                "ref:rspo": 21506,
                "official_name": "Liceum Og\u00f3lnokszta\u0142c\u0105ce dla Doros\u0142ych Leonardo 2 w Poznaniu",
                "name": "Liceum Og\u00f3lnokszta\u0142c\u0105ce dla Doros\u0142ych Leonardo 2 w Poznaniu",
                "addr:postcode": "61-245",
                "addr:city": "Pozna\u0144",
                "addr:street": "Osiedle Rusa",
                "addr:housenumber": "56",
                "addr:teryt:simc": 969770,
                "addr:teryt:sym_ul": 19108,
                "phone": "+48 604050086",
                "email": "biuro@coramico.org",
                "website": "http:\/\/www.leonardo2.pl",
                "ref:regon": "302230723",
                "operator": "\"Fundacja Na Rzecz Pomocy Cor Amico\"",
                "operator:type": "ngo",
                "amenity": "school"
            }
        },
        {
            "id": 41154,
            "type": "Feature",
            "geometry": {
                "type": "Point",
                "coordinates": [
                    16.98657,
                    52.390119999999996
                ]
            },
            "properties": {
                "isced:level": "1;2",
                "ref:rspo": 41154,
                "official_name": "Szko\u0142a Podstawowa Nr 6 im. Hipolita Cegielskiego Z Oddzialami Integracyjnymi",
                "name": "Szko\u0142a Podstawowa Nr 6",
                "addr:postcode": "61-245",
                "addr:city": "Pozna\u0144",
                "addr:street": "Osiedle Rusa",
                "addr:housenumber": "56",
                "addr:teryt:simc": 969770,
                "addr:teryt:sym_ul": 19108,
                "phone": "+48 618779451",
                "email": "sekretariat@sp6.poznan.pl",
                "website": "http:\/\/www.sp6.poznan.pl",
                "ref:regon": "000883181",
                "ref:vatin": "PL7821413221",
                "operator": "Miasto Pozna\u0144",
                "operator:type": "government",
                "amenity": "school"
            }
        },
        {
            "id": 48713,
            "type": "Feature",
            "geometry": {
                "type": "Point",
                "coordinates": [
                    16.98657,
                    52.39009
                ]
            },
            "properties": {
                "ref:rspo": 48713,
                "official_name": "Poradnia Psychologiczno-Pedagogiczna Nr 8",
                "name": "Poradnia Psychologiczno-Pedagogiczna Nr 8",
                "addr:postcode": "61-245",
                "addr:city": "Pozna\u0144",
                "addr:street": "Osiedle Rusa",
                "addr:housenumber": "56D",
                "addr:door": "1",
                "addr:teryt:simc": 969770,
                "addr:teryt:sym_ul": 19108,
                "phone": "+48 616704039",
                "email": "ppp8.poznan@wp.pl",
                "website": "http:\/\/ppp8-poznan.pl",
                "ref:regon": "632034656",
                "ref:vatin": "PL7822088964",
                "operator": "Miasto Pozna\u0144",
                "operator:type": "government",
                "healthcare": "counselling",
                "counselling_type": "education",
                "fixme": "w zale\u017cno\u015bci od przedmiotu dzia\u0142alno\u015bci (np. healthcare=counselling + counselling_type=education albo healthcare=psychotherapist)"
            }
        },
        {
            "id": 115639,
            "type": "Feature",
            "geometry": {
                "type": "Point",
                "coordinates": [
                    16.98657,
                    52.39006
                ]
            },
            "properties": {
                "isced:level": "4",
                "ref:rspo": 115639,
                "official_name": "Szko\u0142a Policealna Leonardo 2 w Poznaniu",
                "name": "Szko\u0142a Policealna Leonardo 2 w Poznaniu",
                "addr:postcode": "61-245",
                "addr:city": "Pozna\u0144",
                "addr:street": "Osiedle Rusa",
                "addr:housenumber": "56",
                "addr:teryt:simc": 969770,
                "addr:teryt:sym_ul": 19108,
                "phone": "+48 604050086",
                "ref:regon": "302478914",
                "operator": "\"Fundacja Na Rzecz Pomocy Cor Amico\"",
                "operator:type": "ngo",
                "amenity": "college"
            }
        },
        {
            "id": 80769,
            "type": "Feature",
            "geometry": {
                "type": "Point",
                "coordinates": [
                    17.01162,
                    52.39023
                ]
            },
            "properties": {
                "isced:level": "1;2",
                "ref:rspo": 80769,
                "official_name": "Szko\u0142a Podstawowa Nr 55 im. Jurija Gagarina",
                "name": "Szko\u0142a Podstawowa Nr 55",
                "addr:postcode": "61-065",
                "addr:city": "Pozna\u0144",
                "addr:street": "Szpak\u00f3w",
                "addr:housenumber": "1",
                "addr:teryt:simc": 969770,
                "addr:teryt:sym_ul": 22062,
                "phone": "+48 618770263",
                "email": "interklasa@sp55.pl",
                "website": "http:\/\/www.sp55.pl",
                "ref:regon": "000242660",
                "ref:vatin": "PL7821413215",
                "operator": "Miasto Pozna\u0144",
                "operator:type": "government",
                "amenity": "school"
            }
        },
        {
            "id": 31873,
            "type": "Feature",
            "geometry": {
                "type": "Point",
                "coordinates": [
                    16.97225,
                    52.39045
                ]
            },
            "properties": {
                "isced:level": "3",
                "ref:rspo": 31873,
                "official_name": "Niepubliczne Liceum Og\u00f3lnokszta\u0142c\u0105ce dla Doros\u0142ych \"Scholar\"",
                "name": "Niepubliczne Liceum Og\u00f3lnokszta\u0142c\u0105ce dla Doros\u0142ych \"Scholar\"",
                "addr:postcode": "61-294",
                "addr:city": "Pozna\u0144",
                "addr:street": "Osiedle Lecha",
                "addr:housenumber": "37",
                "addr:teryt:simc": 969770,
                "addr:teryt:sym_ul": 10735,
                "phone": "+48 618722686",
                "email": "licscholar@poczta.onet.pl",
                "ref:regon": "302246115",
                "operator": "Maria Klafkowska",
                "operator:type": "private",
                "amenity": "school"
            }
        },
        {
            "id": 44646,
            "type": "Feature",
            "geometry": {
                "type": "Point",
                "coordinates": [
                    16.97225,
                    52.39042
                ]
            },
            "properties": {
                "isced:level": "1;2",
                "ref:rspo": 44646,
                "official_name": "Szko\u0142a Podstawowa Nr 51 Imbronis\u0142awa Szwarca",
                "name": "Szko\u0142a Podstawowa Nr 51 Imbronis\u0142awa Szwarca",
                "addr:postcode": "61-294",
                "addr:city": "Pozna\u0144",
                "addr:street": "Osiedle Lecha",
                "addr:housenumber": "37",
                "addr:teryt:simc": 969770,
                "addr:teryt:sym_ul": 10735,
                "phone": "+48 618777681",
                "email": "szkola@spnr51.poznan.pl",
                "website": "http:\/\/www.spnr51.poznan.pl",
                "ref:regon": "000783137",
                "ref:vatin": "PL7821419933",
                "operator": "Miasto Pozna\u0144",
                "operator:type": "government",
                "amenity": "school"
            }
        },
        {
            "id": 72632,
            "type": "Feature",
            "geometry": {
                "type": "Point",
                "coordinates": [
                    16.96101,
                    52.39056
                ]
            },
            "properties": {
                "isced:level": "1;2",
                "ref:rspo": 72632,
                "official_name": "Spo\u0142eczna Szko\u0142a Podstawowa Nr 4 Spo\u0142ecznego Towarzystwa O\u015bwiatowego im. Prof. Adama Wodziczki",
                "name": "Spo\u0142eczna Szko\u0142a Podstawowa Nr 4 Spo\u0142ecznego Towarzystwa O\u015bwiatowego",
                "addr:postcode": "61-209",
                "addr:city": "Pozna\u0144",
                "addr:street": "Osiedle O\u015bwiecenia",
                "addr:housenumber": "64",
                "addr:teryt:simc": 969770,
                "addr:teryt:sym_ul": 15438,
                "phone": "+48 618720624",
                "email": "sekretariat@spolecznaczworka.pl",
                "website": "http:\/\/www.spolecznaczworka.pl",
                "ref:regon": "302259595",
                "operator": "Samodzielne Ko\u0142o Terenowe Nr 185 Spo\u0142ecznego Towarzystwa O\u015bwiatowego",
                "operator:type": "cooperative",
                "amenity": "school"
            }
        },
        {
            "id": 70658,
            "type": "Feature",
            "geometry": {
                "type": "Point",
                "coordinates": [
                    16.9689,
                    52.39058
                ]
            },
            "properties": {
                "ref:rspo": 70658,
                "official_name": "Przedszkole Nr 53 im. \"Kosza\u0142ka Opa\u0142ka\"",
                "name": "Przedszkole Nr 53",
                "addr:postcode": "61-293",
                "addr:city": "Pozna\u0144",
                "addr:street": "Osiedle Lecha",
                "addr:housenumber": "14",
                "addr:teryt:simc": 969770,
                "addr:teryt:sym_ul": 10735,
                "phone": "+48 618777871",
                "email": "p53@poznan.interklasa.pl",
                "website": "http:\/\/www.przedszkole53.edu.pl",
                "ref:regon": "301624957",
                "ref:vatin": "PL7822518608",
                "operator": "Miasto Pozna\u0144",
                "operator:type": "government",
                "amenity": "kindergarten"
            }
        },
        {
            "id": 133659,
            "type": "Feature",
            "geometry": {
                "type": "Point",
                "coordinates": [
                    16.9544,
                    52.39068
                ]
            },
            "properties": {
                "isced:level": "1;2",
                "ref:rspo": 133659,
                "official_name": "Szko\u0142a Podstawowa Nr 2 Z Oddzia\u0142ami Dwuj\u0119zycznymi",
                "name": "Szko\u0142a Podstawowa Nr 2 Z Oddzia\u0142ami Dwuj\u0119zycznymi",
                "addr:postcode": "61-223",
                "addr:city": "Pozna\u0144",
                "addr:street": "Osiedle Jagiello\u0144skie",
                "addr:housenumber": "128",
                "addr:teryt:simc": 969770,
                "addr:teryt:sym_ul": 7033,
                "phone": "+48 618791441",
                "email": "sekretariat@sp2poznan.pl",
                "ref:regon": "367520413",
                "operator": "Miasto Pozna\u0144",
                "operator:type": "government",
                "amenity": "school"
            }
        },
        {
            "id": 262945,
            "type": "Feature",
            "geometry": {
                "type": "Point",
                "coordinates": [
                    16.9544,
                    52.39065
                ]
            },
            "properties": {
                "isced:level": "3",
                "ref:rspo": 262945,
                "official_name": "Prywatne Liceum Og\u00f3lnokszta\u0142c\u0105ce dla Doros\u0142ych Lupus",
                "name": "Prywatne Liceum Og\u00f3lnokszta\u0142c\u0105ce dla Doros\u0142ych Lupus",
                "addr:postcode": "61-223",
                "addr:city": "Pozna\u0144",
                "addr:street": "Osiedle Jagiello\u0144skie",
                "addr:housenumber": "128",
                "addr:teryt:simc": 969770,
                "addr:teryt:sym_ul": 7033,
                "phone": "+48 577755135",
                "email": "sekretariat.lupus@gmail.com",
                "ref:regon": "368077144",
                "operator": "Micha\u0142 Kami\u0144ski",
                "operator:type": "private",
                "amenity": "school"
            }
        },
        {
            "id": 262946,
            "type": "Feature",
            "geometry": {
                "type": "Point",
                "coordinates": [
                    16.9544,
                    52.390620000000006
                ]
            },
            "properties": {
                "isced:level": "4",
                "ref:rspo": 262946,
                "official_name": "Prywatna Szko\u0142a Policealna Lupus",
                "name": "Prywatna Szko\u0142a Policealna Lupus",
                "addr:postcode": "61-223",
                "addr:city": "Pozna\u0144",
                "addr:street": "Osiedle Jagiello\u0144skie",
                "addr:housenumber": "128",
                "addr:teryt:simc": 969770,
                "addr:teryt:sym_ul": 7033,
                "phone": "+48 577755135",
                "email": "sekretariat.lupus@gmail.com",
                "ref:regon": "368077262",
                "operator": "Micha\u0142 Kami\u0144ski",
                "operator:type": "private",
                "amenity": "college"
            }
        },
        {
            "id": 133724,
            "type": "Feature",
            "geometry": {
                "type": "Point",
                "coordinates": [
                    16.97505,
                    52.3907
                ]
            },
            "properties": {
                "ref:rspo": 133724,
                "official_name": "Publiczne Przedszkole J\u0119zykowo - Artystyczne \"Tw\u00f3rcze Misie\"",
                "name": "Publiczne Przedszkole J\u0119zykowo - Artystyczne \"Tw\u00f3rcze Misie\"",
                "addr:postcode": "61-294",
                "addr:city": "Pozna\u0144",
                "addr:street": "Osiedle Lecha",
                "addr:housenumber": "43",
                "addr:teryt:simc": 969770,
                "addr:teryt:sym_ul": 10735,
                "phone": "+48 607776656",
                "email": "dyrekcja@tworczemisie.pl",
                "website": "http:\/\/www.tworczemisie.pl",
                "ref:regon": "367558663",
                "operator": "Ewa Miskiewicz",
                "operator:type": "private",
                "amenity": "kindergarten"
            }
        },
        {
            "id": 278608,
            "type": "Feature",
            "geometry": {
                "type": "Point",
                "coordinates": [
                    16.97505,
                    52.39067
                ]
            },
            "properties": {
                "ref:rspo": 278608,
                "official_name": "Niepubliczna Poradnia Psychologiczno-Pedagogiczna \"Wcf\" w Poznaniu",
                "name": "Niepubliczna Poradnia Psychologiczno-Pedagogiczna \"Wcf\" w Poznaniu",
                "addr:postcode": "61-294",
                "addr:city": "Pozna\u0144",
                "addr:street": "Osiedle Lecha",
                "addr:housenumber": "43",
                "addr:teryt:simc": 969770,
                "addr:teryt:sym_ul": 10735,
                "phone": "+48 780002279",
                "email": "dzieci@wcf.com.pl",
                "website": "http:\/\/www.wielkopolskiecentrumfizjoterapii.pl",
                "ref:regon": "389991041",
                "operator": "Mateusz Romanowski",
                "operator:type": "private",
                "healthcare": "counselling",
                "counselling_type": "education",
                "fixme": "w zale\u017cno\u015bci od przedmiotu dzia\u0142alno\u015bci (np. healthcare=counselling + counselling_type=education albo healthcare=psychotherapist)"
            }
        },
        {
            "id": 66387,
            "type": "Feature",
            "geometry": {
                "type": "Point",
                "coordinates": [
                    16.94445,
                    52.3910399
                ]
            },
            "properties": {
                "isced:level": "1;2",
                "ref:rspo": 66387,
                "official_name": "Sportowa Szko\u0142a Podstawowa Nr 14 im. W\u0142adys\u0142awa \u0141okietka",
                "name": "Sportowa Szko\u0142a Podstawowa Nr 14",
                "addr:postcode": "61-156",
                "addr:city": "Pozna\u0144",
                "addr:street": "Osiedle Piastowskie",
                "addr:housenumber": "65",
                "addr:teryt:simc": 969770,
                "addr:teryt:sym_ul": 16052,
                "phone": "+48 618771300",
                "email": "sekretariat@sp14poznan.pl",
                "website": "http:\/\/www.sp14poznan.pl",
                "ref:regon": "000230639",
                "ref:vatin": "PL7821415160",
                "operator": "Miasto Pozna\u0144",
                "operator:type": "government",
                "amenity": "school"
            }
        },
        {
            "id": 85080,
            "type": "Feature",
            "geometry": {
                "type": "Point",
                "coordinates": [
                    16.95502,
                    52.39183
                ]
            },
            "properties": {
                "isced:level": "1;2",
                "ref:rspo": 85080,
                "official_name": "Szko\u0142a Podstawowa Nr 19 im. Stanis\u0142awa Staszica",
                "name": "Szko\u0142a Podstawowa Nr 19",
                "addr:postcode": "61-205",
                "addr:city": "Pozna\u0144",
                "addr:street": "Osiedle O\u015bwiecenia",
                "addr:housenumber": "1",
                "addr:teryt:simc": 969770,
                "addr:teryt:sym_ul": 15438,
                "phone": "+48 618750722",
                "email": "poczta@sp19poznan.pl",
                "website": "http:\/\/www.sp19poznan.pl",
                "ref:regon": "000717494",
                "ref:vatin": "PL7821710835",
                "operator": "Miasto Pozna\u0144",
                "operator:type": "government",
                "amenity": "school"
            }
        },
        {
            "id": 70555,
            "type": "Feature",
            "geometry": {
                "type": "Point",
                "coordinates": [
                    16.94413,
                    52.39204
                ]
            },
            "properties": {
                "ref:rspo": 70555,
                "official_name": "Przedszkole Nr 119 im. \"Lecha\"",
                "name": "Przedszkole Nr 119",
                "addr:postcode": "61-156",
                "addr:city": "Pozna\u0144",
                "addr:street": "Osiedle Piastowskie",
                "addr:housenumber": "55",
                "addr:teryt:simc": 969770,
                "addr:teryt:sym_ul": 16052,
                "phone": "+48 618772220",
                "email": "p119poznan@gmail.com",
                "website": "http:\/\/www.p119.pl",
                "ref:regon": "301625218",
                "ref:vatin": "PL7822517997",
                "operator": "Miasto Pozna\u0144",
                "operator:type": "government",
                "amenity": "kindergarten"
            }
        },
        {
            "id": 70646,
            "type": "Feature",
            "geometry": {
                "type": "Point",
                "coordinates": [
                    17.01603,
                    52.3923
                ]
            },
            "properties": {
                "ref:rspo": 70646,
                "official_name": "Przedszkole Nr 68 \"Kolorowy \u015awiat\"",
                "name": "Przedszkole Nr 68 \"Kolorowy \u015awiat\"",
                "addr:postcode": "61-066",
                "addr:city": "Pozna\u0144",
                "addr:street": "Piwna",
                "addr:housenumber": "1a",
                "addr:teryt:simc": 969770,
                "addr:teryt:sym_ul": 16370,
                "phone": "+48 618768516",
                "email": "p68@poznan.interklasa.pl",
                "website": "http:\/\/www.przedszkole68.pl",
                "ref:regon": "301628100",
                "ref:vatin": "PL7822518212",
                "operator": "Miasto Pozna\u0144",
                "operator:type": "government",
                "amenity": "kindergarten"
            }
        },
        {
            "id": 70544,
            "type": "Feature",
            "geometry": {
                "type": "Point",
                "coordinates": [
                    16.95857,
                    52.39247
                ]
            },
            "properties": {
                "ref:rspo": 70544,
                "official_name": "Przedszkole Nr 10 im. Bolka,Lolka I Toli",
                "name": "Przedszkole Nr 10",
                "addr:postcode": "61-206",
                "addr:city": "Pozna\u0144",
                "addr:street": "Osiedle O\u015bwiecenia",
                "addr:housenumber": "26",
                "addr:teryt:simc": 969770,
                "addr:teryt:sym_ul": 15438,
                "phone": "+48 618790131",
                "email": "p10@poznan.interklasa.pl",
                "website": "http:\/\/p10poznan.szkolnastrona.pl",
                "ref:regon": "301618626",
                "ref:vatin": "PL7822517508",
                "operator": "Miasto Pozna\u0144",
                "operator:type": "government",
                "amenity": "kindergarten"
            }
        },
        {
            "id": 31977,
            "type": "Feature",
            "geometry": {
                "type": "Point",
                "coordinates": [
                    16.98485,
                    52.39258
                ]
            },
            "properties": {
                "ref:rspo": 31977,
                "official_name": "J\u0119zykowe Niepubliczne Przedszkole Montessori Mistrzowie Zabawy",
                "name": "J\u0119zykowe Niepubliczne Przedszkole Montessori Mistrzowie Zabawy",
                "addr:postcode": "61-244",
                "addr:city": "Pozna\u0144",
                "addr:street": "Bli\u017ani\u0105t",
                "addr:housenumber": "12",
                "addr:door": "2",
                "addr:teryt:simc": 969770,
                "addr:teryt:sym_ul": 1420,
                "phone": "+48 502941342",
                "email": "kontakt@mistrzowiezabawy.poznan.pl",
                "website": "http:\/\/www.mistrzowiezabawy.poznan.pl",
                "ref:regon": "302248930",
                "operator": "Halina Potocka",
                "operator:type": "private",
                "amenity": "kindergarten"
            }
        },
        {
            "id": 126415,
            "type": "Feature",
            "geometry": {
                "type": "Point",
                "coordinates": [
                    16.9775199,
                    52.39314
                ]
            },
            "properties": {
                "isced:level": "3",
                "ref:rspo": 126415,
                "official_name": "Liceum Og\u00f3lnokszta\u0142c\u0105ce Mistrzostwa Sportowego",
                "name": "Liceum Og\u00f3lnokszta\u0142c\u0105ce Mistrzostwa Sportowego",
                "addr:postcode": "61-255",
                "addr:city": "Pozna\u0144",
                "addr:street": "Osiedle Tysi\u0105clecia",
                "addr:housenumber": "43",
                "addr:teryt:simc": 969770,
                "addr:teryt:sym_ul": 23267,
                "phone": "+48 616639800",
                "email": "zsms@zsms.poznan.pl",
                "website": "http:\/\/www.zsms.poznan.pl",
                "ref:regon": "631191610",
                "operator": "Miasto Pozna\u0144",
                "operator:type": "government",
                "amenity": "school"
            }
        },
        {
            "id": 83074,
            "type": "Feature",
            "geometry": {
                "type": "Point",
                "coordinates": [
                    16.9473658,
                    52.3931676
                ]
            },
            "properties": {
                "ref:rspo": 83074,
                "official_name": "Przedszkole Specjalne \"Bartek\"",
                "name": "Przedszkole Specjalne \"Bartek\"",
                "addr:postcode": "61-152",
                "addr:city": "Pozna\u0144",
                "addr:street": "Osiedle Piastowskie",
                "addr:housenumber": "42",
                "addr:teryt:simc": 969770,
                "addr:teryt:sym_ul": 16052,
                "phone": "+48 505061302",
                "email": "kontakt@przedszkolebartek.org",
                "ref:regon": "302270906",
                "operator": "\"Dzienny O\u015brodek Rehabilitacyjny Bartek\"",
                "operator:type": "ngo",
                "amenity": "kindergarten"
            }
        },
        {
            "id": 41172,
            "type": "Feature",
            "geometry": {
                "type": "Point",
                "coordinates": [
                    16.94366,
                    52.3936
                ]
            },
            "properties": {
                "isced:level": "1;2",
                "ref:rspo": 41172,
                "official_name": "Szko\u0142a Podstawowa Nr 3",
                "name": "Szko\u0142a Podstawowa Nr 3",
                "addr:postcode": "61-149",
                "addr:city": "Pozna\u0144",
                "addr:street": "Osiedle Piastowskie",
                "addr:housenumber": "27",
                "addr:teryt:simc": 969770,
                "addr:teryt:sym_ul": 16052,
                "phone": "+48 618770937",
                "email": "sp3krzywousty@gmail.com",
                "website": "http:\/\/www.sp3poznan.pl",
                "ref:regon": "000227873",
                "ref:vatin": "PL7821468245",
                "operator": "Miasto Pozna\u0144",
                "operator:type": "government",
                "amenity": "school"
            }
        },
        {
            "id": 70656,
            "type": "Feature",
            "geometry": {
                "type": "Point",
                "coordinates": [
                    16.95291,
                    52.39412
                ]
            },
            "properties": {
                "ref:rspo": 70656,
                "official_name": "Przedszkole Nr 9 im. Zbyszka I Jagienki",
                "name": "Przedszkole Nr 9",
                "addr:postcode": "61-226",
                "addr:city": "Pozna\u0144",
                "addr:street": "Osiedle Jagiello\u0144skie",
                "addr:housenumber": "9",
                "addr:teryt:simc": 969770,
                "addr:teryt:sym_ul": 7033,
                "phone": "+48 618770558",
                "email": "p9@poznan.interklasa.pl",
                "website": "http:\/\/www.pr9.pl",
                "ref:regon": "301613681",
                "ref:vatin": "PL7822517460",
                "operator": "Miasto Pozna\u0144",
                "operator:type": "government",
                "amenity": "kindergarten"
            }
        },
        {
            "id": 68106,
            "type": "Feature",
            "geometry": {
                "type": "Point",
                "coordinates": [
                    16.94372,
                    52.39463
                ]
            },
            "properties": {
                "ref:rspo": 68106,
                "official_name": "Przedszkole Nr 126 im. Rusa",
                "name": "Przedszkole Nr 126",
                "addr:postcode": "61-148",
                "addr:city": "Pozna\u0144",
                "addr:street": "Osiedle Piastowskie",
                "addr:housenumber": "26",
                "addr:teryt:simc": 969770,
                "addr:teryt:sym_ul": 16052,
                "phone": "+48 618773679",
                "email": "p126@poznan.interklasa.pl",
                "website": "http:\/\/przedszkole126.pl",
                "ref:regon": "301613860",
                "ref:vatin": "PL7822517448",
                "operator": "Miasto Pozna\u0144",
                "operator:type": "government",
                "amenity": "kindergarten"
            }
        },
        {
            "id": 123661,
            "type": "Feature",
            "geometry": {
                "type": "Point",
                "coordinates": [
                    16.9626899,
                    52.39596
                ]
            },
            "properties": {
                "ref:rspo": 123661,
                "official_name": "Niepubliczne Przedszkole Ciuciubabka",
                "name": "Niepubliczne Przedszkole Ciuciubabka",
                "addr:postcode": "61-131",
                "addr:city": "Pozna\u0144",
                "addr:street": "Milcza\u0144ska",
                "addr:housenumber": "1",
                "addr:teryt:simc": 969770,
                "addr:teryt:sym_ul": 12920,
                "phone": "+48 697703231",
                "email": "karolinasikora@poczta.onet.pl",
                "ref:regon": "302780116",
                "operator": "Karolina Sikora",
                "operator:type": "private",
                "amenity": "kindergarten"
            }
        },
        {
            "id": 263668,
            "type": "Feature",
            "geometry": {
                "type": "Point",
                "coordinates": [
                    16.9901899,
                    52.40009
                ]
            },
            "properties": {
                "ref:rspo": 263668,
                "official_name": "Le\u015bny Punkt Przedszkolny Gaj\u00f3wka",
                "name": "Le\u015bny Punkt Przedszkolny Gaj\u00f3wka",
                "addr:postcode": "61-049",
                "addr:city": "Pozna\u0144",
                "addr:street": "Wiankowa",
                "addr:housenumber": "1",
                "addr:teryt:simc": 969770,
                "addr:teryt:sym_ul": 23964,
                "phone": "+48 602177010",
                "email": "przedszkolegajowka@onet.pl",
                "website": "http:\/\/www.przedszkolegajowka.pl",
                "ref:regon": "368214753",
                "operator": "Katarzyna Rutkowska",
                "operator:type": "private",
                "amenity": "kindergarten"
            }
        },
        {
            "id": 265816,
            "type": "Feature",
            "geometry": {
                "type": "Point",
                "coordinates": [
                    16.9627156,
                    52.4001753
                ]
            },
            "properties": {
                "ref:rspo": 265816,
                "official_name": "Madame Art",
                "name": "Madame Art",
                "addr:postcode": "61-131",
                "addr:city": "Pozna\u0144",
                "addr:street": "Katowicka",
                "addr:housenumber": "11",
                "addr:door": "b2",
                "addr:teryt:simc": 969770,
                "addr:teryt:sym_ul": 8206,
                "phone": "+48 533552209",
                "email": "biuro@madameart.pl",
                "website": "http:\/\/www.madameart.pl",
                "ref:regon": "368929179",
                "operator": "Magdalena Mazurek",
                "operator:type": "private",
                "fixme": "w zale\u017cno\u015bci od przedmiotu dzia\u0142alno\u015bci (np. amenity=training + training=*, amenity=dancing_school, amenity=language_school, amenity=music_school)"
            }
        },
        {
            "id": 15617,
            "type": "Feature",
            "geometry": {
                "type": "Point",
                "coordinates": [
                    16.9644253,
                    52.4013948
                ]
            },
            "properties": {
                "ref:rspo": 15617,
                "official_name": "Altkom",
                "name": "Altkom",
                "addr:postcode": "61-131",
                "addr:city": "Pozna\u0144",
                "addr:street": "abpa Antoniego Baraniaka",
                "addr:housenumber": "88",
                "addr:teryt:simc": 969770,
                "addr:teryt:sym_ul": 36972,
                "phone": "+48 224609999",
                "ref:regon": "302220570",
                "operator": "Grupa Altkom Sp\u00f3\u0142ka Akcyjna",
                "operator:type": "private",
                "fixme": "w zale\u017cno\u015bci od przedmiotu dzia\u0142alno\u015bci (np. amenity=training + training=*, amenity=dancing_school, amenity=language_school, amenity=music_school)"
            }
        },
        {
            "id": 123597,
            "type": "Feature",
            "geometry": {
                "type": "Point",
                "coordinates": [
                    16.94389,
                    52.40229
                ]
            },
            "properties": {
                "ref:rspo": 123597,
                "official_name": "O\u015brodek Rewalidacyjno-Wychowawczy im. B\u0142. Sancji Szymkowiak",
                "name": "O\u015brodek Rewalidacyjno-Wychowawczy",
                "addr:postcode": "61-142",
                "addr:city": "Pozna\u0144",
                "addr:street": "\u015bw. Rocha",
                "addr:housenumber": "16 a",
                "addr:teryt:simc": 969770,
                "addr:teryt:sym_ul": 18705,
                "phone": "+48 603360482",
                "email": "orwsancja@op.pl",
                "website": "http:\/\/www.orwsancja.pl",
                "ref:regon": "302775339",
                "operator": "Stowarzyszenie Na Rzecz Os\u00f3b Niepe\u0142nosprawnych \"R\u00f3wny Start\"",
                "operator:type": "ngo",
                "amenity": "school"
            }
        },
        {
            "id": 109711,
            "type": "Feature",
            "geometry": {
                "type": "Point",
                "coordinates": [
                    17.01876,
                    52.40612
                ]
            },
            "properties": {
                "ref:rspo": 109711,
                "official_name": "\"Horyzonty\" Przedszkole Fundacji Sternik-Pozna\u0144",
                "name": "\"Horyzonty\" Przedszkole Fundacji Sternik-Pozna\u0144",
                "addr:postcode": "61-063",
                "addr:city": "Pozna\u0144",
                "addr:street": "Dobrowita",
                "addr:housenumber": "22",
                "addr:teryt:simc": 969770,
                "addr:teryt:sym_ul": 3955,
                "phone": "+48 515043563",
                "email": "sekretariat.przedszkole@horyzonty.edu.pl",
                "website": "http:\/\/przedszkole.horyzonty.edu.pl",
                "ref:regon": "302349826",
                "operator": "Fundacja Sternik - Pozna\u0144",
                "operator:type": "ngo",
                "amenity": "kindergarten"
            }
        },
        {
            "id": 32006,
            "type": "Feature",
            "geometry": {
                "type": "Point",
                "coordinates": [
                    16.98864,
                    52.40617
                ]
            },
            "properties": {
                "ref:rspo": 32006,
                "official_name": "Niepubliczne Przedszkole Ksw im. B\u0142. Natalii Tu\u0142asiewicz",
                "name": "Niepubliczne Przedszkole Ksw",
                "addr:postcode": "61-049",
                "addr:city": "Pozna\u0144",
                "addr:street": "Mi\u0144ska",
                "addr:housenumber": "32",
                "addr:teryt:simc": 969770,
                "addr:teryt:sym_ul": 12989,
                "phone": "+48 608651309",
                "email": "sekretariat@szkoly.poznan.ksw.pl",
                "website": "http:\/\/www.szkoly.poznan.ksw.pl",
                "ref:regon": "302249214",
                "operator": "Katolickie Stowarzyszenie Wychowawc\u00f3w - Oddzia\u0142 W Poznaniu",
                "operator:type": "ngo",
                "amenity": "kindergarten"
            }
        },
        {
            "id": 83079,
            "type": "Feature",
            "geometry": {
                "type": "Point",
                "coordinates": [
                    16.98864,
                    52.40614
                ]
            },
            "properties": {
                "isced:level": "1;2",
                "ref:rspo": 83079,
                "official_name": "Publiczna Szko\u0142a Podstawowa Nr 1 Katolickiego Stowarzyszenia Wychowawc\u00f3w im. B\u0142. Natalii Tu\u0142asiewicz w Poznaniu",
                "name": "Publiczna Szko\u0142a Podstawowa Nr 1 Katolickiego Stowarzyszenia Wychowawc\u00f3w",
                "addr:postcode": "61-049",
                "addr:city": "Pozna\u0144",
                "addr:street": "Mi\u0144ska",
                "addr:housenumber": "32",
                "addr:teryt:simc": 969770,
                "addr:teryt:sym_ul": 12989,
                "phone": "+48 618794941",
                "email": "sp1@szkoly.poznan.ksw.pl",
                "website": "http:\/\/www.szkoly.poznan.ksw.pl",
                "ref:regon": "302270941",
                "operator": "Katolickie Stowarzyszenie Wychowawc\u00f3w - Oddzia\u0142 W Poznaniu",
                "operator:type": "ngo",
                "amenity": "school"
            }
        },
        {
            "id": 271702,
            "type": "Feature",
            "geometry": {
                "type": "Point",
                "coordinates": [
                    16.98864,
                    52.406110000000005
                ]
            },
            "properties": {
                "isced:level": "3",
                "ref:rspo": 271702,
                "official_name": "Publiczne Liceum Og\u00f3lnokszta\u0142c\u0105ce Katolickiego Stowarzyszenia Wychowawc\u00f3w im. Kardyna\u0142a Augusta Hlonda w Poznaniu",
                "name": "Publiczne Liceum Og\u00f3lnokszta\u0142c\u0105ce Katolickiego Stowarzyszenia Wychowawc\u00f3w",
                "addr:postcode": "61-049",
                "addr:city": "Pozna\u0144",
                "addr:street": "Mi\u0144ska",
                "addr:housenumber": "32",
                "addr:teryt:simc": 969770,
                "addr:teryt:sym_ul": 12989,
                "phone": "+48 618794941",
                "email": "liceum@szkoly.poznan.ksw.pl",
                "website": "http:\/\/www.liceum.kard.hlonda.pl",
                "ref:regon": "383549077",
                "operator": "Katolickie Stowarzyszenie Wychowawc\u00f3w - Oddzia\u0142 W Poznaniu",
                "operator:type": "ngo",
                "amenity": "school"
            }
        },
        {
            "id": 87543,
            "type": "Feature",
            "geometry": {
                "type": "Point",
                "coordinates": [
                    17.0443399,
                    52.40655
                ]
            },
            "properties": {
                "ref:rspo": 87543,
                "official_name": "Niepubliczne Przedszkole w Zieli\u0144cu\n\"Wyspa Odkrywc\u00f3w",
                "name": "Niepubliczne Przedszkole w Zieli\u0144cu\n\"Wyspa Odkrywc\u00f3w",
                "addr:postcode": "61-058",
                "addr:city": "Pozna\u0144",
                "addr:street": "So\u015bnicka",
                "addr:housenumber": "10",
                "addr:teryt:simc": 969770,
                "addr:teryt:sym_ul": 20608,
                "phone": "+48 606680141",
                "email": "biuro@przedszkolewzielincu.pl",
                "ref:regon": "302271716",
                "operator": "Anna Melewska",
                "operator:type": "private",
                "amenity": "kindergarten"
            }
        },
        {
            "id": 130761,
            "type": "Feature",
            "geometry": {
                "type": "Point",
                "coordinates": [
                    17.01983,
                    52.40706
                ]
            },
            "properties": {
                "ref:rspo": 130761,
                "official_name": "Zesp\u00f3\u0142 Szkolno-Przedszkolny Nr 7",
                "name": "Zesp\u00f3\u0142 Szkolno-Przedszkolny Nr 7",
                "addr:postcode": "61-062",
                "addr:city": "Pozna\u0144",
                "addr:street": "Leszka",
                "addr:housenumber": "42",
                "addr:teryt:simc": 969770,
                "addr:teryt:sym_ul": 10882,
                "phone": "+48 618768079",
                "email": "zsp7poznan@wp.pl",
                "website": "http:\/\/www.sp87.poznan.pl",
                "ref:regon": "364482876",
                "operator": "Miasto Pozna\u0144",
                "operator:type": "government",
                "landuse": "education",
                "fixme": "amenity=school, amenity=college albo landuse=education w zale\u017cno\u015bci od tego, jakie plac\u00f3wki wchodz\u0105 w sk\u0142ad zespo\u0142u. Sprawd\u017a, kiedy stosowa\u0107 amenity=* a kiedy landuse=education.",
                "note": "Children RSPO: 84784;130305"
            }
        },
        {
            "id": 84784,
            "type": "Feature",
            "geometry": {
                "type": "Point",
                "coordinates": [
                    17.01983,
                    52.40703
                ]
            },
            "properties": {
                "isced:level": "1;2",
                "ref:rspo": 84784,
                "official_name": "Szko\u0142a Podstawowa Nr 87 im. Stefana \u017beromskiego",
                "name": "Szko\u0142a Podstawowa Nr 87",
                "addr:postcode": "61-062",
                "addr:city": "Pozna\u0144",
                "addr:street": "Leszka",
                "addr:housenumber": "42",
                "addr:teryt:simc": 969770,
                "addr:teryt:sym_ul": 10882,
                "phone": "+48 618768079",
                "email": "zsp7poznan@wp.pl",
                "website": "http:\/\/www.sp87.poznan.pl",
                "ref:regon": "000245954",
                "ref:vatin": "PL7821446605",
                "operator": "Miasto Pozna\u0144",
                "operator:type": "government",
                "amenity": "school",
                "note": "Parent RSPO: 130761"
            }
        },
        {
            "id": 130305,
            "type": "Feature",
            "geometry": {
                "type": "Point",
                "coordinates": [
                    17.01983,
                    52.407000000000004
                ]
            },
            "properties": {
                "ref:rspo": 130305,
                "official_name": "Przedszkole Nr 192",
                "name": "Przedszkole Nr 192",
                "addr:postcode": "61-062",
                "addr:city": "Pozna\u0144",
                "addr:street": "Leszka",
                "addr:housenumber": "42",
                "addr:teryt:simc": 969770,
                "addr:teryt:sym_ul": 10882,
                "phone": "+48 618768079",
                "email": "zsp7poznan@wp.pl",
                "ref:regon": "363810539",
                "operator": "Miasto Pozna\u0144",
                "operator:type": "government",
                "amenity": "kindergarten",
                "note": "Parent RSPO: 130761"
            }
        },
        {
            "id": 32065,
            "type": "Feature",
            "geometry": {
                "type": "Point",
                "coordinates": [
                    17.02223,
                    52.40725
                ]
            },
            "properties": {
                "ref:rspo": 32065,
                "official_name": "Niepubliczne Przedszkole \"Niebieskie Migda\u0142y\"",
                "name": "Niepubliczne Przedszkole \"Niebieskie Migda\u0142y\"",
                "addr:postcode": "61-062",
                "addr:city": "Pozna\u0144",
                "addr:street": "Leszka",
                "addr:housenumber": "25a",
                "addr:teryt:simc": 969770,
                "addr:teryt:sym_ul": 10882,
                "phone": "+48 603743888",
                "email": "a.kolasinska@vp.pl",
                "ref:regon": "302248924",
                "operator": "Arleta Kolasi\u0144ska",
                "operator:type": "private",
                "amenity": "kindergarten"
            }
        },
        {
            "id": 125384,
            "type": "Feature",
            "geometry": {
                "type": "Point",
                "coordinates": [
                    16.98394,
                    52.40738
                ]
            },
            "properties": {
                "ref:rspo": 125384,
                "official_name": "Przedszkole Niepubliczne\n\"Malta\"",
                "name": "Przedszkole Niepubliczne\n\"Malta\"",
                "addr:postcode": "61-048",
                "addr:city": "Pozna\u0144",
                "addr:street": "Brzeska",
                "addr:housenumber": "7",
                "addr:teryt:simc": 969770,
                "addr:teryt:sym_ul": 2230,
                "email": "malta@froebel-polska.pl",
                "website": "http:\/\/www.froebel-polska.pl",
                "ref:regon": "302832920",
                "operator": "Froebel Polska Sp\u00f3\u0142ka Z Ograniczon\u0105 Odpowiedzialno\u015bci\u0105",
                "operator:type": "private",
                "amenity": "kindergarten"
            }
        },
        {
            "id": 131534,
            "type": "Feature",
            "geometry": {
                "type": "Point",
                "coordinates": [
                    16.97026,
                    52.40954
                ]
            },
            "properties": {
                "ref:rspo": 131534,
                "official_name": "Przedszkole Raj Maluszka",
                "name": "Przedszkole Raj Maluszka",
                "addr:postcode": "61-028",
                "addr:city": "Pozna\u0144",
                "addr:street": "Warszawska",
                "addr:housenumber": "61",
                "addr:teryt:simc": 969770,
                "addr:teryt:sym_ul": 23682,
                "phone": "+48 605084111",
                "email": "info@rajmaluszka.com",
                "ref:regon": "365217113",
                "operator": "Joanna \u0141\u0119gowska",
                "operator:type": "private",
                "amenity": "kindergarten"
            }
        },
        {
            "id": 88058,
            "type": "Feature",
            "geometry": {
                "type": "Point",
                "coordinates": [
                    16.96541,
                    52.40956
                ]
            },
            "properties": {
                "ref:rspo": 88058,
                "official_name": "Centrum Nauki Pierwszej Pomocy",
                "name": "Centrum Nauki Pierwszej Pomocy",
                "addr:postcode": "61-028",
                "addr:city": "Pozna\u0144",
                "addr:street": "Warszawska",
                "addr:housenumber": "39",
                "addr:door": "41",
                "addr:teryt:simc": 969770,
                "addr:teryt:sym_ul": 23682,
                "phone": "+48 618792096",
                "ref:regon": "302276151",
                "operator": "Stowarzyszenie Na Rzecz Poprawy Bezpiecze\u0144stwa Ruchu Drogowego \"Droga I Bezpiecze\u0144stwo\"",
                "operator:type": "ngo",
                "fixme": "w zale\u017cno\u015bci od przedmiotu dzia\u0142alno\u015bci (np. amenity=training + training=*, amenity=dancing_school, amenity=language_school, amenity=music_school)"
            }
        },
        {
            "id": 272254,
            "type": "Feature",
            "geometry": {
                "type": "Point",
                "coordinates": [
                    16.96087,
                    52.40965
                ]
            },
            "properties": {
                "ref:rspo": 272254,
                "official_name": "Niepubliczna Poradnia Psychologiczno-Pedagogiczna ,,Cali Mali''",
                "name": "Niepubliczna Poradnia Psychologiczno-Pedagogiczna ,,Cali Mali''",
                "addr:postcode": "61-113",
                "addr:city": "Pozna\u0144",
                "addr:street": "Warszawska",
                "addr:housenumber": "25",
                "addr:teryt:simc": 969770,
                "addr:teryt:sym_ul": 23682,
                "email": "biuro@calimali.pl",
                "website": "http:\/\/www.calimali.pl",
                "ref:regon": "384070069",
                "operator": "Fundacja Wspierania Rozwoju Ma\u0142ego Dziecka \"Cali Mali\"",
                "operator:type": "ngo",
                "healthcare": "counselling",
                "counselling_type": "education",
                "fixme": "w zale\u017cno\u015bci od przedmiotu dzia\u0142alno\u015bci (np. healthcare=counselling + counselling_type=education albo healthcare=psychotherapist)"
            }
        },
        {
            "id": 113878,
            "type": "Feature",
            "geometry": {
                "type": "Point",
                "coordinates": [
                    17.02239,
                    52.40973
                ]
            },
            "properties": {
                "ref:rspo": 113878,
                "official_name": "Centrum Doskonalenia Nauczycieli \"Effectus\"",
                "name": "Centrum Doskonalenia Nauczycieli \"Effectus\"",
                "addr:postcode": "62-090",
                "addr:city": "Pozna\u0144",
                "addr:street": "M\u015bcibora",
                "addr:housenumber": "14",
                "addr:teryt:simc": 969770,
                "addr:teryt:sym_ul": 13455,
                "phone": "+48 668545207",
                "ref:regon": "302404643",
                "operator": "Dane Do Uzupe\u0142nienia",
                "operator:type": "private",
                "amenity": "training"
            }
        },
        {
            "id": 64738,
            "type": "Feature",
            "geometry": {
                "type": "Point",
                "coordinates": [
                    16.96014,
                    52.40992
                ]
            },
            "properties": {
                "ref:rspo": 64738,
                "official_name": "Przedszkole Nr 26 Prowadzone Przez Zgromadzenie Si\u00f3str Wsp\u00f3lnej Pracy Od Niepokalanej Maryi",
                "name": "Przedszkole Nr 26 Prowadzone Przez Zgromadzenie Si\u00f3str Wsp\u00f3lnej Pracy Od Niepokalanej Maryi",
                "addr:postcode": "61-116",
                "addr:city": "Pozna\u0144",
                "addr:street": "Piotra Tomickiego",
                "addr:housenumber": "3",
                "addr:teryt:simc": 969770,
                "addr:teryt:sym_ul": 22865,
                "phone": "+48 618771736",
                "email": "przedszkole@zsnm.pl",
                "website": "http:\/\/zsnm.pl",
                "ref:regon": "302258673",
                "operator": "Zgromadzenie Si\u00f3str Wsp\u00f3lnej Pracy Od Niepokalanej Maryi - Dom Generalny",
                "operator:type": "religious",
                "amenity": "kindergarten"
            }
        },
        {
            "id": 51800,
            "type": "Feature",
            "geometry": {
                "type": "Point",
                "coordinates": [
                    16.98149,
                    52.41031
                ]
            },
            "properties": {
                "ref:rspo": 51800,
                "official_name": "Prywatne Przedszkole \"Groszek\"",
                "name": "Prywatne Przedszkole \"Groszek\"",
                "addr:postcode": "61-039",
                "addr:city": "Pozna\u0144",
                "addr:street": "Powidzka",
                "addr:housenumber": "10",
                "addr:teryt:simc": 969770,
                "addr:teryt:sym_ul": 17325,
                "phone": "+48 618708727",
                "email": "ppgroszek@op.pl",
                "ref:regon": "302251464",
                "operator": "Karolina Knyba",
                "operator:type": "private",
                "amenity": "kindergarten"
            }
        },
        {
            "id": 85453,
            "type": "Feature",
            "geometry": {
                "type": "Point",
                "coordinates": [
                    16.93173,
                    52.41045
                ]
            },
            "properties": {
                "ref:rspo": 85453,
                "official_name": "Prywatne Przedszkole \"Bajkowa Polanka\"",
                "name": "Prywatne Przedszkole \"Bajkowa Polanka\"",
                "addr:postcode": "61-131",
                "addr:city": "Pozna\u0144",
                "addr:street": "Polanka",
                "addr:housenumber": "7F",
                "addr:teryt:simc": 969770,
                "addr:teryt:sym_ul": 16973,
                "phone": "+48 618351626",
                "email": "bp@bajkowapolanka.pl",
                "website": "http:\/\/www.bajkowapolanka.pl",
                "ref:regon": "302271484",
                "operator": "Jakub Kozak",
                "operator:type": "private",
                "amenity": "kindergarten"
            }
        },
        {
            "id": 11035,
            "type": "Feature",
            "geometry": {
                "type": "Point",
                "coordinates": [
                    16.96202,
                    52.41116
                ]
            },
            "properties": {
                "ref:rspo": 11035,
                "official_name": "Edukacyjny O\u015brodek Zawodowy",
                "name": "Edukacyjny O\u015brodek Zawodowy",
                "addr:postcode": "61-116",
                "addr:city": "Pozna\u0144",
                "addr:street": "Piotra Tomickiego",
                "addr:housenumber": "16",
                "addr:teryt:simc": 969770,
                "addr:teryt:sym_ul": 22865,
                "phone": "+48 618720905",
                "ref:regon": "302205642",
                "operator": "Henryka Dulnikowska",
                "operator:type": "private",
                "fixme": "w zale\u017cno\u015bci od przedmiotu dzia\u0142alno\u015bci (np. amenity=training + training=*, amenity=dancing_school, amenity=language_school, amenity=music_school)"
            }
        },
        {
            "id": 18719,
            "type": "Feature",
            "geometry": {
                "type": "Point",
                "coordinates": [
                    16.96202,
                    52.41113
                ]
            },
            "properties": {
                "ref:rspo": 18719,
                "official_name": "Edukatka.pl-Centrum Tw\u00f3rczego Rozwoju- Niepubliczna Plac\u00f3wka O\u015bwiatowa",
                "name": "Edukatka.pl-Centrum Tw\u00f3rczego Rozwoju- Niepubliczna Plac\u00f3wka O\u015bwiatowa",
                "addr:postcode": "61-116",
                "addr:city": "Pozna\u0144",
                "addr:street": "Piotra Tomickiego",
                "addr:housenumber": "16",
                "addr:teryt:simc": 969770,
                "addr:teryt:sym_ul": 22865,
                "phone": "+48 618766621",
                "ref:regon": "302222528",
                "operator": "Ma\u0142gorzata Szczur",
                "operator:type": "private",
                "fixme": "w zale\u017cno\u015bci od przedmiotu dzia\u0142alno\u015bci (np. amenity=training + training=*, amenity=dancing_school, amenity=language_school, amenity=music_school)"
            }
        },
        {
            "id": 80750,
            "type": "Feature",
            "geometry": {
                "type": "Point",
                "coordinates": [
                    16.96202,
                    52.411100000000005
                ]
            },
            "properties": {
                "isced:level": "1;2",
                "ref:rspo": 80750,
                "official_name": "Szko\u0142a Podstawowa Nr 85 im. Kawaler\u00f3w Malta\u0144skich",
                "name": "Szko\u0142a Podstawowa Nr 85",
                "addr:postcode": "61-116",
                "addr:city": "Pozna\u0144",
                "addr:street": "Piotra Tomickiego",
                "addr:housenumber": "16",
                "addr:teryt:simc": 969770,
                "addr:teryt:sym_ul": 22865,
                "phone": "+48 618770652",
                "email": "sp85@op.pl",
                "website": "http:\/\/www.sp85poznan.pl",
                "ref:regon": "000245428",
                "ref:vatin": "PL7821413238",
                "operator": "Miasto Pozna\u0144",
                "operator:type": "government",
                "amenity": "school"
            }
        },
        {
            "id": 111813,
            "type": "Feature",
            "geometry": {
                "type": "Point",
                "coordinates": [
                    16.96202,
                    52.41107
                ]
            },
            "properties": {
                "ref:rspo": 111813,
                "official_name": "O\u015brodek Edukacyjny dla Nauczycieli",
                "name": "O\u015brodek Edukacyjny dla Nauczycieli",
                "addr:postcode": "61-116",
                "addr:city": "Pozna\u0144",
                "addr:street": "Piotra Tomickiego",
                "addr:housenumber": "16",
                "addr:teryt:simc": 969770,
                "addr:teryt:sym_ul": 22865,
                "phone": "+48 618720905",
                "ref:regon": "302378911",
                "ref:vatin": "PL7771604917",
                "operator": "Henryka Dulnikowska",
                "operator:type": "private",
                "amenity": "training"
            }
        },
        {
            "id": 270403,
            "type": "Feature",
            "geometry": {
                "type": "Point",
                "coordinates": [
                    16.96857,
                    52.41124
                ]
            },
            "properties": {
                "ref:rspo": 270403,
                "official_name": "Przedszkole Artystyczno-J\u0119zykowe Kr\u00f3lewskie",
                "name": "Przedszkole Artystyczno-J\u0119zykowe Kr\u00f3lewskie",
                "addr:postcode": "61-029",
                "addr:city": "Pozna\u0144",
                "addr:street": "Mi\u0142os\u0142awska",
                "addr:housenumber": "4",
                "addr:teryt:simc": 969770,
                "addr:teryt:sym_ul": 12959,
                "email": "krolewskie.4@interia.pl",
                "ref:regon": "382524402",
                "operator": "Ejs Sp\u00f3\u0142ka Z Ograniczon\u0105 Odpowiedzialno\u015bci\u0105",
                "operator:type": "private",
                "amenity": "kindergarten"
            }
        },
        {
            "id": 72674,
            "type": "Feature",
            "geometry": {
                "type": "Point",
                "coordinates": [
                    16.95371,
                    52.4115899
                ]
            },
            "properties": {
                "isced:level": "1;2",
                "ref:rspo": 72674,
                "official_name": "Katedralna Og\u00f3lnokszta\u0142c\u0105ca Szko\u0142a Muzyczna I St. w Poznaniu",
                "name": "Katedralna Og\u00f3lnokszta\u0142c\u0105ca Szko\u0142a Muzyczna I St. w Poznaniu",
                "addr:postcode": "61-123",
                "addr:city": "Pozna\u0144",
                "addr:street": "Filipi\u0144ska",
                "addr:housenumber": "4",
                "addr:teryt:simc": 969770,
                "addr:teryt:sym_ul": 5005,
                "phone": "+48 618773395",
                "email": "dyrektor@szkolakatedralna.pl",
                "website": "http:\/\/szkolakatedralna.pl",
                "ref:regon": "302258800",
                "operator": "Archidiecezja Pozna\u0144ska",
                "operator:type": "religious",
                "amenity": "school"
            }
        },
        {
            "id": 26404,
            "type": "Feature",
            "geometry": {
                "type": "Point",
                "coordinates": [
                    16.95558,
                    52.41165
                ]
            },
            "properties": {
                "isced:level": "4",
                "ref:rspo": 26404,
                "official_name": "Policealna Szko\u0142a Kosmetyczna Akademia Zdrowia I Urody",
                "name": "Policealna Szko\u0142a Kosmetyczna Akademia Zdrowia I Urody",
                "addr:postcode": "61-127",
                "addr:city": "Pozna\u0144",
                "addr:street": "Bydgoska",
                "addr:housenumber": "4a",
                "addr:teryt:simc": 969770,
                "addr:teryt:sym_ul": 2498,
                "phone": "+48 663173133",
                "email": "naukakosmetyki@gmail.com",
                "ref:regon": "302237168",
                "operator": "Joanna Ulewak - Stachowiak",
                "operator:type": "private",
                "amenity": "college"
            }
        },
        {
            "id": 31487,
            "type": "Feature",
            "geometry": {
                "type": "Point",
                "coordinates": [
                    16.95558,
                    52.41162
                ]
            },
            "properties": {
                "isced:level": "1;2",
                "ref:rspo": 31487,
                "official_name": "Pozna\u0144ska Og\u00f3lnokszta\u0142c\u0105ca Szko\u0142a Muzyczna I St. Nr 2 im. T.szeligowskiego",
                "name": "Pozna\u0144ska Og\u00f3lnokszta\u0142c\u0105ca Szko\u0142a Muzyczna I St. Nr 2",
                "addr:postcode": "61-127",
                "addr:city": "Pozna\u0144",
                "addr:street": "Bydgoska",
                "addr:housenumber": "4",
                "addr:teryt:simc": 969770,
                "addr:teryt:sym_ul": 2498,
                "phone": "+48 618774526",
                "email": "sekretariat@posm2.poznan.pl",
                "website": "http:\/\/www.posm2.poznan.pl",
                "ref:regon": "000276469",
                "ref:vatin": "PL7822165251",
                "operator": "Miasto Pozna\u0144",
                "operator:type": "government",
                "amenity": "school"
            }
        },
        {
            "id": 86007,
            "type": "Feature",
            "geometry": {
                "type": "Point",
                "coordinates": [
                    16.95558,
                    52.411590000000004
                ]
            },
            "properties": {
                "ref:rspo": 86007,
                "official_name": "Specjalny O\u015brodek Szkolno-Wychowawczy dla Dzieci Nies\u0142ysz\u0105cych im. J\u00f3zefa Sikorskiego",
                "name": "Specjalny O\u015brodek Szkolno-Wychowawczy dla Dzieci Nies\u0142ysz\u0105cych",
                "addr:postcode": "61-127",
                "addr:city": "Pozna\u0144",
                "addr:street": "Bydgoska",
                "addr:housenumber": "4a",
                "addr:teryt:simc": 969770,
                "addr:teryt:sym_ul": 2498,
                "phone": "+48 618775719",
                "email": "sekretariat@oswpoznan.pl",
                "ref:regon": "000248527",
                "ref:vatin": "PL7821428033",
                "operator": "Wojew\u00f3dztwo Wielkopolskie",
                "operator:type": "government",
                "amenity": "school",
                "note": "Children RSPO: 79066;79162;79353;86024;91434;115532;272132"
            }
        },
        {
            "id": 132072,
            "type": "Feature",
            "geometry": {
                "type": "Point",
                "coordinates": [
                    16.95558,
                    52.41156
                ]
            },
            "properties": {
                "ref:rspo": 132072,
                "official_name": "Niepubliczna Plac\u00f3wka Kszta\u0142cenia Ustawicznego \"Trofeos\"",
                "name": "Niepubliczna Plac\u00f3wka Kszta\u0142cenia Ustawicznego \"Trofeos\"",
                "addr:postcode": "61-127",
                "addr:city": "Pozna\u0144",
                "addr:street": "Bydgoska",
                "addr:housenumber": "4a",
                "addr:teryt:simc": 969770,
                "addr:teryt:sym_ul": 2498,
                "phone": "+48 781109094",
                "ref:regon": "365446196",
                "operator": "Joanna Ulewak - Stachowiak",
                "operator:type": "private",
                "fixme": "w zale\u017cno\u015bci od przedmiotu dzia\u0142alno\u015bci (np. amenity=training + training=*, amenity=dancing_school, amenity=language_school, amenity=music_school)"
            }
        },
        {
            "id": 79066,
            "type": "Feature",
            "geometry": {
                "type": "Point",
                "coordinates": [
                    16.95558,
                    52.41153
                ]
            },
            "properties": {
                "isced:level": "3",
                "ref:rspo": 79066,
                "official_name": "Iii Liceum Og\u00f3lnokszta\u0142c\u0105ce Specjalne",
                "name": "Iii Liceum Og\u00f3lnokszta\u0142c\u0105ce Specjalne",
                "addr:postcode": "61-127",
                "addr:city": "Pozna\u0144",
                "addr:street": "Bydgoska",
                "addr:housenumber": "4a",
                "addr:teryt:simc": 969770,
                "addr:teryt:sym_ul": 2498,
                "phone": "+48 618775735",
                "email": "sekretariat@oswpoznan.pl",
                "ref:regon": "300030782",
                "ref:vatin": "PL7821428033",
                "operator": "Wojew\u00f3dztwo Wielkopolskie",
                "operator:type": "government",
                "amenity": "school",
                "note": "Parent RSPO: 86007"
            }
        },
        {
            "id": 79162,
            "type": "Feature",
            "geometry": {
                "type": "Point",
                "coordinates": [
                    16.95558,
                    52.411500000000004
                ]
            },
            "properties": {
                "isced:level": "3",
                "ref:rspo": 79162,
                "official_name": "Bran\u017cowa Szko\u0142a Specjalna I Stopnia Nr 3",
                "name": "Bran\u017cowa Szko\u0142a Specjalna I Stopnia Nr 3",
                "addr:postcode": "61-127",
                "addr:city": "Pozna\u0144",
                "addr:street": "Bydgoska",
                "addr:housenumber": "4a",
                "addr:teryt:simc": 969770,
                "addr:teryt:sym_ul": 2498,
                "phone": "+48 618775719",
                "email": "sekretariat@oswpoznan.pl",
                "ref:regon": "639840372",
                "ref:vatin": "PL7821428033",
                "operator": "Wojew\u00f3dztwo Wielkopolskie",
                "operator:type": "government",
                "amenity": "school",
                "note": "Parent RSPO: 86007"
            }
        },
        {
            "id": 79353,
            "type": "Feature",
            "geometry": {
                "type": "Point",
                "coordinates": [
                    16.95558,
                    52.41147
                ]
            },
            "properties": {
                "isced:level": "4",
                "ref:rspo": 79353,
                "official_name": "Szko\u0142a Policealna Specjalna Nr 2",
                "name": "Szko\u0142a Policealna Specjalna Nr 2",
                "addr:postcode": "61-127",
                "addr:city": "Pozna\u0144",
                "addr:street": "Bydgoska",
                "addr:housenumber": "4a",
                "addr:teryt:simc": 969770,
                "addr:teryt:sym_ul": 2498,
                "phone": "+48 618775735",
                "email": "sekretariat@oswpoznan.pl",
                "ref:regon": "300381932",
                "ref:vatin": "PL7821428033",
                "operator": "Wojew\u00f3dztwo Wielkopolskie",
                "operator:type": "government",
                "amenity": "college",
                "note": "Parent RSPO: 86007"
            }
        },
        {
            "id": 86024,
            "type": "Feature",
            "geometry": {
                "type": "Point",
                "coordinates": [
                    16.95558,
                    52.41144
                ]
            },
            "properties": {
                "isced:level": "1;2",
                "ref:rspo": 86024,
                "official_name": "Szko\u0142a Podstawowa Specjalna Nr 113",
                "name": "Szko\u0142a Podstawowa Specjalna Nr 113",
                "addr:postcode": "61-127",
                "addr:city": "Pozna\u0144",
                "addr:street": "Bydgoska",
                "addr:housenumber": "4a",
                "addr:teryt:simc": 969770,
                "addr:teryt:sym_ul": 2498,
                "phone": "+48 618775719",
                "email": "sekretariat@oswpoznan.pl",
                "ref:regon": "000942044",
                "ref:vatin": "PL7821428033",
                "operator": "Wojew\u00f3dztwo Wielkopolskie",
                "operator:type": "government",
                "amenity": "school",
                "note": "Parent RSPO: 86007"
            }
        },
        {
            "id": 91434,
            "type": "Feature",
            "geometry": {
                "type": "Point",
                "coordinates": [
                    16.95558,
                    52.411410000000004
                ]
            },
            "properties": {
                "isced:level": "3",
                "ref:rspo": 91434,
                "official_name": "Technikum Specjalne",
                "name": "Technikum Specjalne",
                "addr:postcode": "61-127",
                "addr:city": "Pozna\u0144",
                "addr:street": "Bydgoska",
                "addr:housenumber": "4a",
                "addr:teryt:simc": 969770,
                "addr:teryt:sym_ul": 2498,
                "phone": "+48 618775719",
                "email": "sekretariat@oswpoznan.pl",
                "ref:regon": "300030799",
                "ref:vatin": "PL7821428033",
                "operator": "Wojew\u00f3dztwo Wielkopolskie",
                "operator:type": "government",
                "amenity": "school",
                "note": "Parent RSPO: 86007"
            }
        },
        {
            "id": 115532,
            "type": "Feature",
            "geometry": {
                "type": "Point",
                "coordinates": [
                    16.95558,
                    52.41138
                ]
            },
            "properties": {
                "ref:rspo": 115532,
                "official_name": "Przedszkole Specjalne dla Dzieci Z Wadami S\u0142uchu I Mowy w Specjalnym O\u015brodku Szkolno-Wychowawczym dla Dzieci Nies\u0142ysz\u0105cych im. J\u00f3zefa Sikorskiego w Poznaniu, Ul. Bydgoska 4A",
                "name": "Przedszkole Specjalne dla Dzieci Z Wadami S\u0142uchu I Mowy w Specjalnym O\u015brodku Szkolno-Wychowawczym dla Dzieci Nies\u0142ysz\u0105cych",
                "addr:postcode": "61-127",
                "addr:city": "Pozna\u0144",
                "addr:street": "Bydgoska",
                "addr:housenumber": "4a",
                "addr:teryt:simc": 969770,
                "addr:teryt:sym_ul": 2498,
                "phone": "+48 618775719",
                "email": "sekretariat@oswpoznan.pl",
                "ref:regon": "302474738",
                "ref:vatin": "PL7821428033",
                "operator": "Wojew\u00f3dztwo Wielkopolskie",
                "operator:type": "government",
                "amenity": "kindergarten",
                "note": "Parent RSPO: 86007"
            }
        },
        {
            "id": 272132,
            "type": "Feature",
            "geometry": {
                "type": "Point",
                "coordinates": [
                    16.95558,
                    52.41135
                ]
            },
            "properties": {
                "ref:rspo": 272132,
                "official_name": "Szko\u0142a Specjalna Przysposabiaj\u0105ca Do Pracy Nr 7",
                "name": "Szko\u0142a Specjalna Przysposabiaj\u0105ca Do Pracy Nr 7",
                "addr:postcode": "61-127",
                "addr:city": "Pozna\u0144",
                "addr:street": "Bydgoska",
                "addr:housenumber": "4a",
                "addr:teryt:simc": 969770,
                "addr:teryt:sym_ul": 2498,
                "phone": "+48 618775719",
                "ref:regon": "383958982",
                "operator": "Wojew\u00f3dztwo Wielkopolskie",
                "operator:type": "government",
                "amenity": "school",
                "note": "Parent RSPO: 86007"
            }
        },
        {
            "id": 273874,
            "type": "Feature",
            "geometry": {
                "type": "Point",
                "coordinates": [
                    16.94007,
                    52.41184
                ]
            },
            "properties": {
                "ref:rspo": 273874,
                "official_name": "Le\u015bny Punkt Przedszkolny Zak\u0105tek",
                "name": "Le\u015bny Punkt Przedszkolny Zak\u0105tek",
                "addr:postcode": "61-049",
                "addr:city": "Pozna\u0144",
                "addr:street": "Wiankowa",
                "addr:housenumber": "10",
                "addr:teryt:simc": 969770,
                "addr:teryt:sym_ul": 23964,
                "email": "przedszkolegajowka@onet.pl",
                "website": "http:\/\/www.przedszkolegajowka.pl",
                "ref:regon": "384798546",
                "operator": "Katarzyna Rutkowska",
                "operator:type": "private",
                "amenity": "kindergarten"
            }
        },
        {
            "id": 82929,
            "type": "Feature",
            "geometry": {
                "type": "Point",
                "coordinates": [
                    16.97699,
                    52.41196
                ]
            },
            "properties": {
                "ref:rspo": 82929,
                "official_name": "O\u015brodek Szkoleniowo-Konsultingowy Bhp F.u.h. Miko",
                "name": "O\u015brodek Szkoleniowo-Konsultingowy Bhp F.u.h. Miko",
                "addr:postcode": "61-033",
                "addr:city": "Pozna\u0144",
                "addr:street": "Kra\u0144cowa",
                "addr:housenumber": "48",
                "addr:door": "119",
                "addr:teryt:simc": 969770,
                "addr:teryt:sym_ul": 9819,
                "phone": "+48 660524090",
                "ref:regon": "302266537",
                "operator": "Adanm Miko\u0142ajczak",
                "operator:type": "private",
                "fixme": "w zale\u017cno\u015bci od przedmiotu dzia\u0142alno\u015bci (np. amenity=training + training=*, amenity=dancing_school, amenity=language_school, amenity=music_school)"
            }
        },
        {
            "id": 77947,
            "type": "Feature",
            "geometry": {
                "type": "Point",
                "coordinates": [
                    16.98081,
                    52.41232
                ]
            },
            "properties": {
                "ref:rspo": 77947,
                "official_name": "Przedszkole Nr 45 Zielony Zak\u0105tek",
                "name": "Przedszkole Nr 45 Zielony Zak\u0105tek",
                "addr:postcode": "61-038",
                "addr:city": "Pozna\u0144",
                "addr:street": "Trzemesze\u0144ska",
                "addr:housenumber": "12",
                "addr:teryt:simc": 969770,
                "addr:teryt:sym_ul": 23092,
                "phone": "+48 618794526",
                "email": "p45@poznan.interklasa.pl",
                "website": "http:\/\/www.p45.pl",
                "ref:regon": "301625017",
                "ref:vatin": "PL7822518583",
                "operator": "Miasto Pozna\u0144",
                "operator:type": "government",
                "amenity": "kindergarten"
            }
        },
        {
            "id": 80748,
            "type": "Feature",
            "geometry": {
                "type": "Point",
                "coordinates": [
                    16.9871624,
                    52.4126549
                ]
            },
            "properties": {
                "isced:level": "1;2",
                "ref:rspo": 80748,
                "official_name": "Szko\u0142a Podstawowa Nr 46\nIm. Marii D\u0105browskiej",
                "name": "Szko\u0142a Podstawowa Nr 46\nIm. Marii D\u0105browskiej",
                "addr:postcode": "61-044",
                "addr:city": "Pozna\u0144",
                "addr:street": "Inowroc\u0142awska",
                "addr:housenumber": "19",
                "addr:teryt:simc": 969770,
                "addr:teryt:sym_ul": 6907,
                "phone": "+48 618709350",
                "email": "spnr46@sp46.pl",
                "website": "http:\/\/www.sp46.pl",
                "ref:regon": "000239971",
                "ref:vatin": "PL7821430946",
                "operator": "Miasto Pozna\u0144",
                "operator:type": "government",
                "amenity": "school"
            }
        },
        {
            "id": 48890,
            "type": "Feature",
            "geometry": {
                "type": "Point",
                "coordinates": [
                    16.96559,
                    52.41402
                ]
            },
            "properties": {
                "isced:level": "1;2",
                "ref:rspo": 48890,
                "official_name": "Prywatna Szko\u0142a Podstawowa Gaudium Et Studium",
                "name": "Prywatna Szko\u0142a Podstawowa Gaudium Et Studium",
                "addr:postcode": "61-118",
                "addr:city": "Pozna\u0144",
                "addr:street": "\u015bw. Micha\u0142a",
                "addr:housenumber": "50M",
                "addr:teryt:simc": 969770,
                "addr:teryt:sym_ul": 12697,
                "phone": "+48 616537269",
                "email": "sekretariat@szkolages.pl",
                "website": "http:\/\/www.szkolages.pl",
                "ref:regon": "302254400",
                "operator": "Marlena Gulewicz",
                "operator:type": "private",
                "amenity": "school"
            }
        },
        {
            "id": 271693,
            "type": "Feature",
            "geometry": {
                "type": "Point",
                "coordinates": [
                    16.96559,
                    52.41399
                ]
            },
            "properties": {
                "isced:level": "3",
                "ref:rspo": 271693,
                "official_name": "Private High School Gaudium Et Studium Liceum Og\u00f3lnokszta\u0142c\u0105ce",
                "name": "Private High School Gaudium Et Studium Liceum Og\u00f3lnokszta\u0142c\u0105ce",
                "addr:postcode": "61-118",
                "addr:city": "Pozna\u0144",
                "addr:street": "\u015bw. Micha\u0142a",
                "addr:housenumber": "50m",
                "addr:teryt:simc": 969770,
                "addr:teryt:sym_ul": 12697,
                "phone": "+48 616537269",
                "email": "sekretariat@szkolages.pl",
                "ref:regon": "383548847",
                "operator": "Marlena Gulewicz",
                "operator:type": "private",
                "amenity": "school"
            }
        },
        {
            "id": 19352,
            "type": "Feature",
            "geometry": {
                "type": "Point",
                "coordinates": [
                    16.97711,
                    52.41453
                ]
            },
            "properties": {
                "ref:rspo": 19352,
                "official_name": "Seka S.a. Oddzia\u0142 Pozna\u0144",
                "name": "Seka S.a. Oddzia\u0142 Pozna\u0144",
                "addr:postcode": "61-021",
                "addr:city": "Pozna\u0144",
                "addr:street": "Nieszawska",
                "addr:housenumber": "1",
                "addr:teryt:simc": 969770,
                "addr:teryt:sym_ul": 14226,
                "phone": "+48 502411290",
                "ref:regon": "302224651",
                "operator": "\"Seka\" Sp\u00f3\u0142ka Akcyjna",
                "operator:type": "private",
                "fixme": "w zale\u017cno\u015bci od przedmiotu dzia\u0142alno\u015bci (np. amenity=training + training=*, amenity=dancing_school, amenity=language_school, amenity=music_school)"
            }
        },
        {
            "id": 82671,
            "type": "Feature",
            "geometry": {
                "type": "Point",
                "coordinates": [
                    16.98261,
                    52.4145899
                ]
            },
            "properties": {
                "ref:rspo": 82671,
                "official_name": "Zesp\u00f3\u0142 Szk\u00f3\u0142 Specjalnych Nr 105 im. Juliana Tuwima",
                "name": "Zesp\u00f3\u0142 Szk\u00f3\u0142 Specjalnych Nr 105",
                "addr:postcode": "61-021",
                "addr:city": "Pozna\u0144",
                "addr:street": "Nieszawska",
                "addr:housenumber": "21",
                "addr:teryt:simc": 969770,
                "addr:teryt:sym_ul": 14226,
                "phone": "+48 618772294",
                "email": "sekretariat@105.edu.pl",
                "website": "http:\/\/www.105.edu.pl",
                "ref:regon": "634223083",
                "ref:vatin": "PL7822215842",
                "operator": "Miasto Pozna\u0144",
                "operator:type": "government",
                "landuse": "education",
                "fixme": "amenity=school, amenity=college albo landuse=education w zale\u017cno\u015bci od tego, jakie plac\u00f3wki wchodz\u0105 w sk\u0142ad zespo\u0142u. Sprawd\u017a, kiedy stosowa\u0107 amenity=* a kiedy landuse=education.",
                "note": "Children RSPO: 73756;73772"
            }
        },
        {
            "id": 73756,
            "type": "Feature",
            "geometry": {
                "type": "Point",
                "coordinates": [
                    16.98261,
                    52.4145599
                ]
            },
            "properties": {
                "isced:level": "1;2",
                "ref:rspo": 73756,
                "official_name": "Szko\u0142a Podstawowa Specjalna Nr 105 im. Juliana Tuwima",
                "name": "Szko\u0142a Podstawowa Specjalna Nr 105",
                "addr:postcode": "61-021",
                "addr:city": "Pozna\u0144",
                "addr:street": "Nieszawska",
                "addr:housenumber": "21",
                "addr:teryt:simc": 969770,
                "addr:teryt:sym_ul": 14226,
                "phone": "+48 618772294",
                "email": "sekretariat@105.edu.pl",
                "website": "http:\/\/www.105.edu.pl",
                "ref:regon": "000246267",
                "ref:vatin": "PL7821476227",
                "operator": "Miasto Pozna\u0144",
                "operator:type": "government",
                "amenity": "school",
                "note": "Parent RSPO: 82671"
            }
        },
        {
            "id": 73772,
            "type": "Feature",
            "geometry": {
                "type": "Point",
                "coordinates": [
                    16.98261,
                    52.414529900000005
                ]
            },
            "properties": {
                "ref:rspo": 73772,
                "official_name": "Szko\u0142a Specjalna Przysposabiaj\u0105ca Do Pracy Nr 3",
                "name": "Szko\u0142a Specjalna Przysposabiaj\u0105ca Do Pracy Nr 3",
                "addr:postcode": "61-021",
                "addr:city": "Pozna\u0144",
                "addr:street": "Nieszawska",
                "addr:housenumber": "21",
                "addr:teryt:simc": 969770,
                "addr:teryt:sym_ul": 14226,
                "phone": "+48 618772294",
                "email": "sekretariat@105.edu.pl",
                "website": "http:\/\/www.105.edu.pl",
                "ref:regon": "634609977",
                "operator": "Miasto Pozna\u0144",
                "operator:type": "government",
                "amenity": "school",
                "note": "Parent RSPO: 82671"
            }
        },
        {
            "id": 22858,
            "type": "Feature",
            "geometry": {
                "type": "Point",
                "coordinates": [
                    16.98115,
                    52.4154
                ]
            },
            "properties": {
                "ref:rspo": 22858,
                "official_name": "O\u015brodek Szkolenia Kadr",
                "name": "O\u015brodek Szkolenia Kadr",
                "addr:postcode": "61-022",
                "addr:city": "Pozna\u0144",
                "addr:street": "Nieszawska",
                "addr:housenumber": "19",
                "addr:teryt:simc": 969770,
                "addr:teryt:sym_ul": 14226,
                "phone": "+48 618771082",
                "ref:regon": "302230918",
                "operator": "Roman Tauber",
                "operator:type": "private",
                "fixme": "w zale\u017cno\u015bci od przedmiotu dzia\u0142alno\u015bci (np. amenity=training + training=*, amenity=dancing_school, amenity=language_school, amenity=music_school)"
            }
        },
        {
            "id": 278494,
            "type": "Feature",
            "geometry": {
                "type": "Point",
                "coordinates": [
                    16.98115,
                    52.415369999999996
                ]
            },
            "properties": {
                "isced:level": "3",
                "ref:rspo": 278494,
                "official_name": "Liceum Og\u00f3lnokszta\u0142c\u0105ce dla Doros\u0142ych Pascal w Poznaniu",
                "name": "Liceum Og\u00f3lnokszta\u0142c\u0105ce dla Doros\u0142ych Pascal w Poznaniu",
                "addr:postcode": "61-022",
                "addr:city": "Pozna\u0144",
                "addr:street": "Nieszawska",
                "addr:housenumber": "19",
                "addr:teryt:simc": 969770,
                "addr:teryt:sym_ul": 14226,
                "phone": "+48 223784630",
                "email": "a.lampka@pascal.edu.pl",
                "ref:regon": "389925506",
                "operator": "Federacja Niepublicznych Plac\u00f3wek O\u015bwiatowych Sp\u00f3\u0142ka Z Ograniczon\u0105 Odpowiedzialno\u015bci\u0105",
                "operator:type": "private",
                "amenity": "school"
            }
        },
        {
            "id": 278496,
            "type": "Feature",
            "geometry": {
                "type": "Point",
                "coordinates": [
                    16.98115,
                    52.41534
                ]
            },
            "properties": {
                "isced:level": "4",
                "ref:rspo": 278496,
                "official_name": "Szko\u0142a Policealna Pascal w Poznaniu",
                "name": "Szko\u0142a Policealna Pascal w Poznaniu",
                "addr:postcode": "61-022",
                "addr:city": "Pozna\u0144",
                "addr:street": "Nieszawska",
                "addr:housenumber": "19",
                "addr:teryt:simc": 969770,
                "addr:teryt:sym_ul": 14226,
                "phone": "+48 223784630",
                "email": "a.lampka@pascal.edu.pl",
                "ref:regon": "389925512",
                "operator": "Federacja Niepublicznych Plac\u00f3wek O\u015bwiatowych Sp\u00f3\u0142ka Z Ograniczon\u0105 Odpowiedzialno\u015bci\u0105",
                "operator:type": "private",
                "amenity": "college"
            }
        },
        {
            "id": 70605,
            "type": "Feature",
            "geometry": {
                "type": "Point",
                "coordinates": [
                    16.96191,
                    52.41794
                ]
            },
            "properties": {
                "ref:rspo": 70605,
                "official_name": "Przedszkole Nr 82",
                "name": "Przedszkole Nr 82",
                "addr:postcode": "61-002",
                "addr:city": "Pozna\u0144",
                "addr:street": "Zawady",
                "addr:housenumber": "26",
                "addr:teryt:simc": 969770,
                "addr:teryt:sym_ul": 25813,
                "phone": "+48 618775312",
                "email": "p82@poznan.interklasa.pl",
                "website": "http:\/\/przedszkole82.pl",
                "ref:regon": "301625566",
                "ref:vatin": "PL7822518614",
                "operator": "Miasto Pozna\u0144",
                "operator:type": "government",
                "amenity": "kindergarten"
            }
        },
        {
            "id": 24793,
            "type": "Feature",
            "geometry": {
                "type": "Point",
                "coordinates": [
                    16.96276,
                    52.41868
                ]
            },
            "properties": {
                "ref:rspo": 24793,
                "official_name": "Centrum Kszta\u0142cenia Bieg\u0142ych Rewident\u00f3w",
                "name": "Centrum Kszta\u0142cenia Bieg\u0142ych Rewident\u00f3w",
                "addr:postcode": "61-005",
                "addr:city": "Pozna\u0144",
                "addr:street": "G\u0142\u00f3wna",
                "addr:housenumber": "6",
                "addr:teryt:simc": 969770,
                "addr:teryt:sym_ul": 5635,
                "phone": "+48 616544102",
                "ref:regon": "302234595",
                "operator": "\"Morison Finansista Audit\" Sp\u00f3\u0142ka Z Ograniczon\u0105 Odpowiedzialno\u015bci\u0105",
                "operator:type": "private",
                "fixme": "w zale\u017cno\u015bci od przedmiotu dzia\u0142alno\u015bci (np. amenity=training + training=*, amenity=dancing_school, amenity=language_school, amenity=music_school)"
            }
        },
        {
            "id": 44119,
            "type": "Feature",
            "geometry": {
                "type": "Point",
                "coordinates": [
                    16.97167,
                    52.42051
                ]
            },
            "properties": {
                "isced:level": "1;2",
                "ref:rspo": 44119,
                "official_name": "Szko\u0142a Podstawowa Nr 45 im. Okr\u0119tu Rzeczypospolitej Polskiej Pozna\u0144",
                "name": "Szko\u0142a Podstawowa Nr 45",
                "addr:postcode": "61-011",
                "addr:city": "Pozna\u0144",
                "addr:street": "Harcerska",
                "addr:housenumber": "3",
                "addr:teryt:simc": 969770,
                "addr:teryt:sym_ul": 6523,
                "phone": "+48 618780641",
                "email": "sp45@poznan.interklasa.pl",
                "website": "http:\/\/www.szp45.pl",
                "ref:regon": "000238782",
                "ref:vatin": "PL7821415289",
                "operator": "Miasto Pozna\u0144",
                "operator:type": "government",
                "amenity": "school"
            }
        },
        {
            "id": 273468,
            "type": "Feature",
            "geometry": {
                "type": "Point",
                "coordinates": [
                    16.97099,
                    52.42115
                ]
            },
            "properties": {
                "ref:rspo": 273468,
                "official_name": "Przedszkole Ma\u0142a Biedronka Nr 195 w Poznaniu",
                "name": "Przedszkole Ma\u0142a Biedronka Nr 195 w Poznaniu",
                "addr:postcode": "61-011",
                "addr:city": "Pozna\u0144",
                "addr:street": "G\u0142\u00f3wna",
                "addr:housenumber": "42",
                "addr:teryt:simc": 969770,
                "addr:teryt:sym_ul": 5635,
                "phone": "+48 533335870",
                "email": "j.bock@operator.edu.pl",
                "website": "http:\/\/www.operator.edu.pl",
                "ref:regon": "384485669",
                "operator": "Og\u00f3lnopolski Operator O\u015bwiaty",
                "operator:type": "ngo",
                "amenity": "kindergarten"
            }
        },
        {
            "id": 121373,
            "type": "Feature",
            "geometry": {
                "type": "Point",
                "coordinates": [
                    16.9703,
                    52.42293
                ]
            },
            "properties": {
                "ref:rspo": 121373,
                "official_name": "Specjalny O\u015brodek Wychowawczy im. \u015aw. Ludwiki",
                "name": "Specjalny O\u015brodek Wychowawczy",
                "addr:postcode": "61-012",
                "addr:city": "Pozna\u0144",
                "addr:street": "Mariacka",
                "addr:housenumber": "24\/28",
                "addr:teryt:simc": 969770,
                "addr:teryt:sym_ul": 12327,
                "phone": "+48 618780224",
                "email": "mariacka@autograf.pl",
                "website": "http:\/\/www.sow-mariacka-poznan.pl",
                "ref:regon": "302618278",
                "operator": "Zgromadzenie Si\u00f3str Mi\u0142osierdzia \u015aw. Wincentego A Paulo Prowincja Che\u0142mi\u0144sko-Pozna\u0144ska",
                "operator:type": "religious",
                "amenity": "social_facility",
                "social_facility": "group_home",
                "social_facility:for": "child;juvenile"
            }
        },
        {
            "id": 124268,
            "type": "Feature",
            "geometry": {
                "type": "Point",
                "coordinates": [
                    16.9703,
                    52.4229
                ]
            },
            "properties": {
                "isced:level": "1;2",
                "ref:rspo": 124268,
                "official_name": "Szko\u0142a Podstawowa im. Ma\u0142gorzaty Naseau",
                "name": "Szko\u0142a Podstawowa",
                "addr:postcode": "61-012",
                "addr:city": "Pozna\u0144",
                "addr:street": "Mariacka",
                "addr:housenumber": "24\/28",
                "addr:teryt:simc": 969770,
                "addr:teryt:sym_ul": 12327,
                "phone": "+48 618780224",
                "email": "mariacka@autograf.pl",
                "ref:regon": "302805307",
                "operator": "Zgromadzenie Si\u00f3str Mi\u0142osierdzia \u015aw. Wincentego A Paulo Prowincja Che\u0142mi\u0144sko-Pozna\u0144ska",
                "operator:type": "religious",
                "amenity": "school"
            }
        },
        {
            "id": 70588,
            "type": "Feature",
            "geometry": {
                "type": "Point",
                "coordinates": [
                    16.97312,
                    52.4231
                ]
            },
            "properties": {
                "ref:rspo": 70588,
                "official_name": "Przedszkole Nr 78",
                "name": "Przedszkole Nr 78",
                "addr:postcode": "61-012",
                "addr:city": "Pozna\u0144",
                "addr:street": "Nadolnik",
                "addr:housenumber": "9A",
                "addr:teryt:simc": 969770,
                "addr:teryt:sym_ul": 13898,
                "phone": "+48 618780326",
                "email": "p78@poznan.interklasa.pl",
                "ref:regon": "301632282",
                "ref:vatin": "PL7822518956",
                "operator": "Miasto Pozna\u0144",
                "operator:type": "government",
                "amenity": "kindergarten"
            }
        },
        {
            "id": 64650,
            "type": "Feature",
            "geometry": {
                "type": "Point",
                "coordinates": [
                    16.98937,
                    52.42429
                ]
            },
            "properties": {
                "ref:rspo": 64650,
                "official_name": "Przedszkole Nivea",
                "name": "Przedszkole Nivea",
                "addr:postcode": "61-021",
                "addr:city": "Pozna\u0144",
                "addr:street": "Gnie\u017anie\u0144ska",
                "addr:housenumber": "32",
                "addr:teryt:simc": 969770,
                "addr:teryt:sym_ul": 5670,
                "phone": "+48 618780234",
                "email": "sekretariat@eduges.pl",
                "ref:regon": "302257892",
                "operator": "Marlena Gulewicz",
                "operator:type": "private",
                "amenity": "kindergarten"
            }
        },
        {
            "id": 68177,
            "type": "Feature",
            "geometry": {
                "type": "Point",
                "coordinates": [
                    16.93346,
                    52.45003
                ]
            },
            "properties": {
                "ref:rspo": 68177,
                "official_name": "Przedszkole Nr 161 Ksi\u0119cia Przemys\u0142awa",
                "name": "Przedszkole Nr 161 Ksi\u0119cia Przemys\u0142awa",
                "addr:postcode": "61-245",
                "addr:city": "Pozna\u0144",
                "addr:street": "Osiedle Rusa",
                "addr:housenumber": "7",
                "addr:teryt:simc": 969770,
                "addr:teryt:sym_ul": 19108,
                "phone": "+48 618779461",
                "email": "p161@poznan.interklasa.pl",
                "ref:regon": "301624012",
                "ref:vatin": "PL7822518560",
                "operator": "Miasto Pozna\u0144",
                "operator:type": "government",
                "amenity": "kindergarten"
            }
        }
    ]
}