{"type":"FeatureCollection","features":[{"id":23360,"type":"Feature","geometry":{"type":"Point","coordinates":[16.87743,52.36778]},"properties":{"ref:rspo":23360,"official_name":"Centrum Sztuk Wizualnych w Poznaniu","name":"Centrum Sztuk Wizualnych w Poznaniu","addr:country":"PL","addr:postcode":"60-765","addr:city":"Pozna\u0144","addr:street":"ul. Ryszarda Berwi\u0144skiego","addr:housenumber":"2","addr:door":"4","addr:teryt:simc":1098,"addr:teryt:sym_ul":969416,"contact:phone":"+48 618128528","ref:regon":"302231817","operator":"Instytut Post\u0119powania Tw\u00f3rczego Sp\u00f3\u0142ka Z Ograniczon\u0105 Odpowiedzialno\u015bci\u0105","operator:type":"private","fixme":"w zale\u017cno\u015bci od przedmiotu dzia\u0142alno\u015bci (np. amenity=training + training=*, amenity=dancing_school, amenity=language_school, amenity=music_school)"}},{"id":30090,"type":"Feature","geometry":{"type":"Point","coordinates":[16.87743,52.36775]},"properties":{"ref:rspo":30090,"official_name":"Niepubliczne Przedszkole Integracyjno-Terapeutyczne \"Mi\u015b\"","name":"Niepubliczne Przedszkole Integracyjno-Terapeutyczne \"Mi\u015b\"","addr:country":"PL","addr:postcode":"60-765","addr:city":"Pozna\u0144","addr:street":"ul. Ryszarda Berwi\u0144skiego","addr:housenumber":"2","addr:teryt:simc":1098,"addr:teryt:sym_ul":969416,"contact:phone":"+48 502701527","contact:email":"kontakt@misprzedszkole.pl","ref:regon":"302240348","operator":"Wy\u017csza Szko\u0142a Uni-Terra","operator:type":"private","amenity":"kindergarten"}},{"id":77909,"type":"Feature","geometry":{"type":"Point","coordinates":[16.87743,52.367720000000006]},"properties":{"ref:rspo":77909,"official_name":"Zesp\u00f3\u0142 Szk\u00f3\u0142 I Plac\u00f3wek O\u015bwiatowych","name":"Zesp\u00f3\u0142 Szk\u00f3\u0142 I Plac\u00f3wek O\u015bwiatowych","addr:country":"PL","addr:postcode":"60-765","addr:city":"Pozna\u0144","addr:street":"ul. Ryszarda Berwi\u0144skiego","addr:housenumber":"2","addr:door":"4","addr:teryt:simc":1098,"addr:teryt:sym_ul":969416,"contact:phone":"+48 618663579","contact:email":"zsipo.sekretariat@interia.pl","contact:website":"http:\/\/www.zsipopoznan.pl","ref:regon":"300879000","ref:vatin":"PL7792340240","operator":"Miasto Pozna\u0144","operator:type":"government","landuse":"education","fixme":"amenity=school, amenity=college albo landuse=education w zale\u017cno\u015bci od tego, jakie plac\u00f3wki wchodz\u0105 w sk\u0142ad zespo\u0142u. Sprawd\u017a, kiedy stosowa\u0107 amenity=* a kiedy landuse=education.","note":"Children RSPO: 85236;85356"}},{"id":85356,"type":"Feature","geometry":{"type":"Point","coordinates":[16.87743,52.36769]},"properties":{"isced:level":"1;2","ref:rspo":85356,"official_name":"Szko\u0142a Podstawowa Nr 26","name":"Szko\u0142a Podstawowa Nr 26","addr:country":"PL","addr:postcode":"60-765","addr:city":"Pozna\u0144","addr:street":"ul. Ryszarda Berwi\u0144skiego","addr:housenumber":"2","addr:door":"4","addr:teryt:simc":1098,"addr:teryt:sym_ul":969416,"contact:phone":"+48 618663579","contact:email":"zsipo.sekretariat@interia.pl","contact:website":"http:\/\/zsipopoznan.pl","ref:regon":"000241011","ref:vatin":"PL7792340240","operator":"Miasto Pozna\u0144","operator:type":"government","amenity":"school","note":"Parent RSPO: 77909"}},{"id":83080,"type":"Feature","geometry":{"type":"Point","coordinates":[16.84724,52.3686]},"properties":{"isced:level":"1;2","ref:rspo":83080,"official_name":"Publiczna Szko\u0142a Podstawowa Nr 52 w Poznaniu","name":"Publiczna Szko\u0142a Podstawowa Nr 52 w Poznaniu","addr:country":"PL","addr:postcode":"60-005","addr:city":"Pozna\u0144","addr:street":"ul. Fabianowo","addr:housenumber":"29","addr:teryt:simc":4857,"addr:teryt:sym_ul":969416,"contact:phone":"+48 618666348","contact:email":"spspecto.poznan@operator.edu.pl","contact:website":"https:\/\/specto-poznan.operator.edu.pl\/","ref:regon":"302270970","operator":"Og\u00f3lnopolski Operator O\u015bwiaty","operator:type":"ngo","amenity":"school"}},{"id":87706,"type":"Feature","geometry":{"type":"Point","coordinates":[16.84724,52.36857]},"properties":{"ref:rspo":87706,"official_name":"Publiczne Przedszkole Weso\u0142a Pszcz\u00f3\u0142ka w Poznaniu","name":"Publiczne Przedszkole Weso\u0142a Pszcz\u00f3\u0142ka w Poznaniu","addr:country":"PL","addr:postcode":"60-005","addr:city":"Pozna\u0144","addr:street":"ul. Fabianowo","addr:housenumber":"29","addr:teryt:simc":4857,"addr:teryt:sym_ul":969416,"contact:phone":"+48 533330968","contact:email":"pszczolka@operator.edu.pl","contact:website":"https:\/\/wesolapszczolka-poznan.operator.edu.pl\/","ref:regon":"302272963","operator":"Og\u00f3lnopolski Operator O\u015bwiaty","operator:type":"ngo","amenity":"kindergarten"}},{"id":77937,"type":"Feature","geometry":{"type":"Point","coordinates":[16.87383,52.37043]},"properties":{"ref:rspo":77937,"official_name":"Przedszkole Nr 7","name":"Przedszkole Nr 7","addr:country":"PL","addr:postcode":"60-102","addr:city":"Pozna\u0144","addr:street":"ul. Miko\u0142owska","addr:housenumber":"14","addr:teryt:simc":12898,"addr:teryt:sym_ul":969416,"contact:phone":"+48 789193499","contact:email":"p7@poznan.interklasa.pl","contact:website":"http:\/\/przedszkole7poznan.szkolnastrona.pl","ref:regon":"301621019","ref:vatin":"PL7792385828","operator":"Miasto Pozna\u0144","operator:type":"government","amenity":"kindergarten"}},{"id":132383,"type":"Feature","geometry":{"type":"Point","coordinates":[16.87039,52.37175]},"properties":{"ref:rspo":132383,"official_name":"Przedszkole \u015awi\u0119tej Rodziny","name":"Przedszkole \u015awi\u0119tej Rodziny","addr:country":"PL","addr:postcode":"60-102","addr:city":"Pozna\u0144","addr:street":"ul. Wronczy\u0144ska","addr:housenumber":"28","addr:teryt:simc":24810,"addr:teryt:sym_ul":969416,"contact:phone":"+48 603755301","contact:email":"przedszkole@swrodzina.com","ref:regon":"365581400","operator":"Edukacja I Wychowanie Sp\u00f3\u0142ka Z Ograniczon\u0105 Odpowiedzialno\u015bci\u0105","operator:type":"private","amenity":"kindergarten"}},{"id":31466,"type":"Feature","geometry":{"type":"Point","coordinates":[16.872062,52.3743089]},"properties":{"isced:level":"1;2","ref:rspo":31466,"official_name":"Szko\u0142a Podstawowa Nr 4 im.armii Pozna\u0144 w Poznaniu","name":"Szko\u0142a Podstawowa Nr 4 im.armii Pozna\u0144 w Poznaniu","addr:country":"PL","addr:postcode":"60-113","addr:city":"Pozna\u0144","addr:street":"ul. Rawicka","addr:housenumber":"12","addr:door":"14","addr:teryt:simc":18495,"addr:teryt:sym_ul":969416,"contact:phone":"+48 618308620","contact:email":"sp4@poznan.interklasa.pl","contact:website":"http:\/\/www.sp4.poznan.pl","ref:regon":"000227850","ref:vatin":"PL7791487722","operator":"Miasto Pozna\u0144","operator:type":"government","amenity":"school"}},{"id":20959,"type":"Feature","geometry":{"type":"Point","coordinates":[16.85946,52.37435]},"properties":{"ref:rspo":20959,"official_name":"Centrum Kszta\u0142cenia Ustawicznego \"Tarcza 96\"","name":"Centrum Kszta\u0142cenia Ustawicznego \"Tarcza 96\"","addr:country":"PL","addr:postcode":"60-001","addr:city":"Pozna\u0144","addr:street":"ul. Ceglana","addr:housenumber":"4","addr:teryt:simc":2587,"addr:teryt:sym_ul":969416,"contact:phone":"+48 601221792","ref:regon":"302227773","operator":"Wielkopolskie Towarzystwo Sportowe \"Tarcza 96\"","operator:type":"ngo","fixme":"w zale\u017cno\u015bci od przedmiotu dzia\u0142alno\u015bci (np. amenity=training + training=*, amenity=dancing_school, amenity=language_school, amenity=music_school)"}},{"id":274348,"type":"Feature","geometry":{"type":"Point","coordinates":[16.87838,52.37696]},"properties":{"ref:rspo":274348,"official_name":"Bea Beleza Academy","name":"Bea Beleza Academy","addr:country":"PL","addr:postcode":"60-112","addr:city":"Pozna\u0144","addr:street":"ul. Ko\u015bcia\u0144ska","addr:housenumber":"23","addr:teryt:simc":9539,"addr:teryt:sym_ul":969416,"contact:email":"piotr.filas@beabeleza.pl","ref:regon":"385599040","operator":"Bea Beleza Academy Sp\u00f3\u0142ka Z Ograniczon\u0105 Odpowiedzialno\u015bci\u0105","operator:type":"private","fixme":"w zale\u017cno\u015bci od przedmiotu dzia\u0142alno\u015bci (np. amenity=training + training=*, amenity=dancing_school, amenity=language_school, amenity=music_school)"}},{"id":119503,"type":"Feature","geometry":{"type":"Point","coordinates":[16.87859,52.37865]},"properties":{"ref:rspo":119503,"official_name":"Przedszkole Niepubliczne Chatka Kajtka","name":"Przedszkole Niepubliczne Chatka Kajtka","addr:country":"PL","addr:postcode":"60-111","addr:city":"Pozna\u0144","addr:street":"ul. St\u0119szewska","addr:housenumber":"6","addr:teryt:simc":21176,"addr:teryt:sym_ul":969416,"contact:phone":"+48 509444960","contact:email":"chatkakajtka@wp.eu","ref:regon":"302518571","operator":"Chatka Kajtka Sp\u00f3\u0142ka Z Ograniczon\u0105 Odpowiedzialno\u015bci\u0105","operator:type":"private","amenity":"kindergarten"}},{"id":87642,"type":"Feature","geometry":{"type":"Point","coordinates":[16.82637,52.37923]},"properties":{"ref:rspo":87642,"official_name":"Prywatne Przedszkole \"Nostri Bimbi\"","name":"Prywatne Przedszkole \"Nostri Bimbi\"","addr:country":"PL","addr:postcode":"60-175","addr:city":"Pozna\u0144","addr:street":"ul. Piwoniowa","addr:housenumber":"5","addr:teryt:simc":16381,"addr:teryt:sym_ul":969416,"contact:phone":"+48 784315892","contact:email":"biuro@nostribimbi.pl","contact:website":"http:\/\/www.nostribimbi.pl\/","ref:regon":"302272986","operator":"Ma\u0142gorzata Kapela","operator:type":"private","amenity":"kindergarten"}},{"id":109986,"type":"Feature","geometry":{"type":"Point","coordinates":[16.8527999,52.38013]},"properties":{"isced:level":"4","ref:rspo":109986,"official_name":"Prywatne Policealne Studium Sztuki Wokalnej w Poznaniu","name":"Prywatne Policealne Studium Sztuki Wokalnej w Poznaniu","addr:country":"PL","addr:postcode":"60-164","addr:city":"Pozna\u0144","addr:street":"ul. Wschowska","addr:housenumber":"14","addr:teryt:simc":24880,"addr:teryt:sym_ul":969416,"contact:email":"b_tritt@wp.pl","contact:website":"http:\/\/vocalart.pl","ref:regon":"302355710","operator":"Jadwiga Ga\u0142\u0119ska-Tritt","operator:type":"private","amenity":"college"}},{"id":129105,"type":"Feature","geometry":{"type":"Point","coordinates":[16.8527999,52.3801]},"properties":{"ref:rspo":129105,"official_name":"Centrum Kszta\u0142cenia Ustawicznego I Praktycznego Vocalart","name":"Centrum Kszta\u0142cenia Ustawicznego I Praktycznego Vocalart","addr:country":"PL","addr:postcode":"60-164","addr:city":"Pozna\u0144","addr:street":"ul. Wschowska","addr:housenumber":"14","addr:teryt:simc":24880,"addr:teryt:sym_ul":969416,"contact:phone":"+48 601553247","ref:regon":"362472773","operator":"Jadwiga Ga\u0142\u0119ska-Tritt","operator:type":"private","fixme":"w zale\u017cno\u015bci od przedmiotu dzia\u0142alno\u015bci (np. amenity=training + training=*, amenity=dancing_school, amenity=language_school, amenity=music_school)"}},{"id":115577,"type":"Feature","geometry":{"type":"Point","coordinates":[16.86443,52.38085]},"properties":{"ref:rspo":115577,"official_name":"Atc S.c. Wojciech Kaczmarek, Irena Kaczmarek, Daniel Kaczmarek","name":"Atc S.c. Wojciech Kaczmarek, Irena Kaczmarek, Daniel Kaczmarek","addr:country":"PL","addr:postcode":"60-161","addr:city":"Pozna\u0144","addr:street":"ul. Mr\u0105gowska","addr:housenumber":"11","addr:teryt:simc":13418,"addr:teryt:sym_ul":969416,"contact:phone":"+48 186658833","ref:regon":"302476683","operator":"Wojciechirenadaniel Kaczmarek","operator:type":"private","fixme":"w zale\u017cno\u015bci od przedmiotu dzia\u0142alno\u015bci (np. amenity=training + training=*, amenity=dancing_school, amenity=language_school, amenity=music_school)"}},{"id":31601,"type":"Feature","geometry":{"type":"Point","coordinates":[16.85027,52.38134]},"properties":{"isced:level":"3","ref:rspo":31601,"official_name":"Pa\u0144stwowe Liceum Sztuk Plastycznych im. Piotra Potworowskiego w Poznaniu","name":"Pa\u0144stwowe Liceum Sztuk Plastycznych","addr:country":"PL","addr:postcode":"60-163","addr:city":"Pozna\u0144","addr:street":"ul. Junikowska","addr:housenumber":"35","addr:teryt:simc":7663,"addr:teryt:sym_ul":969416,"contact:phone":"+48 618684868","contact:email":"sekretariat@lp.poznan.pl","contact:website":"http:\/\/lp.poznan.pl","ref:regon":"000277256","operator":"Ministerstwo Kultury I Dziedzictwa Narodowego","operator:type":"public","amenity":"school"}},{"id":131533,"type":"Feature","geometry":{"type":"Point","coordinates":[16.82551,52.38173]},"properties":{"ref:rspo":131533,"official_name":"Niepubliczne Przedszkole Angloj\u0119zyczne Kraina Ba\u015bni","name":"Niepubliczne Przedszkole Angloj\u0119zyczne Kraina Ba\u015bni","addr:country":"PL","addr:postcode":"60-175","addr:city":"Pozna\u0144","addr:street":"ul. Kaliowa","addr:housenumber":"39","addr:teryt:simc":7821,"addr:teryt:sym_ul":969416,"contact:phone":"+48 601751311","contact:email":"tomasz.niemier@krainabasni.pl","ref:regon":"365217225","operator":"Hn Sp\u00f3\u0142ka Z Ograniczon\u0105 Odpowiedzialno\u015bcia","operator:type":"private","amenity":"kindergarten"}},{"id":77936,"type":"Feature","geometry":{"type":"Point","coordinates":[16.87641,52.38211]},"properties":{"ref:rspo":77936,"official_name":"Przedszkole Nr 67 im. Marii Konopnickiej","name":"Przedszkole Nr 67","addr:country":"PL","addr:postcode":"60-121","addr:city":"Pozna\u0144","addr:street":"ul. S\u0142owicza","addr:housenumber":"15","addr:teryt:simc":20298,"addr:teryt:sym_ul":969416,"contact:phone":"+48 618663954","contact:email":"olama26@wp.pl","contact:website":"http:\/\/www.p67.pl","ref:regon":"301625394","ref:vatin":"PL7792385863","operator":"Miasto Pozna\u0144","operator:type":"government","amenity":"kindergarten"}},{"id":82991,"type":"Feature","geometry":{"type":"Point","coordinates":[16.8222999,52.38311]},"properties":{"ref:rspo":82991,"official_name":"Domowe Przedszkole \"Chatka Puchatka\"","name":"Domowe Przedszkole \"Chatka Puchatka\"","addr:country":"PL","addr:postcode":"60-175","addr:city":"Pozna\u0144","addr:street":"ul. Gerberowa","addr:housenumber":"30","addr:teryt:simc":5460,"addr:teryt:sym_ul":969416,"contact:phone":"+48 502524772","contact:email":"elzbietamasko@wp.pl","ref:regon":"302270668","operator":"El\u017cbieta Ma\u015bko","operator:type":"private","amenity":"kindergarten"}},{"id":31892,"type":"Feature","geometry":{"type":"Point","coordinates":[16.82448,52.38317]},"properties":{"ref:rspo":31892,"official_name":"Niepubliczna Poradnia Psychologiczno-Pedagogiczna \"R\u00f3wne Szanse\"","name":"Niepubliczna Poradnia Psychologiczno-Pedagogiczna \"R\u00f3wne Szanse\"","addr:country":"PL","addr:postcode":"60-175","addr:city":"Pozna\u0144","addr:street":"ul. Frezjowa","addr:housenumber":"22","addr:teryt:simc":5184,"addr:teryt:sym_ul":969416,"contact:phone":"+48 509445939","contact:email":"jbunk@wp.pl","contact:website":"http:\/\/www.poradniarowneszanse.pl","ref:regon":"302246010","operator":"Jolanta Bunk","operator:type":"private","healthcare":"councelling","counselling_type":"education","fixme":"w zale\u017cno\u015bci od przedmiotu dzia\u0142alno\u015bci (np. healthcare=councelling + counselling_type=education albo healthcare=psychotherapist)"}},{"id":73119,"type":"Feature","geometry":{"type":"Point","coordinates":[16.82448,52.38314]},"properties":{"ref:rspo":73119,"official_name":"Szk\u00f3\u0142ka Ma\u0142ego Dziecka Niepubliczny Punkt Przedszkolny","name":"Szk\u00f3\u0142ka Ma\u0142ego Dziecka Niepubliczny Punkt Przedszkolny","addr:country":"PL","addr:postcode":"60-175","addr:city":"Pozna\u0144","addr:street":"ul. Frezjowa","addr:housenumber":"22","addr:teryt:simc":5184,"addr:teryt:sym_ul":969416,"contact:phone":"+48 509445939","contact:email":"jbunk@wp.pl","contact:website":"http:\/\/www.szkolkamalegodziecka.eu","ref:regon":"302259514","operator":"Fundacja R\u00f3wne Szanse","operator:type":"ngo","amenity":"kindergarten"}},{"id":77939,"type":"Feature","geometry":{"type":"Point","coordinates":[16.88907,52.38319]},"properties":{"ref:rspo":77939,"official_name":"Przedszkole Nr 8","name":"Przedszkole Nr 8","addr:country":"PL","addr:postcode":"60-125","addr:city":"Pozna\u0144","addr:street":"ul. Bosa","addr:housenumber":"16","addr:teryt:simc":1911,"addr:teryt:sym_ul":969416,"contact:phone":"+48 618661684","contact:email":"ple8@o2.pl","ref:regon":"301631354","operator":"Miasto Pozna\u0144","operator:type":"government","amenity":"kindergarten"}},{"id":124099,"type":"Feature","geometry":{"type":"Point","coordinates":[16.88944,52.38347]},"properties":{"ref:rspo":124099,"official_name":"O\u015brodek Rehabilitacyjno Edukacyjno Wychowawczy Emedea","name":"O\u015brodek Rehabilitacyjno Edukacyjno Wychowawczy Emedea","addr:country":"PL","addr:postcode":"60-129","addr:city":"Pozna\u0144","addr:street":"ul. Bosa","addr:housenumber":"15","addr:teryt:simc":1911,"addr:teryt:sym_ul":969416,"contact:phone":"+48 601053640","contact:email":"administracja@emedea.pl","ref:regon":"302798620","operator":"O\u015brodek Rehabilitacyjno Edukacyjno Wychowawczy Emedea Sp\u00f3\u0142ka Z Ograniczon\u0105 Odpowiedzialno\u015bci\u0105","operator:type":"private","amenity":"school"}},{"id":130493,"type":"Feature","geometry":{"type":"Point","coordinates":[16.88944,52.38344]},"properties":{"ref:rspo":130493,"official_name":"Niepubliczne Przedszkole Specjalistyczne Emedea-Intuicja","name":"Niepubliczne Przedszkole Specjalistyczne Emedea-Intuicja","addr:country":"PL","addr:postcode":"60-125","addr:city":"Pozna\u0144","addr:street":"ul. Bosa","addr:housenumber":"15","addr:teryt:simc":1911,"addr:teryt:sym_ul":969416,"contact:phone":"+48 601053640","contact:email":"intuicja@emedea.pl","ref:regon":"364087080","operator":"O\u015brodek Rehabilitacyjno Edukacyjno Wychowawczy Emedea Sp\u00f3\u0142ka Z Ograniczon\u0105 Odpowiedzialno\u015bci\u0105","operator:type":"private","amenity":"kindergarten"}},{"id":267686,"type":"Feature","geometry":{"type":"Point","coordinates":[16.88944,52.383410000000005]},"properties":{"ref:rspo":267686,"official_name":"Niepubliczna Poradnia Psychologiczno-Pedagogiczna \"Emedea\"","name":"Niepubliczna Poradnia Psychologiczno-Pedagogiczna \"Emedea\"","addr:country":"PL","addr:postcode":"60-480","addr:city":"Pozna\u0144","addr:street":"ul. Bosa","addr:housenumber":"15","addr:teryt:simc":1911,"addr:teryt:sym_ul":969416,"contact:phone":"+48 612220004","contact:email":"orewemedea@emedea.pl","ref:regon":"360000320","operator":"O\u015brodek Rehabilitacyjno Edukacyjno Wychowawczy Emedea Sp\u00f3\u0142ka Z Ograniczon\u0105 Odpowiedzialno\u015bci\u0105","operator:type":"private","healthcare":"councelling","counselling_type":"education","fixme":"w zale\u017cno\u015bci od przedmiotu dzia\u0142alno\u015bci (np. healthcare=councelling + counselling_type=education albo healthcare=psychotherapist)"}},{"id":263275,"type":"Feature","geometry":{"type":"Point","coordinates":[16.8916,52.38354]},"properties":{"ref:rspo":263275,"official_name":"Przedszkole Labokids","name":"Przedszkole Labokids","addr:country":"PL","addr:postcode":"60-126","addr:city":"Pozna\u0144","addr:street":"ul. Stanis\u0142awa Knapowskiego","addr:housenumber":"23","addr:teryt:simc":8657,"addr:teryt:sym_ul":969416,"contact:phone":"+48 503038500","contact:email":"info@labokids.pl","contact:website":"http:\/\/www.labokids.pl","ref:regon":"368182792","operator":"Ma\u0142gorzata Konarzewska","operator:type":"private","amenity":"kindergarten"}},{"id":77932,"type":"Feature","geometry":{"type":"Point","coordinates":[16.86419,52.38366]},"properties":{"ref:rspo":77932,"official_name":"Przedszkole Nr 1 \"Bajkowy Zamek\"","name":"Przedszkole Nr 1 \"Bajkowy Zamek\"","addr:country":"PL","addr:postcode":"60-161","addr:city":"Pozna\u0144","addr:street":"ul. Jawornicka","addr:housenumber":"17","addr:teryt:simc":7391,"addr:teryt:sym_ul":969416,"contact:phone":"+48 618670914","contact:email":"p1@poznan.interklasa.pl","contact:website":"http:\/\/www.p1poznan.szkolnastrona.pl","ref:regon":"301622272","ref:vatin":"PL7792386087","operator":"Miasto Pozna\u0144","operator:type":"government","amenity":"kindergarten"}},{"id":22367,"type":"Feature","geometry":{"type":"Point","coordinates":[16.84368,52.38373]},"properties":{"ref:rspo":22367,"official_name":"Centrum Edukacji Oddzia\u0142u Wielkopolskiego Stowarzyszenia Ksi\u0119gowych w Polsce","name":"Centrum Edukacji Oddzia\u0142u Wielkopolskiego Stowarzyszenia Ksi\u0119gowych w Polsce","addr:country":"PL","addr:postcode":"60-164","addr:city":"Pozna\u0144","addr:street":"ul. Zi\u0119bicka","addr:housenumber":"18","addr:teryt:simc":26141,"addr:teryt:sym_ul":969416,"contact:phone":"+48 618630480","contact:website":"http:\/\/www.skwp.poznan.pl","ref:regon":"302324192","operator":"Stowarzyszenie Ksi\u0119gowych W Polsce","operator:type":"ngo","fixme":"w zale\u017cno\u015bci od przedmiotu dzia\u0142alno\u015bci (np. amenity=training + training=*, amenity=dancing_school, amenity=language_school, amenity=music_school)"}},{"id":31230,"type":"Feature","geometry":{"type":"Point","coordinates":[16.8889,52.38392]},"properties":{"isced:level":"3","ref:rspo":31230,"official_name":"Liceum Og\u00f3lnokszta\u0142c\u0105ce dla Doros\u0142ych-Zaoczne Stowarzyszenia O\u015bwiatowc\u00f3w Polskich w Poznaniu","name":"Liceum Og\u00f3lnokszta\u0142c\u0105ce dla Doros\u0142ych-Zaoczne Stowarzyszenia O\u015bwiatowc\u00f3w Polskich w Poznaniu","addr:country":"PL","addr:postcode":"60-125","addr:city":"Pozna\u0144","addr:street":"ul. Bosa","addr:housenumber":"9","addr:teryt:simc":1911,"addr:teryt:sym_ul":969416,"contact:phone":"+48 663846177","contact:email":"losop@interia.pl","contact:website":"http:\/\/www.losop.edu.pl\/","ref:regon":"302252080","operator":"Stowarzyszenie O\u015bwiatowc\u00f3w Polskich Oddzia\u0142 W Poznaniu","operator:type":"ngo","amenity":"school"}},{"id":48527,"type":"Feature","geometry":{"type":"Point","coordinates":[16.8889,52.38389]},"properties":{"isced:level":"4","ref:rspo":48527,"official_name":"Szko\u0142a Policealna Stowarzyszenia O\u015bwiatowc\u00f3w Polskich w Poznaniu","name":"Szko\u0142a Policealna Stowarzyszenia O\u015bwiatowc\u00f3w Polskich w Poznaniu","addr:country":"PL","addr:postcode":"60-125","addr:city":"Pozna\u0144","addr:street":"ul. Bosa","addr:housenumber":"9","addr:teryt:simc":1911,"addr:teryt:sym_ul":969416,"contact:phone":"+48 616632739","contact:email":"psksop@interia.pl","contact:website":"http:\/\/www.losop.edu.pl\/","ref:regon":"302254586","operator":"Stowarzyszenie O\u015bwiatowc\u00f3w Polskich Oddzia\u0142 W Poznaniu","operator:type":"ngo","amenity":"college"}},{"id":80788,"type":"Feature","geometry":{"type":"Point","coordinates":[16.8889,52.383860000000006]},"properties":{"isced:level":"1;2","ref:rspo":80788,"official_name":"Szko\u0142a Podstawowa Nr 10 im. Arkadego Fiedlera","name":"Szko\u0142a Podstawowa Nr 10","addr:country":"PL","addr:postcode":"60-125","addr:city":"Pozna\u0144","addr:street":"ul. Bosa","addr:housenumber":"9","addr:teryt:simc":1911,"addr:teryt:sym_ul":969416,"contact:phone":"+48 618666120","contact:email":"sekretariat@sp10.poznan.pl","contact:website":"http:\/\/www.sp10.poznan.pl","ref:regon":"000233193","ref:vatin":"PL7791892606","operator":"Miasto Pozna\u0144","operator:type":"government","amenity":"school"}},{"id":133668,"type":"Feature","geometry":{"type":"Point","coordinates":[16.86441,52.38395]},"properties":{"isced:level":"1;2","ref:rspo":133668,"official_name":"Szko\u0142a Podstawowa Nr 72 Z Oddzia\u0142mi Dwuj\u0119zycznymi I Sportowymi","name":"Szko\u0142a Podstawowa Nr 72 Z Oddzia\u0142mi Dwuj\u0119zycznymi I Sportowymi","addr:country":"PL","addr:postcode":"60-161","addr:city":"Pozna\u0144","addr:street":"ul. Izaaka Newtona","addr:housenumber":"2","addr:teryt:simc":14095,"addr:teryt:sym_ul":969416,"contact:phone":"+48 618670929","contact:email":"sekretariat@sp72.pl","ref:regon":"367520940","operator":"Miasto Pozna\u0144","operator:type":"government","amenity":"school"}},{"id":58260,"type":"Feature","geometry":{"type":"Point","coordinates":[16.8469,52.38432]},"properties":{"ref:rspo":58260,"official_name":"Przedszkole Nr 38\nIm. \"Orle Gniazdo\"","name":"Przedszkole Nr 38\nIm. \"Orle Gniazdo\"","addr:country":"PL","addr:postcode":"60-163","addr:city":"Pozna\u0144","addr:street":"ul. Junikowska","addr:housenumber":"15","addr:teryt:simc":7663,"addr:teryt:sym_ul":969416,"contact:phone":"+48 618685676","contact:email":"p38@poznan.interklasa.pl","ref:regon":"301624963","ref:vatin":"PL7792386058","operator":"Miasto Pozna\u0144","operator:type":"government","amenity":"kindergarten"}},{"id":39079,"type":"Feature","geometry":{"type":"Point","coordinates":[16.81484,52.38436]},"properties":{"isced:level":"1;2","ref:rspo":39079,"official_name":"Szko\u0142a Podstawowa Nr 78 im. Prof. Wiktora Degi w Poznaniu","name":"Szko\u0142a Podstawowa Nr 78","addr:country":"PL","addr:postcode":"60-175","addr:city":"Pozna\u0144","addr:street":"ul. \u017bonkilowa","addr:housenumber":"34","addr:teryt:simc":26519,"addr:teryt:sym_ul":969416,"contact:phone":"+48 618677916","contact:email":"sekretariat@sp78poznan.pl","contact:website":"http:\/\/www.sp78poznan.pl","ref:regon":"630251734","ref:vatin":"PL7792158280","operator":"Miasto Pozna\u0144","operator:type":"government","amenity":"school"}},{"id":268296,"type":"Feature","geometry":{"type":"Point","coordinates":[16.85741,52.38443]},"properties":{"ref:rspo":268296,"official_name":"Punkt Przedszkolny Fikamy I Gramy","name":"Punkt Przedszkolny Fikamy I Gramy","addr:country":"PL","addr:postcode":"60-162","addr:city":"Pozna\u0144","addr:street":"ul. Kro\u015bnie\u0144ska","addr:housenumber":"9","addr:teryt:simc":9965,"addr:teryt:sym_ul":969416,"contact:phone":"+48 880934135","contact:email":"kontakt@kompozytornia.pl","ref:regon":"381067902","operator":"Kompozytornia Sp\u00f3\u0142ka Z Ograniczon\u0105 Odpowiedzialno\u015bci\u0105","operator:type":"private","amenity":"kindergarten"}},{"id":124175,"type":"Feature","geometry":{"type":"Point","coordinates":[16.88333,52.38451]},"properties":{"isced:level":"1;2","ref:rspo":124175,"official_name":"Szko\u0142a Podstawowa Montessori International School","name":"Szko\u0142a Podstawowa Montessori International School","addr:country":"PL","addr:postcode":"60-128","addr:city":"Pozna\u0144","addr:street":"ul. Piotra \u015aciegiennego","addr:housenumber":"10","addr:teryt:simc":22291,"addr:teryt:sym_ul":969416,"contact:phone":"+48 504131010","contact:email":"info@montessorischool.pl","contact:website":"http:\/\/www.montessorischool.pl","ref:regon":"302801338","operator":"Marcin Paw\u0142owski","operator:type":"private","amenity":"school"}},{"id":83075,"type":"Feature","geometry":{"type":"Point","coordinates":[16.82028,52.38499]},"properties":{"ref:rspo":83075,"official_name":"Przedszkole Zgromadzenia Si\u00f3str Imienia Jezus","name":"Przedszkole Zgromadzenia Si\u00f3str Imienia Jezus","addr:country":"PL","addr:postcode":"60-175","addr:city":"Pozna\u0144","addr:street":"ul. \u0141ubinowa","addr:housenumber":"7","addr:teryt:simc":11719,"addr:teryt:sym_ul":969416,"contact:phone":"+48 618677324","contact:email":"przedszkolelubinowa@gmail.com","contact:website":"http:\/\/www.przedszkole-poznan.edu.pl","ref:regon":"302281672","operator":"Zgromadzenie Si\u00f3str Naj\u015bwi\u0119tszego Imienia Jezus Pod Opiek\u0105 Maryi Panny Wspomo\u017cenia Wiernych","operator:type":"religious","amenity":"kindergarten"}},{"id":29818,"type":"Feature","geometry":{"type":"Point","coordinates":[16.90443,52.38616]},"properties":{"ref:rspo":29818,"official_name":"O\u015brodek Doskonalenia Nauczycieli w Poznaniu","name":"O\u015brodek Doskonalenia Nauczycieli w Poznaniu","addr:country":"PL","addr:postcode":"60-201","addr:city":"Pozna\u0144","addr:street":"ul. G\u00f3recka","addr:housenumber":"1","addr:teryt:simc":5929,"addr:teryt:sym_ul":969416,"contact:phone":"+48 618584700","contact:email":"odn@odnpoznan.pl","contact:website":"http:\/\/www.odnpoznan.pl","ref:regon":"001391528","ref:vatin":"PL7781201629","operator":"Wojew\u00f3dztwo Wielkopolskie","operator:type":"government","amenity":"training"}},{"id":113720,"type":"Feature","geometry":{"type":"Point","coordinates":[16.85781,52.38628]},"properties":{"ref:rspo":113720,"official_name":"Centrum Edukacji Bea Beata \u017byto","name":"Centrum Edukacji Bea Beata \u017byto","addr:country":"PL","addr:postcode":"60-162","addr:city":"Pozna\u0144","addr:street":"ul. Mi\u0119dzyborska","addr:housenumber":"26","addr:door":"5","addr:teryt:simc":12845,"addr:teryt:sym_ul":969416,"ref:regon":"302399965","operator":"Dane Do Uzupe\u0142nienia","operator:type":"private","amenity":"training"}},{"id":268527,"type":"Feature","geometry":{"type":"Point","coordinates":[16.8906,52.38628]},"properties":{"ref:rspo":268527,"official_name":"Zesp\u00f3\u0142 Szk\u00f3\u0142 Si\u00f3str Zmartwychwstanek","name":"Zesp\u00f3\u0142 Szk\u00f3\u0142 Si\u00f3str Zmartwychwstanek","addr:country":"PL","addr:postcode":"60-206","addr:city":"Pozna\u0144","addr:street":"ul. G\u0142ogowska","addr:housenumber":"147","addr:teryt:simc":5614,"addr:teryt:sym_ul":969416,"contact:phone":"+48 618665259","contact:email":"sekretariat@gloszp.pl","contact:website":"http:\/\/www.gloszp.pl","ref:regon":"381200318","operator":"Zg.ss.zmartwychwstania Pa\u0144skiego, Prowincja Pozna\u0144ska","operator:type":"religious","landuse":"education","fixme":"amenity=school, amenity=college albo landuse=education w zale\u017cno\u015bci od tego, jakie plac\u00f3wki wchodz\u0105 w sk\u0142ad zespo\u0142u. Sprawd\u017a, kiedy stosowa\u0107 amenity=* a kiedy landuse=education.","note":"Children RSPO: 31263;132362"}},{"id":31263,"type":"Feature","geometry":{"type":"Point","coordinates":[16.8906,52.38625]},"properties":{"isced:level":"3","ref:rspo":31263,"official_name":"Liceum Og\u00f3lnokszta\u0142c\u0105ce im. Matki J. Borz\u0119ckiej Zgromadzenia Si\u00f3str Zmartwychwstania Pa\u0144skiego","name":"Liceum Og\u00f3lnokszta\u0142c\u0105ce","addr:country":"PL","addr:postcode":"60-206","addr:city":"Pozna\u0144","addr:street":"ul. G\u0142ogowska","addr:housenumber":"147","addr:teryt:simc":5614,"addr:teryt:sym_ul":969416,"contact:phone":"+48 618665259","contact:email":"sekretariat@gloszp.pl","contact:website":"http:\/\/www.gloszp.pl","ref:regon":"302248858","operator":"Zg.ss.zmartwychwstania Pa\u0144skiego, Dom Zakonny","operator:type":"religious","amenity":"school","note":"Parent RSPO: 268527"}},{"id":132362,"type":"Feature","geometry":{"type":"Point","coordinates":[16.8906,52.38622]},"properties":{"isced:level":"1;2","ref:rspo":132362,"official_name":"Szko\u0142a Podstawowa im.matki Jadwigi Borz\u0119ckiej Zgromadzenia Si\u00f3str Zmartwychwstania Pa\u0144skiego","name":"Szko\u0142a Podstawowa im.matki Jadwigi Borz\u0119ckiej Zgromadzenia Si\u00f3str Zmartwychwstania Pa\u0144skiego","addr:country":"PL","addr:postcode":"60-206","addr:city":"Pozna\u0144","addr:street":"ul. G\u0142ogowska","addr:housenumber":"147","addr:teryt:simc":5614,"addr:teryt:sym_ul":969416,"contact:phone":"+48 618665259","contact:email":"sekretariat@gloszp.pl","contact:website":"http:\/\/www.gloszp.pl","ref:regon":"365565280","operator":"Zg.ss.zmartwychwstania Pa\u0144skiego, Dom Zakonny","operator:type":"religious","amenity":"school","note":"Parent RSPO: 268527"}},{"id":81800,"type":"Feature","geometry":{"type":"Point","coordinates":[16.85788,52.38675]},"properties":{"ref:rspo":81800,"official_name":"Centrum Kszta\u0142cenia Praktycznego","name":"Centrum Kszta\u0142cenia Praktycznego","addr:country":"PL","addr:postcode":"60-161","addr:city":"Pozna\u0144","addr:street":"ul. Jawornicka","addr:housenumber":"200","addr:teryt:simc":7391,"addr:teryt:sym_ul":969416,"contact:phone":"+48 616606676","contact:email":"sekretariat@pceuip.pl","contact:website":"http:\/\/www.pceuip.pl","ref:regon":"630728969","operator":"Miasto Pozna\u0144","operator:type":"government","fixme":"w zale\u017cno\u015bci od przedmiotu dzia\u0142alno\u015bci (np. amenity=training + training=*, amenity=dancing_school, amenity=language_school, amenity=music_school) albo amenity=school, amenity=college, albo landuse=education w zale\u017cno\u015bci od tego, jakie plac\u00f3wki wchodz\u0105 w sk\u0142ad zespo\u0142u. Sprawd\u017a, kiedy stosowa\u0107 amenity=* a kiedy landuse=education.","note":"Parent RSPO: 123567"}},{"id":34196,"type":"Feature","geometry":{"type":"Point","coordinates":[16.87039,52.38683]},"properties":{"ref:rspo":34196,"official_name":"Zesp\u00f3\u0142 Szk\u00f3\u0142 Budowlano-Drzewnych im. Boles\u0142awa Chrobrego","name":"Zesp\u00f3\u0142 Szk\u00f3\u0142 Budowlano-Drzewnych","addr:country":"PL","addr:postcode":"60-135","addr:city":"Pozna\u0144","addr:street":"ul. Raszy\u0144ska","addr:housenumber":"48","addr:teryt:simc":18467,"addr:teryt:sym_ul":969416,"contact:phone":"+48 618610027","contact:email":"poczta@zsbd.pl","contact:website":"http:\/\/www.zsbd.pl","ref:regon":"000688255","ref:vatin":"PL7791548122","operator":"Miasto Pozna\u0144","operator:type":"government","landuse":"education","fixme":"amenity=school, amenity=college albo landuse=education w zale\u017cno\u015bci od tego, jakie plac\u00f3wki wchodz\u0105 w sk\u0142ad zespo\u0142u. Sprawd\u017a, kiedy stosowa\u0107 amenity=* a kiedy landuse=education.","note":"Children RSPO: 86092;86094;86095;86099;86101;122408;276220"}},{"id":86092,"type":"Feature","geometry":{"type":"Point","coordinates":[16.87039,52.3868]},"properties":{"isced:level":"3","ref:rspo":86092,"official_name":"Technikum Budowlano-Drzewne","name":"Technikum Budowlano-Drzewne","addr:country":"PL","addr:postcode":"60-135","addr:city":"Pozna\u0144","addr:street":"ul. Raszy\u0144ska","addr:housenumber":"48","addr:teryt:simc":18467,"addr:teryt:sym_ul":969416,"contact:phone":"+48 618610027","contact:email":"poczta@zsbd.pl","contact:website":"http:\/\/www.zsbd.pl","ref:regon":"634413292","operator":"Miasto Pozna\u0144","operator:type":"government","amenity":"school","note":"Parent RSPO: 34196"}},{"id":86094,"type":"Feature","geometry":{"type":"Point","coordinates":[16.87039,52.386770000000006]},"properties":{"isced:level":"3","ref:rspo":86094,"official_name":"Bran\u017cowa Szko\u0142a I Stopnia Nr 28","name":"Bran\u017cowa Szko\u0142a I Stopnia Nr 28","addr:country":"PL","addr:postcode":"60-135","addr:city":"Pozna\u0144","addr:street":"ul. Raszy\u0144ska","addr:housenumber":"48","addr:teryt:simc":18467,"addr:teryt:sym_ul":969416,"contact:phone":"+48 618610027","contact:email":"poczta@zsbd.pl","contact:website":"http:\/\/www.zsbd.pl","ref:regon":"634413270","operator":"Miasto Pozna\u0144","operator:type":"government","amenity":"school","note":"Parent RSPO: 34196"}},{"id":86095,"type":"Feature","geometry":{"type":"Point","coordinates":[16.87039,52.38674]},"properties":{"isced:level":"3","ref:rspo":86095,"official_name":"Xxviii Liceum Og\u00f3lnokszta\u0142c\u0105ce","name":"Xxviii Liceum Og\u00f3lnokszta\u0142c\u0105ce","addr:country":"PL","addr:postcode":"60-135","addr:city":"Pozna\u0144","addr:street":"ul. Raszy\u0144ska","addr:housenumber":"48","addr:teryt:simc":18467,"addr:teryt:sym_ul":969416,"contact:phone":"+48 618610027","contact:email":"poczta@zsbd.pl","contact:website":"http:\/\/www.zsbd.pl","ref:regon":"634413286","operator":"Miasto Pozna\u0144","operator:type":"government","amenity":"school","note":"Parent RSPO: 34196"}},{"id":86099,"type":"Feature","geometry":{"type":"Point","coordinates":[16.87039,52.38671]},"properties":{"isced:level":"4","ref:rspo":86099,"official_name":"Szko\u0142a Policealna Nr 28","name":"Szko\u0142a Policealna Nr 28","addr:country":"PL","addr:postcode":"60-135","addr:city":"Pozna\u0144","addr:street":"ul. Raszy\u0144ska","addr:housenumber":"48","addr:teryt:simc":18467,"addr:teryt:sym_ul":969416,"contact:phone":"+48 618610027","contact:email":"poczta@zsbd.pl","contact:website":"http:\/\/www.zsbd.pl","ref:regon":"300112669","operator":"Miasto Pozna\u0144","operator:type":"government","amenity":"college","note":"Parent RSPO: 34196"}},{"id":86101,"type":"Feature","geometry":{"type":"Point","coordinates":[16.87039,52.386680000000005]},"properties":{"isced:level":"4","ref:rspo":86101,"official_name":"Szko\u0142a Policealna Nr 28 dla Doros\u0142ych","name":"Szko\u0142a Policealna Nr 28 dla Doros\u0142ych","addr:country":"PL","addr:postcode":"60-135","addr:city":"Pozna\u0144","addr:street":"ul. Raszy\u0144ska","addr:housenumber":"48","addr:teryt:simc":18467,"addr:teryt:sym_ul":969416,"contact:phone":"+48 618610027","contact:email":"poczta@zsbd.pl","contact:website":"http:\/\/www.zsbd.pl","ref:regon":"300929181","operator":"Miasto Pozna\u0144","operator:type":"government","amenity":"college","note":"Parent RSPO: 34196"}},{"id":122408,"type":"Feature","geometry":{"type":"Point","coordinates":[16.87039,52.38665]},"properties":{"isced:level":"3","ref:rspo":122408,"official_name":"Xxviii Liceum Og\u00f3lnokszta\u0142c\u0105ce dla Doros\u0142ych","name":"Xxviii Liceum Og\u00f3lnokszta\u0142c\u0105ce dla Doros\u0142ych","addr:country":"PL","addr:postcode":"60-135","addr:city":"Pozna\u0144","addr:street":"ul. Raszy\u0144ska","addr:housenumber":"48","addr:teryt:simc":18467,"addr:teryt:sym_ul":969416,"contact:phone":"+48 618610027","contact:email":"poczta@zsbd.pl","ref:regon":"302673372","operator":"Miasto Pozna\u0144","operator:type":"government","amenity":"school","note":"Parent RSPO: 34196"}},{"id":276220,"type":"Feature","geometry":{"type":"Point","coordinates":[16.87039,52.38662]},"properties":{"isced:level":"3","ref:rspo":276220,"official_name":"Bran\u017cowa Szko\u0142a II Stopnia Nr 5","name":"Bran\u017cowa Szko\u0142a II Stopnia Nr 5","addr:country":"PL","addr:postcode":"60-135","addr:city":"Pozna\u0144","addr:street":"ul. Raszy\u0144ska","addr:housenumber":"48","addr:teryt:simc":18467,"addr:teryt:sym_ul":969416,"contact:phone":"+48 618610027","contact:email":"poczta@zsbd.pl","ref:regon":"387037345","operator":"Miasto Pozna\u0144","operator:type":"government","amenity":"school","note":"Parent RSPO: 34196"}},{"id":129756,"type":"Feature","geometry":{"type":"Point","coordinates":[16.83934,52.38684]},"properties":{"ref:rspo":129756,"official_name":"Przedszkole Niepubliczne \"Tajemniczy Ogr\u00f3d\"","name":"Przedszkole Niepubliczne \"Tajemniczy Ogr\u00f3d\"","addr:country":"PL","addr:postcode":"60-176","addr:city":"Pozna\u0144","addr:street":"ul. Rzepi\u0144ska","addr:housenumber":"19","addr:teryt:simc":19345,"addr:teryt:sym_ul":969416,"contact:phone":"+48 601306064","contact:email":"kontakt@montessoripoznan.pl","ref:regon":"362854492","operator":"Przedsi\u0119biorstwo Produkcyjno-Us\u0142ugowe \"Electrocomplex\" - Sp\u00f3\u0142ka Z Ograniczon\u0105 Odpowiedzialno\u015bci\u0105","operator:type":"private","amenity":"kindergarten"}},{"id":48736,"type":"Feature","geometry":{"type":"Point","coordinates":[16.87438,52.38707]},"properties":{"isced:level":"1;2","ref:rspo":48736,"official_name":"Szko\u0142a Podstawowa Nr 80 im. Kornela Makuszy\u0144skiego","name":"Szko\u0142a Podstawowa Nr 80","addr:country":"PL","addr:postcode":"60-137","addr:city":"Pozna\u0144","addr:street":"ul. Pogodna","addr:housenumber":"84","addr:teryt:simc":16900,"addr:teryt:sym_ul":969416,"contact:phone":"+48 618610524","contact:email":"sp80poznan@gmail.com","contact:website":"http:\/\/www.sp80.poznan.pl","ref:regon":"000246528","ref:vatin":"PL7791634241","operator":"Miasto Pozna\u0144","operator:type":"government","amenity":"school"}},{"id":58237,"type":"Feature","geometry":{"type":"Point","coordinates":[16.8606933,52.387278]},"properties":{"ref:rspo":58237,"official_name":"Przedszkole Nr 28\nIm.ma\u0142ych Astronom\u00f3w","name":"Przedszkole Nr 28\nIm.ma\u0142ych Astronom\u00f3w","addr:country":"PL","addr:postcode":"60-159","addr:city":"Pozna\u0144","addr:street":"ul. Galileusza","addr:housenumber":"7","addr:teryt:simc":5283,"addr:teryt:sym_ul":969416,"contact:phone":"+48 616618811","contact:email":"p28@poznan.interklasa.pl","contact:website":"http:\/\/www.przedszkole28.pl","ref:regon":"301624160","ref:vatin":"PL7792386012","operator":"Miasto Pozna\u0144","operator:type":"government","amenity":"kindergarten"}},{"id":80755,"type":"Feature","geometry":{"type":"Point","coordinates":[16.84042,52.38751]},"properties":{"isced:level":"1;2","ref:rspo":80755,"official_name":"Szko\u0142a Podstawowa Nr 54 im. Jana Kasprowicza","name":"Szko\u0142a Podstawowa Nr 54","addr:country":"PL","addr:postcode":"60-176","addr:city":"Pozna\u0144","addr:street":"ul. Ma\u0142oszy\u0144ska","addr:housenumber":"38","addr:teryt:simc":12196,"addr:teryt:sym_ul":969416,"contact:phone":"+48 618689692","contact:email":"sekretariat@sp54.poznan.pl","contact:website":"http:\/\/www.sp54.poznan.pl","ref:regon":"000244328","ref:vatin":"PL7791034274","operator":"Miasto Pozna\u0144","operator:type":"government","amenity":"school"}},{"id":85446,"type":"Feature","geometry":{"type":"Point","coordinates":[16.88315,52.38792]},"properties":{"ref:rspo":85446,"official_name":"Prywatne Przedszkole Bajkowa Kraina","name":"Prywatne Przedszkole Bajkowa Kraina","addr:country":"PL","addr:postcode":"60-132","addr:city":"Pozna\u0144","addr:street":"ul. G\u00f3rczy\u0144ska","addr:housenumber":"46","addr:teryt:simc":5927,"addr:teryt:sym_ul":969416,"contact:phone":"+48 533522062","contact:email":"bajkowakraina46@gmail.com","ref:regon":"302270160","operator":"Monika Kandulska","operator:type":"private","amenity":"kindergarten"}},{"id":269388,"type":"Feature","geometry":{"type":"Point","coordinates":[16.84372,52.38825]},"properties":{"ref:rspo":269388,"official_name":"Punkt Przedszkolny Motylek","name":"Punkt Przedszkolny Motylek","addr:country":"PL","addr:postcode":"60-178","addr:city":"Pozna\u0144","addr:street":"ul. \u015acinawska","addr:housenumber":"16","addr:teryt:simc":22302,"addr:teryt:sym_ul":969416,"contact:phone":"+48 696150937","contact:email":"info@pracowniamotylek.pl","contact:website":"http:\/\/www.pracowniamotylek.pl","ref:regon":"381463118","operator":"Lidia Kaniasta","operator:type":"private","amenity":"kindergarten"}},{"id":77935,"type":"Feature","geometry":{"type":"Point","coordinates":[16.86475,52.38836]},"properties":{"ref:rspo":77935,"official_name":"Przedszkole Nr 13","name":"Przedszkole Nr 13","addr:country":"PL","addr:postcode":"60-158","addr:city":"Pozna\u0144","addr:street":"ul. Jana Keplera","addr:housenumber":"5","addr:teryt:simc":8323,"addr:teryt:sym_ul":969416,"contact:phone":"+48 618624390","contact:email":"p13@poznan.interklasa.pl","contact:website":"http:\/\/www.p13poznan.szkolnastrona.pl","ref:regon":"301632052","ref:vatin":"PL7792386354","operator":"Miasto Pozna\u0144","operator:type":"government","amenity":"kindergarten"}},{"id":272559,"type":"Feature","geometry":{"type":"Point","coordinates":[16.87289,52.38837]},"properties":{"ref:rspo":272559,"official_name":"Przedszkole Fabryka Fantazji Nr 198 w Poznaniu","name":"Przedszkole Fabryka Fantazji Nr 198 w Poznaniu","addr:country":"PL","addr:postcode":"60-136","addr:city":"Pozna\u0144","addr:street":"ul. K\u0142uszy\u0144ska","addr:housenumber":"19","addr:teryt:simc":8640,"addr:teryt:sym_ul":969416,"contact:phone":"+48 616621016","contact:email":"nplk@op.pl","ref:regon":"384285427","operator":"Magdalena Figlewska","operator:type":"private","amenity":"kindergarten"}},{"id":268363,"type":"Feature","geometry":{"type":"Point","coordinates":[16.86752,52.38877]},"properties":{"ref:rspo":268363,"official_name":"Punkt Przedszkolny Taaki Maluch","name":"Punkt Przedszkolny Taaki Maluch","addr:country":"PL","addr:postcode":"60-149","addr:city":"Pozna\u0144","addr:street":"ul. Jugos\u0142owia\u0144ska","addr:housenumber":"65","addr:teryt:simc":7649,"addr:teryt:sym_ul":969416,"contact:phone":"+48 605654596","contact:email":"biuro@logosau.pl","contact:website":"http:\/\/www.taakimaluch.pl","ref:regon":"381112407","operator":"Karolina Dobska- Ma\u0144ko","operator:type":"private","amenity":"kindergarten"}},{"id":19522,"type":"Feature","geometry":{"type":"Point","coordinates":[16.86426,52.38905]},"properties":{"ref:rspo":19522,"official_name":"Centrum Szkoleniowe Corio","name":"Centrum Szkoleniowe Corio","addr:country":"PL","addr:postcode":"60-158","addr:city":"Pozna\u0144","addr:street":"ul. Jana Keplera","addr:housenumber":"8c","addr:door":"16","addr:teryt:simc":8323,"addr:teryt:sym_ul":969416,"contact:phone":"+48 503086728","ref:regon":"302225159","operator":"Centrum Szkoleniowe Corio Sp\u00f3\u0142ka Z Ograniczon\u0105 Odpowiedzialno\u015bci\u0105","operator:type":"private","fixme":"w zale\u017cno\u015bci od przedmiotu dzia\u0142alno\u015bci (np. amenity=training + training=*, amenity=dancing_school, amenity=language_school, amenity=music_school)"}},{"id":29599,"type":"Feature","geometry":{"type":"Point","coordinates":[16.8885599,52.38912]},"properties":{"ref:rspo":29599,"official_name":"Zesp\u00f3\u0142 Szk\u00f3\u0142 Nr 8","name":"Zesp\u00f3\u0142 Szk\u00f3\u0142 Nr 8","addr:country":"PL","addr:postcode":"60-249","addr:city":"Pozna\u0144","addr:street":"ul. Kazimierza Jarochowskiego","addr:housenumber":"62","addr:teryt:simc":7251,"addr:teryt:sym_ul":969416,"contact:phone":"+48 618663621","contact:email":"sp69sms@wp.pl","contact:website":"http:\/\/sp69sms.pl","ref:regon":"301523535","ref:vatin":"PL7792380972","operator":"Miasto Pozna\u0144","operator:type":"government","landuse":"education","fixme":"amenity=school, amenity=college albo landuse=education w zale\u017cno\u015bci od tego, jakie plac\u00f3wki wchodz\u0105 w sk\u0142ad zespo\u0142u. Sprawd\u017a, kiedy stosowa\u0107 amenity=* a kiedy landuse=education.","note":"Children RSPO: 71147;77938"}},{"id":86147,"type":"Feature","geometry":{"type":"Point","coordinates":[16.86302,52.38929]},"properties":{"isced:level":"1;2","ref:rspo":86147,"official_name":"Szko\u0142a Podstawowa Nr 7 im. Erazma Z Rotterdamu","name":"Szko\u0142a Podstawowa Nr 7","addr:country":"PL","addr:postcode":"60-158","addr:city":"Pozna\u0144","addr:street":"ul. Galileusza","addr:housenumber":"14","addr:teryt:simc":5283,"addr:teryt:sym_ul":969416,"contact:phone":"+48 618624931","contact:email":"sek@sp7poz.pl","contact:website":"http:\/\/www.sp7poz.pl","ref:regon":"000942009","ref:vatin":"PL7791487691","operator":"Miasto Pozna\u0144","operator:type":"government","amenity":"school"}},{"id":77912,"type":"Feature","geometry":{"type":"Point","coordinates":[16.89829,52.3894]},"properties":{"isced:level":"1;2","ref:rspo":77912,"official_name":"Szko\u0142a Podstawowa Nr 77 im. XV Pu\u0142ku U\u0142an\u00f3w Pozna\u0144skich","name":"Szko\u0142a Podstawowa Nr 77","addr:country":"PL","addr:postcode":"60-204","addr:city":"Pozna\u0144","addr:street":"ul. Romana Dmowskiego","addr:housenumber":"50","addr:teryt:simc":3868,"addr:teryt:sym_ul":969416,"contact:phone":"+48 618665961","contact:email":"sekretariat@sp77poznan.pl","contact:website":"http:\/\/www.sp77poznan.pl","ref:regon":"000246244","ref:vatin":"PL7792030901","operator":"Miasto Pozna\u0144","operator:type":"government","amenity":"school"}},{"id":123151,"type":"Feature","geometry":{"type":"Point","coordinates":[16.89829,52.38937]},"properties":{"ref:rspo":123151,"official_name":"Abc Florystyki. Szkolenia Florystyczne","name":"Abc Florystyki. Szkolenia Florystyczne","addr:country":"PL","addr:postcode":"60-204","addr:city":"Pozna\u0144","addr:street":"ul. Romana Dmowskiego","addr:housenumber":"50","addr:teryt:simc":3868,"addr:teryt:sym_ul":969416,"contact:phone":"+48 785115185","ref:regon":"302738491","operator":"Maria Dembowska","operator:type":"private","fixme":"w zale\u017cno\u015bci od przedmiotu dzia\u0142alno\u015bci (np. amenity=training + training=*, amenity=dancing_school, amenity=language_school, amenity=music_school)"}},{"id":58220,"type":"Feature","geometry":{"type":"Point","coordinates":[16.89146,52.38962]},"properties":{"ref:rspo":58220,"official_name":"Przedszkole Nr 89","name":"Przedszkole Nr 89","addr:country":"PL","addr:postcode":"60-245","addr:city":"Pozna\u0144","addr:street":"ul. Marcina Kasprzaka","addr:housenumber":"46","addr:teryt:simc":8157,"addr:teryt:sym_ul":969416,"contact:phone":"+48 618665569","contact:email":"p89@poznan.interklasa.pl","ref:regon":"301621261","ref:vatin":"PL7792385722","operator":"Miasto Pozna\u0144","operator:type":"government","amenity":"kindergarten"}},{"id":82690,"type":"Feature","geometry":{"type":"Point","coordinates":[16.85554,52.38976]},"properties":{"ref:rspo":82690,"official_name":"O\u015brodek Dokszta\u0142cania I Doskonalenia Zawodowego","name":"O\u015brodek Dokszta\u0142cania I Doskonalenia Zawodowego","addr:country":"PL","addr:postcode":"60-161","addr:city":"Pozna\u0144","addr:street":"ul. Jawornicka","addr:housenumber":"1","addr:teryt:simc":7391,"addr:teryt:sym_ul":969416,"contact:phone":"+48 616606600","contact:email":"sekretariat@pceuip.pl","contact:website":"http:\/\/www.pceuip.pl","ref:regon":"302265992","operator":"Miasto Pozna\u0144","operator:type":"government","fixme":"w zale\u017cno\u015bci od przedmiotu dzia\u0142alno\u015bci (np. amenity=training + training=*, amenity=dancing_school, amenity=language_school, amenity=music_school) albo amenity=school, amenity=college, albo landuse=education w zale\u017cno\u015bci od tego, jakie plac\u00f3wki wchodz\u0105 w sk\u0142ad zespo\u0142u. Sprawd\u017a, kiedy stosowa\u0107 amenity=* a kiedy landuse=education."}},{"id":82691,"type":"Feature","geometry":{"type":"Point","coordinates":[16.85554,52.38973]},"properties":{"isced:level":"1;2","ref:rspo":82691,"official_name":"Szko\u0142a Podstawowa dla Doros\u0142ych","name":"Szko\u0142a Podstawowa dla Doros\u0142ych","addr:country":"PL","addr:postcode":"60-161","addr:city":"Pozna\u0144","addr:street":"ul. Jawornicka","addr:housenumber":"1","addr:teryt:simc":7391,"addr:teryt:sym_ul":969416,"contact:phone":"+48 616606600","ref:regon":"302266017","operator":"Miasto Pozna\u0144","operator:type":"government","amenity":"school"}},{"id":82693,"type":"Feature","geometry":{"type":"Point","coordinates":[16.85554,52.389700000000005]},"properties":{"isced:level":"3","ref:rspo":82693,"official_name":"Liceum Og\u00f3lnokszta\u0142c\u0105ce dla Doros\u0142ych","name":"Liceum Og\u00f3lnokszta\u0142c\u0105ce dla Doros\u0142ych","addr:country":"PL","addr:postcode":"60-161","addr:city":"Pozna\u0144","addr:street":"ul. Jawornicka","addr:housenumber":"1","addr:teryt:simc":7391,"addr:teryt:sym_ul":969416,"contact:phone":"+48 616606600","ref:regon":"300031787","operator":"Miasto Pozna\u0144","operator:type":"government","amenity":"school"}},{"id":82695,"type":"Feature","geometry":{"type":"Point","coordinates":[16.85554,52.38967]},"properties":{"isced:level":"4","ref:rspo":82695,"official_name":"Szko\u0142a Policealna dla Doros\u0142ych","name":"Szko\u0142a Policealna dla Doros\u0142ych","addr:country":"PL","addr:postcode":"60-161","addr:city":"Pozna\u0144","addr:street":"ul. Jawornicka","addr:housenumber":"1","addr:teryt:simc":7391,"addr:teryt:sym_ul":969416,"contact:phone":"+48 616606600","contact:email":"sekretariat@pceuip.pl","contact:website":"http:\/\/www.pceuip.pl","ref:regon":"302266098","operator":"Miasto Pozna\u0144","operator:type":"government","amenity":"college"}},{"id":123567,"type":"Feature","geometry":{"type":"Point","coordinates":[16.85554,52.38964]},"properties":{"ref:rspo":123567,"official_name":"Centrum Kszta\u0142cenia Zawodowego I Ustawicznego w Poznaniu","name":"Centrum Kszta\u0142cenia Zawodowego I Ustawicznego w Poznaniu","addr:country":"PL","addr:postcode":"60-161","addr:city":"Pozna\u0144","addr:street":"ul. Jawornicka","addr:housenumber":"1","addr:teryt:simc":7391,"addr:teryt:sym_ul":969416,"contact:phone":"+48 616606606","contact:email":"sekretariat@ckziupoznan.pl","ref:regon":"302773398","operator":"Miasto Pozna\u0144","operator:type":"government","landuse":"education","fixme":"amenity=school, amenity=college albo landuse=education w zale\u017cno\u015bci od tego, jakie plac\u00f3wki wchodz\u0105 w sk\u0142ad zespo\u0142u. Sprawd\u017a, kiedy stosowa\u0107 amenity=* a kiedy landuse=education.","note":"Children RSPO: 81799;81800;82689;122904"}},{"id":81799,"type":"Feature","geometry":{"type":"Point","coordinates":[16.85554,52.389610000000005]},"properties":{"ref:rspo":81799,"official_name":"Centrum Kszta\u0142cenia Ustawicznego","name":"Centrum Kszta\u0142cenia Ustawicznego","addr:country":"PL","addr:postcode":"60-161","addr:city":"Pozna\u0144","addr:street":"ul. Jawornicka","addr:housenumber":"1","addr:teryt:simc":7391,"addr:teryt:sym_ul":969416,"contact:phone":"+48 616606600","contact:email":"sekretariat@pceuip.pl","contact:website":"http:\/\/www.pceuip.pl","ref:regon":"632040059","operator":"Miasto Pozna\u0144","operator:type":"government","fixme":"w zale\u017cno\u015bci od przedmiotu dzia\u0142alno\u015bci (np. amenity=training + training=*, amenity=dancing_school, amenity=language_school, amenity=music_school)","note":"Parent RSPO: 123567"}},{"id":82689,"type":"Feature","geometry":{"type":"Point","coordinates":[16.85554,52.38958]},"properties":{"isced:level":"3","ref:rspo":82689,"official_name":"Technikum Elektroniczno-Mechaniczne","name":"Technikum Elektroniczno-Mechaniczne","addr:country":"PL","addr:postcode":"60-161","addr:city":"Pozna\u0144","addr:street":"ul. Jawornicka","addr:housenumber":"1","addr:teryt:simc":7391,"addr:teryt:sym_ul":969416,"contact:phone":"+48 616606600","contact:email":"sekretariat@ckziupoznan.pl","contact:website":"http:\/\/www.ckziupoznan.pl","ref:regon":"634425935","operator":"Miasto Pozna\u0144","operator:type":"government","amenity":"school","note":"Parent RSPO: 123567"}},{"id":122904,"type":"Feature","geometry":{"type":"Point","coordinates":[16.85554,52.38955]},"properties":{"isced:level":"3","ref:rspo":122904,"official_name":"Bran\u017cowa Szko\u0142a I Stopnia Nr 1","name":"Bran\u017cowa Szko\u0142a I Stopnia Nr 1","addr:country":"PL","addr:postcode":"60-161","addr:city":"Pozna\u0144","addr:street":"ul. Jawornicka","addr:housenumber":"1","addr:teryt:simc":7391,"addr:teryt:sym_ul":969416,"contact:phone":"+48 616606600","contact:email":"sekretariat@ckziupoznan.pl","contact:website":"http:\/\/www.ckziupoznan.pl","ref:regon":"302707540","operator":"Miasto Pozna\u0144","operator:type":"government","amenity":"school","note":"Parent RSPO: 123567"}},{"id":106057,"type":"Feature","geometry":{"type":"Point","coordinates":[16.85005,52.38993]},"properties":{"ref:rspo":106057,"official_name":"Centrum Doskonalenia Zawodowego Nauczycieli Zak\u0142adu Doskonalenia Zawodowego w Poznaniu","name":"Centrum Doskonalenia Zawodowego Nauczycieli Zak\u0142adu Doskonalenia Zawodowego w Poznaniu","addr:country":"PL","addr:postcode":"60-179","addr:city":"Pozna\u0144","addr:street":"ul. Jeleniog\u00f3rska","addr:housenumber":"4","addr:door":"6","addr:teryt:simc":7459,"addr:teryt:sym_ul":969416,"ref:regon":"302313136","ref:vatin":"PL7770001720","operator":"Dane Do Uzupe\u0142nienia","operator:type":"private","amenity":"training"}},{"id":83022,"type":"Feature","geometry":{"type":"Point","coordinates":[16.87578,52.39003]},"properties":{"isced:level":"4","ref:rspo":83022,"official_name":"Policealne Studium Kosmetyczne A.goc","name":"Policealne Studium Kosmetyczne A.goc","addr:country":"PL","addr:postcode":"60-133","addr:city":"Pozna\u0144","addr:street":"ul. Brze\u017anicka","addr:housenumber":"3","addr:teryt:simc":2254,"addr:teryt:sym_ul":969416,"contact:phone":"+48 616558585","contact:email":"sekretariat@studium-kosmetyczne.pl","contact:website":"http:\/\/studium-kosmetyczne.pl","ref:regon":"302270007","operator":"Aniela Goc","operator:type":"private","amenity":"college"}},{"id":83024,"type":"Feature","geometry":{"type":"Point","coordinates":[16.87578,52.39]},"properties":{"isced:level":"4","ref:rspo":83024,"official_name":"Zaoczne Policealne Studium Kosmetyczne Anieli Goc","name":"Zaoczne Policealne Studium Kosmetyczne Anieli Goc","addr:country":"PL","addr:postcode":"60-133","addr:city":"Pozna\u0144","addr:street":"ul. Brze\u017anicka","addr:housenumber":"3","addr:teryt:simc":2254,"addr:teryt:sym_ul":969416,"contact:phone":"+48 616558585","contact:email":"sekretariat@studium-kosmetycze.pl","contact:website":"http:\/\/studium-kosmetyczne.pl","ref:regon":"302270680","operator":"Aniela Goc","operator:type":"private","amenity":"college"}},{"id":133672,"type":"Feature","geometry":{"type":"Point","coordinates":[16.90007,52.39029]},"properties":{"isced:level":"3","ref:rspo":133672,"official_name":"Xxxvii Liceum Og\u00f3lnokszta\u0142c\u0105ce Z Oddzia\u0142ami Terapeutycznymi","name":"Xxxvii Liceum Og\u00f3lnokszta\u0142c\u0105ce Z Oddzia\u0142ami Terapeutycznymi","addr:country":"PL","addr:postcode":"60-521","addr:city":"Pozna\u0144","addr:street":"ul. Klaudyny Potockiej","addr:housenumber":"38","addr:teryt:simc":17287,"addr:teryt:sym_ul":969416,"contact:phone":"+48 618665937","contact:email":"sekretariat@37lo.poznan.pl","ref:regon":"367523788","operator":"Miasto Pozna\u0144","operator:type":"government","amenity":"school"}},{"id":121367,"type":"Feature","geometry":{"type":"Point","coordinates":[16.87149,52.39035]},"properties":{"ref:rspo":121367,"official_name":"Prywatne Przedszkole Tw\u00f3rcze \u0141apki","name":"Prywatne Przedszkole Tw\u00f3rcze \u0141apki","addr:country":"PL","addr:postcode":"60-143","addr:city":"Pozna\u0144","addr:street":"ul. Podchor\u0105\u017cych","addr:housenumber":"22","addr:teryt:simc":16713,"addr:teryt:sym_ul":969416,"contact:phone":"+48 500150681","contact:email":"przedszkole@tworczelapki.pl","ref:regon":"302617971","operator":"Barbara Jarz\u0119cka","operator:type":"private","amenity":"kindergarten"}},{"id":21638,"type":"Feature","geometry":{"type":"Point","coordinates":[16.87852,52.39042]},"properties":{"ref:rspo":21638,"official_name":"Domdata - Centrum Edukacyjne","name":"Domdata - Centrum Edukacyjne","addr:country":"PL","addr:postcode":"60-273","addr:city":"Pozna\u0144","addr:street":"ul. Macieja Palacza","addr:housenumber":"81","addr:teryt:simc":15568,"addr:teryt:sym_ul":969416,"contact:phone":"+48 618497000","ref:regon":"302229520","operator":"Domdata Ag Sp\u00f3\u0142ka Z Ograniczon\u0105 Odpowiedzialno\u015bci\u0105","operator:type":"private","fixme":"w zale\u017cno\u015bci od przedmiotu dzia\u0142alno\u015bci (np. amenity=training + training=*, amenity=dancing_school, amenity=language_school, amenity=music_school)"}},{"id":83081,"type":"Feature","geometry":{"type":"Point","coordinates":[16.9040399,52.39053]},"properties":{"ref:rspo":83081,"official_name":"Przedszkole Niepubliczne \"Akademia Przedszkolaka - Educandi\"","name":"Przedszkole Niepubliczne \"Akademia Przedszkolaka - Educandi\"","addr:country":"PL","addr:postcode":"60-718","addr:city":"Pozna\u0144","addr:street":"ul. Kolejowa","addr:housenumber":"29a","addr:teryt:simc":8828,"addr:teryt:sym_ul":969416,"contact:phone":"+48 793407333","contact:email":"kontakt@educandi.pl","ref:regon":"302270830","operator":"El\u017cbieta Rosi\u0144ska","operator:type":"private","amenity":"kindergarten"}},{"id":56054,"type":"Feature","geometry":{"type":"Point","coordinates":[16.85223,52.39091]},"properties":{"ref:rspo":56054,"official_name":"Przedszkole Niepubliczne \"T\u0119czowa Kraina\"","name":"Przedszkole Niepubliczne \"T\u0119czowa Kraina\"","addr:country":"PL","addr:postcode":"60-179","addr:city":"Pozna\u0144","addr:street":"ul. Mariana Smoluchowskiego","addr:housenumber":"5","addr:teryt:simc":20372,"addr:teryt:sym_ul":969416,"contact:phone":"+48 609804004","contact:email":"przedszkole.t.k@gmail.com","contact:website":"http:\/\/teczowa-kraina.edu.pl","ref:regon":"302252216","operator":"Janusz Skoczy\u0144ski","operator:type":"private","amenity":"kindergarten"}},{"id":30301,"type":"Feature","geometry":{"type":"Point","coordinates":[16.87008,52.39101]},"properties":{"isced:level":"3","ref:rspo":30301,"official_name":"Liceum Dwuj\u0119zyczne Z Oddzia\u0142ami Mi\u0119dzynarodowymi International School Of Pozna\u0144","name":"Liceum Dwuj\u0119zyczne Z Oddzia\u0142ami Mi\u0119dzynarodowymi International School Of Pozna\u0144","addr:country":"PL","addr:postcode":"60-147","addr:city":"Pozna\u0144","addr:street":"ul. Edmunda Taczanowskiego","addr:housenumber":"18","addr:teryt:simc":22598,"addr:teryt:sym_ul":969416,"contact:phone":"+48 616463760","contact:email":"info@isop.pl","contact:website":"http:\/\/www.isop.pl","ref:regon":"302248752","operator":"Fundacja International School Of Poznan","operator:type":"ngo","amenity":"school"}},{"id":73024,"type":"Feature","geometry":{"type":"Point","coordinates":[16.87008,52.39098]},"properties":{"isced:level":"1;2","ref:rspo":73024,"official_name":"Szko\u0142a Podstawowa International School Of Poznan","name":"Szko\u0142a Podstawowa International School Of Poznan","addr:country":"PL","addr:postcode":"60-147","addr:city":"Pozna\u0144","addr:street":"ul. Edmunda Taczanowskiego","addr:housenumber":"18","addr:teryt:simc":22598,"addr:teryt:sym_ul":969416,"contact:phone":"+48 616463760","contact:email":"info@isop.pl","contact:website":"http:\/\/www.isop.pl","ref:regon":"302259632","operator":"Fundacja International School Of Poznan","operator:type":"ngo","amenity":"school"}},{"id":83007,"type":"Feature","geometry":{"type":"Point","coordinates":[16.84752,52.39126]},"properties":{"ref:rspo":83007,"official_name":"Niepubliczne Przedszkole Stumilowy Las","name":"Niepubliczne Przedszkole Stumilowy Las","addr:country":"PL","addr:postcode":"60-179","addr:city":"Pozna\u0144","addr:street":"ul. Jeleniog\u00f3rska","addr:housenumber":"1\/3B","addr:door":"lok. U3","addr:teryt:simc":7459,"addr:teryt:sym_ul":969416,"contact:phone":"+48 791172762","contact:email":"przedszkolestumilowylas@gmail.com","contact:website":"http:\/\/www.stumilowy-las.pl","ref:regon":"302271610","operator":"Pawe\u0142 Przybylski","operator:type":"private","amenity":"kindergarten"}},{"id":58368,"type":"Feature","geometry":{"type":"Point","coordinates":[16.90288,52.39141]},"properties":{"ref:rspo":58368,"official_name":"Przedszkole Nr 48","name":"Przedszkole Nr 48","addr:country":"PL","addr:postcode":"60-729","addr:city":"Pozna\u0144","addr:street":"ul. J\u00f3zefa \u0141ukaszewicza","addr:housenumber":"35","addr:teryt:simc":11761,"addr:teryt:sym_ul":969416,"contact:phone":"+48 507744620","contact:email":"p48@poznan.interklasa.pl","contact:website":"http:\/\/www.p48-poznan.pl","ref:regon":"301636736","ref:vatin":"PL7792386555","operator":"Miasto Pozna\u0144","operator:type":"government","amenity":"kindergarten"}},{"id":269227,"type":"Feature","geometry":{"type":"Point","coordinates":[16.83944,52.39146]},"properties":{"ref:rspo":269227,"official_name":"Przedszkole \"Na Tropie\"","name":"Przedszkole \"Na Tropie\"","addr:country":"PL","addr:postcode":"60-178","addr:city":"Pozna\u0144","addr:street":"ul. \u015acinawska","addr:housenumber":"58","addr:teryt:simc":22302,"addr:teryt:sym_ul":969416,"contact:phone":"+48 504281884","contact:email":"info.natropie@gmail.com","ref:regon":"381406706","operator":"\"Fundacja Gutta\"","operator:type":"ngo","amenity":"kindergarten"}},{"id":272650,"type":"Feature","geometry":{"type":"Point","coordinates":[16.8572713,52.3915034]},"properties":{"ref:rspo":272650,"official_name":"Niepubliczne Dwuj\u0119zyczne Przedszkole Kids&Co. Nr 2","name":"Niepubliczne Dwuj\u0119zyczne Przedszkole Kids&Co. Nr 2","addr:country":"PL","addr:postcode":"60-166","addr:city":"Pozna\u0144","addr:street":"ul. Grunwaldzka","addr:housenumber":"186","addr:teryt:simc":6260,"addr:teryt:sym_ul":969416,"contact:email":"katarzyna.sentzel@kids-co.pl","ref:regon":"384295294","operator":"Centrum Rozwoju Dziecka Sp\u00f3\u0142ka Z Ograniczon\u0105 Odpowiedzialno\u015bci\u0105","operator:type":"private","amenity":"kindergarten"}},{"id":124630,"type":"Feature","geometry":{"type":"Point","coordinates":[16.8575147,52.3916501]},"properties":{"ref:rspo":124630,"official_name":"Przedszkole Niepubliczne Wow","name":"Przedszkole Niepubliczne Wow","addr:country":"PL","addr:postcode":"60-166","addr:city":"Pozna\u0144","addr:street":"ul. Grunwaldzka","addr:housenumber":"182","addr:teryt:simc":6260,"addr:teryt:sym_ul":969416,"contact:phone":"+48 601463988","contact:email":"natalia.zwierzynska@allegro.pl","ref:regon":"302815270","operator":"Allegro.pl Sp\u00f3\u0142ka Z Ograniczon\u0105 Odpowiedzialno\u015bci\u0105","operator:type":"private","amenity":"kindergarten"}},{"id":124629,"type":"Feature","geometry":{"type":"Point","coordinates":[16.84645,52.39204]},"properties":{"ref:rspo":124629,"official_name":"Niepubliczne Przedszkole \"Stumilowy Las - Le\u015bni Przyjaciele\"","name":"Niepubliczne Przedszkole \"Stumilowy Las - Le\u015bni Przyjaciele\"","addr:country":"PL","addr:postcode":"60-179","addr:city":"Pozna\u0144","addr:street":"ul. Jeleniog\u00f3rska","addr:housenumber":"7","addr:teryt:simc":7459,"addr:teryt:sym_ul":969416,"contact:phone":"+48 660445700","contact:email":"pozmedi@gmail.com","ref:regon":"302815085","operator":"Pozmedi Sp\u00f3\u0142ka Z Ograniczon\u0105 Odpowiedzialno\u015bci\u0105","operator:type":"private","amenity":"kindergarten"}},{"id":18832,"type":"Feature","geometry":{"type":"Point","coordinates":[16.86377,52.39223]},"properties":{"ref:rspo":18832,"official_name":"Sew Consulting","name":"Sew Consulting","addr:country":"PL","addr:postcode":"60-158","addr:city":"Pozna\u0144","addr:street":"ul. Jana Keplera","addr:housenumber":"4g","addr:door":"24","addr:teryt:simc":8323,"addr:teryt:sym_ul":969416,"contact:phone":"+48 616417064","ref:regon":"302222770","operator":"Sebastian Wrzecian","operator:type":"private","fixme":"w zale\u017cno\u015bci od przedmiotu dzia\u0142alno\u015bci (np. amenity=training + training=*, amenity=dancing_school, amenity=language_school, amenity=music_school)"}},{"id":266309,"type":"Feature","geometry":{"type":"Point","coordinates":[16.8939,52.39246]},"properties":{"ref:rspo":266309,"official_name":"At-3 Szkolenia","name":"At-3 Szkolenia","addr:country":"PL","addr:postcode":"60-212","addr:city":"Pozna\u0144","addr:street":"ul. Gustawa Potworowskiego","addr:housenumber":"11","addr:teryt:simc":17314,"addr:teryt:sym_ul":969416,"contact:phone":"+48 604967670","contact:email":"biuro@at3.com.pl","ref:regon":"369413319","operator":"At3 Sp\u00f3\u0142ka Z Ograniczon\u0105 Odpowiedzialno\u015bci\u0105","operator:type":"private","fixme":"w zale\u017cno\u015bci od przedmiotu dzia\u0142alno\u015bci (np. amenity=training + training=*, amenity=dancing_school, amenity=language_school, amenity=music_school)"}},{"id":77942,"type":"Feature","geometry":{"type":"Point","coordinates":[16.90103,52.39252]},"properties":{"ref:rspo":77942,"official_name":"Przedszkole Nr 44 im. Janusza Korczaka","name":"Przedszkole Nr 44","addr:country":"PL","addr:postcode":"60-222","addr:city":"Pozna\u0144","addr:street":"ul. Romana Dmowskiego","addr:housenumber":"17","addr:teryt:simc":3868,"addr:teryt:sym_ul":969416,"contact:phone":"+48 618663980","contact:email":"ps44@o2.pl","ref:regon":"301636720","ref:vatin":"PL7792386549","operator":"Miasto Pozna\u0144","operator:type":"government","amenity":"kindergarten"}},{"id":77940,"type":"Feature","geometry":{"type":"Point","coordinates":[16.89764,52.39256]},"properties":{"ref:rspo":77940,"official_name":"Przedszkole Nr 25","name":"Przedszkole Nr 25","addr:country":"PL","addr:postcode":"60-265","addr:city":"Pozna\u0144","addr:street":"ul. G\u0142ogowska","addr:housenumber":"97","addr:teryt:simc":5614,"addr:teryt:sym_ul":969416,"contact:phone":"+48 618665957","contact:email":"p25@poznan.interklasa.pl","contact:website":"http:\/\/p25-poznan.pl","ref:regon":"301631377","ref:vatin":"PL7792386325","operator":"Miasto Pozna\u0144","operator:type":"government","amenity":"kindergarten"}},{"id":82927,"type":"Feature","geometry":{"type":"Point","coordinates":[16.84522,52.39263]},"properties":{"ref:rspo":82927,"official_name":"Zak\u0142ad Doskonalenia Zawodowego Centrum Kszta\u0142cenia w Poznaniu","name":"Zak\u0142ad Doskonalenia Zawodowego Centrum Kszta\u0142cenia w Poznaniu","addr:country":"PL","addr:postcode":"60-179","addr:city":"Pozna\u0144","addr:street":"ul. Kamiennog\u00f3rska","addr:housenumber":"22D","addr:door":"3","addr:teryt:simc":7887,"addr:teryt:sym_ul":969416,"contact:phone":"+48 618685417","ref:regon":"302266483","operator":"Zak\u0142ad Doskonalenia Zawodowego","operator:type":"ngo","fixme":"w zale\u017cno\u015bci od przedmiotu dzia\u0142alno\u015bci (np. amenity=training + training=*, amenity=dancing_school, amenity=language_school, amenity=music_school)"}},{"id":125366,"type":"Feature","geometry":{"type":"Point","coordinates":[16.89199,52.39267]},"properties":{"ref:rspo":125366,"official_name":"Niepubliczna Poradnia Psychologiczno-Pedagogiczna \n\"Ma\u0142y Piesek Zuzi\"","name":"Niepubliczna Poradnia Psychologiczno-Pedagogiczna \n\"Ma\u0142y Piesek Zuzi\"","addr:country":"PL","addr:postcode":"60-239","addr:city":"Pozna\u0144","addr:street":"ul. Kazimierza Jarochowskiego","addr:housenumber":"44","addr:teryt:simc":7251,"addr:teryt:sym_ul":969416,"contact:phone":"+48 504002071","ref:regon":"302832497","operator":"Fundacja Na Rzecz Wspomagania Rehabilitacji I Szerzenia Wiedzy Kynologicznej \"Ma\u0142y Piesek Zuzi\"","operator:type":"ngo","healthcare":"councelling","counselling_type":"education","fixme":"w zale\u017cno\u015bci od przedmiotu dzia\u0142alno\u015bci (np. healthcare=councelling + counselling_type=education albo healthcare=psychotherapist)"}},{"id":128196,"type":"Feature","geometry":{"type":"Point","coordinates":[16.89199,52.39264]},"properties":{"ref:rspo":128196,"official_name":"Centrum Edukacji Kynologicznej Psia Wachta","name":"Centrum Edukacji Kynologicznej Psia Wachta","addr:country":"PL","addr:postcode":"60-239","addr:city":"Pozna\u0144","addr:street":"ul. Kazimierza Jarochowskiego","addr:housenumber":"44","addr:teryt:simc":7251,"addr:teryt:sym_ul":969416,"contact:phone":"+48 697779935","ref:regon":"362168408","operator":"Fundacja Psia Wachta","operator:type":"ngo","fixme":"w zale\u017cno\u015bci od przedmiotu dzia\u0142alno\u015bci (np. amenity=training + training=*, amenity=dancing_school, amenity=language_school, amenity=music_school)"}},{"id":12180,"type":"Feature","geometry":{"type":"Point","coordinates":[16.89472,52.39275]},"properties":{"isced:level":"4","ref:rspo":12180,"official_name":"Niepubliczna Policealna Szko\u0142a Sztuk Pi\u0119knych Sowa-Edu w Poznaniu","name":"Niepubliczna Policealna Szko\u0142a Sztuk Pi\u0119knych Sowa-Edu w Poznaniu","addr:country":"PL","addr:postcode":"60-236","addr:city":"Pozna\u0144","addr:street":"ul. Marcina Kasprzaka","addr:housenumber":"22A","addr:teryt:simc":8157,"addr:teryt:sym_ul":969416,"contact:phone":"+48 618653847","ref:regon":"302208965","operator":"Sowa","operator:type":"private","amenity":"college"}},{"id":85478,"type":"Feature","geometry":{"type":"Point","coordinates":[16.8965,52.39287]},"properties":{"isced:level":"3","ref:rspo":85478,"official_name":"Publiczne Liceum Og\u00f3lnokszta\u0142c\u0105ce Ksw im. B\u0142. Natalii Tu\u0142asiewicz w Poznaniu","name":"Publiczne Liceum Og\u00f3lnokszta\u0142c\u0105ce Ksw","addr:country":"PL","addr:postcode":"60-262","addr:city":"Pozna\u0144","addr:street":"ul. G\u0142ogowska","addr:housenumber":"92","addr:teryt:simc":5614,"addr:teryt:sym_ul":969416,"contact:phone":"+48 616622429","contact:email":"sekretariat@dobreliceum.pl","contact:website":"http:\/\/dobreliceum.pl","ref:regon":"302272816","operator":"Katolickie Stowarzyszenie Wychowawc\u00f3w - Oddzia\u0142 W Poznaniu","operator:type":"ngo","amenity":"school"}},{"id":262650,"type":"Feature","geometry":{"type":"Point","coordinates":[16.8965,52.39284]},"properties":{"isced:level":"1;2","ref:rspo":262650,"official_name":"Katolicka Szko\u0142a Podstawowa im. \u015aw. Stanis\u0142awa Kostki w Poznaniu","name":"Katolicka Szko\u0142a Podstawowa","addr:country":"PL","addr:postcode":"60-262","addr:city":"Pozna\u0144","addr:street":"ul. G\u0142ogowska","addr:housenumber":"92","addr:teryt:simc":5614,"addr:teryt:sym_ul":969416,"contact:phone":"+48 616622429","contact:email":"sekretariat@dobrasp.pl","contact:website":"http:\/\/dobrasp.pl","ref:regon":"368047350","operator":"Archidiecezja Pozna\u0144ska","operator:type":"religious","amenity":"school"}},{"id":127050,"type":"Feature","geometry":{"type":"Point","coordinates":[16.86655,52.3929]},"properties":{"ref:rspo":127050,"official_name":"Carrots And Peas Punkt Przedszkolny","name":"Carrots And Peas Punkt Przedszkolny","addr:country":"PL","addr:postcode":"60-153","addr:city":"Pozna\u0144","addr:street":"ul. Listopadowa","addr:housenumber":"22","addr:teryt:simc":11211,"addr:teryt:sym_ul":969416,"contact:email":"carrotsandpeaspoznan@gmail.com","ref:regon":"361071285","operator":"Joanna Stephenson","operator:type":"private","amenity":"kindergarten"}},{"id":72685,"type":"Feature","geometry":{"type":"Point","coordinates":[16.85986,52.3930999]},"properties":{"isced:level":"1;2","ref:rspo":72685,"official_name":"Spo\u0142eczna Szko\u0142a Podstawowa Nr 1 im. \u015aw. Urszuli Led\u00f3chowskiej","name":"Spo\u0142eczna Szko\u0142a Podstawowa Nr 1","addr:country":"PL","addr:postcode":"60-309","addr:city":"Pozna\u0144","addr:street":"ul. Grunwaldzka","addr:housenumber":"154","addr:teryt:simc":6260,"addr:teryt:sym_ul":969416,"contact:phone":"+48 618676812","contact:email":"sekretariat@spolecznajedynka.pl","contact:website":"http:\/\/www.spolecznajedynka.pl","ref:regon":"302263220","operator":"Samodzielne Ko\u0142o Terenowe Nr 15 Spo\u0142ecznego Towarzystwa O\u015bwiatowego","operator:type":"cooperative","amenity":"school"}},{"id":265043,"type":"Feature","geometry":{"type":"Point","coordinates":[16.89339,52.39319]},"properties":{"ref:rspo":265043,"official_name":"Niepubliczna Poradnia Psychologiczno-Pedagogiczna \"Pom\u00f3\u017c Zrozumie\u0107\"","name":"Niepubliczna Poradnia Psychologiczno-Pedagogiczna \"Pom\u00f3\u017c Zrozumie\u0107\"","addr:country":"PL","addr:postcode":"60-214","addr:city":"Pozna\u0144","addr:street":"ul. Wojciecha Bogus\u0142awskiego","addr:housenumber":"22","addr:door":"3","addr:teryt:simc":1608,"addr:teryt:sym_ul":969416,"contact:phone":"+48 607923093","contact:email":"dorota@pomozzrozumiec.pl","contact:website":"http:\/\/www.pomozzrozumiec.pl","ref:regon":"368563070","operator":"Fundacja \"Pom\u00f3\u017c Zrozumie\u0107\"","operator:type":"ngo","healthcare":"councelling","counselling_type":"education","fixme":"w zale\u017cno\u015bci od przedmiotu dzia\u0142alno\u015bci (np. healthcare=councelling + counselling_type=education albo healthcare=psychotherapist)"}},{"id":27718,"type":"Feature","geometry":{"type":"Point","coordinates":[16.89725,52.39325]},"properties":{"ref:rspo":27718,"official_name":"Zesp\u00f3\u0142 Szk\u00f3\u0142 Muzycznych w Poznaniu","name":"Zesp\u00f3\u0142 Szk\u00f3\u0142 Muzycznych w Poznaniu","addr:country":"PL","addr:postcode":"60-262","addr:city":"Pozna\u0144","addr:street":"ul. G\u0142ogowska","addr:housenumber":"90","addr:teryt:simc":5614,"addr:teryt:sym_ul":969416,"contact:phone":"+48 618666129","contact:email":"sekretariat@zsm.poznan.pl","contact:website":"http:\/\/zsm.poznan.pl","ref:regon":"000276788","operator":"Ministerstwo Kultury I Dziedzictwa Narodowego","operator:type":"public","landuse":"education","fixme":"amenity=school, amenity=college albo landuse=education w zale\u017cno\u015bci od tego, jakie plac\u00f3wki wchodz\u0105 w sk\u0142ad zespo\u0142u. Sprawd\u017a, kiedy stosowa\u0107 amenity=* a kiedy landuse=education.","note":"Children RSPO: 104243;104279;104280;104281"}},{"id":104243,"type":"Feature","geometry":{"type":"Point","coordinates":[16.89725,52.39322]},"properties":{"isced:level":"4","ref:rspo":104243,"official_name":"Policealne Studium Piosenkarskie im. Czes\u0142awa Niemena w Poznaniu","name":"Policealne Studium Piosenkarskie","addr:country":"PL","addr:postcode":"60-262","addr:city":"Pozna\u0144","addr:street":"ul. G\u0142ogowska","addr:housenumber":"90","addr:teryt:simc":5614,"addr:teryt:sym_ul":969416,"contact:phone":"+48 618666129","ref:regon":"634345219","operator":"Ministerstwo Kultury I Dziedzictwa Narodowego","operator:type":"public","amenity":"college","note":"Parent RSPO: 27718"}},{"id":104279,"type":"Feature","geometry":{"type":"Point","coordinates":[16.89725,52.393190000000004]},"properties":{"ref:rspo":104279,"official_name":"Pa\u0144stwowa Szko\u0142a Muzyczna II St. im. Fryderyka Chopina w Poznaniu","name":"Pa\u0144stwowa Szko\u0142a Muzyczna II St.","addr:country":"PL","addr:postcode":"60-262","addr:city":"Pozna\u0144","addr:street":"ul. G\u0142ogowska","addr:housenumber":"90","addr:teryt:simc":5614,"addr:teryt:sym_ul":969416,"contact:phone":"+48 618666129","ref:regon":"634345194","operator":"Ministerstwo Kultury I Dziedzictwa Narodowego","operator:type":"public","amenity":"music_school","note":"Parent RSPO: 27718"}},{"id":104280,"type":"Feature","geometry":{"type":"Point","coordinates":[16.89725,52.39316]},"properties":{"isced:level":"3","ref:rspo":104280,"official_name":"Og\u00f3lnokszta\u0142c\u0105ca Szko\u0142a Muzyczna II St. im. Jadwigi Kaliszewskiej w Poznaniu","name":"Og\u00f3lnokszta\u0142c\u0105ca Szko\u0142a Muzyczna II St.","addr:country":"PL","addr:postcode":"60-262","addr:city":"Pozna\u0144","addr:street":"ul. G\u0142ogowska","addr:housenumber":"90","addr:teryt:simc":5614,"addr:teryt:sym_ul":969416,"contact:phone":"+48 618666129","contact:email":"sekretariat@zsm.poznan.pl","contact:website":"http:\/\/www.zsm.poznan.pl","ref:regon":"634345202","operator":"Ministerstwo Kultury I Dziedzictwa Narodowego","operator:type":"public","amenity":"school","note":"Parent RSPO: 27718"}},{"id":104281,"type":"Feature","geometry":{"type":"Point","coordinates":[16.89725,52.39313]},"properties":{"ref:rspo":104281,"official_name":"Pa\u0144stwowa Szko\u0142a Muzyczna I St. im. Karola Kurpi\u0144skiego w Poznaniu","name":"Pa\u0144stwowa Szko\u0142a Muzyczna I St.","addr:country":"PL","addr:postcode":"60-262","addr:city":"Pozna\u0144","addr:street":"ul. G\u0142ogowska","addr:housenumber":"90","addr:teryt:simc":5614,"addr:teryt:sym_ul":969416,"contact:phone":"+48 618666129","ref:regon":"634345188","operator":"Ministerstwo Kultury I Dziedzictwa Narodowego","operator:type":"public","amenity":"music_school","note":"Parent RSPO: 27718"}},{"id":77943,"type":"Feature","geometry":{"type":"Point","coordinates":[16.88839,52.39337]},"properties":{"ref:rspo":77943,"official_name":"Przedszkole Nr 32 \"\u015awierszczykowe Nutki\"","name":"Przedszkole Nr 32 \"\u015awierszczykowe Nutki\"","addr:country":"PL","addr:postcode":"60-259","addr:city":"Pozna\u0144","addr:street":"ul. J\u00f3zefa Chociszewskiego","addr:housenumber":"44c","addr:teryt:simc":2792,"addr:teryt:sym_ul":969416,"contact:phone":"+48 618663626","contact:email":"swierszczykowe_nutki@poczta.onet.pl","ref:regon":"301622326","ref:vatin":"PL7792385886","operator":"Miasto Pozna\u0144","operator:type":"government","amenity":"kindergarten"}},{"id":121709,"type":"Feature","geometry":{"type":"Point","coordinates":[16.86069,52.3936599]},"properties":{"ref:rspo":121709,"official_name":"Zesp\u00f3\u0142 Szk\u00f3\u0142 Budowlanych","name":"Zesp\u00f3\u0142 Szk\u00f3\u0142 Budowlanych","addr:country":"PL","addr:postcode":"60-309","addr:city":"Pozna\u0144","addr:street":"ul. Grunwaldzka","addr:housenumber":"152","addr:teryt:simc":6260,"addr:teryt:sym_ul":969416,"contact:phone":"+48 616618888","contact:email":"sekretariat@zsb.com.pl","ref:regon":"000250518","operator":"Wielkopolska Izba Budownictwa","operator:type":"cooperative","landuse":"education","fixme":"amenity=school, amenity=college albo landuse=education w zale\u017cno\u015bci od tego, jakie plac\u00f3wki wchodz\u0105 w sk\u0142ad zespo\u0142u. Sprawd\u017a, kiedy stosowa\u0107 amenity=* a kiedy landuse=education.","note":"Children RSPO: 80335;83103"}},{"id":80335,"type":"Feature","geometry":{"type":"Point","coordinates":[16.86069,52.3936299]},"properties":{"isced:level":"3","ref:rspo":80335,"official_name":"Zesp\u00f3\u0142 Szk\u00f3\u0142 Budowlanych - Technikum im. Rogera S\u0142awskiego","name":"Zesp\u00f3\u0142 Szk\u00f3\u0142 Budowlanych - Technikum","addr:country":"PL","addr:postcode":"60-309","addr:city":"Pozna\u0144","addr:street":"ul. Grunwaldzka","addr:housenumber":"152","addr:teryt:simc":6260,"addr:teryt:sym_ul":969416,"contact:phone":"+48 616618888","contact:email":"sekretariat@zsb.com.pl","ref:regon":"302265213","operator":"Wielkopolska Izba Budownictwa","operator:type":"cooperative","amenity":"school","note":"Parent RSPO: 121709"}},{"id":83103,"type":"Feature","geometry":{"type":"Point","coordinates":[16.86069,52.393599900000005]},"properties":{"isced:level":"3","ref:rspo":83103,"official_name":"Zesp\u00f3\u0142 Szk\u00f3\u0142 Budowlanych - Bran\u017cowa Szko\u0142a I Stopnia im. Rogera S\u0142awskiego","name":"Zesp\u00f3\u0142 Szk\u00f3\u0142 Budowlanych - Bran\u017cowa Szko\u0142a I Stopnia","addr:country":"PL","addr:postcode":"60-309","addr:city":"Pozna\u0144","addr:street":"ul. Grunwaldzka","addr:housenumber":"152","addr:teryt:simc":6260,"addr:teryt:sym_ul":969416,"contact:phone":"+48 616618888","contact:email":"sekretariat@zsb.com.pl","contact:website":"http:\/\/www.zsb.com.pl","ref:regon":"302267034","operator":"Wielkopolska Izba Budownictwa","operator:type":"cooperative","amenity":"school","note":"Parent RSPO: 121709"}},{"id":122627,"type":"Feature","geometry":{"type":"Point","coordinates":[16.89545,52.39389]},"properties":{"ref:rspo":122627,"official_name":"Centrum Edukacji Regionalnego Oddzia\u0142u Krajowej Izby Bieg\u0142ych Rewident\u00f3w w Poznaniu","name":"Centrum Edukacji Regionalnego Oddzia\u0142u Krajowej Izby Bieg\u0142ych Rewident\u00f3w w Poznaniu","addr:country":"PL","addr:postcode":"60-239","addr:city":"Pozna\u0144","addr:street":"ul. Franciszka Morawskiego","addr:housenumber":"1","addr:teryt:simc":13272,"addr:teryt:sym_ul":969416,"contact:phone":"+48 603038341","ref:regon":"302687440","operator":"Polska Izba Bieg\u0142ych Rewident\u00f3w","operator:type":"cooperative","fixme":"w zale\u017cno\u015bci od przedmiotu dzia\u0142alno\u015bci (np. amenity=training + training=*, amenity=dancing_school, amenity=language_school, amenity=music_school)"}},{"id":80784,"type":"Feature","geometry":{"type":"Point","coordinates":[16.9033826,52.3944188]},"properties":{"isced:level":"1;2","ref:rspo":80784,"official_name":"Szko\u0142a Podstawowa Nr 9 im. Dra Franciszka Witaszka","name":"Szko\u0142a Podstawowa Nr 9","addr:country":"PL","addr:postcode":"60-726","addr:city":"Pozna\u0144","addr:street":"ul. J\u00f3zefa \u0141ukaszewicza","addr:housenumber":"9","addr:door":"13","addr:teryt:simc":11761,"addr:teryt:sym_ul":969416,"contact:phone":"+48 618663365","contact:email":"sekretariat@sp9.eu","contact:website":"https:\/\/sp9poznan.edupage.org\/","ref:regon":"000230616","ref:vatin":"PL7791487751","operator":"Miasto Pozna\u0144","operator:type":"government","amenity":"school"}},{"id":113718,"type":"Feature","geometry":{"type":"Point","coordinates":[16.87059,52.39457]},"properties":{"ref:rspo":113718,"official_name":"Centrum Doskonalenia Nauczycieli Alma S.c. Maria Fryska, Justyna Fryska","name":"Centrum Doskonalenia Nauczycieli Alma S.c. Maria Fryska, Justyna Fryska","addr:country":"PL","addr:postcode":"60-153","addr:city":"Pozna\u0144","addr:street":"ul. Listopadowa","addr:housenumber":"1","addr:teryt:simc":11211,"addr:teryt:sym_ul":969416,"contact:phone":"+48 660795316","ref:regon":"302399959","operator":"Dane Do Uzupe\u0142nienia","operator:type":"private","amenity":"training"}},{"id":50403,"type":"Feature","geometry":{"type":"Point","coordinates":[16.88412,52.39486]},"properties":{"isced:level":"1;2","ref:rspo":50403,"official_name":"Szko\u0142a Podstawowa Nr 90 im. Hrabiego W\u0142adys\u0142awa Zamoyskiego","name":"Szko\u0142a Podstawowa Nr 90","addr:country":"PL","addr:postcode":"60-261","addr:city":"Pozna\u0144","addr:street":"ul. J\u00f3zefa Chociszewskiego","addr:housenumber":"56","addr:teryt:simc":2792,"addr:teryt:sym_ul":969416,"contact:phone":"+48 618672067","contact:email":"spnr90@wp.pl","contact:website":"http:\/\/www.sp90.idsl.pl","ref:regon":"000247232","ref:vatin":"PL7791427648","operator":"Miasto Pozna\u0144","operator:type":"government","amenity":"school"}},{"id":132558,"type":"Feature","geometry":{"type":"Point","coordinates":[16.87841,52.3958299]},"properties":{"ref:rspo":132558,"official_name":"Przedszkole Cytryna","name":"Przedszkole Cytryna","addr:country":"PL","addr:postcode":"60-286","addr:city":"Pozna\u0144","addr:street":"ul. S\u0142oneczna","addr:housenumber":"19","addr:teryt:simc":20254,"addr:teryt:sym_ul":969416,"contact:phone":"+48 795663061","contact:email":"biuro@przedszkolecytryna.com","ref:regon":"365774658","operator":"Maciej \u015awiderek","operator:type":"private","amenity":"kindergarten"}},{"id":264479,"type":"Feature","geometry":{"type":"Point","coordinates":[16.87841,52.3957999]},"properties":{"ref:rspo":264479,"official_name":"Punkt Przedszkolny Cytryna","name":"Punkt Przedszkolny Cytryna","addr:country":"PL","addr:postcode":"60-286","addr:city":"Pozna\u0144","addr:street":"ul. S\u0142oneczna","addr:housenumber":"19","addr:teryt:simc":20254,"addr:teryt:sym_ul":969416,"contact:phone":"+48 531261956","contact:email":"biuro@przedszkolecytryna.com","contact:website":"http:\/\/www.przedszkolecytryna.com","ref:regon":"368360503","operator":"Maciej \u015awiderek","operator:type":"private","amenity":"kindergarten"}},{"id":26323,"type":"Feature","geometry":{"type":"Point","coordinates":[16.8659399,52.39591]},"properties":{"isced:level":"4","ref:rspo":26323,"official_name":"Policealne Studium Farmaceutyczne w Poznaniu","name":"Policealne Studium Farmaceutyczne w Poznaniu","addr:country":"PL","addr:postcode":"60-304","addr:city":"Pozna\u0144","addr:street":"ul. Piotra \u015aciegiennego","addr:housenumber":"134","addr:teryt:simc":22291,"addr:teryt:sym_ul":969416,"contact:phone":"+48 618673416","ref:regon":"302238038","operator":"Wy\u017csza Szko\u0142a Zawodowa \"Oeconomicus\" Polskiego Towarzystwa Ekonomicznego","operator:type":"private","amenity":"college"}},{"id":83115,"type":"Feature","geometry":{"type":"Point","coordinates":[16.8659399,52.39588]},"properties":{"isced:level":"3","ref:rspo":83115,"official_name":"Publiczne Liceum Og\u00f3lnokszta\u0142c\u0105ce dla Doros\u0142ych Fundacji Bahta\u0142e Roma","name":"Publiczne Liceum Og\u00f3lnokszta\u0142c\u0105ce dla Doros\u0142ych Fundacji Bahta\u0142e Roma","addr:country":"PL","addr:postcode":"60-304","addr:city":"Pozna\u0144","addr:street":"ul. Piotra \u015aciegiennego","addr:housenumber":"134","addr:teryt:simc":22291,"addr:teryt:sym_ul":969416,"contact:phone":"+48 618673416","contact:email":"bahtale_roma@wp.pl","contact:website":"http:\/\/www.fundacjaszkoly.pl","ref:regon":"302271975","operator":"\"Bahta\u0142e Roma\"","operator:type":"ngo","amenity":"school"}},{"id":60558,"type":"Feature","geometry":{"type":"Point","coordinates":[16.89648,52.39725]},"properties":{"ref:rspo":60558,"official_name":"Przedszkole Nr 39 \"Le\u015bne Ludki\"","name":"Przedszkole Nr 39 \"Le\u015bne Ludki\"","addr:country":"PL","addr:postcode":"60-744","addr:city":"Pozna\u0144","addr:street":"ul. Boles\u0142awa Limanowskiego","addr:housenumber":"23b","addr:teryt:simc":11074,"addr:teryt:sym_ul":969416,"contact:phone":"+48 618666621","contact:email":"p39@poznan.interklasa.pl","contact:website":"http:\/\/lesneludki39.poznan.pl\/","ref:regon":"301618052","ref:vatin":"PL7792385834","operator":"Miasto Pozna\u0144","operator:type":"government","amenity":"kindergarten"}},{"id":262991,"type":"Feature","geometry":{"type":"Point","coordinates":[16.90401,52.39733]},"properties":{"ref:rspo":262991,"official_name":"O\u015brodek Rehabilitacyjno-Edukacyjno-Wychowawczy Ja\u015b I Ma\u0142gosia","name":"O\u015brodek Rehabilitacyjno-Edukacyjno-Wychowawczy Ja\u015b I Ma\u0142gosia","addr:country":"PL","addr:postcode":"60-706","addr:city":"Pozna\u0144","addr:street":"ul. Antoniego Ma\u0142eckiego","addr:housenumber":"8","addr:door":"9","addr:teryt:simc":12143,"addr:teryt:sym_ul":969416,"contact:phone":"+48 503395265","contact:email":"biuro@fikk.pl","contact:website":"http:\/\/www.orew.pl","ref:regon":"368084500","operator":"\"Ja\u015b I Ma\u0142gosia\" Szko\u0142y I Plac\u00f3wki Terapeutyczne","operator:type":"ngo","amenity":"school"}},{"id":58371,"type":"Feature","geometry":{"type":"Point","coordinates":[16.87387,52.39765]},"properties":{"ref:rspo":58371,"official_name":"Przedszkole Nr 46","name":"Przedszkole Nr 46","addr:country":"PL","addr:postcode":"60-281","addr:city":"Pozna\u0144","addr:street":"ul. Ksi\u0119\u017cycowa","addr:housenumber":"10","addr:teryt:simc":10268,"addr:teryt:sym_ul":969416,"contact:phone":"+48 616791638","contact:email":"poczta@przedszkole46.poznan.pl","contact:website":"http:\/\/www.przedszkole46.poznan.pl","ref:regon":"301623231","ref:vatin":"PL7792386070","operator":"Miasto Pozna\u0144","operator:type":"government","amenity":"kindergarten"}},{"id":20161,"type":"Feature","geometry":{"type":"Point","coordinates":[16.87787,52.39765]},"properties":{"ref:rspo":20161,"official_name":"Wielkopolska Akademia Nauki I Rozwoju - Jakub Micha\u0142owski","name":"Wielkopolska Akademia Nauki I Rozwoju - Jakub Micha\u0142owski","addr:country":"PL","addr:postcode":"60-277","addr:city":"Pozna\u0144","addr:street":"ul. Grochowska","addr:housenumber":"35","addr:teryt:simc":6137,"addr:teryt:sym_ul":969416,"contact:phone":"+48 616221221","ref:regon":"302226319","operator":"Jakub Micha\u0142owski","operator:type":"private","fixme":"w zale\u017cno\u015bci od przedmiotu dzia\u0142alno\u015bci (np. amenity=training + training=*, amenity=dancing_school, amenity=language_school, amenity=music_school)"}},{"id":23665,"type":"Feature","geometry":{"type":"Point","coordinates":[16.87787,52.397619999999996]},"properties":{"ref:rspo":23665,"official_name":"Wielkopolska Akademia Nauki I Rozwoju - Jakub Micha\u0142owski","name":"Wielkopolska Akademia Nauki I Rozwoju - Jakub Micha\u0142owski","addr:country":"PL","addr:postcode":"60-277","addr:city":"Pozna\u0144","addr:street":"ul. Grochowska","addr:housenumber":"35","addr:teryt:simc":6137,"addr:teryt:sym_ul":969416,"contact:phone":"+48 616221221","ref:regon":"302232538","operator":"Jakub Micha\u0142owski","operator:type":"private","fixme":"w zale\u017cno\u015bci od przedmiotu dzia\u0142alno\u015bci (np. amenity=training + training=*, amenity=dancing_school, amenity=language_school, amenity=music_school)"}},{"id":266990,"type":"Feature","geometry":{"type":"Point","coordinates":[16.87787,52.39759]},"properties":{"ref:rspo":266990,"official_name":"Wielkopolska Akademia Nauki I Rozwoju - Jakub Micha\u0142owski","name":"Wielkopolska Akademia Nauki I Rozwoju - Jakub Micha\u0142owski","addr:country":"PL","addr:postcode":"60-277","addr:city":"Pozna\u0144","addr:street":"ul. Grochowska","addr:housenumber":"35","addr:teryt:simc":6137,"addr:teryt:sym_ul":969416,"contact:phone":"+48 616221221","contact:email":"info@wanir.edu.pl","contact:website":"http:\/\/www.wanir.edu.pl","ref:regon":"369775554","operator":"Jakub Micha\u0142owski","operator:type":"private","healthcare":"councelling","counselling_type":"education","fixme":"w zale\u017cno\u015bci od przedmiotu dzia\u0142alno\u015bci (np. healthcare=councelling + counselling_type=education albo healthcare=psychotherapist)"}},{"id":77938,"type":"Feature","geometry":{"type":"Point","coordinates":[16.89529,52.39782]},"properties":{"ref:rspo":77938,"official_name":"Przedszkole Nr 90\nIm. Jana Brzechwy","name":"Przedszkole Nr 90\nIm. Jana Brzechwy","addr:country":"PL","addr:postcode":"60-246","addr:city":"Pozna\u0144","addr:street":"ul. Kazimierza Jarochowskiego","addr:housenumber":"9\/11","addr:teryt:simc":7251,"addr:teryt:sym_ul":969416,"contact:phone":"+48 618663409","contact:email":"p90@poznan.interklasa.pl","contact:website":"http:\/\/www.przedszkole90.poznan.pl","ref:regon":"301621284","ref:vatin":"PL7792385716","operator":"Miasto Pozna\u0144","operator:type":"government","amenity":"kindergarten","note":"Parent RSPO: 29599"}},{"id":77933,"type":"Feature","geometry":{"type":"Point","coordinates":[16.8667,52.39797]},"properties":{"ref:rspo":77933,"official_name":"Przedszkole Nr 47","name":"Przedszkole Nr 47","addr:country":"PL","addr:postcode":"60-326","addr:city":"Pozna\u0144","addr:street":"ul. Senatorska","addr:housenumber":"1","addr:teryt:simc":19677,"addr:teryt:sym_ul":969416,"contact:email":"p_47@wp.pl","contact:website":"http:\/\/www.przedszkole47.eu","ref:regon":"301624986","ref:vatin":"PL7792386118","operator":"Miasto Pozna\u0144","operator:type":"government","amenity":"kindergarten","note":"Parent RSPO: 275079"}},{"id":275079,"type":"Feature","geometry":{"type":"Point","coordinates":[16.86868,52.39809]},"properties":{"ref:rspo":275079,"official_name":"Zesp\u00f3\u0142 Przedszkoli Nr 2","name":"Zesp\u00f3\u0142 Przedszkoli Nr 2","addr:country":"PL","addr:postcode":"61-316","addr:city":"Pozna\u0144","addr:street":"ul. Kasztela\u0144ska","addr:housenumber":"19","addr:teryt:simc":8179,"addr:teryt:sym_ul":969416,"contact:phone":"+48 618671774","contact:email":"p83@poznan.interklasa.pl","ref:regon":"386552039","operator":"Miasto Pozna\u0144","operator:type":"government","landuse":"education","fixme":"amenity=school, amenity=college albo landuse=education w zale\u017cno\u015bci od tego, jakie plac\u00f3wki wchodz\u0105 w sk\u0142ad zespo\u0142u. Sprawd\u017a, kiedy stosowa\u0107 amenity=* a kiedy landuse=education.","note":"Children RSPO: 77933;77945"}},{"id":77945,"type":"Feature","geometry":{"type":"Point","coordinates":[16.86868,52.39806]},"properties":{"ref:rspo":77945,"official_name":"Przedszkole Nr 83 \"Zuch\"","name":"Przedszkole Nr 83 \"Zuch\"","addr:country":"PL","addr:postcode":"60-316","addr:city":"Pozna\u0144","addr:street":"ul. Kasztela\u0144ska","addr:housenumber":"19","addr:teryt:simc":8179,"addr:teryt:sym_ul":969416,"contact:phone":"+48 618671774","contact:email":"p83@poznan.interklasa.pl","contact:website":"http:\/\/przedszkole83.pl","ref:regon":"301622421","ref:vatin":"PL7792386319","operator":"Miasto Pozna\u0144","operator:type":"government","amenity":"kindergarten","note":"Parent RSPO: 275079"}},{"id":80786,"type":"Feature","geometry":{"type":"Point","coordinates":[16.864211,52.3984693]},"properties":{"isced:level":"1;2","ref:rspo":80786,"official_name":"Szko\u0142a Podstawowa Nr 74 im. Miko\u0142aja Kopernika","name":"Szko\u0142a Podstawowa Nr 74","addr:country":"PL","addr:postcode":"60-325","addr:city":"Pozna\u0144","addr:street":"ul. Trybunalska","addr:housenumber":"17","addr:door":"25","addr:teryt:simc":23038,"addr:teryt:sym_ul":969416,"contact:phone":"+48 618673340","contact:email":"info@sp74.pl","contact:website":"http:\/\/sp74.pl","ref:regon":"000245664","ref:vatin":"PL7791436417","operator":"Miasto Pozna\u0144","operator:type":"government","amenity":"school"}},{"id":58358,"type":"Feature","geometry":{"type":"Point","coordinates":[16.90356,52.3988299]},"properties":{"ref:rspo":58358,"official_name":"Przedszkole Nr 51","name":"Przedszkole Nr 51","addr:country":"PL","addr:postcode":"60-736","addr:city":"Pozna\u0144","addr:street":"ul. G\u0142ogowska","addr:housenumber":"40","addr:teryt:simc":5614,"addr:teryt:sym_ul":969416,"contact:phone":"+48 616709248","contact:email":"p51@poznan.interklasa.pl","contact:website":"http:\/\/www.przedszkole51.com","ref:regon":"301621048","ref:vatin":"PL7792385840","operator":"Miasto Pozna\u0144","operator:type":"government","amenity":"kindergarten"}},{"id":28554,"type":"Feature","geometry":{"type":"Point","coordinates":[16.89464,52.39891]},"properties":{"ref:rspo":28554,"official_name":"Zesp\u00f3\u0142 Szk\u00f3\u0142 Og\u00f3lnokszta\u0142c\u0105cych Nr 33","name":"Zesp\u00f3\u0142 Szk\u00f3\u0142 Og\u00f3lnokszta\u0142c\u0105cych Nr 33","addr:country":"PL","addr:postcode":"61-866","addr:city":"Pozna\u0144","addr:street":"ul. Stanis\u0142awa Wyspia\u0144skiego","addr:housenumber":"27","addr:teryt:simc":25084,"addr:teryt:sym_ul":969416,"contact:phone":"+48 618664226","contact:email":"sekretariat@33.poznan.pl","contact:website":"http:\/\/www.33.poznan.pl","ref:regon":"634570531","ref:vatin":"PL7792228810","operator":"Miasto Pozna\u0144","operator:type":"government","landuse":"education","fixme":"amenity=school, amenity=college albo landuse=education w zale\u017cno\u015bci od tego, jakie plac\u00f3wki wchodz\u0105 w sk\u0142ad zespo\u0142u. Sprawd\u017a, kiedy stosowa\u0107 amenity=* a kiedy landuse=education.","note":"Children RSPO: 91128;133661"}},{"id":91128,"type":"Feature","geometry":{"type":"Point","coordinates":[16.89464,52.39888]},"properties":{"isced:level":"3","ref:rspo":91128,"official_name":"Xxxiii Liceum Og\u00f3lnokszta\u0142c\u0105ce Z Oddzia\u0142ami Sportowymi","name":"Xxxiii Liceum Og\u00f3lnokszta\u0142c\u0105ce Z Oddzia\u0142ami Sportowymi","addr:country":"PL","addr:postcode":"60-751","addr:city":"Pozna\u0144","addr:street":"ul. Stanis\u0142awa Wyspia\u0144skiego","addr:housenumber":"27","addr:teryt:simc":25084,"addr:teryt:sym_ul":969416,"contact:phone":"+48 618664226","contact:email":"sekretariat@33.poznan.pl","contact:website":"http:\/\/www.33.poznan.pl","ref:regon":"300877142","operator":"Miasto Pozna\u0144","operator:type":"government","amenity":"school","note":"Parent RSPO: 28554"}},{"id":133661,"type":"Feature","geometry":{"type":"Point","coordinates":[16.89464,52.39885]},"properties":{"isced:level":"1;2","ref:rspo":133661,"official_name":"Szko\u0142a Podstawowa Nr 33 Z Oddzia\u0142ami Dwuj\u0119zycznymi I Sportowymi","name":"Szko\u0142a Podstawowa Nr 33 Z Oddzia\u0142ami Dwuj\u0119zycznymi I Sportowymi","addr:country":"PL","addr:postcode":"60-751","addr:city":"Pozna\u0144","addr:street":"ul. Stanis\u0142awa Wyspia\u0144skiego","addr:housenumber":"27","addr:teryt:simc":25084,"addr:teryt:sym_ul":969416,"contact:phone":"+48 618664226","contact:email":"sekretariat@33.poznan.pl","contact:website":"http:\/\/www.33.poznan.pl","ref:regon":"367522895","operator":"Miasto Pozna\u0144","operator:type":"government","amenity":"school","note":"Parent RSPO: 28554"}},{"id":49377,"type":"Feature","geometry":{"type":"Point","coordinates":[16.89739,52.39912]},"properties":{"isced:level":"3","ref:rspo":49377,"official_name":"Prywatne Liceum Og\u00f3lnokszta\u0142c\u0105ce dla Doros\u0142ych im. Juliusza Kossaka","name":"Prywatne Liceum Og\u00f3lnokszta\u0142c\u0105ce dla Doros\u0142ych","addr:country":"PL","addr:postcode":"60-759","addr:city":"Pozna\u0144","addr:street":"ul. Juliusza Kossaka","addr:housenumber":"3","addr:teryt:simc":9463,"addr:teryt:sym_ul":969416,"contact:phone":"+48 616611218","contact:email":"zespolszkolkossaka@op.pl","ref:regon":"302254988","operator":"Andrzej Cichy","operator:type":"private","amenity":"school"}},{"id":122985,"type":"Feature","geometry":{"type":"Point","coordinates":[16.89739,52.39909]},"properties":{"isced:level":"4","ref:rspo":122985,"official_name":"Prywatna Szko\u0142a Policealna w Poznaniu im. Juliusza Kossaka","name":"Prywatna Szko\u0142a Policealna w Poznaniu","addr:country":"PL","addr:postcode":"60-759","addr:city":"Pozna\u0144","addr:street":"ul. Juliusza Kossaka","addr:housenumber":"3","addr:teryt:simc":9463,"addr:teryt:sym_ul":969416,"contact:phone":"+48 616611165","ref:regon":"302718100","operator":"Andrzej Cichy","operator:type":"private","amenity":"college"}},{"id":126752,"type":"Feature","geometry":{"type":"Point","coordinates":[16.89739,52.399060000000006]},"properties":{"ref:rspo":126752,"official_name":"Zesp\u00f3\u0142 Szk\u00f3\u0142 \"Kossaka\"","name":"Zesp\u00f3\u0142 Szk\u00f3\u0142 \"Kossaka\"","addr:country":"PL","addr:postcode":"60-759","addr:city":"Pozna\u0144","addr:street":"ul. Juliusza Kossaka","addr:housenumber":"3","addr:teryt:simc":9463,"addr:teryt:sym_ul":969416,"contact:phone":"+48 616611218","ref:regon":"360704200","operator":"Andrzej Cichy","operator:type":"private","landuse":"education","fixme":"amenity=school, amenity=college albo landuse=education w zale\u017cno\u015bci od tego, jakie plac\u00f3wki wchodz\u0105 w sk\u0142ad zespo\u0142u. Sprawd\u017a, kiedy stosowa\u0107 amenity=* a kiedy landuse=education."}},{"id":262641,"type":"Feature","geometry":{"type":"Point","coordinates":[16.89739,52.39903]},"properties":{"isced:level":"1;2","ref:rspo":262641,"official_name":"Prywatna Szko\u0142a Podstawowa dla Doros\u0142ych im. Juliusza Kossaka","name":"Prywatna Szko\u0142a Podstawowa dla Doros\u0142ych","addr:country":"PL","addr:postcode":"61-759","addr:city":"Pozna\u0144","addr:street":"ul. Juliusza Kossaka","addr:housenumber":"3","addr:teryt:simc":9463,"addr:teryt:sym_ul":969416,"contact:phone":"+48 616611218","contact:email":"zespolszkolkossaka@op.pl","ref:regon":"368043688","operator":"Andrzej Cichy","operator:type":"private","amenity":"school"}},{"id":30977,"type":"Feature","geometry":{"type":"Point","coordinates":[16.86208,52.39916]},"properties":{"ref:rspo":30977,"official_name":"Publiczna Biblioteka Pedagogiczna w Poznaniu","name":"Publiczna Biblioteka Pedagogiczna w Poznaniu","addr:country":"PL","addr:postcode":"60-320","addr:city":"Pozna\u0144","addr:street":"ul. Bu\u0142garska","addr:housenumber":"19","addr:teryt:simc":2436,"addr:teryt:sym_ul":969416,"contact:phone":"+48 618616974","contact:email":"biblioteka@pbp.poznan.pl","contact:website":"http:\/\/pbp.poznan.pl","ref:regon":"639810550","ref:vatin":"PL7781337139","operator":"Wojew\u00f3dztwo Wielkopolskie","operator:type":"government","amenity":"library","note":"Children RSPO: 115145;115156;115160;115162;115163;115164;115165;115166;115167;124550"}},{"id":87683,"type":"Feature","geometry":{"type":"Point","coordinates":[16.88044,52.39971]},"properties":{"ref:rspo":87683,"official_name":"Przedszkole Niepubliczne \"W Kasztanowym Parku\"","name":"Przedszkole Niepubliczne \"W Kasztanowym Parku\"","addr:country":"PL","addr:postcode":"60-311","addr:city":"Pozna\u0144","addr:street":"ul. Grunwaldzka","addr:housenumber":"68","addr:teryt:simc":6260,"addr:teryt:sym_ul":969416,"contact:phone":"+48 618616027","contact:email":"przedszkole@wkasztanowymparku.pl","contact:website":"http:\/\/www.wkasztanowymparku.pl","ref:regon":"302272348","operator":"Iwona Burszty\u0144ska","operator:type":"private","amenity":"kindergarten"}},{"id":129365,"type":"Feature","geometry":{"type":"Point","coordinates":[16.88303,52.40001]},"properties":{"ref:rspo":129365,"official_name":"Niepubliczna Poradnia Psychologiczno Pedagogiczna Agvita","name":"Niepubliczna Poradnia Psychologiczno Pedagogiczna Agvita","addr:country":"PL","addr:postcode":"60-288","addr:city":"Pozna\u0144","addr:street":"ul. Promienista","addr:housenumber":"6","addr:door":"2","addr:teryt:simc":17531,"addr:teryt:sym_ul":969416,"contact:phone":"+48 533677877","contact:email":"recepcja@agvita.pl","ref:regon":"362569640","operator":"Agvita Sp\u00f3\u0142ka Z Ograniczon\u0105 Odpowiedzialno\u015bci\u0105","operator:type":"private","healthcare":"councelling","counselling_type":"education","fixme":"w zale\u017cno\u015bci od przedmiotu dzia\u0142alno\u015bci (np. healthcare=councelling + counselling_type=education albo healthcare=psychotherapist)"}},{"id":113717,"type":"Feature","geometry":{"type":"Point","coordinates":[16.89709,52.40013]},"properties":{"ref:rspo":113717,"official_name":"Studium Doskonalenia Kompetencji Nauczycielskich Markus","name":"Studium Doskonalenia Kompetencji Nauczycielskich Markus","addr:country":"PL","addr:postcode":"60-760","addr:city":"Pozna\u0144","addr:street":"ul. Juliusza Kossaka","addr:housenumber":"13","addr:teryt:simc":9463,"addr:teryt:sym_ul":969416,"contact:phone":"+48 601914962","ref:regon":"302399942","operator":"Dane Do Uzupe\u0142nienia","operator:type":"private","amenity":"training"}},{"id":60367,"type":"Feature","geometry":{"type":"Point","coordinates":[16.87324,52.40015]},"properties":{"ref:rspo":60367,"official_name":"Przedszkole Nr 91 \"Bajka\"","name":"Przedszkole Nr 91 \"Bajka\"","addr:country":"PL","addr:postcode":"60-329","addr:city":"Pozna\u0144","addr:street":"ul. Cze\u015bnikowska","addr:housenumber":"19a","addr:teryt:simc":3455,"addr:teryt:sym_ul":969416,"contact:phone":"+48 618679581","contact:email":"p91@poznan.interklasa.pl","contact:website":"http:\/\/www.przedszkole91.weebly.com","ref:regon":"301622734","ref:vatin":"PL7792386093","operator":"Miasto Pozna\u0144","operator:type":"government","amenity":"kindergarten"}},{"id":30497,"type":"Feature","geometry":{"type":"Point","coordinates":[16.86324,52.40047]},"properties":{"isced:level":"3","ref:rspo":30497,"official_name":"Liceum Og\u00f3lnokszta\u0142c\u0105ce dla Doros\u0142ych Pozna\u0144skiego Centrum Edukacji","name":"Liceum Og\u00f3lnokszta\u0142c\u0105ce dla Doros\u0142ych Pozna\u0144skiego Centrum Edukacji","addr:country":"PL","addr:postcode":"60-320","addr:city":"Pozna\u0144","addr:street":"ul. Bu\u0142garska","addr:housenumber":"55","addr:teryt:simc":2436,"addr:teryt:sym_ul":969416,"contact:phone":"+48 618280940","contact:email":"kontakt@pce.szkola.pl","ref:regon":"302248114","operator":"Janusz Musia\u0142","operator:type":"private","amenity":"school"}},{"id":48603,"type":"Feature","geometry":{"type":"Point","coordinates":[16.86324,52.400439999999996]},"properties":{"isced:level":"4","ref:rspo":48603,"official_name":"Pozna\u0144ska Policealna Szko\u0142a Detektyw\u00f3w I Pracownik\u00f3w Ochrony","name":"Pozna\u0144ska Policealna Szko\u0142a Detektyw\u00f3w I Pracownik\u00f3w Ochrony","addr:country":"PL","addr:postcode":"60-320","addr:city":"Pozna\u0144","addr:street":"ul. Bu\u0142garska","addr:housenumber":"55","addr:teryt:simc":2436,"addr:teryt:sym_ul":969416,"contact:phone":"+48 618280940","contact:email":"kontakt@pce.szkola.pl","ref:regon":"302254540","operator":"Janusz Musia\u0142","operator:type":"private","amenity":"college"}},{"id":48643,"type":"Feature","geometry":{"type":"Point","coordinates":[16.86324,52.40041]},"properties":{"isced:level":"4","ref:rspo":48643,"official_name":"Pozna\u0144ska Policealna Szko\u0142a Farmacji Pozna\u0144skiego Centrum Edukacji","name":"Pozna\u0144ska Policealna Szko\u0142a Farmacji Pozna\u0144skiego Centrum Edukacji","addr:country":"PL","addr:postcode":"60-320","addr:city":"Pozna\u0144","addr:street":"ul. Bu\u0142garska","addr:housenumber":"55","addr:teryt:simc":2436,"addr:teryt:sym_ul":969416,"contact:phone":"+48 618280940","contact:email":"kontakt@pce.szkola.pl","ref:regon":"302254741","operator":"Janusz Musia\u0142","operator:type":"private","amenity":"college"}},{"id":48695,"type":"Feature","geometry":{"type":"Point","coordinates":[16.86324,52.40038]},"properties":{"isced:level":"4","ref:rspo":48695,"official_name":"Pozna\u0144ska Policealna Szko\u0142a Masa\u017cu Pozna\u0144skiego Centrum Edukacji","name":"Pozna\u0144ska Policealna Szko\u0142a Masa\u017cu Pozna\u0144skiego Centrum Edukacji","addr:country":"PL","addr:postcode":"60-320","addr:city":"Pozna\u0144","addr:street":"ul. Bu\u0142garska","addr:housenumber":"55","addr:teryt:simc":2436,"addr:teryt:sym_ul":969416,"contact:phone":"+48 618280940","contact:email":"kontakt@pce.szkola.pl","ref:regon":"302254385","operator":"Janusz Musia\u0142","operator:type":"private","amenity":"college"}},{"id":48788,"type":"Feature","geometry":{"type":"Point","coordinates":[16.86324,52.400349999999996]},"properties":{"isced:level":"4","ref:rspo":48788,"official_name":"Pozna\u0144ska Policealna Szko\u0142a Terapii Zaj\u0119ciowej Pozna\u0144skiego Centrum Edukacji","name":"Pozna\u0144ska Policealna Szko\u0142a Terapii Zaj\u0119ciowej Pozna\u0144skiego Centrum Edukacji","addr:country":"PL","addr:postcode":"60-320","addr:city":"Pozna\u0144","addr:street":"ul. Bu\u0142garska","addr:housenumber":"55","addr:teryt:simc":2436,"addr:teryt:sym_ul":969416,"contact:phone":"+48 618280940","contact:email":"kontakt@pce.szkola.pl","ref:regon":"302254630","operator":"Janusz Musia\u0142","operator:type":"private","amenity":"college"}},{"id":73102,"type":"Feature","geometry":{"type":"Point","coordinates":[16.86324,52.40032]},"properties":{"isced:level":"4","ref:rspo":73102,"official_name":"Szko\u0142a Policealna Pozna\u0144skiego Centrum Edukacji","name":"Szko\u0142a Policealna Pozna\u0144skiego Centrum Edukacji","addr:country":"PL","addr:postcode":"60-320","addr:city":"Pozna\u0144","addr:street":"ul. Bu\u0142garska","addr:housenumber":"55","addr:teryt:simc":2436,"addr:teryt:sym_ul":969416,"contact:phone":"+48 618280940","contact:email":"kontakt@pce.szkola.pl","ref:regon":"302259550","operator":"Janusz Musia\u0142","operator:type":"private","amenity":"college"}},{"id":278246,"type":"Feature","geometry":{"type":"Point","coordinates":[16.8612,52.4006]},"properties":{"ref:rspo":278246,"official_name":"Zesp\u00f3\u0142 Prywatnych Szk\u00f3\u0142 Akademickich Mieszko w Poznaniu","name":"Zesp\u00f3\u0142 Prywatnych Szk\u00f3\u0142 Akademickich Mieszko w Poznaniu","addr:country":"PL","addr:postcode":"60-321","addr:city":"Pozna\u0144","addr:street":"ul. \u015awierzawska","addr:housenumber":"18","addr:teryt:simc":22516,"addr:teryt:sym_ul":969416,"contact:phone":"+48 616460302","ref:regon":"389859169","operator":"Wy\u017csza Szko\u0142a Pedagogiki I Administracji Im. Mieszka I Z Siedzib\u0105 W Poznaniu","operator:type":"private","landuse":"education","fixme":"amenity=school, amenity=college albo landuse=education w zale\u017cno\u015bci od tego, jakie plac\u00f3wki wchodz\u0105 w sk\u0142ad zespo\u0142u. Sprawd\u017a, kiedy stosowa\u0107 amenity=* a kiedy landuse=education.","note":"Children RSPO: 115212;115580"}},{"id":115212,"type":"Feature","geometry":{"type":"Point","coordinates":[16.8612,52.400569999999995]},"properties":{"isced:level":"1;2","ref:rspo":115212,"official_name":"Prywatna Szkola Podstawowa Mieszko w Poznaniu","name":"Prywatna Szkola Podstawowa Mieszko w Poznaniu","addr:country":"PL","addr:postcode":"60-321","addr:city":"Pozna\u0144","addr:street":"ul. \u015awierzawska","addr:housenumber":"18","addr:teryt:simc":22516,"addr:teryt:sym_ul":969416,"contact:phone":"+48 616460370","contact:email":"sekretariat@mieszko.edu.pl","contact:website":"http:\/\/www.mieszko.edu.pl","ref:regon":"302459762","operator":"Wy\u017csza Szko\u0142a Pedagogiki I Administracji Im. Mieszka I Z Siedzib\u0105 W Poznaniu","operator:type":"private","amenity":"school","note":"Parent RSPO: 278246"}},{"id":115580,"type":"Feature","geometry":{"type":"Point","coordinates":[16.8612,52.40054]},"properties":{"isced:level":"3","ref:rspo":115580,"official_name":"Prywatne Liceum Og\u00f3lnokszta\u0142c\u0105ce Mieszko w Poznaniu","name":"Prywatne Liceum Og\u00f3lnokszta\u0142c\u0105ce Mieszko w Poznaniu","addr:country":"PL","addr:postcode":"60-321","addr:city":"Pozna\u0144","addr:street":"ul. \u015awierzawska","addr:housenumber":"18","addr:teryt:simc":22516,"addr:teryt:sym_ul":969416,"contact:phone":"+48 616460302","contact:email":"dyrektorlo@mieszko.edu.pl","contact:website":"http:\/\/mieszko.edu.pl","ref:regon":"302476111","operator":"Wy\u017csza Szko\u0142a Pedagogiki I Administracji Im. Mieszka I Z Siedzib\u0105 W Poznaniu","operator:type":"private","amenity":"school","note":"Parent RSPO: 278246"}},{"id":31774,"type":"Feature","geometry":{"type":"Point","coordinates":[16.8663,52.40094]},"properties":{"ref:rspo":31774,"official_name":"Zesp\u00f3\u0142 Szk\u00f3\u0142 Ekonomicznych im. Stanis\u0142awa Staszica","name":"Zesp\u00f3\u0142 Szk\u00f3\u0142 Ekonomicznych","addr:country":"PL","addr:postcode":"60-327","addr:city":"Pozna\u0144","addr:street":"ul. Marsza\u0142kowska","addr:housenumber":"40","addr:teryt:simc":12400,"addr:teryt:sym_ul":969416,"contact:phone":"+48 618672222","contact:email":"zse@zsepoznan.pl","contact:website":"http:\/\/www.zsepoznan.pl","ref:regon":"000250004","ref:vatin":"PL7791401011","operator":"Miasto Pozna\u0144","operator:type":"government","landuse":"education","fixme":"amenity=school, amenity=college albo landuse=education w zale\u017cno\u015bci od tego, jakie plac\u00f3wki wchodz\u0105 w sk\u0142ad zespo\u0142u. Sprawd\u017a, kiedy stosowa\u0107 amenity=* a kiedy landuse=education.","note":"Children RSPO: 85106;88673;88674"}},{"id":85106,"type":"Feature","geometry":{"type":"Point","coordinates":[16.8663,52.400909999999996]},"properties":{"isced:level":"3","ref:rspo":85106,"official_name":"Technikum Ekonomiczno-Administracyjne Nr 1","name":"Technikum Ekonomiczno-Administracyjne Nr 1","addr:country":"PL","addr:postcode":"60-327","addr:city":"Pozna\u0144","addr:street":"ul. Marsza\u0142kowska","addr:housenumber":"40","addr:teryt:simc":12400,"addr:teryt:sym_ul":969416,"contact:phone":"+48 618672222","contact:email":"zse@zsepoznan.pl","contact:website":"http:\/\/www.zsepoznan.pl","ref:regon":"634441791","operator":"Miasto Pozna\u0144","operator:type":"government","amenity":"school","note":"Parent RSPO: 31774"}},{"id":88673,"type":"Feature","geometry":{"type":"Point","coordinates":[16.8663,52.40088]},"properties":{"isced:level":"4","ref:rspo":88673,"official_name":"Szko\u0142a Policealna Nr 1","name":"Szko\u0142a Policealna Nr 1","addr:country":"PL","addr:postcode":"60-327","addr:city":"Pozna\u0144","addr:street":"ul. Marsza\u0142kowska","addr:housenumber":"40","addr:teryt:simc":12400,"addr:teryt:sym_ul":969416,"contact:phone":"+48 618537947","contact:email":"zse@zsepoznan.pl","contact:website":"http:\/\/www.zsepoznan.pl","ref:regon":"300072912","operator":"Miasto Pozna\u0144","operator:type":"government","amenity":"college","note":"Parent RSPO: 31774"}},{"id":88674,"type":"Feature","geometry":{"type":"Point","coordinates":[16.8663,52.40085]},"properties":{"isced:level":"4","ref:rspo":88674,"official_name":"Szko\u0142a Policealna Nr 1 dla Doros\u0142ych","name":"Szko\u0142a Policealna Nr 1 dla Doros\u0142ych","addr:country":"PL","addr:postcode":"60-327","addr:city":"Pozna\u0144","addr:street":"ul. Marsza\u0142kowska","addr:housenumber":"40","addr:teryt:simc":12400,"addr:teryt:sym_ul":969416,"contact:phone":"+48 618537947","contact:email":"zse@zsepoznan.pl","contact:website":"http:\/\/www.zsepoznan.pl","ref:regon":"300072929","operator":"Miasto Pozna\u0144","operator:type":"government","amenity":"college","note":"Parent RSPO: 31774"}},{"id":81526,"type":"Feature","geometry":{"type":"Point","coordinates":[16.87974,52.40121]},"properties":{"ref:rspo":81526,"official_name":"Przedszkole Nr 70 im. S\u0142oneczna Chatka","name":"Przedszkole Nr 70","addr:country":"PL","addr:postcode":"60-348","addr:city":"Pozna\u0144","addr:street":"ul. Fryderyka Skarbka","addr:housenumber":"9","addr:teryt:simc":19998,"addr:teryt:sym_ul":969416,"contact:phone":"+48 618679782","contact:email":"p70@poznan.interklasa.pl","contact:website":"http:\/\/www.slonecznachatka.poznan.pl","ref:regon":"301621309","ref:vatin":"PL7792385739","operator":"Miasto Pozna\u0144","operator:type":"government","amenity":"kindergarten"}},{"id":58367,"type":"Feature","geometry":{"type":"Point","coordinates":[16.87182,52.40148]},"properties":{"ref:rspo":58367,"official_name":"Przedszkole Nr 40 \nIm. \"Pozna\u0144skie Kozio\u0142ki\"","name":"Przedszkole Nr 40 \nIm. \"Pozna\u0144skie Kozio\u0142ki\"","addr:country":"PL","addr:postcode":"60-330","addr:city":"Pozna\u0144","addr:street":"ul. Cze\u015bnikowska","addr:housenumber":"18A","addr:teryt:simc":3455,"addr:teryt:sym_ul":969416,"contact:phone":"+48 618672285","contact:email":"p40@poznan.interklasa.pl","contact:website":"http:\/\/p40poznan.szkolnastrona.pl\/","ref:regon":"301622987","ref:vatin":"PL7792386029","operator":"Miasto Pozna\u0144","operator:type":"government","amenity":"kindergarten"}},{"id":31777,"type":"Feature","geometry":{"type":"Point","coordinates":[16.8679099,52.40158]},"properties":{"ref:rspo":31777,"official_name":"Zesp\u00f3\u0142 Szk\u00f3\u0142 Gastronomicznych im. Karola Libelta","name":"Zesp\u00f3\u0142 Szk\u00f3\u0142 Gastronomicznych","addr:country":"PL","addr:postcode":"60-326","addr:city":"Pozna\u0144","addr:street":"ul. Podkomorska","addr:housenumber":"49","addr:teryt:simc":16772,"addr:teryt:sym_ul":969416,"contact:phone":"+48 618674041","contact:email":"zsgpoznan@wp.pl","contact:website":"http:\/\/www.gastronomikpoznan.pl","ref:regon":"000688261","ref:vatin":"PL7791066506","operator":"Miasto Pozna\u0144","operator:type":"government","landuse":"education","fixme":"amenity=school, amenity=college albo landuse=education w zale\u017cno\u015bci od tego, jakie plac\u00f3wki wchodz\u0105 w sk\u0142ad zespo\u0142u. Sprawd\u017a, kiedy stosowa\u0107 amenity=* a kiedy landuse=education.","note":"Children RSPO: 91169;91170;92079;92080"}},{"id":91169,"type":"Feature","geometry":{"type":"Point","coordinates":[16.8679099,52.40155]},"properties":{"isced:level":"3","ref:rspo":91169,"official_name":"Bran\u017cowa Szko\u0142a I Stopnia Nr 3","name":"Bran\u017cowa Szko\u0142a I Stopnia Nr 3","addr:country":"PL","addr:postcode":"60-326","addr:city":"Pozna\u0144","addr:street":"ul. Podkomorska","addr:housenumber":"49","addr:teryt:simc":16772,"addr:teryt:sym_ul":969416,"contact:phone":"+48 618674041","contact:email":"zsgpoznan@wp.pl","contact:website":"http:\/\/www.gastronomikpoznan.pl","ref:regon":"634350025","operator":"Miasto Pozna\u0144","operator:type":"government","amenity":"school","note":"Parent RSPO: 31777"}},{"id":91170,"type":"Feature","geometry":{"type":"Point","coordinates":[16.8679099,52.401520000000005]},"properties":{"isced:level":"3","ref:rspo":91170,"official_name":"Technikum Gastronomiczne","name":"Technikum Gastronomiczne","addr:country":"PL","addr:postcode":"60-326","addr:city":"Pozna\u0144","addr:street":"ul. Podkomorska","addr:housenumber":"49","addr:teryt:simc":16772,"addr:teryt:sym_ul":969416,"contact:phone":"+48 618674041","contact:email":"zsgpoznan@wp.pl","contact:website":"http:\/\/www.gastronomikpoznan.pl","ref:regon":"634350060","operator":"Miasto Pozna\u0144","operator:type":"government","amenity":"school","note":"Parent RSPO: 31777"}},{"id":92079,"type":"Feature","geometry":{"type":"Point","coordinates":[16.8679099,52.40149]},"properties":{"isced:level":"4","ref:rspo":92079,"official_name":"Szko\u0142a Policealna Nr 3","name":"Szko\u0142a Policealna Nr 3","addr:country":"PL","addr:postcode":"60-326","addr:city":"Pozna\u0144","addr:street":"ul. Podkomorska","addr:housenumber":"49","addr:teryt:simc":16772,"addr:teryt:sym_ul":969416,"contact:phone":"+48 618674041","contact:email":"zsgpoznan@wp.pl","contact:website":"http:\/\/www.gastronomikpoznan.pl","ref:regon":"300109503","operator":"Miasto Pozna\u0144","operator:type":"government","amenity":"college","note":"Parent RSPO: 31777"}},{"id":92080,"type":"Feature","geometry":{"type":"Point","coordinates":[16.8679099,52.40146]},"properties":{"isced:level":"4","ref:rspo":92080,"official_name":"Szko\u0142a Policealna Nr 3 dla Doros\u0142ych","name":"Szko\u0142a Policealna Nr 3 dla Doros\u0142ych","addr:country":"PL","addr:postcode":"60-326","addr:city":"Pozna\u0144","addr:street":"ul. Podkomorska","addr:housenumber":"49","addr:teryt:simc":16772,"addr:teryt:sym_ul":969416,"contact:phone":"+48 618674041","contact:email":"zsgpoznan@wp.pl","contact:website":"http:\/\/www.gastronomikpoznan.pl","ref:regon":"300109510","operator":"Miasto Pozna\u0144","operator:type":"government","amenity":"college","note":"Parent RSPO: 31777"}},{"id":20183,"type":"Feature","geometry":{"type":"Point","coordinates":[16.86542,52.40161]},"properties":{"ref:rspo":20183,"official_name":"Przedsi\u0119biorstwo Szkoleniowo-Doradcze Bhp","name":"Przedsi\u0119biorstwo Szkoleniowo-Doradcze Bhp","addr:country":"PL","addr:postcode":"60-321","addr:city":"Pozna\u0144","addr:street":"ul. Bu\u0142garska","addr:housenumber":"72a","addr:teryt:simc":2436,"addr:teryt:sym_ul":969416,"contact:phone":"+48 601772261","ref:regon":"302226390","operator":"W\u0142odzimierz Sobczak","operator:type":"private","fixme":"w zale\u017cno\u015bci od przedmiotu dzia\u0142alno\u015bci (np. amenity=training + training=*, amenity=dancing_school, amenity=language_school, amenity=music_school)"}},{"id":264153,"type":"Feature","geometry":{"type":"Point","coordinates":[16.89283,52.40164]},"properties":{"ref:rspo":264153,"official_name":"Plac\u00f3wka Kszta\u0142cenia Ustawicznego dla Doros\u0142ych Kosmetologii I Profilaktyki Zdrowia","name":"Plac\u00f3wka Kszta\u0142cenia Ustawicznego dla Doros\u0142ych Kosmetologii I Profilaktyki Zdrowia","addr:country":"PL","addr:postcode":"60-792","addr:city":"Pozna\u0144","addr:street":"ul. Wojskowa","addr:housenumber":"6","addr:door":"D11","addr:teryt:simc":24634,"addr:teryt:sym_ul":969416,"contact:phone":"+48 608298279","contact:email":"contact@micropigmentation.com.pl","ref:regon":"368272236","operator":"Sylwia Nawrot","operator:type":"private","fixme":"w zale\u017cno\u015bci od przedmiotu dzia\u0142alno\u015bci (np. amenity=training + training=*, amenity=dancing_school, amenity=language_school, amenity=music_school)"}},{"id":114550,"type":"Feature","geometry":{"type":"Point","coordinates":[16.87744,52.40188]},"properties":{"ref:rspo":114550,"official_name":"Przedszkole Niepubliczne Villa Montessori","name":"Przedszkole Niepubliczne Villa Montessori","addr:country":"PL","addr:postcode":"60-346","addr:city":"Pozna\u0144","addr:street":"ul. Rycerska","addr:housenumber":"8","addr:teryt:simc":19186,"addr:teryt:sym_ul":969416,"contact:phone":"+48 512239459","contact:email":"info@villamontessori.pl","contact:website":"http:\/\/www.villamontessori.pl","ref:regon":"302426573","operator":"Marcin Paw\u0142owski","operator:type":"private","amenity":"kindergarten"}},{"id":24389,"type":"Feature","geometry":{"type":"Point","coordinates":[16.90397,52.40193]},"properties":{"ref:rspo":24389,"official_name":"Even Centrum Kszta\u0142cenia Zawodowego","name":"Even Centrum Kszta\u0142cenia Zawodowego","addr:country":"PL","addr:postcode":"60-773","addr:city":"Pozna\u0144","addr:street":"ul. \u015aniadeckich","addr:housenumber":"23","addr:door":"4","addr:teryt:simc":22382,"addr:teryt:sym_ul":969416,"contact:phone":"+48 618658059","ref:regon":"302233957","operator":"Jadwiga Wysocka","operator:type":"private","fixme":"w zale\u017cno\u015bci od przedmiotu dzia\u0142alno\u015bci (np. amenity=training + training=*, amenity=dancing_school, amenity=language_school, amenity=music_school)"}},{"id":82629,"type":"Feature","geometry":{"type":"Point","coordinates":[16.87169,52.40207]},"properties":{"ref:rspo":82629,"official_name":"Zesp\u00f3\u0142 Szk\u00f3\u0142 Specjalnych Nr 103 im. Marii Grzegorzewskiej","name":"Zesp\u00f3\u0142 Szk\u00f3\u0142 Specjalnych Nr 103","addr:country":"PL","addr:postcode":"60-327","addr:city":"Pozna\u0144","addr:street":"ul. Kanclerska","addr:housenumber":"31-33","addr:teryt:simc":7933,"addr:teryt:sym_ul":969416,"contact:email":"dyrekcja@zss103.pl","ref:regon":"634207859","ref:vatin":"PL7792156499","operator":"Miasto Pozna\u0144","operator:type":"government","landuse":"education","fixme":"amenity=school, amenity=college albo landuse=education w zale\u017cno\u015bci od tego, jakie plac\u00f3wki wchodz\u0105 w sk\u0142ad zespo\u0142u. Sprawd\u017a, kiedy stosowa\u0107 amenity=* a kiedy landuse=education.","note":"Children RSPO: 73699;123600"}},{"id":73699,"type":"Feature","geometry":{"type":"Point","coordinates":[16.87169,52.40204]},"properties":{"isced:level":"1;2","ref:rspo":73699,"official_name":"Szko\u0142a Podstawowa Specjalna Nr 103 im. Marii Grzegorzewskiej","name":"Szko\u0142a Podstawowa Specjalna Nr 103","addr:country":"PL","addr:postcode":"60-327","addr:city":"Pozna\u0144","addr:street":"ul. Kanclerska","addr:housenumber":"31-33","addr:teryt:simc":7933,"addr:teryt:sym_ul":969416,"contact:phone":"+48 618679727","contact:email":"dyrekcja@zss103.pl","contact:website":"http:\/\/www.zss103.eu","ref:regon":"000248390","ref:vatin":"PL7791427401","operator":"Miasto Pozna\u0144","operator:type":"government","amenity":"school","note":"Parent RSPO: 82629"}},{"id":123600,"type":"Feature","geometry":{"type":"Point","coordinates":[16.87169,52.402010000000004]},"properties":{"ref:rspo":123600,"official_name":"Szko\u0142a Specjalna Przysposabiaj\u0105ca Do Pracy Nr 6","name":"Szko\u0142a Specjalna Przysposabiaj\u0105ca Do Pracy Nr 6","addr:country":"PL","addr:postcode":"60-327","addr:city":"Pozna\u0144","addr:street":"ul. Kanclerska","addr:housenumber":"31-33","addr:teryt:simc":7933,"addr:teryt:sym_ul":969416,"contact:phone":"+48 618679727","ref:regon":"302775428","operator":"Miasto Pozna\u0144","operator:type":"government","amenity":"school","note":"Parent RSPO: 82629"}},{"id":119897,"type":"Feature","geometry":{"type":"Point","coordinates":[16.89981,52.40236]},"properties":{"isced:level":"4","ref:rspo":119897,"official_name":"Akademicka Szko\u0142a Policealna Wy\u017cszej Szko\u0142y Bezpiecze\u0144stwa Z Siedzib\u0105 w Poznaniu","name":"Akademicka Szko\u0142a Policealna Wy\u017cszej Szko\u0142y Bezpiecze\u0144stwa Z Siedzib\u0105 w Poznaniu","addr:country":"PL","addr:postcode":"60-778","addr:city":"Pozna\u0144","addr:street":"ul. Elizy Orzeszkowej","addr:housenumber":"1","addr:teryt:simc":15211,"addr:teryt:sym_ul":969416,"contact:phone":"+48 618510518","contact:email":"szkolapolicealna@wsb.net.pl","ref:regon":"302527877","operator":"Wy\u017csza Szko\u0142a Bezpiecze\u0144stwa","operator:type":"private","amenity":"college"}},{"id":272967,"type":"Feature","geometry":{"type":"Point","coordinates":[16.87837,52.40239]},"properties":{"ref:rspo":272967,"official_name":"7 Perspektyw - Szko\u0142a Doskonalenia I Kszta\u0142cenia Zawodowego, Plac\u00f3wka Kszta\u0142cenia Ustawicznego","name":"7 Perspektyw - Szko\u0142a Doskonalenia I Kszta\u0142cenia Zawodowego, Plac\u00f3wka Kszta\u0142cenia Ustawicznego","addr:country":"PL","addr:postcode":"60-348","addr:city":"Pozna\u0144","addr:street":"ul. Franciszka Lubeckiego","addr:housenumber":"18","addr:teryt:simc":46317,"addr:teryt:sym_ul":969416,"contact:phone":"+48 512142302","ref:regon":"384355910","operator":"Kancelaria Rachunkowo-Podatkowa Sdp Sp\u00f3\u0142ka Z Ograniczon\u0105 Odpowiedzialno\u015bci\u0105","operator:type":"private","fixme":"w zale\u017cno\u015bci od przedmiotu dzia\u0142alno\u015bci (np. amenity=training + training=*, amenity=dancing_school, amenity=language_school, amenity=music_school)"}},{"id":275542,"type":"Feature","geometry":{"type":"Point","coordinates":[16.85745,52.40358]},"properties":{"isced:level":"1;2","ref:rspo":275542,"official_name":"Autorska Szko\u0142a Podstawowa Navigo Pozna\u0144","name":"Autorska Szko\u0142a Podstawowa Navigo Pozna\u0144","addr:country":"PL","addr:postcode":"60-198","addr:city":"Pozna\u0144","addr:street":"ul. Wa\u0142brzyska","addr:housenumber":"7","addr:teryt:simc":23582,"addr:teryt:sym_ul":969416,"contact:email":"anna.bielska@navigo.szkola.pl","ref:regon":"386924370","operator":"Navigo Edukacja Pozna\u0144 Sp\u00f3\u0142ka Z Ograniczon\u0105 Odpowiedzialno\u015bci\u0105","operator:type":"private","amenity":"school"}},{"id":276201,"type":"Feature","geometry":{"type":"Point","coordinates":[16.85745,52.403549999999996]},"properties":{"ref:rspo":276201,"official_name":"Przedszkole Montessori Le\u015bne Ptaki","name":"Przedszkole Montessori Le\u015bne Ptaki","addr:country":"PL","addr:postcode":"60-198","addr:city":"Pozna\u0144","addr:street":"ul. Wa\u0142brzyska","addr:housenumber":"7","addr:teryt:simc":23582,"addr:teryt:sym_ul":969416,"contact:email":"dyrektor@lesne.pl","ref:regon":"387029067","operator":"Las Sp\u00f3\u0142ka Z Ograniczon\u0105 Odpowiedzialno\u015bci\u0105","operator:type":"private","amenity":"kindergarten"}},{"id":82414,"type":"Feature","geometry":{"type":"Point","coordinates":[16.9001,52.40365]},"properties":{"isced:level":"3","ref:rspo":82414,"official_name":"Ii Liceum Og\u00f3lnokszta\u0142c\u0105ce im. Genera\u0142owej Zamoyskiej I Heleny Modrzejewskiej","name":"Ii Liceum Og\u00f3lnokszta\u0142c\u0105ce","addr:country":"PL","addr:postcode":"60-766","addr:city":"Pozna\u0144","addr:street":"ul. Jana Matejki","addr:housenumber":"8\/10","addr:teryt:simc":12489,"addr:teryt:sym_ul":969416,"contact:phone":"+48 618662892","contact:email":"sekretariat@2lo.poznan.pl","contact:website":"http:\/\/www.2lo.poznan.pl","ref:regon":"000248757","operator":"Miasto Pozna\u0144","operator:type":"government","amenity":"school"}},{"id":83070,"type":"Feature","geometry":{"type":"Point","coordinates":[16.87852,52.40387]},"properties":{"ref:rspo":83070,"official_name":"Przedszkole Pod Orzechem","name":"Przedszkole Pod Orzechem","addr:country":"PL","addr:postcode":"60-348","addr:city":"Pozna\u0144","addr:street":"ul. Franciszka Lubeckiego","addr:housenumber":"30A","addr:teryt:simc":46317,"addr:teryt:sym_ul":969416,"contact:phone":"+48 612241440","contact:email":"czarli2012@wp.pl","ref:regon":"302270852","operator":"Katarzyna Pirszel","operator:type":"private","amenity":"kindergarten"}},{"id":31775,"type":"Feature","geometry":{"type":"Point","coordinates":[16.9030099,52.4040899]},"properties":{"ref:rspo":31775,"official_name":"Zesp\u00f3\u0142 Szk\u00f3\u0142 Handlowych im. Bohater\u00f3w Pozna\u0144skiego Czerwca' 56","name":"Zesp\u00f3\u0142 Szk\u00f3\u0142 Handlowych","addr:country":"PL","addr:postcode":"60-774","addr:city":"Pozna\u0144","addr:street":"ul. \u015aniadeckich","addr:housenumber":"54\/58","addr:teryt:simc":22382,"addr:teryt:sym_ul":969416,"contact:phone":"+48 618658683","contact:email":"zshkor@zsh.edu.pl","contact:website":"http:\/\/www.zsh.edu.pl","ref:regon":"000249395","ref:vatin":"PL7791437061","operator":"Miasto Pozna\u0144","operator:type":"government","landuse":"education","fixme":"amenity=school, amenity=college albo landuse=education w zale\u017cno\u015bci od tego, jakie plac\u00f3wki wchodz\u0105 w sk\u0142ad zespo\u0142u. Sprawd\u017a, kiedy stosowa\u0107 amenity=* a kiedy landuse=education.","note":"Children RSPO: 88677;88681;88682;88683;88684;125907;276219"}},{"id":88677,"type":"Feature","geometry":{"type":"Point","coordinates":[16.9030099,52.4040599]},"properties":{"isced:level":"3","ref:rspo":88677,"official_name":"Xxxi Liceum Og\u00f3lnokszta\u0142c\u0105ce","name":"Xxxi Liceum Og\u00f3lnokszta\u0142c\u0105ce","addr:country":"PL","addr:postcode":"60-774","addr:city":"Pozna\u0144","addr:street":"ul. \u015aniadeckich","addr:housenumber":"54\/58","addr:teryt:simc":22382,"addr:teryt:sym_ul":969416,"contact:phone":"+48 618658683","contact:email":"zshkor@zsh.edu.pl","contact:website":"http:\/\/www.zsh.edu.pl","ref:regon":"634360041","operator":"Miasto Pozna\u0144","operator:type":"government","amenity":"school","note":"Parent RSPO: 31775"}},{"id":88681,"type":"Feature","geometry":{"type":"Point","coordinates":[16.9030099,52.404029900000005]},"properties":{"isced:level":"3","ref:rspo":88681,"official_name":"Technikum Ekonomiczno-Handlowe","name":"Technikum Ekonomiczno-Handlowe","addr:country":"PL","addr:postcode":"60-774","addr:city":"Pozna\u0144","addr:street":"ul. \u015aniadeckich","addr:housenumber":"54\/58","addr:teryt:simc":22382,"addr:teryt:sym_ul":969416,"contact:phone":"+48 618658683","contact:email":"zshkor@zsh.edu.pl","contact:website":"http:\/\/www.zsh.edu.pl","ref:regon":"300018769","operator":"Miasto Pozna\u0144","operator:type":"government","amenity":"school","note":"Parent RSPO: 31775"}},{"id":88682,"type":"Feature","geometry":{"type":"Point","coordinates":[16.9030099,52.4039999]},"properties":{"isced:level":"3","ref:rspo":88682,"official_name":"Bran\u017cowa Szko\u0142a I Stopnia Nr 4","name":"Bran\u017cowa Szko\u0142a I Stopnia Nr 4","addr:country":"PL","addr:postcode":"60-774","addr:city":"Pozna\u0144","addr:street":"ul. \u015aniadeckich","addr:housenumber":"54\/58","addr:teryt:simc":22382,"addr:teryt:sym_ul":969416,"contact:phone":"+48 618658683","contact:email":"zshkor@zsh.edu.pl","contact:website":"http:\/\/www.zsh.edu.pl","ref:regon":"300018835","operator":"Miasto Pozna\u0144","operator:type":"government","amenity":"school","note":"Parent RSPO: 31775"}},{"id":88683,"type":"Feature","geometry":{"type":"Point","coordinates":[16.9030099,52.4039699]},"properties":{"isced:level":"4","ref:rspo":88683,"official_name":"Szko\u0142a Policealna Nr 4","name":"Szko\u0142a Policealna Nr 4","addr:country":"PL","addr:postcode":"60-774","addr:city":"Pozna\u0144","addr:street":"ul. \u015aniadeckich","addr:housenumber":"54\/58","addr:teryt:simc":22382,"addr:teryt:sym_ul":969416,"contact:phone":"+48 618658683","contact:email":"zshkor@zsh.edu.pl","contact:website":"http:\/\/www.zsh.edu.pl","ref:regon":"300273674","operator":"Miasto Pozna\u0144","operator:type":"government","amenity":"college","note":"Parent RSPO: 31775"}},{"id":88684,"type":"Feature","geometry":{"type":"Point","coordinates":[16.9030099,52.403939900000005]},"properties":{"isced:level":"4","ref:rspo":88684,"official_name":"Szko\u0142a Policealna Nr 4 dla Doros\u0142ych","name":"Szko\u0142a Policealna Nr 4 dla Doros\u0142ych","addr:country":"PL","addr:postcode":"60-774","addr:city":"Pozna\u0144","addr:street":"ul. \u015aniadeckich","addr:housenumber":"54\/58","addr:teryt:simc":22382,"addr:teryt:sym_ul":969416,"contact:phone":"+48 618658683","contact:email":"zshkor@zsh.edu.pl","contact:website":"http:\/\/www.zsh.edu.pl","ref:regon":"300273711","operator":"Miasto Pozna\u0144","operator:type":"government","amenity":"college","note":"Parent RSPO: 31775"}},{"id":125907,"type":"Feature","geometry":{"type":"Point","coordinates":[16.9030099,52.4039099]},"properties":{"isced:level":"3","ref:rspo":125907,"official_name":"Xxxvi Liceum Og\u00f3lnokszta\u0142c\u0105ce dla Doros\u0142ych","name":"Xxxvi Liceum Og\u00f3lnokszta\u0142c\u0105ce dla Doros\u0142ych","addr:country":"PL","addr:postcode":"60-774","addr:city":"Pozna\u0144","addr:street":"ul. \u015aniadeckich","addr:housenumber":"54\/58","addr:teryt:simc":22382,"addr:teryt:sym_ul":969416,"contact:phone":"+48 618658683","contact:email":"szkola@zsh.edu.pl","contact:website":"http:\/\/www.zsh.edu.pl","ref:regon":"360087901","operator":"Miasto Pozna\u0144","operator:type":"government","amenity":"school","note":"Parent RSPO: 31775"}},{"id":276219,"type":"Feature","geometry":{"type":"Point","coordinates":[16.9030099,52.4038799]},"properties":{"isced:level":"3","ref:rspo":276219,"official_name":"Bran\u017cowa Szko\u0142a II Stopnia Nr 4","name":"Bran\u017cowa Szko\u0142a II Stopnia Nr 4","addr:country":"PL","addr:postcode":"60-774","addr:city":"Pozna\u0144","addr:street":"ul. \u015aniadeckich","addr:housenumber":"54\/58","addr:teryt:simc":22382,"addr:teryt:sym_ul":969416,"contact:phone":"+48 618658683","contact:email":"szkola@zsh.edu.pl","ref:regon":"387037240","operator":"Miasto Pozna\u0144","operator:type":"government","amenity":"school","note":"Parent RSPO: 31775"}},{"id":19997,"type":"Feature","geometry":{"type":"Point","coordinates":[16.87409,52.4041]},"properties":{"ref:rspo":19997,"official_name":"Plac\u00f3wka Kszta\u0142cenia Ustawicznego \"Redicus\"","name":"Plac\u00f3wka Kszta\u0142cenia Ustawicznego \"Redicus\"","addr:country":"PL","addr:postcode":"60-341","addr:city":"Pozna\u0144","addr:street":"ul. Marceli\u0144ska","addr:housenumber":"72","addr:door":"6","addr:teryt:simc":12272,"addr:teryt:sym_ul":969416,"contact:phone":"+48 618320033","ref:regon":"302226035","operator":"Dominik Szwab","operator:type":"private","fixme":"w zale\u017cno\u015bci od przedmiotu dzia\u0142alno\u015bci (np. amenity=training + training=*, amenity=dancing_school, amenity=language_school, amenity=music_school)"}},{"id":15230,"type":"Feature","geometry":{"type":"Point","coordinates":[16.86425,52.40451]},"properties":{"ref:rspo":15230,"official_name":"Akademia Osteopatii","name":"Akademia Osteopatii","addr:country":"PL","addr:postcode":"60-324","addr:city":"Pozna\u0144","addr:street":"ul. Marceli\u0144ska","addr:housenumber":"92","addr:teryt:simc":12272,"addr:teryt:sym_ul":969416,"contact:phone":"+48 668641708","ref:regon":"302214233","operator":"\u0141ukasz Ciesielski","operator:type":"private","fixme":"w zale\u017cno\u015bci od przedmiotu dzia\u0142alno\u015bci (np. amenity=training + training=*, amenity=dancing_school, amenity=language_school, amenity=music_school)"}},{"id":68018,"type":"Feature","geometry":{"type":"Point","coordinates":[16.8723,52.40479]},"properties":{"ref:rspo":68018,"official_name":"Przedszkole Nr 100 \"Mali Poznaniacy\"","name":"Przedszkole Nr 100 \"Mali Poznaniacy\"","addr:country":"PL","addr:postcode":"60-391","addr:city":"Pozna\u0144","addr:street":"ul. Swoboda","addr:housenumber":"57","addr:teryt:simc":21624,"addr:teryt:sym_ul":969416,"contact:phone":"+48 618671157","contact:email":"p100@poznan.interklasa.pl","contact:website":"http:\/\/www.malipoznaniacy.pl","ref:regon":"301623314","ref:vatin":"PL7792386006","operator":"Miasto Pozna\u0144","operator:type":"government","amenity":"kindergarten"}},{"id":21527,"type":"Feature","geometry":{"type":"Point","coordinates":[16.89488,52.40514]},"properties":{"ref:rspo":21527,"official_name":"Zwi\u0105zek Polskich Spadochroniarzy, VIII Odzia\u0142, O\u015brodek Przystosowania Zawodowego","name":"Zwi\u0105zek Polskich Spadochroniarzy, VIII Odzia\u0142, O\u015brodek Przystosowania Zawodowego","addr:country":"PL","addr:postcode":"60-801","addr:city":"Pozna\u0144","addr:street":"ul. Marceli\u0144ska","addr:housenumber":"14","addr:teryt:simc":12272,"addr:teryt:sym_ul":969416,"contact:phone":"+48 616626050","ref:regon":"302228815","operator":"Zwi\u0105zek Polskich Spadochroniarzy Viii Oddzia\u0142 W Poznaniu","operator:type":"cooperative","fixme":"w zale\u017cno\u015bci od przedmiotu dzia\u0142alno\u015bci (np. amenity=training + training=*, amenity=dancing_school, amenity=language_school, amenity=music_school)"}},{"id":121585,"type":"Feature","geometry":{"type":"Point","coordinates":[16.89946,52.40564]},"properties":{"ref:rspo":121585,"official_name":"O\u015brodek Szkoleniowy O`chikara","name":"O\u015brodek Szkoleniowy O`chikara","addr:country":"PL","addr:postcode":"60-782","addr:city":"Pozna\u0144","addr:street":"ul. Grunwaldzka","addr:housenumber":"11","addr:teryt:simc":6260,"addr:teryt:sym_ul":969416,"contact:phone":"+48 583075103","ref:regon":"302631630","operator":"Micha\u0142 Kwiatkowski","operator:type":"private","fixme":"w zale\u017cno\u015bci od przedmiotu dzia\u0142alno\u015bci (np. amenity=training + training=*, amenity=dancing_school, amenity=language_school, amenity=music_school)"}},{"id":48030,"type":"Feature","geometry":{"type":"Point","coordinates":[16.8719,52.40599]},"properties":{"isced:level":"1;2","ref:rspo":48030,"official_name":"Szko\u0142a Podstawowa Nr 88 im. Pozna\u0144skich Kozio\u0142k\u00f3w","name":"Szko\u0142a Podstawowa Nr 88","addr:country":"PL","addr:postcode":"60-389","addr:city":"Pozna\u0144","addr:street":"ul. Swoboda","addr:housenumber":"53","addr:teryt:simc":21624,"addr:teryt:sym_ul":969416,"contact:phone":"+48 618674221","contact:email":"sekretariatsp88@poczta.onet.pl","contact:website":"http:\/\/www.sp88.pl","ref:regon":"000246994","ref:vatin":"PL7791436943","operator":"Miasto Pozna\u0144","operator:type":"government","amenity":"school"}},{"id":263608,"type":"Feature","geometry":{"type":"Point","coordinates":[16.86533,52.4063]},"properties":{"ref:rspo":263608,"official_name":"Przedszkole Montessori \"Le\u015bna Akademia\"","name":"Przedszkole Montessori \"Le\u015bna Akademia\"","addr:country":"PL","addr:postcode":"60-320","addr:city":"Pozna\u0144","addr:street":"ul. Kolorowa","addr:housenumber":"10","addr:teryt:simc":8979,"addr:teryt:sym_ul":969416,"contact:email":"dyrektor@lesne.pl","contact:website":"http:\/\/www.lesne.pl","ref:regon":"368208103","operator":"Stangret Sp\u00f3\u0142ka Z Ograniczon\u0105 Odpowiedzialno\u015bci\u0105","operator:type":"private","amenity":"kindergarten"}},{"id":48675,"type":"Feature","geometry":{"type":"Point","coordinates":[16.88001,52.40657]},"properties":{"ref:rspo":48675,"official_name":"Poradnia Psychologiczno-Pedagogiczna Nr 2","name":"Poradnia Psychologiczno-Pedagogiczna Nr 2","addr:country":"PL","addr:postcode":"60-367","addr:city":"Pozna\u0144","addr:street":"ul. Sierakowska","addr:housenumber":"23","addr:teryt:simc":19847,"addr:teryt:sym_ul":969416,"contact:phone":"+48 618528558","contact:email":"sekretariat@ppp2poznan.pl","contact:website":"http:\/\/ppp2poznan.pl","ref:regon":"000250955","ref:vatin":"PL7781350499","operator":"Miasto Pozna\u0144","operator:type":"government","healthcare":"councelling","counselling_type":"education","fixme":"w zale\u017cno\u015bci od przedmiotu dzia\u0142alno\u015bci (np. healthcare=councelling + counselling_type=education albo healthcare=psychotherapist)"}},{"id":123550,"type":"Feature","geometry":{"type":"Point","coordinates":[16.88001,52.40654]},"properties":{"ref:rspo":123550,"official_name":"Publiczne Przedszkole Cogito","name":"Publiczne Przedszkole Cogito","addr:country":"PL","addr:postcode":"60-367","addr:city":"Pozna\u0144","addr:street":"ul. Sierakowska","addr:housenumber":"23","addr:teryt:simc":19847,"addr:teryt:sym_ul":969416,"contact:phone":"+48 618436304","contact:email":"przedszkole.cogito@operator.edu.pl","ref:regon":"302772418","operator":"Og\u00f3lnopolski Operator O\u015bwiaty","operator:type":"ngo","amenity":"kindergarten"}},{"id":123551,"type":"Feature","geometry":{"type":"Point","coordinates":[16.88001,52.406510000000004]},"properties":{"isced:level":"1;2","ref:rspo":123551,"official_name":"Publiczna Szko\u0142a Podstawowa Cogito","name":"Publiczna Szko\u0142a Podstawowa Cogito","addr:country":"PL","addr:postcode":"60-367","addr:city":"Pozna\u0144","addr:street":"ul. Sierakowska","addr:housenumber":"23","addr:teryt:simc":19847,"addr:teryt:sym_ul":969416,"contact:phone":"+48 618436304","contact:email":"spcogito.poznan@operator.edu.pl","contact:website":"http:\/\/www.spcogito-poznan.operator.edu.pl","ref:regon":"302772424","operator":"Og\u00f3lnopolski Operator O\u015bwiaty","operator:type":"ngo","amenity":"school"}},{"id":58161,"type":"Feature","geometry":{"type":"Point","coordinates":[16.88467,52.4068]},"properties":{"ref:rspo":58161,"official_name":"Przedszkole Nr 58","name":"Przedszkole Nr 58","addr:country":"PL","addr:postcode":"60-361","addr:city":"Pozna\u0144","addr:street":"ul. Wolszty\u0144ska","addr:housenumber":"15","addr:teryt:simc":24704,"addr:teryt:sym_ul":969416,"contact:phone":"+48 618675327","contact:email":"p58@op.pl","contact:website":"http:\/\/www.p58-poznan.pl","ref:regon":"301623366","ref:vatin":"PL7792386348","operator":"Miasto Pozna\u0144","operator:type":"government","amenity":"kindergarten"}},{"id":21778,"type":"Feature","geometry":{"type":"Point","coordinates":[16.82411,52.40698]},"properties":{"ref:rspo":21778,"official_name":"International School","name":"International School","addr:country":"PL","addr:postcode":"60-184","addr:city":"Pozna\u0144","addr:street":"ul. Z\u0142ocieniecka","addr:housenumber":"41","addr:teryt:simc":26182,"addr:teryt:sym_ul":969416,"contact:phone":"+48 618684318","ref:regon":"302229677","operator":"Ewa Buczkowska","operator:type":"private","fixme":"w zale\u017cno\u015bci od przedmiotu dzia\u0142alno\u015bci (np. amenity=training + training=*, amenity=dancing_school, amenity=language_school, amenity=music_school)"}},{"id":43555,"type":"Feature","geometry":{"type":"Point","coordinates":[16.90366,52.40713]},"properties":{"ref:rspo":43555,"official_name":"Zesp\u00f3\u0142 Szk\u00f3\u0142 Og\u00f3lnokszta\u0142c\u0105cych Nr1","name":"Zesp\u00f3\u0142 Szk\u00f3\u0142 Og\u00f3lnokszta\u0142c\u0105cych Nr1","addr:country":"PL","addr:postcode":"60-809","addr:city":"Pozna\u0144","addr:street":"ul. Bukowska","addr:housenumber":"16","addr:teryt:simc":2396,"addr:teryt:sym_ul":969416,"contact:phone":"+48 618464920","contact:email":"marcinek@marcinek.poznan.pl","contact:website":"http:\/\/www.marcinek.poznan.pl","ref:regon":"634220682","ref:vatin":"PL7791487685","operator":"Miasto Pozna\u0144","operator:type":"government","landuse":"education","fixme":"amenity=school, amenity=college albo landuse=education w zale\u017cno\u015bci od tego, jakie plac\u00f3wki wchodz\u0105 w sk\u0142ad zespo\u0142u. Sprawd\u017a, kiedy stosowa\u0107 amenity=* a kiedy landuse=education.","note":"Children RSPO: 79204;79206"}},{"id":79206,"type":"Feature","geometry":{"type":"Point","coordinates":[16.90366,52.4071]},"properties":{"isced:level":"3","ref:rspo":79206,"official_name":"I Liceum Og\u00f3lnokszta\u0142c\u0105ce dla Doros\u0142ych","name":"I Liceum Og\u00f3lnokszta\u0142c\u0105ce dla Doros\u0142ych","addr:country":"PL","addr:postcode":"60-809","addr:city":"Pozna\u0144","addr:street":"ul. Bukowska","addr:housenumber":"16","addr:teryt:simc":2396,"addr:teryt:sym_ul":969416,"contact:phone":"+48 618464923","contact:email":"wieczorowka@marcinek.poznan.pl","contact:website":"http:\/\/www.marcinek.poznan.pl","ref:regon":"634220699","operator":"Miasto Pozna\u0144","operator:type":"government","amenity":"school","note":"Parent RSPO: 43555"}},{"id":35242,"type":"Feature","geometry":{"type":"Point","coordinates":[16.87339,52.40766]},"properties":{"ref:rspo":35242,"official_name":"Zesp\u00f3\u0142 Szk\u00f3\u0142 Specjalnych Nr 101 im. Jana Brzechwy","name":"Zesp\u00f3\u0142 Szk\u00f3\u0142 Specjalnych Nr 101","addr:country":"PL","addr:postcode":"60-389","addr:city":"Pozna\u0144","addr:street":"ul. Swoboda","addr:housenumber":"41","addr:teryt:simc":21624,"addr:teryt:sym_ul":969416,"contact:phone":"+48 618616852","contact:email":"sekretariat@zss101.pl","contact:website":"http:\/\/www.zss101.pl","ref:regon":"634198741","ref:vatin":"PL7792153578","operator":"Miasto Pozna\u0144","operator:type":"government","landuse":"education","fixme":"amenity=school, amenity=college albo landuse=education w zale\u017cno\u015bci od tego, jakie plac\u00f3wki wchodz\u0105 w sk\u0142ad zespo\u0142u. Sprawd\u017a, kiedy stosowa\u0107 amenity=* a kiedy landuse=education.","note":"Children RSPO: 73128;73142;73144"}},{"id":73128,"type":"Feature","geometry":{"type":"Point","coordinates":[16.87339,52.40763]},"properties":{"isced:level":"1;2","ref:rspo":73128,"official_name":"Szko\u0142a Podstawowa Specjalna Nr 101","name":"Szko\u0142a Podstawowa Specjalna Nr 101","addr:country":"PL","addr:postcode":"60-389","addr:city":"Pozna\u0144","addr:street":"ul. Swoboda","addr:housenumber":"41","addr:teryt:simc":21624,"addr:teryt:sym_ul":969416,"contact:phone":"+48 618616852","contact:email":"sekretariat@zss101.pl","contact:website":"http:\/\/www.zss101.pl","ref:regon":"000248154","operator":"Miasto Pozna\u0144","operator:type":"government","amenity":"school","note":"Parent RSPO: 35242"}},{"id":73142,"type":"Feature","geometry":{"type":"Point","coordinates":[16.87339,52.4076]},"properties":{"ref:rspo":73142,"official_name":"Szko\u0142a Specjalna Przysposabiajaca Do Pracy Nr 1","name":"Szko\u0142a Specjalna Przysposabiajaca Do Pracy Nr 1","addr:country":"PL","addr:postcode":"60-389","addr:city":"Pozna\u0144","addr:street":"ul. Swoboda","addr:housenumber":"41","addr:teryt:simc":21624,"addr:teryt:sym_ul":969416,"contact:email":"sekretariat@zss101.pl","contact:website":"http:\/\/www.zss101.pl","ref:regon":"634608914","operator":"Miasto Pozna\u0144","operator:type":"government","amenity":"school","note":"Parent RSPO: 35242"}},{"id":73144,"type":"Feature","geometry":{"type":"Point","coordinates":[16.87339,52.40757]},"properties":{"isced:level":"3","ref:rspo":73144,"official_name":"Bran\u017cowa Szko\u0142a Specjalna I Stopnia Nr 5","name":"Bran\u017cowa Szko\u0142a Specjalna I Stopnia Nr 5","addr:country":"PL","addr:postcode":"60-389","addr:city":"Pozna\u0144","addr:street":"ul. Swoboda","addr:housenumber":"41","addr:teryt:simc":21624,"addr:teryt:sym_ul":969416,"contact:email":"sekretariat@zss101.pl","ref:regon":"634506846","operator":"Miasto Pozna\u0144","operator:type":"government","amenity":"school","note":"Parent RSPO: 35242"}},{"id":67850,"type":"Feature","geometry":{"type":"Point","coordinates":[16.87078,52.40769]},"properties":{"ref:rspo":67850,"official_name":"Przedszkole Nr 118 im. Ewy Szelburg-Zarembiny","name":"Przedszkole Nr 118","addr:country":"PL","addr:postcode":"60-392","addr:city":"Pozna\u0144","addr:street":"ul. P\u0142omienna","addr:housenumber":"1","addr:teryt:simc":16513,"addr:teryt:sym_ul":969416,"contact:phone":"+48 618614488","contact:email":"p118@poznan.interklasa.pl","ref:regon":"301619459","ref:vatin":"PL7792386294","operator":"Miasto Pozna\u0144","operator:type":"government","amenity":"kindergarten"}},{"id":132410,"type":"Feature","geometry":{"type":"Point","coordinates":[16.88191,52.40771]},"properties":{"isced:level":"1;2","ref:rspo":132410,"official_name":"Szko\u0142a Podstawowa Mistrzostwa Sportowego Marcina Gortata w Poznaniu","name":"Szko\u0142a Podstawowa Mistrzostwa Sportowego Marcina Gortata w Poznaniu","addr:country":"PL","addr:postcode":"60-365","addr:city":"Pozna\u0144","addr:street":"ul. Szamotulska","addr:housenumber":"33","addr:teryt:simc":21752,"addr:teryt:sym_ul":969416,"contact:phone":"+48 730782802","contact:email":"sekretariatpoznan@szkolagortata.pl","contact:website":"http:\/\/www.szkolagortata.pl","ref:regon":"365604815","operator":"Mg13 Sp\u00f3\u0142ka Z Ograniczon\u0105 Odpowiedzialno\u015bci\u0105","operator:type":"private","amenity":"school"}},{"id":132412,"type":"Feature","geometry":{"type":"Point","coordinates":[16.88191,52.40768]},"properties":{"isced:level":"3","ref:rspo":132412,"official_name":"Liceum Og\u00f3lnokszta\u0142c\u0105ce Szko\u0142a Mistrzostwa Sportowego Marcina Gortata w Poznaniu","name":"Liceum Og\u00f3lnokszta\u0142c\u0105ce Szko\u0142a Mistrzostwa Sportowego Marcina Gortata w Poznaniu","addr:country":"PL","addr:postcode":"60-365","addr:city":"Pozna\u0144","addr:street":"ul. Szamotulska","addr:housenumber":"33","addr:teryt:simc":21752,"addr:teryt:sym_ul":969416,"contact:phone":"+48 660769658","contact:email":"sekretariatpoznan@szkolagortata.pl","contact:website":"http:\/\/www.szkolagortata.pl","ref:regon":"365604880","operator":"Mg13 Sp\u00f3\u0142ka Z Ograniczon\u0105 Odpowiedzialno\u015bci\u0105","operator:type":"private","amenity":"school"}},{"id":91173,"type":"Feature","geometry":{"type":"Point","coordinates":[16.88191,52.407650000000004]},"properties":{"isced:level":"3","ref:rspo":91173,"official_name":"Xviii Liceum Og\u00f3lnokszta\u0142c\u0105ce","name":"Xviii Liceum Og\u00f3lnokszta\u0142c\u0105ce","addr:country":"PL","addr:postcode":"60-365","addr:city":"Pozna\u0144","addr:street":"ul. Szamotulska","addr:housenumber":"33","addr:teryt:simc":21752,"addr:teryt:sym_ul":969416,"contact:phone":"+48 618672680","contact:email":"zsdg@zsgd.poznan.pl","contact:website":"http:\/\/www.zsgd.poznan.pl","ref:regon":"630801318","operator":"Miasto Pozna\u0144","operator:type":"government","amenity":"school","note":"Parent RSPO: 42361"}},{"id":91175,"type":"Feature","geometry":{"type":"Point","coordinates":[16.88191,52.40762]},"properties":{"isced:level":"3","ref:rspo":91175,"official_name":"Technikum Geodezyjno-Drogowe","name":"Technikum Geodezyjno-Drogowe","addr:country":"PL","addr:postcode":"60-365","addr:city":"Pozna\u0144","addr:street":"ul. Szamotulska","addr:housenumber":"33","addr:teryt:simc":21752,"addr:teryt:sym_ul":969416,"contact:phone":"+48 618672680","contact:email":"zsgd@zsgd.poznan.pl","contact:website":"http:\/\/www.zsgd.poznan.pl","ref:regon":"300017860","operator":"Miasto Pozna\u0144","operator:type":"government","amenity":"school","note":"Parent RSPO: 42361"}},{"id":91176,"type":"Feature","geometry":{"type":"Point","coordinates":[16.88191,52.40759]},"properties":{"isced:level":"3","ref:rspo":91176,"official_name":"Bran\u017cowa Szko\u0142a I Stopnia Nr 18","name":"Bran\u017cowa Szko\u0142a I Stopnia Nr 18","addr:country":"PL","addr:postcode":"60-365","addr:city":"Pozna\u0144","addr:street":"ul. Szamotulska","addr:housenumber":"33","addr:teryt:simc":21752,"addr:teryt:sym_ul":969416,"contact:phone":"+48 618672680","contact:email":"zsgd@zsgd.poznan.pl","contact:website":"http:\/\/www.zsgd.poznan.pl","ref:regon":"630801270","operator":"Miasto Pozna\u0144","operator:type":"government","amenity":"school","note":"Parent RSPO: 42361"}},{"id":92111,"type":"Feature","geometry":{"type":"Point","coordinates":[16.88191,52.407560000000004]},"properties":{"isced:level":"4","ref:rspo":92111,"official_name":"Szko\u0142a Policealna Nr 18 dla Doros\u0142ych","name":"Szko\u0142a Policealna Nr 18 dla Doros\u0142ych","addr:country":"PL","addr:postcode":"60-365","addr:city":"Pozna\u0144","addr:street":"ul. Szamotulska","addr:housenumber":"33","addr:teryt:simc":21752,"addr:teryt:sym_ul":969416,"contact:phone":"+48 618672680","contact:email":"zsgd@zsgd.poznan.pl","contact:website":"http:\/\/www.zsgd.poznan.pl","ref:regon":"300017818","operator":"Miasto Pozna\u0144","operator:type":"government","amenity":"college","note":"Parent RSPO: 42361"}},{"id":92238,"type":"Feature","geometry":{"type":"Point","coordinates":[16.88191,52.40753]},"properties":{"isced:level":"4","ref:rspo":92238,"official_name":"Szko\u0142a Policealna Nr 18","name":"Szko\u0142a Policealna Nr 18","addr:country":"PL","addr:postcode":"60-365","addr:city":"Pozna\u0144","addr:street":"ul. Szamotulska","addr:housenumber":"33","addr:teryt:simc":21752,"addr:teryt:sym_ul":969416,"contact:phone":"+48 618672680","contact:email":"zsgd@zsgd.poznan.pl","contact:website":"http:\/\/www.zsgd.poznan.pl","ref:regon":"302285747","operator":"Miasto Pozna\u0144","operator:type":"government","amenity":"college","note":"Parent RSPO: 42361"}},{"id":49176,"type":"Feature","geometry":{"type":"Point","coordinates":[16.8886965,52.4079539]},"properties":{"isced:level":"1;2","ref:rspo":49176,"official_name":"Szko\u0142a Podstawowa Nr 71 im.janusza Kusoci\u0144skiego","name":"Szko\u0142a Podstawowa Nr 71 im.janusza Kusoci\u0144skiego","addr:country":"PL","addr:postcode":"60-356","addr:city":"Pozna\u0144","addr:street":"ul. Stanis\u0142awa Przybyszewskiego","addr:housenumber":"37","addr:teryt:simc":17892,"addr:teryt:sym_ul":969416,"contact:phone":"+48 618417140","contact:email":"sp-71@wp.pl","contact:website":"http:\/\/www.sp71.poznan.pl","ref:regon":"000244334","ref:vatin":"PL7811364633","operator":"Miasto Pozna\u0144","operator:type":"government","amenity":"school"}},{"id":21491,"type":"Feature","geometry":{"type":"Point","coordinates":[16.87977,52.40844]},"properties":{"ref:rspo":21491,"official_name":"Niepubliczna Poradnia Psychologiczno-Pedagogiczna \"Lamia\"","name":"Niepubliczna Poradnia Psychologiczno-Pedagogiczna \"Lamia\"","addr:country":"PL","addr:postcode":"60-369","addr:city":"Pozna\u0144","addr:street":"ul. Mgielna","addr:housenumber":"14","addr:teryt:simc":12668,"addr:teryt:sym_ul":969416,"contact:phone":"+48 501726286","ref:regon":"302230717","operator":"Agnieszka Geneja-Niedzielska","operator:type":"private","healthcare":"councelling","counselling_type":"education","fixme":"w zale\u017cno\u015bci od przedmiotu dzia\u0142alno\u015bci (np. healthcare=councelling + counselling_type=education albo healthcare=psychotherapist)"}},{"id":269294,"type":"Feature","geometry":{"type":"Point","coordinates":[16.82601,52.40854]},"properties":{"ref:rspo":269294,"official_name":"Publiczne Przedszkole Si\u00f3str Nazaretanek im. Naj\u015bwi\u0119tszej Rodziny w Poznaniu","name":"Publiczne Przedszkole Si\u00f3str Nazaretanek","addr:country":"PL","addr:postcode":"60-184","addr:city":"Pozna\u0144","addr:street":"ul. Miastkowska","addr:housenumber":"124","addr:teryt:simc":12681,"addr:teryt:sym_ul":969416,"contact:phone":"+48 618682531","contact:email":"przedszkolenazaretpoznan@op.pl","ref:regon":"381428547","operator":"Zg.ss.naj\u015bwi\u0119tszej Rodziny Z Nazaretu, Prowincja Warszawska","operator:type":"religious","amenity":"kindergarten"}},{"id":15735,"type":"Feature","geometry":{"type":"Point","coordinates":[16.8779499,52.40855]},"properties":{"ref:rspo":15735,"official_name":"Plac\u00f3wka Doskonalenia Zawodowego Delta-Plus","name":"Plac\u00f3wka Doskonalenia Zawodowego Delta-Plus","addr:country":"PL","addr:postcode":"60-375","addr:city":"Pozna\u0144","addr:street":"ul. \u015awit","addr:housenumber":"25","addr:teryt:simc":22576,"addr:teryt:sym_ul":969416,"contact:phone":"+48 512440670","contact:email":"deltapluspoznan@gmail.com","ref:regon":"302215480","operator":"Ewa Majerowicz-Kwa\u015bniak","operator:type":"private","fixme":"w zale\u017cno\u015bci od przedmiotu dzia\u0142alno\u015bci (np. amenity=training + training=*, amenity=dancing_school, amenity=language_school, amenity=music_school)"}},{"id":90709,"type":"Feature","geometry":{"type":"Point","coordinates":[16.8779499,52.408519999999996]},"properties":{"isced:level":"3","ref:rspo":90709,"official_name":"Xxvii Liceum Og\u00f3lnokszta\u0142c\u0105ce dla Doros\u0142ych","name":"Xxvii Liceum Og\u00f3lnokszta\u0142c\u0105ce dla Doros\u0142ych","addr:country":"PL","addr:postcode":"60-375","addr:city":"Pozna\u0144","addr:street":"ul. \u015awit","addr:housenumber":"25","addr:teryt:simc":22576,"addr:teryt:sym_ul":969416,"contact:phone":"+48 618616700","contact:email":"zse2@interia.pl","contact:website":"http:\/\/www.zse2.poznan.pl","ref:regon":"300525696","operator":"Miasto Pozna\u0144","operator:type":"government","amenity":"school"}},{"id":123491,"type":"Feature","geometry":{"type":"Point","coordinates":[16.8779499,52.40849]},"properties":{"ref:rspo":123491,"official_name":"Nr 1 w Poznaniu","name":"Nr 1 w Poznaniu","addr:country":"PL","addr:postcode":"60-375","addr:city":"Pozna\u0144","addr:street":"ul. \u015awit","addr:housenumber":"25","addr:teryt:simc":22576,"addr:teryt:sym_ul":969416,"contact:phone":"+48 731721000","ref:regon":"302769416","operator":"Pawe\u0142 Chmiel","operator:type":"private","fixme":"w zale\u017cno\u015bci od przedmiotu dzia\u0142alno\u015bci (np. amenity=training + training=*, amenity=dancing_school, amenity=language_school, amenity=music_school)"}},{"id":278134,"type":"Feature","geometry":{"type":"Point","coordinates":[16.8779499,52.40846]},"properties":{"isced:level":"4","ref:rspo":278134,"official_name":"Policealna Szko\u0142a Zawodowa Centrum Nauki, Biznesu I Administracji w Poznaniu","name":"Policealna Szko\u0142a Zawodowa Centrum Nauki, Biznesu I Administracji w Poznaniu","addr:country":"PL","addr:postcode":"60-375","addr:city":"Pozna\u0144","addr:street":"ul. \u015awit","addr:housenumber":"25","addr:teryt:simc":22576,"addr:teryt:sym_ul":969416,"contact:email":"k.gandecka@policealna.szkola.pl","ref:regon":"389859086","operator":"Europejski Instytut Edukacji, Biznesu I Medycyny Sp\u00f3\u0142ka Z Ograniczon\u0105 Odpowiedzialno\u015bci\u0105","operator:type":"private","amenity":"college"}},{"id":278955,"type":"Feature","geometry":{"type":"Point","coordinates":[16.8779499,52.408429999999996]},"properties":{"ref:rspo":278955,"official_name":"Plac\u00f3wka Kszta\u0142cenia Ustawicznego Centrum Nauki, Biznesu I Administracji w Poznaniu","name":"Plac\u00f3wka Kszta\u0142cenia Ustawicznego Centrum Nauki, Biznesu I Administracji w Poznaniu","addr:country":"PL","addr:postcode":"60-375","addr:city":"Pozna\u0144","addr:street":"ul. \u015awit","addr:housenumber":"25","addr:teryt:simc":22576,"addr:teryt:sym_ul":969416,"contact:email":"k.gandecka@policealna.szkola.pl","ref:regon":"520292550","operator":"Europejski Instytut Edukacji, Biznesu I Medycyny Sp\u00f3\u0142ka Z Ograniczon\u0105 Odpowiedzialno\u015bci\u0105","operator:type":"private","fixme":"w zale\u017cno\u015bci od przedmiotu dzia\u0142alno\u015bci (np. amenity=training + training=*, amenity=dancing_school, amenity=language_school, amenity=music_school)"}},{"id":90706,"type":"Feature","geometry":{"type":"Point","coordinates":[16.8779499,52.4084]},"properties":{"isced:level":"3","ref:rspo":90706,"official_name":"Technikum Elektryczno-Elektroniczne","name":"Technikum Elektryczno-Elektroniczne","addr:country":"PL","addr:postcode":"60-375","addr:city":"Pozna\u0144","addr:street":"ul. \u015awit","addr:housenumber":"25","addr:teryt:simc":22576,"addr:teryt:sym_ul":969416,"contact:phone":"+48 618616700","contact:email":"zse2@interia.pl","contact:website":"http:\/\/www.zse2.poznan.pl","ref:regon":"300018574","operator":"Miasto Pozna\u0144","operator:type":"government","amenity":"school","note":"Parent RSPO: 31776"}},{"id":90708,"type":"Feature","geometry":{"type":"Point","coordinates":[16.8779499,52.40837]},"properties":{"isced:level":"3","ref:rspo":90708,"official_name":"Bran\u017cowa Szko\u0142a I Stopnia Nr 27","name":"Bran\u017cowa Szko\u0142a I Stopnia Nr 27","addr:country":"PL","addr:postcode":"60-375","addr:city":"Pozna\u0144","addr:street":"ul. \u015awit","addr:housenumber":"25","addr:teryt:simc":22576,"addr:teryt:sym_ul":969416,"contact:phone":"+48 618616700","contact:email":"zse2@interia.pl","contact:website":"http:\/\/www.zse2.poznan.pl","ref:regon":"300018611","operator":"Miasto Pozna\u0144","operator:type":"government","amenity":"school","note":"Parent RSPO: 31776"}},{"id":133722,"type":"Feature","geometry":{"type":"Point","coordinates":[16.8753395,52.4097144]},"properties":{"ref:rspo":133722,"official_name":"Przedszkole Pyza W\u0119drowniczka","name":"Przedszkole Pyza W\u0119drowniczka","addr:country":"PL","addr:postcode":"60-376","addr:city":"Pozna\u0144","addr:street":"ul. \u015awit","addr:housenumber":"40","addr:door":"42","addr:teryt:simc":22576,"addr:teryt:sym_ul":969416,"contact:phone":"+48 618683943","contact:email":"biuro@pyzawedrowniczka.pl","contact:website":"http:\/\/www.pyzawedrowniczka.pl","ref:regon":"367558628","operator":"Justyna Torwart","operator:type":"private","amenity":"kindergarten"}},{"id":58269,"type":"Feature","geometry":{"type":"Point","coordinates":[16.87996,52.40974]},"properties":{"ref:rspo":58269,"official_name":"Przedszkole Nr 110\n\"Weso\u0142y Domek\"","name":"Przedszkole Nr 110\n\"Weso\u0142y Domek\"","addr:country":"PL","addr:postcode":"60-375","addr:city":"Pozna\u0144","addr:street":"ul. \u015awit","addr:housenumber":"16a","addr:teryt:simc":22576,"addr:teryt:sym_ul":969416,"contact:phone":"+48 618614440","contact:email":"p110@poznan.interklasa.pl","ref:regon":"301623283","ref:vatin":"PL7792386064","operator":"Miasto Pozna\u0144","operator:type":"government","amenity":"kindergarten"}},{"id":133670,"type":"Feature","geometry":{"type":"Point","coordinates":[16.86985,52.40979]},"properties":{"isced:level":"1;2","ref:rspo":133670,"official_name":"Szko\u0142a Podstawowa Nr 91Z Oddzia\u0142ami Dwuj\u0119zycznymi","name":"Szko\u0142a Podstawowa Nr 91Z Oddzia\u0142ami Dwuj\u0119zycznymi","addr:country":"PL","addr:postcode":"60-393","addr:city":"Pozna\u0144","addr:street":"ul. Promyk","addr:housenumber":"4","addr:teryt:simc":17539,"addr:teryt:sym_ul":969416,"contact:phone":"+48 618618176","contact:email":"sekretariat@sp91.pl","contact:website":"http:\/\/www.sp91.pl","ref:regon":"367523682","operator":"Miasto Pozna\u0144","operator:type":"government","amenity":"school"}},{"id":80776,"type":"Feature","geometry":{"type":"Point","coordinates":[16.8226,52.40992]},"properties":{"isced:level":"1;2","ref:rspo":80776,"official_name":"Szko\u0142a Podstawowa Nr 58 im. Jerzego Kukuczki","name":"Szko\u0142a Podstawowa Nr 58","addr:country":"PL","addr:postcode":"60-186","addr:city":"Pozna\u0144","addr:street":"ul. \u0141awica","addr:housenumber":"3","addr:teryt:simc":11545,"addr:teryt:sym_ul":969416,"contact:phone":"+48 618681861","contact:email":"sp58@wp.pl","contact:website":"http:\/\/www.sp58poznan.edupage.org","ref:regon":"000244713","ref:vatin":"PL7791436469","operator":"Miasto Pozna\u0144","operator:type":"government","amenity":"school"}},{"id":58382,"type":"Feature","geometry":{"type":"Point","coordinates":[16.81826,52.41022]},"properties":{"ref:rspo":58382,"official_name":"Przedszkole Nr 36 im. Marii Kownackiej","name":"Przedszkole Nr 36","addr:country":"PL","addr:postcode":"60-182","addr:city":"Pozna\u0144","addr:street":"ul. Perzycka","addr:housenumber":"30b","addr:teryt:simc":15964,"addr:teryt:sym_ul":969416,"contact:phone":"+48 616771001","contact:email":"przedszkole36@post.pl","contact:website":"http:\/\/www.przedszkole36.poznan.pl","ref:regon":"301628346","ref:vatin":"PL7792386101","operator":"Miasto Pozna\u0144","operator:type":"government","amenity":"kindergarten"}},{"id":83084,"type":"Feature","geometry":{"type":"Point","coordinates":[16.82902,52.41166]},"properties":{"ref:rspo":83084,"official_name":"Przedszkole Niepubliczne \"Educandi\"","name":"Przedszkole Niepubliczne \"Educandi\"","addr:country":"PL","addr:postcode":"60-189","addr:city":"Pozna\u0144","addr:street":"ul. Z\u0142otowska","addr:housenumber":"32","addr:teryt:simc":26213,"addr:teryt:sym_ul":969416,"contact:phone":"+48 793407333","contact:email":"elzbieta.rosinska@wp.pl","ref:regon":"302270846","operator":"El\u017cbieta Rosi\u0144ska","operator:type":"private","amenity":"kindergarten"}},{"id":82988,"type":"Feature","geometry":{"type":"Point","coordinates":[16.81943,52.41213]},"properties":{"ref:rspo":82988,"official_name":"Przedszkole Ogrody Montessori","name":"Przedszkole Ogrody Montessori","addr:country":"PL","addr:postcode":"60-182","addr:city":"Pozna\u0144","addr:street":"ul. Perzycka","addr:housenumber":"11","addr:teryt:simc":15964,"addr:teryt:sym_ul":969416,"contact:phone":"+48 608498400","contact:email":"mierkiewicz@ogrodymontessori.pl","contact:website":"http:\/\/www.ogrodymontessori.pl","ref:regon":"302270622","operator":"Marzena Mierkiewicz","operator:type":"private","amenity":"kindergarten"}}]}