{
    "type": "FeatureCollection",
    "features": [
        {
            "id": 66380,
            "type": "Feature",
            "geometry": {
                "type": "Point",
                "coordinates": [
                    16.975940704346,
                    52.111480712891
                ]
            },
            "properties": {
                "isced:level": "1;2",
                "ref:rspo": 66380,
                "official_name": "Szko\u0142a Podstawowa nr 50 im. I Dywizji Pancernej Gen. S. Maczka",
                "name": "Szko\u0142a Podstawowa nr 50",
                "addr:postcode": "61-249",
                "addr:city": "Pozna\u0144",
                "addr:street": "os. Stare \u017begrze",
                "addr:housenumber": "1",
                "addr:city:simc": 969400,
                "addr:street:sym_ul": 20900,
                "phone": "+48 618797791",
                "email": "sekretariat@sp50-poznan.pl",
                "website": "http:\/\/www.sp50-poznan.pl",
                "ref:regon": "631576556",
                "ref:vatin": "PL7822248511",
                "operator": "Miasto Pozna\u0144",
                "operator:type": "government",
                "amenity": "school",
                "note": "Parent RSPO: 29424"
            }
        },
        {
            "id": 83369,
            "type": "Feature",
            "geometry": {
                "type": "Point",
                "coordinates": [
                    16.9466,
                    52.32264
                ]
            },
            "properties": {
                "ref:rspo": 83369,
                "official_name": "Szkolne Schronisko M\u0142odzie\u017cowe nr 1",
                "name": "Szkolne Schronisko M\u0142odzie\u017cowe nr 1",
                "addr:postcode": "61-329",
                "addr:city": "Pozna\u0144",
                "addr:street": "G\u0142uszyna",
                "addr:housenumber": "127",
                "addr:city:simc": 969400,
                "addr:street:sym_ul": 5651,
                "phone": "+48 618788907",
                "email": "sekretariat@sp53.poznan.pl",
                "ref:regon": "000942038",
                "ref:vatin": "PL7821144643",
                "operator": "Miasto Pozna\u0144",
                "operator:type": "government",
                "tourism": "hostel",
                "note": "Parent RSPO: 29418"
            }
        },
        {
            "id": 79296,
            "type": "Feature",
            "geometry": {
                "type": "Point",
                "coordinates": [
                    16.90253,
                    52.36615
                ]
            },
            "properties": {
                "ref:rspo": 79296,
                "official_name": "Zesp\u00f3\u0142 Szk\u00f3\u0142 Licealno-Technicznych",
                "name": "Zesp\u00f3\u0142 Szk\u00f3\u0142 Licealno-Technicznych",
                "addr:postcode": "61-441",
                "addr:city": "Pozna\u0144",
                "addr:street": "28 Czerwca 1956 roku",
                "addr:housenumber": "352\/360",
                "addr:city:simc": 969400,
                "addr:street:sym_ul": 3410,
                "phone": "+48 618320033",
                "email": "sekretariat@zslt.edu.pl",
                "website": "http:\/\/www.zslt.edu.pl",
                "ref:regon": "000248177",
                "ref:vatin": "PL7831505798",
                "operator": "Miasto Pozna\u0144",
                "operator:type": "government",
                "landuse": "education",
                "fixme": "amenity=school, amenity=college albo landuse=education w zale\u017cno\u015bci od tego, jakie plac\u00f3wki wchodz\u0105 w sk\u0142ad zespo\u0142u. Sprawd\u017a, kiedy stosowa\u0107 amenity=* a kiedy landuse=education."
            }
        },
        {
            "id": 87688,
            "type": "Feature",
            "geometry": {
                "type": "Point",
                "coordinates": [
                    16.9086399,
                    52.36915
                ]
            },
            "properties": {
                "isced:level": "4",
                "ref:rspo": 87688,
                "official_name": "Szko\u0142a Aspirant\u00f3w Pa\u0144stwowej Stra\u017cy Po\u017carnej w Poznaniu",
                "name": "Szko\u0142a Aspirant\u00f3w Pa\u0144stwowej Stra\u017cy Po\u017carnej w Poznaniu",
                "addr:postcode": "61-459",
                "addr:city": "Pozna\u0144",
                "addr:street": "Czechos\u0142owacka",
                "addr:housenumber": "27",
                "addr:city:simc": 969400,
                "addr:street:sym_ul": 3336,
                "phone": "+48 618355800",
                "email": "szkola@sapsp.edu.pl",
                "website": "http:\/\/www.sapsp.edu.pl",
                "ref:regon": "000173433",
                "ref:vatin": "PL7831082949",
                "operator": "Ministerstwo Spraw Wewn\u0119trznych I Administracji",
                "operator:type": "public",
                "amenity": "college"
            }
        },
        {
            "id": 29132,
            "type": "Feature",
            "geometry": {
                "type": "Point",
                "coordinates": [
                    16.93408,
                    52.37146
                ]
            },
            "properties": {
                "ref:rspo": 29132,
                "official_name": "Zesp\u00f3\u0142 Szk\u00f3\u0142 Chemicznych",
                "name": "Zesp\u00f3\u0142 Szk\u00f3\u0142 Chemicznych",
                "addr:postcode": "61-361",
                "addr:city": "Pozna\u0144",
                "addr:street": "Staro\u0142\u0119cka",
                "addr:housenumber": "36",
                "addr:city:simc": 969400,
                "addr:street:sym_ul": 20950,
                "phone": "+48 618772640",
                "email": "zschem@poczta.fm",
                "website": "http:\/\/www.zsch.pl",
                "ref:regon": "000247769",
                "ref:vatin": "PL7821415177",
                "operator": "Miasto Pozna\u0144",
                "operator:type": "government",
                "landuse": "education",
                "fixme": "amenity=school, amenity=college albo landuse=education w zale\u017cno\u015bci od tego, jakie plac\u00f3wki wchodz\u0105 w sk\u0142ad zespo\u0142u. Sprawd\u017a, kiedy stosowa\u0107 amenity=* a kiedy landuse=education."
            }
        },
        {
            "id": 41971,
            "type": "Feature",
            "geometry": {
                "type": "Point",
                "coordinates": [
                    16.94069,
                    52.38225
                ]
            },
            "properties": {
                "ref:rspo": 41971,
                "official_name": "Zesp\u00f3\u0142 Szk\u00f3\u0142 Samochodowych im. In\u017c. Tadeusza Ta\u0144skiego",
                "name": "Zesp\u00f3\u0142 Szk\u00f3\u0142 Samochodowych",
                "addr:postcode": "61-139",
                "addr:city": "Pozna\u0144",
                "addr:street": "Ludwika Zamenhofa",
                "addr:housenumber": "142",
                "addr:city:simc": 969400,
                "addr:street:sym_ul": 25536,
                "phone": "+48 618791241",
                "email": "zss@samochodowka.edu.pl",
                "website": "http:\/\/www.samochodowka.edu.pl",
                "ref:regon": "000253089",
                "ref:vatin": "PL7821418431",
                "operator": "Miasto Pozna\u0144",
                "operator:type": "government",
                "landuse": "education",
                "fixme": "amenity=school, amenity=college albo landuse=education w zale\u017cno\u015bci od tego, jakie plac\u00f3wki wchodz\u0105 w sk\u0142ad zespo\u0142u. Sprawd\u017a, kiedy stosowa\u0107 amenity=* a kiedy landuse=education.",
                "note": "Children RSPO: 90588;90589;276218"
            }
        },
        {
            "id": 29624,
            "type": "Feature",
            "geometry": {
                "type": "Point",
                "coordinates": [
                    16.92074,
                    52.38567
                ]
            },
            "properties": {
                "isced:level": "3",
                "ref:rspo": 29624,
                "official_name": "V Liceum Og\u00f3lnokszta\u0142c\u0105ce im. Klaudyny Potockiej",
                "name": "V Liceum Og\u00f3lnokszta\u0142c\u0105ce",
                "addr:postcode": "61-501",
                "addr:city": "Pozna\u0144",
                "addr:street": "Zmartwychwsta\u0144c\u00f3w",
                "addr:housenumber": "10",
                "addr:city:simc": 969400,
                "addr:street:sym_ul": 26226,
                "phone": "+48 618333831",
                "email": "vlo@vlo.poznan.pl",
                "website": "http:\/\/www.vlo.poznan.pl",
                "ref:regon": "000245173",
                "ref:vatin": "PL7831156961",
                "operator": "Miasto Pozna\u0144",
                "operator:type": "government",
                "amenity": "school"
            }
        },
        {
            "id": 29142,
            "type": "Feature",
            "geometry": {
                "type": "Point",
                "coordinates": [
                    16.94113,
                    52.38646
                ]
            },
            "properties": {
                "isced:level": "3",
                "ref:rspo": 29142,
                "official_name": "Xiv Liceum Og\u00f3lnokszta\u0142c\u0105ce im. Kazimierza Wielkiego",
                "name": "Xiv Liceum Og\u00f3lnokszta\u0142c\u0105ce",
                "addr:postcode": "61-164",
                "addr:city": "Pozna\u0144",
                "addr:street": "os. Piastowskie",
                "addr:housenumber": "106",
                "addr:city:simc": 969400,
                "addr:street:sym_ul": 16052,
                "phone": "+48 618773632",
                "email": "lo14@vp.pl",
                "website": "http:\/\/www.czternastelo.pl",
                "ref:regon": "000251311",
                "ref:vatin": "PL7821415125",
                "operator": "Miasto Pozna\u0144",
                "operator:type": "government",
                "amenity": "school"
            }
        },
        {
            "id": 71147,
            "type": "Feature",
            "geometry": {
                "type": "Point",
                "coordinates": [
                    16.8885599,
                    52.38912
                ]
            },
            "properties": {
                "isced:level": "1;2",
                "ref:rspo": 71147,
                "official_name": "Szko\u0142a Podstawowa nr 69 im.jarogniewa Drw\u0119skiego Szko\u0142a Mistrzostwa Sportowego w Poznaniu",
                "name": "Szko\u0142a Podstawowa nr 69 im.jarogniewa Drw\u0119skiego Szko\u0142a Mistrzostwa Sportowego w Poznaniu",
                "addr:postcode": "60-249",
                "addr:city": "Pozna\u0144",
                "addr:street": "Kazimierza Jarochowskiego",
                "addr:housenumber": "62",
                "addr:city:simc": 969400,
                "addr:street:sym_ul": 7251,
                "phone": "+48 618663621",
                "email": "sp69sms@wp.pl",
                "website": "http:\/\/sp69sms.pl",
                "ref:regon": "000245405",
                "ref:vatin": "PL7792380972",
                "operator": "Miasto Pozna\u0144",
                "operator:type": "government",
                "amenity": "school",
                "note": "Parent RSPO: 29599"
            }
        },
        {
            "id": 29893,
            "type": "Feature",
            "geometry": {
                "type": "Point",
                "coordinates": [
                    16.85554,
                    52.38976
                ]
            },
            "properties": {
                "ref:rspo": 29893,
                "official_name": "Pozna\u0144skie Centrum Edukacji Ustawicznej I Praktycznej",
                "name": "Pozna\u0144skie Centrum Edukacji Ustawicznej I Praktycznej",
                "addr:postcode": "60-161",
                "addr:city": "Pozna\u0144",
                "addr:street": "Jawornicka",
                "addr:housenumber": "1",
                "addr:city:simc": 969400,
                "addr:street:sym_ul": 7391,
                "phone": "+48 616606600",
                "email": "sekretariat@pceuip.pl",
                "website": "http:\/\/www.pceuip.pl",
                "ref:regon": "301627335",
                "ref:vatin": "PL7792386035",
                "operator": "Miasto Pozna\u0144",
                "operator:type": "government",
                "landuse": "education",
                "fixme": "amenity=school, amenity=college albo landuse=education w zale\u017cno\u015bci od tego, jakie plac\u00f3wki wchodz\u0105 w sk\u0142ad zespo\u0142u. Sprawd\u017a, kiedy stosowa\u0107 amenity=* a kiedy landuse=education."
            }
        },
        {
            "id": 70607,
            "type": "Feature",
            "geometry": {
                "type": "Point",
                "coordinates": [
                    16.9792,
                    52.39367
                ]
            },
            "properties": {
                "ref:rspo": 70607,
                "official_name": "Przedszkole nr 160\n\"Bia\u0142y Orze\u0142\"",
                "name": "Przedszkole nr 160\n\"Bia\u0142y Orze\u0142\"",
                "addr:postcode": "61-255",
                "addr:city": "Pozna\u0144",
                "addr:street": "os. Tysi\u0105clecia",
                "addr:housenumber": "69",
                "addr:city:simc": 969400,
                "addr:street:sym_ul": 23267,
                "phone": "+48 618760311",
                "email": "p160@poznan.interklasa.pl",
                "website": "http:\/\/www.przedszkole160.poznan.pl",
                "ref:regon": "301623923",
                "ref:vatin": "PL7822518241",
                "operator": "Miasto Pozna\u0144",
                "operator:type": "government",
                "amenity": "kindergarten"
            }
        },
        {
            "id": 48743,
            "type": "Feature",
            "geometry": {
                "type": "Point",
                "coordinates": [
                    16.93386,
                    52.3948899
                ]
            },
            "properties": {
                "ref:rspo": 48743,
                "official_name": "M\u0142odzie\u017cowy Dom Kultury Nr1",
                "name": "M\u0142odzie\u017cowy Dom Kultury Nr1",
                "addr:postcode": "61-555",
                "addr:city": "Pozna\u0144",
                "addr:street": "Droga D\u0119bi\u0144ska",
                "addr:housenumber": "21",
                "addr:city:simc": 969400,
                "addr:street:sym_ul": 4204,
                "phone": "+48 618337910",
                "email": "sekretariat@mdk1.nazwa.pl",
                "website": "http:\/\/mdk1.pl",
                "ref:regon": "000281080",
                "ref:vatin": "PL7831481477",
                "operator": "Miasto Pozna\u0144",
                "operator:type": "government",
                "amenity": "community_centre",
                "community_centre:for": "juvenile"
            }
        },
        {
            "id": 43558,
            "type": "Feature",
            "geometry": {
                "type": "Point",
                "coordinates": [
                    16.8659399,
                    52.39591
                ]
            },
            "properties": {
                "isced:level": "3",
                "ref:rspo": 43558,
                "official_name": "Xi Liceum Og\u00f3lnokszta\u0142c\u0105ce \nIm. Jadwigi I Wac\u0142awa Zembrzuskich",
                "name": "Xi Liceum Og\u00f3lnokszta\u0142c\u0105ce \nIm. Jadwigi I Wac\u0142awa Zembrzuskich",
                "addr:postcode": "60-304",
                "addr:city": "Pozna\u0144",
                "addr:street": "Piotra \u015aciegiennego",
                "addr:housenumber": "134",
                "addr:city:simc": 969400,
                "addr:street:sym_ul": 22291,
                "phone": "+48 618673416",
                "email": "info@lo11.pl",
                "website": "http:\/\/www.lo11.pl",
                "ref:regon": "000254083",
                "ref:vatin": "PL7791965624",
                "operator": "Miasto Pozna\u0144",
                "operator:type": "government",
                "amenity": "school"
            }
        },
        {
            "id": 85236,
            "type": "Feature",
            "geometry": {
                "type": "Point",
                "coordinates": [
                    16.9020513,
                    52.3980844
                ]
            },
            "properties": {
                "ref:rspo": 85236,
                "official_name": "Szkolne Schronisko M\u0142odzie\u017cowe nr 3",
                "name": "Szkolne Schronisko M\u0142odzie\u017cowe nr 3",
                "addr:postcode": "60-765",
                "addr:city": "Pozna\u0144",
                "addr:street": "Ryszarda Berwi\u0144skiego",
                "addr:housenumber": "2",
                "addr:door": "4",
                "addr:city:simc": 969400,
                "addr:street:sym_ul": 1098,
                "phone": "+48 618664040",
                "email": "zsipo.sekretariat@interia.pl",
                "website": "http:\/\/zsipopoznan.pl",
                "ref:regon": "000942015",
                "ref:vatin": "PL7792340240",
                "operator": "Miasto Pozna\u0144",
                "operator:type": "government",
                "tourism": "hostel",
                "note": "Parent RSPO: 77909"
            }
        },
        {
            "id": 48778,
            "type": "Feature",
            "geometry": {
                "type": "Point",
                "coordinates": [
                    16.89547,
                    52.39861
                ]
            },
            "properties": {
                "ref:rspo": 48778,
                "official_name": "M\u0142odzie\u017cowy Dom Kultury nr 3",
                "name": "M\u0142odzie\u017cowy Dom Kultury nr 3",
                "addr:postcode": "60-235",
                "addr:city": "Pozna\u0144",
                "addr:street": "Kazimierza Jarochowskiego",
                "addr:housenumber": "1",
                "addr:city:simc": 969400,
                "addr:street:sym_ul": 7251,
                "phone": "+48 618665747",
                "email": "mdk3@tmpsc.pl",
                "website": "http:\/\/www.mdk3lazarz.pl",
                "ref:regon": "632049095",
                "ref:vatin": "PL7791494610",
                "operator": "Miasto Pozna\u0144",
                "operator:type": "government",
                "amenity": "community_centre",
                "community_centre:for": "juvenile"
            }
        },
        {
            "id": 30475,
            "type": "Feature",
            "geometry": {
                "type": "Point",
                "coordinates": [
                    16.9323799,
                    52.40018
                ]
            },
            "properties": {
                "ref:rspo": 30475,
                "official_name": "Zesp\u00f3L Szk\u00f3\u0142 Og\u00f3lnokszta\u0142c\u0105cych \nNr 7",
                "name": "Zesp\u00f3L Szk\u00f3\u0142 Og\u00f3lnokszta\u0142c\u0105cych \nNr 7",
                "addr:postcode": "61-884",
                "addr:city": "Pozna\u0144",
                "addr:street": "Krakowska",
                "addr:housenumber": "17a",
                "addr:city:simc": 969400,
                "addr:street:sym_ul": 9796,
                "phone": "+48 618524622",
                "email": "sekretariat@paderek.poznan.pl",
                "website": "http:\/\/www.paderek.poznan.pl",
                "ref:regon": "000246563",
                "ref:vatin": "PL7781329200",
                "operator": "Miasto Pozna\u0144",
                "operator:type": "government",
                "landuse": "education",
                "fixme": "amenity=school, amenity=college albo landuse=education w zale\u017cno\u015bci od tego, jakie plac\u00f3wki wchodz\u0105 w sk\u0142ad zespo\u0142u. Sprawd\u017a, kiedy stosowa\u0107 amenity=* a kiedy landuse=education.",
                "note": "Children RSPO: 86171;88192"
            }
        },
        {
            "id": 86171,
            "type": "Feature",
            "geometry": {
                "type": "Point",
                "coordinates": [
                    16.9323799,
                    52.40015
                ]
            },
            "properties": {
                "isced:level": "3",
                "ref:rspo": 86171,
                "official_name": "Vi Liceum Og\u00f3lnokszta\u0142c\u0105ce im. Ignacego Jana Paderewskiego",
                "name": "Vi Liceum Og\u00f3lnokszta\u0142c\u0105ce",
                "addr:postcode": "61-889",
                "addr:city": "Pozna\u0144",
                "addr:street": "Krakowska",
                "addr:housenumber": "17a",
                "addr:city:simc": 969400,
                "addr:street:sym_ul": 9796,
                "phone": "+48 618524622",
                "email": "sekretariat@paderek.poznan.pl",
                "website": "http:\/\/www.paderek.poznan.pl",
                "ref:regon": "630704940",
                "operator": "Miasto Pozna\u0144",
                "operator:type": "government",
                "amenity": "school",
                "note": "Parent RSPO: 30475"
            }
        },
        {
            "id": 48785,
            "type": "Feature",
            "geometry": {
                "type": "Point",
                "coordinates": [
                    16.93197,
                    52.40028
                ]
            },
            "properties": {
                "ref:rspo": 48785,
                "official_name": "Bursa Szkolna nr 1",
                "name": "Bursa Szkolna nr 1",
                "addr:postcode": "61-889",
                "addr:city": "Pozna\u0144",
                "addr:street": "Krakowska",
                "addr:housenumber": "17",
                "addr:city:simc": 969400,
                "addr:street:sym_ul": 9796,
                "phone": "+48 618524079",
                "email": "sekretariat@bursa1.poznan.pl",
                "website": "http:\/\/bursa1.poznan.pl",
                "ref:regon": "000253557",
                "ref:vatin": "PL7781047513",
                "operator": "Miasto Pozna\u0144",
                "operator:type": "government",
                "building": "dormitory"
            }
        },
        {
            "id": 53780,
            "type": "Feature",
            "geometry": {
                "type": "Point",
                "coordinates": [
                    16.92186,
                    52.40258
                ]
            },
            "properties": {
                "ref:rspo": 53780,
                "official_name": "Centrum Doskonalenia - Teb Edukacja",
                "name": "Centrum Doskonalenia - Teb Edukacja",
                "addr:postcode": "61-874",
                "addr:city": "Pozna\u0144",
                "addr:street": "al. Niepodleg\u0142o\u015bci",
                "addr:housenumber": "2",
                "addr:city:simc": 969400,
                "addr:street:sym_ul": 14199,
                "phone": "+48 618853460",
                "ref:regon": "302256094",
                "ref:vatin": "PL7781456499",
                "operator": "Dane Do Uzupe\u0142nienia",
                "operator:type": "private",
                "amenity": "training"
            }
        },
        {
            "id": 43580,
            "type": "Feature",
            "geometry": {
                "type": "Point",
                "coordinates": [
                    16.93751,
                    52.40396
                ]
            },
            "properties": {
                "isced:level": "3",
                "ref:rspo": 43580,
                "official_name": "Liceum Og\u00f3lnokszta\u0142c\u0105ce \u015aw. Marii Magdaleny",
                "name": "Liceum Og\u00f3lnokszta\u0142c\u0105ce \u015aw. Marii Magdaleny",
                "addr:postcode": "61-867",
                "addr:city": "Pozna\u0144",
                "addr:street": "Garbary",
                "addr:housenumber": "24",
                "addr:city:simc": 969400,
                "addr:street:sym_ul": 5321,
                "phone": "+48 618527705",
                "email": "liceum@marynka.edu.pl",
                "website": "http:\/\/www.marynka.edu.pl",
                "ref:regon": "004818619",
                "ref:vatin": "PL7781063653",
                "operator": "Miasto Pozna\u0144",
                "operator:type": "government",
                "amenity": "school"
            }
        },
        {
            "id": 31832,
            "type": "Feature",
            "geometry": {
                "type": "Point",
                "coordinates": [
                    16.93268,
                    52.40444
                ]
            },
            "properties": {
                "isced:level": "3",
                "ref:rspo": 31832,
                "official_name": "Iii Liceum Og\u00f3lnokszta\u0142c\u0105ce im. \u015aw. Jana Kantego",
                "name": "Iii Liceum Og\u00f3lnokszta\u0142c\u0105ce",
                "addr:postcode": "61-845",
                "addr:city": "Pozna\u0144",
                "addr:street": "Strzelecka",
                "addr:housenumber": "10",
                "addr:city:simc": 969400,
                "addr:street:sym_ul": 21381,
                "phone": "+48 618524650",
                "email": "sekretariat@lo3.edu.pl",
                "website": "http:\/\/lo3.edu.pl",
                "ref:regon": "000246296",
                "ref:vatin": "PL7781334388",
                "operator": "Miasto Pozna\u0144",
                "operator:type": "government",
                "amenity": "school"
            }
        },
        {
            "id": 79204,
            "type": "Feature",
            "geometry": {
                "type": "Point",
                "coordinates": [
                    16.90366,
                    52.40713
                ]
            },
            "properties": {
                "isced:level": "3",
                "ref:rspo": 79204,
                "official_name": "I Liceum Og\u00f3lnokszta\u0142c\u0105ce im. Karola Marcinkowskiego",
                "name": "I Liceum Og\u00f3lnokszta\u0142c\u0105ce",
                "addr:postcode": "60-809",
                "addr:city": "Pozna\u0144",
                "addr:street": "Bukowska",
                "addr:housenumber": "16",
                "addr:city:simc": 969400,
                "addr:street:sym_ul": 2396,
                "phone": "+48 618464920",
                "email": "marcinek@marcinek.poznan.pl",
                "website": "http:\/\/www.marcinek.poznan.pl",
                "ref:regon": "000248562",
                "operator": "Miasto Pozna\u0144",
                "operator:type": "government",
                "amenity": "school",
                "note": "Parent RSPO: 43555"
            }
        },
        {
            "id": 42361,
            "type": "Feature",
            "geometry": {
                "type": "Point",
                "coordinates": [
                    16.88191,
                    52.40771
                ]
            },
            "properties": {
                "ref:rspo": 42361,
                "official_name": "Zesp\u00f3\u0142 Szk\u00f3\u0142 Geodezyjno-Drogowych im. Rudolfa Modrzejewskiego",
                "name": "Zesp\u00f3\u0142 Szk\u00f3\u0142 Geodezyjno-Drogowych",
                "addr:postcode": "60-365",
                "addr:city": "Pozna\u0144",
                "addr:street": "Szamotulska",
                "addr:housenumber": "33",
                "addr:city:simc": 969400,
                "addr:street:sym_ul": 21752,
                "phone": "+48 618673203",
                "email": "zsgd@zsgd.poznan.pl",
                "website": "http:\/\/www.zsgd.poznan.pl",
                "ref:regon": "000250197",
                "ref:vatin": "PL7791493846",
                "operator": "Miasto Pozna\u0144",
                "operator:type": "government",
                "landuse": "education",
                "fixme": "amenity=school, amenity=college albo landuse=education w zale\u017cno\u015bci od tego, jakie plac\u00f3wki wchodz\u0105 w sk\u0142ad zespo\u0142u. Sprawd\u017a, kiedy stosowa\u0107 amenity=* a kiedy landuse=education.",
                "note": "Children RSPO: 91173;91175;91176;92111;92238"
            }
        },
        {
            "id": 48784,
            "type": "Feature",
            "geometry": {
                "type": "Point",
                "coordinates": [
                    16.8877099,
                    52.40818
                ]
            },
            "properties": {
                "ref:rspo": 48784,
                "official_name": "Ogr\u00f3d Jordanowski nr 2",
                "name": "Ogr\u00f3d Jordanowski nr 2",
                "addr:postcode": "60-357",
                "addr:city": "Pozna\u0144",
                "addr:street": "Stanis\u0142awa Przybyszewskiego",
                "addr:housenumber": "30A",
                "addr:city:simc": 969400,
                "addr:street:sym_ul": 17892,
                "phone": "+48 618473627",
                "email": "ogrodjordanowskinr2@wp.pl",
                "website": "http:\/\/oj2poznan.pl",
                "ref:regon": "632049161",
                "ref:vatin": "PL7811532869",
                "operator": "Miasto Pozna\u0144",
                "operator:type": "government",
                "amenity": "community_centre",
                "community_centre:for": "child;juvenile"
            }
        },
        {
            "id": 31776,
            "type": "Feature",
            "geometry": {
                "type": "Point",
                "coordinates": [
                    16.8779499,
                    52.40855
                ]
            },
            "properties": {
                "ref:rspo": 31776,
                "official_name": "Zesp\u00f3\u0142 Szk\u00f3\u0142 Elektrycznych nr 2 im. Ks. Piotra Wawrzyniaka",
                "name": "Zesp\u00f3\u0142 Szk\u00f3\u0142 Elektrycznych nr 2",
                "addr:postcode": "60-375",
                "addr:city": "Pozna\u0144",
                "addr:street": "\u015awit",
                "addr:housenumber": "25",
                "addr:city:simc": 969400,
                "addr:street:sym_ul": 22576,
                "phone": "+48 618616700",
                "email": "zse2@interia.pl",
                "website": "http:\/\/www.zse2.poznan.pl",
                "ref:regon": "000254746",
                "ref:vatin": "PL7791487745",
                "operator": "Miasto Pozna\u0144",
                "operator:type": "government",
                "landuse": "education",
                "fixme": "amenity=school, amenity=college albo landuse=education w zale\u017cno\u015bci od tego, jakie plac\u00f3wki wchodz\u0105 w sk\u0142ad zespo\u0142u. Sprawd\u017a, kiedy stosowa\u0107 amenity=* a kiedy landuse=education.",
                "note": "Children RSPO: 90706;90708"
            }
        },
        {
            "id": 86172,
            "type": "Feature",
            "geometry": {
                "type": "Point",
                "coordinates": [
                    16.938280105591,
                    52.409469604492
                ]
            },
            "properties": {
                "isced:level": "3",
                "ref:rspo": 86172,
                "official_name": "Vii Liceum Og\u00f3lnokszta\u0142c\u0105ce im. D\u0105br\u00f3wki",
                "name": "Vii Liceum Og\u00f3lnokszta\u0142c\u0105ce",
                "addr:postcode": "60-544",
                "addr:place": "Pozna\u0144",
                "addr:housenumber": "8\/12",
                "addr:city:simc": 969400,
                "phone": "+48 618472502",
                "email": "sekretariat@dabrowka.poznan.pl",
                "website": "http:\/\/www.dabrowka.poznan.pl",
                "ref:regon": "000246793",
                "operator": "Miasto Pozna\u0144",
                "operator:type": "government",
                "amenity": "school"
            }
        },
        {
            "id": 81221,
            "type": "Feature",
            "geometry": {
                "type": "Point",
                "coordinates": [
                    16.93024,
                    52.41231
                ]
            },
            "properties": {
                "ref:rspo": 81221,
                "official_name": "Ogr\u00f3d Jordanowski nr 1",
                "name": "Ogr\u00f3d Jordanowski nr 1",
                "addr:postcode": "61-735",
                "addr:city": "Pozna\u0144",
                "addr:street": "Solna",
                "addr:housenumber": "2",
                "addr:city:simc": 969400,
                "addr:street:sym_ul": 20541,
                "phone": "+48 618524828",
                "website": "http:\/\/www.sportowa13.pl",
                "ref:regon": "631576830",
                "ref:vatin": "PL7781182300",
                "operator": "Miasto Pozna\u0144",
                "operator:type": "government",
                "amenity": "community_centre",
                "community_centre:for": "child;juvenile",
                "note": "Parent RSPO: 29421"
            }
        },
        {
            "id": 62562,
            "type": "Feature",
            "geometry": {
                "type": "Point",
                "coordinates": [
                    16.88217,
                    52.4135
                ]
            },
            "properties": {
                "ref:rspo": 62562,
                "official_name": "Szko\u0142a Specjalna Przysposabiaj\u0105ca do Pracy nr 5",
                "name": "Szko\u0142a Specjalna Przysposabiaj\u0105ca do Pracy nr 5",
                "addr:postcode": "60-569",
                "addr:city": "Pozna\u0144",
                "addr:street": "Augustyna Szamarzewskiego",
                "addr:housenumber": "78\/82",
                "addr:city:simc": 969400,
                "addr:street:sym_ul": 21744,
                "phone": "+48 618473095",
                "email": "sekreatariat@sosw.poznan.pl",
                "website": "http:\/\/www.sosw.poznan.pl",
                "ref:regon": "301655780",
                "ref:vatin": "PL7811615093",
                "operator": "Miasto Pozna\u0144",
                "operator:type": "government",
                "amenity": "school",
                "note": "Parent RSPO: 35081"
            }
        },
        {
            "id": 62564,
            "type": "Feature",
            "geometry": {
                "type": "Point",
                "coordinates": [
                    16.88217,
                    52.41347
                ]
            },
            "properties": {
                "isced:level": "1;2",
                "ref:rspo": 62564,
                "official_name": "Szko\u0142a Podstawowa Specjalna dla Dzieci z Autyzmem",
                "name": "Szko\u0142a Podstawowa Specjalna dla Dzieci z Autyzmem",
                "addr:postcode": "60-569",
                "addr:city": "Pozna\u0144",
                "addr:street": "Augustyna Szamarzewskiego",
                "addr:housenumber": "78\/82",
                "addr:city:simc": 969400,
                "addr:street:sym_ul": 21744,
                "phone": "+48 618473095",
                "email": "sekretariat@sosw.poznan.pl",
                "website": "http:\/\/www.sosw.poznan.pl",
                "ref:regon": "301655745",
                "ref:vatin": "PL7811615093",
                "operator": "Miasto Pozna\u0144",
                "operator:type": "government",
                "amenity": "school",
                "note": "Parent RSPO: 35081"
            }
        },
        {
            "id": 85862,
            "type": "Feature",
            "geometry": {
                "type": "Point",
                "coordinates": [
                    16.88217,
                    52.41344
                ]
            },
            "properties": {
                "isced:level": "3",
                "ref:rspo": 85862,
                "official_name": "Iv Liceum Og\u00f3lnokszta\u0142c\u0105ce Specjalne",
                "name": "Iv Liceum Og\u00f3lnokszta\u0142c\u0105ce Specjalne",
                "addr:postcode": "60-569",
                "addr:city": "Pozna\u0144",
                "addr:street": "Augustyna Szamarzewskiego",
                "addr:housenumber": "78\/82",
                "addr:city:simc": 969400,
                "addr:street:sym_ul": 21744,
                "phone": "+48 618473095",
                "email": "sekretariat@sosw.poznan.pl",
                "website": "http:\/\/www.sosw.poznan.pl",
                "ref:regon": "301655751",
                "ref:vatin": "PL7811615093",
                "operator": "Miasto Pozna\u0144",
                "operator:type": "government",
                "amenity": "school",
                "note": "Parent RSPO: 35081"
            }
        },
        {
            "id": 29421,
            "type": "Feature",
            "geometry": {
                "type": "Point",
                "coordinates": [
                    16.92301,
                    52.4139399
                ]
            },
            "properties": {
                "ref:rspo": 29421,
                "official_name": "Zesp\u00f3\u0142 Szk\u00f3\u0142 Mistrzostwa Sportowego nr 2",
                "name": "Zesp\u00f3\u0142 Szk\u00f3\u0142 Mistrzostwa Sportowego nr 2",
                "addr:postcode": "61-714",
                "addr:city": "Pozna\u0144",
                "addr:street": "al. Niepodleg\u0142o\u015bci",
                "addr:housenumber": "32",
                "addr:city:simc": 969400,
                "addr:street:sym_ul": 14199,
                "phone": "+48 618526001",
                "email": "kontakt@sportowa13.pl",
                "website": "http:\/\/www.sportowa13.pl",
                "ref:regon": "634369220",
                "ref:vatin": "PL7781402397",
                "operator": "Miasto Pozna\u0144",
                "operator:type": "government",
                "landuse": "education",
                "fixme": "amenity=school, amenity=college albo landuse=education w zale\u017cno\u015bci od tego, jakie plac\u00f3wki wchodz\u0105 w sk\u0142ad zespo\u0142u. Sprawd\u017a, kiedy stosowa\u0107 amenity=* a kiedy landuse=education.",
                "note": "Children RSPO: 66384;81221"
            }
        },
        {
            "id": 49085,
            "type": "Feature",
            "geometry": {
                "type": "Point",
                "coordinates": [
                    16.9111,
                    52.41404
                ]
            },
            "properties": {
                "ref:rspo": 49085,
                "official_name": "Niepubliczny O\u015brodek Doskonalenia Nauczycieli Behaviour",
                "name": "Niepubliczny O\u015brodek Doskonalenia Nauczycieli Behaviour",
                "addr:postcode": "60-846",
                "addr:city": "Pozna\u0144",
                "addr:street": "Jana Kochanowskiego",
                "addr:housenumber": "22",
                "addr:door": "6",
                "addr:city:simc": 969400,
                "addr:street:sym_ul": 8728,
                "phone": "+48 502552418",
                "email": "ppp@pracowniabehaviour.pl",
                "website": "http:\/\/www.pracowniabehaviour.pl",
                "ref:regon": "302247221",
                "ref:vatin": "PL7811558768",
                "operator": "Dane Do Uzupe\u0142nienia",
                "operator:type": "private",
                "amenity": "training"
            }
        },
        {
            "id": 34192,
            "type": "Feature",
            "geometry": {
                "type": "Point",
                "coordinates": [
                    16.90268,
                    52.41419
                ]
            },
            "properties": {
                "ref:rspo": 34192,
                "official_name": "Zesp\u00f3\u0142 Szk\u00f3\u0142 Zawodowych nr 1",
                "name": "Zesp\u00f3\u0142 Szk\u00f3\u0142 Zawodowych nr 1",
                "addr:postcode": "60-536",
                "addr:city": "Pozna\u0144",
                "addr:street": "\u015awi\u0119tego Floriana",
                "addr:housenumber": "3",
                "addr:city:simc": 969400,
                "addr:street:sym_ul": 5083,
                "phone": "+48 618411128",
                "email": "sekretariat@zsz1.poznan.pl",
                "website": "http:\/\/www.zsz1.poznan.pl",
                "ref:regon": "000582829",
                "ref:vatin": "PL7811569200",
                "operator": "Miasto Pozna\u0144",
                "operator:type": "government",
                "landuse": "education",
                "fixme": "amenity=school, amenity=college albo landuse=education w zale\u017cno\u015bci od tego, jakie plac\u00f3wki wchodz\u0105 w sk\u0142ad zespo\u0142u. Sprawd\u017a, kiedy stosowa\u0107 amenity=* a kiedy landuse=education.",
                "note": "Children RSPO: 92260;92261"
            }
        },
        {
            "id": 31869,
            "type": "Feature",
            "geometry": {
                "type": "Point",
                "coordinates": [
                    16.93272,
                    52.4156
                ]
            },
            "properties": {
                "isced:level": "3",
                "ref:rspo": 31869,
                "official_name": "Xii Liceum Og\u00f3lnokszt\u0142cace im. Marii Sk\u0142odowskiej -Curie",
                "name": "Xii Liceum Og\u00f3lnokszt\u0142cace",
                "addr:postcode": "61-719",
                "addr:city": "Pozna\u0144",
                "addr:street": "Genera\u0142a Tadeusza Kutrzeby",
                "addr:housenumber": "8",
                "addr:city:simc": 969400,
                "addr:street:sym_ul": 10507,
                "phone": "+48 618525558",
                "email": "liceum@lo12.edu.pl",
                "website": "http:\/\/www.lo12.edu.pl",
                "ref:regon": "000662132",
                "ref:vatin": "PL7781174418",
                "operator": "Miasto Pozna\u0144",
                "operator:type": "government",
                "amenity": "school"
            }
        },
        {
            "id": 31841,
            "type": "Feature",
            "geometry": {
                "type": "Point",
                "coordinates": [
                    16.87329,
                    52.41564
                ]
            },
            "properties": {
                "isced:level": "3",
                "ref:rspo": 31841,
                "official_name": "Iv Liceum Og\u00f3lnokszta\u0142c\u0105ce \nIm. Komisji Edukacji Narodowej",
                "name": "Iv Liceum Og\u00f3lnokszta\u0142c\u0105ce \nIm. Komisji Edukacji Narodowej",
                "addr:postcode": "60-592",
                "addr:city": "Pozna\u0144",
                "addr:street": "Swojska",
                "addr:housenumber": "6",
                "addr:city:simc": 969400,
                "addr:street:sym_ul": 21629,
                "phone": "+48 618417771",
                "email": "sekretariat@lo4.poznan.pl",
                "website": "http:\/\/www.lo4.poznan.pl",
                "ref:regon": "000246557",
                "ref:vatin": "PL7811382281",
                "operator": "Miasto Pozna\u0144",
                "operator:type": "government",
                "amenity": "school"
            }
        },
        {
            "id": 47366,
            "type": "Feature",
            "geometry": {
                "type": "Point",
                "coordinates": [
                    16.92924,
                    52.4236099
                ]
            },
            "properties": {
                "ref:rspo": 47366,
                "official_name": "M\u0142odzie\u017cowy Dom Kultury nr 2",
                "name": "M\u0142odzie\u017cowy Dom Kultury nr 2",
                "addr:postcode": "61-663",
                "addr:city": "Pozna\u0144",
                "addr:street": "Za Cytadel\u0105",
                "addr:housenumber": "121",
                "addr:city:simc": 969400,
                "addr:street:sym_ul": 25209,
                "phone": "+48 618201112",
                "email": "sekretariat@mdk2.pl",
                "website": "http:\/\/mdk2.pl",
                "ref:regon": "000281074",
                "ref:vatin": "PL9720448928",
                "operator": "Miasto Pozna\u0144",
                "operator:type": "government",
                "amenity": "community_centre",
                "community_centre:for": "juvenile"
            }
        },
        {
            "id": 71144,
            "type": "Feature",
            "geometry": {
                "type": "Point",
                "coordinates": [
                    16.85023,
                    52.42497
                ]
            },
            "properties": {
                "isced:level": "1;2",
                "ref:rspo": 71144,
                "official_name": "Szko\u0142a Podstawowa nr 22 im. A.t. Dzia\u0142y\u0144skiego w Poznaniu",
                "name": "Szko\u0142a Podstawowa nr 22",
                "addr:postcode": "60-409",
                "addr:city": "Pozna\u0144",
                "addr:street": "Hangarowa",
                "addr:housenumber": "14",
                "addr:city:simc": 969400,
                "addr:street:sym_ul": 6510,
                "phone": "+48 618417410",
                "email": "sekretariat@szkolatytusa.pl",
                "website": "http:\/\/www.szkolatytusa.pl",
                "ref:regon": "000237245",
                "ref:vatin": "PL7811539972",
                "operator": "Miasto Pozna\u0144",
                "operator:type": "government",
                "amenity": "school",
                "note": "Parent RSPO: 29603"
            }
        },
        {
            "id": 31757,
            "type": "Feature",
            "geometry": {
                "type": "Point",
                "coordinates": [
                    16.9161763,
                    52.4254528
                ]
            },
            "properties": {
                "ref:rspo": 31757,
                "official_name": "Przedszkole nr 137",
                "name": "Przedszkole nr 137",
                "addr:postcode": "60-645",
                "addr:city": "Pozna\u0144",
                "addr:street": "Micha\u0142owska",
                "addr:housenumber": "1",
                "addr:city:simc": 969400,
                "addr:street:sym_ul": 12710,
                "phone": "+48 618485112",
                "email": "p137@poznan.interklasa.pl",
                "ref:regon": "301620043",
                "ref:vatin": "PL7811858967",
                "operator": "Miasto Pozna\u0144",
                "operator:type": "government",
                "amenity": "kindergarten"
            }
        },
        {
            "id": 29670,
            "type": "Feature",
            "geometry": {
                "type": "Point",
                "coordinates": [
                    16.92909,
                    52.4287599
                ]
            },
            "properties": {
                "isced:level": "3",
                "ref:rspo": 29670,
                "official_name": "Ix Liceum Og\u00f3lnokszta\u0142c\u0105ce \nIm. Karola Libelta",
                "name": "Ix Liceum Og\u00f3lnokszta\u0142c\u0105ce \nIm. Karola Libelta",
                "addr:postcode": "61-658",
                "addr:city": "Pozna\u0144",
                "addr:street": "Warzywna",
                "addr:housenumber": "24",
                "addr:city:simc": 969400,
                "addr:street:sym_ul": 23713,
                "phone": "+48 618203632",
                "email": "9lopoznan@9lopoznan.pl",
                "website": "http:\/\/www.9lopoznan.pl",
                "ref:regon": "000245486",
                "ref:vatin": "PL9720849573",
                "operator": "Miasto Pozna\u0144",
                "operator:type": "government",
                "amenity": "school"
            }
        },
        {
            "id": 29625,
            "type": "Feature",
            "geometry": {
                "type": "Point",
                "coordinates": [
                    16.90806,
                    52.42965
                ]
            },
            "properties": {
                "isced:level": "3",
                "ref:rspo": 29625,
                "official_name": "Xxv Liceum Og\u00f3lnokszta\u0142c\u0105ce im. Genera\u0142owej Jadwigi Zamoyskiej",
                "name": "Xxv Liceum Og\u00f3lnokszta\u0142c\u0105ce",
                "addr:postcode": "60-655",
                "addr:city": "Pozna\u0144",
                "addr:street": "Widna",
                "addr:housenumber": "1",
                "addr:city:simc": 969400,
                "addr:street:sym_ul": 24006,
                "phone": "+48 618224941",
                "email": "lo25@lo25.pl",
                "website": "http:\/\/www.lo25.pl",
                "ref:regon": "632023380",
                "ref:vatin": "PL7811570692",
                "operator": "Miasto Pozna\u0144",
                "operator:type": "government",
                "amenity": "school"
            }
        },
        {
            "id": 29420,
            "type": "Feature",
            "geometry": {
                "type": "Point",
                "coordinates": [
                    16.94102,
                    52.43156
                ]
            },
            "properties": {
                "ref:rspo": 29420,
                "official_name": "Zesp\u00f3\u0142 Szk\u00f3\u0142 z Oddzia\u0142ami Sportowymi nr 1",
                "name": "Zesp\u00f3\u0142 Szk\u00f3\u0142 z Oddzia\u0142ami Sportowymi nr 1",
                "addr:postcode": "61-638",
                "addr:city": "Pozna\u0144",
                "addr:street": "os. Pod Lipami",
                "addr:housenumber": "106",
                "addr:city:simc": 969400,
                "addr:street:sym_ul": 16636,
                "phone": "+48 618200591",
                "email": "sekretariat@ssp29gim5.poznan.pl",
                "website": "http:\/\/szkolapodlipami.poznan.pl",
                "ref:regon": "634368338",
                "ref:vatin": "PL9721042967",
                "operator": "Miasto Pozna\u0144",
                "operator:type": "government",
                "landuse": "education",
                "fixme": "amenity=school, amenity=college albo landuse=education w zale\u017cno\u015bci od tego, jakie plac\u00f3wki wchodz\u0105 w sk\u0142ad zespo\u0142u. Sprawd\u017a, kiedy stosowa\u0107 amenity=* a kiedy landuse=education.",
                "note": "Children RSPO: 66388;272082"
            }
        },
        {
            "id": 42182,
            "type": "Feature",
            "geometry": {
                "type": "Point",
                "coordinates": [
                    16.88359,
                    52.43183
                ]
            },
            "properties": {
                "ref:rspo": 42182,
                "official_name": "Zesp\u00f3\u0142 Szk\u00f3\u0142 Technicznych im. Micha\u0142a Drzyma\u0142y",
                "name": "Zesp\u00f3\u0142 Szk\u00f3\u0142 Technicznych",
                "addr:postcode": "60-626",
                "addr:city": "Pozna\u0144",
                "addr:street": "Gol\u0119ci\u0144ska",
                "addr:housenumber": "9",
                "addr:city:simc": 969400,
                "addr:street:sym_ul": 5732,
                "phone": "+48 618411583",
                "email": "sekretariat@zstpoznan.pl",
                "website": "http:\/\/www.zstpoznan.pl",
                "ref:regon": "000099808",
                "ref:vatin": "PL7811008140",
                "operator": "Miasto Pozna\u0144",
                "operator:type": "government",
                "landuse": "education",
                "fixme": "amenity=school, amenity=college albo landuse=education w zale\u017cno\u015bci od tego, jakie plac\u00f3wki wchodz\u0105 w sk\u0142ad zespo\u0142u. Sprawd\u017a, kiedy stosowa\u0107 amenity=* a kiedy landuse=education.",
                "note": "Children RSPO: 88679;88680"
            }
        },
        {
            "id": 88679,
            "type": "Feature",
            "geometry": {
                "type": "Point",
                "coordinates": [
                    16.88359,
                    52.431799999999996
                ]
            },
            "properties": {
                "isced:level": "4",
                "ref:rspo": 88679,
                "official_name": "Szko\u0142a Policealna nr 31",
                "name": "Szko\u0142a Policealna nr 31",
                "addr:postcode": "60-626",
                "addr:city": "Pozna\u0144",
                "addr:street": "Gol\u0119ci\u0144ska",
                "addr:housenumber": "9",
                "addr:city:simc": 969400,
                "addr:street:sym_ul": 5732,
                "phone": "+48 618411583",
                "email": "sekretariat@zstpoznan.pl",
                "website": "http:\/\/www.zstpoznan.pl",
                "ref:regon": "300097266",
                "operator": "Miasto Pozna\u0144",
                "operator:type": "government",
                "amenity": "college",
                "note": "Parent RSPO: 42182"
            }
        },
        {
            "id": 88680,
            "type": "Feature",
            "geometry": {
                "type": "Point",
                "coordinates": [
                    16.88359,
                    52.43177
                ]
            },
            "properties": {
                "isced:level": "4",
                "ref:rspo": 88680,
                "official_name": "Szko\u0142a Policealna nr 31 dla Doros\u0142ych",
                "name": "Szko\u0142a Policealna nr 31 dla Doros\u0142ych",
                "addr:postcode": "60-626",
                "addr:city": "Pozna\u0144",
                "addr:street": "Gol\u0119ci\u0144ska",
                "addr:housenumber": "9",
                "addr:city:simc": 969400,
                "addr:street:sym_ul": 5732,
                "phone": "+48 618411583",
                "email": "sekretariat@zstpoznan.pl",
                "website": "http:\/\/www.zstpoznan.pl",
                "ref:regon": "300097250",
                "operator": "Miasto Pozna\u0144",
                "operator:type": "government",
                "amenity": "college",
                "note": "Parent RSPO: 42182"
            }
        },
        {
            "id": 79391,
            "type": "Feature",
            "geometry": {
                "type": "Point",
                "coordinates": [
                    16.93697,
                    52.44082
                ]
            },
            "properties": {
                "isced:level": "3",
                "ref:rspo": 79391,
                "official_name": "Xx Liceum Og\u00f3lnokszta\u0142c\u0105ce",
                "name": "Xx Liceum Og\u00f3lnokszta\u0142c\u0105ce",
                "addr:postcode": "62-674",
                "addr:city": "Pozna\u0144",
                "addr:street": "os. Wichrowe Wzg\u00f3rze",
                "addr:housenumber": "111",
                "addr:city:simc": 969400,
                "addr:street:sym_ul": 23990,
                "phone": "+48 618208203",
                "email": "lo20_poznan@wp.pl",
                "website": "http:\/\/www.xxlo.edu.pl",
                "ref:regon": "630714683",
                "operator": "Miasto Pozna\u0144",
                "operator:type": "government",
                "amenity": "school"
            }
        },
        {
            "id": 85830,
            "type": "Feature",
            "geometry": {
                "type": "Point",
                "coordinates": [
                    16.93995,
                    52.45066
                ]
            },
            "properties": {
                "ref:rspo": 85830,
                "official_name": "Zesp\u00f3\u0142 Szkolno - Przedszkolny nr 1",
                "name": "Zesp\u00f3\u0142 Szkolno - Przedszkolny nr 1",
                "addr:postcode": "61-616",
                "addr:city": "Pozna\u0144",
                "addr:street": "os. W\u0142adys\u0142awa \u0141okietka",
                "addr:housenumber": "104",
                "addr:city:simc": 969400,
                "addr:street:sym_ul": 11651,
                "phone": "+48 618227431",
                "email": "info@zs-p1.pl",
                "website": "http:\/\/www.zs-p1.pl",
                "ref:regon": "302135982",
                "ref:vatin": "PL9721239670",
                "operator": "Miasto Pozna\u0144",
                "operator:type": "government",
                "landuse": "education",
                "fixme": "amenity=school, amenity=college albo landuse=education w zale\u017cno\u015bci od tego, jakie plac\u00f3wki wchodz\u0105 w sk\u0142ad zespo\u0142u. Sprawd\u017a, kiedy stosowa\u0107 amenity=* a kiedy landuse=education.",
                "note": "Children RSPO: 75198;89212"
            }
        }
    ]
}