{
    "type": "FeatureCollection",
    "features": [
        {
            "id": 58921,
            "type": "Feature",
            "geometry": {
                "type": "Point",
                "coordinates": [
                    15.64245,
                    50.84386
                ]
            },
            "properties": {
                "isced:level": "1;2",
                "ref:rspo": 58921,
                "official_name": "Spo\u0142eczna Szko\u0142a Podstawowa Spo\u0142ecznego Towarzystwa O\u015bwiatowego w Jeleniej G\u00f3rze",
                "name": "Spo\u0142eczna Szko\u0142a Podstawowa Spo\u0142ecznego Towarzystwa O\u015bwiatowego w Jeleniej G\u00f3rze",
                "addr:country": "PL",
                "addr:postcode": "58-570",
                "addr:city": "Jelenia G\u00f3ra",
                "addr:street": "ul. Bronis\u0142awa Czecha",
                "addr:housenumber": "1a",
                "addr:teryt:simc": 3333,
                "addr:teryt:sym_ul": 935802,
                "contact:phone": "+48 504136809",
                "contact:email": "gimsto@wp.pl",
                "contact:website": "http:\/\/szkola-spoleczna.pl",
                "ref:regon": "021996279",
                "operator": "Samodzielne Ko\u0142o Terenowe Nr 72 Spo\u0142ecznego Towarzystwa O\u015bwiatowego",
                "operator:type": "ngo",
                "amenity": "school",
                "note": "Parent RSPO: 132629"
            }
        },
        {
            "id": 80185,
            "type": "Feature",
            "geometry": {
                "type": "Point",
                "coordinates": [
                    15.64555,
                    50.844
                ]
            },
            "properties": {
                "isced:level": "1;2",
                "ref:rspo": 80185,
                "official_name": "Szko\u0142a Podstawowa Nr 15 im. Bronka Czecha w Jeleniej G\u00f3rze",
                "name": "Szko\u0142a Podstawowa Nr 15",
                "addr:country": "PL",
                "addr:postcode": "58-570",
                "addr:city": "Jelenia G\u00f3ra",
                "addr:street": "ul. Kamiennog\u00f3rska",
                "addr:housenumber": "9",
                "addr:teryt:simc": 7887,
                "addr:teryt:sym_ul": 935802,
                "contact:phone": "+48 757553342",
                "contact:email": "jgsp15@wp.pl",
                "contact:website": "http:\/\/www.sp15.sobieszow.pl",
                "ref:regon": "000710888",
                "ref:vatin": "PL6112727124",
                "operator": "Miasto Jelenia G\u00f3ra",
                "operator:type": "government",
                "amenity": "school"
            }
        },
        {
            "id": 132629,
            "type": "Feature",
            "geometry": {
                "type": "Point",
                "coordinates": [
                    15.6421757,
                    50.844019
                ]
            },
            "properties": {
                "ref:rspo": 132629,
                "official_name": "Zesp\u00f3\u0142 Szk\u00f3\u0142 Spo\u0142ecznych im. Jana Paw\u0142a II Spo\u0142ecznego Towarzystwa O\u015bwiatowego w Jeleniej G\u00f3rze",
                "name": "Zesp\u00f3\u0142 Szk\u00f3\u0142 Spo\u0142ecznych",
                "addr:country": "PL",
                "addr:postcode": "58-570",
                "addr:city": "Jelenia G\u00f3ra",
                "addr:street": "ul. Bronis\u0142awa Czecha",
                "addr:housenumber": "1",
                "addr:door": "a",
                "addr:teryt:simc": 3333,
                "addr:teryt:sym_ul": 935802,
                "contact:phone": "+48 757553527",
                "contact:email": "gimsto@wp.pl",
                "ref:regon": "365945143",
                "operator": "Samodzielne Ko\u0142o Terenowe Nr 72 Spo\u0142ecznego Towarzystwa O\u015bwiatowego",
                "operator:type": "ngo",
                "landuse": "education",
                "fixme": "amenity=school, amenity=college albo landuse=education w zale\u017cno\u015bci od tego, jakie plac\u00f3wki wchodz\u0105 w sk\u0142ad zespo\u0142u. Sprawd\u017a, kiedy stosowa\u0107 amenity=* a kiedy landuse=education.",
                "note": "Children RSPO: 58921"
            }
        },
        {
            "id": 68729,
            "type": "Feature",
            "geometry": {
                "type": "Point",
                "coordinates": [
                    15.64266,
                    50.84903
                ]
            },
            "properties": {
                "ref:rspo": 68729,
                "official_name": "Miejskie Przedszkole Nr 11 \"Krasnala Ha\u0142aba\u0142y' w Jeleniej G\u00f3rze",
                "name": "Miejskie Przedszkole Nr 11 \"Krasnala Ha\u0142aba\u0142y' w Jeleniej G\u00f3rze",
                "addr:country": "PL",
                "addr:postcode": "58-570",
                "addr:city": "Jelenia G\u00f3ra",
                "addr:street": "ul. Fryderyka Chopina",
                "addr:housenumber": "4",
                "addr:teryt:simc": 2849,
                "addr:teryt:sym_ul": 935802,
                "contact:phone": "+48 757553715",
                "contact:email": "mp_11jg@interia.pl",
                "ref:regon": "021413823",
                "ref:vatin": "PL6112706814",
                "operator": "Miasto Jelenia G\u00f3ra",
                "operator:type": "government",
                "amenity": "kindergarten"
            }
        },
        {
            "id": 262771,
            "type": "Feature",
            "geometry": {
                "type": "Point",
                "coordinates": [
                    15.69199,
                    50.85819
                ]
            },
            "properties": {
                "isced:level": "3",
                "ref:rspo": 262771,
                "official_name": "Publiczne Katolickie Liceum Akademickie U \u015aw. Pankracego w Jeleniej G\u00f3rze",
                "name": "Publiczne Katolickie Liceum Akademickie U \u015aw. Pankracego w Jeleniej G\u00f3rze",
                "addr:country": "PL",
                "addr:postcode": "58-560",
                "addr:city": "Jelenia G\u00f3ra",
                "addr:street": "ul. PCK",
                "addr:housenumber": "23",
                "addr:teryt:simc": 15905,
                "addr:teryt:sym_ul": 935802,
                "contact:phone": "+48 503394206",
                "contact:email": "szkola@pankracy.edu.pl",
                "contact:website": "http:\/\/szkola.pankracy.edu.pl",
                "ref:regon": "368061195",
                "ref:vatin": "PL6112784398",
                "operator": "Karkonoskie Stowarzyszenie Edukacyjne U Erazma I Pankracego",
                "operator:type": "ngo",
                "amenity": "school",
                "note": "Parent RSPO: 265941"
            }
        },
        {
            "id": 58806,
            "type": "Feature",
            "geometry": {
                "type": "Point",
                "coordinates": [
                    15.68499,
                    50.85942
                ]
            },
            "properties": {
                "ref:rspo": 58806,
                "official_name": "Niepubliczne Przedszkole Zaczarowany Parasol",
                "name": "Niepubliczne Przedszkole Zaczarowany Parasol",
                "addr:country": "PL",
                "addr:postcode": "58-560",
                "addr:city": "Jelenia G\u00f3ra",
                "addr:street": "ul. Andrzeja Struga",
                "addr:housenumber": "1",
                "addr:teryt:simc": 21308,
                "addr:teryt:sym_ul": 935802,
                "contact:phone": "+48 757558620",
                "contact:email": "zaczarowany.parasol@interia.pl",
                "ref:regon": "022003613",
                "operator": "Dorota Czekaj",
                "operator:type": "private",
                "amenity": "kindergarten"
            }
        },
        {
            "id": 48087,
            "type": "Feature",
            "geometry": {
                "type": "Point",
                "coordinates": [
                    15.69102,
                    50.86097
                ]
            },
            "properties": {
                "isced:level": "1;2",
                "ref:rspo": 48087,
                "official_name": "Szko\u0142a Podstawowa Nr 3 im. Miko\u0142aja Kopernika w Jeleniej G\u00f3rze",
                "name": "Szko\u0142a Podstawowa Nr 3",
                "addr:country": "PL",
                "addr:postcode": "58-560",
                "addr:city": "Jelenia G\u00f3ra",
                "addr:street": "ul. PCK",
                "addr:housenumber": "14a",
                "addr:teryt:simc": 15905,
                "addr:teryt:sym_ul": 935802,
                "contact:phone": "+48 757551475",
                "contact:email": "sp3jeleniagora@wp.pl",
                "contact:website": "http:\/\/www.sp3jg.pl",
                "ref:regon": "000710983",
                "ref:vatin": "PL6111113319",
                "operator": "Miasto Jelenia G\u00f3ra",
                "operator:type": "government",
                "amenity": "school"
            }
        },
        {
            "id": 80585,
            "type": "Feature",
            "geometry": {
                "type": "Point",
                "coordinates": [
                    15.66428,
                    50.86201
                ]
            },
            "properties": {
                "ref:rspo": 80585,
                "official_name": "Przedszkole Niepubliczne \u201eBajkoland\u201d",
                "name": "Przedszkole Niepubliczne \u201eBajkoland\u201d",
                "addr:country": "PL",
                "addr:postcode": "58-500",
                "addr:city": "Jelenia G\u00f3ra",
                "addr:street": "ul. Wincentego Pola",
                "addr:housenumber": "27",
                "addr:teryt:simc": 16961,
                "addr:teryt:sym_ul": 935802,
                "contact:phone": "+48 756151238",
                "contact:email": "przedszkole.bajkoland@gmail.com",
                "ref:regon": "022008540",
                "operator": "Jasi\u0144ski J\u00f3zef Firma Us\u0142ugowo-Handlowa",
                "operator:type": "consortium",
                "amenity": "kindergarten"
            }
        },
        {
            "id": 267730,
            "type": "Feature",
            "geometry": {
                "type": "Point",
                "coordinates": [
                    15.66428,
                    50.861979999999996
                ]
            },
            "properties": {
                "ref:rspo": 267730,
                "official_name": "O\u015brodek Rehabilitacyjno-Edukacyjno-Wychowawczy Architekton w Jeleniej G\u00f3rze",
                "name": "O\u015brodek Rehabilitacyjno-Edukacyjno-Wychowawczy Architekton w Jeleniej G\u00f3rze",
                "addr:country": "PL",
                "addr:postcode": "58-500",
                "addr:city": "Jelenia G\u00f3ra",
                "addr:street": "ul. Wincentego Pola",
                "addr:housenumber": "25",
                "addr:teryt:simc": 16961,
                "addr:teryt:sym_ul": 935802,
                "contact:phone": "+48 605437647",
                "contact:email": "orewarchitekton@interia.pl",
                "contact:website": "http:\/\/www.orewarchitekton.pl",
                "ref:regon": "380566514",
                "operator": "Marta Sosnowska - W\u00f3jciuk",
                "operator:type": "private",
                "amenity": "school"
            }
        },
        {
            "id": 58772,
            "type": "Feature",
            "geometry": {
                "type": "Point",
                "coordinates": [
                    15.66523,
                    50.86294
                ]
            },
            "properties": {
                "isced:level": "1;2",
                "ref:rspo": 58772,
                "official_name": "Szko\u0142a Podstawowa Nr 6 im. W\u0142odzimierza Puchalskiego w Jeleniej G\u00f3rze",
                "name": "Szko\u0142a Podstawowa Nr 6",
                "addr:country": "PL",
                "addr:postcode": "58-560",
                "addr:city": "Jelenia G\u00f3ra",
                "addr:street": "ul. Cieplicka",
                "addr:housenumber": "74",
                "addr:teryt:simc": 3027,
                "addr:teryt:sym_ul": 935802,
                "contact:phone": "+48 757551430",
                "contact:email": "szkolanr6jeleniagora@wp.pl",
                "contact:website": "http:\/\/sp6.jgora.pl",
                "ref:regon": "000711008",
                "ref:vatin": "PL6111949615",
                "operator": "Miasto Jelenia G\u00f3ra",
                "operator:type": "government",
                "amenity": "school"
            }
        },
        {
            "id": 111431,
            "type": "Feature",
            "geometry": {
                "type": "Point",
                "coordinates": [
                    15.67462,
                    50.86424
                ]
            },
            "properties": {
                "ref:rspo": 111431,
                "official_name": "Zesp\u00f3\u0142 Szk\u00f3\u0142 Rzemios\u0142 Artystycznych im. Stanis\u0142awa Wyspia\u0144skiego w Jeleniej G\u00f3rze",
                "name": "Zesp\u00f3\u0142 Szk\u00f3\u0142 Rzemios\u0142 Artystycznych",
                "addr:country": "PL",
                "addr:postcode": "58-560",
                "addr:city": "Jelenia G\u00f3ra",
                "addr:street": "ul. Cieplicka",
                "addr:housenumber": "34",
                "addr:teryt:simc": 3027,
                "addr:teryt:sym_ul": 935802,
                "contact:phone": "+48 756456228",
                "contact:email": "zsart@zsart.edu.pl",
                "contact:website": "http:\/\/zsart.edu.pl",
                "ref:regon": "000180321",
                "ref:vatin": "PL6111737511",
                "operator": "Miasto Jelenia G\u00f3ra",
                "operator:type": "government",
                "landuse": "education",
                "fixme": "amenity=school, amenity=college albo landuse=education w zale\u017cno\u015bci od tego, jakie plac\u00f3wki wchodz\u0105 w sk\u0142ad zespo\u0142u. Sprawd\u017a, kiedy stosowa\u0107 amenity=* a kiedy landuse=education.",
                "note": "Children RSPO: 111807;111835;124031"
            }
        },
        {
            "id": 111807,
            "type": "Feature",
            "geometry": {
                "type": "Point",
                "coordinates": [
                    15.67462,
                    50.86421
                ]
            },
            "properties": {
                "isced:level": "3",
                "ref:rspo": 111807,
                "official_name": "Technikum w Zespole Szk\u00f3\u0142 Rzemios\u0142 Artystycznych im. Stanis\u0142awa Wyspia\u0144skiego w Jeleniej G\u00f3rze",
                "name": "Technikum w Zespole Szk\u00f3\u0142 Rzemios\u0142 Artystycznych",
                "addr:country": "PL",
                "addr:postcode": "58-560",
                "addr:city": "Jelenia G\u00f3ra",
                "addr:street": "ul. Cieplicka",
                "addr:housenumber": "34",
                "addr:teryt:simc": 3027,
                "addr:teryt:sym_ul": 935802,
                "contact:phone": "+48 756456236",
                "contact:email": "zsart@zsart.edu.pl",
                "contact:website": "http:\/\/www.zsart.edu.pl",
                "ref:regon": "020054078",
                "operator": "Miasto Jelenia G\u00f3ra",
                "operator:type": "government",
                "amenity": "school",
                "note": "Parent RSPO: 111431"
            }
        },
        {
            "id": 111835,
            "type": "Feature",
            "geometry": {
                "type": "Point",
                "coordinates": [
                    15.67462,
                    50.864180000000005
                ]
            },
            "properties": {
                "isced:level": "3",
                "ref:rspo": 111835,
                "official_name": "Liceum Sztuk Plastycznych w Zespole Szk\u00f3\u0142 Rzemios\u0142 Artystycznych im. Stanis\u0142awa Wyspia\u0144skiego",
                "name": "Liceum Sztuk Plastycznych w Zespole Szk\u00f3\u0142 Rzemios\u0142 Artystycznych",
                "addr:country": "PL",
                "addr:postcode": "58-560",
                "addr:city": "Jelenia G\u00f3ra",
                "addr:street": "ul. Cieplicka",
                "addr:housenumber": "34",
                "addr:teryt:simc": 3027,
                "addr:teryt:sym_ul": 935802,
                "contact:phone": "+48 756456236",
                "contact:email": "zsart@zsart.edu.pl",
                "contact:website": "http:\/\/www.zsart.edu.pl",
                "ref:regon": "000832090",
                "operator": "Miasto Jelenia G\u00f3ra",
                "operator:type": "government",
                "amenity": "school",
                "note": "Parent RSPO: 111431"
            }
        },
        {
            "id": 124031,
            "type": "Feature",
            "geometry": {
                "type": "Point",
                "coordinates": [
                    15.67462,
                    50.86415
                ]
            },
            "properties": {
                "isced:level": "3",
                "ref:rspo": 124031,
                "official_name": "Bran\u017cowa Szko\u0142a I Stopnia w Zespole Szk\u00f3\u0142 Rzemios\u0142 Artystycznych im. Stanis\u0142awa Wyspia\u0144skiego w Jeleniej G\u00f3rze",
                "name": "Bran\u017cowa Szko\u0142a I Stopnia w Zespole Szk\u00f3\u0142 Rzemios\u0142 Artystycznych",
                "addr:country": "PL",
                "addr:postcode": "58-560",
                "addr:city": "Jelenia G\u00f3ra",
                "addr:street": "ul. Cieplicka",
                "addr:housenumber": "34",
                "addr:teryt:simc": 3027,
                "addr:teryt:sym_ul": 935802,
                "contact:phone": "+48 756456228",
                "contact:email": "zsart@zsart.edu.pl",
                "contact:website": "http:\/\/www.zsart.edu.pl",
                "ref:regon": "022472153",
                "operator": "Miasto Jelenia G\u00f3ra",
                "operator:type": "government",
                "amenity": "school",
                "note": "Parent RSPO: 111431"
            }
        },
        {
            "id": 128279,
            "type": "Feature",
            "geometry": {
                "type": "Point",
                "coordinates": [
                    15.69929,
                    50.86446
                ]
            },
            "properties": {
                "ref:rspo": 128279,
                "official_name": "Plac\u00f3wka Kszta\u0142cenia Ustawicznego \"Szko\u0142a G\u00f3rska Wyrypa\"",
                "name": "Plac\u00f3wka Kszta\u0142cenia Ustawicznego \"Szko\u0142a G\u00f3rska Wyrypa\"",
                "addr:country": "PL",
                "addr:postcode": "58-560",
                "addr:city": "Jelenia G\u00f3ra",
                "addr:street": "ul. Widok",
                "addr:housenumber": "37",
                "addr:teryt:simc": 24011,
                "addr:teryt:sym_ul": 935802,
                "contact:email": "maciek@wyrypa.com",
                "contact:website": "http:\/\/www.wyrypa.com",
                "ref:regon": "362236251",
                "operator": "K.m.m. Lip-Ski Maciej Lipczy\u0144ski Szko\u0142a G\u00f3rska \"Wyrypa\"",
                "operator:type": "consortium",
                "fixme": "w zale\u017cno\u015bci od przedmiotu dzia\u0142alno\u015bci (np. amenity=training + training=*, amenity=dancing_school, amenity=language_school, amenity=music_school)"
            }
        },
        {
            "id": 54124,
            "type": "Feature",
            "geometry": {
                "type": "Point",
                "coordinates": [
                    15.69079,
                    50.86468
                ]
            },
            "properties": {
                "ref:rspo": 54124,
                "official_name": "Publiczna Poradnia Psychologiczno-Pedagogiczna w Jeleniej G\u00f3rze",
                "name": "Publiczna Poradnia Psychologiczno-Pedagogiczna w Jeleniej G\u00f3rze",
                "addr:country": "PL",
                "addr:postcode": "58-560",
                "addr:city": "Jelenia G\u00f3ra",
                "addr:street": "ul. Wolno\u015bci",
                "addr:housenumber": "259",
                "addr:teryt:simc": 24687,
                "addr:teryt:sym_ul": 935802,
                "contact:phone": "+48 756473001",
                "contact:email": "porpp@wp.pl",
                "contact:website": "http:\/\/pppjeleniagora.pl",
                "ref:regon": "000708160",
                "ref:vatin": "PL6112256972",
                "operator": "Miasto Jelenia G\u00f3ra",
                "operator:type": "government",
                "healthcare": "counselling",
                "counselling_type": "education",
                "fixme": "w zale\u017cno\u015bci od przedmiotu dzia\u0142alno\u015bci (np. healthcare=counselling + counselling_type=education albo healthcare=psychotherapist)"
            }
        },
        {
            "id": 129431,
            "type": "Feature",
            "geometry": {
                "type": "Point",
                "coordinates": [
                    15.677,
                    50.86499
                ]
            },
            "properties": {
                "isced:level": "3",
                "ref:rspo": 129431,
                "official_name": "Zaoczne Liceum dla Doros\u0142ych \"Cosinus Plus\" w Jeleniej G\u00f3rze",
                "name": "Zaoczne Liceum dla Doros\u0142ych \"Cosinus Plus\" w Jeleniej G\u00f3rze",
                "addr:country": "PL",
                "addr:postcode": "58-560",
                "addr:city": "Jelenia G\u00f3ra",
                "addr:street": "ul. Cieplicka",
                "addr:housenumber": "16",
                "addr:teryt:simc": 3027,
                "addr:teryt:sym_ul": 935802,
                "contact:phone": "+48 756454477",
                "contact:email": "m.mielczarek@cosinus.pl",
                "contact:website": "http:\/\/www.cosinus.pl",
                "ref:regon": "362613475",
                "operator": "\"Fundacja Conatus\"",
                "operator:type": "ngo",
                "amenity": "school"
            }
        },
        {
            "id": 129432,
            "type": "Feature",
            "geometry": {
                "type": "Point",
                "coordinates": [
                    15.677,
                    50.864959999999996
                ]
            },
            "properties": {
                "isced:level": "4",
                "ref:rspo": 129432,
                "official_name": "Szko\u0142a Policealna \"Cosinus Plus\" w Jeleniej G\u00f3rze",
                "name": "Szko\u0142a Policealna \"Cosinus Plus\" w Jeleniej G\u00f3rze",
                "addr:country": "PL",
                "addr:postcode": "58-560",
                "addr:city": "Jelenia G\u00f3ra",
                "addr:street": "ul. Cieplicka",
                "addr:housenumber": "16",
                "addr:teryt:simc": 3027,
                "addr:teryt:sym_ul": 935802,
                "contact:phone": "+48 756454477",
                "contact:email": "m.mielczarek@cosinus.pl",
                "contact:website": "http:\/\/www.cosinus.pl",
                "ref:regon": "362613481",
                "operator": "\"Fundacja Conatus\"",
                "operator:type": "ngo",
                "amenity": "college"
            }
        },
        {
            "id": 80074,
            "type": "Feature",
            "geometry": {
                "type": "Point",
                "coordinates": [
                    15.6822,
                    50.86575
                ]
            },
            "properties": {
                "ref:rspo": 80074,
                "official_name": "Pa\u0144stwowa Szko\u0142a Muzyczna I St. im. Janiny Gar\u015bci w Jeleniej G\u00f3rze",
                "name": "Pa\u0144stwowa Szko\u0142a Muzyczna I St.",
                "addr:country": "PL",
                "addr:postcode": "58-560",
                "addr:city": "Jelenia G\u00f3ra",
                "addr:street": "ul. Staromiejska",
                "addr:housenumber": "3",
                "addr:teryt:simc": 20952,
                "addr:teryt:sym_ul": 935802,
                "contact:phone": "+48 757559310",
                "contact:email": "sekretariat@jg-psm1st.pl",
                "contact:website": "http:\/\/www.psm1st.jgora.pl",
                "ref:regon": "000992013",
                "operator": "Ministerstwo Kultury I Dziedzictwa Narodowego",
                "operator:type": "public",
                "amenity": "music_school",
                "note": "Children RSPO: 127132"
            }
        },
        {
            "id": 56744,
            "type": "Feature",
            "geometry": {
                "type": "Point",
                "coordinates": [
                    15.70045,
                    50.86622
                ]
            },
            "properties": {
                "ref:rspo": 56744,
                "official_name": "Bursa Szkolna w Zespole Szk\u00f3\u0142 Przyrodniczo-Us\u0142ugowych I Bursy Szkolnej w Jeleniej G\u00f3rze",
                "name": "Bursa Szkolna w Zespole Szk\u00f3\u0142 Przyrodniczo-Us\u0142ugowych I Bursy Szkolnej w Jeleniej G\u00f3rze",
                "addr:country": "PL",
                "addr:postcode": "58-560",
                "addr:city": "Jelenia G\u00f3ra",
                "addr:street": "ul. Le\u015bna",
                "addr:housenumber": "5A",
                "addr:teryt:simc": 10898,
                "addr:teryt:sym_ul": 935802,
                "contact:phone": "+48 757547420",
                "contact:email": "zspu.jgora@gmail.com",
                "contact:website": "http:\/\/www.zspu.jgora.pl",
                "ref:regon": "021412835",
                "ref:vatin": "PL6112706412",
                "operator": "Miasto Jelenia G\u00f3ra",
                "operator:type": "government",
                "building": "dormitory",
                "note": "Parent RSPO: 111597"
            }
        },
        {
            "id": 111405,
            "type": "Feature",
            "geometry": {
                "type": "Point",
                "coordinates": [
                    15.68387,
                    50.86624
                ]
            },
            "properties": {
                "ref:rspo": 111405,
                "official_name": "Zesp\u00f3\u0142 Szk\u00f3\u0142 Og\u00f3lnokszta\u0142c\u0105cych Nr 2 w Jeleniej G\u00f3rze",
                "name": "Zesp\u00f3\u0142 Szk\u00f3\u0142 Og\u00f3lnokszta\u0142c\u0105cych Nr 2 w Jeleniej G\u00f3rze",
                "addr:country": "PL",
                "addr:postcode": "58-560",
                "addr:city": "Jelenia G\u00f3ra",
                "addr:street": "ul. Gimnazjalna",
                "addr:housenumber": "2",
                "addr:teryt:simc": 5527,
                "addr:teryt:sym_ul": 935802,
                "contact:phone": "+48 757551671",
                "contact:email": "sekretariat@norwid.jgora.pl",
                "contact:website": "http:\/\/norwid.jgora.pl",
                "ref:regon": "000208930",
                "ref:vatin": "PL6111705729",
                "operator": "Miasto Jelenia G\u00f3ra",
                "operator:type": "government",
                "landuse": "education",
                "fixme": "amenity=school, amenity=college albo landuse=education w zale\u017cno\u015bci od tego, jakie plac\u00f3wki wchodz\u0105 w sk\u0142ad zespo\u0142u. Sprawd\u017a, kiedy stosowa\u0107 amenity=* a kiedy landuse=education.",
                "note": "Children RSPO: 111607;111611"
            }
        },
        {
            "id": 111607,
            "type": "Feature",
            "geometry": {
                "type": "Point",
                "coordinates": [
                    15.68387,
                    50.866209999999995
                ]
            },
            "properties": {
                "isced:level": "3",
                "ref:rspo": 111607,
                "official_name": "Ii Liceum Og\u00f3lnokszta\u0142c\u0105ce im. Cypriana Kamila Norwida w Jeleniej G\u00f3rze",
                "name": "Ii Liceum Og\u00f3lnokszta\u0142c\u0105ce",
                "addr:country": "PL",
                "addr:postcode": "58-560",
                "addr:city": "Jelenia G\u00f3ra",
                "addr:street": "ul. Gimnazjalna",
                "addr:housenumber": "2",
                "addr:teryt:simc": 5527,
                "addr:teryt:sym_ul": 935802,
                "contact:phone": "+48 757551671",
                "contact:email": "sekretariat@norwid.jgora.pl",
                "contact:website": "http:\/\/www.norwid.jgora.pl",
                "ref:regon": "231169036",
                "operator": "Miasto Jelenia G\u00f3ra",
                "operator:type": "government",
                "amenity": "school",
                "note": "Parent RSPO: 111405"
            }
        },
        {
            "id": 111611,
            "type": "Feature",
            "geometry": {
                "type": "Point",
                "coordinates": [
                    15.68387,
                    50.86618
                ]
            },
            "properties": {
                "isced:level": "3",
                "ref:rspo": 111611,
                "official_name": "Liceum Og\u00f3lnokszta\u0142c\u0105ce dla Doros\u0142ych w Zespole Szk\u00f3\u0142 Og\u00f3lnokszta\u0142c\u0105cych Nr 2 w Jeleniej G\u00f3rze",
                "name": "Liceum Og\u00f3lnokszta\u0142c\u0105ce dla Doros\u0142ych w Zespole Szk\u00f3\u0142 Og\u00f3lnokszta\u0142c\u0105cych Nr 2 w Jeleniej G\u00f3rze",
                "addr:country": "PL",
                "addr:postcode": "58-560",
                "addr:city": "Jelenia G\u00f3ra",
                "addr:street": "ul. Gimnazjalna",
                "addr:housenumber": "2",
                "addr:teryt:simc": 5527,
                "addr:teryt:sym_ul": 935802,
                "contact:phone": "+48 757551671",
                "contact:email": "sekretariat@norwid.jgora.pl",
                "contact:website": "http:\/\/www.norwid.jgora.pl",
                "ref:regon": "231169020",
                "operator": "Miasto Jelenia G\u00f3ra",
                "operator:type": "government",
                "amenity": "school",
                "note": "Parent RSPO: 111405"
            }
        },
        {
            "id": 54120,
            "type": "Feature",
            "geometry": {
                "type": "Point",
                "coordinates": [
                    15.67672,
                    50.8663
                ]
            },
            "properties": {
                "ref:rspo": 54120,
                "official_name": "Miejskie Przedszkole Nr 10 w Jeleniej G\u00f3rze",
                "name": "Miejskie Przedszkole Nr 10 w Jeleniej G\u00f3rze",
                "addr:country": "PL",
                "addr:postcode": "58-560",
                "addr:city": "Jelenia G\u00f3ra",
                "addr:street": "ul. Zjednoczenia Narodowego",
                "addr:housenumber": "15",
                "addr:teryt:simc": 26176,
                "addr:teryt:sym_ul": 935802,
                "contact:phone": "+48 757551631",
                "contact:email": "mp-10@wp.pl",
                "contact:website": "http:\/\/mp10.com.pl",
                "ref:regon": "021413881",
                "ref:vatin": "PL6112706731",
                "operator": "Miasto Jelenia G\u00f3ra",
                "operator:type": "government",
                "amenity": "kindergarten"
            }
        },
        {
            "id": 56746,
            "type": "Feature",
            "geometry": {
                "type": "Point",
                "coordinates": [
                    15.67533,
                    50.867
                ]
            },
            "properties": {
                "ref:rspo": 56746,
                "official_name": "M\u0142odzie\u017cowy O\u015brodek Socjoterapii w Jeleniej G\u00f3rze",
                "name": "M\u0142odzie\u017cowy O\u015brodek Socjoterapii w Jeleniej G\u00f3rze",
                "addr:country": "PL",
                "addr:postcode": "58-560",
                "addr:city": "Jelenia G\u00f3ra",
                "addr:street": "ul. Sprzymierzonych",
                "addr:housenumber": "9",
                "addr:teryt:simc": 20716,
                "addr:teryt:sym_ul": 935802,
                "contact:phone": "+48 757551324",
                "contact:email": "mosocjo@onet.pl",
                "ref:regon": "020343121",
                "ref:vatin": "PL6112599040",
                "operator": "Miasto Jelenia G\u00f3ra",
                "operator:type": "government",
                "fixme": "amenity=social_facility + social_facility=group_home + social_facility:for=juvenile",
                "note": "Children RSPO: 70805"
            }
        },
        {
            "id": 70805,
            "type": "Feature",
            "geometry": {
                "type": "Point",
                "coordinates": [
                    15.67533,
                    50.866969999999995
                ]
            },
            "properties": {
                "isced:level": "1;2",
                "ref:rspo": 70805,
                "official_name": "Szko\u0142a Podstawowa Przy M\u0142odzie\u017cowym O\u015brodku Socjoterapii w Jeleniej G\u00f3rze",
                "name": "Szko\u0142a Podstawowa Przy M\u0142odzie\u017cowym O\u015brodku Socjoterapii w Jeleniej G\u00f3rze",
                "addr:country": "PL",
                "addr:postcode": "58-560",
                "addr:city": "Jelenia G\u00f3ra",
                "addr:street": "ul. Sprzymierzonych",
                "addr:housenumber": "9",
                "addr:teryt:simc": 20716,
                "addr:teryt:sym_ul": 935802,
                "contact:phone": "+48 757551324",
                "contact:email": "mosocjo@onet.pl",
                "ref:regon": "231185130",
                "operator": "Miasto Jelenia G\u00f3ra",
                "operator:type": "government",
                "amenity": "school",
                "note": "Parent RSPO: 56746"
            }
        },
        {
            "id": 111597,
            "type": "Feature",
            "geometry": {
                "type": "Point",
                "coordinates": [
                    15.6993,
                    50.86735
                ]
            },
            "properties": {
                "ref:rspo": 111597,
                "official_name": "Zesp\u00f3\u0142 Szk\u00f3\u0142 Przyrodniczo-Us\u0142ugowych I Bursy Szkolnej w Jeleniej G\u00f3rze",
                "name": "Zesp\u00f3\u0142 Szk\u00f3\u0142 Przyrodniczo-Us\u0142ugowych I Bursy Szkolnej w Jeleniej G\u00f3rze",
                "addr:country": "PL",
                "addr:postcode": "58-560",
                "addr:city": "Jelenia G\u00f3ra",
                "addr:street": "ul. Le\u015bna",
                "addr:housenumber": "5",
                "addr:teryt:simc": 10898,
                "addr:teryt:sym_ul": 935802,
                "contact:phone": "+48 757547421",
                "contact:email": "zspu.jgora@gmail.com",
                "contact:website": "http:\/\/www.zspu.jgora.pl",
                "ref:regon": "021901847",
                "ref:vatin": "PL6112727762",
                "operator": "Miasto Jelenia G\u00f3ra",
                "operator:type": "government",
                "landuse": "education",
                "fixme": "amenity=school, amenity=college albo landuse=education w zale\u017cno\u015bci od tego, jakie plac\u00f3wki wchodz\u0105 w sk\u0142ad zespo\u0142u. Sprawd\u017a, kiedy stosowa\u0107 amenity=* a kiedy landuse=education.",
                "note": "Children RSPO: 56744;112111;112114;124077"
            }
        },
        {
            "id": 112111,
            "type": "Feature",
            "geometry": {
                "type": "Point",
                "coordinates": [
                    15.6993,
                    50.86732
                ]
            },
            "properties": {
                "isced:level": "3",
                "ref:rspo": 112111,
                "official_name": "Bran\u017cowa Szko\u0142a I Stopnia w Zespole Szk\u00f3\u0142 Przyrodniczo-Us\u0142ugowych I Bursy Szkolnej w Jeleniej G\u00f3rze",
                "name": "Bran\u017cowa Szko\u0142a I Stopnia w Zespole Szk\u00f3\u0142 Przyrodniczo-Us\u0142ugowych I Bursy Szkolnej w Jeleniej G\u00f3rze",
                "addr:country": "PL",
                "addr:postcode": "58-560",
                "addr:city": "Jelenia G\u00f3ra",
                "addr:street": "ul. Le\u015bna",
                "addr:housenumber": "5",
                "addr:teryt:simc": 10898,
                "addr:teryt:sym_ul": 935802,
                "contact:phone": "+48 757547421",
                "contact:email": "zspu.jgora@gmail.com",
                "contact:website": "http:\/\/www.zspu.jgora.pl",
                "ref:regon": "231186141",
                "operator": "Miasto Jelenia G\u00f3ra",
                "operator:type": "government",
                "amenity": "school",
                "note": "Parent RSPO: 111597"
            }
        },
        {
            "id": 112114,
            "type": "Feature",
            "geometry": {
                "type": "Point",
                "coordinates": [
                    15.6993,
                    50.867290000000004
                ]
            },
            "properties": {
                "isced:level": "3",
                "ref:rspo": 112114,
                "official_name": "Technikum w Zespole Szk\u00f3\u0142 Przyrodniczo-Us\u0142ugowych I Bursy Szkolnej w Jeleniej G\u00f3rze",
                "name": "Technikum w Zespole Szk\u00f3\u0142 Przyrodniczo-Us\u0142ugowych I Bursy Szkolnej w Jeleniej G\u00f3rze",
                "addr:country": "PL",
                "addr:postcode": "58-560",
                "addr:city": "Jelenia G\u00f3ra",
                "addr:street": "ul. Le\u015bna",
                "addr:housenumber": "5",
                "addr:teryt:simc": 10898,
                "addr:teryt:sym_ul": 935802,
                "contact:phone": "+48 757547421",
                "contact:email": "zspu.jgora@gmail.com",
                "contact:website": "http:\/\/www.zspu.jgora.pl",
                "ref:regon": "231186537",
                "operator": "Miasto Jelenia G\u00f3ra",
                "operator:type": "government",
                "amenity": "school",
                "note": "Parent RSPO: 111597"
            }
        },
        {
            "id": 124077,
            "type": "Feature",
            "geometry": {
                "type": "Point",
                "coordinates": [
                    15.6993,
                    50.86726
                ]
            },
            "properties": {
                "isced:level": "4",
                "ref:rspo": 124077,
                "official_name": "Szko\u0142a Policealna w Zespole Szk\u00f3\u0142 Przyrodniczo-Us\u0142ugowych I Bursy Szkolnej w Jeleniej G\u00f3rze",
                "name": "Szko\u0142a Policealna w Zespole Szk\u00f3\u0142 Przyrodniczo-Us\u0142ugowych I Bursy Szkolnej w Jeleniej G\u00f3rze",
                "addr:country": "PL",
                "addr:postcode": "58-560",
                "addr:city": "Jelenia G\u00f3ra",
                "addr:street": "ul. Le\u015bna",
                "addr:housenumber": "5",
                "addr:teryt:simc": 10898,
                "addr:teryt:sym_ul": 935802,
                "contact:phone": "+48 757547420",
                "contact:email": "zspu.jgora@gmail.com",
                "contact:website": "http:\/\/www.zspu.jgora.pl",
                "ref:regon": "022473715",
                "operator": "Miasto Jelenia G\u00f3ra",
                "operator:type": "government",
                "amenity": "college",
                "note": "Parent RSPO: 111597"
            }
        },
        {
            "id": 133333,
            "type": "Feature",
            "geometry": {
                "type": "Point",
                "coordinates": [
                    15.68269,
                    50.86781
                ]
            },
            "properties": {
                "ref:rspo": 133333,
                "official_name": "Przedszkole Niepubliczne \"Radosne Tuptusie\"",
                "name": "Przedszkole Niepubliczne \"Radosne Tuptusie\"",
                "addr:country": "PL",
                "addr:postcode": "58-560",
                "addr:city": "Jelenia G\u00f3ra",
                "addr:street": "ul. Jagiello\u0144ska",
                "addr:housenumber": "26",
                "addr:door": "E",
                "addr:teryt:simc": 7029,
                "addr:teryt:sym_ul": 935802,
                "contact:phone": "+48 500078298",
                "contact:email": "radosnetuptusie@interia.pl",
                "ref:regon": "367047980",
                "operator": "Dorota Podsiad\u0142o",
                "operator:type": "private",
                "amenity": "kindergarten"
            }
        },
        {
            "id": 54121,
            "type": "Feature",
            "geometry": {
                "type": "Point",
                "coordinates": [
                    15.69823,
                    50.87043
                ]
            },
            "properties": {
                "ref:rspo": 54121,
                "official_name": "Miejskie Integracyjne Przedszkole Nr 14 w Jeleniej G\u00f3rze",
                "name": "Miejskie Integracyjne Przedszkole Nr 14 w Jeleniej G\u00f3rze",
                "addr:country": "PL",
                "addr:postcode": "58-560",
                "addr:city": "Jelenia G\u00f3ra",
                "addr:street": "ul. Junak\u00f3w",
                "addr:housenumber": "2a",
                "addr:teryt:simc": 7661,
                "addr:teryt:sym_ul": 935802,
                "contact:phone": "+48 757551678",
                "contact:email": "przedszkolenr14@op.pl",
                "contact:website": "http:\/\/www.mp14jeleniagora.szkolnastrona.pl\/",
                "ref:regon": "021415064",
                "ref:vatin": "PL6112706748",
                "operator": "Miasto Jelenia G\u00f3ra",
                "operator:type": "government",
                "amenity": "kindergarten"
            }
        },
        {
            "id": 58851,
            "type": "Feature",
            "geometry": {
                "type": "Point",
                "coordinates": [
                    15.71984,
                    50.87965
                ]
            },
            "properties": {
                "ref:rspo": 58851,
                "official_name": "Przedszkole Niepubliczne \u201eKraina Smyka\u201d",
                "name": "Przedszkole Niepubliczne \u201eKraina Smyka\u201d",
                "addr:country": "PL",
                "addr:postcode": "58-560",
                "addr:city": "Jelenia G\u00f3ra",
                "addr:street": "ul. Franciszka \u017bwirki",
                "addr:housenumber": "32",
                "addr:teryt:simc": 26601,
                "addr:teryt:sym_ul": 935802,
                "contact:phone": "+48 756425088",
                "contact:email": "krainasmyka@vp.pl",
                "ref:regon": "021994748",
                "operator": "Krzysztof Bajer",
                "operator:type": "private",
                "amenity": "kindergarten"
            }
        },
        {
            "id": 61610,
            "type": "Feature",
            "geometry": {
                "type": "Point",
                "coordinates": [
                    15.7216796875,
                    50.88111114502
                ]
            },
            "properties": {
                "ref:rspo": 61610,
                "official_name": "O\u015brodek Kszta\u0142cenia Kursowego \u201eAlicja\u201d",
                "name": "O\u015brodek Kszta\u0142cenia Kursowego \u201eAlicja\u201d",
                "addr:country": "PL",
                "addr:postcode": "58-560",
                "addr:city": "Jelenia G\u00f3ra",
                "addr:street": "ul. Joachima Lelewela",
                "addr:housenumber": "1",
                "addr:teryt:simc": 10793,
                "addr:teryt:sym_ul": 935802,
                "contact:phone": "+48 757551046",
                "contact:email": "okk.alicja@op.pl",
                "ref:regon": "021995096",
                "operator": "Alicja Gawlas - Kalota",
                "operator:type": "private",
                "fixme": "w zale\u017cno\u015bci od przedmiotu dzia\u0142alno\u015bci (np. amenity=training + training=*, amenity=dancing_school, amenity=language_school, amenity=music_school)"
            }
        },
        {
            "id": 72856,
            "type": "Feature",
            "geometry": {
                "type": "Point",
                "coordinates": [
                    15.71561,
                    50.88275
                ]
            },
            "properties": {
                "ref:rspo": 72856,
                "official_name": "Specjalny O\u015brodek Szkolno-Wychowawczy w Jeleniej G\u00f3rze",
                "name": "Specjalny O\u015brodek Szkolno-Wychowawczy w Jeleniej G\u00f3rze",
                "addr:country": "PL",
                "addr:postcode": "58-500",
                "addr:city": "Jelenia G\u00f3ra",
                "addr:street": "ul. Kruszwicka",
                "addr:housenumber": "3",
                "addr:teryt:simc": 10045,
                "addr:teryt:sym_ul": 935802,
                "contact:phone": "+48 757538723",
                "contact:email": "sekretariat@soswjg.pl",
                "contact:website": "http:\/\/www.soswjg.pl",
                "ref:regon": "000817971",
                "operator": "Miasto Jelenia G\u00f3ra",
                "operator:type": "government",
                "amenity": "school",
                "note": "Children RSPO: 78004;78007;79076;123657"
            }
        },
        {
            "id": 78004,
            "type": "Feature",
            "geometry": {
                "type": "Point",
                "coordinates": [
                    15.71561,
                    50.88272
                ]
            },
            "properties": {
                "isced:level": "1;2",
                "ref:rspo": 78004,
                "official_name": "Szko\u0142a Podstawowa Specjalna w Jeleniej G\u00f3rze",
                "name": "Szko\u0142a Podstawowa Specjalna w Jeleniej G\u00f3rze",
                "addr:country": "PL",
                "addr:postcode": "58-500",
                "addr:city": "Jelenia G\u00f3ra",
                "addr:street": "ul. Kruszwicka",
                "addr:housenumber": "3",
                "addr:teryt:simc": 10045,
                "addr:teryt:sym_ul": 935802,
                "contact:phone": "+48 757678963",
                "contact:email": "zsipssekretariat@wp.pl",
                "contact:website": "http:\/\/soswjg.pl\/kruszwicka\/strona.glowna\/",
                "ref:regon": "001031586",
                "operator": "Miasto Jelenia G\u00f3ra",
                "operator:type": "government",
                "amenity": "school",
                "note": "Parent RSPO: 72856"
            }
        },
        {
            "id": 78007,
            "type": "Feature",
            "geometry": {
                "type": "Point",
                "coordinates": [
                    15.71561,
                    50.882690000000004
                ]
            },
            "properties": {
                "isced:level": "3",
                "ref:rspo": 78007,
                "official_name": "Bran\u017cowa Szko\u0142a I Stopnia w Specjlnym O\u015brodku Szkolno-Wychowawczym w Jeleniej G\u00f3rze",
                "name": "Bran\u017cowa Szko\u0142a I Stopnia w Specjlnym O\u015brodku Szkolno-Wychowawczym w Jeleniej G\u00f3rze",
                "addr:country": "PL",
                "addr:postcode": "58-500",
                "addr:city": "Jelenia G\u00f3ra",
                "addr:street": "ul. Kruszwicka",
                "addr:housenumber": "3",
                "addr:teryt:simc": 10045,
                "addr:teryt:sym_ul": 935802,
                "contact:phone": "+48 757678963",
                "contact:email": "zsipssekretariat@wp.pl",
                "contact:website": "http:\/\/soswjg.pl\/kruszwicka\/strona.glowna\/",
                "ref:regon": "001030820",
                "operator": "Miasto Jelenia G\u00f3ra",
                "operator:type": "government",
                "amenity": "school",
                "note": "Parent RSPO: 72856"
            }
        },
        {
            "id": 79076,
            "type": "Feature",
            "geometry": {
                "type": "Point",
                "coordinates": [
                    15.71561,
                    50.88266
                ]
            },
            "properties": {
                "ref:rspo": 79076,
                "official_name": "Szko\u0142a Przysposobiaj\u0105ca Do Pracy w Jeleniej G\u00f3rze",
                "name": "Szko\u0142a Przysposobiaj\u0105ca Do Pracy w Jeleniej G\u00f3rze",
                "addr:country": "PL",
                "addr:postcode": "58-500",
                "addr:city": "Jelenia G\u00f3ra",
                "addr:street": "ul. Kruszwicka",
                "addr:housenumber": "3",
                "addr:teryt:simc": 10045,
                "addr:teryt:sym_ul": 935802,
                "contact:phone": "+48 757678963",
                "contact:email": "zsipssekretariat@wp.pl",
                "contact:website": "http:\/\/soswjg.pl\/kruszwicka\/strona.glowna\/",
                "ref:regon": "022005233",
                "operator": "Miasto Jelenia G\u00f3ra",
                "operator:type": "government",
                "amenity": "school",
                "note": "Parent RSPO: 72856"
            }
        },
        {
            "id": 123657,
            "type": "Feature",
            "geometry": {
                "type": "Point",
                "coordinates": [
                    15.71561,
                    50.88263
                ]
            },
            "properties": {
                "ref:rspo": 123657,
                "official_name": "Specjalne Przedszkole Publiczne w Specjalnym O\u015brodku Szkolno-Wychowawczym w Jeleniej G\u00f3rze",
                "name": "Specjalne Przedszkole Publiczne w Specjalnym O\u015brodku Szkolno-Wychowawczym w Jeleniej G\u00f3rze",
                "addr:country": "PL",
                "addr:postcode": "58-500",
                "addr:city": "Jelenia G\u00f3ra",
                "addr:street": "ul. Kruszwicka",
                "addr:housenumber": "3",
                "addr:teryt:simc": 10045,
                "addr:teryt:sym_ul": 935802,
                "contact:phone": "+48 757678963",
                "contact:email": "sekretariat@soswjg.pl",
                "contact:website": "http:\/\/soswjg.pl\/kruszwicka\/strona.glowna\/",
                "ref:regon": "022457550",
                "operator": "Miasto Jelenia G\u00f3ra",
                "operator:type": "government",
                "amenity": "kindergarten",
                "note": "Parent RSPO: 72856"
            }
        },
        {
            "id": 61533,
            "type": "Feature",
            "geometry": {
                "type": "Point",
                "coordinates": [
                    15.74579,
                    50.88853
                ]
            },
            "properties": {
                "ref:rspo": 61533,
                "official_name": "Szkolne Schronisko M\u0142odzie\u017cowe \u201eWojtek\u201d",
                "name": "Szkolne Schronisko M\u0142odzie\u017cowe \u201eWojtek\u201d",
                "addr:country": "PL",
                "addr:postcode": "58-500",
                "addr:city": "Jelenia G\u00f3ra",
                "addr:street": "ul. Skowronk\u00f3w",
                "addr:housenumber": "15A",
                "addr:teryt:simc": 20124,
                "addr:teryt:sym_ul": 935802,
                "contact:phone": "+48 696046824",
                "contact:email": "magdalada@poczta.onet.pl",
                "contact:website": "http:\/\/www.jelenia.schronisko-wojtek.pl",
                "ref:regon": "021996345",
                "operator": "Magdalena Krausiewicz - Fidor",
                "operator:type": "private",
                "tourism": "hostel"
            }
        },
        {
            "id": 59633,
            "type": "Feature",
            "geometry": {
                "type": "Point",
                "coordinates": [
                    15.73282,
                    50.88943
                ]
            },
            "properties": {
                "isced:level": "1;2",
                "ref:rspo": 59633,
                "official_name": "Szko\u0142a Podstawowa Nr 10 im. Marii Sk\u0142odowskiej-Curie w Jeleniej G\u00f3rze",
                "name": "Szko\u0142a Podstawowa Nr 10",
                "addr:country": "PL",
                "addr:postcode": "58-500",
                "addr:city": "Jelenia G\u00f3ra",
                "addr:street": "ul. Gustawa Morcinka",
                "addr:housenumber": "31",
                "addr:teryt:simc": 13279,
                "addr:teryt:sym_ul": 935802,
                "contact:phone": "+48 757649475",
                "contact:email": "dychajg@wp.pl",
                "contact:website": "http:\/\/www.sp10.jgora.pl",
                "ref:regon": "000711037",
                "ref:vatin": "PL6111729374",
                "operator": "Miasto Jelenia G\u00f3ra",
                "operator:type": "government",
                "amenity": "school"
            }
        },
        {
            "id": 89961,
            "type": "Feature",
            "geometry": {
                "type": "Point",
                "coordinates": [
                    15.71197,
                    50.89147
                ]
            },
            "properties": {
                "ref:rspo": 89961,
                "official_name": "Plac\u00f3wka Kszta\u0142cenia Ustawicznego \u201eGm-Strategia\u201d w Jeleniej G\u00f3rze",
                "name": "Plac\u00f3wka Kszta\u0142cenia Ustawicznego \u201eGm-Strategia\u201d w Jeleniej G\u00f3rze",
                "addr:country": "PL",
                "addr:postcode": "58-500",
                "addr:city": "Jelenia G\u00f3ra",
                "addr:street": "ul. Karola Miarki",
                "addr:housenumber": "48",
                "addr:teryt:simc": 12674,
                "addr:teryt:sym_ul": 935802,
                "contact:phone": "+48 603779313",
                "ref:regon": "022018856",
                "operator": "\"Gm-Strategia\"",
                "operator:type": "ngo",
                "fixme": "w zale\u017cno\u015bci od przedmiotu dzia\u0142alno\u015bci (np. amenity=training + training=*, amenity=dancing_school, amenity=language_school, amenity=music_school)"
            }
        },
        {
            "id": 80338,
            "type": "Feature",
            "geometry": {
                "type": "Point",
                "coordinates": [
                    15.71234,
                    50.89173
                ]
            },
            "properties": {
                "ref:rspo": 80338,
                "official_name": "\u201eGlobal Menagement - Instytut Zarz\u0105dzania Strategicznego\u201d",
                "name": "\u201eGlobal Menagement - Instytut Zarz\u0105dzania Strategicznego\u201d",
                "addr:country": "PL",
                "addr:postcode": "58-500",
                "addr:city": "Jelenia G\u00f3ra",
                "addr:street": "ul. Karola Miarki",
                "addr:housenumber": "42",
                "addr:teryt:simc": 12674,
                "addr:teryt:sym_ul": 935802,
                "contact:phone": "+48 603779313",
                "ref:regon": "022006126",
                "operator": "Miros\u0142aw Gniewowski",
                "operator:type": "private",
                "fixme": "w zale\u017cno\u015bci od przedmiotu dzia\u0142alno\u015bci (np. amenity=training + training=*, amenity=dancing_school, amenity=language_school, amenity=music_school)"
            }
        },
        {
            "id": 80771,
            "type": "Feature",
            "geometry": {
                "type": "Point",
                "coordinates": [
                    15.71234,
                    50.8917
                ]
            },
            "properties": {
                "ref:rspo": 80771,
                "official_name": "Centrum Edukacji Finansowo-Ekonomicznej",
                "name": "Centrum Edukacji Finansowo-Ekonomicznej",
                "addr:country": "PL",
                "addr:postcode": "58-500",
                "addr:city": "Jelenia G\u00f3ra",
                "addr:street": "ul. Karola Miarki",
                "addr:housenumber": "42",
                "addr:teryt:simc": 12674,
                "addr:teryt:sym_ul": 935802,
                "contact:phone": "+48 603779313",
                "ref:regon": "022006103",
                "operator": "Centrum Us\u0142ug Finansowo - Ekonomicznych Sp\u00f3\u0142ka Z Ograniczon\u0105 Odpowiedzialno\u015bci\u0105",
                "operator:type": "private",
                "fixme": "w zale\u017cno\u015bci od przedmiotu dzia\u0142alno\u015bci (np. amenity=training + training=*, amenity=dancing_school, amenity=language_school, amenity=music_school)"
            }
        },
        {
            "id": 270707,
            "type": "Feature",
            "geometry": {
                "type": "Point",
                "coordinates": [
                    15.71234,
                    50.891670000000005
                ]
            },
            "properties": {
                "ref:rspo": 270707,
                "official_name": "\u201eGlobal Menagement - Instytut Zarz\u0105dzania Strategicznego\u201d",
                "name": "\u201eGlobal Menagement - Instytut Zarz\u0105dzania Strategicznego\u201d",
                "addr:country": "PL",
                "addr:postcode": "58-500",
                "addr:city": "Jelenia G\u00f3ra",
                "addr:street": "ul. Karola Miarki",
                "addr:housenumber": "42",
                "addr:teryt:simc": 12674,
                "addr:teryt:sym_ul": 935802,
                "contact:phone": "+48 757523120",
                "ref:regon": "382867390",
                "operator": "Fundacja \"Centrum Wspierania I Promocji Przedsi\u0119biorczo\u015bci\" W Likwidacji",
                "operator:type": "ngo",
                "fixme": "w zale\u017cno\u015bci od przedmiotu dzia\u0142alno\u015bci (np. amenity=training + training=*, amenity=dancing_school, amenity=language_school, amenity=music_school)"
            }
        },
        {
            "id": 58681,
            "type": "Feature",
            "geometry": {
                "type": "Point",
                "coordinates": [
                    15.72857,
                    50.8929199
                ]
            },
            "properties": {
                "ref:rspo": 58681,
                "official_name": "Niepubliczne Przedszkole\n\u201eTuptu\u015b\u201d",
                "name": "Niepubliczne Przedszkole\n\u201eTuptu\u015b\u201d",
                "addr:country": "PL",
                "addr:postcode": "58-500",
                "addr:city": "Jelenia G\u00f3ra",
                "addr:street": "ul. Gustawa Morcinka",
                "addr:housenumber": "11",
                "addr:teryt:simc": 13279,
                "addr:teryt:sym_ul": 935802,
                "contact:phone": "+48 756469374",
                "contact:email": "przedszkolestonoga@poczta.fm",
                "contact:website": "http:\/\/www.tuptus.jgora.pl",
                "ref:regon": "022002499",
                "operator": "Wies\u0142awa Sordel",
                "operator:type": "private",
                "amenity": "kindergarten"
            }
        },
        {
            "id": 47357,
            "type": "Feature",
            "geometry": {
                "type": "Point",
                "coordinates": [
                    15.73651,
                    50.89448
                ]
            },
            "properties": {
                "ref:rspo": 47357,
                "official_name": "Miejskie Przedszkole Nr 4 w Jeleniej G\u00f3rze",
                "name": "Miejskie Przedszkole Nr 4 w Jeleniej G\u00f3rze",
                "addr:country": "PL",
                "addr:postcode": "58-500",
                "addr:city": "Jelenia G\u00f3ra",
                "addr:street": "ul. Ignacego Krasickiego",
                "addr:housenumber": "6",
                "addr:teryt:simc": 9830,
                "addr:teryt:sym_ul": 935802,
                "contact:phone": "+48 756421343",
                "contact:email": "mp_4_jgora@tlen.pl",
                "contact:website": "http:\/\/www.przedszkole4.jgora.pl",
                "ref:regon": "021412858",
                "ref:vatin": "PL6112706435",
                "operator": "Miasto Jelenia G\u00f3ra",
                "operator:type": "government",
                "amenity": "kindergarten"
            }
        },
        {
            "id": 58616,
            "type": "Feature",
            "geometry": {
                "type": "Point",
                "coordinates": [
                    15.7338,
                    50.8960099
                ]
            },
            "properties": {
                "ref:rspo": 58616,
                "official_name": "Niepubliczne Przedszkole \u201ePi\u0105tka5\u201d",
                "name": "Niepubliczne Przedszkole \u201ePi\u0105tka5\u201d",
                "addr:country": "PL",
                "addr:postcode": "58-500",
                "addr:city": "Jelenia G\u00f3ra",
                "addr:street": "ul. Adama Mickiewicza",
                "addr:housenumber": "19",
                "addr:teryt:simc": 12740,
                "addr:teryt:sym_ul": 935802,
                "contact:phone": "+48 507678986",
                "contact:email": "piatka_5@poczta.fm",
                "ref:regon": "021996291",
                "operator": "Teresa Skulska",
                "operator:type": "private",
                "amenity": "kindergarten"
            }
        },
        {
            "id": 54123,
            "type": "Feature",
            "geometry": {
                "type": "Point",
                "coordinates": [
                    15.74225,
                    50.89634
                ]
            },
            "properties": {
                "ref:rspo": 54123,
                "official_name": "Mi\u0119dzyszkolny O\u015brodek Sportu w Jeleniej G\u00f3rze",
                "name": "Mi\u0119dzyszkolny O\u015brodek Sportu w Jeleniej G\u00f3rze",
                "addr:country": "PL",
                "addr:postcode": "58-500",
                "addr:city": "Jelenia G\u00f3ra",
                "addr:street": "ul. Sudecka",
                "addr:housenumber": "42",
                "addr:teryt:simc": 21525,
                "addr:teryt:sym_ul": 935802,
                "contact:phone": "+48 757697140",
                "contact:email": "biuro@mosjg.pl",
                "ref:regon": "231193939",
                "ref:vatin": "PL6112500797",
                "operator": "Miasto Jelenia G\u00f3ra",
                "operator:type": "government",
                "leisure": "sports_centre",
                "note": "Parent RSPO: 275283"
            }
        },
        {
            "id": 70299,
            "type": "Feature",
            "geometry": {
                "type": "Point",
                "coordinates": [
                    15.74313,
                    50.89708
                ]
            },
            "properties": {
                "isced:level": "1;2",
                "ref:rspo": 70299,
                "official_name": "Szko\u0142a Podstawowa Nr 7 im. Adama Mickiewicza w Jeleniej G\u00f3rze",
                "name": "Szko\u0142a Podstawowa Nr 7",
                "addr:country": "PL",
                "addr:postcode": "58-500",
                "addr:city": "Jelenia G\u00f3ra",
                "addr:street": "ul. Sudecka",
                "addr:housenumber": "53",
                "addr:teryt:simc": 21525,
                "addr:teryt:sym_ul": 935802,
                "contact:phone": "+48 757523335",
                "contact:email": "przerwa7@poczta.onet.pl",
                "contact:website": "http:\/\/www.sp7jgora.szkolnastrona.pl",
                "ref:regon": "000711014",
                "operator": "Miasto Jelenia G\u00f3ra",
                "operator:type": "government",
                "amenity": "school"
            }
        },
        {
            "id": 63480,
            "type": "Feature",
            "geometry": {
                "type": "Point",
                "coordinates": [
                    15.72946,
                    50.89717
                ]
            },
            "properties": {
                "isced:level": "1;2",
                "ref:rspo": 63480,
                "official_name": "Szko\u0142a Podstawowa Nr 13 im. Komisji Edukacji Narodowej w Jeleniej G\u00f3rze",
                "name": "Szko\u0142a Podstawowa Nr 13",
                "addr:country": "PL",
                "addr:postcode": "58-500",
                "addr:city": "Jelenia G\u00f3ra",
                "addr:street": "ul. Piotra Skargi",
                "addr:housenumber": "19",
                "addr:teryt:simc": 20012,
                "addr:teryt:sym_ul": 935802,
                "contact:phone": "+48 757523972",
                "contact:email": "trzynastkajg@o2.pl",
                "contact:website": "http:\/\/www.sp13.jelenia-gora.pl",
                "ref:regon": "000711066",
                "ref:vatin": "PL6111757459",
                "operator": "Miasto Jelenia G\u00f3ra",
                "operator:type": "government",
                "amenity": "school"
            }
        },
        {
            "id": 58862,
            "type": "Feature",
            "geometry": {
                "type": "Point",
                "coordinates": [
                    15.73281,
                    50.89747
                ]
            },
            "properties": {
                "ref:rspo": 58862,
                "official_name": "Niepubliczne Przedszkole \"Kr\u00f3L Maciu\u015b\"",
                "name": "Niepubliczne Przedszkole \"Kr\u00f3L Maciu\u015b\"",
                "addr:country": "PL",
                "addr:postcode": "58-500",
                "addr:city": "Jelenia G\u00f3ra",
                "addr:street": "ul. Adama Mickiewicza",
                "addr:housenumber": "15",
                "addr:teryt:simc": 12740,
                "addr:teryt:sym_ul": 935802,
                "contact:phone": "+48 756421221",
                "contact:email": "biuro@szkolakosmetyczna.com",
                "ref:regon": "021996256",
                "operator": "Maria Jawor",
                "operator:type": "private",
                "amenity": "kindergarten"
            }
        },
        {
            "id": 115582,
            "type": "Feature",
            "geometry": {
                "type": "Point",
                "coordinates": [
                    15.73281,
                    50.897439999999996
                ]
            },
            "properties": {
                "ref:rspo": 115582,
                "official_name": "O\u015brodek Szkoleniowy - Maria Jawor",
                "name": "O\u015brodek Szkoleniowy - Maria Jawor",
                "addr:country": "PL",
                "addr:postcode": "58-500",
                "addr:city": "Jelenia G\u00f3ra",
                "addr:street": "ul. Adama Mickiewicza",
                "addr:housenumber": "15",
                "addr:teryt:simc": 12740,
                "addr:teryt:sym_ul": 935802,
                "contact:phone": "+48 756421221",
                "contact:email": "biuro@szkolakosmetyczna.com",
                "ref:regon": "022184566",
                "operator": "Maria Jawor",
                "operator:type": "private",
                "fixme": "w zale\u017cno\u015bci od przedmiotu dzia\u0142alno\u015bci (np. amenity=training + training=*, amenity=dancing_school, amenity=language_school, amenity=music_school)"
            }
        },
        {
            "id": 80729,
            "type": "Feature",
            "geometry": {
                "type": "Point",
                "coordinates": [
                    15.73203,
                    50.89791
                ]
            },
            "properties": {
                "ref:rspo": 80729,
                "official_name": "Prywatne Centrum Kszta\u0142cenia Kadr - Plac\u00f3wka Kszta\u0142cenia Ustawicznego",
                "name": "Prywatne Centrum Kszta\u0142cenia Kadr - Plac\u00f3wka Kszta\u0142cenia Ustawicznego",
                "addr:country": "PL",
                "addr:postcode": "58-500",
                "addr:city": "Jelenia G\u00f3ra",
                "addr:street": "ul. Wolno\u015bci",
                "addr:housenumber": "29",
                "addr:teryt:simc": 24687,
                "addr:teryt:sym_ul": 935802,
                "contact:phone": "+48 756494161",
                "contact:email": "biuro@pckk.pl",
                "ref:regon": "022006110",
                "operator": "Pckk Jolanta Raty\u0144ska",
                "operator:type": "consortium",
                "fixme": "w zale\u017cno\u015bci od przedmiotu dzia\u0142alno\u015bci (np. amenity=training + training=*, amenity=dancing_school, amenity=language_school, amenity=music_school)"
            }
        },
        {
            "id": 273946,
            "type": "Feature",
            "geometry": {
                "type": "Point",
                "coordinates": [
                    15.73203,
                    50.89788
                ]
            },
            "properties": {
                "ref:rspo": 273946,
                "official_name": "Centrum Doskonalenia Nauczycieli Pckk",
                "name": "Centrum Doskonalenia Nauczycieli Pckk",
                "addr:country": "PL",
                "addr:postcode": "58-500",
                "addr:city": "Jelenia G\u00f3ra",
                "addr:street": "ul. Wolno\u015bci",
                "addr:housenumber": "29",
                "addr:teryt:simc": 24687,
                "addr:teryt:sym_ul": 935802,
                "contact:phone": "+48 756494161",
                "contact:email": "biuro@pckk.pl",
                "contact:website": "http:\/\/www.pckk.pl",
                "ref:regon": "384908526",
                "operator": "Jolanta Raty\u0144ska",
                "operator:type": "private",
                "amenity": "training"
            }
        },
        {
            "id": 80574,
            "type": "Feature",
            "geometry": {
                "type": "Point",
                "coordinates": [
                    15.73562,
                    50.89793
                ]
            },
            "properties": {
                "ref:rspo": 80574,
                "official_name": "Stowarzyszenie Elektryk\u00f3w Polskich Oddzia\u0142 Jeleniog\u00f3rski",
                "name": "Stowarzyszenie Elektryk\u00f3w Polskich Oddzia\u0142 Jeleniog\u00f3rski",
                "addr:country": "PL",
                "addr:postcode": "58-500",
                "addr:city": "Jelenia G\u00f3ra",
                "addr:street": "al. Wojska Polskiego",
                "addr:housenumber": "54",
                "addr:teryt:simc": 24623,
                "addr:teryt:sym_ul": 935802,
                "contact:phone": "+48 757526338",
                "contact:email": "sepjg@op.pl",
                "ref:regon": "022050340",
                "operator": "Stowarzyszenie Elektryk\u00f3w Polskich",
                "operator:type": "ngo",
                "fixme": "w zale\u017cno\u015bci od przedmiotu dzia\u0142alno\u015bci (np. amenity=training + training=*, amenity=dancing_school, amenity=language_school, amenity=music_school)"
            }
        },
        {
            "id": 275283,
            "type": "Feature",
            "geometry": {
                "type": "Point",
                "coordinates": [
                    15.73416,
                    50.89902
                ]
            },
            "properties": {
                "ref:rspo": 275283,
                "official_name": "Zesp\u00f3\u0142 Plac\u00f3wek Pozaszkolnych - Centrum Wspierania Uzdolnie\u0144 w Jeleniej G\u00f3rze",
                "name": "Zesp\u00f3\u0142 Plac\u00f3wek Pozaszkolnych - Centrum Wspierania Uzdolnie\u0144 w Jeleniej G\u00f3rze",
                "addr:country": "PL",
                "addr:postcode": "58-500",
                "addr:city": "Jelenia G\u00f3ra",
                "addr:street": "ul. Marii Sk\u0142odowskiej-Curie",
                "addr:housenumber": "12",
                "addr:teryt:simc": 20068,
                "addr:teryt:sym_ul": 935802,
                "contact:phone": "+48 756424460",
                "contact:email": "biuro@mosjg.pl",
                "ref:regon": "386785039",
                "operator": "Miasto Jelenia G\u00f3ra",
                "operator:type": "government",
                "landuse": "education",
                "fixme": "amenity=school, amenity=college albo landuse=education w zale\u017cno\u015bci od tego, jakie plac\u00f3wki wchodz\u0105 w sk\u0142ad zespo\u0142u. Sprawd\u017a, kiedy stosowa\u0107 amenity=* a kiedy landuse=education.",
                "note": "Children RSPO: 54122;54123"
            }
        },
        {
            "id": 54122,
            "type": "Feature",
            "geometry": {
                "type": "Point",
                "coordinates": [
                    15.73416,
                    50.89899
                ]
            },
            "properties": {
                "ref:rspo": 54122,
                "official_name": "M\u0142odzie\u017cowy Dom Kultury w Jeleniej G\u00f3rze",
                "name": "M\u0142odzie\u017cowy Dom Kultury w Jeleniej G\u00f3rze",
                "addr:country": "PL",
                "addr:postcode": "58-500",
                "addr:city": "Jelenia G\u00f3ra",
                "addr:street": "ul. Marii Sk\u0142odowskiej-Curie",
                "addr:housenumber": "12",
                "addr:teryt:simc": 20068,
                "addr:teryt:sym_ul": 935802,
                "contact:phone": "+48 756424460",
                "contact:email": "mdkjg@o2.pl",
                "contact:website": "http:\/\/www.mdkjelonek.pl",
                "ref:regon": "000708130",
                "ref:vatin": "PL6111727872",
                "operator": "Miasto Jelenia G\u00f3ra",
                "operator:type": "government",
                "amenity": "community_centre",
                "community_centre:for": "juvenile",
                "note": "Parent RSPO: 275283"
            }
        },
        {
            "id": 49894,
            "type": "Feature",
            "geometry": {
                "type": "Point",
                "coordinates": [
                    15.74812,
                    50.89983
                ]
            },
            "properties": {
                "ref:rspo": 49894,
                "official_name": "Miejskie Przedszkole Nr 27 \"Okr\u0105glaczek\" w Jeleniej G\u00f3rze",
                "name": "Miejskie Przedszkole Nr 27 \"Okr\u0105glaczek\" w Jeleniej G\u00f3rze",
                "addr:country": "PL",
                "addr:postcode": "58-500",
                "addr:city": "Jelenia G\u00f3ra",
                "addr:street": "ul. Juliana Tuwima",
                "addr:housenumber": "12",
                "addr:teryt:simc": 23196,
                "addr:teryt:sym_ul": 935802,
                "contact:phone": "+48 756480466",
                "contact:email": "pm27@op.pl",
                "ref:regon": "021411563",
                "ref:vatin": "PL6112706441",
                "operator": "Miasto Jelenia G\u00f3ra",
                "operator:type": "government",
                "amenity": "kindergarten"
            }
        },
        {
            "id": 111433,
            "type": "Feature",
            "geometry": {
                "type": "Point",
                "coordinates": [
                    15.73782,
                    50.90037
                ]
            },
            "properties": {
                "ref:rspo": 111433,
                "official_name": "Zesp\u00f3\u0142 Szk\u00f3\u0142 Ekonomiczno-Turystycznych im. Unii Europejskiej w Jeleniej G\u00f3rze",
                "name": "Zesp\u00f3\u0142 Szk\u00f3\u0142 Ekonomiczno-Turystycznych",
                "addr:country": "PL",
                "addr:postcode": "58-500",
                "addr:city": "Jelenia G\u00f3ra",
                "addr:street": "ul. J\u00f3zefa Pi\u0142sudskiego",
                "addr:housenumber": "27",
                "addr:teryt:simc": 16264,
                "addr:teryt:sym_ul": 935802,
                "contact:phone": "+48 756423728",
                "contact:email": "sekretariat@ekonom.jgora.pl",
                "contact:website": "http:\/\/www.ekonom.jgora.pl",
                "ref:regon": "020093180",
                "ref:vatin": "PL6112558070",
                "operator": "Miasto Jelenia G\u00f3ra",
                "operator:type": "government",
                "landuse": "education",
                "fixme": "amenity=school, amenity=college albo landuse=education w zale\u017cno\u015bci od tego, jakie plac\u00f3wki wchodz\u0105 w sk\u0142ad zespo\u0142u. Sprawd\u017a, kiedy stosowa\u0107 amenity=* a kiedy landuse=education.",
                "note": "Children RSPO: 111625;123924;273430"
            }
        },
        {
            "id": 111625,
            "type": "Feature",
            "geometry": {
                "type": "Point",
                "coordinates": [
                    15.73782,
                    50.90034
                ]
            },
            "properties": {
                "isced:level": "3",
                "ref:rspo": 111625,
                "official_name": "Technikum w Zespole Szk\u00f3\u0142 Ekonomiczno-Turystycznych im. Unii Europejskiej w Jeleniej G\u00f3rze",
                "name": "Technikum w Zespole Szk\u00f3\u0142 Ekonomiczno-Turystycznych",
                "addr:country": "PL",
                "addr:postcode": "58-500",
                "addr:city": "Jelenia G\u00f3ra",
                "addr:street": "ul. J\u00f3zefa Pi\u0142sudskiego",
                "addr:housenumber": "27",
                "addr:teryt:simc": 16264,
                "addr:teryt:sym_ul": 935802,
                "contact:phone": "+48 756423718",
                "contact:email": "sekretariat@ekonom.jgora.pl",
                "contact:website": "http:\/\/www.ekonom.jgora.pl",
                "ref:regon": "231183094",
                "operator": "Miasto Jelenia G\u00f3ra",
                "operator:type": "government",
                "amenity": "school",
                "note": "Parent RSPO: 111433"
            }
        },
        {
            "id": 123924,
            "type": "Feature",
            "geometry": {
                "type": "Point",
                "coordinates": [
                    15.73782,
                    50.900310000000005
                ]
            },
            "properties": {
                "isced:level": "4",
                "ref:rspo": 123924,
                "official_name": "Szko\u0142a Policealna w Zespole Szk\u00f3\u0142 Ekonomiczno-Turystycznych im. Unii Europejskiej w Jeleniej G\u00f3rze",
                "name": "Szko\u0142a Policealna w Zespole Szk\u00f3\u0142 Ekonomiczno-Turystycznych",
                "addr:country": "PL",
                "addr:postcode": "58-500",
                "addr:city": "Jelenia G\u00f3ra",
                "addr:street": "ul. J\u00f3zefa Pi\u0142sudskiego",
                "addr:housenumber": "27",
                "addr:teryt:simc": 16264,
                "addr:teryt:sym_ul": 935802,
                "contact:phone": "+48 756423718",
                "ref:regon": "231183102",
                "operator": "Miasto Jelenia G\u00f3ra",
                "operator:type": "government",
                "amenity": "college",
                "note": "Parent RSPO: 111433"
            }
        },
        {
            "id": 273430,
            "type": "Feature",
            "geometry": {
                "type": "Point",
                "coordinates": [
                    15.73782,
                    50.90028
                ]
            },
            "properties": {
                "isced:level": "3",
                "ref:rspo": 273430,
                "official_name": "Bran\u017cowa Szko\u0142a I Stopnia w Zespole Szk\u00f3\u0142 Ekonomiczno-Turystycznych im. Unii Europejskiej w Jeleniej G\u00f3rze",
                "name": "Bran\u017cowa Szko\u0142a I Stopnia w Zespole Szk\u00f3\u0142 Ekonomiczno-Turystycznych",
                "addr:country": "PL",
                "addr:postcode": "58-500",
                "addr:city": "Jelenia G\u00f3ra",
                "addr:street": "ul. J\u00f3zefa Pi\u0142sudskiego",
                "addr:housenumber": "27",
                "addr:teryt:simc": 16264,
                "addr:teryt:sym_ul": 935802,
                "contact:phone": "+48 756423718",
                "contact:email": "sekretariat@ekonom.jgora.pl",
                "contact:website": "http:\/\/www.ekonom.jgora.pl",
                "ref:regon": "384487846",
                "operator": "Miasto Jelenia G\u00f3ra",
                "operator:type": "government",
                "amenity": "school",
                "note": "Parent RSPO: 111433"
            }
        },
        {
            "id": 60920,
            "type": "Feature",
            "geometry": {
                "type": "Point",
                "coordinates": [
                    15.73515,
                    50.90056
                ]
            },
            "properties": {
                "isced:level": "4",
                "ref:rspo": 60920,
                "official_name": "Studium Medyczne Teb Edukacja w Jeleniej G\u00f3rze",
                "name": "Studium Medyczne Teb Edukacja w Jeleniej G\u00f3rze",
                "addr:country": "PL",
                "addr:postcode": "58-500",
                "addr:city": "Jelenia G\u00f3ra",
                "addr:street": "ul. J\u00f3zefa Pi\u0142sudskiego",
                "addr:housenumber": "52a",
                "addr:teryt:simc": 16264,
                "addr:teryt:sym_ul": 935802,
                "contact:phone": "+48 757524158",
                "contact:email": "jelenia@teb.pl",
                "ref:regon": "022003493",
                "operator": "Teb Edukacja Sp\u00f3\u0142ka Z Ograniczon\u0105 Odpowiedzialno\u015bci\u0105",
                "operator:type": "private",
                "amenity": "college"
            }
        },
        {
            "id": 60924,
            "type": "Feature",
            "geometry": {
                "type": "Point",
                "coordinates": [
                    15.73515,
                    50.900529999999996
                ]
            },
            "properties": {
                "isced:level": "4",
                "ref:rspo": 60924,
                "official_name": "Niepubliczna Szko\u0142a Policealna Teb Edukacja w Jeleniej G\u00f3rze",
                "name": "Niepubliczna Szko\u0142a Policealna Teb Edukacja w Jeleniej G\u00f3rze",
                "addr:country": "PL",
                "addr:postcode": "58-500",
                "addr:city": "Jelenia G\u00f3ra",
                "addr:street": "ul. J\u00f3zefa Pi\u0142sudskiego",
                "addr:housenumber": "52a",
                "addr:teryt:simc": 16264,
                "addr:teryt:sym_ul": 935802,
                "contact:phone": "+48 757524158",
                "contact:email": "jelenia@teb.pl",
                "ref:regon": "022003547",
                "operator": "Teb Edukacja Sp\u00f3\u0142ka Z Ograniczon\u0105 Odpowiedzialno\u015bci\u0105",
                "operator:type": "private",
                "amenity": "college"
            }
        },
        {
            "id": 60926,
            "type": "Feature",
            "geometry": {
                "type": "Point",
                "coordinates": [
                    15.73515,
                    50.9005
                ]
            },
            "properties": {
                "isced:level": "3",
                "ref:rspo": 60926,
                "official_name": "Liceum Og\u00f3lnokszta\u0142c\u0105ce Teb Edukacja dla Doros\u0142ych w Jeleniej G\u00f3rze",
                "name": "Liceum Og\u00f3lnokszta\u0142c\u0105ce Teb Edukacja dla Doros\u0142ych w Jeleniej G\u00f3rze",
                "addr:country": "PL",
                "addr:postcode": "58-500",
                "addr:city": "Jelenia G\u00f3ra",
                "addr:street": "ul. J\u00f3zefa Pi\u0142sudskiego",
                "addr:housenumber": "52a",
                "addr:teryt:simc": 16264,
                "addr:teryt:sym_ul": 935802,
                "contact:phone": "+48 757524158",
                "contact:email": "jelenia@teb.pl",
                "ref:regon": "022003518",
                "operator": "Teb Edukacja Sp\u00f3\u0142ka Z Ograniczon\u0105 Odpowiedzialno\u015bci\u0105",
                "operator:type": "private",
                "amenity": "school"
            }
        },
        {
            "id": 60930,
            "type": "Feature",
            "geometry": {
                "type": "Point",
                "coordinates": [
                    15.73515,
                    50.90047
                ]
            },
            "properties": {
                "isced:level": "4",
                "ref:rspo": 60930,
                "official_name": "Szko\u0142a Medyczna Teb Edukacja w Jeleniej G\u00f3rze",
                "name": "Szko\u0142a Medyczna Teb Edukacja w Jeleniej G\u00f3rze",
                "addr:country": "PL",
                "addr:postcode": "58-500",
                "addr:city": "Jelenia G\u00f3ra",
                "addr:street": "ul. J\u00f3zefa Pi\u0142sudskiego",
                "addr:housenumber": "52a",
                "addr:teryt:simc": 16264,
                "addr:teryt:sym_ul": 935802,
                "contact:phone": "+48 757524158",
                "contact:email": "jelenia@teb.pl",
                "ref:regon": "021994961",
                "operator": "Teb Edukacja Sp\u00f3\u0142ka Z Ograniczon\u0105 Odpowiedzialno\u015bci\u0105",
                "operator:type": "private",
                "amenity": "college"
            }
        },
        {
            "id": 80571,
            "type": "Feature",
            "geometry": {
                "type": "Point",
                "coordinates": [
                    15.73515,
                    50.900439999999996
                ]
            },
            "properties": {
                "ref:rspo": 80571,
                "official_name": "Teb Edukacja Studium Kszta\u0142cenia Ustawicznego",
                "name": "Teb Edukacja Studium Kszta\u0142cenia Ustawicznego",
                "addr:country": "PL",
                "addr:postcode": "58-500",
                "addr:city": "Jelenia G\u00f3ra",
                "addr:street": "ul. J\u00f3zefa Pi\u0142sudskiego",
                "addr:housenumber": "52a",
                "addr:teryt:simc": 16264,
                "addr:teryt:sym_ul": 935802,
                "contact:phone": "+48 757524158",
                "contact:email": "jelenia@teb.pl",
                "ref:regon": "022009449",
                "operator": "Teb Edukacja Sp\u00f3\u0142ka Z Ograniczon\u0105 Odpowiedzialno\u015bci\u0105",
                "operator:type": "private",
                "fixme": "w zale\u017cno\u015bci od przedmiotu dzia\u0142alno\u015bci (np. amenity=training + training=*, amenity=dancing_school, amenity=language_school, amenity=music_school)"
            }
        },
        {
            "id": 264220,
            "type": "Feature",
            "geometry": {
                "type": "Point",
                "coordinates": [
                    15.73515,
                    50.90041
                ]
            },
            "properties": {
                "isced:level": "3",
                "ref:rspo": 264220,
                "official_name": "Technikum Teb Edukacja w Jeleniej G\u00f3rze",
                "name": "Technikum Teb Edukacja w Jeleniej G\u00f3rze",
                "addr:country": "PL",
                "addr:postcode": "58-500",
                "addr:city": "Jelenia G\u00f3ra",
                "addr:street": "ul. J\u00f3zefa Pi\u0142sudskiego",
                "addr:housenumber": "52a",
                "addr:teryt:simc": 16264,
                "addr:teryt:sym_ul": 935802,
                "contact:phone": "+48 756423361",
                "contact:email": "jelenia@teb-edukacja.pl",
                "ref:regon": "368294373",
                "operator": "Teb Edukacja Sp\u00f3\u0142ka Z Ograniczon\u0105 Odpowiedzialno\u015bci\u0105",
                "operator:type": "private",
                "amenity": "school"
            }
        },
        {
            "id": 277800,
            "type": "Feature",
            "geometry": {
                "type": "Point",
                "coordinates": [
                    15.73515,
                    50.90038
                ]
            },
            "properties": {
                "isced:level": "3",
                "ref:rspo": 277800,
                "official_name": "Liceum Og\u00f3lnokszta\u0142c\u0105ce Teb Edukacja w Jeleniej G\u00f3rze",
                "name": "Liceum Og\u00f3lnokszta\u0142c\u0105ce Teb Edukacja w Jeleniej G\u00f3rze",
                "addr:country": "PL",
                "addr:postcode": "58-500",
                "addr:city": "Jelenia G\u00f3ra",
                "addr:street": "ul. J\u00f3zefa Pi\u0142sudskiego",
                "addr:housenumber": "52a",
                "addr:teryt:simc": 16264,
                "addr:teryt:sym_ul": 935802,
                "contact:phone": "+48 756711910",
                "contact:email": "jelenia@teb.pl",
                "ref:regon": "389565137",
                "operator": "Teb Edukacja Sp\u00f3\u0142ka Z Ograniczon\u0105 Odpowiedzialno\u015bci\u0105",
                "operator:type": "private",
                "amenity": "school"
            }
        },
        {
            "id": 54117,
            "type": "Feature",
            "geometry": {
                "type": "Point",
                "coordinates": [
                    15.73735,
                    50.90058
                ]
            },
            "properties": {
                "ref:rspo": 54117,
                "official_name": "Miejskie Przedszkole Nr 2 w Jeleniej G\u00f3rze",
                "name": "Miejskie Przedszkole Nr 2 w Jeleniej G\u00f3rze",
                "addr:country": "PL",
                "addr:postcode": "58-500",
                "addr:city": "Jelenia G\u00f3ra",
                "addr:street": "ul. J\u00f3zefa Pi\u0142sudskiego",
                "addr:housenumber": "32",
                "addr:teryt:simc": 16264,
                "addr:teryt:sym_ul": 935802,
                "contact:phone": "+48 756423610",
                "contact:email": "mp2_jgora@poczta.onet.pl",
                "ref:regon": "021412960",
                "ref:vatin": "PL6112706493",
                "operator": "Miasto Jelenia G\u00f3ra",
                "operator:type": "government",
                "amenity": "kindergarten"
            }
        },
        {
            "id": 111483,
            "type": "Feature",
            "geometry": {
                "type": "Point",
                "coordinates": [
                    15.75136,
                    50.9007099
                ]
            },
            "properties": {
                "isced:level": "3",
                "ref:rspo": 111483,
                "official_name": "I Liceum Og\u00f3lnokszta\u0142c\u0105ce im. Stefana \u017beromskiego w Jeleniej G\u00f3rze",
                "name": "I Liceum Og\u00f3lnokszta\u0142c\u0105ce",
                "addr:country": "PL",
                "addr:postcode": "58-500",
                "addr:city": "Jelenia G\u00f3ra",
                "addr:street": "ul. Jana Kochanowskiego",
                "addr:housenumber": "18",
                "addr:teryt:simc": 8728,
                "addr:teryt:sym_ul": 935802,
                "contact:phone": "+48 757677800",
                "contact:email": "zerom@4me.pl",
                "contact:website": "http:\/\/www.zerom.4me.pl",
                "ref:regon": "231186365",
                "operator": "Miasto Jelenia G\u00f3ra",
                "operator:type": "government",
                "amenity": "school"
            }
        },
        {
            "id": 57883,
            "type": "Feature",
            "geometry": {
                "type": "Point",
                "coordinates": [
                    15.78849,
                    50.90088
                ]
            },
            "properties": {
                "isced:level": "1;2",
                "ref:rspo": 57883,
                "official_name": "Szko\u0142a Podstawowa Nr 5 w Jeleniej G\u00f3rze",
                "name": "Szko\u0142a Podstawowa Nr 5 w Jeleniej G\u00f3rze",
                "addr:country": "PL",
                "addr:postcode": "58-500",
                "addr:city": "Jelenia G\u00f3ra",
                "addr:street": "ul. Lotnictwa",
                "addr:housenumber": "1",
                "addr:teryt:simc": 11268,
                "addr:teryt:sym_ul": 935802,
                "contact:phone": "+48 756421429",
                "contact:email": "spnr5jg@poczta.onet.pl",
                "contact:website": "https:\/\/www.spnr5jg.pl\/",
                "ref:regon": "000710990",
                "ref:vatin": "PL6111142686",
                "operator": "Miasto Jelenia G\u00f3ra",
                "operator:type": "government",
                "amenity": "school"
            }
        },
        {
            "id": 57882,
            "type": "Feature",
            "geometry": {
                "type": "Point",
                "coordinates": [
                    15.74057,
                    50.90111
                ]
            },
            "properties": {
                "isced:level": "1;2",
                "ref:rspo": 57882,
                "official_name": "Szko\u0142a Podstawowa Nr 2 im. Boles\u0142awa Chrobrego w Jeleniej G\u00f3rze",
                "name": "Szko\u0142a Podstawowa Nr 2",
                "addr:country": "PL",
                "addr:postcode": "58-500",
                "addr:city": "Jelenia G\u00f3ra",
                "addr:street": "ul. Armii Krajowej",
                "addr:housenumber": "8",
                "addr:teryt:simc": 432,
                "addr:teryt:sym_ul": 935802,
                "contact:phone": "+48 757523376",
                "contact:email": "sp2jgora@op.pl",
                "contact:website": "http:\/\/sp2jgora.szkolnastrona.pl",
                "ref:regon": "000710977",
                "ref:vatin": "PL6111566251",
                "operator": "Miasto Jelenia G\u00f3ra",
                "operator:type": "government",
                "amenity": "school"
            }
        },
        {
            "id": 18896,
            "type": "Feature",
            "geometry": {
                "type": "Point",
                "coordinates": [
                    15.73793,
                    50.9013599
                ]
            },
            "properties": {
                "ref:rspo": 18896,
                "official_name": "Pa\u0144stwowa Szko\u0142a Muzyczna I I II St. im. Stanis\u0142awa Moniuszki w Jeleniej G\u00f3rze",
                "name": "Pa\u0144stwowa Szko\u0142a Muzyczna I I II St.",
                "addr:country": "PL",
                "addr:postcode": "58-500",
                "addr:city": "Jelenia G\u00f3ra",
                "addr:street": "ul. J\u00f3zefa Pi\u0142sudskiego",
                "addr:housenumber": "26",
                "addr:teryt:simc": 16264,
                "addr:teryt:sym_ul": 935802,
                "contact:phone": "+48 757522330",
                "contact:email": "muzyczna@psm.jgora.pl",
                "contact:website": "http:\/\/psm.jgora.pl",
                "ref:regon": "000280761",
                "operator": "Ministerstwo Kultury I Dziedzictwa Narodowego",
                "operator:type": "public",
                "landuse": "education",
                "fixme": "amenity=school, amenity=college albo landuse=education w zale\u017cno\u015bci od tego, jakie plac\u00f3wki wchodz\u0105 w sk\u0142ad zespo\u0142u. Sprawd\u017a, kiedy stosowa\u0107 amenity=* a kiedy landuse=education.",
                "note": "Children RSPO: 93193;103779"
            }
        },
        {
            "id": 93193,
            "type": "Feature",
            "geometry": {
                "type": "Point",
                "coordinates": [
                    15.73793,
                    50.9013299
                ]
            },
            "properties": {
                "ref:rspo": 93193,
                "official_name": "Pa\u0144stwowa Szko\u0142a Muzyczna I St. w Jeleniej G\u00f3rze",
                "name": "Pa\u0144stwowa Szko\u0142a Muzyczna I St. w Jeleniej G\u00f3rze",
                "addr:country": "PL",
                "addr:postcode": "58-500",
                "addr:city": "Jelenia G\u00f3ra",
                "addr:street": "ul. J\u00f3zefa Pi\u0142sudskiego",
                "addr:housenumber": "26",
                "addr:teryt:simc": 16264,
                "addr:teryt:sym_ul": 935802,
                "contact:phone": "+48 757522330",
                "ref:regon": "022026175",
                "operator": "Ministerstwo Kultury I Dziedzictwa Narodowego",
                "operator:type": "public",
                "amenity": "music_school",
                "note": "Parent RSPO: 18896"
            }
        },
        {
            "id": 103779,
            "type": "Feature",
            "geometry": {
                "type": "Point",
                "coordinates": [
                    15.73793,
                    50.901299900000005
                ]
            },
            "properties": {
                "ref:rspo": 103779,
                "official_name": "Pa\u0144stwowa Szko\u0142a Muzyczna II St. w Jeleniej G\u00f3rze",
                "name": "Pa\u0144stwowa Szko\u0142a Muzyczna II St. w Jeleniej G\u00f3rze",
                "addr:country": "PL",
                "addr:postcode": "58-500",
                "addr:city": "Jelenia G\u00f3ra",
                "addr:street": "ul. J\u00f3zefa Pi\u0142sudskiego",
                "addr:housenumber": "26",
                "addr:teryt:simc": 16264,
                "addr:teryt:sym_ul": 935802,
                "contact:phone": "+48 757522330",
                "ref:regon": "022029156",
                "operator": "Ministerstwo Kultury I Dziedzictwa Narodowego",
                "operator:type": "public",
                "amenity": "music_school",
                "note": "Parent RSPO: 18896"
            }
        },
        {
            "id": 31098,
            "type": "Feature",
            "geometry": {
                "type": "Point",
                "coordinates": [
                    15.73821,
                    50.90159
                ]
            },
            "properties": {
                "ref:rspo": 31098,
                "official_name": "Niepubliczne Przedszkole\n\u201eBajka\u201d w Jeleniej G\u00f3rze",
                "name": "Niepubliczne Przedszkole\n\u201eBajka\u201d w Jeleniej G\u00f3rze",
                "addr:country": "PL",
                "addr:postcode": "58-500",
                "addr:city": "Jelenia G\u00f3ra",
                "addr:street": "ul. J\u00f3zefa Pi\u0142sudskiego",
                "addr:housenumber": "15",
                "addr:teryt:simc": 16264,
                "addr:teryt:sym_ul": 935802,
                "contact:phone": "+48 757524911",
                "contact:email": "bajkaprzedszkole@wp.pl",
                "ref:regon": "021990124",
                "operator": "Krystyna Michalak",
                "operator:type": "private",
                "amenity": "kindergarten"
            }
        },
        {
            "id": 130860,
            "type": "Feature",
            "geometry": {
                "type": "Point",
                "coordinates": [
                    15.74294,
                    50.9017
                ]
            },
            "properties": {
                "ref:rspo": 130860,
                "official_name": "Probelt Sp. Z O.o.",
                "name": "Probelt Sp. Z O.o.",
                "addr:country": "PL",
                "addr:postcode": "58-500",
                "addr:city": "Jelenia G\u00f3ra",
                "addr:street": "ul. Stefana Okrzei",
                "addr:housenumber": "11",
                "addr:teryt:simc": 14914,
                "addr:teryt:sym_ul": 935802,
                "contact:phone": "+48 730040748",
                "contact:email": "biuro@probelt.pl",
                "contact:website": "http:\/\/www.probelt.com.pl",
                "ref:regon": "364629859",
                "operator": "\"Probelt\" Sp\u00f3\u0142ka Z Ograniczon\u0105 Odpowiedzialno\u015bci\u0105",
                "operator:type": "private",
                "fixme": "w zale\u017cno\u015bci od przedmiotu dzia\u0142alno\u015bci (np. amenity=training + training=*, amenity=dancing_school, amenity=language_school, amenity=music_school)"
            }
        },
        {
            "id": 61609,
            "type": "Feature",
            "geometry": {
                "type": "Point",
                "coordinates": [
                    15.7491058,
                    50.903076
                ]
            },
            "properties": {
                "ref:rspo": 61609,
                "official_name": "Stowarzyszenie Ksi\u0119gowych w Polsce Plac\u00f3wka Kszta\u0142cenia Ustawicznego Oddzia\u0142u Dolno\u015bL\u0105skiego we Wroc\u0142awiu",
                "name": "Stowarzyszenie Ksi\u0119gowych w Polsce Plac\u00f3wka Kszta\u0142cenia Ustawicznego Oddzia\u0142u Dolno\u015bL\u0105skiego we Wroc\u0142awiu",
                "addr:country": "PL",
                "addr:postcode": "58-500",
                "addr:city": "Jelenia G\u00f3ra",
                "addr:street": "ul. 1 Maja",
                "addr:housenumber": "76",
                "addr:door": "1B",
                "addr:teryt:simc": 11926,
                "addr:teryt:sym_ul": 935802,
                "contact:phone": "+48 756412200",
                "contact:email": "biuro@jeleniagora.skwp.pl",
                "ref:regon": "021995067",
                "operator": "Stowarzyszenie Ksi\u0119gowych W Polsce",
                "operator:type": "ngo",
                "fixme": "w zale\u017cno\u015bci od przedmiotu dzia\u0142alno\u015bci (np. amenity=training + training=*, amenity=dancing_school, amenity=language_school, amenity=music_school)"
            }
        },
        {
            "id": 61656,
            "type": "Feature",
            "geometry": {
                "type": "Point",
                "coordinates": [
                    15.74042,
                    50.90325
                ]
            },
            "properties": {
                "ref:rspo": 61656,
                "official_name": "Dolno\u015bL\u0105ski Zak\u0142ad Doskonalenia Zawodowego Oddzia\u0142 I we Wroc\u0142awiu O\u015brodek Kszta\u0142cenia Zawodowego w Jeleniej G\u00f3rze",
                "name": "Dolno\u015bL\u0105ski Zak\u0142ad Doskonalenia Zawodowego Oddzia\u0142 I we Wroc\u0142awiu O\u015brodek Kszta\u0142cenia Zawodowego w Jeleniej G\u00f3rze",
                "addr:country": "PL",
                "addr:postcode": "58-500",
                "addr:city": "Jelenia G\u00f3ra",
                "addr:street": "ul. 1 Maja",
                "addr:housenumber": "27",
                "addr:teryt:simc": 11926,
                "addr:teryt:sym_ul": 935802,
                "contact:phone": "+48 757524640",
                "contact:email": "okz.jeleniagora@dzdz.wroc.pl",
                "ref:regon": "021996368",
                "operator": "Dolno\u015bl\u0105ski Zak\u0142ad Doskonalenia Zawodowego Oddzia\u0142 I We Wroc\u0142awiu",
                "operator:type": "ngo",
                "fixme": "w zale\u017cno\u015bci od przedmiotu dzia\u0142alno\u015bci (np. amenity=training + training=*, amenity=dancing_school, amenity=language_school, amenity=music_school)"
            }
        },
        {
            "id": 111439,
            "type": "Feature",
            "geometry": {
                "type": "Point",
                "coordinates": [
                    15.7425,
                    50.90338
                ]
            },
            "properties": {
                "ref:rspo": 111439,
                "official_name": "Zesp\u00f3\u0142 Szk\u00f3\u0142 Licealnych I Zawodowych Nr 2 w Jeleniej G\u00f3rze",
                "name": "Zesp\u00f3\u0142 Szk\u00f3\u0142 Licealnych I Zawodowych Nr 2 w Jeleniej G\u00f3rze",
                "addr:country": "PL",
                "addr:postcode": "58-500",
                "addr:city": "Jelenia G\u00f3ra",
                "addr:street": "ul. 1 Maja",
                "addr:housenumber": "39\/41",
                "addr:teryt:simc": 11926,
                "addr:teryt:sym_ul": 935802,
                "contact:phone": "+48 756423900",
                "contact:email": "handlowka@post.pl",
                "contact:website": "http:\/\/www.handlowka.edu.pl",
                "ref:regon": "231083984",
                "ref:vatin": "PL6112415991",
                "operator": "Miasto Jelenia G\u00f3ra",
                "operator:type": "government",
                "landuse": "education",
                "fixme": "amenity=school, amenity=college albo landuse=education w zale\u017cno\u015bci od tego, jakie plac\u00f3wki wchodz\u0105 w sk\u0142ad zespo\u0142u. Sprawd\u017a, kiedy stosowa\u0107 amenity=* a kiedy landuse=education.",
                "note": "Children RSPO: 112054;112058;114709;123862;278057"
            }
        },
        {
            "id": 112054,
            "type": "Feature",
            "geometry": {
                "type": "Point",
                "coordinates": [
                    15.7425,
                    50.903349999999996
                ]
            },
            "properties": {
                "isced:level": "3",
                "ref:rspo": 112054,
                "official_name": "Technikum w Zespole Szk\u00f3\u0142 Licealnych I Zawodowych Nr 2 w Jeleniej G\u00f3rze",
                "name": "Technikum w Zespole Szk\u00f3\u0142 Licealnych I Zawodowych Nr 2 w Jeleniej G\u00f3rze",
                "addr:country": "PL",
                "addr:postcode": "58-500",
                "addr:city": "Jelenia G\u00f3ra",
                "addr:street": "ul. 1 Maja",
                "addr:housenumber": "39\/41",
                "addr:teryt:simc": 11926,
                "addr:teryt:sym_ul": 935802,
                "contact:phone": "+48 756423900",
                "contact:email": "handlowka@post.pl",
                "contact:website": "http:\/\/www.handlowka.edu.pl",
                "ref:regon": "231183711",
                "operator": "Miasto Jelenia G\u00f3ra",
                "operator:type": "government",
                "amenity": "school",
                "note": "Parent RSPO: 111439"
            }
        },
        {
            "id": 112058,
            "type": "Feature",
            "geometry": {
                "type": "Point",
                "coordinates": [
                    15.7425,
                    50.90332
                ]
            },
            "properties": {
                "isced:level": "3",
                "ref:rspo": 112058,
                "official_name": "Bran\u017cowa Szko\u0142a I Stopnia w Zespole Szk\u00f3\u0142 Licealnych I Zawodowych Nr 2 im. Stanis\u0142awa Staszica w Jeleniej G\u00f3rze",
                "name": "Bran\u017cowa Szko\u0142a I Stopnia w Zespole Szk\u00f3\u0142 Licealnych I Zawodowych Nr 2",
                "addr:country": "PL",
                "addr:postcode": "58-500",
                "addr:city": "Jelenia G\u00f3ra",
                "addr:street": "ul. 1 Maja",
                "addr:housenumber": "39\/41",
                "addr:teryt:simc": 11926,
                "addr:teryt:sym_ul": 935802,
                "contact:phone": "+48 756423900",
                "ref:regon": "231183639",
                "operator": "Miasto Jelenia G\u00f3ra",
                "operator:type": "government",
                "amenity": "school",
                "note": "Parent RSPO: 111439"
            }
        },
        {
            "id": 114709,
            "type": "Feature",
            "geometry": {
                "type": "Point",
                "coordinates": [
                    15.7425,
                    50.90329
                ]
            },
            "properties": {
                "ref:rspo": 114709,
                "official_name": "Jeleniog\u00f3rskie Centrum Kszta\u0142cenia Zawodowego",
                "name": "Jeleniog\u00f3rskie Centrum Kszta\u0142cenia Zawodowego",
                "addr:country": "PL",
                "addr:postcode": "58-500",
                "addr:city": "Jelenia G\u00f3ra",
                "addr:street": "ul. 1 Maja",
                "addr:housenumber": "39\/41",
                "addr:teryt:simc": 11926,
                "addr:teryt:sym_ul": 935802,
                "contact:phone": "+48 756423900",
                "ref:regon": "231183763",
                "operator": "Miasto Jelenia G\u00f3ra",
                "operator:type": "government",
                "fixme": "w zale\u017cno\u015bci od przedmiotu dzia\u0142alno\u015bci (np. amenity=training + training=*, amenity=dancing_school, amenity=language_school, amenity=music_school) albo amenity=school, amenity=college, albo landuse=education w zale\u017cno\u015bci od tego, jakie plac\u00f3wki wchodz\u0105 w sk\u0142ad zespo\u0142u. Sprawd\u017a, kiedy stosowa\u0107 amenity=* a kiedy landuse=education.",
                "note": "Parent RSPO: 111439"
            }
        },
        {
            "id": 123862,
            "type": "Feature",
            "geometry": {
                "type": "Point",
                "coordinates": [
                    15.7425,
                    50.903259999999996
                ]
            },
            "properties": {
                "isced:level": "3",
                "ref:rspo": 123862,
                "official_name": "Liceum Og\u00f3lnokszta\u0142c\u0105ce dla Doros\u0142ych w Zespole Szk\u00f3\u0142 Licealnych I Zawodowych Nr 2 w Jeleniej G\u00f3rze",
                "name": "Liceum Og\u00f3lnokszta\u0142c\u0105ce dla Doros\u0142ych w Zespole Szk\u00f3\u0142 Licealnych I Zawodowych Nr 2 w Jeleniej G\u00f3rze",
                "addr:country": "PL",
                "addr:postcode": "58-500",
                "addr:city": "Jelenia G\u00f3ra",
                "addr:street": "ul. 1 Maja",
                "addr:housenumber": "39\/41",
                "addr:teryt:simc": 11926,
                "addr:teryt:sym_ul": 935802,
                "contact:phone": "+48 756423900",
                "contact:email": "handlowka@post.pl",
                "contact:website": "http:\/\/www.handlowka.edu.pl",
                "ref:regon": "231183680",
                "operator": "Miasto Jelenia G\u00f3ra",
                "operator:type": "government",
                "amenity": "school",
                "note": "Parent RSPO: 111439"
            }
        },
        {
            "id": 278057,
            "type": "Feature",
            "geometry": {
                "type": "Point",
                "coordinates": [
                    15.7425,
                    50.90323
                ]
            },
            "properties": {
                "isced:level": "3",
                "ref:rspo": 278057,
                "official_name": "Bran\u017cowa Szko\u0142a II Stopnia w Zespole Szk\u00f3\u0142 Licealnych I Zawodowych Nr 2 im. Stanis\u0142awa Staszica w Jeleniej G\u00f3rze",
                "name": "Bran\u017cowa Szko\u0142a II Stopnia w Zespole Szk\u00f3\u0142 Licealnych I Zawodowych Nr 2",
                "addr:country": "PL",
                "addr:postcode": "58-500",
                "addr:city": "Jelenia G\u00f3ra",
                "addr:street": "ul. 1 Maja",
                "addr:housenumber": "39\/41",
                "addr:teryt:simc": 11926,
                "addr:teryt:sym_ul": 935802,
                "contact:phone": "+48 756423900",
                "contact:email": "handlowka@post.pl",
                "ref:regon": "389779507",
                "operator": "Miasto Jelenia G\u00f3ra",
                "operator:type": "government",
                "amenity": "school",
                "note": "Parent RSPO: 111439"
            }
        },
        {
            "id": 265941,
            "type": "Feature",
            "geometry": {
                "type": "Point",
                "coordinates": [
                    15.73628,
                    50.90388
                ]
            },
            "properties": {
                "ref:rspo": 265941,
                "official_name": "Zesp\u00f3\u0142 Szk\u00f3\u0142 Katolickich U \u015aw. Pankracego w Jeleniej G\u00f3rze",
                "name": "Zesp\u00f3\u0142 Szk\u00f3\u0142 Katolickich U \u015aw. Pankracego w Jeleniej G\u00f3rze",
                "addr:country": "PL",
                "addr:postcode": "58-500",
                "addr:city": "Jelenia G\u00f3ra",
                "addr:street": "ul. Miko\u0142aja Kopernika",
                "addr:housenumber": "1",
                "addr:teryt:simc": 9282,
                "addr:teryt:sym_ul": 935802,
                "contact:email": "szkola@pankracy.edu.pl",
                "contact:website": "http:\/\/www.szkola.pankracy.edu.pl",
                "ref:regon": "369054530",
                "operator": "Karkonoskie Stowarzyszenie Edukacyjne U Erazma I Pankracego",
                "operator:type": "ngo",
                "landuse": "education",
                "fixme": "amenity=school, amenity=college albo landuse=education w zale\u017cno\u015bci od tego, jakie plac\u00f3wki wchodz\u0105 w sk\u0142ad zespo\u0142u. Sprawd\u017a, kiedy stosowa\u0107 amenity=* a kiedy landuse=education.",
                "note": "Children RSPO: 196221;262771"
            }
        },
        {
            "id": 196221,
            "type": "Feature",
            "geometry": {
                "type": "Point",
                "coordinates": [
                    15.73628,
                    50.90385
                ]
            },
            "properties": {
                "isced:level": "1;2",
                "ref:rspo": 196221,
                "official_name": "Publiczna Katolicka Szko\u0142a Podstawowa U \u015aw. Pankracego w Jeleniej G\u00f3rze",
                "name": "Publiczna Katolicka Szko\u0142a Podstawowa U \u015aw. Pankracego w Jeleniej G\u00f3rze",
                "addr:country": "PL",
                "addr:postcode": "58-500",
                "addr:city": "Jelenia G\u00f3ra",
                "addr:street": "ul. Miko\u0142aja Kopernika",
                "addr:housenumber": "1",
                "addr:teryt:simc": 9282,
                "addr:teryt:sym_ul": 935802,
                "contact:phone": "+48 519575989",
                "contact:email": "szkola@pankracy.edu.pl",
                "contact:website": "http:\/\/szkola.pankracy.edu.pl",
                "ref:regon": "368005423",
                "ref:vatin": "PL6112784435",
                "operator": "Karkonoskie Stowarzyszenie Edukacyjne U Erazma I Pankracego",
                "operator:type": "ngo",
                "amenity": "school",
                "note": "Parent RSPO: 265941"
            }
        },
        {
            "id": 61657,
            "type": "Feature",
            "geometry": {
                "type": "Point",
                "coordinates": [
                    15.74273,
                    50.90437
                ]
            },
            "properties": {
                "ref:rspo": 61657,
                "official_name": "O\u015brodek Szkolenia Technicznego Sp. Z O.o.",
                "name": "O\u015brodek Szkolenia Technicznego Sp. Z O.o.",
                "addr:country": "PL",
                "addr:postcode": "58-500",
                "addr:city": "Jelenia G\u00f3ra",
                "addr:street": "ul. 1 Maja",
                "addr:housenumber": "43",
                "addr:teryt:simc": 11926,
                "addr:teryt:sym_ul": 935802,
                "contact:phone": "+48 757522399",
                "contact:email": "ostjg@ost.org.pl",
                "ref:regon": "021995110",
                "operator": "O\u015brodek Szkolenia Technicznego Sp\u00f3\u0142ka Z Ograniczon\u0105 Odpowiedzialno\u015bci\u0105",
                "operator:type": "private",
                "fixme": "w zale\u017cno\u015bci od przedmiotu dzia\u0142alno\u015bci (np. amenity=training + training=*, amenity=dancing_school, amenity=language_school, amenity=music_school)"
            }
        },
        {
            "id": 61435,
            "type": "Feature",
            "geometry": {
                "type": "Point",
                "coordinates": [
                    15.76657,
                    50.90478
                ]
            },
            "properties": {
                "isced:level": "4",
                "ref:rspo": 61435,
                "official_name": "Centrum Kszta\u0142cenia Plejada Szko\u0142a Policealna w Jeleniej G\u00f3rze",
                "name": "Centrum Kszta\u0142cenia Plejada Szko\u0142a Policealna w Jeleniej G\u00f3rze",
                "addr:country": "PL",
                "addr:postcode": "58-500",
                "addr:city": "Jelenia G\u00f3ra",
                "addr:street": "ul. Ludwika Wary\u0144skiego",
                "addr:housenumber": "20",
                "addr:teryt:simc": 23707,
                "addr:teryt:sym_ul": 935802,
                "contact:phone": "+48 756488385",
                "contact:email": "jeleniagora@eck.com.pl",
                "ref:regon": "021996374",
                "operator": "Bo\u017cena Sugalska",
                "operator:type": "private",
                "amenity": "college"
            }
        },
        {
            "id": 61438,
            "type": "Feature",
            "geometry": {
                "type": "Point",
                "coordinates": [
                    15.76657,
                    50.90475
                ]
            },
            "properties": {
                "isced:level": "3",
                "ref:rspo": 61438,
                "official_name": "Centrum Kszta\u0142cenia Plejada Niepubliczne Liceum Og\u00f3lnokszta\u0142c\u0105ce w Jeleniej G\u00f3rze",
                "name": "Centrum Kszta\u0142cenia Plejada Niepubliczne Liceum Og\u00f3lnokszta\u0142c\u0105ce w Jeleniej G\u00f3rze",
                "addr:country": "PL",
                "addr:postcode": "58-500",
                "addr:city": "Jelenia G\u00f3ra",
                "addr:street": "ul. Ludwika Wary\u0144skiego",
                "addr:housenumber": "20",
                "addr:teryt:simc": 23707,
                "addr:teryt:sym_ul": 935802,
                "contact:phone": "+48 756488385",
                "contact:email": "jeleniagora@eck.com.pl",
                "contact:website": "http:\/\/www.plejada.edu.pl",
                "ref:regon": "022002134",
                "operator": "Bo\u017cena Sugalska",
                "operator:type": "private",
                "amenity": "school"
            }
        },
        {
            "id": 272492,
            "type": "Feature",
            "geometry": {
                "type": "Point",
                "coordinates": [
                    15.76657,
                    50.904720000000005
                ]
            },
            "properties": {
                "isced:level": "1;2",
                "ref:rspo": 272492,
                "official_name": "Szko\u0142a Podstawowa dla Doros\u0142ych Plejada w Jeleniej G\u00f3rze",
                "name": "Szko\u0142a Podstawowa dla Doros\u0142ych Plejada w Jeleniej G\u00f3rze",
                "addr:country": "PL",
                "addr:postcode": "58-500",
                "addr:city": "Jelenia G\u00f3ra",
                "addr:street": "ul. Ludwika Wary\u0144skiego",
                "addr:housenumber": "20",
                "addr:teryt:simc": 23707,
                "addr:teryt:sym_ul": 935802,
                "contact:phone": "+48 756488385",
                "contact:email": "jgora.plejada@op.pl",
                "ref:regon": "384266163",
                "operator": "Bo\u017cena Sugalska",
                "operator:type": "private",
                "amenity": "school"
            }
        },
        {
            "id": 275123,
            "type": "Feature",
            "geometry": {
                "type": "Point",
                "coordinates": [
                    15.76657,
                    50.90469
                ]
            },
            "properties": {
                "isced:level": "1;2",
                "ref:rspo": 275123,
                "official_name": "Szko\u0142a Podstawowa Omnibus w Jeleniej G\u00f3rze",
                "name": "Szko\u0142a Podstawowa Omnibus w Jeleniej G\u00f3rze",
                "addr:country": "PL",
                "addr:postcode": "58-500",
                "addr:city": "Jelenia G\u00f3ra",
                "addr:street": "ul. Ludwika Wary\u0144skiego",
                "addr:housenumber": "20",
                "addr:teryt:simc": 23707,
                "addr:teryt:sym_ul": 935802,
                "contact:phone": "+48 756488385",
                "contact:email": "jeleniagora@eck.com.pl",
                "ref:regon": "386597059",
                "operator": "Bo\u017cena Sugalska",
                "operator:type": "private",
                "amenity": "school"
            }
        },
        {
            "id": 54125,
            "type": "Feature",
            "geometry": {
                "type": "Point",
                "coordinates": [
                    15.74132,
                    50.90506
                ]
            },
            "properties": {
                "ref:rspo": 54125,
                "official_name": "Bursa Szkolna Nr 1 w Jeleniej G\u00f3rze",
                "name": "Bursa Szkolna Nr 1 w Jeleniej G\u00f3rze",
                "addr:country": "PL",
                "addr:postcode": "58-500",
                "addr:city": "Jelenia G\u00f3ra",
                "addr:street": "ul. Jana Kili\u0144skiego",
                "addr:housenumber": "5",
                "addr:door": "7",
                "addr:teryt:simc": 8435,
                "addr:teryt:sym_ul": 935802,
                "contact:phone": "+48 756453270",
                "contact:email": "bursa1@jeleniagora.pl",
                "contact:website": "http:\/\/bursa1.jeleniagora.pl",
                "ref:regon": "021412864",
                "ref:vatin": "PL6112706553",
                "operator": "Miasto Jelenia G\u00f3ra",
                "operator:type": "government",
                "building": "dormitory"
            }
        },
        {
            "id": 58773,
            "type": "Feature",
            "geometry": {
                "type": "Point",
                "coordinates": [
                    15.75042,
                    50.90711
                ]
            },
            "properties": {
                "ref:rspo": 58773,
                "official_name": "Niepubliczne Przedszkole\n\u201eKacperek\u201d",
                "name": "Niepubliczne Przedszkole\n\u201eKacperek\u201d",
                "addr:country": "PL",
                "addr:postcode": "58-506",
                "addr:city": "Jelenia G\u00f3ra",
                "addr:street": "ul. Ludomira R\u00f3\u017cyckiego",
                "addr:housenumber": "2",
                "addr:teryt:simc": 19021,
                "addr:teryt:sym_ul": 935802,
                "contact:phone": "+48 757525197",
                "contact:email": "npkacperek@gmail.com",
                "ref:regon": "021996180",
                "operator": "Gra\u017cyna Ko\u0142odziejczuk-Frankowska",
                "operator:type": "private",
                "amenity": "kindergarten"
            }
        },
        {
            "id": 77411,
            "type": "Feature",
            "geometry": {
                "type": "Point",
                "coordinates": [
                    15.72918,
                    50.90734
                ]
            },
            "properties": {
                "ref:rspo": 77411,
                "official_name": "Zesp\u00f3\u0142 Szk\u00f3\u0142 Technicznych \"Mechanik\" w Jeleniej G\u00f3rze",
                "name": "Zesp\u00f3\u0142 Szk\u00f3\u0142 Technicznych \"Mechanik\" w Jeleniej G\u00f3rze",
                "addr:country": "PL",
                "addr:postcode": "58-500",
                "addr:city": "Jelenia G\u00f3ra",
                "addr:street": "ul. Obro\u0144c\u00f3w Pokoju",
                "addr:housenumber": "10",
                "addr:teryt:simc": 14642,
                "addr:teryt:sym_ul": 935802,
                "contact:phone": "+48 757522256",
                "contact:email": "sekretariat@zstmechanik.pl",
                "contact:website": "http:\/\/www.zstmechanik.pl",
                "ref:regon": "000183905",
                "ref:vatin": "PL6111537982",
                "operator": "Miasto Jelenia G\u00f3ra",
                "operator:type": "government",
                "landuse": "education",
                "fixme": "amenity=school, amenity=college albo landuse=education w zale\u017cno\u015bci od tego, jakie plac\u00f3wki wchodz\u0105 w sk\u0142ad zespo\u0142u. Sprawd\u017a, kiedy stosowa\u0107 amenity=* a kiedy landuse=education.",
                "note": "Children RSPO: 114707;114708;124034;124040;278056"
            }
        },
        {
            "id": 114707,
            "type": "Feature",
            "geometry": {
                "type": "Point",
                "coordinates": [
                    15.72918,
                    50.907309999999995
                ]
            },
            "properties": {
                "isced:level": "3",
                "ref:rspo": 114707,
                "official_name": "Technikum w Zespole Szk\u00f3\u0142 Technicznych \"Mechanik\"",
                "name": "Technikum w Zespole Szk\u00f3\u0142 Technicznych \"Mechanik\"",
                "addr:country": "PL",
                "addr:postcode": "58-500",
                "addr:city": "Jelenia G\u00f3ra",
                "addr:street": "ul. Obro\u0144c\u00f3w Pokoju",
                "addr:housenumber": "10",
                "addr:teryt:simc": 14642,
                "addr:teryt:sym_ul": 935802,
                "contact:phone": "+48 757522256",
                "contact:email": "sekretariat@zstmechanik.pl",
                "contact:website": "http:\/\/zstmechanik.pl",
                "ref:regon": "231185319",
                "operator": "Miasto Jelenia G\u00f3ra",
                "operator:type": "government",
                "amenity": "school",
                "note": "Parent RSPO: 77411"
            }
        },
        {
            "id": 114708,
            "type": "Feature",
            "geometry": {
                "type": "Point",
                "coordinates": [
                    15.72918,
                    50.90728
                ]
            },
            "properties": {
                "isced:level": "3",
                "ref:rspo": 114708,
                "official_name": "Bran\u017cowa Szko\u0142a I Stopnia w Zespole Szk\u00f3\u0142 Technicznych \"Mechanik\" w Jeleniej G\u00f3rze",
                "name": "Bran\u017cowa Szko\u0142a I Stopnia w Zespole Szk\u00f3\u0142 Technicznych \"Mechanik\" w Jeleniej G\u00f3rze",
                "addr:country": "PL",
                "addr:postcode": "58-500",
                "addr:city": "Jelenia G\u00f3ra",
                "addr:street": "ul. Obro\u0144c\u00f3w Pokoju",
                "addr:housenumber": "10",
                "addr:teryt:simc": 14642,
                "addr:teryt:sym_ul": 935802,
                "contact:phone": "+48 757522256",
                "contact:email": "sekretariat@zstmechanik.pl",
                "contact:website": "http:\/\/zstmechanik.pl",
                "ref:regon": "231185360",
                "operator": "Miasto Jelenia G\u00f3ra",
                "operator:type": "government",
                "amenity": "school",
                "note": "Parent RSPO: 77411"
            }
        },
        {
            "id": 124034,
            "type": "Feature",
            "geometry": {
                "type": "Point",
                "coordinates": [
                    15.72918,
                    50.90725
                ]
            },
            "properties": {
                "isced:level": "4",
                "ref:rspo": 124034,
                "official_name": "Szko\u0142a Policelna w Zespole Szk\u00f3\u0142 Technicznych \"Mechanik\" w Jeleniej G\u00f3rze",
                "name": "Szko\u0142a Policelna w Zespole Szk\u00f3\u0142 Technicznych \"Mechanik\" w Jeleniej G\u00f3rze",
                "addr:country": "PL",
                "addr:postcode": "58-500",
                "addr:city": "Jelenia G\u00f3ra",
                "addr:street": "ul. Obro\u0144c\u00f3w Pokoju",
                "addr:housenumber": "10",
                "addr:teryt:simc": 14642,
                "addr:teryt:sym_ul": 935802,
                "contact:phone": "+48 757522256",
                "contact:email": "sekretariat@zstmechanik.pl",
                "contact:website": "http:\/\/zstmechanik.pl",
                "ref:regon": "231185331",
                "operator": "Miasto Jelenia G\u00f3ra",
                "operator:type": "government",
                "amenity": "college",
                "note": "Parent RSPO: 77411"
            }
        },
        {
            "id": 124040,
            "type": "Feature",
            "geometry": {
                "type": "Point",
                "coordinates": [
                    15.72918,
                    50.907219999999995
                ]
            },
            "properties": {
                "isced:level": "3",
                "ref:rspo": 124040,
                "official_name": "Liceum Og\u00f3lnokszta\u0142c\u0105ce dla Doros\u0142ych w Zespole Szk\u00f3\u0142 Technicznych \"Mechanik\" w Jeleniej G\u00f3rze",
                "name": "Liceum Og\u00f3lnokszta\u0142c\u0105ce dla Doros\u0142ych w Zespole Szk\u00f3\u0142 Technicznych \"Mechanik\" w Jeleniej G\u00f3rze",
                "addr:country": "PL",
                "addr:postcode": "58-500",
                "addr:city": "Jelenia G\u00f3ra",
                "addr:street": "ul. Obro\u0144c\u00f3w Pokoju",
                "addr:housenumber": "10",
                "addr:teryt:simc": 14642,
                "addr:teryt:sym_ul": 935802,
                "contact:phone": "+48 757522256",
                "contact:email": "sekretariat@zstmechanik.pl",
                "contact:website": "http:\/\/zstmechanik.pl",
                "ref:regon": "231185414",
                "operator": "Miasto Jelenia G\u00f3ra",
                "operator:type": "government",
                "amenity": "school",
                "note": "Parent RSPO: 77411"
            }
        },
        {
            "id": 278056,
            "type": "Feature",
            "geometry": {
                "type": "Point",
                "coordinates": [
                    15.72918,
                    50.90719
                ]
            },
            "properties": {
                "isced:level": "3",
                "ref:rspo": 278056,
                "official_name": "Bran\u017cowa Szko\u0142a II Stopnia w Zespole Szk\u00f3\u0142 Technicznych \"Mechanik\" w Jeleniej G\u00f3rze",
                "name": "Bran\u017cowa Szko\u0142a II Stopnia w Zespole Szk\u00f3\u0142 Technicznych \"Mechanik\" w Jeleniej G\u00f3rze",
                "addr:country": "PL",
                "addr:postcode": "58-500",
                "addr:city": "Jelenia G\u00f3ra",
                "addr:street": "ul. Obro\u0144c\u00f3w Pokoju",
                "addr:housenumber": "10",
                "addr:teryt:simc": 14642,
                "addr:teryt:sym_ul": 935802,
                "contact:phone": "+48 757522256",
                "contact:email": "sekretariat@zstmechanik.pl",
                "ref:regon": "389778382",
                "operator": "Miasto Jelenia G\u00f3ra",
                "operator:type": "government",
                "amenity": "school",
                "note": "Parent RSPO: 77411"
            }
        },
        {
            "id": 61531,
            "type": "Feature",
            "geometry": {
                "type": "Point",
                "coordinates": [
                    15.75646,
                    50.90918
                ]
            },
            "properties": {
                "ref:rspo": 61531,
                "official_name": "Szkolne Schronisko M\u0142odzie\u017cowe \u201eDruh\u201d w Jeleniej G\u00f3rze",
                "name": "Szkolne Schronisko M\u0142odzie\u017cowe \u201eDruh\u201d w Jeleniej G\u00f3rze",
                "addr:country": "PL",
                "addr:postcode": "58-506",
                "addr:city": "Jelenia G\u00f3ra",
                "addr:street": "ul. Wiejska",
                "addr:housenumber": "41b",
                "addr:teryt:simc": 24048,
                "addr:teryt:sym_ul": 935802,
                "contact:email": "karkonoski@zhp.pl",
                "contact:website": "http:\/\/www.karkonoski.zhp.pl",
                "ref:regon": "021996339",
                "operator": "Zwi\u0105zek Harcerstwa Polskiego, Chor\u0105giew Dolno\u015bl\u0105ska",
                "operator:type": "ngo",
                "tourism": "hostel"
            }
        },
        {
            "id": 133406,
            "type": "Feature",
            "geometry": {
                "type": "Point",
                "coordinates": [
                    15.75208,
                    50.90924
                ]
            },
            "properties": {
                "ref:rspo": 133406,
                "official_name": "B&K \u2013 Doradztwo I Szkolenia dla Biznesu Sp\u00f3\u0142ka Z Ograniczon\u0105 Odpowiedzialno\u015bci\u0105",
                "name": "B&K \u2013 Doradztwo I Szkolenia dla Biznesu Sp\u00f3\u0142ka Z Ograniczon\u0105 Odpowiedzialno\u015bci\u0105",
                "addr:country": "PL",
                "addr:postcode": "58-506",
                "addr:city": "Jelenia G\u00f3ra",
                "addr:street": "ul. Wiejska",
                "addr:housenumber": "24A",
                "addr:teryt:simc": 24048,
                "addr:teryt:sym_ul": 935802,
                "contact:phone": "+48 577127550",
                "contact:email": "biuro@bkszkolenia.pl",
                "contact:website": "http:\/\/www.bkszkolenia.pl",
                "ref:regon": "367226636",
                "operator": "B&K - Doradztwo I Szkolenia Dla Biznesu Sp\u00f3\u0142ka Z Ograniczon\u0105 Odpowiedzialno\u015bci\u0105",
                "operator:type": "private",
                "fixme": "w zale\u017cno\u015bci od przedmiotu dzia\u0142alno\u015bci (np. amenity=training + training=*, amenity=dancing_school, amenity=language_school, amenity=music_school)"
            }
        },
        {
            "id": 57858,
            "type": "Feature",
            "geometry": {
                "type": "Point",
                "coordinates": [
                    15.74638,
                    50.9104699
                ]
            },
            "properties": {
                "isced:level": "1;2",
                "ref:rspo": 57858,
                "official_name": "Szko\u0142a Podstawowa Nr 8 im. W\u0142adys\u0142awa Broniewskiego w Jeleniej G\u00f3rze",
                "name": "Szko\u0142a Podstawowa Nr 8",
                "addr:country": "PL",
                "addr:postcode": "58-506",
                "addr:city": "Jelenia G\u00f3ra",
                "addr:street": "ul. Ignacego Paderewskiego",
                "addr:housenumber": "13",
                "addr:teryt:simc": 15529,
                "addr:teryt:sym_ul": 935802,
                "contact:phone": "+48 757525995",
                "contact:email": "spnr8jg@op.pl",
                "contact:website": "http:\/\/www.sp8.jgora.pl",
                "ref:regon": "000711020",
                "ref:vatin": "PL6111545177",
                "operator": "Miasto Jelenia G\u00f3ra",
                "operator:type": "government",
                "amenity": "school"
            }
        },
        {
            "id": 277556,
            "type": "Feature",
            "geometry": {
                "type": "Point",
                "coordinates": [
                    15.75587,
                    50.91136
                ]
            },
            "properties": {
                "ref:rspo": 277556,
                "official_name": "Publiczne Przedszkole \"Promyczek\"",
                "name": "Publiczne Przedszkole \"Promyczek\"",
                "addr:country": "PL",
                "addr:postcode": "58-506",
                "addr:city": "Jelenia G\u00f3ra",
                "addr:street": "ul. Oskara Kolberga",
                "addr:housenumber": "5",
                "addr:teryt:simc": 8812,
                "addr:teryt:sym_ul": 935802,
                "contact:phone": "+48 501417870",
                "contact:email": "promyczek.jeleniagora@gmail.com",
                "ref:regon": "389133870",
                "operator": "Ma\u0142gorzata Niemczyk",
                "operator:type": "private",
                "amenity": "kindergarten"
            }
        },
        {
            "id": 49642,
            "type": "Feature",
            "geometry": {
                "type": "Point",
                "coordinates": [
                    15.75142,
                    50.91139
                ]
            },
            "properties": {
                "ref:rspo": 49642,
                "official_name": "Miejskie Przedszkole Nr 19 Im Kubusia Puchatka w Jeleniej G\u00f3rze",
                "name": "Miejskie Przedszkole Nr 19 Im Kubusia Puchatka w Jeleniej G\u00f3rze",
                "addr:country": "PL",
                "addr:postcode": "58-506",
                "addr:city": "Jelenia G\u00f3ra",
                "addr:street": "ul. Karola Kurpi\u0144skiego",
                "addr:housenumber": "2",
                "addr:teryt:simc": 10465,
                "addr:teryt:sym_ul": 935802,
                "contact:phone": "+48 756472418",
                "contact:email": "poczta@puchatek19.pl",
                "contact:website": "http:\/\/www.puchatek19",
                "ref:regon": "021408650",
                "ref:vatin": "PL6112706033",
                "operator": "Miasto Jelenia G\u00f3ra",
                "operator:type": "government",
                "amenity": "kindergarten"
            }
        },
        {
            "id": 111418,
            "type": "Feature",
            "geometry": {
                "type": "Point",
                "coordinates": [
                    15.73552,
                    50.91226
                ]
            },
            "properties": {
                "ref:rspo": 111418,
                "official_name": "Zesp\u00f3\u0142 Szk\u00f3\u0142 Elektronicznych im. Obro\u0144c\u00f3w Poczty Polskiej",
                "name": "Zesp\u00f3\u0142 Szk\u00f3\u0142 Elektronicznych",
                "addr:country": "PL",
                "addr:postcode": "58-500",
                "addr:city": "Jelenia G\u00f3ra",
                "addr:street": "ul. Grunwaldzka",
                "addr:housenumber": "64A",
                "addr:teryt:simc": 6260,
                "addr:teryt:sym_ul": 935802,
                "contact:phone": "+48 757524581",
                "contact:email": "elektronik@zsejg.edu.pl",
                "contact:website": "http:\/\/elektronik.jgora.pl",
                "ref:regon": "000183325",
                "ref:vatin": "PL6111457013",
                "operator": "Miasto Jelenia G\u00f3ra",
                "operator:type": "government",
                "landuse": "education",
                "fixme": "amenity=school, amenity=college albo landuse=education w zale\u017cno\u015bci od tego, jakie plac\u00f3wki wchodz\u0105 w sk\u0142ad zespo\u0142u. Sprawd\u017a, kiedy stosowa\u0107 amenity=* a kiedy landuse=education.",
                "note": "Children RSPO: 111722;123921;123922"
            }
        },
        {
            "id": 111722,
            "type": "Feature",
            "geometry": {
                "type": "Point",
                "coordinates": [
                    15.73552,
                    50.91223
                ]
            },
            "properties": {
                "isced:level": "3",
                "ref:rspo": 111722,
                "official_name": "Technikum w Zespole Szk\u00f3\u0142 Elektronicznych im. Obro\u0144c\u00f3w Poczty Polskiej",
                "name": "Technikum w Zespole Szk\u00f3\u0142 Elektronicznych",
                "addr:country": "PL",
                "addr:postcode": "58-500",
                "addr:city": "Jelenia G\u00f3ra",
                "addr:street": "ul. Grunwaldzka",
                "addr:housenumber": "64a",
                "addr:teryt:simc": 6260,
                "addr:teryt:sym_ul": 935802,
                "contact:phone": "+48 757524581",
                "contact:email": "elektronik@zsejg.edu.pl",
                "contact:website": "http:\/\/elektronik.jgora.pl",
                "ref:regon": "231182568",
                "operator": "Miasto Jelenia G\u00f3ra",
                "operator:type": "government",
                "amenity": "school",
                "note": "Parent RSPO: 111418"
            }
        },
        {
            "id": 123921,
            "type": "Feature",
            "geometry": {
                "type": "Point",
                "coordinates": [
                    15.73552,
                    50.912200000000006
                ]
            },
            "properties": {
                "isced:level": "3",
                "ref:rspo": 123921,
                "official_name": "Bran\u017cowa Szko\u0142a I Stopnia w Zespole Szk\u00f3\u0142 Elektronicznych im. Obro\u0144c\u00f3w Poczty Polskiej",
                "name": "Bran\u017cowa Szko\u0142a I Stopnia w Zespole Szk\u00f3\u0142 Elektronicznych",
                "addr:country": "PL",
                "addr:postcode": "58-500",
                "addr:city": "Jelenia G\u00f3ra",
                "addr:street": "ul. Grunwaldzka",
                "addr:housenumber": "64a",
                "addr:teryt:simc": 6260,
                "addr:teryt:sym_ul": 935802,
                "contact:phone": "+48 757524581",
                "contact:email": "elektronik@zsejg.edu.pl",
                "ref:regon": "022469820",
                "operator": "Miasto Jelenia G\u00f3ra",
                "operator:type": "government",
                "amenity": "school",
                "note": "Parent RSPO: 111418"
            }
        },
        {
            "id": 123922,
            "type": "Feature",
            "geometry": {
                "type": "Point",
                "coordinates": [
                    15.73552,
                    50.91217
                ]
            },
            "properties": {
                "isced:level": "4",
                "ref:rspo": 123922,
                "official_name": "Szko\u0142a Policealna w Zespole Szk\u00f3\u0142 Elektronicznych im. Obro\u0144c\u00f3w Poczty Polskiej",
                "name": "Szko\u0142a Policealna w Zespole Szk\u00f3\u0142 Elektronicznych",
                "addr:country": "PL",
                "addr:postcode": "58-500",
                "addr:city": "Jelenia G\u00f3ra",
                "addr:street": "ul. Grunwaldzka",
                "addr:housenumber": "64a",
                "addr:teryt:simc": 6260,
                "addr:teryt:sym_ul": 935802,
                "contact:phone": "+48 757524581",
                "contact:email": "elektronik@zsejg.edu.pl",
                "ref:regon": "022469837",
                "operator": "Miasto Jelenia G\u00f3ra",
                "operator:type": "government",
                "amenity": "college",
                "note": "Parent RSPO: 111418"
            }
        },
        {
            "id": 77413,
            "type": "Feature",
            "geometry": {
                "type": "Point",
                "coordinates": [
                    15.74437,
                    50.91231
                ]
            },
            "properties": {
                "ref:rspo": 77413,
                "official_name": "Zesp\u00f3\u0142 Szk\u00f3\u0142 Og\u00f3lnokszta\u0142cacych I Technicznych w Jeleniej G\u00f3rze",
                "name": "Zesp\u00f3\u0142 Szk\u00f3\u0142 Og\u00f3lnokszta\u0142cacych I Technicznych w Jeleniej G\u00f3rze",
                "addr:country": "PL",
                "addr:postcode": "58-506",
                "addr:city": "Jelenia G\u00f3ra",
                "addr:street": "ul. Aleja Jana Paw\u0142a II",
                "addr:housenumber": "25",
                "addr:teryt:simc": 33262,
                "addr:teryt:sym_ul": 935802,
                "contact:phone": "+48 757522881",
                "contact:email": "zsoit_jg@vp.pl",
                "contact:website": "http:\/\/www.zsoit.jgora.pl",
                "ref:regon": "020100111",
                "ref:vatin": "PL6112558414",
                "operator": "Miasto Jelenia G\u00f3ra",
                "operator:type": "government",
                "landuse": "education",
                "fixme": "amenity=school, amenity=college albo landuse=education w zale\u017cno\u015bci od tego, jakie plac\u00f3wki wchodz\u0105 w sk\u0142ad zespo\u0142u. Sprawd\u017a, kiedy stosowa\u0107 amenity=* a kiedy landuse=education.",
                "note": "Children RSPO: 111446;111447;123866"
            }
        },
        {
            "id": 265717,
            "type": "Feature",
            "geometry": {
                "type": "Point",
                "coordinates": [
                    15.74437,
                    50.912279999999996
                ]
            },
            "properties": {
                "isced:level": "4",
                "ref:rspo": 265717,
                "official_name": "Niepubliczna Policealna Szko\u0142a Kompetencji Zawodowych \"Cosinus\" w Jeleniej G\u00f3rze",
                "name": "Niepubliczna Policealna Szko\u0142a Kompetencji Zawodowych \"Cosinus\" w Jeleniej G\u00f3rze",
                "addr:country": "PL",
                "addr:postcode": "58-506",
                "addr:city": "Jelenia G\u00f3ra",
                "addr:street": "ul. Aleja Jana Paw\u0142a II",
                "addr:housenumber": "25",
                "addr:teryt:simc": 33262,
                "addr:teryt:sym_ul": 935802,
                "contact:phone": "+48 756454477",
                "contact:email": "jeleniagora@cosinus.pl",
                "contact:website": "http:\/\/www.cosinus.pl\/jelenia-gora",
                "ref:regon": "368866177",
                "operator": "\"Fundacja Conatus\"",
                "operator:type": "ngo",
                "amenity": "college"
            }
        },
        {
            "id": 265718,
            "type": "Feature",
            "geometry": {
                "type": "Point",
                "coordinates": [
                    15.74437,
                    50.91225
                ]
            },
            "properties": {
                "ref:rspo": 265718,
                "official_name": "Niepubliczna Plac\u00f3wka Kszta\u0142cenia Ustawicznego \"Cosinus\" w Jeleniej G\u00f3rze",
                "name": "Niepubliczna Plac\u00f3wka Kszta\u0142cenia Ustawicznego \"Cosinus\" w Jeleniej G\u00f3rze",
                "addr:country": "PL",
                "addr:postcode": "58-506",
                "addr:city": "Jelenia G\u00f3ra",
                "addr:street": "ul. Aleja Jana Paw\u0142a II",
                "addr:housenumber": "25",
                "addr:teryt:simc": 33262,
                "addr:teryt:sym_ul": 935802,
                "contact:phone": "+48 756454477",
                "contact:email": "jeleniagora@cosinus.pl",
                "contact:website": "http:\/\/www.cosinus.pl\/jelenia-gora",
                "ref:regon": "368866562",
                "operator": "\"Fundacja Equamp-Fiz\"",
                "operator:type": "ngo",
                "fixme": "w zale\u017cno\u015bci od przedmiotu dzia\u0142alno\u015bci (np. amenity=training + training=*, amenity=dancing_school, amenity=language_school, amenity=music_school)"
            }
        },
        {
            "id": 111446,
            "type": "Feature",
            "geometry": {
                "type": "Point",
                "coordinates": [
                    15.74437,
                    50.91222
                ]
            },
            "properties": {
                "isced:level": "3",
                "ref:rspo": 111446,
                "official_name": "Technikum w Zespole Szk\u00f3\u0142 Og\u00f3lnokszta\u0142c\u0105cych I Technicznych",
                "name": "Technikum w Zespole Szk\u00f3\u0142 Og\u00f3lnokszta\u0142c\u0105cych I Technicznych",
                "addr:country": "PL",
                "addr:postcode": "58-506",
                "addr:city": "Jelenia G\u00f3ra",
                "addr:street": "ul. Aleja Jana Paw\u0142a II",
                "addr:housenumber": "25",
                "addr:teryt:simc": 33262,
                "addr:teryt:sym_ul": 935802,
                "contact:phone": "+48 757522881",
                "contact:email": "zsoit_jg@vp.pl",
                "contact:website": "http:\/\/www.zsoit.jgora.pl",
                "ref:regon": "022095118",
                "operator": "Miasto Jelenia G\u00f3ra",
                "operator:type": "government",
                "amenity": "school",
                "note": "Parent RSPO: 77413"
            }
        },
        {
            "id": 111447,
            "type": "Feature",
            "geometry": {
                "type": "Point",
                "coordinates": [
                    15.74437,
                    50.912189999999995
                ]
            },
            "properties": {
                "isced:level": "3",
                "ref:rspo": 111447,
                "official_name": "Iii Liceum Og\u00f3lnokszta\u0142c\u0105ce im. J\u0119drzeja \u015aniadeckiego w Zespole Szk\u00f3\u0142 Og\u00f3lnokszta\u0142c\u0105cych I Technicznych",
                "name": "Iii Liceum Og\u00f3lnokszta\u0142c\u0105ce",
                "addr:country": "PL",
                "addr:postcode": "58-506",
                "addr:city": "Jelenia G\u00f3ra",
                "addr:street": "ul. Aleja Jana Paw\u0142a II",
                "addr:housenumber": "25",
                "addr:teryt:simc": 33262,
                "addr:teryt:sym_ul": 935802,
                "contact:phone": "+48 757522881",
                "contact:email": "zsoit_jg@vp.pl",
                "contact:website": "http:\/\/www.zsoit.jgora.pl",
                "ref:regon": "231184780",
                "operator": "Miasto Jelenia G\u00f3ra",
                "operator:type": "government",
                "amenity": "school",
                "note": "Parent RSPO: 77413"
            }
        },
        {
            "id": 123866,
            "type": "Feature",
            "geometry": {
                "type": "Point",
                "coordinates": [
                    15.74437,
                    50.91216
                ]
            },
            "properties": {
                "isced:level": "4",
                "ref:rspo": 123866,
                "official_name": "Szko\u0142a Policealna w Zespole Szk\u00f3\u0142 Og\u00f3lnokszta\u0142c\u0105cych I Technicznych w Jeleniej G\u00f3rze",
                "name": "Szko\u0142a Policealna w Zespole Szk\u00f3\u0142 Og\u00f3lnokszta\u0142c\u0105cych I Technicznych w Jeleniej G\u00f3rze",
                "addr:country": "PL",
                "addr:postcode": "58-506",
                "addr:city": "Jelenia G\u00f3ra",
                "addr:street": "ul. Aleja Jana Paw\u0142a II",
                "addr:housenumber": "25",
                "addr:teryt:simc": 33262,
                "addr:teryt:sym_ul": 935802,
                "contact:phone": "+48 757522881",
                "contact:email": "zsoit_jg@vp.pl",
                "contact:website": "http:\/\/www.zsoit.jgora.pl",
                "ref:regon": "231183154",
                "operator": "Miasto Jelenia G\u00f3ra",
                "operator:type": "government",
                "amenity": "college",
                "note": "Parent RSPO: 77413"
            }
        },
        {
            "id": 47358,
            "type": "Feature",
            "geometry": {
                "type": "Point",
                "coordinates": [
                    15.7513,
                    50.91377
                ]
            },
            "properties": {
                "ref:rspo": 47358,
                "official_name": "Miejskie Przedszkole Nr 13 w Jeleniej G\u00f3rze",
                "name": "Miejskie Przedszkole Nr 13 w Jeleniej G\u00f3rze",
                "addr:country": "PL",
                "addr:postcode": "58-506",
                "addr:city": "Jelenia G\u00f3ra",
                "addr:street": "ul. Mieczys\u0142awa Kar\u0142owicza",
                "addr:housenumber": "13",
                "addr:teryt:simc": 8058,
                "addr:teryt:sym_ul": 935802,
                "contact:phone": "+48 757526488",
                "contact:email": "przedszkolenr13@wp.pl",
                "contact:website": "http:\/\/www.trzynasteczkajg.pl",
                "ref:regon": "021413800",
                "ref:vatin": "PL6112706429",
                "operator": "Miasto Jelenia G\u00f3ra",
                "operator:type": "government",
                "amenity": "kindergarten"
            }
        },
        {
            "id": 61299,
            "type": "Feature",
            "geometry": {
                "type": "Point",
                "coordinates": [
                    15.7573,
                    50.91446
                ]
            },
            "properties": {
                "isced:level": "1;2",
                "ref:rspo": 61299,
                "official_name": "Szko\u0142a Podstawowa Nr 11 im. Fryderyka Chopina w Jeleniej G\u00f3rze",
                "name": "Szko\u0142a Podstawowa Nr 11",
                "addr:country": "PL",
                "addr:postcode": "58-506",
                "addr:city": "Jelenia G\u00f3ra",
                "addr:street": "ul. Stanis\u0142awa Moniuszki",
                "addr:housenumber": "9",
                "addr:teryt:simc": 13246,
                "addr:teryt:sym_ul": 935802,
                "contact:phone": "+48 757531296",
                "contact:email": "dyrekcja.sp11jg@op.pl",
                "contact:website": "http:\/\/www.sp11jg.pl",
                "ref:regon": "003301110",
                "ref:vatin": "PL6111142060",
                "operator": "Miasto Jelenia G\u00f3ra",
                "operator:type": "government",
                "amenity": "school"
            }
        },
        {
            "id": 127132,
            "type": "Feature",
            "geometry": {
                "type": "Point",
                "coordinates": [
                    15.7573,
                    50.914429999999996
                ]
            },
            "properties": {
                "ref:rspo": 127132,
                "official_name": "Pa\u0144stwowa Szko\u0142a Muzyczna I St. im. Janiny Gar\u015bci w Jeleniej G\u00f3rze Filia w Jeleniej G\u00f3rze",
                "name": "Pa\u0144stwowa Szko\u0142a Muzyczna I St.",
                "addr:country": "PL",
                "addr:postcode": "58-506",
                "addr:city": "Jelenia G\u00f3ra",
                "addr:street": "ul. Stanis\u0142awa Moniuszki",
                "addr:housenumber": "9",
                "addr:teryt:simc": 13246,
                "addr:teryt:sym_ul": 935802,
                "contact:phone": "+48 757644732",
                "ref:regon": "992013000",
                "operator": "Ministerstwo Kultury I Dziedzictwa Narodowego",
                "operator:type": "public",
                "amenity": "music_school",
                "note": "Parent RSPO: 80074"
            }
        },
        {
            "id": 61658,
            "type": "Feature",
            "geometry": {
                "type": "Point",
                "coordinates": [
                    15.72779,
                    50.91469
                ]
            },
            "properties": {
                "ref:rspo": 61658,
                "official_name": "O\u015brodek Kszta\u0142cenia Ustawicznego \u201ePrzedsi\u0119biorca\u201d w Jeleniej G\u00f3rze",
                "name": "O\u015brodek Kszta\u0142cenia Ustawicznego \u201ePrzedsi\u0119biorca\u201d w Jeleniej G\u00f3rze",
                "addr:country": "PL",
                "addr:postcode": "58-500",
                "addr:city": "Jelenia G\u00f3ra",
                "addr:street": "ul. Lw\u00f3wecka",
                "addr:housenumber": "18",
                "addr:teryt:simc": 11469,
                "addr:teryt:sym_ul": 935802,
                "contact:phone": "+48 757524237",
                "contact:email": "cechjel@o2.pl",
                "ref:regon": "022006089",
                "operator": "Cech Rzemios\u0142 R\u00f3\u017cnych I Przedsi\u0119biorc\u00f3w W Jeleniej G\u00f3rze",
                "operator:type": "ngo",
                "fixme": "w zale\u017cno\u015bci od przedmiotu dzia\u0142alno\u015bci (np. amenity=training + training=*, amenity=dancing_school, amenity=language_school, amenity=music_school)"
            }
        },
        {
            "id": 273677,
            "type": "Feature",
            "geometry": {
                "type": "Point",
                "coordinates": [
                    15.72779,
                    50.91466
                ]
            },
            "properties": {
                "isced:level": "4",
                "ref:rspo": 273677,
                "official_name": "Stacjonarna Policealna Szko\u0142a Medyczna \"Pascal\" w Jeleniej G\u00f3rze",
                "name": "Stacjonarna Policealna Szko\u0142a Medyczna \"Pascal\" w Jeleniej G\u00f3rze",
                "addr:country": "PL",
                "addr:postcode": "58-503",
                "addr:city": "Jelenia G\u00f3ra",
                "addr:street": "ul. Lw\u00f3wecka",
                "addr:housenumber": "18",
                "addr:teryt:simc": 11469,
                "addr:teryt:sym_ul": 935802,
                "contact:phone": "+48 223784630",
                "ref:regon": "384578030",
                "operator": "Federacja Niepublicznych Plac\u00f3wek O\u015bwiatowych Sp\u00f3\u0142ka Z Ograniczon\u0105 Odpowiedzialno\u015bci\u0105",
                "operator:type": "private",
                "amenity": "college"
            }
        },
        {
            "id": 273678,
            "type": "Feature",
            "geometry": {
                "type": "Point",
                "coordinates": [
                    15.72779,
                    50.91463
                ]
            },
            "properties": {
                "isced:level": "3",
                "ref:rspo": 273678,
                "official_name": "Liceum Og\u00f3lnokszta\u0142c\u0105ce dla Doros\u0142ych \"Pascal\" w Jeleniej G\u00f3rze",
                "name": "Liceum Og\u00f3lnokszta\u0142c\u0105ce dla Doros\u0142ych \"Pascal\" w Jeleniej G\u00f3rze",
                "addr:country": "PL",
                "addr:postcode": "58-503",
                "addr:city": "Jelenia G\u00f3ra",
                "addr:street": "ul. Lw\u00f3wecka",
                "addr:housenumber": "18",
                "addr:teryt:simc": 11469,
                "addr:teryt:sym_ul": 935802,
                "contact:phone": "+48 223784630",
                "ref:regon": "384578023",
                "operator": "Federacja Niepublicznych Plac\u00f3wek O\u015bwiatowych Sp\u00f3\u0142ka Z Ograniczon\u0105 Odpowiedzialno\u015bci\u0105",
                "operator:type": "private",
                "amenity": "school"
            }
        },
        {
            "id": 273680,
            "type": "Feature",
            "geometry": {
                "type": "Point",
                "coordinates": [
                    15.72779,
                    50.9146
                ]
            },
            "properties": {
                "isced:level": "4",
                "ref:rspo": 273680,
                "official_name": "Zaoczna Policealna Szko\u0142a Zawodowa \"Pascal\" w Jeleniej G\u00f3rze",
                "name": "Zaoczna Policealna Szko\u0142a Zawodowa \"Pascal\" w Jeleniej G\u00f3rze",
                "addr:country": "PL",
                "addr:postcode": "58-503",
                "addr:city": "Jelenia G\u00f3ra",
                "addr:street": "ul. Lw\u00f3wecka",
                "addr:housenumber": "18",
                "addr:teryt:simc": 11469,
                "addr:teryt:sym_ul": 935802,
                "contact:phone": "+48 223784630",
                "ref:regon": "384578017",
                "operator": "Federacja Niepublicznych Plac\u00f3wek O\u015bwiatowych Sp\u00f3\u0142ka Z Ograniczon\u0105 Odpowiedzialno\u015bci\u0105",
                "operator:type": "private",
                "amenity": "college"
            }
        },
        {
            "id": 273681,
            "type": "Feature",
            "geometry": {
                "type": "Point",
                "coordinates": [
                    15.72779,
                    50.91457
                ]
            },
            "properties": {
                "isced:level": "4",
                "ref:rspo": 273681,
                "official_name": "Zaoczna Policealna Szko\u0142a Medyczna \"Pascal\" w Jeleniej G\u00f3rze",
                "name": "Zaoczna Policealna Szko\u0142a Medyczna \"Pascal\" w Jeleniej G\u00f3rze",
                "addr:country": "PL",
                "addr:postcode": "58-503",
                "addr:city": "Jelenia G\u00f3ra",
                "addr:street": "ul. Lw\u00f3wecka",
                "addr:housenumber": "18",
                "addr:teryt:simc": 11469,
                "addr:teryt:sym_ul": 935802,
                "contact:phone": "+48 223784630",
                "ref:regon": "384577957",
                "operator": "Federacja Niepublicznych Plac\u00f3wek O\u015bwiatowych Sp\u00f3\u0142ka Z Ograniczon\u0105 Odpowiedzialno\u015bci\u0105",
                "operator:type": "private",
                "amenity": "college"
            }
        },
        {
            "id": 268954,
            "type": "Feature",
            "geometry": {
                "type": "Point",
                "coordinates": [
                    15.75546,
                    50.91595
                ]
            },
            "properties": {
                "ref:rspo": 268954,
                "official_name": "Przedszkole Niepubliczne Kulskul",
                "name": "Przedszkole Niepubliczne Kulskul",
                "addr:country": "PL",
                "addr:postcode": "58-506",
                "addr:city": "Jelenia G\u00f3ra",
                "addr:street": "ul. Stanis\u0142awa Moniuszki",
                "addr:housenumber": "3A",
                "addr:door": "5A",
                "addr:teryt:simc": 13246,
                "addr:teryt:sym_ul": 935802,
                "contact:email": "kulskul_genki@wp.pl",
                "contact:website": "http:\/\/www.kulskul.pl",
                "ref:regon": "381307105",
                "operator": "Agata Rajska",
                "operator:type": "private",
                "amenity": "kindergarten"
            }
        },
        {
            "id": 58831,
            "type": "Feature",
            "geometry": {
                "type": "Point",
                "coordinates": [
                    15.75402,
                    50.91623
                ]
            },
            "properties": {
                "ref:rspo": 58831,
                "official_name": "Przedszkole Niepubliczne Akademia Happy Kids",
                "name": "Przedszkole Niepubliczne Akademia Happy Kids",
                "addr:country": "PL",
                "addr:postcode": "58-506",
                "addr:city": "Jelenia G\u00f3ra",
                "addr:street": "al. Jana Paw\u0142a II",
                "addr:housenumber": "20a",
                "addr:teryt:simc": 7120,
                "addr:teryt:sym_ul": 935802,
                "contact:phone": "+48 756422022",
                "contact:email": "edyta.wawrzyniak@akademiahappykids.pl",
                "ref:regon": "021994777",
                "operator": "Akademia Happy Kids Sp\u00f3\u0142ka Z Ograniczon\u0105 Odpowiedzialno\u015bci\u0105",
                "operator:type": "private",
                "amenity": "kindergarten"
            }
        },
        {
            "id": 80759,
            "type": "Feature",
            "geometry": {
                "type": "Point",
                "coordinates": [
                    15.76017,
                    50.91646
                ]
            },
            "properties": {
                "ref:rspo": 80759,
                "official_name": "Przedszkole Niepubliczne \n\u201eStokrotka\u201d",
                "name": "Przedszkole Niepubliczne \n\u201eStokrotka\u201d",
                "addr:country": "PL",
                "addr:postcode": "58-506",
                "addr:city": "Jelenia G\u00f3ra",
                "addr:street": "ul. Zygmunta Noskowskiego",
                "addr:housenumber": "2",
                "addr:teryt:simc": 14326,
                "addr:teryt:sym_ul": 935802,
                "contact:phone": "+48 501181949",
                "contact:email": "stokrotkajel@gmail.com",
                "contact:website": "http:\/\/www.przedszkolejeleniagora.pl",
                "ref:regon": "022008556",
                "operator": "Anna Kaczmarczyk",
                "operator:type": "private",
                "amenity": "kindergarten"
            }
        },
        {
            "id": 126252,
            "type": "Feature",
            "geometry": {
                "type": "Point",
                "coordinates": [
                    15.73005,
                    50.92016
                ]
            },
            "properties": {
                "ref:rspo": 126252,
                "official_name": "Niepubliczne Przedszkole Ence Pence",
                "name": "Niepubliczne Przedszkole Ence Pence",
                "addr:country": "PL",
                "addr:postcode": "58-506",
                "addr:city": "Jelenia G\u00f3ra",
                "addr:street": "ul. Kadet\u00f3w",
                "addr:housenumber": "13",
                "addr:teryt:simc": 7754,
                "addr:teryt:sym_ul": 935802,
                "contact:phone": "+48 509495610",
                "contact:email": "ence_pence@onet.eu",
                "ref:regon": "360187689",
                "operator": "Joanna Nowacka",
                "operator:type": "private",
                "amenity": "kindergarten"
            }
        }
    ]
}