{
    "type": "FeatureCollection",
    "features": [
        {
            "id": 267302,
            "type": "Feature",
            "geometry": {
                "type": "Point",
                "coordinates": [
                    19.18178,
                    52.49214
                ]
            },
            "properties": {
                "isced:level": "1;2",
                "ref:rspo": 267302,
                "official_name": "Szko\u0142a Podstawowa im. Stanis\u0142awa Staszica w Grabkowie Szko\u0142a Filialna w Wi\u0119s\u0142awicach",
                "name": "Szko\u0142a Podstawowa",
                "addr:country": "PL",
                "addr:postcode": "87-820",
                "addr:place": "Wi\u0119s\u0142awice",
                "addr:housenumber": "17",
                "addr:teryt:simc": 864226,
                "contact:phone": "+48 884808906",
                "contact:email": "zsgrabkowo@onet.eu",
                "contact:website": "http:\/\/www.zsgrabkowo.pl",
                "ref:regon": "113432300",
                "operator": "Gmina Kowal",
                "operator:type": "government",
                "amenity": "school",
                "note": "Parent RSPO: 109514"
            }
        },
        {
            "id": 11634,
            "type": "Feature",
            "geometry": {
                "type": "Point",
                "coordinates": [
                    19.09109,
                    52.49925
                ]
            },
            "properties": {
                "ref:rspo": 11634,
                "official_name": "Zesp\u00f3\u0142 Szk\u00f3\u0142 w Grabkowie",
                "name": "Zesp\u00f3\u0142 Szk\u00f3\u0142 w Grabkowie",
                "addr:country": "PL",
                "addr:postcode": "87-820",
                "addr:place": "Grabkowo",
                "addr:housenumber": "51",
                "addr:teryt:simc": 864077,
                "contact:phone": "+48 884808906",
                "contact:email": "zsgrabkowo@onet.eu",
                "contact:website": "http:\/\/www.zsgrabkowo.pl",
                "ref:regon": "341324796",
                "operator": "Gmina Kowal",
                "operator:type": "government",
                "landuse": "education",
                "fixme": "amenity=school, amenity=college albo landuse=education w zale\u017cno\u015bci od tego, jakie plac\u00f3wki wchodz\u0105 w sk\u0142ad zespo\u0142u. Sprawd\u017a, kiedy stosowa\u0107 amenity=* a kiedy landuse=education.",
                "note": "Children RSPO: 26363;109514"
            }
        },
        {
            "id": 26363,
            "type": "Feature",
            "geometry": {
                "type": "Point",
                "coordinates": [
                    19.11311,
                    52.50113
                ]
            },
            "properties": {
                "ref:rspo": 26363,
                "official_name": "Przedszkole Publiczne w Grabkowie",
                "name": "Przedszkole Publiczne w Grabkowie",
                "addr:country": "PL",
                "addr:postcode": "87-820",
                "addr:place": "Grabkowo",
                "addr:housenumber": "67A",
                "addr:teryt:simc": 864077,
                "contact:phone": "+48 884808906",
                "contact:email": "zsgrabkowo@onet.eu",
                "contact:website": "http:\/\/www.zsgrabkowo.pl",
                "ref:regon": "341338002",
                "operator": "Gmina Kowal",
                "operator:type": "government",
                "amenity": "kindergarten",
                "note": "Parent RSPO: 11634"
            }
        },
        {
            "id": 109514,
            "type": "Feature",
            "geometry": {
                "type": "Point",
                "coordinates": [
                    19.11311,
                    52.5011
                ]
            },
            "properties": {
                "isced:level": "1;2",
                "ref:rspo": 109514,
                "official_name": "Szko\u0142a Podstawowa im. Stanis\u0142awa Staszica w Grabkowie",
                "name": "Szko\u0142a Podstawowa",
                "addr:country": "PL",
                "addr:postcode": "87-820",
                "addr:place": "Grabkowo",
                "addr:housenumber": "67A",
                "addr:teryt:simc": 864077,
                "contact:phone": "+48 884808906",
                "contact:email": "zsgrabkowo@onet.eu",
                "contact:website": "http:\/\/www.zsgrabkowo.pl",
                "ref:regon": "001134323",
                "operator": "Gmina Kowal",
                "operator:type": "government",
                "amenity": "school",
                "note": "Children RSPO: 267302Parent RSPO: 11634"
            }
        },
        {
            "id": 109467,
            "type": "Feature",
            "geometry": {
                "type": "Point",
                "coordinates": [
                    19.07569,
                    52.55003
                ]
            },
            "properties": {
                "isced:level": "1;2",
                "ref:rspo": 109467,
                "official_name": "Niepubliczna Szko\u0142a Podstawowa \"Galileo\" Nr 1",
                "name": "Niepubliczna Szko\u0142a Podstawowa \"Galileo\" Nr 1",
                "addr:country": "PL",
                "addr:postcode": "87-853",
                "addr:place": "Nakonowo",
                "addr:housenumber": "31",
                "addr:teryt:simc": 864120,
                "contact:phone": "+48 533335391",
                "contact:email": "nakonowo@operator.edu.pl",
                "contact:website": "http:\/\/www.spgalileo-nakonowo.operator.edu.pl",
                "ref:regon": "341392378",
                "operator": "Og\u00f3lnopolski Operator O\u015bwiaty",
                "operator:type": "ngo",
                "amenity": "school"
            }
        },
        {
            "id": 109473,
            "type": "Feature",
            "geometry": {
                "type": "Point",
                "coordinates": [
                    19.07569,
                    52.55
                ]
            },
            "properties": {
                "ref:rspo": 109473,
                "official_name": "Niepubliczne Przedszkole \"Galileo\" w Nakonowie",
                "name": "Niepubliczne Przedszkole \"Galileo\" w Nakonowie",
                "addr:country": "PL",
                "addr:postcode": "87-853",
                "addr:place": "Nakonowo",
                "addr:housenumber": "31",
                "addr:teryt:simc": 864120,
                "contact:phone": "+48 533335391",
                "contact:email": "nakonowo@operator.edu.pl",
                "contact:website": "http:\/\/galileo-nakonowo.operator.edu.pl",
                "ref:regon": "341392384",
                "operator": "Og\u00f3lnopolski Operator O\u015bwiaty",
                "operator:type": "ngo",
                "amenity": "kindergarten"
            }
        },
        {
            "id": 273268,
            "type": "Feature",
            "geometry": {
                "type": "Point",
                "coordinates": [
                    19.16363,
                    52.55185
                ]
            },
            "properties": {
                "ref:rspo": 273268,
                "official_name": "Gminne Niepubliczne Przedszkole Integracyjne",
                "name": "Gminne Niepubliczne Przedszkole Integracyjne",
                "addr:country": "PL",
                "addr:postcode": "87-820",
                "addr:place": "Grodztwo",
                "addr:housenumber": "79A",
                "addr:teryt:simc": 864083,
                "contact:email": "impuls-kowal@o2.pl",
                "contact:website": "http:\/\/www.przedszkole-gminakowal.pl",
                "ref:regon": "384428312",
                "operator": "Alicja Czekaj",
                "operator:type": "private",
                "amenity": "kindergarten"
            }
        }
    ]
}