{"type":"FeatureCollection","features":[{"id":81521,"type":"Feature","geometry":{"type":"Point","coordinates":[18.88244,52.38085]},"properties":{"isced:level":"1;2","ref:rspo":81521,"official_name":"Szko\u0142a Podstawowa im. Konrada Ja\u017cd\u017cewskiego w B\u0142ennie","name":"Szko\u0142a Podstawowa","addr:country":"PL","addr:postcode":"87-865","addr:place":"B\u0142enna","addr:housenumber":"2","addr:teryt:sym_ul":862842,"contact:phone":"+48 542868205","contact:email":"szkolablenna@interia.pl","contact:website":"http:\/\/www.spblenna.izbicakuj.pl","ref:regon":"001142653","ref:vatin":"PL8883023801","operator":"Gmina Izbica Kujawska","operator:type":"government","amenity":"school"}},{"id":91933,"type":"Feature","geometry":{"type":"Point","coordinates":[18.7724,52.41541]},"properties":{"isced:level":"1;2","ref:rspo":91933,"official_name":"Szko\u0142a Podstawowa Nr 1 im. Marsza\u0142ka J. Pi\u0142sudskiego w Izbicy Kujawskiej","name":"Szko\u0142a Podstawowa Nr 1","addr:country":"PL","addr:postcode":"87-865","addr:city":"Izbica Kujawska","addr:street":"ul. Tymieniecka","addr:housenumber":"1","addr:teryt:simc":23247,"addr:teryt:sym_ul":985734,"contact:phone":"+48 542865036","contact:email":"sp1izbicakuj@wp.pl","contact:website":"http:\/\/www.sp1izbicakuj.pl","ref:regon":"000262935","ref:vatin":"PL8883138384","operator":"Gmina Izbica Kujawska","operator:type":"government","amenity":"school"}},{"id":91934,"type":"Feature","geometry":{"type":"Point","coordinates":[18.75626,52.42141]},"properties":{"ref:rspo":91934,"official_name":"Przedszkole Samorz\u0105dowe w Izbicy Kujawskiej","name":"Przedszkole Samorz\u0105dowe w Izbicy Kujawskiej","addr:country":"PL","addr:postcode":"87-865","addr:city":"Izbica Kujawska","addr:street":"ul. Narutowicza","addr:housenumber":"63","addr:teryt:simc":14015,"addr:teryt:sym_ul":985734,"contact:phone":"+48 542865297","contact:email":"przedszkoleizbica@op.pl","ref:regon":"910004769","ref:vatin":"PL8883023801","operator":"Gmina Izbica Kujawska","operator:type":"government","amenity":"kindergarten"}},{"id":263187,"type":"Feature","geometry":{"type":"Point","coordinates":[18.76013,52.42292]},"properties":{"isced:level":"1;2","ref:rspo":263187,"official_name":"Szko\u0142a Podstawowa Nr 2 im. Gen. Augustyna S\u0142ubickiego w Izbicy Kujawskiej","name":"Szko\u0142a Podstawowa Nr 2","addr:country":"PL","addr:postcode":"87-865","addr:city":"Izbica Kujawska","addr:street":"ul. Nowomiejska","addr:housenumber":"3","addr:teryt:simc":14444,"addr:teryt:sym_ul":985734,"contact:phone":"+48 542865011","contact:email":"sekretariat@sp2izbicakuj.pl","contact:website":"http:\/\/sp2izbicakuj.pl","ref:regon":"368119010","operator":"Gmina Izbica Kujawska","operator:type":"government","amenity":"school"}},{"id":61322,"type":"Feature","geometry":{"type":"Point","coordinates":[18.76032,52.42329]},"properties":{"ref:rspo":61322,"official_name":"Zesp\u00f3\u0142 Szk\u00f3\u0142 im. Jana Kasprowicza w Izbicy Kujawskiej","name":"Zesp\u00f3\u0142 Szk\u00f3\u0142","addr:country":"PL","addr:postcode":"87-865","addr:city":"Izbica Kujawska","addr:street":"ul. Nowomiejska","addr:housenumber":"5","addr:teryt:simc":14444,"addr:teryt:sym_ul":985734,"contact:phone":"+48 542866053","contact:email":"loizbica@poczta.onet.pl","contact:website":"http:\/\/www.loizbica.pl","ref:regon":"000237593","ref:vatin":"PL8891257554","operator":"Powiat W\u0142oc\u0142awski","operator:type":"government","landuse":"education","fixme":"amenity=school, amenity=college albo landuse=education w zale\u017cno\u015bci od tego, jakie plac\u00f3wki wchodz\u0105 w sk\u0142ad zespo\u0142u. Sprawd\u017a, kiedy stosowa\u0107 amenity=* a kiedy landuse=education.","note":"Children RSPO: 90514;90515;90521;90554;273051"}},{"id":90514,"type":"Feature","geometry":{"type":"Point","coordinates":[18.76032,52.42326]},"properties":{"isced:level":"3","ref:rspo":90514,"official_name":"Liceum Og\u00f3lnokszta\u0142c\u0105ce w Izbicy Kujawskiej","name":"Liceum Og\u00f3lnokszta\u0142c\u0105ce w Izbicy Kujawskiej","addr:country":"PL","addr:postcode":"87-865","addr:city":"Izbica Kujawska","addr:street":"ul. Nowomiejska","addr:housenumber":"5","addr:teryt:simc":14444,"addr:teryt:sym_ul":985734,"contact:phone":"+48 542866053","contact:email":"loizbica@poczta.onet.pl","contact:website":"http:\/\/www.loizbica1.prv.pl","ref:regon":"911295906","operator":"Powiat W\u0142oc\u0142awski","operator:type":"government","amenity":"school","note":"Parent RSPO: 61322"}},{"id":90515,"type":"Feature","geometry":{"type":"Point","coordinates":[18.76032,52.423230000000004]},"properties":{"isced:level":"3","ref:rspo":90515,"official_name":"Bran\u017cowa Szko\u0142a I Stopnia w Izbicy Kujawskiej","name":"Bran\u017cowa Szko\u0142a I Stopnia w Izbicy Kujawskiej","addr:country":"PL","addr:postcode":"87-865","addr:city":"Izbica Kujawska","addr:street":"ul. Nowomiejska","addr:housenumber":"5","addr:teryt:simc":14444,"addr:teryt:sym_ul":985734,"contact:phone":"+48 542866053","contact:email":"loizbica@poczta.onet.pl","contact:website":"http:\/\/www.loizbica1.prv.pl","ref:regon":"000704907","operator":"Powiat W\u0142oc\u0142awski","operator:type":"government","amenity":"school","note":"Parent RSPO: 61322"}},{"id":90521,"type":"Feature","geometry":{"type":"Point","coordinates":[18.76032,52.4232]},"properties":{"isced:level":"3","ref:rspo":90521,"official_name":"Liceum Og\u00f3lnokszta\u0142c\u0105ce dla Doros\u0142ych w Izbicy Kujawskiej","name":"Liceum Og\u00f3lnokszta\u0142c\u0105ce dla Doros\u0142ych w Izbicy Kujawskiej","addr:country":"PL","addr:postcode":"87-865","addr:city":"Izbica Kujawska","addr:street":"ul. Nowomiejska","addr:housenumber":"5","addr:teryt:simc":14444,"addr:teryt:sym_ul":985734,"contact:phone":"+48 542866053","contact:email":"loizbica@poczta.onet.pl","contact:website":"http:\/\/www.loizbica1.prv.pl","ref:regon":"340207054","operator":"Powiat W\u0142oc\u0142awski","operator:type":"government","amenity":"school","note":"Parent RSPO: 61322"}},{"id":90554,"type":"Feature","geometry":{"type":"Point","coordinates":[18.76032,52.42317]},"properties":{"isced:level":"4","ref:rspo":90554,"official_name":"Szko\u0142a Policealna w Izbicy Kujawskiej","name":"Szko\u0142a Policealna w Izbicy Kujawskiej","addr:country":"PL","addr:postcode":"87-865","addr:city":"Izbica Kujawska","addr:street":"ul. Nowomiejska","addr:housenumber":"5","addr:teryt:simc":14444,"addr:teryt:sym_ul":985734,"contact:phone":"+48 542866053","contact:email":"loizbica@poczta.onet.pl","contact:website":"http:\/\/www.loizbica1.prv.pl","ref:regon":"341356483","operator":"Powiat W\u0142oc\u0142awski","operator:type":"government","amenity":"college","note":"Parent RSPO: 61322"}},{"id":273051,"type":"Feature","geometry":{"type":"Point","coordinates":[18.76032,52.423140000000004]},"properties":{"isced:level":"3","ref:rspo":273051,"official_name":"Technikum w Izbicy Kujawskiej","name":"Technikum w Izbicy Kujawskiej","addr:country":"PL","addr:postcode":"87-865","addr:city":"Izbica Kujawska","addr:street":"ul. Nowomiejska","addr:housenumber":"5","addr:teryt:simc":14444,"addr:teryt:sym_ul":985734,"contact:phone":"+48 542866053","ref:regon":"384360028","operator":"Powiat W\u0142oc\u0142awski","operator:type":"government","amenity":"school","note":"Parent RSPO: 61322"}}]}