{"type":"FeatureCollection","features":[{"id":114883,"type":"Feature","geometry":{"type":"Point","coordinates":[19.026636123657,52.515983581543]},"properties":{"ref:rspo":114883,"official_name":"Plac\u00f3wka Kszta\u0142cenia Ustawicznego Aeroklubu W\u0142oc\u0142awskiego","name":"Plac\u00f3wka Kszta\u0142cenia Ustawicznego Aeroklubu W\u0142oc\u0142awskiego","addr:country":"PL","addr:postcode":"87-853","addr:place":"Kruszyn","addr:housenumber":"1","addr:teryt:sym_ul":871746,"contact:phone":"+48 542355444","contact:email":"biuro@aeroklub.wloclawek.pl","contact:website":"http:\/\/www.aeroklub.wloclawek.pl","ref:regon":"341437997","ref:vatin":"PL8880005754","operator":"Aeroklub W\u0142oc\u0142awski Im. Stanis\u0142awa Skar\u017cy\u0144skiego","operator:type":"ngo","fixme":"w zale\u017cno\u015bci od przedmiotu dzia\u0142alno\u015bci (np. amenity=training + training=*, amenity=dancing_school, amenity=language_school, amenity=music_school) albo amenity=school, amenity=college, albo landuse=education w zale\u017cno\u015bci od tego, jakie plac\u00f3wki wchodz\u0105 w sk\u0142ad zespo\u0142u. Sprawd\u017a, kiedy stosowa\u0107 amenity=* a kiedy landuse=education."}},{"id":35216,"type":"Feature","geometry":{"type":"Point","coordinates":[18.9942204,52.5699662]},"properties":{"isced:level":"1;2","ref:rspo":35216,"official_name":"Szko\u0142a Podstawowa Z Oddzia\u0142ami Integracyjnymi im. Polskich Noblist\u00f3w w Kruszynie","name":"Szko\u0142a Podstawowa Z Oddzia\u0142ami Integracyjnymi","addr:country":"PL","addr:postcode":"87-853","addr:city":"Kruszyn","addr:street":"ul. Szkolna","addr:housenumber":"15","addr:teryt:simc":21970,"addr:teryt:sym_ul":871746,"contact:phone":"+48 542528416","contact:email":"spzoi@spkruszyn.pl","contact:website":"http:\/\/spkruszyn.pl","ref:regon":"000206693","ref:vatin":"PL8883022902","operator":"Gmina W\u0142oc\u0142awek","operator:type":"government","amenity":"school"}},{"id":126114,"type":"Feature","geometry":{"type":"Point","coordinates":[18.995370864868,52.571640014648]},"properties":{"ref:rspo":126114,"official_name":"Plac\u00f3wka Kszta\u0142cenia Ustawicznego Dz Consulting","name":"Plac\u00f3wka Kszta\u0142cenia Ustawicznego Dz Consulting","addr:country":"PL","addr:postcode":"87-853","addr:place":"Kruszyn","addr:housenumber":"-","addr:door":"-","addr:teryt:sym_ul":871746,"contact:phone":"+48 506323322","ref:regon":"360150172","operator":"Dz Consulting Sp\u00f3\u0142ka Z Ograniczon\u0105 Odpowiedzialno\u015bci\u0105","operator:type":"private","fixme":"w zale\u017cno\u015bci od przedmiotu dzia\u0142alno\u015bci (np. amenity=training + training=*, amenity=dancing_school, amenity=language_school, amenity=music_school) albo amenity=school, amenity=college, albo landuse=education w zale\u017cno\u015bci od tego, jakie plac\u00f3wki wchodz\u0105 w sk\u0142ad zespo\u0142u. Sprawd\u017a, kiedy stosowa\u0107 amenity=* a kiedy landuse=education."}},{"id":273230,"type":"Feature","geometry":{"type":"Point","coordinates":[19.00584,52.58662]},"properties":{"ref:rspo":273230,"official_name":"Dron.edu.pl - Oddzia\u0142 W\u0142oc\u0142awek","name":"Dron.edu.pl - Oddzia\u0142 W\u0142oc\u0142awek","addr:country":"PL","addr:postcode":"87-853","addr:city":"Kruszyn","addr:street":"ul. Skrzydlata","addr:housenumber":"3","addr:teryt:simc":20158,"addr:teryt:sym_ul":871746,"contact:phone":"+48 606476220","ref:regon":"384415203","operator":"\u0141ukasz Wa\u015bniewski","operator:type":"private","fixme":"w zale\u017cno\u015bci od przedmiotu dzia\u0142alno\u015bci (np. amenity=training + training=*, amenity=dancing_school, amenity=language_school, amenity=music_school) albo amenity=school, amenity=college, albo landuse=education w zale\u017cno\u015bci od tego, jakie plac\u00f3wki wchodz\u0105 w sk\u0142ad zespo\u0142u. Sprawd\u017a, kiedy stosowa\u0107 amenity=* a kiedy landuse=education."}},{"id":38799,"type":"Feature","geometry":{"type":"Point","coordinates":[19.08701,52.59335]},"properties":{"isced:level":"1;2","ref:rspo":38799,"official_name":"Szko\u0142a Podstawowa Stowarzyszenia Przyjaci\u00f3\u0142 Szk\u00f3\u0142 Katolickich im. B\u0142.ks.franciszka Drzewieckiego","name":"Szko\u0142a Podstawowa Stowarzyszenia Przyjaci\u00f3\u0142 Szk\u00f3\u0142 Katolickich","addr:country":"PL","addr:postcode":"87-800","addr:city":"Warz\u0105chewka Polska","addr:street":"ul. Wsp\u00f3lna","addr:housenumber":"1","addr:teryt:simc":24885,"addr:teryt:sym_ul":872036,"contact:phone":"+48 542326951","contact:email":"warzachewka@spsk.info.pl","ref:regon":"341348615","ref:vatin":"PL8883013808","operator":"Stowarzyszenie Przyjaci\u00f3\u0142 Szk\u00f3\u0142 Katolickich","operator:type":"ngo","amenity":"school"}},{"id":109493,"type":"Feature","geometry":{"type":"Point","coordinates":[19.08701,52.59332]},"properties":{"ref:rspo":109493,"official_name":"Punkt Przedszkolny Stowarzyszenia Przyjaci\u00f3\u0142 Szk\u00f3\u0142 Katolickich","name":"Punkt Przedszkolny Stowarzyszenia Przyjaci\u00f3\u0142 Szk\u00f3\u0142 Katolickich","addr:country":"PL","addr:postcode":"87-800","addr:city":"Warz\u0105chewka Polska","addr:street":"ul. Wsp\u00f3lna","addr:housenumber":"1","addr:teryt:simc":24885,"addr:teryt:sym_ul":872036,"contact:phone":"+48 542326951","contact:email":"warzachewka@gmail.com","ref:regon":"341392467","ref:vatin":"PL8883117695","operator":"Stowarzyszenie Przyjaci\u00f3\u0142 Szk\u00f3\u0142 Katolickich","operator:type":"ngo","amenity":"kindergarten"}},{"id":35158,"type":"Feature","geometry":{"type":"Point","coordinates":[19.25178,52.60269]},"properties":{"isced:level":"1;2","ref:rspo":35158,"official_name":"Szko\u0142a Podstawowa Z Oddzia\u0142ami Integracyjnymi im. Janusza Korczaka w Sm\u00f3lniku","name":"Szko\u0142a Podstawowa Z Oddzia\u0142ami Integracyjnymi","addr:country":"PL","addr:postcode":"87-815","addr:place":"Sm\u00f3lnik","addr:housenumber":"17B","addr:teryt:sym_ul":871947,"contact:phone":"+48 542531627","contact:email":"sp.smolnik.sekretariat.edu@op.pl","contact:website":"http:\/\/www.spsmolnik.szkolna.net","ref:regon":"001138189","ref:vatin":"PL8883023238","operator":"Gmina W\u0142oc\u0142awek","operator:type":"government","amenity":"school"}},{"id":38795,"type":"Feature","geometry":{"type":"Point","coordinates":[19.19112,52.64393]},"properties":{"ref:rspo":38795,"official_name":"Punkt Przedszkolny Stowarzyszenia Przyjaci\u00f3\u0142 Szk\u00f3\u0142 Katolickich","name":"Punkt Przedszkolny Stowarzyszenia Przyjaci\u00f3\u0142 Szk\u00f3\u0142 Katolickich","addr:country":"PL","addr:postcode":"87-800","addr:place":"Modzerowo","addr:housenumber":"53a","addr:teryt:sym_ul":871812,"contact:phone":"+48 542339317","contact:email":"n.szkola.modzerowo@interia.pl","ref:regon":"341349342","ref:vatin":"PL8883116709","operator":"Stowarzyszenie Przyjaci\u00f3\u0142 Szk\u00f3\u0142 Katolickich","operator:type":"ngo","amenity":"kindergarten"}},{"id":38797,"type":"Feature","geometry":{"type":"Point","coordinates":[19.19112,52.643899999999995]},"properties":{"isced:level":"1;2","ref:rspo":38797,"official_name":"Szko\u0142a Podstawowa Stowarzyszenia Przyjaci\u00f3\u0142 Szk\u00f3\u0142 Katolickich im.b\u0142.jana Paw\u0142a Ii","name":"Szko\u0142a Podstawowa Stowarzyszenia Przyjaci\u00f3\u0142 Szk\u00f3\u0142 Katolickich im.b\u0142.jana Paw\u0142a Ii","addr:country":"PL","addr:postcode":"87-800","addr:place":"Modzerowo","addr:housenumber":"53a","addr:teryt:sym_ul":871812,"contact:phone":"+48 542339317","contact:email":"n.szkola.modzerowo@interia.pl","ref:regon":"341346651","ref:vatin":"PL8883017137","operator":"Stowarzyszenie Przyjaci\u00f3\u0142 Szk\u00f3\u0142 Katolickich","operator:type":"ngo","amenity":"school"}},{"id":272906,"type":"Feature","geometry":{"type":"Point","coordinates":[19.19112,52.64387]},"properties":{"isced:level":"3","ref:rspo":272906,"official_name":"Liceum Og\u00f3lnokszta\u0142ac\u0105ce Stowarzyszenia Przyjaci\u00f3\u0142 Szk\u00f3\u0142 Katolickich im. B\u0142. Ksi\u0119dza Jerzego Popie\u0142uszki","name":"Liceum Og\u00f3lnokszta\u0142ac\u0105ce Stowarzyszenia Przyjaci\u00f3\u0142 Szk\u00f3\u0142 Katolickich","addr:country":"PL","addr:postcode":"87-800","addr:place":"Modzerowo","addr:housenumber":"53A","addr:teryt:sym_ul":871812,"contact:phone":"+48 542339317","contact:email":"modzerowo@spsk.info.pl","ref:regon":"384314531","operator":"Stowarzyszenie Przyjaci\u00f3\u0142 Szk\u00f3\u0142 Katolickich","operator:type":"ngo","amenity":"school"}}]}