{
    "type": "FeatureCollection",
    "features": [
        {
            "id": 87095,
            "type": "Feature",
            "geometry": {
                "type": "Point",
                "coordinates": [
                    19.02582,
                    52.40746
                ]
            },
            "properties": {
                "ref:rspo": 87095,
                "official_name": "Przedszkole Samorz\u0105dowe w Chodczu",
                "name": "Przedszkole Samorz\u0105dowe w Chodczu",
                "addr:postcode": "87-860",
                "addr:city": "Chodecz",
                "addr:street": "Ludwika Wary\u0144skiego",
                "addr:housenumber": "16",
                "addr:city:simc": 985562,
                "addr:street:sym_ul": 23703,
                "email": "przedszkolechodecz@gmail.com",
                "website": "http:\/\/www.przedszkole.chodecz.pl",
                "ref:regon": "910004500",
                "ref:vatin": "PL8883131347",
                "operator": "Miasto I Gmina Chodecz",
                "operator:type": "government",
                "amenity": "kindergarten"
            }
        },
        {
            "id": 84802,
            "type": "Feature",
            "geometry": {
                "type": "Point",
                "coordinates": [
                    19.02653,
                    52.40788
                ]
            },
            "properties": {
                "isced:level": "1;2",
                "ref:rspo": 84802,
                "official_name": "Szko\u0142a Podstawowa im.tadeusza Ko\u015bciuszki w Chodczu",
                "name": "Szko\u0142a Podstawowa im.tadeusza Ko\u015bciuszki w Chodczu",
                "addr:postcode": "87-860",
                "addr:city": "Chodecz",
                "addr:street": "Ludwika Wary\u0144skiego",
                "addr:housenumber": "20",
                "addr:city:simc": 985562,
                "addr:street:sym_ul": 23703,
                "phone": "+48 542848001",
                "email": "spchodecz@gmail.com",
                "website": "http:\/\/spchodecz.pl",
                "ref:regon": "000263521",
                "ref:vatin": "PL8881859642",
                "operator": "Miasto I Gmina Chodecz",
                "operator:type": "government",
                "amenity": "school"
            }
        },
        {
            "id": 275044,
            "type": "Feature",
            "geometry": {
                "type": "Point",
                "coordinates": [
                    19.00544,
                    52.43314
                ]
            },
            "properties": {
                "ref:rspo": 275044,
                "official_name": "Powiatowe Centrum Kszta\u0142cenia Zawodowego I Ustawicznego w Lubie\u0144cu",
                "name": "Powiatowe Centrum Kszta\u0142cenia Zawodowego I Ustawicznego w Lubie\u0144cu",
                "addr:postcode": "87-860",
                "addr:place": "Lubieniec",
                "addr:housenumber": "40",
                "addr:city:simc": 860814,
                "email": "zsrchodecz@poczta.onet.pl",
                "website": "http:\/\/centrumksztalcenia-chodecz.pl",
                "ref:regon": "386520714",
                "operator": "Powiat W\u0142oc\u0142awski",
                "operator:type": "government",
                "landuse": "education",
                "fixme": "amenity=school, amenity=college albo landuse=education w zale\u017cno\u015bci od tego, jakie plac\u00f3wki wchodz\u0105 w sk\u0142ad zespo\u0142u. Sprawd\u017a, kiedy stosowa\u0107 amenity=* a kiedy landuse=education.",
                "note": "Children RSPO: 91895;92030;107512;274513;275024"
            }
        },
        {
            "id": 91895,
            "type": "Feature",
            "geometry": {
                "type": "Point",
                "coordinates": [
                    19.00544,
                    52.43311
                ]
            },
            "properties": {
                "isced:level": "3",
                "ref:rspo": 91895,
                "official_name": "Bran\u017cowa Szko\u0142a I Stopnia w Lubie\u0144cu",
                "name": "Bran\u017cowa Szko\u0142a I Stopnia w Lubie\u0144cu",
                "addr:postcode": "87-860",
                "addr:place": "Lubieniec",
                "addr:housenumber": "40",
                "addr:city:simc": 860814,
                "email": "zsrchodecz@poczta.onet.pl",
                "website": "http:\/\/www.centrumksztalcenia-chodecz.pl",
                "ref:regon": "000691381",
                "operator": "Powiat W\u0142oc\u0142awski",
                "operator:type": "government",
                "amenity": "school",
                "note": "Parent RSPO: 275044"
            }
        },
        {
            "id": 92030,
            "type": "Feature",
            "geometry": {
                "type": "Point",
                "coordinates": [
                    19.00544,
                    52.433080000000004
                ]
            },
            "properties": {
                "isced:level": "3",
                "ref:rspo": 92030,
                "official_name": "Technikum w Lubie\u0144cu",
                "name": "Technikum w Lubie\u0144cu",
                "addr:postcode": "87-860",
                "addr:place": "Lubieniec",
                "addr:housenumber": "40",
                "addr:city:simc": 860814,
                "email": "zsrchodecz@poczta.onet.pl",
                "website": "http:\/\/centrumksztalcenia-chodecz.pl",
                "ref:regon": "911255692",
                "operator": "Powiat W\u0142oc\u0142awski",
                "operator:type": "government",
                "amenity": "school",
                "note": "Parent RSPO: 275044"
            }
        },
        {
            "id": 107512,
            "type": "Feature",
            "geometry": {
                "type": "Point",
                "coordinates": [
                    19.00544,
                    52.43305
                ]
            },
            "properties": {
                "isced:level": "4",
                "ref:rspo": 107512,
                "official_name": "Szko\u0142a Policealna w Lubie\u0144cu",
                "name": "Szko\u0142a Policealna w Lubie\u0144cu",
                "addr:postcode": "87-860",
                "addr:place": "Lubieniec",
                "addr:housenumber": "40",
                "addr:city:simc": 860814,
                "phone": "+48 542848098",
                "email": "zsrchodecz@poczta.onet.pl",
                "website": "http:\/\/wp.zespol-szkol.pl",
                "ref:regon": "341385415",
                "operator": "Powiat W\u0142oc\u0142awski",
                "operator:type": "government",
                "amenity": "college",
                "note": "Parent RSPO: 275044"
            }
        },
        {
            "id": 274513,
            "type": "Feature",
            "geometry": {
                "type": "Point",
                "coordinates": [
                    19.00544,
                    52.43302
                ]
            },
            "properties": {
                "ref:rspo": 274513,
                "official_name": "Powiatowe Centrum Kszta\u0142cenia Zawodowego w Lubie\u0144cu",
                "name": "Powiatowe Centrum Kszta\u0142cenia Zawodowego w Lubie\u0144cu",
                "addr:postcode": "87-800",
                "addr:place": "Lubieniec",
                "addr:housenumber": "40",
                "addr:city:simc": 860814,
                "ref:regon": "385884176",
                "operator": "Powiat W\u0142oc\u0142awski",
                "operator:type": "government",
                "fixme": "w zale\u017cno\u015bci od przedmiotu dzia\u0142alno\u015bci (np. amenity=training + training=*, amenity=dancing_school, amenity=language_school, amenity=music_school) albo amenity=school, amenity=college, albo landuse=education w zale\u017cno\u015bci od tego, jakie plac\u00f3wki wchodz\u0105 w sk\u0142ad zespo\u0142u. Sprawd\u017a, kiedy stosowa\u0107 amenity=* a kiedy landuse=education.",
                "note": "Parent RSPO: 275044"
            }
        },
        {
            "id": 275024,
            "type": "Feature",
            "geometry": {
                "type": "Point",
                "coordinates": [
                    19.00544,
                    52.432990000000004
                ]
            },
            "properties": {
                "isced:level": "3",
                "ref:rspo": 275024,
                "official_name": "Bran\u017cowa Szko\u0142a II Stopnia w Lubie\u0144cu",
                "name": "Bran\u017cowa Szko\u0142a II Stopnia w Lubie\u0144cu",
                "addr:postcode": "87-860",
                "addr:place": "Lubieniec",
                "addr:housenumber": "40",
                "addr:city:simc": 860814,
                "ref:regon": "386507151",
                "operator": "Powiat W\u0142oc\u0142awski",
                "operator:type": "government",
                "amenity": "school",
                "note": "Parent RSPO: 275044"
            }
        }
    ]
}