{
    "type": "FeatureCollection",
    "features": [
        {
            "id": 278954,
            "type": "Feature",
            "geometry": {
                "type": "Point",
                "coordinates": [
                    19.14338,
                    52.5252
                ]
            },
            "properties": {
                "ref:rspo": 278954,
                "official_name": "Centrum Kszta\u0142cenia Zawodowego \"Delta\" Bogdan Harmata",
                "name": "Centrum Kszta\u0142cenia Zawodowego \"Delta\" Bogdan Harmata",
                "addr:postcode": "87-820",
                "addr:city": "Kowal",
                "addr:street": "Wojska Polskiego",
                "addr:housenumber": "13",
                "addr:city:simc": 985786,
                "addr:street:sym_ul": 24628,
                "phone": "+48 774646943",
                "email": "biuro@odtj.opole.pl",
                "ref:regon": "520302767",
                "operator": "Centrum Szkolenia Kierowc\u00f3w I Doskonalenia Techniki Jazdy Delta Bogdan Harmata",
                "operator:type": "private",
                "fixme": "w zale\u017cno\u015bci od przedmiotu dzia\u0142alno\u015bci (np. amenity=training + training=*, amenity=dancing_school, amenity=language_school, amenity=music_school) albo amenity=school, amenity=college, albo landuse=education w zale\u017cno\u015bci od tego, jakie plac\u00f3wki wchodz\u0105 w sk\u0142ad zespo\u0142u. Sprawd\u017a, kiedy stosowa\u0107 amenity=* a kiedy landuse=education."
            }
        },
        {
            "id": 278920,
            "type": "Feature",
            "geometry": {
                "type": "Point",
                "coordinates": [
                    19.14763,
                    52.52702
                ]
            },
            "properties": {
                "ref:rspo": 278920,
                "official_name": "O\u015brodek Szkolenia Kierowc\u00f3w Krzysztof Milczarek",
                "name": "O\u015brodek Szkolenia Kierowc\u00f3w Krzysztof Milczarek",
                "addr:postcode": "87-820",
                "addr:city": "Kowal",
                "addr:street": "Wojska Polskiego",
                "addr:housenumber": "6",
                "addr:city:simc": 985786,
                "addr:street:sym_ul": 24628,
                "phone": "+48 608800444",
                "email": "milczarek14@wp.pl",
                "ref:regon": "520197365",
                "operator": "Krzysztof Milczarek",
                "operator:type": "private",
                "fixme": "w zale\u017cno\u015bci od przedmiotu dzia\u0142alno\u015bci (np. amenity=training + training=*, amenity=dancing_school, amenity=language_school, amenity=music_school) albo amenity=school, amenity=college, albo landuse=education w zale\u017cno\u015bci od tego, jakie plac\u00f3wki wchodz\u0105 w sk\u0142ad zespo\u0142u. Sprawd\u017a, kiedy stosowa\u0107 amenity=* a kiedy landuse=education."
            }
        },
        {
            "id": 29555,
            "type": "Feature",
            "geometry": {
                "type": "Point",
                "coordinates": [
                    19.14899,
                    52.53178
                ]
            },
            "properties": {
                "ref:rspo": 29555,
                "official_name": "Zesp\u00f3\u0142 Szk\u00f3\u0142 Centrum Kszta\u0142cenia Rolniczego im. Kazimierza Wielkiego w Kowalu",
                "name": "Zesp\u00f3\u0142 Szk\u00f3\u0142 Centrum Kszta\u0142cenia Rolniczego",
                "addr:postcode": "87-820",
                "addr:city": "Kowal",
                "addr:street": "Kazimierza Wielkiego",
                "addr:housenumber": "9",
                "addr:city:simc": 985786,
                "addr:street:sym_ul": 8265,
                "phone": "+48 542842219",
                "email": "zskowal@zskowal.edu.pl",
                "website": "http:\/\/www.zskowal.edu.pl",
                "ref:regon": "000691375",
                "ref:vatin": "PL8881145138",
                "operator": "Ministerstwo Rolnictwa I Rozwoju Wsi",
                "operator:type": "public",
                "landuse": "education",
                "fixme": "amenity=school, amenity=college albo landuse=education w zale\u017cno\u015bci od tego, jakie plac\u00f3wki wchodz\u0105 w sk\u0142ad zespo\u0142u. Sprawd\u017a, kiedy stosowa\u0107 amenity=* a kiedy landuse=education.",
                "note": "Children RSPO: 71810;71811;71814;71816;276187"
            }
        },
        {
            "id": 71810,
            "type": "Feature",
            "geometry": {
                "type": "Point",
                "coordinates": [
                    19.14899,
                    52.531749999999995
                ]
            },
            "properties": {
                "isced:level": "3",
                "ref:rspo": 71810,
                "official_name": "Technikum w Kowalu",
                "name": "Technikum w Kowalu",
                "addr:postcode": "87-820",
                "addr:city": "Kowal",
                "addr:street": "Kazimierza Wielkiego",
                "addr:housenumber": "9",
                "addr:city:simc": 985786,
                "addr:street:sym_ul": 8265,
                "phone": "+48 542842219",
                "email": "zskowal@zskowal.edu.pl",
                "website": "http:\/\/www.zskowal.edu.pl",
                "ref:regon": "910950250",
                "operator": "Ministerstwo Rolnictwa I Rozwoju Wsi",
                "operator:type": "public",
                "amenity": "school",
                "note": "Parent RSPO: 29555"
            }
        },
        {
            "id": 71811,
            "type": "Feature",
            "geometry": {
                "type": "Point",
                "coordinates": [
                    19.14899,
                    52.53172
                ]
            },
            "properties": {
                "isced:level": "3",
                "ref:rspo": 71811,
                "official_name": "Bran\u017cowa Szko\u0142a I Stopnia w Kowalu",
                "name": "Bran\u017cowa Szko\u0142a I Stopnia w Kowalu",
                "addr:postcode": "87-820",
                "addr:city": "Kowal",
                "addr:street": "Kazimierza Wielkiego",
                "addr:housenumber": "9",
                "addr:city:simc": 985786,
                "addr:street:sym_ul": 8265,
                "phone": "+48 542842219",
                "email": "zskowal@zskowal.edu.pl",
                "website": "http:\/\/www.zskowal.edu.pl",
                "ref:regon": "910950289",
                "operator": "Ministerstwo Rolnictwa I Rozwoju Wsi",
                "operator:type": "public",
                "amenity": "school",
                "note": "Parent RSPO: 29555"
            }
        },
        {
            "id": 71814,
            "type": "Feature",
            "geometry": {
                "type": "Point",
                "coordinates": [
                    19.14899,
                    52.53169
                ]
            },
            "properties": {
                "isced:level": "4",
                "ref:rspo": 71814,
                "official_name": "Szko\u0142a Policealna w Kowalu",
                "name": "Szko\u0142a Policealna w Kowalu",
                "addr:postcode": "87-820",
                "addr:city": "Kowal",
                "addr:street": "Kazimierza Wielkiego",
                "addr:housenumber": "9",
                "addr:city:simc": 985786,
                "addr:street:sym_ul": 8265,
                "phone": "+48 542842219",
                "email": "zskowal@zskowal.edu.pl",
                "website": "http:\/\/www.zskowal.edu.pl",
                "ref:regon": "910950295",
                "operator": "Ministerstwo Rolnictwa I Rozwoju Wsi",
                "operator:type": "public",
                "amenity": "college",
                "note": "Parent RSPO: 29555"
            }
        },
        {
            "id": 71816,
            "type": "Feature",
            "geometry": {
                "type": "Point",
                "coordinates": [
                    19.14899,
                    52.531659999999995
                ]
            },
            "properties": {
                "ref:rspo": 71816,
                "official_name": "Centrum Kszta\u0142cenia Ustawicznego w Kowalu",
                "name": "Centrum Kszta\u0142cenia Ustawicznego w Kowalu",
                "addr:postcode": "87-820",
                "addr:city": "Kowal",
                "addr:street": "Kazimierza Wielkiego",
                "addr:housenumber": "9",
                "addr:city:simc": 985786,
                "addr:street:sym_ul": 8265,
                "phone": "+48 542842219",
                "email": "zskowal@zskowal.edu.pl",
                "website": "http:\/\/www.zskowal.edu.pl",
                "ref:regon": "341348740",
                "operator": "Ministerstwo Rolnictwa I Rozwoju Wsi",
                "operator:type": "public",
                "fixme": "w zale\u017cno\u015bci od przedmiotu dzia\u0142alno\u015bci (np. amenity=training + training=*, amenity=dancing_school, amenity=language_school, amenity=music_school)",
                "note": "Parent RSPO: 29555"
            }
        },
        {
            "id": 276187,
            "type": "Feature",
            "geometry": {
                "type": "Point",
                "coordinates": [
                    19.14899,
                    52.53163
                ]
            },
            "properties": {
                "isced:level": "3",
                "ref:rspo": 276187,
                "official_name": "Bran\u017cowa Szko\u0142a II Stopnia w Kowalu",
                "name": "Bran\u017cowa Szko\u0142a II Stopnia w Kowalu",
                "addr:postcode": "87-820",
                "addr:city": "Kowal",
                "addr:street": "Kazimierza Wielkiego",
                "addr:housenumber": "9",
                "addr:city:simc": 985786,
                "addr:street:sym_ul": 8265,
                "phone": "+48 542842219",
                "email": "zskowal@zskowal.edu.pl",
                "website": "http:\/\/www.zskowal.edu.pl\/",
                "ref:regon": "387026169",
                "operator": "Ministerstwo Rolnictwa I Rozwoju Wsi",
                "operator:type": "public",
                "amenity": "school",
                "note": "Parent RSPO: 29555"
            }
        },
        {
            "id": 108713,
            "type": "Feature",
            "geometry": {
                "type": "Point",
                "coordinates": [
                    19.15638,
                    52.53307
                ]
            },
            "properties": {
                "isced:level": "1;2",
                "ref:rspo": 108713,
                "official_name": "Szko\u0142a Podstawowa im. Kazimierza Wielkiego",
                "name": "Szko\u0142a Podstawowa",
                "addr:postcode": "87-820",
                "addr:city": "Kowal",
                "addr:street": "Piwna",
                "addr:housenumber": "20",
                "addr:city:simc": 985786,
                "addr:street:sym_ul": 16370,
                "phone": "+48 542842317",
                "email": "spkowal@kowal.eu",
                "website": "http:\/\/www.spkowal.pl",
                "ref:regon": "000264414",
                "ref:vatin": "PL8883121515",
                "operator": "Gmina Miasto Kowal",
                "operator:type": "government",
                "amenity": "school"
            }
        },
        {
            "id": 108715,
            "type": "Feature",
            "geometry": {
                "type": "Point",
                "coordinates": [
                    19.15638,
                    52.53304
                ]
            },
            "properties": {
                "ref:rspo": 108715,
                "official_name": "Przedszkole Miejskie",
                "name": "Przedszkole Miejskie",
                "addr:postcode": "87-820",
                "addr:city": "Kowal",
                "addr:street": "Piwna",
                "addr:housenumber": "20",
                "addr:city:simc": 985786,
                "addr:street:sym_ul": 16370,
                "phone": "+48 542842375",
                "email": "przedszkolemiejskiekowal@op.pl",
                "ref:regon": "910004775",
                "ref:vatin": "PL8883121521",
                "operator": "Gmina Miasto Kowal",
                "operator:type": "government",
                "amenity": "kindergarten"
            }
        },
        {
            "id": 115387,
            "type": "Feature",
            "geometry": {
                "type": "Point",
                "coordinates": [
                    19.15638,
                    52.533010000000004
                ]
            },
            "properties": {
                "ref:rspo": 115387,
                "official_name": "Zesp\u00f3\u0142 Szk\u00f3\u0142 w Kowalu",
                "name": "Zesp\u00f3\u0142 Szk\u00f3\u0142 w Kowalu",
                "addr:postcode": "87-820",
                "addr:city": "Kowal",
                "addr:street": "Piwna",
                "addr:housenumber": "20",
                "addr:city:simc": 985786,
                "addr:street:sym_ul": 16370,
                "phone": "+48 542841819",
                "email": "sekretariat@zskowal.pl",
                "website": "http:\/\/www.zskowal.pl",
                "ref:regon": "341450638",
                "operator": "Powiat W\u0142oc\u0142awski",
                "operator:type": "government",
                "landuse": "education",
                "fixme": "amenity=school, amenity=college albo landuse=education w zale\u017cno\u015bci od tego, jakie plac\u00f3wki wchodz\u0105 w sk\u0142ad zespo\u0142u. Sprawd\u017a, kiedy stosowa\u0107 amenity=* a kiedy landuse=education.",
                "note": "Children RSPO: 63986;82558;115522;275237"
            }
        },
        {
            "id": 63986,
            "type": "Feature",
            "geometry": {
                "type": "Point",
                "coordinates": [
                    19.15638,
                    52.53298
                ]
            },
            "properties": {
                "isced:level": "3",
                "ref:rspo": 63986,
                "official_name": "Liceum Og\u00f3lnokszta\u0142c\u0105ce dla Doros\u0142ych im. \u015aw. Jana Paw\u0142a II w Kowalu",
                "name": "Liceum Og\u00f3lnokszta\u0142c\u0105ce dla Doros\u0142ych",
                "addr:postcode": "87-820",
                "addr:city": "Kowal",
                "addr:street": "Piwna",
                "addr:housenumber": "20",
                "addr:city:simc": 985786,
                "addr:street:sym_ul": 16370,
                "phone": "+48 542841819",
                "email": "sekretariat@zskowal.pl",
                "website": "http:\/\/www.zskowal.pl",
                "ref:regon": "340490179",
                "ref:vatin": "PL8883025390",
                "operator": "Powiat W\u0142oc\u0142awski",
                "operator:type": "government",
                "amenity": "school",
                "note": "Parent RSPO: 115387"
            }
        },
        {
            "id": 82558,
            "type": "Feature",
            "geometry": {
                "type": "Point",
                "coordinates": [
                    19.15638,
                    52.53295
                ]
            },
            "properties": {
                "isced:level": "3",
                "ref:rspo": 82558,
                "official_name": "Liceum Og\u00f3lnokszta\u0142c\u0105ce im. Kr\u00f3lowej Jadwigi w Kowalu",
                "name": "Liceum Og\u00f3lnokszta\u0142c\u0105ce",
                "addr:postcode": "87-820",
                "addr:city": "Kowal",
                "addr:street": "Piwna",
                "addr:housenumber": "20",
                "addr:city:simc": 985786,
                "addr:street:sym_ul": 16370,
                "phone": "+48 542841819",
                "email": "sekretariat@zskowal.pl",
                "website": "http:\/\/www.lokowal.pl",
                "ref:regon": "000213954",
                "ref:vatin": "PL8881881038",
                "operator": "Powiat W\u0142oc\u0142awski",
                "operator:type": "government",
                "amenity": "school",
                "note": "Parent RSPO: 115387"
            }
        },
        {
            "id": 115522,
            "type": "Feature",
            "geometry": {
                "type": "Point",
                "coordinates": [
                    19.15638,
                    52.532920000000004
                ]
            },
            "properties": {
                "isced:level": "4",
                "ref:rspo": 115522,
                "official_name": "Szko\u0142a Policealna im. \u015aw. Jana Paw\u0142a II w Kowalu",
                "name": "Szko\u0142a Policealna",
                "addr:postcode": "87-820",
                "addr:city": "Kowal",
                "addr:street": "Piwna",
                "addr:housenumber": "20",
                "addr:city:simc": 985786,
                "addr:street:sym_ul": 16370,
                "phone": "+48 542841819",
                "email": "sekretariat@zskowal.pl",
                "website": "http:\/\/www.zskowal.pl",
                "ref:regon": "341453252",
                "operator": "Powiat W\u0142oc\u0142awski",
                "operator:type": "government",
                "amenity": "college",
                "note": "Parent RSPO: 115387"
            }
        },
        {
            "id": 275237,
            "type": "Feature",
            "geometry": {
                "type": "Point",
                "coordinates": [
                    19.15638,
                    52.53289
                ]
            },
            "properties": {
                "isced:level": "3",
                "ref:rspo": 275237,
                "official_name": "Technikum w Kowalu",
                "name": "Technikum w Kowalu",
                "addr:postcode": "87-820",
                "addr:city": "Kowal",
                "addr:street": "Piwna",
                "addr:housenumber": "20",
                "addr:city:simc": 985786,
                "addr:street:sym_ul": 16370,
                "phone": "+48 542841819",
                "email": "sekretariat@zskowal.pl",
                "website": "http:\/\/www.zskowal.pl",
                "ref:regon": "386726172",
                "operator": "Powiat W\u0142oc\u0142awski",
                "operator:type": "government",
                "amenity": "school",
                "note": "Parent RSPO: 115387"
            }
        }
    ]
}